Origin Time       2025/01/13 21:19:00
Lat.              31.8
Long.             131.6
Depth. (km)       30
Mag.              6.9
Station Code      EHMH09
Station Lat.      33.4719
Station Long.     132.3072
Station Height(m) -145
Record Time       2025/01/13 21:20:07
Sampling Freq(Hz) 100Hz
Duration Time(s)  152
Dir.              3
Scale Factor      3923(gal)/8224838
Max. Acc. (gal)   2.145
Last Correction   2025/01/13 21:20:08
Memo.             
[...]
   -7435    -7358    -7268    -7180    -7117    -7107    -7138    -7173 
   -7192    -7211    -7258    -7318    -7361    -7385    -7410    -7431 
   -7434    -7425    -7435    -7489    -7560    -7574    -7520    -7462 
   -7419    -7381    -7349    -7285    -7196    -7111    -7024    -6945 
   -6893    -6847    -6798    -6729    -6654    -6629    -6659    -6712 
   -6801    -6939    -7075    -7177    -7277    -7365    -7399    -7408 
   -7426    -7442    -7466    -7501    -7497    -7439    -7364    -7284 
   -7195    -7132    -7105    -7069    -7018    -6998    -7009    -6999 
   -6947    -6870    -6764    -6620    -6507    -6465    -6447    -6443 
   -6494    -6609    -6758    -6910    -7042    -7155    -7245    -7300 
   -7342    -7369    -7368    -7380    -7419    -7416    -7366    -7342 
   -7357    -7352    -7319    -7327    -7393    -7449    -7437    -7368 
   -7302    -7291    -7321    -7337    -7318    -7315    -7361    -7391 
   -7377    -7368    -7376    -7380    -7389    -7407    -7423    -7439 
   -7460    -7481    -7519    -7574    -7607    -7622    -7661    -7695 
   -7711    -7759    -7835    -7889    -7913    -7908    -7855    -7766 
   -7657    -7530    -7393    -7272    -7195    -7186    -7196    -7184 
   -7184    -7225    -7264    -7284    -7307    -7311    -7264    -7202 
   -7169    -7153    -7130    -7103    -7096    -7114    -7136    -7138 
   -7125    -7122    -7160    -7240    -7330    -7399    -7445    -7500 
   -7600    -7753    -7936    -8114    -8255    -8333    -8356    -8359 
   -8371    -8394    -8402    -8383    -8347    -8289    -8216    -8152 
   -8091    -8013    -7919    -7800    -7657    -7541    -7461    -7356 
   -7236    -7137    -7059    -6986    -6918    -6885    -6876    -6836 
   -6768    -6729    -6717    -6696    -6678    -6714    -6814    -6941 
   -7056    -7141    -7207    -7269    -7344    -7423    -7473    -7483 
   -7481    -7472    -7458    -7453    -7431    -7407    -7410    -7416 
   -7429    -7476    -7535    -7587    -7663    -7773    -7863    -7923 
   -7994    -8077    -8133    -8152    -8140    -8104    -8056    -8016 
   -7974    -7902    -7823    -7769    -7720    -7631    -7507    -7368 
   -7240    -7125    -7009    -6891    -6805    -6767    -6781    -6844 
   -6913    -6957    -7009    -7068    -7114    -7160    -7215    -7272 
   -7338    -7423    -7507    -7560    -7587    -7611    -7616    -7588 
   -7584    -7642    -7693    -7695    -7676    -7655    -7636    -7620 
   -7582    -7474    -7326    -7217    -7142    -7082    -7049    -7020 
   -6967    -6948    -6986    -7037    -7101    -7164    -7210    -7276 
   -7400    -7573    -7750    -7870    -7915    -7913    -7894    -7870 
   -7858    -7825    -7736    -7618    -7499    -7377    -7257    -7125 
   -6957    -6777    -6635    -6547    -6497    -6490    -6521    -6548 
   -6559    -6597    -6701    -6851    -7009    -7152    -7249    -7290 
   -7304    -7310    -7298    -7269    -7222    -7161    -7133    -7149 
   -7172    -7190    -7199    -7183    -7159    -7155    -7153    -7125 
   -7095    -7103    -7134    -7163    -7179    -7180    -7183    -7202 
   -7199    -7165    -7133    -7109    -7086    -7094    -7145    -7200 
   -7248    -7302    -7364    -7414    -7434    -7452    -7472    -7499 
   -7554    -7601    -7580    -7491    -7379    -7298    -7252    -7215 
   -7184    -7159    -7152    -7175    -7213    -7265    -7319    -7361 
   -7402    -7449    -7520    -7624    -7726    -7803    -7866    -7915 
   -7955    -7977    -7946    -7888    -7843    -7790    -7715    -7618 
   -7484    -7334    -7231    -7210    -7230    -7225    -7203    -7196 
   -7188    -7176    -7157    -7084    -6971    -6891    -6852    -6825 
   -6820    -6856    -6918    -6984    -7055    -7121    -7177    -7253 
   -7371    -7496    -7607    -7712    -7812    -7915    -8012    -8059 
   -8025    -7929    -7819    -7713    -7623    -7553    -7491    -7425 
   -7352    -7272    -7206    -7152    -7080    -6980    -6874    -6783 
   -6712    -6639    -6573    -6520    -6459    -6388    -6318    -6251 
   -6223    -6246    -6265    -6258    -6276    -6313    -6335    -6362 
   -6415    -6475    -6527    -6589    -6681    -6781    -6876    -6976 
   -7099    -7245    -7381    -7491    -7580    -7658    -7723    -7777 
   -7831    -7886    -7929    -7955    -7982    -8033    -8093    -8131 
   -8155    -8160    -8162    -8189    -8209    -8195    -8176    -8125 
   -8014    -7925    -7912    -7905    -7850    -7777    -7708    -7620 
   -7520    -7423    -7341    -7295    -7268    -7210    -7106    -6971 
   -6821    -6693    -6612    -6556    -6480    -6369    -6264    -6214 
   -6219    -6250    -6300    -6365    -6443    -6558    -6702    -6822 
   -6920    -7055    -7263    -7514    -7732    -7881    -7992    -8079 
   -8113    -8081    -8021    -7981    -7956    -7913    -7838    -7757 
   -7704    -7673    -7619    -7522    -7380    -7219    -7083    -6957 
   -6814    -6687    -6600    -6525    -6462    -6419    -6412    -6480 
   -6612    -6750    -6872    -7001    -7130    -7237    -7310    -7349 
   -7360    -7362    -7384    -7423    -7464    -7499    -7516    -7503 
   -7470    -7429    -7371    -7285    -7173    -7048    -6940    -6874 
   -6828    -6785    -6758    -6758    -6805    -6903    -7017    -7119 
   -7202    -7277    -7381    -7523    -7669    -7788    -7878    -7942 
   -7977    -7992    -7960    -7859    -7740    -7634    -7511    -7373 
   -7248    -7163    -7107    -7041    -6974    -6918    -6843    -6759 
   -6717    -6709    -6700    -6681    -6674    -6691    -6752    -6847 
   -6932    -7003    -7095    -7182    -7265    -7406    -7589    -7765 
   -7928    -8060    -8136    -8190    -8229    -8214    -8167    -8139 
   -8087    -7983    -7890    -7823    -7717    -7554    -7348    -7144 
   -7032    -7026    -7074    -7128    -7148    -7134    -7134    -7140 
   -7109    -7060    -7060    -7109    -7163    -7211    -7245    -7250 
   -7244    -7248    -7267    -7276    -7242    -7183    -7175    -7211 
   -7210    -7172    -7159    -7171    -7182    -7209    -7269    -7356 
   -7434    -7466    -7452    -7441    -7464    -7516    -7577    -7634 
   -7727    -7863    -7998    -8108    -8175    -8202    -8222    -8228 
   -8193    -8117    -8008    -7893    -7788    -7674    -7565    -7504 
   -7507    -7523    -7543    -7605    -7685    -7720    -7724    -7716 
   -7699    -7715    -7767    -7801    -7820    -7842    -7839    -7812 
   -7796    -7790    -7794    -7827    -7858    -7854    -7835    -7828 
   -7825    -7816    -7790    -7747    -7715    -7703    -7682    -7627 
   -7555    -7510    -7489    -7446    -7385    -7348    -7326    -7325 
   -7350    -7371    -7368    -7329    -7264    -7242    -7288    -7335 
   -7352    -7391    -7477    -7572    -7632    -7654    -7641    -7593 
   -7528    -7453    -7371    -7315    -7291    -7236    -7140    -7060 
   -6980    -6871    -6782    -6728    -6677    -6639    -6640    -6652 
   -6670    -6729    -6814    -6859    -6859    -6853    -6848    -6828 
   -6813    -6825    -6845    -6848    -6845    -6841    -6831    -6822 
   -6821    -6809    -6802    -6799    -6797    -6832    -6921    -7026 
   -7096    -7121    -7142    -7177    -7184    -7156    -7142    -7122 
   -7055    -6978    -6933    -6906    -6863    -6804    -6752    -6717 
   -6696    -6682    -6646    -6563    -6459    -6378    -6347    -6362 
   -6394    -6411    -6404    -6419    -6477    -6528    -6544    -6536 
   -6509    -6484    -6478    -6482    -6469    -6442    -6444    -6502 
   -6597    -6701    -6810    -6909    -6982    -7030    -7056    -7063 
   -7064    -7084    -7122    -7169    -7226    -7287    -7354    -7406 
   -7430    -7468    -7510    -7493    -7452    -7441    -7429    -7372 
   -7306    -7277    -7277    -7296    -7360    -7452    -7510    -7534 
   -7551    -7535    -7474    -7427    -7422    -7445    -7503    -7591 
   -7674    -7744    -7805    -7839    -7827    -7782    -7730    -7682 
   -7642    -7618    -7603    -7569    -7500    -7434    -7443    -7520 
   -7578    -7584    -7577    -7558    -7499    -7380    -7203    -7026 
   -6925    -6903    -6926    -6957    -6951    -6907    -6880    -6867 
   -6833    -6804    -6806    -6845    -6940    -7055    -7121    -7161 
   -7226    -7310    -7410    -7518    -7601    -7668    -7753    -7858 
   -7942    -7974    -7970    -7940    -7896    -7873    -7877    -7897 
   -7920    -7927    -7943    -7997    -8019    -7959    -7870    -7785 
   -7692    -7600    -7530    -7480    -7461    -7480    -7534    -7636 
   -7776    -7892    -7977    -8082    -8218    -8367    -8502    -8615 
   -8735    -8876    -8996    -9062    -9089    -9094    -9063    -8981 
   -8885    -8831    -8806    -8752    -8665    -8587    -8521    -8441 
   -8349    -8268    -8197    -8124    -8060    -8013    -7975    -7956 
   -7956    -7940    -7873    -7766    -7646    -7524    -7419    -7345 
   -7285    -7226    -7146    -7034    -6924    -6847    -6781    -6702 
   -6633    -6621    -6658    -6674    -6648    -6586    -6473    -6335 
   -6238    -6193    -6176    -6178    -6199    -6239    -6300    -6369 
   -6413    -6426    -6428    -6412    -6361    -6307    -6255    -6169 
   -6069    -5989    -5914    -5842    -5799    -5796    -5818    -5846 
   -5904    -6030    -6196    -6362    -6521    -6690    -6862    -6998 
   -7092    -7167    -7223    -7238    -7214    -7191    -7202    -7215 
   -7190    -7125    -7026    -6910    -6820    -6764    -6725    -6691 
   -6646    -6593    -6567    -6570    -6550    -6500    -6461    -6438 
   -6440    -6482    -6534    -6592    -6671    -6747    -6824    -6924 
   -7022    -7109    -7207    -7294    -7345    -7398    -7461    -7534 
   -7653    -7778    -7855    -7902    -7905    -7858    -7831    -7846 
   -7862    -7871    -7862    -7838    -7863    -7970    -8102    -8214 
   -8286    -8311    -8330    -8370    -8383    -8355    -8333    -8321 
   -8283    -8222    -8129    -7987    -7827    -7682    -7554    -7408 
   -7221    -7033    -6899    -6791    -6685    -6590    -6496    -6365 
   -6215    -6096    -6008    -5917    -5826    -5764    -5746    -5773 
   -5823    -5894    -5998    -6118    -6224    -6335    -6478    -6615 
   -6701    -6751    -6786    -6791    -6771    -6760    -6766    -6782 
   -6805    -6820    -6802    -6755    -6718    -6736    -6791    -6849 
   -6876    -6866    -6847    -6839    -6893    -7037    -7202    -7333 
   -7441    -7553    -7673    -7811    -7977    -8152    -8321    -8506 
   -8704    -8880    -9018    -9089    -9080    -9019    -8947    -8885 
   -8830    -8753    -8661    -8587    -8532    -8468    -8387    -8302 
   -8253    -8267    -8313    -8361    -8399    -8415    -8448    -8533 
   -8633    -8723    -8806    -8877    -8949    -9018    -9034    -8989 
   -8916    -8812    -8681    -8565    -8468    -8387    -8351    -8349 
   -8336    -8310    -8298    -8278    -8245    -8210    -8162    -8108 
   -8062    -8027    -8004    -7977    -7942    -7933    -7952    -8005 
   -8077    -8105    -8068    -8012    -7952    -7885    -7815    -7724 
   -7588    -7420    -7252    -7071    -6875    -6670    -6440    -6201 
   -5968    -5736    -5541    -5417    -5337    -5278    -5225    -5193 
   -5223    -5320    -5435    -5575    -5787    -6031    -6238    -6419 
   -6600    -6750    -6875    -7006    -7136    -7276    -7472    -7696 
   -7888    -8041    -8195    -8341    -8442    -8519    -8607    -8718 
   -8831    -8900    -8900    -8819    -8671    -8502    -8343    -8226 
   -8137    -8009    -7855    -7742    -7662    -7574    -7497    -7457 
   -7420    -7366    -7314    -7258    -7183    -7092    -6988    -6864 
   -6748    -6643    -6502    -6312    -6087    -5838    -5587    -5358 
   -5162    -5013    -4922    -4888    -4922    -5034    -5200    -5391 
   -5618    -5881    -6145    -6374    -6562    -6729    -6920    -7156 
   -7410    -7636    -7809    -7950    -8091    -8230    -8347    -8417 
   -8451    -8486    -8517    -8518    -8527    -8567    -8618    -8649 
   -8637    -8575    -8461    -8320    -8164    -7989    -7800    -7623 
   -7474    -7333    -7187    -7055    -6925    -6847    -6880    -6991 
   -7129    -7273    -7396    -7497    -7604    -7739    -7879    -7982 
   -8047    -8085    -8102    -8128    -8149    -8147    -8128    -8082 
   -8029    -7993    -7969    -7974    -8004    -8021    -8006    -7940 
   -7855    -7784    -7692    -7550    -7349    -7109    -6866    -6631 
   -6403    -6180    -5977    -5819    -5722    -5683    -5692    -5733 
   -5778    -5795    -5796    -5825    -5902    -6010    -6139    -6265 
   -6334    -6359    -6382    -6396    -6415    -6438    -6426    -6376 
   -6320    -6268    -6226    -6218    -6261    -6342    -6454    -6600 
   -6766    -6975    -7234    -7458    -7639    -7869    -8128    -8330 
   -8490    -8625    -8726    -8808    -8865    -8870    -8838    -8787 
   -8702    -8591    -8468    -8301    -8109    -7969    -7850    -7743 
   -7680    -7604    -7546    -7557    -7572    -7541    -7461    -7349 
   -7249    -7184    -7159    -7182    -7244    -7317    -7392    -7461 
   -7500    -7523    -7565    -7655    -7780    -7905    -8019    -8089 
   -8104    -8071    -7971    -7832    -7695    -7577    -7522    -7524 
   -7523    -7495    -7462    -7445    -7422    -7385    -7325    -7207 
   -7053    -6891    -6669    -6384    -6065    -5718    -5375    -5038 
   -4696    -4380    -4090    -3796    -3541    -3357    -3196    -3046 
   -2922    -2833    -2816    -2902    -3079    -3326    -3661    -4035 
   -4380    -4700    -4988    -5232    -5456    -5664    -5833    -5961 
   -6085    -6246    -6442    -6662    -6894    -7113    -7294    -7466 
   -7649    -7785    -7861    -7933    -8021    -8105    -8191    -8298 
   -8386    -8418    -8440    -8491    -8563    -8641    -8727    -8787 
   -8803    -8793    -8752    -8675    -8581    -8465    -8321    -8171 
   -8001    -7813    -7631    -7474    -7365    -7292    -7214    -7118 
   -7024    -6937    -6855    -6777    -6700    -6639    -6592    -6544 
   -6543    -6597    -6686    -6802    -6934    -7113    -7322    -7497 
   -7670    -7851    -8017    -8203    -8394    -8537    -8629    -8707 
   -8791    -8846    -8883    -8941    -8995    -9028    -9078    -9120 
   -9109    -9061    -8993    -8938    -8904    -8891    -8935    -9026 
   -9099    -9127    -9107    -9038    -8957    -8872    -8781    -8679 
   -8541    -8368    -8202    -8075    -7960    -7816    -7636    -7398 
   -7110    -6848    -6616    -6366    -6115    -5883    -5679    -5535 
   -5429    -5341    -5305    -5335    -5402    -5499    -5620    -5757 
   -5884    -5981    -6095    -6237    -6380    -6502    -6616    -6768 
   -6952    -7155    -7391    -7646    -7932    -8260    -8588    -8893 
   -9181    -9452    -9713    -9957   -10158   -10301   -10385   -10412 
  -10395   -10332   -10250   -10169   -10066    -9926    -9729    -9482 
   -9238    -9016    -8799    -8591    -8409    -8232    -8031    -7788 
   -7500    -7215    -6980    -6758    -6508    -6246    -6002    -5790 
   -5620    -5490    -5393    -5313    -5242    -5193    -5190    -5246 
   -5359    -5509    -5675    -5850    -6016    -6131    -6211    -6293 
   -6382    -6466    -6546    -6609    -6640    -6608    -6517    -6411 
   -6308    -6181    -6035    -5915    -5834    -5759    -5691    -5674 
   -5713    -5749    -5765    -5845    -6014    -6207    -6421    -6666 
   -6898    -7111    -7335    -7565    -7762    -7943    -8141    -8318 
   -8430    -8503    -8571    -8652    -8739    -8826    -8911    -8991 
   -9047    -9065    -9036    -9008    -9007    -8991    -8924    -8818 
   -8691    -8564    -8441    -8325    -8202    -8046    -7857    -7661 
   -7473    -7294    -7095    -6874    -6664    -6457    -6222    -5973 
   -5717    -5436    -5142    -4868    -4619    -4386    -4185    -4013 
   -3842    -3693    -3595    -3510    -3414    -3343    -3331    -3384 
   -3500    -3654    -3817    -3977    -4136    -4338    -4583    -4834 
   -5092    -5352    -5601    -5822    -5987    -6096    -6176    -6259 
   -6370    -6475    -6542    -6609    -6710    -6847    -7017    -7184 
   -7345    -7546    -7753    -7960    -8213    -8464    -8681    -8874 
   -8997    -9047    -9076    -9086    -9120    -9212    -9324    -9468 
   -9637    -9788    -9913   -10006   -10084   -10135   -10115   -10058 
  -10007    -9984   -10022   -10072   -10108   -10162   -10216   -10249 
  -10272   -10291   -10315   -10336   -10359   -10400   -10408   -10347 
  -10260   -10165   -10035    -9837    -9574    -9301    -9059    -8865 
   -8702    -8500    -8239    -7959    -7663    -7371    -7103    -6833 
   -6555    -6276    -5995    -5772    -5594    -5410    -5267    -5192 
   -5136    -5104    -5116    -5192    -5331    -5495    -5678    -5850 
   -5973    -6080    -6222    -6411    -6610    -6779    -6922    -7018 
   -7074    -7159    -7268    -7365    -7465    -7573    -7700    -7890 
   -8163    -8457    -8721    -8959    -9184    -9383    -9552    -9697 
   -9813    -9891    -9930    -9944    -9944    -9917    -9867    -9798 
   -9672    -9483    -9274    -9069    -8887    -8726    -8548    -8334 
   -8121    -7920    -7696    -7437    -7160    -6870    -6575    -6276 
   -5975    -5702    -5459    -5254    -5097    -4949    -4784    -4677 
   -4662    -4664    -4677    -4726    -4774    -4830    -4915    -5013 
   -5131    -5282    -5425    -5506    -5543    -5564    -5587    -5645 
   -5721    -5768    -5788    -5799    -5815    -5848    -5888    -5934 
   -5992    -6085    -6220    -6372    -6548    -6779    -7038    -7285 
   -7524    -7766    -8001    -8205    -8368    -8500    -8615    -8721 
   -8819    -8904    -8973    -9032    -9072    -9097    -9130    -9175 
   -9244    -9329    -9401    -9440    -9444    -9405    -9325    -9215 
   -9088    -8955    -8823    -8662    -8472    -8286    -8108    -7921 
   -7726    -7527    -7321    -7103    -6921    -6802    -6702    -6600 
   -6505    -6451    -6444    -6430    -6388    -6335    -6282    -6239 
   -6201    -6168    -6141    -6104    -6058    -6016    -5977    -5930 
   -5908    -5941    -5998    -6066    -6149    -6215    -6265    -6334 
   -6415    -6480    -6538    -6594    -6646    -6698    -6747    -6775 
   -6789    -6799    -6783    -6744    -6724    -6733    -6771    -6856 
   -6970    -7071    -7156    -7223    -7260    -7290    -7341    -7383 
   -7408    -7449    -7495    -7524    -7553    -7592    -7647    -7730 
   -7838    -7971    -8120    -8279    -8457    -8630    -8772    -8899 
   -9026    -9142    -9236    -9286    -9301    -9300    -9285    -9281 
   -9278    -9250    -9208    -9143    -9039    -8907    -8750    -8586 
   -8426    -8260    -8082    -7902    -7753    -7638    -7527    -7384 
   -7213    -7030    -6840    -6644    -6467    -6326    -6218    -6127 
   -6053    -5991    -5945    -5942    -5977    -6011    -6039    -6070 
   -6096    -6110    -6126    -6143    -6143    -6146    -6156    -6146 
   -6127    -6107    -6081    -6054    -6037    -6029    -6033    -6077 
   -6156    -6231    -6315    -6426    -6571    -6751    -6914    -7020 
   -7105    -7214    -7339    -7462    -7588    -7713    -7812    -7888 
   -7965    -8033    -8039    -7982    -7919    -7869    -7815    -7754 
   -7696    -7662    -7662    -7669    -7670    -7686    -7716    -7749 
