Origin Time       2025/01/13 21:19:00
Lat.              31.8
Long.             131.6
Depth. (km)       30
Mag.              6.9
Station Code      EHMH05
Station Lat.      33.7112
Station Long.     132.8032
Station Height(m) 6
Record Time       2025/01/13 21:20:16
Sampling Freq(Hz) 100Hz
Duration Time(s)  130
Dir.              3
Scale Factor      3923(gal)/8224838
Max. Acc. (gal)   1.121
Last Correction   2025/01/13 21:20:18
Memo.             
[...]
  -43795   -43819   -43825   -43842   -43876   -43865   -43853   -43933 
  -44055   -44128   -44140   -44112   -44105   -44161   -44173   -44095 
  -44037   -44018   -43974   -43947   -43991   -44034   -44028   -43985 
  -43920   -43879   -43887   -43904   -43918   -43958   -44030   -44082 
  -44093   -44123   -44223   -44338   -44385   -44367   -44352   -44389 
  -44452   -44491   -44500   -44502   -44518   -44551   -44562   -44514 
  -44463   -44454   -44464   -44455   -44378   -44254   -44189   -44185 
  -44154   -44091   -44058   -44088   -44173   -44284   -44389   -44487 
  -44582   -44659   -44741   -44837   -44905   -44938   -44987   -45015 
  -44946   -44822   -44732   -44675   -44635   -44614   -44559   -44440 
  -44362   -44361   -44358   -44340   -44343   -44344   -44355   -44386 
  -44406   -44390   -44363   -44354   -44367   -44358   -44257   -44112 
  -44030   -43987   -43904   -43812   -43757   -43725   -43692   -43687 
  -43718   -43765   -43831   -43926   -44015   -44055   -44053   -44072 
  -44138   -44199   -44208   -44180   -44166   -44227   -44335   -44392 
  -44389   -44389   -44394   -44388   -44385   -44398   -44398   -44379 
  -44379   -44408   -44447   -44467   -44454   -44432   -44444   -44473 
  -44464   -44415   -44352   -44327   -44336   -44311   -44246   -44192 
  -44139   -44119   -44185   -44274   -44317   -44335   -44339   -44317 
  -44278   -44257   -44274   -44282   -44258   -44244   -44254   -44251 
  -44235   -44220   -44197   -44165   -44162   -44212   -44282   -44331 
  -44346   -44336   -44365   -44452   -44535   -44574   -44587   -44597 
  -44591   -44541   -44452   -44374   -44363   -44409   -44451   -44474 
  -44464   -44404   -44386   -44466   -44556   -44633   -44725   -44811 
  -44890   -44941   -44926   -44869   -44833   -44832   -44826   -44805 
  -44786   -44752   -44693   -44631   -44567   -44504   -44456   -44431 
  -44452   -44504   -44496   -44396   -44298   -44269   -44250   -44194 
  -44155   -44169   -44193   -44216   -44262   -44305   -44328   -44329 
  -44273   -44193   -44154   -44147   -44167   -44221   -44254   -44228 
  -44203   -44230   -44263   -44243   -44203   -44201   -44224   -44226 
  -44231   -44298   -44415   -44517   -44602   -44653   -44641   -44625 
  -44671   -44763   -44868   -44960   -45007   -45014   -45003   -44987 
  -44968   -44918   -44810   -44675   -44547   -44442   -44352   -44259 
  -44199   -44186   -44193   -44226   -44275   -44327   -44381   -44408 
  -44390   -44362   -44329   -44317   -44338   -44354   -44327   -44278 
  -44251   -44244   -44234   -44211   -44174   -44130   -44103   -44088 
  -44057   -43989   -43891   -43798   -43731   -43665   -43615   -43626 
  -43669   -43719   -43785   -43843   -43900   -43992   -44100   -44211 
  -44323   -44398   -44440   -44517   -44648   -44740   -44747   -44716 
  -44697   -44680   -44624   -44516   -44425   -44402   -44404   -44396 
  -44356   -44282   -44235   -44254   -44296   -44307   -44274   -44221 
  -44216   -44296   -44420   -44509   -44539   -44585   -44683   -44776 
  -44833   -44872   -44896   -44909   -44936   -44990   -45030   -45065 
  -45129   -45152   -45085   -44990   -44898   -44814   -44761   -44740 
  -44722   -44694   -44662   -44625   -44571   -44520   -44508   -44500 
  -44451   -44383   -44336   -44298   -44280   -44320   -44388   -44402 
  -44358   -44296   -44269   -44300   -44313   -44282   -44270   -44274 
  -44265   -44274   -44292   -44275   -44246   -44265   -44321   -44351 
  -44373   -44413   -44390   -44271   -44174   -44192   -44284   -44362 
  -44392   -44371   -44331   -44329   -44358   -44363   -44332   -44302 
  -44275   -44220   -44172   -44174   -44170   -44146   -44150   -44131 
  -44031   -43934   -43907   -43915   -43933   -43939   -43906   -43884 
  -43914   -43935   -43933   -43961   -43991   -43993   -44042   -44155 
  -44286   -44420   -44559   -44706   -44872   -45031   -45146   -45218 
  -45287   -45366   -45416   -45420   -45405   -45373   -45319   -45256 
  -45173   -45080   -44983   -44869   -44787   -44766   -44744   -44683 
  -44636   -44635   -44658   -44680   -44694   -44716   -44757   -44788 
  -44806   -44851   -44918   -44968   -44964   -44905   -44807   -44703 
  -44618   -44577   -44598   -44635   -44618   -44593   -44581   -44540 
  -44516   -44544   -44558   -44518   -44464   -44446   -44463   -44460 
  -44429   -44405   -44377   -44343   -44311   -44271   -44236   -44205 
  -44189   -44196   -44185   -44149   -44104   -44066   -44041   -44007 
  -43981   -44024   -44107   -44136   -44100   -44081   -44120   -44199 
  -44296   -44354   -44339   -44286   -44228   -44220   -44307   -44402 
  -44437   -44496   -44618   -44721   -44768   -44825   -44922   -45021 
  -45060   -45052   -45053   -45046   -45011   -44963   -44901   -44864 
  -44865   -44840   -44797   -44788   -44774   -44693   -44547   -44373 
  -44243   -44186   -44127   -44031   -43964   -43950   -43972   -44000 
  -43989   -43926   -43883   -43904   -43939   -43961   -43989   -44001 
  -44005   -44058   -44132   -44162   -44158   -44157   -44153   -44163 
  -44215   -44280   -44362   -44466   -44487   -44393   -44319   -44315 
  -44336   -44369   -44382   -44377   -44386   -44396   -44408   -44462 
  -44529   -44575   -44605   -44636   -44676   -44713   -44744   -44772 
  -44767   -44729   -44730   -44775   -44806   -44842   -44896   -44901 
  -44868   -44857   -44849   -44836   -44833   -44830   -44826   -44824 
  -44828   -44863   -44902   -44880   -44824   -44799   -44772   -44703 
  -44613   -44489   -44332   -44181   -44038   -43914   -43821   -43740 
  -43656   -43537   -43384   -43291   -43305   -43356   -43379   -43390 
  -43421   -43459   -43492   -43530   -43573   -43622   -43706   -43823 
  -43904   -43938   -43992   -44068   -44154   -44230   -44246   -44217 
  -44204   -44194   -44185   -44194   -44189   -44153   -44188   -44316 
  -44410   -44397   -44339   -44324   -44374   -44454   -44512   -44493 
  -44405   -44323   -44294   -44296   -44282   -44251   -44234   -44231 
  -44220   -44205   -44213   -44228   -44224   -44221   -44228   -44248 
  -44301   -44355   -44375   -44352   -44309   -44311   -44365   -44406 
  -44431   -44470   -44516   -44562   -44635   -44683   -44676   -44694 
  -44728   -44724   -44691   -44617   -44540   -44533   -44539   -44504 
  -44501   -44550   -44570   -44562   -44567   -44545   -44485   -44450 
  -44459   -44493   -44490   -44401   -44280   -44199   -44146   -44115 
  -44092   -44042   -43991   -43968   -43966   -44026   -44150   -44251 
  -44286   -44247   -44146   -44084   -44091   -44118   -44170   -44223 
  -44235   -44248   -44273   -44251   -44189   -44139   -44113   -44092 
  -44074   -44059   -44015   -43960   -43953   -44000   -44055   -44096 
  -44134   -44181   -44234   -44262   -44259   -44285   -44352   -44385 
  -44378   -44416   -44460   -44421   -44374   -44409   -44446   -44462 
  -44517   -44587   -44628   -44608   -44551   -44556   -44635   -44678 
  -44658   -44613   -44572   -44591   -44653   -44687   -44676   -44667 
  -44694   -44743   -44783   -44817   -44856   -44891   -44918   -44977 
  -45042   -45038   -44991   -44952   -44940   -44972   -44996   -44949 
  -44899   -44911   -44918   -44860   -44774   -44728   -44759   -44801 
  -44749   -44628   -44516   -44435   -44398   -44412   -44415   -44359 
  -44296   -44267   -44236   -44196   -44170   -44127   -44059   -44015 
  -44039   -44130   -44228   -44313   -44432   -44533   -44545   -44532 
  -44568   -44633   -44678   -44674   -44610   -44505   -44428   -44433 
  -44466   -44481   -44483   -44474   -44474   -44512   -44574   -44629 
  -44631   -44585   -44547   -44533   -44572   -44699   -44830   -44890 
  -44940   -45000   -45000   -44964   -44967   -44983   -44949   -44894 
  -44892   -44944   -44956   -44905   -44883   -44892   -44868   -44869 
  -44907   -44882   -44805   -44737   -44689   -44655   -44635   -44599 
  -44523   -44440   -44386   -44332   -44269   -44228   -44205   -44180 
  -44157   -44128   -44058   -43962   -43873   -43816   -43838   -43869 
  -43808   -43729   -43691   -43603   -43475   -43401   -43343   -43252 
  -43177   -43127   -43093   -43100   -43129   -43135   -43156   -43214 
  -43227   -43206   -43244   -43326   -43391   -43433   -43470   -43476 
  -43430   -43380   -43376   -43406   -43456   -43519   -43565   -43598 
  -43649   -43708   -43787   -43929   -44081   -44174   -44257   -44367 
  -44437   -44428   -44394   -44379   -44402   -44491   -44624   -44710 
  -44717   -44703   -44707   -44728   -44780   -44855   -44921   -44982 
  -45064   -45171   -45284   -45399   -45488   -45519   -45513   -45555 
  -45646   -45709   -45724   -45711   -45677   -45669   -45679   -45685 
  -45705   -45715   -45675   -45607   -45524   -45423   -45318   -45245 
  -45210   -45161   -45111   -45122   -45161   -45166   -45173   -45177 
  -45122   -45040   -44975   -44932   -44917   -44910   -44863   -44780 
  -44718   -44670   -44574   -44454   -44381   -44305   -44151   -43985 
  -43891   -43852   -43811   -43750   -43707   -43700   -43690   -43668 
  -43667   -43667   -43650   -43640   -43637   -43627   -43609   -43579 
  -43537   -43483   -43447   -43440   -43433   -43407   -43384   -43391 
  -43421   -43468   -43552   -43644   -43694   -43726   -43802   -43930 
  -44068   -44169   -44248   -44358   -44479   -44537   -44539   -44541 
  -44568   -44636   -44717   -44714   -44644   -44624   -44636   -44632 
  -44667   -44734   -44748   -44722   -44687   -44637   -44628   -44660 
  -44653   -44601   -44548   -44497   -44454   -44412   -44331   -44235 
  -44173   -44124   -44066   -43985   -43899   -43825   -43723   -43652 
  -43681   -43753   -43826   -43906   -43945   -43966   -44031   -44108 
  -44161   -44203   -44239   -44263   -44285   -44336   -44402   -44389 
  -44293   -44212   -44173   -44135   -44107   -44107   -44132   -44166 
  -44192   -44205   -44176   -44105   -44065   -44026   -43954   -43902 
  -43861   -43830   -43833   -43848   -43900   -44005   -44084   -44127 
  -44209   -44321   -44374   -44397   -44470   -44555   -44614   -44683 
  -44733   -44759   -44791   -44797   -44790   -44825   -44840   -44761 
  -44651   -44586   -44579   -44579   -44527   -44448   -44417   -44443 
  -44483   -44521   -44568   -44601   -44599   -44625   -44683   -44729 
  -44793   -44887   -44965   -45000   -45009   -45031   -45058   -45042 
  -45002   -44965   -44915   -44852   -44802   -44775   -44797   -44860 
  -44895   -44915   -44973   -44995   -44933   -44871   -44851   -44857 
  -44890   -44928   -44929   -44887   -44868   -44910   -44925   -44886 
  -44868   -44856   -44824   -44797   -44761   -44741   -44733   -44693 
  -44659   -44639   -44571   -44478   -44405   -44319   -44182   -44027 
  -43893   -43789   -43756   -43784   -43808   -43850   -43918   -43945 
  -43962   -44034   -44101   -44169   -44290   -44404   -44483   -44568 
  -44609   -44579   -44521   -44451   -44378   -44319   -44271   -44240 
  -44231   -44224   -44185   -44109   -44028   -43970   -43943   -43951 
  -43984   -43978   -43943   -43966   -44070   -44192   -44296   -44382 
  -44437   -44479   -44548   -44625   -44687   -44759   -44815   -44832 
  -44849   -44880   -44905   -44950   -45006   -45011   -44991   -44987 
  -44967   -44902   -44832   -44814   -44840   -44860   -44863   -44838 
  -44763   -44676   -44645   -44652   -44645   -44629   -44616   -44598 
  -44587   -44586   -44570   -44537   -44508   -44477   -44409   -44332 
  -44288   -44239   -44174   -44100   -43996   -43879   -43802   -43772 
  -43760   -43772   -43819   -43862   -43887   -43930   -44012   -44122 
  -44248   -44385   -44543   -44699   -44803   -44869   -44932   -44983 
  -45041   -45142   -45247   -45289   -45301   -45335   -45334   -45292 
  -45260   -45233   -45230   -45245   -45227   -45195   -45204   -45253 
  -45270   -45231   -45206   -45220   -45184   -45030   -44828   -44682 
  -44597   -44509   -44417   -44336   -44240   -44151   -44112   -44109 
  -44139   -44203   -44235   -44217   -44208   -44221   -44250   -44285 
  -44316   -44348   -44383   -44417   -44451   -44491   -44537   -44558 
  -44575   -44659   -44767   -44828   -44840   -44813   -44757   -44709 
  -44685   -44632   -44516   -44404   -44342   -44284   -44203   -44109 
  -44031   -43976   -43920   -43869   -43854   -43875   -43899   -43942 
  -44027   -44104   -44127   -44126   -44145   -44184   -44219   -44224 
  -44204   -44186   -44151   -44077   -43999   -43938   -43873   -43792 
  -43702   -43645   -43644   -43656   -43653   -43680   -43749   -43785 
  -43752   -43725   -43726   -43694   -43615   -43538   -43487   -43441 
  -43389   -43348   -43303   -43241   -43201   -43200   -43224   -43256 
  -43290   -43306   -43314   -43344   -43372   -43364   -43372   -43421 
  -43468   -43514   -43557   -43557   -43540   -43540   -43561   -43649 
  -43779   -43865   -43923   -43988   -44024   -44042   -44077   -44119 
  -44158   -44209   -44270   -44304   -44309   -44325   -44340   -44304 
  -44217   -44103   -43993   -43918   -43891   -43897   -43892   -43873 
  -43868   -43845   -43758   -43632   -43498   -43384   -43310   -43254 
  -43185   -43106   -43027   -42970   -42959   -42978   -43024   -43089 
  -43141   -43187   -43222   -43249   -43333   -43461   -43557   -43626 
  -43718   -43846   -43992   -44143   -44298   -44464   -44610   -44695 
  -44756   -44852   -44959   -45056   -45169   -45308   -45438   -45526 
  -45597   -45686   -45781   -45875   -45960   -46022   -46093   -46190 
  -46276   -46346   -46413   -46484   -46579   -46674   -46728   -46753 
  -46749   -46676   -46569   -46496   -46438   -46365   -46292   -46246 
  -46191   -46086   -45964   -45848   -45720   -45605   -45523   -45432 
  -45326   -45230   -45144   -45052   -44946   -44852   -44775   -44695 
  -44617   -44577   -44579   -44550   -44460   -44382   -44342   -44320 
  -44305   -44270   -44226   -44220   -44244   -44253   -44224   -44184 
  -44163   -44178   -44228   -44298   -44348   -44383   -44420   -44410 
  -44377   -44382   -44375   -44338   -44324   -44301   -44254   -44234 
  -44223   -44185   -44158   -44159   -44167   -44199   -44255   -44292 
  -44325   -44382   -44433   -44473   -44524   -44583   -44636   -44668 
  -44690   -44716   -44748   -44755   -44734   -44722   -44724   -44733 
  -44763   -44791   -44783   -44759   -44730   -44701   -44675   -44625 
  -44547   -44459   -44362   -44277   -44207   -44096   -43964   -43860 
  -43745   -43596   -43456   -43325   -43179   -43035   -42912   -42831 
  -42799   -42788   -42766   -42742   -42753   -42795   -42819   -42807 
  -42817   -42893   -42989   -43047   -43073   -43112   -43200   -43320 
  -43425   -43499   -43571   -43653   -43737   -43819   -43910   -44015 
  -44112   -44184   -44277   -44416   -44536   -44608   -44667   -44737 
  -44806   -44840   -44821   -44764   -44698   -44680   -44722   -44779 
  -44817   -44845   -44890   -44960   -45023   -45061   -45107   -45185 
  -45284   -45380   -45484   -45608   -45721   -45796   -45860   -45944 
  -46035   -46098   -46110   -46083   -46052   -46012   -45940   -45841 
  -45725   -45611   -45493   -45350   -45168   -44973   -44807   -44678 
  -44552   -44397   -44226   -44089   -43984   -43915   -43908   -43927 
  -43938   -43964   -44018   -44093   -44170   -44247   -44340   -44432 
  -44512   -44575   -44614   -44660   -44707   -44694   -44648   -44635 
  -44628   -44605   -44568   -44514   -44464   -44428   -44371   -44296 
  -44235   -44221   -44282   -44367   -44408   -44428   -44458   -44469 
  -44470   -44481   -44482   -44477   -44478   -44485   -44496   -44494 
  -44481   -44479   -44473   -44433   -44390   -44361   -44332   -44305 
  -44280   -44247   -44200   -44131   -44057   -44011   -43991   -43957 
  -43870   -43749   -43633   -43540   -43463   -43379   -43294   -43256 
  -43264   -43270   -43279   -43299   -43322   -43355   -43405   -43461 
  -43530   -43598   -43641   -43703   -43829   -43970   -44066   -44128 
  -44192   -44263   -44347   -44443   -44518   -44574   -44632   -44670 
  -44685   -44720   -44747   -44733   -44707   -44678   -44633   -44585 
  -44528   -44471   -44424   -44354   -44239   -44116   -44026   -43947 
  -43872   -43804   -43722   -43630   -43548   -43474   -43426   -43395 
  -43353   -43330   -43339   -43355   -43376   -43406   -43467   -43583 
  -43704   -43783   -43838   -43915   -44041   -44177   -44273   -44356 
  -44462   -44554   -44628   -44701   -44745   -44770   -44822   -44883 
  -44911   -44929   -44934   -44911   -44901   -44940   -44984   -44988 
  -44990   -45034   -45096   -45125   -45108   -45068   -45022   -44971 
  -44902   -44830   -44763   -44662   -44516   -44339   -44153   -43985 
  -43827   -43663   -43533   -43455   -43401   -43366   -43351   -43360 
  -43409   -43482   -43555   -43617   -43673   -43754   -43889   -44035 
  -44142   -44246   -44373   -44475   -44537   -44613   -44707   -44778 
  -44810   -44833   -44853   -44879   -44910   -44913   -44878   -44849 
  -44853   -44883   -44914   -44929   -44957   -45004   -45041   -45079 
  -45123   -45154   -45184   -45210   -45219   -45225   -45245   -45289 
  -45331   -45330   -45296   -45265   -45242   -45231   -45226   -45206 
  -45153   -45085   -45042   -45014   -44973   -44934   -44909   -44886 
  -44865   -44832   -44753   -44645   -44543   -44467   -44420   -44390 
  -44389   -44404   -44401   -44401   -44428   -44455   -44471   -44482 
  -44485   -44489   -44524   -44574   -44586   -44564   -44541   -44520 
  -44494   -44470   -44460   -44469   -44473   -44469   -44473   -44478 
  -44497   -44531   -44550   -44560   -44593   -44640   -44682   -44690 
  -44663   -44660   -44706   -44744   -44725   -44667   -44608   -44540 
  -44469   -44420   -44388   -44361   -44332   -44278   -44192   -44111 
  -44070   -44041   -43993   -43976   -43989   -43991   -43989   -43995 
  -43978   -43958   -43956   -43953   -43941   -43902   -43811   -43719 
  -43679   -43664   -43633   -43583   -43509   -43417   -43359   -43325 
  -43271   -43217   -43191   -43167   -43150   -43185   -43266   -43332 
  -43352   -43375   -43418   -43438   -43438   -43453   -43472   -43483 
  -43505   -43542   -43599   -43671   -43729   -43761   -43794   -43830 
  -43858   -43896   -43965   -44049   -44123   -44193   -44286   -44409 
  -44528   -44621   -44737   -44901   -45060   -45202   -45355   -45485 
  -45561   -45635   -45731   -45809   -45879   -45956   -46003   -46014 
  -46021   -46029   -46010   -45959   -45887   -45801   -45717   -45652 
  -45597   -45549   -45496   -45411   -45295   -45177   -45053   -44926 
  -44825   -44741   -44643   -44543   -44467   -44410   -44339   -44258 
  -44215   -44208   -44201   -44181   -44165   -44149   -44124   -44107 
  -44089   -44045   -43988   -43950   -43916   -43868   -43818   -43756 
  -43667   -43578   -43515   -43483   -43444   -43382   -43335   -43321 
  -43324   -43322   -43320   -43313   -43289   -43241   -43181   -43141 
  -43148   -43152   -43125   -43124   -43164   -43212   -43262   -43310 
  -43355   -43406   -43460   -43503   -43544   -43595   -43660   -43745 
  -43842   -43941   -44027   -44097   -44149   -44185   -44236   -44316 
  -44383   -44428   -44483   -44551   -44614   -44670   -44702   -44703 
  -44694   -44679   -44671   -44685   -44712   -44745   -44780   -44805 
  -44825   -44845   -44855   -44837   -44788   -44747   -44732   -44720 
