Origin Time       2025/01/13 21:19:00
Lat.              31.8
Long.             131.6
Depth. (km)       30
Mag.              6.9
Station Code      EHMH13
Station Lat.      33.3719
Station Long.     132.1157
Station Height(m) -212
Record Time       2025/01/13 21:20:22
Sampling Freq(Hz) 100Hz
Duration Time(s)  120
Dir.              3
Scale Factor      2942(gal)/8224139
Max. Acc. (gal)   1.682
Last Correction   2025/01/13 21:20:22
Memo.             
[...]
  158055   158133   158198   158309   158425   158530   158637   158623 
  158508   158441   158425   158463   158619   158823   158874   158726 
  158541   158361   158172   158060   158026   158014   158017   157991 
  157929   157875   157856   157827   157786   157863   158020   158136 
  158259   158317   158234   158195   158228   158205   158230   158419 
  158654   158822   158912   158872   158681   158454   158286   158184 
  158175   158255   158321   158325   158306   158257   158190   158213 
  158346   158485   158630   158792   158909   159007   159127   159259 
  159387   159503   159576   159561   159503   159439   159375   159389 
  159447   159502   159557   159548   159479   159418   159281   158981 
  158657   158414   158194   158062   158107   158190   158191   158144 
  158037   157866   157748   157751   157806   157860   157885   157887 
  157916   157964   157982   157943   157855   157711   157550   157491 
  157553   157673   157774   157779   157756   157792   157843   157920 
  158074   158287   158444   158479   158504   158542   158523   158502 
  158488   158434   158392   158350   158242   158128   158064   158048 
  158002   157896   157878   158010   158184   158355   158512   158629 
  158696   158724   158707   158665   158674   158724   158770   158796 
  158738   158618   158499   158375   158256   158174   158109   158076 
  158112   158109   158010   157936   157877   157790   157769   157804 
  157863   157989   158153   158280   158346   158396   158495   158681 
  158908   159081   159174   159210   159192   159117   159035   159011 
  159021   159000   158947   158895   158827   158762   158774   158849 
  158915   158943   158884   158755   158696   158696   158626   158531 
  158475   158406   158352   158303   158237   158240   158233   158112 
  158006   158013   158091   158207   158341   158464   158530   158503 
  158427   158390   158379   158367   158352   158302   158282   158341 
  158357   158342   158426   158496   158465   158450   158495   158589 
  158724   158801   158832   158893   158931   158985   159093   159146 
  159144   159148   159154   159169   159163   159135   159133   159121 
  159112   159109   159009   158841   158670   158440   158206   158083 
  157939   157675   157461   157350   157229   157108   157044   157029 
  157090   157148   157131   157127   157152   157198   157303   157400 
  157439   157481   157524   157538   157531   157563   157734   157964 
  158103   158179   158255   158271   158202   158143   158161   158213 
  158268   158380   158577   158757   158809   158778   158737   158724 
  158731   158718   158700   158718   158782   158874   158962   159023 
  159012   158967   158927   158820   158670   158541   158387   158226 
  158143   158114   158130   158224   158333   158392   158430   158480 
  158511   158467   158375   158321   158355   158433   158430   158295 
  158112   157966   157835   157715   157690   157769   157839   157802 
  157724   157697   157681   157705   157816   157924   157963   157887 
  157685   157478   157356   157293   157314   157389   157453   157524 
  157605   157644   157643   157689   157843   158020   158112   158171 
  158261   158357   158461   158568   158654   158731   158801   158841 
  158836   158765   158673   158581   158453   158334   158267   158195 
  158089   157985   157913   157832   157698   157551   157477   157493 
  157538   157604   157715   157846   157956   157994   157981   157943 
  157831   157727   157739   157729   157644   157648   157723   157820 
  158053   158371   158607   158800   159020   159182   159273   159379 
  159460   159428   159293   159102   158878   158626   158380   158190 
  158068   158001   157958   157928   157917   157909   157860   157758 
  157704   157783   157914   157994   158059   158211   158373   158425 
  158458   158539   158625   158704   158755   158754   158745   158778 
  158820   158826   158892   159082   159300   159426   159470   159556 
  159695   159741   159692   159657   159590   159439   159270   159096 
  158961   158973   159082   159139   159127   159105   159054   158986 
  158911   158766   158625   158579   158585   158631   158730   158815 
  158855   158908   158985   159093   159252   159348   159335   159306 
  159209   158976   158727   158548   158422   158364   158329   158265 
  158251   158259   158226   158290   158483   158751   159125   159567 
  159999   160393   160706   160910   161002   161007   160971   160875 
  160710   160587   160528   160424   160245   160012   159761   159540 
  159379   159282   159160   158931   158614   158346   158249   158241 
  158257   158344   158414   158372   158264   158103   157908   157752 
  157647   157528   157388   157284   157218   157171   157200   157273 
  157357   157439   157423   157356   157373   157495   157721   158005 
  158284   158533   158693   158799   158915   158996   159034   159127 
  159256   159287   159183   159005   158774   158485   158226   158066 
  157920   157736   157566   157443   157403   157481   157632   157773 
  157894   158037   158201   158386   158625   158869   159020   159096 
  159165   159228   159316   159445   159584   159733   159835   159857 
  159877   159856   159719   159553   159391   159194   159009   158836 
  158634   158453   158325   158256   158296   158404   158460   158427 
  158355   158264   158167   158089   158063   158060   158010   157927 
  157867   157808   157729   157675   157670   157670   157670   157786 
  158024   158226   158340   158400   158375   158241   158076   157968 
  157890   157767   157586   157357   157131   156932   156774   156747 
  156818   156826   156770   156724   156670   156605   156604   156721 
  156924   157167   157441   157701   157871   157897   157847   157840 
  157866   157881   157985   158179   158296   158319   158349   158342 
  158225   158116   158163   158280   158392   158564   158706   158707 
  158654   158561   158406   158282   158122   157851   157638   157574 
  157435   157063   156702   156517   156370   156246   156216   156226 
  156215   156216   156292   156412   156514   156662   156890   157086 
  157216   157365   157531   157638   157665   157650   157638   157659 
  157728   157754   157682   157613   157616   157671   157758   157855 
  157987   158124   158224   158387   158656   158881   158988   159036 
  159069   159104   159167   159235   159279   159367   159517   159622 
  159695   159823   159950   160056   160201   160374   160569   160786 
  161037   161369   161697   161869   161901   161912   161936   161927 
  161847   161720   161561   161389   161239   161130   161130   161246 
  161326   161380   161473   161505   161484   161491   161501   161458 
  161322   161111   160867   160604   160362   160166   159961   159760 
  159637   159559   159470   159372   159216   159000   158815   158660 
  158502   158365   158217   158022   157836   157750   157793   157871 
  157905   157910   157910   157913   157940   157971   157998   158018 
  157978   157897   157881   157886   157827   157743   157572   157293 
  157075   156982   156982   157064   157145   157208   157327   157378 
  157264   157171   157221   157345   157481   157594   157662   157698 
  157758   157869   158008   158137   158213   158205   158147   158086 
  158063   158060   158002   157921   157883   157847   157765   157584 
  157285   157005   156818   156699   156651   156660   156721   156814 
  156871   156876   156899   157000   157158   157361   157605   157790 
  157897   157983   157997   158014   158171   158344   158454   158603 
  158811   159005   159148   159275   159398   159470   159495   159509 
  159564   159641   159634   159611   159615   159493   159250   159012 
  158808   158635   158499   158396   158323   158206   158037   157936 
  157963   158071   158242   158450   158593   158679   158801   158916 
  158977   158998   158963   158915   158836   158665   158510   158464 
  158487   158556   158584   158545   158625   158800   158920   159092 
  159314   159449   159545   159625   159640   159615   159561   159493 
  159429   159359   159325   159305   159201   159046   158890   158716 
  158545   158356   158103   157831   157554   157212   156810   156423 
  156096   155850   155703   155619   155603   155717   155922   156096 
  156199   156277   156371   156486   156675   156980   157312   157581 
  157824   158028   158145   158221   158278   158352   158485   158670 
  158882   159058   159201   159327   159379   159352   159267   159102 
  158896   158737   158625   158530   158503   158530   158571   158691 
  158868   158980   159036   159156   159345   159516   159626   159687 
  159680   159591   159439   159240   159048   158893   158738   158596 
  158485   158379   158325   158287   158202   158110   158009   157912 
  157891   157935   157977   158048   158130   158122   158024   157883 
  157734   157670   157661   157617   157581   157593   157682   157815 
  157893   157950   158032   158083   158136   158267   158400   158463 
  158518   158598   158611   158557   158560   158616   158643   158658 
  158665   158619   158537   158475   158436   158419   158477   158580 
  158650   158672   158665   158679   158757   158912   159065   159152 
  159225   159275   159227   159147   159159   159183   159129   159092 
  159093   159065   159015   158946   158896   158917   158978   159034 
  159020   158849   158633   158527   158461   158386   158332   158228 
  158086   158016   158010   157991   157989   158076   158187   158202 
  158178   158248   158365   158453   158585   158755   158876   158938 
  158892   158734   158631   158649   158680   158706   158785   158858 
  158890   158881   158749   158580   158503   158430   158375   158400 
  158442   158427   158326   158193   158098   158058   158071   158133 
  158229   158328   158458   158603   158654   158665   158746   158932 
  159209   159443   159553   159598   159574   159470   159363   159271 
  159113   158895   158599   158195   157846   157657   157530   157457 
  157496   157578   157659   157777   157921   158075   158211   158269 
  158269   158255   158195   158101   157999   157918   157951   158098 
  158280   158508   158831   159158   159291   159224   159132   159032 
  158838   158615   158469   158417   158441   158476   158471   158472 
  158504   158533   158491   158298   158068   157935   157792   157628 
  157540   157491   157485   157570   157709   157885   158082   158222 
  158279   158292   158314   158430   158642   158843   158974   159043 
  159073   159089   159078   159039   159020   159070   159131   159136 
  159150   159220   159329   159528   159769   159921   160035   160143 
  160132   160045   159989   159964   160000   160119   160219   160261 
  160308   160348   160342   160330   160296   160135   159867   159606 
  159386   159187   159046   158967   158931   158942   158944   158912 
  158874   158746   158421   157985   157593   157319   157194   157177 
  157171   157162   157180   157254   157445   157678   157889   158106 
  158295   158514   158804   159066   159308   159540   159680   159738 
  159752   159736   159680   159584   159522   159514   159541   159617 
  159723   159808   159825   159821   159876   159889   159784   159671 
  159587   159470   159348   159270   159196   159138   159089   159000 
  158934   158931   158923   158936   159024   159121   159200   159282 
  159304   159209   159067   158934   158757   158525   158299   158058 
  157789   157531   157293   157098   156934   156784   156631   156462 
  156342   156208   155997   155865   155734   155402   155013   154688 
  154373   154164   154160   154260   154390   154576   154835   155170 
  155533   155815   155979   156054   156055   155985   155887   155763 
  155609   155509   155515   155538   155479   155394   155370   155339 
  155293   155353   155505   155618   155659   155663   155636   155623 
  155649   155656   155683   155785   155925   156087   156277   156465 
  156594   156678   156840   157069   157275   157455   157570   157578 
  157499   157329   157169   157108   157137   157243   157366   157468 
  157574   157735   158045   158423   158707   158924   159106   159225 
  159266   159237   159224   159259   159345   159503   159710   159984 
  160299   160543   160667   160641   160502   160381   160307   160191 
  160042   159972   159931   159795   159602   159406   159202   159074 
  159036   158973   158858   158699   158422   158071   157743   157427 
  157177   157072   157011   156961   157076   157323   157574   157879 
  158178   158325   158372   158409   158449   158460   158446   158463 
  158510   158608   158754   158870   158997   159198   159439   159706 
  159970   160193   160417   160728   161123   161469   161690   161824 
  161855   161798   161727   161620   161455   161323   161231   161129 
  161069   161038   160972   160926   160872   160771   160701   160679 
  160640   160502   160212   159810   159399   159038   158751   158606 
  158641   158819   159040   159146   159088   159028   159065   159116 
  159131   159094   159032   159032   159027   158900   158727   158581 
  158453   158330   158201   158098   157989   157771   157482   157202 
  156902   156610   156393   156273   156238   156220   156165   156182 
  156343   156496   156676   157049   157507   157929   158390   158877 
  159210   159370   159543   159740   159961   160309   160685   161030 
  161381   161715   162058   162386   162668   162934   163111   163156 
  163107   162973   162832   162742   162575   162340   162249   162249 
  162218   162247   162286   162202   162067   161967   161901   161854 
  161761   161576   161295   160948   160639   160401   160180   160060 
  160141   160240   160150   159946   159737   159494   159178   158807 
  158413   158018   157654   157362   157145   156991   156867   156717 
  156597   156564   156525   156433   156339   156253   156128   155918 
  155706   155568   155455   155440   155560   155699   155819   155918 
  155965   155993   156008   155969   155857   155711   155587   155484 
  155378   155299   155301   155347   155372   155391   155447   155538 
  155634   155719   155754   155690   155574   155478   155417   155430 
  155541   155699   155873   156073   156282   156493   156668   156749 
  156783   156816   156813   156763   156697   156648   156652   156743 
  156879   156961   156982   156945   156771   156478   156190   156010 
  156027   156213   156550   157026   157530   158095   158762   159364 
  159818   160195   160556   160855   161022   161091   161079   160942 
  160693   160388   160083   159779   159472   159185   158885   158592 
  158372   158171   157966   157862   157855   157837   157825   157889 
  157943   157897   157820   157773   157761   157788   157805   157789 
  157759   157669   157486   157279   157094   156969   156942   156980 
  157102   157356   157663   158018   158498   159001   159421   159783 
  160024   160053   159906   159699   159522   159310   159007   158734 
  158510   158275   158089   157985   157935   157933   157925   157890 
  157941   158110   158317   158607   158957   159174   159324   159524 
  159669   159787   159945   160073   160216   160442   160737   161049 
  161273   161419   161572   161724   161806   161774   161640   161469 
  161315   161214   161152   161037   160849   160610   160327   160093 
  159953   159815   159665   159549   159433   159251   159050   158899 
  158769   158643   158494   158253   157959   157678   157380   157037 
  156752   156606   156509   156416   156336   156174   155922   155663 
  155359   155038   154830   154723   154654   154631   154623   154610 
  154562   154506   154521   154535   154507   154553   154695   154854 
  155020   155237   155509   155826   156228   156627   156995   157414 
  157781   158095   158469   158863   159282   159714   160077   160412 
  160721   160974   161276   161636   161929   162160   162357   162496 
  162589   162650   162660   162606   162526   162402   162164   161862 
  161576   161292   161032   160822   160556   160168   159713   159256 
  158853   158458   158052   157747   157558   157450   157435   157396 
  157227   156991   156771   156624   156548   156524   156582   156713 
  156907   157098   157149   157137   157142   157036   156816   156632 
  156517   156459   156466   156487   156483   156450   156371   156259 
  156139   156039   156004   156046   156159   156313   156481   156722 
  157081   157538   158074   158620   159132   159656   160149   160506 
  160791   161131   161470   161705   161887   162072   162211   162222 
  162132   162032   161902   161748   161622   161492   161353   161238 
  161065   160776   160569   160486   160321   160124   160018   159941 
  159803   159572   159345   159144   158951   158832   158751   158701 
  158710   158761   158905   159120   159313   159475   159584   159621 
  159582   159494   159449   159463   159490   159532   159595   159622 
  159567   159472   159386   159351   159371   159370   159395   159468 
  159456   159394   159378   159294   159125   159032   158953   158761 
  158562   158384   158191   158022   157810   157500   157173   156909 
  156690   156501   156433   156474   156477   156442   156401   156259 
  156015   155783   155605   155448   155262   155029   154819   154739 
  154788   154863   154939   155032   155139   155290   155487   155683 
  155902   156130   156339   156629   157010   157392   157816   158307 
  158737   159057   159335   159570   159710   159707   159565   159397 
  159208   158946   158693   158484   158264   158067   157947   157875 
  157793   157692   157599   157520   157449   157380   157337   157383 
  157493   157589   157692   157873   158091   158283   158441   158596 
  158808   159058   159248   159390   159514   159609   159706   159831 
  159999   160204   160370   160455   160516   160547   160517   160500 
  160539   160598   160631   160616   160552   160477   160492   160577 
  160656   160753   160817   160803   160785   160779   160794   160868 
  160937   160925   160866   160779   160663   160536   160366   160138 
  159938   159819   159714   159586   159460   159385   159343   159232 
  159051   158893   158814   158760   158619   158417   158241   158093 
  157978   157878   157778   157732   157758   157825   157912   157986 
  158026   158033   157998   157916   157809   157678   157504   157310 
  157127   156960   156805   156703   156668   156648   156643   156612 
  156460   156255   156092   155943   155846   155839   155850   155893 
  155984   156058   156157   156271   156324   156334   156309   156246 
  156174   156109   156080   156103   156155   156203   156217   156235 
  156330   156486   156648   156814   156968   156988   156853   156740 
  156686   156631   156648   156695   156681   156695   156751   156724 
  156601   156454   156352   156328   156312   156251   156173   156051 
  155884   155750   155667   155609   155587   155583   155542   155484 
  155514   155649   155861   156173   156567   156979   157343   157582 
  157751   157959   158122   158232   158473   158815   159101   159329 
  159478   159513   159522   159540   159545   159599   159754   159945 
  160083   160170   160220   160232   160282   160357   160386   160432 
