Origin Time       2025/01/13 21:19:00
Lat.              31.8
Long.             131.6
Depth. (km)       30
Mag.              6.9
Station Code      EHMH12
Station Lat.      33.4270
Station Long.     132.5055
Station Height(m) 100
Record Time       2025/01/13 21:20:07
Sampling Freq(Hz) 100Hz
Duration Time(s)  153
Dir.              2
Scale Factor      2942(gal)/8224139
Max. Acc. (gal)   2.232
Last Correction   2025/01/13 21:20:07
Memo.             
[...]
  113533   113544   113620   113726   113815   113915   114016   114069 
  114108   114177   114245   114301   114390   114496   114571   114629 
  114686   114723   114737   114743   114725   114663   114579   114535 
  114532   114516   114459   114359   114258   114173   114080   114015 
  113972   113880   113786   113763   113771   113783   113813   113848 
  113892   113962   114046   114124   114177   114199   114232   114295 
  114362   114448   114571   114701   114812   114860   114817   114755 
  114752   114789   114826   114831   114798   114747   114644   114504 
  114404   114351   114319   114313   114295   114246   114203   114130 
  113983   113838   113765   113748   113784   113865   113929   113971 
  114019   114064   114127   114245   114392   114555   114725   114855 
  114913   114882   114755   114589   114488   114453   114403   114326 
  114259   114195   114157   114197   114280   114376   114485   114561 
  114574   114535   114394   114145   113876   113671   113532   113459 
  113468   113514   113509   113476   113495   113516   113463   113404 
  113405   113451   113530   113637   113725   113744   113702   113651 
  113620   113597   113589   113655   113827   114064   114322   114550 
  114709   114821   114875   114859   114825   114820   114870   114997 
  115165   115303   115388   115423   115410   115368   115339   115360 
  115434   115499   115491   115439   115419   115458   115511   115508 
  115425   115284   115119   114928   114693   114440   114211   114008 
  113846   113740   113629   113475   113354   113302   113247   113177 
  113116   113038   112953   112912   112916   112949   113015   113097 
  113171   113243   113279   113259   113269   113395   113603   113814 
  113969   114072   114158   114215   114231   114228   114200   114173 
  114176   114169   114172   114249   114359   114421   114419   114411 
  114423   114423   114407   114394   114359   114305   114289   114311 
  114299   114234   114151   114079   114008   113942   113881   113784 
  113664   113625   113678   113730   113767   113827   113894   113899 
  113849   113838   113929   114065   114178   114296   114424   114474 
  114461   114482   114546   114624   114745   114922   115138   115342 
  115474   115542   115557   115520   115437   115310   115167   115037 
  114949   114910   114864   114766   114640   114535   114478   114454 
  114411   114322   114231   114199   114215   114220   114191   114131 
  114031   113873   113680   113513   113394   113279   113186   113175 
  113221   113236   113204   113188   113215   113248   113292   113398 
  113584   113799   113988   114119   114185   114210   114228   114265 
  114300   114311   114311   114312   114330   114388   114461   114502 
  114485   114401   114299   114208   114126   114069   114043   114002 
  113931   113879   113823   113709   113591   113555   113562   113549 
  113564   113652   113768   113873   113957   113968   113903   113872 
  113929   114031   114147   114281   114408   114471   114470   114448 
  114404   114324   114285   114358   114540   114771   114980   115113 
  115149   115157   115183   115191   115175   115159   115130   115079 
  114999   114905   114835   114798   114767   114725   114658   114585 
  114578   114627   114621   114492   114280   114081   113953   113867 
  113760   113616   113499   113466   113495   113521   113505   113490 
  113544   113670   113805   113903   113979   114058   114164   114315 
  114502   114698   114913   115117   115217   115231   115236   115230 
  115202   115169   115155   115186   115238   115248   115214   115186 
  115160   115101   114994   114836   114650   114466   114328   114261 
  114220   114173   114150   114142   114088   114008   113965   113927 
  113805   113641   113549   113503   113456   113449   113491   113563 
  113684   113833   113933   113949   113919   113910   113946   113985 
  114018   114072   114150   114215   114237   114237   114258   114301 
  114305   114264   114272   114381   114511   114575   114593   114605 
  114577   114454   114300   114247   114323   114447   114520   114469 
  114335   114242   114218   114180   114064   113888   113721   113620 
  113598   113684   113886   114102   114234   114318   114397   114454 
  114493   114546   114610   114627   114585   114575   114629   114660 
  114689   114806   114943   114990   114994   115053   115176   115294 
  115317   115246   115194   115223   115317   115460   115645   115836 
  115987   116052   116039   115974   115888   115808   115732   115668 
  115614   115483   115206   114840   114496   114265   114169   114149 
  114156   114184   114230   114237   114131   113927   113726   113563 
  113395   113256   113200   113159   113073   112988   112915   112812 
  112714   112715   112806   112874   112896   112927   113013   113196 
  113462   113714   113876   113965   114042   114095   114089   114093 
  114164   114250   114320   114372   114388   114397   114421   114389 
  114259   114173   114223   114319   114401   114459   114466   114471 
  114548   114666   114774   114879   115005   115176   115377   115539 
  115624   115620   115533   115438   115361   115275   115200   115146 
  115068   114955   114835   114733   114650   114565   114480   114417 
  114384   114350   114292   114254   114297   114403   114500   114578 
  114663   114732   114752   114810   114993   115163   115111   114851 
  114571   114446   114525   114663   114687   114625   114558   114466 
  114338   114200   114060   113931   113833   113748   113640   113495 
  113377   113355   113375   113328   113223   113100   112965   112862 
  112837   112824   112760   112673   112654   112757   112918   113026 
  113073   113144   113279   113428   113533   113591   113609   113610 
  113668   113821   114023   114207   114331   114374   114338   114262 
  114187   114103   113999   113931   113984   114141   114299   114394 
  114444   114480   114512   114531   114505   114373   114156   114008 
  114006   114060   114112   114162   114160   114102   114030   113952 
  113903   113888   113837   113779   113810   113948   114141   114280 
  114291   114272   114343   114457   114511   114469   114346   114201 
  114102   114072   114080   114083   114096   114176   114297   114357 
  114318   114226   114107   113985   113944   114069   114366   114706 
  114917   114974   114956   114907   114841   114795   114836   114998 
  115198   115334   115442   115592   115730   115763   115704   115627 
  115555   115474   115398   115311   115155   114924   114664   114396 
  114142   113902   113664   113458   113263   113022   112787   112653 
  112607   112580   112564   112612   112756   112972   113247   113545 
  113773   113892   113942   113967   114000   114080   114174   114245 
  114316   114390   114444   114497   114571   114643   114677   114656 
  114598   114539   114490   114466   114484   114532   114579   114616 
  114655   114718   114777   114790   114768   114772   114879   115107 
  115361   115500   115495   115418   115348   115344   115418   115469 
  115404   115249   115101   115064   115140   115175   115080   114920 
  114704   114442   114246   114170   114162   114180   114176   114129 
  114099   114102   114088   114092   114103   114035   113976   114034 
  114150   114281   114401   114484   114608   114818   115014   115130 
  115209   115304   115449   115620   115738   115778   115780   115758 
  115740   115765   115792   115763   115681   115565   115439   115326 
  115210   115083   115002   114998   115006   114960   114886   114771 
  114524   114165   113811   113513   113274   113088   112920   112788 
  112743   112804   112954   113158   113402   113671   113887   114008 
  114119   114266   114396   114484   114536   114529   114488   114534 
  114664   114725   114675   114615   114606   114694   114875   115059 
  115171   115234   115300   115384   115484   115597   115711   115755 
  115650   115450   115295   115169   115020   114918   114868   114752 
  114570   114409   114280   114139   114007   113953   114012   114162 
  114366   114563   114696   114764   114855   115020   115183   115261 
  115290   115344   115420   115461   115480   115522   115550   115542 
  115562   115627   115693   115766   115898   116127   116411   116644 
  116758   116770   116752   116770   116757   116571   116266   116013 
  115813   115592   115362   115152   114986   114901   114885   114925 
  115009   115086   115096   115042   114975   114913   114845   114790 
  114756   114694   114559   114393   114258   114162   114057   113906 
  113742   113583   113382   113205   113206   113351   113445   113435 
  113394   113283   113001   112627   112368   112272   112245   112222 
  112137   111998   111948   112031   112104   112109   112106   112121 
  112201   112452   112801   113059   113209   113320   113340   113233 
  113044   112831   112716   112770   112918   113127   113427   113709 
  113840   113842   113850   113918   114002   114139   114416   114797 
  115217   115673   116064   116206   116083   115828   115555   115377 
  115318   115229   114991   114685   114454   114336   114301   114331 
  114386   114413   114396   114382   114443   114569   114628   114515 
  114336   114288   114390   114507   114501   114369   114237   114203 
  114218   114166   113958   113628   113306   113067   112919   112838 
  112779   112749   112784   112796   112706   112558   112457   112472 
  112619   112842   113043   113171   113262   113378   113528   113625 
  113626   113620   113671   113688   113584   113421   113308   113278 
  113298   113337   113382   113425   113499   113606   113686   113748 
  113814   113857   113880   113873   113834   113778   113659   113466 
  113313   113244   113169   113088   113103   113211   113259   113175 
  113067   113005   112959   112970   113098   113286   113382   113320 
  113211   113182   113215   113270   113382   113568   113795   114021 
  114192   114328   114474   114615   114731   114831   114944   115128 
  115325   115439   115501   115555   115612   115668   115650   115566 
  115524   115528   115545   115605   115614   115399   115002   114596 
  114291   114154   114177   114253   114272   114189   114043   113888 
  113740   113611   113537   113516   113463   113302   113101   113020 
  113125   113374   113682   113973   114180   114289   114415   114683 
  115048   115349   115518   115541   115391   115098   114786   114548 
  114434   114497   114759   115126   115472   115730   115894   115973 
  115992   115982   115965   115962   115967   115906   115746   115573 
  115507   115569   115609   115457   115145   114799   114444   114104 
  113834   113621   113395   113121   112823   112567   112394   112325 
  112399   112529   112526   112368   112185   112083   112125   112239 
  112291   112310   112348   112305   112186   112230   112584   113073 
  113459   113713   113902   114052   114188   114300   114313   114249 
  114235   114363   114617   114851   114961   115063   115287   115578 
  115839   116036   116190   116283   116293   116303   116374   116441 
  116440   116307   116036   115750   115572   115593   115869   116309 
  116718   116985   117103   117085   116942   116719   116549   116564 
  116795   117135   117383   117406   117229   116995   116815   116691 
  116588   116506   116415   116297   116163   115985   115742   115468 
  115187   114966   114847   114778   114701   114566   114338   114065 
  113844   113719   113601   113377   113120   112972   112908   112872 
  112941   113185   113514   113795   114010   114203   114363   114444 
  114440   114392   114305   114135   113883   113620   113366   113088 
  112772   112417   112023   111640   111357   111217   111198   111229 
  111272   111342   111373   111312   111276   111353   111450   111481 
  111480   111526   111665   111832   111939   112028   112151   112280 
  112441   112649   112855   113040   113265   113562   113852   114022 
  114133   114362   114755   115260   115816   116259   116456   116523 
  116619   116764   116924   117074   117216   117379   117586   117807 
  117973   118003   117850   117587   117363   117234   117143   117078 
  117045   116968   116746   116352   115851   115341   114864   114399 
  113949   113567   113269   113016   112777   112592   112522   112569 
  112650   112665   112606   112506   112351   112109   111767   111316 
  110786   110293   109948   109756   109651   109560   109420   109247 
  109140   109197   109413   109721   110054   110409   110845   111352 
  111846   112317   112745   113044   113277   113630   114123   114598 
  114987   115327   115589   115715   115731   115720   115758   115912 
  116187   116438   116515   116472   116421   116367   116299   116251 
  116224   116152   116025   115919   115844   115727   115555   115352 
  115141   114971   114812   114589   114366   114239   114187   114149 
  114079   113941   113756   113589   113520   113597   113737   113894 
  114118   114373   114561   114689   114852   115080   115269   115384 
  115577   115859   116089   116295   116579   116866   117039   117108 
  117099   116992   116808   116615   116467   116424   116502   116586 
  116552   116409   116262   116168   116082   115917   115681   115460 
  115254   115015   114764   114529   114308   114112   113872   113458 
  112887   112278   111678   111098   110560   110076   109618   109154 
  108691   108311   108102   108044   108058   108114   108248   108494 
  108828   109216   109680   110227   110806   111433   112193   113111 
  114066   114878   115533   116132   116681   117185   117644   118019 
  118361   118727   119070   119385   119693   119893   119885   119761 
  119637   119468   119210   118952   118786   118700   118623   118508 
  118308   118030   117772   117583   117416   117251   117072   116808 
  116463   116152   115919   115688   115420   115105   114691   114187 
  113699   113377   113225   113094   112889   112693   112645   112726 
  112823   112911   113031   113236   113559   113937   114295   114648 
  115018   115333   115533   115643   115693   115681   115576   115362 
  115160   115105   115168   115238   115298   115380   115460   115481 
  115472   115515   115609   115695   115703   115531   115134   114620 
  114133   113756   113505   113328   113120   112815   112463   112133 
  111786   111375   110922   110481   110118   109908   109823   109733 
  109595   109522   109624   109922   110342   110713   110930   111053 
  111194   111423   111739   112091   112449   112803   113139   113406 
  113571   113697   113868   114068   114208   114266   114318   114440 
  114609   114751   114810   114736   114609   114606   114709   114759 
  114710   114601   114494   114443   114390   114273   114129   113944 
  113648   113274   112946   112789   112850   113082   113412   113744 
  113961   114034   114049   114075   114102   114112   114138   114242 
  114413   114532   114532   114512   114548   114596   114616   114646 
  114682   114690   114704   114766   114831   114882   114928   114903 
  114781   114696   114760   114922   115137   115438   115771   115977 
  116006   115894   115603   115109   114554   114112   113832   113703 
  113734   113844   113890   113848   113791   113814   113950   114072 
  114070   114029   114068   114169   114222   114110   113809   113385 
  112903   112361   111811   111380   111109   110872   110517   110029 
  109528   109166   108982   108904   108886   108951   109090   109304 
  109632   110031   110390   110691   110999   111322   111661   112101 
  112696   113323   113864   114416   115052   115646   116095   116409 
  116644   116850   117031   117197   117439   117763   118048   118251 
  118463   118704   118944   119190   119408   119542   119638   119747 
  119831   119830   119709   119470   119178   118881   118544   118165 
  117795   117437   117081   116745   116414   116093   115859   115703 
  115496   115187   114883   114709   114628   114544   114453   114394 
  114400   114424   114347   114176   114069   114100   114210   114328 
  114401   114380   114254   114115   114010   113868   113672   113487 
  113371   113374   113493   113706   114018   114380   114662   114831 
  114979   115165   115399   115680   115952   116128   116199   116243 
  116291   116286   116190   116024   115813   115569   115329   115150 
  115006   114840   114674   114474   114079   113472   112882   112476 
  112203   111979   111846   111879   112062   112309   112541   112681 
  112664   112538   112457   112486   112625   112881   113244   113690 
  114204   114687   114976   115032   114963   114868   114783   114689 
  114508   114228   113971   113794   113641   113482   113323   113152 
  112970   112814   112685   112538   112363   112168   111931   111645 
  111370   111165   111003   110824   110619   110485   110531   110756 
  111045   111291   111484   111672   111859   112024   112193   112409 
  112673   113008   113433   113896   114357   114820   115253   115609 
  115842   115921   115917   115943   116052   116197   116326   116517 
  116847   117239   117555   117751   117891   117991   117936   117697 
  117396   117104   116815   116540   116278   116025   115831   115717 
  115620   115473   115271   115074   114924   114764   114529   114265 
  114049   113891   113722   113456   113094   112723   112419   112193 
  111985   111715   111334   110909   110579   110434   110424   110446 
  110493   110637   110866   111132   111514   112040   112592   113094 
  113520   113834   114072   114311   114581   114897   115263   115624 
  115938   116194   116353   116403   116419   116484   116623   116791 
  116916   116939   116843   116660   116434   116206   116010   115820 
  115570   115260   114922   114593   114296   114008   113665   113287 
  113003   112851   112750   112660   112675   112872   113166   113439 
  113695   113996   114351   114704   114982   115132   115161   115150 
  115179   115272   115429   115634   115831   115993   116149   116297 
  116428   116564   116658   116652   116615   116646   116766   116988 
  117266   117475   117545   117508   117405   117266   117088   116876 
  116645   116383   116112   115867   115622   115321   114952   114573 
  114219   113887   113595   113402   113292   113181   113017   112838 
  112662   112438   112132   111846   111690   111628   111582   111501 
  111334   111095   110844   110601   110374   110187   110066   110056 
  110193   110471   110840   111210   111466   111609   111790   112056 
  112301   112515   112779   113077   113404   113807   114237   114578 
  114809   114941   115005   115038   115032   114991   114979   115028 
  115079   115025   114844   114616   114386   114176   114016   113922 
  113945   114127   114394   114643   114828   114929   114968   114983 
  114978   114993   115076   115221   115415   115659   115928   116170 
  116301   116313   116283   116252   116228   116236   116249   116236 
  116199   116164   116149   116129   116056   115929   115757   115543 
  115348   115215   115090   114925   114745   114586   114438   114286 
  114127   113973   113877   113875   113913   113911   113840   113713 
  113579   113452   113262   112963   112661   112490   112450   112446 
