Origin Time       2025/01/13 21:19:00
Lat.              31.8
Long.             131.6
Depth. (km)       30
Mag.              6.9
Station Code      EHMH11
Station Lat.      33.5807
Station Long.     132.6011
Station Height(m) 210
Record Time       2025/01/13 21:20:11
Sampling Freq(Hz) 100Hz
Duration Time(s)  134
Dir.              4
Scale Factor      7845(gal)/8223790
Max. Acc. (gal)   3.301
Last Correction   2025/01/13 21:20:12
Memo.             
[...]
  -18071   -17841   -17714   -17714   -17815   -17998   -18260   -18512 
  -18620   -18539   -18279   -17857   -17400   -17100   -17066   -17298 
  -17709   -18119   -18372   -18422   -18276   -17960   -17564   -17213 
  -17031   -17100   -17383   -17778   -18180   -18488   -18617   -18500 
  -18144   -17685   -17294   -17086   -17108   -17313   -17621   -17986 
  -18346   -18603   -18684   -18584   -18330   -17972   -17591   -17358 
  -17420   -17741   -18160   -18490   -18576   -18393   -18049   -17680 
  -17420   -17342   -17408   -17559   -17798   -18100   -18382   -18538 
  -18441   -18048   -17496   -17015   -16769   -16823   -17185   -17760 
  -18339   -18748   -18879   -18663   -18177   -17618   -17177   -16969 
  -17005   -17254   -17662   -18083   -18354   -18466   -18454   -18338 
  -18191   -18072   -17975   -17917   -17910   -17887   -17782   -17586 
  -17311   -17004   -16818   -16877   -17150   -17505   -17813   -17987 
  -18007   -17901   -17749   -17648   -17622   -17693   -17857   -18040 
  -18184   -18252   -18160   -17901   -17570   -17304   -17182   -17177 
  -17253   -17454   -17786   -18176   -18558   -18855   -18928   -18713 
  -18342   -18003   -17790   -17751   -17905   -18164   -18333   -18264 
  -17976   -17585   -17230   -17046   -17069   -17240   -17509   -17799 
  -18019   -18139   -18148   -18033   -17864   -17751   -17733   -17787 
  -17906   -18014   -17980   -17805   -17579   -17366   -17242   -17294 
  -17536   -17910   -18260   -18441   -18441   -18292   -18065   -17942 
  -18004   -18171   -18393   -18630   -18796   -18883   -18909   -18860 
  -18720   -18492   -18218   -17996   -17899   -17886   -17878   -17832 
  -17748   -17671   -17668   -17741   -17826   -17891   -17957   -18060 
  -18166   -18193   -18102   -17891   -17585   -17297   -17193   -17312 
  -17559   -17783   -17857   -17737   -17493   -17294   -17238   -17265 
  -17297   -17304   -17247   -17140   -17061   -17037   -17059   -17159 
  -17340   -17570   -17807   -17988   -18065   -18042   -17953   -17894 
  -17938   -18018   -18025   -17949   -17876   -17941   -18199   -18516 
  -18711   -18705   -18512   -18210   -17929   -17788   -17863   -18122 
  -18409   -18607   -18697   -18662   -18481   -18179   -17767   -17317 
  -16978   -16877   -17053   -17410   -17786   -18046   -18112   -18009 
  -17838   -17710   -17679   -17726   -17793   -17848   -17882   -17891 
  -17894   -17875   -17790   -17667   -17597   -17676   -17984   -18472 
  -18935   -19156   -19026   -18577   -17986   -17486   -17236   -17261 
  -17473   -17726   -17898   -17950   -17913   -17826   -17730   -17660 
  -17653   -17752   -17971   -18289   -18601   -18739   -18604   -18241 
  -17780   -17388   -17188   -17170   -17292   -17563   -17937   -18268 
  -18430   -18374   -18131   -17794   -17535   -17525   -17775   -18081 
  -18242   -18215   -18099   -18021   -18045   -18126   -18181   -18171 
  -18110   -18095   -18196   -18330   -18400   -18372   -18210   -17983 
  -17825   -17703   -17494   -17162   -16807   -16645   -16827   -17324 
  -17994   -18588   -18836   -18675   -18222   -17637   -17111   -16784 
  -16681   -16806   -17185   -17740   -18304   -18711   -18832   -18659 
  -18300   -17859   -17402   -16999   -16726   -16677   -16881   -17280 
  -17806   -18358   -18778   -18959   -18889   -18607   -18206   -17807 
  -17517   -17396   -17416   -17514   -17647   -17811   -18037   -18296 
  -18470   -18458   -18268   -17996   -17780   -17706   -17767   -17888 
  -18009   -18107   -18177   -18249   -18349   -18438   -18489   -18546 
  -18625   -18675   -18662   -18576   -18399   -18144   -17871   -17635 
  -17447   -17290   -17166   -17050   -16893   -16721   -16618   -16667 
  -16877   -17189   -17505   -17755   -17909   -17988   -18042   -18069 
  -18040   -17959   -17863   -17805   -17830   -17934   -18071   -18200 
  -18335   -18470   -18496   -18312   -17982   -17671   -17552   -17737 
  -18160   -18600   -18844   -18806   -18549   -18172   -17748   -17340 
  -17001   -16741   -16592   -16648   -16943   -17396   -17840   -18134 
  -18233   -18169   -17992   -17756   -17571   -17567   -17784   -18180 
  -18666   -19082   -19203   -18905   -18283   -17572   -17000   -16729 
  -16816   -17167   -17628   -18076   -18407   -18566   -18526   -18269 
  -17855   -17408   -17070   -16977   -17192   -17660   -18239   -18752 
  -19040   -19009   -18674   -18153   -17624   -17243   -17093   -17208 
  -17563   -18058   -18532   -18825   -18819   -18540   -18139   -17718 
  -17323   -17031   -16900   -16956   -17220   -17632   -17969   -17999 
  -17717   -17339   -17091   -17097   -17342   -17656   -17860   -17942 
  -18017   -18138   -18264   -18295   -18149   -17841   -17483   -17211 
  -17122   -17239   -17494   -17776   -17994   -18102   -18079   -17949 
  -17806   -17737   -17770   -17884   -17988   -17976   -17855   -17732 
  -17686   -17717   -17764   -17767   -17745   -17757   -17795   -17798 
  -17733   -17651   -17656   -17818   -18138   -18538   -18886   -19063 
  -19005   -18700   -18207   -17628   -17058   -16595   -16359   -16459 
  -16869   -17408   -17834   -17987   -17891   -17699   -17528   -17416 
  -17350   -17346   -17487   -17837   -18331   -18775   -18947   -18769 
  -18307   -17717   -17213   -16943   -16957   -17244   -17699   -18142 
  -18468   -18651   -18694   -18697   -18744   -18794   -18797   -18774 
  -18715   -18578   -18388   -18208   -18076   -17948   -17761   -17533 
  -17354   -17290   -17351   -17532   -17842   -18227   -18549   -18679 
  -18580   -18312   -18022   -17856   -17875   -18046   -18287   -18458 
  -18441   -18254   -18054   -17955   -17964   -18013   -18018   -17965 
  -17888   -17795   -17691   -17629   -17616   -17599   -17609   -17743 
  -18029   -18370   -18586   -18516   -18144   -17632   -17204   -17003 
  -17037   -17223   -17482   -17798   -18169   -18547   -18840   -18956 
  -18847   -18522   -18045   -17547   -17192   -17099   -17285   -17672 
  -18118   -18408   -18432   -18260   -17980   -17640   -17301   -17012 
  -16795   -16691   -16769   -17065   -17527   -17991   -18225   -18076 
  -17636   -17182   -16947   -17020   -17388   -17914   -18396   -18700 
  -18800   -18684   -18376   -17992   -17655   -17404   -17257   -17248 
  -17428   -17748   -18031   -18139   -18048   -17807   -17532   -17280 
  -17022   -16792   -16734   -16983   -17577   -18380   -19051   -19280 
  -18999   -18318   -17521   -16989   -16885   -17089   -17386   -17586 
  -17637   -17618   -17560   -17428   -17254   -17104   -17038   -17086 
  -17220   -17401   -17614   -17803   -17887   -17842   -17759   -17748 
  -17830   -17964   -18080   -18114   -18073   -18026   -18030   -18139 
  -18358   -18628   -18883   -19025   -19013   -18913   -18777   -18620 
  -18486   -18380   -18270   -18168   -18095   -18098   -18200   -18351 
  -18468   -18476   -18322   -18003   -17593   -17248   -17089   -17115 
  -17262   -17451   -17616   -17752   -17890   -17992   -18009   -17957 
  -17851   -17732   -17717   -17841   -18003   -18065   -17968   -17764 
  -17551   -17428   -17467   -17599   -17676   -17655   -17602   -17566 
  -17520   -17442   -17390   -17454   -17664   -17964   -18225   -18337 
  -18310   -18258   -18274   -18366   -18493   -18578   -18561   -18459 
  -18312   -18157   -18045   -17991   -17967   -17940   -17896   -17856 
  -17851   -17894   -17923   -17863   -17734   -17635   -17586   -17529 
  -17432   -17300   -17149   -17037   -17054   -17277   -17679   -18103 
  -18368   -18381   -18214   -18049   -17975   -17953   -17926   -17832 
  -17685   -17605   -17636   -17660   -17571   -17397   -17286   -17428 
  -17878   -18476   -18966   -19086   -18725   -18042   -17338   -16852 
  -16725   -16976   -17510   -18193   -18891   -19427   -19641   -19476 
  -18959   -18239   -17578   -17205   -17244   -17635   -18131   -18517 
  -18716   -18702   -18508   -18188   -17805   -17509   -17440   -17574 
  -17795   -17988   -18083   -18117   -18137   -18119   -18017   -17749 
  -17311   -16877   -16695   -16888   -17420   -18114   -18747   -19138 
  -19191   -18928   -18434   -17810   -17226   -16896   -16974   -17470 
  -18184   -18756   -18918   -18667   -18210   -17774   -17473   -17296 
  -17212   -17254   -17456   -17807   -18285   -18765   -19039   -19039 
  -18779   -18297   -17751   -17359   -17224   -17355   -17679   -18056 
  -18385   -18592   -18616   -18490   -18270   -17969   -17632   -17305 
  -17050   -16962   -17085   -17409   -17806   -18080   -18160   -18049 
  -17734   -17316   -16968   -16807   -16880   -17172   -17645   -18208 
  -18655   -18856   -18817   -18565   -18193   -17888   -17747   -17736 
  -17755   -17705   -17599   -17556   -17721   -18100   -18501   -18678 
  -18508   -18023   -17458   -17135   -17162   -17363   -17548   -17674 
  -17751   -17801   -17845   -17875   -17894   -17890   -17842   -17760 
  -17625   -17385   -17070   -16831   -16872   -17285   -17934   -18531 
  -18802   -18663   -18264   -17809   -17393   -17027   -16702   -16471 
  -16443   -16675   -17123   -17626   -17956   -17967   -17683   -17302 
  -17145   -17398   -17887   -18299   -18523   -18593   -18567   -18598 
  -18754   -18858   -18773   -18544   -18274   -18072   -18010   -18025 
  -17986   -17810   -17513   -17213   -17080   -17243   -17663   -18127 
  -18405   -18361   -17998   -17435   -16858   -16475   -16436   -16779 
  -17400   -18063   -18596   -18993   -19241   -19240   -18912   -18316 
  -17659   -17192   -17093   -17382   -17914   -18465   -18796   -18813 
  -18639   -18436   -18260   -18071   -17815   -17523   -17289   -17200 
  -17304   -17547   -17783   -17944   -18050   -18141   -18237   -18293 
  -18254   -18200   -18168   -18061   -17905   -17807   -17776   -17845 
  -18029   -18204   -18272   -18225   -18022   -17712   -17479   -17436 
  -17571   -17849   -18185   -18489   -18686   -18648   -18339   -17946 
  -17652   -17541   -17671   -17967   -18270   -18535   -18759   -18895 
  -18882   -18708   -18485   -18354   -18266   -18085   -17788   -17427 
  -17076   -16872   -16949   -17355   -18019   -18690   -19062   -18981 
  -18500   -17809   -17099   -16468   -16048   -16027   -16417   -17018 
  -17644   -18193   -18566   -18697   -18625   -18408   -18029   -17537 
  -17088   -16830   -16843   -17116   -17482   -17703   -17686   -17528 
  -17347   -17239   -17311   -17567   -17906   -18212   -18365   -18266 
  -17946   -17537   -17180   -16929   -16791   -16788   -16937   -17180 
  -17416   -17581   -17694   -17755   -17748   -17701   -17652   -17640 
  -17668   -17699   -17757   -17876   -18046   -18292   -18566   -18715 
  -18632   -18308   -17876   -17548   -17396   -17354   -17374   -17455 
  -17620   -17861   -18103   -18265   -18327   -18326   -18316   -18323 
  -18319   -18270   -18181   -18123   -18211   -18468   -18736   -18850 
  -18759   -18472   -18048   -17658   -17469   -17531   -17836   -18347 
  -18901   -19224   -19182   -18868   -18426   -17955   -17586   -17467 
  -17672   -18122   -18601   -18917   -18974   -18758   -18346   -17898 
  -17577   -17456   -17439   -17379   -17319   -17404   -17658   -18004 
  -18312   -18378   -18133   -17751   -17440   -17274   -17278   -17496 
  -17859   -18185   -18310   -18200   -17936   -17636   -17439   -17435 
  -17566   -17768   -18069   -18418   -18696   -18860   -18906   -18824 
  -18661   -18505   -18468   -18607   -18858   -19097   -19188   -19035 
  -18694   -18297   -17938   -17744   -17771   -17942   -18173   -18407 
  -18586   -18688   -18670   -18451   -18019   -17493   -17027   -16723 
  -16617   -16737   -17119   -17695   -18273   -18630   -18616   -18227 
  -17645   -17138   -16918   -17104   -17626   -18218   -18627   -18738 
  -18577   -18296   -17988   -17589   -17089   -16649   -16457   -16622 
  -17112   -17721   -18111   -18018   -17517   -16945   -16568   -16438 
  -16542   -16872   -17320   -17768   -18158   -18403   -18427   -18262 
  -17971   -17616   -17344   -17311   -17525   -17878   -18223   -18432 
  -18447   -18322   -18148   -17968   -17859   -17901   -18046   -18202 
  -18362   -18523   -18590   -18428   -17937   -17227   -16679   -16571 
  -16788   -17080   -17328   -17479   -17539   -17604   -17686   -17625 
  -17289   -16735   -16213   -16005   -16248   -16868   -17620   -18262 
  -18724   -19014   -19072   -18867   -18447   -17878   -17335   -17113 
  -17356   -17949   -18654   -19232   -19462   -19190   -18445   -17486 
  -16638   -16186   -16270   -16758   -17392   -17953   -18243   -18165 
  -17805   -17329   -16914   -16700   -16744   -17027   -17509   -18054 
  -18446   -18546   -18354   -17928   -17413   -17046   -16958   -17046 
  -17096   -16988   -16779   -16548   -16321   -16177   -16201   -16432 
  -16924   -17658   -18399   -18839   -18782   -18231   -17420   -16738 
  -16479   -16664   -17062   -17440   -17763   -18098   -18405   -18567 
  -18534   -18370   -18139   -17915   -17836   -17955   -18180   -18409 
  -18562   -18590   -18489   -18281   -18037   -17915   -18094   -18558 
  -19087   -19480   -19618   -19404   -18890   -18258   -17645   -17169 
  -16988   -17143   -17509   -17922   -18216   -18250   -18050   -17772 
  -17535   -17393   -17382   -17462   -17531   -17508   -17401   -17273 
  -17118   -16897   -16696   -16680   -16946   -17459   -18036   -18484 
  -18725   -18700   -18443   -18212   -18187   -18269   -18280   -18122 
  -17828   -17578   -17516   -17593   -17695   -17757   -17690   -17409 
  -16930   -16411   -16073   -16071   -16445   -17169   -18181   -19314 
  -20329   -21024   -21331   -21284   -20900   -20241   -19515   -18937 
  -18580   -18397   -18326   -18315   -18289   -18215   -18142   -18083 
  -17914   -17528   -17004   -16598   -16548   -16916   -17537   -18195 
  -18746   -19047   -18975   -18522   -17838   -17221   -16919   -16972 
  -17316   -17883   -18520   -18963   -18990   -18555   -17834   -17178 
  -16924   -17159   -17705   -18269   -18576   -18517   -18272   -18102 
  -18038   -17967   -17923   -18037   -18268   -18459   -18532   -18443 
  -18175   -17841   -17591   -17524   -17653   -17809   -17774   -17490 
  -17020   -16491   -16050   -15785   -15761   -15958   -16228   -16513 
  -16849   -17122   -17192   -17108   -16999   -16978   -17084   -17212 
  -17267   -17280   -17315   -17392   -17560   -17863   -18193   -18369 
  -18301   -18063   -17790   -17597   -17566   -17709   -17932   -18119 
  -18177   -18021   -17594   -16918   -16187   -15763   -15903   -16544 
  -17370   -17992   -18156   -17871   -17332   -16775   -16483   -16704 
  -17397   -18245   -18917   -19237   -19198   -18902   -18481   -18075 
  -17840   -17895   -18220   -18643   -19043   -19473   -19996   -20499 
  -20819   -20862   -20529   -19807   -18901   -18068   -17500   -17375 
  -17722   -18346   -18963   -19267   -19106   -18565   -17787   -17031 
  -16667   -16848   -17444   -18245   -19013   -19529   -19664   -19372 
  -18708   -17874   -17201   -16995   -17332   -18049   -18855   -19384 
  -19392   -18905   -18069   -17053   -16104   -15462   -15275   -15610 
  -16399   -17386   -18252   -18746   -18727   -18247   -17544   -16899 
  -16498   -16370   -16449   -16654   -16892   -17113   -17321   -17458 
  -17451   -17313   -17077   -16784   -16569   -16564   -16796   -17236 
  -17764   -18146   -18199   -17914   -17429   -16962   -16756   -16954 
  -17491   -18107   -18508   -18553   -18334   -18067   -17911   -17945 
  -18111   -18256   -18304   -18274   -18150   -17929   -17671   -17409 
  -17193   -17116   -17194   -17365   -17581   -17767   -17845   -17815 
  -17668   -17386   -17099   -17064   -17361   -17805   -18168   -18273 
  -18058   -17703   -17512   -17675   -18125   -18597   -18890   -18968 
  -18867   -18677   -18508   -18438   -18432   -18381   -18314   -18374 
  -18582   -18854   -19116   -19306   -19404   -19410   -19310   -19141 
  -18936   -18673   -18380   -18149   -18011   -17968   -18040   -18249 
  -18540   -18779   -18882   -18859   -18754   -18611   -18439   -18189 
  -17853   -17502   -17209   -16999   -16893   -16941   -17163   -17558 
  -18031   -18387   -18508   -18441   -18242   -17955   -17691   -17568 
  -17585   -17670   -17733   -17655   -17397   -17070   -16795   -16661 
  -16752   -17061   -17506   -18021   -18505   -18829   -18943   -18910 
  -18825   -18750   -18713   -18747   -18905   -19222   -19600   -19808 
  -19715   -19417   -19109   -18904   -18825   -18859   -18922   -18898 
  -18728   -18397   -17976   -17655   -17614   -17865   -18260   -18607 
  -18770   -18701   -18418   -17926   -17266   -16563   -15975   -15681 
  -15826   -16328   -16930   -17419   -17680   -17722   -17678   -17693 
  -17813   -17933   -17909   -17655   -17253   -16920   -16777   -16777 
  -16831   -16829   -16708   -16518   -16317   -16163   -16151   -16333 
  -16692   -17136   -17532   -17791   -17905   -17880   -17743   -17564 
  -17443   -17451   -17610   -17892   -18210   -18478   -18661   -18732 
  -18686   -18532   -18281   -17977   -17720   -17608   -17713   -17991 
  -18297   -18555   -18739   -18813   -18789   -18700   -18542   -18360 
  -18196   -18042   -17956   -18006   -18126   -18195   -18154   -18022 
  -17894   -17825   -17795   -17763   -17658   -17481   -17336   -17288 
  -17327   -17419   -17510   -17560   -17539   -17454   -17369   -17386 
  -17570   -17903   -18277   -18513   -18530   -18385   -18133   -17807 
  -17474   -17186   -17019   -17038   -17235   -17541   -17864   -18094 
  -18137   -17991   -17772   -17586   -17475   -17467   -17502   -17447 
  -17292   -17108   -16945   -16907   -17115   -17525   -17961   -18296 
  -18495   -18550   -18472   -18318   -18158   -18037   -17995   -18023 
  -18036   -17964   -17830   -17691   -17624   -17729   -18013   -18376 
  -18717   -18975   -19136   -19215   -19219   -19159   -19070   -18960 
  -18819   -18666   -18505   -18299   -18053   -17825   -17639   -17455 
  -17247   -17089   -17103   -17284   -17508   -17655   -17645   -17504 
  -17355   -17321   -17490   -17853   -18215   -18411   -18458   -18424 
  -18401   -18443   -18441   -18274   -17973   -17614   -17288   -17099 
  -17095   -17231   -17470   -17770   -18049   -18223   -18204   -17933 
  -17494   -17095   -16889   -16918   -17157   -17529   -17928   -18276 
  -18540   -18665   -18617   -18457   -18289   -18187   -18165   -18208 
  -18234   -18152   -17973   -17787   -17640   -17541   -17512   -17539 
  -17559   -17540   -17532   -17577   -17670   -17768   -17797   -17724 
  -17614   -17543   -17550   -17662   -17905   -18281   -18725   -19121 
  -19406   -19511   -19314   -18820   -18211   -17643   -17180   -16838 
  -16614   -16524   -16596   -16822   -17124   -17339   -17316   -17027 
  -16588   -16263   -16279   -16599   -17008   -17296   -17348   -17219 
  -17049   -16924   -16833   -16765   -16776   -16880   -17066   -17356 
  -17701   -17944   -17937   -17639   -17135   -16576   -16116   -15850 
  -15788   -15905   -16193   -16642   -17182   -17662   -17956   -18073 
  -18092   -18061   -18006   -17941   -17875   -17875   -18011   -18252 
  -18503   -18673   -18702   -18673   -18715   -18823   -18921   -18983 
  -19009   -19012   -19030   -19097   -19214   -19386   -19585   -19735 
  -19768   -19691   -19558   -19422   -19279   -19113   -18966   -18912 
  -18960   -19026   -19010   -18897   -18727   -18566   -18522   -18648 
  -18904   -19214   -19495   -19707   -19877   -19984   -19962   -19823 
