Origin Time       2025/01/13 21:19:00
Lat.              31.8
Long.             131.6
Depth. (km)       30
Mag.              6.9
Station Code      EHMH11
Station Lat.      33.5807
Station Long.     132.6011
Station Height(m) 110
Record Time       2025/01/13 21:20:11
Sampling Freq(Hz) 100Hz
Duration Time(s)  134
Dir.              2
Scale Factor      2942(gal)/8224139
Max. Acc. (gal)   1.675
Last Correction   2025/01/13 21:20:12
Memo.             
[...]
    2446     2424     2413     2413     2374     2278     2201     2223 
    2315     2342     2272     2228     2230     2192     2158     2181 
    2172     2096     2035     2004     1980     1983     2011     2029 
    2000     1946     1917     1877     1798     1757     1790     1809 
    1814     1879     1989     2095     2197     2309     2420     2512 
    2605     2731     2866     2964     3036     3082     3096     3145 
    3245     3267     3114     2851     2597     2465     2482     2532 
    2529     2528     2544     2508     2412     2304     2200     2149 
    2173     2172     2108     2108     2166     2154     2120     2176 
    2220     2154     2101     2157     2205     2168     2141     2201 
    2293     2350     2359     2344     2344     2377     2388     2350 
    2313     2285     2212     2073     1935     1891     1915     1879 
    1777     1711     1745     1860     1980     2054     2126     2236 
    2354     2420     2408     2407     2516     2621     2601     2573 
    2646     2754     2799     2745     2662     2658     2646     2493 
    2313     2207     2074     1925     1864     1815     1676     1553 
    1540     1540     1525     1591     1725     1806     1844     1945 
    2101     2227     2304     2313     2245     2172     2161     2153 
    2093     2020     1972     1958     1979     2000     1999     1988 
    1964     1892     1764     1682     1749     1864     1877     1858 
    1954     2126     2228     2222     2204     2268     2353     2351 
    2284     2253     2316     2477     2666     2768     2754     2697 
    2633     2505     2296     2123     2099     2205     2334     2398 
    2385     2324     2239     2157     2133     2133     2060     2012 
    2150     2335     2373     2349     2353     2353     2370     2442 
    2529     2609     2643     2598     2579     2679     2806     2868 
    2911     2964     2984     2979     2925     2745     2463     2236 
    2172     2185     2155     2096     2060     2023     2008     2095 
    2243     2336     2355     2370     2454     2632     2829     2967 
    3036     3037     2957     2816     2667     2569     2516     2490 
    2502     2516     2479     2447     2474     2532     2608     2702 
    2752     2718     2670     2694     2764     2749     2637     2559 
    2531     2452     2304     2108     1925     1856     1853     1796 
    1769     1890     2035     2062     2033     2091     2268     2455 
    2547     2550     2493     2378     2274     2270     2363     2493 
    2597     2616     2560     2502     2501     2590     2756     2929 
    3057     3110     3094     3067     3026     2922     2876     3009 
    3184     3258     3308     3379     3366     3287     3257     3230 
    3111     2998     2970     2910     2772     2697     2694     2647 
    2592     2573     2506     2440     2484     2556     2578     2617 
    2679     2656     2556     2484     2457     2474     2586     2691 
    2578     2327     2182     2092     1907     1780     1858     1958 
    1930     1904     1946     1933     1829     1690     1560     1509 
    1575     1715     1868     1998     2034     1957     1903     1944 
    1961     1907     1873     1844     1787     1830     2038     2255 
    2363     2394     2380     2296     2176     2146     2249     2350 
    2377     2400     2436     2450     2494     2587     2656     2704 
    2758     2816     2957     3194     3426     3677     3915     3962 
    3875     3865     3893     3873     3894     3966     3939     3790 
    3627     3449     3175     2871     2674     2552     2439     2342 
    2196     2043     2120     2331     2335     2239     2285     2308 
    2245     2308     2407     2363     2365     2490     2501     2382 
    2339     2369     2330     2228     2158     2134     2172     2262 
    2242     2041     1868     1837     1830     1782     1686     1506 
    1364     1425     1607     1744     1819     1885     1937     1969 
    2025     2118     2209     2304     2432     2532     2585     2702 
    2833     2828     2803     2894     2926     2826     2751     2690 
    2563     2489     2521     2527     2474     2435     2384     2278 
    2220     2293     2342     2231     2116     2134     2162     2114 
    2070     2041     1964     1922     1992     2095     2170     2230 
    2220     2146     2101     2116     2172     2249     2261     2162 
    2053     2002     1973     1975     2043     2092     1973     1723 
    1516     1401     1350     1398     1513     1532     1389     1204 
    1112     1171     1317     1367     1236     1047      951     1003 
    1169     1336     1402     1372     1360     1440     1532     1576 
    1647     1761     1833     1848     1857     1867     1852     1788 
    1715     1746     1883     1962     1939     1973     2115     2207 
    2188     2165     2170     2178     2234     2328     2427     2556 
    2633     2525     2361     2327     2334     2261     2178     2161 
    2203     2350     2606     2853     2976     2988     2934     2859 
    2909     3111     3154     2926     2759     2782     2776     2663 
    2502     2309     2119     1921     1711     1628     1691     1683 
    1539     1436     1451     1503     1545     1630     1768     1807 
    1692     1614     1692     1840     2062     2389     2655     2748 
    2760     2741     2659     2596     2606     2559     2403     2289 
    2346     2505     2567     2420     2199     2089     2103     2199 
    2299     2265     2160     2207     2382     2471     2430     2396 
    2448     2496     2492     2558     2714     2785     2712     2613 
    2582     2654     2760     2760     2705     2698     2600     2316 
    2010     1807     1703     1683     1722     1786     1813     1730 
    1601     1563     1602     1609     1583     1614     1742     1898 
    2015     2124     2203     2187     2173     2257     2332     2357 
    2389     2428     2447     2454     2465     2512     2609     2729 
    2851     2975     3114     3241     3276     3186     3011     2805 
    2650     2640     2735     2789     2762     2668     2501     2336 
    2293     2309     2270     2226     2208     2147     2104     2193 
    2323     2349     2296     2182     1968     1755     1676     1676 
    1652     1621     1588     1512     1443     1475     1520     1470 
    1447     1528     1626     1768     2025     2268     2408     2511 
    2556     2552     2612     2728     2781     2747     2683     2646 
    2656     2713     2785     2816     2829     2914     2997     2965 
    2917     2941     2964     3024     3187     3334     3414     3568 
    3843     4133     4347     4523     4739     4903     4909     4892 
    4972     5049     5026     4947     4877     4810     4703     4581 
    4504     4441     4334     4244     4230     4207     4113     4025 
    3998     3975     3873     3680     3478     3352     3234     3019 
    2691     2342     2124     2050     1965     1826     1702     1580 
    1479     1459     1444     1341     1204     1070      918      815 
     842      923      973      990      953      870      899     1146 
    1489     1757     1927     2019     2058     2154     2380     2667 
    2964     3223     3299     3153     2945     2759     2581     2466 
    2470     2551     2641     2724     2783     2781     2725     2737 
    2859     2932     2891     2847     2794     2681     2567     2461 
    2304     2141     1981     1722     1372     1082      892      720 
     558      479      473      442      372      324      306      346 
     484      626      660      629      621      704      930     1200 
    1321     1278     1193     1171     1252     1389     1521     1633 
    1651     1530     1366     1240     1140     1048      946      827 
     696      523      337      195        5     -315     -625     -760 
    -719     -577     -413     -270     -129       31      217      430 
     692     1008     1286     1439     1521     1606     1674     1755 
    1869     1960     2058     2220     2330     2340     2416     2600 
    2741     2790     2808     2839     2936     3152     3462     3735 
    3823     3750     3647     3570     3515     3468     3384     3276 
    3167     3037     2934     2893     2806     2668     2636     2725 
    2862     3082     3302     3352     3375     3559     3754     3840 
    3947     4072     4068     4005     4024     4043     3962     3870 
    3777     3537     3186     2955     2814     2574     2369     2328 
    2232     2026     1961     2043     2081     2089     2150     2192 
    2133     2020     1945     1891     1742     1479     1201      992 
     907      915      880      769      693      715      851     1086 
    1343     1617     1983     2412     2839     3248     3550     3694 
    3821     4023     4167     4199     4243     4284     4176     3970 
    3875     3842     3703     3566     3505     3349     3153     3138 
    3194     3219     3412     3742     3910     3917     3966     4070 
    4172     4261     4301     4295     4274     4166     3956     3804 
    3715     3454     2975     2560     2335     2104     1821     1625 
    1487     1335     1270     1302     1279     1212     1251     1356 
    1387     1402     1497     1618     1717     1819     1912     1973 
    1985     1918     1796     1729     1746     1742     1688     1663 
    1651     1587     1513     1476     1431     1350     1332     1464 
    1661     1814     1988     2215     2355     2371     2390     2450 
    2497     2484     2393     2331     2326     2203     1977     1873 
    1806     1590     1453     1582     1732     1740     1714     1667 
    1576     1591     1730     1782     1775     1912     2039     1926 
    1809     1911     2027     2066     2236     2528     2803     3063 
    3198     3121     3010     2964     2901     2917     3109     3264 
    3245     3184     3130     2988     2770     2559     2312     1957 
    1598     1343     1161     1084     1169     1254     1161      961 
     789      657      571      531      506      513      556      553 
     445      290      149       17     -129     -264     -336     -268 
     -21      287      491      618      834     1166     1499     1749 
    1892     1987     2143     2313     2355     2342     2421     2556 
    2691     2875     3071     3164     3208     3306     3354     3253 
    3161     3192     3194     3102     3021     2866     2551     2234 
    1987     1726     1498     1344     1175      946      668      379 
     176       99      113      147      152      199      379      587 
     774     1047     1363     1626     1899     2178     2398     2621 
    2809     2821     2767     2844     2982     3051     3136     3338 
    3577     3793     4052     4302     4422     4491     4567     4511 
    4314     4114     3856     3464     3071     2748     2388     1973 
    1628     1359     1047      716      504      325       20     -321 
    -565     -729     -803     -783     -722     -581     -307       10 
     310      622      932     1248     1644     2070     2354     2501 
    2663     2840     2934     2974     2998     2983     2956     2944 
    2886     2754     2606     2448     2224     1931     1655     1493 
    1426     1325     1182     1148     1239     1306     1306     1343 
    1468     1607     1733     1890     2035     2138     2286     2482 
    2631     2771     2943     2998     2934     2988     3195     3342 
    3433     3632     3831     3862     3883     3970     3936     3798 
    3693     3543     3375     3391     3520     3553     3564     3642 
    3643     3542     3518     3585     3640     3750     4005     4303 
    4585     4934     5283     5501     5634     5752     5771     5644 
    5447     5255     5100     4941     4700     4403     4156     3925 
    3631     3375     3264     3195     3094     3060     3117     3187 
    3284     3403     3515     3676     3892     4074     4241     4448 
    4634     4774     4942     5128     5278     5421     5537     5498 
    5348     5267     5184     4934     4654     4518     4395     4167 
    3932     3739     3503     3183     2835     2573     2473     2461 
    2416     2324     2239     2178     2127     2064     1965     1854 
    1759     1651     1539     1483     1447     1329     1150      990 
     834      658      498      357      206       49     -116     -290 
    -433     -604     -843    -1012    -1020     -985    -1011    -1092 
   -1193    -1228    -1119     -931     -814     -818     -869     -932 
   -1038    -1088     -912     -600     -367     -186       10      155 
     263      410      577      811     1156     1490     1773     2074 
    2340     2528     2728     2970     3198     3375     3497     3586 
    3659     3712     3755     3781     3758     3755     3836     3877 
    3793     3681     3591     3528     3501     3454     3368     3299 
    3225     3102     2986     2879     2714     2529     2370     2191 
    1983     1826     1756     1736     1740     1803     1912     1971 
    1996     2085     2166     2168     2172     2203     2177     2084 
    1964     1840     1741     1648     1545     1478     1436     1417 
    1501     1676     1857     2054     2272     2458     2617     2760 
    2886     3030     3192     3308     3358     3414     3569     3789 
    3983     4266     4753     5287     5706     6037     6307     6542 
    6786     6960     6970     6870     6710     6451     6096     5694 
    5283     4889     4473     4002     3505     3028     2619     2274 
    1914     1590     1416     1258      993      738      568      436 
     332      226       76     -112     -368     -692    -1008    -1289 
   -1526    -1683    -1796    -1908    -2003    -2118    -2268    -2351 
   -2346    -2301    -2200    -2069    -1960    -1837    -1732    -1687 
   -1602    -1459    -1344    -1192     -951     -711     -463     -137 
     214      541      850     1152     1463     1784     2112     2451 
    2759     3018     3207     3202     3024     2922     2894     2718 
    2544     2573     2563     2346     2141     2037     1876     1667 
    1534     1428     1309     1294     1360     1363     1351     1424 
    1472     1406     1358     1387     1409     1422     1460     1470 
    1493     1614     1719     1692     1660     1723     1813     1904 
    2043     2177     2265     2331     2347     2284     2246     2351 
    2543     2722     2917     3153     3368     3557     3792     4070 
    4309     4499     4665     4776     4808     4801     4761     4660 
    4561     4518     4422     4197     3956     3767     3545     3260 
    2978     2704     2450     2301     2234     2143     2038     1996 
    2022     2057     2052     2018     2018     2073     2142     2176 
    2158     2114     2077     2025     1965     1965     2012     2030 
    2023     2052     2108     2166     2234     2338     2498     2724 
    2991     3249     3460     3650     3863     4054     4144     4197 
    4290     4352     4317     4261     4253     4271     4303     4337 
    4298     4156     4018     3969     3924     3812     3701     3626 
    3493     3252     2970     2735     2536     2315     2091     1911 
    1711     1433     1139      884      661      481      333      170 
     -14     -186     -332     -472     -584     -592     -527     -452 
    -317     -137      -14      117      352      592      801     1086 
    1437     1763     2058     2342     2587     2785     2959     3138 
    3302     3427     3542     3630     3654     3639     3585     3443 
    3273     3146     2992     2785     2647     2586     2475     2340 
    2323     2397     2435     2435     2471     2533     2569     2571 
    2570     2590     2652     2747     2828     2872     2886     2876 
    2871     2899     2934     2953     2998     3060     3036     2921 
    2816     2749     2670     2536     2354     2147     1930     1710 
    1497     1297     1127     1023      969      920      896      912 
     909      882      872      873      900      985     1080     1140 
    1182     1178     1123     1097     1121     1125     1116     1146 
    1181     1162     1101     1067     1109     1212     1324     1410 
    1476     1545     1606     1620     1610     1683     1837     1975 
    2093     2212     2250     2197     2154     2139     2116     2080 
    2023     1953     1914     1904     1890     1863     1838     1809 
    1767     1761     1830     1962     2147     2351     2506     2600 
    2678     2751     2783     2791     2835     2933     3034     3072 
    3080     3144     3241     3291     3331     3427     3487     3415 
    3314     3273     3207     3087     3003     2914     2751     2610 
    2544     2415     2189     2006     1868     1657     1413     1259 
    1167     1028      886      835      838      857      950     1100 
    1233     1375     1539     1657     1753     1941     2204     2405 
    2501     2577     2675     2740     2764     2826     2914     2928 
    2894     2953     3123     3276     3350     3434     3574     3715 
    3840     3981     4106     4205     4314     4399     4382     4310 
    4287     4291     4259     4201     4094     3890     3642     3418 
    3192     2974     2810     2658     2470     2307     2200     2076 
    1933     1863     1811     1672     1576     1630     1656     1553 
    1478     1443     1332     1221     1170     1062      924      877 
     835      691      549      479      445      476      595      719 
     810      923     1042     1108     1185     1350     1506     1593 
    1719     1903     2023     2088     2151     2174     2193     2300 
    2436     2539     2716     2990     3208     3323     3429     3547 
    3616     3647     3708     3785     3805     3758     3676     3566 
    3485     3483     3488     3465     3485     3520     3495     3462 
    3456     3400     3308     3252     3172     3040     2952     2928 
    2899     2868     2841     2782     2706     2670     2635     2546 
    2455     2411     2338     2215     2135     2076     1934     1804 
    1806     1810     1691     1564     1536     1540     1494     1410 
    1296     1147     1016      957      945      966     1015     1046 
    1046     1055     1081     1104     1148     1210     1240     1232 
    1216     1189     1156     1173     1254     1294     1239     1183 
    1156     1078      977      931      893      834      808      791 
     735      718      777      839      895     1009     1178     1360 
    1560     1780     2006     2205     2351     2469     2590     2728 
    2917     3110     3211     3267     3339     3338     3249     3210 
    3242     3261     3287     3366     3446     3500     3574     3666 
    3732     3796     3890     3952     3962     4009     4086     4086 
    4025     3973     3886     3736     3608     3511     3346     3122 
    2930     2766     2605     2484     2367     2164     1914     1703 
    1520     1379     1343     1362     1364     1359     1335     1287 
    1259     1274     1302     1294     1259     1262     1262     1181 
    1097     1070     1028      997     1032     1067     1094     1177 
    1275     1352     1475     1660     1833     1952     2046     2176 
