Origin Time       2025/01/13 21:19:00
Lat.              31.8
Long.             131.6
Depth. (km)       30
Mag.              6.9
Station Code      EHMH12
Station Lat.      33.4270
Station Long.     132.5055
Station Height(m) 100
Record Time       2025/01/13 21:20:07
Sampling Freq(Hz) 100Hz
Duration Time(s)  153
Dir.              1
Scale Factor      2942(gal)/8224139
Max. Acc. (gal)   2.564
Last Correction   2025/01/13 21:20:07
Memo.             
[...]
   49747    49689    49666    49621    49493    49318    49141    48960 
   48847    48874    48978    49096    49211    49250    49188    49137 
   49168    49257    49416    49675    49993    50263    50406    50458 
   50492    50534    50622    50737    50799    50795    50745    50660 
   50561    50426    50214    49955    49720    49566    49526    49632 
   49870    50130    50363    50598    50781    50807    50701    50535 
   50301    50010    49729    49495    49315    49181    49115    49203 
   49451    49766    50086    50394    50662    50881    51050    51135 
   51139    51124    51120    51092    51003    50872    50746    50645 
   50564    50499    50448    50407    50371    50307    50209    50113 
   50060    50060    50093    50139    50215    50330    50392    50355 
   50292    50284    50330    50395    50446    50479    50475    50419 
   50338    50252    50166    50097    50043    49970    49835    49665 
   49524    49419    49318    49238    49207    49199    49194    49218 
   49272    49356    49495    49681    49866    49997    50004    49889 
   49761    49705    49724    49798    49893    49981    50093    50240 
   50375    50445    50471    50558    50766    51030    51278    51501 
   51711    51899    52004    51992    51885    51727    51574    51470 
   51372    51216    51024    50851    50706    50550    50322    50047 
   49829    49700    49586    49377    49034    48703    48501    48375 
   48292    48269    48305    48401    48527    48636    48735    48810 
   48820    48786    48768    48794    48880    49022    49165    49253 
   49297    49350    49443    49566    49662    49666    49593    49513 
   49439    49335    49200    49042    48847    48637    48506    48497 
   48546    48595    48675    48853    49107    49322    49496    49707 
   49971    50280    50585    50851    51084    51260    51368    51412 
   51359    51228    51084    50996    51023    51115    51208    51352 
   51543    51652    51646    51625    51637    51663    51680    51656 
   51594    51572    51588    51598    51622    51655    51661    51628 
   51503    51255    50930    50618    50403    50283    50215    50188 
   50126    49963    49750    49546    49400    49361    49389    49427 
   49520    49704    49941    50172    50359    50544    50757    50923 
   51012    51052    51043    51012    50967    50890    50822    50800 
   50796    50777    50773    50822    50893    50924    50895    50845 
   50841    50869    50868    50843    50811    50754    50699    50666 
   50614    50514    50379    50201    49960    49694    49477    49296 
   49064    48802    48624    48543    48513    48559    48683    48797 
   48840    48840    48845    48895    48992    49106    49237    49431 
   49693    49985    50252    50450    50577    50670    50757    50847 
   50976    51179    51370    51398    51260    51054    50872    50785 
   50750    50654    50526    50511    50579    50602    50572    50531 
   50494    50479    50445    50361    50288    50280    50345    50499 
   50728    50973    51182    51343    51426    51413    51298    51075 
   50818    50654    50618    50625    50599    50499    50315    50113 
   49975    49898    49816    49720    49663    49682    49740    49742 
   49659    49588    49562    49534    49472    49356    49184    48979 
   48743    48482    48246    48065    47931    47844    47830    47925 
   48128    48405    48732    49126    49582    50022    50410    50754 
   51048    51321    51599    51844    52026    52177    52317    52388 
   52351    52281    52223    52138    52026    51927    51846    51808 
   51857    51931    51922    51818    51642    51390    51132    50993 
   50974    50993    50982    50889    50669    50355    50035    49747 
   49493    49275    49104    49033    49076    49184    49354    49553 
   49639    49589    49528    49474    49401    49351    49322    49243 
   49086    48891    48741    48654    48570    48475    48423    48435 
   48489    48597    48768    48952    49125    49343    49615    49863 
   50097    50361    50584    50653    50579    50484    50458    50438 
   50329    50190    50095    50008    49894    49774    49646    49536 
   49515    49627    49883    50203    50442    50603    50799    51035 
   51256    51421    51494    51513    51564    51642    51645    51533 
   51395    51309    51246    51155    51032    50904    50792    50704 
   50647    50612    50529    50340    50110    49943    49858    49847 
   49914    50022    50163    50368    50573    50730    50897    51036 
   51055    50990    50890    50755    50620    50511    50418    50296 
   50085    49781    49485    49315    49269    49241    49231    49243 
   49145    48932    48740    48558    48294    48016    47808    47618 
   47412    47277    47243    47217    47186    47227    47339    47511 
   47787    48154    48535    48907    49318    49728    50004    50120 
   50211    50395    50683    51021    51314    51511    51641    51713 
   51709    51660    51663    51718    51707    51590    51426    51251 
   51124    51104    51135    51135    51093    51066    51104    51190 
   51247    51239    51187    51106    51011    50916    50834    50765 
   50693    50596    50450    50253    50041    49882    49801    49762 
   49732    49721    49736    49763    49796    49832    49866    49898 
   49931    49945    49896    49738    49501    49303    49218    49227 
   49280    49304    49285    49304    49374    49395    49335    49281 
   49268    49250    49199    49118    49013    48918    48890    48978 
   49219    49572    49935    50288    50629    50919    51178    51412 
   51576    51690    51804    51918    51989    52010    52019    52039 
   52014    51889    51706    51487    51210    50934    50764    50731 
   50826    51036    51305    51561    51771    51916    51981    51961 
   51899    51810    51653    51474    51363    51256    51054    50792 
   50523    50248    49997    49858    49906    50095    50294    50456 
   50608    50750    50835    50859    50869    50888    50880    50803 
   50652    50445    50207    49970    49756    49605    49550    49584 
   49708    49898    50060    50155    50190    50163    50140    50190 
   50280    50340    50317    50194    50029    49928    49913    49879 
   49734    49507    49254    48996    48763    48589    48516    48566 
   48668    48716    48714    48725    48772    48892    49122    49391 
   49599    49752    49916    50143    50436    50712    50913    51069 
   51247    51503    51808    52074    52300    52490    52559    52469 
   52323    52209    52131    52087    52093    52114    52103    52061 
   52007    51943    51857    51706    51448    51094    50700    50325 
   49971    49623    49335    49142    48994    48861    48743    48628 
   48567    48548    48479    48379    48311    48255    48242    48342 
   48528    48702    48840    48995    49189    49412    49642    49829 
   49995    50195    50425    50615    50688    50633    50558    50607 
   50785    50965    51098    51237    51398    51538    51597    51602 
   51637    51665    51611    51499    51352    51151    50893    50619 
   50425    50357    50345    50301    50191    50068    50070    50233 
   50415    50530    50623    50712    50723    50592    50350    50080 
   49843    49663    49512    49346    49183    49077    49018    48976 
   49009    49129    49249    49327    49372    49415    49528    49716 
   49924    50134    50314    50436    50503    50481    50332    50103 
   49859    49574    49238    48898    48614    48471    48523    48739 
   49022    49279    49469    49609    49728    49819    49855    49871 
   49932    50044    50183    50298    50345    50368    50419    50485 
   50539    50575    50593    50583    50499    50322    50129    50020 
   49999    50010    50026    50072    50170    50314    50498    50643 
   50643    50483    50229    49955    49680    49358    48944    48504 
   48188    48064    48096    48242    48436    48591    48681    48766 
   48884    49017    49130    49233    49387    49615    49836    49982 
   50029    49936    49731    49578    49581    49713    49917    50156 
   50414    50627    50718    50750    50814    50869    50904    51005 
   51202    51456    51711    51875    51935    51996    52060    52022 
   51881    51698    51522    51389    51236    51007    50795    50657 
   50575    50571    50661    50807    50998    51248    51534    51806 
   52015    52178    52328    52429    52461    52458    52405    52258 
   52034    51780    51536    51301    51084    50947    50889    50807 
   50670    50534    50430    50390    50429    50510    50642    50858 
   51089    51250    51362    51418    51322    51058    50710    50333 
   49943    49601    49393    49272    49092    48784    48374    47953 
   47630    47448    47402    47507    47777    48163    48591    49040 
   49482    49877    50244    50595    50868    51035    51124    51181 
   51241    51300    51295    51212    51109    51040    51007    50982 
   50923    50827    50785    50839    50924    50988    51038    51133 
   51316    51511    51598    51561    51497    51457    51387    51262 
   51113    50934    50749    50611    50519    50477    50511    50608 
   50715    50743    50610    50295    49863    49428    49064    48748 
   48417    48015    47505    46938    46404    45945    45567    45245 
   44979    44872    44967    45166    45432    45808    46278    46708 
   46965    47043    47043    47061    47124    47231    47403    47648 
   47892    48093    48324    48649    49015    49362    49689    49986 
   50245    50496    50766    51074    51437    51875    52373    52897 
   53450    54009    54471    54785    54996    55121    55127    54989 
   54723    54346    53886    53401    52953    52567    52269    52066 
   51949    51943    52042    52138    52164    52188    52293    52452 
   52597    52710    52778    52767    52702    52644    52585    52478 
   52312    52039    51645    51255    50961    50699    50414    50126 
   49897    49781    49785    49875    50032    50271    50562    50809 
   50985    51147    51324    51460    51521    51576    51718    51945 
   52201    52427    52583    52725    52945    53254    53547    53697 
   53693    53607    53454    53219    52922    52578    52168    51699 
   51225    50766    50318    49901    49532    49185    48867    48583 
   48266    47891    47503    47108    46739    46448    46165    45870 
   45640    45480    45357    45296    45285    45276    45234    45198 
   45289    45531    45808    46082    46367    46633    46878    47129 
   47370    47605    47889    48223    48528    48771    48984    49210 
   49484    49824    50268    50796    51279    51688    52127    52614 
   53100    53597    54132    54649    55038    55223    55161    54834 
   54321    53782    53337    52979    52633    52276    51923    51599 
   51378    51281    51196    51062    50938    50869    50866    50917 
   50938    50841    50660    50452    50175    49808    49430    49113 
   48867    48710    48683    48776    48902    48984    49053    49157 
   49285    49412    49524    49651    49846    50099    50377    50657 
   50896    51044    51085    50980    50719    50346    49913    49478 
   49098    48767    48456    48207    48081    48026    47916    47683 
   47343    46990    46745    46633    46583    46526    46450    46417 
   46500    46757    47193    47707    48173    48602    49050    49477 
   49825    50075    50232    50359    50525    50723    50938    51186 
   51425    51567    51652    51752    51802    51767    51760    51829 
   51887    51857    51779    51740    51711    51641    51564    51489 
   51390    51277    51117    50889    50657    50476    50361    50326 
   50346    50379    50409    50440    50484    50515    50480    50422 
   50427    50480    50519    50519    50453    50333    50213    50110 
   50020    49990    50102    50337    50580    50776    50947    51104 
   51258    51437    51656    51879    52039    52108    52132    52141 
   52137    52128    52099    52069    52135    52330    52583    52843 
   53107    53376    53577    53617    53496    53300    53122    52984 
   52887    52844    52834    52798    52690    52501    52263    52046 
   51854    51601    51206    50669    50078    49503    48890    48178 
   47443    46812    46350    46026    45787    45607    45450    45291 
   45162    45139    45283    45577    45912    46201    46472    46734 
   46955    47190    47483    47761    47965    48136    48331    48547 
   48789    49073    49415    49842    50364    50943    51526    52122 
   52717    53219    53551    53739    53819    53801    53732    53654 
   53553    53391    53202    53082    53056    53050    53007    52907 
   52763    52647    52613    52616    52596    52531    52428    52286 
   52089    51841    51602    51390    51128    50785    50426    50105 
   49836    49619    49426    49207    48959    48726    48533    48382 
   48296    48270    48269    48288    48315    48298    48204    48024 
   47800    47619    47505    47413    47362    47409    47568    47812 
   48084    48317    48483    48593    48690    48798    48913    49088 
   49366    49659    49891    50085    50259    50413    50541    50627 
   50685    50703    50622    50494    50407    50268    49955    49503 
   49009    48536    48095    47636    47135    46627    46176    45794 
   45418    44984    44487    43981    43549    43232    43054    43066 
   43282    43636    44054    44509    45000    45526    46098    46753 
   47487    48278    49091    49869    50631    51445    52281    53075 
   53788    54413    54989    55529    56004    56400    56700    56913 
   57075    57173    57190    57184    57203    57199    57115    56986 
   56860    56740    56598    56412    56187    55929    55609    55205 
   54745    54249    53719    53168    52624    52118    51664    51204 
   50672    50095    49559    49133    48834    48601    48336    48023 
   47677    47272    46822    46430    46170    46025    45943    45902 
   45921    46009    46134    46283    46438    46577    46750    47028 
   47366    47727    48146    48594    49019    49410    49761    50098 
   50475    50931    51480    52058    52554    52949    53281    53549 
   53744    53913    54098    54297    54508    54753    54972    55098 
   55198    55318    55387    55332    55158    54935    54766    54676 
   54580    54378    54047    53605    53056    52454    51898    51409 
   50961    50534    50078    49550    48972    48365    47737    47127 
   46592    46136    45678    45196    44768    44463    44296    44234 
   44196    44145    44140    44250    44463    44718    44965    45189 
   45399    45612    45877    46214    46576    46893    47121    47267 
   47395    47549    47694    47788    47830    47848    47895    48007 
   48174    48371    48579    48770    48941    49118    49299    49485 
   49727    50005    50198    50296    50414    50593    50776    50942 
   51147    51429    51756    52043    52211    52263    52317    52475 
   52720    52956    53134    53296    53508    53785    54052    54214 
   54276    54321    54390    54467    54554    54658    54733    54711 
   54579    54351    54055    53698    53298    52903    52570    52300 
   52045    51754    51406    51007    50588    50168    49732    49250 
   48721    48195    47718    47289    46897    46545    46224    45952 
   45771    45666    45590    45539    45554    45616    45657    45657 
   45640    45596    45531    45495    45500    45516    45524    45543 
   45601    45697    45846    46070    46337    46597    46858    47137 
   47436    47767    48141    48544    48995    49523    50085    50627 
   51154    51667    52138    52593    53069    53515    53851    54105 
   54336    54572    54824    55051    55175    55183    55121    55042 
   54986    54942    54881    54799    54681    54487    54222    53943 
   53653    53316    52944    52600    52332    52118    51912    51694 
   51428    51101    50731    50317    49854    49377    48940    48577 
   48296    48093    47984    47997    48100    48220    48316    48409 
   48525    48633    48695    48740    48824    48967    49135    49283 
   49366    49418    49511    49621    49669    49639    49566    49470 
   49391    49361    49378    49403    49432    49520    49680    49846 
   49975    50114    50330    50637    50950    51163    51251    51259 
   51185    50959    50607    50256    49986    49788    49634    49516 
   49453    49441    49472    49522    49538    49513    49493    49508 
   49555    49611    49658    49734    49890    50130    50399    50660 
   50916    51144    51297    51381    51424    51418    51383    51336 
   51271    51233    51301    51455    51610    51759    51923    52074 
   52174    52193    52103    51908    51630    51295    50969    50704 
   50503    50336    50183    50067    50014    49993    49951    49908 
   49878    49842    49808    49794    49809    49885    50025    50220 
   50453    50680    50893    51123    51362    51560    51686    51733 
   51702    51610    51478    51321    51179    51109    51109    51140 
   51182    51251    51317    51302    51187    51017    50836    50664 
   50500    50359    50257    50188    50137    50112    50168    50330 
   50498    50577    50626    50716    50831    50926    50981    50994 
   50973    50917    50858    50827    50808    50781    50758    50726 
   50647    50526    50359    50152    49940    49725    49496    49291 
   49140    48987    48763    48471    48151    47831    47557    47371 
   47237    47127    47074    47081    47106    47143    47189    47233 
   47298    47426    47645    47938    48281    48651    49003    49318 
   49628    49941    50225    50487    50749    51008    51247    51426 
   51538    51628    51722    51800    51854    51922    52011    52092 
   52153    52218    52273    52262    52177    52065    51972    51933 
   51931    51925    51903    51875    51853    51869    51934    51997 
   51997    51942    51881    51818    51734    51624    51463    51262 
   51059    50859    50664    50498    50364    50244    50122    49963 
   49773    49604    49481    49373    49239    49059    48852    48639 
   48433    48230    48003    47733    47430    47137    46912    46773 
   46697    46687    46753    46882    47061    47286    47552    47868 
   48226    48593    48951    49284    49585    49870    50145    50404 
   50646    50836    50955    51084    51267    51451    51603    51736 
   51823    51852    51877    51933    52000    52081    52188    52304 
   52397    52454    52497    52528    52527    52517    52519    52496 
   52420    52282    52111    51935    51742    51505    51232    50961 
   50733    50552    50391    50242    50116    49995    49850    49678 
   49496    49311    49149    49040    48968    48891    48825    48824 
   48890    48999    49138    49310    49542    49828    50109    50371 
   50627    50876    51135    51393    51582    51676    51717    51744 
   51777    51813    51829    51852    51903    51921    51861    51726 
   51537    51358    51227    51094    50912    50679    50427    50193 
   49986    49806    49661    49547    49428    49279    49123    49010 
