Origin Time       2025/01/13 21:19:00
Lat.              31.8
Long.             131.6
Depth. (km)       30
Mag.              6.9
Station Code      EHMH09
Station Lat.      33.4719
Station Long.     132.3072
Station Height(m) 5
Record Time       2025/01/13 21:20:07
Sampling Freq(Hz) 100Hz
Duration Time(s)  152
Dir.              4
Scale Factor      7845(gal)/8223790
Max. Acc. (gal)   13.660
Last Correction   2025/01/13 21:20:08
Memo.             
[...]
    7908     7867     7789     7626     7366     7060     6766     6471 
    6122     5706     5306     5022     4891     4895     5011     5248 
    5632     6143     6698     7176     7510     7762     8016     8243 
    8370     8391     8364     8320     8225     8019     7696     7298 
    6828     6301     5817     5475     5302     5297     5440     5686 
    5980     6264     6498     6701     6887     7020     7044     6933 
    6729     6520     6355     6220     6072     5873     5630     5385 
    5186     5043     4927     4857     4866     4939     5019     5085 
    5157     5254     5344     5373     5316     5209     5155     5211 
    5341     5499     5659     5779     5845     5872     5859     5821 
    5799     5792     5778     5757     5761     5823     5962     6168 
    6396     6609     6802     6963     7065     7144     7236     7337 
    7425     7485     7514     7507     7474     7429     7356     7238 
    7103     7021     7060     7227     7464     7670     7792     7855 
    7888     7869     7793     7705     7643     7628     7627     7551 
    7349     7051     6721     6390     6027     5624     5223     4869 
    4573     4340     4180     4132     4220     4407     4576     4599 
    4445     4201     3996     3927     4020     4240     4529     4828 
    5084     5277     5444     5598     5698     5722     5725     5791 
    5971     6253     6570     6866     7113     7310     7503     7720 
    7915     8017     8039     8046     8089     8132     8116     8058 
    8041     8133     8325     8565     8802     8982     9055     9023 
    8965     8970     9007     8965     8814     8586     8294     7925 
    7457     6887     6274     5718     5266     4915     4691     4596 
    4600     4658     4731     4827     4986     5204     5422     5570 
    5628     5643     5661     5697     5732     5755     5775     5779 
    5697     5508     5283     5094     4953     4826     4683     4568 
    4558     4664     4854     5098     5364     5629     5881     6097 
    6249     6392     6585     6814     7071     7360     7669     7970 
    8214     8348     8360     8247     7983     7604     7192     6858 
    6656     6561     6501     6423     6301     6161     6052     6002 
    5999     6014     6058     6178     6367     6554     6652     6623 
    6517     6438     6440     6536     6694     6859     6991     7090 
    7150     7161     7150     7150     7172     7214     7264     7298 
    7294     7236     7130     7036     7033     7146     7314     7447 
    7506     7483     7380     7183     6899     6596     6351     6196 
    6096     6018     5964     5929     5872     5756     5571     5370 
    5220     5105     4951     4715     4383     3994     3643     3400 
    3304     3368     3578     3862     4101     4216     4207     4135 
    4129     4272     4487     4661     4783     4916     5130     5414 
    5726     6023     6289     6550     6843     7182     7588     8063 
    8533     8928     9247     9544     9861    10153    10342    10428 
   10465    10481    10454    10323    10089     9837     9594     9325 
    9008     8626     8175     7673     7155     6687     6305     5971 
    5655     5373     5125     4897     4665     4425     4221     4110 
    4122     4214     4329     4456     4594     4695     4708     4617 
    4430     4190     3916     3603     3283     3041     2947     3009 
    3180     3396     3628     3896     4237     4671     5188     5759 
    6338     6886     7361     7708     7913     8027     8100     8164 
    8233     8289     8311     8311     8297     8280     8282     8276 
    8209     8041     7843     7762     7886     8155     8455     8703 
    8893     9032     9088     9058     8958     8776     8490     8086 
    7582     7041     6539     6157     5958     5919     5940     5915 
    5783     5551     5278     5038     4862     4723     4627     4625 
    4714     4818     4899     4972     5049     5100     5086     5030 
    4976     4941     4945     5016     5174     5390     5580     5653 
    5605     5522     5482     5491     5506     5514     5559     5634 
    5678     5690     5741     5872     6056     6235     6389     6547 
    6747     6994     7277     7591     7877     8043     8046     7912 
    7681     7368     7002     6663     6408     6222     6061     5913 
    5806     5784     5821     5821     5717     5548     5435     5445 
    5526     5582     5575     5537     5539     5610     5687     5680 
    5575     5410     5224     5036     4860     4730     4729     4915 
    5243     5618     6002     6384     6701     6847     6777     6566 
    6354     6235     6211     6216     6196     6135     6050     5967 
    5894     5832     5815     5908     6164     6593     7134     7677 
    8149     8510     8714     8726     8518     8141     7749     7449 
    7237     7088     7001     6975     6993     7020     7028     6998 
    6898     6671     6307     5903     5572     5358     5255     5281 
    5439     5672     5887     6042     6147     6197     6176     6091 
    5983     5895     5856     5890     6045     6350     6760     7180 
    7530     7816     8066     8244     8301     8233     8114     8023 
    7950     7846     7703     7558     7431     7308     7165     6982 
    6725     6346     5832     5248     4729     4386     4256     4299 
    4448     4648     4870     5080     5250     5366     5421     5416 
    5387     5412     5553     5800     6068     6258     6367     6475 
    6660     6936     7263     7572     7824     8036     8262     8569 
    8976     9405     9779    10088    10345    10538    10635    10639 
   10616    10620    10621    10535    10308     9961     9525     8968 
    8260     7469     6725     6112     5621     5208     4880     4645 
    4480     4363     4253     4125     4028     4012     4072     4187 
    4302     4329     4263     4176     4106     4071     4081     4113 
    4125     4087     4045     4102     4303     4615     4980     5324 
    5614     5876     6116     6311     6430     6493     6579     6787 
    7164     7657     8162     8603     8973     9290     9553     9755 
    9884     9922     9840     9628     9315     9024     8866     8808 
    8746     8608     8395     8158     7938     7747     7618     7588 
    7634     7680     7674     7612     7507     7387     7267     7113 
    6863     6481     5971     5362     4738     4185     3684     3171 
    2651     2178     1799     1509     1283     1123     1030      986 
     977      972      913      785      619      479      450      594 
     908     1348     1857     2389     2899     3368     3823     4310 
    4869     5518     6218     6899     7514     8017     8395     8689 
    8934     9153     9396     9702    10038    10334    10531    10616 
   10615    10566    10527    10551    10659    10817    10948    11009 
   11022    11057    11161    11302    11407    11448    11437    11391 
   11314    11183    10970    10650    10220     9699     9094     8402 
    7673     6994     6404     5848     5204     4388     3445     2500 
    1665      982      436       40     -149     -155      -85      -20 
      43      166      384      738     1258     1860     2385     2786 
    3119     3408     3628     3771     3852     3943     4108     4318 
    4533     4800     5169     5597     6025     6455     6910     7411 
    7946     8494     9047     9589    10107    10588    10982    11250 
   11406    11472    11469    11400    11221    10908    10524    10172 
    9882     9633     9418     9242     9090     8910     8633     8249 
    7797     7314     6816     6345     5968     5691     5440     5179 
    4969     4868     4896     5074     5363     5695     6048     6388 
    6662     6837     6903     6872     6778     6669     6558     6388 
    6076     5586     4943     4217     3487     2803     2218     1764 
    1435     1183      997      912      969     1150     1383     1598 
    1767     1903     2045     2255     2578     3010     3524     4082 
    4631     5155     5661     6120     6513     6825     7025     7080 
    7015     6921     6856     6841     6924     7148     7493     7923 
    8433     9034     9715    10455    11232    12013    12746    13396 
   13953    14397    14696    14839    14844    14685    14361    13957 
   13486    12896    12208    11449    10660     9890     9132     8441 
    7894     7470     7096     6751     6473     6309     6216     6045 
    5665     5059     4288     3383     2320     1112     -122    -1247 
   -2209    -3057    -3847    -4549    -5066    -5321    -5260    -4823 
   -3970    -2758    -1348       78     1449     2767     3997     5100 
    6089     6961     7707     8343     8876     9300     9610     9840 
   10046    10270    10546    10895    11344    11921    12623    13401 
   14242    15161    16135    17065    17857    18461    18820    18900 
   18712    18289    17666    16889    16033    15140    14187    13177 
   12139    11048     9917     8843     7866     6917     5941     4938 
    3931     2929     1939      993      110     -738    -1605    -2512 
   -3420    -4257    -4986    -5609    -6107    -6392    -6384    -6112 
   -5656    -5042    -4253    -3287    -2196    -1085      -36      965 
    1962     2960     3996     5076     6107     7025     7869     8672 
    9404    10012    10520    11055    11728    12526    13354    14145 
   14872    15529    16096    16567    16969    17301    17494    17469 
   17199    16730    16112    15340    14413    13374    12236    10978 
    9628     8294     7107     6097     5219     4429     3682     2910 
    2031     1016      -41     -977    -1699    -2205    -2493    -2531 
   -2331    -1954    -1464     -882     -213      517     1240     1898 
    2475     2975     3387     3735     4091     4525     5043     5590 
    6072     6435     6666     6737     6605     6242     5694     5069 
    4469     3970     3631     3468     3449     3574     3865     4280 
    4737     5169     5537     5829     6037     6096     5952     5644 
    5296     5044     4923     4854     4776     4687     4639     4703 
    4899     5208     5640     6227     6975     7871     8924    10123 
   11403    12649    13748    14628    15246    15595    15703    15630 
   15439    15079    14450    13601    12618    11514    10361     9240 
    8159     7091     6026     5034     4193     3510     2974     2509 
    2030     1539     1069      660      355      147       -1      -99 
    -149     -167     -205     -329     -546     -811    -1074    -1286 
   -1412    -1445    -1382    -1190     -845     -348      298     1086 
    1981     2941     3916     4862     5788     6723     7650     8522 
    9293     9937    10467    10921    11323    11696    12058    12402 
   12660    12710    12499    12129    11755    11452    11207    10991 
   10855    10874    11036    11245    11400    11487    11530    11520 
   11439    11290    11063    10728    10278     9787     9355     9012 
    8741     8506     8274     8037     7781     7404     6866     6273 
    5761     5386     5148     4993     4846     4631     4298     3847 
    3323     2779     2268     1856     1568     1362     1233     1233 
    1358     1574     1875     2259     2720     3214     3676     4063 
    4367     4585     4722     4777     4765     4720     4693     4689 
    4718     4881     5274     5836     6453     7071     7676     8287 
    8939     9634    10347    11034    11623    12063    12393    12680 
   12957    13192    13365    13487    13572    13651    13738    13807 
   13817    13765    13632    13360    12935    12364    11645    10805 
    9910     8996     8060     7084     6075     5036     3964     2863 
    1757      696     -264    -1088    -1756    -2250    -2552    -2655 
   -2562    -2288    -1854    -1256     -486      387     1269     2091 
    2779     3281     3618     3832     3979     4101     4220     4371 
    4592     4857     5116     5362     5609     5875     6137     6339 
    6463     6569     6762     7118     7620     8190     8734     9180 
    9524     9838    10169    10451    10613    10673    10677    10646 
   10571    10432    10233    10017     9818     9612     9358     9031 
    8660     8322     8087     7952     7906     7970     8135     8398 
    8738     9069     9331     9517     9594     9533     9333     9007 
    8579     8073     7514     6952     6426     5922     5427     4969 
    4568     4166     3686     3122     2543     2039     1656     1368 
    1171     1117     1201     1324     1370     1290     1116      897 
     652      407      214      114      132      265      496      776 
    1050     1305     1587     1993     2631     3512     4553     5664 
    6794     7892     8893     9776    10535    11140    11603    11990 
   12341    12649    12903    13100    13246    13339    13382    13383 
   13342    13258    13135    12989    12852    12741    12623    12432 
   12132    11734    11264    10752    10208     9625     9005     8372 
    7742     7095     6423     5732     4984     4135     3188     2181 
    1131       35    -1090    -2173    -3118    -3875    -4437    -4831 
   -5069    -5112    -4934    -4526    -3892    -3084    -2180    -1233 
    -311      531     1285     1949     2533     3052     3512     3916 
    4267     4583     4900     5255     5676     6185     6801     7557 
    8484     9576    10771    11990    13203    14403    15606    16823 
   18000    19036    19842    20387    20677    20710    20466    19932 
   19094    17953    16598    15153    13679    12198    10783     9471 
    8243     7076     5940     4787     3638     2523     1426      338 
    -703    -1655    -2475    -3150    -3715    -4201    -4584    -4839 
   -4993    -5076    -5101    -5100    -5063    -4931    -4654    -4205 
   -3557    -2728    -1804     -855      124     1148     2236     3431 
    4752     6168     7631     9108    10563    11947    13174    14183 
   14968    15565    16023    16384    16668    16891    17081    17213 
   17228    17095    16823    16459    16038    15561    14998    14315 
   13510    12614    11664    10658     9598     8505     7407     6322 
    5250     4209     3244     2405     1706     1117      603      151 
    -205     -406     -419     -270       17      411      845     1229 
    1494     1622     1664     1698     1768     1876     1998     2072 
    2076     2053     2064     2128     2232     2382     2608     2920 
    3343     3916     4610     5371     6164     6939     7665     8363 
    9066     9772    10443    11061    11615    12064    12388    12611 
   12764    12865    12918    12935    12946    12951    12960    12985 
   13026    13027    12912    12630    12191    11626    10972    10261 
    9490     8665     7811     6921     6003     5101     4256     3487 
    2778     2120     1529     1017      600      287       66      -91 
    -210     -284     -294     -243     -159      -85      -35       62 
     283      643     1109     1632     2209     2859     3585     4396 
    5296     6272     7296     8351     9428    10490    11476    12352 
   13130    13828    14432    14902    15196    15282    15133    14752 
   14162    13423    12590    11682    10716     9757     8878     8114 
    7447     6836     6245     5679     5167     4715     4294     3866 
    3422     2995     2609     2254     1921     1607     1314     1066 
     865      677      490      321      210      205      330      583 
     949     1413     1952     2546     3184     3856     4552     5270 
    6039     6852     7651     8405     9128     9855    10584    11281 
   11913    12451    12879    13177    13343    13402    13402    13386 
   13343    13230    12997    12621    12106    11512    10886    10208 
    9440     8587     7689     6799     5950     5136     4369     3672 
    3061     2555     2141     1792     1483     1194      932      699 
     467      222       12     -129     -218     -291     -369     -411 
    -324      -52      388      962     1637     2385     3180     4018 
    4911     5854     6814     7703     8429     8973     9401     9783 
   10141    10458    10725    10955    11179    11421    11678    11934 
   12167    12361    12507    12598    12645    12650    12587    12405 
   12067    11574    10968    10319     9645     8935     8208     7487 
    6787     6141     5582     5120     4756     4479     4272     4122 
    4029     3989     3982     3981     3958     3910     3867     3856 
    3866     3836     3719     3511     3268     3059     2947     2945 
    3041     3242     3566     3959     4329     4639     4892     5077 
    5169     5138     4982     4768     4603     4542     4564     4611 
    4626     4587     4527     4504     4556     4702     4950     5296 
    5719     6192     6690     7191     7672     8113     8503     8831 
    9067     9178     9148     8978     8680     8279     7808     7315 
    6848     6430     6106     5946     5985     6200     6524     6889 
    7264     7642     8016     8392     8765     9094     9335     9448 
    9401     9215     8946     8631     8264     7817     7295     6768 
    6269     5764     5250     4757     4310     3912     3546     3219 
    2940     2729     2639     2691     2829     3010     3229     3489 
    3793     4118     4421     4677     4897     5101     5308     5544 
    5836     6173     6504     6778     7005     7236     7469     7657 
    7759     7781     7762     7750     7769     7834     7954     8094 
    8187     8210     8221     8276     8352     8390     8413     8495 
    8658     8865     9065     9236     9400     9552     9659     9684 
    9607     9421     9136     8777     8388     8005     7612     7157 
    6617     6014     5389     4783     4197     3618     3096     2728 
    2556     2560     2683     2883     3144     3456     3796     4143 
    4491     4831     5151     5437     5647     5728     5667     5486 
    5213     4877     4496     4097     3716     3384     3127     2988 
    2965     3038     3217     3511     3908     4390     4959     5614 
    6301     6959     7578     8179     8762     9310     9782    10133 
   10350    10440    10407    10260    10021     9729     9443     9204 
    9015     8869     8777     8750     8784     8853     8937     9038 
    9166     9332     9535     9732     9875     9963    10029    10084 
   10130    10172    10180    10102     9942     9734     9448     9059 
    8606     8093     7496     6833     6149     5472     4814     4172 
    3531     2882     2241     1645     1123      662      237     -167 
    -549     -878    -1120    -1269    -1339    -1335    -1240    -1034 
    -714     -325       55      414      816     1297     1852     2477 
    3163     3902     4702     5560     6465     7398     8329     9240 
   10107    10903    11626    12316    12987    13587    14056    14370 
   14527    14524    14362    14046    13597    13045    12434    11801 
   11132    10420     9725     9107     8606     8235     7951     7700 
    7452     7194     6922     6647     6377     6122     5877     5603 
    5266     4884     4495     4126     3782     3449     3111     2771 
    2463     2226     2068     1988     1988     2083     2280     2560 
    2879     3192     3480     3723     3900     4013     4086     4147 
