Origin Time       2025/01/13 21:19:00
Lat.              31.8
Long.             131.6
Depth. (km)       30
Mag.              6.9
Station Code      EHMH10
Station Lat.      34.1918
Station Long.     133.0581
Station Height(m) 5
Record Time       2025/01/13 21:20:27
Sampling Freq(Hz) 100Hz
Duration Time(s)  135
Dir.              6
Scale Factor      7845(gal)/8223790
Max. Acc. (gal)   1.506
Last Correction   2025/01/13 21:20:27
Memo.             
[...]
  -23510   -23442   -23538   -23656   -23746   -23782   -23716   -23660 
  -23681   -23683   -23683   -23800   -23951   -23981   -23930   -23926 
  -23953   -23893   -23741   -23599   -23527   -23526   -23584   -23700 
  -23878   -24077   -24154   -24039   -23818   -23592   -23472   -23522 
  -23691   -23884   -23970   -23890   -23800   -23832   -23903   -23892 
  -23824   -23742   -23647   -23620   -23727   -23870   -23926   -23971 
  -24120   -24214   -24057   -23765   -23581   -23542   -23538   -23545 
  -23622   -23784   -23936   -23944   -23796   -23630   -23564   -23535 
  -23377   -23156   -23186   -23503   -23712   -23596   -23423   -23445 
  -23553   -23584   -23581   -23646   -23724   -23670   -23484   -23398 
  -23591   -23893   -24023   -23992   -23990   -24034   -24007   -23896 
  -23782   -23708   -23626   -23545   -23550   -23666   -23834   -23903 
  -23772   -23587   -23564   -23631   -23627   -23638   -23762   -23913 
  -23997   -23981   -23873   -23720   -23581   -23506   -23523   -23627 
  -23762   -23895   -23950   -23862   -23761   -23773   -23778   -23707 
  -23714   -23858   -24035   -24155   -24162   -24078   -24035   -24084 
  -24077   -23861   -23538   -23360   -23334   -23313   -23290   -23318 
  -23360   -23395   -23467   -23585   -23697   -23764   -23796   -23811 
  -23808   -23818   -23862   -23865   -23782   -23754   -23886   -24052 
  -24105   -24097   -24092   -24030   -23897   -23811   -23819   -23814 
  -23766   -23792   -23877   -23881   -23826   -23841   -23851   -23703 
  -23548   -23643   -23862   -23872   -23753   -23785   -23884   -23841 
  -23714   -23606   -23477   -23359   -23403   -23611   -23757   -23665 
  -23461   -23382   -23414   -23404   -23361   -23402   -23521   -23606 
  -23596   -23573   -23656   -23738   -23688   -23643   -23772   -23976 
  -24062   -24007   -23885   -23762   -23711   -23714   -23688   -23638 
  -23637   -23703   -23741   -23693   -23656   -23708   -23811   -23920 
  -24071   -24250   -24321   -24235   -24084   -23942   -23805   -23688 
  -23603   -23512   -23488   -23612   -23722   -23681   -23616   -23625 
  -23638   -23642   -23646   -23556   -23375   -23274   -23353   -23558 
  -23751   -23809   -23716   -23561   -23473   -23494   -23533   -23557 
  -23669   -23814   -23816   -23727   -23703   -23692   -23545   -23318 
  -23210   -23225   -23287   -23472   -23791   -24024   -24024   -23888 
  -23730   -23603   -23583   -23703   -23868   -23980   -24058   -24069 
  -23949   -23823   -23842   -23953   -24005   -23916   -23738   -23646 
  -23722   -23868   -23992   -24063   -24101   -24150   -24154   -24054 
  -23926   -23839   -23808   -23853   -23955   -24047   -24059   -23982 
  -23849   -23662   -23473   -23457   -23654   -23855   -23958   -23978 
  -23846   -23627   -23499   -23472   -23525   -23693   -23888   -23935 
  -23788   -23500   -23220   -23133   -23220   -23295   -23280   -23241 
  -23301   -23481   -23701   -23904   -24090   -24205   -24112   -23803 
  -23539   -23523   -23622   -23642   -23598   -23537   -23508   -23630 
  -23826   -23857   -23673   -23457   -23357   -23356   -23396   -23526 
  -23719   -23827   -23812   -23749   -23665   -23548   -23387   -23234 
  -23218   -23441   -23811   -24025   -23930   -23692   -23565   -23610 
  -23697   -23727   -23706   -23658   -23608   -23579   -23603   -23689 
  -23747   -23718   -23701   -23757   -23769   -23681   -23568   -23457 
  -23383   -23457   -23688   -23911   -24008   -24032   -24061   -24105 
  -24111   -23992   -23799   -23662   -23583   -23593   -23768   -23949 
  -23939   -23799   -23665   -23615   -23683   -23800   -23841   -23710 
  -23495   -23496   -23822   -24167   -24263   -24231   -24264   -24262 
  -24059   -23804   -23699   -23641   -23490   -23360   -23410   -23615 
  -23872   -24074   -24121   -24005   -23841   -23691   -23552   -23483 
  -23522   -23585   -23615   -23665   -23788   -23965   -24124   -24213 
  -24198   -24093   -23981   -23870   -23701   -23546   -23506   -23541 
  -23643   -23843   -23998   -23923   -23661   -23430   -23373   -23472 
  -23645   -23801   -23831   -23784   -23851   -23966   -23855   -23577 
  -23404   -23365   -23413   -23612   -23835   -23841   -23692   -23606 
  -23592   -23537   -23437   -23376   -23371   -23360   -23407   -23625 
  -23834   -23765   -23517   -23345   -23326   -23414   -23548   -23633 
  -23622   -23562   -23541   -23589   -23614   -23539   -23506   -23680 
  -23992   -24247   -24345   -24248   -23958   -23619   -23442   -23500 
  -23637   -23662   -23587   -23539   -23562   -23589   -23602   -23629 
  -23634   -23580   -23523   -23544   -23589   -23561   -23535   -23596 
  -23639   -23607   -23595   -23591   -23529   -23487   -23553   -23657 
  -23689   -23670   -23706   -23838   -24032   -24201   -24187   -23996 
  -23816   -23697   -23614   -23646   -23809   -23984   -24015   -23835 
  -23602   -23526   -23639   -23841   -23920   -23731   -23523   -23523 
  -23546   -23537   -23683   -23922   -24084   -24152   -24131   -24070 
  -24066   -24039   -23884   -23706   -23650   -23696   -23739   -23719 
  -23660   -23652   -23708   -23733   -23722   -23743   -23753   -23726 
  -23739   -23782   -23807   -23866   -23919   -23843   -23742   -23741 
  -23692   -23477   -23272   -23319   -23661   -24112   -24333   -24162 
  -23795   -23480   -23274   -23199   -23325   -23577   -23749   -23799 
  -23915   -24112   -24128   -23895   -23606   -23376   -23236   -23205 
  -23299   -23511   -23722   -23805   -23815   -23886   -24036   -24075 
  -23842   -23490   -23323   -23394   -23558   -23737   -23861   -23888 
  -23946   -24097   -24171   -24052   -23851   -23720   -23642   -23569 
  -23561   -23623   -23672   -23712   -23872   -24152   -24379   -24417 
  -24233   -23936   -23764   -23772   -23734   -23544   -23344   -23271 
  -23394   -23679   -23897   -23862   -23708   -23720   -23872   -23900 
  -23800   -23788   -23863   -23818   -23629   -23514   -23561   -23596 
  -23544   -23538   -23620   -23727   -23805   -23822   -23801   -23809 
  -23934   -24074   -23970   -23685   -23510   -23514   -23608   -23766 
  -23954   -24065   -24069   -24030   -23965   -23839   -23692   -23626 
  -23727   -23961   -24077   -23955   -23834   -23874   -23936   -23915 
  -23930   -24030   -23977   -23692   -23512   -23641   -23853   -23950 
  -23982   -23936   -23814   -23816   -23958   -23984   -23878   -23838 
  -23850   -23809   -23809   -23934   -23978   -23750   -23463   -23422 
  -23537   -23600   -23649   -23747   -23805   -23758   -23647   -23568 
  -23577   -23629   -23630   -23587   -23552   -23503   -23437   -23419 
  -23444   -23499   -23619   -23712   -23642   -23522   -23598   -23884 
  -24135   -24179   -24147   -24227   -24321   -24239   -24051   -23959 
  -23974   -23994   -23971   -23924   -23899   -23873   -23804   -23716 
  -23658   -23630   -23625   -23666   -23662   -23593   -23666   -23859 
  -23901   -23750   -23546   -23383   -23306   -23253   -23174   -23152 
  -23190   -23202   -23190   -23218   -23360   -23541   -23598   -23544 
  -23487   -23453   -23473   -23587   -23679   -23600   -23422   -23296 
  -23274   -23350   -23467   -23492   -23429   -23373   -23377   -23483 
  -23680   -23796   -23700   -23587   -23684   -23880   -24016   -24059 
  -23908   -23587   -23319   -23217   -23209   -23166   -23018   -22889 
  -22935   -23133   -23353   -23465   -23422   -23303   -23213   -23261 
  -23472   -23652   -23633   -23480   -23311   -23264   -23433   -23635 
  -23608   -23436   -23400   -23508   -23552   -23499   -23492   -23571 
  -23664   -23723   -23723   -23631   -23438   -23251   -23251   -23473 
  -23723   -23778   -23649   -23502   -23467   -23631   -23882   -23935 
  -23774   -23689   -23765   -23834   -23881   -23944   -23893   -23727 
  -23642   -23704   -23820   -23897   -23886   -23841   -23846   -23862 
  -23877   -23962   -24071   -24121   -24142   -24212   -24332   -24355 
  -24212   -24094   -24160   -24263   -24142   -23877   -23781   -23886 
  -23984   -24003   -24020   -24023   -23940   -23849   -23942   -24198 
  -24310   -24158   -23922   -23750   -23724   -23804   -23841   -23843 
  -23903   -23930   -23911   -23994   -24088   -23994   -23835   -23799 
  -23858   -23917   -23935   -23885   -23770   -23685   -23712   -23855 
  -24032   -24138   -24174   -24181   -24135   -24086   -24138   -24225 
  -24224   -24179   -24174   -24201   -24194   -24084   -23892   -23716 
  -23638   -23704   -23880   -24040   -24131   -24148   -24042   -23839 
  -23697   -23695   -23741   -23730   -23676   -23704   -23841   -23904 
  -23791   -23657   -23677   -23784   -23842   -23862   -23882   -23861 
  -23749   -23612   -23548   -23485   -23386   -23356   -23395   -23400 
  -23352   -23276   -23209   -23132   -22986   -22951   -23218   -23529 
  -23580   -23458   -23325   -23160   -22991   -22935   -23004   -23107 
  -23148   -23166   -23257   -23330   -23306   -23305   -23328   -23249 
  -23175   -23244   -23301   -23224   -23134   -23107   -23103   -23121 
  -23168   -23176   -23156   -23163   -23144   -23089   -23074   -23122 
  -23174   -23190   -23236   -23341   -23410   -23392   -23361   -23398 
  -23546   -23754   -23823   -23666   -23434   -23263   -23195   -23186 
  -23203   -23344   -23576   -23687   -23598   -23448   -23387   -23392 
  -23328   -23230   -23326   -23642   -23904   -23907   -23773   -23765 
  -23927   -24084   -24117   -24073   -24046   -24001   -23851   -23642 
  -23492   -23436   -23390   -23326   -23355   -23545   -23793   -23946 
  -23996   -24054   -24092   -24057   -24077   -24182   -24210   -24129 
  -24051   -24025   -24070   -24151   -24183   -24143   -24093   -24081 
  -24069   -23984   -23877   -23862   -23928   -23985   -24040   -24194 
  -24398   -24424   -24228   -24048   -24040   -24132   -24205   -24213 
  -24182   -24144   -24108   -24086   -24044   -23949   -23880   -23847 
  -23764   -23687   -23747   -23872   -23897   -23819   -23753   -23765 
  -23823   -23839   -23834   -23958   -24197   -24320   -24212   -23947 
  -23673   -23535   -23549   -23579   -23565   -23592   -23704   -23804 
  -23851   -23895   -23965   -24047   -24096   -24111   -24133   -24173 
  -24246   -24333   -24363   -24339   -24351   -24403   -24439   -24441 
  -24385   -24300   -24223   -24112   -24028   -24042   -24085   -24117 
  -24143   -24139   -24144   -24217   -24277   -24235   -24182   -24220 
  -24283   -24252   -24142   -24032   -23930   -23814   -23747   -23795 
  -23826   -23691   -23485   -23386   -23423   -23526   -23579   -23533 
  -23503   -23600   -23785   -23954   -24027   -24020   -24003   -23969 
  -23866   -23764   -23731   -23687   -23576   -23490   -23503   -23561 
  -23569   -23535   -23541   -23603   -23634   -23572   -23440   -23309 
  -23274   -23382   -23525   -23549   -23460   -23348   -23248   -23215 
  -23288   -23409   -23531   -23660   -23750   -23803   -23857   -23861 
  -23770   -23634   -23483   -23367   -23384   -23510   -23630   -23724 
  -23795   -23772   -23676   -23638   -23701   -23784   -23820   -23842 
  -23885   -23936   -23990   -24035   -24034   -24009   -24005   -24025 
  -24013   -23942   -23854   -23804   -23778   -23714   -23610   -23539 
  -23515   -23460   -23359   -23288   -23255   -23193   -23121   -23121 
  -23225   -23356   -23372   -23303   -23332   -23477   -23588   -23581 
  -23496   -23395   -23365   -23454   -23603   -23716   -23728   -23641 
  -23526   -23449   -23421   -23421   -23388   -23311   -23322   -23502 
  -23712   -23797   -23758   -23673   -23612   -23610   -23627   -23618 
  -23553   -23429   -23352   -23406   -23515   -23572   -23583   -23627 
  -23703   -23755   -23792   -23799   -23746   -23649   -23576   -23633 
  -23818   -23992   -24069   -24077   -24024   -23907   -23788   -23674 
  -23553   -23477   -23475   -23531   -23630   -23728   -23780   -23784 
  -23778   -23726   -23554   -23315   -23144   -23126   -23222   -23318 
  -23361   -23392   -23410   -23383   -23352   -23369   -23411   -23377 
  -23234   -23125   -23179   -23357   -23535   -23583   -23495   -23429 
  -23445   -23445   -23417   -23398   -23350   -23290   -23296   -23399 
  -23564   -23714   -23788   -23814   -23795   -23733   -23735   -23858 
  -23939   -23900   -23905   -24020   -24063   -23967   -23896   -23899 
  -23858   -23749   -23612   -23491   -23471   -23553   -23618   -23606 
  -23591   -23629   -23654   -23599   -23522   -23503   -23479   -23400 
  -23376   -23453   -23541   -23583   -23610   -23647   -23672   -23684 
  -23691   -23701   -23754   -23803   -23782   -23761   -23818   -23905 
  -23966   -23994   -24009   -24032   -24042   -24032   -24035   -24001 
  -23903   -23842   -23886   -23970   -24016   -24040   -24079   -24121 
  -24136   -24121   -24070   -24001   -24017   -24135   -24251   -24298 
  -24293   -24274   -24225   -24144   -24140   -24228   -24240   -24143 
  -24062   -24004   -23951   -23942   -23926   -23868   -23826   -23785 
  -23681   -23517   -23346   -23215   -23128   -23075   -23079   -23178 
  -23319   -23421   -23525   -23652   -23707   -23631   -23491   -23386 
  -23334   -23334   -23422   -23554   -23630   -23607   -23521   -23438 
  -23382   -23340   -23346   -23450   -23579   -23652   -23712   -23777 
  -23811   -23830   -23868   -23915   -23953   -24001   -24042   -24000 
  -23851   -23679   -23622   -23680   -23718   -23734   -23823   -23905 
  -23841   -23739   -23754   -23830   -23909   -24011   -24100   -24173 
  -24295   -24468   -24621   -24698   -24634   -24484   -24424   -24460 
  -24489   -24538   -24684   -24861   -24993   -25130   -25261   -25299 
  -25182   -24922   -24711   -24714   -24811   -24831   -24788   -24736 
  -24634   -24470   -24287   -24144   -24071   -24051   -24039   -24017 
  -24011   -24038   -24057   -24031   -23993   -23998   -24058   -24079 
  -24039   -24034   -24085   -24077   -23962   -23832   -23730   -23607 
  -23448   -23286   -23188   -23160   -23101   -22941   -22775   -22724 
  -22775   -22901   -23040   -23097   -23116   -23145   -23116   -23002 
  -22883   -22792   -22712   -22670   -22657   -22685   -22778   -22810 
  -22724   -22657   -22680   -22735   -22839   -23043   -23269   -23444 
  -23561   -23603   -23593   -23592   -23637   -23699   -23761   -23835 
  -23880   -23884   -23890   -23912   -23962   -24050   -24127   -24150 
  -24147   -24140   -24159   -24258   -24383   -24418   -24349   -24217 
  -24070   -23943   -23854   -23812   -23793   -23772   -23758   -23774 
  -23788   -23750   -23680   -23615   -23603   -23672   -23778   -23843 
  -23842   -23845   -23881   -23893   -23868   -23842   -23827   -23832 
  -23884   -23982   -24082   -24120   -24054   -23990   -24058   -24181 
  -24204   -24050   -23778   -23519   -23361   -23301   -23286   -23279 
  -23242   -23175   -23143   -23213   -23364   -23456   -23419   -23349 
  -23318   -23342   -23441   -23583   -23629   -23527   -23396   -23307 
  -23274   -23269   -23207   -23105   -23047   -23064   -23152   -23269 
  -23348   -23341   -23301   -23249   -23159   -23080   -23074   -23110 
  -23132   -23129   -23121   -23091   -23080   -23102   -23071   -22974 
  -22908   -22921   -22928   -22887   -22905   -23016   -23128   -23209 
  -23284   -23315   -23276   -23278   -23379   -23499   -23538   -23515 
  -23530   -23584   -23612   -23596   -23558   -23542   -23530   -23471 
  -23417   -23440   -23476   -23475   -23476   -23464   -23413   -23375 
  -23411   -23488   -23498   -23431   -23391   -23409   -23429   -23390 
  -23341   -23357   -23422   -23506   -23606   -23723   -23788   -23792 
  -23839   -23923   -23930   -23872   -23892   -24004   -24070   -24063 
  -24052   -24054   -24042   -24021   -24046   -24124   -24205   -24250 
  -24258   -24267   -24282   -24275   -24231   -24146   -24031   -23922 
  -23884   -23904   -23876   -23811   -23834   -23930   -23984   -23961 
  -23930   -23935   -23970   -24019   -24097   -24220   -24341   -24447 
  -24543   -24588   -24553   -24514   -24549   -24571   -24518   -24516 
  -24613   -24688   -24646   -24549   -24503   -24507   -24464   -24364 
  -24297   -24231   -24100   -23986   -23971   -24008   -24039   -24066 
  -24071   -24009   -23890   -23749   -23629   -23554   -23521   -23546 
  -23619   -23701   -23804   -23935   -24020   -23986   -23905   -23853 
  -23815   -23774   -23751   -23807   -23922   -24034   -24152   -24259 
  -24293   -24239   -24150   -24073   -23981   -23868   -23800   -23812 
  -23836   -23805   -23747   -23714   -23683   -23604   -23515   -23476 
  -23422   -23315   -23279   -23361   -23422   -23360   -23278   -23245 
  -23210   -23157   -23128   -23122   -23083   -22997   -22931   -22927 
  -22931   -22905   -22898   -22935   -22989   -23067   -23148   -23218 
  -23283   -23337   -23400   -23448   -23454   -23458   -23479   -23452 
  -23306   -23106   -22956   -22887   -22891   -22950   -23045   -23126 
  -23149   -23114   -23072   -23074   -23055   -22983   -22939   -22971 
  -23075   -23176   -23215   -23225   -23238   -23245   -23225   -23233 
  -23305   -23395   -23448   -23436   -23388   -23356   -23368   -23426 
  -23461   -23452   -23434   -23406   -23353   -23299   -23255   -23229 
  -23255   -23306   -23344   -23400   -23469   -23519   -23573   -23589 
  -23557   -23571   -23656   -23753   -23853   -23971   -24062   -24093 
  -24079   -24036   -24024   -24093   -24175   -24193   -24187   -24247 
  -24375   -24517   -24599   -24614   -24598   -24543   -24456   -24397 
  -24397   -24405   -24354   -24273   -24271   -24383   -24484   -24509 
  -24501   -24462   -24429   -24443   -24482   -24517   -24540   -24565 
  -24572   -24552   -24518   -24490   -24497   -24486   -24410   -24345 
  -24329   -24286   -24212   -24190   -24204   -24177   -24138   -24135 
  -24144   -24139   -24140   -24140   -24093   -24031   -23971   -23870 
  -23799   -23801   -23812   -23823   -23880   -23971   -24043   -24057 
  -24012   -23954   -23944   -23962   -23957   -23901   -23774   -23600 
  -23438   -23333   -23286   -23275   -23306   -23352   -23375   -23384 
  -23429   -23510   -23580   -23607   -23579   -23553   -23623   -23758 
  -23858   -23939   -24051   -24106   -24066   -23990   -23912   -23865 
  -23869   -23911   -23938   -23916   -23865   -23805   -23776   -23788 
  -23781   -23730   -23676   -23630   -23583   -23589   -23670   -23726 
  -23701   -23639   -23580   -23530   -23471   -23398   -23292   -23172 
  -23089   -23036   -22999   -22994   -23041   -23101   -23102   -23055 
  -23033   -23094   -23184   -23213   -23234   -23311   -23398   -23487 
  -23599   -23706   -23757   -23742   -23668   -23608   -23641   -23673 
  -23627   -23577   -23595   -23685   -23808   -23900   -23934   -23946 
  -23950   -23919   -23896   -23893   -23865   -23804   -23747   -23727 
  -23723   -23701   -23643   -23561   -23521   -23529   -23506   -23434 
  -23437   -23573   -23715   -23758   -23737   -23723   -23724   -23669 
  -23556   -23477   -23464   -23422   -23307   -23234   -23260   -23292 
  -23249   -23172   -23159   -23186   -23233   -23302   -23349   -23391 
  -23479   -23602   -23695   -23718   -23724   -23770   -23828   -23830 
  -23800   -23785   -23761   -23735   -23720   -23707   -23714   -23745 
  -23776   -23766   -23706   -23656   -23696   -23770   -23753   -23683 
  -23650   -23641   -23619   -23577   -23530   -23476   -23402   -23345 
  -23329   -23363   -23456   -23576   -23684   -23761   -23793   -23749 
