Origin Time       2025/01/13 21:19:00
Lat.              31.8
Long.             131.6
Depth. (km)       30
Mag.              6.9
Station Code      EHMH13
Station Lat.      33.3719
Station Long.     132.1157
Station Height(m) 10
Record Time       2025/01/13 21:20:22
Sampling Freq(Hz) 100Hz
Duration Time(s)  120
Dir.              5
Scale Factor      7845(gal)/8223790
Max. Acc. (gal)   2.662
Last Correction   2025/01/13 21:20:22
Memo.             
[...]
    5250     5271     5313     5363     5402     5408     5390     5373 
    5362     5359     5362     5348     5312     5271     5242     5220 
    5167     5076     4986     4938     4924     4939     4981     5049 
    5131     5198     5236     5251     5259     5287     5340     5406 
    5476     5532     5566     5591     5621     5649     5678     5698 
    5675     5599     5514     5447     5397     5364     5351     5354 
    5374     5394     5397     5382     5367     5351     5341     5344 
    5341     5328     5319     5323     5344     5382     5422     5458 
    5495     5547     5606     5653     5680     5699     5706     5697 
    5671     5622     5555     5482     5413     5351     5310     5304 
    5298     5266     5212     5136     5058     5024     5062     5144 
    5223     5259     5260     5254     5273     5320     5375     5412 
    5416     5405     5410     5425     5425     5404     5389     5410 
    5470     5533     5562     5562     5560     5552     5532     5499 
    5443     5366     5287     5186     5062     4962     4920     4935 
    5007     5136     5297     5459     5599     5692     5722     5715 
    5699     5695     5719     5742     5733     5703     5690     5705 
    5730     5740     5730     5702     5667     5659     5684     5711 
    5718     5684     5611     5521     5437     5397     5427     5502 
    5574     5594     5566     5524     5503     5517     5555     5599 
    5636     5644     5601     5508     5385     5265     5177     5130 
    5111     5116     5136     5151     5144     5115     5062     4981 
    4903     4874     4897     4934     4963     4980     4968     4926 
    4877     4857     4877     4919     4959     5005     5077     5188 
    5335     5513     5706     5891     6035     6118     6134     6102 
    6030     5925     5796     5649     5489     5333     5208     5100 
    4980     4835     4706     4629     4599     4614     4684     4799 
    4938     5090     5248     5409     5568     5717     5832     5888 
    5884     5844     5783     5718     5661     5614     5559     5486 
    5422     5412     5470     5563     5644     5679     5656     5595 
    5536     5508     5526     5584     5632     5637     5614     5578 
    5553     5560     5591     5640     5714     5783     5807     5787 
    5753     5715     5667     5605     5539     5494     5487     5499 
    5491     5445     5371     5283     5204     5143     5077     4986 
    4887     4800     4743     4742     4810     4909     5012     5124 
    5242     5343     5428     5509     5593     5672     5745     5799 
    5810     5796     5775     5730     5657     5582     5537     5521 
    5501     5460     5416     5381     5355     5341     5350     5371 
    5381     5377     5395     5432     5440     5418     5389     5347 
    5289     5232     5189     5154     5127     5111     5100     5107 
    5143     5184     5217     5262     5317     5352     5341     5289 
    5212     5131     5058     5007     4993     5016     5050     5070 
    5077     5098     5144     5204     5274     5346     5398     5433 
    5455     5454     5424     5373     5314     5270     5235     5194 
    5159     5154     5163     5177     5204     5238     5266     5292 
    5309     5306     5294     5275     5244     5217     5211     5220 
    5240     5266     5289     5302     5302     5285     5256     5246 
    5267     5305     5350     5397     5440     5467     5460     5425 
    5382     5343     5317     5296     5260     5232     5240     5278 
    5314     5320     5283     5220     5143     5074     5022     4976 
    4927     4873     4814     4773     4785     4854     4966     5094 
    5219     5331     5418     5478     5536     5625     5741     5849 
    5931     5991     6014     6008     6015     6053     6114     6191 
    6276     6353     6394     6376     6293     6170     6035     5896 
    5752     5606     5475     5368     5282     5208     5143     5094 
    5063     5049     5049     5067     5107     5173     5269     5363 
    5417     5422     5400     5364     5324     5283     5251     5236 
    5236     5229     5200     5147     5070     4995     4961     4974 
    5012     5074     5165     5275     5379     5440     5456     5463 
    5494     5562     5638     5692     5734     5773     5802     5809 
    5780     5705     5593     5455     5301     5152     5009     4881 
    4781     4703     4630     4575     4564     4612     4718     4877 
    5077     5292     5501     5705     5904     6096     6257     6358 
    6386     6345     6238     6061     5815     5543     5292     5084 
    4935     4862     4855     4876     4914     4969     5028     5096 
    5185     5289     5393     5514     5682     5886     6097     6295 
    6448     6532     6551     6509     6399     6257     6146     6080 
    6010     5890     5705     5463     5213     5026     4938     4932 
    4981     5061     5175     5332     5491     5601     5659     5699 
    5742     5791     5849     5915     5969     5995     6018     6049 
    6046     5980     5875     5759     5653     5567     5485     5390 
    5305     5254     5235     5213     5178     5125     5036     4915 
    4804     4722     4642     4560     4495     4442     4401     4395 
    4453     4590     4797     5049     5292     5489     5637     5757 
    5863     5971     6093     6204     6259     6228     6108     5941 
    5787     5648     5502     5352     5223     5120     5057     5038 
    5042     5057     5098     5179     5289     5412     5522     5621 
    5741     5902     6075     6224     6340     6409     6431     6431 
    6424     6400     6338     6226     6057     5844     5609     5363 
    5113     4865     4648     4521     4506     4552     4590     4595 
    4581     4575     4598     4656     4753     4884     5040     5202 
    5332     5401     5409     5383     5367     5401     5487     5602 
    5725     5837     5907     5919     5873     5787     5707     5671 
    5645     5594     5540     5520     5528     5544     5562     5564 
    5548     5522     5503     5494     5487     5471     5429     5373 
    5341     5347     5366     5385     5391     5371     5321     5266 
    5235     5248     5301     5368     5447     5543     5625     5651 
    5617     5533     5427     5337     5269     5208     5161     5130 
    5094     5043     4989     4942     4907     4904     4954     5061 
    5211     5370     5498     5584     5659     5749     5861     5994 
    6137     6268     6361     6404     6404     6384     6369     6365 
    6358     6334     6289     6224     6133     6019     5921     5864 
    5838     5821     5784     5714     5610     5481     5337     5217 
    5152     5146     5174     5216     5260     5305     5348     5386 
    5421     5475     5568     5679     5752     5764     5744     5718 
    5690     5655     5611     5572     5553     5560     5598     5672 
    5779     5914     6070     6232     6378     6494     6570     6589 
    6540     6455     6374     6327     6315     6312     6281     6210 
    6107     5998     5914     5871     5850     5826     5775     5679 
    5532     5350     5142     4909     4680     4513     4434     4407 
    4390     4374     4379     4411     4452     4492     4530     4542 
    4518     4457     4363     4266     4207     4213     4302     4457 
    4630     4793     4953     5127     5332     5572     5848     6135 
    6363     6469     6455     6378     6270     6133     5965     5798 
    5670     5568     5422     5192     4926     4699     4548     4463 
    4410     4360     4290     4213     4187     4247     4364     4499 
    4626     4738     4842     4938     5047     5206     5397     5555 
    5657     5738     5819     5899     5976     6053     6103     6104 
    6058     5972     5864     5768     5702     5648     5580     5493 
    5379     5235     5088     4986     4939     4932     4946     4962 
    4984     5020     5071     5120     5161     5198     5243     5285 
    5301     5254     5123     4928     4716     4534     4418     4378 
    4405     4459     4510     4579     4702     4878     5096     5340 
    5587     5806     5988     6147     6296     6439     6566     6651 
    6686     6696     6727     6802     6886     6917     6868     6754 
    6605     6469     6346     6195     6014     5825     5626     5420 
    5224     5059     4939     4874     4877     4930     5004     5059 
    5058     5012     4965     4935     4932     4949     4955     4939 
    4918     4935     5053     5298     5644     6021     6369     6655 
    6851     6921     6867     6739     6590     6443     6300     6173 
    6060     5946     5806     5629     5481     5424     5447     5524 
    5636     5737     5807     5853     5861     5803     5676     5524 
    5394     5287     5186     5105     5055     5034     5047     5096 
    5173     5260     5335     5402     5486     5582     5684     5790 
    5857     5859     5806     5734     5680     5671     5706     5782 
    5900     6030     6141     6262     6401     6521     6615     6682 
    6708     6685     6620     6523     6435     6400     6377     6313 
    6227     6153     6065     5956     5860     5790     5725     5659 
    5587     5506     5433     5373     5302     5215     5121     5036 
    4965     4914     4885     4862     4823     4747     4625     4482 
    4371     4324     4320     4326     4326     4311     4270     4198 
    4109     4043     4039     4102     4226     4391     4557     4698 
    4810     4896     4981     5073     5136     5123     5011     4812 
    4571     4333     4118     3927     3774     3665     3596     3581 
    3646     3798     4017     4267     4504     4660     4695     4638 
    4558     4504     4482     4476     4475     4455     4398     4302 
    4180     4058     3954     3875     3855     3933     4079     4218 
    4328     4414     4465     4476     4471     4476     4492     4522 
    4579     4635     4627     4542     4434     4356     4337     4398 
    4537     4727     4926     5103     5244     5328     5337     5282 
    5201     5146     5112     5067     5024     5005     5022     5073 
    5144     5224     5339     5502     5687     5873     6058     6247 
    6432     6610     6786     6932     6995     6976     6926     6875 
    6812     6716     6592     6475     6378     6266     6096     5864 
    5626     5464     5421     5481     5603     5728     5784     5759 
    5698     5656     5679     5790     5987     6232     6459     6633 
    6748     6802     6813     6805     6768     6686     6571     6459 
    6382     6347     6343     6357     6390     6459     6546     6597 
    6563     6428     6232     6011     5788     5610     5524     5514 
    5513     5502     5517     5540     5541     5533     5541     5564 
    5589     5606     5621     5634     5668     5722     5763     5755 
    5709     5675     5694     5752     5806     5838     5857     5879 
    5921     5981     6050     6107     6129     6114     6073     6003 
    5908     5830     5775     5706     5580     5352     5008     4607 
    4251     3970     3757     3631     3612     3672     3778     3886 
    3931     3897     3858     3878     3962     4083     4220     4356 
    4467     4542     4590     4619     4668     4769     4918     5086 
    5247     5382     5478     5537     5559     5544     5516     5470 
    5360     5193     5038     4942     4908     4912     4901     4842 
    4762     4693     4645     4611     4576     4537     4519     4545 
    4614     4725     4877     5051     5194     5275     5331     5404 
    5476     5518     5562     5636     5733     5837     5940     6029 
    6102     6169     6257     6394     6579     6772     6948     7103 
    7227     7296     7303     7256     7161     7006     6802     6594 
    6385     6142     5864     5575     5271     4950     4630     4361 
    4183     4104     4118     4205     4320     4442     4575     4712 
    4847     4969     5093     5259     5471     5698     5911     6093 
    6250     6411     6567     6678     6720     6712     6683     6656 
    6633     6579     6463     6276     6021     5721     5406     5112 
    4877     4731     4687     4741     4873     5053     5244     5422 
    5580     5709     5796     5853     5872     5830     5744     5632 
    5494     5356     5254     5197     5201     5262     5337     5400 
    5463     5563     5686     5786     5852     5896     5895     5842 
    5780     5741     5719     5709     5715     5738     5753     5745 
    5710     5632     5502     5358     5254     5221     5250     5304 
    5354     5382     5391     5409     5479     5638     5864     6091 
    6270     6365     6373     6305     6147     5896     5597     5329 
    5127     4958     4785     4639     4577     4599     4689     4868 
    5120     5395     5671     5925     6146     6338     6500     6637 
    6725     6717     6639     6559     6501     6469     6471     6493 
    6515     6529     6538     6550     6558     6529     6454     6347 
    6219     6097     6014     5952     5879     5790     5698     5601 
    5502     5401     5309     5265     5275     5310     5347     5373 
    5390     5421     5489     5576     5651     5711     5773     5821 
    5840     5846     5827     5783     5729     5632     5433     5115 
    4704     4280     3920     3622     3337     3063     2841     2693 
    2620     2627     2694     2789     2918     3109     3329     3549 
    3763     3937     4023     4025     3989     3940     3920     3991 
    4176     4442     4752     5063     5327     5482     5495     5390 
    5236     5116     5057     5043     5047     5058     5084     5116 
    5134     5136     5142     5177     5247     5316     5354     5352 
    5313     5267     5233     5174     5066     4954     4909     4961 
    5088     5263     5460     5665     5859     6012     6123     6168 
    6100     5907     5633     5335     5054     4804     4602     4467 
    4406     4421     4495     4588     4650     4691     4766     4923 
    5167     5471     5803     6160     6534     6890     7195     7431 
    7592     7690     7740     7738     7680     7570     7403     7163 
    6822     6400     5956     5545     5202     4942     4781     4743 
    4833     5035     5305     5572     5815     6045     6227     6305 
    6268     6156     6029     5933     5877     5833     5767     5665 
    5517     5308     5059     4815     4602     4445     4378     4365 
    4324     4217     4074     3943     3879     3904     3973     4044 
    4122     4213     4309     4411     4526     4641     4729     4797 
    4903     5084     5329     5625     5956     6296     6615     6874 
    7047     7133     7161     7160     7133     7071     6952     6766 
    6535     6303     6066     5784     5462     5150     4865     4600 
    4341     4067     3785     3555     3445     3465     3589     3789 
    4054     4372     4708     5008     5251     5447     5611     5763 
    5929     6115     6286     6411     6473     6450     6315     6097 
    5863     5663     5493     5300     5034     4683     4287     3912 
    3618     3441     3399     3483     3672     3944     4284     4685 
    5134     5606     6081     6507     6818     7003     7103     7153 
    7156     7123     7083     7041     6982     6885     6755     6616 
    6478     6313     6073     5722     5267     4774     4325     3971 
    3736     3624     3616     3663     3740     3859     4048     4307 
    4584     4827     5054     5310     5591     5859     6096     6300 
    6470     6612     6744     6883     7024     7114     7132     7122 
    7102     7041     6944     6831     6714     6612     6511     6393 
    6278     6176     6081     5988     5875     5736     5563     5347 
    5098     4828     4529     4222     3936     3667     3416     3192 
    3021     2925     2917     3010     3207     3450     3662     3858 
    4101     4399     4733     5092     5452     5771     6030     6231 
    6370     6434     6439     6428     6435     6461     6484     6471 
    6423     6365     6311     6249     6181     6103     5994     5844 
    5675     5509     5347     5205     5116     5100     5154     5260 
    5390     5508     5595     5656     5686     5684     5663     5640 
    5614     5556     5444     5275     5061     4830     4619     4442 
    4270     4077     3877     3693     3538     3426     3361     3352 
    3411     3546     3769     4082     4461     4853     5205     5495 
    5725     5899     6029     6122     6185     6207     6170     6085 
    5984     5884     5788     5699     5634     5618     5674     5802 
    5967     6119     6228     6264     6222     6153     6089     6021 
    5937     5849     5769     5701     5649     5629     5648     5691 
    5736     5783     5849     5940     6057     6178     6268     6297 
    6288     6286     6332     6417     6509     6594     6683     6781 
    6866     6930     6960     6922     6822     6705     6605     6511 
    6413     6323     6226     6104     5967     5834     5717     5607 
    5502     5398     5274     5131     5017     4951     4901     4833 
    4741     4637     4554     4522     4536     4558     4585     4642 
    4741     4862     4976     5047     5076     5080     5081     5108 
    5150     5178     5200     5211     5198     5193     5227     5309 
    5445     5640     5875     6096     6262     6350     6357     6311 
    6220     6045     5767     5447     5128     4810     4491     4180 
    3897     3674     3539     3495     3520     3596     3711     3859 
    4044     4278     4545     4799     5008     5181     5339     5481 
    5584     5634     5653     5652     5610     5520     5397     5250 
    5071     4897     4772     4702     4660     4629     4615     4615 
    4606     4588     4606     4702     4870     5069     5271     5478 
    5688     5900     6120     6359     6612     6847     7033     7150 
    7186     7115     6948     6727     6482     6216     5946     5699 
    5460     5200     4927     4688     4507     4403     4388     4450 
    4565     4703     4826     4938     5074     5251     5454     5694 
    5987     6313     6644     6964     7214     7335     7331     7226 
    7041     6814     6559     6266     5953     5643     5337     5050 
    4792     4568     4379     4216     4074     3987     3994     4079 
    4190     4290     4392     4499     4587     4656     4714     4758 
    4803     4854     4895     4915     4915     4897     4899     4951 
    5058     5211     5373     5509     5622     5734     5837     5923 
    5999     6069     6120     6124     6058     5935     5776     5589 
    5391     5219     5070     4920     4765     4612     4467     4336 
    4237     4183     4171     4199     4261     4332     4399     4491 
    4639     4857     5116     5391     5665     5923     6147     6308 
    6401     6444     6448     6407     6319     6210     6123     6053 
    5972     5887     5822     5791     5788     5787     5765     5733 
    5682     5601     5479     5327     5170     5026     4895     4801 
    4773     4815     4903     5009     5097     5165     5233     5298 
    5339     5382     5456     5532     5576     5593     5595     5587 
