Origin Time       2025/01/13 21:19:00
Lat.              31.8
Long.             131.6
Depth. (km)       30
Mag.              6.9
Station Code      EHMH07
Station Lat.      33.5022
Station Long.     132.7480
Station Height(m) 290
Record Time       2025/01/13 21:20:11
Sampling Freq(Hz) 100Hz
Duration Time(s)  145
Dir.              4
Scale Factor      7845(gal)/8223790
Max. Acc. (gal)   2.282
Last Correction   2025/01/13 21:20:11
Memo.             
[...]
   10376    10215    10331    10627    10775    10675    10458    10268 
   10145    10122    10262    10461    10546    10542    10569    10629 
   10673    10687    10687    10639    10512    10390    10392    10430 
   10397    10368    10401    10458    10449    10327    10268    10420 
   10655    10821    10868    10760    10527    10268    10122    10226 
   10517    10737    10710    10507    10318    10307    10507    10752 
   10856    10802    10729    10756    10847    10889    10818    10652 
   10557    10716    11048    11246    11128    10810    10601    10651 
   10775    10787    10762    10747    10650    10542    10516    10455 
   10363    10419    10613    10810    10945    10976    10858    10624 
   10415    10354    10444    10593    10706    10764    10779    10704 
   10548    10395    10258    10174    10185    10214    10201    10164 
   10145    10238    10422    10573    10724    10848    10756    10471 
   10239    10238    10447    10638    10670    10588    10405    10208 
   10161    10278    10453    10569    10565    10511    10513    10543 
   10547    10548    10555    10550    10528    10453    10304    10184 
   10206    10350    10534    10629    10555    10382    10184    10049 
   10129    10307    10304    10058     9733     9567     9697    10007 
   10242    10261    10119    10004    10079    10282    10469    10616 
   10687    10665    10667    10768    10937    11103    11148    11072 
   11009    10974    10886    10785    10739    10764    10874    10949 
   10839    10613    10434    10389    10500    10650    10716    10748 
   10762    10640    10389    10238    10308    10422    10440    10400 
   10324    10293    10390    10513    10511    10395    10291    10273 
   10319    10401    10444    10355    10201    10130    10227    10455 
   10640    10665    10586    10520    10539    10629    10708    10754 
   10840    10951    10947    10789    10585    10462    10481    10571 
   10606    10558    10489    10451    10488    10600    10620    10378 
   10031     9887    10035    10353    10694    10948    10995    10847 
   10705    10701    10797    10903    10945    10856    10663    10519 
   10498    10562    10701    10795    10696    10520    10368    10235 
   10270    10457    10543    10476    10381    10289    10231    10334 
   10592    10768    10732    10606    10524    10567    10778    11044 
   11219    11263    11168    10926    10619    10366    10200    10177 
   10380    10651    10748    10670    10570    10535    10615    10831 
   11040    11090    11016    10874    10746    10817    11044    11171 
   11160    11095    10947    10755    10616    10512    10453    10521 
   10651    10719    10758    10774    10685    10573    10612    10778 
   10933    10999    10924    10700    10388    10141    10115    10215 
   10242    10183    10062     9911     9849     9931    10077    10110 
    9958     9844     9961    10228    10503    10701    10786    10801 
   10778    10710    10689    10817    11011    11115    11079    10933 
   10751    10646    10671    10725    10713    10694    10683    10651 
   10690    10779    10800    10790    10768    10725    10737    10746 
   10635    10527    10573    10696    10729    10636    10498    10469 
   10683    10991    11109    11001    10756    10496    10409    10505 
   10628    10687    10701    10750    10867    10995    11099    11140 
   11083    10990    10948    10897    10756    10602    10539    10575 
   10650    10686    10651    10584    10566    10616    10692    10764 
   10781    10737    10786    10906    10831    10584    10430    10381 
   10388    10474    10508    10442    10436    10520    10575    10578 
   10544    10447    10322    10300    10431    10547    10467    10261 
   10126    10116    10131    10123    10166    10250    10276    10260 
   10274    10363    10492    10521    10380    10193    10111    10158 
   10292    10412    10440    10404    10314    10192    10207    10384 
   10505    10485    10369    10180    10037    10081    10223    10316 
   10399    10539    10674    10674    10500    10287    10215    10369 
   10612    10665    10476    10220    10019    10003    10266    10690 
   10994    10949    10629    10342    10311    10546    10854    10966 
   10805    10494    10207    10100    10314    10739    11016    10925 
   10558    10174    10031    10188    10470    10679    10736    10654 
   10432    10120     9969    10168    10527    10766    10860    10851 
   10713    10570    10581    10666    10773    10959    11084    11037 
   11011    11129    11295    11373    11203    10813    10482    10365 
   10403    10546    10667    10588    10378    10257    10278    10382 
   10536    10743    10937    10970    10855    10752    10706    10636 
   10542    10494    10408    10233    10147    10157    10054     9846 
    9688     9637     9683     9803     9887     9837     9722     9645 
    9676     9877    10125    10254    10307    10312    10239    10129 
   10021     9976    10046    10134    10083     9925     9795     9711 
    9668     9705     9795     9895     9941     9859     9737     9776 
    9999    10250    10401    10422    10353    10268    10214    10195 
   10239    10359    10459    10424    10291    10231    10341    10527 
   10681    10793    10859    10898    10976    11091    11184    11210 
   11130    10940    10791    10879    11107    11225    11213    11128 
   10971    10913    11101    11376    11631    11889    11951    11704 
   11457    11438    11580    11770    11804    11524    11107    10833 
   10768    10789    10786    10806    10891    10956    10913    10804 
   10740    10778    10932    11195    11483    11612    11450    11110 
   10879    10928    11191    11473    11576    11412    11134    10997 
   11060    11259    11504    11589    11433    11232    11097    11003 
   10972    10971    10975    11013    10971    10755    10512    10378 
   10372    10497    10663    10727    10674    10530    10347    10227 
   10170    10110    10000     9811     9620     9571     9647     9688 
    9626     9576     9630     9707     9713     9672     9672     9751 
    9807     9736     9634     9583     9595     9761    10045    10276 
   10403    10382    10208    10077    10157    10399    10633    10737 
   10746    10733    10741    10881    11186    11503    11637    11497 
   11203    10967    10879    10924    11083    11272    11348    11269 
   11157    11169    11319    11479    11573    11526    11254    10918 
   10849    11107    11411    11619    11767    11726    11508    11385 
   11375    11342    11358    11462    11460    11229    10980    10899 
   10872    10789    10687    10552    10331    10083     9898     9775 
    9701     9733     9903    10053     9953     9675     9536     9603 
    9717     9817     9890     9861     9702     9456     9227     9099 
    8996     8811     8617     8517     8526     8691     8977     9196 
    9304     9477     9841    10349    10825    11102    11152    11080 
   11018    11068    11226    11391    11481    11430    11280    11219 
   11277    11327    11350    11354    11346    11398    11493    11530 
   11479    11367    11252    11202    11152    11017    10902    10975 
   11205    11388    11361    11130    10870    10748    10758    10804 
   10836    10779    10589    10404    10328    10269    10157    10072 
   10092    10166    10146     9999     9838     9728     9664     9698 
    9832     9954     9984     9917     9818     9790     9898    10123 
   10330    10362    10183     9906     9757     9817     9919     9941 
    9909     9853     9811     9823     9896    10017    10102    10031 
    9842     9744     9896    10177    10343    10397    10417    10361 
   10342    10516    10771    10987    11175    11292    11331    11392 
   11546    11784    12031    12202    12293    12306    12266    12237 
   12222    12182    12162    12210    12264    12229    12117    12013 
   11967    12004    12085    12094    12023    11921    11772    11581 
   11395    11238    11124    11034    10914    10759    10608    10511 
   10509    10561    10546    10462    10338    10192    10180    10327 
   10417    10354    10172     9910     9737     9809    10058    10315 
   10493    10534    10439    10353    10366    10476    10674    10891 
   11049    11129    11111    11060    11083    11144    11173    11225 
   11286    11244    11145    11091    11009    10912    10990    11242 
   11496    11642    11573    11263    10941    10831    10903    11038 
   11086    10951    10760    10675    10687    10706    10620    10443 
   10336    10338    10354    10341    10281    10200    10161    10192 
   10270    10339    10293    10108     9915     9813     9755     9734 
    9759     9717     9587     9505     9525     9609     9734     9871 
    9927     9856     9806     9923    10116    10274    10385    10431 
   10413    10416    10501    10638    10773    10889    10956    10966 
   10936    10893    10909    11010    11133    11202    11155    11010 
   10839    10698    10640    10686    10758    10751    10678    10596 
   10544    10617    10832    11011    11048    11011    10932    10791 
   10665    10659    10762    10848    10801    10631    10442    10300 
   10177    10029     9865     9730     9666     9717     9903    10115 
   10174    10038     9782     9510     9371     9416     9531     9568 
    9452     9294     9259     9340     9420     9428     9409     9405 
    9416     9505     9645     9675     9564     9451     9459     9628 
    9880    10069    10153    10176    10158    10138    10141    10116 
   10099    10143    10177    10164    10156    10103     9913     9659 
    9528     9613     9841    10052    10134    10080     9926     9806 
    9864    10008    10049     9975     9879     9822     9844     9936 
   10022    10006     9855     9688     9663     9828    10098    10358 
   10579    10743    10832    10932    11134    11396    11618    11739 
   11735    11634    11558    11664    11973    12313    12499    12464 
   12256    12036    11993    12155    12272    12145    11912    11732 
   11631    11670    11832    11935    11892    11765    11627    11547 
   11553    11529    11396    11229    11075    10939    10775    10524 
   10276    10123    10026     9961     9860     9652     9428     9258 
    9144     9159     9279     9420     9570     9633     9508     9366 
    9389     9489     9576     9647     9651     9570     9463     9391 
    9382     9445     9536     9571     9545     9494     9451     9462 
    9487     9468     9452     9467     9498     9598     9791     9984 
   10091    10160    10273    10411    10554    10690    10768    10791 
   10836    10955    11137    11281    11348    11414    11495    11527 
   11485    11426    11407    11416    11448    11468    11418    11350 
   11308    11261    11265    11322    11317    11241    11161    11155 
   11257    11365    11402    11418    11422    11373    11306    11295 
   11368    11479    11554    11601    11653    11620    11511    11456 
   11421    11335    11260    11165    11029    10993    11084    11160 
   11182    11194    11180    11113    11030    11033    11172    11371 
   11506    11512    11394    11238    11141    11102    11106    11107 
   11011    10858    10828    10956    11082    11155    11219    11192 
   11049    10953    10971    11021    11026    10953    10813    10606 
   10378    10241    10193    10153    10118    10108    10092    10029 
    9895     9713     9533     9402     9367     9467     9628     9717 
    9726     9721     9763     9902    10064    10127    10084     9998 
    9948    10012    10228    10504    10660    10643    10547    10473 
   10492    10619    10751    10775    10685    10509    10262    10037 
    9904     9814     9790     9838     9867     9864     9852     9805 
    9763     9764     9783     9805     9833     9863     9880     9890 
    9926    10003    10099    10143    10116    10098    10081    10003 
    9937     9987    10134    10297    10431    10535    10594    10643 
   10747    10908    11097    11267    11340    11306    11233    11205 
   11264    11380    11476    11508    11477    11381    11267    11254 
   11387    11534    11569    11520    11485    11491    11562    11700 
   11821    11881    11870    11778    11668    11615    11568    11427 
   11221    11067    10999    10972    10959    10921    10820    10683 
   10582    10525    10505    10546    10606    10586    10474    10320 
   10156    10062    10099    10201    10280    10304    10265    10176 
   10081    10026    10008     9992     9969     9983    10069    10169 
   10208    10195    10120     9972     9869     9899     9998    10107 
   10203    10231    10157    10054    10052    10138    10203    10206 
   10134    10012     9919     9886     9904     9968     9994     9922 
    9807     9699     9570     9452     9444     9566     9713     9747 
    9657     9571     9547     9564     9624     9663     9601     9491 
    9451     9539     9725     9867     9845     9720     9617     9594 
    9657     9756     9819     9840     9882     9977    10027     9927 
    9778     9738     9844    10069    10349    10519    10454    10218 
   10006     9980    10138    10326    10399    10366    10338    10393 
   10578    10893    11218    11422    11533    11649    11796    11970 
   12155    12301    12367    12383    12457    12660    12870    12954 
   12964    12953    12900    12839    12796    12730    12661    12633 
   12610    12542    12390    12189    12063    12073    12145    12178 
   12125    11969    11715    11495    11421    11437    11430    11327 
   11124    10885    10689    10579    10517    10417    10284    10180 
   10145    10168    10195    10162    10049     9903     9818     9859 
    9968    10002     9911     9769     9630     9539     9543     9622 
    9691     9707     9695     9687     9725     9779     9751     9672 
    9672     9745     9832     9888     9863     9819     9837     9860 
    9876     9946     9984     9879     9732     9687     9742     9850 
    9953     9975     9937     9915     9952    10033    10072    10010 
    9919     9898     9960    10081    10242    10395    10501    10561 
   10608    10687    10766    10805    10867    10974    11103    11263 
   11421    11550    11631    11641    11661    11747    11803    11780 
   11735    11669    11530    11342    11200    11159    11199    11267 
   11298    11221    11006    10768    10658    10665    10740    10898 
   11018    10984    10895    10870    10917    11021    11134    11214 
   11273    11314    11313    11310    11368    11430    11425    11395 
   11380    11369    11346    11272    11142    10990    10827    10719 
   10750    10832    10822    10751    10675    10613    10617    10683 
   10710    10640    10505    10396    10366    10378    10363    10300 
   10207    10083     9937     9841     9822     9844     9861     9848 
    9813     9745     9622     9524     9526     9553     9580     9661 
    9730     9717     9691     9694     9695     9668     9633     9672 
    9782     9852     9868     9892     9941     9996    10045    10088 
   10131    10164    10208    10269    10308    10353    10415    10447 
   10442    10396    10299    10201    10161    10192    10287    10380 
   10395    10351    10345    10405    10532    10705    10824    10866 
   10941    11080    11214    11337    11473    11566    11554    11489 
   11483    11534    11533    11422    11267    11167    11159    11211 
   11269    11256    11142    11024    10986    11006    11087    11221 
   11259    11152    11048    11016    11014    11049    11049    10902 
   10647    10405    10257    10216    10222    10207    10145    10029 
    9894     9809     9803     9863     9930     9938     9879     9811 
    9765     9780     9896    10049    10164    10220    10235    10295 
   10438    10569    10636    10686    10732    10764    10805    10848 
   10871    10875    10852    10787    10689    10588    10557    10632 
   10752    10867    10976    11047    11044    11025    11074    11156 
   11183    11146    11090    11022    10941    10872    10836    10820 
   10808    10781    10646    10396    10211    10195    10246    10245 
   10174    10079     9983     9892     9863     9927     9973     9865 
    9682     9598     9634     9738     9868     9949     9961     9944 
    9915     9898     9914     9938     9949     9995    10065    10100 
   10134    10206    10272    10319    10353    10351    10368    10486 
   10660    10793    10863    10881    10855    10872    11018    11225 
   11376    11452    11470    11461    11449    11449    11475    11472 
   11395    11341    11377    11425    11414    11362    11317    11298 
   11259    11159    11074    11092    11168    11207    11173    11053 
   10866    10671    10555    10563    10616    10593    10455    10207 
    9948     9871    10031    10250    10386    10446    10446    10439 
   10478    10517    10528    10552    10594    10654    10720    10733 
   10685    10643    10611    10585    10604    10621    10557    10449 
   10368    10312    10322    10427    10536    10554    10504    10443 
   10413    10477    10606    10719    10809    10868    10843    10775 
   10739    10755    10832    10905    10895    10840    10779    10704 
   10656    10652    10625    10554    10486    10430    10368    10332 
   10330    10297    10223    10168    10165    10180    10170    10119 
   10049    10004     9988     9958     9919     9886     9861     9877 
    9937     9999    10035    10021     9983    10019    10135    10255 
   10336    10361    10353    10378    10457    10562    10667    10748 
   10805    10844    10859    10871    10901    10918    10920    10924 
   10913    10876    10843    10848    10898    10945    10953    10945 
   10948    10952    10939    10903    10889    10918    10972    11041 
   11083    11030    10910    10798    10736    10741    10779    10787 
   10732    10605    10449    10357    10335    10314    10264    10215 
   10174    10134    10107    10100    10081    10060    10058    10071 
   10106    10168    10212    10222    10220    10242    10299    10366 
   10434    10504    10548    10550    10532    10534    10554    10578 
   10602    10600    10540    10455    10409    10434    10505    10565 
   10579    10547    10466    10382    10354    10363    10388    10438 
   10467    10424    10359    10332    10319    10289    10254    10241 
   10276    10323    10328    10316    10308    10300    10314    10339 
   10334    10299    10264    10239    10228    10245    10266    10257 
   10200    10114    10077    10156    10289    10384    10409    10358 
   10281    10264    10304    10373    10459    10508    10470    10435 
   10501    10609    10643    10594    10523    10496    10574    10736 
   10885    10945    10925    10890    10901    10978    11134    11318 
   11395    11354    11307    11299    11317    11341    11323    11245 
   11136    11068    11084    11125    11103    11057    11029    11011 
   11005    10987    10910    10783    10665    10612    10636    10689 
   10717    10702    10650    10604    10604    10617    10584    10488 
   10363    10270    10266    10339    10393    10362    10289    10245 
