Origin Time       2025/01/13 21:19:00
Lat.              31.8
Long.             131.6
Depth. (km)       30
Mag.              6.9
Station Code      EHMH07
Station Lat.      33.5022
Station Long.     132.7480
Station Height(m) 290
Record Time       2025/01/13 21:20:11
Sampling Freq(Hz) 100Hz
Duration Time(s)  145
Dir.              6
Scale Factor      7845(gal)/8223790
Max. Acc. (gal)   1.770
Last Correction   2025/01/13 21:20:11
Memo.             
[...]
    1074     1067     1223     1341     1285     1190     1231     1306 
    1269     1185     1144     1097     1004      938      977     1036 
     984      885      862      896      924      895      819      774 
     743      685      635      612      635      704      772      783 
     666      506      521      668      706      614      557      602 
     650      683      830     1055     1161     1146     1159     1250 
    1354     1377     1279     1159     1132     1139     1097     1073 
    1093     1054     1009     1090     1198     1185     1155     1290 
    1487     1521     1444     1431     1445     1368     1197     1040 
     950      861      787      800      799      670      507      469 
     562      635      642      680      737      689      579      560 
     643      714      712      700      718      743      808      950 
    1051      976      843      893     1050     1046      938     1012 
    1250     1381     1335     1256     1185     1044      916      949 
    1048     1004      881      966     1217     1296     1206     1228 
    1331     1302     1200     1217     1282     1167      970      981 
    1113     1047      807      673      720      808      857      896 
     923      888      855      938     1040     1001      874      791 
     768      756      727      745      837      904      907      889 
     843      783      739      746      857      963      931      849 
     876     1039     1167     1071      870      746      641      503 
     398      379      395      372      402      600      823      926 
    1012     1152     1220     1167     1131     1200     1271     1221 
    1080      961      916      947     1016     1069     1078     1020 
     882      739      668      642      642      722      874      958 
     899      843      893      955     1009     1139     1282     1274 
    1123     1047     1131     1161     1007      832      830      961 
    1004      855      680      662      770      834      789      778 
     851      881      882      946     1030     1070     1075     1069 
    1046      973      916      920      884      778      687      625 
     576      518      453      472      602      718      735      688 
     646      622      588      571      614      642      619      629 
     715      838      924      959     1013     1117     1216     1306 
    1426     1544     1561     1448     1328     1293     1266     1171 
    1046      970      938      897      926     1075     1183     1132 
    1053     1119     1296     1390     1314     1162     1059     1047 
    1053      966      831      800      896      978      950      853 
     770      726      672      568      503      579      735      823 
     761      656      672      810      938      950      872      839 
     916     1016     1026      965      934      908      803      646 
     531      514      595      747      873      908      927      973 
     999      999     1007     1005      958      880      827      822 
     853      858      753      572      481      571      684      643 
     594      711      827      796      764      839      926      931 
     954     1059     1098     1038     1005      961      873      850 
     854      772      672      664      666      567      422      394 
     508      571      498      519      762     1009     1036      881 
     710      633      668      753      799      742      653      708 
     872      932      876      841      857      895      935      962 
    1001     1080     1178     1291     1417     1498     1476     1352 
    1229     1198     1232     1239     1185     1151     1188     1205 
    1167     1186     1302     1393     1354     1233     1144     1097 
    1055     1063     1134     1171     1107      967      870      872 
     850      761      746      818      827      773      766      812 
     827      804      827      889      876      772      685      703 
     760      734      661      608      550      472      407      398 
     421      426      461      583      723      780      730      669 
     708      810      869      886      900      924     1000     1111 
    1216     1320     1367     1313     1267     1325     1426     1470 
    1406     1296     1236     1255     1345     1385     1227      993 
     885      903      893      754      634      710      827      766 
     606      546      638      778      885      982     1080     1123 
    1086      959      800      758      827      838      766      761 
     924     1125     1169     1124     1117     1073      958      893 
     963     1092     1169     1185     1166     1155     1215     1309 
    1321     1200     1043      953      928      981     1124     1266 
    1305     1264     1242     1239     1217     1201     1221     1296 
    1321     1201     1115     1231     1432     1541     1486     1320 
    1135      961      891     1001     1116     1050      897      855 
     958     1094     1182     1194     1101      928      769      658 
     572      545      581      569      483      449      519      603 
     662      773      912      939      858      828      919     1004 
    1000     1008     1063     1042      989     1031     1105     1104 
    1042     1032     1067      992      834      796      907      972 
     878      781      826      895      846      762      797      989 
    1186     1201     1040      853      757      777      810      758 
     648      542      500      495      438      351      318      309 
     274      271      345      463      537      527      529      627 
     718      672      573      565      604      595      557      571 
     635      633      577      649      853     1055     1174     1179 
    1120     1123     1283     1513     1625     1602     1571     1597 
    1653     1682     1660     1602     1525     1413     1225     1021 
     893      810      749      754      800      820      766      676 
     692      835      958      942      783      602      533      576 
     618      549      444      442      483      444      378      395 
     468      491      459      405      330      298      387      545 
     639      634      600      576      538      511      557      629 
     634      589      553      552      577      607      611      599 
     596      589      541      513      626      789      760      592 
     548      661      776      801      781      796      822      816 
     843      912      950      954      932      939     1043     1140 
    1105      967      857      899     1016     1046     1026     1026 
    1028     1019      994     1009     1121     1196     1146     1124 
    1210     1314     1352     1306     1239     1193     1129     1119 
    1269     1485     1588     1551     1449     1345     1301     1379 
    1466     1383     1221     1198     1309     1364     1304     1262 
    1335     1456     1525     1493     1422     1366     1282     1167 
    1061      988      947      872      722      587      592      683 
     650      471      303      211      106      -43      -82       32 
      79      -41     -139      -44      179      375      475      518 
     506      448      453      552      652      693      714      751 
     758      737      770      838      830      733      661      708 
     797      816      787      745      685      635      625      618 
     556      480      530      706      838      824      729      695 
     764      835      857      847      807      799      924     1138 
    1291     1324     1296     1283     1275     1259     1266     1291 
    1290     1206     1078     1009      965      907      922      996 
    1044     1065     1125     1277     1413     1387     1287     1267 
    1302     1300     1289     1381     1553     1636     1576     1509 
    1505     1505     1443     1329     1223     1151     1127     1151 
    1205     1290     1378     1398     1345     1278     1210     1104 
     949      805      753      758      749      716      660      579 
     468      315      198      172      180      195      245      333 
     487      642      679      646      670      773      920     1043 
    1062     1001      927      899      965     1058     1073     1023 
     950      923     1050     1269     1391     1393     1354     1290 
    1192     1089     1031     1017     1026     1069     1135     1169 
    1178     1221     1312     1409     1468     1490     1494     1463 
    1379     1316     1355     1448     1470     1364     1252     1271 
    1337     1335     1287     1233     1166     1050      874      734 
     723      799      870      905      884      828      800      785 
     747      685      627      627      662      675      702      770 
     801      745      681      720      801      804      753      731 
     781      911     1062     1178     1271     1320     1314     1347 
    1451     1539     1506     1387     1345     1421     1479     1468 
    1462     1486     1480     1418     1362     1363     1350     1248 
    1138     1096     1084     1058     1055     1120     1193     1181 
    1115     1089     1098     1129     1236     1398     1533     1603 
    1625     1644     1633     1579     1580     1692     1871     1964 
    1888     1786     1787     1854     1896     1869     1795     1674 
    1548     1513     1514     1414     1217     1042      946      874 
     731      518      306      128      -45     -224     -317     -226 
     -56       -8      -63      -70       -9        6      -45      -58 
      -4       17       20      103      224      307      434      669 
     865      859      769      803      888      850      758      718 
     658      535      450      518      684      780      780      743 
     684      658      715      807      842      764      695      757 
     819      769      661      526      398      303      197      106 
     129      228      284      274      217      148      122      136 
     141      166      224      249      210      156      153      201 
     259      336      399      383      351      390      472      548 
     610      639      600      529      510      540      545      579 
     704      820      849      880      951      961      877      839 
     969     1148     1197     1171     1175     1171     1177     1264 
    1343     1289     1135      993      938      950      977     1039 
    1119     1138     1155     1233     1339     1422     1447     1448 
    1493     1566     1609     1598     1537     1475     1410     1247 
     996      770      573      371      209       91       -4      -76 
     -99      -94     -132     -222     -299     -344     -383     -410 
    -414     -422     -450     -446     -396     -387     -398     -326 
    -160       36      194      330      544      818     1039     1183 
    1301     1443     1638     1817     1869     1822     1771     1773 
    1858     1975     2062     2104     2085     2074     2107     2081 
    1979     1895     1880     1887     1837     1776     1782     1791 
    1741     1652     1587     1617     1725     1807     1799     1750 
    1775     1857     1898     1914     1964     2014     2031     2039 
    2053     2052     2019     1979     1949     1888     1796     1723 
    1645     1539     1432     1317     1178     1043      967      982 
    1020      970      850      784      814      841      776      680 
     645      650      641      607      533      418      346      391 
     504      615      696      735      784      869      974     1102 
    1196     1186     1161     1216     1333     1455     1503     1471 
    1405     1273     1081      957      928      891      816      773 
     795      823      773      646      530      454      352      194 
      52      -16      -45      -87     -124     -117     -128     -232 
    -368     -414     -355     -257     -176     -147     -163     -145 
     -76      -40      -43      -10       56       93       98      187 
     410      634      730      729      722      772      866      966 
    1081     1224     1390     1626     1891     2069     2165     2205 
    2192     2151     2096     2058     2062     2043     1975     1904 
    1852     1798     1740     1707     1717     1695     1549     1324 
    1190     1200     1209     1124     1030      999      993      984 
     974      966      967     1004     1082     1146     1156     1125 
    1034      899      826      854      874      834      792      762 
     712      658      653      706      761      818      923     1032 
    1097     1161     1233     1256     1228     1227     1254     1221 
    1107      996      940      896      810      697      633      631 
     622      538      409      328      326      305      195       79 
      32       13       -4       14       78      130      141      137 
     130      118      140      175      143       75       56       75 
     101      189      361      487      456      418      519      637 
     634      571      557      600      630      630      621      600 
     618      711      803      837      864      922      953      939 
     936      984     1038     1053     1057     1055     1023      990 
     980      974      980      981      958      942      989     1111 
    1239     1320     1386     1513     1698     1849     1953     2073 
    2201     2293     2351     2421     2521     2628     2716     2766 
    2756     2722     2708     2693     2631     2506     2390     2338 
    2300     2239     2155     2069     2022     2016     1993     1899 
    1719     1525     1360     1186     1038      970      924      828 
     679      561      527      483      353      191       51      -55 
    -108     -118     -147     -228     -306     -315     -272     -203 
     -97       25       87       91       86       71       62      101 
     156      171      159      175      220      268      313      326 
     284      256      332      460      521      496      459      448 
     456      449      407      345      313      342      390      398 
     400      419      440      498      614      731      801      857 
     916      924      901      936      992      980      959     1032 
    1159     1243     1271     1302     1348     1387     1425     1453 
    1456     1441     1437     1471     1532     1572     1555     1502 
    1453     1394     1314     1248     1206     1127      966      781 
     634      562      575      618      654      670      652      622 
     612      652      746      831      880      908      903      891 
     940     1069     1200     1256     1275     1317     1351     1321 
    1252     1221     1236     1220     1167     1132     1119     1108 
    1048      946      880      864      849      822      777      739 
     742      777      805      796      768      781      820      788 
     696      657      672      699      742      751      691      594 
     517      508      554      560      477      364      278      218 
     176      149      143      170      175      136      172      337 
     483      495      456      441      430      423      441      441 
     395      340      330      371      426      499      599      650 
     616      576      545      490      441      425      403      384 
     427      533      631      688      727      778      819      824 
     847      928     1007     1015      984      981     1036     1105 
    1128     1117     1121     1154     1183     1189     1196     1250 
    1371     1514     1598     1629     1669     1719     1777     1814 
    1782     1749     1809     1915     1948     1887     1871     1945 
    1988     1987     2030     2126     2204     2215     2182     2138 
    2070     2008     1954     1860     1737     1628     1549     1475 
    1391     1351     1360     1324     1217     1108     1040      997 
     953      888      793      691      633      621      595      537 
     463      376      315      318      368      391      322      193 
     106      110      162      183      121        5      -81     -130 
    -194     -245     -244     -226     -256     -299     -275     -175 
     -67       29      136      229      302      406      522      569 
     583      639      689      689      716      846     1016     1117 
    1169     1252     1370     1490     1591     1679     1786     1914 
    2033     2122     2201     2301     2401     2446     2438     2425 
    2415     2371     2289     2197     2108     2018     1944     1884 
    1815     1742     1669     1568     1447     1347     1287     1215 
    1082      946      819      635      442      318      244      148 
      16      -85     -106      -91      -94     -121     -136     -122 
    -113     -126     -144     -143     -139     -140     -113      -31 
      71      145      182      222      295      382      473      572 
     668      766      845      888      928      962      967      953 
     923      891      862      838      827      837      832      781 
     704      648      633      630      585      534      550      606 
     626      616      604      572      500      434      445      500 
     526      534      529      488      471      537      658      765 
     842      936     1044     1124     1183     1239     1298     1366 
    1418     1444     1468     1505     1567     1629     1649     1636 
    1587     1491     1418     1398     1351     1251     1155     1098 
    1044      957      873      846      850      839      793      745 
     753      818      881      899      888      899      932      967 
    1020     1109     1188     1212     1235     1314     1401     1439 
    1467     1494     1472     1429     1444     1510     1536     1471 
    1394     1374     1340     1263     1247     1283     1255     1150 
    1070     1078     1105     1046      922      816      750      706 
     658      598      541      499      465      429      398      425 
     529      642      712      743      774      819      845      837 
     823      820      820      796      758      751      758      722 
     654      626      648      672      689      753      851      916 
     930      940      992     1057     1094     1117     1131     1128 
    1154     1232     1305     1314     1290     1274     1267     1278 
    1329     1399     1428     1391     1351     1355     1385     1413 
    1433     1439     1439     1443     1448     1475     1518     1505 
    1385     1205     1048      981      996     1012      967      877 
     805      797      805      772      738      742      719      658 
     648      716      780      765      703      649      592      523 
     468      425      390      375      360      307      245      247 
     303      318      257      220      260      302      284      237 
     230      302      396      441      433      434      483      523 
     503      492      556      649      691      697      785      949 
    1042     1038     1036     1074     1124     1162     1212     1306 
    1391     1405     1398     1425     1464     1485     1497     1537 
    1572     1536     1479     1482     1499     1462     1374     1298 
