Origin Time       2025/01/13 21:19:00
Lat.              31.8
Long.             131.6
Depth. (km)       30
Mag.              6.9
Station Code      EHMH05
Station Lat.      33.7112
Station Long.     132.8032
Station Height(m) 140
Record Time       2025/01/13 21:20:16
Sampling Freq(Hz) 100Hz
Duration Time(s)  130
Dir.              6
Scale Factor      7845(gal)/8223790
Max. Acc. (gal)   1.358
Last Correction   2025/01/13 21:20:18
Memo.             
[...]
   12411    12397    12279    12069    11832    11676    11766    12120 
   12483    12595    12421    12132    11985    12082    12258    12347 
   12370    12349    12249    12127    12117    12222    12298    12266 
   12189    12113    12039    12017    12090    12193    12212    12108 
   11944    11800    11684    11603    11630    11774    11944    12067 
   12124    12089    11989    11916    11896    11916    11996    12143 
   12295    12370    12324    12199    12101    12123    12237    12303 
   12237    12091    11944    11804    11631    11418    11245    11223 
   11360    11572    11762    11865    11863    11807    11799    11943 
   12248    12540    12568    12259    11847    11659    11792    12042 
   12156    12071    11909    11834    11917    12070    12140    12100 
   12071    12155    12344    12552    12661    12598    12447    12380 
   12428    12445    12368    12295    12307    12356    12348    12210 
   11971    11766    11728    11877    12082    12195    12201    12168 
   12159    12186    12218    12224    12162    11990    11766    11623 
   11634    11763    11904    11966    11979    12023    12098    12135 
   12058    11897    11815    11863    11928    11961    12002    12036 
   12044    12051    12090    12236    12480    12644    12563    12267 
   11936    11777    11836    11951    11955    11863    11792    11842 
   12079    12421    12640    12602    12395    12198    12069    11929 
   11773    11685    11715    11851    12036    12171    12171    12028 
   11830    11726    11754    11813    11838    11873    11948    12039 
   12125    12195    12232    12235    12185    12066    11923    11773 
   11564    11344    11280    11422    11612    11734    11823    11894 
   11909    11875    11855    11920    12048    12093    12008    11932 
   11966    12073    12131    12047    11881    11782    11826    12010 
   12256    12388    12328    12189    12102    12075    12096    12179 
   12289    12305    12123    11773    11499    11574    11981    12363 
   12432    12283    12199    12280    12403    12409    12239    11962 
   11716    11614    11705    11948    12168    12197    12077    11990 
   11963    11890    11746    11565    11430    11456    11638    11826 
   11869    11730    11553    11538    11716    11961    12120    12133 
   12101    12154    12295    12393    12309    12073    11867    11840 
   11951    12029    12000    11947    11919    11889    11884    11973 
   12159    12359    12455    12417    12286    12121    11992    11971 
   12081    12252    12371    12370    12272    12170    12150    12236 
   12383    12522    12614    12637    12561    12409    12271    12214 
   12187    12097    11902    11622    11379    11350    11551    11831 
   12029    12067    11979    11908    11920    11966    12005    12021 
   12002    11993    12051    12136    12187    12201    12156    12032 
   11935    11962    12032    12028    11954    11897    11928    12031 
   12060    11908    11653    11479    11477    11593    11715    11766 
   11761    11739    11709    11676    11638    11600    11588    11611 
   11654    11713    11828    12012    12185    12239    12170    12027 
   11858    11750    11774    11907    12044    12105    12071    12019 
   12075    12267    12432    12393    12167    11943    11832    11803 
   11863    12051    12256    12318    12233    12123    12067    12064 
   12100    12131    12075    11934    11831    11858    11989    12131 
   12201    12201    12167    12083    11965    11892    11888    11915 
   11946    11988    12056    12125    12137    12116    12137    12235 
   12398    12525    12469    12244    12031    11979    12087    12218 
   12290    12341    12371    12345    12317    12320    12287    12182 
   12054    11993    12052    12114    12008    11767    11547    11392 
   11287    11281    11410    11527    11468    11314    11272    11394 
   11551    11620    11626    11673    11746    11774    11817    11954 
   12093    12129    12086    12010    11944    11911    11840    11678 
   11520    11491    11622    11835    11977    11946    11797    11691 
   11724    11848    11942    11923    11807    11691    11712    11916 
   12133    12206    12181    12125    12044    11996    11985    11935 
   11890    11948    12039    12031    11936    11882    11952    12129 
   12318    12433    12417    12278    12147    12160    12243    12206 
   12058    11936    11892    11946    12112    12294    12380    12318 
   12172    12106    12148    12156    12079    11994    11966    11967 
   11932    11875    11862    11881    11880    11832    11749    11682 
   11668    11620    11516    11450    11480    11611    11781    11828 
   11709    11641    11784    11978    11982    11804    11677    11792 
   12091    12321    12314    12148    11992    11971    12140    12430 
   12679    12725    12538    12286    12181    12214    12226    12195 
   12175    12148    12152    12236    12295    12239    12137    12078 
   12054    12005    11904    11824    11851    11943    12017    12060 
   12102    12140    12123    12077    12036    11965    11878    11854 
   11912    12009    12063    12006    11857    11689    11620    11718 
   11881    11950    11905    11828    11773    11763    11782    11772 
   11693    11572    11529    11650    11835    11939    11915    11809 
   11713    11670    11688    11786    11939    12036    11961    11766 
   11665    11734    11854    11939    11996    12078    12232    12414 
   12545    12602    12626    12712    12870    12938    12796    12545 
   12357    12345    12522    12746    12837    12727    12488    12302 
   12278    12295    12194    11997    11828    11794    11921    12089 
   12152    12089    11935    11784    11807    12031    12239    12276 
   12213    12164    12172    12195    12148    12012    11869    11773 
   11753    11834    11971    12074    12124    12131    12112    12096 
   12100    12131    12164    12172    12221    12363    12476    12391 
   12127    11861    11732    11743    11819    11894    11954    11994 
   11973    11882    11850    11982    12159    12136    11898    11699 
   11715    11861    11929    11831    11670    11584    11630    11790 
   12001    12185    12267    12197    12054    11973    11965    11966 
   11934    11831    11720    11766    11982    12205    12289    12229 
   12129    12079    12124    12241    12312    12262    12175    12189 
   12344    12521    12523    12280    11925    11693    11685    11815 
   11993    12150    12201    12175    12194    12307    12438    12475 
   12371    12202    12077    12009    11983    12015    12082    12156 
   12232    12274    12274    12235    12125    11990    11916    11877 
   11831    11848    11978    12077    11981    11782    11699    11801 
   12008    12190    12271    12260    12123    11855    11665    11716 
   11859    11865    11722    11600    11650    11842    12000    12017 
   11977    11975    11986    11962    11908    11840    11751    11595 
   11414    11381    11520    11657    11681    11634    11614    11678 
   11784    11888    11986    12047    12024    11911    11773    11731 
   11824    11962    12021    11946    11819    11767    11828    11943 
   12013    12040    12101    12179    12197    12175    12179    12194 
   12164    12109    12140    12297    12442    12387    12109    11828 
   11759    11816    11788    11711    11727    11807    11874    11958 
   12054    12081    12006    11946    12009    12132    12160    12048 
   11858    11703    11643    11620    11596    11578    11574    11657 
   11854    12040    12086    11988    11828    11705    11632    11568 
   11550    11588    11591    11587    11707    11929    12100    12097 
   11905    11641    11487    11522    11641    11704    11712    11743 
   11794    11896    12087    12239    12231    12183    12202    12221 
   12226    12287    12367    12378    12348    12343    12320    12258 
   12214    12222    12276    12386    12533    12626    12555    12366 
   12314    12552    12923    13143    13090    12899    12756    12725 
   12789    12819    12699    12561    12541    12530    12449    12367 
   12336    12368    12468    12575    12555    12370    12162    12100 
   12232    12488    12722    12758    12549    12259    12114    12135 
   12135    11977    11724    11558    11584    11704    11757    11728 
   11711    11753    11874    12062    12177    12060    11746    11454 
   11395    11547    11664    11578    11400    11287    11294    11407 
   11514    11477    11264    10945    10751    10917    11277    11480 
   11481    11429    11387    11372    11387    11414    11443    11502 
   11584    11630    11643    11658    11653    11665    11778    11924 
   11982    11911    11716    11484    11338    11349    11530    11817 
   12078    12214    12258    12287    12317    12321    12264    12116 
   11947    11900    12016    12232    12465    12646    12749    12746 
   12618    12457    12394    12428    12428    12316    12181    12127 
   12129    12179    12348    12611    12822    12893    12835    12702 
   12564    12469    12432    12429    12418    12361    12278    12229 
   12225    12204    12135    12048    11985    11943    11892    11801 
   11704    11612    11518    11503    11664    11896    11998    11936 
   11817    11723    11684    11705    11773    11839    11816    11718 
   11705    11850    12032    12123    12071    11950    11904    11956 
   12047    12164    12258    12286    12305    12317    12275    12255 
   12401    12654    12769    12676    12528    12420    12352    12299 
   12167    11919    11716    11711    11832    11921    11923    11913 
   12024    12286    12521    12548    12383    12114    11819    11651 
   11755    12075    12364    12397    12217    12078    12118    12248 
   12337    12341    12280    12243    12316    12453    12540    12502 
   12360    12258    12280    12279    12071    11693    11365    11273 
   11411    11610    11746    11830    11888    11908    11912    11921 
   11931    11947    11952    11901    11831    11813    11836    11896 
   12042    12220    12268    12164    12048    11977    11866    11673 
   11538    11605    11785    11889    11853    11750    11662    11607 
   11630    11735    11785    11673    11457    11310    11388    11668 
   11982    12187    12208    12046    11793    11588    11551    11661 
   11735    11678    11547    11391    11321    11518    11882    12105 
   12120    12035    11865    11677    11639    11732    11792    11815 
   11886    11965    12008    12056    12104    12131    12123    12024 
   11902    11948    12182    12388    12440    12430    12501    12663 
   12760    12621    12322    12067    11902    11794    11728    11720 
   11776    11828    11830    11853    11946    12033    12032    11982 
   12010    12121    12172    12168    12226    12310    12337    12266 
   12069    11900    11967    12201    12406    12488    12447    12334 
   12232    12166    12128    12078    11929    11682    11511    11529 
   11619    11623    11550    11556    11726    11970    12121    12106 
   12005    11881    11691    11485    11415    11461    11492    11499 
   11576    11789    12004    12019    11904    11885    11969    12010 
   11981    11948    11898    11797    11738    11769    11816    11867 
   11959    12063    12137    12181    12193    12206    12276    12393 
   12480    12498    12447    12371    12321    12299    12268    12216 
   12168    12124    12052    11942    11807    11692    11614    11529 
   11466    11500    11551    11492    11371    11357    11500    11642 
   11651    11562    11452    11349    11286    11335    11487    11612 
   11665    11681    11637    11550    11543    11669    11834    11913 
   11896    11850    11811    11785    11813    11956    12224    12519 
   12695    12685    12541    12409    12383    12374    12235    11970 
   11713    11603    11668    11820    11928    11913    11831    11817 
   11955    12167    12245    12128    11946    11792    11716    11754 
   11830    11813    11686    11588    11666    11880    12086    12256 
   12406    12519    12599    12609    12533    12447    12364    12243 
   12132    12074    12035    12009    11977    11904    11871    11956 
   12055    12055    12001    11997    12070    12189    12321    12422 
   12447    12387    12280    12233    12312    12434    12519    12582 
   12588    12469    12286    12174    12181    12263    12367    12414 
   12376    12361    12459    12619    12772    12852    12811    12712 
   12653    12649    12694    12771    12830    12803    12656    12453 
   12287    12229    12314    12480    12615    12681    12661    12552 
   12433    12394    12429    12463    12430    12336    12225    12098 
   11919    11749    11708    11789    11913    12069    12231    12302 
   12237    12100    11978    11940    12001    12109    12217    12363 
   12537    12645    12653    12592    12455    12283    12202    12249 
   12321    12368    12456    12626    12834    13003    13063    13004 
   12895    12799    12727    12642    12499    12332    12231    12228 
   12279    12309    12289    12270    12324    12390    12307    12078 
   11874    11782    11740    11642    11480    11369    11361    11380 
   11377    11356    11300    11222    11144    11051    10939    10862 
   10891    10986    11013    10917    10805    10782    10825    10854 
   10841    10824    10794    10702    10594    10582    10701    10902 
   11118    11313    11493    11645    11677    11561    11396    11277 
   11263    11369    11520    11601    11630    11754    11973    12105 
   12083    11993    11886    11819    11844    11913    11944    11931 
   11924    11983    12109    12213    12244    12208    12128    12054 
   12027    12036    12009    11897    11782    11794    11936    12141 
   12347    12468    12440    12279    12079    11913    11784    11711 
   11792    12037    12289    12421    12437    12374    12282    12224 
   12264    12386    12409    12210    11902    11685    11642    11711 
   11800    11898    11998    12037    11990    11894    11819    11821 
   11869    11884    11855    11821    11803    11801    11824    11870 
   11886    11839    11780    11793    11907    12066    12178    12218 
   12245    12325    12490    12668    12715    12626    12549    12573 
   12656    12752    12884    13061    13196    13194    13105    13038 
   12977    12854    12698    12569    12472    12391    12330    12302 
   12318    12375    12426    12430    12372    12283    12218    12166 
   12070    11992    11988    11993    11973    11983    12047    12089 
   12015    11842    11665    11547    11554    11691    11866    11997 
   12082    12141    12160    12123    12055    11988    11873    11669 
   11449    11317    11272    11236    11210    11264    11364    11421 
   11398    11284    11145    11078    11057    11003    10948    10949 
   11018    11153    11313    11410    11441    11512    11689    11893 
   12019    12086    12166    12252    12326    12386    12409    12406 
   12403    12375    12325    12276    12213    12117    12004    11896 
   11836    11820    11780    11701    11646    11680    11796    11915 
   11954    11890    11773    11686    11715    11873    12063    12143 
   12069    11952    11934    12037    12158    12177    12101    12039 
   12025    11998    11929    11865    11840    11873    11947    12004 
   12040    12123    12249    12321    12272    12135    11994    11943 
   12000    12109    12194    12214    12222    12287    12351    12340 
   12299    12317    12397    12482    12533    12536    12495    12465 
   12467    12495    12579    12661    12623    12501    12424    12402 
   12352    12248    12164    12168    12232    12280    12272    12213 
   12152    12132    12132    12105    12006    11831    11658    11589 
   11623    11696    11762    11784    11761    11746    11770    11809 
   11859    11929    12005    12070    12102    12085    12071    12143 
   12306    12475    12550    12522    12495    12573    12710    12773 
   12761    12761    12769    12721    12622    12511    12409    12361 
   12417    12530    12592    12552    12444    12326    12218    12102 
   11959    11807    11699    11680    11697    11673    11650    11665 
   11631    11538    11499    11541    11589    11596    11584    11587 
   11615    11653    11650    11607    11603    11668    11732    11705 
   11565    11394    11329    11435    11659    11898    12083    12177 
   12194    12236    12375    12534    12626    12691    12739    12700 
   12614    12600    12663    12671    12548    12372    12266    12241 
   12221    12148    12042    11971    11948    11907    11828    11776 
   11793    11873    11962    11975    11886    11769    11696    11689 
   11763    11874    11927    11889    11834    11823    11855    11909 
   11927    11857    11727    11607    11535    11518    11523    11500 
   11462    11460    11500    11573    11642    11659    11637    11611 
   11603    11620    11651    11658    11604    11512    11477    11535 
   11630    11740    11848    11863    11788    11734    11749    11815 
   11920    12035    12135    12198    12185    12139    12159    12216 
   12178    12016    11827    11734    11763    11846    11917    11961 
   11961    11900    11848    11892    12024    12168    12240    12216 
   12156    12117    12093    12067    12027    11951    11848    11738 
   11665    11658    11703    11769    11832    11865    11863    11878 
   11944    12013    12006    11911    11811    11828    11994    12178 
   12262    12267    12244    12213    12194    12198    12222    12253 
   12270    12263    12226    12152    12074    12031    12039    12098 
   12183    12270    12352    12433    12519    12603    12658    12688 
   12699    12671    12623    12613    12642    12684    12703    12673 
   12613    12568    12565    12584    12592    12572    12522    12451 
   12409    12421    12436    12401    12347    12345    12397    12426 
   12383    12268    12129    12029    11985    11969    11946    11889 
   11805    11750    11753    11774    11792    11799    11743    11587 
   11360    11159    11080    11119    11187    11225    11211    11160 
   11132    11184    11338    11507    11543    11446    11357    11352 
   11398    11462    11553    11657    11716    11713    11719    11777 
   11835    11832    11782    11776    11889    12067    12185    12220 
   12217    12189    12150    12136    12125    12074    11989    11908 
   11875    11927    12050    12182    12243    12204    12127    12094 
   12136    12233    12333    12399    12448    12517    12591    12630 
   12649    12664    12656    12607    12549    12559    12664    12765 
   12779    12744    12737    12776    12825    12825    12758    12695 
   12681    12676    12629    12541    12429    12321    12259    12249 
   12278    12344    12420    12449    12398    12271    12109    11985 
   11915    11870    11859    11898    11929    11907    11857    11817 
   11807    11808    11776    11691    11608    11604    11682    11765 
   11789    11777    11785    11807    11794    11749    11701    11665 
   11650    11676    11732    11799    11866    11935    11969    11932 
