Origin Time       2025/01/13 21:19:00
Lat.              31.8
Long.             131.6
Depth. (km)       30
Mag.              6.9
Station Code      EHMH13
Station Lat.      33.3719
Station Long.     132.1157
Station Height(m) 10
Record Time       2025/01/13 21:20:22
Sampling Freq(Hz) 100Hz
Duration Time(s)  120
Dir.              4
Scale Factor      7845(gal)/8223790
Max. Acc. (gal)   3.293
Last Correction   2025/01/13 21:20:22
Memo.             
[...]
  -12600   -12604   -12649   -12699   -12741   -12788   -12839   -12879 
  -12910   -12942   -12958   -12945   -12918   -12880   -12835   -12799 
  -12765   -12739   -12745   -12785   -12847   -12914   -12981   -13063 
  -13166   -13266   -13323   -13312   -13246   -13163   -13095   -13041 
  -12981   -12907   -12833   -12804   -12841   -12881   -12879   -12839 
  -12793   -12768   -12773   -12796   -12819   -12842   -12869   -12918 
  -12995   -13089   -13181   -13257   -13320   -13367   -13370   -13324 
  -13230   -13084   -12911   -12765   -12648   -12537   -12457   -12437 
  -12468   -12529   -12595   -12656   -12721   -12814   -12928   -13019 
  -13063   -13054   -12978   -12865   -12769   -12721   -12718   -12744 
  -12783   -12843   -12926   -13008   -13062   -13085   -13078   -13042 
  -12988   -12953   -12946   -12965   -13011   -13076   -13150   -13228 
  -13274   -13265   -13212   -13136   -13059   -12996   -12951   -12918 
  -12893   -12870   -12847   -12835   -12839   -12856   -12884   -12931 
  -12999   -13045   -13019   -12935   -12834   -12731   -12631   -12548 
  -12521   -12567   -12656   -12749   -12820   -12856   -12881   -12937 
  -13015   -13077   -13086   -13036   -12950   -12872   -12829   -12827 
  -12852   -12880   -12914   -12965   -13028   -13077   -13095   -13072 
  -13022   -12977   -12973   -13019   -13109   -13217   -13302   -13344 
  -13354   -13358   -13383   -13427   -13455   -13427   -13313   -13112 
  -12872   -12667   -12538   -12496   -12521   -12580   -12660   -12760 
  -12860   -12934   -12977   -12993   -12977   -12931   -12872   -12818 
  -12784   -12780   -12792   -12784   -12726   -12630   -12537   -12479 
  -12449   -12436   -12444   -12482   -12544   -12623   -12711   -12791 
  -12834   -12827   -12785   -12739   -12719   -12744   -12799   -12869 
  -12943   -13011   -13072   -13138   -13204   -13234   -13201   -13117 
  -13026   -12939   -12845   -12753   -12679   -12609   -12561   -12577 
  -12657   -12764   -12868   -12954   -13008   -13038   -13054   -13050 
  -13028   -13011   -13008   -13018   -13034   -13045   -13036   -13003 
  -12937   -12857   -12829   -12870   -12935   -12991   -13038   -13061 
  -13054   -13047   -13057   -13073   -13074   -13053   -12993   -12877 
  -12721   -12576   -12472   -12409   -12378   -12393   -12478   -12625 
  -12800   -12970   -13105   -13180   -13200   -13190   -13178   -13177 
  -13182   -13192   -13198   -13192   -13153   -13066   -12945   -12833 
  -12771   -12762   -12792   -12834   -12866   -12888   -12920   -12982 
  -13062   -13126   -13154   -13159   -13159   -13159   -13161   -13153 
  -13135   -13124   -13124   -13130   -13142   -13140   -13101   -13042 
  -12989   -12957   -12953   -12977   -13012   -13035   -13026   -12981 
  -12911   -12820   -12719   -12625   -12542   -12483   -12452   -12449 
  -12468   -12495   -12498   -12456   -12391   -12343   -12329   -12353 
  -12407   -12464   -12515   -12579   -12668   -12788   -12947   -13139 
  -13336   -13514   -13666   -13770   -13791   -13734   -13635   -13504 
  -13358   -13219   -13082   -12934   -12789   -12668   -12586   -12550 
  -12563   -12607   -12653   -12692   -12744   -12808   -12857   -12877 
  -12869   -12841   -12819   -12820   -12847   -12879   -12896   -12895 
  -12884   -12877   -12881   -12903   -12939   -12981   -13012   -13018 
  -12984   -12907   -12804   -12692   -12583   -12503   -12478   -12494 
  -12544   -12625   -12726   -12825   -12906   -12974   -13058   -13178 
  -13327   -13462   -13552   -13581   -13540   -13450   -13327   -13198 
  -13080   -12957   -12802   -12622   -12469   -12386   -12393   -12484 
  -12627   -12783   -12930   -13055   -13142   -13177   -13166   -13123 
  -13055   -12984   -12931   -12904   -12904   -12924   -12947   -12960 
  -12966   -12973   -12985   -13004   -13014   -13001   -12970   -12927 
  -12889   -12884   -12918   -12976   -13038   -13086   -13109   -13107 
  -13092   -13082   -13080   -13076   -13072   -13074   -13081   -13088 
  -13082   -13050   -12999   -12934   -12854   -12771   -12704   -12657 
  -12622   -12583   -12537   -12492   -12465   -12480   -12553   -12665 
  -12780   -12862   -12895   -12899   -12887   -12858   -12826   -12792 
  -12748   -12684   -12611   -12559   -12548   -12575   -12625   -12676 
  -12727   -12776   -12814   -12857   -12910   -12945   -12949   -12923 
  -12870   -12818   -12799   -12825   -12887   -12962   -13026   -13073 
  -13115   -13154   -13192   -13236   -13274   -13282   -13271   -13265 
  -13275   -13300   -13333   -13375   -13417   -13447   -13439   -13365 
  -13231   -13093   -12987   -12896   -12806   -12712   -12611   -12510 
  -12429   -12379   -12372   -12420   -12518   -12633   -12725   -12781 
  -12806   -12802   -12787   -12796   -12854   -12954   -13062   -13162 
  -13242   -13273   -13242   -13169   -13074   -12969   -12869   -12812 
  -12802   -12799   -12779   -12737   -12661   -12556   -12455   -12366 
  -12293   -12259   -12266   -12295   -12351   -12436   -12550   -12698 
  -12852   -12960   -12999   -12981   -12931   -12866   -12796   -12725 
  -12657   -12590   -12525   -12471   -12425   -12384   -12356   -12345 
  -12357   -12380   -12395   -12407   -12436   -12483   -12540   -12595 
  -12611   -12592   -12591   -12627   -12675   -12714   -12746   -12785 
  -12843   -12910   -12969   -13003   -12984   -12914   -12818   -12711 
  -12596   -12476   -12353   -12248   -12213   -12268   -12395   -12579 
  -12787   -12970   -13111   -13224   -13331   -13433   -13513   -13549 
  -13559   -13575   -13621   -13703   -13797   -13869   -13915   -13932 
  -13903   -13832   -13740   -13645   -13552   -13466   -13389   -13331 
  -13306   -13315   -13344   -13373   -13363   -13300   -13208   -13115 
  -13020   -12904   -12760   -12596   -12434   -12291   -12185   -12116 
  -12059   -12010   -12009   -12087   -12233   -12406   -12573   -12715 
  -12822   -12889   -12916   -12903   -12853   -12783   -12715   -12654 
  -12607   -12596   -12625   -12673   -12727   -12788   -12866   -12974 
  -13108   -13257   -13424   -13603   -13757   -13841   -13852   -13802 
  -13697   -13537   -13342   -13135   -12945   -12781   -12654   -12573 
  -12542   -12545   -12576   -12634   -12714   -12815   -12955   -13126 
  -13304   -13468   -13594   -13674   -13710   -13697   -13633   -13535 
  -13408   -13271   -13151   -13072   -13016   -12938   -12815   -12672 
  -12519   -12352   -12209   -12133   -12120   -12151   -12216   -12286 
  -12344   -12403   -12475   -12546   -12617   -12692   -12772   -12842 
  -12899   -12945   -12969   -12961   -12924   -12885   -12872   -12904 
  -12974   -13055   -13140   -13244   -13378   -13541   -13702   -13817 
  -13872   -13888   -13875   -13841   -13787   -13706   -13593   -13458 
  -13296   -13105   -12903   -12722   -12582   -12472   -12388   -12317 
  -12243   -12186   -12187   -12266   -12413   -12611   -12837   -13063 
  -13281   -13464   -13566   -13537   -13373   -13119   -12841   -12559 
  -12272   -11998   -11742   -11496   -11269   -11079   -10937   -10854 
  -10855   -10963   -11164   -11416   -11684   -11944   -12191   -12433 
  -12692   -12970   -13244   -13483   -13674   -13807   -13902   -13980 
  -14044   -14067   -14042   -13988   -13921   -13860   -13817   -13792 
  -13768   -13730   -13682   -13637   -13616   -13621   -13635   -13643 
  -13617   -13521   -13360   -13154   -12912   -12667   -12463   -12305 
  -12162   -12000   -11830   -11670   -11522   -11384   -11279   -11219 
  -11207   -11250   -11377   -11587   -11834   -12096   -12370   -12627 
  -12835   -12999   -13134   -13240   -13304   -13327   -13332   -13320 
  -13271   -13203   -13162   -13161   -13180   -13204   -13221   -13232 
  -13271   -13355   -13479   -13624   -13760   -13879   -13992   -14099 
  -14184   -14223   -14215   -14189   -14165   -14143   -14108   -14038 
  -13945   -13853   -13768   -13694   -13625   -13529   -13374   -13138 
  -12826   -12478   -12143   -11886   -11761   -11747   -11805   -11920 
  -12064   -12205   -12322   -12407   -12476   -12546   -12626   -12711 
  -12784   -12838   -12877   -12891   -12887   -12893   -12922   -12961 
  -13016   -13095   -13173   -13225   -13251   -13271   -13294   -13305 
  -13273   -13190   -13089   -12989   -12897   -12826   -12780   -12757 
  -12775   -12831   -12884   -12892   -12834   -12712   -12556   -12398 
  -12264   -12194   -12217   -12320   -12463   -12603   -12706   -12760 
  -12793   -12843   -12915   -13007   -13112   -13213   -13294   -13360 
  -13404   -13402   -13360   -13293   -13213   -13123   -13027   -12923 
  -12811   -12722   -12696   -12748   -12872   -13043   -13205   -13306 
  -13329   -13304   -13250   -13163   -13055   -12949   -12842   -12729 
  -12604   -12465   -12316   -12175   -12077   -12039   -12079   -12225 
  -12467   -12741   -12989   -13177   -13289   -13344   -13393   -13458 
  -13536   -13606   -13643   -13647   -13620   -13517   -13316   -13062 
  -12823   -12650   -12580   -12619   -12734   -12868   -12988   -13077 
  -13138   -13196   -13277   -13377   -13479   -13562   -13609   -13620 
  -13598   -13549   -13483   -13420   -13383   -13382   -13408   -13428 
  -13419   -13383   -13316   -13208   -13085   -12987   -12903   -12793 
  -12653   -12509   -12390   -12317   -12293   -12305   -12340   -12393 
  -12460   -12532   -12584   -12613   -12606   -12553   -12461   -12361 
  -12274   -12202   -12159   -12155   -12178   -12209   -12251   -12314 
  -12407   -12529   -12631   -12657   -12600   -12514   -12441   -12383 
  -12320   -12245   -12160   -12070   -12019   -12027   -12070   -12145 
  -12264   -12425   -12627   -12860   -13092   -13312   -13524   -13728 
  -13906   -14041   -14115   -14108   -14019   -13869   -13672   -13463 
  -13296   -13189   -13109   -13035   -12973   -12922   -12874   -12845 
  -12830   -12822   -12819   -12815   -12818   -12845   -12914   -13023 
  -13157   -13317   -13514   -13748   -13988   -14208   -14404   -14565 
  -14650   -14628   -14531   -14418   -14334   -14292   -14257   -14192 
  -14079   -13921   -13740   -13558   -13393   -13251   -13123   -13008 
  -12919   -12850   -12785   -12730   -12690   -12669   -12675   -12702 
  -12734   -12748   -12722   -12672   -12614   -12534   -12406   -12239 
  -12082   -11966   -11889   -11844   -11836   -11861   -11923   -12017 
  -12112   -12185   -12244   -12305   -12366   -12433   -12503   -12544 
  -12528   -12465   -12386   -12326   -12328   -12411   -12576   -12804 
  -13070   -13348   -13593   -13755   -13821   -13814   -13764   -13697 
  -13632   -13559   -13460   -13332   -13189   -13051   -12934   -12842 
  -12775   -12729   -12690   -12642   -12587   -12532   -12479   -12402 
  -12293   -12183   -12118   -12123   -12190   -12301   -12418   -12518 
  -12590   -12641   -12704   -12788   -12864   -12923   -12981   -13063 
  -13182   -13317   -13432   -13501   -13527   -13522   -13481   -13382 
  -13235   -13082   -12965   -12885   -12843   -12849   -12897   -12980 
  -13073   -13159   -13224   -13277   -13351   -13458   -13559   -13612 
  -13617   -13620   -13657   -13728   -13806   -13875   -13937   -14011 
  -14112   -14219   -14291   -14319   -14334   -14353   -14349   -14289 
  -14164   -13971   -13720   -13456   -13208   -12964   -12727   -12528 
  -12363   -12216   -12102   -12058   -12098   -12229   -12444   -12711 
  -12976   -13174   -13261   -13231   -13119   -12972   -12827   -12710 
  -12627   -12577   -12550   -12533   -12503   -12457   -12411   -12368 
  -12320   -12268   -12226   -12202   -12201   -12214   -12217   -12209 
  -12218   -12279   -12386   -12514   -12634   -12708   -12710   -12638 
  -12491   -12258   -11959   -11666   -11429   -11249   -11129   -11064 
  -11029   -11018   -11030   -11051   -11065   -11076   -11083   -11078 
  -11063   -11053   -11056   -11059   -11052   -11037   -11005   -10940 
  -10854   -10802   -10827   -10912   -11024   -11141   -11250   -11333 
  -11399   -11461   -11514   -11546   -11569   -11620   -11715   -11830 
  -11959   -12102   -12262   -12438   -12615   -12773   -12907   -13028 
  -13127   -13184   -13193   -13184   -13193   -13235   -13306   -13405 
  -13509   -13585   -13622   -13626   -13605   -13564   -13502   -13447 
  -13435   -13494   -13626   -13802   -13964   -14089   -14165   -14160 
  -14045   -13822   -13529   -13223   -12965   -12785   -12676   -12607 
  -12580   -12619   -12744   -12946   -13216   -13533   -13869   -14216 
  -14575   -14921   -15213   -15411   -15487   -15458   -15368   -15244 
  -15086   -14893   -14679   -14449   -14210   -13969   -13740   -13548 
  -13425   -13355   -13312   -13278   -13235   -13159   -13045   -12900 
  -12749   -12618   -12518   -12459   -12457   -12532   -12677   -12879 
  -13101   -13317   -13498   -13605   -13613   -13536   -13406   -13266 
  -13162   -13115   -13117   -13150   -13215   -13317   -13458   -13617 
  -13774   -13905   -14002   -14056   -14062   -14027   -13954   -13849 
  -13744   -13662   -13590   -13500   -13375   -13220   -13030   -12802 
  -12550   -12290   -12048   -11867   -11749   -11645   -11530   -11407 
  -11286   -11173   -11084   -11043   -11084   -11232   -11472   -11754 
  -12024   -12264   -12479   -12658   -12784   -12856   -12895   -12922 
  -12951   -12993   -13031   -13042   -13003   -12906   -12758   -12591 
  -12444   -12348   -12314   -12317   -12325   -12313   -12263   -12156 
  -12012   -11884   -11803   -11769   -11770   -11782   -11765   -11688 
  -11562   -11406   -11217   -10987   -10705   -10388   -10084    -9832 
   -9655    -9548    -9481    -9444    -9474    -9601    -9819   -10110 
  -10449   -10808   -11161   -11511   -11877   -12252   -12588   -12845 
  -13014   -13146   -13309   -13536   -13819   -14122   -14404   -14663 
  -14895   -15086   -15228   -15309   -15331   -15318   -15280   -15229 
  -15169   -15087   -14959   -14786   -14584   -14376   -14188   -14058 
  -14017   -14058   -14158   -14307   -14516   -14779   -15028   -15196 
  -15272   -15259   -15147   -14955   -14724   -14476   -14230   -14021 
  -13852   -13705   -13574   -13460   -13382   -13371   -13421   -13500 
  -13578   -13637   -13670   -13686   -13695   -13695   -13689   -13691 
  -13724   -13791   -13864   -13905   -13888   -13830   -13757   -13670 
  -13556   -13429   -13258   -12980   -12594   -12179   -11812   -11530 
  -11337   -11234   -11217   -11272   -11368   -11458   -11519   -11553 
  -11558   -11557   -11580   -11627   -11681   -11740   -11809   -11889 
  -11986   -12109   -12252   -12403   -12553   -12703   -12853   -13000 
  -13153   -13313   -13458   -13551   -13586   -13567   -13510   -13451 
  -13394   -13306   -13189   -13068   -12960   -12866   -12781   -12692 
  -12606   -12556   -12553   -12571   -12595   -12630   -12672   -12714 
  -12765   -12837   -12926   -13024   -13130   -13235   -13316   -13358 
  -13362   -13328   -13275   -13231   -13212   -13220   -13220   -13182 
  -13123   -13066   -13018   -12981   -12970   -12991   -13041   -13126 
  -13225   -13288   -13294   -13278   -13251   -13213   -13176   -13158 
  -13180   -13215   -13211   -13155   -13086   -13031   -12988   -12964 
  -12981   -13047   -13116   -13115   -13004   -12789   -12488   -12133 
  -11786   -11485   -11241   -11078   -10994   -10945   -10902   -10883 
  -10909   -10984   -11110   -11268   -11453   -11678   -11928   -12160 
  -12359   -12538   -12710   -12843   -12904   -12911   -12896   -12852 
  -12752   -12592   -12403   -12243   -12135   -12069   -12012   -11924 
  -11794   -11649   -11500   -11356   -11246   -11196   -11213   -11294 
  -11425   -11587   -11788   -12043   -12355   -12722   -13126   -13525 
  -13894   -14199   -14407   -14496   -14477   -14397   -14295   -14153 
  -13934   -13633   -13279   -12915   -12575   -12270   -11996   -11758 
  -11573   -11477   -11489   -11595   -11766   -12010   -12324   -12658 
  -12960   -13207   -13406   -13567   -13687   -13744   -13707   -13566 
  -13351   -13131   -12954   -12811   -12691   -12622   -12622   -12660 
  -12704   -12789   -12955   -13186   -13439   -13687   -13915   -14115 
  -14292   -14446   -14573   -14665   -14729   -14763   -14742   -14655 
  -14490   -14242   -13937   -13625   -13358   -13161   -13051   -13041 
  -13111   -13231   -13371   -13505   -13620   -13711   -13761   -13771 
  -13776   -13803   -13828   -13809   -13722   -13560   -13363   -13188 
  -13035   -12885   -12741   -12617   -12526   -12453   -12388   -12379 
  -12464   -12604   -12738   -12814   -12816   -12769   -12722   -12719 
  -12787   -12945   -13192   -13471   -13717   -13891   -13969   -13936 
  -13802   -13630   -13494   -13420   -13402   -13412   -13417   -13420 
  -13459   -13548   -13663   -13797   -13969   -14168   -14351   -14486 
  -14555   -14553   -14494   -14396   -14274   -14164   -14076   -13971 
  -13832   -13662   -13444   -13167   -12841   -12495   -12159   -11855 
  -11608   -11423   -11273   -11151   -11084   -11101   -11194   -11334 
  -11512   -11740   -12013   -12280   -12488   -12634   -12749   -12843 
  -12916   -12961   -12966   -12942   -12896   -12834   -12769   -12719 
  -12663   -12559   -12391   -12182   -11963   -11763   -11597   -11477 
  -11411   -11404   -11468   -11618   -11853   -12150   -12453   -12708 
  -12911   -13084   -13234   -13346   -13406   -13419   -13392   -13329 
  -13227   -13082   -12892   -12649   -12376   -12104   -11817   -11481 
  -11128   -10831   -10643   -10594   -10681   -10860   -11109   -11445 
  -11863   -12321   -12793   -13254   -13674   -14015   -14231   -14296 
  -14238   -14103   -13915   -13670   -13358   -12997   -12615   -12245 
  -11905   -11599   -11344   -11188   -11155   -11240   -11439   -11739 
  -12109   -12513   -12906   -13261   -13581   -13860   -14080   -14226 
  -14287   -14281   -14247   -14183   -14056   -13872   -13652   -13404 
  -13155   -12955   -12839   -12811   -12835   -12870   -12885   -12879 
  -12885   -12928   -13009   -13127   -13270   -13427   -13616   -13836 
  -14045   -14196   -14292   -14355   -14382   -14362   -14299   -14216 
  -14125   -14022   -13922   -13818   -13687   -13541   -13413   -13317 
  -13236   -13134   -12978   -12776   -12555   -12371   -12280   -12274 
  -12299   -12326   -12333   -12314   -12298   -12295   -12312   -12361 
  -12447   -12538   -12623   -12718   -12816   -12910   -12987   -13034 
  -13062   -13104   -13150   -13166   -13140   -13073   -12969   -12839 
  -12680   -12498   -12349   -12317   -12407   -12555   -12717   -12889 
  -13065   -13240   -13417   -13574   -13698   -13821   -13963   -14107 
  -14237   -14346   -14438   -14509   -14570   -14615   -14619   -14550 
  -14404   -14202   -13965   -13706   -13424   -13120   -12799   -12468 
  -12121   -11746   -11362   -11022   -10751   -10531   -10349   -10245 
  -10253   -10359   -10534   -10743   -10944   -11087   -11163   -11199 
  -11207   -11205   -11240   -11352   -11538   -11777   -12060   -12393 
  -12746   -13076   -13359   -13591   -13770   -13899   -13999   -14096 
  -14200   -14268   -14285   -14293   -14315   -14314   -14276   -14226 
  -14184   -14162   -14180   -14231   -14277   -14284   -14242   -14175 
  -14102   -14030   -13942   -13824   -13672   -13517   -13400   -13327 
  -13284   -13274   -13320   -13427   -13562   -13694   -13819   -13921 
  -13973   -13969   -13913   -13817   -13717   -13622   -13513   -13360 
  -13169   -12987   -12853   -12753   -12665   -12603   -12564   -12511 
