Origin Time       2025/01/13 21:19:00
Lat.              31.8
Long.             131.6
Depth. (km)       30
Mag.              6.9
Station Code      EHMH02
Station Lat.      33.8650
Station Long.     133.1840
Station Height(m) -35
Record Time       2025/01/13 21:20:57
Sampling Freq(Hz) 100Hz
Duration Time(s)  120
Dir.              1
Scale Factor      2942(gal)/8224139
Max. Acc. (gal)   0.823
Last Correction   2025/01/13 21:20:58
Memo.             
[...]
   34368    34375    34375    34457    34510    34491    34530    34627 
   34630    34597    34740    34990    35058    34913    34854    35043 
   35291    35365    35259    35139    35087    35009    34848    34709 
   34686    34720    34738    34785    34839    34774    34608    34500 
   34507    34519    34493    34531    34645    34731    34776    34831 
   34866    34811    34707    34647    34589    34462    34357    34385 
   34534    34670    34643    34512    34460    34491    34456    34354 
   34369    34539    34701    34761    34742    34651    34499    34389 
   34412    34480    34492    34562    34755    34884    34827    34711 
   34662    34626    34510    34381    34346    34381    34371    34264 
   34195    34281    34371    34315    34252    34360    34533    34593 
   34573    34481    34237    33983    33949    34084    34159    34142 
   34195    34317    34329    34233    34199    34264    34307    34246 
   34106    33971    33943    34022    34063    33959    33820    33816 
   33953    34064    34007    33848    33760    33797    33847    33843 
   33887    34049    34222    34299    34354    34485    34612    34619 
   34564    34587    34697    34767    34744    34700    34678    34650 
   34578    34461    34345    34318    34450    34665    34773    34724 
   34642    34607    34607    34604    34541    34376    34179    34113 
   34250    34439    34534    34568    34595    34566    34450    34275 
   34118    34083    34142    34176    34227    34438    34722    34824 
   34704    34631    34800    35062    35185    35132    34993    34862 
   34750    34601    34441    34376    34410    34423    34385    34379 
   34470    34645    34776    34713    34515    34396    34461    34597 
   34626    34523    34469    34553    34589    34435    34249    34236 
   34371    34489    34516    34528    34576    34574    34491    34427 
   34403    34352    34342    34404    34379    34268    34294    34493 
   34663    34715    34809    34983    35016    34890    34798    34759 
   34688    34584    34493    34431    34362    34253    34173    34206 
   34303    34342    34292    34230    34242    34307    34303    34215 
   34207    34323    34375    34307    34329    34519    34614    34399 
   34078    33952    33978    33968    33952    34036    34179    34279 
   34323    34353    34348    34294    34263    34348    34545    34751 
   34846    34798    34717    34692    34682    34646    34604    34597 
   34635    34677    34677    34649    34654    34719    34740    34650 
   34601    34705    34819    34800    34719    34743    34884    34970 
   34977    35047    35128    35043    34857    34746    34684    34562 
   34458    34485    34551    34510    34415    34427    34533    34589 
   34570    34526    34433    34261    34126    34169    34337    34479 
   34581    34685    34757    34767    34740    34676    34589    34569 
   34630    34677    34651    34566    34473    34403    34404    34497 
   34562    34507    34473    34534    34518    34339    34150    34119 
   34231    34321    34334    34403    34584    34736    34708    34562 
   34519    34635    34716    34627    34506    34541    34672    34678 
   34504    34296    34149    34033    33941    33941    34053    34199 
   34334    34450    34553    34654    34740    34805    34842    34812 
   34744    34734    34767    34807    34905    35063    35197    35236 
   35218    35218    35182    35023    34857    34924    35276    35615 
   35617    35383    35264    35353    35490    35571    35563    35479 
   35422    35449    35500    35513    35459    35321    35137    35008 
   34956    34882    34786    34843    35064    35202    35133    35025 
   34989    34917    34797    34788    34878    34879    34771    34699 
   34704    34736    34798    34901    34965    34931    34915    34943 
   34890    34820    34851    34869    34739    34554    34470    34491 
   34462    34339    34253    34249    34198    34048    33930    33914 
   33895    33829    33817    33895    34011    34113    34122    34024 
   33891    33785    33739    33754    33760    33704    33639    33643 
   33633    33546    33565    33818    34094    34157    34063    33978 
   33947    33926    33952    34088    34275    34416    34499    34560 
   34619    34647    34635    34605    34519    34364    34292    34385 
   34479    34449    34419    34449    34358    34182    34167    34281 
   34352    34430    34619    34801    34782    34580    34357    34159 
   33952    33797    33756    33786    33804    33764    33700    33697 
   33783    33880    33863    33701    33571    33609    33700    33731 
   33756    33808    33812    33747    33698    33712    33697    33612 
   33585    33651    33698    33673    33602    33579    33673    33814 
   33918    33948    33882    33782    33745    33782    33866    33959 
   33970    33883    33812    33835    33937    34052    34102    34088 
   34052    33983    33895    33872    33959    34083    34105    33995 
   33875    33864    33976    34109    34148    34118    34132    34211 
   34311    34396    34431    34393    34296    34167    34022    33864 
   33739    33750    33866    33894    33795    33733    33750    33740 
   33694    33700    33758    33774    33752    33782    33839    33840 
   33821    33875    34006    34153    34267    34321    34375    34488 
   34565    34458    34244    34191    34368    34541    34582    34601 
   34641    34658    34665    34666    34608    34493    34430    34420 
   34392    34422    34601    34786    34763    34592    34530    34631 
   34697    34659    34661    34742    34765    34754    34852    34954 
   34878    34778    34893    35059    34969    34746    34684    34701 
   34589    34403    34302    34311    34342    34339    34317    34294 
   34295    34333    34352    34290    34225    34233    34221    34118 
   34033    34067    34134    34123    34099    34156    34225    34260 
   34312    34341    34272    34196    34233    34311    34323    34318 
   34356    34373    34326    34261    34213    34146    34045    33964 
   33921    33862    33813    33863    33987    34056    34025    34009 
   34095    34194    34184    34096    34017    33932    33835    33805 
   33855    33853    33716    33589    33624    33652    33497    33334 
   33369    33520    33619    33644    33660    33677    33691    33733 
   33790    33856    33967    34150    34403    34653    34886    35171 
   35399    35432    35371    35368    35425    35471    35506    35581 
   35669    35718    35752    35785    35766    35664    35545    35523 
   35595    35607    35518    35473    35513    35536    35537    35538 
   35482    35394    35402    35522    35623    35662    35749    35899 
   35974    35935    35915    35982    36030    35976    35888    35858 
   35903    35958    35961    35887    35746    35613    35586    35650 
   35680    35588    35442    35340    35240    35087    34911    34732 
   34582    34546    34624    34696    34696    34693    34723    34709 
   34615    34547    34587    34646    34634    34576    34492    34372 
   34275    34300    34434    34543    34577    34614    34700    34774 
   34777    34792    34919    35043    35008    34886    34820    34815 
   34792    34743    34726    34771    34858    34929    34927    34882 
   34875    34917    34993    35094    35181    35225    35239    35253 
   35352    35552    35743    35847    35899    35962    36007    35930 
   35737    35587    35553    35525    35413    35256    35108    34990 
   34904    34828    34755    34692    34626    34511    34329    34183 
   34190    34277    34303    34308    34375    34453    34495    34558 
   34657    34722    34758    34770    34726    34684    34707    34682 
   34531    34369    34315    34290    34191    34111    34125    34113 
   34022    33995    34113    34245    34276    34273    34331    34381 
   34362    34385    34516    34622    34589    34507    34511    34566 
   34565    34520    34526    34588    34661    34730    34759    34708 
   34612    34584    34662    34732    34722    34695    34666    34588 
   34500    34495    34562    34550    34439    34445    34622    34722 
   34622    34485    34423    34387    34360    34375    34412    34420 
   34383    34307    34213    34169    34200    34249    34299    34426 
   34627    34794    34890    34977    35085    35166    35175    35166 
   35208    35294    35355    35330    35249    35176    35095    34952 
   34778    34651    34545    34376    34167    33975    33821    33696 
   33551    33359    33188    33106    33097    33131    33189    33234 
   33231    33187    33161    33216    33299    33285    33200    33169 
   33193    33166    33116    33162    33269    33326    33350    33388 
   33393    33355    33366    33488    33650    33737    33727    33648 
   33534    33435    33384    33332    33214    33065    32984    32984 
   32991    32973    32984    33061    33143    33191    33281    33454 
   33637    33759    33839    33964    34171    34393    34568    34686 
   34761    34803    34832    34892    34993    35098    35190    35271 
   35338    35407    35468    35457    35375    35326    35355    35432 
   35534    35622    35694    35781    35869    35932    35962    35964 
   35969    35982    35992    36015    36089    36198    36235    36132 
   35984    35927    35934    35851    35646    35459    35337    35201 
   35091    35104    35156    35113    35009    34963    34936    34796 
   34608    34542    34541    34456    34354    34358    34384    34287 
   34109    33991    33951    33871    33733    33628    33548    33424 
   33326    33335    33366    33334    33304    33334    33343    33289 
   33284    33408    33542    33554    33517    33578    33700    33774 
   33868    34053    34210    34290    34402    34585    34727    34777 
   34865    35093    35375    35583    35677    35689    35672    35679 
   35715    35729    35708    35729    35785    35819    35861    35931 
   35926    35780    35568    35386    35244    35095    34962    34948 
   35055    35110    35039    34936    34865    34803    34769    34816 
   34952    35082    35120    35120    35186    35303    35343    35276 
   35226    35221    35185    35129    35167    35313    35434    35459 
   35494    35563    35533    35364    35174    35016    34815    34573 
   34426    34400    34348    34219    34113    34020    33853    33635 
   33473    33416    33408    33385    33374    33416    33475    33501 
   33493    33488    33496    33509    33554    33646    33723    33748 
   33805    33930    33990    33902    33832    33939    34107    34163 
   34148    34209    34323    34368    34352    34375    34429    34447 
   34454    34457    34419    34384    34400    34416    34360    34284 
   34306    34383    34406    34408    34450    34501    34560    34662 
   34794    34909    35002    35083    35129    35143    35190    35283 
   35353    35394    35472    35623    35780    35849    35843    35868 
   35950    35999    35964    35884    35796    35692    35571    35473 
   35422    35371    35302    35206    35062    34916    34844    34834 
   34812    34738    34643    34608    34639    34661    34647    34622 
   34626    34636    34580    34477    34414    34389    34335    34242 
   34177    34173    34183    34173    34140    34086    34014    33902 
   33779    33712    33673    33596    33500    33469    33521    33566 
   33534    33490    33501    33519    33507    33524    33613    33700 
   33704    33686    33714    33718    33610    33431    33276    33204 
   33218    33265    33259    33192    33161    33227    33353    33497 
   33674    33868    34048    34226    34430    34661    34875    35021 
   35102    35182    35325    35500    35600    35621    35685    35811 
   35885    35884    35897    35981    36042    35945    35748    35631 
   35592    35488    35309    35158    35039    34865    34623    34404 
   34237    34064    33893    33798    33758    33677    33554    33467 
   33421    33372    33343    33385    33486    33623    33789    33972 
   34164    34354    34520    34647    34750    34861    34983    35071 
   35108    35133    35194    35272    35316    35334    35365    35399 
   35383    35263    35071    34902    34807    34765    34704    34580 
   34460    34388    34300    34153    34009    33936    33887    33789 
   33686    33673    33709    33693    33623    33559    33525    33520 
   33531    33528    33498    33475    33492    33489    33378    33192 
   33039    32938    32822    32668    32544    32497    32493    32485 
   32467    32464    32471    32470    32485    32540    32584    32576 
   32571    32655    32830    33042    33249    33427    33573    33708 
   33860    34033    34204    34362    34514    34668    34796    34889 
   34974    35047    35079    35118    35202    35290    35375    35484 
   35591    35658    35681    35687    35702    35738    35800    35887 
   36007    36148    36248    36273    36255    36259    36333    36443 
   36510    36525    36560    36655    36733    36737    36701    36651 
   36590    36558    36563    36539    36466    36425    36447    36450 
   36377    36279    36215    36155    36069    35993    35950    35881 
   35750    35623    35586    35604    35584    35505    35390    35241 
   35043    34800    34550    34323    34105    33880    33706    33610 
   33512    33357    33200    33069    32913    32734    32613    32583 
   32563    32479    32368    32273    32201    32198    32278    32350 
   32351    32367    32502    32703    32880    33069    33320    33593 
   33822    34015    34218    34404    34528    34651    34821    34974 
   35071    35164    35289    35424    35536    35613    35652    35685 
   35727    35718    35622    35499    35403    35320    35212    35081 
   34962    34861    34744    34646    34605    34582    34515    34398 
   34271    34150    34010    33851    33723    33648    33608    33593 
   33621    33685    33762    33874    33986    34013    33982    34010 
   34095    34144    34176    34273    34385    34438    34474    34541 
   34589    34574    34537    34555    34626    34669    34673    34715 
   34819    34905    34912    34875    34836    34796    34744    34678 
   34616    34578    34551    34537    34533    34530    34537    34541 
   34526    34504    34473    34410    34314    34241    34219    34195 
   34136    34064    34026    34030    34034    34014    33990    33961 
   33901    33824    33762    33718    33674    33660    33733    33844 
   33875    33835    33813    33835    33851    33821    33770    33744 
   33735    33741    33810    33920    33970    33951    33959    34048 
   34141    34173    34187    34240    34342    34473    34592    34682 
   34749    34781    34804    34851    34916    34986    35079    35191 
   35302    35384    35451    35534    35622    35672    35672    35646 
   35611    35560    35496    35444    35401    35380    35394    35407 
   35378    35318    35286    35291    35279    35239    35256    35352 
   35438    35467    35469    35455    35388    35275    35149    35029 
   34892    34716    34526    34375    34260    34145    34032    33959 
   33918    33859    33771    33689    33652    33670    33697    33702 
   33733    33822    33929    34010    34087    34184    34260    34315 
   34422    34597    34777    34889    34940    35004    35112    35195 
   35195    35125    35066    35073    35090    35054    35006    35004 
   35029    35027    34974    34923    34902    34889    34874    34863 
   34851    34842    34834    34809    34794    34847    34969    35105 
   35203    35252    35293    35352    35390    35403    35441    35500 
   35509    35430    35353    35338    35320    35233    35128    35078 
   35075    35052    35012    34989    34959    34892    34835    34811 
   34777    34728    34709    34705    34661    34622    34658    34717 
   34716    34684    34663    34630    34573    34533    34510    34446 
   34329    34237    34202    34160    34084    34013    33961    33899 
   33833    33820    33848    33839    33785    33767    33813    33855 
   33845    33828    33845    33856    33835    33817    33808    33768 
   33706    33659    33632    33619    33617    33604    33563    33558 
   33632    33737    33814    33885    33990    34114    34230    34317 
   34372    34430    34506    34572    34607    34618    34611    34596 
   34585    34597    34619    34623    34626    34673    34757    34817 
   34823    34825    34877    34931    34916    34843    34731    34584 
   34442    34318    34186    34051    33948    33893    33855    33770 
   33632    33512    33463    33470    33493    33516    33531    33525 
   33516    33539    33604    33690    33771    33836    33883    33894 
   33887    33913    33970    34024    34079    34171    34292    34388 
   34434    34493    34605    34720    34807    34909    35055    35193 
   35259    35289    35356    35428    35449    35453    35478    35456 
   35322    35143    35024    34948    34858    34761    34699    34678 
   34665    34636    34618    34638    34651    34612    34549    34522 
   34535    34549    34543    34546    34573    34585    34545    34465 
   34392    34349    34327    34323    34357    34433    34524    34605 
   34662    34704    34736    34739    34716    34700    34697    34696 
   34707    34738    34767    34757    34689    34595    34514    34457 
   34414    34361    34315    34314    34326    34300    34265    34272 
   34307    34314    34294    34325    34425    34499    34492    34488 
   34561    34643    34645    34609    34620    34650    34639    34607 
   34596    34622    34682    34761    34828    34874    34901    34909 
   34906    34944    35052    35158    35190    35181    35189    35206 
   35198    35170    35141    35116    35095    35071    35021    34967 
   34944    34935    34911    34885    34859    34788    34662    34562 
   34554    34597    34626    34615    34580    34530    34472    34433 
   34414    34372    34296    34241    34207    34123    33998    33916 
   33909    33922    33885    33805    33739    33687    33632    33597 
   33600    33620    33629    33609    33583    33604    33685    33783 
   33859    33926    34030    34179    34319    34398    34423    34435 
   34453    34497    34585    34681    34742    34766    34771    34761 
   34732    34705    34688    34661    34645    34670    34703    34697 
   34670    34658    34647    34605    34577    34628    34709    34757 
   34800    34885    34987    35047    35054    35055    35047    34992 
   34913    34861    34836    34825    34828    34828    34796    34761 
   34780    34817    34805    34758    34735    34728    34693    34657 
   34655    34662    34623    34531    34457    34447    34464    34466 
   34476    34527    34607    34661    34672    34685    34736    34797 
   34828    34863    34940    35027    35068    35085    35128    35191 
   35244    35272    35267    35243    35230    35239    35248    35236 
   35206    35202    35229    35237    35229    35245    35266    35249 
   35218    35197    35155    35058    34932    34836    34765    34696 
   34649    34620    34576    34506    34442    34402    34352    34264 
   34186    34144    34084    33993    33933    33924    33897    33843 
