Origin Time       2025/01/13 21:19:00
Lat.              31.8
Long.             131.6
Depth. (km)       30
Mag.              6.9
Station Code      EHMH03
Station Lat.      33.9154
Station Long.     133.6497
Station Height(m) 305
Record Time       2025/01/13 21:20:32
Sampling Freq(Hz) 100Hz
Duration Time(s)  125
Dir.              4
Scale Factor      7845(gal)/8223790
Max. Acc. (gal)   0.766
Last Correction   2025/01/13 21:20:32
Memo.             
[...]
   -5969    -5946    -5868    -5788    -5751    -5763    -5813    -5829 
   -5760    -5684    -5655    -5593    -5487    -5439    -5445    -5460 
   -5521    -5622    -5652    -5580    -5499    -5483    -5516    -5543 
   -5571    -5620    -5657    -5670    -5664    -5621    -5572    -5589 
   -5655    -5729    -5834    -5950    -5983    -5952    -5969    -6053 
   -6103    -6070    -6027    -6034    -6050    -6035    -6023    -6053 
   -6107    -6134    -6099    -6011    -5922    -5871    -5845    -5844 
   -5881    -5944    -5971    -5907    -5803    -5757    -5759    -5741 
   -5734    -5748    -5707    -5606    -5539    -5552    -5589    -5610 
   -5649    -5719    -5780    -5822    -5865    -5926    -5991    -6010 
   -5956    -5876    -5822    -5802    -5791    -5752    -5691    -5674 
   -5703    -5711    -5692    -5698    -5718    -5724    -5741    -5746 
   -5684    -5618    -5630    -5680    -5718    -5740    -5732    -5702 
   -5692    -5710    -5729    -5728    -5710    -5726    -5819    -5935 
   -6006    -6034    -6029    -5989    -5968    -5976    -5950    -5895 
   -5871    -5863    -5823    -5761    -5691    -5594    -5483    -5441 
   -5516    -5620    -5665    -5676    -5711    -5788    -5864    -5873 
   -5833    -5822    -5825    -5757    -5640    -5591    -5659    -5736 
   -5715    -5630    -5570    -5536    -5499    -5483    -5528    -5589 
   -5609    -5605    -5598    -5567    -5509    -5464    -5479    -5539 
   -5582    -5579    -5579    -5610    -5601    -5525    -5489    -5571 
   -5707    -5779    -5764    -5728    -5702    -5668    -5649    -5663 
   -5706    -5790    -5865    -5826    -5676    -5544    -5502    -5493 
   -5471    -5456    -5440    -5414    -5441    -5536    -5633    -5714 
   -5784    -5796    -5736    -5663    -5610    -5587    -5630    -5722 
   -5807    -5887    -5962    -6000    -6015    -6031    -6033    -6012 
   -6019    -6050    -6054    -6030    -6037    -6107    -6187    -6181 
   -6102    -6029    -5965    -5875    -5815    -5791    -5705    -5560 
   -5482    -5483    -5486    -5482    -5525    -5621    -5722    -5796 
   -5819    -5772    -5694    -5668    -5705    -5733    -5709    -5670 
   -5652    -5660    -5667    -5655    -5655    -5687    -5698    -5629 
   -5514    -5439    -5429    -5462    -5522    -5587    -5621    -5653 
   -5722    -5765    -5741    -5701    -5659    -5622    -5649    -5719 
   -5776    -5864    -5991    -6066    -6062    -6038    -6011    -5983 
   -5992    -6029    -6049    -6077    -6120    -6135    -6145    -6191 
   -6203    -6138    -6054    -5973    -5881    -5796    -5729    -5682 
   -5647    -5593    -5512    -5432    -5401    -5466    -5584    -5638 
   -5632    -5632    -5595    -5497    -5433    -5447    -5476    -5490 
   -5506    -5503    -5454    -5404    -5391    -5390    -5390    -5422 
   -5472    -5516    -5566    -5607    -5594    -5568    -5590    -5614 
   -5598    -5580    -5578    -5578    -5613    -5680    -5721    -5742 
   -5810    -5902    -5938    -5934    -5952    -5988    -6022    -6073 
   -6137    -6157    -6146    -6158    -6180    -6189    -6234    -6324 
   -6377    -6328    -6239    -6197    -6211    -6246    -6268    -6239 
   -6162    -6076    -6029    -6045    -6087    -6100    -6087    -6054 
   -5995    -5931    -5900    -5907    -5954    -6048    -6150    -6210 
   -6219    -6193    -6162    -6178    -6237    -6262    -6237    -6181 
   -6110    -6069    -6068    -6057    -6048    -6065    -6060    -6030 
   -6043    -6095    -6115    -6072    -6002    -5949    -5919    -5892 
   -5894    -5929    -5935    -5880    -5788    -5680    -5568    -5466 
   -5398    -5391    -5422    -5412    -5333    -5258    -5246    -5286 
   -5341    -5359    -5306    -5221    -5166    -5152    -5179    -5262 
   -5366    -5437    -5491    -5562    -5649    -5733    -5809    -5879 
   -5929    -5930    -5864    -5773    -5732    -5738    -5745    -5748 
   -5760    -5749    -5703    -5665    -5664    -5688    -5711    -5713 
   -5694    -5676    -5661    -5638    -5626    -5649    -5659    -5611 
   -5556    -5532    -5508    -5485    -5506    -5551    -5571    -5572 
   -5548    -5481    -5402    -5362    -5360    -5386    -5433    -5499 
   -5574    -5626    -5647    -5674    -5706    -5715    -5734    -5798 
   -5883    -5961    -6006    -6012    -6008    -5984    -5922    -5865 
   -5850    -5895    -5999    -6083    -6064    -5994    -5934    -5872 
   -5811    -5791    -5796    -5805    -5834    -5887    -5933    -5984 
   -6075    -6168    -6192    -6142    -6050    -5923    -5780    -5672 
   -5609    -5555    -5516    -5517    -5533    -5549    -5566    -5553 
   -5499    -5435    -5394    -5393    -5431    -5508    -5620    -5688 
   -5614    -5458    -5368    -5368    -5397    -5454    -5537    -5583 
   -5522    -5390    -5265    -5158    -5073    -5061    -5134    -5231 
   -5292    -5308    -5314    -5354    -5420    -5471    -5528    -5636 
   -5757    -5836    -5892    -5953    -5987    -5960    -5908    -5915 
   -5964    -5996    -6015    -6038    -6046    -6025    -5977    -5931 
   -5922    -5944    -5946    -5913    -5876    -5864    -5846    -5772 
   -5676    -5644    -5676    -5725    -5752    -5713    -5571    -5390 
   -5286    -5285    -5340    -5429    -5503    -5530    -5535    -5518 
   -5464    -5402    -5406    -5491    -5564    -5552    -5514    -5536 
   -5591    -5630    -5668    -5703    -5710    -5717    -5767    -5846 
   -5925    -5987    -6031    -6072    -6084    -6026    -5945    -5925 
   -5933    -5900    -5849    -5807    -5780    -5798    -5850    -5872 
   -5830    -5752    -5663    -5583    -5541    -5533    -5532    -5522 
   -5508    -5482    -5459    -5478    -5556    -5659    -5748    -5822 
   -5888    -5918    -5900    -5873    -5864    -5867    -5900    -5976 
   -6041    -6064    -6076    -6081    -6035    -5937    -5844    -5778 
   -5713    -5667    -5672    -5728    -5795    -5830    -5841    -5881 
   -5944    -5999    -6065    -6151    -6226    -6269    -6281    -6257 
   -6193    -6102    -6011    -5937    -5884    -5849    -5815    -5788 
   -5790    -5796    -5760    -5668    -5548    -5429    -5333    -5271 
   -5233    -5198    -5170    -5161    -5154    -5121    -5067    -5026 
   -5015    -5040    -5096    -5150    -5173    -5182    -5233    -5336 
   -5424    -5474    -5529    -5599    -5652    -5695    -5728    -5729 
   -5741    -5790    -5842    -5877    -5910    -5940    -5953    -5961 
   -5984    -6019    -6057    -6111    -6189    -6272    -6323    -6331 
   -6328    -6335    -6315    -6237    -6139    -6073    -6050    -6066 
   -6103    -6107    -6076    -6043    -5996    -5922    -5861    -5837 
   -5859    -5907    -5934    -5923    -5894    -5861    -5827    -5803 
   -5806    -5836    -5865    -5883    -5910    -5953    -5995    -6025 
   -6049    -6075    -6112    -6176    -6268    -6359    -6412    -6435 
   -6455    -6446    -6399    -6381    -6417    -6454    -6453    -6444 
   -6444    -6442    -6458    -6496    -6497    -6446    -6409    -6416 
   -6417    -6388    -6345    -6309    -6289    -6250    -6166    -6075 
   -6023    -6012    -5998    -5946    -5876    -5809    -5751    -5711 
   -5703    -5736    -5810    -5896    -5964    -5989    -5950    -5880 
   -5830    -5791    -5746    -5702    -5648    -5572    -5478    -5377 
   -5283    -5215    -5167    -5116    -5070    -5058    -5061    -5066 
   -5093    -5136    -5163    -5174    -5170    -5146    -5140    -5219 
   -5346    -5448    -5529    -5594    -5602    -5575    -5597    -5676 
   -5755    -5817    -5876    -5911    -5899    -5859    -5805    -5757 
   -5748    -5776    -5796    -5795    -5799    -5818    -5832    -5829 
   -5829    -5822    -5788    -5753    -5738    -5729    -5719    -5730 
   -5765    -5791    -5775    -5730    -5713    -5755    -5838    -5930 
   -6004    -6054    -6080    -6075    -6041    -5985    -5922    -5883 
   -5894    -5937    -5984    -6033    -6072    -6076    -6053    -6046 
   -6066    -6096    -6122    -6137    -6138    -6123    -6095    -6062 
   -6048    -6030    -5985    -5917    -5818    -5687    -5560    -5483 
   -5482    -5541    -5583    -5552    -5472    -5400    -5336    -5267 
   -5216    -5188    -5144    -5090    -5074    -5096    -5128    -5182 
   -5240    -5277    -5323    -5400    -5470    -5532    -5613    -5680 
   -5687    -5667    -5670    -5686    -5690    -5717    -5799    -5900 
   -5948    -5927    -5917    -5958    -6000    -5979    -5923    -5887 
   -5879    -5884    -5879    -5841    -5790    -5746    -5710    -5668 
   -5636    -5633    -5638    -5632    -5625    -5632    -5617    -5580 
   -5570    -5594    -5609    -5605    -5621    -5664    -5688    -5670 
   -5624    -5582    -5578    -5624    -5675    -5686    -5680    -5698 
   -5718    -5702    -5672    -5672    -5683    -5667    -5628    -5593 
   -5563    -5541    -5529    -5512    -5466    -5386    -5305    -5271 
   -5279    -5306    -5359    -5435    -5505    -5564    -5622    -5664 
   -5682    -5713    -5764    -5803    -5849    -5923    -5984    -5995 
   -5981    -5964    -5910    -5796    -5668    -5574    -5508    -5467 
   -5464    -5475    -5479    -5491    -5509    -5517    -5530    -5586 
   -5672    -5749    -5799    -5836    -5890    -5980    -6093    -6196 
   -6261    -6288    -6301    -6322    -6319    -6295    -6289    -6309 
   -6343    -6370    -6355    -6307    -6278    -6305    -6357    -6377 
   -6362    -6349    -6350    -6351    -6322    -6242    -6149    -6079 
   -6003    -5890    -5768    -5676    -5617    -5574    -5522    -5449 
   -5371    -5314    -5285    -5248    -5196    -5147    -5128    -5154 
   -5212    -5256    -5277    -5313    -5364    -5405    -5448    -5489 
   -5512    -5535    -5563    -5580    -5582    -5568    -5566    -5595 
   -5638    -5665    -5686    -5721    -5763    -5795    -5810    -5815 
   -5806    -5775    -5737    -5714    -5706    -5715    -5763    -5845 
   -5921    -5952    -5944    -5923    -5904    -5895    -5906    -5917 
   -5922    -5941    -5956    -5922    -5850    -5803    -5815    -5854 
   -5872    -5872    -5876    -5869    -5857    -5872    -5900    -5900 
   -5887    -5892    -5908    -5918    -5934    -5956    -5961    -5964 
   -5995    -6045    -6084    -6108    -6129    -6141    -6123    -6076 
   -6023    -5968    -5925    -5919    -5929    -5906    -5857    -5809 
   -5751    -5672    -5621    -5622    -5620    -5567    -5503    -5475 
   -5462    -5448    -5460    -5498    -5533    -5549    -5532    -5501 
   -5494    -5513    -5540    -5560    -5547    -5481    -5378    -5271 
   -5201    -5189    -5229    -5298    -5370    -5424    -5458    -5468 
   -5475    -5506    -5562    -5614    -5674    -5745    -5802    -5832 
   -5859    -5907    -5980    -6035    -6064    -6110    -6191    -6270 
   -6322    -6357    -6392    -6424    -6444    -6438    -6394    -6342 
   -6309    -6296    -6286    -6272    -6262    -6253    -6241    -6242 
   -6239    -6200    -6153    -6135    -6111    -6050    -5985    -5948 
   -5923    -5890    -5850    -5825    -5798    -5738    -5667    -5610 
   -5562    -5522    -5498    -5487    -5494    -5518    -5540    -5571 
   -5647    -5741    -5806    -5856    -5922    -5980    -5998    -5979 
   -5942    -5906    -5872    -5833    -5786    -5755    -5761    -5786 
   -5799    -5809    -5819    -5807    -5749    -5678    -5617    -5548 
   -5468    -5414    -5405    -5418    -5429    -5440    -5454    -5447 
   -5394    -5323    -5277    -5252    -5228    -5209    -5196    -5162 
   -5107    -5065    -5061    -5088    -5132    -5171    -5170    -5134 
   -5098    -5084    -5092    -5134    -5201    -5271    -5333    -5382 
   -5389    -5348    -5310    -5320    -5362    -5391    -5410    -5459 
   -5535    -5594    -5633    -5692    -5764    -5786    -5733    -5664 
   -5649    -5711    -5813    -5906    -5979    -6038    -6080    -6116 
   -6166    -6214    -6237    -6241    -6254    -6296    -6353    -6389 
   -6400    -6408    -6412    -6384    -6322    -6255    -6216    -6203 
   -6203    -6212    -6224    -6222    -6222    -6246    -6273    -6268 
   -6234    -6199    -6173    -6151    -6146    -6147    -6127    -6072 
   -5987    -5896    -5848    -5845    -5849    -5876    -5952    -6023 
   -6039    -6019    -5998    -5962    -5907    -5863    -5837    -5792 
   -5707    -5618    -5559    -5518    -5467    -5391    -5323    -5293 
   -5277    -5248    -5247    -5277    -5298    -5313    -5350    -5394 
   -5425    -5456    -5506    -5571    -5649    -5728    -5787    -5848 
   -5944    -6046    -6107    -6130    -6146    -6164    -6178    -6187 
   -6185    -6176    -6181    -6215    -6255    -6281    -6297    -6319 
   -6342    -6338    -6292    -6239    -6218    -6231    -6258    -6281 
   -6285    -6257    -6188    -6107    -6045    -6007    -5971    -5927 
   -5887    -5836    -5744    -5638    -5567    -5541    -5537    -5505 
   -5427    -5358    -5336    -5341    -5356    -5378    -5382    -5367 
   -5355    -5343    -5313    -5285    -5287    -5328    -5390    -5448 
   -5482    -5497    -5503    -5503    -5509    -5524    -5536    -5535 
   -5524    -5497    -5452    -5402    -5374    -5373    -5379    -5374 
   -5370    -5394    -5440    -5494    -5533    -5540    -5535    -5536 
   -5529    -5517    -5526    -5548    -5566    -5599    -5649    -5670 
   -5649    -5640    -5667    -5707    -5730    -5740    -5763    -5791 
   -5817    -5865    -5938    -5998    -6031    -6054    -6070    -6100 
   -6151    -6204    -6258    -6338    -6438    -6515    -6555    -6571 
   -6567    -6547    -6521    -6500    -6493    -6511    -6525    -6523 
   -6525    -6538    -6528    -6485    -6421    -6359    -6323    -6311 
   -6303    -6284    -6245    -6187    -6119    -6070    -6048    -6030 
   -6006    -5985    -5968    -5937    -5894    -5840    -5772    -5697 
   -5620    -5552    -5501    -5452    -5389    -5323    -5263    -5206 
   -5173    -5178    -5209    -5227    -5213    -5185    -5173    -5177 
   -5193    -5227    -5285    -5370    -5468    -5535    -5559    -5576 
   -5610    -5649    -5683    -5701    -5702    -5702    -5705    -5715 
   -5744    -5786    -5827    -5881    -5942    -5981    -5995    -6000 
   -5999    -5964    -5911    -5891    -5892    -5888    -5908    -5956 
   -5980    -5973    -5948    -5910    -5876    -5863    -5869    -5872 
   -5860    -5869    -5908    -5937    -5926    -5902    -5899    -5917 
   -5925    -5915    -5902    -5894    -5899    -5913    -5910    -5887 
   -5872    -5890    -5922    -5944    -5942    -5929    -5902    -5867 
   -5845    -5838    -5836    -5848    -5877    -5894    -5868    -5815 
   -5759    -5699    -5655    -5629    -5587    -5528    -5495    -5489 
   -5460    -5416    -5387    -5382    -5382    -5373    -5358    -5367 
   -5397    -5418    -5417    -5400    -5390    -5410    -5448    -5475 
   -5491    -5498    -5474    -5427    -5410    -5441    -5483    -5528 
   -5597    -5674    -5717    -5726    -5732    -5740    -5746    -5764 
   -5779    -5787    -5803    -5838    -5890    -5956    -6000    -5989 
   -5944    -5914    -5917    -5923    -5923    -5942    -5989    -6039 
   -6062    -6052    -6030    -6006    -5962    -5906    -5852    -5803 
   -5769    -5761    -5769    -5783    -5798    -5806    -5809    -5811 
   -5809    -5786    -5746    -5710    -5688    -5687    -5707    -5751 
   -5815    -5892    -5961    -6014    -6056    -6075    -6064    -6061 
   -6103    -6168    -6216    -6238    -6241    -6215    -6170    -6139 
   -6126    -6115    -6102    -6085    -6054    -6008    -5953    -5890 
   -5841    -5821    -5805    -5765    -5719    -5671    -5605    -5543 
   -5516    -5494    -5445    -5400    -5390    -5402    -5417    -5445 
   -5483    -5501    -5501    -5499    -5481    -5440    -5427    -5460 
   -5502    -5529    -5547    -5539    -5516    -5530    -5599    -5665 
   -5691    -5694    -5691    -5676    -5651    -5638    -5670    -5741 
   -5817    -5856    -5849    -5838    -5864    -5925    -6002    -6091 
   -6188    -6259    -6274    -6266    -6278    -6292    -6285    -6277 
   -6286    -6305    -6316    -6311    -6293    -6274    -6253    -6216 
   -6169    -6137    -6131    -6126    -6104    -6075    -6048    -6021 
   -5984    -5941    -5903    -5868    -5834    -5803    -5756    -5683 
   -5613    -5566    -5543    -5551    -5587    -5613    -5614    -5617 
   -5632    -5638    -5644    -5643    -5616    -5591    -5589    -5589 
   -5594    -5614    -5637    -5640    -5621    -5603    -5595    -5583 
   -5566    -5555    -5560    -5579    -5593    -5589    -5580    -5597 
   -5616    -5605    -5574    -5543    -5524    -5528    -5536    -5537 
   -5547    -5571    -5595    -5605    -5602    -5599    -5607    -5622 
   -5640    -5665    -5682    -5682    -5682    -5694    -5707    -5722 
   -5757    -5809    -5852    -5876    -5881    -5875    -5879    -5898 
   -5921    -5946    -5972    -5975    -5950    -5919    -5898    -5891 
   -5907    -5935    -5944    -5922    -5886    -5834    -5798    -5830 
   -5913    -5967    -5975    -5967    -5948    -5910    -5867    -5830 
   -5796    -5768    -5755    -5756    -5755    -5752    -5764    -5787 
   -5786    -5765    -5745    -5722    -5687    -5663    -5657    -5655 
   -5643    -5622    -5594    -5572    -5570    -5572    -5567    -5553 
   -5557    -5589    -5644    -5706    -5742    -5736    -5718    -5718 
   -5722    -5725    -5751    -5783    -5791    -5786    -5779    -5760 
   -5734    -5721    -5713    -5702    -5684    -5671    -5671    -5680 
   -5702    -5728    -5725    -5692    -5678    -5687    -5686    -5678 
   -5686    -5710    -5741    -5780    -5815    -5822    -5810    -5795 
   -5772    -5733    -5703    -5711    -5752    -5784    -5796    -5810 
   -5829    -5832    -5817    -5805    -5802    -5795    -5775    -5748 
   -5719    -5682    -5636    -5599    -5570    -5539    -5501    -5455 
   -5402    -5347    -5293    -5248    -5227    -5235    -5246    -5243 
   -5229    -5197    -5136    -5074    -5039    -5028    -5024    -5042 
   -5078    -5097    -5094    -5097    -5109    -5121    -5152    -5208 
   -5252    -5278    -5312    -5367    -5444    -5541    -5640    -5714 
   -5765    -5807    -5838    -5854    -5861    -5879    -5919    -5975 
   -6015    -6037    -6057    -6084    -6111    -6126    -6131    -6138 
   -6154    -6181    -6215    -6238    -6239    -6232    -6235    -6242 
   -6238    -6235    -6234    -6222    -6210    -6203    -6191    -6178 
   -6176    -6164    -6123    -6079    -6060    -6066    -6081    -6093 
   -6093    -6089    -6080    -6048    -5991    -5940    -5921    -5931 
   -5938    -5927    -5903    -5865    -5827    -5817    -5834    -5853 
   -5872    -5906    -5940    -5948    -5937    -5921    -5918    -5930 
   -5941    -5946    -5954    -5967    -5977    -5991    -6003    -6002 
   -5998    -6007    -6022    -6023    -6006    -5973    -5941    -5926 
   -5915    -5896    -5873    -5854    -5845    -5842    -5825    -5782 
   -5724    -5675    -5644    -5617    -5586    -5567    -5570    -5576 
   -5568    -5549    -5529    -5505    -5470    -5427    -5381    -5348 
   -5346    -5366    -5394    -5425    -5449    -5444    -5408    -5373 
   -5354    -5339    -5339    -5359    -5381    -5394    -5405    -5405 
   -5393    -5387    -5394    -5400    -5398    -5395    -5386    -5363 
