Origin Time       2025/01/13 21:19:00
Lat.              31.8
Long.             131.6
Depth. (km)       30
Mag.              6.9
Station Code      EHMH07
Station Lat.      33.5022
Station Long.     132.7480
Station Height(m) 90
Record Time       2025/01/13 21:20:11
Sampling Freq(Hz) 100Hz
Duration Time(s)  145
Dir.              2
Scale Factor      2942(gal)/8224139
Max. Acc. (gal)   1.724
Last Correction   2025/01/13 21:20:11
Memo.             
[...]
  -54838   -54710   -54615   -54595   -54562   -54544   -54583   -54610 
  -54652   -54746   -54796   -54758   -54669   -54535   -54387   -54287 
  -54270   -54276   -54255   -54279   -54349   -54396   -54430   -54448 
  -54453   -54467   -54444   -54413   -54382   -54333   -54333   -54353 
  -54345   -54390   -54442   -54422   -54386   -54378   -54394   -54413 
  -54440   -54554   -54695   -54745   -54735   -54675   -54569   -54498 
  -54467   -54454   -54445   -54399   -54318   -54213   -54112   -54095 
  -54172   -54287   -54444   -54602   -54702   -54758   -54788   -54799 
  -54819   -54834   -54843   -54864   -54862   -54843   -54818   -54754 
  -54633   -54434   -54197   -54045   -53991   -53954   -53947   -53991 
  -54058   -54129   -54217   -54326   -54437   -54523   -54577   -54608 
  -54618   -54588   -54531   -54484   -54438   -54382   -54341   -54326 
  -54348   -54380   -54390   -54383   -54344   -54251   -54171   -54159 
  -54168   -54183   -54203   -54187   -54187   -54279   -54400   -54533 
  -54729   -54926   -55040   -55088   -55104   -55116   -55093   -54986 
  -54807   -54596   -54418   -54328   -54340   -54453   -54575   -54621 
  -54596   -54518   -54453   -54445   -54457   -54475   -54442   -54363 
  -54357   -54379   -54357   -54346   -54325   -54287   -54299   -54357 
  -54394   -54399   -54434   -54495   -54540   -54604   -54689   -54764 
  -54847   -54920   -54939   -54888   -54805   -54758   -54706   -54641 
  -54612   -54600   -54621   -54700   -54769   -54780   -54769   -54773 
  -54757   -54696   -54665   -54669   -54652   -54631   -54623   -54630 
  -54676   -54743   -54800   -54820   -54814   -54827   -54873   -54900 
  -54905   -54940   -54942   -54831   -54710   -54619   -54471   -54337 
  -54301   -54294   -54274   -54249   -54225   -54209   -54259   -54411 
  -54508   -54442   -54359   -54349   -54351   -54310   -54229   -54132 
  -54041   -53989   -54014   -54091   -54182   -54272   -54326   -54351 
  -54382   -54352   -54221   -54079   -54016   -54009   -54022   -54058 
  -54137   -54263   -54396   -54515   -54634   -54761   -54900   -55040 
  -55128   -55107   -54996   -54853   -54708   -54599   -54496   -54411 
  -54452   -54600   -54758   -54908   -55024   -55136   -55269   -55298 
  -55175   -54977   -54777   -54603   -54448   -54367   -54379   -54445 
  -54556   -54638   -54648   -54610   -54519   -54461   -54508   -54584 
  -54645   -54697   -54726   -54722   -54685   -54656   -54677   -54774 
  -54939   -55053   -55028   -54886   -54631   -54313   -54055   -53883 
  -53786   -53779   -53789   -53761   -53790   -53927   -54106   -54272 
  -54415   -54564   -54675   -54700   -54726   -54780   -54797   -54756 
  -54658   -54560   -54490   -54391   -54291   -54253   -54229   -54210 
  -54198   -54151   -54110   -54114   -54151   -54238   -54340   -54405 
  -54449   -54481   -54540   -54670   -54820   -54935   -55074   -55220 
  -55251   -55188   -55111   -55040   -55016   -55051   -55108   -55169 
  -55224   -55235   -55143   -54980   -54812   -54653   -54553   -54554 
  -54596   -54625   -54594   -54492   -54378   -54280   -54251   -54319 
  -54388   -54378   -54286   -54180   -54152   -54176   -54230   -54303 
  -54299   -54210   -54101   -53975   -53839   -53746   -53751   -53825 
  -53873   -53879   -53889   -53932   -54027   -54175   -54328   -54402 
  -54378   -54299   -54213   -54180   -54225   -54333   -54472   -54589 
  -54639   -54623   -54584   -54526   -54454   -54410   -54349   -54247 
  -54176   -54140   -54108   -54110   -54144   -54163   -54133   -54099 
  -54164   -54310   -54453   -54634   -54885   -55067   -55048   -54920 
  -54822   -54722   -54591   -54496   -54423   -54319   -54190   -54025 
  -53865   -53817   -53870   -53912   -53928   -53943   -53968   -54045 
  -54149   -54207   -54244   -54303   -54400   -54561   -54711   -54731 
  -54656   -54618   -54615   -54565   -54486   -54434   -54382   -54318 
  -54315   -54391   -54471   -54535   -54588   -54592   -54595   -54645 
  -54660   -54599   -54535   -54530   -54569   -54554   -54456   -54344 
  -54236   -54103   -53950   -53829   -53788   -53789   -53777   -53744 
  -53752   -53856   -53951   -53941   -53951   -54017   -54041   -54063 
  -54125   -54148   -54139   -54147   -54156   -54148   -54086   -53962 
  -53846   -53744   -53632   -53569   -53603   -53696   -53798   -53892 
  -53987   -54085   -54174   -54263   -54329   -54356   -54346   -54306 
  -54240   -54159   -54136   -54211   -54328   -54452   -54546   -54531 
  -54434   -54373   -54405   -54481   -54522   -54533   -54607   -54749 
  -54838   -54804   -54722   -54638   -54471   -54193   -53925   -53750 
  -53661   -53632   -53647   -53680   -53719   -53782   -53902   -54066 
  -54205   -54275   -54329   -54396   -54421   -54405   -54396   -54387 
  -54344   -54245   -54110   -54001   -53947   -53941   -53998   -54152 
  -54378   -54556   -54669   -54818   -54978   -55055   -55019   -54911 
  -54804   -54685   -54521   -54367   -54225   -54079   -53995   -53971 
  -53928   -53833   -53723   -53663   -53671   -53721   -53792   -53846 
  -53894   -53978   -54079   -54176   -54243   -54226   -54135   -54044 
  -53983   -53900   -53796   -53773   -53833   -53909   -54012   -54128 
  -54217   -54310   -54383   -54369   -54260   -54055   -53832   -53743 
  -53811   -53960   -54140   -54307   -54405   -54411   -54380   -54373 
  -54400   -54402   -54334   -54284   -54291   -54306   -54387   -54552 
  -54676   -54742   -54837   -54963   -55094   -55181   -55173   -55082 
  -54930   -54724   -54577   -54594   -54712   -54828   -54912   -54943 
  -54901   -54835   -54831   -54899   -54962   -55005   -55055   -55065 
  -55031   -54970   -54838   -54716   -54672   -54561   -54415   -54363 
  -54295   -54218   -54244   -54290   -54336   -54417   -54490   -54577 
  -54641   -54641   -54675   -54734   -54754   -54774   -54788   -54814 
  -54870   -54904   -54965   -55066   -55077   -54994   -54889   -54738 
  -54584   -54502   -54433   -54329   -54238   -54174   -54121   -54103 
  -54151   -54294   -54481   -54592   -54612   -54604   -54594   -54579 
  -54537   -54483   -54410   -54272   -54128   -54054   -54049   -54143 
  -54326   -54519   -54648   -54700   -54766   -54865   -54938   -55043 
  -55163   -55173   -55151   -55201   -55283   -55425   -55586   -55659 
  -55664   -55629   -55557   -55487   -55399   -55318   -55273   -55188 
  -55034   -54882   -54805   -54842   -54988   -55204   -55425   -55587 
  -55688   -55733   -55690   -55567   -55455   -55425   -55480   -55556 
  -55543   -55458   -55436   -55459   -55440   -55406   -55337   -55177 
  -55008   -54905   -54816   -54718   -54625   -54521   -54422   -54371 
  -54352   -54315   -54268   -54247   -54230   -54186   -54132   -54105 
  -54136   -54232   -54357   -54427   -54403   -54357   -54346   -54334 
  -54329   -54357   -54405   -54460   -54487   -54469   -54473   -54487 
  -54504   -54535   -54483   -54386   -54333   -54299   -54313   -54294 
  -54211   -54301   -54557   -54787   -54989   -55150   -55242   -55316 
  -55379   -55422   -55435   -55375   -55300   -55287   -55332   -55374 
  -55356   -55332   -55372   -55371   -55221   -54986   -54827   -54804 
  -54828   -54893   -55020   -55127   -55188   -55204   -55183   -55119 
  -54989   -54880   -54837   -54847   -54935   -55032   -55090   -55066 
  -54889   -54666   -54480   -54286   -54105   -53925   -53782   -53739 
  -53701   -53649   -53658   -53743   -53946   -54203   -54405   -54587 
  -54772   -54874   -54831   -54666   -54506   -54446   -54461   -54445 
  -54368   -54326   -54313   -54232   -54110   -54032   -54020   -54036 
  -53960   -53761   -53584   -53435   -53242   -53110   -53121   -53233 
  -53346   -53358   -53295   -53223   -53169   -53157   -53176   -53187 
  -53152   -53073   -53011   -52951   -52891   -52925   -53030   -53133 
  -53229   -53311   -53416   -53566   -53770   -54014   -54189   -54291 
  -54432   -54561   -54652   -54797   -54984   -55113   -55204   -55339 
  -55501   -55622   -55701   -55737   -55710   -55652   -55621   -55622 
  -55606   -55547   -55506   -55517   -55501   -55402   -55251   -55093 
  -54993   -54957   -54888   -54762   -54645   -54594   -54612   -54611 
  -54591   -54622   -54627   -54612   -54611   -54538   -54414   -54314 
  -54238   -54178   -54091   -53979   -53867   -53802   -53867   -54018 
  -54116   -54151   -54202   -54279   -54297   -54187   -53987   -53792 
  -53657   -53519   -53365   -53291   -53306   -53384   -53500   -53572 
  -53596   -53617   -53673   -53782   -53854   -53879   -53947   -54040 
  -54106   -54103   -54052   -54008   -53883   -53671   -53495   -53354 
  -53272   -53288   -53330   -53391   -53484   -53585   -53680   -53676 
  -53562   -53433   -53271   -53096   -52969   -52840   -52709   -52645 
  -52666   -52749   -52828   -52828   -52778   -52809   -52976   -53218 
  -53454   -53640   -53842   -54121   -54384   -54542   -54603   -54648 
  -54785   -54982   -55178   -55359   -55444   -55470   -55572   -55749 
  -55976   -56243   -56496   -56713   -56857   -56941   -57010   -57010 
  -56910   -56781   -56691   -56654   -56628   -56627   -56654   -56632 
  -56542   -56440   -56361   -56295   -56191   -56015   -55776   -55489 
  -55194   -54918   -54664   -54498   -54469   -54550   -54633   -54583 
  -54446   -54359   -54294   -54128   -53836   -53497   -53187   -52949 
  -52836   -52818   -52786   -52712   -52623   -52528   -52478   -52482 
  -52479   -52467   -52465   -52494   -52570   -52606   -52546   -52452 
  -52373   -52326   -52402   -52647   -52941   -53207   -53503   -53858 
  -54206   -54511   -54810   -55125   -55424   -55692   -55945   -56197 
  -56427   -56582   -56662   -56713   -56795   -56957   -57165   -57356 
  -57474   -57458   -57361   -57246   -57091   -56906   -56712   -56554 
  -56486   -56400   -56200   -55999   -55872   -55760   -55632   -55548 
  -55483   -55336   -55170   -55061   -54896   -54638   -54342   -54012 
  -53682   -53454   -53365   -53323   -53241   -53187   -53156   -53034 
  -52913   -52925   -52984   -53040   -53098   -53072   -52930   -52670 
  -52358   -52126   -51943   -51814   -51796   -51818   -51871   -51945 
  -51992   -52149   -52432   -52685   -52867   -53011   -53123   -53188 
  -53187   -53115   -52953   -52740   -52548   -52467   -52547   -52641 
  -52712   -52844   -52924   -52918   -52930   -53013   -53242   -53526 
  -53781   -54076   -54329   -54533   -54772   -54969   -55066   -55102 
  -55194   -55395   -55594   -55753   -55854   -55883   -55941   -56000 
  -56016   -56002   -55869   -55714   -55648   -55584   -55502   -55413 
  -55363   -55435   -55556   -55642   -55683   -55695   -55752   -55798 
  -55772   -55699   -55571   -55447   -55345   -55192   -55023   -54895 
  -54823   -54773   -54653   -54522   -54419   -54259   -54117   -54054 
  -53998   -53959   -53943   -53986   -54174   -54407   -54567   -54675 
  -54720   -54695   -54670   -54649   -54594   -54565   -54630   -54777 
  -54981   -55198   -55406   -55651   -55883   -56016   -56143   -56288 
  -56323   -56284   -56312   -56428   -56544   -56600   -56636   -56654 
  -56601   -56489   -56327   -56158   -56084   -56074   -56027   -55960 
  -55950   -56026   -56157   -56300   -56459   -56609   -56610   -56408 
  -56097   -55714   -55263   -54834   -54471   -54159   -53936   -53775 
  -53576   -53381   -53269   -53200   -53181   -53223   -53268   -53308 
  -53349   -53384   -53383   -53280   -53125   -53017   -52972   -52952 
  -52925   -52907   -52898   -52882   -52937   -53087   -53252   -53446 
  -53700   -53935   -54141   -54379   -54607   -54743   -54788   -54839 
  -54988   -55159   -55232   -55270   -55336   -55371   -55405   -55507 
  -55628   -55676   -55621   -55490   -55354   -55250   -55174   -55127 
  -55125   -55163   -55189   -55162   -55109   -55036   -54938   -54851 
  -54814   -54853   -54961   -55075   -55197   -55379   -55611   -55833 
  -55991   -56068   -56100   -56122   -56130   -56133   -56141   -56185 
  -56292   -56390   -56431   -56459   -56471   -56430   -56327   -56146 
  -55941   -55773   -55602   -55445   -55360   -55308   -55247   -55170 
  -55071   -54985   -54946   -54919   -54849   -54769   -54719   -54643 
  -54496   -54268   -53952   -53613   -53357   -53192   -53071   -52990 
  -52971   -53009   -53098   -53246   -53485   -53794   -54082   -54319 
  -54500   -54587   -54635   -54716   -54827   -55036   -55351   -55614 
  -55757   -55823   -55813   -55748   -55682   -55621   -55601   -55634 
  -55647   -55586   -55512   -55417   -55259   -55101   -54985   -54905 
  -54886   -54882   -54861   -54855   -54858   -54865   -54858   -54776 
  -54635   -54490   -54361   -54244   -54095   -53975   -53950   -53921 
  -53823   -53682   -53541   -53426   -53326   -53269   -53323   -53450 
  -53551   -53555   -53465   -53374   -53368   -53434   -53546   -53701 
  -53866   -53985   -54063   -54117   -54114   -54037   -53865   -53671 
  -53623   -53671   -53684   -53724   -53828   -53944   -54083   -54220 
  -54357   -54573   -54812   -54959   -55017   -55031   -55046   -55098 
  -55134   -55131   -55105   -55000   -54828   -54684   -54595   -54608 
  -54754   -54940   -55100   -55244   -55337   -55383   -55498   -55669 
  -55786   -55871   -55872   -55715   -55512   -55255   -54963   -54781 
  -54652   -54508   -54355   -54133   -53898   -53696   -53509   -53354 
  -53185   -52979   -52751   -52474   -52196   -51979   -51823   -51695 
  -51510   -51278   -51058   -50854   -50723   -50653   -50553   -50413 
  -50220   -49990   -49827   -49729   -49686   -49770   -49898   -49981 
  -50099   -50249   -50356   -50453   -50541   -50641   -50822   -51019 
  -51194   -51389   -51579   -51753   -51922   -52134   -52425   -52695 
  -52902   -53110   -53358   -53680   -54055   -54481   -54940   -55344 
  -55687   -55954   -56142   -56358   -56589   -56764   -56886   -56953 
  -57014   -57075   -57098   -57118   -57150   -57200   -57225   -57136 
  -56975   -56852   -56754   -56617   -56451   -56219   -55933   -55741 
  -55598   -55435   -55313   -55200   -55155   -55170   -55138   -55092 
  -54974   -54839   -54756   -54642   -54588   -54527   -54380   -54283 
  -54183   -54075   -53994   -53897   -53900   -53993   -54064   -54149 
  -54228   -54329   -54519   -54718   -54924   -55166   -55341   -55463 
  -55574   -55603   -55559   -55468   -55337   -55167   -54926   -54692 
  -54510   -54310   -54166   -54101   -54031   -54035   -54156   -54319 
  -54481   -54544   -54535   -54568   -54575   -54577   -54642   -54723 
  -54857   -55050   -55216   -55372   -55560   -55767   -55972   -56157 
  -56303   -56382   -56346   -56196   -56035   -55912   -55772   -55649 
  -55568   -55449   -55348   -55282   -55193   -55169   -55156   -55116 
  -55166   -55212   -55224   -55278   -55314   -55401   -55485   -55428 
  -55359   -55328   -55314   -55352   -55362   -55372   -55387   -55282 
  -55129   -55011   -54901   -54831   -54769   -54683   -54589   -54479 
  -54372   -54249   -54112   -54049   -54052   -54074   -54162   -54313 
  -54484   -54684   -54878   -55020   -55143   -55255   -55333   -55408 
  -55468   -55486   -55466   -55420   -55383   -55336   -55236   -55129 
  -55032   -54930   -54838   -54750   -54657   -54575   -54476   -54369 
  -54328   -54361   -54422   -54527   -54697   -54857   -54942   -54993 
  -55102   -55293   -55509   -55714   -55898   -56052   -56166   -56235 
  -56278   -56315   -56378   -56481   -56552   -56536   -56442   -56265 
  -56029   -55792   -55591   -55431   -55290   -55161   -55058   -54967 
  -54859   -54754   -54665   -54585   -54587   -54704   -54847   -54969 
  -55059   -55093   -55101   -55109   -55094   -55035   -54920   -54792 
  -54683   -54576   -54499   -54427   -54313   -54222   -54199   -54190 
  -54168   -54141   -54160   -54256   -54391   -54525   -54585   -54535 
  -54453   -54365   -54255   -54130   -53986   -53833   -53711   -53630 
  -53531   -53381   -53246   -53127   -53021   -52951   -52856   -52767 
  -52747   -52699   -52582   -52438   -52261   -52100   -51995   -51923 
  -51895   -51903   -51946   -52047   -52141   -52192   -52258   -52332 
  -52380   -52411   -52390   -52308   -52270   -52332   -52448   -52613 
  -52778   -52893   -53040   -53195   -53312   -53484   -53623   -53721 
  -53910   -54085   -54255   -54508   -54733   -54936   -55128   -55220 
  -55296   -55402   -55536   -55752   -56033   -56328   -56562   -56694 
  -56770   -56775   -56766   -56803   -56812   -56793   -56790   -56758 
  -56698   -56652   -56604   -56492   -56331   -56182   -56068   -56027 
  -56011   -55945   -55914   -55934   -55984   -56074   -56107   -56056 
  -55949   -55795   -55649   -55497   -55354   -55267   -55178   -55094 
  -55057   -55011   -54940   -54878   -54866   -54881   -54841   -54793 
  -54789   -54773   -54707   -54595   -54457   -54349   -54268   -54166 
  -54086   -54054   -54022   -54010   -54013   -53936   -53817   -53727 
  -53627   -53539   -53488   -53431   -53365   -53304   -53300   -53373 
  -53465   -53563   -53640   -53659   -53677   -53700   -53693   -53700 
  -53732   -53777   -53825   -53865   -53902   -53943   -53964   -53990 
  -54070   -54197   -54326   -54423   -54523   -54658   -54757   -54800 
  -54885   -55035   -55196   -55297   -55305   -55282   -55283   -55300 
  -55362   -55501   -55699   -55946   -56185   -56374   -56542   -56664 
  -56709   -56701   -56655   -56594   -56517   -56396   -56222   -56003 
  -55800   -55626   -55444   -55308   -55190   -55027   -54881   -54761 
  -54656   -54583   -54449   -54237   -54054   -53919   -53806   -53720 
  -53616   -53474   -53338   -53212   -53102   -53029   -52968   -52933 
  -52953   -52999   -53034   -53036   -53034   -53029   -53006   -53068 
  -53196   -53273   -53319   -53353   -53383   -53454   -53543   -53639 
  -53773   -53932   -54087   -54191   -54253   -54286   -54253   -54251 
  -54326   -54402   -54491   -54579   -54642   -54726   -54804   -54864 
  -54907   -54885   -54830   -54795   -54770   -54764   -54778   -54789 
  -54792   -54805   -54822   -54818   -54784   -54769   -54793   -54814 
  -54811   -54815   -54865   -54947   -55030   -55134   -55239   -55269 
  -55236   -55183   -55123   -55055   -54967   -54870   -54816   -54810 
  -54819   -54824   -54812   -54774   -54739   -54746   -54791   -54866 
  -54957   -55001   -55005   -55003   -54988   -54974   -54966   -54974 
  -54986   -54947   -54926   -54920   -54839   -54814   -54853   -54846 
  -54872   -54876   -54830   -54812   -54731   -54638   -54596   -54506 
  -54392   -54291   -54199   -54137   -54083   -54063   -54056   -54027 
  -54000   -53971   -53991   -54067   -54128   -54237   -54394   -54506 
  -54618   -54743   -54832   -54908   -54976   -54994   -54953   -54922 
  -54878   -54765   -54662   -54591   -54500   -54433   -54382   -54329 
  -54282   -54233   -54193   -54156   -54108   -54043   -53947   -53846 
  -53775   -53742   -53736   -53739   -53748   -53739   -53698   -53667 
  -53643   -53609   -53588   -53576   -53600   -53662   -53724   -53824 
  -53983   -54155   -54324   -54510   -54718   -54927   -55098   -55251 
  -55399   -55490   -55467   -55387   -55366   -55394   -55416   -55460 
  -55525   -55580   -55629   -55645   -55633   -55649   -55674   -55683 
  -55705   -55698   -55652   -55633   -55651   -55687   -55690   -55626 
  -55545   -55452   -55328   -55196   -55067   -54974   -54940   -54924 
