Origin Time       2025/01/13 21:19:00
Lat.              31.8
Long.             131.6
Depth. (km)       30
Mag.              6.9
Station Code      EHMH03
Station Lat.      33.9154
Station Long.     133.6497
Station Height(m) 305
Record Time       2025/01/13 21:20:32
Sampling Freq(Hz) 100Hz
Duration Time(s)  125
Dir.              5
Scale Factor      7845(gal)/8223790
Max. Acc. (gal)   0.862
Last Correction   2025/01/13 21:20:32
Memo.             
[...]
    1533     1297     1242     1432     1664     1750     1656     1428 
    1198     1096     1119     1236     1460     1701     1811     1798 
    1745     1674     1594     1521     1480     1509     1564     1614 
    1701     1773     1795     1853     1917     1867     1740     1655 
    1657     1672     1622     1548     1510     1509     1544     1607 
    1665     1740     1881     2004     1948     1725     1559     1557 
    1603     1659     1811     2000     1992     1698     1345     1200 
    1297     1525     1776     1979     2089     2091     1979     1799 
    1659     1583     1547     1597     1776     1987     2025     1844 
    1651     1588     1591     1630     1715     1748     1649     1476 
    1381     1440     1559     1583     1518     1478     1512     1593 
    1667     1653     1557     1487     1512     1629     1810     1966 
    1961     1699     1332     1192     1354     1598     1737     1738 
    1691     1695     1695     1602     1483     1436     1452     1514 
    1620     1690     1609     1377     1182     1220     1464     1733 
    1877     1888     1833     1740     1621     1530     1499     1502 
    1509     1498     1486     1513     1548     1506     1435     1464 
    1557     1575     1567     1671     1821     1856     1769     1630 
    1431     1239     1254     1526     1809     1890     1846     1798 
    1723     1630     1595     1634     1695     1678     1560     1494 
    1595     1791     1935     1933     1817     1669     1522     1444 
    1544     1783     1964     1984     1919     1868     1842     1837 
    1853     1868     1854     1814     1757     1705     1680     1641 
    1537     1421     1375     1408     1479     1551     1607     1618 
    1526     1391     1354     1444     1609     1779     1853     1773 
    1586     1390     1293     1333     1479     1674     1829     1854 
    1773     1664     1561     1480     1495     1640     1761     1711 
    1559     1452     1429     1489     1657     1872     1977     1948 
    1887     1852     1795     1661     1493     1399     1397     1460 
    1621     1800     1810     1626     1432     1413     1580     1796 
    1917     1891     1759     1615     1541     1521     1506     1540 
    1648     1730     1725     1713     1752     1775     1769     1802 
    1864     1888     1827     1703     1599     1563     1598     1676 
    1686     1576     1468     1487     1609     1733     1783     1741 
    1628     1512     1491     1611     1834     2027     2065     1964 
    1834     1779     1826     1915     1976     1912     1690     1491 
    1490     1594     1656     1680     1703     1672     1563     1493 
    1576     1759     1817     1624     1355     1239     1294     1424 
    1564     1633     1561     1399     1298     1356     1510     1648 
    1745     1800     1818     1840     1861     1856     1826     1795 
    1792     1810     1810     1769     1637     1435     1336     1426 
    1578     1637     1553     1398     1323     1377     1489     1578 
    1567     1483     1464     1540     1634     1736     1830     1837 
    1759     1738     1887     2104     2177     2058     1864     1664 
    1498     1466     1621     1856     2012     2056     2031     1946 
    1806     1707     1705     1718     1723     1779     1858     1921 
    1983     1993     1904     1819     1817     1833     1833     1811 
    1728     1640     1629     1656     1638     1574     1522     1501 
    1431     1355     1455     1683     1772     1696     1634     1609 
    1568     1534     1522     1522     1525     1493     1447     1458 
    1549     1686     1784     1779     1695     1620     1574     1541 
    1559     1687     1875     2011     2047     1991     1831     1632 
    1541     1578     1628     1672     1732     1736     1628     1471 
    1354     1264     1185     1216     1390     1533     1532     1460 
    1381     1278     1178     1209     1426     1659     1722     1633 
    1513     1433     1398     1437     1598     1806     1926     1925 
    1856     1759     1659     1595     1587     1598     1615     1661 
    1732     1821     1907     1927     1883     1852     1876     1930 
    1966     1981     1977     1917     1838     1814     1780     1669 
    1583     1620     1726     1844     1923     1854     1620     1404 
    1383     1521     1653     1710     1701     1605     1462     1395 
    1437     1493     1506     1524     1579     1659     1738     1768 
    1709     1597     1534     1564     1617     1611     1571     1543 
    1501     1449     1466     1559     1614     1556     1482     1491 
    1525     1510     1514     1587     1645     1609     1537     1553 
    1634     1647     1587     1564     1629     1726     1768     1753 
    1760     1804     1788     1657     1526     1544     1675     1752 
    1730     1710     1738     1767     1792     1876     2053     2204 
    2146     1910     1698     1582     1533     1578     1723     1902 
    2014     1971     1782     1559     1413     1394     1482     1605 
    1665     1629     1564     1543     1544     1521     1476     1466 
    1498     1522     1533     1566     1601     1618     1645     1705 
    1775     1814     1795     1741     1705     1733     1842     1960 
    1988     1941     1917     1929     1904     1829     1773     1777 
    1807     1818     1813     1775     1688     1591     1516     1472 
    1498     1579     1626     1611     1606     1694     1846     1946 
    1950     1914     1868     1830     1813     1791     1736     1698 
    1723     1799     1906     1993     2015     1977     1890     1776 
    1701     1671     1632     1548     1459     1405     1359     1327 
    1335     1381     1436     1464     1466     1470     1478     1468 
    1444     1420     1418     1447     1459     1405     1343     1358 
    1441     1522     1534     1470     1422     1482     1609     1696 
    1705     1657     1590     1561     1611     1718     1829     1861 
    1798     1764     1842     1935     1941     1856     1711     1582 
    1556     1625     1664     1593     1516     1545     1609     1593 
    1522     1512     1568     1618     1676     1771     1804     1671 
    1433     1281     1328     1517     1684     1699     1587     1453 
    1350     1296     1329     1433     1518     1551     1603     1698 
    1755     1732     1668     1563     1456     1467     1576     1638 
    1603     1534     1512     1559     1636     1672     1618     1532 
    1514     1540     1556     1602     1667     1702     1723     1761 
    1787     1777     1728     1692     1756     1869     1899     1827 
    1736     1683     1653     1602     1502     1356     1202     1117 
    1144     1246     1372     1475     1493     1432     1370     1327 
    1282     1260     1309     1418     1509     1533     1549     1594 
    1637     1683     1745     1776     1733     1645     1575     1568 
    1602     1621     1609     1598     1583     1555     1536     1494 
    1379     1262     1240     1312     1408     1480     1524     1548 
    1536     1485     1467     1528     1599     1614     1599     1625 
    1719     1826     1883     1881     1834     1779     1764     1798 
    1846     1860     1822     1767     1734     1715     1691     1676 
    1644     1547     1452     1429     1432     1425     1425     1441 
    1476     1528     1548     1495     1429     1433     1528     1665 
    1776     1836     1868     1875     1842     1831     1892     1952 
    1985     2043     2080     2039     1999     1993     1946     1864 
    1842     1861     1852     1827     1836     1864     1856     1773 
    1651     1557     1540     1575     1603     1582     1509     1439 
    1417     1414     1424     1463     1478     1426     1368     1372 
    1444     1529     1580     1586     1580     1599     1642     1687 
    1722     1756     1767     1729     1694     1711     1715     1656 
    1614     1665     1729     1686     1578     1522     1539     1584 
    1655     1757     1815     1757     1638     1586     1636     1730 
    1813     1844     1848     1876     1896     1818     1682     1613 
    1637     1694     1752     1779     1734     1615     1494     1441 
    1463     1503     1509     1486     1478     1497     1528     1541 
    1526     1517     1518     1499     1480     1520     1606     1676 
    1692     1665     1630     1606     1587     1590     1648     1715 
    1710     1648     1591     1555     1552     1578     1584     1571 
    1591     1624     1588     1520     1493     1514     1559     1593 
    1610     1648     1688     1696     1671     1632     1628     1645 
    1613     1543     1502     1506     1517     1522     1548     1591 
    1618     1605     1574     1557     1513     1432     1418     1495 
    1574     1603     1628     1680     1696     1652     1628     1672 
    1746     1802     1833     1863     1887     1914     1983     2052 
    2042     1973     1917     1884     1850     1825     1794     1711 
    1583     1456     1381     1378     1404     1395     1327     1205 
    1104     1062     1023      969      976     1047     1117     1173 
    1255     1345     1405     1429     1431     1453     1509     1541 
    1557     1582     1571     1517     1489     1521     1563     1576 
    1552     1491     1424     1387     1389     1418     1453     1463 
    1452     1468     1503     1495     1436     1358     1287     1283 
    1393     1563     1660     1663     1674     1710     1690     1597 
    1502     1478     1498     1514     1583     1705     1764     1732 
    1676     1637     1632     1684     1796     1930     1989     1908 
    1760     1649     1598     1599     1626     1649     1637     1568 
    1499     1495     1537     1579     1588     1564     1560     1578 
    1563     1532     1532     1557     1597     1614     1583     1571 
    1611     1633     1615     1620     1633     1576     1455     1374 
    1412     1530     1628     1645     1615     1601     1606     1607 
    1645     1765     1900     1958     1946     1915     1896     1914 
    1972     2034     2064     2039     1969     1908     1902     1927 
    1938     1911     1885     1880     1841     1729     1599     1512 
    1445     1374     1335     1339     1343     1341     1371     1433 
    1491     1514     1498     1444     1382     1374     1422     1493 
    1571     1661     1767     1850     1871     1863     1872     1912 
    1972     2014     2018     1996     1964     1911     1833     1776 
    1773     1767     1718     1686     1725     1784     1761     1647 
    1524     1463     1459     1497     1551     1597     1636     1648 
    1632     1667     1771     1865     1944     2046     2135     2145 
    2068     1960     1902     1927     1996     2052     2050     1989 
    1915     1860     1799     1736     1709     1705     1680     1637 
    1606     1599     1599     1595     1598     1625     1668     1680 
    1636     1583     1580     1615     1630     1599     1552     1534 
    1545     1566     1593     1606     1567     1478     1395     1375 
    1432     1528     1590     1598     1610     1638     1659     1696 
    1732     1690     1587     1506     1490     1526     1574     1586 
    1553     1510     1478     1455     1462     1486     1483     1464 
    1495     1595     1694     1710     1652     1570     1499     1468 
    1478     1485     1449     1381     1333     1351     1444     1582 
    1687     1709     1679     1657     1652     1640     1637     1676 
    1729     1734     1690     1628     1564     1506     1503     1588 
    1707     1761     1734     1688     1674     1705     1772     1825 
    1794     1698     1614     1593     1628     1674     1682     1634 
    1557     1513     1528     1568     1586     1571     1530     1489 
    1443     1385     1340     1329     1325     1341     1421     1547 
    1641     1648     1617     1638     1706     1773     1825     1836 
    1786     1725     1718     1748     1763     1752     1725     1710 
    1721     1737     1726     1684     1626     1576     1536     1507 
    1503     1493     1441     1386     1391     1439     1451     1420 
    1405     1437     1510     1583     1601     1545     1478     1463 
    1525     1629     1688     1671     1621     1572     1548     1572 
    1610     1586     1472     1350     1301     1301     1289     1267 
    1270     1274     1239     1209     1236     1285     1341     1444 
    1578     1671     1701     1706     1702     1702     1722     1744 
    1732     1691     1688     1760     1858     1902     1873     1853 
    1910     1999     2079     2153     2193     2157     2072     2020 
    2050     2096     2081     2042     2004     1923     1813     1715 
    1594     1448     1359     1356     1385     1386     1332     1233 
    1139     1098     1121     1183     1235     1239     1193     1139 
    1125     1161     1215     1258     1255     1206     1150     1090 
    1024      982      981      990     1000     1013     1013      990 
     936      858      816      855      951     1058     1144     1181 
    1144     1047      973     1007     1139     1271     1358     1418 
    1447     1440     1458     1555     1698     1791     1815     1831 
    1856     1861     1850     1842     1838     1845     1871     1917 
    1977     2046     2118     2181     2212     2214     2216     2234 
    2243     2266     2350     2463     2532     2540     2513     2459 
    2390     2354     2347     2330     2307     2317     2350     2359 
    2319     2249     2204     2199     2200     2191     2165     2119 
    2070     2037     2025     2038     2065     2077     2058     2019 
    1957     1879     1826     1798     1742     1669     1633     1624 
    1614     1634     1678     1692     1668     1625     1574     1518 
    1474     1455     1474     1493     1485     1505     1568     1606 
    1620     1655     1683     1668     1628     1598     1610     1655 
    1698     1729     1744     1726     1675     1615     1599     1628 
    1644     1633     1617     1595     1564     1520     1466     1440 
    1462     1491     1509     1532     1582     1637     1660     1672 
    1701     1709     1665     1605     1568     1561     1583     1610 
    1611     1591     1555     1494     1440     1420     1447     1522 
    1583     1570     1503     1422     1348     1312     1328     1393 
    1468     1485     1418     1317     1270     1289     1318     1351 
    1413     1482     1517     1512     1499     1514     1549     1597 
    1667     1741     1780     1784     1780     1779     1768     1736 
    1705     1691     1661     1597     1528     1475     1444     1422 
    1404     1424     1489     1537     1555     1568     1570     1552 
    1539     1574     1663     1755     1825     1887     1934     1950 
    1935     1895     1846     1795     1730     1695     1737     1811 
    1853     1845     1782     1683     1595     1543     1524     1536 
    1574     1617     1632     1598     1567     1568     1551     1490 
    1444     1439     1435     1413     1389     1390     1435     1506 
    1559     1584     1602     1590     1537     1501     1530     1603 
    1664     1713     1771     1825     1834     1803     1784     1798 
    1814     1807     1777     1742     1713     1691     1684     1671 
    1651     1653     1687     1723     1753     1775     1779     1757 
    1740     1755     1782     1786     1763     1756     1783     1810 
    1815     1822     1837     1842     1844     1868     1906     1923 
    1915     1895     1857     1810     1773     1738     1694     1659 
    1640     1615     1588     1571     1545     1502     1466     1467 
    1485     1475     1453     1458     1493     1544     1603     1644 
    1655     1652     1642     1633     1652     1696     1725     1711 
    1686     1674     1663     1642     1615     1593     1580     1579 
    1583     1580     1552     1509     1482     1462     1421     1382 
    1371     1367     1345     1323     1321     1344     1356     1332 
    1286     1243     1186     1104     1054     1075     1120     1143 
    1134     1094     1059     1071     1124     1173     1193     1185 
    1156     1143     1177     1252     1328     1356     1321     1260 
    1224     1242     1308     1352     1324     1260     1212     1173 
    1156     1204     1313     1422     1476     1475     1451     1421 
    1385     1350     1358     1416     1456     1435     1379     1344 
    1340     1354     1375     1398     1422     1467     1532     1597 
    1660     1713     1734     1725     1726     1763     1806     1830 
    1857     1922     2012     2077     2097     2104     2126     2141 
    2122     2087     2065     2053     2042     2038     2072     2146 
    2193     2169     2099     2030     1992     1976     1945     1921 
    1925     1914     1877     1853     1834     1811     1786     1752 
    1738     1769     1798     1791     1761     1725     1717     1750 
    1780     1769     1722     1663     1624     1606     1613     1644 
    1664     1629     1549     1459     1385     1341     1347     1395 
    1447     1452     1412     1363     1337     1364     1435     1485 
    1486     1459     1424     1401     1410     1460     1514     1549 
    1576     1615     1652     1664     1652     1632     1642     1703 
    1784     1846     1875     1863     1825     1794     1802     1856 
    1899     1863     1780     1725     1707     1723     1775     1825 
    1827     1767     1687     1663     1705     1769     1827     1852 
    1830     1788     1759     1757     1777     1791     1792     1782 
    1726     1641     1588     1590     1603     1605     1603     1611 
    1605     1567     1547     1579     1610     1603     1580     1566 
    1551     1521     1498     1494     1474     1426     1393     1389 
    1398     1414     1429     1429     1435     1449     1464     1494 
    1544     1593     1624     1625     1607     1601     1598     1578 
    1563     1575     1586     1567     1512     1428     1340     1289 
    1274     1271     1247     1204     1185     1190     1197     1196 
    1174     1138     1121     1142     1192     1266     1335     1360 
    1366     1397     1460     1540     1618     1686     1732     1769 
    1821     1890     1948     1998     2070     2153     2203     2227 
    2250     2266     2263     2263     2290     2322     2324     2311 
    2300     2290     2292     2300     2295     2269     2236     2216 
    2215     2205     2181     2164     2142     2097     2043     1975 
    1879     1779     1690     1603     1526     1480     1467     1452 
    1420     1387     1371     1341     1279     1224     1224     1266 
    1304     1324     1336     1337     1317     1282     1270     1310 
    1362     1382     1381     1374     1371     1378     1372     1327 
    1247     1165     1100     1075     1100     1156     1198     1194 
    1181     1190     1212     1260     1350     1439     1502     1545 
    1570     1571     1549     1541     1601     1707     1798     1856 
    1871     1819     1732     1679     1683     1723     1761     1772 
    1764     1771     1796     1823     1825     1784     1729     1701 
