Origin Time       2025/01/13 21:19:00
Lat.              31.8
Long.             131.6
Depth. (km)       30
Mag.              6.9
Station Code      EHMH07
Station Lat.      33.5022
Station Long.     132.7480
Station Height(m) 90
Record Time       2025/01/13 21:20:11
Sampling Freq(Hz) 100Hz
Duration Time(s)  145
Dir.              3
Scale Factor      2942(gal)/8224139
Max. Acc. (gal)   1.568
Last Correction   2025/01/13 21:20:11
Memo.             
[...]
   44909    44787    44699    44605    44528    44485    44451    44419 
   44365    44284    44215    44163    44122    44092    44055    44016 
   43987    43962    43934    43877    43792    43731    43727    43721 
   43683    43687    43722    43691    43637    43665    43745    43803 
   43853    43919    43995    44105    44251    44375    44454    44506 
   44527    44496    44454    44474    44505    44489    44470    44478 
   44485    44475    44469    44498    44566    44648    44752    44891 
   45023    45099    45104    45075    45050    45045    45031    44968 
   44814    44572    44317    44138    44039    43964    43899    43833 
   43748    43684    43690    43749    43814    43831    43796    43734 
   43665    43649    43695    43738    43741    43706    43696    43760 
   43877    44039    44231    44410    44552    44670    44766    44787 
   44706    44572    44447    44381    44382    44398    44408    44425 
   44437    44460    44550    44666    44705    44653    44572    44516 
   44493    44464    44439    44463    44505    44506    44497    44517 
   44512    44444    44383    44379    44363    44311    44302    44320 
   44301    44281    44282    44274    44266    44261    44246    44235 
   44211    44146    44082    44045    44032    44027    44000    43985 
   44008    44020    44007    43989    43988    43999    43988    43962 
   43958    43919    43802    43669    43555    43443    43367    43395 
   43533    43684    43773    43831    43884    43906    43910    43958 
   44092    44277    44432    44520    44560    44589    44609    44605 
   44602    44590    44474    44239    43980    43762    43623    43606 
   43703    43842    43954    44027    44072    44091    44096    44135 
   44238    44373    44477    44517    44537    44601    44664    44648 
   44575    44529    44539    44539    44470    44355    44228    44086 
   43939    43826    43779    43791    43850    43914    43950    43995 
   44065    44135    44203    44257    44277    44288    44313    44328 
   44336    44361    44370    44352    44316    44232    44118    44024 
   43957    43893    43803    43680    43548    43430    43362    43357 
   43375    43390    43420    43464    43513    43579    43672    43771 
   43881    43992    44084    44199    44370    44525    44609    44651 
   44666    44629    44572    44548    44548    44540    44514    44508 
   44572    44672    44717    44703    44697    44724    44766    44795 
   44811    44805    44783    44780    44787    44776    44790    44826 
   44821    44743    44583    44356    44136    43962    43806    43681 
   43642    43673    43727    43788    43852    43918    43976    44014 
   44027    44026    44024    44028    44054    44093    44119    44131 
   44130    44107    44072    44020    43950    43885    43841    43807 
   43795    43823    43837    43800    43769    43775    43812    43862 
   43906    43939    43949    43939    43964    44008    44008    43953 
   43872    43777    43679    43625    43623    43598    43538    43524 
   43567    43644    43752    43865    43947    44008    44051    44068 
   44082    44115    44162    44184    44151    44130    44155    44136 
   44030    43910    43818    43731    43656    43621    43617    43623 
   43632    43627    43614    43614    43611    43605    43621    43656 
   43677    43696    43756    43838    43920    44008    44077    44109 
   44151    44227    44288    44308    44311    44340    44421    44524 
   44639    44747    44797    44803    44829    44868    44892    44915 
   44926    44917    44896    44887    44934    45033    45087    45046 
   44948    44841    44760    44732    44764    44830    44869    44844 
   44770    44690    44621    44539    44420    44282    44159    44070 
   44027    44020    44035    44046    44023    43972    43929    43915 
   43911    43869    43804    43762    43738    43729    43756    43812 
   43866    43887    43872    43843    43806    43741    43665    43609 
   43564    43501    43413    43325    43290    43306    43348    43434 
   43565    43708    43843    43974    44128    44285    44393    44501 
   44635    44726    44788    44884    44972    45004    45015    45022 
   44987    44905    44826    44763    44701    44631    44521    44397 
   44327    44315    44317    44308    44277    44204    44112    44042 
   43981    43927    43911    43941    43964    43969    44004    44055 
   44074    44076    44095    44127    44115    44054    44034    44068 
   44097    44136    44192    44224    44261    44339    44425    44514 
   44632    44757    44845    44875    44863    44844    44822    44791 
   44733    44668    44658    44717    44810    44910    44988    45045 
   45081    45069    45030    45006    44982    44975    45037    45139 
   45191    45161    45118    45072    44991    44928    44928    44930 
   44876    44797    44749    44741    44749    44757    44722    44639 
   44568    44491    44347    44185    44088    44042    43966    43849 
   43746    43657    43541    43422    43366    43376    43395    43421 
   43495    43618    43777    43965    44154    44300    44388    44448 
   44478    44455    44410    44358    44290    44232    44166    44100 
   44089    44131    44157    44118    44027    43960    43987    44086 
   44173    44232    44278    44307    44320    44319    44280    44193 
   44061    43918    43800    43718    43652    43592    43532    43444 
   43316    43177    43070    42989    42905    42876    42928    42979 
   42990    43046    43177    43316    43409    43490    43588    43656 
   43673    43681    43684    43654    43614    43578    43549    43584 
   43690    43800    43887    43961    44031    44113    44221    44365 
   44564    44791    44996    45175    45331    45457    45544    45597 
   45585    45482    45358    45260    45134    44979    44848    44745 
   44670    44585    44467    44352    44223    44057    43887    43748 
   43630    43519    43471    43506    43513    43472    43456    43447 
   43386    43309    43251    43156    42996    42842    42724    42646 
   42642    42712    42822    42940    43035    43096    43125    43144 
   43189    43275    43382    43476    43522    43505    43452    43414 
   43378    43321    43306    43349    43386    43398    43410    43445 
   43514    43576    43598    43582    43545    43506    43486    43515 
   43591    43660    43708    43765    43842    43916    43961    43992 
   44046    44130    44201    44228    44220    44204    44181    44153 
   44134    44157    44196    44209    44221    44247    44273    44336 
   44440    44508    44532    44608    44761    44899    44957    44999 
   45065    45148    45231    45288    45310    45319    45295    45220 
   45130    45064    45056    45072    45053    45027    45042    45098 
   45171    45219    45218    45175    45115    45073    45034    44995 
   45003    45038    45056    45053    45018    44960    44898    44815 
   44714    44626    44498    44270    43985    43721    43498    43294 
   43074    42878    42769    42716    42685    42682    42682    42662 
   42633    42595    42553    42527    42512    42506    42543    42633 
   42720    42789    42869    42966    43060    43116    43139    43179 
   43258    43317    43337    43375    43456    43538    43592    43622 
   43642    43690    43777    43841    43829    43773    43704    43629 
   43552    43476    43394    43321    43302    43370    43501    43636 
   43781    43953    44127    44325    44556    44757    44903    45009 
   45090    45169    45226    45243    45215    45119    44975    44829 
   44707    44614    44563    44543    44545    44567    44593    44593 
   44556    44520    44544    44674    44886    45125    45393    45671 
   45856    45924    45925    45885    45774    45581    45391    45291 
   45231    45146    45069    45036    45029    45014    44959    44848 
   44722    44599    44452    44269    44103    44015    44018    44046 
   44034    43966    43842    43677    43519    43393    43286    43175 
   43069    43019    43019    43050    43135    43232    43285    43283 
   43224    43152    43151    43217    43302    43409    43555    43713 
   43869    44039    44215    44369    44505    44631    44739    44833 
   44905    44940    44961    44990    45033    45090    45127    45118 
   45046    44932    44832    44775    44753    44763    44788    44775 
   44703    44648    44668    44749    44865    45009    45171    45308 
   45381    45427    45495    45536    45505    45432    45343    45239 
   45117    44994    44905    44868    44852    44834    44815    44767 
   44697    44663    44680    44707    44694    44617    44512    44415 
   44339    44332    44412    44532    44624    44651    44648    44626 
   44548    44433    44331    44246    44167    44108    44113    44212 
   44342    44416    44423    44412    44431    44474    44531    44629 
   44764    44891    44984    45063    45137    45202    45225    45166 
   45056    44934    44784    44639    44559    44535    44516    44513 
   44545    44575    44572    44556    44498    44358    44193    44111 
   44165    44332    44571    44848    45119    45333    45493    45627 
   45713    45781    45862    45952    46040    46094    46124    46165 
   46209    46260    46323    46357    46337    46272    46191    46121 
   46047    45972    45889    45711    45423    45123    44815    44429 
   43972    43536    43193    42923    42657    42391    42188    42041 
   41904    41827    41825    41817    41808    41872    42030    42242 
   42468    42723    42988    43163    43235    43251    43187    43052 
   42916    42817    42761    42731    42727    42747    42813    42948 
   43096    43217    43356    43483    43544    43573    43611    43648 
   43673    43734    43860    43984    44023    43978    43883    43748 
   43617    43517    43402    43241    43044    42795    42512    42280 
   42124    41986    41800    41588    41445    41372    41338    41388 
   41561    41804    42036    42242    42460    42678    42876    43065 
   43241    43339    43356    43394    43484    43573    43644    43698 
   43715    43703    43694    43692    43686    43692    43722    43773 
   43865    44028    44243    44428    44539    44624    44748    44903 
   45017    45036    44979    44892    44826    44802    44782    44739 
   44663    44578    44540    44529    44501    44478    44455    44400 
   44336    44289    44253    44254    44301    44340    44308    44199 
   44077    43970    43846    43721    43641    43568    43457    43368 
   43328    43259    43133    43011    42878    42682    42484    42336 
   42175    41980    41789    41608    41449    41342    41320    41376 
   41447    41520    41635    41783    41945    42113    42269    42434 
   42638    42881    43148    43428    43718    44046    44415    44797 
   45177    45522    45804    46059    46290    46467    46600    46711 
   46808    46876    46884    46836    46764    46700    46670    46647 
   46595    46541    46507    46488    46488    46495    46484    46454 
   46407    46333    46245    46187    46156    46138    46174    46272 
   46387    46506    46653    46803    46912    46978    47027    47054 
   47035    46984    46921    46828    46716    46612    46489    46353 
   46228    46090    45914    45719    45520    45345    45222    45111 
   44941    44736    44578    44452    44309    44153    43993    43842 
   43722    43637    43571    43533    43534    43548    43533    43494 
   43445    43389    43363    43422    43532    43640    43762    43916 
   44061    44170    44266    44351    44385    44383    44402    44448 
   44464    44421    44350    44285    44223    44142    44026    43887 
   43733    43551    43355    43201    43097    42988    42850    42688 
   42491    42244    41952    41662    41435    41284    41204    41180 
   41172    41192    41246    41312    41422    41609    41855    42110 
   42349    42570    42774    42969    43146    43287    43406    43513 
   43622    43746    43866    43981    44124    44286    44464    44663 
   44860    45058    45258    45446    45621    45785    45978    46228 
   46467    46646    46784    46881    46908    46893    46855    46768 
   46633    46473    46283    46094    45912    45700    45481    45293 
   45139    45022    44914    44795    44682    44555    44402    44255 
   44104    43942    43794    43637    43472    43367    43333    43332 
   43366    43418    43467    43529    43587    43614    43598    43552 
   43529    43564    43617    43667    43718    43741    43733    43731 
   43768    43827    43879    43881    43823    43752    43691    43594 
   43490    43445    43429    43428    43445    43445    43440    43441 
   43393    43299    43206    43129    43071    43042    43033    43036 
   43033    43012    42965    42882    42754    42628    42572    42562 
   42568    42608    42678    42768    42900    43070    43236    43374 
   43522    43706    43857    43946    44020    44096    44162    44200 
   44189    44147    44101    44077    44077    44043    43951    43881 
   43883    43912    43939    43966    43987    44008    44024    44058 
   44143    44221    44238    44207    44150    44101    44065    44043 
   44032    44034    44059    44101    44163    44239    44305    44366 
   44456    44609    44836    45131    45485    45858    46209    46552 
   46912    47278    47610    47889    48116    48296    48431    48519 
   48544    48527    48494    48442    48348    48226    48092    47938 
   47744    47529    47325    47128    46917    46696    46469    46251 
   46059    45858    45597    45287    44959    44628    44305    43983 
   43659    43368    43119    42905    42734    42583    42433    42296 
   42169    42033    41887    41743    41607    41484    41392    41328 
   41299    41315    41359    41439    41548    41650    41739    41820 
   41909    42024    42144    42240    42323    42412    42508    42620 
   42750    42870    42975    43067    43137    43197    43254    43281 
   43270    43236    43187    43144    43133    43154    43200    43276 
   43359    43426    43501    43583    43676    43821    43989    44132 
   44258    44388    44521    44637    44722    44790    44841    44845 
   44813    44776    44751    44736    44751    44788    44834    44895 
   44963    44998    45009    45002    44960    44913    44890    44874 
   44842    44803    44749    44675    44629    44618    44585    44532 
   44497    44464    44425    44383    44346    44311    44265    44219 
   44196    44186    44181    44196    44239    44300    44383    44496 
   44605    44675    44709    44709    44701    44709    44710    44685 
   44652    44620    44572    44491    44367    44224    44077    43935 
   43804    43675    43542    43413    43301    43209    43148    43123 
   43097    43070    43081    43110    43109    43077    43055    43069 
   43106    43144    43159    43141    43090    43009    42925    42840 
   42749    42678    42642    42624    42642    42700    42780    42835 
   42836    42823    42830    42831    42820    42820    42839    42877 
   42938    43040    43189    43344    43468    43545    43582    43596 
   43594    43560    43494    43444    43430    43426    43430    43460 
   43491    43505    43536    43591    43645    43696    43740    43771 
   43815    43841    43821    43838    43911    43973    44018    44050 
   44086    44178    44316    44444    44544    44626    44707    44791 
   44887    44994    45094    45204    45342    45481    45598    45694 
   45766    45832    45914    46002    46079    46159    46263    46387 
   46518    46634    46718    46765    46784    46807    46839    46863 
   46886    46912    46927    46924    46904    46874    46812    46722 
   46633    46549    46442    46292    46120    45968    45829    45673 
   45505    45337    45148    44952    44776    44594    44386    44174 
   43961    43741    43530    43337    43166    43011    42869    42741 
   42616    42496    42373    42229    42078    41947    41829    41708 
   41588    41469    41337    41196    41079    40995    40927    40879 
   40869    40900    40963    41054    41168    41288    41409    41535 
   41688    41862    42034    42228    42444    42639    42817    43002 
   43224    43494    43771    44038    44321    44595    44836    45094 
   45401    45742    46097    46442    46742    47008    47266    47487 
   47660    47798    47898    47957    47979    47980    47977    47946 
   47877    47776    47642    47488    47331    47147    46917    46676 
   46445    46217    45990    45773    45547    45295    45011    44722 
   44469    44228    43961    43669    43360    43074    42857    42664 
   42469    42294    42122    41933    41744    41569    41418    41308 
   41238    41203    41224    41303    41405    41512    41609    41704 
   41808    41912    42013    42159    42354    42537    42707    42905 
   43093    43235    43362    43487    43582    43660    43740    43791 
   43827    43883    43926    43945    43953    43939    43911    43889 
   43877    43870    43850    43799    43752    43721    43681    43642 
   43621    43605    43571    43528    43503    43488    43463    43447 
   43440    43445    43488    43568    43667    43768    43866    43974 
   44092    44220    44356    44502    44662    44840    45017    45164 
   45279    45389    45488    45539    45558    45565    45549    45507 
   45463    45420    45360    45289    45208    45114    45022    44936 
   44855    44783    44703    44632    44575    44506    44450    44443 
   44479    44517    44531    44559    44617    44666    44701    44739 
   44790    44845    44886    44921    44960    44986    44988    44973 
   44950    44942    44959    44982    44988    44976    44949    44922 
   44911    44892    44847    44779    44713    44663    44604    44514 
   44402    44275    44155    44055    43962    43881    43822    43772 
   43722    43675    43638    43613    43586    43553    43524    43519 
   43549    43594    43641    43673    43677    43667    43657    43636 
   43610    43582    43526    43457    43410    43395    43389    43382 
   43409    43476    43546    43627    43753    43895    44014    44105 
   44190    44278    44362    44448    44544    44635    44718    44798 
   44856    44887    44921    44969    45022    45079    45131    45188 
   45265    45361    45468    45578    45696    45813    45917    45990 
   46010    45983    45929    45852    45751    45617    45457    45296 
   45146    44976    44772    44567    44374    44185    44030    43943 
   43908    43897    43900    43923    43961    43985    43976    43946 
   43897    43822    43731    43641    43542    43401    43228    43062 
   42901    42734    42577    42449    42341    42245    42169    42110 
   42041    41964    41912    41901    41937    42020    42122    42232 
   42361    42506    42633    42739    42844    42962    43098    43247 
   43405    43575    43742    43899    44031    44147    44280    44427 
   44571    44714    44871    45015    45115    45192    45274    45354 
   45424    45488    45558    45619    45627    45612    45603    45577 
   45542    45507    45446    45369    45301    45247    45202    45158 
   45098    45021    44942    44869    44794    44710    44628    44566 
