Origin Time       2025/01/13 21:19:00
Lat.              31.8
Long.             131.6
Depth. (km)       30
Mag.              6.9
Station Code      EHMH06
Station Lat.      33.3348
Station Long.     132.7980
Station Height(m) 230
Record Time       2025/01/13 21:20:11
Sampling Freq(Hz) 100Hz
Duration Time(s)  145
Dir.              5
Scale Factor      7845(gal)/8223790
Max. Acc. (gal)   3.754
Last Correction   2025/01/13 21:20:11
Memo.             
[...]
     176      396      672      835      877      804      610      434 
     427      526      602      615      614      666      729      670 
     491      330      287      364      459      450      409      448 
     502      525      583      684      820      992     1113     1093 
     919      668      492      459      504      583      612      488 
     311      280      453      747      963      994      990      990 
     872      712      637      612      641      739      795      750 
     714      751      757      657      530      418      303      240 
     317      537      756      800      675      476      295      220 
     295      483      679      795      853      900      912      854 
     784      754      700      526      315      280      454      645 
     704      665      604      508      371      275      317      491 
     695      827      854      819      764      700      642      604 
     579      522      441      411      438      448      441      434 
     406      426      565      762      932     1011      974      865 
     679      390       74      -98      -10      284      662      992 
    1100      915      591      367      405      684     1034     1305 
    1433     1410     1264     1034      738      434      221      163 
     236      326      349      359      461      662      851      843 
     585      288      133      121      247      529      908     1236 
    1329     1111      662      145     -220     -240       81      612 
    1151     1386     1143      595       49     -261     -182      306 
     978     1456     1464     1048      529      174       40      145 
     496      912     1163     1239     1189     1009      868      981 
    1264     1458     1455     1301     1081      872      680      529 
     476      499      523      534      548      558      565      584 
     606      604      569      475      357      333      376      342 
     283      348      479      504      432      476      715      945 
    1016     1003      959      812      600      537      697      909 
     986      834      459       17     -299     -328       -9      515 
    1061     1505     1705     1557     1161      785      612      577 
     556      577      714      893      965      901      784      630 
     364       17     -213     -144      203      668     1101     1379 
    1366     1059      637      287      149      319      737     1152 
    1281      980      324     -384     -830     -858     -402      481 
    1444     2077     2242     1934     1205      345     -243     -392 
    -164      251      596      772      823      749      626      615 
     718      823      882      881      850      872      978     1080 
    1055      858      553      372      511      896     1354     1736 
    1896     1811     1533     1167      978     1167     1593     1999 
    2251     2212     1795     1166      653      450      515      724 
     989     1173     1089      691      205      -39       83      436 
     753      832      626      214     -160     -179      216      818 
    1374     1609     1316      569     -267     -706     -499      159 
     903     1355     1213      545     -211     -594     -396      148 
     608      757      579      202     -103     -114      172      533 
     657      467      190       49       91      260      405      383 
     237       75        2      172      623     1175     1539     1505 
    1121      683      432      338      311      411      637      834 
     931      978     1074     1329     1642     1701     1460     1236 
    1132      972      716      506      481      702      989     1039 
     754      288      -82     -133      149      642     1202     1614 
    1601     1069      286     -287     -394      -70      565     1362 
    1937     1798      916      -58     -392       41      784     1277 
    1240      754      183      -98        0      313      673      996 
    1174     1139      985      945     1102     1228     1115      843 
     591      565      922     1507     1939     1972     1507      567 
    -432     -855     -500      284      963     1109      688      101 
    -213      -83      414     1043     1503     1566     1246      832 
     600      533      453      309      226      255      282      299 
     433      648      793      814      704      568      606      870 
    1225     1486     1452     1007      321     -201     -291        4 
     464      866     1073     1048      872      702      673      810 
    1012     1101      913      453       -8     -105      220      681 
    1003     1055      768      237     -172     -117      369      977 
    1387     1414     1053      500       97       67      276      480 
     537      309      -97     -168      406     1321     2073     2394 
    2197     1572      869      508      580      820      967      859 
     433     -108     -396     -194      473     1296     1730     1363 
     348     -685    -1196    -1085     -589      -14      367      384 
      99     -245     -378     -162      299      741      865      553 
      64     -213     -179       36      379      801     1165     1401 
    1476     1337     1084      899      881     1069     1337     1447 
    1250      745      125     -249     -120      491     1350     2173 
    2668     2577     1838      702     -306     -625     -125      746 
    1436     1682     1520     1097      608      330      463      886 
    1255     1308      994      446      -89     -315      -72      533 
    1127     1340     1179      936      758      553      225     -110 
    -224      -32      407      997     1495     1679     1537     1173 
     749      488      569      988     1448     1556     1246      756 
     282        8      163      688     1132     1139      751      244 
     -62      -13      226      452      567      471      211       32 
      67      297      681     1078     1254     1069      562      -28 
    -364     -307        0      372      616      643      656      815 
    1019     1250     1564     1806     1872     1838     1606     1086 
     579      449      731     1127     1271     1124      908      668 
     338      112      210      479      668      784      853      847 
     900     1070     1166     1094      967      834      654      413 
     106     -193     -298      -81      352      757     1008     1142 
    1198     1185     1105      989      915      973     1179     1453 
    1721     1911     1841     1352      579     -110     -429     -328 
      70      562      880      842      508       58     -284     -247 
     236      880     1329     1408     1173      764      311      122 
     486     1156     1579     1572     1397     1308     1300     1248 
    1078      747      301     -101     -263      -70      405      932 
    1286     1345     1123      772      514      461      568      761 
     857      530     -136     -479      -89      695     1321     1537 
    1305      708       97     -156      -83      102      360      641 
     758      722      811     1094     1339     1490     1593     1462 
     957      156     -708    -1219    -1059     -306      652     1405 
    1783     1795     1409      704        4     -379     -321      167 
     903     1571     1912     1750     1051      143     -382     -153 
     727     1813     2602     2839     2543     1867     1155      792 
     789      893      922      768      440      116        0      315 
    1162     2180     2776     2686     2031     1067       70     -626 
    -712     -137      799     1595     1782     1198      140     -835 
   -1320    -1259     -789      -78      673     1246     1501     1551 
    1598     1594     1337      824      214     -233     -210      325 
    1015     1482     1632     1512     1201      850      554      373 
     380      510      633      669      592      469      333      164 
     103      367      954     1617     2049     2045     1518      506 
    -665    -1478    -1614    -1005      195     1431     2015     1706 
     815      -76     -492     -318      311     1135     1772     2023 
    1961     1706     1336      862      378      140      291      776 
    1417     1934     2185     2177     1919     1506     1008      414 
    -126     -409     -324      187      966     1611     1856     1671 
    1120      346     -363     -722     -676     -365       95      616 
     981      911      380     -190     -297      116      751     1332 
    1645     1526      943       76     -669     -864     -427      218 
     567      461       63     -384     -722     -900     -850     -513 
     -43      318      565      830     1117     1318     1406     1421 
    1291      881      268     -174     -114      409     1152     1892 
    2335     2270     1773     1055      311     -265     -527     -445 
    -105      372      859     1260     1507     1567     1548     1570 
    1497     1092      414     -190     -415     -187      340      926 
    1397     1611     1441      990      580      429      575      938 
    1344     1636     1717     1518     1136      858      900     1170 
    1371     1320     1048      665      299       21     -179     -201 
      89      575     1015     1279     1314     1036      467      -91 
    -278        1      598     1224     1455     1008      106     -669 
    -908     -561      194     1034     1541     1435      804       74 
    -356     -368      -37      546     1231     1753     1906     1621 
     984      313       10      222      723     1090     1003      464 
    -207     -638     -594      -97      567     1036     1023      396 
    -635    -1536    -1784    -1266     -318      585     1158     1298 
     988      423       54      176      622      972      967      707 
     461      433      664     1009     1244     1255     1102      896 
     676      430      252      309      585      951     1379     1787 
    1953     1776     1293      602      -62     -433     -280      544 
    1795     2766     2907     2313     1479      819      506      585 
     992     1479     1674     1406      904      472      182       98 
     348      812     1217     1426     1410     1248     1084      985 
    1000     1147     1312     1305      994      502      167      198 
     511      972     1510     1950     1973     1476      750      176 
    -132     -272     -314     -233      -17      214      234     -132 
    -776    -1328    -1459    -1071     -391       83        2     -533 
   -1224    -1787    -1914    -1397     -379      684     1352     1405 
     877       54     -662     -984     -745       39      962     1383 
    1115      572      141      -48       79      541     1320     2312 
    3095     3258     2787     1845      680     -228     -405      218 
    1217     2002     2258     2029     1435      635       35       55 
     607     1161     1337     1084      546       93       75      475 
    1023     1493     1705     1517      949      275      -74      174 
     853     1448     1552     1177      611      202      174      500 
    1085     1829     2466     2678     2378     1740     1107      820 
    1050     1722     2431     2614     2128     1402      868      635 
     715      989     1119      932      602      282      -16     -218 
    -190       71      426      653      483     -140     -788     -862 
    -274      537     1119     1248      940      415      -87     -407 
    -484     -379     -174      109      436      692      760      635 
     496      468      448      264     -147     -649     -908     -648 
      97     1008     1694     1891     1601     1067      626      479 
     583      796     1015     1134     1030      737      548      741 
    1240     1690     1838     1695     1429     1243     1229     1325 
    1391     1316     1069      796      793     1169     1678     2041 
    2084     1723     1086      426      -93     -321      -31      827 
    1922     2720     2890     2535     2018     1606     1352     1213 
    1140     1069      935      777      757      950     1228     1368 
    1213      877      735     1009     1510     1961     2316     2555 
    2486     1953     1134      436      101       12      -21      -67 
    -197     -396     -534     -506     -233      278      783      935 
     585     -132     -865    -1217    -1086     -696     -202      283 
     452      174     -256     -479     -309      264     1147     2118 
    2737     2585     1606      220     -864    -1173     -760      -44 
     484      514       47     -560     -781     -502     -171      -48 
     135      514      760      723      711      963     1320     1468 
    1339     1101      845      556      360      438      737     1086 
    1343     1302      984      741      792     1128     1638     2038 
    2185     2173     1914     1321      661      298      359      719 
    1152     1476     1530     1208      630      106     -155     -168 
     -39       99      175      175       82      -37      -48       22 
      49      -25     -255     -643    -1032    -1188     -970     -438 
     205      777     1158     1293     1196      965      834      970 
    1182     1227     1166     1077      891      602      357      345 
     549      723      735      606      294     -190     -741    -1328 
   -1942    -2450    -2583    -2110    -1173     -349     -195     -769 
   -1740    -2714    -3269    -3132    -2428    -1536     -797     -476 
    -720    -1302    -1580    -1165     -324      510     1120     1318 
     969      264     -292     -257      396     1324     2131     2600 
    2667     2351     1881     1625     1711     1976     2135     1927 
    1366      850      764     1031     1356     1601     1715     1671 
    1560     1495     1506     1563     1570     1475     1385     1391 
    1464     1602     1852     2145     2317     2254     2020     1829 
    1834     2026     2296     2412     2101     1390      684      392 
     603     1165     1860     2424     2558     2127     1379      820 
     774     1236     2014     2675     2691     1949      868       39 
    -228      -55      238      330       85     -241     -263      116 
     729     1389     1846     1792     1286      808      746     1111 
    1699     2257     2430     1917      869     -189     -827     -859 
    -267      685     1441     1580     1101      297     -392     -571 
    -109      787     1626     1915     1530      699     -202     -734 
    -648     -112      459      665      294     -518    -1286    -1537 
   -1144     -336      461      873      820      507      147     -162 
    -364     -456     -534     -664     -780     -811     -734     -507 
    -174      113      275      341      345      351      421      544 
     654      718      735      746      819      980     1151     1229 
    1161      943      707      611      616      554      430      329 
     193      -17     -149     -117      -32        4       47      270 
     765     1360     1737     1638     1007      147     -438     -507 
    -112      576     1192     1363      985      224     -450     -550 
     -51      714     1464     1948     1933     1437      756      278 
     276      756     1471     2088     2366     2215     1711     1065 
     429      -87     -278       -9      571     1200     1634     1713 
    1426      922      511      567     1173     1965     2448     2393 
    1902     1224      565       90       -6      382     1100     1792 
    2123     1952     1431      870      498      372      444      634 
     927     1300     1599     1678     1548     1320     1097      989 
    1028     1096     1092     1061     1035      930      638      157 
    -357     -703     -810     -751     -646     -625     -750     -943 
   -1026     -876     -595     -386     -314     -346     -402     -295 
      79      545      787      648      233     -234     -573     -704 
    -603     -291       74      288      276      101      -44      105 
     638     1391     2095     2452     2296     1732     1094      773 
     946     1433     1896     2110     1956     1410      726      329 
     415      872     1497     2027     2166     1853     1304      834 
     706      876     1032      950      626      187     -232     -550 
    -712     -712     -600     -430     -182      187      573      776 
     737      581      484      553      766     1036     1328     1621 
    1819     1906     2006     2187     2377     2500     2489     2307 
    1964     1447      777      172     -101        0      290      491 
     437      203      -47     -221     -261     -164       31      272 
     418      328       18     -364     -645     -656     -268      436 
    1140     1580     1686     1530     1343     1348     1617     2074 
    2563     2903     2911     2490     1831     1343     1242     1405 
    1602     1615     1305      760      298      222      585     1162 
    1593     1618     1271      807      494      522      926     1482 
    1811     1655     1053      352       20      248      812     1421 
    1826     1769     1256      657      359      450      815     1302 
    1625     1447      774       39     -267      -13      522      923 
     865      251     -692    -1479    -1676    -1242     -479      241 
     604      492       63     -344     -472     -367     -175       32 
     135       16     -241     -471     -616     -665     -575     -348 
     -49      244      436      452      313       94     -102     -199 
    -163       67      573     1298     1984     2373     2373     2065 
    1606     1169      931      953     1117     1285     1348     1198 
     839      394        8     -183     -148       12      143       68 
    -274     -739    -1112    -1273    -1185     -946     -773     -792 
    -916     -980     -878     -658     -423     -176       89      228 
      90     -230     -433     -305      105      561      791      677 
     353       93      152      598     1229     1749     1911     1590 
     954      434      332      622     1121     1601     1791     1556 
    1019      432       74      153      633     1201     1509     1406 
     934      247     -375     -622     -352      253      843     1212 
    1291     1011      403     -321     -888    -1096     -936     -580 
    -229      -35        0       -6       33      178      449      770 
    1050     1248     1314     1237     1078      909      832      967 
    1339     1849     2366     2754     2956     3049     3107     3123 
    3141     3269     3526     3788     3863     3616     3084     2467 
    1992     1794     1871     2107     2305     2253     1846     1229 
     684      437      585     1046     1552     1807     1663     1216 
     710      299       14     -125     -133      -95      -97     -189 
    -391     -700     -990    -1042     -865     -757     -899    -1221 
   -1622    -1991    -2153    -1985    -1510     -862     -272       27 
     -21     -291     -580     -727     -665     -409      -55      230 
     365      406      434      490      579      666      684      657 
     731      981     1287     1476     1448     1166      675      176 
     -55       79      429      753      936      963      861      734 
