Origin Time       2025/01/13 21:19:00
Lat.              31.8
Long.             131.6
Depth. (km)       30
Mag.              6.9
Station Code      EHMH05
Station Lat.      33.7112
Station Long.     132.8032
Station Height(m) 6
Record Time       2025/01/13 21:20:16
Sampling Freq(Hz) 100Hz
Duration Time(s)  130
Dir.              1
Scale Factor      3923(gal)/8224838
Max. Acc. (gal)   1.074
Last Correction   2025/01/13 21:20:18
Memo.             
[...]
  -47163   -47183   -47209   -47231   -47255   -47301   -47347   -47362 
  -47332   -47289   -47299   -47390   -47487   -47533   -47534   -47488 
  -47406   -47336   -47321   -47383   -47511   -47628   -47644   -47576 
  -47528   -47559   -47663   -47790   -47869   -47876   -47829   -47764 
  -47723   -47709   -47688   -47663   -47667   -47725   -47839   -47964 
  -48034   -48045   -48041   -48049   -48066   -48077   -48060   -48008 
  -47931   -47825   -47709   -47625   -47588   -47580   -47557   -47499 
  -47434   -47394   -47339   -47221   -47083   -46990   -46950   -46909 
  -46827   -46745   -46745   -46811   -46854   -46869   -46912   -46978 
  -47013   -46984   -46944   -46997   -47124   -47208   -47216   -47231 
  -47312   -47412   -47461   -47464   -47472   -47506   -47547   -47575 
  -47599   -47611   -47578   -47472   -47317   -47217   -47256   -47385 
  -47479   -47491   -47461   -47467   -47521   -47542   -47505   -47507 
  -47614   -47718   -47704   -47606   -47549   -47595   -47667   -47659 
  -47599   -47591   -47610   -47545   -47386   -47252   -47244   -47301 
  -47274   -47167   -47123   -47208   -47335   -47376   -47339   -47352 
  -47445   -47499   -47455   -47393   -47402   -47467   -47502   -47497 
  -47528   -47617   -47645   -47522   -47363   -47352   -47505   -47672 
  -47727   -47699   -47706   -47753   -47725   -47591   -47483   -47517 
  -47602   -47548   -47349   -47220   -47297   -47459   -47499   -47413 
  -47380   -47501   -47684   -47799   -47830   -47853   -47862   -47764 
  -47569   -47430   -47444   -47533   -47528   -47379   -47218   -47164 
  -47175   -47129   -47025   -47007   -47128   -47291   -47363   -47324 
  -47290   -47362   -47467   -47482   -47398   -47309   -47294   -47344 
  -47403   -47452   -47499   -47540   -47547   -47528   -47536   -47579 
  -47595   -47536   -47437   -47376   -47352   -47301   -47231   -47202 
  -47244   -47316   -47345   -47321   -47310   -47356   -47426   -47460 
  -47443   -47410   -47416   -47461   -47505   -47517   -47522   -47557 
  -47615   -47655   -47664   -47667   -47683   -47718   -47752   -47749 
  -47709   -47644   -47580   -47556   -47580   -47605   -47572   -47501 
  -47471   -47501   -47522   -47498   -47455   -47439   -47444   -47383 
  -47235   -47115   -47127   -47240   -47328   -47305   -47216   -47155 
  -47147   -47156   -47175   -47213   -47262   -47320   -47385   -47453 
  -47520   -47537   -47497   -47455   -47448   -47437   -47393   -47341 
  -47336   -47383   -47437   -47467   -47487   -47490   -47461   -47399 
  -47322   -47290   -47316   -47352   -47397   -47466   -47503   -47475 
  -47433   -47425   -47456   -47482   -47461   -47412   -47376   -47362 
  -47348   -47320   -47283   -47275   -47321   -47385   -47418   -47406 
  -47367   -47344   -47376   -47460   -47568   -47690   -47802   -47830 
  -47729   -47576   -47491   -47501   -47553   -47617   -47686   -47749 
  -47765   -47717   -47671   -47738   -47904   -48014   -47958   -47804 
  -47709   -47736   -47783   -47729   -47591   -47484   -47461   -47459 
  -47401   -47306   -47241   -47218   -47189   -47106   -47011   -46953 
  -46934   -46921   -46915   -46936   -46975   -46962   -46862   -46741 
  -46727   -46873   -47085   -47243   -47337   -47413   -47487   -47536 
  -47528   -47466   -47374   -47268   -47156   -47051   -46990   -46986 
  -47016   -47066   -47140   -47224   -47268   -47233   -47170   -47171 
  -47254   -47337   -47367   -47371   -47413   -47524   -47641   -47677 
  -47655   -47667   -47740   -47800   -47783   -47710   -47630   -47555 
  -47471   -47386   -47335   -47362   -47440   -47498   -47524   -47533 
  -47526   -47491   -47425   -47366   -47366   -47426   -47506   -47564 
  -47592   -47613   -47645   -47690   -47727   -47725   -47683   -47659 
  -47695   -47765   -47839   -47915   -47970   -47968   -47888   -47753 
  -47642   -47619   -47642   -47645   -47641   -47656   -47655   -47602 
  -47524   -47463   -47433   -47421   -47382   -47340   -47370   -47464 
  -47529   -47513   -47483   -47538   -47661   -47764   -47785   -47752 
  -47719   -47687   -47630   -47569   -47530   -47488   -47413   -47313 
  -47237   -47208   -47213   -47247   -47297   -47326   -47294   -47208 
  -47143   -47152   -47205   -47256   -47287   -47295   -47285   -47268 
  -47267   -47282   -47287   -47266   -47223   -47189   -47223   -47325 
  -47426   -47494   -47559   -47640   -47717   -47745   -47709   -47686 
  -47765   -47915   -47999   -47960   -47883   -47849   -47844   -47846 
  -47871   -47896   -47865   -47750   -47617   -47591   -47718   -47877 
  -47946   -47946   -47973   -48037   -48042   -47956   -47879   -47898 
  -47961   -47947   -47848   -47790   -47871   -48018   -48080   -48033 
  -48000   -48050   -48111   -48078   -47974   -47920   -47956   -47979 
  -47926   -47849   -47835   -47902   -47938   -47848   -47682   -47555 
  -47497   -47470   -47437   -47406   -47424   -47501   -47580   -47609 
  -47576   -47515   -47493   -47542   -47633   -47690   -47660   -47580 
  -47537   -47534   -47506   -47453   -47440   -47490   -47556   -47568 
  -47556   -47610   -47725   -47818   -47823   -47769   -47758   -47807 
  -47808   -47706   -47569   -47502   -47530   -47583   -47592   -47568 
  -47549   -47551   -47545   -47495   -47420   -47359   -47324   -47299 
  -47278   -47270   -47302   -47380   -47449   -47474   -47502   -47556 
  -47599   -47610   -47576   -47502   -47436   -47410   -47390   -47326 
  -47237   -47197   -47252   -47344   -47386   -47374   -47386   -47466 
  -47553   -47568   -47499   -47391   -47274   -47147   -47040   -47013 
  -47083   -47182   -47198   -47142   -47142   -47244   -47359   -47390 
  -47352   -47364   -47476   -47594   -47625   -47595   -47591   -47640 
  -47642   -47537   -47436   -47475   -47603   -47637   -47511   -47366 
  -47351   -47430   -47479   -47471   -47470   -47495   -47487   -47403 
  -47316   -47316   -47331   -47235   -47096   -47092   -47236   -47321 
  -47213   -47070   -47119   -47275   -47301   -47177   -47119   -47267 
  -47461   -47453   -47290   -47194   -47240   -47329   -47378   -47429 
  -47552   -47696   -47761   -47752   -47714   -47618   -47453   -47302 
  -47267   -47336   -47375   -47312   -47212   -47148   -47092   -46975 
  -46827   -46769   -46850   -46974   -47050   -47055   -47050   -47127 
  -47282   -47395   -47405   -47391   -47463   -47563   -47528   -47355 
  -47248   -47329   -47472   -47520   -47520   -47618   -47790   -47834 
  -47684   -47538   -47542   -47548   -47399   -47221   -47220   -47378 
  -47463   -47347   -47217   -47293   -47461   -47429   -47185   -47027 
  -47117   -47252   -47216   -47067   -47004   -47082   -47129   -47036 
  -46936   -46986   -47133   -47213   -47198   -47251   -47463   -47698 
  -47780   -47742   -47780   -47947   -48039   -47900   -47659   -47549 
  -47595   -47591   -47420   -47240   -47275   -47474   -47561   -47437 
  -47320   -47416   -47607   -47660   -47611   -47664   -47845   -47968 
  -47902   -47779   -47819   -47984   -48035   -47929   -47914   -48122 
  -48320   -48247   -47987   -47860   -47968   -48074   -47983   -47802 
  -47731   -47777   -47794   -47758   -47806   -47942   -48006   -47896 
  -47718   -47657   -47702   -47677   -47534   -47380   -47332   -47409 
  -47497   -47510   -47482   -47445   -47393   -47325   -47236   -47137 
  -47078   -47075   -47079   -47044   -46977   -46917   -46886   -46863 
  -46823   -46793   -46826   -46907   -46963   -46931   -46863   -46862 
  -46946   -47088   -47232   -47295   -47268   -47250   -47317   -47433 
  -47478   -47393   -47294   -47298   -47325   -47279   -47232   -47298 
  -47449   -47515   -47432   -47379   -47499   -47673   -47706   -47596 
  -47522   -47586   -47656   -47595   -47476   -47456   -47548   -47619 
  -47607   -47578   -47572   -47540   -47436   -47309   -47266   -47309 
  -47321   -47225   -47098   -47098   -47240   -47375   -47406   -47360 
  -47318   -47343   -47391   -47378   -47312   -47291   -47351   -47413 
  -47414   -47382   -47349   -47293   -47162   -46966   -46800   -46750 
  -46746   -46688   -46615   -46600   -46608   -46579   -46548   -46622 
  -46820   -47008   -47038   -46928   -46823   -46791   -46793   -46801 
  -46862   -46984   -47078   -47082   -47056   -47101   -47227   -47362 
  -47464   -47571   -47729   -47880   -47939   -47938   -47976   -48108 
  -48284   -48420   -48500   -48578   -48705   -48855   -48968   -49048 
  -49137   -49229   -49245   -49121   -48930   -48851   -48924   -49007 
  -48967   -48832   -48767   -48852   -48960   -48942   -48848   -48833 
  -48929   -48967   -48822   -48602   -48505   -48544   -48543   -48374 
  -48138   -48019   -48034   -48031   -47952   -47866   -47831   -47788 
  -47613   -47341   -47160   -47147   -47178   -47119   -47007   -46974 
  -47029   -47019   -46877   -46730   -46722   -46840   -46931   -46907 
  -46846   -46827   -46788   -46639   -46419   -46253   -46194   -46136 
  -45975   -45786   -45706   -45738   -45750   -45690   -45666   -45809 
  -46062   -46242   -46315   -46442   -46738   -47066   -47224   -47260 
  -47376   -47601   -47783   -47833   -47839   -47950   -48176   -48369 
  -48452   -48500   -48579   -48655   -48664   -48633   -48637   -48685 
  -48717   -48714   -48718   -48735   -48721   -48652   -48550   -48475 
  -48440   -48406   -48386   -48404   -48444   -48478   -48489   -48497 
  -48529   -48570   -48597   -48602   -48559   -48460   -48339   -48228 
  -48159   -48108   -48020   -47906   -47821   -47776   -47730   -47645 
  -47529   -47416   -47310   -47229   -47205   -47227   -47235   -47194 
  -47139   -47137   -47190   -47217   -47155   -47046   -46977   -46950 
  -46903   -46820   -46774   -46818   -46882   -46866   -46791   -46746 
  -46743   -46731   -46689   -46645   -46645   -46692   -46727   -46707 
  -46651   -46599   -46553   -46512   -46500   -46560   -46688   -46811 
  -46870   -46908   -47015   -47220   -47456   -47636   -47730   -47787 
  -47854   -47893   -47862   -47788   -47714   -47648   -47555   -47425 
  -47344   -47364   -47417   -47437   -47409   -47353   -47333   -47349 
  -47355   -47352   -47368   -47387   -47386   -47375   -47382   -47425 
  -47487   -47551   -47607   -47642   -47661   -47704   -47788   -47904 
  -48015   -48061   -48046   -48039   -48057   -48049   -48012   -47972 
  -47935   -47920   -47915   -47880   -47841   -47826   -47798   -47730 
  -47668   -47653   -47676   -47703   -47729   -47772   -47827   -47856 
  -47822   -47737   -47656   -47592   -47499   -47372   -47268   -47212 
  -47159   -47070   -46961   -46894   -46901   -46947   -46996   -47044 
  -47109   -47174   -47225   -47275   -47325   -47367   -47383   -47372 
  -47356   -47348   -47325   -47244   -47098   -46946   -46857   -46797 
  -46688   -46543   -46429   -46381   -46373   -46357   -46333   -46344 
  -46387   -46402   -46410   -46496   -46620   -46673   -46620   -46534 
  -46552   -46705   -46859   -46912   -46913   -46963   -47071   -47135 
  -47094   -47020   -46997   -47031   -47058   -47038   -47020   -47050 
  -47106   -47132   -47109   -47112   -47231   -47440   -47622   -47722 
  -47790   -47872   -47969   -48062   -48131   -48180   -48215   -48200 
  -48119   -48018   -47961   -47949   -47922   -47846   -47754   -47680 
  -47640   -47606   -47542   -47452   -47337   -47186   -47017   -46882 
  -46818   -46801   -46766   -46685   -46593   -46516   -46454   -46399 
  -46342   -46267   -46165   -46074   -46010   -45937   -45832   -45739 
  -45725   -45792   -45859   -45866   -45860   -45944   -46098   -46152 
  -46033   -45909   -45959   -46136   -46279   -46338   -46404   -46546 
  -46689   -46737   -46753   -46888   -47143   -47375   -47507   -47583 
  -47709   -47885   -47996   -48001   -47991   -48053   -48174   -48274 
  -48330   -48385   -48465   -48529   -48558   -48583   -48654   -48751 
  -48810   -48832   -48894   -49029   -49149   -49157   -49102   -49100 
  -49157   -49146   -49007   -48860   -48822   -48791   -48601   -48288 
  -48030   -47912   -47823   -47619   -47362   -47209   -47147   -47028 
  -46792   -46553   -46480   -46534   -46502   -46332   -46199   -46232 
  -46318   -46284   -46157   -46122   -46237   -46349   -46319   -46240 
  -46290   -46469   -46608   -46603   -46556   -46608   -46743   -46855 
  -46946   -47094   -47270   -47382   -47428   -47526   -47769   -48074 
  -48259   -48274   -48236   -48271   -48344   -48332   -48223   -48124 
  -48104   -48127   -48112   -48060   -48062   -48138   -48169   -48088 
  -47980   -47935   -47937   -47906   -47838   -47830   -47929   -48041 
  -48055   -47993   -47974   -48027   -48084   -48099   -48120   -48224 
  -48398   -48539   -48579   -48540   -48481   -48448   -48458   -48482 
  -48486   -48444   -48375   -48358   -48427   -48509   -48537   -48514 
  -48519   -48605   -48720   -48760   -48736   -48755   -48847   -48926 
  -48917   -48833   -48733   -48633   -48519   -48381   -48247   -48146 
  -48042   -47856   -47569   -47254   -46975   -46746   -46541   -46337 
  -46126   -45924   -45740   -45586   -45469   -45397   -45377   -45376 
  -45369   -45368   -45373   -45396   -45463   -45586   -45735   -45855 
  -45908   -45921   -45943   -45981   -46001   -45999   -46012   -46063 
  -46113   -46105   -46052   -46020   -46021   -46044   -46099   -46207 
  -46372   -46545   -46666   -46735   -46813   -46936   -47071   -47205 
  -47351   -47529   -47756   -48004   -48236   -48438   -48610   -48771 
  -48949   -49146   -49330   -49462   -49532   -49562   -49596   -49650 
  -49707   -49717   -49661   -49569   -49492   -49427   -49333   -49185 
  -49013   -48840   -48668   -48510   -48411   -48386   -48405   -48421 
  -48415   -48384   -48351   -48330   -48297   -48220   -48081   -47904 
  -47753   -47668   -47629   -47590   -47513   -47383   -47223   -47058 
  -46907   -46795   -46747   -46762   -46808   -46827   -46786   -46726 
  -46683   -46656   -46666   -46732   -46822   -46900   -46961   -47001 
  -47025   -47043   -47071   -47146   -47264   -47352   -47370   -47378 
  -47440   -47528   -47568   -47530   -47470   -47494   -47630   -47783 
  -47868   -47923   -48020   -48130   -48184   -48201   -48250   -48344 
  -48420   -48378   -48227   -48089   -48030   -47983   -47877   -47736 
  -47618   -47537   -47474   -47426   -47398   -47360   -47283   -47201 
  -47183   -47232   -47287   -47308   -47331   -47399   -47487   -47545 
  -47582   -47629   -47727   -47861   -47945   -47946   -47911   -47908 
  -47938   -47929   -47866   -47799   -47744   -47653   -47491   -47322 
  -47240   -47223   -47142   -46957   -46799   -46797   -46892   -46901 
  -46808   -46785   -46920   -47102   -47181   -47158   -47160   -47228 
  -47259   -47198   -47127   -47119   -47139   -47115   -47077   -47113 
  -47233   -47366   -47466   -47555   -47683   -47827   -47907   -47908 
  -47896   -47911   -47916   -47873   -47796   -47726   -47676   -47617 
  -47520   -47401   -47301   -47250   -47216   -47152   -47071   -47002 
  -46965   -46940   -46912   -46921   -47004   -47120   -47213   -47256 
  -47291   -47364   -47443   -47474   -47495   -47574   -47687   -47757 
  -47763   -47758   -47817   -47938   -48055   -48147   -48261   -48421 
  -48581   -48675   -48714   -48749   -48764   -48712   -48606   -48497 
  -48400   -48290   -48154   -48030   -47937   -47848   -47738   -47615 
  -47533   -47505   -47475   -47412   -47336   -47263   -47190   -47101 
  -46997   -46916   -46878   -46876   -46892   -46896   -46882   -46872 
  -46872   -46886   -46909   -46912   -46892   -46866   -46835   -46784 
  -46724   -46688   -46685   -46693   -46693   -46701   -46727   -46762 
  -46805   -46842   -46878   -46932   -46978   -46994   -46981   -46940 
  -46901   -46920   -47007   -47106   -47163   -47182   -47241   -47387 
  -47552   -47645   -47657   -47665   -47725   -47777   -47726   -47603 
  -47506   -47456   -47405   -47297   -47159   -47065   -47012   -46939 
  -46808   -46647   -46523   -46452   -46388   -46292   -46190   -46111 
  -46055   -45997   -45918   -45831   -45785   -45792   -45793   -45748 
  -45688   -45663   -45709   -45808   -45918   -46036   -46172   -46302 
  -46403   -46476   -46527   -46585   -46668   -46774   -46905   -47031 
  -47117   -47185   -47268   -47380   -47483   -47520   -47509   -47521 
  -47588   -47668   -47714   -47749   -47839   -47996   -48158   -48278 
  -48397   -48563   -48753   -48897   -48961   -48975   -48983   -48994 
  -48969   -48906   -48852   -48829   -48789   -48689   -48567   -48477 
  -48420   -48355   -48244   -48127   -48055   -47996   -47887   -47749 
  -47676   -47700   -47740   -47695   -47582   -47480   -47428   -47395 
  -47324   -47220   -47137   -47082   -47007   -46913   -46846   -46813 
  -46792   -46755   -46707   -46692   -46726   -46757   -46750   -46719 
  -46703   -46728   -46781   -46838   -46920   -47066   -47255   -47428 
  -47561   -47695   -47860   -48020   -48132   -48201   -48278   -48394 
  -48524   -48613   -48681   -48783   -48915   -49034   -49103   -49127 
  -49156   -49195   -49200   -49152   -49076   -49006   -48949   -48880 
  -48778   -48649   -48520   -48406   -48308   -48215   -48115   -47999 
  -47881   -47776   -47676   -47580   -47513   -47472   -47440   -47418 
  -47394   -47351   -47298   -47240   -47158   -47059   -46981   -46942 
  -46913   -46866   -46803   -46743   -46712   -46715   -46741   -46785 
  -46861   -46974   -47098   -47194   -47263   -47337   -47430   -47522 
  -47572   -47555   -47507   -47486   -47484   -47491   -47515   -47575 
  -47688   -47826   -47915   -47939   -47938   -47926   -47898   -47854 
  -47802   -47748   -47686   -47607   -47536   -47518   -47553   -47590 
  -47595   -47586   -47590   -47598   -47563   -47467   -47345   -47227 
  -47096   -46942   -46791   -46680   -46614   -46560   -46502   -46458 
  -46452   -46488   -46549   -46596   -46616   -46653   -46741   -46867 
  -46996   -47082   -47123   -47164   -47240   -47335   -47410   -47444 
  -47463   -47505   -47553   -47576   -47598   -47659   -47769   -47887 
  -47950   -47958   -47964   -47989   -47995   -47947   -47880   -47852 
  -47864   -47873   -47850   -47803   -47750   -47702   -47640   -47545 
  -47440   -47353   -47297   -47255   -47213   -47166   -47112   -47054 
  -47004   -46967   -46926   -46857   -46782   -46755   -46776   -46793 
  -46777   -46746   -46739   -46754   -46758   -46749   -46757   -46801 
  -46851   -46866   -46870   -46916   -47016   -47131   -47221   -47289 
  -47362   -47444   -47511   -47552   -47586   -47637   -47703   -47750 
  -47771   -47817   -47907   -48008   -48080   -48108   -48115   -48118 
  -48096   -48053   -48039   -48077   -48122   -48130   -48114   -48116 
  -48146   -48162   -48135   -48107   -48112   -48118   -48076   -47989 
  -47910   -47879   -47875   -47849   -47800   -47763   -47736   -47695 
  -47628   -47549   -47493   -47455   -47403   -47332   -47256   -47187 
  -47123   -47051   -46967   -46888   -46819   -46749   -46704   -46711 
  -46746   -46753   -46708   -46657   -46673   -46768   -46892   -47002 
  -47097   -47198   -47297   -47343   -47324   -47308   -47343   -47397 
  -47410   -47367   -47304   -47256   -47223   -47186   -47154   -47140 
  -47143   -47142   -47117   -47071   -47035   -47029   -47038   -47031 
  -47002   -46977   -46982   -47009   -47027   -47024   -47024   -47051 
  -47105   -47150   -47156   -47139   -47124   -47112   -47116   -47140 
