Origin Time       2025/01/13 21:19:00
Lat.              31.8
Long.             131.6
Depth. (km)       30
Mag.              6.9
Station Code      EHMH07
Station Lat.      33.5022
Station Long.     132.7480
Station Height(m) 90
Record Time       2025/01/13 21:20:11
Sampling Freq(Hz) 100Hz
Duration Time(s)  145
Dir.              1
Scale Factor      2942(gal)/8224139
Max. Acc. (gal)   1.552
Last Correction   2025/01/13 21:20:11
Memo.             
[...]
 -230465  -230326  -230254  -230195  -230135  -230135  -230173  -230264 
 -230454  -230662  -230814  -230947  -231040  -231052  -231016  -230931 
 -230812  -230727  -230673  -230613  -230577  -230561  -230538  -230530 
 -230516  -230422  -230315  -230277  -230212  -230125  -230114  -230133 
 -230146  -230200  -230264  -230324  -230423  -230539  -230648  -230737 
 -230777  -230766  -230725  -230678  -230683  -230720  -230685  -230600 
 -230548  -230520  -230517  -230540  -230584  -230696  -230875  -231060 
 -231222  -231304  -231303  -231284  -231246  -231149  -231007  -230908 
 -230891  -230878  -230843  -230839  -230859  -230929  -231067  -231218 
 -231365  -231495  -231546  -231533  -231518  -231485  -231408  -231336 
 -231250  -231126  -231051  -230959  -230754  -230538  -230334  -230137 
 -230064  -230083  -230130  -230227  -230311  -230399  -230557  -230721 
 -230854  -230960  -231029  -231064  -231056  -231007  -230967  -230933 
 -230868  -230808  -230827  -230909  -230979  -231013  -231024  -231037 
 -231056  -231070  -231075  -231049  -230986  -230929  -230898  -230859 
 -230814  -230814  -230852  -230887  -230921  -230910  -230855  -230848 
 -230882  -230925  -231006  -231079  -231087  -231078  -231045  -230909 
 -230685  -230488  -230364  -230274  -230224  -230219  -230237  -230241 
 -230180  -230096  -230049  -230000  -229988  -230068  -230142  -230166 
 -230145  -230052  -229952  -229917  -229929  -229949  -229963  -229984 
 -230023  -230072  -230127  -230192  -230276  -230365  -230426  -230462 
 -230492  -230486  -230450  -230455  -230536  -230658  -230796  -230964 
 -231152  -231298  -231369  -231368  -231280  -231111  -230922  -230775 
 -230671  -230613  -230642  -230754  -230898  -231028  -231093  -231140 
 -231222  -231246  -231195  -231111  -230918  -230678  -230520  -230408 
 -230332  -230318  -230354  -230446  -230515  -230505  -230486  -230512 
 -230558  -230588  -230602  -230661  -230771  -230877  -230971  -231070 
 -231125  -231152  -231179  -231132  -230991  -230818  -230631  -230482 
 -230432  -230434  -230442  -230426  -230362  -230288  -230230  -230212 
 -230265  -230341  -230420  -230526  -230582  -230548  -230499  -230503 
 -230557  -230597  -230594  -230600  -230607  -230559  -230505  -230473 
 -230434  -230430  -230457  -230472  -230481  -230454  -230364  -230253 
 -230122  -229994  -229952  -230008  -230126  -230278  -230449  -230615 
 -230739  -230825  -230898  -230952  -230989  -231025  -231084  -231133 
 -231106  -231055  -231024  -230972  -230922  -230922  -230962  -231018 
 -231052  -231051  -231053  -231056  -231021  -230970  -230925  -230862 
 -230779  -230731  -230696  -230651  -230608  -230524  -230440  -230411 
 -230354  -230247  -230137  -230033  -229961  -229925  -229894  -229896 
 -229959  -230060  -230150  -230222  -230301  -230372  -230392  -230393 
 -230407  -230401  -230358  -230291  -230215  -230172  -230189  -230258 
 -230366  -230482  -230588  -230656  -230688  -230697  -230659  -230600 
 -230573  -230563  -230562  -230550  -230493  -230482  -230548  -230592 
 -230608  -230629  -230609  -230592  -230650  -230737  -230812  -230883 
 -230908  -230874  -230837  -230777  -230681  -230625  -230646  -230717 
 -230816  -230916  -230998  -231037  -231024  -230991  -230967  -230936 
 -230918  -230952  -231020  -231040  -230987  -230908  -230809  -230690 
 -230590  -230496  -230412  -230411  -230469  -230508  -230540  -230569 
 -230569  -230554  -230542  -230573  -230629  -230605  -230482  -230343 
 -230262  -230264  -230288  -230323  -230395  -230447  -230445  -230411 
 -230349  -230293  -230277  -230300  -230392  -230512  -230608  -230688 
 -230701  -230585  -230434  -230369  -230365  -230369  -230389  -230403 
 -230403  -230424  -230451  -230466  -230480  -230484  -230542  -230690 
 -230843  -230974  -231109  -231213  -231273  -231299  -231302  -231333 
 -231352  -231267  -231142  -231072  -231032  -230978  -230922  -230893 
 -230891  -230905  -230931  -230958  -230999  -231072  -231109  -231070 
 -231037  -231036  -230995  -230920  -230872  -230858  -230840  -230825 
 -230829  -230851  -230881  -230867  -230813  -230806  -230824  -230777 
 -230737  -230779  -230845  -230882  -230893  -230868  -230812  -230816 
 -230962  -231199  -231441  -231647  -231803  -231927  -232031  -232066 
 -232004  -231888  -231759  -231604  -231388  -231144  -230917  -230688 
 -230463  -230305  -230235  -230245  -230310  -230370  -230422  -230512 
 -230634  -230754  -230843  -230872  -230898  -231007  -231152  -231256 
 -231325  -231334  -231233  -231067  -230905  -230740  -230565  -230431 
 -230372  -230358  -230377  -230413  -230438  -230430  -230369  -230289 
 -230261  -230297  -230381  -230476  -230584  -230767  -230995  -231186 
 -231334  -231412  -231402  -231360  -231318  -231279  -231240  -231195 
 -231165  -231134  -231083  -231052  -230998  -230867  -230762  -230704 
 -230623  -230585  -230617  -230659  -230740  -230871  -230975  -230993 
 -230947  -230901  -230882  -230890  -230967  -231102  -231209  -231264 
 -231261  -231163  -230995  -230818  -230682  -230619  -230567  -230472 
 -230374  -230300  -230229  -230179  -230172  -230222  -230314  -230409 
 -230511  -230631  -230710  -230704  -230642  -230562  -230446  -230287 
 -230152  -230076  -230068  -230135  -230212  -230295  -230474  -230704 
 -230860  -230943  -230931  -230824  -230686  -230524  -230389  -230341 
 -230324  -230378  -230566  -230783  -230944  -231028  -231029  -231044 
 -231105  -231132  -231097  -231001  -230866  -230713  -230512  -230284 
 -230065  -229865  -229738  -229693  -229707  -229772  -229845  -229925 
 -230049  -230148  -230172  -230165  -230153  -230131  -230099  -230071 
 -230089  -230177  -230273  -230289  -230227  -230156  -230095  -230050 
 -230050  -230073  -230088  -230137  -230241  -230346  -230411  -230466 
 -230548  -230612  -230643  -230735  -230898  -231014  -231051  -231075 
 -231095  -231079  -231052  -231026  -230995  -230999  -231030  -231066 
 -231118  -231155  -231145  -231152  -231187  -231187  -231160  -231142 
 -231118  -231097  -231094  -231013  -230814  -230596  -230434  -230349 
 -230311  -230268  -230233  -230207  -230206  -230285  -230374  -230396 
 -230399  -230389  -230380  -230397  -230359  -230262  -230188  -230100 
 -230030  -230073  -230164  -230224  -230276  -230323  -230362  -230388 
 -230403  -230400  -230331  -230215  -230133  -230071  -229988  -229911 
 -229894  -229929  -229942  -229930  -229942  -229976  -230025  -230062 
 -230080  -230110  -230141  -230185  -230247  -230269  -230237  -230168 
 -230096  -230083  -230081  -230044  -230031  -230050  -230083  -230160 
 -230242  -230266  -230247  -230231  -230278  -230409  -230588  -230735 
 -230771  -230756  -230777  -230835  -230943  -231063  -231157  -231288 
 -231472  -231664  -231831  -231971  -232074  -232105  -232074  -232001 
 -231939  -231985  -232098  -232152  -232119  -232036  -231950  -231862 
 -231786  -231768  -231724  -231639  -231608  -231588  -231566  -231616 
 -231672  -231708  -231758  -231774  -231742  -231638  -231439  -231226 
 -231043  -230901  -230844  -230816  -230736  -230648  -230621  -230694 
 -230863  -231044  -231182  -231255  -231207  -231039  -230835  -230654 
 -230478  -230307  -230162  -230049  -229973  -229918  -229842  -229801 
 -229806  -229805  -229825  -229883  -229961  -230108  -230301  -230461 
 -230573  -230665  -230767  -230859  -230913  -230958  -230999  -231037 
 -231070  -231083  -231097  -231087  -231024  -230966  -230932  -230893 
 -230858  -230820  -230783  -230763  -230724  -230671  -230631  -230548 
 -230451  -230436  -230482  -230536  -230588  -230585  -230534  -230500 
 -230512  -230611  -230783  -230914  -230953  -230929  -230832  -230700 
 -230602  -230504  -230388  -230343  -230335  -230320  -230378  -230481 
 -230558  -230631  -230709  -230781  -230833  -230882  -230964  -231067 
 -231160  -231283  -231456  -231639  -231795  -231913  -231993  -232044 
 -232094  -232114  -232110  -232141  -232181  -232201  -232189  -232113 
 -232024  -231970  -231958  -232013  -232090  -232194  -232352  -232432 
 -232399  -232368  -232355  -232351  -232367  -232382  -232384  -232378 
 -232353  -232314  -232290  -232262  -232164  -232021  -231866  -231677 
 -231511  -231376  -231211  -231091  -231030  -230940  -230839  -230720 
 -230566  -230415  -230262  -230170  -230197  -230258  -230308  -230357 
 -230354  -230314  -230307  -230324  -230320  -230265  -230156  -230025 
 -229861  -229655  -229473  -229315  -229151  -229045  -228995  -228989 
 -229034  -229061  -229086  -229165  -229231  -229311  -229402  -229410 
 -229360  -229258  -229123  -229101  -229182  -229277  -229383  -229444 
 -229443  -229451  -229485  -229541  -229602  -229629  -229628  -229591 
 -229520  -229427  -229321  -229228  -229163  -229127  -229109  -229073 
 -229003  -228914  -228827  -228787  -228811  -228853  -228850  -228796 
 -228739  -228718  -228733  -228773  -228847  -228961  -229093  -229219 
 -229315  -229379  -229473  -229664  -229961  -230323  -230674  -230953 
 -231234  -231588  -231928  -232185  -232406  -232591  -232700  -232783 
 -232889  -232983  -233050  -233101  -233104  -233062  -233010  -232937 
 -232850  -232756  -232622  -232474  -232360  -232271  -232178  -232075 
 -231931  -231759  -231610  -231461  -231300  -231165  -231059  -230955 
 -230808  -230589  -230392  -230269  -230180  -230169  -230233  -230258 
 -230237  -230214  -230203  -230191  -230165  -230138  -230068  -229903 
 -229733  -229633  -229539  -229414  -229296  -229174  -229047  -228968 
 -228964  -228997  -229020  -229046  -229109  -229225  -229366  -229435 
 -229409  -229360  -229296  -229252  -229263  -229277  -229290  -229313 
 -229333  -229375  -229421  -229495  -229636  -229749  -229833  -229925 
 -229994  -230067  -230122  -230110  -230089  -230103  -230153  -230266 
 -230412  -230589  -230881  -231296  -231749  -232254  -232830  -233342 
 -233757  -234073  -234223  -234292  -234315  -234214  -234023  -233747 
 -233420  -233150  -232897  -232650  -232426  -232174  -231936  -231741 
 -231579  -231489  -231398  -231238  -231095  -231012  -230963  -230901 
 -230771  -230592  -230391  -230156  -229918  -229707  -229524  -229404 
 -229379  -229373  -229332  -229269  -229149  -229031  -228991  -228978 
 -229022  -229131  -229190  -229213  -229240  -229250  -229270  -229289 
 -229308  -229385  -229513  -229672  -229788  -229805  -229856  -230004 
 -230172  -230362  -230535  -230662  -230850  -231095  -231323  -231538 
 -231719  -231876  -232009  -232051  -232029  -232000  -231951  -231932 
 -231982  -232040  -232093  -232185  -232306  -232447  -232591  -232686 
 -232746  -232827  -232931  -233039  -233119  -233131  -233095  -233046 
 -232966  -232822  -232637  -232456  -232279  -232116  -232001  -231893 
 -231739  -231573  -231391  -231152  -230863  -230512  -230106  -229707 
 -229316  -228926  -228569  -228236  -227935  -227670  -227423  -227205 
 -226994  -226806  -226683  -226562  -226427  -226357  -226368  -226428 
 -226496  -226531  -226589  -226701  -226822  -226972  -227194  -227470 
 -227807  -228204  -228599  -228947  -229232  -229455  -229666  -229872 
 -230056  -230265  -230465  -230539  -230517  -230500  -230508  -230581 
 -230754  -230958  -231117  -231242  -231361  -231458  -231526  -231592 
 -231649  -231657  -231655  -231670  -231658  -231604  -231533  -231453 
 -231387  -231322  -231222  -231098  -230970  -230848  -230744  -230642 
 -230535  -230447  -230353  -230210  -230025  -229801  -229547  -229309 
 -229119  -229023  -229047  -229101  -229117  -229134  -229166  -229189 
 -229207  -229236  -229320  -229462  -229589  -229667  -229725  -229760 
 -229779  -229801  -229813  -229824  -229848  -229869  -229902  -229999 
 -230145  -230256  -230339  -230462  -230632  -230867  -231145  -231407 
 -231681  -231990  -232247  -232414  -232521  -232561  -232549  -232513 
 -232443  -232339  -232224  -232094  -231959  -231819  -231654  -231485 
 -231333  -231182  -231051  -230953  -230913  -230945  -230975  -230943 
 -230877  -230778  -230650  -230539  -230449  -230368  -230281  -230170 
 -230045  -229923  -229822  -229743  -229667  -229612  -229575  -229527 
 -229489  -229463  -229420  -229383  -229393  -229462  -229581  -229732 
 -229917  -230100  -230243  -230368  -230504  -230690  -230937  -231207 
 -231465  -231665  -231777  -231838  -231894  -231990  -232133  -232329 
 -232615  -232953  -233263  -233563  -233836  -234027  -234161  -234231 
 -234210  -234142  -234068  -233963  -233828  -233693  -233568  -233471 
 -233413  -233363  -233309  -233270  -233211  -233082  -232876  -232618 
 -232360  -232133  -231965  -231884  -231847  -231792  -231730  -231657 
 -231580  -231612  -231772  -231951  -232120  -232248  -232282  -232249 
 -232162  -232027  -231942  -231930  -231924  -231925  -231993  -232066 
 -232085  -232139  -232228  -232308  -232416  -232522  -232613  -232738 
 -232870  -232981  -233045  -233026  -232968  -232875  -232706  -232461 
 -232154  -231835  -231539  -231225  -230913  -230647  -230424  -230235 
 -230015  -229703  -229315  -228876  -228452  -228085  -227719  -227379 
 -227121  -226916  -226759  -226663  -226565  -226481  -226440  -226400 
 -226396  -226419  -226392  -226384  -226427  -226496  -226656  -226879 
 -227092  -227350  -227661  -227966  -228233  -228444  -228598  -228752 
 -228988  -229317  -229698  -230087  -230412  -230702  -231012  -231309 
 -231592  -231867  -232104  -232308  -232490  -232637  -232758  -232868 
 -232985  -233127  -233296  -233510  -233797  -234088  -234322  -234530 
 -234693  -234805  -234901  -234937  -234947  -234975  -235001  -235014 
 -234985  -234933  -234841  -234677  -234532  -234355  -234106  -233853 
 -233547  -233240  -232992  -232725  -232482  -232263  -232023  -231820 
 -231630  -231399  -231138  -230840  -230548  -230299  -230069  -229896 
 -229745  -229552  -229402  -229304  -229182  -229038  -228843  -228602 
 -228401  -228260  -228159  -228077  -227990  -227931  -227869  -227782 
 -227746  -227759  -227743  -227697  -227643  -227583  -227506  -227450 
 -227434  -227414  -227434  -227514  -227573  -227639  -227785  -227985 
 -228197  -228397  -228572  -228711  -228815  -228916  -229007  -229053 
 -229081  -229100  -229089  -229062  -229018  -228964  -228933  -228955 
 -229008  -229042  -229105  -229188  -229221  -229270  -229321  -229321 
 -229316  -229306  -229296  -229302  -229294  -229319  -229375  -229419 
 -229485  -229570  -229674  -229841  -230003  -230157  -230374  -230604 
 -230801  -230952  -231021  -231048  -231082  -231141  -231249  -231385 
 -231511  -231619  -231692  -231730  -231755  -231730  -231657  -231600 
 -231564  -231561  -231619  -231697  -231788  -231908  -232009  -232051 
 -232055  -232062  -232094  -232117  -232105  -232058  -231952  -231799 
 -231647  -231507  -231388  -231314  -231275  -231300  -231396  -231475 
 -231525  -231591  -231661  -231730  -231804  -231889  -232025  -232205 
 -232384  -232541  -232669  -232804  -232961  -233080  -233142  -233188 
 -233219  -233232  -233246  -233258  -233285  -233331  -233317  -233221 
 -233082  -232891  -232642  -232355  -232023  -231676  -231330  -230944 
 -230534  -230165  -229840  -229539  -229281  -229058  -228846  -228653 
 -228486  -228356  -228278  -228225  -228202  -228218  -228263  -228326 
 -228371  -228366  -228332  -228253  -228113  -227959  -227804  -227649 
 -227522  -227411  -227341  -227340  -227404  -227537  -227680  -227815 
 -227973  -228132  -228290  -228441  -228556  -228667  -228784  -228860 
 -228899  -228965  -229097  -229282  -229506  -229770  -230037  -230300 
 -230567  -230801  -230993  -231175  -231350  -231531  -231707  -231884 
 -232108  -232347  -232529  -232664  -232761  -232833  -232927  -233024 
 -233078  -233122  -233161  -233142  -233078  -233019  -232950  -232893 
 -232845  -232785  -232767  -232738  -232683  -232698  -232717  -232721 
 -232765  -232762  -232754  -232768  -232686  -232603  -232590  -232545 
 -232507  -232470  -232368  -232256  -232151  -232043  -231958  -231916 
 -231935  -232005  -232117  -232289  -232478  -232611  -232703  -232794 
 -232856  -232899  -232937  -232933  -232943  -232987  -232972  -232903 
 -232771  -232579  -232447  -232364  -232314  -232351  -232398  -232405 
 -232384  -232325  -232268  -232249  -232239  -232236  -232240  -232252 
 -232267  -232243  -232156  -232017  -231826  -231572  -231246  -230866 
 -230463  -230053  -229624  -229207  -228811  -228426  -228091  -227812 
 -227565  -227377  -227221  -227060  -226929  -226813  -226698  -226623 
 -226585  -226575  -226577  -226570  -226566  -226561  -226550  -226565 
 -226582  -226594  -226635  -226705  -226804  -226929  -227049  -227182 
 -227341  -227499  -227670  -227874  -228081  -228286  -228522  -228771 
 -229004  -229234  -229464  -229690  -229884  -230037  -230172  -230303 
 -230440  -230601  -230760  -230867  -230909  -230925  -230939  -230935 
 -230925  -230962  -231040  -231128  -231180  -231168  -231103  -231024 
 -230951  -230885  -230850  -230885  -230974  -231101  -231248  -231357 
 -231456  -231573  -231678  -231793  -231919  -232011  -232097  -232209 
 -232312  -232387  -232444  -232482  -232510  -232521  -232513  -232506 
 -232478  -232403  -232335  -232299  -232278  -232239  -232177  -232127 
 -232082  -232019  -231944  -231844  -231750  -231701  -231654  -231601 
 -231560  -231508  -231471  -231442  -231367  -231244  -231101  -230953 
 -230793  -230609  -230422  -230222  -230033  -229886  -229738  -229595 
 -229478  -229387  -229344  -229297  -229212  -229153  -229142  -229163 
 -229211  -229266  -229332  -229383  -229377  -229369  -229408  -229452 
 -229491  -229555  -229643  -229716  -229759  -229787  -229787  -229748 
 -229697  -229637  -229575  -229543  -229528  -229505  -229471  -229427 
 -229392  -229393  -229431  -229475  -229498  -229497  -229486  -229479 
 -229475  -229458  -229429  -229389  -229362  -229377  -229410  -229483 
 -229626  -229770  -229892  -230013  -230127  -230288  -230484  -230677 
 -230877  -231040  -231183  -231323  -231415  -231508  -231592  -231641 
 -231734  -231836  -231923  -232027  -232098  -232150  -232183  -232166 
 -232160  -232178  -232204  -232272  -232352  -232409  -232441  -232479 
 -232545  -232603  -232629  -232622  -232587  -232544  -232495  -232428 
 -232335  -232229  -232135  -232040  -231957  -231908  -231880  -231893 
 -231931  -231940  -231931  -231893  -231816  -231727  -231611  -231465 
 -231322  -231182  -231041  -230918  -230797  -230658  -230536  -230445 
 -230322  -230181  -230083  -230029  -230000  -229973  -229927  -229899 
 -229894  -229883  -229868  -229834  -229782  -229733  -229693  -229668 
 -229648  -229622  -229601  -229567  -229516  -229478  -229463  -229460 
 -229470  -229479  -229489  -229529  -229609  -229710  -229814  -229894 
 -229942  -229979  -230033  -230094  -230149  -230204  -230256  -230307 
 -230377  -230454  -230542  -230647  -230750  -230845  -230918  -230970 
 -231034  -231098  -231160  -231226  -231244  -231232  -231229  -231205 
 -231179  -231183  -231186  -231207  -231255  -231296  -231341  -231396 
 -231462  -231547  -231606  -231620  -231603  -231525  -231391  -231223 
 -231016  -230781  -230538  -230288  -230046  -229834  -229670  -229548 
 -229478  -229477  -229521  -229591  -229691  -229807  -229930  -230067 
 -230191  -230319  -230477  -230604  -230678  -230763  -230839  -230879 
 -230924  -230971  -231013  -231071  -231155  -231244  -231319  -231398 
