Origin Time       2025/01/13 21:19:00
Lat.              31.8
Long.             131.6
Depth. (km)       30
Mag.              6.9
Station Code      EHMH02
Station Lat.      33.8650
Station Long.     133.1840
Station Height(m) 75
Record Time       2025/01/13 21:20:57
Sampling Freq(Hz) 100Hz
Duration Time(s)  120
Dir.              4
Scale Factor      7845(gal)/8223790
Max. Acc. (gal)   1.985
Last Correction   2025/01/13 21:20:58
Memo.             
    8432     8025     7692     7734     8035     8357     8530     8382 
    7963     7564     7353     7414     7847     8482     8849     8668 
    8056     7354     7068     7488     8248     8773     8854     8480 
    7852     7450     7473     7766     8245     8691     8711     8297 
    7804     7493     7460     7744     8263     8710     8776     8449 
    8012     7839     8121     8640     8968     8802     8179     7538 
    7331     7599     8124     8739     9169     9035     8451     7986 
    7877     7921     8014     8139     8143     8052     8121     8405 
    8640     8559     8244     8035     7989     7939     7892     7758 
    7519     7634     8182     8599     8730     8819     8768     8397 
    7894     7528     7376     7531     8062     8669     8892     8645 
    8287     8102     7992     7900     7892     7885     7936     8306 
    8785     8862     8623     8463     8247     7731     7276     7331 
    7758     8140     8324     8324     8039     7627     7657     8181 
    8592     8672     8622     8445     8135     7921     7924     7952 
    7874     7807     7743     7636     7755     8235     8707     8905 
    8914     8698     8201     7740     7628     7782     7975     8062 
    8081     8182     8279     8149     7889     7777     7805     7789 
    7713     7642     7499     7449     7885     8491     8515     8125 
    7938     7830     7589     7546     7716     7713     7623     7731 
    7896     8005     8224     8424     8299     7975     7724     7630 
    7789     8218     8552     8415     7920     7454     7298     7553 
    8095     8633     8881     8630     7875     6971     6554     6972 
    7809     8476     8749     8638     8311     7904     7527     7425 
    7572     7576     7416     7518     8023     8572     8799     8675 
    8278     7668     7179     7195     7620     8051     8108     7765 
    7561     7815     8230     8576     8743     8525     8040     7749 
    7820     8032     8271     8436     8210     7727     7588     7952 
    8442     8662     8456     7928     7373     7318     8054     8986 
    9302     8881     8008     7099     6701     7067     7983     8842 
    8901     8132     7342     7123     7474     8222     8954     9090 
    8525     7588     6752     6608     7321     8328     9031     9198 
    8820     8106     7356     6781     6713     7344     8148     8463 
    8225     7717     7361     7549     8166     8623     8572     8298 
    8191     8197     8122     7932     7618     7348     7423     7821 
    8195     8311     8289     8399     8581     8372     7761     7400 
    7614     8079     8449     8542     8232     7686     7371     7511 
    7901     8306     8533     8313     7728     7361     7530     7898 
    8048     7889     7530     7219     7264     7740     8317     8505 
    8256     7935     7673     7476     7569     7998     8459     8646 
    8471     8154     7943     7846     7904     8047     7946     7688 
    7684     7881     7966     7873     7731     7641     7555     7653 
    8106     8340     7925     7408     7356     7703     8073     8232 
    8280     8267     7973     7542     7573     8156     8800     9140 
    8873     7915     6934     6718     7310     8221     8910     9055 
    8694     8066     7530     7438     7722     7992     8255     8689 
    8931     8679     8314     8253     8418     8495     8298     7936 
    7653     7568     7708     8131     8722     9182     9271     8849 
    8009     7173     6767     7020     7815     8662     9169     9143 
    8552     7761     7298     7319     7573     7812     8090     8406 
    8546     8448     8235     8156     8264     8091     7458     7011 
    7188     7786     8510     8914     8563     7801     7447     7605 
    7834     8190     8737     8889     8541     8262     8082     7763 
    7573     7839     8417     8757     8510     8031     7901     8225 
    8681     8775     8293     7724     7535     7568     7650     7915 
    8337     8691     8985     9202     8858     7870     7022     6820 
    7115     7767     8488     8781     8622     8311     7948     7670 
    7766     8141     8374     8222     7747     7337     7479     8128 
    8748     8910     8457     7549     6821     6843     7443     8236 
    9105     9666     9393     8479     7492     6808     6836     7665 
    8580     8824     8484     8118     8082     8392     8613     8183 
    7368     6993     7298     7886     8371     8491     8124     7639 
    7577     7823     8062     8406     8577     8075     7518     7815 
    8371     8137     7443     7101     7187     7600     8243     8707 
    8706     8379     7960     7638     7553     7757     8089     8063 
    7535     7176     7446     7896     8075     8059     7898     7632 
    7596     7843     8013     7993     7874     7765     7875     8037 
    7938     7908     8199     8383     8274     8118     7979     7861 
    7882     7997     8093     8257     8487     8463     8067     7604 
    7287     7177     7468     8166     8885     9189     8978     8471 
    7866     7345     7184     7407     7751     8073     8272     8253 
    8158     8205     8336     8360     8212     7797     7091     6617 
    7029     8110     9081     9487     9259     8618     7998     7597 
    7391     7531     8176     9062     9498     8978     7901     7191 
    7115     7245     7422     7749     8043     8239     8608     8924 
    8598     7857     7461     7545     7669     7785     8291     8878 
    8765     8160     7817     7665     7323     7017     7105     7627 
    8444     9142     9215     8672     7958     7438     7310     7483 
    7728     8195     8811     8824     8110     7516     7403     7489 
    7861     8645     9185     8897     8341     8102     7839     7453 
    7377     7530     7623     7657     7647     7792     8294     8831 
    8870     8363     7762     7422     7407     7686     7935     7989 
    8182     8352     8066     7713     7800     8039     7974     7634 
    7279     7138     7464     8213     8860     9042     8781     8108 
    7368     7126     7307     7597     8067     8573     8756     8688 
    8510     8151     7843     7852     7896     7700     7642     8029 
    8494     8650     8544     8229     7682     7234     7407     8185 
    8976     9261     8928     8233     7697     7645     7805     7981 
    8310     8544     8432     8271     8183     7901     7487     7368 
    7620     7969     8313     8498     8280     7925     7786     7776 
    7885     8074     8009     7767     7778     8020     8284     8540 
    8625     8546     8492     8206     7488     6929     7191     8031 
    8711     8923     8623     7894     7288     7287     7677     8004 
    8229     8550     8752     8521     8013     7427     6972     7144 
    7923     8565     8683     8541     8415     8230     7896     7703 
    7786     7825     7855     8100     8290     8321     8328     8085 
    7643     7473     7530     7527     7646     8068     8505     8656 
    8594     8498     8287     7888     7605     7654     7805     7915 
    8105     8333     8399     8422     8631     8857     8757     8401 
    8117     7956     7792     7662     7831     8587     9563     9798 
    9034     7921     7063     7047     8128     9201     9140     8591 
    8421     8325     8190     8356     8365     7835     7508     7771 
    7965     7897     8128     8704     9117     9077     8536     7655 
    7055     7199     7842     8546     9040     9061     8496     7651 
    7173     7426     8016     8367     8521     8702     8567     7978 
    7749     8293     8768     8492     7774     7129     6918     7276 
    7823     8176     8429     8536     8216     7693     7396     7287 
    7325     7641     8071     8399     8473     8104     7506     7153 
    7087     7188     7595     8193     8540     8473     8047     7376 
    6901     7092     7873     8660     8880     8397     7537     6921 
    6974     7519     8243     8947     9240     8824     7977     7403 
    7496     7933     8301     8348     7835     7217     7380     8187 
    8733     8758     8463     7794     7132     7236     7882     8255 
    8372     8571     8723     8712     8391     7447     6315     5950 
    6413     7215     8149     8800     8731     8144     7500     7130 
    7267     7765     8002     7709     7414     7545     7967     8359 
    8455     8151     7568     7001     6835     7191     7707     8093 
    8390     8459     8091     7514     7225     7500     8086     8444 
    8322     7871     7419     7200     7160     7319     7871     8473 
    8492     8035     7572     7238     7221     7719     8341     8573 
    8395     7879     7218     7063     7669     8329     8429     8074 
    7558     7244     7547     8199     8460     8325     8222     8031 
    7647     7452     7601     7894     8114     7992     7520     7118 
    7074     7438     8129     8635     8407     7663     7011     6762 
    7128     8032     8664     8537     8132     7788     7442     7333 
    7624     8052     8425     8638     8491     8136     7975     7897 
    7616     7333     7335     7709     8348     8739     8588     8317 
    8183     7975     7776     7769     7808     7915     8162     8201 
    8013     8175     8708     8972     8729     8155     7488     7280 
    7728     8303     8722     8869     8545     8083     7851     7708 
    7682     8056     8640     8776     8328     7805     7434     7303 
    7592     8009     8158     8010     7690     7560     7878     8268 
    8392     8359     8176     7804     7445     7277     7314     7530 
    7862     8128     8152     7989     7832     7789     7797     7843 
    8075     8322     8162     7749     7527     7580     7875     8253 
    8384     8303     8162     7857     7578     7564     7562     7574 
    7890     8239     8195     7943     7844     7902     7942     7909 
    7835     7731     7673     7776     7843     7551     7165     7254 
    7758     8091     8010     7847     7701     7292     6879     7001 
    7528     8078     8515     8538     7997     7492     7516     7766 
    7948     8067     8116     8302     8739     9094     9197     9027 
    8498     7947     7755     7771     7940     8394     8841     8961 
    8959     9040     9023     8714     8140     7584     7468     7960 
    8730     9220     9184     8765     8248     7956     8012     8229 
    8517     8811     8901     8810     8692     8625     8679     8715 
    8586     8453     8326     8145     8162     8444     8735     8991 
    9252     9273     8839     8127     7496     7376     7966     8815 
    9229     8996     8386     7800     7545     7622     7722     7780 
    8027     8374     8546     8532     8344     8035     7819     7785 
    7873     8020     8158     8233     8220     8087     7805     7453 
    7280     7500     8106     8721     8842     8529     8229     8021 
    7852     7974     8317     8488     8430     8201     7807     7520 
    7628     8082     8572     8868     8905     8611     8106     7784 
    7824     8168     8680     9031     8957     8510     7938     7672 
    8006     8654     9130     9157     8789     8306     7933     7827 
    7843     7773     7877     8229     8371     8118     7711     7435 
    7516     7986     8552     8804     8554     7948     7346     7099 
    7348     7960     8596     8937     8893     8533     7997     7523 
    7437     7879     8459     8641     8494     8297     8035     7738 
    7585     7607     7684     7792     7951     7993     7773     7527 
    7535     7790     8135     8329     8289     8244     8286     8191 
    7911     7717     7836     8141     8383     8432     8201     7827 
    7643     7711     7913     8221     8521     8610     8375     7939 
    7685     7792     7973     8068     8245     8351     8121     7851 
    7843     7897     7858     7881     8083     8371     8540     8414 
    8028     7577     7237     7231     7573     7878     8009     8100 
    8044     7870     7815     7824     7871     8179     8683     9018 
    9028     8811     8452     8063     7936     8187     8518     8606 
    8471     8298     8117     7947     7923     7978     7808     7442 
    7311     7485     7630     7740     7913     7960     7844     7611 
    7186     6767     6794     7299     7804     7989     7989     7885 
    7512     7038     6941     7260     7677     8013     8098     7804 
    7372     7250     7539     7904     8055     8014     7804     7395 
    7102     7299     7754     8031     8075     7954     7616     7187 
    7021     7213     7476     7596     7570     7453     7388     7508 
    7743     7901     7900     7794     7715     7819     8090     8270 
    8228     8108     8028     8108     8421     8711     8692     8451 
    8187     8006     8016     8228     8438     8519     8556     8588 
    8533     8387     8168     7948     7974     8256     8583     8908 
    9039     8765     8399     8299     8428     8569     8626     8664 
    8607     8436     8457     8698     8835     8888     8919     8653 
    8112     7778     7851     8081     8257     8287     8078     7816 
    7936     8409     8664     8556     8333     7954     7553     7518 
    7774     8020     8205     8248     7993     7561     7202     7015 
    7090     7410     7713     7816     7808     7788     7709     7609 
    7588     7570     7546     7692     7913     7906     7713     7600 
    7620     7747     7905     7893     7805     7852     7873     7874 
    8031     8056     7974     8294     8669     8448     7947     7770 
    8037     8685     9472     9787     9242     8371     7902     7861 
    8064     8401     8550     8463     8461     8561     8522     8391 
    8309     8118     7776     7612     7697     7830     8149     8749 
    9135     8964     8498     7975     7481     7354     7792     8483 
    9057     9281     9077     8685     8382     8181     8082     8197 
    8473     8599     8437     8324     8486     8754     8993     9053 
    8689     8062     7626     7514     7589     7785     7993     8098 
    8137     8097     7963     7798     7618     7483     7427     7406 
    7473     7647     7843     7955     7919     7824     7705     7476 
    7299     7365     7587     7855     8043     7943     7649     7550 
    7736     7889     7842     7717     7650     7762     8086     8359 
    8253     7913     7740     7761     7792     7844     7917     7975 
    8046     8081     8048     7975     7896     7847     7839     7862 
    7929     8005     8014     7977     7997     8121     8266     8316 
    8326     8436     8523     8424     8275     8202     8124     8113 
    8262     8338     8240     8271     8518     8685     8706     8660 
    8471     8275     8305     8402     8318     8104     7929     7855 
    7896     8077     8220     8089     7844     7803     7985     8241 
    8356     8089     7665     7618     7879     8027     8109     8212 
    8105     7877     7857     7970     8009     7987     7898     7766 
    7712     7762     7873     7992     8046     7983     7743     7429 
    7364     7623     7920     8074     8095     7986     7786     7634 
    7641     7739     7734     7601     7507     7519     7574     7651 
    7759     7844     7844     7742     7487     7168     7160     7555 
    7950     8085     8031     7869     7735     7820     8128     8509 
    8820     8951     8907     8754     8557     8407     8328     8283 
    8276     8395     8661     8831     8754     8650     8685     8775 
    8873     8954     8872     8671     8436     8048     7701     7782 
    8104     8256     8175     7900     7512     7236     7179     7260 
    7357     7396     7457     7682     7947     7978     7800     7597 
    7452     7469     7692     7993     8289     8545     8619     8456 
    8243     8183     8274     8351     8333     8295     8241     8167 
    8186     8284     8348     8399     8448     8376     8248     8237 
    8167     7812     7449     7420     7696     8113     8380     8210 
    7789     7500     7406     7433     7587     7758     7773     7661 
    7581     7622     7763     7897     7906     7747     7526     7375 
    7256     7210     7415     7746     7803     7473     7072     6795 
    6590     6550     6698     6828     6955     7196     7407     7442 
    7333     7136     6994     7072     7304     7476     7474     7411 
    7452     7589     7774     7992     8118     8075     7975     7932 
    7970     8097     8306     8506     8563     8442     8233     8082 
    8097     8210     8297     8383     8498     8596     8702     8818 
    8845     8743     8595     8438     8394     8626     9008     9298 
    9444     9362     9022     8669     8495     8478     8590     8792 
    8993     9147     9221     9163     8981     8765     8600     8488 
    8507     8749     9022     9051     8897     8729     8565     8456 
    8473     8499     8448     8411     8410     8375     8338     8382 
    8469     8514     8587     8698     8661     8428     8087     7711 
    7460     7376     7318     7360     7582     7773     7785     7651 
    7403     7169     7074     7010     6910     6933     7148     7362 
    7392     7295     7195     7098     7092     7300     7562     7670 
    7653     7627     7708     7925     8189     8360     8344     8218 
    8162     8205     8247     8214     8212     8349     8495     8523 
    8444     8229     8032     8167     8511     8629     8537     8487 
    8398     8206     8100     8074     8020     8041     8191     8252 
    8108     7938     7908     7969     8016     8006     7932     7792 
    7601     7402     7260     7227     7335     7537     7726     7908 
    8064     8060     7982     8041     8132     8075     7936     7793 
    7716     7831     8074     8236     8216     8074     7938     7838 
    7765     7827     8054     8247     8257     8220     8251     8287 
    8298     8280     8171     7956     7708     7569     7684     7994 
    8253     8305     8212     8068     7929     7884     7939     8021 
    8087     8102     8044     7882     7682     7685     7924     8125 
    8122     8006     7879     7755     7669     7673     7738     7788 
    7773     7695     7636     7657     7711     7825     8055     8209 
    8159     8052     7881     7573     7376     7408     7474     7566 
    7762     7921     7994     8037     7943     7732     7690     7870 
    7997     7951     7870     7869     8004     8221     8303     8152 
    7952     7917     8068     8290     8471     8572     8573     8530 
    8541     8559     8518     8486     8471     8441     8444     8475 
    8440     8338     8305     8376     8473     8592     8695     8631 
    8406     8217     8147     8171     8356     8641     8784     8730 
    8606     8488     8333     8075     7834     7754     7817     7966 
    8071     7958     7709     7553     7546     7647     7767     7788 
    7749     7730     7690     7666     7758     7870     7858     7832 
    7921     8033     8122     8229     8253     8129     8008     8000 
    8063     8185     8330     8318     8163     8118     8175     8149 
    8073     8023     7983     7977     8032     8121     8224     8361 
    8482     8422     8172     7950     7905     8054     8368     8657 
