Origin Time       2025/01/13 21:19:00
Lat.              31.8
Long.             131.6
Depth. (km)       30
Mag.              6.9
Station Code      EHMH12
Station Lat.      33.4270
Station Long.     132.5055
Station Height(m) 250
Record Time       2025/01/13 21:20:07
Sampling Freq(Hz) 100Hz
Duration Time(s)  153
Dir.              4
Scale Factor      7845(gal)/8223790
Max. Acc. (gal)   7.357
Last Correction   2025/01/13 21:20:07
Memo.             
[...]
    -530     -448     -433     -481     -558     -607     -589     -488 
    -298      -32      234      405      410      249      -31     -371 
    -715    -1024    -1304    -1563    -1792    -1991    -2184    -2394 
   -2624    -2832    -2940    -2894    -2694    -2392    -2041    -1661 
   -1224     -702     -132      378      697      749      569      278 
     -43     -376     -723    -1039    -1236    -1269    -1163     -974 
    -722     -387       13      382      571      487      144     -361 
    -940    -1543    -2087    -2451    -2560    -2393    -2010    -1553 
   -1158     -843     -565     -317     -144      -60      -44      -90 
    -198     -346     -500     -662     -868    -1139    -1468    -1799 
   -2058    -2222    -2299    -2301    -2255    -2188    -2089    -1934 
   -1695    -1374    -1016     -712     -523     -452     -467     -523 
    -603     -720     -893    -1117    -1336    -1462    -1460    -1374 
   -1248    -1115     -965     -766     -526     -292     -113      -25 
     -71     -228     -399     -504     -504     -391     -228     -118 
    -113     -178     -243     -251     -220     -210     -274     -415 
    -600     -791     -957    -1096    -1243    -1439    -1684    -1926 
   -2070    -2093    -2070    -2077    -2112    -2145    -2155    -2162 
   -2204    -2286    -2378    -2443    -2457    -2407    -2304    -2166 
   -1992    -1779    -1553    -1332    -1102     -869     -668     -540 
    -521     -606     -751     -907    -1012    -1011     -908     -780 
    -687     -657     -691     -746     -788     -838     -939    -1084 
   -1236    -1379    -1522    -1661    -1782    -1881    -1975    -2062 
   -2103    -2053    -1896    -1632    -1290     -915     -535     -159 
     248      738     1300     1814     2137     2170     1919     1524 
    1138      807      487      125     -272     -648     -957    -1205 
   -1413    -1580    -1672    -1661    -1583    -1520    -1528    -1601 
   -1705    -1799    -1834    -1764    -1586    -1371    -1217    -1173 
   -1219    -1313    -1429    -1572    -1745    -1895    -1961    -1907 
   -1706    -1386    -1048     -793     -635     -507     -317      -51 
     224      444      575      645      714      804      884      865 
     654      214     -400    -1048    -1591    -1971    -2196    -2293 
   -2274    -2153    -1969    -1776    -1617    -1502    -1418    -1348 
   -1297    -1305    -1402    -1528    -1564    -1455    -1220     -932 
    -680     -508     -432     -481     -702    -1089    -1532    -1850 
   -1918    -1721    -1363    -1019     -828     -826     -966    -1154 
   -1325    -1472    -1599    -1703    -1761    -1703    -1455    -1008 
    -409      233      777     1125     1239     1131      845      438 
      -2     -373     -622     -776     -904    -1082    -1345    -1645 
   -1907    -2091    -2199    -2253    -2254    -2169    -1960    -1618 
   -1193     -773     -432     -186      -18       87      121       83 
      13      -25       16      136      252      228      -16     -423 
    -876    -1293    -1651    -1960    -2239    -2488    -2682    -2813 
   -2894    -2928    -2901    -2825    -2728    -2627    -2515    -2365 
   -2137    -1825    -1475    -1147     -878     -675     -515     -360 
    -209     -122     -143     -245     -387     -527     -616     -587 
    -388      -39      394      830     1200     1441     1513     1417 
    1190      907      664      499      365      187      -63     -340 
    -567     -726     -899    -1215    -1717    -2293    -2732    -2901 
   -2824    -2600    -2342    -2164    -2127    -2195    -2266    -2259 
   -2157    -2000    -1846    -1732    -1655    -1580    -1471    -1325 
   -1171    -1021     -859     -680     -496     -309     -132        6 
      85       63      -93     -367     -703    -1050    -1391    -1709 
   -1950    -2076    -2101    -2122    -2250    -2475    -2648    -2639 
   -2446    -2153    -1831    -1491    -1082     -598     -133      194 
     349      375      318      160     -136     -545     -938    -1181 
   -1220    -1117     -982     -889     -828     -722     -513     -251 
     -41       67       99      108      160      292      486      661 
     734      637      352      -98     -688    -1387    -2120    -2771 
   -3229    -3441    -3437    -3262    -2949    -2539    -2087    -1626 
   -1185     -822     -587     -453     -352     -225      -44      186 
     483      855     1227     1448     1421     1140      695      183 
    -365     -935    -1472    -1923    -2289    -2632    -3021    -3439 
   -3807    -4054    -4172    -4194    -4133    -3974    -3732    -3451 
   -3133    -2758    -2330    -1903    -1570    -1356    -1177     -946 
    -643     -267      176      654     1120     1507     1719     1703 
    1495     1188      859      562      305       54     -238     -572 
    -900    -1170    -1364    -1483    -1517    -1458    -1317    -1150 
   -1020     -951     -924     -938     -999    -1101    -1202    -1221 
   -1105     -872     -595     -364     -241     -195     -149      -62 
      10      -20     -179     -390     -588     -828    -1188    -1656 
   -2153    -2597    -2967    -3294    -3559    -3689    -3601    -3284 
   -2820    -2334    -1907    -1563    -1312    -1152    -1063    -1004 
    -892     -661     -324       41      344      523      573      529 
     454      394      357      324      264      153      -40     -340 
    -695    -1044    -1366    -1664    -1933    -2107    -2100    -1902 
   -1582    -1254    -1034     -949     -928     -905     -846     -742 
    -614     -483     -345     -193      -52       28       35        0 
     -33      -51      -72     -143     -275     -444     -616     -756 
    -835     -827     -684     -417     -170     -116     -284     -602 
    -980    -1332    -1599    -1756    -1803    -1795    -1825    -1935 
   -2087    -2205    -2247    -2165    -1890    -1420     -868     -351 
      90      469      793     1011     1021      787      364     -167 
    -753    -1336    -1826    -2114    -2142    -1935    -1593    -1229 
    -915     -707     -641     -689     -792     -923    -1074    -1225 
   -1343    -1399    -1394    -1363    -1395    -1556    -1811    -2085 
   -2336    -2586    -2878    -3183    -3395    -3397    -3132    -2631 
   -2018    -1406     -849     -367       55      481      967     1525 
    2097     2570     2836     2864     2708     2432     2070     1626 
    1116      584      108     -255     -517     -751    -1026    -1360 
   -1738    -2122    -2477    -2783    -3014    -3117    -3057    -2868 
   -2610    -2336    -2107    -1957    -1892    -1918    -2016    -2112 
   -2111    -1964    -1696    -1348     -935     -467        1      325 
     338        2     -544    -1078    -1439    -1614    -1659    -1614 
   -1513    -1370    -1169     -911     -634     -402     -256     -199 
    -213     -260     -313     -357     -379     -369     -324     -248 
    -164     -113     -147     -272     -425     -514     -518     -500 
    -564     -768    -1084    -1431    -1740    -2004    -2255    -2528 
   -2808    -3018    -3049    -2839    -2415    -1857    -1246     -665 
    -221        0      -13     -214     -538     -897    -1170    -1283 
   -1262    -1181    -1101    -1043     -978     -899     -880    -1007 
   -1246    -1476    -1614    -1648    -1611    -1518    -1350    -1093 
    -787     -521     -368     -324     -319     -319     -367     -554 
    -927    -1439    -1942    -2276    -2353    -2176    -1806    -1304 
    -715     -109      399      703      718      425      -99     -711 
   -1258    -1610    -1719    -1659    -1582    -1582    -1603    -1548 
   -1417    -1302    -1296    -1394    -1516    -1601    -1644    -1624 
   -1474    -1158     -730     -309      -10      108       64     -108 
    -421     -872    -1382    -1849    -2227    -2533    -2790    -2988 
   -3106    -3086    -2837    -2328    -1636     -907     -290      128 
     349      399      311      155       28       -9        8       -5 
    -118     -355     -666     -950    -1107    -1080     -880     -595 
    -341     -159      -56      -58     -197     -475     -816    -1074 
   -1136    -1026     -866     -745     -645     -507     -359     -324 
    -492     -815    -1171    -1480    -1722    -1880    -1890    -1671 
   -1231     -695     -221      110      363      638      928     1139 
    1215     1162     1032      880      712      503      232      -83 
    -423     -810    -1262    -1750    -2199    -2544    -2789    -2992 
   -3194    -3337    -3315    -3079    -2678    -2185    -1626    -1017 
    -426       58      359      448      321      -31     -594    -1308 
   -2074    -2766    -3249    -3456    -3407    -3173    -2852    -2528 
   -2218    -1880    -1512    -1165     -859     -538     -157      252 
     618      904     1127     1297     1408     1412     1244      908 
     510      190       21      -39      -81     -133     -184     -245 
    -372     -580     -796     -945     -989     -938     -834     -692 
    -502     -344     -365     -606     -967    -1310    -1556    -1707 
   -1804    -1845    -1813    -1736    -1679    -1707    -1798    -1848 
   -1826    -1819    -1921    -2162    -2515    -2880    -3176    -3388 
   -3519    -3588    -3650    -3775    -3993    -4260    -4476    -4550 
   -4434    -4121    -3626    -2967    -2178    -1329     -550        0 
     174      -68     -575    -1097    -1458    -1593    -1529    -1306 
    -893     -279      437     1113     1653     2050     2355     2575 
    2636     2501     2251     2015     1907     1975     2184     2450 
    2690     2841     2849     2668     2265     1636      818     -113 
   -1071    -1995    -2821    -3465    -3867    -4043    -4047    -3939 
   -3735    -3403    -2941    -2417    -1903    -1421     -958     -529 
    -193        6      101      143      183      279      467      745 
    1032     1177     1046      641       76     -491     -945    -1212 
   -1258    -1094     -787     -415      -51      271      531      715 
     811      795      653      392       78     -152     -174       17 
     314      622      922     1232     1498     1597     1437      999 
     324     -484    -1313    -2062    -2650    -3068    -3402    -3738 
   -4112    -4498    -4835    -5088    -5243    -5285    -5231    -5139 
   -5063    -5030    -5011    -4968    -4851    -4615    -4255    -3832 
   -3393    -2928    -2408    -1806    -1129     -450      141      599 
     927     1173     1367     1503     1559     1495     1302     1026 
     718      425      198       66       -5      -60     -120     -163 
    -151      -48      151      422      718     1019     1320     1597 
    1822     1972     2004     1861     1472      785     -183    -1339 
   -2525    -3574    -4391    -4959    -5290    -5395    -5269    -4905 
   -4333    -3635    -2917    -2258    -1674    -1113     -525       47 
     486      729      788      658      311     -237     -864    -1359 
   -1553    -1429    -1096     -684     -275       87      351      471 
     448      318      163       70      106      306      652     1050 
    1340     1371     1075      440     -496    -1611    -2736    -3708 
   -4396    -4737    -4765    -4599    -4361    -4148    -4028    -4037 
   -4175    -4391    -4587    -4631    -4391    -3781    -2820    -1633 
    -411      660     1493     2069     2369     2378     2137     1738 
    1304      939      697      562      495      453      378      197 
    -102     -463     -819    -1163    -1571    -2115    -2760    -3364 
   -3777    -3932    -3863    -3658    -3403    -3142    -2864    -2527 
   -2095    -1567     -988     -432       55      467      797     1026 
    1132     1124     1039      905      745      584      460      413 
     472      585      656      629      510      298        9     -286 
    -508     -575     -415      -51      398      795     1053     1146 
    1105     1012      924      822      661      421      129     -151 
    -394     -618     -823    -1013    -1192    -1347    -1480    -1593 
   -1653    -1645    -1605    -1614    -1744    -1968    -2143    -2108 
   -1790    -1202     -444      310      897     1255     1375     1232 
     835      248     -479    -1356    -2385    -3491    -4548    -5449 
   -6160    -6709    -7144    -7446    -7499    -7210    -6613    -5841 
   -5023    -4202    -3350    -2481    -1648     -880     -160      576 
    1406     2320     3202     3897     4305     4422     4309     4020 
    3597     3110     2664     2322     2026     1702     1345      990 
     645      257     -263     -965    -1771    -2512    -3040    -3281 
   -3230    -2925    -2448    -1895    -1329     -812     -409     -153 
     -47      -67     -156     -247     -301     -328     -380     -535 
    -834    -1229    -1598    -1853    -2008    -2127    -2247    -2349 
   -2380    -2335    -2268    -2238    -2280    -2394    -2563    -2779 
   -3030    -3279    -3480    -3588    -3586    -3505    -3376    -3223 
   -3069    -2911    -2710    -2411    -1962    -1374     -727      -90 
     481      961     1348     1651     1876     2045     2160     2203 
    2157     1998     1694     1269      801      363      -31     -414 
    -845    -1358    -1968    -2681    -3519    -4507    -5606    -6673 
   -7538    -8118    -8429    -8522    -8419    -8104    -7582    -6905 
   -6142    -5344    -4540    -3728    -2871    -1915     -812      467 
    1865     3248     4477     5468     6173     6590     6745     6681 
    6420     5946     5242     4359     3429     2602     1954     1431 
     923      372     -211     -791    -1324    -1776    -2099    -2259 
   -2262    -2130    -1873    -1505    -1039     -521      -22      427 
     837     1189     1456     1634     1719     1717     1622     1421 
    1090      611      -21     -773    -1557    -2265    -2820    -3245 
   -3600    -3912    -4180    -4403    -4581    -4729    -4869    -5013 
   -5162    -5305    -5405    -5404    -5236    -4846    -4237    -3487 
   -2686    -1898    -1146     -423      263      870     1359     1714 
    1976     2230     2548     2960     3434     3878     4199     4357 
    4369     4255     4013     3627     3090     2432     1744     1086 
     464      -86     -484     -695     -805     -926    -1097    -1297 
   -1507    -1755    -2097    -2569    -3095    -3559    -3904    -4159 
   -4380    -4599    -4804    -4980    -5119    -5188    -5127    -4882 
   -4428    -3790    -3037    -2236    -1472     -823     -328       12 
     180      125     -166     -625    -1163    -1710    -2227    -2693 
   -3092    -3427    -3682    -3847    -3929    -3909    -3754    -3464 
   -3100    -2737    -2397    -2038    -1603    -1093     -594     -202 
      60      251      403      510      541      502      459      475 
     562      696      828      919      965      958      878      710 
     438       90     -257     -527     -679     -719     -688     -606 
    -465     -264      -35      144      218      222      268      434 
     720     1061     1405     1748     2080     2326     2390     2224 
    1852     1341      751      155     -359     -743    -1012    -1233 
   -1491    -1823    -2219    -2655    -3095    -3488    -3778    -3919 
   -3917    -3870    -3874    -3969    -4144    -4363    -4588    -4791 
   -4943    -5043    -5107    -5155    -5186    -5159    -5004    -4639 
   -4055    -3325    -2524    -1705     -889      -98      598     1112 
    1397     1459     1343     1115      828      503      145     -228 
    -600     -954    -1282    -1590    -1892    -2200    -2481    -2675 
   -2725    -2602    -2303    -1846    -1259     -568      190      965 
    1691     2320     2830     3207     3427     3474     3364     3163 
    2972     2852     2776     2671     2457     2091     1583      989 
     371     -233     -834    -1445    -2030    -2540    -2967    -3323 
   -3613    -3805    -3859    -3788    -3646    -3484    -3330    -3187 
   -3024    -2839    -2671    -2538    -2425    -2315    -2199    -2088 
   -1984    -1840    -1597    -1235     -780     -301      125      476 
     784     1048     1210     1221     1105      939      799      704 
     627      534      411      244        9     -326     -758    -1228 
   -1668    -2030    -2270    -2369    -2351    -2254    -2110    -1948 
   -1764    -1530    -1242     -958     -773     -741     -864    -1104 
   -1431    -1818    -2208    -2489    -2539    -2316    -1883    -1355 
    -824     -349       29      259      291      152      -63     -264 
    -425     -595     -815    -1042    -1213    -1329    -1417    -1480 
   -1512    -1501    -1466    -1453    -1499    -1574    -1601    -1499 
   -1212     -724      -83      621     1282     1804     2119     2191 
    2018     1651     1150      546     -126     -804    -1416    -1896 
   -2193    -2307    -2304    -2258    -2200    -2133    -2053    -1971 
   -1902    -1844    -1764    -1626    -1409    -1111     -751     -353 
      47      410      710      938     1080     1115     1017      795 
     481      118     -278     -687    -1071    -1364    -1522    -1557 
   -1537    -1525    -1543    -1561    -1541    -1474    -1389    -1321 
   -1278    -1239    -1182    -1090     -949     -756     -515     -237 
      40      244      298      174     -109     -476     -819    -1067 
   -1212    -1291    -1368    -1467    -1586    -1740    -1946    -2201 
   -2477    -2725    -2929    -3110    -3296    -3489    -3642    -3707 
   -3692    -3645    -3593    -3522    -3396    -3221    -3030    -2856 
   -2685    -2451    -2091    -1614    -1101     -639     -287      -40 
     151      340      553      789     1038     1300     1582     1867 
    2116     2316     2494     2691     2884     2971     2845     2482 
    1950     1347      756      202     -303     -733    -1070    -1339 
   -1560    -1749    -1917    -2064    -2181    -2269    -2340    -2396 
   -2407    -2346    -2218    -2029    -1788    -1497    -1150     -757 
    -376      -90       44       29      -89     -257     -445     -676 
    -989    -1385    -1806    -2195    -2524    -2803    -3064    -3333 
   -3616    -3897    -4136    -4309    -4398    -4386    -4263    -4028 
   -3712    -3383    -3096    -2848    -2592    -2295    -1949    -1556 
   -1113     -619      -72      498     1051     1567     2060     2558 
    3053     3476     3742     3807     3699     3496     3264     3019 
    2752     2451     2118     1764     1370      899      342     -260 
    -858    -1405    -1896    -2367    -2824    -3223    -3520    -3703 
   -3815    -3910    -4033    -4194    -4361    -4479    -4484    -4347 
   -4082    -3720    -3265    -2717    -2103    -1474     -849     -203 
     467     1124     1691     2079     2250     2215     1987     1583 
    1066      511      -29     -515     -911    -1182    -1317    -1344 
   -1301    -1212    -1085     -904     -660     -376     -108      106 
     260      357      392      364      265       79     -197     -538 
    -893    -1205    -1429    -1567    -1647    -1711    -1814    -1966 
   -2128    -2242    -2289    -2292    -2300    -2339    -2385    -2390 
   -2330    -2200    -1998    -1737    -1480    -1302    -1228    -1228 
   -1247    -1244    -1209    -1143    -1039     -901     -733     -542 
