Origin Time       2025/01/13 21:19:00
Lat.              31.8
Long.             131.6
Depth. (km)       30
Mag.              6.9
Station Code      EHMH11
Station Lat.      33.5807
Station Long.     132.6011
Station Height(m) 110
Record Time       2025/01/13 21:20:11
Sampling Freq(Hz) 100Hz
Duration Time(s)  134
Dir.              1
Scale Factor      2942(gal)/8224139
Max. Acc. (gal)   1.564
Last Correction   2025/01/13 21:20:12
Memo.             
[...]
   48639    48716    48832    48946    49044    49045    49009    49025 
   49019    49010    49129    49303    49401    49434    49435    49438 
   49462    49466    49454    49478    49539    49581    49542    49465 
   49466    49520    49543    49554    49547    49486    49432    49404 
   49356    49319    49310    49270    49203    49177    49212    49226 
   49153    49064    49015    48953    48907    48951    49010    49038 
   49079    49060    48971    48971    49059    49138    49246    49365 
   49439    49531    49609    49586    49557    49586    49562    49457 
   49343    49256    49235    49272    49302    49341    49373    49360 
   49403    49518    49539    49469    49443    49446    49426    49401 
   49323    49202    49153    49138    49086    49088    49161    49191 
   49199    49281    49416    49545    49659    49793    49939    50049 
   50153    50287    50341    50261    50182    50118    49978    49833 
   49767    49688    49559    49428    49330    49334    49445    49569 
   49636    49624    49565    49535    49512    49431    49349    49287 
   49180    49030    48874    48749    48703    48645    48516    48466 
   48524    48559    48617    48737    48843    48968    49138    49285 
   49435    49557    49586    49635    49698    49626    49501    49464 
   49481    49573    49734    49850    49917    49921    49823    49767 
   49808    49771    49701    49723    49700    49574    49461    49339 
   49184    49042    48890    48713    48510    48266    48070    47964 
   47879    47871    47981    48055    48057    48088    48119    48163 
   48303    48439    48525    48645    48720    48693    48698    48771 
   48856    48963    49042    49088    49175    49266    49306    49351 
   49420    49501    49608    49690    49744    49831    49918    50005 
   50147    50280    50372    50487    50593    50676    50776    50831 
   50823    50814    50791    50782    50788    50669    50479    50363 
   50224    50022    49842    49639    49451    49346    49204    49038 
   48969    48886    48766    48779    48863    48847    48695    48423 
   48150    47981    47871    47868    48006    48146    48280    48454 
   48574    48671    48843    49021    49202    49415    49567    49665 
   49746    49736    49677    49696    49765    49804    49802    49754 
   49684    49630    49561    49472    49404    49346    49253    49122 
   49011    48975    48994    49029    49054    49042    49002    48938 
   48851    48793    48783    48793    48852    48964    49053    49122 
   49202    49238    49221    49192    49144    49090    49071    49063 
   49068    49092    49083    49059    49064    49045    49022    49095 
   49229    49349    49468    49551    49589    49634    49657    49635 
   49619    49550    49373    49177    49034    48955    48906    48838 
   48787    48780    48745    48698    48667    48573    48471    48482 
   48550    48651    48813    48934    49023    49160    49241    49245 
   49293    49369    49484    49682    49863    49991    50082    50040 
   49933    49887    49813    49717    49693    49638    49543    49508 
   49488    49551    49754    49859    49797    49744    49694    49612 
   49549    49468    49376    49304    49210    49157    49208    49262 
   49302    49381    49449    49478    49472    49392    49300    49264 
   49248    49206    49113    49021    49033    49086    49060    49032 
   49037    49019    49046    49115    49086    49006    48917    48701 
   48452    48317    48196    48084    48076    48055    47965    47941 
   48035    48222    48479    48768    49106    49474    49783    50071 
   50372    50587    50742    50858    50804    50642    50550    50494 
   50403    50307    50197    50091    50021    49920    49746    49526 
   49287    49123    49081    49072    49030    48959    48853    48752 
   48670    48540    48420    48386    48357    48340    48451    48614 
   48774    49023    49315    49511    49623    49707    49771    49858 
   49998    50160    50282    50317    50274    50167    49994    49786 
   49558    49291    49038    48903    48887    48925    48991    49054 
   49075    49068    49072    49117    49195    49258    49289    49327 
   49369    49389    49416    49438    49377    49239    49099    49017 
   49002    49032    49102    49207    49260    49218    49141    49033 
   48891    48825    48840    48824    48789    48778    48752    48786 
   48925    49048    49111    49189    49270    49356    49495    49686 
   49890    50037    50080    50080    50095    50098    50118    50171 
   50172    50130    50120    50086    49995    49909    49832    49762 
   49743    49769    49824    49874    49832    49720    49663    49648 
   49596    49576    49612    49572    49431    49319    49269    49222 
   49211    49291    49393    49441    49437    49422    49435    49496 
   49590    49670    49678    49620    49557    49485    49338    49158 
   49064    49071    49121    49199    49279    49296    49246    49229 
   49310    49455    49603    49740    49885    50022    50112    50161 
   50237    50311    50276    50133    49937    49713    49511    49358 
   49231    49162    49140    49106    49118    49184    49237    49288 
   49303    49226    49141    49050    48878    48698    48551    48354 
   48161    48041    47956    47925    47946    47935    47920    47968 
   48058    48208    48417    48593    48714    48852    49011    49145 
   49229    49241    49175    49052    48961    48972    48982    48879 
   48737    48651    48605    48601    48649    48714    48762    48759 
   48706    48687    48753    48834    48883    48905    48902    48894 
   48895    48937    49054    49188    49252    49269    49316    49410 
   49507    49547    49503    49418    49349    49329    49330    49292 
   49237    49233    49242    49199    49127    49071    49053    49046 
   48971    48883    48919    49025    49102    49212    49356    49461 
   49567    49682    49750    49823    49952    50090    50230    50380 
   50522    50653    50683    50534    50355    50282    50294    50342 
   50329    50166    49927    49707    49495    49310    49172    49054 
   48995    49022    49029    48991    49021    49127    49295    49567 
   49882    50098    50171    50102    49952    49856    49843    49825 
   49806    49852    49925    49904    49754    49577    49474    49473 
   49563    49715    49882    50022    50093    50099    50117    50170 
   50245    50333    50348    50286    50287    50337    50301    50242 
   50224    50152    50035    49905    49734    49589    49505    49362 
   49152    48955    48755    48541    48346    48162    48022    47930 
   47827    47754    47773    47811    47826    47830    47779    47672 
   47603    47640    47812    48103    48393    48585    48690    48786 
   48944    49145    49319    49450    49559    49655    49727    49758 
   49773    49825    49883    49897    49878    49802    49651    49515 
   49473    49508    49599    49708    49794    49855    49867    49816 
   49748    49705    49697    49736    49786    49790    49767    49715 
   49573    49376    49195    49034    48925    48878    48811    48712 
   48628    48541    48431    48320    48222    48154    48185    48331 
   48475    48536    48612    48775    48944    49041    49106    49208 
   49400    49690    50002    50221    50307    50314    50313    50344 
   50360    50296    50152    49960    49778    49666    49590    49507 
   49457    49438    49437    49496    49569    49559    49511    49473 
   49430    49395    49353    49302    49322    49389    49419    49457 
   49482    49368    49154    48929    48690    48564    48633    48733 
   48763    48747    48685    48655    48686    48658    48624    48656 
   48622    48529    48478    48442    48451    48494    48433    48378 
   48477    48567    48573    48624    48736    48879    49040    49172 
   49310    49464    49542    49531    49466    49334    49237    49230 
   49199    49150    49183    49219    49199    49202    49210    49142 
   49023    48910    48810    48739    48739    48825    48945    49064 
   49192    49241    49173    49134    49140    49060    48973    48971 
   48965    48998    49119    49150    49061    48994    48917    48837 
   48864    48921    48903    48844    48756    48694    48721    48797 
   48938    49145    49285    49350    49430    49489    49545    49692 
   49870    49990    50099    50199    50217    50153    50044    49891 
   49736    49604    49464    49304    49148    49018    48959    48984 
   49044    49103    49156    49146    49052    48938    48888    48961 
   49115    49248    49376    49512    49553    49519    49532    49565 
   49561    49573    49603    49603    49566    49519    49526    49627 
   49775    49914    50005    50028    50002    49909    49759    49658 
   49634    49640    49704    49819    49924    50056    50224    50340 
   50398    50414    50348    50275    50334    50511    50670    50703 
   50592    50399    50230    50166    50109    49932    49690    49441 
   49110    48762    48551    48463    48421    48413    48419    48402 
   48358    48365    48498    48668    48767    48849    48941    49034 
   49195    49374    49509    49708    49943    50089    50205    50284 
   50194    50035    49947    49860    49723    49578    49473    49427 
   49350    49171    48959    48767    48621    48568    48523    48401 
   48330    48339    48352    48432    48627    48855    49069    49225 
   49249    49233    49295    49378    49415    49423    49424    49450 
   49473    49403    49302    49265    49189    49013    48852    48724 
   48610    48612    48691    48712    48763    48906    49005    49067 
   49157    49142    49021    48942    48880    48829    48876    48924 
   48928    48955    48887    48689    48544    48478    48409    48355 
   48296    48208    48100    47969    47931    48085    48286    48436 
   48577    48667    48687    48655    48520    48409    48510    48714 
   48878    49041    49245    49528    49850    50028    50068    50134 
   50207    50198    50147    50110    50147    50244    50282    50237 
   50202    50197    50186    50133    50052    50040    50099    50134 
   50170    50256    50336    50377    50348    50220    50113    50107 
   50122    50144    50183    50164    50093    50059    50072    50082 
   50079    50130    50268    50376    50367    50307    50249    50174 
   50128    50130    50063    49885    49734    49643    49501    49312 
   49171    49084    49036    49011    48941    48856    48867    48914 
   48918    48971    49106    49214    49223    49154    49100    49113 
   49131    49096    48995    48860    48780    48703    48492    48265 
   48190    48203    48262    48344    48370    48415    48517    48494 
   48336    48236    48244    48298    48351    48389    48447    48455 
   48359    48304    48354    48411    48469    48537    48570    48637 
   48771    48859    48919    49032    49121    49175    49269    49412 
   49566    49663    49677    49689    49732    49754    49751    49673 
   49468    49291    49281    49334    49346    49333    49257    49121 
   49032    48976    48857    48725    48654    48591    48486    48332 
   48150    48003    47895    47744    47537    47372    47336    47409 
   47471    47487    47538    47615    47642    47660    47700    47771 
   47945    48199    48379    48487    48641    48859    49076    49277 
   49505    49728    49858    49910    49945    49940    49939    50006 
   50055    50033    49986    49863    49705    49663    49657    49542 
   49414    49368    49407    49536    49682    49746    49763    49837 
   49989    50122    50157    50211    50398    50553    50569    50618 
   50703    50649    50529    50484    50456    50414    50361    50213 
   49987    49815    49705    49569    49362    49138    48982    48919 
   48914    48884    48756    48633    48622    48575    48417    48292 
   48199    48092    48096    48230    48402    48595    48736    48809 
   49010    49354    49624    49798    49993    50209    50445    50719 
   50997    51227    51349    51383    51385    51322    51208    51101 
   50947    50745    50596    50437    50184    49952    49779    49590 
   49368    49122    48861    48622    48442    48398    48501    48621 
   48740    48932    49131    49310    49531    49744    49932    50191 
   50441    50568    50652    50733    50768    50780    50757    50684 
   50623    50525    50311    50091    49947    49802    49644    49580 
   49693    49929    50156    50395    50746    51093    51290    51371 
   51316    51144    51096    51182    51178    51169    51271    51263 
   51066    50842    50626    50430    50328    50237    50103    50013 
   49937    49783    49616    49530    49495    49419    49264    49106 
   48972    48762    48509    48328    48153    47927    47702    47460 
   47247    47169    47194    47286    47453    47594    47680    47819 
   47995    48158    48367    48628    48903    49192    49424    49549 
   49620    49681    49769    49918    50055    50141    50247    50357 
   50440    50550    50680    50753    50788    50818    50859    50892 
   50807    50614    50442    50255    49987    49739    49563    49449 
   49357    49167    48911    48811    48841    48878    49059    49428 
   49783    50068    50325    50485    50522    50446    50206    49812 
   49342    48803    48199    47605    47117    46683    46184    45689 
   45354    45171    45030    44930    44972    45238    45661    46106 
   46558    47081    47655    48149    48432    48568    48732    48948 
   49117    49226    49303    49345    49405    49470    49449    49438 
   49504    49462    49302    49256    49337    49411    49464    49455 
   49376    49357    49432    49503    49557    49626    49689    49736 
   49746    49717    49666    49569    49492    49523    49562    49562 
   49611    49627    49522    49438    49426    49415    49469    49620 
   49782    49931    50083    50256    50450    50630    50814    51009 
   51116    51173    51270    51308    51282    51314    51320    51241 
   51198    51139    50962    50757    50518    50211    50005    49918 
   49781    49643    49620    49590    49453    49322    49275    49297 
   49396    49558    49732    49959    50288    50580    50669    50672 
   50787    51016    51285    51538    51686    51723    51736    51633 
   51313    50981    50841    50782    50658    50438    50128    49797 
   49512    49200    48832    48486    48163    47790    47345    46866 
   46430    46103    45931    45924    45972    46005    46093    46197 
   46198    46152    46172    46319    46608    46935    47236    47521 
   47687    47741    47825    47887    47915    48033    48118    48053 
   48004    47962    47815    47706    47661    47541    47414    47374 
   47420    47610    47904    48178    48444    48717    48959    49181 
   49374    49562    49836    50129    50361    50614    50869    50990 
   51048    51175    51355    51565    51829    52073    52207    52250 
   52273    52243    52147    52099    52099    52046    51984    51918 
   51733    51486    51294    51113    50926    50742    50504    50228 
   49967    49739    49603    49546    49423    49223    49063    48924 
   48747    48590    48498    48465    48508    48602    48691    48798 
   48959    49152    49341    49482    49549    49605    49743    49956 
   50166    50342    50461    50463    50353    50199    50041    49908 
   49800    49693    49588    49422    49142    48884    48740    48595 
   48458    48452    48513    48505    48442    48388    48351    48331 
   48323    48297    48230    48157    48087    47977    47842    47706 
   47571    47494    47466    47356    47181    47083    47077    47065 
   47027    46998    47020    47074    47121    47201    47345    47526 
   47758    48046    48300    48477    48617    48753    48921    49113 
   49275    49415    49540    49596    49593    49577    49528    49462 
   49418    49364    49284    49273    49397    49558    49663    49723 
   49720    49693    49793    49963    50005    49978    50020    50029 
   49885    49609    49258    48890    48537    48181    47810    47468 
   47223    47069    46913    46726    46548    46398    46342    46458 
   46680    46904    47127    47340    47526    47706    47899    48120 
   48355    48562    48767    49048    49399    49770    50120    50383 
   50534    50650    50818    50996    51097    51116    51111    51100 
   51054    50942    50777    50668    50684    50745    50761    50768 
   50788    50826    50923    51058    51151    51221    51325    51441 
   51514    51499    51425    51352    51264    51166    51138    51120 
   51028    50927    50792    50529    50229    49950    49635    49385 
   49218    48982    48752    48654    48562    48398    48200    47962 
   47757    47650    47565    47475    47429    47413    47441    47478 
   47421    47375    47459    47544    47586    47694    47827    47953 
   48111    48254    48408    48682    49026    49384    49732    49959 
   50093    50284    50495    50665    50832    50942    50974    51017 
   50994    50809    50576    50372    50172    50008    49877    49758 
   49711    49713    49662    49555    49468    49430    49441    49474 
   49542    49630    49627    49535    49472    49423    49408    49509 
   49619    49673    49790    49885    49810    49698    49658    49632 
   49627    49636    49621    49608    49573    49495    49442    49442 
   49482    49553    49585    49576    49561    49469    49296    49131 
   48960    48795    48708    48621    48477    48343    48178    47939 
   47734    47592    47494    47482    47538    47638    47821    48016 
   48185    48411    48639    48813    49045    49333    49554    49705 
   49779    49788    49821    49842    49796    49732    49604    49415 
   49258    49063    48829    48710    48636    48558    48635    48770 
   48797    48820    48817    48720    48714    48817    48879    48986 
   49152    49245    49333    49454    49501    49511    49511    49438 
   49353    49299    49238    49206    49158    49041    48976    48963 
   48913    48937    49034    49069    49140    49284    49368    49455 
   49646    49817    49916    49991    50060    50182    50334    50352 
   50228    50101    49994    49864    49654    49318    48944    48654 
   48423    48243    48161    48109    48031    48039    48188    48400 
   48655    48953    49218    49428    49651    49923    50225    50521 
   50760    50913    51007    51088    51186    51282    51364    51418 
   51397    51318    51255    51186    51089    51020    50976    50939 
   50970    51043    51070    51089    51170    51302    51472    51667 
   51827    51935    52039    52149    52204    52178    52107    51999 
   51838    51672    51548    51426    51246    50974    50606    50193 
   49777    49372    49019    48712    48381    48068    47839    47636 
   47429    47285    47170    47028    46889    46747    46572    46400 
   46246    46090    45968    45877    45775    45723    45740    45755 
   45778    45856    45970    46099    46237    46379    46526    46631 
   46678    46749    46851    46890    46824    46665    46460    46305 
   46219    46126    46026    45983    45986    46033    46175    46396 
