Origin Time       2025/01/13 21:19:00
Lat.              31.8
Long.             131.6
Depth. (km)       30
Mag.              6.9
Station Code      EHMH10
Station Lat.      34.1918
Station Long.     133.0581
Station Height(m) -95
Record Time       2025/01/13 21:20:27
Sampling Freq(Hz) 100Hz
Duration Time(s)  135
Dir.              1
Scale Factor      3923(gal)/8224838
Max. Acc. (gal)   0.819
Last Correction   2025/01/13 21:20:27
Memo.             
[...]
   19693    19731    19795    19861    19912    19958    20020    20090 
   20143    20163    20167    20183    20205    20201    20170    20148 
   20167    20214    20247    20247    20228    20212    20197    20160 
   20101    20050    20025    20016    20013    20013    20004    19997 
   20004    20013    20017    20013    19992    19965    19938    19894 
   19826    19739    19665    19629    19608    19581    19565    19577 
   19596    19599    19604    19645    19738    19866    19982    20054 
   20115    20189    20254    20293    20308    20317    20331    20331 
   20297    20250    20206    20175    20151    20132    20124    20139 
   20169    20189    20200    20220    20266    20320    20358    20371 
   20387    20406    20387    20326    20279    20290    20344    20374 
   20317    20202    20106    20061    20036    20001    19961    19948 
   19989    20039    20050    20025    19988    19953    19930    19917 
   19899    19853    19786    19726    19688    19666    19630    19554 
   19457    19398    19390    19377    19325    19245    19187    19179 
   19188    19168    19124    19094    19084    19074    19068    19102 
   19182    19279    19348    19364    19352    19344    19333    19302 
   19268    19276    19336    19387    19395    19380    19383    19429 
   19471    19430    19322    19221    19176    19209    19299    19404 
   19496    19564    19623    19711    19828    19928    19980    19985 
   19967    19958    19980    20007    20020    20032    20061    20105 
   20137    20132    20102    20066    20028    20005    20007    20009 
   20001    20007    20013    20009    20008    20009    20005    19992 
   19946    19873    19828    19835    19870    19890    19857    19785 
   19731    19727    19745    19741    19692    19615    19562    19572 
   19612    19634    19608    19550    19521    19534    19558    19577 
   19593    19614    19647    19683    19701    19701    19703    19720 
   19726    19685    19611    19548    19510    19475    19413    19338 
   19294    19311    19368    19425    19469    19526    19602    19664 
   19689    19703    19719    19723    19710    19689    19693    19731 
   19776    19813    19839    19839    19818    19778    19707    19629 
   19592    19602    19624    19627    19599    19560    19534    19543 
   19596    19670    19741    19801    19839    19846    19836    19847 
   19886    19936    19994    20069    20135    20174    20178    20147 
   20101    20046    19984    19961    19980    20000    19994    19978 
   19994    20066    20124    20094    20005    19957    19998    20079 
   20129    20136    20140    20174    20210    20209    20179    20148 
   20128    20108    20077    20034    19975    19917    19888    19892 
   19900    19881    19823    19755    19715    19697    19685    19670 
   19666    19697    19742    19742    19705    19697    19749    19816 
   19835    19791    19719    19673    19654    19627    19589    19579 
   19608    19653    19685    19687    19697    19762    19849    19903 
   19926    19943    19962    19965    19947    19939    19980    20062 
   20121    20123    20120    20160    20191    20156    20073    19996 
   19974    20001    19998    19954    19928    19957    20002    20009 
   19970    19920    19897    19878    19826    19768    19762    19811 
   19872    19893    19873    19872    19927    20009    20050    20032 
   19998    19990    20005    19993    19926    19866    19894    19982 
   20031    19984    19896    19855    19873    19897    19893    19873 
   19846    19792    19711    19662    19680    19723    19738    19712 
   19697    19743    19805    19795    19720    19678    19707    19753 
   19753    19718    19715    19762    19796    19782    19755    19765 
   19807    19819    19770    19714    19683    19642    19558    19480 
   19479    19545    19602    19607    19602    19637    19689    19707 
   19674    19662    19731    19836    19909    19959    20008    20051 
   20069    20054    20039    20059    20096    20105    20081    20055 
   20032    19975    19873    19765    19688    19637    19569    19476 
   19415    19417    19440    19437    19413    19407    19471    19579 
   19653    19691    19724    19753    19770    19770    19743    19704 
   19662    19639    19654    19683    19695    19705    19737    19778 
   19815    19836    19870    19946    20027    20071    20085    20089 
   20085    20074    20035    19958    19890    19867    19863    19849 
   19827    19819    19822    19791    19716    19651    19624    19629 
   19646    19660    19680    19697    19681    19639    19600    19576 
   19566    19564    19577    19626    19708    19765    19742    19681 
   19656    19674    19697    19696    19680    19674    19680    19670 
   19645    19630    19637    19657    19676    19676    19668    19665 
   19656    19647    19658    19677    19691    19697    19697    19684 
   19656    19612    19541    19456    19410    19414    19437    19460 
   19467    19458    19479    19548    19634    19695    19704    19677 
   19678    19741    19800    19793    19753    19758    19839    19947 
   20013    20034    20061    20113    20148    20140    20115    20112 
   20120    20104    20063    20048    20096    20158    20159    20090 
   20019    19997    19984    19924    19845    19797    19818    19873 
   19873    19797    19741    19749    19751    19707    19638    19611 
   19674    19764    19764    19692    19673    19765    19888    19923 
   19876    19851    19885    19923    19927    19900    19877    19877 
   19858    19811    19811    19876    19930    19916    19881    19904 
   19997    20075    20044    19947    19896    19901    19903    19861 
   19799    19792    19880    19969    19962    19899    19846    19800 
   19731    19662    19643    19703    19792    19826    19772    19676 
   19626    19669    19757    19812    19801    19741    19683    19662 
   19662    19645    19612    19588    19587    19599    19615    19657 
   19746    19847    19909    19900    19842    19785    19746    19711 
   19672    19646    19661    19699    19718    19704    19678    19684 
   19715    19730    19699    19614    19508    19442    19437    19481 
   19572    19681    19747    19732    19700    19746    19899    20065 
   20143    20133    20109    20132    20189    20179    20102    20061 
   20097    20152    20146    20038    19858    19689    19588    19572 
   19630    19696    19692    19627    19573    19588    19668    19732 
   19712    19662    19695    19820    19958    20042    20063    20047 
   20015    19981    19957    19923    19851    19758    19691    19672 
   19684    19685    19646    19572    19487    19419    19368    19309 
   19257    19259    19323    19429    19533    19604    19624    19626 
   19637    19634    19610    19579    19552    19558    19591    19608 
   19607    19608    19607    19561    19475    19410    19413    19477 
   19561    19619    19650    19704    19796    19893    19975    20023 
   19997    19919    19863    19880    19947    19994    19966    19904 
   19901    19951    19984    19953    19876    19826    19809    19769 
   19710    19693    19754    19818    19773    19673    19665    19766 
   19876    19894    19811    19734    19757    19813    19804    19720 
   19616    19557    19576    19627    19658    19653    19612    19564 
   19535    19541    19558    19570    19585    19627    19711    19800 
   19838    19804    19715    19645    19653    19705    19731    19719 
   19720    19766    19815    19803    19715    19639    19687    19820 
   19899    19845    19742    19727    19831    19969    20063    20121 
   20160    20152    20096    20040    20043    20105    20151    20116 
   20042    20019    20040    20027    19946    19857    19842    19881 
   19874    19762    19603    19515    19546    19637    19684    19639 
   19576    19597    19712    19820    19830    19755    19708    19773 
   19915    20008    19994    19931    19903    19950    20019    20024 
   19986    19996    20071    20154    20170    20101    20017    19974 
   19969    19971    19938    19855    19758    19710    19770    19920 
   20035    20013    19889    19797    19823    19912    19959    19948 
   19948    19973    19963    19893    19808    19772    19766    19723 
   19641    19580    19604    19672    19653    19529    19415    19377 
   19361    19300    19199    19138    19198    19329    19415    19435 
   19450    19503    19558    19529    19441    19411    19457    19499 
   19485    19442    19475    19622    19761    19774    19693    19635 
   19665    19727    19746    19735    19742    19778    19816    19805 
   19766    19773    19842    19909    19934    19943    19953    19921 
   19840    19765    19770    19854    19907    19851    19769    19776 
   19847    19862    19768    19653    19665    19797    19880    19811 
   19708    19738    19885    20004    20012    19978    20012    20120 
   20200    20205    20204    20229    20250    20241    20216    20237 
   20302    20314    20252    20228    20308    20394    20363    20208 
   20043    20000    20050    20050    19986    19962    20029    20146 
   20190    20116    20044    20078    20147    20132    20024    19934 
   19961    20054    20100    20059    19989    19984    20025    20009 
   19928    19869    19881    19927    19931    19882    19849    19876 
   19890    19823    19720    19681    19739    19824    19843    19788 
   19739    19754    19781    19746    19654    19577    19579    19647 
   19700    19705    19714    19749    19780    19776    19749    19750 
   19799    19832    19804    19745    19704    19714    19762    19799 
   19805    19838    19931    20032    20083    20089    20069    20046 
   20038    20031    20016    19970    19890    19828    19818    19819 
   19793    19724    19631    19569    19552    19541    19541    19575 
   19612    19618    19610    19630    19676    19705    19710    19739 
   19828    19926    19953    19935    19967    20056    20120    20109 
   20058    20054    20128    20179    20135    20086    20123    20212 
   20267    20244    20185    20146    20116    20071    20036    20051 
   20132    20216    20248    20268    20301    20312    20275    20201 
   20148    20152    20142    20070    19998    19980    19993    19989 
   19939    19870    19831    19839    19854    19828    19764    19681 
   19602    19554    19542    19531    19507    19492    19495    19516 
   19554    19600    19654    19696    19691    19674    19727    19840 
   19921    19888    19751    19645    19665    19761    19807    19732 
   19580    19475    19469    19500    19525    19556    19581    19584 
   19570    19548    19529    19511    19460    19394    19377    19417 
   19430    19375    19290    19249    19284    19342    19327    19249 
   19207    19240    19300    19352    19381    19381    19376    19375 
   19375    19407    19475    19533    19572    19599    19614    19599 
   19546    19496    19484    19495    19498    19494    19500    19516 
   19526    19503    19461    19464    19523    19576    19570    19534 
   19531    19588    19656    19674    19627    19580    19607    19684 
   19739    19734    19676    19619    19603    19593    19564    19529 
   19499    19456    19375    19280    19232    19252    19300    19290 
   19192    19102    19078    19084    19076    19055    19060    19132 
   19245    19334    19383    19406    19429    19454    19467    19488 
   19549    19611    19610    19570    19584    19670    19759    19778 
   19741    19734    19803    19897    19955    19948    19928    19967 
   20055    20119    20120    20102    20113    20139    20129    20058 
   19955    19896    19896    19877    19805    19750    19780    19873 
   19924    19881    19823    19836    19928    20021    20035    19973 
   19908    19903    19953    20000    20011    20011    20017    20012 
   19982    19942    19901    19905    19974    20031    19996    19889 
   19778    19722    19723    19714    19639    19545    19494    19465 
   19403    19299    19206    19186    19225    19245    19215    19201 
   19251    19310    19303    19234    19176    19183    19221    19214 
   19168    19157    19176    19151    19053    18924    18839    18839 
   18854    18817    18773    18769    18794    18829    18864    18908 
   18979    19078    19165    19218    19261    19311    19356    19418 
   19507    19599    19662    19680    19662    19664    19692    19691 
   19649    19629    19669    19749    19808    19820    19836    19940 
   20124    20277    20340    20359    20405    20486    20541    20547 
   20538    20544    20549    20537    20517    20491    20422    20298 
   20171    20101    20101    20127    20131    20127    20160    20244 
   20316    20310    20259    20244    20316    20434    20514    20534 
   20538    20548    20538    20498    20459    20440    20440    20447 
   20429    20390    20376    20391    20376    20305    20216    20154 
   20133    20139    20131    20079    19989    19901    19851    19835 
   19824    19796    19764    19762    19786    19792    19753    19714 
   19724    19762    19766    19722    19676    19697    19789    19873 
   19892    19870    19878    19940    19984    19953    19892    19878 
   19944    20034    20071    20073    20106    20202    20340    20459 
   20537    20617    20722    20844    20957    21065    21177    21274 
   21343    21400    21465    21513    21496    21427    21367    21347 
   21351    21331    21250    21135    21042    20980    20943    20931 
   20907    20854    20781    20691    20626    20630    20622    20526 
   20391    20285    20220    20170    20093    19973    19854    19780 
   19723    19647    19566    19471    19349    19228    19141    19090 
   19035    18947    18851    18775    18727    18694    18679    18694 
   18717    18725    18713    18682    18642    18608    18588    18590 
   18623    18662    18696    18762    18875    19008    19103    19134 
   19128    19153    19229    19294    19307    19292    19295    19344 
   19422    19475    19480    19475    19495    19526    19545    19568 
   19596    19618    19635    19626    19583    19556    19562    19558 
   19521    19469    19442    19475    19538    19583    19615    19660 
   19734    19839    19944    20007    20034    20051    20063    20066 
   20078    20109    20137    20139    20100    20042    20011    19992 
   19915    19782    19666    19616    19624    19639    19620    19585 
   19579    19618    19658    19665    19656    19672    19714    19753 
   19788    19819    19849    19896    19948    20007    20092    20173 
   20210    20200    20160    20131    20139    20179    20213    20227 
   20229    20220    20196    20173    20155    20137    20124    20121 
   20117    20125    20156    20196    20231    20283    20363    20451 
   20529    20584    20628    20684    20765    20856    20941    21006 
   21047    21077    21104    21130    21142    21127    21095    21060 
   21020    20950    20837    20715    20619    20537    20441    20313 
   20179    20082    20021    19971    19909    19845    19800    19780 
   19764    19741    19718    19681    19622    19548    19467    19391 
   19342    19302    19252    19218    19206    19180    19138    19103 
   19099    19138    19187    19213    19237    19278    19315    19334 
   19338    19341    19359    19361    19321    19263    19229    19225 
   19221    19205    19183    19164    19137    19078    18993    18927 
   18901    18875    18812    18728    18674    18697    18762    18783 
   18766    18778    18820    18844    18828    18787    18767    18786 
   18794    18760    18725    18751    18819    18844    18810    18769 
   18762    18781    18790    18783    18796    18846    18904    18933 
   18956    19025    19122    19194    19244    19305    19394    19504 
   19587    19624    19669    19746    19824    19882    19926    19957 
   19977    19996    20008    20024    20065    20125    20183    20227 
   20281    20368    20475    20572    20629    20626    20607    20605 
   20602    20583    20529    20413    20264    20137    20032    19917 
   19795    19674    19566    19473    19380    19296    19252    19230 
   19203    19183    19197    19246    19307    19327    19303    19294 
   19346    19440    19527    19588    19653    19768    19926    20083 
   20228    20353    20443    20493    20518    20559    20638    20722 
   20763    20769    20783    20812    20842    20848    20831    20823 
   20857    20925    20995    21054    21116    21188    21253    21288 
   21290    21290    21312    21352    21370    21347    21315    21304 
   21313    21311    21278    21231    21199    21185    21168    21126 
   21081    21070    21073    21046    20988    20919    20860    20811 
   20757    20688    20596    20475    20316    20120    19926    19749 
   19583    19422    19259    19105    19001    18954    18944    18948 
   18956    18981    19020    19039    19017    18966    18916    18893 
   18889    18878    18862    18863    18902    18963    18991    18983 
   18972    18974    18981    18978    18976    19001    19041    19062 
   19060    19076    19133    19209    19260    19278    19305    19369 
   19450    19495    19503    19531    19593    19635    19614    19572 
   19588    19674    19777    19832    19819    19800    19842    19920 
   19978    20032    20110    20204    20270    20278    20251    20237 
   20260    20309    20333    20317    20290    20264    20235    20202 
   20151    20078    20008    19963    19943    19946    19943    19913 
   19865    19823    19809    19819    19811    19765    19707    19649 
   19561    19442    19318    19202    19117    19063    19017    18975 
   18943    18933    18958    18986    18987    18974    18976    19009 
   19059    19097    19107    19114    19128    19137    19143    19164 
   19202    19237    19260    19275    19310    19391    19496    19570 
   19604    19660    19772    19915    20043    20135    20218    20321 
   20436    20549    20649    20725    20787    20850    20896    20919 
   20950    21000    21058    21101    21101    21064    21018    20989 
   20973    20939    20868    20795    20773    20773    20721    20606 
   20484    20397    20318    20186    19994    19830    19774    19789 
   19773    19719    19693    19724    19777    19795    19772    19761 
   19795    19834    19827    19796    19799    19832    19854    19828 
   19785    19784    19819    19824    19785    19747    19741    19761 
   19780    19766    19743    19746    19768    19796    19809    19808 
   19816    19835    19847    19851    19862    19874    19862    19809 
   19718    19618    19541    19484    19425    19346    19273    19242 
   19249    19267    19283    19290    19287    19287    19283    19276 
   19282    19299    19327    19363    19394    19415    19413    19369 
   19307    19257    19210    19155    19083    19009    18964    18937 
   18894    18828    18750    18677    18621    18597    18598    18621 
   18669    18736    18813    18913    19045    19206    19383    19566 
   19745    19923    20101    20274    20439    20596    20738    20857 
   20952    21047    21138    21190    21193    21158    21108    21057 
