Origin Time       2025/01/13 21:19:00
Lat.              31.8
Long.             131.6
Depth. (km)       30
Mag.              6.9
Station Code      EHMH10
Station Lat.      34.1918
Station Long.     133.0581
Station Height(m) 5
Record Time       2025/01/13 21:20:27
Sampling Freq(Hz) 100Hz
Duration Time(s)  135
Dir.              4
Scale Factor      7845(gal)/8223790
Max. Acc. (gal)   1.877
Last Correction   2025/01/13 21:20:27
Memo.             
[...]
   11364    11223    11178    11188    11244    11313    11379    11431 
   11423    11304    11078    10874    10881    11063    11242    11379 
   11514    11584    11499    11307    11121    10970    10874    10894 
   11002    11057    10991    10905    10874    10875    10948    11111 
   11229    11195    11056    10855    10638    10539    10609    10778 
   10991    11155    11151    11038    10964    10966    11017    11152 
   11384    11646    11801    11738    11529    11306    11097    10935 
   10914    11067    11346    11686    11969    12070    12028    11951 
   11803    11512    11156    10883    10774    10867    11151    11472 
   11607    11446    11074    10683    10488    10586    10840    11030 
   11065    10957    10789    10666    10585    10528    10636    10993 
   11418    11722    11913    12002    11929    11680    11368    11186 
   11198    11313    11383    11269    11028    10966    11186    11396 
   11391    11264    11114    10940    10781    10743    10906    11164 
   11327    11345    11306    11354    11557    11776    11778    11522 
   11195    10960    10832    10774    10735    10702    10704    10704 
   10681    10720    10856    10983    11005    11007    11165    11448 
   11664    11755    11715    11442    11091    11067    11433    11830 
   11981    11863    11500    10979    10528    10332    10346    10396 
   10447    10608    10854    11029    11125    11213    11275    11342 
   11497    11665    11686    11550    11364    11232    11149    11043 
   10909    10798    10725    10760    10920    11055    11086    11017 
   10783    10481    10382    10577    11017    11630    12124    12231 
   12081    11981    12052    12187    12213    12024    11603    11134 
   10897    10929    11060    11160    11136    10916    10546    10130 
    9747     9472     9441     9810    10542    11290    11701    11739 
   11588    11461    11534    11848    12256    12553    12645    12540 
   12312    12044    11677    11098    10423     9954     9883    10099 
   10330    10465    10546    10581    10539    10407    10234    10160 
   10327    10731    11182    11464    11547    11634    11821    11992 
   12089    12118    11992    11650    11169    10648    10181     9899 
    9923    10220    10582    10848    11007    11051    10963    10827 
   10771    10882    11156    11577    12093    12460    12432    12094 
   11803    11780    11925    12017    11889    11496    10930    10368 
   10029    10008    10218    10517    10783    10890    10878    10922 
   11060    11171    11160    11014    10898    11024    11364    11639 
   11600    11340    11230    11472    11882    12123    11965    11441 
   10814    10355    10147    10073    10027    10150    10621    11277 
   11735    11778    11457    10987    10712    10860    11311    11750 
   11970    11981    11826    11496    11110    10809    10573    10492 
   10733    11107    11308    11334    11249    10991    10621    10342 
   10264    10420    10872    11562    12162    12363    12245    12077 
   11988    12005    12094    12113    11929    11519    11002    10621 
   10517    10566    10613    10683    10781    10781    10659    10558 
   10535    10555    10647    10829    10967    11014    11175    11549 
   11948    12174    12135    11828    11446    11221    11134    11072 
   11051    11090    11168    11292    11422    11423    11215    10870 
   10571    10469    10584    10870    11222    11531    11828    12128 
   12244    12013    11541    11090    10903    11033    11257    11280 
   11021    10712    10682    10962    11261    11307    11033    10654 
   10544    10822    11234    11564    11747    11649    11267    10953 
   10941    11049    11114    11190    11249    11190    11101    11029 
   10733    10152     9688     9632     9867    10270    10758    11132 
   11342    11512    11649    11697    11661    11526    11311    11118 
   11080    11283    11581    11655    11425    11125    11010    11124 
   11261    11217    11048    10960    11009    11034    10908    10696 
   10521    10527    10836    11311    11668    11882    12020    11947 
   11668    11360    11070    10795    10655    10779    11132    11529 
   11809    11861    11635    11237    10801    10359    10007     9931 
   10152    10509    10876    11163    11364    11620    12001    12351 
   12529    12588    12595    12467    12137    11762    11493    11207 
   10805    10501    10507    10805    11292    11715    11808    11645 
   11421    11175    10912    10701    10552    10481    10625    11044 
   11537    11851    11901    11709    11342    11014    10943    11082 
   11188    11152    11137    11284    11487    11612    11655    11616 
   11497    11384    11306    11182    10999    10847    10773    10773 
   10798    10770    10732    10795    10921    11056    11226    11418 
   11603    11751    11770    11588    11186    10613    10154    10153 
   10594    11200    11736    11990    11865    11578    11396    11298 
   11148    10941    10741    10621    10675    10908    11106    11049 
   10866    10913    11298    11799    12147    12237    12120    11894 
   11680    11550    11470    11358    11163    10951    10798    10693 
   10667    10775    10899    10852    10658    10481    10376    10335 
   10420    10643    10879    11051    11219    11399    11508    11539 
   11514    11414    11352    11511    11778    11873    11817    11813 
   11824    11645    11325    11155    11223    11358    11433    11419 
   11329    11294    11439    11620    11603    11380    11080    10782 
   10642    10804    11214    11738    12178    12282    12058    11735 
   11437    11210    11111    11115    11134    11103    10978    10791 
   10621    10498    10426    10440    10600    10841    10964    10901 
   10809    10767    10747    10863    11184    11477    11550    11537 
   11587    11674    11719    11705    11661    11587    11456    11227 
   10914    10660    10651    10921    11333    11643    11533    10983 
   10508    10489    10741    10860    10647    10230     9946    10060 
   10536    11101    11379    11232    10994    11002    11203    11402 
   11522    11537    11452    11325    11161    10908    10565    10241 
   10112    10241    10569    11020    11388    11452    11273    11114 
   11095    11134    11133    11045    10928    10921    11049    11198 
   11291    11281    11101    10836    10706    10756    10862    10953 
   11034    11082    11045    10909    10727    10561    10496    10629 
   10939    11268    11497    11584    11560    11488    11381    11240 
   11121    11121    11286    11449    11384    11114    10801    10535 
   10376    10346    10438    10613    10764    10787    10725    10706 
   10754    10825    10878    10839    10694    10559    10523    10505 
   10389    10264    10401    10845    11307    11632    11866    11969 
   11932    11927    12070    12240    12247    12016    11577    11076 
   10697    10463    10285    10150    10130    10261    10523    10890 
   11321    11686    11866    11932    12016    12106    12144    12112 
   12029    11892    11664    11354    11016    10667    10334    10095 
    9976     9980    10215    10659    10991    11049    11071    11259 
   11624    12151    12653    12808    12552    12174    11920    11750 
   11580    11461    11367    11167    10866    10573    10334    10239 
   10438    10793    10874    10592    10318    10264    10336    10515 
   10800    11028    11065    10964    10785    10565    10454    10616 
   10947    11182    11253    11300    11340    11222    10945    10733 
   10789    11115    11475    11572    11311    10832    10320     9921 
    9733     9736     9859    10088    10336    10481    10554    10650 
   10755    10872    11114    11466    11763    11905    11948    11961 
   11897    11713    11496    11361    11310    11304    11257    11022 
   10666    10408    10305    10268    10296    10509    10901    11292 
   11595    11821    11967    12106    12345    12598    12650    12459 
   12154    11863    11643    11564    11639    11693    11556    11292 
   11051    10804    10480    10230    10201    10319    10527    10858 
   11236    11495    11580    11649    11816    11992    12121    12278 
   12444    12519    12421    12109    11677    11319    11094    10901 
   10766    10804    10960    11146    11304    11319    11186    11068 
   11007    10930    10903    11018    11218    11396    11495    11461 
   11265    11037    10925    10902    10921    11026    11199    11344 
   11433    11442    11311    11130    11041    10995    10878    10787 
   10913    11180    11348    11327    11199    11117    11230    11535 
   11828    11912    11831    11788    11866    11911    11763    11543 
   11483    11623    11882    12183    12424    12502    12447    12380 
   12359    12370    12464    12579    12488    12195    11940    11755 
   11480    11148    10928    10875    10939    11045    11110    11070 
   10959    10899    10993    11222    11466    11654    11735    11646 
   11499    11537    11722    11808    11746    11568    11256    10928 
   10739    10677    10632    10601    10635    10667    10579    10320 
    9944     9583     9418     9539     9819    10075    10276    10455 
   10584    10685    10862    11109    11288    11326    11234    11017 
   10744    10571    10558    10625    10686    10731    10837    11028 
   11184    11256    11306    11345    11353    11319    11218    11045 
   10879    10821    10867    10956    11028    11029    11011    11090 
   11281    11445    11425    11296    11211    11159    11059    10905 
   10737    10629    10647    10743    10822    10862    10920    11032 
   11114    11134    11146    11165    11215    11333    11465    11558 
   11662    11819    11940    11985    12056    12198    12287    12195 
   11877    11373    10820    10319     9930     9742     9769     9963 
   10326    10791    11126    11186    11064    10956    10970    11087 
   11264    11462    11578    11588    11591    11604    11595    11618 
   11705    11812    11916    11977    11925    11759    11506    11202 
   10949    10804    10750    10786    10903    11063    11217    11333 
   11421    11524    11654    11772    11844    11897    11970    12005 
   11935    11897    12013    12133    12089    11924    11770    11661 
   11599    11654    11839    12012    12043    11996    11938    11828 
   11686    11549    11383    11221    11129    11036    10843    10631 
   10551    10596    10635    10660    10755    10890    10994    11088 
   11178    11213    11210    11253    11342    11400    11349    11176 
   10951    10731    10525    10355    10239    10180    10211    10346 
   10474    10512    10570    10725    10918    11110    11296    11489 
   11716    11942    12052    11970    11720    11381    11029    10694 
   10369    10075     9852     9718     9713     9838    10015    10166 
   10269    10276    10222    10292    10536    10771    10881    10916 
   10939    10991    11097    11194    11234    11271    11314    11269 
   11098    10858    10646    10492    10331    10161    10095    10192 
   10350    10426    10336    10135    10027    10170    10482    10800 
   11045    11179    11202    11184    11217    11368    11610    11793 
   11842    11790    11649    11411    11148    10943    10864    10966 
   11205    11483    11757    11928    11870    11688    11593    11610 
   11666    11747    11824    11867    11884    11865    11804    11693 
   11526    11361    11290    11304    11325    11317    11229    10991 
   10685    10458    10299    10134    10045    10133    10288    10332 
   10268    10276    10449    10690    10964    11330    11695    11939 
   12077    12089    11925    11699    11581    11585    11600    11561 
   11516    11512    11524    11560    11649    11699    11610    11495 
   11534    11715    11936    12159    12343    12422    12371    12170 
   11827    11462    11246    11241    11416    11711    12000    12147 
   12136    12089    12087    12087    12062    12052    12093    12141 
   12081    11835    11488    11161    10910    10771    10759    10852 
   11037    11323    11668    11942    12113    12268    12390    12405 
   12321    12145    11862    11546    11286    11052    10751    10331 
    9848     9464     9308     9369     9547     9724     9826     9899 
   10037    10266    10559    10874    11160    11395    11556    11611 
   11550    11385    11169    11026    11017    11075    11107    11084 
   11037    10960    10812    10639    10550    10586    10709    10881 
   11078    11286    11433    11457    11407    11340    11273    11248 
   11261    11238    11144    10999    10844    10724    10665    10673 
   10750    10856    10976    11152    11403    11659    11786    11705 
   11477    11229    11051    10963    10955    11060    11321    11620 
   11761    11728    11634    11547    11535    11659    11831    11889 
   11788    11545    11182    10770    10392    10146    10114    10247 
   10458    10727    11013    11214    11277    11234    11190    11246 
   11373    11468    11468    11329    11024    10629    10257     9929 
    9643     9450     9418     9545     9753    10010    10345    10719 
   11067    11403    11736    11994    12129    12183    12228    12275 
   12249    12117    11923    11664    11296    10876    10508    10224 
   10034    10003    10174    10454    10743    11083    11502    11898 
   12216    12534    12868    13092    13132    13034    12808    12437 
   12032    11762    11627    11531    11461    11437    11441    11473 
   11511    11496    11426    11356    11346    11396    11427    11434 
   11473    11473    11353    11188    11061    10924    10743    10574 
   10458    10407    10461    10620    10768    10810    10808    10849 
   10889    10885    10912    11022    11217    11472    11665    11659 
   11496    11307    11134    10998    10975    11045    11117    11164 
   11186    11184    11215    11341    11534    11700    11794    11835 
   11830    11745    11591    11421    11249    11078    10902    10739 
   10633    10571    10455    10245    10035     9913     9896     9971 
   10053    10060    10072    10235    10477    10628    10728    10867 
   11045    11287    11592    11884    12112    12272    12366    12359 
   12205    11897    11458    10937    10438    10045     9755     9593 
    9579     9621     9653     9695     9736     9775     9875    10089 
   10415    10801    11186    11489    11624    11626    11610    11601 
   11587    11611    11740    11986    12276    12522    12664    12667 
   12580    12517    12498    12463    12411    12340    12212    12050 
   11886    11711    11496    11238    10994    10849    10829    10891 
   10975    11029    11036    11051    11092    11063    10909    10681 
   10451    10280    10227    10359    10638    10924    11145    11304 
   11407    11464    11462    11358    11151    10908    10719    10655 
   10717    10827    10913    10956    10990    11070    11194    11265 
   11178    10955    10717    10539    10416    10327    10237    10126 
   10010     9922     9857     9786     9798    10004    10312    10551 
   10713    10840    10960    11090    11241    11425    11614    11792 
   11990    12164    12195    12042    11739    11376    11094    10939 
   10827    10717    10648    10673    10798    10979    11205    11489 
   11799    12064    12222    12247    12189    12148    12127    12042 
   11904    11815    11809    11821    11789    11692    11520    11323 
   11184    11129    11098    11078    11142    11284    11388    11430 
   11462    11469    11433    11438    11543    11662    11723    11759 
   11774    11715    11568    11387    11227    11133    11141    11252 
   11345    11292    11161    11097    11126    11199    11254    11253 
   11203    11125    11030    10925    10855    10854    10897    10928 
   10899    10791    10621    10415    10215    10092    10064    10119 
   10288    10562    10885    11245    11619    11935    12124    12194 
   12204    12145    12015    11862    11693    11484    11279    11134 
   11029    10917    10767    10567    10361    10187    10068    10033 
   10039    10049    10093    10192    10328    10512    10752    11005 
   11209    11367    11519    11680    11820    11911    11940    11893 
   11747    11500    11202    10962    10840    10774    10716    10729 
   10835    10960    11061    11115    11044    10887    10833    10926 
   11086    11327    11672    11992    12148    12155    12073    11877 
   11577    11308    11168    11099    11010    10864    10665    10507 
   10474    10562    10727    10909    11024    11028    10966    10897 
   10814    10731    10696    10698    10702    10721    10785    10886 
   11016    11196    11472    11824    12150    12380    12538    12650 
   12734    12811    12829    12692    12426    12128    11850    11580 
   11300    10990    10656    10351    10092     9864     9667     9531 
    9494     9614     9890    10233    10592    10967    11322    11601 
   11809    11935    11931    11786    11583    11395    11215    11025 
   10897    10893    10957    10986    10953    10906    10879    10905 
   10999    11099    11172    11299    11511    11684    11720    11655 
   11553    11461    11416    11454    11534    11550    11497    11425 
   11367    11369    11433    11510    11554    11541    11496    11472 
   11477    11500    11547    11589    11573    11503    11416    11341 
   11268    11169    11043    10887    10685    10480    10357    10315 
   10327    10399    10523    10689    10878    11045    11136    11128 
   11078    11102    11253    11441    11560    11611    11627    11630 
   11646    11691    11713    11662    11569    11492    11435    11356 
   11222    11056    10912    10821    10790    10835    10940    11041 
   11088    11083    11090    11169    11299    11407    11468    11520 
   11610    11722    11809    11863    11901    11920    11858    11685 
   11464    11252    11060    10870    10666    10490    10426    10516 
   10752    11079    11415    11705    11931    12081    12162    12163 
   12066    11890    11649    11354    11059    10825    10689    10636 
   10648    10705    10785    10879    10986    11080    11130    11138 
   11149    11198    11273    11338    11384    11394    11334    11250 
   11230    11229    11132    10928    10675    10416    10170     9958 
    9819     9792     9915    10192    10538    10836    11032    11144 
   11225    11308    11371    11344    11226    11091    10976    10856 
   10714    10547    10381    10300    10361    10488    10544    10489 
   10396    10341    10350    10411    10470    10486    10496    10561 
   10692    10840    10930    10952    10936    10887    10798    10693 
   10628    10617    10655    10758    10917    11078    11175    11229 
   11314    11442    11573    11689    11794    11848    11836    11797 
   11736    11641    11542    11507    11526    11520    11448    11327 
   11194    11065    10987    10987    11033    11049    10978    10839 
   10710    10666    10737    10881    11030    11146    11226    11295 
   11325    11269    11173    11134    11156    11182    11198    11179 
   11088    10978    10951    11034    11168    11317    11473    11577 
