Origin Time       2025/01/13 21:19:00
Lat.              31.8
Long.             131.6
Depth. (km)       30
Mag.              6.9
Station Code      EHMH11
Station Lat.      33.5807
Station Long.     132.6011
Station Height(m) 210
Record Time       2025/01/13 21:20:11
Sampling Freq(Hz) 100Hz
Duration Time(s)  134
Dir.              6
Scale Factor      7845(gal)/8223790
Max. Acc. (gal)   1.887
Last Correction   2025/01/13 21:20:12
Memo.             
[...]
     423      346      283      195       67      -62     -143     -137 
     -75      -33      -25      -32      -39      -71     -147     -213 
    -205     -124       -1      118      156       54     -171     -426 
    -569     -541     -395     -182       49      214      260      197 
      58      -97     -180     -148      -71      -62     -144     -232 
    -251     -220     -194     -189     -166      -82       33      108 
     106       49      -25     -101     -180     -244     -264     -256 
    -207     -113      -24       24       41       44       54       81 
     112      155      240      344      375      333      288      252 
     202      129       31      -45      -83     -145     -244     -337 
    -392     -378     -313     -232     -135      -43        2      -24 
     -98     -126      -55       82      183      168       55      -83 
    -193     -260     -321     -367     -342     -245     -121      -54 
     -90     -145     -140      -72       43      178      276      301 
     265      228      216      238      318      432      560      683 
     696      552      351      216      209      314      432      429 
     234      -89     -394     -600     -676     -611     -464     -317 
    -261     -334     -434     -487     -521     -541     -583     -642 
    -599     -441     -288     -183     -167     -260     -368     -481 
    -645     -758     -727     -591     -373     -109      124      283 
     369      421      453      457      481      552      594      564 
     491      403      326      319      413      569      722      827 
     861      842      791      683      513      307      106      -39 
    -102      -79       27      171      276      276      167       -9 
    -195     -353     -427     -382     -275     -184     -117      -72 
     -47        5       79       71     -101     -383     -626     -741 
    -715     -576     -392     -238     -122      -36       21      105 
     274      486      634      626      436      152      -87     -229 
    -228      -93       75      234      379      433      382      282 
     194      133       70       16       31      118      238      319 
     321      267      179       59      -59     -139     -210     -325 
    -472     -631     -764     -780     -681     -556     -440     -307 
    -136       43      156      183      176      151       58      -91 
    -197     -182      -58       91      189      237      297      379 
     469      557      618      639      642      596      452      267 
     122       -4     -140     -249     -325     -383     -375     -256 
     -31      243      444      490      396      218       20     -148 
    -317     -534     -762     -881     -810     -588     -303       -2 
     268      445      472      367      197       58        8      -32 
    -167     -359     -495     -495     -330      -68      184      360 
     413      336      193       45      -20       64      232      363 
     413      376      283      232      288      425      575      664 
     635      521      394      290      218      162       85        4 
     -39      -28       58      210      356      448      490      481 
     418      351      332      351      348      251       66      -85 
    -141     -162     -194     -263     -380     -491     -518     -446 
    -294     -110       -2      -20     -105     -170     -166     -101 
     -29      -10      -74     -206     -322     -301     -143       28 
     139      222      318      405      422      311       49     -251 
    -409     -423     -438     -488     -496     -434     -314     -187 
    -140     -145     -103      -45      -55     -110     -157     -133 
      21      233      375      426      432      440      486      537 
     538      494      438      384      322      236      113        9 
       9      114      268      411      496      472      361      264 
     216      210      284      376      365      294      256      243 
     247      268      245      168      103       74       94      182 
     291      332      257      118        1      -62     -121     -222 
    -299     -290     -220     -151     -137     -172     -172     -116 
     -16      139      276      334      383      418      391      365 
     378      361      294      186       55      -17       43      213 
     418      572      627      596      488      332      214      157 
     117       81       37      -28      -90     -139     -198     -220 
    -180     -180     -275     -384     -411     -334     -194      -52 
      52      121      164      220      356      560      724      800 
     756      584      390      263      190      167      193      244 
     268      184        4     -139     -182     -156      -56       81 
     140       82      -14      -71      -49       33      128      189 
     202      160       52     -113     -299     -461     -581     -607 
    -511     -382     -292     -221     -163     -121      -89     -135 
    -249     -311     -290     -271     -330     -468     -616     -707 
    -681     -549     -425     -378     -379     -399     -398     -292 
     -66      206      421      510      465      359      275      214 
     136       59       27       12        0        4       31       99 
     218      336      407      409      348      233       89      -18 
     -68     -137     -271     -441     -607     -666     -544     -334 
    -157      -22       82      163      252      337      352      267 
     110      -83     -271     -364     -280      -49      199      384 
     514      589      564      411      210       74       66      136 
     201      271      373      425      301      -17     -383     -565 
    -463     -218      -10      132      247      336      367      287 
     116      -67     -213     -295     -315     -309     -309     -321 
    -340     -345     -330     -318     -352     -421     -421     -315 
    -187     -109     -113     -149      -87      114      346      460 
     395      252      141       55      -67     -251     -430     -484 
    -392     -233      -90      -14      -13      -39      -47      -25 
       8       25        5      -35      -40       25      137      218 
     251      279      324      376      436      515      664      862 
     972      884      629      337      145       64      -16     -145 
    -279     -357     -351     -280     -194     -122      -72        0 
     126      228      209       83      -67     -162     -160      -85 
      36      189      294      260       90     -110     -189      -66 
     170      372      449      391      222        0     -149     -128 
      28      236      438      541      508      421      309      159 
      68      120      238      265      130      -83     -230     -218 
     -79       49       58      -54     -228     -419     -589     -660 
    -522     -201      126      259       94     -236     -445     -425 
    -294     -182     -120      -89      -75      -85     -137     -201 
    -166       20      224      313      338      363      375      415 
     499      545      567      635      680      637      556      461 
     329      133     -124     -348     -433     -394     -292     -155 
      -6       86       39     -141     -371     -572     -657     -612 
    -515     -430     -382     -345     -310     -357     -514     -660 
    -695     -634     -527     -437     -388     -306     -106      135 
     291      348      348      298      220      140       28      -85 
    -120     -122     -120      -94     -103     -147     -140      -71 
      51      195      310      399      471      538      619      660 
     607      477      265       16     -126      -87       36      117 
     130      152      271      506      729      757      569      287 
       6     -218     -363     -398     -276      -49      152      249 
     275      341      480      573      575      581      641      691 
     623      400      160       64      102      159      166      143 
     151      187      194      136        6     -151     -226     -172 
     -44      125      325      469      525      541      552      544 
     511      483      452      379      294      240      221      272 
     400      484      440      356      334      405      553      729 
     878      982     1008      903      700      545      527      549 
     456      228        6      -78      -31       79      187      214 
     101      -95     -255     -301     -218      -37      148      283 
     391      469      476      419      317      191       86       39 
      68      135      152       71      -99     -287     -409     -456 
    -465     -473     -480     -457     -468     -576     -687     -675 
    -521     -286      -83        6        1      -51      -87      -36 
      97      270      446      535      449      279      167      137 
     179      224      130      -83     -267     -325     -286     -257 
    -303     -378     -387     -301     -216     -234     -346     -510 
    -684     -834     -911     -795     -494     -249     -203     -309 
    -471     -575     -573     -545     -583     -707     -868     -965 
    -909     -731     -565     -490     -503     -572     -639     -652 
    -592     -506     -494     -585     -708     -722     -523     -229 
     -54      -35      -86     -140     -213     -340     -459     -445 
    -321     -255     -309     -382     -414     -392     -321     -264 
    -267     -305     -329     -302     -287     -355     -433     -405 
    -240      -39       75       60      -24      -16      143      292 
     326      297      278      328      433      484      395      199 
      49        8      -12      -32      -25      -14        1       12 
       9       85      267      426      457      394      338      352 
     398      388      279       85     -137     -324     -380     -268 
     -72       71       99        1     -153     -179       35      334 
     468      372      145      -67     -147      -55      120      221 
     160      -27     -247     -375     -306      -58      253      502 
     604      591      495      356      291      367      492      568 
     557      444      286      182      137      108      106      143 
     197      230      183       56      -64      -68       70      232 
     321      321      199        1     -147     -180      -68      170 
     406      500      442      361      318      276      252      274 
     332      395      427      448      459      432      409      415 
     427      463      519      517      410      257      170      211 
     368      540      591      480      229     -102     -383     -535 
    -573     -477     -311     -186     -125     -120     -152     -191 
    -222     -210      -97       45       54      -60     -137     -116 
     -32       83      167      184      187      241      376      533 
     615      642      664      653      627      626      615      631 
     739      853      850      772      745      831      949      953 
     805      618      525      568      639      599      461      314 
     216      197      186       71     -114     -278     -373     -360 
    -257     -167     -155     -232     -391     -530     -531     -402 
    -251     -190     -238     -302     -307     -252     -148      -66 
    -102     -259     -469     -668     -784     -774     -706     -665 
    -656     -656     -653     -666     -778     -985    -1117    -1040 
    -819     -579     -386     -248     -160     -132     -167     -243 
    -329     -373     -351     -325     -302     -225     -116       -9 
      66       76       72      129      240      349      417      463 
     561      695      812      946     1101     1251     1383     1408 
    1287     1158     1089     1028      965      861      687      529 
     467      425      305      133       -4      -52      -31      -36 
     -74      -56       14       24     -121     -372     -583     -615 
    -445     -224     -130     -189     -311     -421     -464     -417 
    -295     -155      -97     -222     -442     -540     -472     -391 
    -379     -388     -386     -387     -425     -503     -598     -692 
    -781     -851     -904     -930     -923     -881     -787     -672 
    -580     -479     -306      -32      272      473      510      436 
     351      328      375      499      669      769      745      648 
     527      436      429      490      552      569      525      444 
     411      469      564      635      664      635      535      378 
     190       58       43      101      175      240      236      172 
     137      156      198      243      267      226      109       -6 
     -51      -14      124      294      283       37     -265     -454 
    -467     -346     -252     -310     -461     -572     -615     -595 
    -468     -264      -70       48       31     -136     -379     -603 
    -747     -785     -711     -572     -444     -372     -405     -537 
    -623     -534     -319     -139     -118     -259     -464     -612 
    -621     -527     -445     -426     -475     -587     -685     -685 
    -561     -334     -105       10       37       94      267      549 
     784      796      585      344      299      475      692      799 
     774      665      544      499      584      769      985     1179 
    1341     1474     1537     1525     1509     1579     1786     1996 
    2014     1840     1618     1467     1404     1335     1228     1142 
    1084     1009      876      675      457      286      199      198 
     193      139      105       63      -91     -341     -618     -884 
   -1071    -1159    -1266    -1467    -1633    -1661    -1598    -1503 
   -1437    -1460    -1518    -1539    -1539    -1568    -1634    -1680 
   -1630    -1483    -1286    -1098     -980     -873     -666     -423 
    -237      -44      157      326      545      826     1042     1142 
    1158     1123     1101     1173     1328     1502     1642     1745 
    1788     1711     1521     1294     1051      785      562      461 
     459      469      464      448      386      230       28     -113 
    -141     -121     -143     -272     -484     -635     -631     -519 
    -388     -349     -503     -823    -1186    -1474    -1578    -1410 
   -1050     -750     -685     -796     -908     -932     -903     -878 
    -924    -1044    -1138    -1188    -1223    -1188    -1080     -922 
    -711     -515     -369     -206      -13      155      259      270 
     243      288      422      548      540      388      237      187 
     265      453      619      669      638      530      360      230 
     230      365      572      757      835      797      715      643 
     599      585      598      615      602      504      318       93 
    -106     -243     -341     -430     -472     -461     -410     -275 
    -106       -8       20        0      -74     -109        6      175 
     216      126       -5     -120     -125       39      291      488 
     535      449      336      245      163      105      113      202 
     326      414      423      398      405      433      444      441 
     430      415      445      545      646      704      739      769 
     812      882      920      884      855      945     1144     1360 
    1463     1377     1139      864      668      596      589      548 
     396      116     -241     -599     -876    -1016    -1063    -1092 
   -1138    -1224    -1336    -1398    -1359    -1264    -1182    -1107 
   -1017     -943     -893     -826     -691     -444      -87      276 
     529      623      585      471      345      259      237      286 
     364      406      448      576      731      835      901      907 
     812      683      650      835     1183     1489     1632     1638 
    1560     1466     1412     1429     1518     1618     1667     1642 
    1532     1370     1202     1054      915      785      695      630 
     552      463      360      252      184      149      106       52 
     -20     -105     -136      -90      -49     -132     -351     -588 
    -746     -803     -766     -699     -691     -768     -918    -1112 
   -1289    -1383    -1372    -1269    -1131    -1043    -1066    -1192 
   -1317    -1305    -1132     -882     -635     -414     -236     -172 
    -299     -553     -758     -801     -707     -594     -573     -661 
    -781     -858     -851     -777     -685     -596     -537     -575 
    -696     -834     -940     -969     -958    -1023    -1194    -1410 
   -1583    -1652    -1655    -1651    -1595    -1464    -1325    -1209 
   -1075     -903     -681     -398      -95      132      267      382 
     525      680      801      854      855      858      882      920 
     957      976      996     1043     1120     1229     1366     1464 
    1437     1251      963      706      583      588      666      751 
     765      669      511      378      338      418      553      646 
     673      643      602      591      583      540      487      457 
     450      432      353      213       44     -109     -232     -341 
    -427     -476     -492     -453     -375     -333     -325     -324 
    -356     -409     -454     -507     -484     -313      -83       66 
      43     -148     -392     -587     -681     -672     -616     -567 
    -529     -486     -405     -287     -159      -54       -9      -25 
     -68     -129     -221     -330     -399     -395     -368     -372 
    -375     -348     -322     -344     -460     -660     -818     -822 
    -692     -525     -395     -311     -259     -207     -121      -14 
     101      229      309      338      405      499      581      650 
     670      656      664      664      637      630      658      685 
     683      642      592      589      657      758      835      869 
     849      743      588      459      383      363      390      413 
     422      463      494      429      286      122      -31     -128 
    -164     -171     -152     -132     -148     -184     -248     -334 
    -379     -371     -336     -272     -210     -174     -106       28 
     170      257      290      279      230      187      209      263 
     263      191       51     -141     -286     -283     -156      -16 
      52       76      121      197      288      387      506      680 
     862      949      953      953      955      922      877      928 
    1115     1343     1493     1482     1371     1333     1402     1445 
    1395     1275     1150     1105     1150     1216     1270     1271 
    1161      950      710      496      371      344      325      247 
     125       -8     -124     -202     -279     -410     -571     -703 
    -780     -784     -735     -684     -645     -619     -615     -665 
    -762     -818     -772     -661     -583     -652     -838     -981 
    -997     -919     -842     -870    -1000    -1150    -1275    -1362 
   -1424    -1447    -1395    -1293    -1210    -1189    -1215    -1223 
   -1181    -1105    -1024     -970     -947     -913     -857     -776 
    -699     -661     -611     -514     -433     -395     -375     -344 
    -292     -252     -255     -309     -373     -360     -252     -130 
     -35       39       85      110      113       99      117      197 
