Origin Time       2025/01/13 21:19:00
Lat.              31.8
Long.             131.6
Depth. (km)       30
Mag.              6.9
Station Code      EHMH11
Station Lat.      33.5807
Station Long.     132.6011
Station Height(m) 110
Record Time       2025/01/13 21:20:11
Sampling Freq(Hz) 100Hz
Duration Time(s)  134
Dir.              3
Scale Factor      2942(gal)/8224139
Max. Acc. (gal)   1.653
Last Correction   2025/01/13 21:20:12
Memo.             
[...]
   86490    86481    86414    86335    86247    86167    86143    86144 
   86150    86215    86321    86374    86397    86455    86514    86526 
   86524    86533    86490    86354    86244    86233    86202    86124 
   86116    86163    86196    86260    86389    86551    86719    86850 
   86929    87031    87158    87214    87212    87223    87199    87104 
   86989    86836    86648    86508    86390    86233    86100    86059 
   86085    86135    86157    86152    86205    86301    86359    86413 
   86490    86529    86533    86532    86528    86510    86445    86366 
   86324    86269    86184    86155    86201    86282    86358    86383 
   86374    86398    86456    86517    86602    86724    86836    86926 
   87041    87183    87336    87508    87619    87619    87639    87721 
   87741    87708    87701    87660    87494    87245    87012    86795 
   86540    86279    86077    85923    85768    85611    85498    85436 
   85384    85357    85375    85406    85452    85488    85472    85465 
   85473    85459    85511    85630    85666    85627    85577    85472 
   85364    85395    85542    85706    85888    86127    86386    86637 
   86915    87226    87486    87643    87736    87783    87771    87767 
   87817    87864    87903    87956    88003    88048    88082    88084 
   88087    88094    88048    87910    87685    87430    87210    87031 
   86892    86806    86773    86778    86780    86752    86714    86687 
   86633    86551    86486    86413    86319    86298    86366    86410 
   86382    86327    86247    86120    86004    85947    85903    85831 
   85777    85770    85800    85899    86096    86356    86632    86872 
   87025    87088    87087    87033    86961    86894    86818    86778 
   86786    86760    86722    86768    86863    86952    87035    87093 
   87143    87185    87187    87168    87158    87142    87115    87093 
   87060    86983    86845    86668    86497    86321    86088    85834 
   85625    85446    85311    85257    85294    85419    85602    85799 
   86008    86209    86352    86451    86552    86624    86663    86752 
   86868    86910    86914    86972    87077    87197    87318    87432 
   87581    87727    87745    87656    87555    87439    87318    87226 
   87099    86876    86614    86427    86354    86360    86414    86499 
   86602    86721    86819    86850    86790    86621    86370    86113 
   85899    85715    85564    85515    85594    85711    85827    86003 
   86221    86401    86543    86651    86691    86694    86657    86545 
   86424    86358    86325    86337    86424    86564    86711    86800 
   86844    86927    87038    87110    87164    87189    87138    87102 
   87204    87378    87516    87635    87754    87833    87868    87874 
   87859    87804    87662    87432    87211    87060    86954    86892 
   86890    86934    87029    87158    87285    87384    87470    87563 
   87636    87612    87490    87372    87285    87156    86958    86746 
   86548    86356    86198    86107    86069    86047    86011    85954 
   85905    85899    85934    85976    85985    85961    85923    85882 
   85865    85895    85972    86089    86254    86467    86670    86787 
   86854    86937    86981    86945    86872    86763    86568    86333 
   86127    85941    85769    85665    85652    85722    85857    86009 
   86159    86316    86420    86431    86428    86455    86498    86598 
   86775    86969    87149    87309    87411    87451    87463    87466 
   87471    87466    87438    87421    87412    87382    87366    87396 
   87443    87477    87507    87577    87660    87697    87704    87683 
   87606    87525    87471    87385    87299    87270    87224    87150 
   87138    87150    87127    87118    87146    87166    87135    87065 
   87003    86953    86881    86811    86778    86718    86570    86387 
   86243    86134    86059    86028    86073    86220    86386    86506 
   86641    86796    86907    87003    87154    87319    87412    87411 
   87349    87272    87184    87085    87021    87025    87093    87227 
   87392    87529    87616    87628    87547    87404    87226    87022 
   86842    86724    86643    86568    86493    86391    86256    86143 
   86112    86152    86213    86263    86316    86393    86472    86556 
   86706    86935    87169    87382    87594    87745    87798    87799 
   87763    87678    87548    87415    87335    87265    87127    86999 
   86918    86802    86718    86724    86680    86580    86555    86584 
   86582    86572    86602    86647    86655    86618    86555    86502 
   86502    86497    86400    86263    86148    86019    85907    85878 
   85853    85793    85795    85870    85953    86008    86012    85965 
   85935    85934    85866    85706    85567    85506    85449    85402 
   85445    85563    85680    85770    85862    85986    86154    86354 
   86540    86684    86791    86860    86917    86995    87045    87031 
   86989    86903    86767    86687    86729    86838    86961    87050 
   87096    87122    87135    87120    87052    86930    86794    86625 
   86386    86150    85977    85838    85760    85774    85814    85882 
   86062    86271    86397    86503    86636    86726    86740    86692 
   86655    86692    86736    86702    86679    86763    86913    87097 
   87301    87436    87492    87507    87482    87459    87443    87355 
   87200    87023    86827    86657    86564    86487    86417    86440 
   86490    86452    86416    86468    86536    86551    86517    86463 
   86427    86374    86227    86034    85891    85807    85757    85754 
   85793    85861    85970    86062    86058    86038    86092    86177 
   86281    86420    86543    86625    86695    86769    86817    86814 
   86798    86783    86714    86576    86418    86278    86165    86103 
   86103    86143    86197    86278    86390    86491    86517    86456 
   86389    86391    86441    86490    86562    86690    86844    87004 
   87203    87443    87674    87855    87987    88096    88177    88210 
   88192    88082    87851    87582    87340    87104    86864    86643 
   86481    86406    86360    86293    86285    86381    86509    86628 
   86732    86783    86780    86768    86761    86744    86701    86674 
   86682    86675    86664    86703    86780    86864    86929    86946 
   86929    86881    86814    86772    86778    86813    86886    86956 
   86983    87038    87145    87242    87339    87432    87446    87370 
   87230    87045    86887    86786    86705    86637    86591    86530 
   86427    86317    86252    86224    86212    86232    86265    86242 
   86179    86155    86169    86174    86169    86163    86201    86282 
   86328    86323    86310    86281    86232    86229    86289    86359 
   86460    86617    86773    86953    87172    87343    87481    87637 
   87728    87728    87731    87739    87704    87597    87416    87222 
   87046    86836    86606    86459    86405    86356    86278    86201 
   86134    86071    86016    85919    85765    85639    85579    85536 
   85480    85410    85340    85291    85245    85202    85213    85279 
   85353    85445    85600    85784    85946    86148    86421    86671 
   86860    87015    87107    87116    87070    86991    86923    86872 
   86788    86699    86651    86591    86520    86506    86583    86725 
   86898    87066    87187    87253    87308    87366    87400    87378 
   87300    87203    87104    87010    86973    87004    87045    87116 
   87241    87357    87450    87538    87570    87512    87389    87230 
   87057    86875    86698    86572    86528    86583    86760    87003 
   87227    87450    87694    87885    87975    87986    87939    87843 
   87732    87642    87567    87478    87347    87191    87070    86998 
   86900    86760    86683    86714    86718    86680    86702    86736 
   86768    86907    87088    87211    87342    87489    87569    87593 
   87609    87610    87600    87586    87544    87481    87470    87551 
   87656    87716    87747    87778    87843    88006    88225    88379 
   88446    88488    88527    88519    88426    88271    88106    87921 
   87675    87413    87220    87095    86972    86833    86711    86629 
   86563    86509    86502    86567    86686    86776    86821    86908 
   87046    87164    87239    87291    87326    87305    87158    86915 
   86688    86524    86400    86292    86171    86009    85851    85746 
   85618    85426    85278    85216    85172    85155    85218    85360 
   85552    85756    85945    86135    86370    86648    86907    87103 
   87231    87345    87492    87588    87551    87428    87277    87123 
   86949    86722    86481    86260    86059    85914    85846    85808 
   85770    85760    85738    85623    85463    85369    85336    85306 
   85267    85198    85143    85148    85185    85220    85253    85284 
   85322    85342    85287    85164    85031    84920    84813    84717 
   84673    84701    84793    84912    85024    85095    85101    85068 
   85033    85006    85023    85067    85106    85186    85337    85500 
   85656    85828    85984    86082    86116    86044    85885    85765 
   85702    85642    85614    85600    85564    85541    85550    85573 
   85599    85644    85719    85791    85830    85849    85885    85976 
   86124    86289    86424    86532    86667    86846    87025    87170 
   87246    87269    87300    87307    87276    87237    87154    87033 
   86917    86792    86684    86632    86620    86655    86753    86881 
   86983    87053    87143    87253    87346    87420    87457    87401 
   87235    87011    86809    86664    86552    86459    86412    86409 
   86424    86470    86530    86578    86668    86795    86861    86856 
   86838    86832    86806    86730    86665    86676    86676    86618 
   86590    86613    86641    86691    86778    86898    87043    87187 
   87335    87492    87594    87644    87739    87867    87914    87871 
   87802    87704    87569    87440    87349    87301    87282    87237 
   87151    87102    87077    87015    86983    87022    87025    86969 
   86913    86844    86778    86759    86767    86763    86782    86888 
   87048    87184    87308    87450    87566    87596    87588    87613 
   87617    87559    87528    87561    87593    87609    87635    87681 
   87747    87798    87795    87748    87701    87655    87594    87517 
   87405    87251    87093    86937    86730    86481    86247    86101 
   86057    86031    85972    85924    85930    85963    86008    86070 
   86152    86269    86400    86476    86478    86521    86670    86838 
   86972    87099    87207    87295    87408    87581    87806    88026 
   88190    88318    88406    88415    88408    88465    88546    88626 
   88726    88800    88827    88836    88815    88777    88728    88632 
   88533    88441    88291    88106    87936    87733    87459    87143 
   86846    86621    86468    86368    86271    86134    86012    85930 
   85820    85707    85644    85602    85590    85618    85639    85673 
   85739    85785    85808    85835    85847    85878    85926    85874 
   85727    85598    85463    85291    85133    84977    84801    84663 
   84561    84470    84434    84456    84457    84438    84510    84677 
   84854    85035    85233    85394    85511    85657    85812    85900 
   85935    85985    86057    86130    86175    86190    86267    86429 
   86591    86737    86899    87069    87261    87481    87740    88083 
   88469    88798    89062    89272    89429    89557    89648    89657 
   89580    89449    89266    89004    88676    88319    87995    87748 
   87542    87332    87138    86962    86811    86717    86638    86506 
   86351    86231    86138    86070    86035    85986    85916    85878 
   85872    85864    85850    85845    85834    85791    85729    85688 
   85688    85718    85734    85708    85688    85704    85681    85552 
   85357    85190    85095    85029    84917    84769    84653    84561 
   84419    84285    84279    84338    84395    84501    84681    84919 
   85199    85513    85892    86305    86659    86942    87183    87392 
   87581    87733    87844    87933    88011    88088    88194    88335 
   88480    88565    88543    88452    88344    88237    88160    88145 
   88184    88211    88160    88078    88011    87929    87844    87810 
   87810    87798    87758    87712    87681    87635    87556    87465 
   87376    87297    87235    87153    87022    86918    86914    86910 
   86792    86622    86476    86319    86108    85891    85722    85587 
   85490    85464    85453    85418    85426    85487    85525    85525 
   85521    85494    85445    85399    85337    85248    85179    85155 
   85148    85156    85198    85248    85291    85361    85468    85575 
   85656    85722    85768    85772    85730    85650    85544    85429 
   85329    85255    85239    85280    85328    85378    85460    85579 
   85764    86044    86383    86752    87154    87567    87928    88211 
   88416    88516    88514    88442    88318    88152    88009    87951 
   87953    87955    87995    88155    88415    88701    88981    89276 
   89588    89893    90184    90418    90589    90753    90919    91018 
   91012    90925    90814    90699    90505    90198    89885    89637 
   89374    89054    88755    88504    88252    87988    87693    87330 
   86961    86651    86377    86086    85731    85288    84807    84339 
   83906    83502    83138    82865    82702    82564    82412    82281 
   82193    82136    82086    82062    82116    82217    82312    82436 
   82609    82813    83104    83508    83975    84505    85075    85600 
   86121    86715    87280    87743    88186    88612    88979    89326 
   89679    89995    90220    90385    90547    90639    90626    90586 
   90490    90259    89953    89646    89352    89100    88879    88620 
   88311    88026    87804    87579    87339    87156    87021    86836 
   86586    86331    86100    85923    85808    85660    85425    85195 
   85025    84863    84686    84508    84343    84214    84118    84059 
   84051    84059    84059    84088    84121    84080    83998    83917 
   83806    83670    83520    83386    83344    83432    83620    83899 
   84280    84731    85206    85650    86026    86320    86533    86703 
   86875    87065    87288    87500    87629    87683    87710    87735 
   87758    87774    87782    87789    87791    87787    87782    87791 
   87818    87818    87798    87836    87934    88029    88101    88153 
   88149    88059    87901    87705    87490    87274    87039    86765 
   86482    86248    86066    85914    85830    85860    85969    86105 
   86251    86408    86599    86791    86917    87000    87075    87093 
   87085    87131    87188    87187    87162    87178    87218    87214 
   87177    87178    87188    87173    87183    87223    87250    87261 
   87277    87304    87339    87367    87389    87411    87436    87505 
   87643    87795    87922    88059    88223    88393    88541    88670 
   88812    88965    89124    89282    89421    89557    89680    89726 
   89692    89602    89436    89214    88946    88592    88160    87669 
   87116    86530    85973    85484    85047    84628    84258    83956 
   83689    83470    83335    83262    83239    83278    83389    83583 
   83847    84156    84508    84875    85237    85577    85897    86252 
   86632    86954    87214    87430    87571    87632    87674    87744 
   87805    87856    87984    88188    88400    88600    88788    88973 
   89170    89357    89556    89784    89992    90171    90351    90502 
   90595    90639    90634    90605    90559    90501    90451    90410 
   90332    90184    89982    89738    89460    89172    88888    88614 
   88377    88184    87995    87787    87590    87415    87249    87070 
   86881    86684    86490    86298    86078    85822    85583    85364 
   85124    84863    84618    84380    84137    83911    83722    83532 
   83335    83185    83104    83053    83033    83087    83207    83380 
   83605    83832    84032    84249    84469    84665    84850    85002 
   85101    85153    85137    85018    84859    84762    84724    84694 
   84677    84697    84738    84770    84778    84758    84716    84640 
   84524    84384    84231    84067    83884    83664    83381    83081 
   82868    82763    82733    82776    82884    83038    83258    83587 
   84036    84555    85105    85679    86267    86802    87249    87647 
   88020    88335    88570    88758    88950    89118    89214    89240 
   89233    89239    89293    89357    89368    89355    89359    89348 
   89276    89121    88916    88709    88497    88307    88187    88115 
   88051    87993    87939    87898    87878    87859    87851    87883 
   87934    87959    87960    87943    87893    87818    87728    87593 
   87415    87234    87056    86848    86614    86405    86211    85999 
   85804    85657    85548    85488    85468    85464    85472    85488 
   85502    85509    85521    85584    85684    85764    85804    85799 
   85730    85633    85550    85468    85376    85347    85421    85541 
   85676    85841    86011    86170    86344    86520    86645    86709 
   86737    86725    86641    86506    86375    86246    86092    85946 
   85822    85683    85533    85390    85239    85108    85050    85070 
   85145    85249    85378    85550    85777    86043    86316    86563 
   86792    87015    87216    87401    87582    87739    87880    88026 
   88136    88171    88171    88167    88165    88180    88207    88236 
   88296    88400    88476    88495    88518    88565    88585    88547 
   88454    88318    88168    88024    87887    87783    87706    87627 
   87544    87439    87270    87054    86822    86616    86445    86256 
   86042    85869    85742    85635    85577    85546    85504    85487 
   85521    85600    85715    85835    85962    86115    86281    86444 
   86598    86755    86917    87025    87031    86975    86908    86819 
   86676    86494    86301    86123    86019    86019    86073    86173 
   86356    86599    86852    87120    87408    87696    87990    88276 
   88518    88716    88908    89118    89305    89432    89563    89719 
   89856    89999    90157    90262    90325    90394    90447    90486 
   90522    90510    90448    90386    90320    90221    90070    89858 
   89595    89303    89013    88727    88443    88167    87886    87601 
   87319    87023    86717    86406    86096    85822    85598    85403 
   85233    85099    85008    84929    84847    84796    84777    84755 
   84734    84704    84645    84568    84492    84439    84406    84325 
   84167    83998    83852    83686    83478    83288    83176    83097 
   82979    82864    82826    82857    82927    83010    83103    83224 
   83367    83502    83623    83748    83894    84061    84260    84457 
   84601    84694    84780    84889    85004    85093    85183    85310 
   85445    85564    85671    85766    85854    85951    86081    86231 
   86377    86533    86730    86945    87131    87281    87393    87477 
   87556    87644    87756    87905    88079    88267    88457    88618 
   88751    88893    89036    89148    89239    89309    89345    89367 
   89397    89411    89370    89260    89114    88955    88789    88620 
   88433    88238    88065    87901    87747    87636    87558    87500 
