Origin Time       2025/01/13 21:19:00
Lat.              31.8
Long.             131.6
Depth. (km)       30
Mag.              6.9
Station Code      EHMH06
Station Lat.      33.3348
Station Long.     132.7980
Station Height(m) 30
Record Time       2025/01/13 21:20:11
Sampling Freq(Hz) 100Hz
Duration Time(s)  145
Dir.              2
Scale Factor      3923(gal)/8224838
Max. Acc. (gal)   1.709
Last Correction   2025/01/13 21:20:11
Memo.             
[...]
   11524    11601    11680    11707    11689    11649    11599    11547 
   11506    11496    11526    11550    11549    11554    11568    11577 
   11587    11583    11565    11543    11512    11479    11453    11438 
   11431    11446    11488    11520    11515    11512    11522    11526 
   11554    11592    11603    11618    11646    11651    11649    11670 
   11686    11688    11713    11742    11709    11638    11596    11596 
   11614    11639    11684    11740    11793    11836    11894    11992 
   12081    12132    12166    12159    12094    12027    11959    11844 
   11709    11597    11506    11449    11454    11488    11488    11465 
   11464    11506    11583    11650    11673    11685    11699    11691 
   11668    11622    11580    11589    11593    11534    11462    11439 
   11461    11491    11514    11561    11618    11631    11630    11654 
   11680    11691    11695    11691    11715    11762    11735    11616 
   11497    11400    11313    11263    11240    11200    11167    11182 
   11267    11394    11493    11564    11626    11653    11647    11641 
   11623    11568    11473    11383    11354    11404    11510    11637 
   11765    11874    11944    11979    11986    11939    11847    11765 
   11704    11664    11661    11664    11657    11662    11639    11585 
   11560    11585    11665    11778    11857    11875    11890    11904 
   11870    11800    11755    11751    11730    11653    11518    11371 
   11292    11313    11377    11453    11533    11581    11608    11665 
   11713    11696    11672    11699    11753    11769    11697    11556 
   11407    11311    11295    11313    11345    11439    11566    11668 
   11753    11788    11763    11778    11881    12017    12131    12175 
   12151    12112    12075    12015    11935    11857    11799    11781 
   11799    11846    11905    11959    12010    12037    12010    11948 
   11859    11772    11739    11757    11759    11708    11628    11549 
   11483    11472    11520    11580    11641    11722    11832    11946 
   12013    12021    11992    11938    11877    11840    11830    11786 
   11696    11608    11510    11377    11254    11207    11295    11497 
   11704    11874    12000    12043    11998    11932    11924    11958 
   11950    11867    11750    11673    11695    11758    11770    11709 
   11616    11537    11489    11481    11512    11531    11483    11415 
   11387    11395    11437    11492    11516    11508    11502    11481 
   11454    11462    11510    11564    11626    11693    11770    11866 
   11939    11936    11893    11873    11857    11796    11708    11627 
   11562    11519    11518    11574    11682    11834    12016    12187 
   12299    12326    12240    12066    11908    11809    11708    11578 
   11484    11465    11506    11573    11643    11735    11878    11998 
   12064    12164    12318    12467    12610    12737    12784    12760 
   12748    12781    12830    12869    12893    12876    12816    12766 
   12730    12683    12660    12656    12633    12587    12509    12370 
   12205    12127    12162    12204    12150    12010    11873    11807 
   11796    11789    11797    11797    11704    11524    11348    11200 
   11086    11032    11038    11076    11117    11155    11215    11253 
   11215    11145    11101    11082    11064    11043    11030    11026 
   11040    11040    10967    10879    10874    10920    10951    10955 
   10940    10926    10940    11020    11202    11437    11634    11781 
   11865    11824    11662    11481    11350    11237    11142    11149 
   11263    11437    11653    11880    12064    12167    12193    12151 
   12074    12039    12048    12029    12006    12019    12005    11928 
   11877    11927    12044    12172    12274    12312    12305    12326 
   12384    12424    12424    12415    12395    12334    12213    12052 
   11902    11778    11678    11641    11677    11719    11709    11664 
   11585    11483    11408    11349    11271    11254    11349    11502 
   11672    11804    11834    11808    11840    11955    12104    12229 
   12268    12226    12186    12160    12083    11950    11821    11731 
   11651    11576    11549    11560    11564    11585    11681    11877 
   12128    12333    12426    12425    12363    12248    12078    11877 
   11708    11587    11449    11311    11234    11196    11196    11280 
   11395    11456    11502    11576    11626    11627    11618    11626 
   11628    11601    11592    11627    11646    11618    11597    11642 
   11746    11867    11965    12047    12164    12324    12424    12366 
   12206    12062    11938    11784    11608    11458    11377    11379 
   11438    11515    11578    11610    11604    11603    11662    11772 
   11854    11870    11813    11699    11588    11495    11377    11252 
   11187    11233    11361    11522    11685    11840    11971    12078 
   12194    12303    12316    12185    11934    11637    11433    11387 
   11456    11587    11713    11765    11746    11738    11769    11766 
   11672    11512    11353    11219    11084    10962    10918    10948 
   10966    10955    10948    10951    10928    10864    10770    10674 
   10656    10756    10935    11149    11353    11475    11533    11588 
   11630    11661    11709    11758    11769    11742    11665    11523 
   11394    11394    11507    11645    11774    11905    12039    12117 
   12100    12039    12008    12035    12100    12154    12162    12147 
   12163    12241    12397    12591    12731    12793    12807    12746 
   12565    12274    11996    11832    11730    11662    11681    11759 
   11869    11981    11989    11882    11796    11786    11790    11782 
   11790    11824    11866    11898    11902    11881    11855    11862 
   11888    11871    11827    11805    11789    11749    11695    11672 
   11695    11723    11746    11784    11819    11850    11904    11961 
   11946    11842    11712    11601    11520    11491    11510    11543 
   11610    11688    11685    11580    11448    11352    11303    11272 
   11209    11111    11040    11028    11091    11256    11519    11824 
   12112    12384    12611    12698    12636    12549    12521    12501 
   12382    12190    12064    12033    12012    11963    11913    11870 
   11839    11873    11982    12074    12117    12171    12217    12226 
   12262    12302    12262    12128    11929    11707    11553    11519 
   11529    11465    11342    11308    11421    11561    11673    11757 
   11803    11896    12067    12233    12383    12522    12595    12595 
   12534    12403    12251    12167    12140    12098    12058    12008 
   11893    11751    11634    11538    11502    11518    11506    11476 
   11491    11530    11519    11438    11381    11464    11632    11766 
   11890    12082    12259    12348    12401    12414    12334    12170 
   11947    11712    11542    11448    11389    11364    11383    11454 
   11587    11736    11857    11970    12066    12074    11979    11842 
   11754    11745    11712    11622    11566    11583    11618    11641 
   11645    11631    11645    11713    11762    11757    11785    11904 
   12064    12220    12348    12413    12379    12251    12036    11767 
   11531    11379    11273    11168    11101    11156    11300    11419 
   11481    11535    11601    11658    11705    11750    11777    11757 
   11638    11437    11291    11288    11372    11464    11538    11635 
   11842    12128    12348    12430    12403    12324    12243    12205 
   12229    12272    12275    12251    12305    12514    12820    13086 
   13258    13374    13420    13335    13150    12914    12669    12496 
   12376    12232    12085    11967    11842    11719    11623    11518 
   11421    11403    11441    11472    11488    11516    11603    11709 
   11757    11728    11634    11515    11454    11488    11607    11746 
   11826    11892    12015    12117    12156    12208    12244    12181 
   12058    11954    11843    11662    11473    11406    11520    11772 
   12063    12305    12436    12420    12276    12066    11835    11595 
   11365    11187    11044    10908    10789    10727    10740    10824 
   10976    11186    11429    11674    11871    11977    11983    11904 
   11782    11713    11757    11875    12037    12240    12469    12699 
   12883    12972    12970    12912    12780    12569    12355    12221 
   12143    12073    12055    12121    12210    12267    12248    12118 
   11921    11755    11630    11527    11450    11354    11213    11099 
   11109    11214    11281    11290    11338    11443    11519    11527 
   11452    11326    11279    11345    11402    11346    11191    11013 
   10885    10816    10767    10716    10663    10632    10635    10658 
   10712    10824    10997    11240    11496    11619    11566    11470 
   11407    11369    11418    11566    11700    11786    11904    12036 
   12066    11938    11720    11547    11461    11385    11354    11466 
   11654    11820    12006    12260    12503    12627    12646    12645 
   12633    12541    12349    12112    11908    11739    11537    11321 
   11184    11169    11298    11556    11851    12075    12226    12359 
   12486    12604    12714    12792    12843    12901    12950    12941 
   12819    12556    12210    11913    11763    11758    11824    11859 
   11809    11695    11578    11529    11574    11672    11742    11742 
   11677    11570    11434    11286    11155    11091    11107    11167 
   11256    11377    11487    11529    11491    11416    11367    11349 
   11368    11456    11603    11758    11842    11753    11524    11335 
   11269    11286    11321    11310    11250    11207    11217    11259 
   11313    11371    11404    11368    11246    11060    10910    10897 
   10940    10894    10764    10674    10696    10781    10852    10885 
   10882    10849    10806    10786    10814    10860    10913    11011 
   11133    11225    11302    11389    11462    11519    11596    11716 
   11820    11828    11785    11803    11893    11989    12044    12062 
   12059    12048    12071    12214    12502    12783    12899    12914 
   12974    13084    13180    13248    13284    13282    13259    13213 
   13132    12988    12739    12447    12270    12278    12394    12501 
   12534    12572    12676    12752    12721    12613    12441    12205 
   11934    11653    11400    11248    11232    11313    11472    11723 
   12012    12217    12268    12244    12240    12241    12212    12137 
   12005    11853    11728    11616    11502    11385    11260    11176 
   11149    11095    10955    10759    10575    10419    10238    10060 
    9965     9936     9907     9888     9925    10007    10049     9985 
    9834     9693     9697     9840     9957     9992    10006    10017 
   10052    10157    10368    10689    11072    11484    11898    12224 
   12401    12453    12428    12348    12217    12069    11963    11905 
   11867    11826    11788    11830    12005    12235    12421    12552 
   12630    12634    12598    12591    12621    12645    12633    12579 
   12505    12415    12307    12225    12190    12163    12124    12058 
   11978    11936    11946    11988    12110    12390    12757    13053 
   13219    13297    13324    13315    13271    13257    13306    13278 
   13103    12922    12808    12719    12679    12723    12771    12730 
   12617    12498    12440    12441    12445    12455    12490    12507 
   12468    12343    12143    11970    11898    11881    11839    11759 
   11674    11600    11519    11383    11171    10975    10881    10843 
   10816    10797    10752    10651    10559    10571    10669    10760 
   10781    10693    10530    10389    10332    10349    10404    10505 
   10674    10899    11146    11416    11680    11851    11938    12008 
   12058    12028    11908    11778    11718    11674    11622    11672 
   11844    12008    12089    12109    12106    12135    12213    12306 
   12410    12517    12614    12733    12861    12924    12900    12843 
   12791    12711    12596    12517    12549    12679    12800    12854 
   12907    13015    13104    13130    13158    13200    13212    13189 
   13135    13069    13032    13009    12933    12798    12721    12815 
   13038    13238    13350    13440    13556    13643    13613    13482 
   13340    13203    13018    12772    12491    12212    11997    11867 
   11765    11666    11597    11577    11612    11665    11666    11597 
   11472    11323    11218    11151    11047    10895    10725    10567 
   10496    10531    10643    10868    11141    11295    11304    11219 
   11071    10902    10743    10633    10584    10532    10427    10332 
   10381    10559    10735    10875    11063    11352    11682    11925 
   12033    12069    12052    11923    11682    11462    11348    11280 
   11207    11176    11202    11248    11303    11346    11349    11340 
   11358    11450    11646    11878    12054    12177    12235    12168 
   12027    11917    11862    11838    11826    11797    11753    11705 
   11711    11824    11978    12067    12086    12035    11944    11855 
   11730    11605    11570    11580    11562    11570    11646    11700 
   11668    11593    11488    11358    11288    11284    11279    11257 
   11200    11105    11055    11103    11190    11199    11137    11125 
   11191    11234    11221    11202    11191    11202    11286    11431 
   11533    11510    11421    11345    11209    10932    10559    10177 
    9895     9782     9720     9548     9313     9123     8974     8824 
    8668     8513     8368     8266     8217     8183     8152     8166 
    8256     8434     8646     8833     8992     9077     9078     9115 
    9242     9421     9647     9892    10133    10431    10810    11198 
   11523    11753    11874    11897    11855    11827    11908    12062 
   12175    12259    12379    12544    12734    12903    13014    13128 
   13285    13427    13559    13714    13822    13806    13706    13628 
   13621    13633    13617    13591    13570    13541    13531    13551 
   13527    13409    13252    13135    13065    13020    13050    13238 
   13540    13822    14013    14119    14160    14173    14208    14254 
   14257    14185    14034    13834    13637    13455    13271    13074 
   12830    12545    12285    12101    12028    12101    12271    12430 
   12532    12634    12800    12999    13139    13204    13203    13104 
   12919    12694    12440    12198    12046    12024    12079    12125 
   12156    12201    12204    12166    12197    12330    12483    12569 
   12571    12509    12397    12206    11939    11662    11418    11157 
   10870    10579    10291    10057     9948     9954    10042    10168 
   10295    10434    10575    10636    10578    10446    10239     9969 
    9684     9423     9224     9107     9053     9092     9224     9366 
    9495     9663     9840     9950     9990     9994     9990    10021 
   10122    10254    10318    10303    10316    10404    10542    10736 
   10924    10984    10959    11001    11101    11146    11125    11070 
   11025    11061    11142    11223    11379    11626    11873    12042 
   12078    12006    11944    11919    11873    11827    11821    11804 
   11750    11730    11781    11898    12085    12293    12496    12735 
   12976    13119    13134    13047    12910    12793    12753    12773 
   12798    12799    12799    12762    12609    12360    12137    12019 
   11996    12004    11998    11979    11992    12064    12177    12336 
   12582    12874    13153    13379    13477    13409    13228    12965 
   12673    12488    12456    12533    12675    12793    12847    12883 
   12895    12858    12785    12692    12644    12677    12703    12671 
   12648    12649    12627    12583    12560    12584    12637    12685 
   12731    12730    12606    12370    12097    11843    11616    11410 
   11205    10939    10625    10374    10237    10187    10165    10130 
   10110    10146    10220    10305    10422    10565    10659    10648 
   10540    10368    10173     9992     9830     9670     9504     9382 
    9329     9289     9298     9479     9814    10157    10457    10760 
   11045    11236    11344    11438    11542    11637    11705    11762 
   11815    11805    11749    11757    11867    12036    12272    12564 
   12838    13054    13208    13308    13360    13344    13258    13143 
   13034    12934    12808    12625    12382    12121    11909    11761 
   11657    11604    11632    11718    11782    11811    11831    11850 
   11885    11943    11998    12029    12015    11983    12008    12105 
   12248    12398    12523    12634    12758    12860    12879    12771 
   12559    12339    12179    12051    11916    11808    11765    11763 
   11811    11923    12033    12075    12077    12062    11974    11782 
   11522    11254    11056    10989    11052    11148    11196    11240 
   11314    11377    11437    11522    11628    11765    11928    12056 
   12132    12218    12318    12368    12368    12359    12344    12313 
   12294    12334    12430    12552    12691    12860    13068    13275 
   13444    13591    13757    13953    14131    14220    14189    14062 
   13886    13690    13514    13424    13409    13389    13319    13216 
   13123    13072    13038    12972    12888    12799    12667    12501 
   12380    12326    12268    12162    12050    11919    11709    11450 
   11207    10995    10820    10674    10563    10512    10517    10567 
   10638    10671    10654    10638    10620    10539    10388    10196 
    9957     9693     9462     9327     9282     9279     9301     9356 
    9402     9379     9296     9204     9140     9139     9221     9393 
    9651     9953    10231    10455    10635    10783    10930    11101 
   11254    11348    11411    11497    11622    11770    11924    12073 
   12204    12287    12328    12357    12348    12268    12147    12004 
   11805    11568    11348    11160    10994    10866    10794    10773 
   10778    10775    10768    10777    10774    10728    10643    10565 
   10539    10532    10478    10390    10315    10274    10284    10374 
   10558    10793    11016    11175    11246    11277    11322    11369 
   11438    11566    11708    11790    11813    11815    11805    11804 
   11862    11967    12036    12028    11970    11874    11753    11666 
   11650    11672    11704    11736    11745    11732    11704    11615 
   11445    11249    11092    10987    10893    10778    10646    10515 
   10415    10404    10498    10648    10828    11033    11207    11337 
   11453    11524    11535    11538    11553    11583    11686    11869 
   12074    12295    12548    12785    12970    13136    13340    13601 
   13887    14127    14247    14260    14265    14334    14431    14521 
   14636    14760    14837    14885    14936    14959    14917    14844 
   14793    14742    14661    14571    14459    14268    13996    13687 
   13369    13068    12775    12467    12155    11858    11595    11400 
   11280    11205    11137    11033    10863    10635    10374    10107 
    9865     9709     9644     9606     9545     9454     9355     9300 
    9281     9252     9205     9143     9070     9018     9020     9069 
    9158     9313     9509     9703     9923    10188    10431    10609 
   10747    10863    10952    11017    11082    11152    11215    11277 
   11367    11502    11659    11808    11944    12062    12129    12150 
