Origin Time       2025/01/13 21:19:00
Lat.              31.8
Long.             131.6
Depth. (km)       30
Mag.              6.9
Station Code      EHMH13
Station Lat.      33.3719
Station Long.     132.1157
Station Height(m) -212
Record Time       2025/01/13 21:20:22
Sampling Freq(Hz) 100Hz
Duration Time(s)  120
Dir.              2
Scale Factor      2942(gal)/8224139
Max. Acc. (gal)   0.218
Last Correction   2025/01/13 21:20:22
Memo.             
[...]
   37828    37821    37824    37833    37847    37858    37856    37845 
   37829    37813    37798    37783    37773    37777    37787    37789 
   37787    37794    37791    37782    37775    37763    37758    37764 
   37773    37785    37809    37833    37851    37871    37882    37875 
   37870    37863    37847    37827    37801    37775    37762    37758 
   37759    37762    37762    37758    37752    37751    37752    37748 
   37746    37736    37719    37708    37712    37721    37729    37736 
   37755    37778    37787    37790    37783    37766    37750    37747 
   37752    37759    37766    37766    37746    37724    37728    37732 
   37714    37701    37697    37689    37705    37735    37743    37735 
   37732    37733    37739    37756    37789    37816    37822    37818 
   37813    37801    37783    37770    37762    37762    37778    37802 
   37814    37817    37829    37841    37847    37854    37843    37822 
   37814    37798    37783    37787    37783    37766    37744    37725 
   37728    37747    37752    37755    37767    37764    37748    37754 
   37770    37763    37741    37729    37728    37719    37716    37739 
   37775    37820    37863    37885    37893    37889    37871    37863 
   37856    37832    37812    37795    37770    37750    37756    37778 
   37797    37813    37822    37821    37810    37790    37759    37725 
   37708    37710    37714    37712    37714    37721    37728    37740 
   37760    37781    37797    37810    37816    37812    37801    37787 
   37773    37764    37766    37771    37775    37778    37783    37790 
   37800    37804    37797    37790    37787    37779    37768    37766 
   37763    37747    37736    37735    37740    37755    37771    37789 
   37794    37774    37762    37759    37736    37712    37714    37735 
   37755    37771    37789    37790    37786    37798    37806    37804 
   37813    37828    37839    37840    37828    37814    37813    37814 
   37822    37845    37867    37874    37867    37858    37862    37874 
   37867    37852    37845    37852    37870    37901    37939    37960 
   37955    37945    37928    37890    37854    37831    37824    37818 
   37810    37817    37844    37864    37874    37870    37860    37863 
   37858    37833    37817    37806    37801    37806    37818    37840 
   37864    37872    37862    37844    37821    37805    37805    37806 
   37804    37808    37817    37817    37809    37789    37770    37756 
   37740    37728    37736    37746    37741    37735    37732    37732 
   37731    37725    37714    37710    37714    37720    37737    37755 
   37759    37759    37766    37781    37797    37816    37848    37874 
   37874    37866    37852    37833    37817    37801    37785    37775 
   37763    37743    37729    37731    37736    37746    37758    37770 
   37781    37791    37808    37827    37837    37847    37860    37870 
   37876    37870    37847    37824    37802    37779    37766    37766 
   37771    37777    37790    37804    37809    37816    37822    37818 
   37812    37804    37781    37763    37777    37786    37773    37763 
   37766    37782    37800    37789    37781    37795    37800    37798 
   37806    37806    37804    37814    37816    37800    37790    37795 
   37806    37836    37864    37854    37832    37817    37787    37752 
   37741    37756    37775    37777    37781    37800    37808    37806 
   37812    37814    37818    37817    37810    37816    37828    37839 
   37848    37848    37831    37809    37790    37774    37764    37766 
   37781    37805    37831    37847    37851    37862    37875    37878 
   37879    37879    37870    37849    37831    37822    37820    37825 
   37847    37871    37891    37912    37917    37914    37910    37908 
   37909    37901    37882    37870    37882    37885    37866    37854 
   37848    37841    37841    37833    37827    37832    37832    37832 
   37832    37827    37825    37827    37813    37801    37804    37797 
   37783    37781    37778    37775    37779    37782    37775    37777 
   37813    37849    37852    37837    37824    37809    37790    37775 
   37762    37747    37741    37735    37728    37748    37778    37785 
   37790    37797    37794    37791    37783    37773    37779    37794 
   37808    37818    37827    37829    37829    37831    37833    37825 
   37813    37812    37809    37818    37849    37871    37866    37847 
   37843    37855    37848    37821    37810    37806    37794    37790 
   37787    37781    37775    37771    37763    37755    37752    37750 
   37748    37754    37760    37767    37777    37773    37752    37735 
   37727    37717    37713    37716    37727    37740    37741    37739 
   37744    37744    37731    37732    37743    37732    37717    37714 
   37710    37713    37729    37750    37767    37781    37794    37794 
   37778    37764    37763    37768    37773    37774    37775    37770 
   37759    37750    37737    37724    37717    37724    37737    37754 
   37768    37779    37790    37806    37821    37828    37827    37824 
   37821    37818    37817    37825    37832    37832    37835    37836 
   37828    37824    37822    37812    37802    37810    37822    37829 
   37828    37813    37801    37804    37814    37828    37840    37849 
   37852    37852    37845    37831    37820    37818    37812    37809 
   37820    37831    37839    37849    37841    37812    37778    37751 
   37725    37701    37683    37669    37654    37642    37638    37638 
   37638    37647    37662    37670    37677    37686    37690    37690 
   37700    37713    37728    37747    37759    37764    37771    37781 
   37794    37812    37825    37828    37800    37752    37732    37731 
   37712    37702    37710    37714    37724    37733    37733    37736 
   37736    37733    37733    37743    37755    37767    37777    37777 
   37770    37762    37758    37756    37758    37766    37775    37779 
   37787    37806    37822    37821    37828    37863    37893    37897 
   37894    37889    37875    37860    37843    37818    37798    37794 
   37794    37794    37800    37802    37808    37829    37848    37855 
   37864    37876    37883    37882    37868    37858    37858    37851 
   37837    37832    37821    37802    37791    37790    37793    37790 
   37785    37786    37785    37778    37771    37755    37740    37743 
   37748    37754    37754    37750    37751    37755    37763    37775 
   37794    37810    37812    37798    37782    37764    37751    37746 
   37746    37747    37755    37762    37763    37760    37759    37762 
   37774    37791    37806    37809    37814    37821    37805    37770 
   37736    37709    37698    37697    37683    37670    37692    37712 
   37705    37708    37708    37675    37656    37660    37654    37642 
   37643    37648    37654    37658    37656    37659    37673    37681 
   37693    37716    37731    37725    37701    37687    37704    37721 
   37727    37735    37740    37735    37728    37728    37720    37701 
   37689    37677    37659    37652    37662    37679    37700    37728 
   37759    37773    37771    37758    37725    37696    37694    37696 
   37681    37673    37679    37685    37689    37685    37674    37673 
   37679    37687    37705    37729    37754    37774    37790    37797 
   37795    37794    37801    37804    37795    37781    37770    37770 
   37774    37777    37791    37820    37835    37832    37822    37806 
   37790    37777    37766    37754    37744    37744    37752    37767 
   37790    37810    37818    37820    37820    37810    37798    37798 
   37794    37778    37770    37773    37773    37773    37791    37832 
   37874    37908    37932    37959    37980    37978    37967    37956 
   37932    37898    37856    37808    37767    37755    37762    37771 
   37787    37809    37829    37847    37864    37879    37889    37895 
   37902    37912    37914    37902    37886    37867    37832    37794 
   37771    37758    37744    37731    37729    37736    37735    37736 
   37756    37764    37758    37755    37747    37733    37728    37735 
   37755    37779    37789    37787    37778    37766    37767    37779 
   37778    37773    37786    37802    37805    37805    37804    37793 
   37775    37758    37740    37724    37716    37702    37696    37710 
   37731    37755    37789    37810    37829    37843    37841    37843 
   37843    37827    37806    37786    37767    37751    37739    37737 
   37731    37719    37727    37743    37764    37805    37840    37858 
   37876    37897    37899    37879    37855    37839    37825    37820 
   37827    37841    37858    37870    37883    37906    37921    37921 
   37930    37944    37941    37935    37925    37905    37897    37897 
   37897    37905    37918    37924    37913    37891    37875    37862 
   37852    37852    37854    37854    37837    37817    37813    37816 
   37833    37854    37847    37854    37879    37882    37876    37876 
   37870    37863    37866    37863    37840    37816    37809    37798 
   37778    37770    37760    37736    37706    37679    37677    37692 
   37700    37712    37733    37751    37767    37778    37789    37806 
   37827    37831    37821    37818    37820    37817    37813    37804 
   37797    37802    37802    37787    37775    37758    37732    37720 
   37720    37731    37752    37771    37785    37800    37806    37810 
   37831    37863    37891    37921    37943    37947    37945    37947 
   37947    37959    37993    38029    38045    38045    38018    37966 
   37905    37854    37831    37812    37779    37768    37779    37779 
   37773    37775    37782    37770    37732    37712    37729    37735 
   37733    37758    37782    37786    37791    37809    37824    37829 
   37829    37822    37821    37831    37829    37825    37836    37855 
   37863    37866    37874    37875    37867    37860    37843    37817 
   37804    37801    37795    37793    37789    37778    37768    37762 
   37770    37790    37809    37837    37863    37871    37866    37854 
   37843    37831    37804    37782    37783    37794    37805    37821 
   37831    37822    37810    37795    37774    37755    37739    37721 
   37705    37692    37692    37692    37679    37673    37677    37682 
   37700    37731    37755    37770    37785    37802    37827    37843 
   37852    37876    37899    37903    37908    37918    37928    37940 
   37951    37952    37959    37976    37997    38003    37995    37986 
   37982    37974    37962    37949    37930    37905    37878    37855 
   37839    37829    37825    37821    37825    37841    37866    37882 
   37889    37898    37921    37935    37920    37893    37866    37835 
   37802    37775    37756    37744    37733    37725    37733    37764 
   37806    37847    37894    37944    37987    38028    38059    38075 
   38082    38087    38092    38095    38088    38065    38028    37995 
   37986    37993    38001    38013    38026    38034    38034    38021 
   37994    37957    37912    37866    37822    37786    37759    37731 
   37706    37690    37673    37656    37650    37651    37654    37655 
   37650    37633    37611    37588    37565    37546    37531    37512 
   37492    37477    37471    37477    37496    37531    37579    37636 
   37687    37728    37754    37764    37775    37782    37771    37756 
   37748    37735    37721    37704    37679    37671    37687    37710 
   37731    37746    37743    37728    37723    37713    37689    37671 
   37665    37654    37623    37593    37593    37612    37627    37655 
   37686    37697    37716    37743    37751    37751    37752    37747 
   37759    37790    37810    37821    37835    37843    37851    37856 
   37852    37852    37860    37866    37875    37894    37905    37912 
   37920    37917    37913    37909    37908    37916    37918    37901 
   37866    37820    37768    37720    37674    37631    37600    37578 
   37563    37562    37565    37557    37547    37543    37542    37540 
   37554    37574    37594    37621    37647    37659    37674    37713 
   37759    37790    37828    37879    37916    37944    37978    38010 
   38038    38048    38061    38083    38075    38040    37998    37945 
   37886    37835    37810    37806    37818    37841    37860    37870 
   37876    37889    37891    37870    37840    37812    37782    37754 
   37731    37727    37736    37748    37773    37813    37863    37914 
   37951    37968    37974    37964    37943    37916    37889    37868 
   37860    37849    37837    37832    37837    37860    37906    37957 
   37998    38028    38053    38067    38064    38047    38030    38021 
   38005    37979    37948    37922    37901    37875    37856    37847 
   37831    37822    37827    37822    37818    37841    37876    37909 
   37935    37939    37920    37903    37887    37867    37856    37851 
   37841    37844    37870    37894    37910    37932    37955    37959 
   37953    37957    37964    37970    37976    37998    38028    38036 
   38033    38038    38038    38033    38040    38044    38041    38038 
   38032    38022    38016    38013    38007    38003    37995    37974 
   37941    37910    37868    37816    37770    37733    37689    37643 
   37627    37632    37636    37640    37642    37638    37640    37628 
   37589    37552    37525    37503    37492    37488    37485    37481 
   37481    37493    37504    37516    37524    37513    37484    37442 
   37374    37301    37258    37234    37211    37191    37180    37195 
   37220    37241    37274    37315    37341    37355    37361    37354 
   37345    37334    37318    37292    37265    37255    37246    37222 
   37206    37210    37220    37231    37245    37257    37277    37307 
   37342    37370    37384    37389    37386    37386    37390    37380 
   37358    37335    37300    37268    37262    37282    37327    37380 
   37415    37453    37511    37563    37601    37643    37678    37689 
   37690    37683    37658    37621    37577    37534    37503    37494 
   37513    37558    37606    37662    37717    37752    37766    37775 
   37785    37810    37858    37918    37976    38036    38098    38144 
   38161    38160    38149    38144    38144    38141    38137    38141 
   38149    38152    38156    38155    38145    38148    38148    38129 
   38106    38090    38072    38064    38074    38088    38109    38142 
   38169    38172    38149    38121    38083    38037    38002    37980 
   37970    37986    38018    38064    38129    38194    38234    38257 
   38265    38248    38215    38176    38137    38107    38079    38059 
   38051    38043    38034    38034    38033    38024    38010    37997 
   37982    37952    37912    37890    37893    37902    37914    37932 
   37947    37953    37962    37966    37951    37929    37908    37893 
   37882    37867    37860    37867    37876    37883    37879    37871 
   37866    37858    37856    37863    37867    37862    37855    37851 
   37833    37798    37750    37696    37651    37608    37569    37540 
   37512    37493    37486    37466    37432    37403    37365    37315 
   37270    37245    37226    37211    37216    37233    37257    37305 
   37363    37412    37466    37523    37559    37592    37627    37639 
   37620    37598    37581    37557    37540    37546    37551    37550 
   37559    37570    37559    37532    37503    37465    37435    37423 
   37423    37438    37466    37496    37524    37543    37552    37562 
   37569    37573    37597    37632    37667    37706    37739    37763 
   37798    37843    37883    37914    37939    37959    37976    38003 
   38034    38057    38086    38128    38157    38172    38186    38207 
   38222    38223    38234    38254    38259    38252    38240    38209 
   38176    38153    38114    38064    38014    37957    37898    37844 
   37791    37743    37719    37716    37710    37704    37704    37712 
   37724    37747    37782    37818    37845    37870    37898    37933 
   37964    37994    38028    38053    38067    38076    38075    38061 
   38049    38044    38036    38018    37994    37964    37932    37906 
   37891    37878    37871    37863    37849    37835    37805    37762 
   37731    37701    37669    37644    37628    37631    37654    37666 
   37663    37666    37667    37678    37706    37733    37756    37798 
   37851    37886    37890    37876    37854    37831    37829    37848 
   37872    37899    37918    37918    37913    37902    37890    37886 
   37891    37887    37875    37862    37849    37833    37824    37839 
   37860    37879    37909    37922    37914    37917    37905    37872 
   37854    37835    37814    37812    37809    37797    37785    37777 
   37774    37787    37808    37825    37848    37876    37898    37917 
   37929    37925    37917    37916    37917    37921    37935    37962 
   37994    38022    38051    38080    38124    38176    38215    38219 
   38184    38124    38061    38007    37960    37921    37882    37844 
   37817    37798    37793    37812    37852    37882    37885    37867 
   37840    37813    37786    37768    37778    37806    37822    37821 
   37818    37822    37821    37813    37800    37779    37755    37714 
   37660    37615    37578    37539    37501    37467    37438    37407 
   37359    37305    37270    37251    37235    37227    37230    37231 
   37231    37239    37242    37231    37223    37214    37201    37203 
   37224    37262    37319    37390    37461    37523    37573    37605 
   37613    37600    37584    37567    37557    37562    37573    37581 
   37593    37612    37647    37693    37731    37760    37778    37767 
   37733    37702    37678    37635    37570    37530    37521    37524 
   37539    37562    37588    37639    37705    37751    37777    37797 
   37794    37770    37746    37717    37677    37638    37608    37590 
   37585    37588    37604    37625    37640    37655    37687    37725 
   37766    37814    37844    37856    37883    37922    37959    38002 
   38048    38090    38129    38160    38179    38188    38190    38190 
   38178    38152    38129    38111    38101    38102    38106    38109 
   38114    38119    38129    38141    38151    38148    38136    38103 
   38040    37964    37908    37874    37860    37863    37875    37891 
   37916    37937    37939    37925    37913    37898    37870    37831 
   37789    37754    37724    37693    37663    37652    37647    37629 
   37605    37573    37534    37504    37489    37476    37455    37440 
   37431    37420    37430    37473    37535    37606    37683    37750 
   37801    37858    37912    37951    37980    38003    38029    38055 
   38061    38043    38001    37943    37890    37847    37800    37744 
   37704    37682    37660    37639    37620    37606    37596    37585 
   37598    37629    37650    37669    37685    37694    37708    37704 
   37670    37639    37612    37590    37586    37584    37584    37593 
   37593    37590    37612    37650    37674    37678    37671    37651 
   37627    37621    37623    37612    37604    37615    37633    37652 
   37674    37697    37706    37706    37702    37697    37686    37662 
   37640    37647    37675    37728    37798    37859    37916    37987 
   38056    38114    38169    38194    38179    38138    38071    37998 
