Origin Time       2025/01/13 21:19:00
Lat.              31.8
Long.             131.6
Depth. (km)       30
Mag.              6.9
Station Code      EHMH12
Station Lat.      33.4270
Station Long.     132.5055
Station Height(m) 250
Record Time       2025/01/13 21:20:07
Sampling Freq(Hz) 100Hz
Duration Time(s)  153
Dir.              6
Scale Factor      7845(gal)/8223790
Max. Acc. (gal)   2.948
Last Correction   2025/01/13 21:20:07
Memo.             
[...]
   -6574    -6720    -6886    -6949    -6864    -6708    -6556    -6493 
   -6604    -6777    -6897    -7053    -7281    -7524    -7767    -7913 
   -7857    -7630    -7338    -7048    -6739    -6397    -6097    -5846 
   -5614    -5462    -5398    -5393    -5514    -5768    -6043    -6311 
   -6566    -6759    -6943    -7125    -7219    -7230    -7215    -7229 
   -7318    -7410    -7393    -7284    -7206    -7248    -7350    -7396 
   -7368    -7349    -7384    -7414    -7406    -7335    -7128    -6802 
   -6500    -6272    -6039    -5744    -5418    -5189    -5147    -5256 
   -5462    -5711    -5914    -6035    -6151    -6292    -6409    -6500 
   -6610    -6774    -6980    -7169    -7277    -7321    -7354    -7395 
   -7453    -7539    -7612    -7638    -7565    -7377    -7196    -7083 
   -6948    -6759    -6562    -6377    -6235    -6143    -6069    -6038 
   -6122    -6318    -6570    -6799    -6921    -6921    -6856    -6767 
   -6656    -6529    -6408    -6300    -6180    -6023    -5881    -5881 
   -6037    -6187    -6210    -6189    -6255    -6400    -6562    -6681 
   -6690    -6646    -6658    -6716    -6732    -6681    -6613    -6570 
   -6556    -6548    -6488    -6351    -6164    -5935    -5718    -5609 
   -5622    -5694    -5805    -5941    -6042    -6123    -6231    -6369 
   -6539    -6705    -6845    -7015    -7217    -7373    -7465    -7520 
   -7537    -7531    -7516    -7442    -7331    -7276    -7257    -7226 
   -7203    -7190    -7186    -7218    -7275    -7296    -7250    -7169 
   -7072    -6932    -6748    -6525    -6280    -6088    -6042    -6120 
   -6220    -6272    -6264    -6278    -6423    -6650    -6841    -6986 
   -7121    -7272    -7437    -7524    -7484    -7410    -7384    -7414 
   -7480    -7507    -7447    -7331    -7167    -6966    -6775    -6571 
   -6342    -6156    -6069    -6122    -6327    -6593    -6817    -6999 
   -7128    -7157    -7148    -7141    -7034    -6777    -6450    -6138 
   -5934    -5910    -5980    -6019    -6060    -6197    -6359    -6450 
   -6532    -6612    -6629    -6642    -6706    -6804    -6903    -6966 
   -7011    -7099    -7222    -7375    -7566    -7767    -7904    -7886 
   -7770    -7701    -7615    -7438    -7294    -7245    -7236    -7250 
   -7252    -7180    -7101    -7071    -7025    -6907    -6767    -6655 
   -6546    -6424    -6312    -6189    -6045    -5903    -5779    -5675 
   -5549    -5398    -5271    -5175    -5097    -5040    -5011    -4999 
   -5015    -5097    -5206    -5269    -5314    -5408    -5512    -5593 
   -5692    -5810    -5902    -5971    -5998    -5964    -5913    -5840 
   -5741    -5690    -5730    -5854    -6011    -6130    -6249    -6436 
   -6648    -6835    -7028    -7244    -7446    -7639    -7842    -8028 
   -8154    -8186    -8137    -8062    -7929    -7673    -7354    -7107 
   -6982    -6937    -6902    -6872    -6862    -6840    -6840    -6934 
   -7072    -7163    -7200    -7176    -7121    -7125    -7141    -7078 
   -6986    -6918    -6824    -6669    -6480    -6288    -6106    -5950 
   -5809    -5691    -5678    -5740    -5795    -5840    -5833    -5773 
   -5763    -5791    -5790    -5753    -5687    -5628    -5616    -5636 
   -5675    -5719    -5725    -5691    -5734    -5935    -6156    -6266 
   -6336    -6463    -6628    -6735    -6741    -6762    -6922    -7180 
   -7377    -7464    -7539    -7666    -7763    -7738    -7623    -7524 
   -7484    -7469    -7456    -7489    -7599    -7793    -8064    -8351 
   -8606    -8815    -8950    -8993    -8912    -8698    -8387    -8055 
   -7730    -7392    -7057    -6791    -6660    -6609    -6492    -6326 
   -6210    -6124    -6057    -6021    -5957    -5837    -5725    -5679 
   -5694    -5740    -5775    -5763    -5778    -5876    -6004    -6147 
   -6323    -6446    -6465    -6470    -6550    -6650    -6717    -6783 
   -6859    -6941    -7047    -7130    -7163    -7177    -7144    -6984 
   -6763    -6585    -6446    -6323    -6239    -6193    -6164    -6124 
   -6050    -5995    -6039    -6176    -6345    -6485    -6589    -6721 
   -6897    -7071    -7213    -7311    -7411    -7569    -7746    -7824 
   -7794    -7762    -7743    -7708    -7707    -7712    -7646    -7560 
   -7508    -7379    -7109    -6836    -6693    -6687    -6727    -6698 
   -6542    -6334    -6215    -6181    -6139    -6042    -5904    -5825 
   -5826    -5799    -5724    -5632    -5516    -5421    -5409    -5489 
   -5617    -5695    -5670    -5609    -5598    -5655    -5813    -6080 
   -6345    -6523    -6654    -6767    -6870    -6961    -6964    -6837 
   -6698    -6640    -6619    -6559    -6458    -6384    -6408    -6539 
   -6755    -6990    -7142    -7202    -7257    -7337    -7398    -7420 
   -7435    -7437    -7357    -7198    -7041    -6961    -6970    -6997 
   -6974    -6912    -6875    -6898    -6921    -6871    -6763    -6679 
   -6670    -6720    -6812    -6903    -6960    -7038    -7200    -7435 
   -7658    -7773    -7790    -7790    -7815    -7839    -7786    -7641 
   -7487    -7415    -7425    -7464    -7496    -7506    -7497    -7497 
   -7501    -7480    -7387    -7188    -6912    -6640    -6443    -6313 
   -6197    -6106    -6108    -6212    -6397    -6616    -6787    -6887 
   -6902    -6782    -6589    -6432    -6315    -6210    -6142    -6129 
   -6201    -6354    -6480    -6523    -6579    -6732    -6936    -7084 
   -7114    -7034    -6921    -6831    -6752    -6664    -6550    -6396 
   -6277    -6313    -6488    -6659    -6702    -6588    -6438    -6330 
   -6154    -5867    -5543    -5236    -5022    -4951    -4997    -5131 
   -5344    -5607    -5876    -6127    -6332    -6459    -6501    -6436 
   -6286    -6123    -5961    -5791    -5670    -5647    -5678    -5734 
   -5852    -6016    -6197    -6372    -6502    -6608    -6681    -6637 
   -6478    -6304    -6180    -6099    -6064    -6145    -6319    -6475 
   -6627    -6826    -7002    -7052    -7005    -6955    -6922    -6870 
   -6813    -6791    -6782    -6724    -6617    -6505    -6396    -6309 
   -6299    -6369    -6475    -6590    -6712    -6799    -6808    -6771 
   -6750    -6744    -6725    -6685    -6625    -6566    -6542    -6543 
   -6507    -6416    -6338    -6315    -6349    -6432    -6535    -6616 
   -6708    -6885    -7122    -7348    -7508    -7601    -7680    -7788 
   -7931    -8073    -8114    -8046    -7992    -7963    -7888    -7747 
   -7554    -7396    -7350    -7346    -7299    -7218    -7123    -7028 
   -6929    -6831    -6748    -6683    -6637    -6621    -6640    -6652 
   -6609    -6542    -6538    -6617    -6744    -6890    -7052    -7241 
   -7461    -7690    -7867    -7947    -7965    -7929    -7862    -7782 
   -7665    -7553    -7487    -7408    -7268    -7068    -6858    -6745 
   -6751    -6764    -6736    -6708    -6686    -6663    -6635    -6546 
   -6385    -6196    -5958    -5691    -5501    -5414    -5371    -5355 
   -5377    -5456    -5643    -5879    -6042    -6124    -6135    -6073 
   -5985    -5915    -5859    -5773    -5694    -5687    -5714    -5761 
   -5890    -6070    -6210    -6285    -6411    -6620    -6770    -6806 
   -6770    -6671    -6592    -6593    -6663    -6818    -7051    -7303 
   -7535    -7758    -8013    -8274    -8401    -8332    -8155    -7935 
   -7669    -7362    -7021    -6667    -6394    -6319    -6467    -6716 
   -6933    -7078    -7153    -7180    -7177    -7138    -7014    -6793 
   -6517    -6220    -5972    -5899    -5968    -5992    -5945    -5927 
   -5952    -5988    -6015    -5972    -5841    -5668    -5490    -5348 
   -5297    -5332    -5431    -5579    -5771    -5965    -6050    -5965 
   -5802    -5679    -5620    -5602    -5645    -5784    -5961    -6133 
   -6340    -6586    -6759    -6824    -6872    -6920    -6917    -6901 
   -6871    -6793    -6751    -6851    -7057    -7280    -7483    -7673 
   -7847    -7978    -8005    -7951    -7936    -7970    -7928    -7786 
   -7593    -7342    -7090    -6953    -6941    -7013    -7144    -7249 
   -7253    -7233    -7296    -7349    -7223    -6920    -6536    -6095 
   -5603    -5181    -4884    -4610    -4325    -4139    -4136    -4303 
   -4540    -4746    -4936    -5159    -5371    -5516    -5599    -5652 
   -5701    -5769    -5853    -5958    -6116    -6286    -6421    -6565 
   -6724    -6855    -6978    -7059    -7015    -6868    -6705    -6610 
   -6593    -6594    -6613    -6647    -6664    -6678    -6701    -6760 
   -6837    -6836    -6772    -6717    -6640    -6581    -6575    -6546 
   -6524    -6633    -6833    -6975    -7015    -7051    -7138    -7253 
   -7361    -7385    -7284    -7137    -6993    -6880    -6858    -6895 
   -6947    -7024    -7161    -7368    -7578    -7728    -7805    -7821 
   -7813    -7793    -7769    -7707    -7526    -7267    -7082    -7029 
   -7064    -7090    -7018    -6883    -6758    -6662    -6650    -6735 
   -6799    -6779    -6759    -6809    -6912    -7038    -7146    -7186 
   -7144    -7041    -6876    -6631    -6324    -6006    -5694    -5413 
   -5196    -5061    -5028    -5090    -5233    -5429    -5598    -5721 
   -5844    -5958    -6014    -5981    -5863    -5702    -5570    -5493 
   -5428    -5344    -5305    -5404    -5641    -5967    -6318    -6629 
   -6883    -7083    -7234    -7348    -7462    -7645    -7867    -8016 
   -8116    -8233    -8341    -8464    -8646    -8833    -8974    -9059 
   -9063    -8991    -8849    -8671    -8472    -8210    -7888    -7611 
   -7441    -7352    -7322    -7326    -7327    -7304    -7236    -7096 
   -6924    -6759    -6574    -6355    -6100    -5827    -5644    -5630 
   -5721    -5818    -5952    -6156    -6354    -6544    -6759    -6940 
   -7036    -7037    -6939    -6804    -6718    -6687    -6718    -6847 
   -7045    -7240    -7407    -7543    -7585    -7460    -7182    -6791 
   -6347    -5984    -5778    -5663    -5556    -5475    -5498    -5643 
   -5815    -5941    -6034    -6104    -6127    -6088    -5975    -5814 
   -5695    -5655    -5672    -5725    -5772    -5810    -5879    -6003 
   -6164    -6293    -6331    -6308    -6239    -6062    -5742    -5391 
   -5148    -5038    -5009    -5024    -5082    -5251    -5555    -5935 
   -6324    -6644    -6870    -7065    -7283    -7466    -7570    -7651 
   -7723    -7720    -7649    -7558    -7479    -7426    -7358    -7226 
   -7057    -6943    -6948    -7030    -7094    -7132    -7211    -7319 
   -7384    -7434    -7531    -7619    -7636    -7624    -7600    -7542 
   -7480    -7433    -7373    -7281    -7167    -7072    -7044    -7069 
   -7053    -6947    -6831    -6766    -6689    -6531    -6301    -6087 
   -5956    -5861    -5726    -5563    -5416    -5300    -5247    -5270 
   -5329    -5394    -5463    -5567    -5709    -5798    -5798    -5815 
   -5919    -6058    -6180    -6303    -6405    -6435    -6451    -6543 
   -6701    -6893    -7119    -7327    -7442    -7511    -7622    -7747 
   -7869    -7992    -8050    -8009    -7931    -7882    -7838    -7708 
   -7503    -7323    -7214    -7119    -6960    -6751    -6590    -6474 
   -6320    -6111    -5868    -5616    -5400    -5256    -5209    -5227 
   -5229    -5215    -5201    -5182    -5177    -5134    -5007    -4897 
   -4864    -4880    -4992    -5233    -5516    -5772    -6035    -6340 
   -6660    -6956    -7195    -7348    -7412    -7446    -7512    -7634 
   -7816    -8025    -8199    -8291    -8295    -8218    -8062    -7858 
   -7638    -7396    -7141    -6921    -6791    -6752    -6759    -6806 
   -6899    -7006    -7103    -7202    -7285    -7310    -7294    -7287 
   -7231    -7091    -6978    -6955    -6952    -6922    -6841    -6686 
   -6463    -6222    -6023    -5867    -5711    -5571    -5482    -5476 
   -5574    -5718    -5849    -6010    -6220    -6409    -6507    -6507 
   -6450    -6362    -6211    -5996    -5775    -5632    -5601    -5671 
   -5876    -6203    -6544    -6856    -7150    -7376    -7501    -7561 
   -7578    -7524    -7375    -7149    -6930    -6789    -6712    -6678 
   -6689    -6718    -6790    -6930    -7101    -7250    -7344    -7379 
   -7398    -7414    -7398    -7366    -7377    -7429    -7469    -7454 
   -7381    -7280    -7198    -7167    -7163    -7155    -7164    -7209 
   -7237    -7199    -7111    -7028    -7001    -7002    -6947    -6826 
   -6690    -6592    -6579    -6644    -6728    -6783    -6843    -6953 
   -7094    -7241    -7379    -7461    -7477    -7453    -7418    -7395 
   -7334    -7192    -7038    -6937    -6887    -6874    -6841    -6748 
   -6671    -6710    -6858    -7015    -7065    -7010    -6936    -6832 
   -6663    -6481    -6304    -6123    -6015    -6039    -6174    -6365 
   -6538    -6651    -6727    -6790    -6848    -6897    -6894    -6797 
   -6648    -6532    -6485    -6486    -6501    -6516    -6521    -6517 
   -6550    -6642    -6752    -6847    -6906    -6933    -6947    -6983 
   -7095    -7231    -7299    -7311    -7302    -7265    -7222    -7160 
   -7063    -6966    -6878    -6771    -6628    -6423    -6178    -5962 
   -5778    -5583    -5379    -5223    -5125    -5003    -4824    -4666 
   -4576    -4527    -4479    -4425    -4391    -4372    -4360    -4374 
   -4410    -4452    -4502    -4560    -4610    -4661    -4719    -4774 
   -4855    -4989    -5140    -5289    -5459    -5644    -5849    -6100 
   -6400    -6725    -7042    -7317    -7523    -7685    -7851    -8002 
   -8104    -8199    -8301    -8383    -8487    -8607    -8687    -8748 
   -8851    -8992    -9097    -9143    -9196    -9296    -9397    -9467 
   -9526    -9605    -9706    -9761    -9691    -9525    -9343    -9139 
   -8874    -8557    -8240    -7959    -7724    -7514    -7322    -7148 
   -6960    -6779    -6637    -6505    -6340    -6137    -5922    -5765 
   -5674    -5616    -5590    -5598    -5638    -5753    -5942    -6112 
   -6219    -6291    -6350    -6427    -6516    -6535    -6438    -6295 
   -6172    -6068    -5962    -5875    -5837    -5807    -5757    -5734 
   -5755    -5786    -5814    -5842    -5846    -5819    -5815    -5841 
   -5842    -5825    -5822    -5827    -5876    -5987    -6110    -6200 
   -6300    -6467    -6651    -6785    -6906    -7017    -7095    -7200 
   -7373    -7573    -7780    -8014    -8257    -8428    -8484    -8472 
   -8432    -8375    -8278    -8093    -7846    -7609    -7373    -7111 
   -6874    -6682    -6516    -6396    -6343    -6303    -6199    -6002 
   -5741    -5460    -5182    -4887    -4615    -4460    -4445    -4517 
   -4644    -4812    -4969    -5084    -5198    -5335    -5427    -5398 
   -5293    -5239    -5304    -5447    -5597    -5737    -5903    -6115 
   -6378    -6685    -6964    -7161    -7307    -7410    -7479    -7574 
   -7685    -7728    -7692    -7657    -7688    -7769    -7858    -7963 
   -8082    -8202    -8302    -8351    -8375    -8406    -8403    -8334 
   -8220    -8090    -7951    -7788    -7596    -7399    -7225    -7059 
   -6906    -6798    -6693    -6525    -6307    -6049    -5733    -5386 
   -5078    -4838    -4649    -4500    -4410    -4399    -4459    -4565 
   -4708    -4855    -4984    -5113    -5262    -5413    -5551    -5664 
   -5773    -5915    -6110    -6342    -6573    -6768    -6913    -7030 
   -7167    -7317    -7438    -7526    -7570    -7562    -7533    -7512 
   -7503    -7473    -7388    -7269    -7148    -6999    -6828    -6683 
   -6585    -6538    -6546    -6586    -6620    -6633    -6640    -6663 
   -6712    -6775    -6817    -6806    -6732    -6597    -6435    -6299 
   -6201    -6122    -6054    -6031    -6048    -6054    -6045    -6038 
   -6021    -5992    -5976    -5969    -5984    -6061    -6191    -6311 
   -6369    -6374    -6361    -6346    -6346    -6389    -6451    -6478 
   -6474    -6473    -6509    -6631    -6826    -7024    -7225    -7484 
   -7789    -8087    -8344    -8519    -8598    -8587    -8519    -8461 
   -8433    -8410    -8376    -8313    -8201    -8055    -7911    -7790 
   -7674    -7534    -7353    -7141    -6909    -6670    -6442    -6247 
   -6092    -5983    -5960    -6042    -6192    -6345    -6463    -6536 
   -6597    -6679    -6741    -6733    -6705    -6705    -6708    -6704 
   -6727    -6771    -6790    -6750    -6686    -6654    -6637    -6581 
   -6470    -6332    -6192    -6065    -5946    -5826    -5725    -5644 
   -5566    -5487    -5424    -5397    -5368    -5287    -5213    -5197 
   -5197    -5200    -5247    -5339    -5441    -5566    -5724    -5872 
   -5988    -6095    -6228    -6424    -6671    -6947    -7249    -7560 
   -7854    -8147    -8417    -8598    -8711    -8822    -8903    -8923 
   -8900    -8845    -8783    -8729    -8637    -8500    -8357    -8195 
   -8001    -7792    -7555    -7273    -6957    -6636    -6342    -6092 
   -5888    -5736    -5628    -5530    -5449    -5418    -5454    -5526 
   -5574    -5584    -5580    -5563    -5526    -5468    -5400    -5359 
   -5360    -5386    -5400    -5393    -5375    -5351    -5366    -5494 
   -5713    -5931    -6122    -6297    -6438    -6528    -6586    -6642 
   -6698    -6729    -6740    -6763    -6810    -6880    -6952    -6999 
   -7040    -7088    -7165    -7283    -7381    -7411    -7403    -7411 
   -7461    -7555    -7657    -7735    -7815    -7911    -8008    -8086 
   -8121    -8085    -7990    -7873    -7767    -7713    -7672    -7566 
   -7438    -7358    -7323    -7299    -7250    -7160    -7080    -7063 
   -7079    -7096    -7111    -7119    -7091    -7010    -6917    -6866 
   -6841    -6820    -6781    -6686    -6559    -6436    -6282    -6075 
   -5854    -5656    -5502    -5413    -5386    -5379    -5393    -5471 
   -5616    -5764    -5872    -5937    -5984    -6041    -6115    -6199 
   -6292    -6399    -6500    -6596    -6708    -6816    -6882    -6926 
   -6955    -6945    -6916    -6868    -6787    -6687    -6586    -6482 
   -6388    -6339    -6336    -6342    -6355    -6359    -6339    -6349 
   -6412    -6471    -6507    -6535    -6567    -6628    -6705    -6764 
   -6821    -6889    -6949    -7022    -7138    -7275    -7398    -7510 
   -7601    -7655    -7697    -7739    -7767    -7773    -7732    -7654 
   -7582    -7546    -7547    -7576    -7607    -7624    -7620    -7555 
   -7426    -7310    -7245    -7204    -7194    -7194    -7133    -6998 
   -6804    -6583    -6407    -6293    -6173    -6016    -5861    -5740 
   -5671    -5648    -5640    -5649    -5697    -5783    -5907    -6070 
   -6251    -6443    -6639    -6840    -7071    -7329    -7582    -7825 
   -8027    -8148    -8226    -8275    -8256    -8158    -8006    -7808 
   -7565    -7321    -7134    -6999    -6852    -6689    -6544    -6438 
   -6396    -6396    -6358    -6274    -6216    -6208    -6223    -6239 
   -6231    -6199    -6193    -6241    -6307    -6374    -6446    -6498 
   -6559    -6702    -6903    -7079    -7196    -7248    -7238    -7210 
   -7176    -7114    -7017    -6894    -6770    -6670    -6609    -6583 
   -6581    -6620    -6725    -6867    -6997    -7063    -7059    -7033 
   -7026    -7015    -6975    -6907    -6831    -6725    -6586    -6480 
   -6435    -6401    -6358    -6339    -6339    -6326    -6278    -6200 
   -6100    -6008    -5946    -5890    -5830    -5817    -5838    -5846 
   -5837    -5834    -5864    -5921    -5977    -6016    -6037    -6056 
   -6068    -6061    -6048    -6039    -6053    -6106    -6162    -6204 
   -6262    -6319    -6335    -6327    -6312    -6289    -6284    -6312 
