Origin Time       2025/01/13 21:19:00
Lat.              31.8
Long.             131.6
Depth. (km)       30
Mag.              6.9
Station Code      EHMH13
Station Lat.      33.3719
Station Long.     132.1157
Station Height(m) 10
Record Time       2025/01/13 21:20:22
Sampling Freq(Hz) 100Hz
Duration Time(s)  120
Dir.              6
Scale Factor      7845(gal)/8223790
Max. Acc. (gal)   2.363
Last Correction   2025/01/13 21:20:22
Memo.             
[...]
   29374    29465    29560    29628    29652    29651    29662    29694 
   29725    29747    29759    29737    29663    29565    29490    29454 
   29444    29454    29489    29523    29511    29478    29475    29492 
   29502    29509    29525    29546    29554    29543    29516    29478 
   29446    29439    29467    29523    29586    29641    29679    29708 
   29729    29740    29754    29776    29795    29776    29697    29581 
   29473    29385    29309    29247    29201    29185    29214    29273 
   29353    29458    29585    29697    29760    29781    29783    29775 
   29772    29808    29883    29964    30024    30053    30068    30086 
   30091    30068    30017    29956    29917    29903    29902    29911 
   29921    29899    29821    29670    29485    29327    29218    29149 
   29123    29128    29157    29201    29241    29268    29311    29374 
   29420    29439    29463    29490    29486    29436    29359    29282 
   29195    29087    29011    29020    29114    29243    29358    29442 
   29523    29609    29677    29709    29713    29705    29689    29652 
   29578    29481    29374    29273    29215    29209    29228    29277 
   29374    29500    29631    29722    29743    29708    29664    29625 
   29583    29548    29539    29556    29578    29590    29605    29637 
   29654    29621    29590    29593    29594    29585    29566    29536 
   29521    29519    29501    29484    29485    29474    29428    29353 
   29269    29201    29173    29212    29326    29486    29659    29814 
   29932    30014    30068    30098    30109    30095    30053    29983 
   29882    29759    29659    29605    29587    29586    29589    29593 
   29617    29652    29675    29691    29714    29737    29736    29687 
   29617    29574    29556    29525    29473    29432    29439    29473 
   29497    29512    29539    29548    29519    29475    29436    29397 
   29361    29330    29316    29342    29408    29481    29535    29589 
   29652    29698    29731    29760    29751    29695    29639    29598 
   29566    29536    29535    29585    29664    29733    29776    29806 
   29839    29872    29890    29890    29894    29916    29938    29953 
   29953    29938    29911    29851    29759    29660    29538    29386 
   29254    29162    29114    29099    29096    29103    29112    29126 
   29149    29173    29188    29195    29191    29164    29122    29084 
   29073    29104    29158    29207    29234    29258    29278    29263 
   29223    29209    29239    29286    29331    29393    29500    29606 
   29656    29679    29714    29744    29758    29760    29741    29705 
   29678    29670    29662    29659    29673    29681    29677    29687 
   29721    29766    29822    29887    29940    29947    29893    29803 
   29716    29629    29521    29424    29388    29409    29465    29533 
   29605    29677    29729    29741    29708    29637    29555    29475 
   29401    29323    29226    29128    29054    29002    28988    29034 
   29131    29228    29269    29242    29172    29089    29026    29018 
   29076    29180    29276    29320    29342    29394    29457    29467 
   29436    29389    29343    29312    29316    29367    29436    29512 
   29620    29756    29883    29976    30033    30051    30029    29970 
   29882    29785    29697    29614    29536    29450    29335    29224 
   29178    29214    29289    29343    29350    29350    29381    29420 
   29417    29385    29370    29367    29327    29250    29182    29133 
   29073    29006    28953    28939    28975    29060    29197    29367 
   29524    29654    29771    29878    29965    30022    30038    30022 
   29979    29907    29829    29766    29712    29641    29533    29407 
   29292    29192    29118    29091    29123    29201    29285    29347 
   29407    29475    29509    29481    29439    29423    29424    29438 
   29463    29511    29575    29632    29690    29771    29860    29936 
   29984    30005    30001    29959    29874    29776    29708    29667 
   29640    29628    29654    29722    29808    29874    29902    29889 
   29857    29825    29793    29762    29745    29743    29725    29683 
   29656    29667    29700    29732    29766    29813    29870    29924 
   29976    30022    30042    30022    29948    29835    29732    29659 
   29602    29582    29602    29613    29587    29548    29517    29520 
   29574    29652    29731    29824    29928    29997    30022    30052 
   30111    30200    30315    30438    30530    30589    30642    30672 
   30645    30568    30460    30327    30179    30034    29901    29763 
   29635    29538    29473    29448    29473    29513    29517    29462 
   29373    29297    29263    29259    29286    29350    29428    29488 
   29509    29488    29421    29320    29208    29099    28984    28865 
   28768    28732    28763    28846    28996    29203    29400    29563 
   29714    29841    29930    30017    30110    30154    30123    30045 
   29951    29845    29732    29624    29547    29513    29496    29465 
   29425    29373    29299    29241    29208    29169    29130    29128 
   29172    29232    29293    29353    29427    29523    29636    29744 
   29835    29902    29945    29974    30003    30022    30015    29986 
   29945    29897    29829    29751    29690    29654    29635    29632 
   29655    29706    29764    29797    29793    29766    29728    29691 
   29678    29660    29606    29548    29524    29497    29435    29362 
   29312    29277    29239    29232    29268    29305    29350    29434 
   29520    29579    29640    29724    29795    29814    29764    29662 
   29529    29373    29215    29088    29000    28942    28904    28885 
   28881    28887    28903    28942    29000    29057    29104    29147 
   29173    29174    29158    29123    29066    29018    29016    29049 
   29056    29018    28977    28965    28976    29011    29074    29166 
   29286    29430    29574    29717    29841    29920    29951    29941 
   29898    29843    29779    29693    29592    29475    29331    29169 
   29002    28846    28744    28703    28674    28634    28610    28624 
   28679    28759    28833    28900    28972    29033    29057    29057 
   29052    29030    29003    28995    29004    29022    29066    29135 
   29201    29268    29363    29489    29605    29686    29755    29829 
   29897    29940    29955    29944    29920    29893    29868    29847 
   29844    29845    29810    29743    29681    29641    29631    29636 
   29651    29694    29781    29909    30069    30250    30450    30650 
   30816    30937    31023    31066    31050    30967    30844    30700 
   30528    30375    30294    30265    30256    30292    30389    30522 
   30657    30774    30862    30915    30921    30888    30823    30748 
   30684    30609    30518    30408    30292    30203    30150    30144 
   30159    30132    30048    29956    29853    29708    29551    29457 
   29421    29396    29380    29400    29438    29466    29465    29421 
   29367    29344    29319    29235    29101    28965    28871    28833 
   28857    28933    29033    29130    29207    29258    29297    29323 
   29308    29246    29169    29079    28996    28983    29037    29091 
   29120    29155    29187    29182    29139    29088    29054    29018 
   28973    28961    29019    29146    29316    29486    29621    29712 
   29745    29705    29609    29502    29381    29234    29085    28949 
   28840    28788    28784    28798    28836    28900    28962    29016 
   29081    29157    29223    29261    29280    29297    29330    29382 
   29459    29550    29637    29722    29795    29829    29841    29876 
   29951    30048    30144    30246    30379    30524    30640    30694 
   30677    30584    30431    30256    30080    29906    29724    29547 
   29381    29219    29073    28983    28981    29061    29189    29362 
   29550    29678    29729    29718    29656    29569    29470    29358 
   29259    29193    29146    29118    29124    29169    29255    29374 
   29497    29614    29728    29841    29949    30022    30045    30044 
   30041    30041    30040    30034    30013    29988    29997    30040 
   30098    30150    30159    30107    30007    29870    29716    29587 
   29506    29438    29339    29209    29073    28949    28858    28795 
   28741    28678    28595    28505    28433    28405    28422    28467 
   28537    28640    28772    28898    28973    28999    29022    29064 
   29085    29084    29122    29223    29347    29470    29602    29732 
   29829    29898    29986    30087    30144    30133    30061    29934 
   29778    29641    29529    29420    29334    29316    29365    29458 
   29594    29759    29914    30033    30111    30168    30199    30192 
   30173    30159    30107    29987    29843    29718    29605    29496 
   29419    29398    29428    29488    29569    29670    29766    29829 
   29852    29825    29758    29670    29581    29500    29411    29292 
   29160    29049    28966    28915    28922    28995    29101    29200 
   29270    29326    29374    29415    29461    29524    29582    29621 
   29644    29655    29652    29659    29710    29789    29835    29825 
   29781    29716    29641    29578    29508    29417    29328    29269 
   29266    29304    29353    29412    29481    29551    29650    29787 
   29911    29978    29991    29961    29894    29802    29706    29633 
   29600    29593    29590    29577    29562    29558    29554    29544 
   29555    29593    29627    29637    29636    29629    29604    29587 
   29610    29647    29647    29596    29509    29432    29389    29350 
   29312    29319    29359    29420    29524    29671    29843    29997 
   30095    30160    30207    30223    30213    30168    30090    29987 
   29863    29724    29594    29467    29349    29270    29239    29234 
   29236    29243    29234    29200    29170    29168    29188    29208 
   29226    29276    29389    29551    29740    29941    30132    30287 
   30392    30423    30379    30295    30199    30088    29975    29871 
   29767    29655    29520    29350    29169    29016    28917    28877 
   28894    28944    28991    29029    29096    29208    29355    29521 
   29679    29791    29849    29853    29805    29756    29732    29689 
   29597    29482    29376    29280    29182    29122    29155    29254 
   29361    29467    29579    29710    29859    29988    30082    30140 
   30144    30082    29965    29814    29658    29547    29488    29440 
   29389    29351    29349    29378    29404    29415    29430    29434 
   29398    29342    29281    29222    29192    29209    29241    29280 
   29330    29353    29359    29394    29455    29532    29646    29795 
   29948    30068    30133    30144    30122    30117    30163    30241 
   30300    30321    30326    30342    30354    30353    30352    30362 
   30380    30383    30353    30316    30311    30349    30414    30456 
   30427    30353    30264    30160    30033    29878    29718    29582 
   29466    29369    29280    29181    29072    28949    28807    28653 
   28516    28424    28406    28471    28602    28790    29010    29231 
   29438    29639    29849    30072    30295    30503    30666    30759 
   30770    30723    30667    30628    30600    30586    30589    30576 
   30512    30406    30277    30137    29988    29839    29687    29559 
   29475    29431    29417    29431    29447    29443    29430    29409 
   29381    29380    29444    29582    29766    29936    30030    30053 
   30038    29984    29894    29803    29717    29628    29542    29458 
   29385    29323    29249    29165    29101    29043    28975    28900 
   28823    28729    28610    28494    28420    28393    28398    28425 
   28455    28475    28502    28560    28651    28748    28802    28782 
   28696    28572    28436    28343    28337    28412    28536    28669 
   28768    28821    28838    28813    28763    28721    28669    28583 
   28472    28366    28283    28228    28186    28162    28165    28188 
   28244    28355    28489    28613    28742    28868    28958    29029 
   29112    29205    29297    29389    29466    29494    29474    29430 
   29366    29286    29214    29161    29123    29097    29079    29085 
   29141    29230    29328    29438    29546    29651    29766    29876 
   29982    30110    30273    30438    30549    30573    30528    30453 
   30379    30308    30219    30111    30013    29944    29899    29876 
   29882    29920    29975    30019    30046    30083    30140    30176 
   30153    30061    29925    29789    29663    29539    29430    29347 
   29289    29255    29257    29280    29300    29303    29293    29305 
   29359    29419    29463    29504    29538    29551    29562    29605 
   29682    29766    29849    29933    30005    30063    30127    30219 
   30339    30474    30608    30720    30777    30773    30754    30759 
   30767    30753    30731    30728    30735    30739    30730    30672 
   30564    30447    30322    30172    30041    29955    29891    29835 
   29770    29690    29631    29624    29650    29685    29731    29776 
   29805    29822    29847    29879    29918    29968    30030    30100 
   30167    30208    30222    30222    30200    30122    29983    29828 
   29670    29479    29268    29088    28952    28842    28787    28817 
   28921    29058    29192    29305    29409    29494    29540    29554 
   29551    29519    29455    29367    29234    29056    28890    28784 
   28740    28764    28896    29142    29447    29764    30091    30410 
   30693    30973    31264    31531    31749    31919    32030    32042 
   31973    31885    31777    31622    31444    31270    31106    30946 
   30792    30672    30585    30512    30470    30488    30562    30677 
   30812    30947    31059    31118    31108    31045    30955    30820 
   30635    30415    30157    29876    29624    29436    29292    29158 
   29052    29007    29007    29023    29045    29060    29065    29079 
   29088    29043    28922    28734    28513    28285    28080    27935 
   27877    27893    27950    28020    28107    28220    28341    28447 
   28547    28640    28710    28771    28830    28875    28908    28948 
   28976    28981    28984    28996    28993    28962    28931    28906 
   28856    28771    28688    28626    28553    28478    28462    28522 
   28628    28732    28795    28821    28830    28827    28799    28750 
   28706    28678    28678    28738    28842    28921    28937    28931 
   28929    28919    28907    28929    28998    29073    29111    29133 
   29177    29253    29344    29432    29504    29569    29632    29690 
   29729    29764    29844    29988    30183    30391    30568    30701 
   30774    30773    30708    30601    30461    30302    30142    29979 
   29785    29569    29384    29259    29188    29151    29131    29118 
   29100    29079    29050    29010    28966    28915    28848    28792 
   28777    28814    28900    29022    29166    29331    29516    29705 
   29882    30059    30240    30373    30429    30420    30369    30277 
   30152    30019    29895    29810    29768    29722    29654    29589 
   29535    29475    29412    29369    29358    29354    29343    29330 
   29307    29286    29293    29339    29432    29554    29651    29701 
   29722    29735    29751    29781    29822    29872    29926    29971 
   30009    30053    30099    30157    30256    30365    30423    30427 
   30420    30407    30368    30329    30315    30299    30260    30219 
   30196    30183    30169    30173    30203    30219    30199    30160 
   30118    30040    29922    29810    29731    29693    29690    29687 
   29646    29560    29432    29255    29045    28841    28671    28540 
   28452    28416    28416    28429    28439    28440    28441    28458 
   28486    28514    28526    28502    28432    28324    28193    28061 
   27955    27897    27884    27892    27915    27955    28019    28123 
   28281    28470    28688    28946    29226    29501    29776    30052 
   30314    30562    30808    31033    31212    31342    31456    31563 
   31648    31702    31731    31742    31714    31611    31450    31293 
   31163    31051    30947    30829    30667    30456    30222    29988 
   29762    29563    29390    29216    29049    28917    28815    28728 
   28669    28668    28728    28827    28938    29035    29104    29131 
   29111    29057    28991    28929    28896    28912    28964    29035 
   29112    29157    29134    29057    28966    28872    28780    28711 
   28680    28668    28659    28649    28626    28594    28564    28556 
   28614    28756    28935    29133    29367    29636    29905    30148 
   30385    30630    30840    31001    31126    31220    31290    31332 
   31310    31237    31164    31099    31032    30963    30898    30823 
   30711    30577    30462    30361    30229    30060    29906    29787 
   29683    29619    29628    29677    29718    29739    29751    29763 
   29760    29744    29754    29799    29857    29914    29967    30026 
   30087    30127    30145    30152    30148    30144    30159    30176 
   30188    30207    30244    30269    30238    30140    30011    29878 
   29739    29610    29521    29478    29474    29497    29531    29551 
   29531    29465    29377    29278    29174    29073    28993    28931 
   28858    28752    28629    28533    28483    28470    28491    28541 
   28584    28614    28638    28641    28605    28549    28521    28526 
   28524    28478    28399    28333    28305    28306    28323    28368 
   28467    28613    28782    28946    29119    29317    29527    29720 
   29883    30011    30094    30129    30129    30102    30049    29986 
   29951    29937    29903    29832    29736    29637    29554    29477 
   29405    29347    29301    29269    29250    29232    29211    29181 
   29137    29106    29120    29165    29227    29309    29400    29508 
   29641    29770    29870    29941    29971    29949    29903    29870 
   29851    29849    29868    29903    29957    30029    30088    30136 
   30195    30271    30361    30461    30557    30627    30670    30709 
   30762    30827    30893    30960    31023    31056    31020    30904 
   30740    30564    30383    30215    30063    29930    29839    29795 
   29786    29786    29759    29702    29652    29631    29640    29646 
   29631    29627    29654    29691    29717    29716    29695    29670 
   29637    29587    29529    29477    29430    29374    29305    29239 
   29191    29173    29182    29208    29253    29312    29357    29363 
   29361    29369    29347    29258    29122    28971    28800    28607 
   28437    28329    28286    28293    28310    28328    28364    28424 
   28494    28563    28611    28628    28617    28594    28578    28572 
   28582    28615    28676    28755    28849    28945    29019    29068 
   29097    29108    29107    29099    29099    29131    29184    29234 
   29280    29308    29322    29340    29342    29288    29187    29065 
   28939    28830    28740    28653    28564    28480    28416    28355 
   28267    28171    28098    28059    28047    28053    28081    28151 
   28248    28352    28455    28567    28707    28872    29039    29199 
   29353    29498    29627    29729    29828    29930    30018    30094 
   30175    30253    30316    30364    30385    30370    30331    30288 
   30238    30203    30213    30253    30291    30325    30358    30389 
