Origin Time       2025/01/13 21:19:00
Lat.              31.8
Long.             131.6
Depth. (km)       30
Mag.              6.9
Station Code      EHMH10
Station Lat.      34.1918
Station Long.     133.0581
Station Height(m) -95
Record Time       2025/01/13 21:20:27
Sampling Freq(Hz) 100Hz
Duration Time(s)  135
Dir.              3
Scale Factor      3923(gal)/8224838
Max. Acc. (gal)   1.035
Last Correction   2025/01/13 21:20:27
Memo.             
[...]
  -39275   -39285   -39294   -39329   -39380   -39426   -39452   -39449 
  -39418   -39370   -39325   -39298   -39299   -39344   -39399   -39432 
  -39440   -39436   -39441   -39463   -39491   -39521   -39523   -39484 
  -39445   -39425   -39421   -39418   -39397   -39364   -39328   -39302 
  -39313   -39337   -39332   -39318   -39340   -39398   -39452   -39488 
  -39517   -39540   -39545   -39519   -39474   -39433   -39394   -39322 
  -39233   -39163   -39128   -39135   -39144   -39124   -39085   -39039 
  -38994   -38947   -38897   -38858   -38820   -38778   -38743   -38716 
  -38696   -38692   -38699   -38736   -38824   -38925   -38998   -39064 
  -39151   -39247   -39313   -39363   -39434   -39499   -39540   -39580 
  -39607   -39610   -39604   -39575   -39507   -39444   -39406   -39367 
  -39314   -39278   -39255   -39245   -39249   -39270   -39299   -39320 
  -39336   -39351   -39357   -39345   -39326   -39325   -39344   -39345 
  -39314   -39267   -39213   -39183   -39212   -39264   -39316   -39379 
  -39437   -39475   -39499   -39530   -39557   -39526   -39449   -39397 
  -39361   -39303   -39235   -39159   -39098   -39083   -39083   -39083 
  -39104   -39137   -39174   -39198   -39216   -39249   -39285   -39295 
  -39289   -39298   -39340   -39390   -39429   -39469   -39505   -39515 
  -39518   -39518   -39523   -39536   -39530   -39511   -39498   -39478 
  -39437   -39413   -39425   -39425   -39397   -39399   -39441   -39463 
  -39445   -39428   -39415   -39382   -39329   -39270   -39212   -39156 
  -39101   -39066   -39069   -39062   -39032   -39020   -39029   -39019 
  -38977   -38940   -38932   -38929   -38913   -38919   -38971   -39020 
  -39028   -39023   -39033   -39056   -39078   -39098   -39117   -39132 
  -39150   -39174   -39213   -39272   -39330   -39364   -39368   -39371 
  -39399   -39434   -39452   -39442   -39421   -39407   -39407   -39433 
  -39495   -39569   -39642   -39699   -39706   -39668   -39629   -39590 
  -39529   -39465   -39424   -39394   -39378   -39364   -39317   -39222 
  -39139   -39102   -39074   -39015   -38942   -38881   -38812   -38708 
  -38614   -38581   -38583   -38588   -38607   -38630   -38672   -38759 
  -38884   -39015   -39108   -39128   -39106   -39059   -38974   -38917 
  -38935   -38990   -39060   -39136   -39199   -39256   -39328   -39410 
  -39467   -39488   -39503   -39502   -39480   -39490   -39544   -39586 
  -39614   -39642   -39652   -39656   -39680   -39700   -39703   -39688 
  -39657   -39631   -39607   -39561   -39517   -39501   -39511   -39542 
  -39579   -39614   -39640   -39644   -39652   -39667   -39653   -39629 
  -39613   -39587   -39548   -39488   -39421   -39387   -39390   -39393 
  -39383   -39336   -39217   -39067   -38947   -38844   -38766   -38728 
  -38704   -38697   -38692   -38670   -38695   -38785   -38881   -38948 
  -39016   -39100   -39133   -39102   -39106   -39147   -39164   -39174 
  -39175   -39152   -39118   -39098   -39104   -39113   -39097   -39081 
  -39078   -39069   -39043   -39021   -39046   -39101   -39132   -39143 
  -39154   -39125   -39043   -38962   -38934   -38954   -38988   -39005 
  -39002   -39006   -39029   -39058   -39074   -39086   -39100   -39083 
  -39027   -38962   -38913   -38904   -38938   -38969   -38997   -39032 
  -39051   -39078   -39136   -39195   -39236   -39268   -39303   -39347 
  -39386   -39409   -39421   -39456   -39519   -39568   -39598   -39631 
  -39641   -39607   -39565   -39521   -39475   -39424   -39367   -39332 
  -39314   -39298   -39310   -39337   -39353   -39388   -39461   -39530 
  -39557   -39541   -39528   -39529   -39498   -39437   -39391   -39382 
  -39403   -39402   -39376   -39383   -39402   -39383   -39340   -39310 
  -39301   -39293   -39290   -39314   -39348   -39368   -39397   -39420 
  -39424   -39442   -39461   -39441   -39417   -39430   -39469   -39511 
  -39538   -39553   -39580   -39588   -39556   -39506   -39451   -39382 
  -39307   -39245   -39183   -39112   -39069   -39051   -39028   -39020 
  -39052   -39104   -39152   -39208   -39260   -39268   -39252   -39243 
  -39239   -39221   -39181   -39128   -39096   -39067   -39025   -38990 
  -38931   -38831   -38754   -38735   -38763   -38827   -38869   -38866 
  -38866   -38878   -38904   -38966   -39027   -39039   -39019   -38992 
  -38967   -38938   -38919   -38929   -38954   -38992   -39066   -39159 
  -39226   -39252   -39289   -39375   -39438   -39426   -39368   -39297 
  -39245   -39233   -39240   -39249   -39239   -39193   -39132   -39100 
  -39098   -39089   -39062   -39035   -39000   -38971   -38983   -39015 
  -39028   -39036   -39062   -39100   -39128   -39132   -39124   -39124 
  -39150   -39181   -39172   -39147   -39141   -39150   -39179   -39241 
  -39317   -39380   -39428   -39469   -39503   -39501   -39480   -39482 
  -39486   -39438   -39379   -39375   -39395   -39406   -39426   -39426 
  -39405   -39395   -39380   -39352   -39349   -39368   -39382   -39393 
  -39406   -39421   -39432   -39422   -39410   -39426   -39452   -39471 
  -39488   -39507   -39525   -39540   -39533   -39495   -39447   -39399 
  -39328   -39240   -39199   -39194   -39162   -39091   -39020   -38990 
  -39028   -39109   -39160   -39168   -39186   -39229   -39275   -39310 
  -39326   -39333   -39322   -39283   -39251   -39252   -39256   -39239 
  -39206   -39163   -39118   -39077   -39036   -39008   -39009   -39028 
  -39025   -39021   -39063   -39105   -39117   -39137   -39158   -39174 
  -39222   -39298   -39355   -39383   -39418   -39496   -39579   -39617 
  -39618   -39613   -39603   -39573   -39534   -39487   -39424   -39379 
  -39372   -39372   -39363   -39361   -39380   -39401   -39418   -39441 
  -39433   -39394   -39348   -39298   -39267   -39271   -39266   -39224 
  -39189   -39214   -39283   -39321   -39326   -39345   -39387   -39420 
  -39422   -39410   -39379   -39325   -39279   -39251   -39233   -39208 
  -39159   -39109   -39083   -39091   -39127   -39159   -39197   -39256 
  -39291   -39295   -39313   -39351   -39399   -39438   -39465   -39505 
  -39552   -39598   -39634   -39634   -39615   -39626   -39625   -39555 
  -39468   -39426   -39425   -39434   -39445   -39486   -39515   -39528 
  -39592   -39668   -39690   -39715   -39746   -39727   -39687   -39679 
  -39684   -39672   -39637   -39592   -39548   -39496   -39456   -39436 
  -39413   -39368   -39302   -39233   -39163   -39104   -39069   -39029 
  -38969   -38915   -38874   -38835   -38836   -38880   -38908   -38912 
  -38905   -38886   -38881   -38920   -38997   -39081   -39175   -39286 
  -39366   -39399   -39449   -39542   -39633   -39658   -39618   -39590 
  -39598   -39610   -39617   -39618   -39619   -39631   -39644   -39673 
  -39748   -39831   -39879   -39879   -39815   -39721   -39650   -39602 
  -39529   -39391   -39231   -39093   -38979   -38908   -38866   -38816 
  -38776   -38726   -38641   -38570   -38558   -38558   -38526   -38488 
  -38484   -38504   -38503   -38510   -38561   -38601   -38614   -38654 
  -38720   -38769   -38772   -38746   -38736   -38750   -38758   -38761 
  -38759   -38747   -38743   -38766   -38805   -38838   -38882   -38970 
  -39056   -39075   -39054   -39035   -39025   -39031   -39031   -38994 
  -38931   -38850   -38739   -38624   -38554   -38524   -38499   -38464 
  -38438   -38445   -38480   -38524   -38569   -38607   -38622   -38595 
  -38557   -38554   -38588   -38635   -38662   -38653   -38658   -38700 
  -38734   -38751   -38772   -38780   -38780   -38777   -38766   -38770 
  -38794   -38824   -38855   -38902   -38955   -38975   -38961   -38942 
  -38946   -38978   -39001   -39006   -39033   -39090   -39145   -39183 
  -39251   -39356   -39452   -39529   -39588   -39618   -39626   -39615 
  -39607   -39636   -39665   -39649   -39606   -39591   -39634   -39696 
  -39726   -39742   -39784   -39815   -39810   -39820   -39884   -39961 
  -39978   -39958   -39982   -40034   -40062   -40070   -40066   -40041 
  -39969   -39877   -39841   -39850   -39834   -39795   -39776   -39803 
  -39860   -39883   -39866   -39861   -39852   -39811   -39754   -39706 
  -39664   -39599   -39503   -39434   -39434   -39465   -39494   -39523 
  -39549   -39576   -39604   -39631   -39672   -39719   -39764   -39791 
  -39773   -39746   -39753   -39762   -39769   -39791   -39808   -39816 
  -39815   -39800   -39795   -39777   -39746   -39750   -39785   -39814 
  -39830   -39838   -39860   -39897   -39927   -39943   -39926   -39857 
  -39754   -39646   -39557   -39505   -39451   -39360   -39291   -39267 
  -39231   -39177   -39118   -39060   -39025   -39008   -38971   -38912 
  -38851   -38805   -38778   -38759   -38715   -38655   -38624   -38601 
  -38554   -38523   -38542   -38566   -38558   -38516   -38454   -38389 
  -38327   -38267   -38222   -38175   -38122   -38103   -38121   -38136 
  -38136   -38151   -38167   -38149   -38128   -38138   -38161   -38190 
  -38223   -38241   -38252   -38256   -38237   -38199   -38178   -38179 
  -38171   -38152   -38152   -38188   -38240   -38275   -38307   -38344 
  -38373   -38404   -38430   -38449   -38488   -38557   -38630   -38672 
  -38676   -38681   -38701   -38696   -38669   -38665   -38676   -38689 
  -38711   -38732   -38767   -38812   -38811   -38789   -38793   -38827 
  -38889   -38931   -38931   -38958   -39036   -39116   -39160   -39167 
  -39159   -39154   -39151   -39147   -39147   -39154   -39133   -39101 
  -39116   -39164   -39201   -39255   -39341   -39437   -39519   -39586 
  -39663   -39749   -39814   -39869   -39908   -39926   -39955   -39993 
  -40009   -39993   -39973   -39977   -39984   -39970   -39951   -39947 
  -39961   -39982   -39995   -39996   -40008   -40011   -39984   -39960 
  -39961   -39972   -39978   -39985   -39987   -39973   -39960   -39968 
  -40001   -40016   -39985   -39953   -39947   -39939   -39900   -39849 
  -39812   -39789   -39771   -39757   -39734   -39672   -39594   -39552 
  -39540   -39528   -39502   -39469   -39441   -39411   -39382   -39363 
  -39348   -39317   -39279   -39264   -39276   -39317   -39395   -39498 
  -39594   -39683   -39775   -39869   -39957   -40042   -40135   -40225 
  -40279   -40304   -40323   -40329   -40325   -40323   -40333   -40360 
  -40379   -40401   -40440   -40455   -40448   -40437   -40405   -40370 
  -40320   -40225   -40130   -40066   -40003   -39919   -39837   -39765 
  -39710   -39660   -39586   -39501   -39428   -39356   -39287   -39236 
  -39195   -39151   -39096   -39035   -39001   -39008   -39040   -39094 
  -39151   -39209   -39285   -39352   -39387   -39403   -39415   -39426 
  -39417   -39393   -39384   -39405   -39428   -39426   -39402   -39359 
  -39302   -39236   -39144   -39033   -38942   -38862   -38786   -38738 
  -38703   -38668   -38643   -38634   -38643   -38647   -38637   -38642 
  -38662   -38673   -38680   -38695   -38726   -38773   -38811   -38844 
  -38905   -38979   -39055   -39147   -39247   -39326   -39402   -39478 
  -39534   -39579   -39622   -39646   -39652   -39665   -39694   -39699 
  -39687   -39690   -39696   -39679   -39637   -39586   -39538   -39496 
  -39447   -39374   -39274   -39178   -39106   -39032   -38931   -38809 
  -38705   -38639   -38584   -38527   -38489   -38470   -38431   -38372 
  -38357   -38392   -38423   -38449   -38493   -38554   -38614   -38666 
  -38735   -38812   -38859   -38880   -38898   -38932   -38978   -39008 
  -39000   -38969   -38938   -38912   -38882   -38834   -38767   -38724 
  -38718   -38730   -38743   -38751   -38743   -38723   -38712   -38726 
  -38753   -38785   -38827   -38898   -38993   -39078   -39151   -39224 
  -39290   -39328   -39337   -39353   -39386   -39413   -39433   -39457 
  -39478   -39469   -39444   -39426   -39428   -39425   -39391   -39353 
  -39339   -39318   -39267   -39202   -39156   -39112   -39036   -38944 
  -38866   -38793   -38715   -38632   -38554   -38483   -38425   -38384 
  -38365   -38369   -38391   -38406   -38396   -38389   -38398   -38410 
  -38421   -38427   -38430   -38445   -38483   -38527   -38576   -38627 
  -38664   -38684   -38705   -38739   -38772   -38785   -38807   -38861 
  -38929   -38996   -39078   -39179   -39253   -39289   -39330   -39407 
  -39480   -39528   -39557   -39572   -39582   -39603   -39625   -39629 
  -39626   -39623   -39591   -39503   -39387   -39280   -39179   -39059 
  -38944   -38861   -38785   -38707   -38662   -38658   -38668   -38670 
  -38674   -38701   -38739   -38757   -38778   -38840   -38925   -39000 
  -39062   -39145   -39263   -39393   -39509   -39604   -39687   -39745 
  -39766   -39787   -39838   -39900   -39942   -39957   -39958   -39958 
  -39950   -39945   -39968   -40005   -40024   -40027   -40020   -40018 
  -40041   -40085   -40113   -40115   -40112   -40115   -40097   -40065 
  -40076   -40107   -40088   -40030   -39974   -39906   -39831   -39783 
  -39734   -39658   -39582   -39515   -39436   -39336   -39245   -39167 
  -39079   -38977   -38875   -38793   -38716   -38637   -38574   -38539 
  -38516   -38488   -38449   -38422   -38414   -38415   -38445   -38508 
  -38592   -38674   -38742   -38819   -38892   -38943   -39008   -39083 
  -39137   -39186   -39221   -39233   -39236   -39235   -39229   -39221 
  -39206   -39194   -39218   -39267   -39294   -39316   -39367   -39425 
  -39461   -39486   -39521   -39567   -39599   -39622   -39654   -39691 
  -39748   -39812   -39858   -39908   -39988   -40074   -40157   -40242 
  -40317   -40390   -40481   -40570   -40643   -40714   -40803   -40909 
  -40998   -41085   -41189   -41285   -41357   -41385   -41392   -41409 
  -41418   -41397   -41359   -41305   -41245   -41180   -41106   -41045 
  -41007   -40973   -40926   -40861   -40771   -40667   -40560   -40437 
  -40306   -40186   -40069   -39941   -39816   -39722   -39636   -39518 
  -39391   -39287   -39190   -39081   -38970   -38862   -38766   -38685 
  -38604   -38520   -38449   -38379   -38310   -38248   -38164   -38053 
  -37952   -37879   -37821   -37771   -37723   -37678   -37654   -37639 
  -37605   -37567   -37540   -37513   -37488   -37471   -37470   -37500 
  -37555   -37639   -37755   -37882   -38001   -38117   -38246   -38391 
  -38537   -38680   -38831   -38985   -39117   -39231   -39360   -39494 
  -39602   -39699   -39806   -39897   -39954   -39988   -40019   -40058 
  -40082   -40069   -40036   -40007   -39985   -39955   -39903   -39829 
  -39734   -39629   -39544   -39480   -39421   -39379   -39360   -39357 
  -39378   -39409   -39436   -39455   -39456   -39449   -39451   -39445 
  -39441   -39456   -39455   -39428   -39403   -39393   -39395   -39410 
  -39420   -39424   -39426   -39434   -39440   -39424   -39391   -39352 
  -39303   -39251   -39201   -39147   -39090   -39028   -38954   -38885 
  -38826   -38770   -38732   -38704   -38662   -38624   -38628   -38662 
  -38693   -38699   -38674   -38635   -38604   -38577   -38530   -38465 
  -38408   -38356   -38323   -38318   -38311   -38288   -38265   -38234 
  -38187   -38148   -38111   -38051   -37978   -37921   -37882   -37855 
  -37844   -37840   -37836   -37843   -37870   -37902   -37932   -37956 
  -37989   -38049   -38124   -38190   -38264   -38337   -38388   -38425 
  -38462   -38500   -38523   -38530   -38526   -38516   -38530   -38568 
  -38597   -38616   -38628   -38634   -38645   -38658   -38659   -38643 
  -38624   -38592   -38541   -38489   -38458   -38446   -38433   -38410 
  -38391   -38389   -38410   -38445   -38479   -38520   -38597   -38695 
  -38805   -38939   -39070   -39198   -39344   -39484   -39603   -39702 
  -39791   -39874   -39946   -40003   -40039   -40059   -40073   -40069 
  -40050   -40041   -40036   -40007   -39949   -39870   -39791   -39731 
  -39680   -39631   -39606   -39596   -39595   -39610   -39636   -39657 
  -39696   -39757   -39814   -39869   -39939   -40023   -40111   -40211 
  -40321   -40412   -40485   -40570   -40667   -40756   -40838   -40938 
  -41025   -41065   -41072   -41056   -41025   -40977   -40900   -40803 
  -40702   -40594   -40478   -40379   -40289   -40184   -40066   -39968 
  -39900   -39841   -39789   -39761   -39744   -39722   -39703   -39683 
  -39657   -39619   -39569   -39514   -39460   -39415   -39382   -39360 
  -39359   -39356   -39357   -39401   -39464   -39521   -39577   -39644 
  -39714   -39783   -39857   -39930   -39977   -39988   -39969   -39923 
  -39847   -39757   -39679   -39603   -39518   -39436   -39353   -39279 
  -39218   -39156   -39108   -39078   -39032   -38975   -38936   -38925 
  -38913   -38875   -38824   -38765   -38697   -38627   -38554   -38483 
  -38411   -38348   -38298   -38252   -38200   -38145   -38090   -38038 
  -37986   -37936   -37913   -37909   -37916   -37930   -37948   -37966 
  -37987   -38014   -38036   -38056   -38071   -38067   -38060   -38053 
  -38034   -38005   -37987   -37984   -37987   -37990   -37991   -38009 
  -38043   -38071   -38090   -38125   -38195   -38273   -38330   -38380 
  -38427   -38450   -38458   -38460   -38448   -38423   -38398   -38372 
  -38345   -38321   -38308   -38308   -38299   -38279   -38260   -38248 
  -38249   -38259   -38261   -38263   -38268   -38273   -38291   -38319 
  -38350   -38396   -38465   -38538   -38608   -38697   -38807   -38927 
  -39048   -39164   -39283   -39420   -39559   -39676   -39777   -39884 
  -39996   -40095   -40173   -40250   -40333   -40410   -40474   -40525 
  -40564   -40585   -40602   -40613   -40616   -40618   -40606   -40568 
  -40540   -40532   -40527   -40529   -40541   -40560   -40591   -40641 
  -40697   -40745   -40786   -40832   -40875   -40899   -40905   -40895 
  -40884   -40857   -40807   -40764   -40734   -40698   -40652   -40609 
  -40576   -40535   -40491   -40462   -40423   -40387   -40377   -40348 
  -40284   -40227   -40170   -40084   -39987   -39899   -39820   -39752 
  -39687   -39633   -39603   -39587   -39557   -39518   -39492   -39467 
  -39421   -39367   -39301   -39222   -39150   -39083   -39028   -38982 
  -38929   -38863   -38804   -38770   -38757   -38742   -38745   -38781 
  -38830   -38886   -38961   -39050   -39145   -39237   -39322   -39406 
  -39486   -39550   -39588   -39615   -39646   -39676   -39699   -39710 
  -39699   -39673   -39642   -39602   -39548   -39480   -39411   -39345 
  -39275   -39212   -39152   -39086   -39021   -38966   -38915   -38858 
  -38808   -38774   -38740   -38696   -38650   -38610   -38570   -38534 
  -38512   -38495   -38461   -38408   -38361   -38333   -38311   -38283 
  -38267   -38265   -38263   -38276   -38307   -38338   -38377   -38429 
  -38489   -38564   -38653   -38746   -38827   -38896   -38966   -39036 
  -39098   -39145   -39197   -39260   -39313   -39344   -39371   -39405 
  -39436   -39455   -39461   -39459   -39459   -39459   -39444   -39414 
  -39382   -39353   -39326   -39287   -39243   -39216   -39190   -39143 
  -39067   -38975   -38892   -38824   -38753   -38682   -38623   -38562 
  -38504   -38470   -38454   -38435   -38425   -38425   -38435   -38460 
  -38492   -38537   -38600   -38677   -38762   -38853   -38943   -39028 
  -39113   -39199   -39286   -39357   -39394   -39411   -39421   -39420 
  -39410   -39393   -39367   -39343   -39320   -39290   -39247   -39195 
  -39155   -39112   -39062   -39017   -38970   -38920   -38874   -38839 
  -38809   -38782   -38758   -38749   -38751   -38774   -38815   -38858 
  -38907   -38965   -39032   -39106   -39166   -39222   -39295   -39364 
  -39414   -39448   -39474   -39511   -39545   -39546   -39545   -39546 
