Origin Time       2025/01/13 21:19:00
Lat.              31.8
Long.             131.6
Depth. (km)       30
Mag.              6.9
Station Code      EHMH10
Station Lat.      34.1918
Station Long.     133.0581
Station Height(m) 5
Record Time       2025/01/13 21:20:27
Sampling Freq(Hz) 100Hz
Duration Time(s)  135
Dir.              5
Scale Factor      7845(gal)/8223790
Max. Acc. (gal)   2.501
Last Correction   2025/01/13 21:20:27
Memo.             
[...]
    3958     4051     4206     4259     4141     3901     3636     3510 
    3624     3906     4220     4491     4650     4621     4421     4152 
    3892     3709     3715     3904     4139     4338     4469     4476 
    4399     4355     4298     4055     3663     3403     3403     3530 
    3727     4112     4627     4951     4941     4799     4688     4575 
    4432     4251     3996     3773     3748     3839     3865     3824 
    3854     4032     4236     4290     4156     3906     3670     3600 
    3769     4095     4379     4456     4364     4311     4450     4699 
    4851     4838     4745     4648     4612     4618     4622     4714 
    4862     4838     4563     4207     3981     3985     4160     4297 
    4214     3917     3597     3447     3451     3442     3352     3279 
    3334     3500     3721     3985     4270     4534     4714     4779 
    4768     4747     4791     4927     5090     5232     5387     5498 
    5412     5174     5008     4989     4986     4826     4461     3994 
    3593     3406     3415     3402     3231     3048     3044     3188 
    3335     3456     3613     3843     4095     4279     4359     4374 
    4325     4212     4125     4064     3913     3673     3441     3256 
    3195     3379     3732     4040     4168     4082     3897     3843 
    3993     4205     4421     4726     5007     5000     4733     4518 
    4471     4499     4619     4761     4707     4452     4179     3962 
    3753     3535     3365     3373     3649     4054     4426     4718 
    4815     4648     4411     4303     4260     4176     4066     3977 
    3958     3985     3967     3909     3929     4117     4348     4390 
    4207     4000     3892     3802     3653     3565     3688     3956 
    4256     4610     4989     5209     5182     5055     4993     4943 
    4814     4646     4510     4384     4143     3784     3493     3345 
    3291     3345     3472     3541     3514     3508     3572     3613 
    3670     3928     4340     4603     4602     4519     4558     4739 
    4981     5165     5139     4850     4407     3951     3650     3663 
    3958     4310     4480     4419     4360     4480     4621     4606 
    4468     4243     3986     3851     3846     3813     3736     3736 
    3788     3758     3735     3897     4121     4198     4207     4244 
    4156     3902     3658     3520     3519     3723     4032     4193 
    4149     4114     4259     4514     4654     4568     4374     4186 
    4031     4001     4175     4455     4714     4909     4943     4707 
    4253     3784     3460     3303     3261     3307     3418     3557 
    3761     4072     4351     4401     4241     4056     3952     3905 
    3913     4051     4341     4677     4907     4970     4880     4617 
    4225     3969     4028     4234     4375     4396     4282     4043 
    3829     3840     4078     4321     4411     4369     4297     4259 
    4234     4179     4121     4117     4163     4159     3998     3811 
    3862     4121     4301     4268     4128     4020     3942     3827 
    3705     3689     3836     4041     4082     3889     3684     3705 
    3990     4360     4598     4692     4745     4704     4483     4203 
    4052     4020     4066     4260     4575     4841     4922     4806 
    4590     4347     4044     3676     3379     3308     3447     3663 
    3859     4079     4407     4727     4757     4395     3894     3568 
    3466     3433     3338     3349     3770     4521     5105     5197 
    4919     4514     4183     4068     4039     3828     3437     3183 
    3303     3686     4075     4309     4345     4217     4021     3900 
    3927     3996     3996     3952     3896     3920     4162     4456 
    4514     4421     4410     4413     4288     4158     4172     4317 
    4515     4633     4534     4290     4090     4006     3956     3866 
    3771     3732     3721     3742     3890     4151     4388     4545 
    4591     4502     4392     4376     4440     4542     4679     4807 
    4862     4823     4693     4553     4479     4369     4148     3990 
    3986     3936     3732     3545     3539     3726     3966     4063 
    3927     3666     3492     3460     3433     3341     3362     3676 
    4164     4603     4841     4746     4360     4033     4067     4352 
    4583     4646     4669     4779     4977     5209     5354     5287 
    5003     4568     4036     3528     3319     3496     3786     3973 
    4125     4305     4388     4293     4082     3843     3646     3584 
    3661     3713     3696     3821     4167     4565     4919     5152 
    5152     4943     4688     4536     4495     4430     4252     4070 
    4004     3947     3807     3746     3893     4160     4390     4380 
    4036     3657     3693     4156     4604     4726     4600     4425 
    4340     4368     4374     4284     4226     4266     4307     4239 
    4020     3751     3638     3740     3897     3974     3954     3881 
    3866     4013     4301     4564     4600     4322     3885     3597 
    3615     3820     4087     4446     4833     5063     5093     4904 
    4530     4166     3912     3757     3731     3851     4095     4419 
    4708     4866     4953     4988     4815     4405     3971     3651 
    3388     3215     3294     3618     4047     4444     4652     4575 
    4305     4075     4024     4132     4276     4247     3974     3681 
    3609     3819     4222     4556     4560     4318     4060     3820 
    3528     3296     3365     3692     3977     4159     4440     4783 
    4919     4880     4926     5026     4928     4639     4387     4194 
    4016     3996     4167     4272     4099     3829     3793     3982 
    4128     4117     4062     4060     4079     4066     3993     3915 
    3940     3996     3974     3985     4016     3867     3635     3573 
    3707     3906     3979     3821     3626     3670     3954     4228 
    4282     4121     3946     3952     4116     4226     4095     3748 
    3487     3605     4043     4471     4633     4510     4199     3865 
    3727     3829     3983     4044     3998     3871     3727     3653 
    3647     3624     3562     3474     3316     3127     3103     3264 
    3396     3369     3249     3179     3222     3372     3670     4077 
    4384     4500     4554     4629     4653     4565     4437     4351 
    4241     4013     3713     3530     3593     3759     3870     4000 
    4210     4413     4488     4378     4067     3649     3423     3635 
    4114     4436     4351     4012     3785     3883     4168     4328 
    4329     4418     4561     4465     4175     4000     4024     4109 
    4167     4194     4174     4109     4093     4193     4310     4333 
    4306     4286     4202     4083     4112     4306     4477     4527 
    4476     4328     4120     3997     4116     4403     4581     4515 
    4326     4128     3963     3959     4159     4272     4060     3740 
    3649     3832     4139     4383     4471     4473     4471     4491 
    4626     4854     4934     4864     4930     5138     5242     5170 
    5001     4773     4629     4710     4887     4926     4823     4702 
    4602     4580     4716     4823     4660     4326     4074     3951 
    3944     4132     4410     4534     4473     4429     4452     4392 
    4294     4317     4384     4338     4194     4035     3900     3854 
    3983     4275     4549     4626     4542     4421     4270     4141 
    4213     4506     4774     4811     4672     4546     4572     4729 
    4834     4746     4549     4410     4303     4135     3990     4021 
    4199     4348     4386     4382     4399     4579     5001     5336 
    5251     4923     4695     4638     4664     4746     4912     5128 
    5260     5204     5031     4891     4847     4834     4811     4757 
    4554     4170     3809     3684     3730     3813     4032     4396 
    4666     4793     4922     5077     5235     5389     5408     5185 
    4896     4795     4870     4847     4569     4166     3769     3346 
    2917     2670     2735     3014     3296     3443     3426     3268 
    3115     3208     3620     4183     4700     5032     5070     4854 
    4577     4386     4365     4581     4874     4909     4648     4405 
    4332     4288     4213     4093     3889     3676     3507     3377 
    3318     3323     3379     3514     3708     3858     3888     3916 
    4079     4305     4525     4796     5061     5093     4795     4428 
    4286     4356     4519     4661     4639     4457     4268     4186 
    4152     4093     4039     3955     3790     3732     3948     4279 
    4507     4633     4671     4600     4507     4433     4326     4251 
    4295     4348     4272     4121     4048     4148     4361     4513 
    4455     4212     3958     3813     3759     3753     3748     3734 
    3742     3805     3935     4166     4477     4666     4565     4283 
    4012     3808     3716     3854     4201     4484     4530     4476 
    4477     4545     4691     4899     4970     4734     4372     4145 
    3943     3601     3294     3188     3191     3165     3119     3188 
    3419     3689     3850     3824     3612     3310     3123     3214 
    3484     3693     3720     3585     3377     3229     3198     3227 
    3265     3329     3447     3545     3526     3478     3538     3661 
    3754     3844     3979     4051     3912     3601     3373     3441 
    3672     3769     3716     3700     3719     3661     3495     3253 
    3025     2891     2818     2760     2745     2744     2701     2740 
    3022     3451     3812     4058     4264     4442     4553     4553 
    4438     4252     4006     3697     3364     3073     2867     2698 
    2574     2548     2556     2543     2523     2497     2469     2475 
    2562     2720     2909     3145     3375     3468     3458     3518 
    3684     3811     3797     3770     3854     3942     3962     4043 
    4218     4414     4638     4916     5178     5296     5242     5125 
    4993     4816     4645     4554     4514     4461     4413     4398 
    4428     4534     4652     4622     4438     4233     4087     4037 
    4059     4025     3946     3959     4114     4359     4590     4706 
    4698     4619     4495     4318     4077     3774     3478     3292 
    3273     3399     3568     3651     3542     3299     3169     3285 
    3492     3562     3519     3613     3906     4155     4257     4356 
    4533     4795     5147     5508     5703     5692     5590     5462 
    5266     4992     4618     4153     3762     3585     3576     3643 
    3796     4090     4484     4830     5032     5085     5030     4981 
    5078     5285     5425     5463     5536     5680     5778     5823 
    5872     5896     5877     5794     5638     5493     5366     5165 
    4949     4896     4980     5038     5088     5239     5418     5475 
    5472     5594     5854     6052     6025     5864     5738     5616 
    5429     5231     5069     4982     5009     5069     5028     4927 
    4874     4857     4803     4689     4523     4395     4446     4638 
    4787     4864     4962     5054     5058     5024     4938     4673 
    4355     4244     4272     4190     3962     3693     3427     3217 
    3076     2907     2685     2524     2474     2440     2384     2371 
    2390     2385     2419     2587     2856     3053     3067     2984 
    2903     2835     2860     3033     3223     3366     3564     3861 
    4174     4379     4357     4097     3773     3607     3655     3813 
    3960     4056     4158     4344     4588     4750     4691     4411 
    4072     3863     3835     3875     3879     3897     4014     4149 
    4148     3998     3807     3663     3578     3550     3608     3720 
    3778     3767     3759     3724     3589     3430     3337     3258 
    3190     3229     3396     3585     3690     3681     3578     3446 
    3364     3327     3276     3233     3291     3445     3580     3645 
    3774     4058     4340     4500     4638     4804     4928     5004 
    5101     5231     5355     5458     5526     5575     5607     5628 
    5648     5572     5273     4855     4575     4504     4530     4507 
    4302     3956     3740     3748     3773     3680     3565     3447 
    3250     3076     3105     3310     3519     3649     3778     3933 
    4036     4106     4222     4318     4336     4369     4465     4546 
    4577     4603     4630     4611     4515     4328     4072     3866 
    3825     3937     4006     3881     3659     3470     3346     3349 
    3480     3562     3487     3391     3451     3723     4139     4523 
    4766     4938     5139     5337     5435     5406     5279     5061 
    4735     4355     4031     3784     3554     3402     3385     3364 
    3217     3003     2821     2751     2835     2967     3065     3207 
    3460     3738     3927     4027     4071     4062     4002     3882 
    3726     3601     3553     3568     3612     3667     3713     3754 
    3877     4048     4099     3991     3843     3728     3682     3780 
    3981     4151     4287     4480     4729     4928     5039     5108 
    5146     5139     5151     5217     5240     5184     5085     4907 
    4610     4220     3797     3427     3198     3181     3346     3555 
    3769     4024     4282     4480     4631     4735     4806     4889 
    4973     5066     5205     5319     5294     5147     5004     4915 
    4820     4715     4623     4492     4275     4027     3813     3566 
    3261     3007     2781     2467     2108     1846     1691     1574 
    1532     1675     1988     2311     2540     2718     2952     3267 
    3562     3771     3906     3970     4017     4148     4357     4536 
    4610     4590     4521     4467     4450     4433     4364     4248 
    4176     4259     4482     4677     4708     4638     4607     4675 
    4819     4978     5100     5177     5252     5337     5409     5444 
    5420     5370     5350     5386     5475     5575     5684     5809 
    5906     5927     5872     5803     5737     5622     5506     5444 
    5393     5298     5130     4882     4629     4455     4364     4322 
    4310     4322     4426     4668     4920     5032     5032     5000 
    4893     4700     4522     4388     4237     4077     3952     3798 
    3520     3142     2762     2444     2219     2095     2033     1991 
    2029     2216     2523     2855     3144     3395     3608     3694 
    3572     3318     3136     3132     3210     3235     3233     3311 
    3480     3630     3715     3838     4054     4271     4411     4448 
    4374     4225     4128     4240     4499     4644     4576     4426 
    4303     4256     4368     4635     4846     4854     4747     4635 
    4523     4432     4383     4330     4264     4193     4079     3948 
    3897     3960     4025     4023     4074     4213     4306     4333 
    4399     4567     4820     5055     5096     4924     4753     4749 
    4862     4907     4770     4546     4392     4325     4251     4113 
    3935     3765     3680     3707     3726     3677     3699     3831 
    3958     4020     4031     3993     3888     3792     3788     3794 
    3730     3663     3711     3862     3987     4027     4048     4140 
    4313     4487     4581     4635     4752     4868     4846     4741 
    4696     4760     4855     4884     4789     4558     4268     4063 
    3997     3989     3947     3871     3844     3921     4037     4112 
    4114     4000     3753     3468     3252     3140     3148     3289 
    3504     3678     3798     3966     4191     4374     4455     4479 
    4513     4596     4710     4765     4762     4762     4768     4796 
    4857     4878     4831     4785     4828     4941     5017     4972 
    4788     4504     4198     3979     3892     3879     3893     3908 
    3901     3904     4021     4245     4437     4518     4479     4313 
    4079     3898     3816     3774     3731     3759     3966     4303 
    4607     4757     4747     4656     4557     4495     4418     4284 
    4203     4239     4348     4494     4633     4696     4603     4413 
    4272     4183     4048     3858     3734     3753     3832     3923 
    4032     4067     3943     3767     3688     3688     3643     3562 
    3566     3672     3781     3854     3924     4010     4128     4287 
    4463     4567     4550     4494     4506     4556     4550     4518 
    4465     4299     4001     3693     3530     3518     3545     3549 
    3520     3469     3399     3321     3268     3241     3252     3368 
    3623     3939     4240     4518     4788     5074     5340     5499 
    5528     5471     5435     5486     5570     5584     5456     5238 
    5032     4837     4591     4322     4087     3877     3701     3586 
    3466     3291     3117     3055     3153     3341     3532     3707 
    3886     4055     4170     4244     4314     4421     4590     4720 
    4699     4564     4433     4348     4303     4302     4299     4249 
    4201     4201     4198     4108     3939     3736     3497     3226 
    2949     2713     2575     2597     2798     3087     3372     3632 
    3869     4081     4282     4463     4575     4637     4733     4892 
    5055     5173     5263     5309     5265     5108     4826     4446 
    4012     3597     3294     3115     2976     2781     2528     2272 
    2058     1930     1903     1980     2124     2251     2339     2435 
    2617     2906     3237     3551     3815     4039     4266     4479 
    4617     4650     4639     4650     4664     4615     4460     4230 
    4021     3919     3927     3942     3894     3847     3873     3973 
    4105     4244     4367     4452     4491     4484     4457     4406 
    4337     4322     4411     4548     4606     4537     4398     4259 
    4139     3994     3844     3744     3700     3682     3669     3651 
    3601     3507     3395     3315     3329     3418     3534     3673 
    3840     4025     4205     4345     4430     4468     4445     4371 
    4328     4359     4403     4415     4380     4314     4267     4253 
    4221     4124     4020     4004     4120     4345     4611     4872 
    5109     5302     5456     5566     5617     5624     5633     5652 
    5593     5429     5263     5174     5152     5150     5109     4974 
    4781     4637     4517     4338     4126     3943     3804     3743 
    3781     3823     3805     3774     3774     3771     3735     3720 
    3734     3767     3882     4081     4297     4486     4641     4754 
    4762     4598     4299     4020     3886     3906     3979     4013 
    3989     3912     3819     3748     3678     3597     3496     3373 
    3254     3190     3210     3280     3389     3569     3766     3913 
    4024     4158     4361     4615     4828     4965     5089     5247 
    5414     5551     5587     5530     5459     5394     5319     5228 
    5116     4982     4885     4826     4733     4571     4360     4136 
    3939     3816     3786     3805     3828     3812     3727     3632 
    3616     3690     3770     3793     3801     3854     3970     4136 
    4307     4415     4396     4288     4179     4044     3820     3554 
    3366     3312     3375     3454     3433     3333     3291     3354 
    3437     3453     3411     3370     3343     3304     3258     3253 
    3302     3360     3397     3423     3437     3434     3446     3519 
    3669     3875     4113     4365     4591     4741     4814     4833 
