Origin Time       2025/01/13 21:19:00
Lat.              31.8
Long.             131.6
Depth. (km)       30
Mag.              6.9
Station Code      EHMH03
Station Lat.      33.9154
Station Long.     133.6497
Station Height(m) 305
Record Time       2025/01/13 21:20:32
Sampling Freq(Hz) 100Hz
Duration Time(s)  125
Dir.              6
Scale Factor      7845(gal)/8223790
Max. Acc. (gal)   0.868
Last Correction   2025/01/13 21:20:32
Memo.             
[...]
    4635     4631     4641     4638     4606     4572     4565     4587 
    4607     4604     4583     4553     4502     4438     4407     4409 
    4411     4414     4430     4448     4452     4433     4398     4355 
    4321     4309     4314     4321     4315     4297     4284     4315 
    4371     4392     4357     4299     4270     4278     4299     4311 
    4310     4306     4318     4332     4332     4338     4363     4383 
    4388     4401     4437     4482     4514     4540     4575     4600 
    4572     4507     4460     4449     4455     4445     4428     4430 
    4463     4495     4525     4564     4606     4642     4675     4688 
    4677     4652     4626     4606     4568     4525     4529     4560 
    4575     4584     4592     4594     4612     4650     4683     4693 
    4689     4662     4618     4594     4595     4590     4571     4553 
    4546     4568     4602     4599     4549     4490     4457     4459 
    4467     4472     4483     4498     4486     4436     4379     4353 
    4347     4348     4367     4406     4448     4472     4490     4514 
    4550     4584     4599     4608     4633     4652     4625     4556 
    4496     4468     4457     4464     4498     4511     4476     4437 
    4418     4414     4446     4507     4537     4540     4572     4629 
    4653     4635     4623     4637     4654     4669     4687     4700 
    4692     4639     4548     4471     4456     4477     4491     4490 
    4491     4491     4503     4537     4557     4544     4515     4479 
    4432     4380     4332     4301     4303     4309     4298     4295 
    4302     4290     4270     4272     4293     4313     4336     4348 
    4337     4340     4388     4456     4492     4482     4448     4411 
    4387     4387     4405     4428     4469     4536     4579     4568 
    4550     4564     4591     4602     4604     4615     4627     4634 
    4622     4584     4550     4544     4536     4506     4488     4511 
    4554     4575     4568     4564     4575     4577     4550     4515 
    4492     4472     4449     4444     4455     4464     4463     4434 
    4378     4341     4355     4375     4388     4432     4499     4554 
    4594     4635     4684     4715     4731     4739     4729     4702 
    4681     4666     4645     4603     4542     4494     4476     4473 
    4472     4480     4498     4521     4548     4553     4521     4488 
    4482     4480     4477     4476     4459     4413     4359     4309 
    4261     4230     4236     4253     4268     4299     4333     4344 
    4342     4348     4352     4337     4293     4236     4203     4185 
    4159     4141     4156     4197     4248     4307     4367     4415 
    4442     4455     4472     4502     4534     4549     4537     4514 
    4506     4506     4482     4432     4402     4410     4437     4471 
    4503     4527     4575     4646     4692     4699     4704     4706 
    4665     4598     4560     4571     4603     4618     4608     4572 
    4509     4457     4452     4476     4494     4476     4438     4423 
    4426     4413     4405     4446     4500     4502     4471     4465 
    4486     4491     4471     4467     4506     4554     4585     4606 
    4618     4623     4635     4658     4693     4764     4860     4922 
    4942     4950     4945     4934     4939     4936     4892     4830 
    4780     4738     4707     4702     4718     4741     4753     4720 
    4652     4590     4553     4525     4495     4473     4468     4460 
    4437     4405     4357     4287     4216     4182     4168     4125 
    4062     4032     4023     4012     4024     4059     4075     4060 
    4044     4060     4090     4087     4058     4039     4048     4077 
    4101     4116     4126     4139     4167     4202     4221     4225 
    4221     4210     4180     4136     4116     4145     4191     4210 
    4220     4241     4257     4255     4247     4241     4229     4212 
    4205     4221     4267     4329     4367     4374     4390     4403 
    4392     4380     4387     4401     4430     4477     4509     4507 
    4486     4464     4457     4480     4515     4537     4541     4544 
    4544     4549     4591     4681     4774     4834     4874     4904 
    4904     4887     4861     4827     4793     4762     4723     4657 
    4580     4544     4546     4548     4538     4534     4525     4495 
    4471     4465     4467     4479     4504     4536     4571     4608 
    4635     4657     4680     4693     4680     4646     4619     4610 
    4618     4642     4669     4681     4688     4712     4738     4747 
    4762     4781     4773     4729     4675     4638     4627     4621 
    4611     4596     4565     4517     4457     4388     4311     4243 
    4198     4174     4159     4153     4175     4212     4222     4213 
    4220     4244     4276     4318     4352     4352     4338     4347 
    4380     4441     4503     4526     4523     4529     4548     4575 
    4591     4591     4583     4568     4546     4530     4530     4526 
    4502     4472     4452     4434     4426     4425     4413     4391 
    4382     4390     4396     4376     4352     4349     4360     4355 
    4330     4299     4267     4245     4255     4306     4369     4411 
    4430     4450     4491     4521     4522     4509     4490     4459 
    4430     4423     4426     4428     4440     4457     4469     4477 
    4465     4438     4422     4430     4459     4499     4537     4565 
    4587     4602     4614     4633     4661     4698     4737     4783 
    4842     4893     4914     4909     4896     4884     4870     4839 
    4789     4756     4761     4772     4773     4792     4827     4850 
    4864     4878     4882     4869     4834     4783     4730     4693 
    4658     4598     4533     4495     4475     4436     4369     4293 
    4225     4167     4108     4058     4035     4036     4047     4060 
    4083     4121     4160     4185     4191     4190     4193     4206 
    4217     4212     4209     4214     4214     4218     4249     4297 
    4328     4338     4338     4342     4359     4376     4375     4347 
    4309     4287     4283     4294     4329     4376     4417     4461 
    4504     4527     4544     4576     4614     4652     4692     4730 
    4757     4788     4838     4895     4915     4888     4861     4869 
    4888     4869     4822     4784     4765     4735     4679     4607 
    4544     4504     4484     4468     4445     4405     4341     4274 
    4226     4197     4163     4141     4145     4156     4160     4166 
    4164     4151     4132     4133     4153     4160     4152     4151 
    4158     4163     4170     4191     4225     4248     4259     4280 
    4322     4372     4409     4418     4418     4433     4464     4492 
    4525     4580     4646     4704     4753     4792     4833     4882 
    4936     4970     4972     4950     4915     4862     4804     4764 
    4735     4687     4634     4623     4657     4692     4714     4743 
    4780     4797     4792     4779     4766     4756     4734     4698 
    4637     4537     4423     4341     4295     4255     4201     4139 
    4070     4001     3946     3909     3881     3862     3848     3824 
    3812     3835     3870     3894     3920     3956     3996     4032 
    4078     4136     4199     4271     4344     4402     4441     4460 
    4477     4504     4536     4573     4617     4650     4676     4707 
    4735     4741     4729     4723     4723     4722     4738     4779 
    4819     4826     4799     4785     4807     4839     4861     4880 
    4896     4896     4873     4827     4766     4710     4665     4630 
    4607     4603     4619     4641     4661     4676     4665     4619 
    4563     4521     4499     4498     4504     4507     4507     4504 
    4498     4480     4461     4452     4455     4445     4414     4387 
    4378     4374     4378     4392     4405     4415     4426     4441 
    4453     4450     4430     4413     4418     4445     4469     4477 
    4479     4476     4460     4440     4432     4433     4445     4460 
    4465     4469     4488     4513     4542     4583     4617     4614 
    4602     4608     4621     4619     4615     4618     4625     4633 
    4634     4639     4660     4687     4714     4742     4762     4760 
    4737     4712     4691     4664     4639     4638     4646     4642 
    4622     4595     4579     4563     4533     4491     4444     4399 
    4359     4322     4290     4259     4239     4232     4222     4209 
    4209     4213     4201     4172     4151     4143     4135     4131 
    4136     4137     4135     4133     4122     4106     4105     4118 
    4140     4159     4158     4148     4156     4180     4198     4202 
    4220     4260     4302     4329     4353     4384     4415     4419 
    4402     4382     4352     4310     4278     4264     4266     4284 
    4321     4364     4413     4472     4546     4635     4723     4796 
    4864     4942     5020     5074     5103     5116     5113     5096 
    5077     5059     5028     4988     4947     4907     4868     4842 
    4815     4770     4739     4730     4722     4718     4726     4729 
    4710     4666     4615     4569     4525     4480     4437     4394 
    4361     4338     4306     4264     4232     4213     4197     4171 
    4145     4139     4147     4156     4168     4174     4164     4147 
    4144     4168     4203     4229     4245     4263     4276     4278 
    4259     4233     4221     4213     4202     4201     4212     4229 
    4253     4278     4301     4336     4387     4438     4475     4498 
    4510     4518     4526     4529     4530     4533     4538     4538 
    4534     4526     4523     4529     4546     4583     4626     4645 
    4638     4621     4602     4584     4580     4615     4683     4752 
    4811     4872     4922     4957     4989     5013     5026     5038 
    5062     5093     5121     5143     5158     5161     5157     5148 
    5134     5123     5139     5167     5185     5175     5148     5131 
    5121     5093     5047     5003     4962     4923     4874     4830 
    4804     4789     4777     4762     4734     4703     4672     4633 
    4585     4536     4480     4418     4359     4309     4267     4224 
    4170     4109     4048     3996     3952     3917     3882     3842 
    3815     3809     3809     3809     3819     3827     3819     3817 
    3842     3879     3917     3943     3956     3971     3994     4018 
    4040     4058     4068     4086     4131     4205     4295     4384 
    4452     4490     4513     4544     4577     4607     4641     4675 
    4691     4693     4695     4691     4672     4644     4611     4569 
    4519     4475     4450     4442     4446     4471     4509     4527 
    4530     4527     4526     4536     4541     4525     4500     4486 
    4483     4486     4488     4487     4484     4471     4444     4409 
    4363     4311     4279     4274     4276     4270     4252     4225 
    4202     4195     4191     4174     4153     4141     4145     4164 
    4185     4193     4187     4168     4139     4106     4087     4109 
    4163     4206     4236     4274     4309     4338     4359     4363 
    4360     4376     4413     4456     4499     4529     4544     4563 
    4588     4598     4585     4568     4558     4552     4546     4538 
    4533     4521     4488     4460     4465     4495     4525     4540 
    4531     4509     4472     4437     4418     4410     4406     4403 
    4407     4417     4429     4440     4449     4469     4499     4525 
    4538     4538     4527     4514     4509     4517     4527     4537 
    4534     4530     4537     4563     4588     4606     4626     4641 
    4638     4637     4648     4676     4718     4762     4791     4804 
    4811     4820     4828     4838     4849     4854     4854     4838 
    4807     4779     4750     4708     4672     4653     4639     4627 
    4623     4618     4600     4576     4565     4567     4565     4563 
    4552     4513     4456     4403     4349     4284     4233     4213 
    4216     4217     4217     4217     4217     4228     4243     4248 
    4249     4247     4240     4239     4248     4259     4272     4302 
    4338     4365     4375     4351     4295     4240     4202     4183 
    4179     4185     4193     4205     4218     4218     4202     4185 
    4166     4166     4197     4232     4248     4247     4244     4248 
    4249     4244     4220     4187     4168     4174     4193     4222 
    4259     4293     4321     4347     4374     4396     4403     4391 
    4371     4361     4361     4369     4392     4418     4438     4465 
    4491     4504     4515     4537     4567     4585     4590     4592 
    4600     4602     4592     4585     4584     4591     4602     4599 
    4579     4546     4509     4482     4469     4463     4456     4455 
    4457     4465     4482     4510     4538     4561     4584     4611 
    4625     4614     4590     4563     4527     4492     4468     4446 
    4417     4384     4359     4337     4302     4244     4185     4140 
    4104     4063     4027     4000     3973     3929     3881     3844 
    3831     3836     3842     3839     3843     3858     3877     3898 
    3925     3948     3951     3937     3923     3920     3939     3981 
    4039     4098     4145     4187     4236     4295     4352     4413 
    4482     4550     4607     4660     4726     4806     4887     4966 
    5039     5105     5161     5193     5204     5213     5239     5271 
    5294     5312     5333     5352     5371     5389     5389     5373 
    5346     5309     5277     5269     5279     5290     5286     5262 
    5220     5165     5108     5057     5001     4945     4892     4834 
    4765     4691     4614     4531     4446     4365     4302     4266 
    4240     4213     4193     4185     4164     4133     4116     4104 
    4071     4023     3979     3944     3915     3890     3871     3865 
    3863     3859     3861     3886     3931     3970     4010     4062 
    4110     4140     4155     4176     4217     4271     4329     4374 
    4394     4406     4422     4448     4484     4523     4552     4568 
    4588     4617     4644     4666     4695     4727     4765     4807 
    4845     4873     4897     4918     4931     4938     4935     4931 
    4935     4951     4977     5005     5023     5026     5013     4974 
    4920     4874     4847     4830     4820     4811     4781     4745 
    4719     4700     4676     4639     4592     4544     4507     4486 
    4473     4460     4434     4392     4342     4298     4256     4212 
    4185     4190     4209     4222     4220     4202     4186     4171 
    4152     4139     4137     4139     4129     4122     4137     4171 
    4207     4243     4275     4302     4322     4333     4353     4383 
    4402     4406     4409     4419     4432     4429     4423     4428 
    4444     4463     4487     4510     4521     4523     4536     4554 
    4568     4571     4575     4576     4572     4564     4563     4569 
    4575     4583     4590     4592     4603     4630     4666     4714 
    4764     4800     4822     4843     4865     4877     4876     4864 
    4841     4818     4807     4801     4799     4803     4804     4795 
    4780     4758     4734     4715     4700     4679     4661     4652 
    4645     4639     4637     4629     4619     4619     4623     4629 
    4630     4617     4588     4553     4515     4473     4440     4418 
    4401     4387     4386     4395     4401     4387     4365     4349 
    4338     4324     4299     4268     4232     4190     4145     4105 
    4078     4045     4005     3974     3960     3956     3947     3932 
    3928     3939     3951     3959     3967     3973     3973     3973 
    3973     3971     3969     3975     3998     4028     4041     4051 
    4081     4118     4149     4189     4229     4257     4276     4299 
    4320     4334     4359     4386     4407     4428     4446     4457 
    4456     4453     4453     4449     4432     4409     4403     4419 
    4441     4456     4477     4514     4552     4592     4633     4662 
    4675     4683     4693     4706     4723     4745     4758     4757 
    4750     4746     4733     4707     4692     4681     4664     4646 
    4633     4621     4618     4627     4633     4626     4619     4625 
    4639     4656     4676     4699     4719     4729     4720     4707 
    4699     4691     4689     4687     4677     4675     4680     4675 
    4660     4649     4646     4642     4649     4676     4698     4692 
    4681     4672     4660     4646     4635     4622     4604     4585 
    4565     4546     4526     4499     4468     4450     4455     4465 
    4476     4487     4499     4502     4486     4456     4434     4432 
    4432     4419     4401     4379     4353     4334     4333     4338 
    4347     4353     4355     4355     4351     4340     4338     4348 
    4355     4356     4357     4374     4406     4438     4453     4440 
    4402     4364     4336     4311     4297     4293     4287     4279 
    4280     4278     4259     4237     4234     4252     4274     4293 
    4315     4347     4387     4425     4457     4488     4514     4527 
    4536     4546     4556     4563     4568     4579     4592     4596 
    4591     4590     4584     4564     4549     4538     4517     4490 
    4463     4425     4384     4361     4349     4337     4315     4290 
    4272     4268     4267     4263     4252     4247     4252     4259 
    4255     4247     4261     4294     4320     4338     4355     4365 
    4376     4383     4376     4371     4384     4411     4429     4426 
    4414     4407     4409     4413     4421     4428     4428     4429 
    4438     4448     4455     4456     4445     4436     4433     4437 
    4446     4464     4487     4504     4504     4491     4477     4471 
    4465     4461     4464     4463     4460     4465     4468     4463 
    4459     4459     4456     4459     4473     4486     4484     4490 
    4504     4517     4533     4556     4573     4585     4606     4638 
    4668     4688     4698     4703     4708     4719     4739     4757 
    4757     4738     4715     4699     4687     4675     4662     4656 
    4650     4646     4645     4649     4654     4657     4652     4644 
    4634     4633     4641     4646     4645     4649     4666     4689 
    4704     4704     4689     4665     4648     4639     4645     4664 
    4680     4680     4668     4653     4641     4634     4634     4630 
    4608     4587     4576     4560     4538     4519     4498     4475 
    4455     4429     4398     4376     4375     4376     4372     4369 
    4374     4372     4360     4342     4336     4341     4352     4361 
    4369     4374     4369     4347     4307     4259     4221     4197 
    4176     4159     4153     4153     4144     4132     4133     4137 
    4143     4158     4176     4190     4203     4216     4221     4225 
    4232     4230     4220     4213     4216     4221     4224     4229 
    4237     4240     4239     4241     4257     4284     4307     4321 
    4333     4348     4367     4384     4398     4425     4464     4491 
    4496     4494     4488     4480     4487     4515     4548     4560 
    4557     4558     4563     4563     4553     4533     4522     4541 
    4583     4625     4646     4652     4658     4660     4644     4626 
