Origin Time       2025/01/13 21:19:00
Lat.              31.8
Long.             131.6
Depth. (km)       30
Mag.              6.9
Station Code      EHMH02
Station Lat.      33.8650
Station Long.     133.1840
Station Height(m) -35
Record Time       2025/01/13 21:20:57
Sampling Freq(Hz) 100Hz
Duration Time(s)  120
Dir.              2
Scale Factor      2942(gal)/8224139
Max. Acc. (gal)   0.801
Last Correction   2025/01/13 21:20:58
Memo.             
 -217404  -217343  -217193  -217108  -217101  -217073  -217013  -217001 
 -217054  -217125  -217174  -217185  -217162  -217117  -217063  -217027 
 -217069  -217181  -217267  -217254  -217204  -217236  -217306  -217296 
 -217248  -217270  -217341  -217370  -217302  -217189  -217117  -217067 
 -216966  -216846  -216803  -216837  -216859  -216823  -216772  -216764 
 -216785  -216812  -216868  -216947  -217016  -217096  -217229  -217356 
 -217370  -217281  -217202  -217197  -217235  -217260  -217243  -217189 
 -217183  -217297  -217439  -217471  -217422  -217401  -217402  -217316 
 -217132  -217057  -217205  -217393  -217435  -217352  -217213  -217047 
 -216897  -216801  -216741  -216692  -216683  -216760  -216881  -216923 
 -216820  -216641  -216500  -216499  -216606  -216677  -216670  -216681 
 -216762  -216861  -216909  -216880  -216804  -216704  -216583  -216504 
 -216535  -216623  -216664  -216635  -216606  -216666  -216827  -216963 
 -216986  -216978  -217013  -217070  -217136  -217248  -217382  -217432 
 -217364  -217271  -217244  -217252  -217198  -217088  -217042  -217098 
 -217179  -217186  -217097  -216966  -216842  -216765  -216801  -216919 
 -217019  -217096  -217185  -217220  -217135  -217032  -217054  -217127 
 -217066  -216916  -216866  -216908  -216927  -216945  -217013  -217081 
 -217078  -217080  -217209  -217391  -217467  -217426  -217381  -217367 
 -217305  -217182  -217108  -217138  -217247  -217354  -217386  -217341 
 -217236  -217101  -217017  -217034  -217098  -217127  -217108  -217067 
 -216976  -216812  -216689  -216706  -216772  -216828  -216976  -217232 
 -217436  -217501  -217516  -217566  -217615  -217649  -217691  -217695 
 -217607  -217464  -217297  -217115  -217003  -217030  -217109  -217134 
 -217143  -217258  -217447  -217517  -217412  -217300  -217328  -217463 
 -217552  -217518  -217447  -217432  -217420  -217294  -217080  -216965 
 -217061  -217242  -217317  -217224  -217027  -216874  -216861  -216945 
 -217044  -217080  -217007  -216880  -216797  -216830  -216986  -217161 
 -217259  -217313  -217393  -217485  -217533  -217529  -217494  -217449 
 -217418  -217379  -217260  -217046  -216841  -216784  -216880  -217012 
 -217084  -217096  -217070  -217030  -217017  -217034  -217030  -217040 
 -217183  -217385  -217364  -217067  -216824  -216895  -217129  -217220 
 -217108  -216969  -216907  -216905  -216974  -217154  -217375  -217518 
 -217620  -217817  -218085  -218220  -218064  -217698  -217395  -217306 
 -217327  -217341  -217402  -217583  -217787  -217823  -217701  -217605 
 -217603  -217567  -217395  -217210  -217200  -217320  -217377  -217320 
 -217269  -217308  -217378  -217366  -217256  -217162  -217152  -217166 
 -217178  -217205  -217219  -217216  -217239  -217281  -217289  -217243 
 -217186  -217129  -216997  -216811  -216741  -216835  -216908  -216801 
 -216614  -216544  -216653  -216820  -216942  -217028  -217075  -217084 
 -217139  -217270  -217360  -217341  -217306  -217347  -217414  -217435 
 -217402  -217354  -217308  -217267  -217248  -217229  -217161  -217069 
 -217026  -217009  -216957  -216864  -216765  -216718  -216761  -216859 
 -216980  -217082  -217136  -217165  -217190  -217240  -217324  -217391 
 -217468  -217578  -217602  -217448  -217185  -216943  -216811  -216851 
 -217048  -217248  -217273  -217093  -216876  -216766  -216726  -216697 
 -216741  -216882  -217027  -217077  -217053  -217005  -216918  -216787 
 -216653  -216575  -216600  -216672  -216695  -216641  -216579  -216611 
 -216727  -216773  -216664  -216506  -216472  -216625  -216886  -217100 
 -217151  -217073  -217013  -217086  -217256  -217401  -217424  -217310 
 -217175  -217138  -217148  -217100  -217032  -217024  -217067  -217159 
 -217248  -217175  -216916  -216699  -216730  -216934  -217092  -217117 
 -217101  -217108  -217104  -217109  -217159  -217216  -217255  -217332 
 -217479  -217539  -217359  -217092  -216930  -216820  -216688  -216607 
 -216668  -216785  -216826  -216861  -217017  -217169  -217077  -216781 
 -216606  -216714  -216918  -216996  -217007  -217088  -217140  -217059 
 -217003  -217129  -217301  -217329  -217237  -217148  -217127  -217143 
 -217159  -217158  -217088  -216978  -216939  -216943  -216950  -217019 
 -217151  -217256  -217297  -217347  -217458  -217564  -217645  -217769 
 -217842  -217690  -217437  -217359  -217433  -217463  -217381  -217258 
 -217183  -217175  -217173  -217192  -217242  -217227  -217127  -217038 
 -217008  -217044  -217174  -217331  -217344  -217221  -217185  -217271 
 -217256  -217013  -216754  -216760  -216938  -216980  -216858  -216795 
 -216861  -216928  -216931  -216930  -216953  -216945  -216907  -216931 
 -217063  -217233  -217321  -217333  -217394  -217478  -217422  -217269 
 -217259  -217406  -217428  -217202  -216969  -216989  -217223  -217406 
 -217445  -217449  -217443  -217356  -217229  -217177  -217197  -217139 
 -216943  -216811  -216924  -217159  -217264  -217171  -217090  -217220 
 -217448  -217510  -217352  -217179  -217197  -217356  -217413  -217259 
 -217061  -216951  -216880  -216831  -216909  -217111  -217256  -217217 
 -217111  -217129  -217243  -217281  -217212  -217113  -217021  -216949 
 -216935  -216996  -217062  -217082  -217102  -217174  -217244  -217217 
 -217084  -216942  -216862  -216811  -216795  -216900  -217100  -217277 
 -217375  -217340  -217185  -217081  -217144  -217291  -217363  -217281 
 -217134  -217054  -217003  -216866  -216702  -216670  -216768  -216864 
 -216900  -216899  -216885  -216889  -216912  -216965  -217042  -217040 
 -216930  -216886  -216993  -217117  -217175  -217233  -217291  -217282 
 -217251  -217337  -217517  -217601  -217529  -217418  -217345  -217351 
 -217489  -217684  -217736  -217602  -217489  -217533  -217605  -217540 
 -217339  -217125  -217009  -216989  -216982  -216922  -216792  -216621 
 -216446  -216334  -216334  -216422  -216561  -216758  -216993  -217182 
 -217189  -216994  -216769  -216669  -216726  -216923  -217171  -217273 
 -217089  -216781  -216607  -216568  -216580  -216683  -216864  -216989 
 -216999  -216936  -216858  -216804  -216838  -216994  -217166  -217256 
 -217358  -217509  -217571  -217490  -217420  -217497  -217655  -217771 
 -217830  -217819  -217663  -217372  -217101  -217027  -217212  -217529 
 -217714  -217629  -217435  -217404  -217520  -217483  -217221  -217026 
 -217071  -217228  -217296  -217221  -217129  -217074  -216999  -216927 
 -216924  -216945  -216909  -216888  -216999  -217159  -217165  -216962 
 -216743  -216706  -216803  -216861  -216810  -216702  -216606  -216504 
 -216359  -216255  -216270  -216356  -216454  -216537  -216587  -216630 
 -216645  -216556  -216376  -216260  -216337  -216553  -216733  -216818 
 -216889  -216936  -216841  -216631  -216515  -216629  -216899  -217089 
 -217058  -216907  -216838  -216966  -217243  -217513  -217688  -217742 
 -217725  -217748  -217788  -217703  -217494  -217320  -217291  -217363 
 -217453  -217566  -217698  -217807  -217899  -218010  -218114  -218169 
 -218204  -218270  -218261  -218073  -217850  -217783  -217895  -218035 
 -218076  -218088  -218100  -217957  -217649  -217368  -217192  -217077 
 -217027  -217023  -216965  -216824  -216712  -216741  -216904  -217084 
 -217179  -217201  -217179  -217117  -217066  -217080  -217131  -217147 
 -217054  -216901  -216899  -217081  -217212  -217181  -217147  -217181 
 -217147  -217027  -217001  -217117  -217208  -217192  -217219  -217435 
 -217738  -217919  -217919  -217814  -217717  -217702  -217699  -217606 
 -217497  -217460  -217444  -217467  -217602  -217736  -217725  -217669 
 -217710  -217776  -217733  -217663  -217745  -217887  -217833  -217629 
 -217529  -217560  -217556  -217478  -217483  -217655  -217854  -217950 
 -217941  -217854  -217736  -217683  -217755  -217857  -217842  -217715 
 -217621  -217630  -217699  -217786  -217881  -217902  -217771  -217624 
 -217580  -217498  -217305  -217188  -217259  -217348  -217213  -216901 
 -216716  -216766  -216864  -216859  -216795  -216749  -216700  -216588 
 -216477  -216508  -216641  -216683  -216642  -216708  -216872  -216922 
 -216772  -216575  -216541  -216652  -216675  -216554  -216487  -216545 
 -216612  -216648  -216726  -216905  -217131  -217239  -217117  -216866 
 -216672  -216598  -216596  -216571  -216490  -216440  -216476  -216542 
 -216583  -216560  -216473  -216384  -216315  -216271  -216278  -216319 
 -216314  -216225  -216178  -216253  -216286  -216198  -216184  -216346 
 -216500  -216475  -216363  -216348  -216426  -216471  -216465  -216510 
 -216648  -216808  -216834  -216654  -216400  -216236  -216186  -216218 
 -216292  -216351  -216380  -216421  -216541  -216718  -216785  -216676 
 -216535  -216491  -216469  -216398  -216357  -216373  -216318  -216167 
 -216025  -215917  -215813  -215786  -215875  -215940  -215904  -215890 
 -215967  -215989  -215882  -215825  -215955  -216098  -216076  -216056 
 -216241  -216517  -216677  -216684  -216626  -216579  -216579  -216680 
 -216841  -216897  -216838  -216843  -216958  -217007  -216897  -216747 
 -216711  -216787  -216815  -216695  -216534  -216426  -216365  -216376 
 -216526  -216770  -216895  -216776  -216612  -216562  -216494  -216348 
 -216324  -216515  -216723  -216795  -216845  -216981  -217089  -217055 
 -217004  -217098  -217279  -217429  -217525  -217552  -217502  -217397 
 -217266  -217151  -217053  -216986  -217082  -217356  -217618  -217741 
 -217752  -217696  -217557  -217377  -217302  -217339  -217313  -217231 
 -217270  -217374  -217317  -217116  -217020  -217113  -217206  -217154 
 -217121  -217281  -217404  -217212  -216864  -216689  -216700  -216683 
 -216621  -216650  -216703  -216625  -216513  -216554  -216697  -216731 
 -216622  -216522  -216527  -216608  -216675  -216654  -216544  -216415 
 -216349  -216388  -216522  -216634  -216637  -216608  -216637  -216676 
 -216654  -216577  -216506  -216523  -216658  -216804  -216783  -216589 
 -216419  -216396  -216440  -216430  -216373  -216315  -216301  -216392 
 -216488  -216419  -216286  -216328  -216565  -216801  -216945  -217119 
 -217333  -217399  -217305  -217275  -217391  -217521  -217556  -217495 
 -217401  -217367  -217428  -217528  -217617  -217683  -217761  -217854 
 -217906  -217915  -217925  -217944  -217983  -218072  -218189  -218257 
 -218242  -218214  -218262  -218378  -218509  -218609  -218675  -218771 
 -218882  -218934  -218952  -219009  -219133  -219288  -219379  -219341 
 -219214  -219114  -219149  -219267  -219304  -219253  -219233  -219238 
 -219154  -218961  -218775  -218686  -218658  -218613  -218551  -218529 
 -218565  -218570  -218458  -218297  -218247  -218319  -218421  -218492 
 -218498  -218465  -218423  -218347  -218176  -217908  -217648  -217470 
 -217314  -217142  -216999  -216900  -216780  -216612  -216529  -216646 
 -216791  -216766  -216699  -216745  -216845  -216934  -217078  -217266 
 -217345  -217264  -217161  -217109  -217028  -216932  -216996  -217237 
 -217404  -217351  -217239  -217198  -217156  -217062  -216994  -217000 
 -217015  -216974  -216961  -217101  -217318  -217416  -217379  -217368 
 -217471  -217637  -217782  -217876  -217934  -217965  -217996  -218080 
 -218209  -218344  -218452  -218479  -218384  -218232  -218115  -217984 
 -217792  -217655  -217664  -217728  -217715  -217628  -217532  -217482 
 -217532  -217647  -217723  -217732  -217709  -217672  -217561  -217343 
 -217158  -217150  -217247  -217362  -217513  -217664  -217683  -217572 
 -217491  -217497  -217485  -217391  -217263  -217173  -217125  -217098 
 -217097  -217104  -217086  -217066  -217067  -217053  -216980  -216877 
 -216773  -216685  -216675  -216756  -216876  -216938  -216827  -216604 
 -216468  -216448  -216430  -216379  -216330  -216284  -216207  -216129 
 -216164  -216318  -216434  -216459  -216531  -216707  -216868  -216954 
 -217069  -217313  -217611  -217804  -217860  -217838  -217782  -217738 
 -217738  -217775  -217765  -217622  -217405  -217227  -217121  -217051 
 -216935  -216792  -216729  -216727  -216697  -216633  -216589  -216584 
 -216584  -216545  -216449  -216315  -216202  -216183  -216276  -216356 
 -216324  -216270  -216313  -216411  -216490  -216554  -216637  -216742 
 -216855  -216989  -217152  -217297  -217364  -217364  -217399  -217529 
 -217641  -217621  -217536  -217514  -217579  -217630  -217591  -217516 
 -217474  -217429  -217336  -217216  -217121  -217063  -216999  -216922 
 -216849  -216758  -216625  -216499  -216436  -216364  -216203  -215998 
 -215832  -215690  -215535  -215396  -215276  -215117  -214957  -214940 
 -215056  -215144  -215172  -215252  -215410  -215524  -215547  -215578 
 -215663  -215736  -215789  -215871  -215967  -216028  -216082  -216220 
 -216459  -216712  -216889  -216986  -217058  -217093  -217077  -217035 
 -217009  -217070  -217217  -217352  -217404  -217327  -217135  -216961 
 -216901  -216913  -216915  -216870  -216823  -216838  -216913  -216981 
 -217015  -217061  -217150  -217294  -217478  -217622  -217703  -217779 
 -217849  -217871  -217850  -217845  -217900  -217996  -218069  -218058 
 -217939  -217744  -217575  -217479  -217428  -217431  -217499  -217606 
 -217692  -217698  -217645  -217587  -217495  -217356  -217237  -217189 
 -217174  -217127  -217086  -217109  -217112  -217019  -216932  -216976 
 -217085  -217151  -217216  -217387  -217628  -217814  -217921  -218022 
 -218153  -218274  -218373  -218458  -218481  -218432  -218377  -218346 
 -218330  -218317  -218263  -218160  -218103  -218138  -218193  -218178 
 -218069  -217935  -217860  -217864  -217921  -217984  -218015  -217983 
 -217910  -217877  -217899  -217902  -217869  -217846  -217819  -217728 
 -217610  -217543  -217455  -217269  -217124  -217171  -217316  -217385 
 -217394  -217448  -217516  -217551  -217614  -217683  -217663  -217551 
 -217455  -217476  -217575  -217630  -217633  -217591  -217467  -217289 
 -217166  -217158  -217198  -217189  -217161  -217228  -217374  -217462 
 -217444  -217420  -217452  -217478  -217449  -217413  -217414  -217453 
 -217495  -217512  -217521  -217533  -217525  -217529  -217580  -217626 
 -217611  -217532  -217433  -217368  -217345  -217371  -217449  -217532 
 -217587  -217640  -217715  -217800  -217873  -217911  -217883  -217825 
 -217813  -217815  -217780  -217764  -217788  -217800  -217782  -217771 
 -217806  -217856  -217867  -217865  -217861  -217783  -217613  -217445 
 -217332  -217224  -217077  -216934  -216859  -216823  -216739  -216627 
 -216558  -216531  -216506  -216441  -216295  -216128  -216055  -216064 
 -216025  -215902  -215804  -215766  -215696  -215557  -215395  -215246 
 -215136  -215087  -215104  -215133  -215110  -215052  -215002  -214978 
 -214994  -215025  -215003  -214951  -214992  -215192  -215437  -215539 
 -215482  -215433  -215504  -215649  -215755  -215775  -215747  -215771 
 -215928  -216198  -216503  -216776  -217001  -217209  -217413  -217613 
 -217825  -218014  -218164  -218358  -218644  -218921  -219064  -219107 
 -219163  -219217  -219180  -219086  -219034  -218988  -218867  -218741 
 -218693  -218641  -218509  -218346  -218238  -218201  -218208  -218227 
 -218254  -218307  -218377  -218432  -218451  -218436  -218407  -218381 
 -218362  -218350  -218344  -218340  -218319  -218289  -218303  -218331 
 -218269  -218123  -217991  -217896  -217796  -217672  -217566  -217516 
 -217490  -217449  -217395  -217328  -217242  -217150  -217057  -216947 
 -216803  -216625  -216444  -216256  -216016  -215731  -215492  -215370 
 -215337  -215341  -215393  -215522  -215705  -215904  -216113  -216338 
 -216573  -216804  -217035  -217251  -217440  -217633  -217865  -218089 
 -218228  -218273  -218274  -218273  -218284  -218263  -218169  -218025 
 -217881  -217746  -217605  -217468  -217364  -217275  -217159  -217001 
 -216789  -216531  -216280  -216091  -215987  -215917  -215784  -215586 
 -215426  -215330  -215250  -215167  -215127  -215157  -215187  -215172 
 -215192  -215306  -215447  -215545  -215596  -215650  -215746  -215847 
 -215887  -215854  -215821  -215858  -215916  -215890  -215805  -215777 
 -215823  -215832  -215789  -215801  -215885  -215946  -215990  -216128 
 -216373  -216577  -216669  -216738  -216857  -216988  -217089  -217204 
 -217389  -217620  -217806  -217891  -217944  -218056  -218174  -218178 
 -218049  -217861  -217687  -217532  -217417  -217379  -217395  -217387 
 -217333  -217312  -217382  -217493  -217579  -217649  -217744  -217865 
 -217948  -217949  -217921  -217929  -218023  -218164  -218249  -218288 
 -218355  -218451  -218532  -218567  -218533  -218448  -218367  -218343 
 -218373  -218425  -218473  -218493  -218511  -218547  -218563  -218542 
 -218517  -218494  -218458  -218401  -218339  -218311  -218307  -218296 
 -218289  -218315  -218359  -218389  -218400  -218390  -218323  -218219 
 -218192  -218254  -218309  -218343  -218386  -218427  -218421  -218367 
 -218320  -218324  -218349  -218328  -218245  -218108  -217931  -217750 
 -217645  -217595  -217486  -217312  -217178  -217111  -217020  -216853 
 -216657  -216484  -216321  -216164  -216037  -215906  -215739  -215600 
 -215562  -215585  -215577  -215534  -215503  -215508  -215543  -215580 
 -215570  -215504  -215446  -215455  -215485  -215468  -215455  -215515 
 -215600  -215654  -215671  -215663  -215677  -215730  -215800  -215896 
 -216006  -216067  -216087  -216126  -216180  -216189  -216098  -215958 
 -215871  -215855  -215862  -215901  -216004  -216156  -216322  -216473 
 -216611  -216741  -216842  -216923  -217016  -217123  -217215  -217252 
 -217246  -217244  -217270  -217314  -217358  -217385  -217422  -217505 
 -217579  -217575  -217505  -217444  -217439  -217448  -217399  -217318 
 -217289  -217336  -217431  -217525  -217591  -217638  -217665  -217674 
 -217661  -217584  -217449  -217327  -217263  -217262  -217250  -217150 
 -217004  -216928  -216951  -217020  -217071  -217061  -216982  -216880 
 -216768  -216648  -216556  -216504  -216465  -216437  -216434  -216461 
 -216518  -216611  -216731  -216864  -217020  -217170  -217282  -217397 
 -217525  -217611  -217636  -217663  -217732  -217809  -217826  -217765 
 -217683  -217624  -217580  -217522  -217418  -217285  -217190  -217175 
 -217210  -217240  -217281  -217372  -217497  -217617  -217705  -217721 
 -217714  -217773  -217881  -217958  -217973  -217966  -217981  -217992 
 -217992  -218014  -218015  -217953  -217891  -217880  -217888  -217871 
 -217849  -217892  -218008  -218137  -218228  -218265  -218242  -218177 
 -218131  -218165  -218263  -218334  -218339  -218335  -218324  -218262 
 -218157  -218061  -218003  -217952  -217875  -217790  -217709  -217587 
 -217409  -217219  -217081  -216996  -216892  -216751  -216616  -216479 
 -216326  -216202  -216144  -216133  -216137  -216179  -216276  -216357 
 -216342  -216257  -216202  -216218  -216257  -216310  -216390  -216461 
 -216514  -216604  -216783  -217005  -217179  -217310  -217490  -217733 
 -217957  -218108  -218223  -218340  -218442  -218502  -218536  -218571 
 -218621  -218655  -218632  -218554  -218471  -218400  -218296  -218151 
 -218031  -217956  -217868  -217779  -217755  -217776  -217777  -217750 
 -217726  -217723  -217744  -217776  -217804  -217836  -217875  -217895 
 -217898  -217898  -217873  -217834  -217813  -217811  -217810  -217760 
 -217645  -217530  -217466  -217416  -217351  -217297  -217274  -217236 
 -217132  -216982  -216835  -216733  -216691  -216666  -216631  -216580 
 -216514  -216465  -216461  -216460  -216419  -216379  -216402  -216504 
