Origin Time       2025/01/13 21:19:00
Lat.              31.8
Long.             131.6
Depth. (km)       30
Mag.              6.9
Station Code      EHMH06
Station Lat.      33.3348
Station Long.     132.7980
Station Height(m) 230
Record Time       2025/01/13 21:20:11
Sampling Freq(Hz) 100Hz
Duration Time(s)  145
Dir.              6
Scale Factor      7845(gal)/8223790
Max. Acc. (gal)   2.858
Last Correction   2025/01/13 21:20:11
Memo.             
[...]
    9717     9559     9370     9325     9463     9603     9583     9431 
    9236     9147     9262     9454     9593     9736     9981    10258 
   10335    10193    10057     9977     9900     9868     9814     9660 
    9548     9587     9613     9440     9120     8922     9036     9358 
    9628     9769     9902    10065    10122    10029     9941     9940 
   10031    10239    10274     9879     9444     9393     9551     9663 
    9745     9852     9958    10025    10033     9987     9929     9931 
    9948     9869     9715     9575     9493     9427     9335     9325 
    9432     9425     9254     9194     9285     9271     9112     9057 
    9205     9359     9391     9378     9374     9385     9375     9323 
    9242     9181     9258     9466     9583     9517     9386     9313 
    9324     9383     9497     9697     9909     9963     9852     9850 
   10112    10370    10332    10007     9626     9479     9612     9796 
    9937    10099    10187    10073     9845     9686     9651     9605 
    9468     9347     9250     9201     9297     9354     9201     9054 
    9151     9433     9660     9711     9710     9792     9903     9902 
    9856     9936    10042     9973     9756     9531     9352     9252 
    9252     9329     9420     9435     9320     9166     9190     9431 
    9633     9633     9532     9490     9563     9632     9520     9294 
    9312     9686     9995     9926     9639     9408     9413     9590 
    9670     9607     9552     9535     9508     9450     9435     9606 
    9880    10000     9988     9937     9779     9641     9711     9861 
    9915     9925     9981    10089    10277    10459    10419    10222 
   10056     9937     9948    10111    10238    10126     9832     9679 
    9706     9593     9402     9423     9593     9725     9734     9586 
    9367     9227     9262     9398     9377     9184     9103     9155 
    9193     9204     9182     9135     9105     9084     9065     9076 
    9178     9304     9277     9127     8988     8947     9081     9394 
    9787    10012     9929     9721     9520     9382     9455     9701 
    9930    10018     9983    10004    10199    10508    10735    10660 
   10332     9987     9783     9833    10122    10467    10667    10604 
   10361    10131     9938     9752     9706     9768     9606     9190 
    8915     9011     9406     9863    10107     9988     9610     9367 
    9525     9857     9957     9690     9417     9580    10010    10235 
   10125     9822     9493     9274     9255     9396     9528     9547 
    9460     9366     9428     9597     9674     9644     9598     9621 
    9774     9950     9963     9782     9613     9705    10061    10397 
   10419    10133     9813     9643     9629     9775     9964     9972 
    9794     9644     9659     9865    10110    10089     9842     9701 
    9711     9815    10033    10219    10206     9981     9695     9540 
    9508     9591     9796     9844     9661     9568     9698     9872 
    9922     9953    10158    10377    10327    10037     9713     9508 
    9397     9289     9211     9201     9188     9099     9057     9292 
    9694     9890     9784     9572     9451     9555     9834    10050 
   10052     9921     9803     9713     9616     9626     9819     9965 
    9806     9437     9201     9292     9531     9625     9562     9451 
    9324     9289     9383     9477     9524     9552     9582     9753 
   10122    10453    10461    10049     9443     9157     9448    10006 
   10392    10363     9946     9482     9342     9563     9921    10180 
   10126     9558     8775     8500     8841     9343     9780    10000 
    9774     9288     9101     9336     9647     9906    10115    10100 
    9769     9300     9057     9240     9571     9629     9351     8970 
    8761     8837     9058     9200     9235     9348     9601     9815 
    9791     9594     9454     9421     9467     9616     9755     9775 
    9726     9736     9883    10093    10227    10238    10142    10014 
    9946     9934     9887     9771     9679     9687     9767     9838 
    9906    10033    10187    10280    10280    10206    10203    10488 
   11026    11452    11356    10774    10218    10057    10179    10268 
   10099     9748     9545     9614     9791     9975    10041     9856 
    9607     9495     9458     9448     9487     9566     9522     9208 
    8918     9020     9379     9621     9575     9351     9190     9279 
    9582     9846     9930     9929     9917     9806     9537     9305 
    9355     9541     9552     9448     9487     9644     9691     9524 
    9200     8946     9030     9412     9670     9506     9146     8981 
    9136     9481     9736     9725     9532     9290     9136     9225 
    9479     9684     9788     9775     9585     9266     9020     9088 
    9443     9751     9790     9676     9639     9748     9917    10085 
   10204    10184    10076    10039    10122    10193    10222    10361 
   10551    10505    10193     9844     9613     9559     9637     9671 
    9543     9385     9328     9209     8922     8675     8600     8658 
    8881     9162     9232     9134     9047     8977     9032     9320 
    9580     9498     9124     8869     9046     9512     9944    10092 
    9922     9784     9946    10135     9972     9498     9163     9281 
    9682     9981     9896     9495     9147     9055     9184     9427 
    9639     9809     9904     9822     9749     9931    10243    10409 
   10303    10018     9821     9810     9825     9774     9687     9594 
    9617     9756     9757     9548     9337     9217     9157     9209 
    9387     9598     9666     9385     8903     8710     8930     9248 
    9494     9633     9555     9273     9050     9165     9647    10219 
   10463    10153     9535     9119     9159     9512     9863    10064 
   10072     9776     9412     9390     9680    10042    10231    10010 
    9532     9306     9575     9981    10065     9864     9778    10000 
   10331    10513    10449    10185     9948     9888     9819     9614 
    9544     9744     9849     9728     9714     9826     9815     9703 
    9645     9763    10006    10157    10172    10062     9846     9732 
    9786     9879    10000    10025     9744     9369     9300     9525 
    9726     9748     9636     9440     9325     9522     9903    10046 
    9865     9617     9459     9443     9595     9737     9668     9439 
    9200     9139     9385     9787    10056    10025     9693     9262 
    9012     9120     9537    10029    10316    10092     9421     8968 
    9103     9460     9674     9756     9717     9452     9113     9032 
    9224     9420     9470     9436     9405     9463     9728    10079 
   10214    10002     9647     9513     9609     9733     9915     9977 
    9661     9266     9193     9455     9877    10269    10400    10091 
    9559     9329     9532     9828    10025    10184    10359    10540 
   10620    10500    10305    10264    10431    10643    10678    10577 
   10532    10575    10669    10663    10385    10030     9909    10023 
   10246    10439    10430    10137     9693     9421     9610    10179 
   10628    10442     9697     9066     9049     9521     9995    10000 
    9516     9062     9080     9371     9518     9499     9436     9288 
    9108     9020     9081     9359     9718     9748     9332     8937 
    9020     9387     9486     9180     8837     8804     9123     9628 
   10038    10054     9649     9124     8815     8891     9339     9958 
   10376    10272     9837     9552     9536     9612     9574     9396 
    9350     9529     9657     9567     9279     8935     8822     9031 
    9270     9296     9212     9193     9244     9316     9418     9591 
    9728     9674     9541     9491     9406     9231     9220     9535 
    9927    10029     9767     9401     9235     9347     9556     9697 
    9668     9420     9144     9111     9201     9153     9076     9224 
    9533     9764     9778     9585     9375     9321     9385     9494 
    9626     9733     9736     9533     9196     9031     9229     9651 
   10042    10166     9956     9687     9678     9896    10114    10200 
   10241    10328    10319    10099     9898     9902     9979     9930 
    9691     9410     9312     9383     9444     9360     9157     9065 
    9294     9730    10057    10131    10039     9929     9944    10108 
   10249    10214    10100    10126    10320    10453    10349    10110 
    9888     9711     9543     9386     9375     9587     9795     9765 
    9644     9714     9957    10197    10350    10401    10397    10408 
   10372    10168     9987    10129    10342    10185     9757     9436 
    9391     9585     9865    10031     9914     9624     9472     9552 
    9767    10027    10180    10119     9910     9729     9678     9649 
    9540     9429     9366     9301     9173     8953     8853     9144 
    9686    10083    10192    10080     9801     9586     9683     9975 
   10203    10177     9821     9369     9193     9340     9486     9452 
    9456     9541     9498     9414     9468     9514     9363     9101 
    8911     8757     8564     8436     8368     8282     8299     8495 
    8731     8811     8677     8517     8514     8679     8997     9405 
    9705     9760     9626     9490     9512     9710     9973    10177 
   10222    10102     9975     9923     9875     9860    10048    10400 
   10525    10214     9778     9570     9644     9806     9791     9634 
    9559     9593     9614     9603     9725    10038    10251    10045 
    9570     9312     9472     9833    10185    10400    10349    10216 
   10270    10401    10459    10498    10504    10376    10075     9734 
    9614     9814    10104    10116     9815     9589     9720    10052 
   10184     9964     9734     9772     9919     9909     9609     9186 
    8999     9100     9225     9223     9150     9046     8861     8648 
    8575     8689     8901     9073     9019     8721     8545     8799 
    9238     9448     9436     9444     9491     9514     9559     9599 
    9707    10108    10567    10536    10076     9710     9617     9740 
   10084    10323     9968     9212     8768     8876     9171     9370 
    9396     9184     8893     8830     8991     9201     9352     9315 
    9120     9053     9288     9618     9711     9540     9308     9155 
    9165     9323     9447     9413     9350     9414     9533     9548 
    9467     9367     9339     9478     9649     9652     9580     9593 
    9715     9927    10095    10057     9891     9790     9841     9948 
    9967    10022    10355    10785    10878    10593    10278    10203 
   10363    10632    10885    10951    10743    10474    10413    10635 
   11029    11252    11065    10725    10574    10679    10963    11222 
   11269    11214    11256    11283    11026    10601    10373    10393 
   10436    10296     9929     9567     9431     9483     9614     9740 
    9810     9790     9559     9178     8934     8914     8995     9148 
    9355     9445     9328     9171     9202     9448     9755     9898 
    9755     9429     9159     9074     9042     8951     8945     9207 
    9682     9999     9863     9485     9342     9676    10309    10867 
   11110    10928    10427     9938     9682     9678     9806     9859 
    9680     9304     8949     8676     8376     8198     8232     8175 
    8145     8642     9154     8887     8209     7709     7653     8155 
    8869     9432     9587     9252     8969     9162     9595     9929 
    9998     9868     9795     9907    10034    10003     9867     9795 
    9942    10242    10393    10281    10104    10011    10034    10231 
   10571    10874    11034    11101    11153    11223    11268    11287 
   11373    11518    11511    11192    10636    10093     9783     9741 
    9845     9848     9544     9147     9063     9305     9575     9633 
    9452     9251     9209     9251     9254     9162     9024     8988 
    9124     9397     9690     9833     9790     9683     9570     9498 
    9543     9629     9651     9570     9355     9116     9018     9065 
    9186     9270     9177     8911     8692     8733     9000     9306 
    9525     9598     9491     9246     9007     8942     9104     9441 
    9718     9589     9045     8503     8343     8567     8914     9180 
    9165     8785     8365     8270     8554     9031     9325     9134 
    8571     8159     8218     8537     8775     8777     8629     8563 
    8635     8750     8937     9271     9609     9721     9625     9532 
    9576     9738     9886     9969    10103    10378    10669    10679 
   10351    10066    10156    10500    10787    10833    10648    10477 
   10571    10816    10910    10828    10666    10474    10335    10268 
   10230    10239    10350    10505    10593    10632    10623    10465 
   10231    10146    10359    10817    11151    10991    10453    10029 
   10050    10343    10527    10486    10246     9819     9370     9078 
    8938     8911     9059     9259     9076     8422     7854     7809 
    8155     8550     8776     8712     8395     8094     8059     8253 
    8494     8702     8866     8870     8722     8667     8743     8749 
    8617     8438     8306     8252     8266     8370     8482     8410 
    8172     8027     8110     8313     8490     8586     8571     8507 
    8640     9112     9684    10004    10002     9888     9899    10077 
   10322    10605    10924    11080    10937    10756    10825    11136 
   11573    11970    12121    11990    11746    11605    11680    11969 
   12394    12663    12399    11696    11153    11209    11682    12024 
   11985    11820    11788    11873    11943    11905    11708    11381 
   11155    11226    11452    11591    11565    11365    11080    10956 
   11129    11399    11473    11330    11101    10881    10685    10462 
   10276    10261    10370    10428    10318    10085     9876     9767 
    9778     9860     9960    10083    10100     9880     9548     9294 
    9247     9421     9652     9717     9481     9026     8625     8418 
    8359     8375     8379     8226     7912     7616     7457     7429 
    7477     7473     7412     7408     7466     7574     7769     7982 
    8079     8019     7871     7730     7704     7894     8249     8544 
    8598     8473     8417     8571     8796     8901     8931     8973 
    8984     8923     8835     8814     8980     9356     9745     9894 
    9813     9710     9702     9757     9749     9622     9481     9343 
    9123     8877     8742     8741     8773     8734     8635     8572 
    8590     8648     8652     8583     8541     8611     8803     9027 
    9170     9219     9235     9358     9672    10052    10314    10403 
   10407    10486    10716    10994    11083    10863    10578    10540 
   10750    11007    11106    10960    10719    10559    10519    10563 
   10575    10442    10243    10177    10297    10409    10322    10091 
    9950    10081    10422    10724    10802    10612    10253     9915 
    9694     9607     9726    10012    10169    10012     9778     9749 
    9914    10126    10281    10332    10281    10164    10006     9832 
    9714     9733     9838     9826     9603     9360     9259     9236 
    9212     9165     9082     8996     8977     9024     9038     8977 
    8850     8658     8557     8685     8919     9084     9085     8943 
    8869     9008     9240     9359     9332     9331     9509     9833 
   10108    10142     9945     9709     9601     9671     9880    10133 
   10292    10262    10126    10068    10149    10268    10331    10412 
   10566    10646    10532    10314    10112     9957     9834     9791 
    9921    10176    10311    10168     9902     9779     9936    10295 
   10629    10770    10696    10515    10388    10357    10382    10461 
   10566    10585    10426    10134     9848     9661     9609     9686 
    9813     9807     9556     9136     8768     8672     8819     8949 
    8927     8757     8437     8093     7901     7938     8125     8280 
    8293     8160     7958     7828     7840     7985     8218     8430 
    8532     8507     8376     8241     8228     8337     8471     8576 
    8638     8602     8460     8371     8503     8841     9258     9586 
    9697     9653     9610     9701     9985    10326    10524    10489 
   10308    10226    10384    10712    11044    11190    11084    10932 
   10978    11209    11470    11682    11759    11658    11485    11387 
   11437    11572    11654    11622    11488    11346    11314    11388 
   11434    11330    11091    10910    10929    11057    11122    11082 
   10984    10876    10789    10725    10673    10635    10625    10552 
   10272     9852     9553     9464     9462     9429     9305     9093 
    8869     8631     8364     8191     8181     8252     8338     8384 
    8338     8257     8252     8349     8505     8716     8961     9089 
    8996     8770     8680     8930     9356     9612     9578     9342 
    9085     9012     9140     9321     9440     9389     9155     8920 
    8815     8827     8910     8911     8723     8495     8437     8587 
    8764     8765     8622     8483     8425     8436     8479     8540 
    8591     8567     8449     8263     8075     7986     8055     8232 
    8375     8359     8251     8230     8357     8588     8834     8976 
    8982     8939     8966     9131     9336     9412     9348     9265 
    9250     9351     9545     9749     9913    10031    10100    10087 
   10026    10052    10192    10289    10223    10073     9980     9956 
    9934     9911     9902     9869     9853     9967    10122    10135 
   10083    10108    10174    10254    10388    10532    10582    10523 
   10436    10400    10466    10652    10827    10837    10755    10770 
   10916    11071    11122    11068    11018    11075    11234    11372 
   11329    11110    10875    10775    10870    11045    11110    11024 
   10833    10600    10442    10407    10397    10370    10338    10264 
   10103     9898     9805     9917    10114    10183    10002     9647 
    9363     9304     9374     9427     9439     9383     9189     8938 
    8781     8783     8949     9130     9120     8914     8699     8687 
    8872     8992     8880     8623     8364     8213     8222     8364 
    8608     8861     8939     8804     8656     8718     9003     9296 
    9378     9209     8973     8945     9184     9490     9684     9736 
    9703     9682     9752     9936    10153    10266    10231    10126 
   10053    10076    10165    10250    10323    10346    10258    10104 
   10000    10022    10193    10408    10467    10323    10131    10056 
   10093    10085     9950     9803     9740     9775     9848     9794 
    9564     9333     9258     9329     9416     9362     9165     8970 
    8847     8769     8742     8779     8841     8834     8672     8455 
    8401     8586     8873     9043     8999     8888     8924     9159 
    9509     9846    10038    10060    10065    10191    10415    10665 
   10891    11011    11001    10970    11011    11078    11097    11084 
   11047    10921    10696    10453    10278    10166    10076    10018 
    9954     9796     9605     9512     9539     9599     9578     9448 
    9306     9252     9263     9277     9308     9337     9308     9269 
    9269     9285     9328     9397     9400     9255     9019     8847 
    8835     8939     9059     9100     9038     8920     8810     8812 
