Origin Time       2025/01/13 21:19:00
Lat.              31.8
Long.             131.6
Depth. (km)       30
Mag.              6.9
Station Code      EHMH07
Station Lat.      33.5022
Station Long.     132.7480
Station Height(m) 290
Record Time       2025/01/13 21:20:11
Sampling Freq(Hz) 100Hz
Duration Time(s)  145
Dir.              5
Scale Factor      7845(gal)/8223790
Max. Acc. (gal)   2.573
Last Correction   2025/01/13 21:20:11
Memo.             
[...]
   -5728    -5593    -5536    -5590    -5703    -5751    -5690    -5647 
   -5722    -5794    -5699    -5516    -5363    -5235    -5220    -5378 
   -5522    -5532    -5491    -5460    -5431    -5476    -5638    -5764 
   -5780    -5760    -5683    -5594    -5567    -5549    -5562    -5633 
   -5679    -5710    -5778    -5836    -5841    -5787    -5733    -5725 
   -5717    -5705    -5744    -5827    -5880    -5886    -5884    -5860 
   -5806    -5790    -5769    -5610    -5351    -5238    -5317    -5397 
   -5456    -5586    -5683    -5713    -5877    -6160    -6257    -6053 
   -5757    -5553    -5437    -5449    -5621    -5707    -5528    -5289 
   -5206    -5278    -5389    -5379    -5251    -5181    -5229    -5327 
   -5443    -5570    -5670    -5692    -5682    -5748    -5836    -5776 
   -5610    -5559    -5657    -5722    -5672    -5589    -5553    -5579 
   -5655    -5756    -5873    -5969    -5895    -5601    -5358    -5366 
   -5518    -5719    -5938    -6041    -5900    -5620    -5508    -5699 
   -6023    -6280    -6319    -6081    -5706    -5456    -5483    -5645 
   -5691    -5528    -5206    -4992    -5165    -5580    -5913    -6027 
   -5880    -5532    -5269    -5362    -5663    -5771    -5644    -5506 
   -5452    -5509    -5659    -5814    -5879    -5811    -5755    -5834 
   -5931    -5907    -5736    -5451    -5181    -5097    -5287    -5641 
   -5910    -5948    -5787    -5599    -5547    -5613    -5742    -5859 
   -5822    -5710    -5802    -6119    -6389    -6403    -6135    -5717 
   -5427    -5490    -5765    -5892    -5753    -5528    -5431    -5498 
   -5645    -5780    -5821    -5807    -5850    -5919    -5952    -5952 
   -5863    -5667    -5458    -5346    -5404    -5505    -5474    -5414 
   -5386    -5223    -5071    -5271    -5699    -6010    -6072    -5903 
   -5653    -5535    -5528    -5498    -5379    -5212    -5179    -5393 
   -5683    -5769    -5586    -5406    -5512    -5810    -6021    -6010 
   -5817    -5589    -5498    -5512    -5433    -5250    -5150    -5247 
   -5503    -5792    -5980    -5964    -5818    -5825    -6019    -6115 
   -6043    -5913    -5737    -5597    -5556    -5620    -5787    -5937 
   -5984    -5964    -5850    -5759    -5872    -6056    -6046    -5836 
   -5632    -5582    -5634    -5702    -5702    -5521    -5269    -5221 
   -5398    -5630    -5864    -6026    -5941    -5610    -5240    -5015 
   -5032    -5298    -5653    -5890    -5917    -5779    -5640    -5668 
   -5850    -6034    -6127    -6069    -5798    -5425    -5151    -4997 
   -4912    -5003    -5337    -5737    -5937    -5846    -5603    -5429 
   -5485    -5745    -5977    -5957    -5698    -5459    -5525    -5875 
   -6131    -6003    -5599    -5289    -5274    -5441    -5640    -5757 
   -5649    -5390    -5289    -5481    -5790    -5965    -5927    -5815 
   -5783    -5863    -5957    -5953    -5886    -5827    -5761    -5784 
   -5981    -6184    -6200    -5989    -5665    -5475    -5547    -5814 
   -6122    -6231    -6050    -5787    -5672    -5732    -5806    -5709 
   -5536    -5479    -5487    -5513    -5579    -5541    -5310    -5098 
   -5167    -5444    -5651    -5630    -5386    -5081    -4957    -5073 
   -5340    -5625    -5711    -5505    -5233    -5165    -5259    -5324 
   -5358    -5417    -5471    -5532    -5652    -5826    -5992    -6016 
   -5872    -5713    -5611    -5506    -5406    -5362    -5356    -5436 
   -5667    -5888    -5861    -5638    -5503    -5574    -5698    -5733 
   -5622    -5383    -5197    -5260    -5536    -5815    -5892    -5740 
   -5530    -5413    -5445    -5656    -5907    -6008    -5996    -5941 
   -5813    -5637    -5513    -5445    -5374    -5333    -5374    -5417 
   -5409    -5347    -5227    -5229    -5508    -5875    -6080    -6080 
   -5910    -5724    -5779    -6027    -6123    -5906    -5553    -5437 
   -5722    -6087    -6119    -5751    -5254    -4981    -5061    -5321 
   -5474    -5416    -5341    -5476    -5784    -6045    -6079    -5802 
   -5367    -5190    -5339    -5435    -5402    -5428    -5572    -5836 
   -6038    -5827    -5263    -4854    -4841    -5057    -5331    -5489 
   -5409    -5235    -5196    -5314    -5414    -5371    -5323    -5368 
   -5428    -5551    -5729    -5733    -5522    -5297    -5216    -5321 
   -5509    -5626    -5595    -5440    -5271    -5205    -5351    -5678 
   -5895    -5825    -5630    -5499    -5525    -5751    -5992    -5946 
   -5614    -5309    -5293    -5541    -5829    -5956    -5886    -5796 
   -5842    -5842    -5617    -5352    -5228    -5290    -5611    -6002 
   -6120    -5954    -5717    -5599    -5633    -5620    -5395    -5073 
   -4931    -5113    -5468    -5734    -5761    -5570    -5337    -5277 
   -5412    -5566    -5594    -5524    -5474    -5575    -5819    -5979 
   -5865    -5539    -5178    -4976    -5077    -5391    -5626    -5640 
   -5583    -5656    -5899    -6135    -6135    -5934    -5701    -5464 
   -5340    -5398    -5454    -5410    -5352    -5363    -5443    -5472 
   -5402    -5317    -5271    -5269    -5265    -5204    -5161    -5224 
   -5418    -5698    -5834    -5684    -5494    -5489    -5529    -5421 
   -5190    -4978    -4941    -5139    -5486    -5779    -5849    -5711 
   -5505    -5409    -5545    -5757    -5779    -5616    -5451    -5370 
   -5306    -5282    -5451    -5792    -6089    -6166    -5972    -5644 
   -5456    -5541    -5790    -6000    -6022    -5845    -5659    -5652 
   -5790    -5937    -6019    -5968    -5795    -5699    -5842    -6064 
   -6111    -5941    -5587    -5197    -5061    -5298    -5799    -6293 
   -6415    -6083    -5609    -5314    -5387    -5809    -6266    -6434 
   -6201    -5782    -5548    -5580    -5602    -5489    -5405    -5397 
   -5406    -5524    -5748    -5877    -5880    -5872    -5845    -5768 
   -5729    -5737    -5683    -5618    -5691    -5854    -5945    -5879 
   -5670    -5440    -5395    -5603    -5852    -5915    -5706    -5247 
   -4828    -4781    -5023    -5275    -5400    -5341    -5211    -5265 
   -5553    -5849    -5984    -5999    -5940    -5838    -5800    -5791 
   -5748    -5791    -5892    -5942    -5971    -5952    -5887    -5896 
   -5968    -5980    -5954    -6002    -6073    -6008    -5821    -5702 
   -5748    -5918    -6110    -6200    -6138    -6011    -5995    -6172 
   -6386    -6342    -5945    -5498    -5351    -5513    -5856    -6191 
   -6227    -5967    -5729    -5713    -5894    -6099    -6177    -6203 
   -6278    -6309    -6241    -6161    -6030    -5802    -5687    -5833 
   -6085    -6254    -6224    -5954    -5607    -5502    -5707    -5935 
   -5930    -5606    -5092    -4846    -5146    -5644    -5921    -5857 
   -5455    -5044    -5096    -5543    -5942    -5994    -5668    -5281 
   -5224    -5421    -5485    -5352    -5294    -5452    -5759    -6038 
   -6052    -5775    -5494    -5468    -5682    -5898    -5903    -5718 
   -5522    -5506    -5719    -5950    -5949    -5676    -5317    -5202 
   -5481    -5852    -5956    -5863    -5873    -6064    -6272    -6438 
   -6511    -6301    -5964    -5923    -6107    -6166    -6100    -6053 
   -6069    -6122    -6095    -5945    -5807    -5707    -5533    -5302 
   -5155    -5219    -5447    -5679    -5884    -5992    -5887    -5718 
   -5710    -5861    -5944    -5776    -5567    -5617    -5908    -6246 
   -6409    -6220    -5779    -5309    -4919    -4764    -4919    -5184 
   -5373    -5406    -5286    -5206    -5273    -5387    -5602    -5911 
   -6066    -5975    -5786    -5667    -5678    -5684    -5485    -5138 
   -4990    -5174    -5441    -5647    -5726    -5478    -4997    -4739 
   -4876    -5163    -5335    -5277    -5016    -4729    -4657    -4870 
   -5229    -5551    -5730    -5769    -5690    -5475    -5154    -4835 
   -4654    -4727    -4996    -5200    -5278    -5398    -5524    -5521 
   -5491    -5544    -5629    -5698    -5718    -5675    -5656    -5733 
   -5845    -5898    -5904    -5984    -6133    -6228    -6280    -6361 
   -6381    -6257    -6154    -6216    -6340    -6390    -6282    -6053 
   -5952    -6100    -6340    -6490    -6394    -6019    -5684    -5698 
   -5865    -5826    -5610    -5483    -5522    -5616    -5691    -5698 
   -5556    -5336    -5273    -5381    -5416    -5323    -5233    -5165 
   -5097    -5081    -5088    -5039    -5022    -5128    -5266    -5363 
   -5481    -5641    -5748    -5710    -5524    -5239    -4966    -4860 
   -4926    -5003    -4966    -4814    -4698    -4816    -5225    -5756 
   -6018    -5800    -5404    -5163    -5169    -5455    -5783    -5791 
   -5536    -5336    -5386    -5655    -5823    -5601    -5127    -4747 
   -4618    -4703    -4900    -5093    -5267    -5431    -5502    -5435 
   -5275    -5084    -4911    -4810    -4741    -4711    -4819    -4986 
   -5061    -5049    -5040    -5139    -5337    -5478    -5490    -5482 
   -5602    -5921    -6339    -6612    -6547    -6223    -5965    -6000 
   -6199    -6284    -6201    -6106    -6110    -6250    -6392    -6300 
   -6080    -6095    -6394    -6764    -7007    -6961    -6689    -6485 
   -6562    -6814    -6874    -6573    -6161    -6000    -6284    -6828 
   -7136    -6883    -6222    -5640    -5557    -5944    -6355    -6315 
   -5787    -5228    -5084    -5340    -5609    -5587    -5416    -5433 
   -5629    -5671    -5401    -4922    -4418    -4182    -4384    -4753 
   -4874    -4634    -4286    -4229    -4476    -4612    -4461    -4209 
   -4048    -4110    -4402    -4760    -4997    -5038    -4986    -4989 
   -5035    -5017    -4968    -5063    -5404    -5946    -6516    -6772 
   -6586    -6288    -6223    -6381    -6604    -6760    -6774    -6806 
   -7107    -7528    -7720    -7577    -7145    -6631    -6442    -6721 
   -7163    -7403    -7319    -7007    -6633    -6347    -6191    -6012 
   -5728    -5495    -5458    -5529    -5516    -5352    -5177    -5107 
   -5130    -5266    -5481    -5547    -5337    -5022    -4738    -4498 
   -4328    -4275    -4382    -4565    -4699    -4851    -5057    -5143 
   -5050    -4897    -4731    -4621    -4770    -5197    -5567    -5618 
   -5341    -4850    -4414    -4307    -4480    -4730    -4951    -5119 
   -5274    -5404    -5416    -5355    -5377    -5517    -5651    -5664 
   -5576    -5431    -5279    -5228    -5209    -5020    -4719    -4607 
   -4812    -5232    -5616    -5728    -5591    -5313    -4996    -4939 
   -5319    -5894    -6369    -6602    -6613    -6585    -6643    -6693 
   -6555    -6185    -5794    -5670    -5945    -6501    -6862    -6621 
   -6000    -5514    -5391    -5501    -5607    -5590    -5508    -5590 
   -5949    -6292    -6304    -6091    -5968    -6127    -6471    -6643 
   -6443    -6062    -5803    -5807    -6016    -6178    -6056    -5683 
   -5333    -5282    -5467    -5528    -5352    -5177    -5104    -5053 
   -5081    -5278    -5487    -5516    -5502    -5703    -6016    -6151 
   -6107    -6014    -5841    -5649    -5668    -5926    -6196    -6282 
   -6176    -6041    -6075    -6299    -6521    -6581    -6486    -6304 
   -6161    -6272    -6592    -6759    -6674    -6624    -6740    -6894 
   -6979    -6906    -6629    -6299    -6100    -6131    -6354    -6490 
   -6343    -6120    -6130    -6376    -6556    -6520    -6369    -6120 
   -5786    -5483    -5171    -4781    -4452    -4275    -4244    -4387 
   -4600    -4666    -4526    -4351    -4378    -4619    -4900    -5115 
   -5188    -5124    -5136    -5337    -5532    -5512    -5319    -5171 
   -5220    -5458    -5786    -5995    -5911    -5660    -5520    -5606 
   -5814    -5980    -6073    -6145    -6211    -6303    -6363    -6246 
   -6016    -5853    -5767    -5746    -5733    -5590    -5410    -5383 
   -5429    -5472    -5560    -5560    -5355    -5138    -5094    -5169 
   -5310    -5590    -5953    -6212    -6308    -6305    -6197    -5954 
   -5680    -5557    -5643    -5880    -6257    -6673    -6845    -6713 
   -6566    -6547    -6540    -6492    -6354    -6081    -5875    -5976 
   -6308    -6615    -6698    -6536    -6354    -6357    -6448    -6448 
   -6293    -6000    -5718    -5661    -5848    -6052    -6007    -5698 
   -5401    -5360    -5532    -5717    -5744    -5595    -5440    -5400 
   -5428    -5444    -5328    -4980    -4564    -4341    -4347    -4499 
   -4760    -5066    -5308    -5441    -5525    -5629    -5782    -5942 
   -6066    -6170    -6278    -6367    -6444    -6528    -6646    -6799 
   -6930    -7032    -7096    -7001    -6685    -6270    -5915    -5740 
   -5805    -6019    -6188    -6189    -6027    -5788    -5636    -5672 
   -5814    -5834    -5637    -5422    -5402    -5524    -5641    -5699 
   -5611    -5324    -5038    -4962    -5026    -5092    -5119    -5038 
   -4816    -4612    -4580    -4679    -4768    -4797    -4815    -4884 
   -5071    -5377    -5638    -5664    -5390    -5007    -4914    -5297 
   -5841    -6120    -6039    -5772    -5572    -5547    -5562    -5467 
   -5252    -5019    -5030    -5452    -5967    -6133    -5983    -5813 
   -5749    -5838    -6077    -6245    -6151    -5965    -5925    -6041 
   -6184    -6247    -6184    -5973    -5665    -5445    -5410    -5460 
   -5549    -5683    -5809    -5930    -6085    -6257    -6367    -6295 
   -6077    -5998    -6191    -6407    -6357    -6002    -5467    -5040 
   -5000    -5278    -5536    -5490    -5158    -4826    -4733    -4843 
   -4943    -4843    -4531    -4189    -4040    -4116    -4186    -4048 
   -3789    -3584    -3449    -3304    -3159    -3083    -3122    -3254 
   -3365    -3315    -3121    -2955    -3013    -3414    -3996    -4390 
   -4459    -4338    -4220    -4309    -4575    -4725    -4691    -4693 
   -4885    -5250    -5629    -5798    -5718    -5607    -5632    -5821 
   -6150    -6426    -6424    -6242    -6168    -6366    -6801    -7288 
   -7622    -7693    -7539    -7330    -7245    -7295    -7361    -7269 
   -6922    -6544    -6430    -6536    -6713    -6860    -6814    -6583 
   -6404    -6354    -6299    -6183    -6066    -5968    -5834    -5636 
   -5432    -5286    -5212    -5243    -5360    -5425    -5381    -5335 
   -5312    -5225    -5081    -4939    -4845    -4893    -5131    -5389 
   -5378    -5073    -4804    -4824    -5058    -5297    -5408    -5429 
   -5494    -5667    -5929    -6169    -6226    -6108    -6002    -6053 
   -6231    -6405    -6492    -6448    -6280    -6033    -5738    -5479 
   -5363    -5371    -5452    -5548    -5595    -5701    -5918    -6080 
   -6112    -6046    -5898    -5744    -5692    -5806    -6007    -6100 
   -6080    -6100    -6162    -6177    -6195    -6281    -6407    -6527 
   -6586    -6527    -6405    -6305    -6172    -5960    -5778    -5783 
   -5976    -6164    -6230    -6178    -5980    -5717    -5594    -5684 
   -5886    -6050    -6095    -6089    -6122    -6141    -6084    -6008 
   -5906    -5710    -5541    -5556    -5655    -5688    -5728    -5826 
   -5845    -5713    -5571    -5543    -5603    -5701    -5818    -5888 
   -5852    -5799    -5811    -5780    -5632    -5432    -5282    -5336 
   -5609    -5881    -6015    -6010    -5914    -5842    -5842    -5842 
   -5796    -5718    -5694    -5799    -5971    -6048    -5937    -5733 
   -5582    -5517    -5541    -5617    -5614    -5530    -5524    -5647 
   -5811    -5948    -6012    -5972    -5917    -5988    -6153    -6285 
   -6343    -6293    -6158    -6076    -6131    -6303    -6471    -6498 
   -6401    -6315    -6304    -6365    -6447    -6493    -6482    -6426 
   -6351    -6273    -6184    -6097    -6003    -5915    -5896    -5903 
   -5819    -5661    -5513    -5378    -5247    -5190    -5248    -5367 
   -5487    -5605    -5663    -5555    -5328    -5184    -5228    -5398 
   -5537    -5540    -5433    -5308    -5298    -5482    -5699    -5755 
   -5713    -5713    -5765    -5872    -6002    -6079    -6130    -6174 
   -6095    -5860    -5597    -5379    -5238    -5243    -5317    -5255 
   -5077    -5004    -5098    -5192    -5123    -4880    -4595    -4418 
   -4410    -4522    -4650    -4662    -4498    -4264    -4140    -4166 
   -4279    -4432    -4577    -4665    -4687    -4698    -4749    -4837 
   -4922    -4927    -4822    -4710    -4696    -4822    -5077    -5360 
   -5556    -5671    -5775    -5872    -5931    -5981    -6030    -6050 
   -6039    -6011    -5962    -5937    -5976    -6064    -6150    -6141 
   -5989    -5813    -5771    -5865    -5983    -6104    -6268    -6465 
   -6635    -6662    -6546    -6389    -6222    -6145    -6284    -6521 
   -6627    -6527    -6334    -6184    -6108    -6048    -5894    -5671 
   -5562    -5671    -5989    -6366    -6536    -6458    -6326    -6312 
   -6420    -6475    -6357    -6129    -5919    -5859    -5991    -6172 
   -6197    -6073    -5964    -5937    -5985    -6104    -6200    -6184 
   -6102    -6046    -6065    -6143    -6127    -5900    -5632    -5524 
   -5540    -5622    -5745    -5746    -5567    -5370    -5266    -5240 
   -5202    -5038    -4801    -4654    -4688    -4870    -5024    -4958 
   -4733    -4602    -4708    -4978    -5198    -5197    -5050    -4961 
   -4997    -5158    -5391    -5513    -5421    -5251    -5179    -5251 
   -5412    -5599    -5738    -5833    -5987    -6192    -6308    -6265 
   -6106    -5938    -5926    -6145    -6466    -6664    -6604    -6358 
   -6178    -6228    -6427    -6600    -6627    -6488    -6324    -6319 
   -6432    -6444    -6264    -6003    -5807    -5794    -5965    -6122 
   -6068    -5829    -5589    -5470    -5509    -5678    -5807    -5718 
   -5493    -5336    -5327    -5387    -5362    -5159    -4895    -4738 
   -4797    -5098    -5413    -5412    -5082    -4714    -4573    -4693 
   -4881    -4977    -4995    -4995    -5039    -5159    -5254    -5219 
   -5085    -4968    -5013    -5243    -5451    -5475    -5398    -5370 
   -5452    -5652    -5884    -6016    -6007    -5914    -5850    -5876 
   -5892    -5830    -5795    -5881    -6039    -6181    -6227    -6157 
   -6045    -5983    -6018    -6080    -6030    -5867    -5732    -5710 
   -5795    -5898    -5919    -5865    -5799    -5745    -5724    -5751 
   -5755    -5686    -5652    -5725    -5826    -5887    -5881    -5809 
   -5761    -5798    -5825    -5778    -5707    -5670    -5655    -5629 
   -5607    -5655    -5764    -5811    -5746    -5655    -5591    -5584 
   -5699    -5876    -5944    -5861    -5772    -5791    -5888    -5950 
   -5906    -5782    -5643    -5559    -5603    -5710    -5710    -5621 
   -5586    -5649    -5759    -5836    -5822    -5742    -5648    -5555 
   -5502    -5557    -5645    -5643    -5634    -5699    -5741    -5732 
   -5737    -5755    -5744    -5721    -5748    -5806    -5800    -5760 
   -5760    -5736    -5637    -5547    -5551    -5624    -5670    -5599 
   -5427    -5254    -5167    -5184    -5209    -5178    -5132    -5084 
   -5043    -5088    -5213    -5347    -5440    -5460    -5440    -5429 
   -5379    -5285    -5254    -5319    -5378    -5371    -5360    -5325 
   -5224    -5189    -5290    -5374    -5333    -5258    -5283    -5427 
   -5643    -5906    -6119    -6170    -6110    -6138    -6370    -6654 
   -6768    -6666    -6434    -6224    -6119    -6061    -6023    -6016 
   -5968    -5883    -5903    -6057    -6172    -6108    -5946    -5856 
   -5899    -6035    -6197    -6291    -6239    -6097    -6011    -6069 
   -6197    -6246    -6165    -6022    -5892    -5821    -5840    -5918 
