Origin Time       2025/01/13 21:19:00
Lat.              31.8
Long.             131.6
Depth. (km)       30
Mag.              6.9
Station Code      EHMH05
Station Lat.      33.7112
Station Long.     132.8032
Station Height(m) 140
Record Time       2025/01/13 21:20:16
Sampling Freq(Hz) 100Hz
Duration Time(s)  130
Dir.              4
Scale Factor      7845(gal)/8223790
Max. Acc. (gal)   1.838
Last Correction   2025/01/13 21:20:18
Memo.             
[...]
  -11547   -11477   -11395   -11271   -11213   -11281   -11345   -11288 
  -11171   -11045   -10936   -10962   -11200   -11543   -11813   -11902 
  -11777   -11475   -11121   -10885   -10882   -11126   -11506   -11759 
  -11670   -11345   -11072   -11029   -11240   -11580   -11828   -11886 
  -11781   -11572   -11391   -11387   -11603   -11935   -12162   -12109 
  -11830   -11546   -11419   -11362   -11248   -11202   -11364   -11632 
  -11884   -12086   -12198   -12198   -12131   -12010   -11828   -11620 
  -11399   -11109   -10719   -10308   -10034    -9967   -10111   -10485 
  -10999   -11475   -11790   -11925   -11875   -11653   -11317   -10975 
  -10698   -10480   -10370   -10411   -10543   -10782   -11171   -11603 
  -11915   -11963   -11732   -11443   -11268   -11205   -11241   -11338 
  -11504   -11785   -12054   -12137   -12062   -11881   -11650   -11468 
  -11314   -11134   -11011   -10960   -10856   -10667   -10538   -10651 
  -11036   -11500   -11819   -11978   -12062   -12048   -11913   -11750 
  -11701   -11758   -11740   -11549   -11260   -10983   -10785   -10685 
  -10744   -11029   -11389   -11561   -11473   -11232   -10987   -10870 
  -10894   -10978   -11052   -11137   -11290   -11523   -11804   -12043 
  -12158   -12125   -11942   -11646   -11365   -11206   -11157   -11145 
  -11152   -11187   -11232   -11284   -11341   -11388   -11497   -11722 
  -11944   -11989   -11853   -11632   -11387   -11225   -11238   -11352 
  -11493   -11581   -11450   -11176   -11034   -11076   -11202   -11341 
  -11423   -11425   -11403   -11423   -11581   -11921   -12293   -12449 
  -12275   -11759   -11017   -10349   -10015    -9988   -10080   -10227 
  -10523   -10944   -11321   -11565   -11697   -11755   -11790   -11820 
  -11867   -11974   -12101   -12179   -12151   -11921   -11514   -11084 
  -10746   -10530   -10424   -10474   -10762   -11172   -11531   -11809 
  -12001   -12052   -11913   -11604   -11225   -10836   -10488   -10308 
  -10384   -10673   -11075   -11516   -11951   -12285   -12401   -12252 
  -11886   -11427   -11053   -10937   -11115   -11469   -11800   -11965 
  -11981   -11902   -11738   -11546   -11430   -11408   -11377   -11248 
  -11070   -10933   -10852   -10860   -11057   -11415   -11742   -11884 
  -11801   -11539   -11250   -11102   -11118   -11214   -11311   -11367 
  -11310   -11102   -10832   -10670   -10719   -10941   -11218   -11404 
  -11394   -11225   -11043   -10972   -11049   -11209   -11404   -11641 
  -11875   -12073   -12212   -12244   -12129   -11870   -11562   -11326 
  -11159   -10998   -10845   -10748   -10778   -10979   -11290   -11580 
  -11754   -11796   -11738   -11599   -11375   -11163   -11119   -11229 
  -11340   -11348   -11249   -11128   -11064   -11047   -11044   -11067 
  -11148   -11257   -11315   -11338   -11433   -11614   -11824   -11993 
  -12013   -11836   -11566   -11376   -11346   -11421   -11570   -11805 
  -11969   -11896   -11643   -11314   -10975   -10763   -10747   -10874 
  -11090   -11358   -11666   -11963   -12164   -12286   -12352   -12245 
  -11865   -11327   -10881   -10654   -10575   -10554   -10605   -10763 
  -11034   -11341   -11551   -11612   -11541   -11326   -10991   -10663 
  -10480   -10476   -10605   -10804   -11059   -11384   -11676   -11746 
  -11520   -11151   -10901   -10887   -11087   -11503   -12024   -12367 
  -12356   -12052   -11631   -11196   -10740   -10326   -10089   -10046 
  -10165   -10534   -11148   -11747   -12159   -12390   -12388   -12162 
  -11834   -11470   -11140   -10948   -10901   -10993   -11273   -11685 
  -12029   -12191   -12218   -12117   -11813   -11373   -11005   -10802 
  -10696   -10612   -10602   -10782   -11167   -11608   -11956   -12167 
  -12221   -12108   -11834   -11433   -11032   -10825   -10886   -11132 
  -11414   -11627   -11758   -11808   -11781   -11750   -11742   -11659 
  -11469   -11271   -11164   -11202   -11412   -11691   -11846   -11874 
  -11832   -11676   -11464   -11290   -11148   -11091   -11107   -11083 
  -11105   -11275   -11437   -11469   -11429   -11329   -11157   -11001 
  -10935   -10971   -11107   -11292   -11497   -11770   -12031   -12106 
  -12001   -11792   -11512   -11219   -10971   -10862   -10951   -11064 
  -11072   -11111   -11230   -11308   -11325   -11360   -11465   -11580 
  -11565   -11449   -11377   -11375   -11384   -11361   -11290   -11268 
  -11358   -11468   -11539   -11558   -11434   -11188   -11006   -10972 
  -11056   -11246   -11508   -11774   -12006   -12154   -12172   -12094 
  -11963   -11755   -11464   -11214   -11095   -11068   -11119   -11209 
  -11294   -11437   -11601   -11669   -11672   -11676   -11651   -11556 
  -11443   -11427   -11560   -11794   -12012   -12118   -12086   -11890 
  -11620   -11439   -11358   -11284   -11245   -11319   -11453   -11595 
  -11800   -12039   -12152   -12064   -11886   -11839   -11982   -12101 
  -12036   -11880   -11688   -11426   -11187   -11034   -10895   -10770 
  -10704   -10731   -10854   -11001   -11161   -11349   -11488   -11587 
  -11755   -11916   -11884   -11703   -11542   -11470   -11508   -11635 
  -11699   -11578   -11340   -11105   -10987   -11032   -11152   -11300 
  -11485   -11603   -11604   -11588   -11603   -11637   -11658   -11616 
  -11589   -11614   -11510   -11180   -10790   -10561   -10594   -10828 
  -11136   -11429   -11619   -11728   -11809   -11751   -11526   -11280 
  -11068   -10862   -10754   -10918   -11319   -11743   -12070   -12198 
  -12067   -11838   -11647   -11430   -11157   -10945   -10905   -10974 
  -11010   -10995   -11036   -11194   -11394   -11565   -11716   -11805 
  -11777   -11701   -11634   -11500   -11205   -10773   -10401   -10309 
  -10489   -10806   -11157   -11439   -11603   -11658   -11645   -11634 
  -11628   -11599   -11592   -11604   -11612   -11666   -11751   -11789 
  -11767   -11684   -11526   -11348   -11225   -11222   -11331   -11396 
  -11322   -11188   -11007   -10828   -10832   -11033   -11298   -11564 
  -11746   -11761   -11650   -11462   -11237   -11064   -10964   -10918 
  -10955   -11010   -10968   -10921   -11064   -11330   -11550   -11697 
  -11720   -11576   -11422   -11388   -11435   -11499   -11487   -11384 
  -11342   -11408   -11514   -11630   -11680   -11588   -11315   -10837 
  -10322   -10102   -10316   -10798   -11234   -11452   -11524   -11529 
  -11387   -11102   -10856   -10775   -10851   -11067   -11389   -11727 
  -11959   -12009   -11888   -11688   -11533   -11510   -11574   -11595 
  -11457   -11136   -10775   -10586   -10674   -11084   -11695   -12204 
  -12459   -12486   -12317   -12040   -11703   -11237   -10693   -10304 
  -10154   -10152   -10326   -10721   -11229   -11695   -11981   -11998 
  -11765   -11407   -11090   -10862   -10665   -10565   -10708   -11070 
  -11475   -11751   -11847   -11878   -11900   -11827   -11712   -11751 
  -11952   -12116   -12136   -12073   -11969   -11772   -11437   -11037 
  -10728   -10559   -10436   -10314   -10281   -10449   -10822   -11318 
  -11828   -12271   -12575   -12663   -12444   -11993   -11603   -11464 
  -11465   -11421   -11299   -11213   -11287   -11553   -11925   -12264 
  -12437   -12376   -12098   -11673   -11250   -11002   -10929   -10917 
  -10899   -10871   -10939   -11254   -11767   -12286   -12603   -12529 
  -12133   -11734   -11460   -11267   -11149   -11017   -10709   -10284 
  -10045   -10297   -11011   -11796   -12336   -12534   -12282   -11622 
  -10909   -10399   -10111   -10071   -10274   -10589   -10901   -11225 
  -11553   -11758   -11708   -11456   -11211   -11057   -10901   -10694 
  -10455   -10362   -10642   -11192   -11730   -12140   -12397   -12421 
  -12181   -11820   -11465   -11071   -10721   -10582   -10605   -10766 
  -11168   -11680   -11974   -11993   -11977   -12025   -11970   -11704 
  -11307   -10891   -10557   -10374   -10400   -10678   -11057   -11356 
  -11677   -12060   -12206   -11996   -11619   -11198   -10812   -10612 
  -10673   -10918   -11169   -11256   -11273   -11466   -11784   -11970 
  -11975   -11826   -11472   -11007   -10640   -10494   -10573   -10808 
  -11110   -11419   -11686   -11853   -11885   -11761   -11433   -10913 
  -10319    -9817    -9617    -9896   -10590   -11340   -11808   -11966 
  -11985   -11948   -11803   -11565   -11346   -11130   -10837   -10562 
  -10490   -10685   -11071   -11452   -11707   -11950   -12210   -12298 
  -12137   -11877   -11682   -11623   -11754   -12054   -12339   -12479 
  -12478   -12379   -12274   -12213   -12178   -12208   -12356   -12528 
  -12572   -12552   -12617   -12688   -12545   -12144   -11686   -11381 
  -11218   -11125   -11138   -11292   -11535   -11786   -11994   -12178 
  -12351   -12445   -12379   -12144   -11781   -11399   -11149   -11124 
  -11222   -11236   -11106   -10976   -10935   -10991   -11227   -11560 
  -11661   -11415   -10987   -10544   -10277   -10305   -10505   -10733 
  -10997   -11302   -11573   -11680   -11547   -11237   -10825   -10388 
  -10111   -10130   -10343   -10567   -10697   -10705   -10617   -10492 
  -10408   -10351   -10227   -10069   -10044   -10191   -10457   -10868 
  -11372   -11808   -12136   -12364   -12519   -12683   -12735   -12513 
  -12156   -11886   -11792   -11851   -11901   -11840   -11751   -11681 
  -11665   -11819   -12102   -12301   -12353   -12351   -12286   -12132 
  -12058   -12158   -12231   -12124   -11934   -11731   -11534   -11504 
  -11719   -11959   -11979   -11763   -11503   -11394   -11464   -11626 
  -11855   -12136   -12349   -12401   -12336   -12231   -12071   -11784 
  -11389   -11021   -10744   -10539   -10423   -10501   -10843   -11269 
  -11512   -11591   -11641   -11615   -11475   -11269   -11070   -10936 
  -10820   -10685   -10621   -10659   -10747   -10906   -11122   -11295 
  -11371   -11325   -11114   -10833   -10640   -10585   -10667   -10839 
  -10983   -11047   -11032   -10943   -10843   -10812   -10829   -10859 
  -10962   -11161   -11321   -11327   -11296   -11376   -11530   -11661 
  -11720   -11695   -11597   -11472   -11414   -11533   -11809   -12093 
  -12243   -12216   -12079   -11943   -11828   -11623   -11256   -10798 
  -10350   -10054   -10081   -10458   -11030   -11572   -11919   -12055 
  -12009   -11823   -11569   -11283   -10989   -10794   -10758   -10851 
  -11092   -11484   -11884   -12201   -12451   -12472   -12151   -11753 
  -11452   -11161   -11022   -11198   -11488   -11727   -11961   -12145 
  -12181   -12116   -12024   -11880   -11691   -11470   -11178   -10949 
  -10913   -10903   -10874   -10978   -11211   -11462   -11672   -11811 
  -11881   -11848   -11638   -11253   -10828   -10535   -10424   -10385 
  -10416   -10620   -10899   -11126   -11361   -11623   -11877   -12094 
  -12162   -12040   -11867   -11711   -11566   -11464   -11372   -11250 
  -11114   -10956   -10808   -10728   -10638   -10427   -10133    -9886 
   -9818    -9968   -10233   -10485   -10735   -11020   -11238   -11338 
  -11406   -11387   -11153   -10802   -10575   -10632   -10898   -11080 
  -11045   -10986   -11071   -11233   -11422   -11691   -11981   -12114 
  -11990   -11673   -11279   -10914   -10720   -10806   -11129   -11480 
  -11677   -11669   -11515   -11340   -11261   -11304   -11464   -11753 
  -12083   -12226   -12100   -11889   -11753   -11680   -11642   -11658 
  -11689   -11665   -11572   -11443   -11344   -11369   -11531   -11641 
  -11538   -11345   -11248   -11223   -11149   -11025   -10899   -10737 
  -10507   -10296   -10258   -10432   -10701   -10872   -10790   -10504 
  -10253   -10210   -10349   -10494   -10532   -10492   -10411   -10284 
  -10139   -10072   -10150   -10315   -10444   -10584   -10860   -11209 
  -11429   -11423   -11238   -11024   -10935   -10980   -11084   -11169 
  -11203   -11226   -11230   -11254   -11434   -11767   -12096   -12280 
  -12322   -12332   -12349   -12340   -12322   -12266   -12059   -11719 
  -11392   -11219   -11286   -11566   -11927   -12264   -12525   -12654 
  -12658   -12610   -12592   -12652   -12715   -12610   -12317   -12027 
  -11888   -11869   -11875   -11901   -11905   -11745   -11429   -11117 
  -10885   -10728   -10659   -10728   -10910   -11007   -10921   -10763 
  -10581   -10324   -10002    -9745    -9742    -9977   -10228   -10415 
  -10646   -10935   -11153   -11229   -11176   -11064   -11020   -11022 
  -11001   -11032   -11126   -11223   -11367   -11504   -11543   -11551 
  -11605   -11645   -11592   -11491   -11449   -11499   -11641   -11909 
  -12291   -12654   -12807   -12626   -12155   -11608   -11234   -11007 
  -10759   -10581   -10679   -11056   -11551   -12010   -12348   -12490 
  -12359   -12005   -11655   -11448   -11329   -11267   -11306   -11435 
  -11596   -11761   -11920   -12043   -12087   -11978   -11730   -11542 
  -11539   -11692   -12015   -12456   -12819   -12953   -12812   -12475 
  -12112   -11782   -11466   -11218   -11114   -11218   -11547   -12016 
  -12523   -12968   -13221   -13192   -12853   -12299   -11770   -11480 
  -11456   -11561   -11635   -11616   -11531   -11406   -11265   -11178 
  -11130   -11014   -10782   -10453   -10068    -9741    -9579    -9564 
   -9629    -9726    -9810    -9898   -10030   -10192   -10349   -10476 
  -10575   -10638   -10639   -10609   -10605   -10687   -10872   -11024 
  -11060   -11084   -11173   -11276   -11294   -11169   -10935   -10674 
  -10447   -10215    -9969    -9837    -9883   -10106   -10569   -11161 
  -11649   -12044   -12413   -12560   -12383   -12090   -11874   -11750 
  -11705   -11739   -11836   -11979   -12197   -12495   -12787   -13022 
  -13211   -13309   -13257   -13084   -12876   -12707   -12591   -12505 
  -12442   -12414   -12383   -12275   -12052   -11777   -11520   -11306 
  -11159   -11075   -11010   -10933   -10870   -10933   -11167   -11462 
  -11757   -12020   -12141   -12082   -11936   -11823   -11754   -11596 
  -11303   -11016   -10833   -10727   -10682   -10690   -10724   -10747 
  -10713   -10662   -10705   -10871   -11103   -11361   -11607   -11755 
  -11724   -11539   -11273   -10979   -10739   -10639   -10685   -10783 
  -10845   -10908   -10964   -10918   -10876   -11001   -11227   -11472 
  -11712   -11892   -11983   -11950   -11762   -11506   -11325   -11329 
  -11542   -11855   -12150   -12383   -12511   -12499   -12359   -12135 
  -11911   -11680   -11381   -11052   -10731   -10442   -10322   -10489 
  -10859   -11234   -11520   -11746   -11947   -12127   -12240   -12179 
  -11936   -11669   -11510   -11422   -11335   -11335   -11493   -11668 
  -11708   -11697   -11777   -11893   -11929   -11909   -11882   -11767 
  -11504   -11167   -10876   -10690   -10640   -10725   -10844   -10889 
  -10845   -10782   -10723   -10616   -10494   -10484   -10643   -10936 
  -11267   -11551   -11817   -12098   -12312   -12383   -12316   -12098 
  -11732   -11335   -11041   -10874   -10767   -10669   -10608   -10643 
  -10813   -11113   -11475   -11832   -12151   -12330   -12263   -12042 
  -11824   -11623   -11468   -11408   -11385   -11325   -11250   -11210 
  -11192   -11171   -11144   -11071   -10926   -10771   -10636   -10520 
  -10509   -10635   -10814   -11018   -11237   -11415   -11576   -11751 
  -11882   -11929   -11916   -11869   -11773   -11614   -11481   -11488 
  -11564   -11587   -11557   -11543   -11643   -11897   -12217   -12528 
  -12807   -12997   -13074   -13069   -12957   -12683   -12276   -11803 
  -11294   -10806   -10382   -10029    -9845    -9930   -10188   -10465 
  -10767   -11126   -11427   -11562   -11539   -11423   -11290   -11140 
  -10972   -10870   -10881   -10975   -11115   -11226   -11283   -11364 
  -11452   -11427   -11292   -11151   -11030   -10905   -10791   -10737 
  -10760   -10791   -10747   -10674   -10671   -10762   -10914   -11088 
  -11265   -11422   -11543   -11635   -11712   -11780   -11827   -11815 
  -11701   -11492   -11276   -11164   -11160   -11183   -11187   -11205 
  -11287   -11427   -11574   -11682   -11742   -11740   -11600   -11265 
  -10825   -10462   -10305   -10335   -10408   -10440   -10447   -10416 
  -10342   -10297   -10319   -10366   -10405   -10444   -10517   -10616 
  -10719   -10822   -10918   -10980   -10945   -10743   -10484   -10384 
  -10432   -10446   -10434   -10548   -10809   -11141   -11481   -11751 
  -11882   -11859   -11722   -11531   -11341   -11225   -11245   -11408 
  -11654   -11815   -11781   -11673   -11595   -11489   -11354   -11280 
  -11267   -11294   -11425   -11641   -11873   -12148   -12482   -12799 
  -12992   -13046   -13077   -13101   -12995   -12761   -12498   -12210 
  -11942   -11757   -11614   -11504   -11456   -11395   -11273   -11149 
  -11075   -11070   -11113   -11136   -11101   -11038   -10975   -10901 
  -10841   -10871   -11005   -11180   -11330   -11402   -11389   -11331 
  -11240   -11134   -11064   -11036   -11002   -10951   -10918   -10939 
  -11013   -11125   -11253   -11334   -11337   -11318   -11319   -11308 
  -11263   -11210   -11209   -11277   -11360   -11441   -11584   -11794 
  -11983   -12114   -12218   -12299   -12353   -12393   -12388   -12356 
  -12325   -12252   -12147   -12128   -12231   -12387   -12544   -12676 
  -12773   -12775   -12614   -12317   -11952   -11547   -11163   -10928 
  -10908   -11034   -11179   -11240   -11223   -11190   -11132   -11038 
  -10964   -10926   -10906   -10939   -11003   -11052   -11151   -11340 
  -11495   -11531   -11489   -11404   -11307   -11219   -11090   -10918 
  -10795   -10793   -10912   -11068   -11190   -11306   -11387   -11338 
  -11246   -11263   -11384   -11569   -11785   -11958   -12040   -12025 
  -11925   -11759   -11531   -11277   -11041   -10829   -10690   -10701 
  -10890   -11241   -11684   -12110   -12432   -12565   -12460   -12155 
  -11732   -11281   -10897   -10635   -10520   -10574   -10791   -11086 
  -11356   -11566   -11707   -11735   -11641   -11453   -11180   -10794 
  -10331    -9914    -9645    -9529    -9564    -9767   -10072   -10417 
  -10814   -11214   -11565   -11900   -12198   -12378   -12459   -12491 
  -12479   -12442   -12380   -12268   -12110   -11956   -11880   -11869 
  -11850   -11804   -11720   -11564   -11362   -11187   -11144   -11299 
  -11587   -11844   -11965   -11967   -11905   -11778   -11562   -11290 
  -11030   -10812   -10638   -10542   -10531   -10573   -10677   -10844 
  -11032   -11190   -11229   -11111   -10930   -10744   -10565   -10493 
  -10606   -10827   -11026   -11144   -11188   -11186   -11124   -11006 
  -10881   -10781   -10721   -10736   -10862   -11088   -11314   -11480 
  -11641   -11797   -11890   -11931   -11932   -11875   -11772   -11649 
  -11554   -11543   -11642   -11793   -11865   -11792   -11669   -11562 
  -11454   -11364   -11329   -11352   -11423   -11530   -11662   -11800 
  -11881   -11855   -11724   -11534   -11354   -11261   -11306   -11468 
  -11650   -11792   -11913   -12001   -12027   -11990   -11857   -11630 
  -11353   -11020   -10708   -10586   -10693   -10956   -11304   -11619 
  -11800   -11851   -11816   -11707   -11523   -11292   -11051   -10878 
  -10840   -10889   -10948   -10994   -11017   -10998   -10929   -10860 
  -10843   -10862   -10914   -11017   -11168   -11398   -11674   -11900 
  -12074   -12226   -12274   -12160   -11946   -11668   -11345   -11079 
  -10962   -10990   -11113   -11261   -11360   -11369   -11300   -11178 
  -11047   -10955   -10925   -10921   -10910   -10895   -10890   -10905 
  -10924   -10933   -10949   -10971   -10991   -11017   -11041   -11063 
