Origin Time       2025/01/13 21:19:00
Lat.              31.8
Long.             131.6
Depth. (km)       30
Mag.              6.9
Station Code      EHMH02
Station Lat.      33.8650
Station Long.     133.1840
Station Height(m) 75
Record Time       2025/01/13 21:20:57
Sampling Freq(Hz) 100Hz
Duration Time(s)  120
Dir.              5
Scale Factor      7845(gal)/8223790
Max. Acc. (gal)   1.321
Last Correction   2025/01/13 21:20:58
Memo.             
     387      386      464      685      878      788      461      233 
     359      741     1123     1289     1074      618      324      341 
     517      710      761      583      422      523      706      681 
     456      245      274      540      831     1046     1123      934 
     546      163        5      298      832     1143     1232     1225 
     963      529      270      274      467      765      954      947 
     828      646      519      540      591      588      571      534 
     464      468      562      576      530      599      689      710 
     727      639      398      221      233      468      918     1277 
    1165      625       91      -27      375     1005     1360     1262 
    1042      966      931      839      704      542      496      704 
    1082     1359     1314     1017      641      319      229      413 
     669      804      823      832      932     1112     1131      876 
     603      523      653      909     1015      700      205      153 
     581      909      920      708      287     -110     -136      274 
     847     1209     1264     1201     1066      818      625      554 
     456      359      388      615     1031     1221      858      322 
      68      130      469      985     1344     1228      766      448 
     450      596      814      873      558      286      417      688 
     737      518      328      334      341      303      459      778 
    1021     1177     1189      796      130     -194       36      483 
     972     1381     1343      884      452      336      595     1081 
    1439     1383      994      591      268      -43     -282     -375 
    -292       99      745     1148     1032      712      549      611 
     791      962     1088     1059      741      314      136      163 
      45     -172     -155      193      749     1161     1028      576 
     337      382      540      828     1236     1414     1102      604 
     260       89      233      737     1183     1285     1092      652 
     265      388      800      922      660      198     -201     -171 
     237      607      785      778      633      638      935     1204 
    1202     1047      896      783      621      379      244      272 
     375      626      939     1028      949      880      772      561 
     291      216      588     1062      989      427       35      159 
     675     1171     1136      616      117     -139     -132       87 
     167      -91     -247      174      957     1564     1705     1313 
     585      -86     -430     -328      191      789     1082     1007 
     731      529      560      685      702      584      464      430 
     421      403      495      772      939      722      488      557 
     684      788      935      907      661      503      546      666 
     766      799      847      927      820      530      390      580 
     940     1084      820      430      240      349      626      676 
     373      126      276      739     1121     1088      750      392 
     168      238      518      726      818      784      656      702 
     896      958      954      985      907      708      504      390 
     448      569      533      375      330      453      656      765 
     589      353      432      731     1075     1339     1142      499 
      -2       -1      502     1205     1582     1472     1159      793 
     410      229      260      342      587      954     1244     1499 
    1514     1073      584      274       67      241      710      978 
    1107     1278     1255      988      653      247      -62       47 
     494      984     1237      980      306     -167       45      695 
    1175     1262     1127      896      615      463      423      344 
     407      737     1053     1128      923      517      183      156 
     533     1112     1359     1102      669      263      -51     -168 
      14      580     1200     1408     1318     1189     1035      855 
     619      349      162       78      157      549     1113     1428 
    1289      796      206      -55      229      730     1070     1140 
     881      425      121      183      542      862      896      751 
     641      762      992      977      832      665      264      -40 
     137      476      680      766      641      238     -156      -49 
     622     1321     1575     1316      687       43     -116      280 
     764      934      716      353      241      415      711     1009 
     959      446       20      167      695     1066     1016      791 
     837     1198     1432     1215      733      375      338      596 
     866      845      649      517      465      558      811     1009 
     874      330     -261     -365      121      777     1139     1020 
     538      247      577     1066     1101      723      156     -321 
    -240      446     1175     1408     1104      637      386      498 
     796      853      562      298      326      596      851      792 
     469      229      286      596      854      885      920     1024 
    1071     1117     1102      797      232     -238     -243      259 
     896     1213     1028      622      486      757     1105     1108 
     711      324      218      278      376      437      457      513 
     648      959     1375     1463     1078      587       97     -307 
     -59      773     1277     1096      522      -43      -71      571 
    1318     1630     1475     1063      706      670      865     1038 
    1082      861      373       58      133      179      172      492 
     774      657      577      608      438      329      519      737 
     765      529      152       74      379      653      729      675 
     441      182      309      772      946      683      556      718 
     903     1171     1528     1593     1185      666      541      824 
    1107     1166      945      430      -37     -110      157      611 
    1078     1425     1633     1453      683     -175     -371      203 
    1063     1733     1894     1313      311     -318     -298       64 
     598     1085     1146      830      496      322      272      144 
     -21      109      510      851     1000      904      553      118 
     -95      256     1019     1536     1517      943      -25     -681 
    -556       45      594      795      706      606      808     1256 
    1362      909      434      365      623      951     1198     1143 
     631      118       44      243      568      884     1043     1192 
    1267     1117      955      876      804      893     1235     1570 
    1568     1165      615      230      209      553      961     1179 
    1251     1300     1282     1015      579      195      -36       32 
     341      683     1062     1270     1007      500      163      183 
     614     1148     1221      702      -51     -598     -548       -2 
     405      517      693      954     1182     1318     1169      747 
     222     -249     -445     -384     -249      -49      133      179 
     174      301      649      997     1053      878      584      152 
    -211     -153      321      885     1318     1497     1323      850 
     301       91      376      773     1007     1019      689      294 
     256      464      622      635      604      735     1054     1286 
    1181      846      537      328      186      145      344      738 
    1028     1000      635      199       55      151      186       91 
      21      101      276      457      634      819      959      966 
     900      832      554      106     -136     -156      -37      264 
     502      548      542      388      201      395      783      930 
     911      877      716      414      175       47      -52       10 
     263      486      598      569      373      302      621      976 
     927      523       27     -241      -75      372      774      876 
     723      594      608      780     1026     1170     1185     1059 
     765      515      481      666      993     1175     1186     1179 
     922      525      525      873     1093      940      695      791 
    1070     1074      795      530      417      400      518      778 
     882      684      454      332      429      957     1529     1618 
    1409     1123      756      552      660      826      761      514 
     360      469      862     1314     1406     1129      912     1023 
    1309     1277      843      614      745      851      891      935 
     981     1093     1208     1251     1148      838      544      441 
     386      467      861     1262     1421     1479     1386     1061 
     768      638      541      441      391      492      796     1148 
    1386     1443     1277      959      656      583      905     1429 
    1701     1578     1262      970      907      950      804      780 
    1120     1372     1332     1192     1094     1121     1084      762 
     336       70      124      535      981     1071      843      565 
     415      468      729     1096     1328     1269     1098      954 
     716      523      623      889     1143     1327     1227      746 
     193      -60      129      697     1406     1876     1807     1196 
     409      -76     -195     -144      103      513      895     1147 
    1120      735      207     -133      -51      383      823     1030 
    1081     1080      946      669      229     -355     -633     -330 
     222      793     1275     1413     1128      677      379      301 
     413      799     1240     1332     1131      805      413      180 
      32      -74      368     1178     1633     1817     1756     1111 
     357      163      383      724     1062     1123      893      724 
     702      607      445      422      633     1075     1557     1710 
    1439      895      295        0      149      515      901     1182 
    1237     1121      969      784      615      656      930     1286 
    1547     1478     1090      722      662      791      716      596 
     810     1016      909      648      253     -135     -271     -122 
     348      920     1143     1027      757      333       39      178 
     487      623      595      425      230      183      160      137 
     252      306      238      346      518      403      112      -64 
     -79      -87     -157     -160     -141     -264     -440     -405 
     -82      207      195       44     -164     -437     -382      125 
     476      311      -74     -403     -585     -490     -129      268 
     534      577      463      375      257       55      -89     -209 
    -256       17      429      594      495      170     -211     -205 
     184      519      683      842     1054     1217     1279     1301 
    1194      915      727      781      927      928      603      232 
     260      484      654      868      807      280     -155     -124 
     238      679     1017     1229     1213      837      294      -36 
      21      356      858     1418     1615     1260      808      521 
     340      341      417      355      236      240      442      572 
     340       41      -25      110      378      499      357       82 
    -341     -650     -407      213      669      788      805      812 
     691      471      278      174      234      456      576      430 
     211       68       29      144      357      724     1224     1385 
    1135      915      604       52     -157      152      463      643 
     800      812      754      796      877      911      859      727 
     666      723      737      722      814      905      905      877 
     818      756      743      741      765      885     1098     1278 
    1229      943      638      567      780     1104     1300     1125 
     581      135      166      472      707      718      540      359 
     166     -106      -64      387      737      918     1053      908 
     594      444      461      643     1024     1304     1231     1024 
     838      596      472      562      661      807     1063     1179 
    1175     1263     1341     1389     1414     1144      729      681 
     892      989      927      703      391      143        2       85 
     328      419      351      292      263      302      375      384 
     394      448      440      356      283      286      384      553 
     741      851      903      954      895      812      901     1001 
    1032     1094     1113     1115     1205     1347     1536     1726 
    1761     1663     1634     1799     2023     1958     1540     1148 
     918      726      685      792      853      920     1089     1269 
    1359     1324     1192     1051      923      770      621      499 
     332      168      221      437      596      699      865     1105 
    1197     1015      722      473      472      850     1337     1479 
    1129      623      342      326      484      702      784      695 
     600      468      251      102       40       20       10      -24 
      86      352      448      253       -2      -89       -1      260 
     693     1057     1205     1208     1028      700      395      186 
     167      357      604      866     1090     1092      874      610 
     414      328      359      468      618      760      770      598 
     340       98      -93     -124       67      259      249      108 
     -21      -62      -72      -78       29      224      333      326 
     282      309      472      633      596      418      243      197 
     444      800      892      700      305     -152     -267       49 
     436      630      612      507      436      396      395      380 
     315      415      720      882      795      588      270      -27 
     -74      166      472      581      595      662      652      612 
     631      522      255       55      160      622     1090     1224 
    1098      788      372      163      213      299      380      522 
     676      780      835      834      737      573      456      417 
     391      369      411      519      567      496      479      608 
     789      967     1086     1092     1012      797      460      160 
      35      137      321      375      332      342      392      394 
     403      427      294       87      118      348      525      548 
     391      139      -74     -140      122      730     1286     1409 
    1196      999      884      699      542      630      893     1077 
    1085      989      932     1035     1210     1312     1325     1278 
    1244     1313     1413     1432     1459     1586     1703     1729 
    1630     1386     1167     1138     1244     1410     1552     1590 
    1574     1570     1539     1398     1107      756      534      554 
     743      943     1016      909      811      886      920      743 
     456       59     -328     -427     -275      -39      149      109 
     -60      -87      -31      -97     -251     -333     -282     -175 
     -82       49      209      264      247      313      371      318 
     249      156       94      229      415      444      349      133 
    -153     -303     -255      -47      268      463      421      349 
     328      336      454      585      573      471      379      409 
     568      683      695      660      616      649      729      754 
     700      621      648      822     1003     1116     1189     1233 
    1312     1479     1707     1888     1892     1769     1611     1363 
    1086      918      816      697      518      324      271      336 
     332      217      132      156      184      128       87      143 
     202      253      368      445      417      419      523      685 
     904     1104     1144     1011      805      706      847     1204 
    1570     1706     1599     1426     1348     1418     1507     1517 
    1498     1448     1367     1304     1189     1017      957     1027 
    1059      985      851      711      656      738      876     1007 
    1174     1345     1354     1200     1135     1237     1327     1313 
    1216     1063      922      874      886      832      692      521 
     351      220      211      302      341      299      233      108 
     -55     -133      -60      116      284      368      422      558 
     818     1134     1301     1134      791      544      368      207 
     130      137      155       94      -55     -148     -152     -174 
    -117       98      292      386      417      367      267      152 
      72      101      182      283      450      585      595      544 
     422      182      -48     -125      -85       -4       90      109 
      49       78      193      236      261      334      303      194 
     224      298      248      178      143      136      210      247 
     141        4     -125     -252     -207       39      268      378 
     384      287      176      199      409      673      837      850 
     692      503      508      610      670      823     1036     1139 
    1223     1389     1510     1556     1620     1649     1603     1539 
    1468     1443     1528     1653     1687     1584     1414     1317 
    1356     1467     1520     1456     1356     1239     1112     1077 
    1067      962      907      986     1032     1001      957      865 
     814      895      942      892      918     1073     1243     1336 
    1343     1240      988      679      429      243      163      207 
     290      395      500      503      406      341      434      696 
     942      992      884      719      571      456      305      179 
     197      355      602      772      679      499      508      664 
     785      750      540      278      143      238      433      530 
     606      801     1019     1113     1070     1000      959      872 
     781      739      602      427      469      661      783      896 
    1062     1098      973      872      849      824      777      720 
     602      382      218      243      332      355      328      322 
     409      518      541      484      395      332      419      643 
     769      733      679      656      689      788      839      778 
     592      298       95       85      116      156      290      414 
     413      333      217      120      155      299      436      490 
     413      318      378      463      460      498      518      421 
     294      149      -16     -128     -167      -55      221      438 
     449      263      -28     -180      -82      132      355      541 
     618      596      548      492      438      459      589      774 
     909      904      807      778      831      864      958     1205 
    1432     1480     1416     1264      981      711      649      741 
     895     1128     1343     1354     1101      754      556      525 
     537      496      342      140        0      -76     -140     -218 
    -274     -233     -101        8       36       58      102       97 
      78      176      325      353      356      475      572      534 
     508      600      649      522      427      507      571      557 
     596      614      496      372      356      380      391      390 
     351      283      226      214      237      275      368      504 
     604      668      699      675      650      629      583      611 
     777     1019     1182     1135     1003      962      934      903 
