Origin Time       2025/01/13 21:19:00
Lat.              31.8
Long.             131.6
Depth. (km)       30
Mag.              6.9
Station Code      EHMH09
Station Lat.      33.4719
Station Long.     132.3072
Station Height(m) -145
Record Time       2025/01/13 21:20:07
Sampling Freq(Hz) 100Hz
Duration Time(s)  152
Dir.              1
Scale Factor      3923(gal)/8224838
Max. Acc. (gal)   1.672
Last Correction   2025/01/13 21:20:08
Memo.             
[...]
   69418    69460    69518    69565    69569    69549    69560    69606 
   69657    69693    69722    69757    69786    69788    69782    69807 
   69867    69936    69970    69962    69954    69967    69974    69955 
   69946    69975    70035    70104    70175    70255    70330    70370 
   70360    70318    70275    70256    70241    70182    70081    69974 
   69889    69839    69816    69797    69769    69734    69716    69719 
   69726    69727    69695    69612    69506    69418    69354    69310 
   69271    69228    69183    69151    69133    69145    69182    69228 
   69280    69323    69356    69408    69468    69514    69552    69576 
   69585    69573    69535    69499    69489    69516    69577    69641 
   69670    69682    69716    69769    69824    69859    69850    69805 
   69762    69750    69786    69843    69869    69858    69831    69801 
   69780    69774    69781    69773    69730    69674    69660    69692 
   69728    69719    69634    69500    69391    69358    69402    69477 
   69565    69665    69762    69831    69861    69859    69865    69900 
   69950    69992    70028    70090    70179    70258    70303    70328 
   70330    70313    70285    70255    70220    70164    70066    69951 
   69855    69812    69826    69850    69838    69788    69723    69658 
   69585    69493    69422    69398    69414    69450    69487    69496 
   69485    69493    69546    69638    69746    69854    69959    70056 
   70147    70229    70290    70313    70293    70228    70141    70046 
   69915    69766    69658    69623    69660    69722    69732    69673 
   69593    69525    69472    69431    69411    69410    69430    69472 
   69520    69580    69673    69793    69919    70031    70110    70166 
   70237    70328    70397    70437    70453    70460    70474    70464 
   70399    70295    70182    70082    70020    70006    70032    70051 
   70017    69938    69865    69853    69896    69935    69948    69952 
   69948    69935    69924    69927    69951    69997    70055    70104 
   70119    70073    69973    69878    69826    69774    69697    69631 
   69607    69603    69576    69518    69477    69510    69607    69726 
   69839    69940    69998    69988    69951    69959    70021    70092 
   70141    70175    70204    70237    70272    70290    70259    70181 
   70104    70065    70033    69961    69863    69765    69661    69557 
   69462    69399    69399    69461    69564    69688    69804    69876 
   69903    69920    69963    70025    70069    70083    70075    70054 
   70024    69986    69934    69866    69815    69816    69862    69897 
   69885    69809    69697    69600    69522    69457    69441    69484 
   69572    69684    69774    69805    69782    69722    69654    69615 
   69612    69635    69669    69670    69637    69614    69619    69634 
   69641    69604    69499    69346    69221    69172    69179    69192 
   69206    69241    69282    69277    69226    69157    69087    69028 
   69022    69084    69159    69178    69163    69182    69238    69298 
   69353    69425    69507    69557    69568    69577    69627    69722 
   69838    69973    70133    70282    70371    70407    70420    70411 
   70391    70395    70411    70387    70330    70260    70177    70086 
   70005    69961    69965    69981    69970    69946    69915    69847 
   69742    69611    69460    69300    69153    69034    68971    68974 
   69029    69111    69182    69229    69271    69315    69340    69296 
   69182    69060    68991    68995    69071    69199    69352    69502 
   69642    69773    69865    69911    69930    69966    70071    70245 
   70440    70605    70703    70742    70740    70677    70561    70455 
   70391    70341    70275    70186    70077    69981    69923    69885 
   69849    69795    69700    69595    69542    69560    69619    69680 
   69732    69788    69836    69862    69893    69962    70036    70074 
   70082    70089    70106    70131    70154    70164    70150    70105 
   70058    70046    70074    70116    70147    70133    70067    70025 
   70044    70062    70012    69882    69723    69622    69577    69531 
   69472    69415    69373    69379    69475    69651    69826    69938 
   69969    69921    69832    69732    69623    69525    69473    69495 
   69589    69718    69847    69962    70042    70069    70044    70004 
   69981    69965    69916    69834    69774    69790    69858    69920 
   69965    69997    70020    70031    70017    69984    69961    69978 
   70012    69990    69885    69751    69660    69615    69579    69542 
   69496    69414    69306    69232    69230    69306    69414    69489 
   69500    69468    69473    69573    69707    69782    69780    69755 
   69780    69881    70032    70173    70264    70325    70403    70501 
   70559    70532    70417    70276    70174    70116    70065    70000 
   69936    69888    69846    69811    69793    69795    69815    69846 
   69857    69831    69800    69816    69904    70027    70112    70119 
   70066    69977    69866    69759    69687    69660    69684    69747 
   69820    69892    69973    70078    70210    70359    70480    70530 
   70509    70472    70453    70429    70382    70318    70247    70167 
   70066    69942    69784    69600    69417    69256    69141    69079 
   69040    68994    68931    68882    68881    68895    68877    68823 
   68764    68724    68716    68751    68851    68990    69088    69095 
   69051    69033    69071    69144    69217    69282    69341    69383 
   69392    69379    69352    69346    69394    69471    69511    69492 
   69448    69437    69484    69574    69674    69726    69681    69569 
   69479    69481    69564    69654    69735    69811    69853    69839 
   69807    69805    69835    69874    69916    69955    69974    69961 
   69912    69846    69768    69677    69597    69557    69566    69619 
   69678    69712    69724    69709    69660    69603    69561    69534 
   69510    69465    69400    69346    69311    69276    69237    69229 
   69273    69336    69379    69391    69369    69319    69256    69218 
   69249    69333    69402    69435    69456    69475    69492    69512 
   69523    69537    69585    69678    69793    69903    69975    69982 
   69932    69873    69859    69924    70070    70262    70452    70609 
   70714    70789    70858    70911    70939    70953    70958    70950 
   70926    70906    70920    70954    70945    70879    70788    70686 
   70555    70394    70225    70081    69994    69966    69947    69898 
   69822    69750    69718    69709    69678    69642    69653    69687 
   69687    69649    69596    69549    69510    69477    69461    69461 
   69465    69457    69408    69321    69259    69279    69345    69394 
   69407    69410    69438    69512    69618    69747    69896    70020 
   70073    70089    70163    70317    70471    70548    70552    70542 
   70544    70517    70443    70355    70299    70272    70216    70081 
   69876    69655    69461    69299    69176    69076    68980    68912 
   68899    68945    69033    69138    69234    69331    69449    69569 
   69685    69816    69952    70071    70197    70344    70464    70514 
   70492    70426    70357    70302    70252    70214    70198    70198 
   70205    70214    70212    70185    70131    70056    69978    69901 
   69809    69715    69670    69682    69685    69645    69616    69670 
   69805    69961    70060    70075    70044    70015    70001    69975 
   69923    69877    69854    69812    69723    69599    69466    69375 
   69350    69377    69426    69456    69448    69415    69358    69249 
   69102    68979    68904    68855    68825    68793    68752    68735 
   68760    68808    68864    68925    68987    69051    69130    69252 
   69437    69674    69932    70135    70204    70144    70013    69836 
   69643    69492    69437    69485    69589    69678    69707    69666 
   69581    69487    69425    69419    69458    69512    69562    69606 
   69672    69803    70001    70224    70443    70621    70722    70753 
   70738    70692    70645    70606    70548    70445    70317    70194 
   70073    69924    69753    69601    69484    69390    69337    69334 
   69342    69329    69299    69260    69207    69133    69028    68916 
   68833    68813    68874    69012    69198    69392    69556    69678 
   69770    69842    69882    69901    69936    69997    70066    70163 
   70279    70352    70343    70266    70151    70028    69928    69863 
   69809    69730    69626    69527    69464    69457    69529    69660 
   69758    69749    69672    69627    69664    69758    69885    70051 
   70263    70464    70576    70586    70541    70484    70438    70420 
   70437    70484    70549    70609    70641    70649    70644    70622 
   70563    70447    70286    70106    69928    69785    69704    69677 
   69670    69635    69535    69400    69268    69122    68978    68885 
   68844    68833    68841    68860    68912    69016    69140    69229 
   69252    69228    69194    69165    69144    69117    69044    68933 
   68887    68979    69151    69252    69207    69070    68916    68769 
   68647    68575    68550    68569    68658    68802    68941    69022 
   69044    69034    69007    68995    69024    69064    69071    69036 
   68983    68940    68922    68929    68943    68953    68976    69016 
   69056    69091    69120    69103    69041    68980    68939    68868 
   68759    68666    68643    68702    68820    68943    69041    69125 
   69207    69300    69396    69492    69591    69689    69804    69930 
   70033    70085    70086    70087    70170    70348    70553    70713 
   70796    70819    70800    70723    70602    70486    70411    70376 
   70355    70332    70317    70320    70332    70329    70285    70204 
   70110    70009    69911    69847    69823    69793    69708    69580 
   69488    69483    69534    69587    69627    69673    69739    69824 
   69909    69963    69965    69920    69855    69807    69796    69820 
   69876    69974    70094    70159    70127    70032    69919    69776 
   69610    69475    69419    69454    69547    69654    69754    69855 
   69950    70050    70187    70364    70540    70683    70783    70852 
   70920    71022    71112    71122    71065    71018    71020    71039 
   71050    71078    71154    71250    71328    71386    71402    71350 
   71265    71221    71243    71270    71239    71172    71116    71095 
   71101    71119    71124    71088    70995    70848    70700    70609 
   70568    70557    70563    70548    70513    70499    70502    70479 
   70410    70310    70201    70098    70025    70015    70090    70239 
   70410    70559    70680    70772    70795    70723    70600    70501 
   70441    70393    70348    70325    70329    70356    70379    70376 
   70349    70298    70212    70114    70052    70051    70102    70189 
   70305    70449    70618    70788    70942    71080    71219    71379 
   71532    71595    71563    71487    71379    71231    71058    70881 
   70713    70552    70394    70256    70160    70113    70086    70040 
   69950    69797    69593    69367    69161    69034    68990    68951 
   68855    68710    68561    68430    68311    68200    68135    68139 
   68177    68170    68065    67873    67641    67396    67155    66951 
   66819    66772    66798    66839    66839    66820    66831    66893 
   66993    67090    67167    67223    67239    67251    67351    67602 
   67967    68320    68562    68744    68971    69240    69487    69693 
   69894    70131    70370    70519    70568    70611    70718    70864 
   71000    71104    71184    71274    71374    71446    71466    71435 
   71381    71331    71270    71207    71188    71213    71212    71136 
   71003    70852    70718    70599    70470    70325    70159    69962 
   69780    69654    69572    69507    69444    69377    69321    69260 
   69182    69088    68986    68872    68758    68661    68613    68636 
   68698    68756    68778    68771    68759    68767    68804    68872 
   68990    69165    69395    69654    69892    70087    70244    70328 
   70308    70225    70146    70113    70127    70127    70083    70039 
   70020    70033    70086    70158    70174    70079    69912    69774 
   69719    69684    69593    69507    69545    69701    69871    69969 
   69978    69935    69867    69792    69732    69707    69712    69739 
   69778    69820    69865    69905    69935    69957    69975    69998 
   70028    70040    70015    69938    69811    69673    69557    69465 
   69373    69268    69192    69192    69249    69325    69340    69233 
   69060    68914    68812    68678    68511    68432    68493    68605 
   68652    68582    68467    68388    68335    68297    68328    68499 
   68771    69022    69153    69180    69182    69199    69222    69240 
   69279    69352    69430    69483    69514    69539    69573    69604 
   69661    69784    69940    70078    70187    70287    70401    70546 
   70731    70929    71065    71103    71096    71092    71072    71023 
   70968    70916    70834    70686    70514    70386    70309    70279 
   70263    70220    70152    70090    70085    70166    70303    70436 
   70540    70623    70675    70664    70567    70351    70028    69707 
   69480    69317    69164    69005    68827    68690    68612    68520 
   68442    68449    68563    68793    69057    69267    69464    69719 
   69985    70185    70345    70564    70888    71301    71728    72094 
   72403    72655    72839    72989    73107    73191    73263    73286 
   73251    73201    73140    73049    72897    72669    72396    72090 
   71784    71537    71355    71216    71115    71053    71030    71026 
   71001    70935    70835    70740    70694    70676    70642    70568 
   70438    70309    70258    70275    70286    70225    70105    69971 
   69838    69753    69738    69692    69543    69337    69144    69012 
   68910    68818    68804    68904    69103    69406    69766    70110 
   70416    70663    70870    71104    71371    71604    71764    71878 
   71945    71929    71847    71745    71651    71581    71509    71433 
   71356    71208    70996    70783    70559    70322    70089    69866 
   69677    69507    69333    69187    69075    68953    68806    68650 
   68496    68358    68266    68270    68382    68553    68728    68871 
   68991    69093    69147    69171    69165    69111    69057    69041 
   69055    69091    69114    69114    69109    69095    69090    69105 
   69115    69082    68960    68778    68613    68497    68426    68407 
   68459    68567    68651    68682    68713    68717    68601    68342 
   67995    67656    67406    67265    67219    67269    67401    67545 
   67652    67752    67873    68021    68158    68200    68103    67911 
   67716    67622    67660    67763    67867    67973    68099    68238 
   68388    68550    68719    68891    69057    69214    69377    69557 
   69734    69878    69962    69985    69994    70028    70087    70152 
   70201    70232    70212    70092    69893    69653    69381    69084 
   68770    68462    68195    67990    67855    67791    67784    67794 
   67794    67797    67829    67903    68026    68203    68405    68602 
   68806    69001    69159    69277    69340    69367    69384    69369 
   69326    69273    69194    69093    68970    68844    68747    68655 
   68532    68381    68226    68075    67915    67783    67737    67780 
   67900    68080    68295    68544    68823    69095    69353    69584 
   69763    69885    69958    70013    70092    70195    70325    70491 
   70673    70857    71037    71181    71220    71124    70953    70761 
   70579    70418    70245    70051    69885    69780    69738    69765 
   69862    70036    70259    70460    70607    70708    70753    70767 
   70789    70825    70872    70924    70978    71037    71092    71166 
   71223    71205    71154    71122    71113    71122    71123    71091 
   71008    70893    70791    70754    70795    70872    70919    70897 
   70848    70829    70850    70876    70866    70812    70742    70686 
   70652    70629    70638    70714    70833    70934    70970    70965 
   70996    71081    71184    71270    71307    71280    71231    71231 
   71309    71421    71491    71510    71544    71628    71718    71761 
   71770    71811    71895    71959    71960    71905    71813    71697 
   71568    71467    71433    71432    71386    71282    71151    71010 
   70843    70638    70410    70178    69912    69591    69287    69082 
   68956    68825    68652    68494    68399    68349    68314    68269 
   68224    68224    68254    68289    68359    68486    68662    68863 
   69052    69218    69402    69599    69755    69859    69925    69943 
   69908    69849    69801    69784    69803    69857    69925    69990 
   70025    70032    70031    70019    69988    69974    70006    70062 
   70119    70170    70183    70158    70133    70112    70059    69969 
   69853    69715    69565    69407    69250    69125    69059    69047 
   69059    69061    69039    68960    68827    68667    68523    68408 
   68323    68293    68331    68409    68521    68685    68906    69202 
   69539    69842    70105    70362    70602    70823    71042    71255 
   71447    71571    71598    71585    71562    71498    71413    71307 
   71134    70931    70734    70529    70345    70182    70033    69890 
   69673    69365    69066    68839    68665    68485    68287    68134 
   68056    68027    68029    68050    68119    68219    68308    68424 
   68598    68816    69053    69230    69317    69388    69488    69607 
   69724    69831    69936    70047    70143    70197    70187    70113 
   69993    69849    69726    69628    69515    69361    69195    69078 
   69045    69040    69020    69034    69102    69192    69260    69237 
   69140    69020    68889    68800    68777    68756    68720    68654 
   68561    68499    68462    68418    68370    68330    68343    68453 
   68600    68716    68779    68850    68994    69172    69315    69403 
   69454    69489    69475    69400    69303    69188    69066    68971 
   68935    68947    68982    69030    69090    69152    69210    69268 
   69352    69477    69592    69634    69646    69708    69828    69973 
   70077    70083    70024    69954    69897    69855    69820    69768 
   69685    69587    69472    69365    69302    69238    69160    69095 
   69017    68913    68835    68829    68879    68933    68935    68898 
   68893    68944    69039    69156    69290    69426    69535    69618 
   69709    69838    69993    70133    70228    70272    70271    70278 
   70325    70378    70407    70414    70411    70405    70398    70417 
   70479    70552    70610    70653    70657    70607    70536    70474 
   70424    70376    70359    70384    70424    70440    70432    70410 
   70367    70291    70209    70140    70063    69966    69871    69785 
   69705    69645    69619    69627    69630    69591    69543    69529 
   69506    69427    69342    69338    69426    69541    69635    69726 
   69826    69913    69965    69985    70023    70109    70181    70162 
   70063    69948    69854    69774    69699    69618    69529    69454 
   69430    69457    69483    69476    69453    69418    69352    69265 
   69195    69171    69196    69246    69291    69334    69402    69515 
