Origin Time       2025/01/13 21:19:00
Lat.              31.8
Long.             131.6
Depth. (km)       30
Mag.              6.9
Station Code      EHMH06
Station Lat.      33.3348
Station Long.     132.7980
Station Height(m) 230
Record Time       2025/01/13 21:20:11
Sampling Freq(Hz) 100Hz
Duration Time(s)  145
Dir.              4
Scale Factor      7845(gal)/8223790
Max. Acc. (gal)   4.120
Last Correction   2025/01/13 21:20:11
Memo.             
[...]
   -1517    -1301     -961     -805     -868     -961     -962     -881 
    -710     -538     -575     -859    -1246    -1636    -1949    -2115 
   -2151    -2072    -1860    -1597    -1391    -1264    -1189    -1093 
    -942     -839     -905    -1100    -1343    -1595    -1741    -1686 
   -1525    -1344    -1161    -1073    -1121    -1220    -1298    -1285 
   -1163    -1031     -923     -866     -985    -1215    -1343    -1372 
   -1352    -1256    -1182    -1144    -1024     -897     -885     -970 
   -1165    -1435    -1649    -1722    -1568    -1194     -801     -545 
    -438     -486     -692     -994    -1247    -1335    -1275    -1138 
    -999     -957    -1066    -1285    -1470    -1506    -1404    -1183 
    -918     -791     -859    -1026    -1231    -1420    -1476    -1367 
   -1204    -1078     -967     -874     -876     -963    -1100    -1281 
   -1386    -1394    -1398    -1296    -1065     -915     -896     -990 
   -1201    -1391    -1522    -1634    -1607    -1452    -1377    -1410 
   -1433    -1426    -1382    -1254    -1096     -981     -905     -920 
   -1012    -1038    -1016    -1039    -1112    -1290    -1490    -1517 
   -1385    -1205    -1075    -1080    -1120    -1119    -1148    -1148 
   -1096    -1093    -1069    -1075    -1323    -1676    -1941    -2095 
   -2039    -1827    -1686    -1632    -1598    -1521    -1290     -984 
    -811     -843    -1035    -1232    -1270    -1144     -980     -904 
    -920     -949     -994    -1067    -1111    -1138    -1224    -1401 
   -1602    -1695    -1637    -1453    -1167     -905     -812     -866 
    -957    -1004    -1012    -1015     -999     -973    -1003    -1094 
   -1147    -1080     -942     -820     -715     -631     -637     -757 
    -954    -1200    -1451    -1641    -1777    -1867    -1810    -1541 
   -1170     -885     -777     -850    -1096    -1385    -1536    -1548 
   -1471    -1333    -1204    -1113    -1063    -1063    -1063    -1044 
   -1051    -1112    -1244    -1367    -1379    -1294    -1154    -1035 
   -1078    -1301    -1536    -1594    -1468    -1290    -1115     -935 
    -791     -739     -796     -947    -1154    -1335    -1348    -1071 
    -577     -105      139        5     -504    -1128    -1605    -1836 
   -1732    -1341     -962     -770     -703     -722     -846    -1044 
   -1247    -1374    -1418    -1421    -1401    -1432    -1510    -1483 
   -1339    -1185    -1059     -999     -990     -973     -957     -927 
    -858     -850     -942    -1015    -1067    -1227    -1449    -1514 
   -1368    -1155     -967     -845     -866    -1007    -1154    -1259 
   -1246    -1015     -664     -410     -398     -642    -1003    -1278 
   -1397    -1372    -1221    -1013     -846     -803     -928    -1167 
   -1395    -1449    -1275     -999     -745     -607     -668     -892 
   -1198    -1510    -1713    -1790    -1722    -1437    -1116    -1074 
   -1337    -1701    -2011    -2193    -2131    -1729    -1116     -587 
    -336     -356     -508     -675     -746     -625     -440     -402 
    -500     -687    -1015    -1406    -1699    -1846    -1834    -1611 
   -1174     -631     -206     -114     -376     -791    -1175    -1467 
   -1607    -1580    -1420    -1198    -1121    -1341    -1825    -2467 
   -3028    -3233    -3055    -2547    -1787    -1070     -675     -643 
    -924    -1347    -1653    -1688    -1456    -1032     -619     -490 
    -738    -1215    -1671    -1861    -1676    -1252     -846     -583 
    -494     -615     -858    -1069    -1225    -1313    -1266    -1161 
   -1098    -1051    -1023    -1034    -1051    -1128    -1362    -1699 
   -1946    -1931    -1605    -1108     -733     -615     -675     -909 
   -1270    -1530    -1575    -1308     -642       56      322       94 
    -560    -1459    -2205    -2581    -2512    -1971    -1219     -623 
    -367     -549    -1154    -1830    -2068    -1718    -1046     -405 
    -125     -379    -1098    -2018    -2654    -2652    -2046    -1123 
    -400     -275     -657    -1251    -1690    -1606    -1088     -557 
    -303     -492    -1055    -1740    -2339    -2566    -2263    -1672 
   -1067     -695     -756    -1104    -1499    -1822    -1962    -1973 
   -2000    -1995    -1810    -1462    -1140    -1061    -1266    -1579 
   -1838    -1930    -1678    -1159     -729     -511     -425     -477 
    -641     -822    -1003    -1237    -1497    -1621    -1559    -1413 
   -1283    -1289    -1507    -1844    -2095    -2031    -1568     -955 
    -587     -696    -1192    -1628    -1617    -1209     -637     -162 
    -108     -486     -976    -1404    -1634    -1431     -864     -295 
      13      -68     -618    -1489    -2249    -2488    -2145    -1455 
    -788     -483     -604     -973    -1444    -2000    -2533    -2767 
   -2538    -1923    -1201     -745     -710     -993    -1459    -1892 
   -2042    -1854    -1470    -1125    -1028    -1100    -1043     -750 
    -361      -85     -117     -510    -1024    -1444    -1833    -2204 
   -2349    -2236    -1989    -1624    -1289    -1237    -1429    -1683 
   -1885    -1837    -1445     -939     -592     -525     -656     -834 
    -986    -1062    -1119    -1239    -1274    -1154    -1011     -882 
    -808     -873    -1005    -1061     -961     -826     -889    -1142 
   -1378    -1512    -1540    -1486    -1462    -1553    -1680    -1675 
   -1475    -1128     -777     -691     -999    -1458    -1714    -1613 
   -1254     -868     -673     -780    -1096    -1371    -1478    -1440 
   -1277    -1108    -1063    -1039     -936     -846     -822     -842 
    -797     -569     -252      -54     -122     -589    -1339    -1931 
   -2026    -1609     -909     -396     -548    -1335    -2228    -2725 
   -2609    -1884     -841     -144     -186     -608    -1026    -1391 
   -1489    -1119     -680     -722    -1178    -1717    -2209    -2427 
   -2142    -1576    -1169    -1067    -1093    -1127    -1215    -1258 
   -1193    -1201    -1308    -1378    -1448    -1533    -1513    -1375 
   -1171     -947     -850    -1050    -1539    -2092    -2417    -2416 
   -2178    -1865    -1725    -1849    -1979    -1952    -1850    -1688 
   -1545    -1557    -1605    -1479    -1125     -598      -94      103 
    -156     -781    -1422    -1687    -1444     -886     -395     -241 
    -382     -603     -739     -769     -797     -832     -758     -565 
    -353     -233     -303     -534     -750     -776     -544     -207 
     -97     -371     -920    -1544    -1957    -1937    -1586    -1120 
    -742     -739    -1065    -1341    -1398    -1231     -942     -734 
    -660     -649     -538     -259     -114     -342     -788    -1266 
   -1622    -1680    -1471    -1131     -758     -502     -500     -726 
   -1097    -1561    -1919    -1941    -1675    -1287     -909     -797 
   -1112    -1638    -2079    -2276    -2166    -1860    -1633    -1676 
   -1896    -2033    -1925    -1594    -1189     -946    -1066    -1557 
   -2155    -2511    -2508    -2172    -1606    -1136     -977     -970 
    -970     -919     -699     -360      -78       28     -126     -486 
    -816     -913     -778     -633     -668     -880    -1136    -1242 
   -1036     -538       25      394      400      -17     -737    -1487 
   -1972    -1944    -1460     -920     -676     -824    -1254    -1709 
   -1952    -1969    -1945    -2053    -2278    -2384    -2173    -1780 
   -1414    -1167    -1167    -1451    -1867    -2228    -2423    -2471 
   -2270    -1594     -622       72       67     -635    -1665    -2488 
   -2606    -1887     -778       72      291     -102     -742    -1258 
   -1502    -1382     -926     -396      -98     -206     -629    -1069 
   -1275    -1086     -534      -29       60     -298    -1093    -2158 
   -2979    -3159    -2624    -1551     -483      -31     -330    -1102 
   -1975    -2505    -2385    -1813    -1297    -1215    -1590    -2058 
   -2303    -2305    -2133    -1989    -2139    -2477    -2674    -2536 
   -1914     -839      128      382       14     -476     -891    -1134 
   -1021     -669     -423     -427     -599     -812     -976     -978 
    -808     -621     -498     -373     -326     -487     -738     -976 
   -1212    -1305    -1251    -1243    -1232    -1146    -1108    -1175 
   -1332    -1578    -1767    -1664    -1285     -862     -542     -380 
    -440     -687    -1046    -1370    -1498    -1503    -1459    -1247 
    -962     -874    -1073    -1564    -2253    -2805    -2843    -2223 
   -1175     -174      306       47     -664    -1337    -1821    -2130 
   -2170    -1958    -1678    -1402    -1089     -815     -729     -918 
   -1462    -2265    -2943    -3107    -2602    -1455      -63      741 
     427     -703    -2037    -3090    -3411    -2766    -1553     -603 
    -399     -835    -1706    -2762    -3473    -3418    -2655    -1566 
    -506      272      484      -60    -1128    -2187    -2839    -2899 
   -2307    -1333     -591     -410     -588     -854    -1167    -1502 
   -1777    -2039    -2336    -2457    -2212    -1760    -1286     -783 
    -319      -59      -71     -338     -774    -1185    -1306     -982 
    -368      195      492      481      245     -113     -569    -1094 
   -1566    -1761    -1524    -1058     -804    -1016    -1624    -2247 
   -2450    -2123    -1429     -719     -464     -753    -1208    -1584 
   -1884    -1993    -1829    -1528    -1219     -859     -510     -468 
    -861    -1466    -1998    -2187    -1861    -1170     -479      -68 
       2     -251     -784    -1433    -2027    -2475    -2667    -2457 
   -1815     -924     -105      237     -267    -1517    -2778    -3329 
   -3018    -1993     -619      395      572       67     -847    -1953 
   -2848    -3100    -2533    -1393     -178      695      946      580 
       8     -382     -461     -287      -58       48       14     -105 
    -252     -421     -649     -905    -1144    -1421    -1710    -1819 
   -1642    -1250     -783     -529     -774    -1385    -1972    -2331 
   -2308    -1834    -1266    -1119    -1544    -2289    -2998    -3411 
   -3330    -2633    -1486     -426       -5     -313    -1040    -1841 
   -2309    -2106    -1359     -550     -160     -441    -1183    -1894 
   -2204    -1927    -1094     -132      309      -66     -957    -1807 
   -2127    -1698     -760      102      373      -35     -831    -1661 
   -2208    -2327    -2150    -1803    -1413    -1194    -1205    -1393 
   -1669    -1815    -1591     -876      194     1159     1559     1247 
     375     -692    -1482    -1688    -1337     -653       56      483 
     499      144     -483    -1154    -1606    -1684    -1394     -954 
    -548     -176      102      157      -87     -603    -1150    -1470 
   -1522    -1406    -1254    -1147    -1143    -1359    -1730    -2000 
   -2043    -1819    -1264     -577     -198     -313     -815    -1566 
   -2309    -2747    -2762    -2349    -1617     -885     -486     -600 
   -1215    -2118    -2961    -3410    -3343    -2932    -2401    -1802 
   -1086     -384       99      324      184     -440    -1281    -1914 
   -2124    -1864    -1213     -468      -16      -18     -373     -924 
   -1455    -1686    -1487    -1066     -783     -795    -1080    -1552 
   -1939    -1980    -1722    -1425    -1409    -1813    -2367    -2670 
   -2569    -2155    -1621    -1239    -1259    -1587    -1900    -2010 
   -1786    -1173     -426      105      265       81     -390     -994 
   -1339    -1123     -521       33      180     -220    -1027    -1885 
   -2349    -2146    -1464     -750     -299     -199     -467    -1027 
   -1613    -1964    -2062    -1946    -1560     -965     -399     -121 
    -330    -1034    -1979    -2825    -3325    -3283    -2539    -1262 
    -117      340       99     -616    -1526    -2219    -2385    -2085 
   -1636    -1274    -1074    -1090    -1301    -1549    -1753    -1891 
   -1875    -1721    -1556    -1390    -1170     -947     -787     -702 
    -815    -1174    -1524    -1594    -1277     -645      -35      220 
      29     -542    -1255    -1823    -2182    -2380    -2490    -2612 
   -2667    -2490    -2118    -1699    -1360    -1279    -1559    -1966 
   -2149    -1988    -1543    -1017     -778    -1021    -1607    -2189 
   -2330    -1822     -900        8      427       91     -669    -1227 
   -1259     -792      -75      417      380      -49     -611    -1140 
   -1503    -1676    -1711    -1540    -1084     -486      -64      -16 
    -233     -542     -865    -1104    -1154     -958     -606     -284 
    -135     -267     -795    -1622    -2323    -2547    -2316    -1760 
   -1019     -383      -87     -178     -664    -1451    -2339    -3150 
   -3678    -3766    -3400    -2610    -1556     -592      -39      -33 
    -552    -1360    -2038    -2178    -1638     -738      -71        4 
    -440    -1154    -1898    -2366    -2320    -1831    -1183     -629 
    -348     -454     -842    -1317    -1926    -2670    -3257    -3503 
   -3412    -3006    -2517    -2328    -2569    -3046    -3461    -3520 
   -3063    -2200    -1290     -697     -614     -962    -1470    -1877 
   -1939    -1462     -515      488     1055     1050      722      284 
     -78     -122      133      413      491      286     -180     -737 
   -1112    -1096     -700     -263     -233     -715    -1497    -2281 
   -2674    -2465    -1929    -1611    -1858    -2490    -3063    -3360 
   -3265    -2604    -1537     -648     -321     -473    -1028    -1830 
   -2270    -1776     -313     1587     2972     3121     2131      606 
    -935    -2056    -2189    -1258      -37      565      199     -797 
   -1930    -2886    -3184    -2556    -1474     -635     -411     -834 
   -1757    -2731    -3078    -2597    -1687     -847     -506     -749 
   -1227    -1664    -1923    -1814    -1343     -747     -284     -145 
    -282     -496     -661     -662     -484     -379     -560     -922 
   -1252    -1404    -1286     -999     -807     -845    -1028    -1202 
   -1263    -1282    -1297    -1142     -788     -415     -186     -298 
    -850    -1549    -1972    -1868    -1254     -476       40       94 
    -283     -911    -1575    -2060    -2157    -1935    -1632    -1323 
   -1055     -886     -747     -658     -792    -1248    -1895    -2324 
   -2197    -1575     -633      337      788      504     -140     -776 
   -1235    -1281     -795     -149       64     -348    -1096    -1771 
   -2030    -1701    -1096     -822    -1011    -1297    -1499    -1645 
   -1629    -1436    -1259    -1146    -1017     -904     -869     -870 
    -830     -776     -714     -526     -229       14      186      276 
     148     -234     -820    -1436    -1667    -1217     -298      595 
    1019      780       18     -963    -1896    -2535    -2740    -2582 
   -2241    -1907    -1710    -1644    -1705    -1964    -2388    -2790 
   -3021    -2967    -2562    -1910    -1156     -413       86       89 
    -394    -1179    -1969    -2305    -1923    -1005      -35      415 
      85     -747    -1640    -2243    -2326    -1945    -1514    -1482 
   -1868    -2269    -2430    -2363    -2035    -1475    -1019     -996 
   -1273    -1493    -1516    -1291     -754     -122      178        8 
    -373     -749    -1148    -1543    -1656    -1350     -822     -301 
      75       68     -448    -1227    -1873    -2150    -2010    -1509 
    -784     -156       37     -197     -633    -1097    -1455    -1588 
   -1518    -1321    -1053     -803     -657     -702    -1030    -1555 
   -1993    -2131    -1956    -1561    -1124     -882     -959    -1237 
   -1458    -1453    -1251     -922     -615     -625    -1044    -1552 
   -1741    -1440     -730        8      207     -346    -1355    -2425 
   -3219    -3357    -2712    -1633     -658     -132     -183     -893 
   -2112    -3315    -3892    -3501    -2285     -834      178      440 
      66     -610    -1200    -1374    -1065     -473      166      662 
     909      972      938      850      796      815      804      702 
     603      550      476      372      240       63     -135     -387 
    -696     -961    -1085    -1023     -789     -565     -657    -1174 
   -1883    -2509    -2862    -2763    -2304    -1876    -1804    -2135 
   -2662    -3146    -3472    -3489    -3113    -2581    -2178    -1966 
   -1977    -2209    -2438    -2435    -2258    -2060    -1872    -1733 
   -1729    -1844    -2054    -2328    -2478    -2362    -2034    -1559 
   -1054     -823    -1077    -1711    -2457    -3049    -3233    -2859 
   -2074    -1332    -1134    -1615    -2502    -3464    -4162    -4293 
   -3854    -3132    -2477    -2124    -2104    -2340    -2681    -2857 
   -2754    -2484    -2137    -1763    -1416    -1120     -882     -656 
    -367      -31      249      414      496      537      550      554 
     538      472      324       91     -189     -510     -926    -1386 
   -1694    -1709    -1447    -1040     -673     -444     -325     -274 
    -220     -117      -75     -124      -82      103      328      488 
     426       54     -460     -853     -931     -658     -205      133 
     147     -144     -583     -976    -1140    -1069     -901     -745 
    -718     -884    -1096    -1227    -1255    -1173    -1116    -1271 
   -1553    -1772    -1898    -1919    -1772    -1529    -1390    -1474 
   -1746    -2091    -2324    -2274    -1912    -1347     -778     -432 
    -422     -707    -1124    -1394    -1297     -866     -317       81 
      79     -373    -1062    -1771    -2367    -2698    -2689    -2342 
   -1679     -903     -378     -359     -886    -1761    -2573    -2948 
   -2766    -2120    -1313     -780     -756    -1081    -1516    -1911 
   -2066    -1849    -1356     -859     -699    -1047    -1769    -2639 
   -3396    -3719    -3449    -2774    -2088    -1734    -1817    -2200 
   -2633    -2862    -2766    -2452    -2128    -1910    -1780    -1675 
   -1590    -1532    -1417    -1239    -1159    -1256    -1472    -1753 
   -2006    -2043    -1769    -1360    -1128    -1233    -1555    -1858 
   -1971    -1777    -1314     -865     -692     -785     -981    -1140 
   -1121     -843     -402      -18      124       43     -144     -348 
    -456     -402     -240      -58       54       74       37      -68 
    -197     -303     -495     -805    -1111    -1312    -1347    -1192 
    -913     -714     -839    -1350    -2045    -2685    -3069    -3010 
   -2519    -1930    -1590    -1539    -1653    -1861    -2046    -2072 
   -1961    -1817    -1649    -1441    -1224    -1107    -1182    -1435 
   -1800    -2158    -2303    -2157    -1831    -1479    -1243    -1194 
   -1308    -1530    -1752    -1863    -1858    -1721    -1440    -1136 
    -935     -870     -909     -924     -780     -473      -75      302 
     503      465      249      -79     -454     -703     -621     -153 
     523     1108     1347     1185      783      423      379      747 
    1372     1973     2301     2245     1873     1341      812      464 
     346      326      255       99      -70     -176     -229     -332 
    -643    -1228    -1927    -2494    -2790    -2783    -2586    -2489 
   -2698    -3137    -3589    -3858    -3869    -3686    -3414    -3146 
   -2952    -2812    -2716    -2700    -2705    -2652    -2587    -2544 
   -2547    -2647    -2790    -2876    -2886    -2795    -2593    -2338 
