Origin Time       2025/01/13 21:19:00
Lat.              31.8
Long.             131.6
Depth. (km)       30
Mag.              6.9
Station Code      EHMH13
Station Lat.      33.3719
Station Long.     132.1157
Station Height(m) -212
Record Time       2025/01/13 21:20:22
Sampling Freq(Hz) 100Hz
Duration Time(s)  120
Dir.              1
Scale Factor      2942(gal)/8224139
Max. Acc. (gal)   2.036
Last Correction   2025/01/13 21:20:22
Memo.             
[...]
 -290062  -290120  -290231  -290363  -290467  -290486  -290432  -290345 
 -290233  -290110  -290029  -290007  -290008  -290043  -290146  -290256 
 -290306  -290313  -290282  -290223  -290179  -290170  -290197  -290301 
 -290474  -290664  -290844  -290969  -290992  -290925  -290783  -290547 
 -290250  -289973  -289800  -289791  -289939  -290160  -290374  -290576 
 -290796  -291001  -291141  -291197  -291182  -291111  -291000  -290893 
 -290810  -290734  -290657  -290594  -290567  -290588  -290648  -290707 
 -290738  -290761  -290808  -290849  -290830  -290748  -290628  -290486 
 -290340  -290229  -290177  -290173  -290214  -290286  -290374  -290466 
 -290541  -290592  -290636  -290680  -290729  -290769  -290775  -290746 
 -290725  -290749  -290803  -290810  -290718  -290583  -290487  -290453 
 -290448  -290453  -290480  -290534  -290605  -290663  -290661  -290602 
 -290572  -290636  -290777  -290965  -291172  -291346  -291455  -291498 
 -291466  -291336  -291119  -290884  -290713  -290623  -290576  -290534 
 -290483  -290422  -290339  -290248  -290217  -290247  -290241  -290198 
 -290204  -290267  -290351  -290426  -290495  -290582  -290709  -290857 
 -290966  -290983  -290895  -290772  -290679  -290591  -290463  -290298 
 -290120  -289977  -289901  -289876  -289912  -290042  -290231  -290434 
 -290665  -290910  -291089  -291163  -291142  -291054  -290933  -290811 
 -290745  -290795  -290960  -291189  -291423  -291563  -291552  -291416 
 -291200  -290930  -290687  -290553  -290520  -290547  -290648  -290792 
 -290879  -290866  -290790  -290671  -290517  -290374  -290316  -290358 
 -290447  -290538  -290615  -290653  -290626  -290534  -290444  -290414 
 -290407  -290387  -290402  -290472  -290541  -290565  -290520  -290390 
 -290227  -290113  -290070  -290056  -290032  -289988  -289940  -289919 
 -289950  -290021  -290093  -290150  -290218  -290317  -290432  -290553 
 -290637  -290622  -290514  -290352  -290171  -290016  -289921  -289889 
 -289919  -289993  -290062  -290123  -290216  -290326  -290391  -290409 
 -290414  -290432  -290470  -290511  -290525  -290511  -290490  -290461 
 -290452  -290513  -290661  -290846  -290996  -291073  -291080  -291047 
 -291011  -290993  -290974  -290950  -290941  -290942  -290930  -290889 
 -290837  -290808  -290767  -290665  -290568  -290530  -290522  -290522 
 -290533  -290553  -290590  -290640  -290682  -290700  -290690  -290644 
 -290576  -290511  -290443  -290374  -290320  -290285  -290274  -290298 
 -290362  -290440  -290480  -290484  -290525  -290634  -290802  -291000 
 -291162  -291231  -291209  -291111  -290939  -290703  -290434  -290220 
 -290151  -290248  -290476  -290727  -290889  -290960  -290979  -290947 
 -290899  -290872  -290887  -290943  -291024  -291114  -291193  -291196 
 -291091  -290939  -290822  -290768  -290765  -290768  -290752  -290744 
 -290763  -290777  -290752  -290687  -290592  -290464  -290348  -290294 
 -290266  -290231  -290200  -290182  -290175  -290155  -290101  -290038 
 -290008  -290038  -290100  -290128  -290098  -290077  -290137  -290277 
 -290434  -290580  -290699  -290768  -290764  -290702  -290619  -290557 
 -290580  -290707  -290864  -291012  -291153  -291216  -291142  -290977 
 -290780  -290576  -290416  -290344  -290351  -290385  -290402  -290402 
 -290386  -290320  -290201  -290077  -289971  -289884  -289838  -289836 
 -289832  -289842  -289919  -290029  -290121  -290154  -290098  -290009 
 -289986  -290056  -290191  -290367  -290575  -290802  -290999  -291120 
 -291158  -291134  -291043  -290919  -290815  -290754  -290736  -290741 
 -290707  -290605  -290502  -290461  -290452  -290451  -290499  -290621 
 -290787  -290961  -291105  -291223  -291332  -291419  -291463  -291485 
 -291485  -291433  -291290  -291049  -290733  -290398  -290143  -290025 
 -290020  -290120  -290317  -290530  -290703  -290834  -290892  -290884 
 -290860  -290833  -290812  -290819  -290833  -290853  -290896  -290937 
 -290961  -290989  -291022  -291082  -291195  -291319  -291394  -291375 
 -291261  -291105  -290965  -290856  -290773  -290726  -290723  -290742 
 -290722  -290619  -290470  -290328  -290186  -290015  -289832  -289689 
 -289615  -289619  -289687  -289786  -289889  -289973  -290016  -290019 
 -290023  -290069  -290148  -290220  -290291  -290340  -290316  -290263 
 -290224  -290190  -290189  -290250  -290339  -290426  -290482  -290470 
 -290395  -290295  -290193  -290093  -289958  -289781  -289649  -289611 
 -289657  -289812  -290094  -290432  -290763  -291054  -291242  -291309 
 -291305  -291255  -291158  -291060  -291007  -290984  -290979  -291006 
 -291064  -291162  -291307  -291440  -291519  -291536  -291492  -291389 
 -291250  -291095  -290922  -290737  -290553  -290372  -290212  -290125 
 -290139  -290210  -290308  -290406  -290449  -290424  -290382  -290356 
 -290345  -290362  -290416  -290513  -290630  -290729  -290794  -290804 
 -290746  -290636  -290487  -290299  -290113  -289954  -289822  -289742 
 -289731  -289762  -289807  -289839  -289857  -289905  -289996  -290086 
 -290166  -290241  -290309  -290362  -290383  -290356  -290302  -290247 
 -290169  -290048  -289915  -289805  -289745  -289757  -289827  -289899 
 -289935  -289943  -289935  -289935  -289980  -290051  -290078  -290039 
 -289989  -289971  -289982  -289997  -289992  -289946  -289873  -289822 
 -289820  -289859  -289913  -289969  -290028  -290090  -290133  -290152 
 -290155  -290117  -290007  -289858  -289747  -289711  -289727  -289757 
 -289805  -289890  -290007  -290136  -290268  -290402  -290538  -290659 
 -290741  -290785  -290814  -290838  -290854  -290880  -290950  -291109 
 -291366  -291656  -291902  -292080  -292173  -292156  -292077  -292014 
 -291968  -291942  -291945  -291949  -291967  -292052  -292179  -292273 
 -292256  -292088  -291843  -291625  -291436  -291217  -290926  -290579 
 -290251  -290019  -289896  -289851  -289867  -289923  -289985  -290035 
 -290073  -290090  -290065  -290020  -289992  -289961  -289920  -289908 
 -289951  -290051  -290186  -290320  -290433  -290545  -290673  -290798 
 -290871  -290871  -290852  -290893  -291008  -291130  -291211  -291234 
 -291168  -290981  -290723  -290498  -290371  -290340  -290402  -290530 
 -290663  -290773  -290850  -290872  -290877  -290893  -290888  -290898 
 -290974  -291072  -291147  -291238  -291367  -291487  -291543  -291524 
 -291440  -291307  -291150  -290991  -290834  -290677  -290545  -290471 
 -290455  -290479  -290528  -290602  -290668  -290684  -290663  -290633 
 -290574  -290451  -290287  -290135  -290021  -289959  -289947  -289946 
 -289943  -289982  -290069  -290139  -290151  -290129  -290123  -290143 
 -290159  -290182  -290286  -290505  -290807  -291126  -291384  -291551 
 -291636  -291664  -291690  -291749  -291810  -291832  -291790  -291679 
 -291506  -291286  -291053  -290846  -290652  -290448  -290248  -290105 
 -290052  -290065  -290121  -290243  -290418  -290615  -290818  -290999 
 -291141  -291220  -291181  -291008  -290768  -290528  -290308  -290097 
 -289877  -289653  -289446  -289260  -289101  -288998  -288956  -288944 
 -288964  -289033  -289106  -289136  -289126  -289106  -289094  -289137 
 -289238  -289332  -289373  -289395  -289438  -289521  -289633  -289718 
 -289719  -289660  -289677  -289892  -290287  -290734  -291112  -291358 
 -291473  -291508  -291512  -291500  -291502  -291544  -291581  -291573 
 -291548  -291524  -291454  -291292  -291062  -290845  -290704  -290602 
 -290471  -290308  -290146  -289998  -289859  -289693  -289476  -289264 
 -289130  -289086  -289141  -289288  -289448  -289585  -289723  -289853 
 -289953  -289994  -289946  -289820  -289664  -289542  -289510  -289575 
 -289716  -289919  -290151  -290380  -290584  -290710  -290733  -290700 
 -290671  -290665  -290688  -290744  -290833  -290956  -291095  -291215 
 -291285  -291350  -291477  -291666  -291859  -292025  -292146  -292218 
 -292281  -292395  -292565  -292759  -292913  -292945  -292842  -292670 
 -292473  -292273  -292094  -291917  -291718  -291520  -291357  -291236 
 -291119  -290977  -290817  -290648  -290483  -290341  -290202  -290048 
 -289907  -289808  -289754  -289738  -289743  -289745  -289761  -289832 
 -289965  -290131  -290294  -290420  -290513  -290594  -290699  -290822 
 -290904  -290916  -290861  -290764  -290657  -290532  -290389  -290255 
 -290144  -290079  -290073  -290079  -290081  -290069  -289988  -289799 
 -289568  -289387  -289275  -289214  -289233  -289357  -289566  -289843 
 -290171  -290505  -290791  -291008  -291149  -291196  -291153  -291019 
 -290792  -290525  -290326  -290244  -290271  -290353  -290394  -290376 
 -290397  -290478  -290574  -290677  -290784  -290873  -290912  -290854 
 -290714  -290532  -290302  -290062  -289899  -289818  -289788  -289823 
 -289886  -289912  -289901  -289917  -290008  -290166  -290397  -290719 
 -291074  -291390  -291632  -291756  -291799  -291848  -291922  -292000 
 -292037  -291969  -291818  -291668  -291556  -291458  -291359  -291308 
 -291327  -291366  -291339  -291211  -291012  -290806  -290653  -290606 
 -290673  -290819  -291014  -291243  -291462  -291613  -291671  -291641 
 -291521  -291316  -291097  -290943  -290853  -290781  -290718  -290684 
 -290707  -290798  -290966  -291208  -291481  -291716  -291857  -291864 
 -291764  -291610  -291404  -291142  -290869  -290622  -290395  -290204 
 -290083  -290035  -290038  -290052  -290065  -290097  -290159  -290229 
 -290291  -290313  -290239  -290054  -289780  -289477  -289240  -289113 
 -289052  -288997  -288925  -288839  -288750  -288698  -288684  -288638 
 -288504  -288311  -288118  -287971  -287914  -287969  -288125  -288360 
 -288652  -288975  -289315  -289658  -289997  -290328  -290586  -290704 
 -290707  -290659  -290599  -290568  -290579  -290596  -290595  -290615 
 -290687  -290775  -290831  -290835  -290769  -290660  -290579  -290567 
 -290621  -290727  -290854  -290960  -291023  -291024  -290949  -290817 
 -290669  -290544  -290547  -290750  -291096  -291486  -291868  -292235 
 -292627  -293028  -293382  -293670  -293868  -293961  -293993  -293992 
 -293966  -293926  -293863  -293801  -293773  -293766  -293758  -293735 
 -293677  -293598  -293498  -293340  -293121  -292897  -292697  -292532 
 -292424  -292342  -292223  -292072  -291902  -291666  -291347  -290983 
 -290609  -290237  -289881  -289543  -289207  -288905  -288717  -288642 
 -288609  -288582  -288574  -288604  -288670  -288755  -288829  -288868 
 -288858  -288789  -288654  -288476  -288333  -288287  -288324  -288439 
 -288644  -288935  -289268  -289591  -289854  -290029  -290158  -290321 
 -290507  -290653  -290734  -290745  -290700  -290622  -290529  -290440 
 -290372  -290341  -290383  -290498  -290622  -290699  -290714  -290644 
 -290475  -290240  -289966  -289657  -289348  -289062  -288836  -288758 
 -288847  -289037  -289255  -289433  -289539  -289615  -289728  -289900 
 -290121  -290360  -290569  -290742  -290907  -291055  -291135  -291112 
 -291006  -290911  -290898  -290933  -290972  -291001  -291026  -291012 
 -290926  -290785  -290660  -290588  -290580  -290637  -290742  -290866 
 -290992  -291119  -291262  -291425  -291590  -291747  -291884  -291998 
 -292094  -292196  -292346  -292557  -292793  -292995  -293144  -293294 
 -293476  -293637  -293741  -293777  -293692  -293477  -293187  -292836 
 -292447  -292104  -291824  -291581  -291413  -291361  -291406  -291510 
 -291636  -291739  -291779  -291740  -291635  -291470  -291226  -290893 
 -290503  -290117  -289797  -289566  -289419  -289357  -289392  -289508 
 -289673  -289840  -289980  -290090  -290177  -290213  -290196  -290156 
 -290154  -290182  -290181  -290102  -289954  -289764  -289535  -289242 
 -288883  -288515  -288207  -287980  -287830  -287753  -287725  -287690 
 -287617  -287529  -287424  -287286  -287155  -287068  -287027  -287042 
 -287128  -287262  -287389  -287469  -287481  -287435  -287346  -287217 
 -287069  -286939  -286873  -286880  -286922  -286977  -287074  -287192 
 -287288  -287361  -287419  -287448  -287432  -287375  -287296  -287215 
 -287170  -287208  -287328  -287516  -287768  -288071  -288422  -288809 
 -289141  -289375  -289575  -289768  -289908  -289998  -290081  -290179 
 -290291  -290418  -290592  -290806  -291008  -291197  -291385  -291527 
 -291618  -291741  -291932  -292111  -292212  -292253  -292243  -292168 
 -292049  -291898  -291709  -291502  -291309  -291141  -290996  -290888 
 -290856  -290914  -291045  -291226  -291440  -291718  -292108  -292558 
 -292967  -293301  -293545  -293684  -293747  -293803  -293846  -293815 
 -293695  -293499  -293257  -293024  -292839  -292740  -292765  -292893 
 -293060  -293222  -293344  -293369  -293256  -293021  -292711  -292370 
 -292065  -291836  -291678  -291590  -291568  -291581  -291589  -291563 
 -291496  -291404  -291267  -291045  -290771  -290534  -290378  -290268 
 -290170  -290079  -290032  -290058  -290154  -290324  -290579  -290914 
 -291307  -291693  -292003  -292225  -292387  -292477  -292457  -292360 
 -292268  -292181  -292072  -291964  -291875  -291802  -291749  -291697 
 -291616  -291502  -291363  -291182  -290910  -290521  -290082  -289654 
 -289244  -288871  -288559  -288295  -288106  -288058  -288129  -288212 
 -288274  -288387  -288561  -288701  -288750  -288748  -288770  -288866 
 -289040  -289246  -289448  -289624  -289769  -289897  -290032  -290163 
 -290263  -290360  -290467  -290532  -290538  -290499  -290407  -290267 
 -290090  -289884  -289685  -289553  -289495  -289473  -289462  -289450 
 -289395  -289251  -289005  -288636  -288133  -287545  -286951  -286389 
 -285880  -285450  -285111  -284904  -284851  -284889  -284955  -285079 
 -285294  -285566  -285851  -286105  -286295  -286433  -286540  -286638 
 -286775  -286972  -287251  -287676  -288238  -288881  -289585  -290293 
 -290919  -291438  -291848  -292154  -292368  -292485  -292524  -292543 
 -292577  -292590  -292554  -292488  -292426  -292393  -292384  -292404 
 -292519  -292763  -293114  -293519  -293901  -294223  -294456  -294526 
 -294401  -294173  -293950  -293781  -293673  -293619  -293602  -293571 
 -293481  -293336  -293187  -293106  -293095  -293094  -293076  -293056 
 -293022  -292981  -292941  -292891  -292825  -292759  -292700  -292624 
 -292516  -292396  -292293  -292234  -292265  -292399  -292586  -292742 
 -292801  -292719  -292478  -292164  -291895  -291675  -291458  -291238 
 -291014  -290796  -290610  -290471  -290394  -290355  -290291  -290164 
 -289959  -289680  -289354  -289003  -288644  -288328  -288107  -288018 
 -288084  -288273  -288520  -288783  -289013  -289176  -289268  -289298 
 -289300  -289323  -289395  -289511  -289618  -289670  -289676  -289672 
 -289723  -289896  -290169  -290452  -290702  -290912  -291065  -291127 
 -291100  -291018  -290939  -290895  -290888  -290937  -291050  -291189 
 -291312  -291393  -291413  -291350  -291204  -291046  -290952  -290930 
 -290942  -290949  -290945  -290969  -291058  -291188  -291258  -291193 
 -291014  -290785  -290547  -290312  -290093  -289936  -289893  -289944 
 -290013  -290056  -290097  -290160  -290252  -290370  -290471  -290470 
 -290351  -290187  -290069  -290046  -290121  -290258  -290453  -290757 
 -291112  -291397  -291552  -291548  -291392  -291130  -290806  -290488 
 -290251  -290075  -289907  -289724  -289499  -289232  -288991  -288832 
 -288773  -288832  -288945  -289026  -289055  -289052  -289041  -289035 
 -289012  -288967  -288912  -288836  -288732  -288612  -288480  -288337 
 -288211  -288129  -288103  -288145  -288254  -288377  -288431  -288376 
 -288246  -288110  -287999  -287932  -287938  -288045  -288247  -288500 
 -288748  -288995  -289284  -289631  -290000  -290316  -290507  -290567 
 -290548  -290491  -290407  -290298  -290169  -290050  -289958  -289865 
 -289778  -289751  -289774  -289800  -289812  -289793  -289728  -289650 
 -289635  -289739  -289921  -290108  -290275  -290428  -290555  -290650 
 -290736  -290841  -290992  -291189  -291392  -291532  -291556  -291493 
 -291400  -291316  -291235  -291099  -290887  -290659  -290443  -290259 
 -290182  -290255  -290463  -290779  -291132  -291460  -291790  -292150 
 -292497  -292809  -293087  -293313  -293490  -293656  -293809  -293904 
 -293901  -293834  -293749  -293639  -293522  -293448  -293419  -293426 
 -293471  -293498  -293426  -293283  -293166  -293075  -292947  -292789 
 -292642  -292493  -292331  -292121  -291826  -291508  -291261  -291087 
 -290919  -290718  -290480  -290239  -290004  -289751  -289484  -289240 
 -289043  -288904  -288804  -288702  -288590  -288505  -288462  -288441 
 -288439  -288463  -288497  -288547  -288631  -288742  -288866  -289022 
 -289236  -289506  -289824  -290186  -290542  -290860  -291168  -291455 
 -291706  -291983  -292319  -292669  -292999  -293319  -293635  -293936 
 -294217  -294472  -294676  -294804  -294830  -294741  -294551  -294325 
 -294104  -293878  -293612  -293274  -292858  -292410  -291942  -291428 
 -290912  -290467  -290090  -289776  -289541  -289354  -289190  -289087 
 -289076  -289130  -289226  -289360  -289511  -289647  -289784  -289936 
 -290056  -290129  -290205  -290299  -290382  -290426  -290440  -290432 
 -290402  -290340  -290223  -290032  -289785  -289526  -289291  -289090 
 -288952  -288901  -288885  -288847  -288827  -288858  -288904  -288962 
 -289059  -289182  -289333  -289545  -289801  -290077  -290360  -290610 
 -290738  -290703  -290545  -290331  -290082  -289778  -289437  -289122 
 -288882  -288716  -288581  -288472  -288414  -288380  -288339  -288347 
 -288434  -288535  -288600  -288620  -288594  -288551  -288544  -288625 
 -288805  -289048  -289291  -289479  -289595  -289683  -289805  -289938 
 -290024  -290085  -290164  -290263  -290393  -290568  -290768  -290958 
 -291097  -291146  -291107  -291038  -290950  -290796  -290594  -290399 
 -290227  -290081  -289961  -289834  -289692  -289572  -289487  -289437 
 -289431  -289479  -289596  -289764  -289923  -290073  -290231  -290378 
 -290518  -290655  -290777  -290906  -291041  -291181  -291351  -291547 
 -291756  -292013  -292330  -292692  -293085  -293473  -293818  -294108 
 -294362  -294576  -294679  -294622  -294479  -294309  -294082  -293785 
 -293430  -293014  -292570  -292162  -291830  -291600  -291438  -291289 
 -291123  -290941  -290736  -290497  -290217  -289935  -289692  -289498 
 -289376  -289353  -289418  -289560  -289765  -289988  -290151  -290227 
 -290262  -290295  -290313  -290282  -290182  -290011  -289776  -289462 
 -289087  -288742  -288501  -288378  -288376  -288490  -288684  -288945 
 -289286  -289654  -290001  -290331  -290664  -291008  -291361  -291730 
 -292127  -292539  -292955  -293365  -293712  -293949  -294088  -294202 
 -294370  -294580  -294736  -294745  -294607  -294378  -294085  -293715 
 -293247  -292697  -292156  -291686  -291265  -290857  -290445  -290017 
 -289608  -289256  -288933  -288603  -288258  -287863  -287413  -286961 
 -286528  -286132  -285850  -285746  -285816  -285984  -286159  -286316 
 -286476  -286659  -286872  -287128  -287412  -287698  -288000  -288351 
 -288742  -289145  -289553  -289934  -290228  -290434  -290619  -290852 
 -291154  -291482  -291772  -292045  -292322  -292545  -292696  -292827 
 -292916  -292945  -292954  -292925  -292840  -292740  -292643  -292569 
 -292538  -292557  -292650  -292843  -293090  -293305  -293441  -293515 
 -293579  -293672  -293778  -293846  -293847  -293776  -293641  -293475 
 -293299  -293141  -293022  -292933  -292833  -292685  -292496  -292293 
