Origin Time       2025/01/13 21:19:00
Lat.              31.8
Long.             131.6
Depth. (km)       30
Mag.              6.9
Station Code      EHMH03
Station Lat.      33.9154
Station Long.     133.6497
Station Height(m) 204.5
Record Time       2025/01/13 21:20:32
Sampling Freq(Hz) 100Hz
Duration Time(s)  125
Dir.              1
Scale Factor      3923(gal)/8224838
Max. Acc. (gal)   0.728
Last Correction   2025/01/13 21:20:32
Memo.             
[...]
  -17131   -17070   -17038   -17028   -16995   -16933   -16888   -16879 
  -16877   -16872   -16858   -16841   -16839   -16857   -16880   -16916 
  -16965   -17004   -17032   -17069   -17118   -17166   -17216   -17284 
  -17356   -17405   -17440   -17493   -17571   -17653   -17721   -17760 
  -17774   -17779   -17776   -17766   -17755   -17740   -17710   -17678 
  -17670   -17676   -17663   -17622   -17577   -17537   -17506   -17491 
  -17487   -17482   -17463   -17424   -17381   -17350   -17325   -17296 
  -17261   -17226   -17197   -17186   -17200   -17230   -17261   -17286 
  -17308   -17317   -17320   -17335   -17355   -17352   -17317   -17285 
  -17271   -17263   -17248   -17234   -17223   -17200   -17166   -17149 
  -17142   -17127   -17112   -17107   -17108   -17130   -17170   -17199 
  -17211   -17226   -17238   -17231   -17207   -17173   -17155   -17186 
  -17266   -17348   -17400   -17427   -17437   -17448   -17481   -17518 
  -17539   -17536   -17525   -17508   -17470   -17424   -17386   -17336 
  -17280   -17243   -17217   -17182   -17150   -17134   -17130   -17135 
  -17155   -17185   -17204   -17209   -17211   -17221   -17239   -17251 
  -17255   -17250   -17224   -17182   -17143   -17101   -17062   -17045 
  -17038   -17018   -16977   -16939   -16922   -16906   -16883   -16869 
  -16868   -16868   -16866   -16852   -16831   -16825   -16829   -16838 
  -16860   -16889   -16904   -16904   -16920   -16954   -16987   -17032 
  -17099   -17145   -17150   -17145   -17140   -17120   -17089   -17072 
  -17064   -17049   -17026   -17001   -16977   -16970   -16996   -17032 
  -17046   -17038   -17028   -17027   -17046   -17084   -17127   -17170 
  -17221   -17269   -17290   -17297   -17313   -17343   -17369   -17389 
  -17423   -17466   -17510   -17560   -17587   -17577   -17577   -17601 
  -17608   -17591   -17574   -17554   -17521   -17494   -17470   -17420 
  -17361   -17324   -17290   -17236   -17196   -17180   -17162   -17136 
  -17116   -17116   -17139   -17169   -17178   -17166   -17154   -17146 
  -17136   -17132   -17142   -17157   -17159   -17143   -17105   -17057 
  -17016   -16991   -16972   -16958   -16954   -16961   -16972   -16981 
  -17005   -17039   -17061   -17073   -17080   -17078   -17082   -17101 
  -17127   -17146   -17174   -17217   -17248   -17273   -17328   -17408 
  -17473   -17516   -17545   -17575   -17614   -17670   -17730   -17783 
  -17820   -17834   -17834   -17825   -17813   -17795   -17771   -17734 
  -17679   -17616   -17570   -17517   -17416   -17293   -17213   -17173 
  -17135   -17093   -17066   -17039   -16989   -16937   -16906   -16872 
  -16821   -16788   -16785   -16768   -16741   -16730   -16708   -16669 
  -16663   -16690   -16706   -16710   -16725   -16753   -16775   -16783 
  -16788   -16795   -16808   -16833   -16868   -16912   -16958   -16996 
  -17039   -17086   -17119   -17142   -17190   -17280   -17367   -17433 
  -17504   -17570   -17620   -17678   -17755   -17820   -17859   -17895 
  -17941   -17971   -17973   -17968   -17971   -17995   -18048   -18095 
  -18099   -18077   -18061   -18060   -18061   -18052   -18031   -18007 
  -17972   -17915   -17867   -17857   -17875   -17892   -17910   -17940 
  -17983   -18023   -18048   -18049   -18033   -18017   -18015   -18018 
  -18014   -18007   -17998   -17971   -17930   -17892   -17857   -17818 
  -17787   -17771   -17767   -17764   -17756   -17747   -17734   -17721 
  -17734   -17776   -17798   -17780   -17749   -17707   -17624   -17516 
  -17433   -17367   -17285   -17196   -17120   -17054   -16980   -16900 
  -16842   -16792   -16722   -16636   -16557   -16509   -16478   -16448 
  -16441   -16465   -16488   -16507   -16548   -16600   -16645   -16686 
  -16740   -16810   -16881   -16953   -17019   -17064   -17092   -17134 
  -17186   -17219   -17226   -17238   -17253   -17242   -17207   -17165 
  -17126   -17082   -17039   -16999   -16964   -16943   -16947   -16966 
  -16983   -16997   -17010   -17005   -16991   -16977   -16956   -16930 
  -16922   -16906   -16862   -16815   -16779   -16753   -16742   -16741 
  -16740   -16737   -16734   -16740   -16764   -16794   -16803   -16802 
  -16835   -16916   -17003   -17074   -17155   -17240   -17308   -17358 
  -17396   -17431   -17470   -17504   -17524   -17537   -17556   -17574 
  -17577   -17572   -17578   -17570   -17544   -17547   -17593   -17636 
  -17668   -17721   -17772   -17780   -17757   -17736   -17699   -17643 
  -17586   -17540   -17496   -17450   -17402   -17358   -17316   -17267 
  -17209   -17138   -17055   -16981   -16930   -16911   -16920   -16929 
  -16912   -16885   -16869   -16865   -16854   -16821   -16783   -16752 
  -16719   -16679   -16638   -16588   -16506   -16410   -16340   -16305 
  -16289   -16275   -16255   -16247   -16270   -16318   -16374   -16433 
  -16510   -16596   -16691   -16803   -16915   -17001   -17073   -17151 
  -17235   -17312   -17378   -17428   -17454   -17470   -17509   -17559 
  -17583   -17593   -17612   -17625   -17614   -17593   -17574   -17548 
  -17508   -17473   -17450   -17435   -17431   -17421   -17371   -17285 
  -17201   -17140   -17101   -17061   -16999   -16930   -16883   -16857 
  -16822   -16765   -16721   -16700   -16671   -16634   -16627   -16660 
  -16714   -16768   -16816   -16857   -16900   -16949   -17001   -17055 
  -17113   -17176   -17235   -17290   -17347   -17400   -17440   -17460 
  -17470   -17483   -17490   -17481   -17473   -17470   -17467   -17460 
  -17443   -17404   -17344   -17275   -17216   -17181   -17157   -17132 
  -17105   -17073   -17046   -17043   -17062   -17084   -17096   -17105 
  -17143   -17201   -17240   -17263   -17298   -17336   -17366   -17413 
  -17487   -17555   -17585   -17602   -17621   -17617   -17586   -17552 
  -17506   -17437   -17383   -17363   -17355   -17355   -17367   -17385 
  -17405   -17443   -17496   -17547   -17594   -17636   -17674   -17713 
  -17745   -17753   -17749   -17747   -17752   -17753   -17733   -17699 
  -17663   -17620   -17568   -17512   -17444   -17359   -17270   -17181 
  -17091   -16993   -16892   -16794   -16695   -16592   -16501   -16416 
  -16328   -16251   -16201   -16164   -16124   -16093   -16094   -16119 
  -16141   -16163   -16190   -16227   -16271   -16336   -16417   -16507 
  -16611   -16719   -16819   -16910   -16995   -17062   -17099   -17118 
  -17151   -17209   -17284   -17373   -17474   -17575   -17666   -17761 
  -17861   -17940   -17994   -18036   -18065   -18076   -18077   -18084 
  -18102   -18119   -18121   -18107   -18090   -18069   -18040   -18009 
  -17982   -17953   -17906   -17847   -17801   -17767   -17726   -17678 
  -17641   -17622   -17616   -17609   -17601   -17598   -17604   -17617 
  -17635   -17656   -17686   -17729   -17784   -17849   -17922   -17994 
  -18060   -18129   -18192   -18234   -18265   -18304   -18341   -18364 
  -18380   -18401   -18418   -18435   -18453   -18457   -18445   -18434 
  -18431   -18434   -18438   -18446   -18453   -18451   -18435   -18404 
  -18355   -18304   -18254   -18185   -18102   -18029   -17963   -17899 
  -17852   -17813   -17772   -17748   -17741   -17721   -17679   -17633 
  -17598   -17564   -17527   -17487   -17446   -17394   -17334   -17270 
  -17199   -17108   -17012   -16927   -16842   -16735   -16629   -16541 
  -16465   -16397   -16337   -16286   -16235   -16189   -16150   -16125 
  -16128   -16154   -16181   -16221   -16282   -16343   -16402   -16480 
  -16565   -16632   -16681   -16733   -16791   -16845   -16897   -16947 
  -16989   -17031   -17080   -17123   -17150   -17170   -17197   -17228 
  -17236   -17228   -17221   -17208   -17194   -17193   -17196   -17203 
  -17220   -17240   -17258   -17269   -17277   -17296   -17331   -17375 
  -17425   -17477   -17531   -17582   -17622   -17643   -17644   -17639 
  -17639   -17637   -17635   -17652   -17689   -17712   -17710   -17712 
  -17729   -17751   -17772   -17799   -17825   -17834   -17837   -17840 
  -17842   -17838   -17810   -17753   -17687   -17628   -17567   -17504 
  -17444   -17392   -17343   -17282   -17200   -17104   -17014   -16931 
  -16857   -16791   -16730   -16671   -16618   -16576   -16540   -16506 
  -16479   -16453   -16434   -16445   -16484   -16530   -16578   -16636 
  -16699   -16753   -16799   -16852   -16903   -16942   -16977   -17034 
  -17096   -17142   -17182   -17228   -17265   -17280   -17286   -17297 
  -17308   -17317   -17332   -17350   -17358   -17363   -17366   -17354 
  -17327   -17294   -17254   -17205   -17163   -17134   -17105   -17073 
  -17042   -17015   -16993   -16972   -16946   -16927   -16927   -16933 
  -16926   -16908   -16902   -16915   -16930   -16933   -16922   -16907 
  -16899   -16900   -16906   -16910   -16912   -16920   -16939   -16957 
  -16969   -16981   -16999   -17007   -16992   -16966   -16946   -16934 
  -16926   -16914   -16897   -16879   -16865   -16857   -16872   -16907 
  -16943   -16970   -16999   -17039   -17086   -17145   -17212   -17271 
  -17307   -17328   -17343   -17339   -17317   -17285   -17243   -17184 
  -17127   -17097   -17081   -17057   -17037   -17023   -16997   -16968 
  -16962   -16973   -16978   -16991   -17028   -17084   -17155   -17251 
  -17354   -17437   -17505   -17570   -17633   -17691   -17749   -17825 
  -17910   -17983   -18040   -18084   -18119   -18157   -18202   -18242 
  -18269   -18285   -18299   -18314   -18323   -18322   -18297   -18242 
  -18175   -18106   -18030   -17945   -17859   -17764   -17651   -17531 
  -17412   -17286   -17150   -17018   -16897   -16788   -16703   -16645 
  -16600   -16557   -16511   -16478   -16452   -16430   -16429   -16449 
  -16464   -16479   -16513   -16555   -16587   -16610   -16629   -16653 
  -16691   -16737   -16781   -16823   -16870   -16915   -16946   -16977 
  -17023   -17069   -17105   -17132   -17150   -17169   -17211   -17285 
  -17374   -17452   -17505   -17544   -17575   -17594   -17602   -17612 
  -17624   -17640   -17660   -17664   -17645   -17624   -17612   -17598 
  -17587   -17587   -17579   -17545   -17509   -17497   -17505   -17516 
  -17525   -17540   -17554   -17551   -17555   -17579   -17604   -17609 
  -17617   -17637   -17653   -17666   -17686   -17707   -17717   -17722 
  -17729   -17728   -17709   -17691   -17687   -17682   -17659   -17618 
  -17564   -17504   -17439   -17377   -17315   -17240   -17155   -17072 
  -16995   -16933   -16895   -16881   -16881   -16884   -16881   -16877 
  -16880   -16885   -16883   -16873   -16854   -16821   -16780   -16734 
  -16684   -16642   -16613   -16591   -16578   -16568   -16560   -16548 
  -16530   -16518   -16521   -16530   -16553   -16600   -16663   -16727 
  -16791   -16857   -16935   -17023   -17115   -17215   -17320   -17427 
  -17539   -17655   -17771   -17882   -17980   -18057   -18114   -18162 
  -18207   -18247   -18288   -18330   -18364   -18385   -18400   -18415 
  -18428   -18428   -18407   -18366   -18322   -18277   -18231   -18200 
  -18173   -18127   -18076   -18023   -17955   -17865   -17775   -17689 
  -17598   -17502   -17408   -17323   -17242   -17155   -17078   -17024 
  -16992   -16981   -16992   -17012   -17039   -17080   -17128   -17174 
  -17217   -17263   -17302   -17331   -17350   -17359   -17370   -17393 
  -17424   -17436   -17427   -17409   -17381   -17329   -17263   -17196 
  -17128   -17059   -16997   -16945   -16907   -16880   -16853   -16815 
  -16765   -16708   -16657   -16621   -16590   -16548   -16495   -16441 
  -16387   -16332   -16281   -16240   -16208   -16178   -16151   -16121 
  -16093   -16069   -16050   -16032   -16023   -16027   -16043   -16071 
  -16109   -16144   -16179   -16216   -16248   -16279   -16308   -16335 
  -16372   -16433   -16501   -16565   -16636   -16707   -16767   -16814 
  -16858   -16912   -16980   -17054   -17127   -17208   -17298   -17390 
  -17483   -17570   -17640   -17702   -17771   -17860   -17959   -18048 
  -18129   -18202   -18260   -18308   -18349   -18373   -18389   -18405 
  -18418   -18422   -18431   -18443   -18443   -18427   -18409   -18392 
  -18370   -18353   -18343   -18331   -18314   -18289   -18254   -18198 
  -18122   -18038   -17960   -17894   -17836   -17775   -17712   -17655 
  -17612   -17582   -17562   -17537   -17491   -17436   -17392   -17361 
  -17324   -17277   -17230   -17178   -17119   -17054   -16988   -16922 
  -16854   -16785   -16721   -16675   -16640   -16594   -16552   -16544 
  -16557   -16568   -16578   -16600   -16640   -16690   -16749   -16816 
  -16895   -16974   -17054   -17138   -17224   -17308   -17396   -17491 
  -17583   -17658   -17725   -17802   -17887   -17969   -18044   -18115 
  -18177   -18219   -18242   -18261   -18288   -18319   -18341   -18350 
  -18353   -18345   -18318   -18279   -18239   -18199   -18145   -18080 
  -18014   -17942   -17857   -17755   -17647   -17547   -17459   -17373 
  -17273   -17172   -17085   -17012   -16950   -16893   -16829   -16749 
  -16677   -16626   -16580   -16541   -16517   -16505   -16503   -16511 
  -16528   -16542   -16545   -16536   -16532   -16549   -16578   -16607 
  -16632   -16645   -16656   -16669   -16687   -16699   -16698   -16681 
  -16660   -16642   -16638   -16657   -16691   -16723   -16748   -16762 
  -16769   -16775   -16789   -16807   -16825   -16839   -16853   -16876 
  -16900   -16912   -16927   -16950   -16964   -16968   -16980   -16999 
  -17015   -17035   -17081   -17149   -17216   -17281   -17350   -17413 
  -17481   -17572   -17679   -17784   -17894   -18006   -18104   -18195 
  -18285   -18366   -18430   -18481   -18532   -18582   -18628   -18675 
  -18723   -18756   -18781   -18802   -18806   -18785   -18755   -18733 
  -18715   -18684   -18643   -18604   -18557   -18497   -18434   -18368 
  -18303   -18247   -18196   -18130   -18054   -17980   -17909   -17824 
  -17728   -17626   -17516   -17394   -17281   -17184   -17092   -16989 
  -16875   -16760   -16657   -16560   -16464   -16375   -16295   -16222 
  -16162   -16121   -16100   -16087   -16093   -16120   -16158   -16197 
  -16245   -16308   -16378   -16445   -16506   -16567   -16633   -16698 
  -16761   -16827   -16893   -16958   -17028   -17103   -17176   -17236 
  -17285   -17327   -17361   -17388   -17420   -17463   -17509   -17547 
  -17581   -17608   -17621   -17636   -17653   -17656   -17645   -17640 
  -17644   -17640   -17629   -17628   -17632   -17628   -17622   -17626 
  -17633   -17639   -17635   -17618   -17609   -17612   -17621   -17628 
  -17632   -17632   -17636   -17639   -17645   -17655   -17652   -17633 
  -17614   -17601   -17587   -17579   -17582   -17583   -17567   -17540 
  -17516   -17485   -17444   -17398   -17342   -17274   -17208   -17157 
  -17116   -17070   -17008   -16938   -16875   -16818   -16773   -16744 
  -16721   -16694   -16664   -16637   -16614   -16602   -16606   -16622 
  -16627   -16614   -16596   -16586   -16573   -16564   -16561   -16571 
  -16594   -16627   -16663   -16696   -16733   -16771   -16808   -16848 
  -16895   -16943   -16995   -17050   -17109   -17173   -17235   -17292 
  -17343   -17396   -17446   -17486   -17517   -17551   -17591   -17631 
  -17668   -17709   -17743   -17755   -17749   -17737   -17717   -17695 
  -17676   -17653   -17628   -17613   -17606   -17598   -17585   -17555 
  -17516   -17486   -17460   -17427   -17392   -17363   -17348   -17347 
  -17356   -17377   -17398   -17415   -17429   -17446   -17466   -17491 
  -17517   -17548   -17587   -17635   -17682   -17722   -17757   -17790 
  -17815   -17840   -17864   -17882   -17894   -17901   -17891   -17865 
  -17825   -17768   -17703   -17643   -17587   -17531   -17466   -17398 
  -17339   -17286   -17221   -17146   -17070   -17003   -16945   -16897 
  -16860   -16823   -16783   -16745   -16708   -16669   -16644   -16645 
  -16656   -16659   -16657   -16660   -16664   -16684   -16730   -16784 
  -16826   -16852   -16872   -16889   -16919   -16969   -17023   -17062 
  -17091   -17118   -17140   -17169   -17215   -17271   -17329   -17386 
  -17452   -17536   -17629   -17710   -17778   -17842   -17906   -17964 
  -18013   -18058   -18104   -18146   -18176   -18199   -18222   -18237 
  -18233   -18218   -18207   -18200   -18189   -18177   -18166   -18148 
  -18121   -18081   -18033   -17983   -17934   -17883   -17825   -17756 
  -17680   -17605   -17527   -17454   -17396   -17347   -17293   -17239 
  -17204   -17177   -17153   -17136   -17126   -17095   -17051   -17023 
  -17014   -17001   -16991   -16992   -16987   -16968   -16950   -16939 
  -16927   -16908   -16885   -16869   -16860   -16854   -16848   -16843 
  -16843   -16839   -16825   -16807   -16796   -16794   -16791   -16784 
  -16779   -16772   -16767   -16768   -16773   -16784   -16806   -16839 
  -16876   -16910   -16943   -16976   -17004   -17027   -17045   -17065 
  -17092   -17130   -17176   -17220   -17259   -17298   -17335   -17369 
  -17400   -17423   -17440   -17459   -17478   -17494   -17506   -17514 
  -17524   -17531   -17531   -17532   -17536   -17527   -17504   -17490 
  -17500   -17516   -17525   -17537   -17551   -17547   -17531   -17520 
  -17509   -17489   -17471   -17464   -17462   -17450   -17433   -17424 
  -17413   -17394   -17367   -17344   -17323   -17293   -17261   -17235 
  -17211   -17180   -17153   -17130   -17101   -17065   -17034   -17007 
  -16983   -16964   -16953   -16954   -16962   -16962   -16956   -16958 
  -16977   -17004   -17032   -17055   -17077   -17093   -17108   -17132 
  -17155   -17162   -17151   -17139   -17140   -17145   -17140   -17131 
  -17123   -17119   -17116   -17116   -17113   -17107   -17105   -17113 
  -17124   -17140   -17163   -17197   -17239   -17271   -17285   -17290 
  -17292   -17297   -17305   -17312   -17316   -17320   -17327   -17342 
  -17356   -17361   -17362   -17365   -17370   -17379   -17397   -17410 
  -17408   -17389   -17359   -17334   -17315   -17293   -17258   -17208 
  -17150   -17086   -17016   -16941   -16869   -16807   -16746   -16690 
  -16634   -16569   -16492   -16411   -16329   -16255   -16193   -16137 
  -16085   -16044   -16009   -15973   -15942   -15925   -15924   -15928 
  -15942   -15961   -15974   -15990   -16025   -16089   -16178   -16272 
  -16360   -16444   -16529   -16615   -16706   -16787   -16857   -16934 
  -17015   -17096   -17184   -17277   -17365   -17440   -17506   -17571 
  -17644   -17721   -17791   -17848   -17894   -17929   -17964   -17999 
  -18031   -18064   -18095   -18122   -18142   -18154   -18164   -18172 
  -18169   -18157   -18137   -18112   -18090   -18076   -18065   -18044 
  -18022   -18010   -17995   -17976   -17957   -17925   -17887   -17852 
  -17824   -17807   -17793   -17767   -17730   -17693   -17658   -17629 
  -17612   -17601   -17590   -17578   -17567   -17556   -17545   -17541 
  -17539   -17535   -17529   -17525   -17531   -17547   -17566   -17575 
  -17575   -17575   -17583   -17602   -17624   -17635   -17632   -17625 
  -17620   -17620   -17622   -17621   -17613   -17602   -17591   -17577 
  -17551   -17517   -17481   -17446   -17410   -17375   -17336   -17289 
  -17244   -17211   -17181   -17151   -17118   -17069   -17010   -16954 
  -16911   -16879   -16852   -16831   -16811   -16787   -16756   -16722 
  -16692   -16671   -16657   -16650   -16650   -16650   -16648   -16644 
  -16638   -16637   -16640   -16634   -16625   -16615   -16599   -16575 
  -16556   -16553   -16553   -16546   -16544   -16542   -16533   -16526 
  -16533   -16538   -16529   -16524   -16540   -16571   -16606   -16649 
