Origin Time       2025/01/13 21:19:00
Lat.              31.8
Long.             131.6
Depth. (km)       30
Mag.              6.9
Station Code      EHMH05
Station Lat.      33.7112
Station Long.     132.8032
Station Height(m) 140
Record Time       2025/01/13 21:20:16
Sampling Freq(Hz) 100Hz
Duration Time(s)  130
Dir.              5
Scale Factor      7845(gal)/8223790
Max. Acc. (gal)   2.023
Last Correction   2025/01/13 21:20:18
Memo.             
[...]
    2018     1931     1950     2072     2258     2435     2525     2587 
    2718     2879     2979     3007     2984     2911     2751     2535 
    2393     2330     2289     2382     2641     2889     3015     3025 
    2874     2639     2533     2573     2601     2604     2563     2420 
    2338     2455     2623     2686     2623     2432     2195     2041 
    2053     2220     2412     2527     2623     2712     2691     2570 
    2430     2349     2479     2839     3156     3198     2978     2552 
    2034     1656     1545     1652     1935     2313     2610     2694 
    2579     2378     2239     2272     2463     2705     2845     2708 
    2249     1769     1663     1930     2330     2691     2802     2578 
    2351     2384     2571     2763     2809     2623     2409     2407 
    2570     2694     2639     2450     2265     2141     2133     2281 
    2474     2583     2623     2627     2571     2465     2389     2428 
    2555     2674     2778     2837     2728     2496     2284     2135 
    2170     2388     2479     2350     2255     2339     2542     2727 
    2837     2853     2660     2378     2289     2323     2342     2446 
    2587     2605     2529     2390     2188     2054     2097     2281 
    2470     2524     2434     2335     2332     2381     2386     2396 
    2451     2458     2370     2288     2354     2625     2924     3011 
    2855     2594     2359     2227     2169     2091     2046     2169 
    2444     2755     2922     2778     2420     2161     2176     2367 
    2524     2496     2305     2153     2215     2474     2797     3021 
    3030     2899     2806     2758     2663     2544     2459     2396 
    2270     2069     1953     1976     2030     2154     2340     2413 
    2373     2273     2077     1912     1904     2011     2235     2558 
    2801     2871     2822     2744     2744     2814     2763     2532 
    2297     2207     2272     2470     2713     2787     2539     2180 
    2035     2101     2278     2582     2878     2998     2944     2772 
    2627     2573     2447     2222     2084     2072     2143     2304 
    2454     2488     2380     2193     2114     2172     2176     2145 
    2281     2533     2659     2629     2546     2313     1937     1705 
    1760     2049     2525     2990     3198     3129     2879     2556 
    2266     2103     2085     2087     2058     2062     2097     2189 
    2342     2458     2435     2272     2176     2328     2569     2664 
    2629     2571     2521     2529     2659     2756     2631     2421 
    2293     2176     2111     2211     2413     2654     2852     2882 
    2781     2668     2583     2548     2562     2539     2458     2409 
    2417     2497     2658     2785     2764     2581     2335     2223 
    2259     2305     2378     2515     2617     2612     2529     2471 
    2436     2276     2058     2015     2130     2331     2646     2909 
    2884     2628     2377     2188     1977     1806     1795     1911 
    2134     2551     3007     3194     3111     2901     2484     1962 
    1745     1872     2025     2131     2289     2461     2637     2860 
    3063     3082     2894     2677     2536     2470     2593     2886 
    3010     2832     2600     2461     2419     2502     2662     2724 
    2552     2261     2128     2187     2289     2404     2516     2516 
    2346     2080     1875     1853     2030     2308     2543     2589 
    2466     2353     2350     2515     2832     3075     3109     3037 
    2932     2871     2855     2718     2498     2390     2401     2497 
    2639     2686     2598     2461     2371     2350     2277     2070 
    1822     1667     1787     2232     2691     2875     2829     2623 
    2280     1993     1900     1926     2050     2299     2589     2849 
    3001     2943     2739     2524     2296     2141     2270     2551 
    2652     2647     2710     2752     2774     2806     2727     2577 
    2505     2502     2532     2594     2662     2705     2701     2697 
    2748     2731     2552     2411     2490     2686     2825     2806 
    2602     2423     2477     2654     2791     2875     2816     2570 
    2377     2380     2448     2554     2718     2681     2316     1914 
    1663     1588     1788     2115     2262     2278     2330     2373 
    2436     2589     2706     2739     2718     2547     2304     2263 
    2362     2388     2397     2488     2613     2724     2755     2679 
    2566     2450     2336     2246     2168     2189     2331     2355 
    2250     2297     2463     2513     2457     2403     2442     2627 
    2874     3072     3091     2754     2200     1883     1973     2227 
    2404     2515     2569     2533     2590     2829     3046     3080 
    2902     2555     2245     2180     2343     2539     2515     2169 
    1740     1642     2045     2725     3285     3406     3069     2521 
    2061     1891     1921     1933     1976     2178     2462     2702 
    2814     2754     2619     2536     2506     2485     2425     2335 
    2297     2397     2605     2770     2795     2721     2596     2442 
    2282     2178     2182     2242     2335     2582     2855     2806 
    2536     2417     2469     2524     2521     2397     2177     2080 
    2224     2505     2668     2516     2253     2253     2469     2673 
    2799     2751     2508     2266     2142     2124     2247     2523 
    2759     2731     2509     2349     2409     2598     2639     2523 
    2439     2419     2531     2748     2856     2898     2898     2681 
    2413     2295     2168     2089     2243     2506     2740     2848 
    2718     2451     2211     2151     2378     2633     2637     2452 
    2224     2180     2462     2821     2929     2685     2215     1876 
    1926     2254     2625     2871     2889     2737     2585     2471 
    2344     2207     2097     2018     1961     1972     2096     2269 
    2419     2515     2511     2413     2334     2419     2712     3025 
    3094     2801     2245     1768     1664     1834     2027     2135 
    2170     2292     2592     2837     2826     2632     2355     2147 
    2215     2446     2631     2724     2628     2431     2357     2261 
    1993     1699     1497     1598     2135     2744     3061     3141 
    3056     2844     2668     2547     2363     2168     2060     2037 
    2149     2438     2698     2687     2477     2289     2281     2542 
    2901     3022     2835     2558     2394     2386     2457     2425 
    2170     1826     1660     1741     1939     2181     2431     2577 
    2636     2770     2895     2776     2467     2216     2128     2197 
    2336     2451     2593     2762     2809     2708     2521     2308 
    2220     2296     2332     2322     2405     2481     2466     2457 
    2434     2427     2473     2388     2205     2182     2201     2135 
    2178     2327     2446     2619     2772     2712     2604     2685 
    2845     2960     3030     2983     2826     2724     2717     2700 
    2608     2500     2377     2141     1973     2123     2361     2451 
    2494     2455     2347     2452     2749     2934     2934     2789 
    2500     2209     2131     2335     2677     2898     2898     2762 
    2575     2390     2278     2338     2540     2740     2795     2620 
    2404     2397     2425     2315     2176     2003     1840     1921 
    2185     2378     2393     2195     1925     1831     1948     2151 
    2295     2246     2142     2255     2543     2740     2721     2556 
    2421     2439     2562     2601     2386     2020     1817     1941 
    2357     2841     3001     2748     2400     2215     2272     2417 
    2328     1957     1559     1393     1605     2030     2328     2407 
    2313     2089     1975     2138     2359     2366     2161     2050 
    2289     2690     2909     2826     2575     2446     2586     2878 
    3084     2951     2461     1956     1733     1840     2184     2488 
    2504     2340     2249     2311     2444     2523     2463     2312 
    2216     2232     2308     2470     2768     3069     3199     3181 
    3078     2883     2682     2574     2560     2604     2594     2512 
    2498     2608     2779     2914     2924     2902     2984     3048 
    2994     2963     2911     2759     2790     3053     3125     2922 
    2709     2486     2282     2381     2762     3068     3161     3057 
    2717     2361     2320     2489     2614     2725     2848     2924 
    2932     2799     2442     2003     1810     2023     2488     2911 
    3053     2821     2380     2114     2187     2331     2340     2296 
    2350     2629     3095     3458     3454     3107     2655     2282 
    2065     2084     2249     2312     2276     2303     2419     2600 
    2767     2821     2785     2705     2614     2606     2709     2716 
    2423     2037     1925     2095     2361     2590     2685     2664 
    2600     2496     2434     2485     2590     2632     2560     2602 
    2928     3181     3068     2826     2628     2394     2230     2292 
    2424     2435     2465     2596     2629     2542     2454     2304 
    2158     2241     2446     2544     2555     2459     2215     2088 
    2313     2681     2835     2650     2296     2143     2366     2740 
    3024     3157     3079     2814     2490     2184     2006     2029 
    2155     2292     2386     2401     2369     2290     2165     2076 
    2091     2231     2425     2470     2311     2092     1860     1675 
    1690     1845     1931     1931     1979     2131     2371     2601 
    2637     2473     2247     1942     1651     1659     1852     1950 
    2087     2257     2214     2119     2204     2293     2289     2361 
    2519     2610     2633     2674     2724     2849     3098     3202 
    3006     2733     2559     2574     2862     3269     3505     3379 
    2882     2290     2033     2192     2409     2508     2570     2563 
    2581     2770     2879     2632     2185     1849     1742     1788 
    1854     1849     1753     1732     1950     2319     2614     2709 
    2647     2558     2501     2474     2466     2424     2315     2227 
    2211     2224     2351     2685     3107     3485     3700     3601 
    3269     2925     2640     2448     2421     2519     2583     2558 
    2548     2633     2837     3110     3277     3260     3137     2999 
    2886     2776     2793     2999     3159     3163     3067     2786 
    2398     2164     2139     2222     2350     2420     2304     2114 
    2010     1925     1958     2307     2666     2635     2380     2197 
    2050     1949     1961     1900     1629     1279     1101     1246 
    1533     1682     1746     1849     1908     1945     2037     2106 
    2151     2188     2050     1800     1732     1809     1880     2039 
    2231     2270     2312     2527     2754     2870     2906     2754 
    2393     2142     2214     2462     2728     2949     2997     2833 
    2689     2666     2569     2380     2261     2228     2289     2458 
    2601     2590     2398     2047     1679     1512     1582     1798 
    2099     2343     2416     2363     2230     2072     1953     1841 
    1783     1892     2131     2392     2639     2781     2670     2443 
    2401     2482     2560     2758     2952     2948     2895     2830 
    2671     2585     2647     2729     2803     2867     2890     2821 
    2617     2427     2415     2500     2587     2670     2664     2614 
    2735     2957     3036     2975     2793     2440     2130     2106 
    2296     2550     2820     3003     2952     2685     2359     2093 
    1898     1764     1723     1729     1667     1624     1741     1863 
    1799     1718     1806     1910     1910     1868     1782     1746 
    1942     2262     2440     2334     1975     1560     1275     1147 
    1124     1140     1146     1148     1167     1188     1174     1189 
    1381     1713     2052     2397     2646     2637     2502     2393 
    2242     2093     2143     2326     2435     2554     2848     3187 
    3345     3260     3022     2808     2794     2994     3164     3073 
    2818     2650     2656     2752     2798     2756     2677     2597 
    2671     3052     3527     3735     3672     3535     3319     2936 
    2505     2204     2043     1979     1971     1958     1968     2068 
    2173     2207     2227     2154     1915     1705     1663     1795 
    2103     2394     2444     2293     2123     2077     2101     2056 
    2012     2093     2209     2297     2394     2378     2076     1640 
    1410     1462     1595     1705     1834     1999     2149     2232 
    2207     2074     1885     1725     1707     1863     2124     2452 
    2830     3140     3230     3149     3032     2984     3145     3453 
    3618     3531     3273     2945     2737     2751     2893     3042 
    3153     3257     3366     3430     3385     3187     2911     2791 
    2943     3230     3468     3522     3335     3041     2817     2698 
    2682     2701     2612     2447     2346     2296     2293     2328 
    2317     2284     2292     2326     2471     2749     2880     2758 
    2602     2439     2193     2014     1968     1961     2053     2273 
    2378     2220     1975     1800     1703     1691     1753     1841 
    1919     1961     1958     1950     1964     1912     1768     1655 
    1630     1726     2039     2488     2791     2771     2447     2029 
    1818     1900     2137     2390     2550     2612     2714     2859 
    2872     2744     2627     2585     2610     2749     2961     3091 
    3164     3302     3485     3750     4112     4409     4565     4563 
    4309     3865     3438     3154     3053     3144     3375     3638 
    3825     3916     3955     3865     3570     3203     2870     2651 
    2667     2875     3080     3161     3123     3002     2795     2594 
    2516     2497     2517     2675     2797     2624     2242     1818 
    1408     1144     1142     1363     1636     1777     1760     1609 
    1344     1121     1116     1317     1653     2083     2474     2655 
    2578     2365     2181     2062     1989     2006     2047     1972 
    1881     1912     1973     2046     2168     2313     2542     2817 
    2932     2862     2752     2682     2686     2790     2905     2887 
    2845     2949     3071     3107     3136     3082     2868     2613 
    2425     2366     2420     2498     2658     2918     3090     3153 
    3154     2943     2577     2335     2331     2538     2840     3029 
    3029     2937     2837     2760     2694     2562     2371     2286 
    2365     2462     2516     2579     2600     2539     2489     2454 
    2323     2089     1867     1694     1566     1567     1691     1779 
    1810     1904     2030     2027     1879     1759     1733     1715 
    1784     2052     2400     2689     2787     2598     2311     2087 
    1904     1817     1804     1765     1741     1726     1703     1806 
    2065     2349     2529     2556     2463     2330     2273     2334 
    2354     2312     2425     2670     2829     2876     2832     2697 
    2629     2706     2766     2712     2619     2539     2488     2531 
    2664     2714     2597     2466     2343     2137     2010     2070 
    2195     2371     2585     2706     2767     2825     2853     2847 
    2795     2740     2729     2678     2544     2427     2347     2316 
    2458     2739     2952     2994     2868     2616     2354     2227 
    2231     2236     2207     2209     2238     2219     2181     2141 
    2027     1944     2050     2282     2494     2578     2496     2392 
    2377     2366     2330     2346     2411     2513     2710     2937 
    3022     2887     2610     2311     2061     1942     1980     2083 
    2195     2255     2165     2011     1949     1996     2123     2204 
    2128     1956     1737     1567     1568     1615     1590     1594 
    1588     1464     1379     1460     1570     1587     1498     1337 
    1210     1156     1154     1309     1642     1938     2064     2066 
    2025     2038     2133     2242     2374     2538     2625     2589 
    2466     2336     2301     2370     2443     2465     2470     2496 
    2554     2651     2759     2789     2705     2586     2521     2527 
    2558     2566     2523     2442     2393     2463     2652     2783 
    2708     2550     2425     2285     2207     2320     2536     2786 
    3083     3260     3196     3033     2875     2727     2650     2698 
    2786     2791     2824     3041     3285     3411     3491     3508 
    3441     3381     3335     3235     3075     2882     2741     2751 
    2884     3038     3115     3084     2911     2577     2236     2046 
    1930     1834     1796     1786     1804     1850     1829     1742 
    1667     1610     1656     1857     2077     2241     2338     2322 
    2277     2313     2361     2388     2436     2481     2501     2529 
    2558     2558     2528     2481     2439     2428     2443     2417 
    2308     2245     2340     2471     2502     2473     2408     2308 
    2243     2255     2366     2562     2752     2901     3063     3171 
    3110     2978     2883     2758     2610     2575     2620     2663 
    2735     2818     2855     2828     2728     2643     2659     2646 
    2529     2450     2463     2536     2621     2592     2420     2243 
    2115     2056     2126     2249     2285     2250     2239     2357 
    2620     2844     2843     2682     2484     2274     2137     2161 
    2300     2466     2546     2475     2327     2154     1973     1891 
    1931     2010     2155     2382     2542     2570     2538     2465 
    2357     2278     2238     2191     2232     2452     2691     2812 
    2851     2839     2798     2785     2826     2839     2701     2506 
    2450     2543     2687     2763     2675     2506     2385     2319 
    2303     2327     2330     2336     2428     2578     2727     2813 
    2766     2614     2467     2338     2193     2043     1902     1798 
    1809     1964     2161     2278     2324     2357     2400     2512 
    2724     2929     2964     2826     2674     2598     2578     2575 
    2528     2394     2227     2091     2049     2108     2115     1985 
    1842     1761     1784     1988     2242     2305     2157     1948 
    1792     1695     1615     1540     1462     1451     1652     2012 
    2322     2524     2619     2600     2582     2628     2667     2690 
    2721     2732     2721     2731     2787     2866     2889     2844 
    2797     2778     2783     2793     2752     2658     2627     2786 
    3049     3187     3129     2986     2860     2812     2798     2718 
    2613     2585     2598     2648     2797     2890     2766     2559 
    2365     2119     1876     1726     1661     1645     1642     1664 
    1726     1792     1838     1869     1868     1810     1740     1734 
    1782     1854     1964     2111     2290     2482     2643     2736 
    2716     2569     2394     2339     2425     2563     2682     2744 
    2779     2872     3056     3269     3410     3408     3334     3277 
    3203     3109     3019     2878     2747     2729     2744     2740 
    2749     2697     2559     2470     2475     2527     2617     2705 
    2708     2606     2490     2432     2385     2274     2104     1934 
    1775     1610     1559     1740     1956     1987     1898     1787 
    1726     1804     1912     1872     1726     1576     1455     1455 
