Origin Time       2025/01/13 21:19:00
Lat.              31.8
Long.             131.6
Depth. (km)       30
Mag.              6.9
Station Code      EHMH12
Station Lat.      33.4270
Station Long.     132.5055
Station Height(m) 100
Record Time       2025/01/13 21:20:07
Sampling Freq(Hz) 100Hz
Duration Time(s)  153
Dir.              3
Scale Factor      2942(gal)/8224139
Max. Acc. (gal)   2.445
Last Correction   2025/01/13 21:20:07
Memo.             
[...]
   92337    92291    92291    92286    92280    92322    92430    92619 
   92924    93355    93799    94111    94355    94682    95027    95274 
   95419    95449    95378    95301    95234    95137    95058    95011 
   94940    94848    94761    94663    94571    94531    94539    94597 
   94765    95034    95257    95357    95386    95358    95283    95246 
   95254    95246    95210    95083    94821    94522    94225    93919 
   93695    93561    93410    93229    93042    92843    92674    92537 
   92367    92176    91995    91831    91716    91660    91624    91579 
   91527    91474    91427    91390    91376    91403    91493    91696 
   92007    92314    92524    92681    92874    93148    93478    93798 
   94078    94271    94311    94235    94112    93928    93714    93522 
   93333    93159    93036    92927    92794    92618    92411    92277 
   92272    92372    92587    92863    93066    93212    93394    93584 
   93752    93865    93814    93665    93636    93684    93642    93563 
   93521    93476    93457    93495    93514    93496    93486    93486 
   93502    93560    93661    93773    93852    93911    93991    94028 
   93919    93687    93488    93394    93334    93241    93086    92877 
   92641    92402    92207    92061    91925    91879    91967    92028 
   92013    92041    92092    92099    92122    92188    92261    92354 
   92503    92681    92809    92873    92950    93086    93249    93401 
   93528    93629    93738    93950    94275    94582    94824    95092 
   95395    95651    95890    96168    96446    96684    96854    96944 
   97036    97170    97252    97239    97202    97167    97112    97066 
   97013    96909    96808    96749    96680    96580    96450    96282 
   96110    95928    95677    95364    95029    94698    94401    94147 
   93901    93600    93216    92800    92422    92091    91763    91436 
   91181    91037    90967    90902    90841    90857    90930    91000 
   91127    91327    91482    91600    91733    91801    91808    91905 
   92106    92322    92538    92743    92925    93139    93426    93739 
   94001    94212    94390    94516    94622    94745    94856    94942 
   94981    94977    95003    95089    95239    95419    95553    95675 
   95858    96048    96187    96253    96257    96265    96315    96299 
   96144    95955    95786    95544    95222    94914    94691    94559 
   94398    94090    93708    93418    93229    93063    92946    92934 
   92955    92886    92692    92422    92118    91814    91511    91169 
   90791    90390    89973    89596    89284    88969    88645    88418 
   88376    88516    88771    89046    89303    89598    89997    90504 
   91072    91652    92179    92643    93106    93530    93834    94073 
   94316    94576    94907    95250    95477    95625    95752    95783 
   95732    95693    95663    95613    95540    95412    95241    95071 
   94906    94733    94554    94355    94167    94054    93988    93847 
   93656    93553    93530    93530    93606    93715    93734    93654 
   93514    93347    93276    93367    93491    93542    93544    93528 
   93530    93546    93522    93444    93340    93243    93172    93105 
   92996    92819    92607    92438    92319    92207    92151    92184 
   92242    92299    92333    92314    92335    92462    92557    92529 
   92407    92229    92065    91967    91921    91955    92110    92356 
   92624    92894    93170    93448    93733    94015    94294    94608 
   94968    95355    95729    96040    96309    96585    96844    97031 
   97101    97060    96952    96774    96511    96241    96013    95728 
   95297    94844    94533    94346    94211    94103    93957    93756 
   93553    93372    93220    93093    92938    92770    92685    92676 
   92669    92630    92562    92491    92460    92497    92583    92662 
   92707    92719    92738    92789    92839    92888    92973    93043 
   93023    92936    92821    92661    92465    92276    92137    92072 
   92036    91968    91870    91775    91735    91775    91849    91913 
   91978    92045    92105    92172    92273    92407    92539    92647 
   92713    92713    92674    92626    92520    92327    92088    91856 
   91678    91555    91470    91467    91577    91717    91868    92055 
   92233    92419    92642    92847    93070    93333    93526    93646 
   93761    93842    93895    93953    94016    94134    94290    94363 
   94306    94186    94107    94115    94117    94049    93999    94020 
   94038    94043    94089    94140    94139    94096    94022    93928 
   93887    93923    93989    94072    94208    94441    94760    95092 
   95427    95774    96098    96388    96637    96782    96812    96782 
   96700    96539    96358    96202    96001    95704    95339    94986 
   94711    94495    94277    94105    94078    94154    94201    94232 
   94301    94321    94247    94198    94251    94338    94386    94405 
   94413    94397    94335    94269    94234    94204    94173    94151 
   94099    94041    94053    94109    94096    93993    93889    93826 
   93789    93779    93775    93735    93676    93646    93646    93661 
   93702    93780    93907    94070    94211    94263    94220    94136 
   94078    94057    94032    93997    93977    93984    93993    93946 
   93847    93791    93806    93834    93800    93672    93472    93241 
   93023    92835    92600    92256    91849    91461    91130    90863 
   90643    90445    90274    90166    90167    90279    90431    90545 
   90661    90853    91095    91334    91589    91874    92151    92383 
   92533    92568    92565    92647    92809    92983    93171    93378 
   93556    93633    93546    93340    93112    92884    92616    92348 
   92173    92107    92090    92103    92101    92017    91933    91989 
   92164    92326    92416    92466    92522    92560    92524    92502 
   92616    92838    93098    93411    93754    94077    94371    94653 
   94936    95230    95542    95862    96147    96354    96503    96635 
   96727    96751    96745    96703    96585    96400    96225    96107 
   96006    95921    95905    95887    95735    95457    95114    94671 
   94111    93526    92989    92506    92101    91751    91416    91127 
   90911    90747    90610    90478    90366    90271    90140    90026 
   90032    90120    90244    90466    90819    91285    91756    92114 
   92396    92692    93002    93307    93579    93792    94005    94252 
   94450    94493    94402    94285    94221    94243    94327    94452 
   94691    95025    95305    95531    95755    95902    95953    95980 
   95985    95941    95867    95783    95719    95650    95524    95370 
   95260    95246    95342    95481    95605    95704    95769    95800 
   95829    95902    96030    96184    96286    96260    96071    95746 
   95359    94934    94432    93899    93436    93074    92815    92637 
   92492    92329    92097    91798    91532    91400    91368    91315 
   91238    91253    91376    91517    91690    91944    92236    92468 
   92587    92630    92654    92680    92716    92747    92785    92909 
   93117    93299    93438    93590    93704    93731    93741    93807 
   93961    94205    94528    94961    95511    96055    96496    96896 
   97267    97528    97691    97845    98010    98146    98193    98096 
   97897    97700    97507    97258    96913    96471    95970    95458 
   94932    94402    93919    93528    93241    93040    92889    92758 
   92632    92499    92330    92134    91998    91948    91943    92022 
   92211    92369    92410    92423    92500    92639    92805    93012 
   93276    93536    93737    93881    93950    93970    93966    93879 
   93637    93289    92952    92649    92338    92059    91872    91782 
   91771    91856    92020    92165    92214    92199    92205    92288 
   92457    92684    92942    93162    93270    93312    93364    93442 
   93511    93496    93375    93256    93224    93268    93340    93366 
   93339    93317    93252    93054    92790    92607    92546    92522 
   92473    92461    92515    92611    92803    93105    93463    93834 
   94159    94409    94612    94748    94829    94926    95034    95111 
   95215    95413    95656    95867    96055    96250    96445    96588 
   96626    96566    96439    96238    95976    95702    95474    95268 
   94909    94309    93610    92902    92163    91432    90752    90134 
   89677    89395    89149    88898    88697    88520    88329    88180 
   88171    88331    88566    88757    88925    89156    89437    89739 
   90097    90587    91223    91883    92450    92938    93359    93744 
   94143    94510    94797    95088    95399    95629    95736    95735 
   95658    95559    95436    95206    94887    94571    94252    93915 
   93625    93393    93170    92956    92751    92523    92306    92180 
   92165    92244    92403    92597    92769    92905    93042    93210 
   93414    93641    93901    94235    94622    94977    95288    95575 
   95779    95894    95998    96075    96075    96033    95978    95890 
   95804    95758    95715    95631    95558    95546    95535    95497 
   95515    95617    95725    95750    95675    95555    95427    95266 
   95037    94797    94624    94501    94404    94338    94284    94236 
   94198    94150    94084    94038    94047    94085    94095    94084 
   94018    93838    93622    93455    93299    93131    92958    92767 
   92551    92311    92076    91901    91755    91528    91226    90964 
   90809    90744    90730    90745    90795    90871    90988    91200 
   91466    91705    91926    92136    92298    92419    92543    92739 
   93050    93420    93787    94139    94467    94765    95023    95230 
   95422    95628    95804    95906    95933    95913    95875    95840 
   95839    95879    95910    95893    95820    95737    95674    95574 
   95413    95239    95060    94849    94594    94258    93830    93382 
   92990    92664    92395    92152    91909    91697    91538    91444 
   91426    91434    91440    91484    91569    91689    91874    92134 
   92465    92851    93259    93688    94138    94568    94953    95274 
   95481    95539    95482    95420    95407    95407    95384    95342 
   95342    95418    95521    95629    95750    95816    95754    95598 
   95462    95416    95435    95492    95586    95628    95500    95247 
   94976    94678    94273    93737    93147    92619    92184    91818 
   91512    91289    91129    90930    90644    90387    90256    90197 
   90181    90258    90405    90601    90882    91237    91589    91891 
   92167    92433    92657    92828    92992    93193    93428    93634 
   93769    93884    94039    94203    94324    94398    94443    94506 
   94605    94702    94748    94686    94554    94481    94447    94352 
   94220    94096    93961    93798    93611    93432    93321    93330 
   93463    93687    93941    94165    94382    94644    94925    95150 
   95276    95332    95395    95473    95496    95427    95280    95062 
   94811    94585    94366    94105    93843    93637    93468    93278 
   93056    92853    92682    92523    92384    92313    92308    92286 
   92194    92090    92044    92057    92129    92257    92380    92468 
   92565    92686    92788    92866    92955    93060    93143    93132 
   93005    92842    92724    92632    92520    92426    92383    92345 
   92277    92192    92095    91991    91901    91800    91678    91558 
   91423    91272    91139    91039    90975    90914    90817    90721 
   90706    90778    90869    90960    91092    91257    91430    91666 
   91966    92269    92614    93025    93405    93735    94076    94370 
   94572    94721    94853    95004    95158    95272    95349    95400 
   95393    95292    95107    94884    94645    94406    94194    94012 
   93835    93645    93456    93260    93052    92865    92719    92601 
   92520    92472    92415    92346    92315    92381    92531    92685 
   92827    93024    93276    93492    93642    93769    93888    93997 
   94151    94378    94624    94915    95324    95770    96130    96423 
   96711    97012    97297    97513    97644    97742    97892    98081 
   98209    98255    98294    98319    98255    98138    98034    97930 
   97823    97731    97630    97486    97308    97155    97044    96951 
   96849    96680    96403    96068    95708    95323    94956    94598 
   94170    93621    93000    92400    91824    91228    90639    90101 
   89623    89189    88794    88442    88130    87858    87674    87615 
   87624    87652    87725    87858    88017    88169    88321    88533 
   88807    89074    89341    89668    90027    90346    90593    90803 
   91054    91339    91571    91748    91902    92007    92079    92164 
   92269    92385    92506    92597    92666    92758    92882    93004 
   93093    93123    93109    93120    93205    93343    93478    93592 
   93734    93916    94092    94262    94456    94666    94859    95013 
   95139    95276    95404    95524    95683    95881    96061    96198 
   96303    96407    96498    96554    96581    96584    96588    96597 
   96556    96414    96195    95916    95535    95045    94532    94054 
   93576    93091    92623    92129    91592    91075    90602    90151 
   89726    89371    89108    88901    88720    88577    88515    88553 
   88672    88889    89241    89711    90246    90796    91335    91868 
   92439    93071    93757    94514    95307    96075    96843    97591 
   98236    98786    99284    99727   100080   100306   100398   100404 
  100344   100202   100030    99862    99635    99324    98975    98595 
   98158    97699    97272    96870    96452    95982    95446    94868 
   94282    93694    93079    92429    91808    91272    90782    90271 
   89768    89330    88944    88560    88165    87806    87559    87435 
   87372    87347    87403    87539    87729    87984    88353    88831 
   89353    89884    90454    91084    91739    92388    93029    93657 
   94296    94984    95692    96342    96913    97421    97873    98240 
   98497    98668    98768    98779    98734    98693    98640    98498 
   98248    97989    97773    97526    97216    96893    96579    96257 
   95908    95539    95191    94849    94466    94038    93619    93252 
   92938    92662    92416    92172    91922    91731    91612    91519 
   91454    91447    91473    91498    91547    91620    91685    91758 
   91872    92006    92136    92267    92392    92508    92608    92707 
   92889    93187    93517    93822    94132    94448    94720    94933 
   95153    95432    95742    96030    96290    96526    96726    96823 
   96799    96727    96651    96549    96412    96257    96103    95947 
   95717    95376    94979    94597    94255    93945    93623    93255 
   92859    92468    92071    91651    91207    90776    90454    90250 
   90090    89954    89830    89689    89538    89407    89321    89298 
   89356    89488    89634    89739    89833    89972    90163    90373 
   90589    90840    91126    91434    91760    92070    92348    92619 
   92900    93194    93494    93773    93985    94131    94250    94350 
   94450    94574    94653    94641    94598    94548    94491    94447 
   94390    94346    94392    94494    94578    94664    94788    94934 
   95099    95285    95490    95727    95994    96256    96457    96589 
   96707    96826    96904    96927    96893    96789    96610    96375 
   96093    95760    95427    95134    94861    94587    94297    93970 
   93613    93229    92827    92453    92095    91719    91380    91107 
   90833    90535    90262    90013    89758    89529    89384    89332 
   89326    89330    89360    89426    89518    89657    89858    90081 
   90305    90570    90894    91247    91627    92034    92484    93020 
   93630    94228    94803    95396    95985    96530    97032    97488 
   97892    98221    98455    98617    98751    98856    98915    98919 
   98874    98786    98626    98338    97937    97510    97092    96651 
   96180    95717    95270    94791    94294    93847    93447    93075 
   92755    92484    92248    92080    91983    91874    91731    91621 
   91554    91508    91473    91411    91326    91285    91281    91247 
   91185    91135    91098    91039    90956    90869    90807    90759 
   90697    90621    90566    90541    90540    90563    90601    90647 
   90726    90848    90987    91135    91278    91395    91512    91692 
   91962    92298    92623    92904    93175    93420    93609    93771 
   93927    94073    94220    94378    94539    94693    94837    94963 
   95062    95148    95227    95293    95323    95324    95349    95405 
   95450    95455    95434    95388    95322    95274    95249    95218 
   95206    95237    95247    95195    95110    95010    94907    94810 
   94693    94563    94452    94342    94212    94103    94046    94018 
   93972    93892    93773    93630    93510    93447    93414    93368 
   93293    93194    93073    92931    92803    92697    92578    92435 
   92294    92182    92115    92076    92034    91991    91947    91891 
   91824    91735    91647    91606    91605    91600    91586    91584 
   91578    91563    91590    91685    91794    91895    92003    92097 
   92178    92311    92508    92727    92950    93154    93321    93467 
   93575    93627    93658    93702    93765    93858    93942    93973 
   93991    94027    94049    94031    93977    93912    93864    93795 
   93680    93563    93453    93329    93205    93079    92919    92738 
   92565    92400    92260    92165    92101    92033    91976    91966 
   91998    92053    92119    92194    92284    92396    92534    92665 
   92765    92850    92924    92979    93046    93136    93240    93333 
   93394    93418    93441    93486    93537    93575    93596    93623 
   93691    93800    93911    94005    94084    94132    94120    94051 
   93984    93950    93924    93891    93874    93865    93834    93791 
   93756    93698    93592    93463    93326    93201    93100    93001 
   92913    92889    92919    92929    92923    92952    93019    93081 
   93147    93243    93363    93495    93633    93769    93908    94046 
   94171    94315    94509    94725    94907    95056    95215    95384 
   95505    95574    95656    95762    95845    95924    96020    96076 
   96078    96082    96078    96007    95909    95837    95744    95594 
   95409    95211    95019    94810    94558    94293    94043    93814 
   93617    93425    93189    92920    92650    92395    92169    91987 
   91829    91671    91500    91314    91126    90956    90818    90724 
   90674    90653    90664    90714    90810    90958    91162    91419 
   91712    92011    92291    92524    92703    92871    93098    93367 
   93590    93744    93869    93973    94034    94084    94166    94258 
   94329    94370    94392    94416    94444    94466    94487    94529 
   94581    94593    94574    94583    94626    94675    94744    94841 
   94922    94950    94954    94977    95015    95048    95061    95060 
   95058    95057    95034    94995    94936    94833    94701    94562 
   94427    94297    94186    94099    93988    93850    93738    93645 
   93540    93442    93344    93210    93075    92944    92785    92622 
   92500    92404    92319    92249    92203    92196    92229    92280 
