Origin Time       2025/01/13 21:19:00
Lat.              31.8
Long.             131.6
Depth. (km)       30
Mag.              6.9
Station Code      EHMH02
Station Lat.      33.8650
Station Long.     133.1840
Station Height(m) 75
Record Time       2025/01/13 21:20:57
Sampling Freq(Hz) 100Hz
Duration Time(s)  120
Dir.              6
Scale Factor      7845(gal)/8223790
Max. Acc. (gal)   1.710
Last Correction   2025/01/13 21:20:58
Memo.             
[...]
   -1726    -1798    -1621    -1274    -1073    -1215    -1503    -1620 
   -1528    -1428    -1506    -1669    -1572    -1301    -1344    -1611 
   -1599    -1343    -1229    -1335    -1545    -1759    -1764    -1509 
   -1327    -1404    -1468    -1441    -1614    -1960    -2115    -1998 
   -1764    -1512    -1366    -1436    -1624    -1707    -1605    -1417 
   -1274    -1200    -1116    -1000    -1011    -1273    -1564    -1648 
   -1632    -1649    -1672    -1559    -1232    -1027    -1297    -1719 
   -1779    -1570    -1494    -1533    -1448    -1320    -1327    -1409 
   -1466    -1498    -1518    -1495    -1368    -1179    -1151    -1462 
   -1860    -1954    -1807    -1675    -1621    -1638    -1653    -1563 
   -1518    -1742    -1996    -1911    -1648    -1528    -1529    -1509 
   -1505    -1590    -1655    -1597    -1480    -1443    -1553    -1692 
   -1703    -1609    -1514    -1524    -1707    -1915    -1806    -1389 
   -1182    -1463    -1802    -1722    -1378    -1232    -1424    -1669 
   -1644    -1386    -1235    -1286    -1331    -1320    -1387    -1522 
   -1563    -1414    -1221    -1266    -1564    -1767    -1688    -1559 
   -1556    -1556    -1452    -1313    -1321    -1637    -2038    -1958 
   -1432    -1208    -1540    -1898    -1896    -1651    -1405    -1327 
   -1483    -1775    -1921    -1695    -1312    -1220    -1443    -1668 
   -1695    -1493    -1212    -1132    -1345    -1624    -1702    -1587 
   -1468    -1534    -1803    -1998    -1869    -1567    -1418    -1528 
   -1755    -1898    -1813    -1570    -1448    -1556    -1706    -1721 
   -1593    -1362    -1158    -1194    -1466    -1706    -1711    -1540 
   -1379    -1336    -1360    -1359    -1332    -1350    -1409    -1412 
   -1344    -1355    -1495    -1593    -1490    -1313    -1341    -1587 
   -1692    -1539    -1472    -1630    -1699    -1541    -1425    -1489 
   -1541    -1464    -1410    -1499    -1647    -1686    -1475    -1158 
   -1132    -1439    -1683    -1624    -1368    -1217    -1390    -1718 
   -1802    -1576    -1359    -1308    -1317    -1420    -1606    -1606 
   -1391    -1312    -1435    -1420    -1151     -899     -938    -1313 
   -1723    -1810    -1622    -1489    -1559    -1674    -1572    -1301 
   -1235    -1472    -1745    -1912    -1965    -1846    -1582    -1374 
   -1409    -1601    -1624    -1343    -1096    -1293    -1799    -2030 
   -1647    -1063     -943    -1287    -1595    -1683    -1721    -1763 
   -1721    -1537    -1270    -1182    -1458    -1775    -1767    -1609 
   -1655    -1795    -1591    -1082     -893    -1243    -1620    -1617 
   -1383    -1212    -1167    -1221    -1401    -1628    -1728    -1653 
   -1505    -1444    -1580    -1694    -1517    -1251    -1255    -1526 
   -1703    -1509    -1125     -920    -1059    -1336    -1371    -1162 
   -1046    -1215    -1630    -2046    -2135    -1829    -1405    -1258 
   -1524    -1919    -2056    -1853    -1582    -1489    -1513    -1606 
   -1755    -1765    -1667    -1678    -1714    -1648    -1661    -1795 
   -1672    -1186     -839     -911    -1136    -1345    -1556    -1634 
   -1522    -1386    -1312    -1275    -1356    -1544    -1628    -1586 
   -1518    -1428    -1389    -1414    -1387    -1360    -1417    -1395 
   -1235    -1264    -1617    -1856    -1728    -1517    -1398    -1259 
   -1117    -1138    -1316    -1478    -1528    -1575    -1718    -1830 
   -1699    -1364    -1209    -1463    -1738    -1549    -1067     -913 
   -1298    -1757    -1806    -1575    -1499    -1605    -1552    -1277 
   -1142    -1304    -1439    -1282    -1039    -1100    -1512    -1926 
   -2018    -1745    -1344    -1219    -1478    -1780    -1844    -1698 
   -1510    -1466    -1633    -1877    -1946    -1714    -1368    -1216 
   -1408    -1873    -2184    -1917    -1352    -1121    -1360    -1688 
   -1667    -1259     -900     -977    -1390    -1744    -1811    -1629 
   -1309    -1093    -1221    -1524    -1598    -1335     -997     -884 
   -1081    -1437    -1624    -1451    -1259    -1413    -1713    -1879 
   -1898    -1698    -1255     -874     -820    -1026    -1283    -1387 
   -1287    -1219    -1290    -1370    -1487    -1656    -1661    -1426 
   -1188    -1124    -1186    -1329    -1557    -1611    -1237     -784 
    -784    -1139    -1386    -1344    -1286    -1566    -1979    -1988 
   -1587    -1266    -1320    -1564    -1617    -1399    -1197    -1202 
   -1317    -1335    -1192    -1127    -1390    -1745    -1749    -1460 
   -1285    -1360    -1476    -1414    -1325    -1501    -1759    -1703 
   -1418    -1289    -1386    -1561    -1765    -1869    -1733    -1540 
   -1436    -1314    -1252    -1417    -1571    -1499    -1478    -1655 
   -1734    -1540    -1255    -1185    -1436    -1760    -1827    -1671 
   -1551    -1459    -1248    -1146    -1399    -1725    -1773    -1620 
   -1405    -1233    -1289    -1539    -1769    -1867    -1745    -1455 
   -1269    -1401    -1653    -1611    -1344    -1306    -1545    -1744 
   -1740    -1617    -1518    -1472    -1474    -1574    -1765    -1895 
   -1792    -1551    -1462    -1594    -1746    -1799    -1759    -1588 
   -1374    -1363    -1532    -1505    -1223    -1077    -1244    -1495 
   -1579    -1453    -1336    -1399    -1544    -1599    -1536    -1462 
   -1432    -1418    -1480    -1649    -1765    -1729    -1611    -1479 
   -1391    -1351    -1289    -1278    -1408    -1594    -1676    -1595 
   -1485    -1436    -1448    -1497    -1540    -1620    -1773    -1888 
   -1854    -1687    -1422    -1155    -1120    -1468    -1912    -1957 
   -1572    -1259    -1336    -1541    -1549    -1464    -1466    -1579 
   -1802    -1966    -1852    -1588    -1420    -1248    -1000     -974 
   -1264    -1493    -1437    -1332    -1398    -1493    -1401    -1243 
   -1282    -1448    -1510    -1449    -1313    -1246    -1499    -1937 
   -2088    -1831    -1493    -1360    -1374    -1377    -1364    -1447 
   -1620    -1655    -1505    -1483    -1675    -1741    -1467    -1201 
   -1418    -1930    -2115    -1806    -1431    -1494    -1973    -2268 
   -1977    -1458    -1309    -1591    -1926    -2043    -1899    -1620 
   -1447    -1533    -1765    -1830    -1553    -1154    -1047    -1339 
   -1653    -1688    -1606    -1591    -1571    -1482    -1408    -1482 
   -1597    -1555    -1507    -1718    -2027    -2000    -1606    -1393 
   -1591    -1699    -1436    -1250    -1510    -1912    -1935    -1556 
   -1270    -1356    -1524    -1460    -1271    -1248    -1425    -1567 
   -1525    -1414    -1385    -1429    -1429    -1304    -1158    -1135 
   -1188    -1262    -1320    -1316    -1340    -1367    -1274    -1200 
   -1300    -1480    -1567    -1449    -1262    -1262    -1447    -1545 
   -1448    -1398    -1544    -1657    -1556    -1354    -1229    -1266 
   -1397    -1467    -1410    -1289    -1304    -1529    -1629    -1416 
   -1250    -1302    -1304    -1259    -1399    -1626    -1652    -1474 
   -1383    -1459    -1428    -1173     -958    -1053    -1372    -1549 
   -1447    -1372    -1530    -1702    -1621    -1408    -1385    -1556 
   -1637    -1525    -1431    -1539    -1653    -1525    -1308    -1252 
   -1350    -1475    -1509    -1505    -1597    -1664    -1559    -1391 
   -1264    -1208    -1274    -1391    -1406    -1363    -1406    -1499 
   -1537    -1549    -1571    -1549    -1483    -1444    -1491    -1579 
   -1621    -1587    -1513    -1514    -1572    -1570    -1518    -1397 
   -1215    -1223    -1501    -1756    -1710    -1443    -1283    -1359 
   -1522    -1540    -1333    -1228    -1521    -1910    -1895    -1552 
   -1410    -1564    -1582    -1302    -1023    -1061    -1364    -1564 
   -1487    -1308    -1216    -1231    -1239    -1162    -1142    -1358 
   -1605    -1544    -1290    -1173    -1212    -1246    -1270    -1412 
   -1617    -1715    -1713    -1653    -1518    -1383    -1355    -1435 
   -1617    -1952    -2285    -2243    -1788    -1408    -1406    -1552 
   -1622    -1649    -1653    -1645    -1745    -1861    -1644    -1270 
   -1246    -1367    -1219    -1059    -1182    -1367    -1337    -1113 
    -892     -862    -1047    -1264    -1372    -1409    -1455    -1584 
   -1709    -1534    -1066     -787     -949    -1217    -1254    -1156 
   -1198    -1355    -1436    -1412    -1362    -1367    -1364    -1306 
   -1463    -1771    -1753    -1463    -1293    -1306    -1445    -1690 
   -1915    -1962    -1860    -1809    -1875    -1917    -1931    -2030 
   -2084    -1984    -1910    -1987    -2077    -1981    -1687    -1370 
   -1242    -1404    -1659    -1680    -1416    -1151    -1205    -1449 
   -1452    -1192    -1107    -1354    -1567    -1528    -1443    -1444 
   -1474    -1467    -1406    -1387    -1487    -1674    -1813    -1706 
   -1439    -1390    -1610    -1713    -1560    -1472    -1695    -1989 
   -1945    -1568    -1279    -1371    -1722    -1984    -1954    -1753 
   -1645    -1730    -1894    -1971    -1880    -1715    -1637    -1637 
   -1645    -1636    -1607    -1620    -1686    -1648    -1520    -1524 
   -1559    -1358    -1065    -1051    -1370    -1707    -1775    -1507 
   -1148    -1135    -1420    -1522    -1350    -1165    -1127    -1186 
   -1158    -1135    -1300    -1432    -1354    -1260    -1289    -1352 
   -1367    -1310    -1186    -1108    -1169    -1215    -1111    -1012 
    -985     -930     -878     -891     -955    -1061    -1096     -954 
    -768     -746     -936    -1117    -1065     -892     -858    -1001 
   -1194    -1278    -1196    -1090    -1026     -946     -950    -1098 
   -1224    -1202    -1030     -795     -679     -791    -1111    -1436 
   -1543    -1502    -1437    -1343    -1317    -1451    -1633    -1703 
   -1632    -1549    -1536    -1532    -1463    -1335    -1321    -1551 
   -1749    -1669    -1507    -1463    -1494    -1524    -1502    -1462 
   -1502    -1645    -1772    -1738    -1634    -1699    -1881    -2000 
   -2115    -2250    -2254    -2107    -1939    -1842    -1790    -1740 
   -1769    -1898    -1965    -1890    -1799    -1776    -1777    -1787 
   -1795    -1759    -1653    -1632    -1798    -1857    -1667    -1537 
   -1575    -1665    -1849    -2039    -2045    -1894    -1723    -1651 
   -1711    -1729    -1571    -1431    -1463    -1502    -1382    -1235 
   -1231    -1329    -1402    -1387    -1320    -1254    -1262    -1408 
   -1580    -1605    -1544    -1599    -1742    -1767    -1640    -1532 
   -1588    -1761    -1873    -1830    -1653    -1501    -1540    -1669 
   -1725    -1772    -1850    -1806    -1571    -1340    -1331    -1506 
   -1680    -1741    -1680    -1645    -1663    -1579    -1466    -1501 
   -1629    -1730    -1721    -1607    -1524    -1505    -1466    -1426 
   -1503    -1680    -1826    -1891    -1904    -1908    -1939    -2003 
   -2057    -2085    -2141    -2172    -2103    -2064    -2146    -2254 
   -2226    -1991    -1772    -1809    -1921    -1919    -1861    -1794 
   -1782    -1880    -1922    -1786    -1649    -1672    -1818    -1953 
   -1914    -1736    -1593    -1513    -1468    -1502    -1595    -1622 
   -1594    -1702    -1885    -1865    -1722    -1744    -1877    -1902 
   -1840    -1868    -1992    -2045    -1930    -1726    -1633    -1769 
   -1903    -1788    -1553    -1417    -1425    -1493    -1489    -1444 
   -1491    -1588    -1578    -1501    -1452    -1335    -1131     -984 
    -928     -940     -984     -950     -823     -745     -768     -756 
    -691     -714     -835     -923     -882     -765     -657     -607 
    -696     -877     -966     -951     -954     -969     -888     -753 
    -754     -915    -1063    -1078     -938     -724     -612     -645 
    -714     -764     -765     -768     -918    -1209    -1413    -1387 
   -1258    -1224    -1289    -1317    -1300    -1358    -1516    -1636 
   -1622    -1485    -1301    -1228    -1306    -1364    -1337    -1335 
   -1379    -1412    -1391    -1300    -1223    -1278    -1445    -1583 
   -1556    -1414    -1402    -1534    -1540    -1424    -1370    -1331 
   -1282    -1341    -1470    -1509    -1410    -1210    -1062    -1174 
   -1437    -1514    -1340    -1152    -1154    -1316    -1449    -1410 
   -1251    -1144    -1152    -1188    -1173    -1125    -1150    -1256 
   -1240    -1024     -891    -1086    -1485    -1748    -1744    -1597 
   -1464    -1522    -1742    -1864    -1898    -2030    -2200    -2268 
   -2205    -2058    -1914    -1833    -1845    -1946    -2057    -2118 
   -2157    -2174    -2176    -2174    -2112    -2033    -2014    -1998 
   -2000    -2100    -2218    -2315    -2411    -2404    -2232    -1939 
   -1687    -1667    -1769    -1807    -1822    -1829    -1780    -1705 
   -1607    -1513    -1453    -1378    -1281    -1285    -1437    -1551 
   -1408    -1096     -932     -976    -1001     -858     -615     -461 
    -418     -322     -108      135      241      147      -14      -63 
      17      108      114       51       -2      -28     -130     -298 
    -402     -437     -471     -519     -621     -741     -756     -761 
    -958    -1240    -1377    -1375    -1405    -1505    -1536    -1458 
   -1412    -1498    -1665    -1786    -1746    -1540    -1337    -1310 
   -1409    -1472    -1456    -1459    -1471    -1358    -1231    -1329 
   -1521    -1543    -1472    -1503    -1574    -1584    -1567    -1530 
   -1514    -1632    -1872    -2074    -2141    -2137    -2154    -2216 
   -2305    -2380    -2388    -2377    -2498    -2779    -3045    -3176 
   -3208    -3199    -3208    -3268    -3281    -3180    -3030    -2910 
   -2879    -2936    -2944    -2843    -2763    -2795    -2852    -2867 
   -2826    -2733    -2646    -2613    -2668    -2799    -2889    -2874 
   -2853    -2928    -3033    -3056    -3022    -3015    -3042    -3037 
   -2974    -2866    -2671    -2446    -2297    -2182    -2104    -2083 
   -1973    -1757    -1638    -1626    -1552    -1449    -1448    -1480 
   -1404    -1225    -1086    -1075    -1093    -1028     -928     -896 
    -947     -996    -1009    -1061    -1144    -1196    -1210    -1246 
   -1347    -1463    -1456    -1290    -1142    -1201    -1363    -1387 
   -1252    -1111    -1028     -970     -909     -841     -805     -812 
    -749     -611     -531     -558     -634     -666     -599     -519 
    -552     -638     -599     -491     -533     -680     -692     -553 
    -473     -546     -626     -534     -322     -238     -367     -498 
    -452     -288     -183     -221     -332     -415     -450     -465 
    -457     -405     -340     -307     -306     -364     -488     -548 
    -511     -523     -612     -693     -724     -665     -558     -571 
    -742     -897     -942     -989    -1097    -1173    -1154    -1109 
   -1140    -1279    -1425    -1444    -1368    -1402    -1553    -1571 
   -1414    -1347    -1466    -1590    -1526    -1309    -1205    -1386 
   -1653    -1713    -1568    -1470    -1574    -1780    -1896    -1867 
   -1807    -1798    -1818    -1895    -2052    -2166    -2123    -2015 
   -2046    -2174    -2149    -1937    -1804    -1919    -2091    -2084 
   -1977    -1929    -1942    -1993    -2034    -2006    -1979    -2031 
   -2097    -2087    -2020    -1934    -1842    -1817    -1914    -2073 
   -2174    -2227    -2340    -2458    -2465    -2428    -2432    -2465 
   -2500    -2502    -2486    -2513    -2570    -2562    -2458    -2359 
   -2359    -2407    -2417    -2378    -2274    -2134    -2062    -2039 
   -1962    -1860    -1780    -1707    -1640    -1574    -1513    -1476 
   -1471    -1490    -1544    -1610    -1641    -1642    -1656    -1675 
   -1674    -1676    -1711    -1744    -1733    -1665    -1544    -1472 
   -1517    -1540    -1440    -1336    -1345    -1414    -1455    -1453 
   -1399    -1329    -1287    -1237    -1179    -1170    -1192    -1181 
   -1140    -1115    -1107    -1080    -1011     -934     -934    -1039 
   -1107    -1020     -891     -862     -904     -916     -846     -726 
    -677     -719     -723     -688     -746     -858     -886     -846 
    -850     -907     -942     -958     -990     -997     -951     -885 
    -823     -818     -940    -1112    -1169    -1142    -1185    -1290 
   -1325    -1256    -1204    -1278    -1409    -1471    -1466    -1470 
   -1525    -1580    -1563    -1506    -1513    -1617    -1740    -1761 
   -1702    -1682    -1718    -1769    -1807    -1777    -1694    -1642 
   -1637    -1624    -1541    -1433    -1426    -1464    -1390    -1243 
   -1155    -1174    -1243    -1270    -1232    -1192    -1254    -1363 
   -1309    -1111    -1051    -1194    -1325    -1329    -1271    -1229 
   -1233    -1274    -1306    -1300    -1302    -1345    -1362    -1318 
   -1309    -1371    -1433    -1466    -1472    -1439    -1404    -1406 
   -1428    -1458    -1487    -1517    -1602    -1737    -1800    -1726 
   -1626    -1660    -1830    -1945    -1852    -1659    -1580    -1634 
   -1688    -1656    -1529    -1452    -1553    -1660    -1561    -1386 
   -1344    -1391    -1393    -1336    -1313    -1344    -1310    -1190 
   -1138    -1193    -1242    -1225    -1169    -1080     -954     -832 
    -787     -826     -888     -939     -974     -961     -926     -940 
   -1030    -1182    -1335    -1432    -1547    -1725    -1827    -1787 
   -1791    -1961    -2164    -2280    -2307    -2295    -2342    -2461 
   -2520    -2459    -2397    -2442    -2548    -2605    -2558    -2398 
   -2200    -2074    -1995    -1900    -1858    -1895    -1879    -1734 
   -1583    -1528    -1486    -1397    -1348    -1345    -1331    -1325 
   -1310    -1243    -1198    -1247    -1335    -1329    -1206    -1121 
   -1178    -1262    -1228    -1134    -1107    -1155    -1165    -1085 
   -1023    -1061    -1152    -1224    -1235    -1182    -1147    -1212 
   -1298    -1250    -1144    -1208    -1364    -1377    -1286    -1258 
   -1275    -1248    -1188    -1166    -1212    -1285    -1343    -1394 
   -1432    -1431    -1428    -1498    -1633    -1740    -1767    -1764 
   -1790    -1821    -1810    -1763    -1744    -1791    -1834    -1786 
   -1692    -1641    -1622    -1587    -1572    -1630    -1679    -1629 
   -1552    -1520    -1537    -1617    -1665    -1586    -1499    -1545 
   -1640    -1636    -1564    -1533    -1551    -1567    -1529    -1410 
   -1293    -1232    -1185    -1148    -1139    -1123    -1113    -1181 
   -1306    -1405    -1456    -1494    -1547    -1628    -1723    -1822 
   -1927    -2022    -2038    -1964    -1906    -1904    -1864    -1752 
   -1641    -1617    -1679    -1717    -1630    -1501    -1502    -1606 
   -1595    -1412    -1252    -1243    -1273    -1247    -1231    -1250 
   -1232    -1179    -1170    -1221    -1270    -1275    -1233    -1173 
   -1143    -1167    -1204    -1210    -1197    -1197    -1213    -1235 
   -1274    -1337    -1390    -1356    -1260    -1246    -1351    -1455 
   -1475    -1479    -1583    -1745    -1796    -1707    -1634    -1722 
   -1904    -1956    -1841    -1767    -1840    -1966    -2041    -2018 
   -1926    -1848    -1846    -1921    -1991    -1944    -1800    -1699 
   -1684    -1683    -1633    -1529    -1429    -1387    -1364    -1278 
   -1171    -1166    -1264    -1356    -1354    -1259    -1182    -1236 
   -1391    -1486    -1414    -1306    -1320    -1431    -1549    -1638 
   -1680    -1694    -1706    -1668    -1552    -1463    -1463    -1512 
