Origin Time       2025/01/13 21:19:00
Lat.              31.8
Long.             131.6
Depth. (km)       30
Mag.              6.9
Station Code      EHMH03
Station Lat.      33.9154
Station Long.     133.6497
Station Height(m) 204.5
Record Time       2025/01/13 21:20:32
Sampling Freq(Hz) 100Hz
Duration Time(s)  125
Dir.              3
Scale Factor      3923(gal)/8224838
Max. Acc. (gal)   0.830
Last Correction   2025/01/13 21:20:32
Memo.             
[...]
  -52247   -52228   -52219   -52207   -52189   -52204   -52266   -52315 
  -52334   -52351   -52375   -52411   -52463   -52504   -52524   -52543 
  -52547   -52548   -52573   -52605   -52625   -52651   -52685   -52714 
  -52732   -52741   -52749   -52759   -52770   -52780   -52798   -52826 
  -52843   -52836   -52829   -52825   -52810   -52798   -52786   -52755 
  -52706   -52678   -52681   -52687   -52681   -52664   -52637   -52589 
  -52536   -52513   -52508   -52482   -52442   -52420   -52424   -52432 
  -52436   -52444   -52452   -52456   -52459   -52463   -52452   -52421 
  -52370   -52315   -52289   -52280   -52253   -52222   -52215   -52226 
  -52230   -52224   -52215   -52207   -52215   -52235   -52245   -52253 
  -52258   -52232   -52200   -52188   -52178   -52165   -52155   -52150 
  -52157   -52168   -52172   -52174   -52185   -52203   -52232   -52277 
  -52313   -52335   -52373   -52427   -52470   -52498   -52515   -52525 
  -52536   -52546   -52548   -52540   -52528   -52539   -52570   -52590 
  -52587   -52591   -52596   -52566   -52508   -52465   -52431   -52375 
  -52326   -52313   -52303   -52277   -52281   -52312   -52343   -52378 
  -52419   -52452   -52481   -52506   -52525   -52531   -52525   -52515 
  -52504   -52489   -52469   -52450   -52416   -52350   -52276   -52213 
  -52158   -52116   -52100   -52093   -52089   -52101   -52130   -52159 
  -52191   -52220   -52250   -52284   -52311   -52319   -52313   -52312 
  -52327   -52355   -52384   -52413   -52456   -52506   -52535   -52546 
  -52571   -52632   -52706   -52762   -52786   -52791   -52790   -52801 
  -52836   -52868   -52870   -52845   -52813   -52770   -52732   -52710 
  -52689   -52660   -52640   -52628   -52613   -52586   -52564   -52551 
  -52533   -52521   -52516   -52497   -52462   -52415   -52354   -52304 
  -52280   -52266   -52251   -52239   -52222   -52195   -52178   -52191 
  -52222   -52243   -52253   -52266   -52272   -52261   -52261   -52281 
  -52307   -52326   -52332   -52348   -52380   -52404   -52417   -52440 
  -52462   -52479   -52513   -52544   -52560   -52582   -52602   -52610 
  -52613   -52612   -52594   -52555   -52496   -52431   -52367   -52292 
  -52223   -52193   -52182   -52154   -52119   -52099   -52093   -52107 
  -52135   -52165   -52192   -52204   -52211   -52249   -52303   -52330 
  -52336   -52348   -52365   -52388   -52412   -52425   -52431   -52442 
  -52463   -52500   -52552   -52608   -52655   -52699   -52740   -52762 
  -52775   -52795   -52814   -52813   -52798   -52789   -52790   -52794 
  -52806   -52822   -52832   -52848   -52872   -52906   -52945   -52971 
  -52976   -52968   -52956   -52938   -52899   -52832   -52759   -52693 
  -52628   -52577   -52544   -52509   -52473   -52456   -52458   -52467 
  -52475   -52458   -52424   -52409   -52401   -52374   -52338   -52305 
  -52270   -52239   -52222   -52203   -52178   -52174   -52196   -52224 
  -52254   -52289   -52317   -52348   -52390   -52429   -52451   -52463 
  -52479   -52501   -52523   -52537   -52537   -52529   -52531   -52540 
  -52543   -52531   -52520   -52505   -52469   -52431   -52397   -52362 
  -52331   -52305   -52290   -52284   -52259   -52226   -52200   -52170 
  -52127   -52065   -51987   -51910   -51850   -51810   -51777   -51750 
  -51729   -51709   -51683   -51671   -51680   -51696   -51721   -51763 
  -51804   -51842   -51895   -51957   -52008   -52054   -52093   -52112 
  -52131   -52170   -52227   -52288   -52346   -52409   -52479   -52555 
  -52648   -52753   -52840   -52911   -52996   -53087   -53160   -53217 
  -53253   -53268   -53284   -53310   -53330   -53342   -53346   -53338 
  -53327   -53327   -53319   -53285   -53254   -53248   -53230   -53188 
  -53138   -53094   -53056   -53036   -53029   -53029   -53037   -53055 
  -53069   -53076   -53080   -53096   -53122   -53144   -53134   -53094 
  -53060   -53055   -53057   -53040   -53006   -52971   -52938   -52901 
  -52863   -52830   -52795   -52751   -52705   -52666   -52621   -52569 
  -52525   -52492   -52461   -52444   -52440   -52427   -52401   -52384 
  -52384   -52384   -52380   -52382   -52381   -52357   -52319   -52277 
  -52232   -52189   -52145   -52087   -52020   -51968   -51938   -51918 
  -51902   -51904   -51926   -51954   -51987   -52027   -52081   -52143 
  -52196   -52239   -52285   -52326   -52350   -52361   -52371   -52386 
  -52392   -52385   -52373   -52355   -52331   -52290   -52240   -52207 
  -52185   -52157   -52126   -52108   -52107   -52100   -52083   -52074 
  -52084   -52091   -52076   -52047   -52012   -51973   -51952   -51956 
  -51965   -51972   -51993   -52031   -52070   -52114   -52165   -52224 
  -52301   -52388   -52473   -52551   -52620   -52681   -52741   -52803 
  -52855   -52894   -52929   -52961   -52990   -53005   -52999   -52976 
  -52937   -52895   -52855   -52809   -52766   -52725   -52674   -52608 
  -52540   -52493   -52459   -52423   -52392   -52384   -52389   -52381 
  -52353   -52330   -52328   -52336   -52343   -52366   -52405   -52436 
  -52463   -52500   -52540   -52560   -52566   -52581   -52593   -52597 
  -52610   -52629   -52644   -52662   -52682   -52702   -52726   -52759 
  -52790   -52794   -52771   -52745   -52714   -52674   -52639   -52614 
  -52590   -52566   -52537   -52509   -52494   -52489   -52475   -52467 
  -52488   -52513   -52524   -52528   -52544   -52571   -52594   -52593 
  -52567   -52531   -52486   -52438   -52384   -52332   -52299   -52276 
  -52234   -52166   -52096   -52035   -51984   -51953   -51926   -51881 
  -51827   -51791   -51775   -51768   -51772   -51784   -51787   -51792 
  -51803   -51803   -51807   -51821   -51830   -51845   -51869   -51884 
  -51894   -51906   -51912   -51916   -51935   -51977   -52037   -52100 
  -52165   -52239   -52319   -52385   -52451   -52539   -52639   -52739 
  -52833   -52918   -52994   -53065   -53115   -53138   -53141   -53133 
  -53117   -53098   -53084   -53073   -53067   -53055   -53026   -53002 
  -52991   -52975   -52960   -52955   -52940   -52911   -52879   -52852 
  -52830   -52813   -52793   -52770   -52764   -52782   -52795   -52787 
  -52775   -52770   -52760   -52747   -52726   -52697   -52656   -52593 
  -52513   -52435   -52355   -52276   -52203   -52139   -52084   -52022 
  -51948   -51873   -51817   -51783   -51772   -51772   -51775   -51790 
  -51817   -51838   -51857   -51895   -51957   -52027   -52093   -52169 
  -52259   -52351   -52439   -52524   -52610   -52695   -52771   -52843 
  -52910   -52955   -52980   -53003   -53021   -53029   -53026   -53019 
  -53015   -53011   -53007   -53003   -52996   -52988   -52982   -52972 
  -52960   -52945   -52933   -52913   -52879   -52861   -52853   -52826 
  -52785   -52745   -52704   -52659   -52612   -52551   -52478   -52390 
  -52294   -52205   -52134   -52074   -52016   -51948   -51885   -51845 
  -51818   -51798   -51792   -51806   -51837   -51881   -51933   -51976 
  -51997   -52006   -52007   -52002   -51987   -51960   -51929   -51907 
  -51895   -51881   -51887   -51925   -51973   -52026   -52096   -52184 
  -52280   -52384   -52505   -52644   -52790   -52926   -53052   -53173 
  -53293   -53401   -53489   -53554   -53601   -53639   -53663   -53663 
  -53650   -53626   -53582   -53528   -53466   -53395   -53322   -53237 
  -53140   -53046   -52953   -52856   -52762   -52668   -52577   -52492 
  -52412   -52334   -52269   -52231   -52204   -52174   -52149   -52131 
  -52107   -52072   -52037   -52010   -51995   -51983   -51964   -51941 
  -51912   -51867   -51827   -51807   -51791   -51780   -51779   -51777 
  -51775   -51780   -51798   -51827   -51864   -51902   -51939   -51987 
  -52039   -52078   -52112   -52146   -52166   -52174   -52189   -52208 
  -52228   -52257   -52286   -52323   -52371   -52413   -52440   -52469 
  -52506   -52551   -52591   -52621   -52637   -52637   -52632   -52635 
  -52648   -52654   -52635   -52608   -52590   -52571   -52550   -52535 
  -52520   -52496   -52471   -52455   -52446   -52439   -52438   -52444 
  -52451   -52454   -52462   -52465   -52459   -52462   -52470   -52466 
  -52439   -52407   -52382   -52380   -52381   -52362   -52332   -52317 
  -52323   -52334   -52327   -52296   -52254   -52218   -52191   -52168 
  -52137   -52101   -52080   -52061   -52043   -52029   -52011   -51995 
  -51997   -52014   -52037   -52061   -52080   -52099   -52118   -52143 
  -52180   -52231   -52282   -52320   -52370   -52439   -52493   -52529 
  -52570   -52610   -52654   -52698   -52744   -52791   -52830   -52856 
  -52878   -52903   -52936   -52979   -53033   -53084   -53122   -53153 
  -53187   -53211   -53211   -53199   -53188   -53176   -53160   -53154 
  -53157   -53157   -53148   -53127   -53099   -53069   -53042   -53010 
  -52967   -52921   -52874   -52832   -52801   -52779   -52767   -52772 
  -52785   -52802   -52825   -52840   -52836   -52810   -52764   -52705 
  -52635   -52554   -52466   -52367   -52254   -52135   -52016   -51906 
  -51815   -51741   -51669   -51610   -51556   -51503   -51475   -51478 
  -51501   -51528   -51560   -51605   -51649   -51684   -51715   -51741 
  -51768   -51804   -51842   -51869   -51900   -51934   -51969   -52012 
  -52072   -52139   -52201   -52262   -52331   -52404   -52481   -52563 
  -52648   -52718   -52771   -52820   -52883   -52945   -52986   -53015 
  -53048   -53065   -53067   -53069   -53064   -53041   -53021   -53011 
  -52991   -52965   -52944   -52922   -52903   -52884   -52872   -52872 
  -52879   -52891   -52903   -52907   -52907   -52899   -52876   -52840 
  -52794   -52737   -52687   -52648   -52600   -52547   -52500   -52462 
  -52443   -52440   -52443   -52447   -52452   -52455   -52451   -52442 
  -52438   -52440   -52442   -52435   -52416   -52384   -52355   -52342 
  -52326   -52297   -52247   -52181   -52118   -52062   -52002   -51922 
  -51825   -51722   -51624   -51534   -51459   -51390   -51328   -51274 
  -51219   -51152   -51098   -51075   -51078   -51085   -51086   -51082 
  -51079   -51084   -51094   -51109   -51129   -51166   -51217   -51267 
  -51324   -51389   -51444   -51499   -51564   -51626   -51687   -51757 
  -51823   -51883   -51943   -52007   -52070   -52135   -52207   -52278 
  -52342   -52411   -52494   -52585   -52675   -52766   -52863   -52963 
  -53053   -53136   -53212   -53284   -53364   -53450   -53516   -53563 
  -53609   -53644   -53665   -53678   -53684   -53676   -53662   -53646 
  -53627   -53611   -53590   -53565   -53536   -53505   -53464   -53410 
  -53353   -53287   -53204   -53126   -53052   -52967   -52870   -52771 
  -52670   -52569   -52483   -52405   -52320   -52246   -52201   -52169 
  -52143   -52134   -52145   -52166   -52196   -52236   -52281   -52323 
  -52359   -52389   -52404   -52407   -52417   -52436   -52442   -52438 
  -52440   -52454   -52461   -52459   -52461   -52471   -52489   -52513 
  -52532   -52547   -52564   -52585   -52600   -52614   -52637   -52666 
  -52697   -52737   -52771   -52793   -52816   -52845   -52879   -52913 
  -52942   -52964   -52974   -52980   -52991   -52996   -53001   -53010 
  -53021   -53036   -53046   -53044   -53028   -53011   -53001   -52987 
  -52963   -52928   -52894   -52871   -52844   -52801   -52749   -52702 
  -52659   -52624   -52593   -52552   -52500   -52450   -52419   -52400 
  -52381   -52363   -52350   -52334   -52317   -52309   -52312   -52327 
  -52344   -52344   -52335   -52343   -52357   -52366   -52378   -52393 
  -52408   -52415   -52421   -52436   -52456   -52473   -52483   -52490 
  -52494   -52493   -52485   -52463   -52442   -52427   -52409   -52396 
  -52389   -52386   -52389   -52396   -52400   -52400   -52394   -52390 
  -52393   -52386   -52361   -52335   -52315   -52293   -52255   -52205 
  -52161   -52115   -52060   -52006   -51962   -51930   -51894   -51849 
  -51815   -51792   -51773   -51769   -51783   -51799   -51808   -51823 
  -51856   -51896   -51937   -51981   -52034   -52084   -52123   -52157 
  -52184   -52199   -52213   -52251   -52309   -52366   -52417   -52463 
  -52512   -52577   -52658   -52741   -52812   -52864   -52910   -52948 
  -52961   -52956   -52963   -52980   -52990   -52987   -52974   -52953 
  -52938   -52924   -52905   -52888   -52876   -52867   -52859   -52855 
  -52860   -52875   -52890   -52901   -52907   -52918   -52937   -52960 
  -52978   -52995   -53011   -53017   -53011   -53003   -52996   -52994 
  -52987   -52974   -52959   -52938   -52920   -52914   -52910   -52906 
  -52909   -52905   -52888   -52874   -52861   -52847   -52822   -52790 
  -52763   -52739   -52712   -52687   -52674   -52666   -52655   -52644 
  -52637   -52623   -52601   -52581   -52560   -52535   -52505   -52477 
  -52456   -52428   -52381   -52334   -52307   -52293   -52280   -52265 
  -52254   -52254   -52261   -52278   -52304   -52330   -52351   -52369 
  -52378   -52377   -52382   -52405   -52419   -52412   -52413   -52413 
  -52393   -52370   -52350   -52326   -52303   -52288   -52282   -52284 
  -52294   -52321   -52358   -52394   -52438   -52494   -52562   -52628 
  -52691   -52755   -52824   -52903   -52975   -53036   -53106   -53185 
  -53261   -53327   -53389   -53458   -53530   -53585   -53623   -53639 
  -53640   -53632   -53620   -53611   -53604   -53593   -53582   -53585 
  -53586   -53563   -53530   -53503   -53478   -53447   -53396   -53334 
  -53275   -53208   -53127   -53036   -52938   -52840   -52731   -52600 
  -52456   -52312   -52177   -52050   -51919   -51787   -51668   -51555 
  -51439   -51331   -51237   -51160   -51089   -51017   -50954   -50901 
  -50855   -50818   -50788   -50761   -50746   -50741   -50730   -50723 
  -50727   -50735   -50749   -50784   -50836   -50890   -50950   -51020 
  -51098   -51178   -51254   -51340   -51444   -51560   -51687   -51826 
  -51965   -52095   -52223   -52347   -52466   -52579   -52689   -52789 
  -52871   -52937   -52996   -53049   -53102   -53167   -53238   -53304 
  -53369   -53435   -53503   -53562   -53609   -53643   -53667   -53684 
  -53684   -53667   -53639   -53605   -53558   -53491   -53415   -53339 
  -53257   -53165   -53076   -53003   -52942   -52887   -52828   -52760 
  -52694   -52637   -52583   -52528   -52469   -52404   -52336   -52270 
  -52199   -52120   -52042   -51975   -51923   -51872   -51813   -51760 
  -51713   -51665   -51628   -51595   -51564   -51537   -51507   -51478 
  -51457   -51447   -51441   -51440   -51445   -51460   -51482   -51513 
  -51552   -51605   -51657   -51706   -51763   -51823   -51883   -51949 
  -52019   -52074   -52123   -52178   -52240   -52305   -52369   -52429 
  -52486   -52548   -52614   -52677   -52736   -52791   -52839   -52883 
  -52930   -52975   -53018   -53052   -53073   -53090   -53110   -53126 
  -53133   -53140   -53146   -53131   -53102   -53079   -53068   -53053 
  -53022   -52978   -52938   -52905   -52867   -52825   -52786   -52758 
  -52735   -52709   -52679   -52654   -52635   -52616   -52593   -52569 
  -52537   -52496   -52452   -52413   -52382   -52362   -52340   -52316 
  -52296   -52284   -52274   -52263   -52250   -52230   -52203   -52178 
  -52157   -52134   -52110   -52076   -52029   -51972   -51918   -51872 
  -51831   -51791   -51754   -51729   -51711   -51709   -51717   -51723 
  -51733   -51752   -51777   -51807   -51834   -51860   -51888   -51919 
  -51952   -51980   -52006   -52034   -52058   -52076   -52096   -52126 
  -52158   -52180   -52195   -52208   -52220   -52231   -52249   -52278 
  -52312   -52344   -52381   -52425   -52471   -52508   -52539   -52570 
  -52594   -52616   -52647   -52677   -52694   -52704   -52717   -52745 
  -52787   -52834   -52879   -52928   -52986   -53052   -53114   -53167 
  -53215   -53268   -53322   -53360   -53376   -53377   -53384   -53397 
  -53407   -53418   -53431   -53442   -53449   -53447   -53439   -53442 
  -53447   -53433   -53406   -53387   -53370   -53346   -53306   -53253 
  -53194   -53134   -53082   -53037   -52988   -52933   -52876   -52826 
  -52779   -52739   -52706   -52678   -52651   -52628   -52609   -52598 
  -52596   -52596   -52594   -52586   -52570   -52551   -52528   -52500 
  -52470   -52438   -52402   -52365   -52321   -52270   -52219   -52168 
  -52119   -52080   -52057   -52041   -52026   -52014   -52002   -51996 
  -52002   -52012   -52029   -52053   -52070   -52081   -52096   -52120 
  -52147   -52159   -52164   -52168   -52170   -52170   -52162   -52142 
  -52124   -52115   -52101   -52085   -52068   -52057   -52057   -52056 
  -52047   -52043   -52043   -52039   -52031   -52030   -52039   -52046 
  -52053   -52057   -52050   -52042   -52041   -52043   -52046   -52047 
  -52053   -52069   -52092   -52119   -52150   -52182   -52226   -52280 
  -52321   -52348   -52367   -52382   -52397   -52412   -52427   -52448 
  -52470   -52474   -52473   -52483   -52504   -52532   -52566   -52594 
  -52616   -52633   -52647   -52656   -52668   -52685   -52704   -52717 
  -52722   -52726   -52731   -52732   -52726   -52713   -52691   -52677 
  -52658   -52632   -52620   -52623   -52631   -52640   -52647   -52645 
  -52654   -52675   -52702   -52722   -52741   -52764   -52786   -52797 
  -52809   -52824   -52836   -52837   -52829   -52814   -52789   -52744 
  -52695   -52659   -52624   -52585   -52547   -52508   -52470   -52438 
  -52404   -52367   -52347   -52338   -52330   -52324   -52323   -52328 
  -52340   -52357   -52377   -52404   -52436   -52479   -52524   -52558 
  -52597   -52655   -52717   -52764   -52797   -52825   -52855   -52880 
  -52901   -52920   -52930   -52936   -52941   -52936   -52914   -52886 
  -52861   -52836   -52803   -52766   -52732   -52708   -52683   -52655 
  -52629   -52605   -52577   -52552   -52539   -52532   -52521   -52505 
  -52486   -52473   -52469   -52473   -52477   -52478   -52481   -52482 
  -52482   -52479   -52475   -52471   -52467   -52463   -52458   -52448 
  -52440   -52434   -52429   -52425   -52415   -52409   -52413   -52421 
  -52431   -52440   -52452   -52463   -52474   -52486   -52492   -52492 
  -52497   -52506   -52515   -52512   -52501   -52485   -52465   -52450 
  -52435   -52416   -52394   -52365   -52330   -52288   -52245   -52211 
  -52182   -52151   -52119   -52087   -52064   -52054   -52053   -52058 
  -52066   -52077   -52095   -52111   -52122   -52139   -52162   -52181 
  -52185   -52186   -52191   -52196   -52193   -52192   -52191   -52174 
  -52150   -52138   -52132   -52123   -52114   -52110   -52112   -52107 
  -52100   -52096   -52089   -52081   -52081   -52088   -52099   -52104 
  -52103   -52107   -52115   -52120   -52132   -52154   -52168   -52176 
  -52195   -52218   -52247   -52292   -52339   -52377   -52408   -52438 
  -52477   -52519   -52550   -52567   -52582   -52593   -52604   -52614 
  -52623   -52631   -52641   -52652   -52662   -52674   -52693   -52718 
  -52747   -52774   -52805   -52844   -52882   -52922   -52969   -53011 
  -53034   -53056   -53080   -53091   -53092   -53094   -53090   -53082 
  -53073   -53061   -53046   -53033   -53021   -53006   -52991   -52979 
  -52968   -52963   -52967   -52975   -52974   -52964   -52953   -52942 
  -52932   -52925   -52913   -52891   -52867   -52839   -52806   -52779 
  -52756   -52729   -52697   -52656   -52617   -52585   -52562   -52539 
  -52510   -52481   -52456   -52436   -52419   -52402   -52381   -52359 
  -52342   -52327   -52305   -52278   -52258   -52243   -52223   -52205 
  -52193   -52178   -52162   -52150   -52139   -52134   -52131   -52124 
