Origin Time       2025/01/13 21:19:00
Lat.              31.8
Long.             131.6
Depth. (km)       30
Mag.              6.9
Station Code      EHMH11
Station Lat.      33.5807
Station Long.     132.6011
Station Height(m) 210
Record Time       2025/01/13 21:20:11
Sampling Freq(Hz) 100Hz
Duration Time(s)  134
Dir.              5
Scale Factor      7845(gal)/8223790
Max. Acc. (gal)   3.246
Last Correction   2025/01/13 21:20:12
Memo.             
[...]
   35581    35301    35314    35618    36067    36439    36617    36640 
   36579    36462    36306    36182    36151    36200    36301    36445 
   36612    36768    36877    36882    36772    36582    36310    35981 
   35669    35484    35521    35742    36024    36286    36433    36360 
   36093    35758    35514    35510    35752    36107    36439    36663 
   36747    36711    36612    36498    36355    36147    35926    35795 
   35800    35910    36067    36254    36416    36463    36378    36213 
   36011    35793    35641    35661    35846    36101    36366    36556 
   36590    36477    36266    36012    35810    35721    35773    35968 
   36228    36464    36625    36668    36610    36506    36383    36269 
   36174    36081    36005    36003    36092    36231    36352    36381 
   36255    36007    35780    35718    35838    36040    36242    36414 
   36529    36553    36472    36335    36205    36066    35954    35977 
   36116    36289    36495    36706    36798    36705    36491    36281 
   36154    36109    36154    36298    36428    36417    36289    36119 
   35969    35928    36028    36209    36406    36599    36744    36736 
   36537    36243    35957    35734    35627    35657    35796    36009 
   36271    36568    36786    36769    36545    36273    36036    35907 
   36004    36306    36582    36667    36603    36466    36269    36040 
   35846    35730    35676    35642    35668    35803    35966    36058 
   36077    36039    35974    35959    36050    36234    36470    36697 
   36853    36894    36813    36670    36540    36478    36472    36456 
   36421    36417    36437    36455    36460    36433    36374    36286 
   36169    36051    35954    35854    35758    35734    35865    36157 
   36477    36651    36603    36351    35982    35662    35545    35661 
   35916    36212    36464    36563    36450    36159    35775    35419 
   35221    35263    35564    36051    36551    36892    36996    36845 
   36536    36251    36101    36094    36211    36362    36445    36451 
   36393    36266    36121    36047    36070    36154    36242    36305 
   36331    36310    36240    36136    36051    36027    36055    36088 
   36089    36057    35995    35905    35810    35731    35703    35761 
   35900    36082    36235    36302    36265    36142    36020    36000 
   36126    36374    36647    36845    36917    36840    36663    36460 
   36223    35939    35707    35607    35642    35849    36231    36641 
   36922    37006    36882    36572    36157    35787    35581    35568 
   35738    36018    36244    36351    36351    36227    36018    35868 
   35888    36069    36296    36474    36571    36532    36294    35904 
   35514    35293    35329    35610    36072    36597    37030    37227 
   37114    36768    36397    36144    36062    36180    36418    36613 
   36718    36776    36757    36640    36447    36221    36026    35873 
   35800    35889    36135    36435    36698    36882    36923    36778 
   36493    36198    36004    35953    36046    36242    36443    36551 
   36526    36413    36278    36167    36086    36023    35988    36027 
   36158    36333    36470    36535    36544    36508    36433    36343 
   36252    36220    36310    36498    36701    36830    36838    36738 
   36562    36336    36109    35932    35846    35815    35761    35699 
   35700    35776    35874    35957    36027    36105    36212    36336 
   36409    36373    36262    36138    36035    35991    36028    36130 
   36266    36394    36463    36458    36398    36321    36236    36140 
   36094    36158    36301    36460    36607    36734    36818    36806 
   36672    36451    36196    35973    35861    35884    35988    36119 
   36270    36420    36497    36454    36312    36119    35922    35777 
   35727    35803    35997    36231    36427    36576    36688    36695 
   36540    36288    36081    35969    35932    35991    36146    36339 
   36479    36487    36346    36096    35789    35505    35345    35345 
   35507    35818    36166    36423    36541    36512    36401    36306 
   36255    36252    36283    36277    36205    36086    35942    35800 
   35688    35638    35699    35860    36058    36277    36506    36668 
   36690    36528    36178    35758    35460    35403    35607    35999 
   36410    36683    36751    36624    36385    36128    35896    35752 
   35772    35961    36247    36520    36668    36649    36481    36228 
   36028    35981    36035    36101    36146    36173    36202    36213 
   36173    36142    36170    36207    36221    36255    36306    36308 
   36209    36036    35858    35716    35635    35649    35752    35905 
   36088    36279    36433    36513    36540    36559    36552    36495 
   36428    36378    36309    36216    36143    36099    36072    36078 
   36121    36153    36105    36016    35976    35989    36045    36167 
   36350    36539    36624    36510    36265    36015    35864    35895 
   36099    36363    36558    36582    36427    36148    35824    35554 
   35409    35413    35567    35819    36081    36270    36342    36321 
   36251    36153    36040    35955    35953    36043    36200    36381 
   36512    36508    36354    36112    35846    35631    35591    35795 
   36177    36609    36987    37196    37139    36801    36289    35835 
   35586    35537    35679    35955    36225    36381    36397    36305 
   36153    35985    35892    35973    36217    36520    36783    36940 
   36925    36741    36497    36265    36038    35838    35742    35793 
   35968    36221    36498    36686    36670    36448    36107    35750 
   35476    35368    35476    35792    36208    36570    36779    36799 
   36633    36360    36081    35838    35679    35680    35849    36104 
   36350    36529    36657    36744    36794    36850    36934    37007 
   37038    37002    36876    36687    36497    36346    36259    36250 
   36302    36386    36454    36482    36431    36269    36061    35937 
   35941    36066    36278    36495    36603    36521    36254    35918 
   35629    35451    35460    35671    35981    36296    36579    36771 
   36776    36582    36286    36015    35869    35915    36139    36452 
   36730    36856    36803    36652    36497    36401    36391    36443 
   36501    36517    36471    36397    36319    36190    35989    35807 
   35748    35822    35972    36161    36364    36504    36477    36251 
   35918    35611    35430    35418    35584    35878    36224    36535 
   36703    36663    36448    36157    35883    35714    35733    35961 
   36327    36703    36969    37034    36849    36487    36078    35700 
   35438    35413    35644    36030    36409    36661    36763    36711 
   36521    36261    35973    35692    35552    35660    35978    36397 
   36782    36985    36914    36589    36155    35785    35568    35510 
   35611    35818    36043    36246    36393    36421    36300    36094 
   35955    36011    36259    36586    36863    37006    36972    36791 
   36583    36437    36348    36288    36236    36212    36224    36248 
   36306    36398    36420    36323    36165    36009    35847    35658 
   35522    35567    35803    36140    36483    36729    36755    36491 
   35997    35461    35101    35059    35375    35961    36625    37139 
   37316    37114    36668    36153    35694    35391    35338    35614 
   36169    36784    37255    37492    37449    37100    36454    35633 
   34881    34416    34375    34804    35607    36555    37384    37859 
   37818    37257    36391    35544    34947    34743    35002    35640 
   36456    37247    37754    37751    37247    36499    35830    35430 
   35367    35654    36158    36663    37026    37130    36907    36432 
   35892    35465    35253    35309    35640    36135    36555    36702 
   36578    36298    35978    35749    35734    35957    36336    36761 
   37139    37386    37408    37164    36748    36346    36093    36012 
   36107    36371    36687    36894    36923    36795    36553    36250 
   35942    35708    35622    35695    35880    36148    36466    36747 
   36906    36886    36680    36344    35985    35710    35575    35600 
   35797    36121    36487    36763    36821    36626    36259    35884 
   35677    35707    35918    36201    36452    36593    36599    36455 
   36154    35752    35344    35029    34971    35295    35916    36622 
   37218    37532    37438    36929    36151    35380    34889    34803 
   35136    35837    36705    37471    37941    38038    37775    37226 
   36521    35841    35356    35172    35325    35743    36286    36829 
   37284    37511    37359    36833    36115    35452    35043    35008 
   35375    36057    36798    37296    37449    37312    36903    36275 
   35608    35094    34882    35062    35586    36275    36888    37237 
   37254    36963    36464    35949    35587    35449    35541    35846 
   36256    36594    36783    36849    36787    36559    36198    35854 
   35683    35688    35789    35923    36032    36082    36054    35969 
   35904    35908    35955    36047    36197    36369    36540    36726 
   36877    36894    36732    36443    36144    35901    35735    35706 
   35883    36255    36675    36948    36984    36767    36273    35588 
   34943    34553    34543    34954    35684    36490    37087    37331 
   37230    36832    36269    35748    35440    35429    35687    36103 
   36560    36910    36968    36667    36109    35525    35159    35108 
   35341    35760    36213    36572    36740    36652    36374    36046 
   35742    35505    35402    35491    35795    36242    36690    37045 
   37272    37307    37076    36591    35997    35494    35214    35193 
   35411    35850    36455    37092    37589    37794    37596    37010 
   36205    35357    34634    34250    34404    35098    36105    37104 
   37828    38083    37774    36987    35991    35077    34491    34433 
   34966    35901    36909    37697    38068    37912    37303    36498 
   35779    35325    35194    35403    35939    36661    37300    37606 
   37480    36994    36369    35845    35534    35414    35376    35351 
   35370    35490    35734    36120    36617    37096    37411    37504 
   37388    37058    36586    36144    35885    35885    36126    36459 
   36718    36782    36570    36148    35723    35518    35649    36067 
   36587    37007    37197    37123    36861    36556    36342    36265 
   36251    36201    36105    36030    35980    35895    35769    35699 
   35777    35972    36139    36181    36127    36057    36015    36039 
   36181    36450    36720    36790    36586    36220    35853    35614 
   35602    35856    36278    36675    36915    36979    36859    36580 
   36261    36012    35915    36040    36360    36710    36929    36967 
   36860    36676    36491    36355    36263    36193    36204    36408 
   36764    37095    37253    37168    36865    36472    36127    35904 
   35788    35758    35870    36127    36428    36710    36921    36950 
   36769    36436    36043    35760    35737    35997    36467    36946 
   37157    36942    36371    35706    35243    35159    35483    36061 
   36594    36844    36733    36285    35660    35137    34946    35128 
   35603    36228    36809    37129    37008    36468    35746    35100 
   34740    34865    35507    36468    37403    37968    37974    37413 
   36445    35386    34560    34199    34470    35390    36680    37866 
   38492    38318    37400    36034    34705    33921    33926    34630 
   35739    36895    37797    38261    38206    37673    36844    35997 
   35388    35235    35658    36528    37540    38404    38809    38587 
   37870    36900    35943    35274    35050    35301    35895    36544 
   37027    37210    37015    36540    35972    35469    35175    35135 
   35307    35710    36308    36925    37353    37442    37183    36713 
   36184    35731    35476    35463    35704    36147    36626    36944 
   36976    36701    36151    35460    34921    34781    35028    35541 
   36189    36821    37260    37366    37072    36408    35537    34769 
   34407    34561    35162    36027    36898    37523    37754    37582 
   37137    36585    36073    35731    35599    35645    35851    36182 
   36540    36814    36958    36980    36865    36602    36283    36020 
   35820    35688    35677    35789    35985    36255    36555    36786 
   36844    36693    36394    36057    35814    35766    35865    35972 
   36018    36008    35985    36015    36185    36498    36799    36894 
   36732    36417    36097    35895    35861    35911    35930    35928 
   35949    35937    35854    35752    35685    35684    35770    35966 
   36228    36458    36552    36455    36186    35820    35438    35155 
   35091    35266    35599    35928    36086    36036    35874    35712 
   35635    35675    35792    35957    36155    36331    36428    36431 
   36347    36189    35961    35746    35704    35850    36023    36121 
   36175    36262    36432    36645    36811    36872    36776    36478 
   36036    35633    35488    35695    36123    36545    36822    36873 
   36688    36371    36061    35812    35592    35405    35338    35457 
   35812    36431    37170    37775    38053    37893    37281    36437 
   35702    35257    35068    35081    35318    35773    36294    36667 
   36775    36601    36140    35496    34969    34842    35136    35629 
   36112    36491    36738    36852    36842    36722    36462    35988 
   35372    34919    34898    35402    36370    37543    38541    39042 
   38804    37771    36217    34611    33377    32821    33118    34217 
   35823    37493    38732    39199    38835    37786    36405    35193 
   34481    34317    34673    35509    36617    37631    38226    38245 
   37674    36649    35527    34767    34663    35164    35999    36855 
   37459    37615    37268    36580    35800    35097    34589    34392 
   34560    35082    35857    36652    37246    37497    37287    36605 
   35683    34886    34465    34504    35027    35955    37041    37952 
   38406    38242    37478    36333    35190    34452    34379    34959 
   35955    37039    37870    38182    37910    37184    36223    35344 
   34904    35106    35907    36967    37798    38064    37675    36765 
   35665    34801    34522    34921    35810    36845    37665    37995 
   37781    37145    36290    35467    34902    34749    35052    35702 
   36477    37147    37484    37324    36698    35814    34986    34476 
   34383    34696    35295    35972    36579    37037    37227    37062 
   36602    36031    35577    35451    35738    36312    36898    37277 
   37384    37218    36780    36184    35611    35158    34923    35098 
   35738    36636    37466    37995    38161    37937    37265    36251 
   35259    34663    34647    35243    36300    37449    38373    38940 
   39050    38716    38119    37462    36918    36566    36378    36371 
   36535    36717    36825    36919    37050    37189    37282    37314 
   37322    37339    37384    37476    37544    37388    36910    36240 
   35577    35141    35141    35584    36239    36834    37157    37077 
   36589    35857    35208    34879    34862    35073    35449    35870 
   36250    36529    36629    36477    36020    35359    34755    34402 
   34391    34797    35490    36159    36617    36861    36929    36859 
   36698    36506    36340    36251    36277    36414    36591    36726 
   36779    36729    36562    36282    35949    35667    35527    35571 
   35834    36301    36813    37191    37323    37195    36888    36499 
   36088    35719    35502    35529    35792    36178    36540    36699 
   36509    36013    35394    34832    34476    34396    34596    35036 
   35568    35992    36201    36142    35845    35519    35405    35595 
   35995    36371    36509    36332    35900    35415    35122    35136 
   35430    35873    36323    36695    36910    36917    36787    36582 
   36250    35772    35205    34642    34221    34056    34167    34533 
   35070    35592    35966    36153    36042    35521    34751    34107 
   33890    34188    34894    35784    36610    37187    37435    37363 
   37030    36478    35770    35112    34747    34782    35193    35857 
   36570    37145    37470    37482    37200    36759    36327    36038 
   35970    36131    36477    36894    37262    37567    37814    37841 
   37451    36725    35977    35430    35145    35147    35430    35889 
   36321    36616    36817    36975    37058    37031    36921    36838 
   36890    37053    37200    37231    37133    36969    36857    36898 
   37071    37247    37303    37214    37053    36907    36790    36663 
   36502    36293    35993    35645    35348    35176    35230    35576 
   36120    36695    37170    37416    37339    36960    36396    35748 
   35067    34483    34173    34180    34427    34844    35326    35752 
   36054    36219    36283    36259    36082    35834    35765    35985 
   36394    36867    37301    37644    37876    37955    37831    37546 
   37183    36756    36312    36020    35955    36019    36078    36088 
   36104    36192    36400    36764    37185    37519    37727    37785 
   37658    37361    36969    36586    36306    36231    36454    36906 
   37347    37567    37508    37208    36714    36148    35773    35729 
   35857    35954    35943    35824    35656    35529    35529    35645 
   35757    35812    35891    36031    36157    36184    36094    35901 
   35633    35387    35303    35446    35793    36255    36695    36983 
   37030    36811    36389    35878    35415    35125    35106    35363 
   35779    36223    36578    36693    36479    35997    35507    35351 
   35646    36247    36973    37609    37875    37592    36857    35996 
   35270    34773    34635    34936    35461    35899    36126    36108 
   35873    35598    35510    35710    36097    36424    36497    36317 
   35992    35671    35514    35602    35955    36494    36957    37112 
   36926    36474    35896    35429    35391    35980    37021    38068 
   38719    38803    38304    37299    36038    34947    34391    34497 
   35194    36244    37285    37910    37854    37180    36221    35267 
   34492    34088    34175    34709    35571    36572    37389    37677 
   37242    36143    34730    33489    32825    32933    33767    35040 
   36316    37192    37426    36956    35951    34774    33829    33473 
   33874    34890    36130    37164    37756    37848    37484    36810 
   36035    35426    35239    35476    35959    36490    36834    36868 
   36699    36516    36489    36676    36991    37277    37284    36863 
   36228    35694    35417    35455    35718    35964    35970    35675 
   35216    34836    34727    34970    35434    35807    35850    35521 
   34970    34508    34419    34831    35692    36763    37702    38178 
   37959    37119    36077    35284    35012    35341    36126    37003 
   37582    37658    37291    36738    36281    36111    36324    36890 
   37635    38364    38857    38898    38479    37740    36811    35858 
   35082    34615    34487    34631    34958    35368    35696    35804 
   35695    35479    35256    35074    34973    34943    34912    34866 
   34875    34955    35066    35195    35349    35577    35927    36367 
   36830    37264    37571    37673    37547    37191    36676    36157 
   35749    35541    35591    35865    36255    36645    36925    37018 
