Origin Time       2025/01/13 21:19:00
Lat.              31.8
Long.             131.6
Depth. (km)       30
Mag.              6.9
Station Code      EHMH09
Station Lat.      33.4719
Station Long.     132.3072
Station Height(m) -145
Record Time       2025/01/13 21:20:07
Sampling Freq(Hz) 100Hz
Duration Time(s)  152
Dir.              2
Scale Factor      3923(gal)/8224838
Max. Acc. (gal)   1.762
Last Correction   2025/01/13 21:20:08
Memo.             
[...]
    3824     3828     3878     3958     4010     4013     3994     3985 
    3994     4012     4039     4058     4048     4002     3924     3836 
    3770     3738     3747     3796     3866     3936     3983     4002 
    4031     4083     4122     4121     4091     4062     4037     4005 
    3990     4012     4045     4071     4094     4106     4089     4045 
    4010     4013     4035     4039     3997     3916     3847     3809 
    3788     3758     3724     3726     3781     3858     3923     3967 
    3982     3979     4001     4058     4131     4209     4253     4241 
    4212     4190     4174     4178     4189     4179     4140     4078 
    4018     3983     3967     3966     3994     4048     4113     4180 
    4236     4272     4303     4337     4355     4340     4286     4191 
    4081     3975     3898     3863     3856     3847     3824     3788 
    3727     3649     3568     3501     3462     3435     3404     3383 
    3399     3443     3489     3530     3555     3553     3526     3499 
    3495     3528     3578     3607     3622     3666     3742     3817 
    3890     3951     3978     3975     3971     3983     4013     4031 
    3996     3915     3820     3720     3628     3566     3530     3488 
    3447     3437     3464     3515     3572     3638     3723     3812 
    3867     3878     3867     3851     3847     3867     3890     3877 
    3819     3766     3763     3802     3843     3863     3867     3863 
    3840     3789     3740     3715     3704     3696     3689     3682 
    3655     3612     3584     3568     3526     3476     3470     3522 
    3604     3686     3732     3721     3696     3709     3755     3797 
    3831     3867     3886     3851     3774     3704     3677     3689 
    3707     3720     3717     3694     3681     3688     3680     3654 
    3646     3678     3748     3840     3947     4066     4172     4239 
    4247     4193     4102     4016     3948     3894     3850     3812 
    3782     3774     3785     3774     3713     3624     3537     3491 
    3516     3589     3661     3740     3861     3998     4090     4112 
    4070     3994     3935     3920     3924     3932     3958     4000 
    4031     4032     4008     3963     3920     3901     3892     3873 
    3832     3780     3755     3777     3808     3801     3759     3726 
    3734     3786     3854     3871     3816     3739     3688     3676 
    3686     3674     3624     3566     3512     3481     3512     3615 
    3763     3912     4041     4137     4164     4124     4054     3996 
    3977     3989     4006     4017     4028     4031     4018     4023 
    4079     4168     4236     4263     4256     4224     4179     4148 
    4149     4168     4159     4105     4043     4013     4031     4093 
    4185     4270     4306     4284     4232     4171     4102     4037 
    3998     3989     4008     4052     4118     4187     4230     4255 
    4293     4325     4301     4210     4086     3986     3948     3963 
    4023     4114     4225     4337     4394     4367     4287     4180 
    4064     3977     3943     3929     3893     3847     3819     3825 
    3883     3994     4098     4144     4132     4110     4133     4207 
    4282     4305     4249     4152     4066     3998     3908     3753 
    3550     3385     3345     3437     3582     3692     3736     3748 
    3753     3738     3693     3645     3634     3667     3739     3858 
    4005     4126     4172     4133     4055     4006     4014     4044 
    4066     4079     4091     4101     4079     4037     4039     4098 
    4172     4214     4190     4101     3987     3879     3775     3662 
    3557     3514     3546     3604     3659     3700     3736     3802 
    3888     3946     3970     3966     3937     3894     3851     3825 
    3824     3848     3909     4000     4082     4136     4166     4180 
    4197     4221     4239     4243     4261     4328     4417     4487 
    4499     4457     4425     4433     4444     4444     4436     4406 
    4355     4301     4251     4206     4183     4187     4186     4164 
    4132     4101     4070     4036     4006     4024     4095     4164 
    4171     4118     4055     4014     3998     3990     3974     3948 
    3912     3862     3804     3767     3800     3910     4043     4132 
    4153     4140     4128     4109     4055     3964     3852     3754 
    3713     3744     3802     3821     3812     3805     3784     3732 
    3653     3547     3433     3337     3284     3298     3360     3439 
    3559     3751     3944     4068     4122     4151     4189     4225 
    4224     4151     4004     3839     3739     3727     3761     3766 
    3703     3632     3647     3731     3784     3759     3717     3723 
    3763     3829     3933     4041     4108     4145     4202     4279 
    4357     4430     4509     4588     4639     4658     4662     4671 
    4696     4692     4595     4434     4287     4175     4094     4054 
    4054     4098     4175     4228     4201     4106     3991     3897 
    3840     3835     3881     3982     4114     4234     4330     4392 
    4414     4402     4363     4291     4209     4136     4052     3940 
    3836     3788     3792     3825     3874     3932     3987     4004 
    3964     3923     3896     3824     3711     3609     3559     3572 
    3609     3630     3634     3618     3568     3515     3487     3487 
    3499     3489     3460     3435     3418     3412     3441     3507 
    3573     3603     3581     3501     3388     3291     3244     3244 
    3234     3192     3159     3176     3252     3357     3472     3584 
    3661     3693     3739     3829     3937     4050     4162     4252 
    4336     4450     4575     4671     4726     4730     4693     4668 
    4685     4726     4733     4679     4581     4448     4278     4101 
    3964     3896     3881     3890     3917     3946     3932     3861 
    3763     3678     3626     3573     3493     3422     3406     3433 
    3500     3635     3821     3973     4051     4102     4189     4310 
    4430     4526     4572     4554     4498     4446     4436     4452 
    4465     4469     4468     4438     4365     4278     4220     4205 
    4201     4172     4155     4207     4310     4388     4418     4421 
    4407     4387     4387     4417     4483     4568     4621     4615 
    4598     4602     4617     4634     4675     4747     4814     4791 
    4642     4459     4329     4253     4209     4174     4139     4132 
    4152     4167     4198     4282     4378     4423     4430     4433 
    4421     4374     4320     4313     4364     4417     4419     4375 
    4318     4284     4255     4176     4037     3867     3727     3676 
    3705     3763     3797     3778     3717     3640     3561     3495 
    3456     3461     3520     3624     3755     3904     4056     4170 
    4187     4131     4070     4028     3997     3986     3978     3964 
    3981     4029     4087     4158     4230     4284     4341     4434 
    4545     4648     4733     4770     4745     4677     4618     4599 
    4585     4529     4437     4321     4160     3979     3848     3786 
    3762     3757     3740     3678     3573     3472     3402     3350 
    3285     3206     3136     3076     3033     3055     3177     3375 
    3562     3676     3715     3696     3620     3501     3397     3357 
    3375     3414     3446     3447     3430     3423     3456     3561 
    3724     3882     4000     4074     4087     4035     3935     3835 
    3774     3763     3798     3869     3966     4072     4137     4098 
    3952     3758     3591     3499     3462     3434     3408     3414 
    3447     3484     3503     3508     3523     3551     3582     3635 
    3717     3813     3923     4055     4195     4329     4461     4591 
    4692     4738     4703     4587     4461     4392     4379     4398 
    4432     4460     4440     4363     4260     4145     4020     3892 
    3784     3728     3728     3750     3766     3771     3789     3842 
    3921     4032     4205     4413     4565     4587     4513     4445 
    4450     4537     4680     4834     4954     5050     5178     5354 
    5506     5567     5543     5494     5467     5441     5383     5278 
    5162     5101     5094     5090     5071     5040     4980     4864 
    4696     4510     4318     4158     4104     4191     4371     4525 
    4548     4446     4310     4234     4239     4224     4094     3871 
    3676     3591     3619     3732     3886     4002     4041     4032 
    4012     3993     3950     3873     3788     3700     3615     3608 
    3736     3931     4074     4121     4120     4125     4140     4141 
    4106     4027     3915     3796     3690     3613     3562     3518 
    3450     3331     3167     3009     2917     2907     2941     2976 
    3024     3123     3296     3489     3613     3634     3596     3586 
    3627     3634     3537     3376     3235     3167     3192     3295 
    3423     3539     3639     3712     3734     3688     3562     3368 
    3134     2882     2652     2501     2439     2423     2401     2359 
    2331     2353     2404     2438     2434     2384     2282     2151 
    2050     2039     2118     2246     2393     2536     2650     2748 
    2870     3013     3130     3181     3187     3183     3200     3256 
    3342     3449     3545     3591     3615     3670     3762     3862 
    3937     3943     3848     3657     3416     3172     2938     2755 
    2693     2762     2867     2910     2843     2681     2489     2344 
    2276     2228     2168     2170     2296     2465     2587     2677 
    2759     2833     2906     2990     3088     3172     3184     3114 
    3063     3136     3338     3611     3883     4091     4203     4248 
    4294     4364     4394     4310     4131     3931     3765     3646 
    3564     3526     3535     3574     3627     3685     3731     3770 
    3829     3908     4017     4201     4452     4719     4963     5166 
    5333     5460     5545     5616     5678     5740     5833     5922 
    5929     5867     5787     5684     5530     5356     5251     5256 
    5346     5452     5526     5578     5647     5734     5794     5784 
    5724     5648     5564     5472     5424     5472     5594     5730 
    5864     5988     6073     6092     6057     6007     5969     5933 
    5879     5768     5541     5242     5005     4905     4918     5009 
    5142     5252     5265     5157     4982     4808     4664     4527 
    4395     4297     4247     4249     4298     4361     4391     4376 
    4348     4322     4294     4270     4261     4239     4164     4051 
    3919     3751     3554     3360     3192     3076     3052     3110 
    3187     3222     3217     3214     3240     3281     3303     3258 
    3122     2911     2668     2430     2230     2120     2138     2247 
    2358     2382     2338     2309     2326     2319     2255     2193 
    2168     2161     2215     2382     2656     2997     3375     3775 
    4168     4504     4754     4900     4946     4953     4999     5092 
    5201     5286     5327     5348     5354     5304     5165     4932 
    4623     4257     3877     3524     3206     2894     2581     2243 
    1860     1471     1165      992      938      950      981     1005 
    1047     1156     1306     1445     1601     1818     2060     2251 
    2403     2560     2739     2921     3072     3192     3334     3534 
    3808     4174     4592     4950     5184     5312     5386     5440 
    5482     5505     5512     5532     5638     5876     6192     6488 
    6694     6812     6878     6875     6745     6496     6220     6029 
    5977     6014     6053     6084     6134     6184     6193     6146 
    6046     5895     5686     5421     5148     4938     4837     4800 
    4754     4684     4594     4471     4299     4067     3796     3527 
    3296     3140     3090     3153     3304     3460     3537     3547 
    3566     3646     3771     3900     4013     4113     4182     4191 
    4128     4017     3927     3900     3901     3861     3755     3638 
    3572     3534     3445     3299     3138     2983     2879     2845 
    2822     2797     2786     2776     2745     2702     2655     2617 
    2614     2673     2791     2971     3202     3456     3681     3828 
    3894     3889     3844     3813     3851     3982     4152     4278 
    4342     4372     4378     4360     4299     4186     4043     3865 
    3638     3407     3222     3113     3102     3175     3280     3380 
    3443     3416     3260     2995     2702     2462     2301     2205 
    2169     2169     2153     2088     1998     1935     1923     1917 
    1876     1821     1790     1844     2034     2316     2602     2847 
    3038     3179     3241     3183     3052     2959     2987     3165 
    3439     3703     3927     4140     4344     4546     4754     4905 
    4955     4904     4745     4477     4136     3747     3360     3076 
    2928     2798     2586     2299     1981     1637     1291     1027 
     897      870      903      999     1151     1304     1424     1551 
    1736     1948     2131     2293     2432     2512     2556     2636 
    2754     2893     3086     3346     3623     3871     4099     4341 
    4633     4951     5198     5328     5363     5328     5258     5212 
    5211     5228     5246     5289     5358     5428     5517     5628 
    5717     5732     5686     5699     5849     6070     6281     6478 
    6677     6862     6991     7044     7057     7072     7087     7078 
    7059     7082     7173     7306     7447     7558     7612     7628 
    7620     7576     7474     7334     7229     7167     7038     6767 
    6397     6049     5803     5629     5467     5317     5227     5184 
    5085     4849     4522     4224     4021     3886     3747     3577 
    3400     3275     3237     3257     3296     3372     3507     3670 
    3815     3954     4128     4345     4568     4712     4702     4534 
    4293     4095     3998     3975     4005     4067     4114     4117 
    4089     4054     3987     3856     3699     3573     3461     3310 
    3137     3018     3040     3260     3618     3970     4210     4334 
    4422     4513     4573     4587     4563     4526     4541     4650 
    4837     5044     5242     5416     5529     5562     5548     5499 
    5393     5217     4981     4704     4444     4266     4203     4245 
    4337     4428     4514     4608     4696     4745     4716     4564 
    4279     3937     3626     3385     3240     3195     3234     3334 
    3460     3582     3709     3834     3881     3809     3665     3492 
    3337     3261     3261     3280     3307     3364     3433     3469 
    3449     3345     3117     2786     2451     2192     2029     1922 
    1815     1676     1514     1355     1232     1163     1108     1015 
     901      823      796      816      854      897      989     1140 
    1291     1379     1402     1390     1336     1237     1132     1035 
     950      876      815      784      792      851      988     1177 
    1356     1506     1657     1846     2091     2366     2650     2941 
    3252     3550     3815     4068     4297     4429     4463     4449 
    4411     4372     4371     4403     4440     4484     4529     4519 
    4437     4352     4317     4287     4176     3960     3708     3537 
    3504     3520     3487     3441     3457     3522     3570     3549 
    3449     3298     3126     2955     2812     2686     2555     2478 
    2517     2637     2759     2835     2887     2994     3210     3543 
    3928     4261     4521     4749     4978     5200     5391     5567 
    5757     5891     5872     5757     5699     5751     5846     5913 
    5915     5853     5775     5722     5667     5563     5410     5246 
    5111     5053     5086     5166     5266     5404     5584     5795 
    6003     6160     6220     6191     6123     6060     5991     5876 
    5713     5530     5337     5125     4905     4698     4525     4425 
    4388     4379     4391     4414     4417     4410     4396     4361 
    4306     4225     4122     4008     3862     3686     3530     3415 
    3315     3206     3103     3044     3034     3019     2928     2751 
    2559     2444     2378     2255     2056     1856     1769     1840 
    2015     2253     2562     2906     3196     3385     3480     3541 
    3628     3723     3774     3804     3854     3906     3943     4009 
    4141     4311     4486     4652     4800     4935     5077     5215 
    5301     5319     5292     5239     5138     4968     4776     4637 
    4571     4544     4517     4467     4390     4297     4162     3948 
    3692     3456     3250     3090     3002     2963     2937     2938 
    3021     3175     3314     3411     3496     3585     3676     3730 
    3735     3726     3727     3742     3785     3881     4031     4185 
    4284     4340     4378     4392     4394     4414     4442     4448 
    4422     4392     4407     4487     4612     4739     4838     4909 
    4969     5009     4997     4942     4896     4897     4949     5055 
    5189     5302     5381     5408     5362     5278     5211     5171 
    5140     5088     5008     4928     4858     4792     4734     4693 
    4680     4692     4710     4734     4822     4976     5117     5181 
    5167     5116     5061     5026     5046     5088     5084     5032 
    4981     4943     4927     4934     4936     4892     4766     4560 
    4307     4054     3811     3565     3330     3142     3025     2987 
    3015     3069     3115     3181     3315     3480     3616     3742 
    3897     4051     4159     4232     4275     4287     4297     4334 
    4378     4401     4415     4428     4396     4286     4151     4054 
    3951     3775     3549     3358     3233     3113     2975     2843 
    2706     2565     2452     2369     2285     2208     2162     2169 
    2220     2261     2255     2224     2195     2153     2095     2065 
    2100     2182     2263     2286     2246     2181     2112     2047 
    1991     1946     1927     1965     2081     2238     2366     2454 
    2544     2681     2867     3088     3335     3584     3788     3931 
    4043     4148     4243     4310     4348     4347     4279     4153 
    4025     3913     3813     3750     3736     3748     3766     3811 
    3910     4044     4167     4260     4355     4475     4610     4773 
    4981     5177     5331     5454     5530     5543     5483     5362 
    5221     5104     5011     4915     4787     4654     4554     4476 
    4375     4232     4075     3933     3825     3755     3703     3635 
    3558     3516     3518     3519     3503     3492     3493     3473 
    3424     3377     3361     3391     3457     3520     3551     3538 
    3485     3407     3315     3238     3204     3203     3196     3188 
    3211     3261     3311     3365     3406     3377     3265     3132 
    3024     2951     2901     2840     2756     2671     2594     2539 
    2524     2528     2527     2527     2539     2585     2678     2783 
    2864     2925     2987     3052     3125     3210     3279     3329 
    3383     3430     3458     3481     3512     3569     3663     3774 
    3875     3947     3969     3944     3897     3827     3739     3658 
    3599     3572     3574     3601     3623     3597     3528     3454 
    3408     3388     3375     3364     3392     3480     3597     3699 
