Origin Time       2025/01/13 21:19:00
Lat.              31.8
Long.             131.6
Depth. (km)       30
Mag.              6.9
Station Code      EHMH09
Station Lat.      33.4719
Station Long.     132.3072
Station Height(m) 5
Record Time       2025/01/13 21:20:07
Sampling Freq(Hz) 100Hz
Duration Time(s)  152
Dir.              5
Scale Factor      7845(gal)/8223790
Max. Acc. (gal)   12.955
Last Correction   2025/01/13 21:20:08
Memo.             
[...]
    2122     1944     1757     1595     1416     1293     1358     1551 
    1737     1904     2093     2296     2513     2710     2794     2728 
    2625     2594     2647     2760     2926     3118     3283     3360 
    3307     3150     2979     2860     2789     2736     2697     2713 
    2806     2905     2961     3017     3064     3061     3053     3102 
    3154     3144     3091     3061     3064     3045     2964     2826 
    2681     2556     2427     2297     2214     2196     2259     2415 
    2621     2860     3154     3426     3546     3519     3454     3418 
    3404     3393     3384     3362     3325     3307     3314     3288 
    3202     3071     2928     2810     2763     2787     2829     2853 
    2879     2906     2868     2710     2478     2249     2074     1985 
    1962     1925     1826     1707     1611     1548     1541     1561 
    1539     1505     1563     1738     1973     2180     2320     2446 
    2608     2810     3042     3261     3429     3580     3728     3862 
    4012     4187     4357     4530     4706     4816     4803     4684 
    4530     4398     4276     4117     3904     3689     3495     3275 
    3017     2745     2438     2122     1898     1783     1703     1602 
    1503     1503     1615     1691     1629     1521     1494     1557 
    1629     1634     1549     1440     1399     1422     1432     1417 
    1416     1443     1534     1752     2080     2440     2783     3091 
    3381     3658     3862     3973     4058     4125     4128     4051 
    3928     3813     3769     3766     3697     3508     3271     3071 
    2922     2785     2643     2525     2500     2629     2886     3200 
    3555     3885     4082     4149     4137     4040     3867     3688 
    3524     3349     3137     2882     2631     2479     2457     2484 
    2470     2420     2420     2535     2722     2874     2910     2870 
    2826     2763     2633     2432     2169     1852     1541     1318 
    1208     1174     1197     1309     1501     1664     1738     1811 
    1992     2277     2569     2782     2906     2990     3091     3211 
    3267     3203     3065     2910     2774     2668     2585     2515 
    2523     2656     2872     3132     3424     3704     3937     4137 
    4326     4525     4729     4885     4957     4916     4760     4518 
    4253     4009     3748     3408     2998     2585     2234     2011 
    1941     1971     2018     2042     2011     1915     1800     1736 
    1734     1792     1915     2052     2127     2157     2165     2118 
    2026     1956     1918     1895     1888     1906     1968     2107 
    2347     2685     3041     3304     3415     3422     3402     3368 
    3315     3276     3288     3376     3527     3663     3732     3771 
    3807     3789     3697     3586     3523     3507     3492     3453 
    3418     3412     3384     3242     2971     2650     2335     2027 
    1728     1470     1304     1247     1254     1290     1366     1455 
    1487     1453     1422     1410     1386     1360     1383     1482 
    1659     1900     2203     2566     2937     3235     3451     3628 
    3769     3881     3975     3998     3932     3874     3883     3870 
    3753     3573     3415     3294     3176     3051     2932     2855 
    2864     2980     3172     3380     3551     3665     3727     3732 
    3627     3389     3114     2890     2716     2565     2415     2226 
    1969     1674     1391     1154      959      807      712      695 
     733      789      873     1046     1312     1578     1791     1977 
    2137     2253     2335     2431     2601     2872     3207     3558 
    3877     4105     4221     4244     4209     4152     4079     3991 
    3902     3852     3885     3962     3979     3882     3700     3468 
    3203     2933     2691     2500     2386     2378     2481     2654 
    2849     3041     3229     3414     3562     3639     3682     3699 
    3599     3341     3014     2704     2435     2189     1903     1524 
    1115      805      658      622      665      828     1135     1520 
    1879     2138     2320     2506     2704     2825     2805     2694 
    2621     2644     2691     2698     2664     2602     2546     2513 
    2482     2430     2394     2454     2639     2906     3214     3515 
    3726     3823     3867     3879     3848     3807     3777     3747 
    3755     3863     4032     4137     4137     4052     3908     3761 
    3632     3497     3375     3303     3295     3348     3438     3501 
    3466     3283     2976     2610     2196     1772     1421     1159 
     928      729      602      573      639      780      945     1108 
    1341     1703     2122     2501     2820     3072     3240     3343 
    3396     3364     3240     3078     2934     2880     2974     3171 
    3342     3415     3420     3429     3484     3578     3693     3842 
    4008     4131     4187     4172     4056     3862     3669     3526 
    3437     3403     3385     3335     3244     3154     3121     3165 
    3261     3341     3376     3358     3245     2997     2681     2403 
    2173     1945     1726     1563     1480     1468     1526     1648 
    1790     1933     2133     2404     2641     2751     2760     2743 
    2721     2683     2623     2513     2342     2147     1969     1809 
    1675     1621     1675     1802     1968     2182     2404     2531 
    2546     2560     2675     2895     3175     3449     3654     3796 
    3944     4101     4183     4159     4085     4020     3991     3991 
    3966     3882     3786     3744     3724     3613     3407     3231 
    3129     3024     2876     2685     2454     2250     2119     2003 
    1831     1640     1514     1468     1443     1421     1444     1561 
    1800     2120     2434     2673     2832     2991     3207     3431 
    3596     3708     3796     3846     3821     3700     3504     3291 
    3105     2976     2940     3019     3181     3343     3456     3516 
    3527     3527     3565     3619     3638     3612     3519     3326 
    3092     2938     2868     2767     2581     2371     2181     1985 
    1771     1526     1273     1104     1105     1233     1350     1371 
    1341     1352     1443     1572     1698     1850     2077     2376 
    2720     3125     3582     4044     4460     4770     4930     4957 
    4926     4889     4868     4855     4792     4638     4442     4260 
    4085     3900     3688     3433     3129     2783     2428     2130 
    1931     1796     1660     1513     1401     1347     1337     1341 
    1343     1377     1464     1563     1605     1533     1402     1364 
    1464     1579     1572     1437     1264     1181     1263     1485 
    1756     2039     2335     2594     2762     2857     2963     3146 
    3396     3645     3863     4101     4437     4887     5363     5772 
    6095     6309     6384     6318     6120     5805     5387     4878 
    4306     3761     3377     3200     3150     3129     3090     3010 
    2889     2762     2687     2675     2637     2490     2286     2112 
    1952     1749     1532     1382     1327     1283     1140      935 
     816      841      924      996     1067     1170     1282     1397 
    1572     1836     2123     2367     2533     2627     2689     2745 
    2782     2805     2862     2938     2953     2868     2728     2612 
    2570     2565     2552     2536     2527     2513     2461     2343 
    2187     2042     1926     1834     1807     1899     2072     2209 
    2253     2238     2236     2285     2353     2396     2442     2543 
    2741     3083     3570     4110     4599     4973     5189     5265 
    5292     5327     5340     5339     5394     5518     5656     5788 
    5890     5921     5877     5764     5536     5170     4716     4278 
    3901     3549     3156     2663     2065     1409      753      167 
    -317     -745    -1134    -1405    -1506    -1483    -1390    -1229 
   -1021     -810     -625     -500     -450     -417     -315      -68 
     360      936     1578     2172     2627     2929     3164     3451 
    3834     4280     4738     5193     5678     6193     6670     7034 
    7277     7423     7453     7312     7003     6620     6242     5854 
    5441     5036     4657     4311     4028     3790     3551     3342 
    3203     3079     2928     2771     2619     2461     2301     2151 
    2053     2020     1983     1884     1737     1563     1371     1179 
     984      815      741      785      924     1165     1544     2062 
    2635     3149     3541     3771     3856     3866     3834     3748 
    3588     3335     3048     2844     2740     2639     2470     2247 
    2019     1806     1595     1405     1300     1370     1633     1979 
    2288     2523     2644     2594     2394     2138     1884     1664 
    1539     1552     1719     2049     2473     2839     3072     3226 
    3368     3537     3769     4085     4467     4868     5240     5560 
    5818     6003     6056     5921     5643     5333     5086     4947 
    4880     4811     4718     4561     4290     3929     3543     3138 
    2686     2212     1768     1394     1142     1031     1027     1067 
    1078      990      772      444       59     -310     -606     -789 
    -882     -923     -874     -665     -307      108      500      807 
    1027     1210     1394     1570     1745     1942     2165     2420 
    2733     3076     3393     3689     4016     4415     4876     5314 
    5670     5945     6129     6185     6100     5872     5563     5298 
    5124     4980     4811     4614     4374     4036     3615     3195 
    2820     2506     2293     2176     2104     2060     2026     1957 
    1845     1730     1663     1601     1460     1297     1237     1259 
    1269     1300     1437     1657     1864     1993     2039     2047 
    2087     2153     2228     2366     2601     2893     3211     3543 
    3843     4054     4159     4166     4091     3978     3858     3781 
    3796     3883     3989     4063     4055     3985     3954     3983 
    3970     3843     3623     3389     3231     3145     3080     3064 
    3157     3339     3559     3758     3889     3994     4162     4388 
    4565     4583     4426     4195     3986     3770     3496     3207 
    2991     2870     2802     2748     2656     2469     2234     2074 
    2022     2003     1948     1836     1726     1703     1732     1749 
    1775     1842     1927     1989     1962     1815     1610     1447 
    1395     1491     1730     2030     2290     2477     2573     2593 
    2562     2467     2299     2130     2084     2197     2417     2712 
    3067     3419     3689     3852     3932     3955     3939     3888 
    3801     3703     3620     3519     3339     3090     2802     2473 
    2116     1819     1655     1584     1516     1437     1420     1528 
    1771     2093     2407     2659     2852     2968     2997     2974 
    2907     2745     2478     2187     2000     2029     2231     2432 
    2525     2555     2575     2589     2589     2589     2583     2554 
    2508     2488     2521     2620     2749     2822     2778     2604 
    2282     1831     1321      812      340      -59     -318     -365 
    -207       66      361      633      885     1161     1494     1865 
    2246     2620     2928     3103     3145     3115     3055     2959 
    2821     2670     2560     2548     2660     2879     3184     3543 
    3871     4044     4002     3796     3503     3152     2787     2500 
    2346     2282     2241     2149     1937     1602     1228      911 
     703      587      525      571      788     1161     1625     2104 
    2540     2925     3249     3491     3630     3661     3630     3630 
    3740     3990     4330     4680     5012     5304     5494     5552 
    5521     5429     5251     4986     4723     4554     4477     4406 
    4247     3993     3753     3605     3489     3288     2982     2631 
    2265     1879     1498     1165      877      657      544      502 
     480      506      615      787     1013     1302     1615     1918 
    2223     2555     2907     3271     3669     4136     4668     5215 
    5675     5950     6048     6073     6158     6365     6650     6913 
    7048     7026     6944     6901     6910     6941     6997     7067 
    7106     7090     7024     6897     6712     6505     6259     5884 
    5306     4534     3677     2871     2184     1620     1169      803 
     476      114     -338     -835    -1248    -1539    -1773    -1999 
   -2166    -2203    -2114    -2002    -1973    -2025    -2056    -1976 
   -1792    -1586    -1441    -1397    -1389    -1310    -1139     -892 
    -544      -93      427     1012     1644     2286     2974     3730 
    4463     5044     5390     5505     5497     5439     5301     5058 
    4753     4455     4198     3977     3813     3767     3848     3994 
    4139     4240     4305     4398     4577     4833     5117     5387 
    5633     5902     6232     6583     6872     7079     7248     7402 
    7506     7488     7280     6894     6436     5996     5578     5152 
    4695     4158     3499     2743     1960     1216      556      -33 
    -638    -1337    -2119    -2932    -3781    -4664    -5555    -6415 
   -7132    -7589    -7798    -7815    -7674    -7402    -6998    -6469 
   -5856    -5186    -4455    -3680    -2874    -2037    -1189     -333 
     541     1436     2369     3353     4383     5440     6525     7670 
    8911    10214    11481    12617    13559    14308    14906    15423 
   15890    16232    16374    16364    16295    16167    15907    15439 
   14728    13774    12623    11372    10102     8870     7750     6789 
    5957     5185     4428     3665     2868     2018     1094       72 
   -1040    -2216    -3419    -4579    -5617    -6515    -7310    -8043 
   -8695    -9232    -9676   -10027   -10223   -10233   -10029    -9598 
   -9007    -8329    -7560    -6666    -5676    -4672    -3724    -2820 
   -1867     -822      311     1503     2670     3742     4707     5556 
    6293     6917     7435     7917     8468     9105     9741    10276 
   10690    11025    11311    11515    11572    11469    11281    11067 
   10812    10442     9930     9332     8727     8109     7425     6693 
    6003     5439     5034     4708     4364     4010     3688     3362 
    3019     2698     2423     2203     2045     1923     1795     1618 
    1363     1012      533     -125     -989    -1985    -3018    -4029 
   -4946    -5687    -6261    -6735    -7123    -7411    -7609    -7731 
   -7738    -7560    -7134    -6466    -5675    -4843    -3875    -2725 
   -1595     -642      141      764     1278     1775     2259     2732 
    3254     3870     4591     5451     6432     7425     8330     9120 
    9786    10328    10752    11037    11200    11373    11680    12052 
   12307    12347    12179    11846    11369    10752    10034     9248 
    8398     7512     6600     5624     4587     3535     2532     1610 
     703     -284    -1394    -2579    -3743    -4839    -5863    -6759 
   -7442    -7897    -8178    -8336    -8352    -8155    -7712    -7064 
   -6276    -5416    -4553    -3730    -2909    -2020    -1082     -156 
     770     1740     2728     3704     4646     5522     6374     7272 
    8164     8941     9576    10092    10459    10681    10825    10949 
   11052    11109    11087    10948    10667    10230     9621     8884 
    8133     7469     6936     6567     6377     6318     6322     6334 
    6327     6286     6184     5992     5697     5304     4870     4480 
    4182     3943     3692     3395     3045     2627     2176     1795 
    1571     1520     1576     1660     1759     1890     1979     1969 
    1919     1846     1678     1389     1011      596      198     -152 
    -445     -677     -837     -949    -1070    -1190    -1246    -1212 
   -1092     -869     -575     -288      -49      211      592     1031 
    1336     1453     1494     1483     1378     1219     1047      903 
     915     1156     1564     2080     2679     3319     3951     4545 
    5049     5424     5710     5952     6177     6399     6602     6747 
    6824     6903     7053     7268     7503     7666     7654     7464 
    7191     6914     6663     6493     6455     6480     6443     6307 
    6072     5717     5263     4788     4341     3904     3450     2979 
    2497     2002     1521     1128      869      722      689      796 
     967     1055     1039     1058     1188     1302     1182      766 
     180     -423     -978    -1490    -1953    -2280    -2393    -2330 
   -2173    -1962    -1726    -1513    -1328    -1117     -828     -471 
    -117      186      488      841     1182     1412     1499     1452 
    1267      950      523       56     -359     -654     -810     -850 
    -772     -527     -112      456     1186     2060     3018     4013 
    4989     5842     6519     7024     7344     7443     7346     7134 
    6907     6698     6463     6166     5871     5684     5616     5590 
    5574     5587     5634     5664     5597     5417     5161     4864 
    4519     4085     3524     2852     2104     1318      561     -103 
    -660    -1120    -1494    -1788    -2007    -2134    -2142    -2030 
   -1817    -1530    -1229     -997     -864     -730     -515     -264 
     -39      140      236      255      247      199       89      -54 
    -179     -253     -255     -137      152      583     1078     1598 
    2122     2606     3044     3476     3913     4310     4664     5047 
    5510     6065     6694     7346     8004     8688     9404    10138 
   10851    11476    11966    12337    12634    12864    12981    12930 
   12652    12143    11481    10724     9896     9013     8054     6984 
    5860     4801     3859     2995     2192     1431      662      -99 
    -792    -1424    -2027    -2562    -2990    -3349    -3688    -4039 
   -4433    -4884    -5333    -5729    -6097    -6443    -6709    -6893 
   -7038    -7128    -7092    -6874    -6400    -5634    -4622    -3470 
   -2289    -1108      112     1398     2710     3937     4997     5921 
    6779     7608     8394     9089     9703    10281    10816    11252 
   11541    11676    11722    11726    11634    11407    11095    10721 
   10265     9737     9161     8552     7960     7403     6852     6304 
    5748     5127     4410     3608     2748     1848      912      -51 
    -989    -1834    -2551    -3133    -3599    -3955    -4167    -4201 
   -4062    -3785    -3392    -2911    -2385    -1857    -1355     -936 
    -687     -610     -656     -814    -1054    -1310    -1520    -1598 
   -1444    -1055     -523       76      707     1331     1948     2601 
    3310     4047     4793     5520     6164     6700     7165     7588 
    7978     8297     8451     8414     8255     8054     7858     7672 
    7469     7249     7047     6910     6868     6907     6961     6955 
    6887     6835     6849     6887     6878     6777     6563     6254 
    5907     5563     5204     4795     4329     3809     3223     2597 
    1979     1372      760      137     -513    -1183    -1780    -2245 
   -2629    -2999    -3325    -3526    -3561    -3443    -3237    -3036 
   -2894    -2771    -2579    -2295    -1914    -1433     -888     -311 
     313      966     1587     2160     2725     3298     3829     4276 
    4668     5085     5587     6156     6741     7331     7936     8526 
