Origin Time       2025/01/13 21:19:00
Lat.              31.8
Long.             131.6
Depth. (km)       30
Mag.              6.9
Station Code      EHMH06
Station Lat.      33.3348
Station Long.     132.7980
Station Height(m) 30
Record Time       2025/01/13 21:20:11
Sampling Freq(Hz) 100Hz
Duration Time(s)  145
Dir.              3
Scale Factor      3923(gal)/8224838
Max. Acc. (gal)   2.061
Last Correction   2025/01/13 21:20:11
Memo.             
[...]
  -21118   -21315   -21444   -21494   -21477   -21470   -21465   -21397 
  -21358   -21396   -21384   -21332   -21351   -21396   -21398   -21348 
  -21200   -20980   -20819   -20749   -20731   -20810   -20912   -20899 
  -20834   -20802   -20769   -20767   -20788   -20790   -20865   -21053 
  -21203   -21271   -21355   -21427   -21385   -21263   -21178   -21169 
  -21177   -21157   -21124   -21104   -21053   -20965   -20898   -20868 
  -20885   -20937   -20934   -20845   -20700   -20561   -20518   -20549 
  -20613   -20723   -20842   -20937   -20996   -20993   -20979   -20995 
  -21003   -21011   -21030   -21050   -21158   -21321   -21379   -21374 
  -21421   -21500   -21550   -21585   -21659   -21755   -21786   -21755 
  -21762   -21847   -21910   -21897   -21882   -21864   -21794   -21714 
  -21639   -21524   -21458   -21528   -21641   -21683   -21668   -21618 
  -21516   -21382   -21209   -20974   -20765   -20656   -20605   -20555 
  -20521   -20520   -20502   -20412   -20277   -20231   -20333   -20486 
  -20667   -20933   -21181   -21285   -21281   -21280   -21284   -21259 
  -21242   -21255   -21285   -21315   -21320   -21339   -21412   -21467 
  -21447   -21427   -21442   -21423   -21375   -21382   -21428   -21429 
  -21384   -21351   -21334   -21300   -21226   -21126   -21066   -21062 
  -21057   -21055   -21123   -21274   -21446   -21606   -21724   -21757 
  -21743   -21713   -21655   -21547   -21394   -21285   -21242   -21204 
  -21232   -21370   -21543   -21703   -21775   -21694   -21563   -21498 
  -21447   -21369   -21347   -21408   -21465   -21450   -21389   -21336 
  -21271   -21153   -20995   -20823   -20645   -20468   -20337   -20275 
  -20251   -20233   -20221   -20268   -20382   -20425   -20333   -20223 
  -20213   -20297   -20333   -20299   -20305   -20308   -20262   -20262 
  -20314   -20389   -20524   -20703   -20925   -21186   -21359   -21474 
  -21640   -21745   -21739   -21698   -21625   -21593   -21655   -21736 
  -21840   -22002   -22158   -22250   -22304   -22346   -22368   -22361 
  -22308   -22194   -22049   -21917   -21833   -21782   -21694   -21614 
  -21601   -21581   -21486   -21319   -21130   -20941   -20696   -20413 
  -20197   -20125   -20194   -20289   -20314   -20333   -20332   -20206 
  -20012   -19870   -19862   -20001   -20171   -20299   -20429   -20561 
  -20659   -20722   -20760   -20804   -20885   -20989   -21105   -21216 
  -21308   -21413   -21512   -21540   -21513   -21455   -21361   -21243 
  -21119   -20981   -20849   -20769   -20771   -20839   -20930   -20981 
  -20968   -20957   -21026   -21138   -21177   -21092   -20977   -20914 
  -20837   -20746   -20775   -20933   -21095   -21176   -21203   -21207 
  -21153   -21060   -21000   -20927   -20781   -20644   -20628   -20756 
  -20954   -21095   -21091   -20968   -20792   -20607   -20476   -20463 
  -20552   -20653   -20687   -20694   -20700   -20675   -20677   -20741 
  -20812   -20850   -20844   -20849   -20854   -20772   -20683   -20668 
  -20617   -20495   -20428   -20428   -20426   -20478   -20629   -20791 
  -20895   -20942   -20962   -21062   -21247   -21343   -21293   -21207 
  -21142   -21095   -21074   -21120   -21254   -21396   -21459   -21463 
  -21456   -21459   -21462   -21411   -21312   -21240   -21190   -21100 
  -20970   -20842   -20810   -20907   -21012   -21088   -21201   -21338 
  -21448   -21474   -21370   -21239   -21193   -21193   -21222   -21288 
  -21307   -21232   -21136   -21096   -21131   -21186   -21217   -21222 
  -21204   -21158   -21080   -20993   -20941   -20919   -20888   -20848 
  -20838   -20835   -20841   -20927   -21095   -21238   -21297   -21312 
  -21355   -21428   -21477   -21504   -21512   -21413   -21226   -21066 
  -20962   -20885   -20833   -20812   -20853   -20922   -20969   -21046 
  -21213   -21412   -21556   -21617   -21582   -21516   -21502   -21527 
  -21586   -21687   -21786   -21878   -21946   -21944   -21890   -21801 
  -21686   -21593   -21504   -21384   -21250   -21091   -20935   -20860 
  -20866   -20900   -20927   -20946   -20973   -20996   -20981   -20925 
  -20844   -20777   -20696   -20524   -20335   -20289   -20326   -20304 
  -20290   -20343   -20359   -20289   -20132   -19908   -19723   -19627 
  -19575   -19564   -19606   -19629   -19622   -19633   -19677   -19780 
  -19921   -20108   -20368   -20591   -20704   -20807   -20945   -21092 
  -21240   -21392   -21508   -21537   -21508   -21489   -21544   -21668 
  -21791   -21897   -21940   -21825   -21575   -21327   -21174   -21118 
  -21108   -21138   -21188   -21207   -21217   -21244   -21208   -21105 
  -21074   -21123   -21166   -21249   -21388   -21504   -21556   -21571 
  -21606   -21640   -21567   -21385   -21215   -21184   -21293   -21409 
  -21470   -21494   -21481   -21486   -21556   -21647   -21729   -21766 
  -21729   -21702   -21678   -21585   -21505   -21508   -21505   -21450 
  -21398   -21351   -21249   -21127   -21093   -21112   -21055   -20903 
  -20714   -20510   -20308   -20200   -20223   -20278   -20328   -20397 
  -20455   -20501   -20533   -20575   -20702   -20902   -21115   -21317 
  -21456   -21570   -21722   -21847   -21902   -21948   -21976   -22006 
  -22115   -22212   -22177   -22064   -21978   -21965   -21998   -22018 
  -21984   -21894   -21784   -21648   -21452   -21276   -21169   -21118 
  -21157   -21235   -21271   -21330   -21390   -21392   -21397   -21385 
  -21307   -21250   -21219   -21159   -21107   -21124   -21231   -21328 
  -21301   -21180   -21065   -20981   -20908   -20812   -20679   -20563 
  -20513   -20472   -20448   -20526   -20657   -20742   -20808   -20880 
  -20931   -21012   -21155   -21312   -21435   -21489   -21509   -21568 
  -21617   -21616   -21635   -21671   -21695   -21747   -21870   -22019 
  -22087   -22000   -21821   -21662   -21559   -21469   -21365   -21263 
  -21169   -21089   -21026   -20976   -20989   -21049   -21060   -21028 
  -21015   -21027   -21042   -21008   -20892   -20737   -20619   -20537 
  -20467   -20449   -20472   -20447   -20360   -20349   -20488   -20640 
  -20725   -20821   -20912   -20903   -20830   -20835   -20893   -20872 
  -20798   -20777   -20807   -20857   -20908   -20931   -20902   -20806 
  -20663   -20537   -20507   -20598   -20726   -20777   -20815   -20950 
  -21080   -21091   -21037   -20965   -20852   -20713   -20648   -20711 
  -20822   -20927   -21050   -21186   -21273   -21235   -21119   -21074 
  -21115   -21139   -21142   -21180   -21247   -21296   -21284   -21226 
  -21182   -21151   -21103   -21061   -21035   -21049   -21118   -21162 
  -21159   -21211   -21305   -21359   -21415   -21517   -21605   -21622 
  -21621   -21632   -21589   -21497   -21442   -21400   -21331   -21325 
  -21421   -21543   -21674   -21783   -21810   -21756   -21597   -21371 
  -21157   -20919   -20714   -20664   -20698   -20706   -20721   -20780 
  -20819   -20752   -20641   -20601   -20606   -20615   -20640   -20655 
  -20663   -20671   -20649   -20614   -20553   -20406   -20262   -20200 
  -20127   -19982   -19800   -19634   -19553   -19548   -19554   -19564 
  -19588   -19610   -19616   -19637   -19693   -19769   -19877   -20071 
  -20302   -20459   -20541   -20602   -20641   -20626   -20578   -20571 
  -20626   -20714   -20842   -20988   -21123   -21243   -21311   -21300 
  -21234   -21145   -21061   -21011   -21060   -21208   -21359   -21485 
  -21614   -21733   -21824   -21868   -21868   -21838   -21784   -21755 
  -21791   -21860   -21926   -21949   -21895   -21820   -21794   -21770 
  -21679   -21578   -21520   -21509   -21605   -21786   -21925   -22011 
  -22048   -21955   -21757   -21548   -21377   -21327   -21408   -21533 
  -21663   -21748   -21730   -21698   -21720   -21702   -21622   -21573 
  -21562   -21550   -21510   -21458   -21428   -21405   -21367   -21328 
  -21246   -21104   -20974   -20883   -20831   -20880   -21027   -21174 
  -21294   -21392   -21444   -21481   -21566   -21701   -21810   -21851 
  -21855   -21848   -21826   -21776   -21694   -21655   -21713   -21790 
  -21813   -21797   -21775   -21747   -21695   -21652   -21618   -21543 
  -21450   -21359   -21230   -21077   -20965   -20915   -20891   -20841 
  -20780   -20742   -20730   -20717   -20653   -20571   -20563   -20613 
  -20690   -20825   -20980   -21080   -21112   -21101   -21064   -21018 
  -21018   -21064   -21058   -20979   -20902   -20900   -20968   -21026 
  -21007   -20900   -20742   -20605   -20515   -20440   -20366   -20332 
  -20375   -20447   -20474   -20476   -20514   -20596   -20629   -20556 
  -20472   -20463   -20480   -20451   -20403   -20403   -20451   -20544 
  -20686   -20823   -20869   -20800   -20669   -20470   -20221   -20090 
  -20133   -20202   -20268   -20405   -20552   -20606   -20578   -20545 
  -20509   -20428   -20383   -20466   -20641   -20872   -21112   -21339 
  -21568   -21710   -21686   -21587   -21469   -21344   -21278   -21253 
  -21200   -21124   -21087   -21089   -21073   -21012   -20966   -21003 
  -21072   -21064   -21010   -20984   -20954   -20887   -20790   -20696 
  -20653   -20667   -20700   -20736   -20830   -21051   -21312   -21448 
  -21460   -21462   -21509   -21608   -21749   -21956   -22225   -22500 
  -22724   -22874   -22981   -23063   -23087   -23093   -23136   -23193 
  -23194   -23062   -22783   -22478   -22246   -22088   -21979   -21888 
  -21795   -21670   -21496   -21335   -21219   -21076   -20875   -20687 
  -20551   -20457   -20433   -20482   -20556   -20606   -20583   -20486 
  -20420   -20470   -20586   -20704   -20835   -21006   -21192   -21325 
  -21361   -21338   -21321   -21325   -21292   -21197   -21077   -20912 
  -20710   -20574   -20518   -20486   -20468   -20395   -20200   -19943 
  -19762   -19745   -19834   -19934   -20008   -20021   -20013   -20059 
  -20164   -20324   -20493   -20619   -20737   -20839   -20900   -20946 
  -20965   -20938   -20920   -20930   -20987   -21151   -21409   -21666 
  -21892   -22117   -22291   -22388   -22469   -22550   -22596   -22627 
  -22646   -22585   -22426   -22268   -22173   -22122   -22072   -21968 
  -21794   -21652   -21609   -21570   -21444   -21257   -21078   -20946 
  -20873   -20866   -20868   -20841   -20862   -20945   -21007   -21041 
  -21076   -21136   -21224   -21289   -21301   -21304   -21390   -21568 
  -21721   -21770   -21760   -21767   -21795   -21818   -21836   -21857 
  -21841   -21766   -21699   -21702   -21757   -21855   -21994   -22121 
  -22149   -22077   -21996   -21910   -21783   -21641   -21482   -21343 
  -21338   -21420   -21481   -21544   -21601   -21573   -21490   -21388 
  -21219   -20966   -20680   -20407   -20183   -20059   -20016   -19973 
  -19911   -19878   -19877   -19874   -19853   -19788   -19707   -19646 
  -19560   -19383   -19157   -18962   -18794   -18631   -18535   -18542 
  -18559   -18540   -18542   -18578   -18605   -18616   -18638   -18704 
  -18813   -18912   -18982   -19064   -19183   -19354   -19587   -19840 
  -20102   -20374   -20656   -20953   -21246   -21519   -21706   -21736 
  -21671   -21613   -21529   -21379   -21262   -21242   -21273   -21336 
  -21436   -21525   -21550   -21493   -21393   -21311   -21222   -21105 
  -21006   -20931   -20888   -20892   -20957   -21084   -21216   -21300 
  -21352   -21340   -21188   -21012   -20956   -20950   -20966   -21060 
  -21195   -21267   -21250   -21236   -21243   -21213   -21259   -21479 
  -21775   -22081   -22439   -22762   -22945   -23041   -23120   -23184 
  -23226   -23213   -23125   -23006   -22882   -22756   -22682   -22647 
  -22561   -22453   -22387   -22319   -22199   -22010   -21756   -21490 
  -21281   -21195   -21162   -21028   -20846   -20744   -20637   -20445 
  -20244   -20069   -19834   -19498   -19186   -19001   -18879   -18752 
  -18635   -18546   -18474   -18416   -18403   -18441   -18468   -18481 
  -18559   -18729   -18954   -19171   -19342   -19539   -19826   -20156 
  -20497   -20846   -21204   -21529   -21780   -22006   -22200   -22284 
  -22246   -22088   -21848   -21654   -21554   -21519   -21555   -21629 
  -21663   -21633   -21535   -21392   -21307   -21320   -21398   -21524 
  -21625   -21627   -21578   -21537   -21546   -21632   -21690   -21631 
  -21570   -21598   -21651   -21693   -21729   -21728   -21728   -21739 
  -21702   -21663   -21691   -21778   -21880   -21986   -22115   -22231 
  -22303   -22383   -22486   -22547   -22558   -22593   -22681   -22765 
  -22832   -22958   -23168   -23369   -23485   -23548   -23553   -23446 
  -23291   -23201   -23183   -23228   -23284   -23234   -23068   -22901 
  -22725   -22477   -22211   -22017   -21880   -21748   -21608   -21450 
  -21282   -21132   -20974   -20760   -20476   -20162   -19889   -19695 
  -19585   -19587   -19657   -19672   -19599   -19499   -19418   -19380 
  -19354   -19284   -19184   -19071   -18960   -18922   -18975   -19049 
  -19103   -19140   -19156   -19157   -19167   -19186   -19217   -19269 
  -19329   -19380   -19418   -19454   -19526   -19651   -19796   -19935 
  -20094   -20305   -20615   -21022   -21446   -21810   -22067   -22198 
  -22292   -22450   -22661   -22901   -23164   -23382   -23508   -23556 
  -23518   -23440   -23368   -23240   -23055   -22959   -23002   -23085 
  -23116   -23082   -23049   -23066   -23093   -23129   -23230   -23355 
  -23410   -23406   -23417   -23475   -23539   -23575   -23603   -23591 
  -23475   -23303   -23129   -22951   -22800   -22689   -22597   -22478 
  -22257   -21917   -21506   -21100   -20719   -20337   -19978   -19683 
  -19400   -19076   -18727   -18403   -18138   -17887   -17618   -17437 
  -17392   -17373   -17316   -17235   -17124   -16977   -16835   -16773 
  -16811   -16896   -16942   -16911   -16900   -17019   -17211   -17346 
  -17386   -17385   -17392   -17390   -17363   -17356   -17382   -17428 
  -17524   -17637   -17699   -17732   -17821   -17988   -18184   -18376 
  -18566   -18763   -18948   -19066   -19125   -19206   -19305   -19363 
  -19417   -19535   -19661   -19750   -19880   -20040   -20140   -20223 
  -20351   -20506   -20683   -20848   -20939   -20980   -21045   -21172 
  -21347   -21506   -21624   -21766   -21971   -22188   -22403   -22650 
  -22933   -23201   -23404   -23565   -23722   -23874   -24028   -24194 
  -24385   -24618   -24868   -25054   -25147   -25155   -25064   -24865 
  -24592   -24316   -24140   -24085   -24066   -24040   -24003   -23920 
  -23792   -23618   -23369   -23070   -22769   -22495   -22277   -22134 
  -22056   -22019   -21983   -21921   -21882   -21901   -21942   -21982 
  -22036   -22094   -22142   -22183   -22200   -22204   -22227   -22287 
  -22373   -22493   -22663   -22867   -23052   -23199   -23314   -23386 
  -23419   -23402   -23280   -23098   -22937   -22747   -22496   -22272 
  -22087   -21871   -21651   -21471   -21296   -21095   -20838   -20515 
  -20214   -19996   -19815   -19651   -19506   -19363   -19286   -19326 
  -19415   -19473   -19495   -19481   -19421   -19365   -19360   -19327 
  -19240   -19180   -19183   -19222   -19255   -19240   -19236   -19275 
  -19307   -19325   -19368   -19425   -19431   -19363   -19286   -19271 
  -19315   -19364   -19390   -19438   -19518   -19568   -19622   -19753 
  -19909   -20067   -20258   -20429   -20542   -20652   -20776   -20900 
  -21049   -21244   -21458   -21655   -21863   -22098   -22353   -22608 
  -22797   -22893   -22947   -22997   -23056   -23113   -23105   -22997 
  -22808   -22576   -22365   -22208   -22076   -21948   -21824   -21724 
  -21679   -21667   -21629   -21559   -21486   -21421   -21343   -21231 
  -21081   -20910   -20763   -20650   -20557   -20479   -20387   -20282 
  -20212   -20186   -20167   -20185   -20274   -20367   -20395   -20387 
  -20368   -20320   -20237   -20142   -20052   -19993   -19935   -19842 
  -19777   -19803   -19863   -19903   -19921   -19916   -19853   -19735 
  -19608   -19502   -19442   -19469   -19557   -19626   -19656   -19695 
  -19776   -19903   -20088   -20328   -20561   -20734   -20887   -21074 
  -21282   -21519   -21817   -22135   -22428   -22717   -22997   -23213 
  -23356   -23488   -23662   -23830   -23930   -23971   -23996   -24019 
  -24021   -24007   -23990   -23974   -23951   -23922   -23878   -23808 
  -23723   -23641   -23544   -23441   -23353   -23252   -23145   -23062 
  -22983   -22889   -22781   -22620   -22383   -22107   -21829   -21570 
  -21362   -21204   -21038   -20814   -20536   -20260   -20043   -19872 
  -19705   -19557   -19435   -19314   -19167   -18971   -18758   -18567 
  -18376   -18191   -18057   -17971   -17911   -17880   -17853   -17822 
  -17822   -17853   -17899   -17979   -18072   -18125   -18127   -18096 
  -18060   -18058   -18084   -18126   -18220   -18401   -18632   -18829 
  -18978   -19121   -19265   -19411   -19568   -19727   -19909   -20133 
  -20389   -20645   -20865   -21078   -21330   -21589   -21838   -22125 
  -22415   -22654   -22817   -22889   -22918   -22986   -23071   -23122 
  -23112   -23016   -22877   -22735   -22578   -22407   -22231   -22083 
  -21991   -21918   -21826   -21722   -21610   -21477   -21342   -21246 
  -21217   -21250   -21289   -21332   -21423   -21536   -21641   -21763 
  -21917   -22086   -22242   -22404   -22609   -22829   -23036   -23233 
  -23444   -23679   -23904   -24085   -24224   -24340   -24474   -24606 
  -24660   -24628   -24578   -24547   -24541   -24545   -24533   -24520 
  -24507   -24455   -24356   -24241   -24102   -23935   -23751   -23552 
  -23321   -23064   -22801   -22553   -22311   -22063   -21810   -21586 
  -21420   -21282   -21147   -21022   -20896   -20749   -20619   -20542 
  -20488   -20449   -20414   -20335   -20214   -20102   -20039   -20029 
  -20015   -19988   -19962   -19900   -19819   -19785   -19786   -19766 
  -19701   -19615   -19526   -19433   -19332   -19213   -19089   -18994 
  -18963   -18975   -18974   -18960   -18960   -18945   -18898   -18827 
  -18744   -18654   -18565   -18503   -18470   -18461   -18477   -18496 
  -18493   -18470   -18439   -18424   -18481   -18623   -18787   -18933 
  -19055   -19163   -19294   -19465   -19641   -19801   -19959   -20120 
  -20295   -20479   -20636   -20760   -20875   -20979   -21066   -21142 
  -21201   -21240   -21284   -21350   -21433   -21510   -21594   -21717 
  -21857   -21996   -22171   -22385   -22586   -22709   -22750   -22775 
  -22798   -22785   -22748   -22715   -22700   -22731   -22817   -22927 
  -22991   -22994   -22972   -22916   -22821   -22744   -22669   -22558 
  -22446   -22329   -22169   -21995   -21855   -21744   -21628   -21523 
  -21444   -21357   -21234   -21099   -20979   -20869   -20746   -20625 
  -20540   -20484   -20449   -20443   -20448   -20426   -20385   -20360 
  -20359   -20352   -20321   -20274   -20231   -20187   -20155   -20178 
  -20244   -20291   -20340   -20440   -20575   -20722   -20891   -21062 
  -21199   -21324   -21465   -21591   -21705   -21813   -21909   -22003 
  -22122   -22273   -22427   -22550   -22624   -22657   -22663   -22628 
  -22534   -22422   -22284   -22073   -21844   -21659   -21492   -21311 
  -21124   -20943   -20753   -20520   -20250   -19989   -19738   -19496 
  -19311   -19210   -19159   -19124   -19094   -19068   -19075   -19130 
  -19207   -19272   -19344   -19449   -19602   -19808   -20043   -20244 
  -20409   -20576   -20745   -20888   -21008   -21143   -21325   -21517 
  -21647   -21721   -21764   -21772   -21783   -21829   -21887   -21948 
  -22006   -22052   -22111   -22198   -22265   -22296   -22326   -22364 
