Origin Time       2025/01/13 21:19:00
Lat.              31.8
Long.             131.6
Depth. (km)       30
Mag.              6.9
Station Code      EHMH02
Station Lat.      33.8650
Station Long.     133.1840
Station Height(m) -35
Record Time       2025/01/13 21:20:57
Sampling Freq(Hz) 100Hz
Duration Time(s)  120
Dir.              3
Scale Factor      2942(gal)/8224139
Max. Acc. (gal)   1.520
Last Correction   2025/01/13 21:20:58
Memo.             
[...]
  235021   235021   234995   234994   235005   234998   234947   234878 
  234848   234862   234867   234852   234864   234894   234905   234924 
  234936   234886   234858   234935   234993   234941   234836   234728 
  234607   234447   234326   234330   234387   234405   234377   234316 
  234319   234434   234565   234670   234793   234933   235086   235233 
  235299   235263   235229   235240   235242   235225   235168   235035 
  234918   234891   234875   234831   234787   234774   234793   234844 
  234914   234947   234935   234914   234868   234821   234866   234998 
  235107   235110   235016   234905   234850   234827   234750   234616 
  234520   234463   234393   234355   234369   234369   234362   234392 
  234401   234346   234303   234342   234395   234388   234358   234374 
  234455   234581   234685   234709   234697   234677   234612   234577 
  234624   234640   234584   234519   234453   234418   234476   234571 
  234640   234690   234742   234806   234895   234959   234968   234989 
  235033   235052   235067   235089   235122   235174   235165   235076 
  234999   234974   234920   234796   234720   234765   234802   234736 
  234631   234555   234495   234468   234519   234580   234546   234461 
  234455   234542   234569   234512   234495   234527   234543   234576 
  234655   234709   234694   234675   234731   234836   234931   234964 
  234949   234958   234981   234954   234917   234900   234835   234712 
  234603   234544   234490   234432   234411   234393   234354   234358 
  234420   234466   234454   234418   234399   234451   234571   234673 
  234752   234846   234895   234878   234877   234912   234906   234882 
  234914   234962   235032   235155   235251   235315   235361   235269 
  235090   235028   235047   235025   234981   234908   234777   234684 
  234674   234665   234621   234593   234623   234665   234630   234554 
  234582   234739   234913   234981   234901   234814   234875   234993 
  235028   235001   234945   234863   234832   234875   234897   234840 
  234771   234750   234756   234751   234742   234781   234878   234974 
  235075   235215   235313   235326   235287   235199   235095   235060 
  235056   234970   234874   234877   234851   234721   234596   234558 
  234613   234692   234665   234559   234536   234623   234727   234769 
  234702   234620   234655   234802   234971   235062   235030   234979 
  234962   234873   234765   234760   234773   234760   234779   234813 
  234814   234721   234584   234513   234508   234539   234585   234640 
  234736   234809   234837   234910   235074   235275   235357   235232 
  235049   234987   235029   235049   235040   235006   234881   234755 
  234770   234828   234804   234751   234756   234846   234994   235137 
  235224   235280   235371   235464   235458   235359   235233   235103 
  234987   234848   234661   234511   234432   234357   234257   234180 
  234198   234295   234395   234465   234451   234361   234351   234419 
  234415   234328   234227   234222   234389   234632   234848   235037 
  235179   235232   235261   235361   235448   235396   235276   235201 
  235145   235063   235013   235010   234958   234868   234828   234835 
  234887   234954   234963   234952   234976   234995   234970   234936 
  234929   234909   234877   234933   235051   235079   235036   235041 
  235053   235006   234940   234904   234860   234779   234701   234690 
  234792   234929   234990   235030   235090   235124   235163   235160 
  235008   234774   234654   234733   234874   234902   234878   234936 
  235060   235140   235093   234999   234952   234894   234824   234793 
  234712   234571   234469   234427   234449   234477   234432   234364 
  234361   234422   234493   234509   234430   234333   234319   234381 
  234459   234547   234657   234754   234809   234878   234993   235066 
  235057   235014   235016   235098   235152   235107   235074   235062 
  235020   235017   235090   235211   235325   235334   235271   235265 
  235295   235261   235143   234935   234755   234760   234866   234912 
  234943   235028   235159   235327   235484   235527   235437   235296 
  235205   235191   235191   235151   235110   235075   235008   234967 
  235047   235228   235360   235373   235419   235595   235727   235665 
  235495   235338   235203   235076   234941   234797   234700   234679 
  234692   234694   234742   234905   235121   235268   235303   235286 
  235272   235217   235099   235039   235093   235152   235113   234999 
  234895   234844   234889   235003   235078   235047   234932   234808 
  234746   234725   234700   234678   234688   234729   234775   234781 
  234735   234721   234828   234997   235068   234985   234833   234758 
  234800   234808   234715   234662   234652   234593   234567   234652 
  234751   234778   234808   234916   235025   234997   234810   234638 
  234632   234673   234665   234712   234775   234743   234693   234713 
  234754   234765   234763   234790   234854   234878   234798   234636 
  234466   234399   234441   234480   234478   234439   234389   234381 
  234381   234365   234378   234453   234573   234639   234646   234758 
  234963   235032   234967   234967   235043   235117   235195   235213 
  235116   235030   235040   235063   235030   234916   234754   234652 
  234625   234576   234534   234616   234731   234766   234783   234809 
  234837   234900   234956   234982   234978   234940   234928   234940 
  234882   234782   234713   234642   234585   234615   234658   234596 
  234463   234396   234462   234592   234681   234698   234675   234669 
  234715   234750   234725   234690   234619   234499   234501   234654 
  234765   234775   234796   234890   235014   235091   235151   235228 
  235271   235259   235219   235172   235147   235124   235094   235114 
  235147   235093   234943   234742   234576   234527   234547   234534 
  234490   234455   234451   234535   234666   234700   234662   234685 
  234770   234841   234846   234779   234674   234559   234526   234620 
  234698   234642   234469   234318   234300   234291   234168   234052 
  234056   234133   234202   234226   234206   234199   234237   234307 
  234461   234685   234797   234748   234729   234829   234955   235001 
  234925   234812   234781   234782   234729   234659   234600   234542 
  234530   234522   234451   234412   234481   234573   234589   234530 
  234509   234603   234709   234750   234754   234740   234725   234746 
  234813   234886   234929   234940   234939   234956   234995   235036 
  235071   235110   235136   235120   235147   235255   235318   235319 
  235352   235396   235352   235226   235175   235233   235242   235129 
  235012   235008   235051   234993   234843   234756   234773   234796 
  234804   234812   234809   234863   234982   235080   235144   235176 
  235164   235126   235090   235087   235120   235116   235070   235064 
  235113   235149   235122   235035   234983   235063   235210   235340 
  235422   235442   235413   235361   235318   235284   235234   235161 
  235067   234945   234809   234754   234775   234731   234638   234620 
  234671   234762   234858   234917   234951   234944   234891   234858 
  234847   234789   234717   234771   234905   234960   234947   234948 
  234990   235080   235140   235103   235030   234971   234905   234855 
  234856   234881   234866   234809   234744   234700   234681   234659 
  234654   234728   234812   234796   234748   234763   234789   234792 
  234810   234823   234794   234785   234823   234833   234800   234750 
  234713   234736   234736   234647   234600   234659   234760   234870 
  234959   235013   235037   235094   235222   235334   235391   235442 
  235480   235465   235422   235364   235290   235255   235263   235284 
  235332   235326   235209   235111   235095   235052   234933   234839 
  234839   234864   234769   234565   234443   234405   234339   234284 
  234247   234172   234131   234184   234249   234265   234269   234320 
  234418   234472   234451   234462   234542   234628   234685   234729 
  234860   235116   235364   235538   235669   235722   235701   235701 
  235726   235677   235557   235464   235421   235368   235299   235291 
  235371   235458   235496   235558   235666   235704   235656   235626 
  235577   235431   235264   235145   235056   234978   234949   234983 
  234982   234924   234885   234847   234743   234590   234478   234426 
  234328   234157   233999   233874   233751   233656   233616   233593 
  233582   233613   233671   233757   233909   234103   234276   234434 
  234644   234866   234983   235013   235080   235179   235215   235205 
  235198   235210   235214   235180   235157   235156   235095   234978 
  234894   234873   234874   234875   234855   234794   234709   234632 
  234571   234504   234428   234400   234424   234453   234454   234389 
  234289   234264   234264   234203   234160   234142   234084   234027 
  233990   233969   234038   234152   234210   234225   234227   234233 
  234268   234319   234369   234453   234589   234735   234828   234866 
  234901   234952   234994   235028   235084   235105   235025   234952 
  234994   235102   235198   235255   235291   235318   235333   235392 
  235500   235515   235413   235359   235402   235425   235383   235354 
  235394   235479   235608   235754   235885   236025   236108   236101 
  236105   236135   236198   236310   236322   236218   236164   236193 
  236239   236250   236202   236174   236144   236009   235865   235854 
  235923   235965   235912   235827   235836   235904   235965   236056 
  236124   236085   235988   235921   235888   235808   235668   235508 
  235354   235219   235084   234972   234947   234958   234921   234875 
  234879   234897   234889   234868   234833   234802   234814   234859 
  234897   234898   234860   234817   234786   234781   234824   234835 
  234719   234528   234345   234184   234031   233859   233671   233547 
  233514   233497   233474   233501   233563   233640   233761   233898 
  233960   233925   233884   233907   233946   233992   234090   234181 
  234210   234219   234252   234281   234266   234234   234219   234188 
  234129   234094   234080   234050   234023   234054   234142   234235 
  234341   234480   234632   234766   234878   234997   235124   235229 
  235286   235294   235278   235234   235171   235101   235030   234998 
  234972   234891   234765   234607   234476   234443   234470   234485 
  234474   234435   234361   234292   234272   234292   234341   234393 
  234427   234461   234508   234577   234658   234685   234648   234655 
  234715   234728   234647   234535   234493   234528   234563   234573 
  234588   234665   234758   234762   234725   234717   234659   234517 
  234388   234306   234210   234083   233930   233775   233629   233474 
  233363   233324   233271   233193   233174   233236   233309   233381 
  233521   233680   233774   233830   233898   233976   234046   234103 
  234154   234161   234119   234081   234076   234125   234212   234296 
  234362   234397   234405   234436   234493   234530   234490   234382 
  234295   234231   234111   233972   233879   233805   233745   233733 
  233774   233815   233809   233787   233830   233965   234103   234199 
  234311   234445   234557   234625   234636   234640   234693   234743 
  234773   234864   235002   235116   235260   235449   235599   235735 
  235921   236112   236240   236341   236436   236472   236448   236439 
  236498   236595   236621   236563   236530   236526   236501   236498 
  236503   236478   236448   236387   236297   236264   236294   236316 
  236335   236385   236440   236475   236524   236594   236642   236652 
  236601   236461   236312   236209   236079   235888   235673   235481 
  235348   235224   235062   234929   234893   234909   234922   234955 
  234995   235016   235043   235093   235149   235209   235261   235305 
  235336   235314   235232   235149   235122   235111   235056   234986 
  234951   234931   234945   235009   235063   235093   235136   235190 
  235236   235284   235318   235283   235232   235278   235359   235354 
  235295   235249   235206   235199   235295   235406   235425   235398 
  235376   235386   235457   235545   235624   235697   235727   235689 
  235576   235434   235310   235168   235009   234820   234573   234364 
  234212   234019   233826   233697   233578   233501   233509   233514 
  233474   233448   233483   233532   233532   233487   233431   233389 
  233374   233386   233429   233452   233429   233386   233297   233189 
  233109   233037   232996   233019   233085   233211   233373   233494 
  233581   233690   233864   234054   234172   234260   234381   234503 
  234628   234746   234816   234885   234999   235144   235290   235429 
  235585   235785   236039   236335   236650   236993   237350   237667 
  237942   238199   238415   238572   238701   238800   238852   238867 
  238836   238762   238666   238540   238385   238225   238073   237910 
  237725   237521   237300   237080   236860   236617   236371   236139 
  235905   235672   235430   235199   235035   234901   234738   234605 
  234544   234535   234571   234617   234630   234661   234754   234875 
  234985   235055   235090   235116   235121   235110   235103   235087 
  235059   235037   235009   234952   234873   234770   234643   234488 
  234322   234158   233969   233763   233579   233427   233293   233116 
  232875   232623   232351   232052   231762   231473   231210   230987 
  230808   230696   230625   230580   230592   230686   230856   231029 
  231138   231199   231234   231268   231323   231376   231430   231527 
  231627   231655   231604   231506   231425   231372   231323   231269 
  231171   231045   230959   230922   230944   231028   231161   231327 
  231499   231677   231919   232266   232680   233041   233311   233572 
  233837   234061   234252   234439   234643   234847   235018   235168 
  235337   235552   235778   235939   236024   236100   236162   236189 
  236182   236105   235958   235811   235716   235633   235534   235471 
  235406   235271   235167   235195   235284   235359   235422   235511 
  235618   235712   235804   235930   236104   236295   236425   236507 
  236622   236738   236831   236933   237023   237053   237030   237030 
  237064   237082   237077   237092   237149   237208   237234   237280 
  237384   237504   237589   237633   237678   237767   237872   237926 
  237910   237864   237814   237756   237698   237643   237604   237586 
  237552   237486   237436   237421   237401   237321   237219   237173 
  237135   237061   237020   236989   236900   236791   236700   236617 
  236540   236436   236294   236155   236031   235900   235762   235657 
  235581   235506   235423   235344   235256   235174   235147   235180 
  235210   235206   235191   235175   235155   235130   235074   234963 
  234827   234705   234593   234484   234392   234308   234215   234104 
  233971   233838   233736   233655   233578   233508   233459   233458 
  233485   233490   233487   233497   233502   233513   233543   233567 
  233563   233529   233474   233421   233405   233424   233439   233443 
  233448   233446   233433   233413   233365   233285   233182   233057 
  232927   232798   232634   232476   232376   232302   232236   232186 
  232141   232129   232147   232151   232167   232210   232237   232289 
  232402   232521   232633   232771   232926   233091   233269   233464 
  233676   233884   234084   234264   234374   234449   234528   234581 
  234593   234571   234543   234530   234480   234366   234281   234270 
  234269   234265   234284   234315   234388   234528   234646   234708 
  234769   234837   234897   234945   235008   235095   235178   235241 
  235305   235365   235425   235518   235641   235764   235886   235996 
  236061   236117   236212   236294   236318   236309   236306   236333 
  236378   236414   236448   236491   236560   236633   236679   236727 
  236768   236772   236779   236777   236704   236595   236517   236472 
  236418   236347   236283   236248   236237   236200   236116   236058 
  236039   236002   235936   235857   235770   235697   235618   235523 
  235448   235380   235278   235159   235059   234974   234887   234821 
  234789   234739   234662   234630   234598   234500   234422   234408 
  234418   234431   234400   234330   234304   234337   234408   234511 
  234605   234705   234856   235001   235097   235205   235315   235349 
  235346   235364   235373   235380   235408   235415   235404   235417 
  235417   235402   235425   235449   235429   235380   235342   235326 
  235305   235276   235244   235207   235165   235117   235086   235076 
  235070   235084   235109   235093   235044   234989   234948   234918 
  234875   234814   234728   234615   234519   234461   234404   234339 
  234299   234284   234283   234310   234355   234393   234438   234503 
  234586   234667   234711   234738   234796   234875   234917   234920 
  234949   235001   235047   235111   235153   235145   235172   235264 
  235345   235419   235543   235687   235797   235894   235998   236081 
  236158   236248   236287   236268   236236   236170   236044   235877 
  235699   235508   235283   235030   234751   234451   234166   233910 
  233675   233452   233204   232958   232769   232626   232497   232367 
  232247   232171   232150   232185   232283   232426   232583   232746 
  232929   233143   233388   233632   233860   234080   234273   234426 
  234566   234720   234881   235012   235109   235210   235315   235392 
  235440   235465   235481   235521   235573   235603   235631   235668 
  235695   235749   235813   235831   235826   235816   235797   235792 
  235780   235742   235723   235697   235620   235568   235552   235488 
  235422   235415   235422   235417   235421   235435   235465   235481 
  235480   235487   235467   235418   235387   235336   235260   235179 
  235057   234913   234790   234674   234544   234424   234335   234249 
  234150   234079   234060   234080   234123   234152   234175   234229 
  234295   234357   234427   234481   234508   234539   234585   234615 
  234620   234632   234657   234669   234651   234632   234628   234625 
  234635   234661   234702   234775   234863   234951   235074   235232 
  235367   235460   235549   235610   235615   235600   235552   235448 
  235310   235152   234960   234728   234505   234304   234111   233955 
  233852   233778   233736   233729   233766   233876   234025   234121 
  234189   234292   234404   234486   234559   234646   234748   234867 
  234974   235064   235167   235283   235400   235508   235579   235597 
  235600   235612   235612   235606   235624   235633   235610   235607 
  235630   235616   235575   235548   235519   235481   235454   235444 
  235414   235354   235296   235232   235152   235060   234936   234820 
  234731   234623   234507   234396   234289   234210   234148   234083 
  234011   233921   233828   233763   233729   233695   233641   233591 
  233593   233629   233659   233686   233740   233836   233972   234135 
  234322   234526   234719   234877   235028   235174   235296   235398 
  235456   235476   235489   235492   235479   235444   235394   235322 
  235232   235159   235082   234968   234851   234755   234670   234594 
  234543   234512   234488   234488   234524   234565   234576   234582 
