Origin Time       2025/01/13 21:19:00
Lat.              31.8
Long.             131.6
Depth. (km)       30
Mag.              6.9
Station Code      EHMH06
Station Lat.      33.3348
Station Long.     132.7980
Station Height(m) 30
Record Time       2025/01/13 21:20:11
Sampling Freq(Hz) 100Hz
Duration Time(s)  145
Dir.              1
Scale Factor      3923(gal)/8224838
Max. Acc. (gal)   2.248
Last Correction   2025/01/13 21:20:11
Memo.             
[...]
    3871     3744     3680     3665     3694     3761     3881     3982 
    3979     3924     3844     3728     3680     3775     3940     4099 
    4218     4276     4307     4295     4183     4012     3865     3767 
    3720     3704     3704     3757     3875     3994     4021     3928 
    3775     3647     3538     3416     3365     3441     3627     3923 
    4224     4392     4430     4351     4164     3983     3862     3775 
    3786     3923     4083     4178     4175     4120     4056     3942 
    3747     3510     3306     3234     3300     3419     3524     3547 
    3462     3376     3352     3283     3100     2874     2706     2666 
    2793     3061     3338     3491     3499     3410     3276     3136 
    3014     2941     2918     2920     2999     3180     3366     3523 
    3681     3793     3797     3728     3665     3626     3576     3520 
    3515     3640     3950     4360     4671     4765     4715     4654 
    4630     4658     4762     4882     4950     4966     4928     4841 
    4758     4676     4536     4382     4299     4253     4202     4216 
    4320     4415     4445     4491     4594     4680     4727     4772 
    4831     4885     4905     4882     4857     4834     4752     4600 
    4440     4317     4255     4259     4326     4434     4557     4675 
    4716     4637     4446     4147     3780     3473     3321     3314 
    3404     3545     3689     3770     3759     3678     3547     3412 
    3338     3315     3281     3211     3127     3049     2987     2960 
    2914     2805     2717     2687     2664     2683     2774     2875 
    2956     3052     3184     3342     3505     3708     3974     4212 
    4330     4378     4444     4498     4486     4471     4519     4595 
    4650     4693     4727     4738     4733     4727     4726     4737 
    4727     4638     4509     4441     4428     4390     4368     4429 
    4453     4351     4237     4174     4072     3913     3788     3719 
    3624     3449     3227     2997     2791     2686     2722     2839 
    2938     2957     2928     2979     3137     3269     3334     3352 
    3281     3149     3079     3117     3221     3327     3426     3584 
    3824     4054     4180     4214     4243     4360     4573     4768 
    4877     4938     4903     4716     4463     4225     4018     3874 
    3809     3786     3728     3578     3392     3272     3269     3375 
    3526     3619     3615     3569     3534     3485     3364     3204 
    3094     3017     2948     2955     3028     3069     3083     3110 
    3130     3160     3275     3450     3589     3682     3800     3927 
    3960     3846     3638     3485     3493     3623     3819     4091 
    4405     4664     4816     4824     4680     4468     4239     4018 
    3882     3835     3817     3863     3987     4091     4126     4144 
    4198     4297     4369     4360     4301     4232     4160     4068 
    3924     3801     3801     3888     4027     4187     4243     4132 
    3937     3728     3561     3511     3572     3693     3846     3960 
    3966     3889     3832     3808     3742     3647     3607     3630 
    3673     3721     3798     3856     3793     3597     3357     3181 
    3161     3275     3414     3516     3557     3534     3478     3395 
    3276     3156     3092     3111     3179     3248     3276     3200 
    3022     2844     2744     2732     2802     2940     3091     3207 
    3267     3254     3222     3248     3310     3318     3284     3262 
    3250     3254     3253     3202     3122     3094     3154     3244 
    3258     3161     2988     2837     2790     2829     2891     2947 
    2997     3034     3100     3254     3464     3672     3870     4094 
    4357     4580     4722     4849     4950     4993     5071     5211 
    5286     5186     4924     4646     4498     4446     4342     4166 
    4089     4205     4387     4476     4409     4220     4005     3859 
    3816     3820     3824     3855     3894     3888     3843     3793 
    3789     3827     3790     3645     3547     3601     3692     3674 
    3582     3526     3507     3491     3500     3537     3582     3605 
    3566     3469     3370     3311     3322     3418     3553     3707 
    3879     4000     4014     3958     3861     3755     3659     3580 
    3543     3554     3624     3802     4093     4425     4685     4819 
    4872     4922     4997     5061     5080     5082     5121     5229 
    5362     5402     5308     5139     4981     4877     4800     4689 
    4530     4360     4229     4168     4136     4068     3942     3743 
    3503     3256     2971     2670     2427     2288     2326     2573 
    2901     3136     3227     3242     3272     3381     3537     3638 
    3678     3699     3651     3543     3499     3566     3650     3697 
    3724     3724     3689     3638     3585     3541     3532     3604 
    3734     3870     3997     4054     3982     3842     3694     3584 
    3535     3497     3434     3377     3349     3365     3447     3580 
    3734     3900     4104     4356     4594     4696     4646     4552 
    4530     4583     4637     4683     4723     4750     4828     4968 
    5046     4992     4864     4754     4716     4758     4847     4923 
    4914     4811     4710     4700     4752     4760     4700     4631 
    4563     4448     4268     4067     3908     3834     3892     4117 
    4414     4591     4567     4418     4244     4060     3878     3788 
    3820     3896     3967     4008     3977     3898     3829     3755 
    3661     3592     3535     3422     3277     3181     3154     3198 
    3318     3477     3593     3605     3545     3477     3464     3527 
    3603     3618     3597     3603     3658     3765     3898     4001 
    4009     3925     3797     3655     3523     3420     3337     3237 
    3109     2960     2833     2766     2755     2776     2833     2957 
    3132     3257     3277     3258     3303     3430     3601     3793 
    3969     4108     4236     4359     4459     4548     4631     4681 
    4673     4611     4507     4392     4271     4126     4009     3979 
    4016     4036     3993     3894     3788     3713     3628     3481 
    3333     3276     3327     3429     3501     3461     3281     3048 
    2871     2776     2768     2862     3003     3140     3283     3449 
    3605     3696     3716     3734     3765     3773     3755     3704 
    3589     3450     3349     3284     3250     3234     3173     3059 
    2967     2961     3069     3269     3458     3553     3573     3592 
    3700     3924     4216     4498     4688     4795     4904     4980 
    4896     4664     4369     4062     3767     3503     3310     3240 
    3268     3352     3437     3439     3368     3341     3396     3456 
    3477     3431     3262     3007     2782     2670     2687     2759 
    2828     2926     3082     3289     3547     3790     3971     4122 
    4257     4375     4511     4633     4625     4529     4475     4430 
    4341     4293     4345     4444     4499     4504     4517     4536 
    4476     4345     4259     4268     4329     4396     4430     4375 
    4252     4151     4112     4125     4214     4379     4527     4571 
    4503     4384     4253     4083     3840     3543     3252     3064 
    3053     3144     3221     3261     3261     3190     3078     3014 
    3044     3094     3059     2955     2876     2817     2683     2482 
    2328     2295     2380     2598     2907     3191     3393     3514 
    3534     3445     3292     3164     3059     2907     2706     2475 
    2212     1921     1657     1494     1463     1595     1910     2282 
    2546     2647     2592     2481     2484     2643     2889     3184 
    3511     3854     4206     4530     4804     5069     5346     5601 
    5794     5899     5902     5807     5667     5551     5476     5429 
    5390     5327     5185     4930     4638     4440     4332     4186 
    3960     3736     3557     3383     3153     2905     2785     2857 
    3021     3157     3204     3145     3015     2933     3011     3279 
    3727     4263     4722     5019     5158     5213     5278     5377 
    5498     5628     5719     5702     5559     5370     5223     5117 
    5036     4963     4837     4603     4257     3852     3484     3200 
    3005     2897     2841     2774     2656     2515     2386     2288 
    2273     2427     2724     3011     3210     3375     3512     3586 
    3619     3636     3650     3681     3750     3855     3946     3977 
    4006     4099     4264     4480     4683     4770     4749     4738 
    4847     5066     5274     5374     5355     5232     5049     4851 
    4698     4648     4669     4660     4608     4569     4545     4503 
    4422     4303     4168     4039     3924     3815     3734     3717 
    3754     3781     3724     3582     3474     3515     3699     3946 
    4189     4379     4483     4541     4629     4738     4819     4878 
    4924     4938     4912     4858     4803     4772     4757     4738 
    4684     4573     4455     4371     4298     4253     4259     4274 
    4251     4152     3987     3828     3716     3618     3570     3662 
    3856     4074     4290     4482     4615     4673     4634     4484 
    4284     4195     4313     4538     4731     4882     5040     5171 
    5184     5046     4761     4401     4118     3977     3900     3834 
    3740     3593     3460     3399     3318     3156     2994     2887 
    2821     2821     2910     3024     3078     3057     3038     3073 
    3144     3221     3254     3237     3233     3277     3346     3416 
    3470     3484     3484     3491     3443     3315     3176     3133 
    3207     3316     3408     3511     3636     3759     3871     3974 
    4040     4093     4194     4306     4365     4423     4473     4421 
    4286     4191     4189     4276     4422     4572     4662     4645 
    4513     4321     4156     4029     3919     3875     3924     4010 
    4089     4101     4020     3925     3909     3973     4060     4137 
    4213     4299     4390     4475     4537     4560     4554     4503 
    4395     4272     4152     3994     3843     3790     3805     3790 
    3728     3616     3433     3229     3107     3090     3149     3250 
    3318     3296     3172     2944     2637     2308     2025     1875 
    1911     2092     2293     2396     2374     2307     2295     2403 
    2648     2990     3325     3585     3765     3883     3971     4058 
    4168     4320     4510     4723     4935     5086     5148     5161 
    5165     5208     5309     5424     5533     5665     5825     5994 
    6142     6254     6350     6443     6536     6633     6681     6656 
    6637     6631     6558     6412     6230     6021     5778     5462 
    5093     4770     4506     4216     3923     3717     3577     3437 
    3315     3210     3075     2930     2809     2700     2617     2597 
    2597     2556     2493     2435     2357     2258     2153     2052 
    2010     2047     2107     2173     2272     2385     2463     2451 
    2332     2176     2065     2033     2079     2174     2270     2313 
    2246     2064     1848     1660     1510     1405     1332     1266 
    1213     1181     1125     1027      938      896      893      923 
    1001     1119     1232     1372     1642     2023     2398     2727 
    3036     3380     3812     4260     4607     4854     5036     5162 
    5228     5206     5076     4891     4711     4557     4448     4382 
    4321     4271     4287     4376     4483     4526     4479     4428 
    4469     4614     4804     4977     5098     5166     5186     5184 
    5194     5242     5333     5467     5629     5764     5817     5815 
    5779     5686     5570     5497     5460     5424     5364     5273 
    5159     5053     4938     4810     4715     4641     4522     4369 
    4213     4055     3897     3721     3545     3407     3298     3184 
    3072     2983     2951     2984     3042     3068     3079     3136 
    3258     3443     3694     3962     4183     4367     4537     4654 
    4665     4567     4406     4248     4179     4225     4294     4284 
    4186     4021     3823     3634     3457     3284     3153     3098 
    3109     3153     3173     3138     3099     3133     3252     3388 
    3476     3487     3416     3277     3090     2866     2637     2466 
    2370     2305     2224     2114     1995     1865     1718     1599 
    1549     1544     1549     1578     1649     1744     1846     1985 
    2165     2361     2551     2722     2859     2965     3059     3150 
    3213     3214     3168     3113     3059     3032     3034     3036 
    3036     3049     3060     3083     3171     3284     3366     3489 
    3712     3947     4137     4298     4410     4483     4590     4752 
    4915     5047     5151     5231     5297     5362     5409     5425 
    5435     5466     5467     5412     5370     5358     5289     5132 
    4927     4687     4421     4171     3973     3812     3640     3438 
    3260     3137     3045     2967     2878     2751     2616     2521 
    2450     2374     2286     2185     2099     2042     1984     1931 
    1923     1957     2010     2065     2114     2149     2195     2277 
    2382     2471     2547     2614     2658     2706     2818     2987 
    3159     3335     3550     3824     4149     4488     4783     5007 
    5170     5306     5439     5555     5644     5736     5844     5961 
    6079     6185     6304     6493     6768     7084     7404     7719 
    8023     8290     8471     8542     8530     8467     8364     8220 
    8056     7898     7719     7512     7291     7032     6755     6489 
    6197     5869     5516     5119     4695     4283     3901     3541 
    3204     2903     2628     2371     2155     1969     1768     1566 
    1424     1359     1312     1232     1119      990      880      812 
     783      787      862     1016     1193     1372     1560     1730 
    1885     2073     2309     2562     2785     2956     3100     3235 
    3361     3468     3546     3574     3553     3491     3387     3261 
    3173     3163     3190     3207     3222     3254     3314     3403 
    3464     3445     3402     3385     3376     3366     3380     3410 
    3442     3477     3504     3534     3578     3603     3604     3616 
    3638     3650     3657     3658     3616     3522     3414     3330 
    3288     3272     3250     3249     3300     3376     3433     3487 
    3562     3624     3655     3689     3721     3736     3724     3670 
    3601     3596     3667     3751     3820     3904     3996     4050 
    4062     4097     4203     4384     4614     4842     5019     5121 
    5152     5135     5094     5046     5007     4977     4924     4866 
    4861     4927     5040     5185     5347     5533     5749     5958 
    6097     6137     6100     6041     5965     5838     5644     5425 
    5242     5094     4955     4811     4679     4577     4507     4469 
    4472     4513     4558     4579     4564     4511     4407     4244 
    4052     3877     3742     3651     3611     3612     3608     3576 
    3534     3473     3383     3285     3202     3132     3086     3059 
    3041     3060     3110     3134     3110     3061     3026     3051 
    3141     3248     3333     3404     3468     3500     3491     3469 
    3470     3495     3570     3715     3878     4018     4122     4180 
    4229     4333     4492     4637     4741     4827     4899     4939 
    4963     4985     4985     4945     4869     4793     4735     4689 
    4639     4573     4479     4375     4283     4187     4070     3955 
    3871     3809     3746     3686     3642     3573     3430     3233 
    3049     2921     2818     2706     2582     2451     2317     2205 
    2146     2146     2184     2223     2263     2327     2411     2486 
    2538     2578     2627     2674     2721     2793     2897     3015 
    3129     3231     3327     3424     3541     3677     3817     3963 
    4125     4287     4426     4529     4617     4730     4888     5069 
    5228     5341     5416     5448     5439     5416     5421     5474 
    5535     5567     5576     5562     5537     5543     5584     5638 
    5688     5722     5741     5760     5753     5684     5591     5529 
    5460     5340     5188     5032     4872     4692     4500     4309 
    4116     3923     3740     3561     3346     3092     2829     2596 
    2432     2331     2249     2157     2037     1902     1799     1745 
    1729     1757     1822     1883     1917     1925     1929     1962 
    2047     2138     2193     2234     2288     2358     2436     2496 
    2535     2592     2683     2802     2929     3052     3171     3288 
    3415     3570     3736     3882     4010     4133     4248     4360 
    4479     4590     4673     4743     4804     4837     4834     4819 
    4822     4850     4869     4862     4854     4843     4827     4827 
    4839     4831     4791     4715     4614     4507     4398     4280 
    4147     3991     3831     3669     3483     3277     3095     2938 
    2787     2658     2575     2528     2492     2443     2388     2357 
    2349     2346     2358     2396     2450     2482     2478     2474 
    2488     2516     2565     2616     2658     2710     2754     2772 
    2813     2895     2988     3082     3177     3262     3330     3379 
    3391     3365     3342     3341     3350     3385     3458     3551 
    3643     3738     3850     3964     4071     4172     4270     4356 
    4434     4504     4552     4580     4621     4676     4707     4741 
    4833     4955     5065     5152     5200     5204     5184     5144 
    5104     5088     5062     5000     4907     4799     4699     4646 
    4634     4631     4621     4588     4557     4549     4533     4482 
    4405     4326     4252     4187     4152     4137     4105     4064 
    4050     4064     4094     4122     4140     4176     4260     4356 
    4429     4506     4592     4675     4762     4860     4939     4993 
    5008     4958     4873     4810     4770     4723     4638     4518 
    4407     4329     4261     4209     4179     4143     4087     4027 
    3951     3843     3719     3572     3372     3146     2934     2741 
    2563     2415     2297     2208     2161     2181     2270     2398 
    2542     2664     2748     2808     2863     2909     2929     2932 
    2945     2979     3028     3082     3118     3121     3103     3096 
    3118     3169     3238     3291     3307     3314     3338     3362 
    3384     3449     3561     3681     3802     3940     4081     4197 
    4282     4342     4386     4430     4488     4538     4548     4546 
    4588     4658     4712     4754     4783     4784     4770     4730 
    4619     4438     4226     4029     3870     3727     3572     3400 
    3235     3091     2980     2903     2830     2739     2632     2517 
    2404     2317     2262     2211     2174     2172     2178     2172 
    2188     2259     2371     2502     2662     2866     3091     3292 
    3453     3599     3770     3978     4186     4378     4571     4768 
    4968     5154     5289     5351     5354     5312     5239     5147 
    5046     4938     4818     4704     4621     4557     4494     4436 
    4395     4363     4337     4305     4251     4189     4124     4037 
    3937     3866     3847     3878     3950     4020     4047     4032 
