Origin Time       2025/01/13 21:19:00
Lat.              31.8
Long.             131.6
Depth. (km)       30
Mag.              6.9
Station Code      EHMH09
Station Lat.      33.4719
Station Long.     132.3072
Station Height(m) 5
Record Time       2025/01/13 21:20:07
Sampling Freq(Hz) 100Hz
Duration Time(s)  152
Dir.              6
Scale Factor      7845(gal)/8223790
Max. Acc. (gal)   5.634
Last Correction   2025/01/13 21:20:08
Memo.             
[...]
  -25722   -25953   -26212   -26469   -26663   -26748   -26732   -26603 
  -26337   -25996   -25670   -25369   -25085   -24841   -24592   -24331 
  -24167   -24143   -24212   -24371   -24611   -24850   -25051   -25272 
  -25546   -25814   -26011   -26140   -26231   -26304   -26373   -26403 
  -26329   -26137   -25893   -25674   -25516   -25402   -25351   -25380 
  -25450   -25528   -25636   -25817   -26059   -26311   -26565   -26811 
  -26955   -26900   -26666   -26349   -26026   -25766   -25636   -25621 
  -25614   -25609   -25643   -25650   -25593   -25539   -25493   -25416 
  -25377   -25448   -25542   -25531   -25425   -25289   -25138   -25030 
  -25019   -25033   -24979   -24921   -24953   -25038   -25164   -25397 
  -25704   -25995   -26266   -26519   -26692   -26755   -26740   -26659 
  -26476   -26163   -25733   -25278   -24900   -24603   -24332   -24116 
  -24021   -24046   -24190   -24506   -24996   -25555   -26032   -26341 
  -26536   -26680   -26720   -26624   -26470   -26327   -26161   -25924 
  -25663   -25439   -25201   -24929   -24690   -24528   -24498   -24661 
  -24910   -25112   -25357   -25694   -25963   -26118   -26308   -26538 
  -26622   -26514   -26330   -26106   -25822   -25536   -25332   -25257 
  -25263   -25255   -25243   -25286   -25347   -25396   -25459   -25542 
  -25631   -25697   -25744   -25852   -26022   -26172   -26254   -26252 
  -26206   -26173   -26123   -26034   -25949   -25851   -25687   -25496 
  -25292   -25026   -24756   -24638   -24675   -24754   -24834   -24889 
  -24919   -25014   -25230   -25488   -25705   -25839   -25833   -25726 
  -25639   -25601   -25593   -25637   -25735   -25836   -25932   -26045 
  -26172   -26310   -26472   -26634   -26693   -26534   -26152   -25724 
  -25465   -25485   -25735   -26045   -26268   -26349   -26289   -26114 
  -25915   -25810   -25790   -25741   -25656   -25618   -25608   -25564 
  -25505   -25458   -25400   -25304   -25142   -24850   -24451   -24123 
  -23994   -23998   -24102   -24364   -24736   -25099   -25382   -25535 
  -25562   -25567   -25582   -25544   -25508   -25604   -25786   -25898 
  -25897   -25825   -25710   -25598   -25528   -25500   -25547   -25697 
  -25899   -26086   -26239   -26330   -26303   -26167   -25951   -25635 
  -25232   -24850   -24645   -24676   -24877   -25154   -25465   -25798 
  -26100   -26253   -26207   -26049   -25905   -25809   -25717   -25645 
  -25633   -25668   -25749   -25880   -26011   -26145   -26320   -26511 
  -26635   -26638   -26524   -26354   -26144   -25901   -25747   -25785 
  -25929   -26032   -26041   -25953   -25790   -25602   -25421   -25254 
  -25112   -24972   -24841   -24790   -24840   -24981   -25234   -25517 
  -25662   -25635   -25539   -25419   -25308   -25293   -25361   -25429 
  -25562   -25775   -25876   -25748   -25479   -25185   -24965   -24869 
  -24848   -24826   -24752   -24597   -24413   -24283   -24212   -24192 
  -24293   -24574   -24981   -25431   -25888   -26329   -26709   -27048 
  -27426   -27851   -28206   -28367   -28329   -28140   -27810   -27396 
  -26998   -26654   -26385   -26242   -26217   -26238   -26235   -26145 
  -25925   -25636   -25363   -25127   -24930   -24768   -24625   -24503 
  -24424   -24408   -24506   -24759   -25111   -25461   -25755   -25974 
  -26095   -26117   -26088   -26026   -25941   -25930   -26036   -26140 
  -26172   -26206   -26246   -26185   -26014   -25793   -25516   -25243 
  -25049   -24911   -24853   -24946   -25124   -25274   -25380   -25438 
  -25444   -25421   -25365   -25266   -25150   -25022   -24900   -24904 
  -25118   -25452   -25832   -26287   -26720   -26959   -27001   -26963 
  -26933   -27012   -27222   -27436   -27542   -27561   -27480   -27243 
  -26881   -26431   -25901   -25411   -25093   -24930   -24871   -24903 
  -24956   -24953   -24914   -24891   -24903   -24919   -24864   -24695 
  -24509   -24495   -24769   -25253   -25822   -26422   -26902   -27076 
  -26963   -26677   -26272   -25828   -25436   -25138   -24968   -24942 
  -24965   -24906   -24767   -24613   -24436   -24213   -23981   -23827 
  -23815   -23870   -23917   -24046   -24335   -24698   -25057   -25431 
  -25825   -26181   -26468   -26721   -26970   -27160   -27225   -27156 
  -27010   -26848   -26663   -26454   -26293   -26157   -25922   -25617 
  -25351   -25104   -24831   -24526   -24154   -23715   -23336   -23136 
  -23141   -23333   -23664   -24071   -24525   -25018   -25554   -26123 
  -26620   -26928   -27054   -27068   -26998   -26835   -26588   -26323 
  -26123   -26014   -25942   -25824   -25627   -25380   -25088   -24764 
  -24486   -24331   -24329   -24456   -24649   -24877   -25120   -25350 
  -25564   -25760   -25911   -26013   -26064   -26037   -25956   -25929 
  -25960   -25921   -25793   -25644   -25440   -25146   -24880   -24806 
  -24931   -25157   -25443   -25802   -26183   -26508   -26766   -26951 
  -27027   -26985   -26850   -26650   -26443   -26260   -26042   -25755 
  -25492   -25357   -25320   -25326   -25344   -25278   -25092   -24872 
  -24682   -24533   -24457   -24490   -24646   -24857   -24981   -25022 
  -25111   -25269   -25428   -25623   -25898   -26214   -26566   -26966 
  -27324   -27569   -27668   -27598   -27396   -27058   -26551   -25968 
  -25425   -24962   -24646   -24505   -24430   -24395   -24439   -24480 
  -24484   -24552   -24706   -24930   -25292   -25798   -26352   -26848 
  -27157   -27194   -27059   -26917   -26766   -26522   -26161   -25708 
  -25263   -24983   -24875   -24864   -24958   -25088   -25115   -25049 
  -24988   -24949   -24904   -24854   -24888   -25153   -25660   -26252 
  -26802   -27283   -27614   -27710   -27639   -27517   -27357   -27144 
  -26877   -26603   -26442   -26478   -26667   -26944   -27267   -27565 
  -27733   -27719   -27585   -27403   -27129   -26708   -26221   -25797 
  -25493   -25312   -25247   -25267   -25288   -25246   -25115   -24894 
  -24669   -24570   -24570   -24580   -24644   -24835   -25069   -25176 
  -25084   -24844   -24590   -24453   -24440   -24478   -24561   -24730 
  -24981   -25226   -25415   -25586   -25714   -25732   -25664   -25582 
  -25516   -25467   -25381   -25178   -24889   -24611   -24354   -24135 
  -24052   -24074   -24077   -24100   -24205   -24335   -24490   -24752 
  -25099   -25475   -25880   -26272   -26558   -26732   -26867   -26997 
  -27086   -27116   -27126   -27116   -26975   -26673   -26334   -26021 
  -25685   -25332   -25004   -24721   -24536   -24436   -24321   -24213 
  -24246   -24435   -24667   -24833   -24891   -24833   -24663   -24460 
  -24391   -24541   -24852   -25292   -25891   -26573   -27155   -27491 
  -27514   -27313   -27055   -26781   -26468   -26149   -25799   -25353 
  -24856   -24395   -23989   -23646   -23382   -23230   -23305   -23643 
  -24097   -24509   -24808   -24991   -25155   -25467   -25999   -26665 
  -27275   -27702   -27928   -28001   -27970   -27886   -27769   -27553 
  -27214   -26860   -26538   -26183   -25867   -25691   -25563   -25404 
  -25282   -25181   -25012   -24819   -24714   -24732   -24861   -25085 
  -25342   -25542   -25683   -25837   -25986   -26076   -26167   -26333 
  -26534   -26673   -26716   -26685   -26580   -26396   -26196   -26032 
  -25870   -25681   -25444   -25134   -24777   -24457   -24239   -24151 
  -24193   -24297   -24340   -24246   -24017   -23695   -23407   -23301 
  -23380   -23510   -23615   -23760   -23980   -24244   -24533   -24826 
  -25084   -25281   -25420   -25517   -25548   -25496   -25428   -25454 
  -25639   -26011   -26538   -27079   -27465   -27631   -27619   -27475 
  -27255   -27029   -26798   -26536   -26308   -26203   -26203   -26219 
  -26244   -26358   -26612   -26986   -27433   -27837   -28100   -28247 
  -28323   -28300   -28177   -28005   -27812   -27608   -27402   -27245 
  -27194   -27184   -27106   -26931   -26655   -26298   -25955   -25708 
  -25577   -25600   -25766   -25963   -26073   -26055   -25894   -25655 
  -25444   -25301   -25269   -25408   -25618   -25716   -25659   -25546 
  -25446   -25308   -25078   -24835   -24653   -24502   -24352   -24197 
  -23977   -23649   -23265   -22901   -22570   -22293   -22110   -22019 
  -22050   -22242   -22562   -22990   -23535   -24152   -24799   -25504 
  -26264   -26997   -27631   -28148   -28507   -28711   -28830   -28856 
  -28757   -28622   -28525   -28393   -28155   -27869   -27611   -27371 
  -27121   -26894   -26752   -26694   -26655   -26581   -26481   -26397 
  -26327   -26237   -26123   -25999   -25894   -25895   -26015   -26152 
  -26253   -26333   -26339   -26219   -26045   -25937   -25863   -25701 
  -25413   -25046   -24637   -24202   -23795   -23544   -23487   -23518 
  -23596   -23741   -23835   -23743   -23483   -23137   -22778   -22454 
  -22204   -22079   -22077   -22119   -22189   -22347   -22609   -22936 
  -23307   -23703   -24073   -24385   -24621   -24745   -24830   -25056 
  -25465   -25949   -26460   -26981   -27475   -27895   -28201   -28416 
  -28611   -28800   -28956   -29108   -29290   -29447   -29520   -29538 
  -29527   -29454   -29336   -29257   -29209   -29110   -28965   -28759 
  -28344   -27756   -27163   -26576   -25975   -25385   -24813   -24329 
  -24019   -23849   -23754   -23697   -23681   -23760   -23936   -24115 
  -24198   -24179   -24082   -23917   -23714   -23535   -23437   -23414 
  -23415   -23431   -23544   -23781   -24075   -24409   -24771   -25033 
  -25080   -24933   -24668   -24366   -24111   -23934   -23822   -23793 
  -23900   -24106   -24347   -24602   -24821   -24953   -25043   -25130 
  -25188   -25215   -25246   -25320   -25474   -25749   -26152   -26597 
  -27006   -27387   -27743   -28088   -28495   -28979   -29455   -29841 
  -30091   -30208   -30279   -30357   -30375   -30219   -29772   -28980 
  -27932   -26796   -25675   -24598   -23635   -22944   -22584   -22489 
  -22534   -22563   -22553   -22613   -22766   -22962   -23213   -23534 
  -23882   -24233   -24625   -25074   -25551   -25968   -26206   -26222 
  -26103   -25872   -25467   -24972   -24518   -24131   -23846   -23699 
  -23661   -23731   -23916   -24159   -24406   -24646   -24830   -24927 
  -25038   -25267   -25628   -26064   -26485   -26852   -27191   -27518 
  -27804   -28007   -28131   -28201   -28219   -28178   -28093   -28003 
  -27919   -27785   -27562   -27310   -27118   -26962   -26704   -26352 
  -26026   -25706   -25297   -24840   -24429   -24075   -23741   -23437 
  -23232   -23144   -23129   -23182   -23361   -23672   -24054   -24471 
  -24881   -25199   -25423   -25639   -25839   -25955   -25980   -25887 
  -25679   -25455   -25231   -24949   -24621   -24270   -23869   -23431 
  -23022   -22711   -22504   -22349   -22214   -22119   -22080   -22081 
  -22111   -22207   -22453   -22866   -23367   -23888   -24417   -24883 
  -25195   -25417   -25708   -26115   -26608   -27106   -27511   -27799 
  -27945   -27908   -27720   -27513   -27387   -27275   -27062   -26775 
  -26492   -26233   -26080   -26088   -26176   -26254   -26316   -26411 
  -26593   -26896   -27338   -27926   -28575   -29135   -29535   -29808 
  -29967   -29932   -29636   -29153   -28601   -28070   -27634   -27280 
  -26917   -26485   -26011   -25554   -25056   -24467   -23876   -23360 
  -22928   -22592   -22360   -22210   -22090   -22017   -22108   -22388 
  -22759   -23144   -23465   -23656   -23764   -23885   -24062   -24310 
  -24640   -25012   -25338   -25570   -25774   -26036   -26342   -26617 
  -26835   -26970   -27006   -27009   -27066   -27184   -27313   -27406 
  -27460   -27527   -27610   -27616   -27492   -27225   -26808   -26300 
  -25803   -25351   -24960   -24699   -24561   -24484   -24499   -24634 
  -24848   -25104   -25396   -25740   -26158   -26559   -26820   -26944 
  -26995   -26982   -26883   -26701   -26503   -26406   -26515   -26815 
  -27179   -27495   -27677   -27676   -27572   -27473   -27371   -27272 
  -27217   -27174   -27076   -26923   -26744   -26546   -26271   -25930 
  -25654   -25517   -25490   -25516   -25475   -25265   -24938   -24579 
  -24177   -23774   -23454   -23240   -23134   -23110   -23103   -23125 
  -23230   -23394   -23539   -23657   -23742   -23742   -23649   -23519 
  -23475   -23603   -23822   -24035   -24294   -24618   -24929   -25212 
  -25510   -25840   -26175   -26460   -26647   -26751   -26828   -26935 
  -27125   -27406   -27681   -27828   -27804   -27615   -27278   -26851 
  -26418   -26040   -25741   -25523   -25385   -25353   -25444   -25623 
  -25816   -26023   -26260   -26489   -26697   -26893   -27028   -27068 
  -27095   -27147   -27130   -27029   -26952   -26958   -27012   -27043 
  -26994   -26852   -26642   -26428   -26300   -26266   -26215   -26002 
  -25591   -25076   -24528   -23916   -23259   -22632   -22098   -21651 
  -21254   -20915   -20663   -20464   -20297   -20190   -20214   -20480 
  -21033   -21803   -22690   -23580   -24409   -25185   -25875   -26399 
  -26763   -27018   -27157   -27176   -27178   -27232   -27275   -27260 
  -27218   -27137   -26995   -26829   -26682   -26557   -26441   -26365 
  -26395   -26496   -26549   -26492   -26345   -26206   -26183   -26242 
  -26310   -26415   -26563   -26643   -26588   -26455   -26364   -26315 
  -26210   -26036   -25840   -25610   -25309   -24960   -24628   -24371 
  -24193   -24096   -24098   -24171   -24247   -24266   -24187   -24027 
  -23872   -23762   -23639   -23468   -23298   -23193   -23186   -23279 
  -23481   -23809   -24224   -24691   -25215   -25755   -26288   -26856 
  -27479   -28124   -28776   -29442   -30106   -30713   -31185   -31461 
  -31549   -31473   -31272   -31013   -30721   -30369   -29952   -29444 
  -28810   -28046   -27199   -26347   -25502   -24665   -23930   -23368 
  -23025   -22974   -23206   -23643   -24289   -25110   -25952   -26644 
  -27125   -27373   -27363   -27120   -26740   -26329   -25922   -25462 
  -24930   -24414   -23969   -23588   -23295   -23101   -22936   -22755 
  -22596   -22497   -22478   -22558   -22721   -22916   -23099   -23299 
  -23544   -23811   -24127   -24559   -25088   -25677   -26352   -27067 
  -27724   -28291   -28722   -28948   -29000   -28942   -28769   -28494 
  -28152   -27739   -27237   -26696   -26210   -25843   -25608   -25506 
  -25531   -25644   -25809   -26022   -26283   -26557   -26809   -27027 
  -27190   -27301   -27391   -27423   -27306   -27064   -26804   -26512 
  -26110   -25670   -25324   -25045   -24738   -24418   -24105   -23730 
  -23306   -22956   -22685   -22461   -22358   -22400   -22535   -22798 
  -23205   -23646   -24025   -24309   -24510   -24675   -24822   -24915 
  -24939   -24907   -24769   -24521   -24263   -24069   -23930   -23873 
  -23946   -24150   -24459   -24864   -25313   -25729   -26087   -26422 
  -26782   -27180   -27565   -27882   -28097   -28178   -28142   -28054 
  -27958   -27865   -27788   -27731   -27657   -27533   -27314   -26964 
  -26554   -26184   -25855   -25539   -25242   -24988   -24825   -24768 
  -24817   -24972   -25213   -25528   -25897   -26284   -26676   -27059 
  -27355   -27486   -27473   -27345   -27114   -26796   -26400   -25972 
  -25583   -25228   -24869   -24563   -24367   -24224   -24070   -23942 
  -23888   -23908   -23996   -24165   -24421   -24736   -25074   -25400 
  -25652   -25837   -25969   -25951   -25731   -25409   -25064   -24676 
  -24281   -23940   -23646   -23400   -23241   -23170   -23191   -23314 
  -23517   -23787   -24123   -24495   -24883   -25265   -25601   -25860 
  -26057   -26208   -26312   -26383   -26437   -26474   -26507   -26574 
  -26703   -26855   -26985   -27098   -27228   -27375   -27527   -27664 
  -27758   -27808   -27808   -27751   -27665   -27575   -27473   -27328 
  -27114   -26887   -26717   -26576   -26428   -26318   -26249   -26210 
  -26239   -26320   -26380   -26391   -26349   -26242   -26115   -25999 
  -25834   -25548   -25162   -24742   -24341   -24012   -23770   -23566 
  -23388   -23280   -23255   -23306   -23413   -23562   -23785   -24101 
  -24468   -24850   -25222   -25531   -25755   -25918   -25992   -25932 
  -25755   -25490   -25150   -24806   -24556   -24428   -24430   -24565 
  -24767   -24950   -25092   -25212   -25344   -25517   -25740   -26028 
  -26362   -26670   -26906   -27094   -27228   -27283   -27301   -27310 
  -27272   -27157   -26991   -26785   -26503   -26177   -25918   -25747 
  -25581   -25392   -25249   -25185   -25170   -25166   -25147   -25162 
  -25288   -25485   -25689   -25917   -26149   -26327   -26447   -26535 
  -26555   -26461   -26284   -26118   -25987   -25855   -25710   -25604 
  -25546   -25478   -25377   -25267   -25157   -25003   -24787   -24561 
  -24383   -24268   -24210   -24194   -24246   -24372   -24517   -24673 
  -24871   -25061   -25211   -25354   -25501   -25624   -25720   -25820 
  -25972   -26198   -26419   -26538   -26545   -26474   -26364   -26261 
  -26192   -26129   -26019   -25844   -25609   -25323   -25014   -24718 
  -24449   -24194   -23980   -23854   -23820   -23847   -23911   -24003 
  -24136   -24320   -24557   -24875   -25261   -25613   -25806   -25821 
  -25720   -25552   -25397   -25342   -25358   -25371   -25392   -25448 
  -25542   -25687   -25903   -26163   -26428   -26665   -26843   -26995 
  -27175   -27341   -27433   -27471   -27483   -27469   -27450   -27464 
  -27487   -27467   -27417   -27394   -27415   -27469   -27530   -27546 
  -27495   -27364   -27144   -26847   -26519   -26210   -25924   -25648 
  -25398   -25195   -25015   -24845   -24721   -24649   -24565   -24452 
  -24345   -24263   -24202   -24187   -24243   -24341   -24443   -24545 
  -24651   -24742   -24807   -24833   -24807   -24742   -24665   -24586 
  -24493   -24403   -24360   -24386   -24463   -24592   -24798   -25066 
  -25350   -25590   -25747   -25829   -25876   -25876   -25807   -25699 
  -25596   -25517   -25508   -25602   -25771   -25952   -26134   -26349 
  -26589   -26820   -27027   -27226   -27421   -27587   -27718   -27816 
  -27853   -27797   -27660   -27508   -27413   -27332   -27166   -26900 
  -26541   -26086   -25586   -25095   -24615   -24171   -23815   -23579 
  -23473   -23490   -23579   -23681   -23762   -23834   -23932   -24067 
  -24201   -24313   -24440   -24615   -24845   -25124   -25446   -25790 
  -26144   -26501   -26813   -27063   -27292   -27472   -27534   -27500 
  -27430   -27318   -27143   -26916   -26674   -26438   -26176   -25878 
  -25613   -25429   -25324   -25328   -25467   -25710   -26026   -26369 
  -26692   -26954   -27139   -27286   -27406   -27417   -27315   -27205 
  -27110   -26978   -26790   -26538   -26200   -25809   -25412   -25030 
  -24657   -24305   -24030   -23869   -23801   -23812   -23886   -24003 
  -24170   -24386   -24603   -24790   -24972   -25189   -25456   -25793 
  -26199   -26607   -26932   -27168   -27313   -27344   -27233   -26943 
  -26469   -25874   -25228   -24595   -24019   -23483   -22971   -22542 
  -22241   -22073   -22048   -22175   -22449   -22854   -23380   -24048 
  -24852   -25736   -26635   -27463   -28163   -28726   -29133   -29349 
  -29361   -29177   -28821   -28317   -27706   -27049   -26388   -25741 
  -25161   -24700   -24355   -24101   -23926   -23836   -23876   -24040 
  -24267   -24541   -24868   -25220   -25593   -25988   -26380   -26757 
  -27139   -27519   -27832   -28043   -28202   -28293   -28258   -28151 
  -28000   -27791   -27544   -27213   -26770   -26283   -25786   -25300 
  -24872   -24497   -24106   -23688   -23276   -22890   -22561   -22351 
