Origin Time       2025/01/13 21:19:00
Lat.              31.8
Long.             131.6
Depth. (km)       30
Mag.              6.9
Station Code      EHMH12
Station Lat.      33.4270
Station Long.     132.5055
Station Height(m) 250
Record Time       2025/01/13 21:20:07
Sampling Freq(Hz) 100Hz
Duration Time(s)  153
Dir.              5
Scale Factor      7845(gal)/8223790
Max. Acc. (gal)   7.403
Last Correction   2025/01/13 21:20:07
Memo.             
[...]
    6477     6249     6025     5802     5637     5607     5751     6058 
    6469     6910     7344     7736     8058     8305     8476     8533 
    8456     8289     8089     7925     7846     7840     7877     7920 
    7925     7865     7757     7626     7499     7429     7446     7496 
    7522     7542     7587     7632     7635     7564     7414     7238 
    7095     6988     6916     6893     6899     6905     6916     6924 
    6934     7010     7168     7345     7472     7497     7396     7222 
    7068     6979     6971     7087     7308     7564     7843     8158 
    8467     8730     8891     8862     8648     8353     8063     7786 
    7519     7258     7002     6786     6674     6644     6620     6579 
    6546     6546     6620     6737     6802     6783     6733     6690 
    6671     6664     6632     6577     6590     6739     6991     7287 
    7554     7734     7824     7852     7812     7673     7452     7218 
    7067     7036     7080     7164     7294     7469     7705     8013 
    8324     8550     8683     8741     8743     8733     8727     8684 
    8560     8364     8147     7956     7792     7666     7593     7533 
    7450     7354     7256     7159     7071     6975     6843     6678 
    6511     6389     6374     6469     6623     6791     6944     7080 
    7249     7458     7647     7753     7739     7619     7461     7339 
    7292     7311     7345     7348     7294     7167     6963     6717 
    6490     6311     6191     6169     6269     6493     6799     7098 
    7323     7483     7604     7712     7827     7952     8073     8179 
    8264     8302     8248     8055     7739     7383     7060     6805 
    6635     6571     6644     6847     7111     7358     7539     7624 
    7649     7672     7700     7713     7705     7674     7628     7580 
    7524     7420     7223     6964     6728     6561     6457     6407 
    6397     6439     6559     6750     6994     7276     7555     7803 
    8041     8290     8523     8698     8807     8877     8901     8842 
    8702     8515     8316     8151     8048     7965     7825     7622 
    7426     7290     7196     7101     6967     6797     6621     6478 
    6394     6359     6335     6338     6397     6485     6559     6610 
    6651     6717     6853     7055     7281     7493     7665     7788 
    7865     7896     7890     7865     7835     7798     7736     7647 
    7523     7342     7132     6952     6843     6821     6897     7055 
    7252     7443     7576     7593     7488     7333     7236     7234 
    7265     7276     7287     7321     7410     7560     7681     7668 
    7510     7258     7024     6920     6959     7034     7048     6967 
    6799     6604     6498     6558     6739     6952     7125     7254 
    7403     7600     7786     7878     7852     7761     7686     7697 
    7781     7890     8021     8137     8168     8100     7954     7751 
    7573     7519     7607     7781     7973     8141     8247     8237 
    8104     7893     7677     7535     7485     7437     7299     7078 
    6864     6748     6768     6872     6944     6929     6898     6945 
    7096     7269     7330     7229     7042     6860     6759     6781 
    6882     6994     7106     7209     7288     7376     7510     7705 
    7954     8201     8351     8360     8266     8170     8194     8387 
    8662     8851     8856     8691     8413     8081     7747     7430 
    7106     6810     6620     6551     6579     6681     6812     6890 
    6879     6821     6750     6646     6501     6355     6285     6367 
    6601     6907     7200     7443     7686     7974     8221     8279 
    8085     7681     7211     6835     6659     6696     6870     7109 
    7360     7531     7508     7288     6988     6752     6683     6825 
    7133     7481     7788     8046     8272     8468     8608     8658 
    8646     8649     8692     8699     8571     8272     7854     7410 
    7028     6767     6650     6642     6670     6674     6610     6469 
    6295     6154     6088     6092     6126     6146     6178     6315 
    6650     7211     7898     8553     9082     9443     9598     9555 
    9355     9015     8549     8040     7592     7267     7119     7176 
    7381     7662     7978     8301     8595     8818     8884     8750 
    8469     8151     7904     7754     7623     7449     7258     7080 
    6897     6727     6632     6650     6740     6839     6906     6914 
    6836     6689     6528     6399     6327     6363     6579     6966 
    7412     7801     8047     8117     8063     7952     7796     7597 
    7369     7107     6824     6544     6280     6075     5987     6029 
    6181     6408     6632     6787     6883     6975     7123     7366 
    7665     7962     8218     8401     8476     8449     8374     8303 
    8232     8121     7962     7778     7618     7539     7570     7636 
    7628     7533     7419     7369     7400     7453     7470     7438 
    7375     7366     7476     7645     7767     7797     7754     7697 
    7662     7649     7665     7711     7761     7832     7928     7958 
    7832     7578     7296     7080     6987     7026     7155     7296 
    7402     7483     7611     7827     8101     8383     8599     8688 
    8653     8548     8448     8387     8282     7998     7500     6880 
    6358     6102     6097     6211     6297     6276     6168     6052 
    5937     5799     5667     5595     5599     5679     5813     5957 
    6102     6286     6539     6836     7141     7426     7676     7858 
    7912     7821     7650     7511     7516     7719     8091     8540 
    8946     9238     9374     9313     9049     8649     8186     7690 
    7217     6816     6450     6096     5795     5540     5290     5069 
    4911     4838     4908     5201     5738     6444     7213     7997 
    8796     9613    10399    11005    11277    11152    10673     9954 
    9131     8282     7439     6683     6115     5744     5526     5400 
    5247     5001     4745     4608     4680     4966     5390     5907 
    6538     7256     7969     8560     8931     9073     9099     9127 
    9182     9225     9236     9255     9329     9448     9510     9360 
    8910     8240     7520     6921     6552     6419     6420     6455 
    6473     6469     6440     6405     6427     6594     6924     7319 
    7661     7935     8197     8444     8625     8699     8627     8415 
    8131     7830     7524     7169     6721     6224     5765     5381 
    5097     4966     5026     5256     5610     6061     6563     7032 
    7429     7773     8062     8291     8494     8698     8870     8969 
    8986     8934     8820     8634     8343     7927     7415     6902 
    6511     6305     6288     6426     6659     6902     7072     7137 
    7115     7053     7010     7041     7191     7468     7835     8259 
    8711     9119     9377     9448     9410     9359     9325     9252 
    9035     8640     8122     7574     7055     6573     6099     5659 
    5348     5216     5250     5410     5618     5811     5991     6160 
    6301     6448     6679     7069     7654     8367     9082     9715 
   10238    10624    10821    10744    10351     9730     9065     8500 
    8109     7873     7720     7597     7507     7422     7249     6947 
    6589     6250     5995     5883     5888     5915     5949     6097 
    6451     7003     7620     8113     8357     8344     8136     7827 
    7527     7327     7265     7292     7329     7307     7182     6972 
    6751     6579     6482     6463     6500     6578     6756     7088 
    7527     7982     8397     8753     9046     9261     9363     9319 
    9111     8772     8336     7823     7299     6840     6508     6328 
    6200     6012     5823     5768     5927     6311     6855     7445 
    7983     8448     8885     9323     9707     9921     9826     9397 
    8785     8132     7473     6893     6481     6224     6087     6062 
    6072     6015     5904     5853     5973     6347     6976     7778 
    8634     9431    10061    10453    10542    10311     9871     9432 
    9169     9092     9103     9085     8973     8764     8509     8245 
    7997     7767     7514     7217     6945     6770     6666     6579 
    6517     6536     6644     6764     6847     6929     7047     7210 
    7415     7599     7670     7619     7528     7511     7646     7925 
    8248     8519     8694     8719     8561     8237     7825     7430 
    7121     6889     6675     6432     6147     5819     5467     5112 
    4773     4491     4386     4603     5140     5854     6582     7186 
    7558     7670     7564     7348     7123     6945     6847     6840 
    6929     7106     7344     7585     7750     7789     7739     7674 
    7662     7751     7898     7985     7882     7524     6982     6413 
    5950     5667     5611     5794     6192     6737     7303     7762 
    8087     8336     8561     8784     9013     9234     9390     9444 
    9404     9275     9027     8660     8271     7985     7835     7719 
    7500     7136     6708     6327     6060     5940     5984     6166 
    6421     6683     6930     7159     7326     7375     7303     7183 
    7119     7171     7310     7456     7531     7506     7441     7381 
    7267     7037     6701     6326     6008     5807     5695     5629 
    5603     5626     5674     5691     5674     5686     5819     6137 
    6652     7345     8137     8896     9506     9894    10014     9879 
    9578     9193     8766     8309     7803     7217     6593     6057 
    5732     5660     5790     6010     6231     6411     6539     6632 
    6697     6709     6675     6650     6667     6701     6705     6635 
    6484     6289     6134     6112     6251     6494     6785     7102 
    7406     7646     7838     8006     8137     8230     8301     8328 
    8305     8270     8270     8322     8394     8440     8459     8446 
    8365     8198     7955     7624     7250     7013     7078     7408 
    7846     8262     8588     8802     8901     8870     8672     8301 
    7816     7354     7059     6932     6806     6480     5903     5256 
    4799     4626     4625     4634     4608     4626     4816     5239 
    5834     6508     7191     7865     8530     9175     9752    10218 
   10588    10906    11148    11229    11117    10852    10489    10048 
    9536     8957     8313     7622     6937     6291     5695     5235 
    5055     5256     5798     6492     7095     7454     7580     7578 
    7515     7365     7126     6893     6782     6836     7059     7415 
    7776     7971     7928     7686     7308     6870     6466     6166 
    5944     5703     5382     5008     4718     4711     5081     5717 
    6382     6872     7121     7221     7335     7539     7751     7811 
    7684     7476     7307     7275     7468     7890     8418     8926 
    9359     9675     9813     9734     9424     8891     8201     7464 
    6793     6330     6146     6193     6434     6863     7406     7951 
    8445     8839     9092     9234     9328     9378     9324     9132 
    8823     8483     8252     8260     8552     9067     9667    10199 
   10554    10678    10557    10184     9582     8866     8206     7728 
    7481     7439     7512     7545     7398     7061     6623     6166 
    5756     5444     5247     5130     5051     5019     5071     5233 
    5512     5937     6538     7275     8019     8619     9019     9256 
    9362     9286     8937     8347     7708     7204     6943     6960 
    7144     7298     7310     7175     6930     6602     6205     5814 
    5498     5231     4962     4693     4480     4426     4602     4918 
    5197     5339     5371     5410     5580     5904     6281     6594 
    6795     6885     6916     7003     7215     7466     7651     7770 
    7888     8020     8145     8255     8357     8468     8599     8742 
    8856     8877     8779     8613     8442     8262     8040     7832 
    7726     7736     7862     8113     8436     8716     8893     9040 
    9254     9553     9942    10423    10924    11335    11584    11622 
   11368    10760     9888     8976     8210     7604     7053     6469 
    5811     5065     4226     3326     2405     1559      936      668 
     781     1239     1952     2776     3599     4434     5373     6427 
    7500     8472     9209     9571     9514     9148     8610     7989 
    7381     6885     6528     6289     6115     5914     5641     5368 
    5240     5391     5865     6561     7296     7925     8360     8595 
    8725     8830     8942     9135     9474     9926    10423    10864 
   11113    11022    10528     9721     8810     7997     7376     6902 
    6507     6158     5842     5614     5537     5563     5578     5536 
    5509     5598     5852     6232     6579     6747     6783     6880 
    7172     7676     8317     8970     9540     9983    10287    10424 
   10346    10027     9531     9004     8564     8193     7805     7391 
    7011     6731     6562     6444     6304     6134     5999     6031 
    6334     6882     7543     8243     9018     9876    10735    11487 
   12009    12178    11974    11504    10874    10158     9405     8635 
    7893     7223     6621     6034     5391     4653     3869     3160 
    2620     2276     2160     2309     2677     3118     3488     3739 
    3910     4093     4379     4797     5258     5620     5775     5698 
    5456     5142     4833     4641     4673     4978     5566     6390 
    7317     8248     9250    10377    11562    12707    13711    14466 
   14933    15159    15160    14882    14257    13331    12272    11273 
   10444     9752     9107     8467     7815     7159     6542     5985 
    5486     5062     4746     4577     4602     4847     5278     5814 
    6394     7013     7638     8183     8579     8814     8895     8865 
    8822     8807     8783     8692     8473     8070     7507     6905 
    6413     6108     5935     5813     5737     5759     5879     6046 
    6226     6411     6637     6994     7524     8175     8857     9516 
   10141    10743    11276    11618    11618    11206    10480     9647 
    8872     8225     7690     7238     6878     6574     6211     5690 
    5013     4291     3647     3123     2678     2254     1876     1665 
    1740     2116     2698     3348     4001     4671     5393     6141 
    6804     7242     7399     7376     7385     7557     7869     8220 
    8529     8808     9139     9556     9965    10195    10089     9579 
    8734     7730     6747     5886     5188     4720     4554     4722 
    5242     6068     7002     7778     8252     8467     8563     8679 
    8853     8988     9004     8981     9062     9266     9468     9514 
    9325     8916     8387     7870     7439     7055     6621     6108 
    5601     5213     4988     4949     5146     5594     6245     6980 
    7646     8109     8301     8225     7970     7682     7500     7445 
    7423     7325     7098     6772     6475     6381     6598     7065 
    7587     7994     8259     8424     8546     8675     8779     8781 
    8677     8575     8581     8738     9023     9327     9494     9412 
    9023     8303     7303     6176     5155     4436     4067     4009 
    4164     4432     4773     5202     5729     6319     6891     7389 
    7809     8135     8311     8259     7902     7217     6269     5251 
    4402     3882     3711     3797     3952     3959     3771     3538 
    3426     3505     3781     4220     4773     5416     6187     7138 
    8228     9323    10326    11199    11884    12321    12549    12684 
   12792    12877    12868    12631    12067    11223    10291     9483 
    8895     8480     8162     7915     7747     7631     7549     7547 
    7684     7958     8302     8630     8876     9001     9031     9022 
    9001     8957     8862     8658     8278     7713     7013     6265 
    5605     5192     5109     5320     5725     6215     6660     6936 
    6999     6914     6791     6720     6755     6937     7260     7647 
    7992     8163     8082     7836     7600     7483     7500     7604 
    7700     7738     7722     7650     7530     7384     7230     7121 
    7163     7415     7832     8357     8930     9454     9859    10118 
   10210    10179    10126    10079     9945     9641     9161     8549 
    7879     7209     6544     5869     5200     4608     4155     3847 
    3653     3524     3426     3352     3353     3520     3912     4499 
    5194     5946     6741     7550     8334     9062     9664    10008 
    9999     9695     9265     8854     8552     8403     8414     8538 
    8696     8791     8730     8472     8040     7488     6870     6228 
    5625     5124     4770     4569     4491     4487     4534     4654 
    4881     5185     5468     5617     5579     5405     5244     5250 
    5470     5829     6195     6480     6700     6930     7218     7549 
    7871     8127     8291     8371     8370     8316     8284     8351 
    8572     8997     9622    10328    10926    11272    11334    11129 
   10710    10193     9693     9239     8837     8532     8376     8388 
    8529     8703     8802     8764     8564     8202     7709     7182 
    6737     6426     6258     6211     6226     6285     6421     6629 
    6848     6995     7006     6872     6604     6226     5796     5389 
    5047     4768     4536     4345     4226     4236     4394     4621 
    4779     4788     4677     4557     4564     4761     5117     5618 
    6278     7092     8014     9007    10027    10971    11697    12139 
   12291    12175    11878    11526    11188    10837    10423     9940 
    9417     8872     8307     7743     7226     6771     6385     6092 
    5895     5768     5668     5563     5490     5512     5610     5728 
    5837     5950     6104     6308     6497     6594     6613     6647 
    6793     7075     7426     7763     8055     8321     8580     8830 
    9065     9274     9414     9436     9300     9009     8648     8328 
    8136     8113     8255     8499     8797     9143     9514     9888 
   10224    10411    10335    10006     9543     9084     8745     8569 
    8482     8334     8043     7638     7221     6855     6507     6118 
    5665     5179     4738     4399     4148     3944     3775     3694 
    3796     4141     4710     5391     6050     6586     6936     7064 
    6987     6781     6563     6453     6497     6652     6828     6930 
    6901     6745     6489     6149     5773     5451     5251     5205 
    5327     5634     6126     6729     7377     8054     8738     9386 
    9969    10486    10924    11236    11379    11330    11065    10566 
    9873     9094     8334     7662     7091     6601     6170     5806 
    5502     5254     5063     4930     4853     4864     5009     5321 
    5802     6412     7094     7800     8463     9013     9409     9636 
    9711     9707     9683     9659     9660     9678     9640     9483 
    9197     8811     8390     7979     7582     7167     6698     6207 
    5771     5441     5258     5238     5335     5502     5713     5949 
    6200     6423     6582     6678     6732     6783     6905     7156 
    7500     7858     8198     8529     8823     9035     9119     9026 
    8739     8293     7778     7322     6988     6752     6574     6453 
    6411     6486     6721     7130     7651     8194     8677     9024 
    9186     9202     9135     9009     8810     8513     8128     7693 
