Origin Time       2025/01/13 21:19:00
Lat.              31.8
Long.             131.6
Depth. (km)       30
Mag.              6.9
Station Code      EHMH10
Station Lat.      34.1918
Station Long.     133.0581
Station Height(m) -95
Record Time       2025/01/13 21:20:27
Sampling Freq(Hz) 100Hz
Duration Time(s)  135
Dir.              2
Scale Factor      3923(gal)/8224838
Max. Acc. (gal)   1.322
Last Correction   2025/01/13 21:20:27
Memo.             
[...]
   19564    19557    19538    19508    19485    19468    19431    19387 
   19365    19357    19340    19314    19286    19264    19260    19259 
   19245    19230    19229    19233    19221    19197    19190    19221 
   19284    19334    19342    19327    19298    19245    19191    19175 
   19188    19192    19175    19168    19194    19238    19278    19302 
   19306    19310    19332    19353    19337    19280    19222    19210 
   19253    19321    19371    19383    19376    19375    19388    19419 
   19472    19522    19558    19589    19619    19654    19699    19753 
   19822    19884    19903    19889    19888    19909    19916    19855 
   19739    19649    19606    19564    19498    19413    19349    19349 
   19381    19386    19372    19367    19359    19354    19359    19356 
   19333    19305    19295    19325    19383    19445    19481    19485 
   19484    19518    19587    19635    19630    19595    19558    19515 
   19458    19400    19376    19386    19373    19295    19186    19130 
   19163    19222    19236    19213    19192    19191    19187    19155 
   19128    19144    19182    19199    19188    19170    19159    19156 
   19172    19218    19267    19264    19201    19152    19190    19284 
   19359    19377    19376    19402    19444    19477    19506    19535 
   19542    19492    19392    19309    19284    19292    19278    19214 
   19140    19129    19184    19234    19238    19209    19186    19192 
   19218    19261    19321    19367    19384    19395    19418    19448 
   19460    19434    19388    19368    19384    19413    19431    19445 
   19454    19441    19410    19372    19330    19291    19249    19203 
   19195    19242    19314    19380    19426    19458    19502    19550 
   19569    19549    19507    19473    19476    19492    19483    19442 
   19394    19354    19329    19306    19279    19248    19229    19238 
   19257    19272    19298    19353    19426    19491    19519    19518 
   19518    19515    19485    19446    19423    19426    19440    19433 
   19413    19422    19461    19481    19475    19483    19530    19584 
   19614    19622    19629    19647    19673    19683    19660    19611 
   19562    19543    19560    19569    19508    19383    19282    19255 
   19263    19252    19195    19126    19098    19103    19107    19113 
   19143    19175    19171    19157    19187    19237    19252    19221 
   19186    19213    19296    19346    19317    19267    19276    19344 
   19410    19430    19430    19457    19504    19529    19539    19580 
   19645    19689    19683    19646    19619    19607    19593    19569 
   19545    19530    19519    19502    19495    19516    19541    19523 
   19456    19377    19336    19323    19309    19276    19238    19229 
   19267    19306    19300    19256    19192    19149    19148    19179 
   19219    19267    19317    19361    19381    19383    19373    19352 
   19327    19313    19299    19269    19238    19246    19300    19361 
   19394    19396    19398    19425    19460    19458    19407    19354 
   19332    19323    19317    19314    19338    19408    19473    19473 
   19444    19437    19449    19445    19417    19399    19427    19461 
   19441    19396    19408    19492    19570    19569    19514    19510 
   19575    19620    19619    19620    19666    19723    19719    19664 
   19668    19765    19849    19832    19759    19728    19770    19800 
   19743    19643    19564    19492    19402    19309    19257    19269 
   19303    19315    19313    19342    19406    19456    19491    19541 
   19603    19678    19773    19861    19924    19965    19994    20039 
   20093    20123    20104    20058    20024    20007    19980    19926 
   19847    19765    19691    19624    19557    19483    19417    19380 
   19363    19332    19287    19257    19256    19256    19218    19147 
   19089    19053    18999    18901    18785    18700    18677    18686 
   18671    18625    18594    18636    18746    18843    18898    18976 
   19097    19179    19164    19102    19093    19190    19336    19437 
   19498    19573    19649    19657    19599    19527    19471    19450 
   19491    19580    19676    19720    19680    19599    19554    19583 
   19649    19689    19674    19623    19569    19523    19479    19419 
   19377    19388    19415    19414    19380    19356    19364    19371 
   19314    19226    19213    19296    19396    19450    19476    19521 
   19570    19599    19622    19666    19712    19719    19680    19634 
   19596    19553    19500    19453    19427    19418    19396    19353 
   19318    19307    19284    19224    19167    19190    19282    19340 
   19317    19268    19283    19388    19518    19593    19618    19611 
   19580    19525    19472    19483    19558    19607    19570    19510 
   19519    19602    19666    19660    19615    19607    19651    19695 
   19703    19685    19623    19515    19406    19340    19349    19414 
   19440    19398    19357    19349    19348    19318    19261    19211 
   19187    19171    19144    19106    19075    19059    19079    19164 
   19271    19307    19257    19174    19109    19103    19151    19222 
   19319    19440    19526    19545    19518    19472    19411    19344 
   19291    19256    19219    19168    19133    19156    19218    19256 
   19233    19174    19144    19161    19192    19228    19295    19404 
   19515    19564    19543    19508    19498    19487    19452    19415 
   19431    19485    19500    19453    19413    19429    19481    19503 
   19489    19500    19549    19583    19581    19554    19521    19510 
   19523    19526    19495    19461    19473    19518    19539    19511 
   19458    19444    19469    19450    19342    19224    19188    19214 
   19214    19174    19148    19187    19248    19233    19159    19151 
   19260    19399    19440    19380    19340    19376    19415    19414 
   19448    19568    19699    19737    19661    19580    19561    19539 
   19452    19346    19299    19306    19305    19286    19313    19400 
   19461    19429    19360    19360    19442    19479    19368    19213 
   19205    19349    19460    19407    19271    19217    19290    19357 
   19290    19137    19051    19063    19102    19111    19095    19103 
   19141    19153    19143    19175    19245    19264    19186    19068 
   19020    19087    19206    19260    19237    19209    19198    19178 
   19136    19114    19179    19306    19413    19452    19441    19440 
   19496    19575    19596    19561    19543    19557    19542    19492 
   19472    19510    19560    19557    19479    19394    19398    19456 
   19473    19433    19399    19440    19538    19604    19604    19612 
   19672    19723    19714    19685    19722    19799    19804    19715 
   19630    19630    19674    19660    19553    19445    19413    19383 
   19251    19075    18990    19030    19120    19183    19207    19203 
   19165    19118    19103    19147    19226    19286    19314    19361 
   19453    19546    19607    19676    19785    19869    19826    19676 
   19584    19643    19746    19741    19624    19541    19597    19731 
   19778    19701    19591    19515    19472    19445    19467    19538 
   19575    19548    19530    19568    19637    19670    19637    19622 
   19697    19761    19685    19535    19442    19438    19477    19502 
   19481    19461    19484    19500    19444    19381    19431    19557 
   19631    19611    19560    19581    19689    19757    19703    19608 
   19593    19654    19693    19649    19561    19492    19456    19440 
   19435    19430    19408    19365    19314    19286    19299    19326 
   19314    19261    19218    19205    19183    19140    19128    19192 
   19313    19423    19502    19556    19610    19651    19626    19538 
   19472    19468    19495    19531    19572    19607    19646    19696 
   19735    19754    19750    19704    19612    19511    19461    19496 
   19581    19665    19700    19670    19631    19618    19602    19573 
   19542    19491    19392    19268    19190    19219    19326    19373 
   19294    19203    19217    19282    19259    19129    19039    19076 
   19137    19118    19082    19138    19273    19376    19399    19419 
   19496    19581    19604    19572    19556    19583    19606    19604 
   19597    19608    19649    19660    19607    19533    19476    19477 
   19516    19485    19383    19314    19315    19340    19334    19291 
   19245    19218    19199    19171    19163    19211    19246    19194 
   19094    19029    19039    19074    19056    18986    18952    19017 
   19117    19133    19056    18959    18900    18906    18945    18964 
   18966    18949    18895    18837    18829    18885    18970    19047 
   19091    19086    19051    19014    18993    19003    19016    18968 
   18851    18728    18667    18662    18639    18549    18416    18307 
   18266    18274    18291    18320    18358    18380    18415    18505 
   18632    18736    18792    18825    18866    18894    18867    18825 
   18825    18852    18879    18904    18933    18991    19074    19126 
   19120    19070    19032    19063    19157    19228    19188    19078 
   19017    19066    19172    19219    19202    19230    19332    19407 
   19399    19353    19371    19454    19484    19425    19369    19375 
   19423    19449    19404    19346    19359    19431    19481    19469 
   19442    19445    19469    19469    19431    19413    19448    19496 
   19526    19550    19573    19576    19564    19550    19564    19639 
   19730    19735    19629    19494    19425    19445    19491    19485 
   19450    19464    19534    19624    19707    19762    19808    19862 
   19913    19961    20016    20073    20096    20081    20073    20110 
   20186    20264    20332    20366    20383    20448    20541    20574 
   20520    20424    20349    20340    20363    20363    20345    20322 
   20306    20308    20320    20325    20322    20312    20282    20216 
   20113    20001    19924    19899    19888    19851    19801    19774 
   19788    19816    19807    19747    19703    19731    19803    19843 
   19816    19776    19807    19885    19909    19862    19840    19928 
   20052    20089    20032    19973    19971    19996    19989    19951 
   19946    20036    20174    20235    20167    20083    20104    20227 
   20336    20356    20353    20428    20547    20606    20601    20618 
   20682    20715    20677    20615    20574    20534    20457    20352 
   20277    20279    20335    20370    20385    20434    20503    20536 
   20510    20479    20495    20530    20537    20505    20464    20436 
   20367    20239    20112    20021    19932    19818    19731    19716 
   19723    19650    19472    19282    19168    19130    19116    19105 
   19129    19183    19201    19168    19129    19103    19120    19195 
   19268    19287    19269    19238    19233    19264    19273    19245 
   19234    19267    19288    19256    19188    19125    19101    19129 
   19186    19222    19225    19228    19237    19222    19179    19159 
   19210    19305    19360    19352    19338    19363    19417    19475 
   19539    19616    19672    19674    19634    19599    19603    19583 
   19495    19426    19460    19565    19649    19645    19606    19630 
   19699    19720    19681    19651    19666    19678    19633    19560 
   19557    19647    19731    19738    19701    19674    19676    19668 
   19618    19556    19518    19487    19442    19400    19390    19410 
   19418    19372    19302    19261    19268    19284    19296    19338 
   19422    19494    19504    19485    19507    19588    19684    19743 
   19734    19662    19596    19580    19577    19548    19475    19381 
   19315    19269    19202    19130    19102    19116    19103    19008 
   18860    18735    18662    18620    18563    18497    18449    18400 
   18338    18281    18233    18181    18107    18033    18006    18021 
   18038    18027    18000    17995    18021    18068    18123    18175 
   18211    18206    18184    18202    18239    18238    18200    18168 
   18172    18202    18183    18096    18023    18010    18021    18007 
   17963    17926    17917    17906    17903    17923    17952    17976 
   18000    18036    18094    18129    18085    18031    18053    18108 
   18107    18013    17899    17863    17884    17857    17748    17658 
   17643    17640    17566    17432    17348    17371    17419    17398 
   17324    17267    17271    17321    17371    17381    17369    17409 
   17513    17610    17656    17675    17730    17869    18064    18261 
   18470    18705    18932    19109    19240    19356    19477    19575 
   19626    19661    19716    19793    19873    19934    19959    19978 
   20012    20039    20043    20038    20029    20007    19967    19931 
   19912    19916    19921    19909    19896    19886    19862    19808 
   19732    19653    19568    19473    19390    19341    19310    19257 
   19141    18982    18870    18847    18837    18777    18715    18728 
   18794    18821    18769    18716    18762    18902    19036    19095 
   19132    19225    19359    19462    19519    19572    19649    19718 
   19750    19764    19780    19792    19795    19820    19908    20042 
   20158    20216    20250    20331    20464    20579    20638    20695 
   20822    20992    21119    21178    21228    21320    21443    21541 
   21604    21671    21732    21736    21698    21681    21709    21751 
   21779    21802    21825    21843    21834    21816    21847    21919 
   21976    22015    22061    22117    22169    22171    22110    22057 
   22048    22026    21968    21902    21847    21807    21772    21710 
   21622    21558    21544    21544    21494    21405    21331    21298 
   21284    21244    21151    21011    20875    20780    20710    20629 
   20494    20289    20069    19901    19789    19656    19446    19205 
   18985    18796    18616    18442    18281    18123    17973    17857 
   17782    17728    17658    17540    17400    17284    17199    17132 
   17086    17074    17099    17153    17221    17290    17351    17398 
   17436    17485    17555    17640    17714    17771    17833    17953 
   18139    18327    18457    18523    18570    18662    18787    18885 
   18932    18972    19043    19129    19174    19151    19110    19099 
   19105    19090    19064    19053    19056    19052    19028    18967 
   18886    18816    18752    18693    18652    18631    18600    18546 
   18488    18447    18423    18405    18382    18335    18272    18222 
   18193    18189    18195    18198    18218    18261    18326    18409 
   18513    18640    18787    18917    19026    19157    19333    19525 
   19684    19818    19967    20150    20322    20426    20456    20483 
   20551    20614    20640    20625    20564    20480    20412    20362 
   20305    20225    20132    20034    19916    19782    19672    19610 
   19564    19491    19402    19332    19309    19310    19272    19191 
   19133    19129    19152    19171    19195    19233    19280    19317 
   19326    19306    19271    19237    19219    19218    19218    19207 
   19180    19156    19155    19184    19215    19219    19192    19160 
   19148    19159    19176    19190    19213    19271    19365    19472 
   19560    19615    19654    19688    19697    19657    19569    19472 
   19406    19371    19330    19257    19161    19059    18966    18889 
   18814    18727    18631    18570    18569    18593    18596    18557 
   18503    18484    18499    18482    18418    18358    18350    18373 
   18380    18347    18303    18289    18315    18338    18342    18338 
   18326    18319    18368    18490    18646    18771    18858    18958 
   19105    19272    19403    19484    19565    19673    19780    19853 
   19903    19962    20025    20071    20089    20078    20052    20025 
   20007    19990    19965    19931    19886    19835    19804    19793 
   19774    19751    19751    19791    19870    19962    20051    20131 
   20193    20255    20335    20413    20470    20498    20494    20448 
   20366    20260    20137    19997    19843    19684    19508    19318 
   19103    18863    18627    18404    18185    17984    17809    17644 
   17479    17327    17230    17199    17185    17165    17153    17169 
   17213    17263    17304    17382    17525    17672    17778    17865 
   17988    18157    18312    18403    18478    18612    18793    18945 
   19037    19113    19230    19379    19498    19577    19669    19807 
   19957    20074    20169    20281    20420    20559    20679    20807 
   20973    21158    21315    21442    21567    21686    21778    21847 
   21894    21945    22019    22076    22083    22072    22073    22075 
   22042    21973    21918    21891    21849    21776    21717    21714 
   21732    21701    21610    21504    21406    21307    21162    20957 
   20734    20538    20368    20204    20032    19846    19638    19413 
   19192    18991    18793    18584    18374    18195    18069    17973 
   17874    17786    17745    17734    17697    17616    17554    17567 
   17598    17559    17462    17400    17433    17508    17529    17506 
   17508    17572    17652    17701    17741    17817    17933    18075 
   18210    18331    18468    18612    18739    18856    18981    19116 
   19253    19361    19421    19469    19539    19616    19666    19691 
   19714    19742    19764    19773    19795    19826    19830    19815 
   19827    19874    19927    19930    19884    19874    19942    20015 
   20025    19996    19980    20015    20069    20069    20007    19954 
   19958    19981    19963    19911    19861    19834    19824    19803 
   19746    19685    19661    19658    19646    19611    19564    19519 
   19484    19449    19404    19344    19279    19225    19197    19202 
   19205    19163    19098    19070    19093    19117    19101    19087 
   19125    19186    19217    19222    19256    19350    19481    19581 
   19637    19685    19734    19772    19803    19823    19823    19805 
   19782    19758    19739    19727    19704    19638    19541    19452 
   19383    19317    19259    19224    19192    19156    19120    19098 
   19130    19210    19276    19300    19317    19369    19442    19494 
   19529    19575    19630    19672    19683    19689    19718    19757 
   19793    19828    19866    19909    19938    19940    19958    20007 
   20054    20077    20067    20035    20002    19986    19993    20020 
   20048    20052    20020    19967    19926    19893    19846    19781 
   19705    19645    19642    19688    19728    19710    19635    19562 
   19534    19511    19440    19332    19249    19233    19265    19291 
   19302    19330    19373    19414    19449    19480    19500    19503 
   19496    19500    19522    19548    19553    19526    19475    19423 
   19384    19348    19298    19237    19191    19182    19195    19201 
   19184    19184    19224    19269    19294    19300    19305    19322 
   19348    19349    19323    19298    19272    19222    19152    19071 
   18993    18943    18925    18917    18908    18873    18819    18767 
   18717    18679    18665    18666    18692    18751    18839    18937 
   19037    19155    19287    19415    19535    19654    19785    19930 
   20059    20135    20170    20210    20267    20308    20304    20277 
   20248    20210    20158    20098    20040    19980    19903    19801 
