Origin Time       2025/01/13 21:19:00
Lat.              31.8
Long.             131.6
Depth. (km)       30
Mag.              6.9
Station Code      EHMH05
Station Lat.      33.7112
Station Long.     132.8032
Station Height(m) 6
Record Time       2025/01/13 21:20:16
Sampling Freq(Hz) 100Hz
Duration Time(s)  130
Dir.              2
Scale Factor      3923(gal)/8224838
Max. Acc. (gal)   0.979
Last Correction   2025/01/13 21:20:18
Memo.             
[...]
   36144    36132    36094    36050    36000    35966    35974    35995 
   35982    35964    35976    36023    36099    36161    36161    36132 
   36123    36127    36143    36174    36173    36092    35953    35829 
   35789    35823    35839    35806    35807    35873    35896    35802 
   35676    35668    35814    35984    36040    36004    35977    35977 
   35946    35865    35777    35723    35707    35689    35658    35638 
   35599    35506    35409    35392    35472    35586    35638    35579 
   35456    35386    35417    35515    35613    35653    35648    35653 
   35692    35738    35756    35729    35669    35608    35584    35626 
   35700    35722    35679    35645    35677    35753    35797    35787 
   35781    35819    35854    35841    35781    35710    35685    35734 
   35812    35862    35870    35876    35927    35986    35977    35911 
   35865    35854    35816    35735    35704    35776    35839    35811 
   35761    35788    35868    35883    35814    35793    35885    35965 
   35922    35824    35795    35808    35772    35698    35667    35695 
   35710    35648    35565    35553    35579    35552    35496    35495 
   35559    35602    35561    35506    35559    35716    35842    35847 
   35812    35841    35905    35897    35777    35645    35640    35756 
   35849    35818    35716    35669    35700    35726    35702    35673 
   35683    35691    35646    35583    35581    35649    35696    35689 
   35714    35831    35972    36040    36058    36107    36196    36220 
   36104    35950    35884    35857    35768    35618    35480    35398 
   35337    35267    35229    35248    35291    35337    35390    35434 
   35453    35473    35546    35692    35851    35930    35904    35826 
   35765    35769    35833    35884    35864    35795    35761    35803 
   35850    35833    35810    35860    35924    35891    35772    35715 
   35816    35958    35964    35858    35802    35833    35838    35746 
   35649    35641    35650    35581    35484    35472    35536    35571 
   35540    35523    35591    35688    35694    35588    35455    35360 
   35324    35356    35457    35560    35590    35575    35600    35649 
   35649    35599    35554    35550    35563    35557    35552    35565 
   35572    35538    35490    35482    35488    35457    35418    35434 
   35505    35572    35629    35718    35824    35887    35907    35928 
   35943    35883    35746    35654    35699    35787    35791    35719 
   35685    35726    35776    35791    35822    35893    35927    35885 
   35873    35961    36080    36112    36026    35922    35880    35872 
   35834    35789    35807    35860    35857    35802    35788    35837 
   35854    35796    35743    35764    35820    35846    35830    35823 
   35837    35819    35764    35703    35623    35502    35386    35343 
   35372    35434    35507    35621    35748    35764    35652    35569 
   35618    35698    35645    35476    35384    35433    35514    35564 
   35592    35615    35635    35667    35738    35869    36003    36073 
   36097    36113    36126    36123    36112    36139    36198    36194 
   36109    36031    36024    36049    36020    35927    35846    35810 
   35726    35552    35407    35399    35465    35492    35459    35445 
   35486    35494    35446    35460    35587    35738    35815    35823 
   35861    35946    36007    36038    36101    36192    36238    36225 
   36215    36227    36220    36173    36128    36085    35984    35822 
   35664    35580    35571    35560    35529    35553    35652    35731 
   35712    35603    35492    35465    35502    35532    35532    35542 
   35569    35559    35500    35472    35536    35676    35803    35857 
   35883    35915    35922    35915    35931    35968    36007    36016 
   36005    36001    35989    35966    35959    35989    36049    36082 
   36069    36051    36036    36018    36013    36040    36085    36103 
   36107    36154    36213    36216    36175    36153    36177    36190 
   36117    35999    35972    36078    36157    36077    35885    35699 
   35580    35502    35406    35276    35170    35139    35178    35247 
   35329    35421    35542    35695    35791    35764    35692    35668 
   35668    35629    35584    35662    35880    36036    35973    35808 
   35765    35861    35905    35781    35630    35623    35687    35661 
   35579    35599    35733    35796    35694    35559    35567    35704 
   35816    35831    35808    35772    35723    35719    35757    35754 
   35704    35688    35748    35796    35761    35757    35923    36153 
   36212    36101    36050    36143    36224    36148    35947    35725 
   35541    35463    35548    35735    35862    35818    35685    35667 
   35766    35802    35716    35613    35554    35541    35549    35568 
   35586    35590    35600    35675    35803    35872    35793    35648 
   35581    35615    35654    35685    35768    35900    35986    35928 
   35775    35685    35710    35742    35725    35735    35804    35861 
   35854    35822    35845    35920    35943    35865    35791    35811 
   35870    35866    35781    35689    35689    35789    35903    35949 
   35912    35857    35845    35831    35761    35684    35673    35727 
   35764    35719    35625    35591    35667    35742    35726    35689 
   35703    35764    35826    35827    35797    35800    35810    35800 
   35783    35764    35746    35735    35743    35796    35874    35907 
   35857    35775    35745    35806    35888    35901    35839    35769 
   35758    35818    35908    35974    35982    35920    35837    35808 
   35849    35889    35870    35823    35818    35843    35793    35656 
   35565    35596    35657    35627    35532    35471    35476    35478 
   35440    35394    35365    35345    35359    35461    35631    35762 
   35783    35718    35665    35673    35704    35680    35573    35465 
   35461    35563    35657    35668    35638    35623    35627    35631 
   35642    35688    35762    35776    35712    35685    35766    35870 
   35806    35536    35309    35356    35549    35602    35478    35409 
   35513    35637    35641    35618    35696    35785    35715    35560 
   35583    35785    35883    35775    35672    35731    35860    35916 
   35911    35934    35965    35912    35799    35748    35758    35731 
   35650    35608    35631    35619    35509    35371    35310    35324 
   35336    35356    35424    35464    35438    35441    35532    35625 
   35622    35615    35735    35887    35888    35787    35789    35930 
   35986    35814    35607    35607    35699    35656    35554    35626 
   35827    35870    35669    35518    35646    35826    35765    35569 
   35518    35634    35685    35533    35363    35402    35579    35715 
   35807    35927    36053    36116    36131    36185    36293    36337 
   36254    36147    36100    36059    35977    35884    35842    35824 
   35750    35653    35657    35788    35924    35949    35883    35816 
   35780    35768    35804    35868    35891    35868    35876    35928 
   35945    35891    35868    35954    36077    36104    36030    35986 
   36027    36016    35887    35756    35718    35719    35658    35559 
   35568    35662    35638    35480    35392    35452    35514    35409 
   35186    35098    35214    35309    35275    35235    35278    35355 
   35395    35455    35588    35665    35560    35407    35418    35580 
   35679    35610    35521    35536    35575    35577    35611    35694 
   35700    35544    35375    35392    35491    35438    35268    35203 
   35302    35374    35267    35135    35155    35222    35213    35224 
   35368    35533    35506    35348    35349    35571    35757    35729 
   35614    35594    35621    35560    35452    35436    35498    35515 
   35473    35480    35548    35556    35469    35419    35495    35618 
   35645    35573    35534    35586    35668    35750    35851    35935 
   35939    35899    35893    35941    35988    35981    35969    36032 
   36131    36174    36177    36212    36309    36413    36427    36359 
   36321    36348    36405    36466    36525    36564    36578    36566 
   36499    36379    36274    36270    36374    36479    36472    36396 
   36400    36522    36609    36564    36490    36513    36575    36537 
   36410    36312    36267    36205    36130    36146    36267    36323 
   36186    35978    35922    36007    36040    35941    35827    35841 
   35957    36036    36054    36115    36205    36221    36150    36051 
   35978    35928    35873    35823    35789    35761    35735    35729 
   35745    35762    35738    35685    35706    35834    35970    36022 
   35986    35896    35797    35703    35615    35571    35580    35573 
   35513    35460    35500    35614    35692    35683    35680    35807 
   36032    36188    36161    36062    36039    36062    36045    35989 
   35969    36031    36099    36058    35958    35946    36013    36036 
   36000    35970    35966    35946    35851    35710    35660    35772 
   35935    36026    36001    35885    35789    35806    35884    35935 
   35947    35988    36072    36080    35970    35878    35893    35912 
   35818    35706    35754    35878    35820    35572    35384    35411 
   35550    35615    35586    35568    35534    35371    35127    34982 
   35017    35095    35063    34956    34909    34970    35075    35114 
   35079    35068    35093    35093    35054    34989    34942    34983 
   35078    35101    35052    35031    35046    35039    35012    35041 
   35167    35306    35345    35306    35380    35652    35919    35947 
   35797    35733    35857    36015    36088    36136    36243    36325 
   36261    36142    36169    36325    36391    36259    36090    36090 
   36219    36254    36138    36022    36018    36045    35976    35845 
   35757    35699    35611    35511    35482    35544    35606    35603 
   35581    35625    35715    35749    35687    35596    35533    35496 
   35445    35394    35422    35569    35768    35934    36057    36165 
   36243    36267    36247    36228    36275    36342    36319    36244 
   36227    36292    36408    36508    36544    36517    36468    36424 
   36390    36405    36489    36601    36667    36643    36562    36521 
   36545    36517    36385    36289    36309    36306    36163    35935 
   35761    35706    35715    35700    35635    35568    35532    35499 
   35444    35363    35271    35174    35051    34908    34798    34730 
   34638    34523    34445    34456    34524    34545    34504    34499 
   34538    34538    34476    34450    34526    34614    34646    34684 
   34767    34859    34940    35031    35170    35317    35360    35290 
   35248    35321    35453    35564    35650    35727    35797    35876 
   35962    36036    36076    36062    36022    35999    36031    36092 
   36104    36035    35899    35753    35634    35511    35380    35302 
   35299    35340    35355    35322    35298    35325    35349    35303 
   35228    35203    35233    35251    35220    35197    35255    35378 
   35482    35532    35588    35700    35812    35831    35757    35668 
   35649    35691    35726    35738    35770    35850    35923    35910 
   35823    35779    35857    35992    36053    35995    35919    35943 
   36042    36116    36124    36127    36169    36165    36051    35939 
   35950    36045    36100    36088    36082    36097    36063    35974 
   35903    35892    35860    35725    35559    35442    35345    35220 
   35097    35051    35073    35048    34912    34750    34701    34786 
   34888    34923    34897    34832    34761    34701    34646    34599 
   34550    34473    34373    34279    34184    34051    33907    33858 
   33913    33990    34059    34156    34285    34392    34447    34508 
   34636    34784    34846    34820    34831    34973    35213    35444 
   35580    35631    35704    35876    36107    36251    36231    36157 
   36181    36296    36371    36354    36313    36312    36315    36285 
   36292    36405    36541    36594    36622    36725    36853    36865 
   36724    36589    36553    36498    36342    36177    36089    36039 
   35946    35819    35725    35634    35464    35240    35081    35023 
   34994    34944    34912    34952    35050    35133    35162    35162 
   35186    35259    35338    35348    35263    35158    35120    35133 
   35105    35005    34900    34830    34781    34767    34805    34844 
   34817    34738    34668    34655    34688    34699    34685    34727 
   34828    34938    35037    35125    35262    35517    35826    36074 
   36220    36310    36408    36508    36567    36585    36593    36607 
   36624    36666    36760    36868    36923    36909    36895    36953 
   37056    37130    37147    37131    37110    37084    37081    37135 
   37180    37127    37011    36921    36882    36815    36657    36498 
   36467    36526    36525    36425    36331    36306    36301    36243 
   36126    35995    35873    35746    35631    35610    35710    35816 
   35780    35617    35482    35446    35437    35360    35221    35113 
   35085    35068    35002    34927    34906    34943    34960    34906 
   34838    34846    34939    35039    35058    34986    34925    34950 
   35016    35083    35170    35274    35364    35428    35480    35544 
   35600    35630    35668    35760    35857    35864    35804    35816 
   35945    36101    36227    36378    36614    36869    37039    37145 
   37277    37430    37490    37453    37455    37561    37670    37670 
   37623    37673    37778    37775    37636    37477    37417    37423 
   37380    37285    37214    37195    37183    37107    36996    36938 
   36931    36921    36887    36822    36738    36633    36460    36221 
   35978    35781    35638    35513    35367    35208    35060    34928 
   34789    34665    34620    34672    34753    34815    34881    34954 
   34989    34966    34925    34942    35021    35043    34944    34827 
   34774    34770    34769    34769    34824    34948    35079    35164 
   35226    35313    35414    35490    35560    35672    35802    35905 
   35991    36097    36252    36386    36432    36444    36482    36517 
   36506    36444    36370    36323    36274    36200    36158    36192 
   36250    36261    36212    36194    36259    36350    36383    36363 
   36352    36389    36424    36394    36317    36250    36208    36146 
   36058    35996    35970    35968    35973    35961    35919    35846 
   35752    35671    35595    35484    35345    35222    35118    35002 
   34897    34862    34869    34828    34731    34649    34611    34607 
   34632    34722    34885    35012    35006    34951    34975    35068 
   35085    34979    34906    34965    35036    34987    34893    34938 
   35117    35222    35163    35079    35113    35217    35268    35252 
   35276    35413    35576    35676    35722    35733    35719    35731 
   35792    35854    35878    35888    35904    35897    35851    35816 
   35856    35953    36001    35938    35866    35869    35843    35722 
   35615    35635    35742    35796    35780    35815    35950    36093 
   36159    36186    36235    36246    36147    36023    36009    36104 
   36198    36221    36223    36269    36300    36225    36107    36059 
   36059    35989    35838    35715    35692    35700    35603    35409 
   35284    35302    35370    35372    35302    35245    35256    35291 
   35298    35276    35290    35367    35441    35461    35468    35525 
   35635    35708    35671    35595    35603    35667    35675    35607 
   35549    35548    35523    35401    35290    35324    35430    35432 
   35279    35102    35031    35025    34978    34897    34867    34879 
   34823    34676    34551    34518    34519    34461    34325    34194 
   34119    34055    33970    33936    33990    34069    34105    34113 
   34169    34287    34402    34491    34596    34722    34831    34900 
   34933    34960    35033    35149    35245    35298    35336    35397 
   35483    35563    35614    35660    35714    35761    35793    35826 
   35870    35916    35927    35918    35945    36016    36061    36046 
   36013    36019    36042    36001    35904    35864    35955    36126 
   36247    36281    36313    36375    36418    36398    36346    36332 
   36364    36398    36423    36472    36564    36661    36721    36772 
   36864    36975    37017    36969    36884    36815    36794    36805 
   36819    36828    36823    36778    36676    36543    36398    36244 
   36085    35923    35765    35622    35492    35367    35237    35117 
   35027    34962    34905    34863    34854    34871    34886    34888 
   34919    34996    35075    35122    35162    35253    35398    35519 
   35587    35641    35726    35837    35919    35943    35941    35930 
   35912    35922    35966    36003    35982    35916    35860    35847 
   35843    35823    35811    35834    35900    35991    36077    36158 
   36228    36254    36244    36246    36261    36261    36238    36202 
   36185    36208    36236    36231    36201    36165    36120    36067 
   36020    36000    36013    36022    35972    35866    35758    35680 
   35619    35541    35449    35382    35360    35361    35372    35418 
   35505    35587    35622    35622    35610    35588    35556    35534 
   35571    35638    35656    35602    35513    35419    35360    35322 
   35279    35253    35282    35364    35459    35517    35530    35546 
   35600    35640    35608    35568    35618    35745    35826    35797 
   35764    35839    35974    36057    36059    36047    36072    36085 
   36046    36012    36035    36070    36065    36034    36024    36019 
   35968    35881    35824    35839    35891    35927    35931    35927 
   35939    35969    35986    35947    35843    35719    35606    35494 
   35391    35314    35276    35268    35260    35251    35290    35405 
   35534    35594    35590    35610    35684    35758    35797    35816 
   35837    35854    35837    35787    35754    35739    35681    35565 
   35459    35421    35415    35375    35297    35203    35113    35056 
   35009    34936    34848    34759    34686    34663    34684    34708 
   34730    34776    34857    34955    35051    35151    35255    35356 
   35457    35541    35606    35702    35824    35926    35997    36049 
   36107    36174    36227    36255    36279    36331    36413    36499 
   36540    36533    36539    36594    36657    36666    36609    36558 
   36562    36578    36566    36558    36560    36526    36448    36378 
   36336    36267    36113    35905    35718    35564    35410    35244 
   35112    35040    34977    34875    34769    34689    34614    34524 
   34450    34431    34460    34506    34578    34690    34796    34861 
   34897    34951    35048    35151    35228    35290    35343    35403 
   35519    35700    35900    36040    36115    36213    36367    36501 
   36567    36595    36640    36698    36724    36701    36676    36668 
   36644    36580    36508    36471    36454    36428    36414    36412 
   36386    36344    36294    36236    36158    36031    35883    35760 
   35650    35546    35484    35459    35414    35316    35193    35129 
   35136    35117    35036    34956    34920    34904    34874    34827 
   34793    34766    34709    34639    34576    34508    34453    34430 
   34431    34425    34410    34418    34468    34524    34539    34553 
