Origin Time       2025/01/13 21:19:00
Lat.              31.8
Long.             131.6
Depth. (km)       30
Mag.              6.9
Station Code      EHMH03
Station Lat.      33.9154
Station Long.     133.6497
Station Height(m) 204.5
Record Time       2025/01/13 21:20:32
Sampling Freq(Hz) 100Hz
Duration Time(s)  125
Dir.              2
Scale Factor      3923(gal)/8224838
Max. Acc. (gal)   0.698
Last Correction   2025/01/13 21:20:32
Memo.             
[...]
  -25400   -25419   -25419   -25384   -25361   -25373   -25394   -25415 
  -25421   -25373   -25270   -25177   -25127   -25105   -25084   -25038 
  -24980   -24945   -24976   -25074   -25169   -25193   -25174   -25164 
  -25158   -25145   -25112   -25020   -24879   -24804   -24868   -24966 
  -24993   -24989   -25026   -25068   -25058   -25054   -25116   -25200 
  -25230   -25200   -25157   -25122   -25077   -25022   -24950   -24872 
  -24834   -24860   -24923   -24987   -24989   -24907   -24798   -24764 
  -24833   -24902   -24902   -24898   -24931   -24962   -24985   -25033 
  -25074   -25068   -25049   -25077   -25132   -25168   -25189   -25207 
  -25205   -25205   -25245   -25285   -25272   -25226   -25204   -25203 
  -25200   -25204   -25234   -25289   -25336   -25334   -25293   -25265 
  -25263   -25234   -25151   -25083   -25099   -25178   -25242   -25250 
  -25223   -25208   -25236   -25312   -25407   -25451   -25417   -25353 
  -25309   -25285   -25249   -25182   -25114   -25092   -25131   -25199 
  -25255   -25278   -25296   -25324   -25323   -25303   -25327   -25374 
  -25377   -25347   -25348   -25380   -25371   -25282   -25170   -25122 
  -25153   -25215   -25269   -25281   -25239   -25180   -25155   -25172 
  -25181   -25158   -25143   -25162   -25181   -25186   -25192   -25201 
  -25185   -25123   -25026   -24921   -24844   -24833   -24889   -24957 
  -24975   -24934   -24894   -24891   -24910   -24922   -24925   -24925 
  -24921   -24927   -24956   -24953   -24883   -24823   -24852   -24904 
  -24910   -24931   -25030   -25131   -25165   -25191   -25243   -25272 
  -25258   -25269   -25304   -25304   -25297   -25338   -25374   -25361 
  -25338   -25348   -25374   -25374   -25369   -25374   -25335   -25245 
  -25184   -25191   -25212   -25208   -25207   -25215   -25197   -25174 
  -25203   -25254   -25253   -25211   -25192   -25178   -25120   -25062 
  -25034   -24965   -24846   -24791   -24860   -24968   -25034   -25084 
  -25155   -25178   -25118   -25088   -25181   -25288   -25263   -25147 
  -25076   -25076   -25088   -25080   -25053   -25015   -24991   -25020 
  -25099   -25146   -25120   -25089   -25093   -25087   -25062   -25074 
  -25120   -25139   -25123   -25120   -25142   -25153   -25155   -25165 
  -25151   -25099   -25051   -25039   -25034   -25002   -24981   -25000 
  -25034   -25084   -25142   -25155   -25123   -25103   -25091   -25027 
  -24916   -24835   -24813   -24798   -24759   -24729   -24767   -24871 
  -24957   -24952   -24892   -24875   -24904   -24914   -24918   -24979 
  -25056   -25065   -25031   -25046   -25135   -25231   -25281   -25297 
  -25305   -25316   -25348   -25413   -25482   -25505   -25478   -25459 
  -25492   -25502   -25421   -25293   -25186   -25120   -25097   -25096 
  -25064   -24999   -24972   -25011   -25043   -25034   -25065   -25151 
  -25195   -25158   -25126   -25155   -25199   -25208   -25189   -25170 
  -25181   -25224   -25257   -25223   -25149   -25111   -25123   -25142 
  -25151   -25157   -25147   -25107   -25047   -24993   -24957   -24945 
  -24972   -25030   -25058   -25022   -24935   -24841   -24768   -24719 
  -24682   -24655   -24657   -24707   -24773   -24790   -24753   -24722 
  -24717   -24705   -24679   -24680   -24699   -24711   -24745   -24823 
  -24879   -24880   -24887   -24916   -24929   -24950   -25011   -25060 
  -25073   -25127   -25231   -25259   -25165   -25069   -25066   -25097 
  -25104   -25111   -25137   -25164   -25203   -25265   -25326   -25374 
  -25412   -25419   -25382   -25327   -25276   -25234   -25216   -25230 
  -25247   -25234   -25174   -25089   -25004   -24937   -24907   -24923 
  -24948   -24938   -24911   -24921   -24956   -24979   -25011   -25085 
  -25186   -25274   -25342   -25407   -25427   -25377   -25328   -25342 
  -25381   -25394   -25423   -25524   -25639   -25667   -25621   -25598 
  -25612   -25593   -25531   -25482   -25455   -25421   -25394   -25386 
  -25348   -25258   -25172   -25130   -25099   -25051   -25012   -24995 
  -24983   -24958   -24908   -24848   -24819   -24823   -24807   -24761 
  -24726   -24726   -24734   -24732   -24740   -24773   -24798   -24798 
  -24813   -24872   -24931   -24919   -24845   -24786   -24784   -24829 
  -24885   -24926   -24943   -24977   -25058   -25164   -25235   -25247 
  -25238   -25266   -25327   -25367   -25374   -25357   -25328   -25308 
  -25296   -25277   -25249   -25215   -25178   -25154   -25176   -25232 
  -25263   -25259   -25258   -25261   -25251   -25240   -25239   -25222 
  -25189   -25184   -25232   -25289   -25294   -25261   -25262   -25319 
  -25362   -25343   -25299   -25282   -25305   -25330   -25317   -25272 
  -25232   -25211   -25185   -25162   -25178   -25213   -25197   -25122 
  -25050   -25015   -24989   -24954   -24918   -24884   -24842   -24781 
  -24702   -24656   -24688   -24749   -24786   -24821   -24881   -24921 
  -24891   -24823   -24781   -24784   -24826   -24895   -24958   -25000 
  -25045   -25100   -25147   -25158   -25146   -25150   -25182   -25219 
  -25247   -25266   -25270   -25276   -25293   -25299   -25277   -25240 
  -25203   -25176   -25157   -25149   -25147   -25137   -25105   -25069 
  -25038   -25014   -24995   -24973   -24931   -24869   -24825   -24814 
  -24794   -24734   -24663   -24628   -24645   -24707   -24791   -24875 
  -24943   -24985   -25010   -25042   -25091   -25124   -25105   -25049 
  -25010   -24992   -24975   -24950   -24919   -24887   -24864   -24868 
  -24899   -24923   -24911   -24887   -24864   -24825   -24768   -24730 
  -24719   -24723   -24756   -24815   -24860   -24864   -24884   -24970 
  -25076   -25137   -25176   -25228   -25286   -25354   -25443   -25524 
  -25569   -25604   -25645   -25662   -25636   -25609   -25606   -25601 
  -25582   -25575   -25578   -25571   -25573   -25574   -25520   -25411 
  -25330   -25320   -25317   -25265   -25200   -25177   -25177   -25173 
  -25165   -25143   -25077   -24991   -24930   -24900   -24888   -24900 
  -24925   -24933   -24916   -24908   -24945   -24993   -25004   -24989 
  -25010   -25076   -25124   -25127   -25130   -25162   -25197   -25220 
  -25250   -25296   -25338   -25358   -25365   -25369   -25380   -25393 
  -25394   -25378   -25373   -25400   -25450   -25489   -25494   -25450 
  -25382   -25338   -25328   -25327   -25323   -25324   -25330   -25326 
  -25309   -25319   -25348   -25340   -25281   -25230   -25216   -25231 
  -25254   -25261   -25249   -25246   -25262   -25267   -25246   -25215 
  -25193   -25176   -25142   -25088   -25020   -24954   -24904   -24880 
  -24872   -24875   -24899   -24952   -25015   -25089   -25176   -25258 
  -25330   -25404   -25483   -25543   -25560   -25555   -25559   -25574 
  -25596   -25643   -25697   -25714   -25705   -25705   -25721   -25709 
  -25652   -25582   -25529   -25494   -25462   -25419   -25374   -25343 
  -25308   -25253   -25203   -25188   -25188   -25177   -25168   -25173 
  -25197   -25253   -25340   -25416   -25444   -25456   -25488   -25510 
  -25496   -25470   -25455   -25434   -25409   -25400   -25396   -25377 
  -25347   -25320   -25282   -25235   -25195   -25158   -25122   -25078 
  -25015   -24949   -24898   -24856   -24826   -24825   -24844   -24872 
  -24912   -24958   -24993   -25027   -25073   -25127   -25181   -25232 
  -25266   -25270   -25265   -25277   -25308   -25340   -25357   -25332 
  -25274   -25213   -25169   -25131   -25095   -25069   -25057   -25030 
  -24985   -24938   -24880   -24806   -24732   -24680   -24648   -24630 
  -24636   -24640   -24610   -24575   -24576   -24602   -24615   -24613 
  -24634   -24705   -24790   -24857   -24904   -24946   -25000   -25070 
  -25141   -25189   -25208   -25231   -25280   -25340   -25388   -25423 
  -25446   -25443   -25421   -25409   -25407   -25402   -25388   -25367 
  -25338   -25305   -25277   -25250   -25224   -25199   -25169   -25142 
  -25135   -25145   -25145   -25138   -25146   -25173   -25197   -25199 
  -25180   -25154   -25124   -25103   -25093   -25081   -25064   -25046 
  -25027   -25010   -25007   -25008   -24979   -24922   -24889   -24918 
  -24965   -24981   -24979   -24979   -24992   -25022   -25057   -25080 
  -25084   -25088   -25107   -25143   -25173   -25181   -25178   -25186 
  -25212   -25243   -25257   -25245   -25228   -25227   -25228   -25224 
  -25224   -25218   -25193   -25172   -25178   -25209   -25230   -25239 
  -25253   -25250   -25228   -25230   -25272   -25313   -25324   -25332 
  -25357   -25362   -25336   -25319   -25320   -25307   -25259   -25209 
  -25208   -25255   -25284   -25261   -25227   -25231   -25262   -25273 
  -25253   -25232   -25235   -25251   -25267   -25293   -25309   -25293 
  -25269   -25259   -25257   -25251   -25255   -25276   -25304   -25312 
  -25304   -25285   -25265   -25257   -25249   -25215   -25170   -25146 
  -25137   -25122   -25092   -25047   -24989   -24935   -24898   -24854 
  -24799   -24771   -24791   -24818   -24825   -24831   -24854   -24895 
  -24953   -25014   -25058   -25101   -25158   -25211   -25261   -25331 
  -25413   -25471   -25512   -25578   -25693   -25813   -25888   -25941 
  -25990   -26001   -25974   -25951   -25947   -25938   -25903   -25843 
  -25790   -25751   -25697   -25644   -25627   -25612   -25567   -25516 
  -25477   -25429   -25367   -25327   -25328   -25326   -25293   -25269 
  -25290   -25324   -25328   -25321   -25335   -25366   -25412   -25466 
  -25485   -25446   -25385   -25357   -25367   -25363   -25317   -25280 
  -25296   -25344   -25373   -25382   -25388   -25370   -25323   -25280 
  -25259   -25234   -25205   -25199   -25192   -25134   -25047   -24989 
  -24972   -24962   -24957   -24954   -24943   -24946   -24984   -25039 
  -25077   -25085   -25080   -25091   -25119   -25153   -25184   -25216 
  -25228   -25223   -25245   -25299   -25339   -25344   -25363   -25421 
  -25466   -25455   -25424   -25417   -25428   -25439   -25454   -25475 
  -25486   -25470   -25428   -25385   -25367   -25355   -25326   -25290 
  -25255   -25188   -25077   -24970   -24902   -24846   -24791   -24754 
  -24727   -24675   -24618   -24609   -24633   -24641   -24634   -24642 
  -24660   -24671   -24679   -24683   -24684   -24694   -24723   -24791 
  -24891   -24980   -25042   -25103   -25189   -25274   -25315   -25317 
  -25324   -25342   -25354   -25366   -25386   -25401   -25408   -25420 
  -25440   -25454   -25440   -25401   -25344   -25285   -25234   -25177 
  -25087   -24968   -24861   -24791   -24744   -24695   -24652   -24636 
  -24651   -24667   -24673   -24692   -24722   -24734   -24722   -24725 
  -24772   -24853   -24934   -24993   -25045   -25105   -25150   -25147 
  -25124   -25124   -25126   -25088   -25018   -24948   -24884   -24815 
  -24754   -24719   -24699   -24676   -24645   -24601   -24560   -24541 
  -24545   -24545   -24530   -24530   -24570   -24619   -24651   -24679 
  -24737   -24811   -24858   -24884   -24918   -24949   -24965   -24975 
  -24977   -24988   -25015   -25045   -25074   -25114   -25162   -25218 
  -25265   -25288   -25286   -25290   -25320   -25359   -25396   -25429 
  -25456   -25473   -25475   -25466   -25447   -25398   -25326   -25272 
  -25253   -25235   -25211   -25205   -25224   -25240   -25255   -25286 
  -25339   -25394   -25431   -25454   -25485   -25516   -25521   -25506 
  -25492   -25469   -25405   -25323   -25284   -25293   -25307   -25309 
  -25323   -25344   -25367   -25411   -25469   -25506   -25512   -25506 
  -25498   -25482   -25455   -25419   -25374   -25326   -25281   -25246 
  -25212   -25166   -25116   -25084   -25077   -25078   -25077   -25072 
  -25074   -25076   -25057   -25029   -25014   -25004   -24984   -24952 
  -24933   -24948   -24977   -24980   -24958   -24950   -24972   -25008 
  -25053   -25100   -25131   -25142   -25157   -25184   -25209   -25226 
  -25239   -25263   -25304   -25354   -25405   -25454   -25493   -25512 
  -25509   -25504   -25496   -25478   -25456   -25438   -25421   -25404 
  -25381   -25350   -25319   -25281   -25242   -25209   -25178   -25131 
  -25076   -25033   -25016   -25015   -25024   -25056   -25095   -25111 
  -25111   -25126   -25153   -25181   -25212   -25253   -25297   -25328 
  -25338   -25340   -25347   -25347   -25324   -25289   -25280   -25303 
  -25309   -25276   -25234   -25205   -25186   -25180   -25188   -25200 
  -25209   -25231   -25277   -25332   -25373   -25394   -25423   -25475 
  -25542   -25602   -25656   -25714   -25766   -25791   -25793   -25780 
  -25749   -25695   -25633   -25583   -25525   -25446   -25378   -25347 
  -25331   -25309   -25293   -25274   -25219   -25139   -25078   -25045 
  -25003   -24931   -24852   -24777   -24702   -24628   -24564   -24524 
  -24505   -24494   -24478   -24463   -24467   -24480   -24491   -24510 
  -24556   -24630   -24718   -24795   -24853   -24916   -25002   -25093 
  -25195   -25301   -25381   -25427   -25479   -25563   -25648   -25706 
  -25749   -25779   -25794   -25818   -25870   -25911   -25928   -25953 
  -26018   -26094   -26156   -26227   -26304   -26345   -26361   -26396 
  -26439   -26464   -26484   -26512   -26538   -26549   -26532   -26495 
  -26453   -26424   -26407   -26381   -26327   -26265   -26222   -26191 
  -26148   -26100   -26063   -26023   -25960   -25870   -25780   -25698 
  -25597   -25477   -25369   -25278   -25185   -25093   -25007   -24918 
  -24823   -24736   -24655   -24567   -24467   -24375   -24305   -24250 
  -24194   -24133   -24075   -24023   -23969   -23922   -23884   -23845 
  -23808   -23797   -23818   -23831   -23811   -23778   -23761   -23751 
  -23733   -23714   -23712   -23716   -23703   -23685   -23701   -23745 
  -23789   -23832   -23881   -23935   -23989   -24046   -24112   -24169 
  -24216   -24268   -24341   -24428   -24510   -24584   -24663   -24725 
  -24769   -24813   -24846   -24862   -24894   -24948   -24995   -25038 
  -25100   -25170   -25222   -25250   -25280   -25316   -25338   -25342 
  -25334   -25304   -25261   -25223   -25201   -25193   -25188   -25189 
  -25193   -25186   -25165   -25146   -25147   -25168   -25189   -25208 
  -25234   -25263   -25282   -25282   -25289   -25312   -25338   -25359 
  -25381   -25388   -25363   -25326   -25294   -25254   -25196   -25153 
  -25138   -25126   -25107   -25100   -25111   -25118   -25114   -25110 
  -25110   -25115   -25119   -25112   -25105   -25127   -25166   -25185 
  -25177   -25172   -25196   -25243   -25299   -25359   -25412   -25455 
  -25488   -25497   -25496   -25519   -25556   -25575   -25578   -25596 
  -25621   -25625   -25605   -25577   -25546   -25508   -25459   -25415 
  -25385   -25346   -25292   -25250   -25222   -25203   -25186   -25174 
  -25195   -25239   -25266   -25280   -25316   -25373   -25416   -25438 
  -25458   -25471   -25463   -25456   -25458   -25439   -25405   -25384 
  -25369   -25343   -25307   -25258   -25201   -25150   -25104   -25060 
  -25022   -24992   -24969   -24948   -24927   -24918   -24911   -24896 
  -24872   -24849   -24835   -24841   -24869   -24898   -24914   -24937 
  -24970   -24995   -25003   -25008   -25024   -25050   -25081   -25111 
  -25139   -25162   -25178   -25203   -25242   -25292   -25339   -25362 
  -25358   -25353   -25354   -25358   -25366   -25375   -25378   -25361 
  -25319   -25280   -25250   -25205   -25141   -25078   -25033   -24992 
  -24964   -24949   -24942   -24939   -24949   -24970   -24996   -25006 
  -25003   -25014   -25037   -25043   -25024   -25007   -24996   -24980 
  -24966   -24964   -24958   -24942   -24934   -24941   -24943   -24934 
  -24933   -24950   -24975   -24993   -25000   -24992   -24980   -24973 
  -24970   -24965   -24958   -24953   -24956   -24961   -24977   -25007 
  -25041   -25068   -25097   -25128   -25159   -25196   -25247   -25301 
  -25332   -25338   -25346   -25374   -25402   -25400   -25367   -25328 
  -25301   -25284   -25263   -25234   -25192   -25153   -25126   -25096 
  -25050   -25000   -24968   -24953   -24942   -24939   -24952   -24964 
  -24975   -24988   -25004   -25022   -25041   -25058   -25080   -25115 
  -25165   -25216   -25270   -25335   -25398   -25444   -25474   -25506 
  -25544   -25575   -25604   -25651   -25724   -25803   -25871   -25928 
  -25986   -26042   -26102   -26161   -26199   -26198   -26187   -26190 
  -26199   -26207   -26210   -26198   -26165   -26137   -26118   -26102 
  -26090   -26084   -26075   -26060   -26056   -26063   -26068   -26063 
  -26052   -26030   -25988   -25928   -25861   -25798   -25739   -25691 
  -25660   -25644   -25643   -25648   -25650   -25651   -25660   -25675 
  -25689   -25699   -25705   -25709   -25709   -25694   -25650   -25583 
  -25513   -25439   -25347   -25254   -25170   -25105   -25049   -24993 
  -24948   -24906   -24838   -24753   -24679   -24624   -24578   -24524 
  -24472   -24437   -24418   -24397   -24360   -24322   -24294   -24270 
  -24235   -24196   -24174   -24170   -24178   -24205   -24248   -24293 
  -24340   -24395   -24444   -24472   -24506   -24559   -24618   -24667 
  -24714   -24768   -24821   -24862   -24898   -24937   -24980   -25010 
  -25015   -25010   -25010   -25018   -25023   -25018   -25018   -25034 
  -25060   -25080   -25099   -25135   -25182   -25231   -25277   -25307 
  -25324   -25342   -25359   -25388   -25435   -25478   -25510   -25544 
  -25578   -25609   -25639   -25663   -25675   -25677   -25660   -25633 
  -25605   -25570   -25524   -25467   -25412   -25371   -25347   -25323 
  -25277   -25215   -25164   -25123   -25083   -25054   -25041   -25029 
  -25012   -25002   -25007   -25029   -25035   -25020   -25006   -24989 
  -24962   -24937   -24922   -24904   -24872   -24837   -24811   -24788 
  -24767   -24753   -24749   -24748   -24733   -24718   -24722   -24742 
  -24759   -24768   -24787   -24808   -24810   -24795   -24792   -24810 
  -24821   -24819   -24822   -24835   -24849   -24867   -24895   -24933 
  -24976   -25024   -25080   -25134   -25176   -25220   -25278   -25332 
  -25374   -25413   -25462   -25523   -25579   -25618   -25632   -25621 
  -25610   -25601   -25579   -25546   -25517   -25501   -25486   -25461 
  -25435   -25421   -25415   -25408   -25407   -25413   -25421   -25429 
  -25447   -25477   -25513   -25551   -25594   -25632   -25651   -25664 
  -25706   -25779   -25852   -25894   -25911   -25926   -25937   -25933 
  -25920   -25895   -25859   -25812   -25762   -25708   -25648   -25581 
  -25508   -25428   -25338   -25245   -25151   -25054   -24948   -24840 
  -24740   -24655   -24578   -24507   -24440   -24368   -24305   -24255 
  -24213   -24173   -24138   -24093   -24038   -23997   -23977   -23957 
  -23930   -23901   -23884   -23886   -23903   -23928   -23965   -24013 
  -24086   -24179   -24277   -24372   -24470   -24567   -24657   -24730 
  -24799   -24873   -24952   -25031   -25114   -25201   -25292   -25369 
  -25415   -25444   -25475   -25504   -25532   -25567   -25597   -25605 
  -25600   -25591   -25589   -25598   -25609   -25608   -25597   -25601 
  -25636   -25691   -25748   -25807   -25870   -25932   -25979   -26009 
  -26034   -26067   -26092   -26099   -26094   -26077   -26041   -25987 
  -25922   -25847   -25778   -25722   -25677   -25629   -25570   -25509 
  -25450   -25388   -25331   -25289   -25265   -25249   -25226   -25204 
  -25188   -25162   -25119   -25072   -25035   -25015   -25010   -25003 
  -24987   -24960   -24942   -24935   -24925   -24903   -24888   -24887 
  -24894   -24906   -24915   -24923   -24931   -24941   -24946   -24935 
