Origin Time       2025/01/13 21:19:00
Lat.              31.8
Long.             131.6
Depth. (km)       30
Mag.              6.9
Station Code      FKIH01
Station Lat.      36.0955
Station Long.     136.3617
Station Height(m) 65
Record Time       2025/01/13 21:22:48
Sampling Freq(Hz) 100Hz
Duration Time(s)  120
Dir.              4
Scale Factor      7845(gal)/8223790
Max. Acc. (gal)   0.153
Last Correction   2025/01/13 21:22:49
Memo.             
[...]
   -6602    -6604    -6604    -6602    -6605    -6605    -6605    -6606 
   -6606    -6602    -6600    -6598    -6596    -6594    -6590    -6589 
   -6589    -6586    -6582    -6579    -6581    -6582    -6581    -6582 
   -6586    -6588    -6590    -6596    -6597    -6598    -6601    -6602 
   -6604    -6604    -6604    -6601    -6598    -6596    -6593    -6588 
   -6583    -6583    -6582    -6581    -6582    -6582    -6582    -6586 
   -6588    -6588    -6592    -6598    -6604    -6608    -6612    -6612 
   -6610    -6612    -6613    -6615    -6616    -6615    -6617    -6617 
   -6615    -6613    -6613    -6613    -6612    -6610    -6612    -6610 
   -6608    -6606    -6604    -6601    -6600    -6598    -6597    -6600 
   -6601    -6600    -6600    -6597    -6594    -6593    -6596    -6598 
   -6601    -6602    -6602    -6598    -6593    -6590    -6590    -6590 
   -6588    -6582    -6582    -6583    -6582    -6578    -6575    -6577 
   -6579    -6583    -6586    -6589    -6586    -6585    -6583    -6582 
   -6581    -6579    -6578    -6579    -6581    -6578    -6578    -6578 
   -6578    -6579    -6581    -6579    -6578    -6578    -6578    -6577 
   -6577    -6578    -6578    -6578    -6579    -6582    -6582    -6581 
   -6578    -6577    -6577    -6575    -6577    -6578    -6578    -6577 
   -6578    -6577    -6573    -6577    -6581    -6578    -6578    -6582 
   -6585    -6585    -6585    -6588    -6588    -6586    -6588    -6588 
   -6583    -6579    -6579    -6577    -6574    -6570    -6571    -6574 
   -6574    -6574    -6577    -6581    -6585    -6588    -6592    -6594 
   -6597    -6600    -6601    -6601    -6602    -6601    -6601    -6601 
   -6600    -6600    -6601    -6602    -6604    -6605    -6605    -6602 
   -6604    -6602    -6601    -6602    -6602    -6601    -6600    -6600 
   -6601    -6601    -6604    -6606    -6608    -6610    -6612    -6610 
   -6610    -6612    -6616    -6617    -6616    -6617    -6616    -6610 
   -6609    -6610    -6609    -6608    -6604    -6598    -6596    -6596 
   -6594    -6594    -6596    -6596    -6594    -6601    -6605    -6602 
   -6600    -6602    -6602    -6601    -6601    -6600    -6598    -6598 
   -6598    -6598    -6598    -6597    -6598    -6601    -6601    -6598 
   -6593    -6590    -6592    -6592    -6590    -6592    -6593    -6593 
   -6590    -6589    -6589    -6589    -6592    -6594    -6596    -6594 
   -6593    -6590    -6590    -6592    -6592    -6592    -6596    -6596 
   -6593    -6593    -6596    -6596    -6593    -6592    -6590    -6592 
   -6592    -6590    -6592    -6592    -6589    -6588    -6589    -6588 
   -6585    -6585    -6586    -6585    -6585    -6585    -6586    -6585 
   -6583    -6586    -6586    -6583    -6585    -6582    -6581    -6582 
   -6578    -6573    -6571    -6569    -6567    -6570    -6571    -6573 
   -6574    -6575    -6577    -6578    -6577    -6579    -6581    -6579 
   -6581    -6578    -6575    -6578    -6579    -6579    -6582    -6583 
   -6585    -6586    -6588    -6588    -6588    -6593    -6601    -6602 
   -6604    -6606    -6605    -6602    -6600    -6598    -6601    -6602 
   -6601    -6600    -6598    -6596    -6596    -6596    -6596    -6602 
   -6606    -6608    -6609    -6610    -6612    -6612    -6613    -6616 
   -6617    -6613    -6612    -6616    -6615    -6613    -6617    -6616 
   -6613    -6615    -6613    -6610    -6613    -6615    -6610    -6608 
   -6606    -6604    -6600    -6600    -6598    -6596    -6596    -6597 
   -6596    -6592    -6590    -6593    -6593    -6594    -6598    -6598 
   -6594    -6593    -6592    -6588    -6588    -6588    -6588    -6586 
   -6586    -6583    -6583    -6585    -6585    -6586    -6586    -6585 
   -6582    -6583    -6582    -6581    -6578    -6578    -6581    -6581 
   -6579    -6578    -6581    -6583    -6581    -6579    -6579    -6579 
   -6579    -6579    -6578    -6578    -6577    -6574    -6575    -6577 
   -6578    -6581    -6581    -6581    -6585    -6588    -6588    -6592 
   -6596    -6594    -6596    -6600    -6602    -6602    -6605    -6608 
   -6606    -6608    -6610    -6612    -6615    -6617    -6616    -6617 
   -6621    -6624    -6625    -6625    -6629    -6632    -6629    -6628 
   -6631    -6631    -6627    -6629    -6632    -6629    -6628    -6632 
   -6632    -6632    -6633    -6637    -6642    -6642    -6642    -6644 
   -6644    -6642    -6639    -6643    -6643    -6636    -6629    -6627 
   -6621    -6616    -6612    -6608    -6604    -6600    -6598    -6598 
   -6597    -6593    -6592    -6590    -6592    -6592    -6586    -6585 
   -6585    -6581    -6577    -6577    -6577    -6571    -6566    -6562 
   -6555    -6550    -6548    -6544    -6540    -6539    -6538    -6534 
   -6529    -6527    -6525    -6529    -6532    -6532    -6534    -6534 
   -6531    -6534    -6535    -6535    -6538    -6538    -6536    -6538 
   -6539    -6535    -6534    -6535    -6536    -6535    -6538    -6538 
   -6538    -6539    -6539    -6543    -6546    -6546    -6548    -6554 
   -6556    -6558    -6558    -6558    -6559    -6561    -6561    -6562 
   -6563    -6562    -6563    -6565    -6565    -6566    -6566    -6566 
   -6565    -6563    -6565    -6566    -6567    -6573    -6575    -6574 
   -6575    -6579    -6583    -6586    -6585    -6585    -6589    -6588 
   -6586    -6585    -6585    -6588    -6589    -6586    -6585    -6583 
   -6583    -6588    -6590    -6590    -6590    -6592    -6592    -6593 
   -6594    -6596    -6598    -6600    -6600    -6600    -6598    -6597 
   -6598    -6594    -6592    -6589    -6585    -6585    -6586    -6585 
   -6586    -6592    -6590    -6589    -6589    -6589    -6588    -6585 
   -6583    -6583    -6581    -6581    -6582    -6582    -6582    -6582 
   -6579    -6577    -6575    -6575    -6575    -6577    -6578    -6578 
   -6574    -6571    -6573    -6573    -6571    -6573    -6575    -6575 
   -6575    -6574    -6571    -6573    -6577    -6577    -6577    -6579 
   -6581    -6579    -6579    -6583    -6586    -6588    -6593    -6597 
   -6593    -6589    -6590    -6589    -6586    -6588    -6590    -6593 
   -6592    -6588    -6589    -6589    -6589    -6592    -6597    -6598 
   -6598    -6601    -6606    -6609    -6612    -6616    -6620    -6621 
   -6624    -6627    -6629    -6632    -6632    -6631    -6632    -6635 
   -6633    -6632    -6633    -6636    -6639    -6642    -6643    -6644 
   -6646    -6647    -6651    -6654    -6655    -6655    -6655    -6654 
   -6655    -6655    -6655    -6656    -6652    -6646    -6646    -6647 
   -6647    -6647    -6646    -6640    -6636    -6635    -6631    -6624 
   -6623    -6621    -6620    -6620    -6616    -6610    -6608    -6608 
   -6609    -6610    -6609    -6608    -6609    -6609    -6604    -6600 
   -6600    -6597    -6597    -6597    -6596    -6592    -6590    -6589 
   -6585    -6582    -6582    -6582    -6581    -6578    -6579    -6581 
   -6579    -6577    -6579    -6583    -6583    -6583    -6588    -6590 
   -6590    -6586    -6583    -6582    -6581    -6579    -6577    -6570 
   -6569    -6570    -6566    -6561    -6561    -6563    -6565    -6563 
   -6562    -6566    -6569    -6571    -6577    -6582    -6585    -6588 
   -6592    -6597    -6601    -6604    -6608    -6610    -6613    -6619 
   -6627    -6631    -6633    -6639    -6647    -6655    -6659    -6664 
   -6670    -6673    -6677    -6682    -6685    -6687    -6693    -6697 
   -6700    -6701    -6701    -6702    -6702    -6702    -6700    -6701 
   -6705    -6705    -6704    -6702    -6700    -6696    -6697    -6697 
   -6694    -6696    -6694    -6693    -6687    -6682    -6678    -6675 
   -6671    -6669    -6667    -6663    -6659    -6654    -6651    -6647 
   -6640    -6639    -6642    -6643    -6643    -6643    -6640    -6640 
   -6642    -6640    -6636    -6633    -6631    -6628    -6624    -6617 
   -6613    -6609    -6600    -6597    -6600    -6601    -6602    -6602 
   -6597    -6597    -6597    -6597    -6598    -6600    -6600    -6601 
   -6598    -6597    -6597    -6598    -6596    -6593    -6594    -6596 
   -6594    -6597    -6601    -6601    -6604    -6608    -6610    -6613 
   -6617    -6616    -6616    -6620    -6617    -6612    -6609    -6608 
   -6604    -6602    -6604    -6604    -6602    -6602    -6602    -6602 
   -6602    -6605    -6608    -6608    -6606    -6605    -6602    -6600 
   -6598    -6598    -6597    -6596    -6597    -6598    -6600    -6602 
   -6604    -6605    -6606    -6608    -6609    -6612    -6615    -6617 
   -6620    -6623    -6624    -6625    -6627    -6628    -6629    -6632 
   -6635    -6637    -6637    -6636    -6636    -6639    -6640    -6642 
   -6643    -6643    -6643    -6640    -6637    -6639    -6640    -6637 
   -6636    -6633    -6629    -6629    -6631    -6628    -6627    -6624 
   -6621    -6620    -6615    -6613    -6612    -6608    -6602    -6601 
   -6598    -6594    -6589    -6588    -6583    -6581    -6577    -6571 
   -6565    -6562    -6556    -6554    -6551    -6547    -6546    -6547 
   -6547    -6547    -6547    -6547    -6547    -6548    -6550    -6556 
   -6559    -6555    -6555    -6558    -6556    -6558    -6562    -6565 
   -6563    -6563    -6565    -6567    -6567    -6569    -6573    -6577 
   -6578    -6578    -6578    -6578    -6582    -6581    -6581    -6588 
   -6590    -6589    -6592    -6596    -6594    -6594    -6597    -6601 
   -6602    -6604    -6606    -6606    -6606    -6606    -6604    -6600 
   -6600    -6600    -6597    -6593    -6592    -6592    -6592    -6592 
   -6590    -6593    -6596    -6594    -6596    -6602    -6604    -6604 
   -6605    -6608    -6612    -6615    -6616    -6616    -6617    -6619 
   -6617    -6616    -6615    -6615    -6615    -6617    -6617    -6610 
   -6606    -6604    -6600    -6597    -6597    -6596    -6592    -6586 
   -6585    -6582    -6579    -6579    -6581    -6582    -6581    -6578 
   -6578    -6579    -6577    -6573    -6570    -6569    -6566    -6563 
   -6563    -6561    -6556    -6552    -6550    -6548    -6548    -6547 
   -6547    -6550    -6548    -6548    -6550    -6551    -6554    -6556 
   -6559    -6561    -6562    -6561    -6559    -6559    -6562    -6563 
   -6566    -6570    -6571    -6575    -6578    -6581    -6585    -6593 
   -6598    -6602    -6609    -6616    -6620    -6624    -6628    -6632 
   -6637    -6644    -6648    -6651    -6654    -6654    -6658    -6663 
   -6667    -6667    -6673    -6678    -6678    -6681    -6686    -6689 
   -6690    -6693    -6694    -6696    -6697    -6697    -6696    -6696 
   -6694    -6691    -6690    -6687    -6682    -6681    -6679    -6677 
   -6674    -6670    -6664    -6663    -6663    -6662    -6659    -6658 
   -6659    -6658    -6655    -6654    -6651    -6644    -6639    -6636 
   -6631    -6624    -6620    -6616    -6612    -6608    -6600    -6596 
   -6593    -6588    -6582    -6581    -6579    -6574    -6570    -6566 
   -6563    -6565    -6565    -6563    -6563    -6563    -6563    -6563 
   -6563    -6567    -6571    -6575    -6578    -6582    -6586    -6585 
   -6585    -6590    -6593    -6590    -6592    -6596    -6597    -6597 
   -6598    -6598    -6602    -6608    -6610    -6613    -6619    -6623 
   -6625    -6629    -6635    -6637    -6642    -6646    -6650    -6652 
   -6655    -6656    -6663    -6670    -6674    -6675    -6679    -6686 
   -6689    -6693    -6700    -6702    -6704    -6708    -6710    -6712 
   -6713    -6714    -6716    -6718    -6718    -6718    -6720    -6724 
   -6727    -6727    -6727    -6727    -6728    -6729    -6727    -6721 
   -6718    -6714    -6708    -6698    -6690    -6682    -6674    -6669 
   -6663    -6655    -6646    -6637    -6631    -6628    -6621    -6615 
   -6610    -6605    -6598    -6594    -6590    -6585    -6579    -6577 
   -6569    -6561    -6555    -6550    -6540    -6532    -6528    -6525 
   -6523    -6517    -6511    -6509    -6509    -6505    -6504    -6502 
   -6500    -6501    -6504    -6501    -6498    -6501    -6501    -6500 
   -6501    -6505    -6507    -6508    -6508    -6505    -6504    -6508 
   -6511    -6509    -6511    -6513    -6513    -6512    -6515    -6517 
   -6519    -6521    -6527    -6529    -6534    -6538    -6542    -6546 
   -6551    -6555    -6559    -6563    -6569    -6569    -6571    -6579 
   -6582    -6581    -6586    -6592    -6596    -6597    -6598    -6602 
   -6606    -6608    -6608    -6612    -6616    -6617    -6620    -6624 
   -6624    -6621    -6621    -6620    -6621    -6621    -6619    -6615 
   -6615    -6613    -6610    -6610    -6612    -6612    -6610    -6613 
   -6613    -6612    -6613    -6615    -6613    -6615    -6617    -6617 
   -6616    -6616    -6616    -6613    -6613    -6617    -6619    -6620 
   -6621    -6621    -6620    -6620    -6620    -6619    -6619    -6619 
   -6615    -6612    -6609    -6605    -6605    -6605    -6602    -6601 
   -6602    -6598    -6596    -6593    -6594    -6597    -6594    -6590 
   -6589    -6588    -6583    -6582    -6583    -6581    -6579    -6582 
   -6583    -6582    -6581    -6581    -6583    -6585    -6586    -6588 
   -6589    -6592    -6594    -6594    -6594    -6596    -6600    -6602 
   -6602    -6604    -6606    -6610    -6612    -6613    -6617    -6620 
   -6624    -6632    -6637    -6640    -6648    -6658    -6664    -6670 
   -6677    -6683    -6690    -6697    -6702    -6708    -6713    -6717 
   -6718    -6718    -6720    -6723    -6724    -6725    -6727    -6728 
   -6729    -6729    -6728    -6731    -6735    -6737    -6743    -6745 
   -6750    -6754    -6755    -6756    -6759    -6759    -6758    -6756 
   -6752    -6748    -6745    -6744    -6740    -6735    -6729    -6728 
   -6724    -6720    -6716    -6709    -6704    -6698    -6696    -6689 
   -6682    -6678    -6675    -6669    -6663    -6660    -6655    -6648 
   -6646    -6639    -6633    -6629    -6625    -6620    -6616    -6612 
   -6604    -6597    -6590    -6583    -6579    -6574    -6566    -6558 
   -6552    -6550    -6544    -6542    -6539    -6532    -6528    -6527 
   -6524    -6520    -6520    -6521    -6519    -6513    -6509    -6511 
   -6512    -6508    -6504    -6504    -6502    -6501    -6500    -6501 
   -6500    -6497    -6496    -6496    -6494    -6493    -6490    -6489 
   -6489    -6486    -6484    -6481    -6481    -6480    -6480    -6485 
   -6488    -6485    -6485    -6492    -6496    -6500    -6501    -6507 
   -6512    -6519    -6523    -6524    -6527    -6531    -6536    -6542 
   -6544    -6548    -6552    -6554    -6555    -6561    -6567    -6571 
   -6577    -6582    -6586    -6592    -6600    -6605    -6608    -6615 
   -6623    -6627    -6633    -6640    -6643    -6646    -6650    -6654 
   -6655    -6656    -6658    -6658    -6656    -6656    -6658    -6658 
   -6658    -6659    -6655    -6652    -6652    -6651    -6650    -6651 
   -6651    -6652    -6651    -6647    -6644    -6648    -6647    -6646 
   -6647    -6648    -6648    -6650    -6651    -6651    -6650    -6648 
   -6648    -6648    -6648    -6648    -6650    -6647    -6643    -6640 
   -6637    -6640    -6643    -6640    -6636    -6633    -6629    -6623 
   -6619    -6619    -6619    -6619    -6617    -6613    -6609    -6602 
   -6597    -6594    -6593    -6592    -6589    -6585    -6582    -6577 
   -6573    -6571    -6569    -6566    -6562    -6559    -6558    -6551 
   -6544    -6543    -6543    -6542    -6543    -6544    -6544    -6544 
   -6546    -6544    -6544    -6546    -6548    -6551    -6552    -6554 
   -6555    -6555    -6556    -6561    -6562    -6565    -6570    -6570 
   -6569    -6570    -6571    -6571    -6570    -6570    -6571    -6570 
   -6569    -6570    -6570    -6570    -6571    -6569    -6567    -6570 
   -6571    -6571    -6574    -6574    -6575    -6579    -6582    -6579 
   -6578    -6579    -6577    -6575    -6579    -6586    -6588    -6586 
   -6586    -6586    -6588    -6589    -6593    -6600    -6602    -6604 
   -6606    -6609    -6609    -6609    -6606    -6608    -6609    -6609 
   -6610    -6612    -6609    -6609    -6610    -6610    -6610    -6606 
   -6602    -6604    -6604    -6600    -6598    -6594    -6590    -6589 
   -6588    -6585    -6585    -6583    -6582    -6581    -6579    -6578 
   -6579    -6582    -6586    -6590    -6592    -6593    -6594    -6596 
   -6597    -6597    -6600    -6604    -6605    -6608    -6610    -6612 
   -6612    -6610    -6615    -6619    -6619    -6620    -6621    -6621 
   -6620    -6621    -6623    -6621    -6617    -6619    -6620    -6620 
   -6620    -6616    -6613    -6612    -6612    -6610    -6608    -6609 
   -6606    -6602    -6601    -6601    -6600    -6597    -6598    -6598 
   -6598    -6598    -6598    -6597    -6596    -6596    -6597    -6597 
   -6596    -6597    -6598    -6601    -6601    -6598    -6598    -6598 
   -6597    -6597    -6600    -6598    -6598    -6601    -6602    -6600 
   -6601    -6605    -6610    -6612    -6613    -6616    -6616    -6616 
   -6616    -6616    -6619    -6623    -6624    -6627    -6629    -6628 
   -6627    -6628    -6632    -6635    -6637    -6642    -6642    -6642 
   -6644    -6647    -6643    -6642    -6646    -6648    -6650    -6650 
   -6648    -6651    -6654    -6652    -6651    -6651    -6652    -6655 
   -6655    -6652    -6648    -6647    -6646    -6643    -6642    -6643 
   -6644    -6643    -6643    -6642    -6640    -6640    -6642    -6643 
   -6643    -6643    -6642    -6637    -6636    -6633    -6628    -6624 
   -6620    -6616    -6612    -6605    -6601    -6600    -6597    -6598 
   -6600    -6598    -6596    -6596    -6596    -6596    -6594    -6592 
   -6592    -6592    -6590    -6589    -6585    -6583    -6583    -6579 
   -6579    -6582    -6577    -6571    -6571    -6570    -6566    -6562 
   -6562    -6559    -6556    -6556    -6555    -6552    -6552    -6554 
   -6550    -6550    -6552    -6552    -6548    -6547    -6548    -6548 
   -6546    -6543    -6544    -6546    -6543    -6544    -6550    -6548 
   -6546    -6546    -6548    -6551    -6552    -6556    -6561    -6563 
   -6567    -6573    -6573    -6575    -6579    -6583    -6588    -6593 
   -6596    -6600    -6604    -6606    -6612    -6620    -6625    -6629 
   -6635    -6635    -6639    -6643    -6646    -6651    -6658    -6658 
   -6659    -6663    -6663    -6663    -6667    -6671    -6673    -6671 
   -6669    -6666    -6666    -6666    -6662    -6656    -6655    -6651 
   -6646    -6640    -6635    -6629    -6628    -6627    -6623    -6620 
   -6619    -6615    -6609    -6610    -6609    -6604    -6597    -6593 
   -6592    -6586    -6578    -6574    -6570    -6566    -6563    -6563 
   -6558    -6552    -6551    -6550    -6548    -6546    -6546    -6544 
   -6543    -6543    -6542    -6539    -6539    -6539    -6534    -6528 
   -6527    -6523    -6517    -6515    -6512    -6507    -6504    -6500 
   -6497    -6496    -6494    -6490    -6486    -6485    -6485    -6486 
   -6485    -6484    -6482    -6481    -6481    -6482    -6486    -6488 
   -6492    -6493    -6494    -6497    -6500    -6502    -6504    -6508 
   -6513    -6516    -6519    -6523    -6524    -6528    -6535    -6538 
   -6543    -6551    -6555    -6558    -6563    -6571    -6578    -6582 
   -6589    -6597    -6604    -6606    -6608    -6612    -6619    -6623 
   -6623    -6624    -6629    -6635    -6636    -6639    -6643    -6644 
   -6648    -6655    -6660    -6663    -6669    -6673    -6675    -6681 
