Origin Time       2025/01/13 21:19:00
Lat.              31.8
Long.             131.6
Depth. (km)       30
Mag.              6.9
Station Code      FKIH07
Station Lat.      35.4573
Station Long.     135.7266
Station Height(m) 43
Record Time       2025/01/13 21:22:18
Sampling Freq(Hz) 100Hz
Duration Time(s)  120
Dir.              6
Scale Factor      3920(gal)/6170801
Max. Acc. (gal)   0.118
Last Correction   2025/01/13 21:22:03
Memo.             
[...]
  -30138   -30140   -30142   -30145   -30147   -30147   -30149   -30151 
  -30152   -30153   -30156   -30159   -30160   -30157   -30156   -30154 
  -30150   -30147   -30146   -30145   -30146   -30154   -30163   -30168 
  -30174   -30180   -30183   -30180   -30169   -30158   -30150   -30147 
  -30149   -30155   -30164   -30172   -30178   -30189   -30199   -30202 
  -30201   -30200   -30195   -30188   -30183   -30182   -30182   -30182 
  -30181   -30178   -30176   -30178   -30180   -30179   -30177   -30177 
  -30174   -30168   -30163   -30157   -30150   -30145   -30147   -30152 
  -30156   -30160   -30167   -30170   -30170   -30168   -30161   -30153 
  -30147   -30141   -30136   -30134   -30131   -30126   -30117   -30110 
  -30108   -30110   -30115   -30123   -30131   -30138   -30143   -30146 
  -30143   -30138   -30135   -30133   -30131   -30134   -30139   -30145 
  -30151   -30153   -30151   -30148   -30147   -30146   -30146   -30148 
  -30152   -30154   -30155   -30158   -30165   -30172   -30181   -30189 
  -30194   -30196   -30199   -30202   -30201   -30195   -30187   -30182 
  -30178   -30176   -30177   -30181   -30187   -30192   -30198   -30207 
  -30216   -30223   -30225   -30226   -30222   -30217   -30215   -30215 
  -30215   -30217   -30219   -30215   -30207   -30197   -30190   -30186 
  -30183   -30185   -30190   -30191   -30187   -30179   -30167   -30156 
  -30149   -30145   -30142   -30143   -30149   -30153   -30154   -30158 
  -30159   -30155   -30151   -30148   -30146   -30147   -30149   -30153 
  -30157   -30158   -30161   -30167   -30168   -30168   -30169   -30166 
  -30157   -30148   -30142   -30136   -30133   -30140   -30153   -30160 
  -30163   -30167   -30169   -30168   -30168   -30168   -30162   -30155 
  -30149   -30144   -30141   -30142   -30142   -30141   -30145   -30151 
  -30153   -30154   -30157   -30159   -30161   -30166   -30169   -30173 
  -30175   -30178   -30182   -30182   -30179   -30181   -30182   -30178 
  -30179   -30180   -30177   -30179   -30185   -30188   -30189   -30191 
  -30194   -30195   -30197   -30197   -30194   -30190   -30186   -30179 
  -30174   -30172   -30171   -30168   -30170   -30176   -30179   -30182 
  -30185   -30187   -30188   -30191   -30192   -30193   -30196   -30196 
  -30192   -30191   -30195   -30194   -30191   -30191   -30188   -30184 
  -30182   -30182   -30182   -30182   -30180   -30179   -30180   -30181 
  -30183   -30188   -30192   -30191   -30187   -30183   -30180   -30175 
  -30172   -30170   -30167   -30166   -30168   -30169   -30170   -30174 
  -30179   -30181   -30181   -30182   -30185   -30184   -30182   -30184 
  -30186   -30184   -30182   -30182   -30181   -30178   -30174   -30174 
  -30173   -30169   -30166   -30165   -30164   -30165   -30167   -30169 
  -30173   -30176   -30179   -30185   -30191   -30193   -30192   -30192 
  -30192   -30191   -30184   -30174   -30167   -30163   -30157   -30157 
  -30164   -30170   -30170   -30168   -30165   -30161   -30158   -30156 
  -30156   -30158   -30159   -30160   -30163   -30164   -30161   -30161 
  -30158   -30155   -30154   -30154   -30156   -30162   -30169   -30174 
  -30175   -30171   -30161   -30151   -30142   -30135   -30133   -30136 
  -30139   -30139   -30139   -30140   -30138   -30133   -30132   -30131 
  -30127   -30125   -30127   -30127   -30126   -30125   -30119   -30112 
  -30109   -30107   -30107   -30112   -30118   -30122   -30122   -30120 
  -30119   -30117   -30115   -30115   -30115   -30116   -30119   -30124 
  -30127   -30130   -30131   -30130   -30127   -30125   -30124   -30123 
  -30123   -30122   -30119   -30121   -30126   -30134   -30143   -30148 
  -30154   -30160   -30160   -30158   -30155   -30150   -30147   -30147 
  -30147   -30150   -30156   -30163   -30169   -30173   -30171   -30164 
  -30160   -30159   -30159   -30158   -30156   -30153   -30152   -30153 
  -30159   -30167   -30171   -30170   -30170   -30174   -30180   -30184 
  -30184   -30180   -30176   -30173   -30171   -30171   -30169   -30165 
  -30162   -30158   -30155   -30153   -30152   -30151   -30153   -30154 
  -30152   -30150   -30149   -30147   -30144   -30142   -30142   -30143 
  -30146   -30150   -30152   -30150   -30149   -30149   -30147   -30147 
  -30146   -30143   -30144   -30151   -30158   -30162   -30169   -30174 
  -30174   -30170   -30167   -30168   -30171   -30172   -30174   -30177 
  -30181   -30185   -30188   -30191   -30191   -30190   -30192   -30195 
  -30196   -30193   -30188   -30182   -30176   -30169   -30165   -30166 
  -30167   -30171   -30175   -30178   -30183   -30189   -30191   -30190 
  -30188   -30186   -30186   -30183   -30180   -30180   -30182   -30185 
  -30189   -30193   -30195   -30195   -30195   -30192   -30188   -30182 
  -30175   -30168   -30160   -30150   -30144   -30143   -30145   -30149 
  -30153   -30154   -30156   -30159   -30161   -30160   -30159   -30157 
  -30152   -30146   -30144   -30148   -30148   -30149   -30151   -30154 
  -30158   -30163   -30168   -30173   -30179   -30184   -30188   -30190 
  -30192   -30197   -30204   -30207   -30206   -30211   -30218   -30220 
  -30222   -30225   -30225   -30224   -30224   -30224   -30223   -30221 
  -30219   -30216   -30215   -30215   -30218   -30218   -30214   -30212 
  -30213   -30215   -30212   -30205   -30198   -30190   -30184   -30180 
  -30178   -30175   -30175   -30175   -30173   -30171   -30171   -30168 
  -30163   -30160   -30156   -30150   -30147   -30148   -30151   -30155 
  -30156   -30155   -30156   -30154   -30153   -30154   -30154   -30154 
  -30157   -30159   -30161   -30164   -30165   -30165   -30165   -30164 
  -30166   -30168   -30169   -30169   -30171   -30172   -30172   -30171 
  -30173   -30174   -30176   -30181   -30185   -30186   -30185   -30182 
  -30177   -30177   -30181   -30183   -30185   -30190   -30194   -30196 
  -30195   -30195   -30194   -30190   -30187   -30185   -30184   -30185 
  -30188   -30191   -30194   -30197   -30202   -30205   -30206   -30211 
  -30220   -30226   -30228   -30229   -30227   -30223   -30221   -30221 
  -30222   -30224   -30227   -30229   -30231   -30235   -30239   -30241 
  -30239   -30237   -30235   -30232   -30230   -30228   -30223   -30220 
  -30223   -30224   -30227   -30228   -30224   -30220   -30216   -30212 
  -30210   -30208   -30207   -30205   -30203   -30203   -30204   -30203 
  -30200   -30195   -30189   -30184   -30177   -30171   -30169   -30168 
  -30168   -30168   -30168   -30170   -30170   -30167   -30164   -30163 
  -30165   -30167   -30167   -30168   -30171   -30173   -30176   -30179 
  -30178   -30178   -30178   -30175   -30170   -30165   -30161   -30162 
  -30166   -30169   -30173   -30175   -30175   -30173   -30169   -30162 
  -30155   -30151   -30148   -30145   -30146   -30148   -30148   -30149 
  -30150   -30148   -30145   -30145   -30147   -30152   -30157   -30159 
  -30160   -30160   -30158   -30156   -30155   -30160   -30169   -30173 
  -30174   -30176   -30175   -30168   -30163   -30162   -30161   -30161 
  -30164   -30170   -30172   -30173   -30176   -30179   -30183   -30183 
  -30179   -30176   -30176   -30177   -30181   -30188   -30194   -30197 
  -30201   -30204   -30201   -30200   -30203   -30201   -30199   -30198 
  -30196   -30191   -30188   -30186   -30183   -30182   -30182   -30181 
  -30183   -30186   -30188   -30188   -30186   -30183   -30177   -30169 
  -30162   -30157   -30149   -30144   -30142   -30143   -30145   -30145 
  -30144   -30142   -30139   -30136   -30135   -30136   -30137   -30140 
  -30143   -30144   -30147   -30154   -30159   -30159   -30160   -30160 
  -30160   -30162   -30166   -30168   -30169   -30171   -30174   -30176 
  -30179   -30181   -30183   -30187   -30188   -30187   -30187   -30185 
  -30185   -30185   -30184   -30185   -30186   -30185   -30183   -30182 
  -30182   -30180   -30179   -30181   -30180   -30179   -30181   -30182 
  -30183   -30183   -30182   -30182   -30180   -30180   -30184   -30187 
  -30192   -30198   -30203   -30208   -30210   -30210   -30209   -30205 
  -30199   -30194   -30191   -30189   -30187   -30183   -30181   -30179 
  -30175   -30169   -30163   -30157   -30151   -30147   -30142   -30135 
  -30129   -30121   -30112   -30105   -30096   -30089   -30088   -30087 
  -30083   -30080   -30080   -30076   -30070   -30069   -30068   -30063 
  -30060   -30060   -30061   -30061   -30063   -30066   -30065   -30066 
  -30068   -30071   -30077   -30086   -30093   -30097   -30097   -30099 
  -30102   -30105   -30107   -30109   -30112   -30116   -30121   -30129 
  -30135   -30134   -30129   -30131   -30138   -30136   -30132   -30143 
  -30151   -30147   -30154   -30165   -30164   -30161   -30159   -30154 
  -30151   -30156   -30159   -30157   -30157   -30158   -30157   -30157 
  -30161   -30163   -30161   -30159   -30157   -30150   -30142   -30141 
  -30138   -30133   -30132   -30130   -30128   -30128   -30126   -30124 
  -30126   -30126   -30122   -30123   -30125   -30125   -30124   -30126 
  -30129   -30131   -30130   -30130   -30129   -30130   -30129   -30125 
  -30126   -30128   -30127   -30128   -30134   -30137   -30137   -30138 
  -30140   -30139   -30136   -30136   -30136   -30134   -30135   -30138 
  -30137   -30136   -30140   -30142   -30140   -30140   -30144   -30148 
  -30148   -30150   -30154   -30158   -30157   -30154   -30151   -30151 
  -30149   -30146   -30144   -30145   -30150   -30154   -30159   -30161 
  -30157   -30156   -30156   -30153   -30154   -30159   -30162   -30165 
  -30169   -30173   -30176   -30178   -30181   -30186   -30189   -30190 
  -30191   -30192   -30195   -30197   -30195   -30195   -30197   -30198 
  -30196   -30197   -30199   -30198   -30201   -30205   -30204   -30205 
  -30204   -30197   -30194   -30193   -30187   -30182   -30183   -30183 
  -30183   -30185   -30183   -30177   -30175   -30172   -30165   -30160 
  -30159   -30159   -30159   -30160   -30164   -30165   -30166   -30169 
  -30168   -30165   -30165   -30161   -30156   -30153   -30152   -30152 
  -30152   -30156   -30161   -30166   -30172   -30175   -30178   -30182 
  -30185   -30186   -30186   -30188   -30191   -30193   -30196   -30201 
  -30207   -30212   -30216   -30223   -30230   -30231   -30230   -30231 
  -30229   -30224   -30220   -30218   -30214   -30208   -30203   -30198 
  -30194   -30193   -30193   -30190   -30188   -30186   -30182   -30178 
  -30174   -30170   -30167   -30164   -30160   -30158   -30157   -30154 
  -30153   -30156   -30158   -30158   -30158   -30156   -30153   -30148 
  -30144   -30146   -30147   -30144   -30144   -30144   -30141   -30139 
  -30137   -30132   -30128   -30123   -30115   -30108   -30102   -30097 
  -30094   -30090   -30086   -30085   -30084   -30085   -30085   -30083 
  -30081   -30078   -30074   -30074   -30076   -30077   -30080   -30083 
  -30085   -30088   -30095   -30101   -30106   -30115   -30121   -30123 
  -30125   -30128   -30130   -30134   -30140   -30146   -30149   -30151 
  -30154   -30160   -30169   -30176   -30178   -30177   -30175   -30173 
  -30171   -30168   -30169   -30170   -30170   -30169   -30169   -30170 
  -30172   -30177   -30181   -30179   -30180   -30184   -30186   -30189 
  -30193   -30196   -30202   -30210   -30215   -30220   -30226   -30230 
  -30229   -30230   -30234   -30237   -30242   -30251   -30258   -30264 
  -30272   -30277   -30278   -30281   -30288   -30293   -30300   -30308 
  -30311   -30311   -30313   -30316   -30318   -30318   -30316   -30313 
  -30312   -30311   -30308   -30304   -30300   -30299   -30297   -30292 
  -30289   -30286   -30281   -30273   -30266   -30262   -30258   -30253 
  -30251   -30249   -30244   -30240   -30235   -30226   -30218   -30214 
  -30211   -30204   -30198   -30194   -30192   -30192   -30193   -30192 
  -30193   -30195   -30195   -30194   -30192   -30191   -30187   -30180 
  -30175   -30171   -30164   -30160   -30158   -30154   -30146   -30137 
  -30132   -30128   -30122   -30115   -30108   -30102   -30097   -30091 
  -30089   -30090   -30087   -30081   -30082   -30083   -30082   -30082 
  -30081   -30083   -30085   -30084   -30083   -30082   -30079   -30076 
  -30074   -30073   -30073   -30076   -30080   -30085   -30087   -30086 
  -30087   -30087   -30087   -30089   -30093   -30097   -30103   -30111 
  -30118   -30122   -30124   -30123   -30124   -30124   -30123   -30124 
  -30128   -30132   -30133   -30133   -30133   -30133   -30134   -30134 
  -30134   -30138   -30143   -30146   -30147   -30147   -30147   -30144 
  -30138   -30134   -30131   -30132   -30134   -30136   -30137   -30135 
  -30134   -30133   -30133   -30133   -30133   -30133   -30135   -30136 
  -30134   -30135   -30139   -30143   -30146   -30149   -30155   -30158 
  -30158   -30163   -30168   -30172   -30177   -30183   -30188   -30195 
  -30204   -30212   -30222   -30234   -30246   -30255   -30265   -30274 
  -30281   -30287   -30297   -30305   -30308   -30310   -30311   -30313 
  -30317   -30321   -30327   -30334   -30335   -30332   -30333   -30335 
  -30332   -30329   -30330   -30330   -30326   -30320   -30317   -30316 
  -30312   -30306   -30302   -30299   -30297   -30296   -30291   -30283 
  -30274   -30264   -30256   -30250   -30244   -30235   -30225   -30217 
  -30208   -30200   -30194   -30186   -30177   -30167   -30156   -30143 
  -30131   -30122   -30112   -30103   -30096   -30088   -30082   -30078 
  -30073   -30067   -30063   -30058   -30057   -30058   -30057   -30054 
  -30051   -30049   -30043   -30032   -30025   -30020   -30011   -30003 
  -29998   -29992   -29987   -29986   -29985   -29986   -29988   -29987 
  -29985   -29984   -29982   -29981   -29981   -29983   -29989   -29995 
  -30000   -30007   -30012   -30015   -30019   -30025   -30029   -30034 
  -30039   -30046   -30053   -30061   -30069   -30076   -30085   -30090 
  -30093   -30099   -30105   -30109   -30114   -30120   -30124   -30128 
  -30135   -30141   -30143   -30145   -30148   -30150   -30153   -30154 
  -30157   -30161   -30163   -30163   -30163   -30166   -30169   -30169 
  -30173   -30182   -30188   -30195   -30202   -30205   -30206   -30207 
  -30205   -30201   -30199   -30198   -30196   -30195   -30197   -30197 
  -30196   -30198   -30202   -30207   -30210   -30215   -30222   -30226 
  -30231   -30238   -30242   -30242   -30242   -30243   -30244   -30249 
  -30253   -30255   -30258   -30261   -30264   -30269   -30272   -30274 
  -30277   -30279   -30282   -30284   -30286   -30287   -30289   -30290 
  -30290   -30290   -30289   -30286   -30283   -30279   -30274   -30269 
  -30262   -30256   -30254   -30250   -30244   -30240   -30239   -30235 
  -30233   -30231   -30229   -30225   -30222   -30218   -30216   -30215 
  -30215   -30215   -30214   -30214   -30215   -30218   -30223   -30229 
  -30232   -30238   -30242   -30243   -30243   -30248   -30252   -30255 
  -30260   -30265   -30266   -30267   -30273   -30278   -30282   -30287 
  -30290   -30292   -30296   -30300   -30302   -30309   -30317   -30319 
  -30321   -30324   -30324   -30325   -30327   -30328   -30328   -30325 
  -30320   -30317   -30315   -30310   -30306   -30302   -30295   -30288 
  -30280   -30274   -30266   -30257   -30246   -30233   -30219   -30205 
  -30193   -30180   -30169   -30162   -30155   -30147   -30140   -30131 
  -30121   -30109   -30099   -30089   -30078   -30065   -30053   -30043 
  -30038   -30035   -30034   -30034   -30035   -30037   -30040   -30040 
  -30041   -30043   -30044   -30045   -30045   -30044   -30043   -30043 
  -30047   -30052   -30053   -30055   -30060   -30063   -30066   -30073 
  -30076   -30076   -30079   -30082   -30081   -30082   -30088   -30091 
  -30092   -30096   -30102   -30106   -30109   -30114   -30118   -30115 
  -30115   -30117   -30120   -30125   -30131   -30136   -30139   -30141 
  -30146   -30153   -30158   -30159   -30160   -30162   -30164   -30167 
  -30168   -30169   -30171   -30172   -30175   -30179   -30183   -30186 
  -30185   -30184   -30183   -30183   -30184   -30187   -30188   -30187 
  -30186   -30182   -30179   -30179   -30180   -30177   -30174   -30172 
  -30170   -30167   -30166   -30167   -30166   -30163   -30162   -30159 
  -30153   -30150   -30149   -30147   -30144   -30144   -30141   -30136 
  -30132   -30131   -30133   -30135   -30139   -30144   -30148   -30152 
  -30156   -30155   -30155   -30157   -30158   -30158   -30156   -30155 
  -30157   -30156   -30153   -30153   -30151   -30148   -30146   -30145 
  -30142   -30138   -30135   -30134   -30135   -30138   -30140   -30142 
  -30145   -30147   -30148   -30149   -30151   -30158   -30164   -30168 
  -30177   -30188   -30195   -30203   -30213   -30222   -30230   -30239 
  -30248   -30252   -30255   -30261   -30264   -30268   -30274   -30275 
  -30276   -30279   -30278   -30277   -30278   -30276   -30272   -30264 
  -30257   -30251   -30244   -30236   -30227   -30215   -30203   -30195 
  -30189   -30180   -30171   -30165   -30157   -30150   -30144   -30135 
  -30126   -30120   -30111   -30101   -30096   -30089   -30078   -30072 
  -30070   -30068   -30066   -30064   -30063   -30062   -30061   -30060 
  -30062   -30066   -30067   -30069   -30071   -30070   -30068   -30070 
  -30072   -30070   -30067   -30062   -30058   -30058   -30057   -30056 
  -30058   -30059   -30057   -30056   -30056   -30056   -30057   -30056 
  -30054   -30056   -30056   -30059   -30065   -30070   -30075   -30082 
  -30089   -30093   -30099   -30107   -30115   -30122   -30131   -30136 
  -30142   -30150   -30159   -30164   -30169   -30175   -30182   -30185 
  -30188   -30192   -30196   -30200   -30203   -30204   -30206   -30208 
  -30209   -30213   -30216   -30215   -30215   -30216   -30217   -30218 
  -30219   -30219   -30218   -30219   -30223   -30229   -30232   -30235 
  -30239   -30238   -30234   -30233   -30232   -30232   -30231   -30228 
  -30227   -30225   -30220   -30218   -30215   -30210   -30205   -30201 
  -30198   -30197   -30194   -30190   -30190   -30191   -30188   -30185 
  -30184   -30184   -30183   -30179   -30175   -30174   -30170   -30163 
  -30160   -30158   -30155   -30154   -30152   -30146   -30143   -30141 
  -30136   -30130   -30129   -30128   -30123   -30117   -30113   -30108 
  -30103   -30102   -30099   -30095   -30093   -30091   -30086   -30081 
  -30078   -30075   -30070   -30067   -30064   -30057   -30052   -30048 
  -30046   -30045   -30042   -30041   -30041   -30044   -30047   -30048 
  -30052   -30056   -30060   -30063   -30065   -30067   -30070   -30075 
  -30080   -30085   -30092   -30097   -30100   -30104   -30108   -30114 
  -30119   -30122   -30127   -30135   -30144   -30149   -30153   -30156 
  -30160   -30163   -30165   -30169   -30172   -30173   -30175   -30178 
  -30181   -30185   -30190   -30195   -30200   -30201   -30203   -30209 
  -30215   -30218   -30219   -30218   -30213   -30207   -30205   -30202 
  -30197   -30195   -30193   -30189   -30184   -30183   -30180   -30176 
  -30173   -30168   -30164   -30162   -30158   -30153   -30150   -30146 
  -30141   -30138   -30137   -30136   -30135   -30135   -30135   -30139 
  -30144   -30146   -30149   -30155   -30158   -30158   -30160   -30163 
  -30165   -30165   -30165   -30169   -30173   -30175   -30179   -30182 
  -30183   -30184   -30186   -30187   -30188   -30190   -30195   -30199 
  -30201   -30203   -30205   -30206   -30208   -30211   -30212   -30215 
  -30221   -30227   -30233   -30240   -30245   -30248   -30250   -30250 
  -30254   -30256   -30254   -30257   -30265   -30270   -30277   -30283 
