Origin Time       2025/01/13 21:19:00
Lat.              31.8
Long.             131.6
Depth. (km)       30
Mag.              6.9
Station Code      FKIH04
Station Lat.      35.5587
Station Long.     135.8694
Station Height(m) 3
Record Time       2025/01/13 21:22:31
Sampling Freq(Hz) 100Hz
Duration Time(s)  120
Dir.              5
Scale Factor      3920(gal)/6170801
Max. Acc. (gal)   0.421
Last Correction   2025/01/13 21:22:16
Memo.             
   -9468    -9467    -9466    -9467    -9465    -9461    -9453    -9440 
   -9427    -9414    -9397    -9383    -9376    -9370    -9366    -9366 
   -9369    -9371    -9370    -9372    -9371    -9365    -9357    -9351 
   -9342    -9330    -9319    -9309    -9301    -9296    -9295    -9295 
   -9292    -9290    -9292    -9293    -9294    -9295    -9296    -9299 
   -9300    -9299    -9299    -9298    -9296    -9298    -9300    -9302 
   -9308    -9316    -9325    -9336    -9347    -9361    -9376    -9391 
   -9404    -9421    -9439    -9455    -9470    -9484    -9493    -9502 
   -9508    -9508    -9503    -9496    -9486    -9475    -9461    -9444 
   -9425    -9410    -9396    -9383    -9372    -9366    -9363    -9361 
   -9361    -9362    -9364    -9363    -9360    -9356    -9349    -9346 
   -9344    -9340    -9340    -9351    -9364    -9380    -9402    -9426 
   -9447    -9466    -9484    -9498    -9510    -9520    -9525    -9527 
   -9530    -9532    -9535    -9537    -9538    -9543    -9548    -9549 
   -9549    -9550    -9545    -9537    -9531    -9521    -9504    -9487 
   -9470    -9449    -9425    -9402    -9380    -9357    -9333    -9307 
   -9281    -9253    -9227    -9201    -9173    -9144    -9121    -9101 
   -9081    -9067    -9055    -9043    -9040    -9043    -9046    -9054 
   -9070    -9089    -9113    -9140    -9170    -9206    -9245    -9285 
   -9327    -9368    -9411    -9457    -9501    -9539    -9573    -9604 
   -9632    -9654    -9674    -9695    -9715    -9728    -9739    -9750 
   -9758    -9758    -9751    -9740    -9723    -9702    -9680    -9660 
   -9640    -9620    -9601    -9581    -9559    -9536    -9511    -9483 
   -9452    -9420    -9389    -9356    -9324    -9293    -9261    -9231 
   -9205    -9178    -9154    -9134    -9116    -9102    -9093    -9087 
   -9085    -9087    -9089    -9091    -9095    -9100    -9103    -9107 
   -9115    -9126    -9136    -9143    -9152    -9163    -9173    -9184 
   -9199    -9213    -9221    -9228    -9239    -9249    -9257    -9266 
   -9276    -9286    -9297    -9309    -9321    -9336    -9352    -9366 
   -9382    -9400    -9419    -9439    -9458    -9475    -9494    -9511 
   -9522    -9534    -9543    -9551    -9558    -9563    -9569    -9578 
   -9586    -9593    -9599    -9607    -9615    -9620    -9625    -9632 
   -9637    -9639    -9639    -9637    -9632    -9623    -9612    -9602 
   -9587    -9572    -9562    -9553    -9546    -9539    -9532    -9526 
   -9521    -9518    -9515    -9510    -9505    -9496    -9486    -9475 
   -9461    -9444    -9426    -9409    -9394    -9376    -9361    -9347 
   -9332    -9321    -9312    -9303    -9296    -9292    -9288    -9285 
   -9284    -9285    -9285    -9285    -9285    -9284    -9283    -9281 
   -9277    -9274    -9273    -9272    -9269    -9269    -9271    -9274 
   -9276    -9276    -9276    -9280    -9285    -9291    -9296    -9299 
   -9309    -9325    -9340    -9355    -9372    -9390    -9408    -9425 
   -9440    -9455    -9468    -9480    -9491    -9499    -9506    -9512 
   -9517    -9523    -9530    -9537    -9544    -9550    -9558    -9563 
   -9564    -9567    -9567    -9562    -9556    -9549    -9539    -9528 
   -9515    -9505    -9496    -9484    -9473    -9464    -9454    -9443 
   -9434    -9427    -9418    -9409    -9400    -9389    -9379    -9372 
   -9365    -9357    -9348    -9340    -9335    -9330    -9326    -9322 
   -9318    -9317    -9318    -9317    -9319    -9326    -9334    -9342 
   -9354    -9369    -9386    -9405    -9424    -9445    -9468    -9490 
   -9509    -9525    -9540    -9557    -9573    -9586    -9599    -9613 
   -9624    -9629    -9632    -9635    -9634    -9628    -9622    -9615 
   -9607    -9598    -9591    -9585    -9575    -9569    -9566    -9558 
   -9548    -9542    -9532    -9518    -9504    -9489    -9469    -9449 
   -9429    -9404    -9378    -9354    -9331    -9308    -9286    -9266 
   -9244    -9225    -9206    -9186    -9167    -9148    -9128    -9113 
   -9100    -9089    -9080    -9074    -9072    -9069    -9070    -9072 
   -9072    -9075    -9082    -9087    -9092    -9098    -9102    -9110 
   -9119    -9128    -9142    -9160    -9178    -9198    -9222    -9245 
   -9270    -9298    -9327    -9354    -9380    -9403    -9423    -9445 
   -9466    -9483    -9499    -9517    -9537    -9556    -9574    -9595 
   -9615    -9636    -9661    -9681    -9699    -9720    -9734    -9745 
   -9756    -9761    -9762    -9762    -9757    -9746    -9731    -9713 
   -9695    -9674    -9650    -9628    -9607    -9584    -9562    -9538 
   -9512    -9482    -9451    -9422    -9390    -9355    -9322    -9293 
   -9265    -9241    -9221    -9207    -9199    -9197    -9199    -9204 
   -9209    -9219    -9232    -9246    -9261    -9278    -9299    -9322 
   -9342    -9365    -9390    -9417    -9447    -9478    -9509    -9539 
   -9567    -9594    -9619    -9640    -9655    -9668    -9681    -9692 
   -9700    -9701    -9701    -9703    -9699    -9692    -9684    -9676 
   -9665    -9655    -9647    -9634    -9620    -9609    -9592    -9574 
   -9557    -9536    -9511    -9486    -9462    -9438    -9413    -9390 
   -9370    -9350    -9331    -9314    -9299    -9286    -9275    -9268 
   -9264    -9260    -9259    -9264    -9272    -9284    -9298    -9315 
   -9336    -9359    -9381    -9405    -9429    -9450    -9469    -9485 
   -9502    -9516    -9524    -9535    -9545    -9548    -9553    -9558 
   -9557    -9553    -9549    -9543    -9535    -9526    -9515    -9502 
   -9490    -9475    -9454    -9432    -9407    -9378    -9348    -9315 
   -9281    -9244    -9208    -9178    -9150    -9125    -9109    -9098 
   -9091    -9089    -9091    -9097    -9107    -9120    -9133    -9144 
   -9156    -9172    -9189    -9207    -9226    -9248    -9269    -9289 
   -9312    -9335    -9358    -9386    -9415    -9445    -9480    -9516 
   -9552    -9586    -9618    -9648    -9674    -9691    -9702    -9710 
   -9712    -9707    -9698    -9686    -9669    -9650    -9630    -9606 
   -9580    -9553    -9524    -9492    -9455    -9414    -9372    -9330 
   -9285    -9240    -9198    -9160    -9127    -9097    -9069    -9047 
   -9027    -9006    -8988    -8974    -8963    -8954    -8948    -8947 
   -8950    -8957    -8971    -8990    -9010    -9035    -9064    -9094 
   -9125    -9161    -9199    -9236    -9275    -9319    -9366    -9410 
   -9456    -9503    -9543    -9584    -9621    -9654    -9684    -9713 
   -9737    -9756    -9771    -9786    -9797    -9800    -9799    -9797 
   -9790    -9775    -9758    -9739    -9716    -9686    -9654    -9619 
   -9581    -9540    -9499    -9458    -9415    -9374    -9333    -9289 
   -9244    -9200    -9159    -9117    -9078    -9041    -9003    -8972 
   -8945    -8920    -8901    -8887    -8877    -8872    -8873    -8879 
   -8887    -8898    -8916    -8936    -8958    -8983    -9010    -9042 
   -9078    -9117    -9160    -9205    -9252    -9302    -9354    -9407 
   -9461    -9514    -9565    -9613    -9654    -9689    -9722    -9750 
   -9771    -9785    -9796    -9804    -9809    -9812    -9811    -9806 
   -9798    -9787    -9770    -9751    -9729    -9702    -9674    -9644 
   -9610    -9575    -9540    -9502    -9464    -9425    -9386    -9346 
   -9306    -9266    -9230    -9198    -9171    -9149    -9134    -9123 
   -9115    -9111    -9109    -9111    -9117    -9125    -9133    -9143 
   -9156    -9170    -9182    -9196    -9213    -9230    -9249    -9264 
   -9279    -9298    -9316    -9332    -9350    -9365    -9378    -9394 
   -9409    -9421    -9435    -9448    -9459    -9470    -9483    -9494 
   -9504    -9513    -9519    -9522    -9525    -9529    -9527    -9525 
   -9525    -9525    -9522    -9519    -9518    -9518    -9516    -9515 
   -9517    -9514    -9507    -9501    -9495    -9487    -9475    -9466 
   -9463    -9458    -9449    -9442    -9437    -9431    -9423    -9415 
   -9408    -9404    -9398    -9393    -9391    -9391    -9390    -9390 
   -9391    -9394    -9393    -9394    -9397    -9399    -9401    -9403 
   -9404    -9406    -9407    -9406    -9408    -9412    -9414    -9416 
   -9423    -9426    -9427    -9431    -9437    -9444    -9453    -9463 
   -9472    -9481    -9488    -9495    -9501    -9504    -9507    -9506 
   -9502    -9503    -9500    -9490    -9480    -9472    -9460    -9446 
   -9435    -9424    -9409    -9399    -9393    -9380    -9365    -9355 
   -9346    -9331    -9317    -9303    -9286    -9269    -9253    -9237 
   -9222    -9208    -9200    -9192    -9181    -9175    -9176    -9171 
   -9162    -9157    -9155    -9149    -9139    -9131    -9127    -9120 
   -9109    -9102    -9099    -9094    -9092    -9091    -9089    -9088 
   -9090    -9092    -9097    -9105    -9116    -9129    -9141    -9155 
   -9170    -9184    -9195    -9210    -9227    -9241    -9258    -9281 
   -9299    -9313    -9335    -9357    -9376    -9394    -9410    -9418 
   -9422    -9428    -9433    -9436    -9438    -9437    -9435    -9432 
   -9423    -9417    -9414    -9404    -9389    -9378    -9365    -9352 
   -9342    -9329    -9314    -9302    -9290    -9278    -9270    -9264 
   -9259    -9255    -9252    -9249    -9248    -9250    -9253    -9258 
   -9266    -9275    -9288    -9304    -9321    -9339    -9358    -9375 
   -9393    -9413    -9430    -9448    -9468    -9486    -9503    -9521 
   -9544    -9567    -9586    -9607    -9629    -9652    -9673    -9689 
   -9706    -9722    -9730    -9736    -9741    -9741    -9736    -9732 
   -9728    -9721    -9706    -9690    -9674    -9650    -9622    -9594 
   -9559    -9518    -9477    -9431    -9387    -9350    -9312    -9276 
   -9246    -9213    -9179    -9145    -9112    -9082    -9054    -9032 
   -9014    -9001    -8993    -8988    -8985    -8985    -8988    -8994 
   -9003    -9013    -9026    -9041    -9059    -9086    -9117    -9147 
   -9180    -9217    -9250    -9278    -9308    -9343    -9377    -9410 
   -9442    -9473    -9501    -9526    -9547    -9569    -9590    -9606 
   -9619    -9629    -9635    -9639    -9639    -9636    -9630    -9619 
   -9605    -9587    -9567    -9545    -9520    -9492    -9467    -9441 
   -9414    -9387    -9358    -9330    -9306    -9278    -9249    -9229 
   -9211    -9191    -9176    -9164    -9155    -9152    -9153    -9155 
   -9161    -9174    -9192    -9212    -9233    -9257    -9287    -9321 
   -9354    -9388    -9430    -9473    -9511    -9549    -9594    -9641 
   -9688    -9738    -9786    -9827    -9865    -9904    -9941    -9971 
   -9995   -10020   -10041   -10051   -10055   -10061   -10058   -10047 
  -10039   -10030   -10015    -9998    -9976    -9939    -9890    -9841 
   -9790    -9730    -9665    -9605    -9545    -9484    -9424    -9368 
   -9317    -9264    -9212    -9166    -9118    -9065    -9019    -8976 
   -8933    -8899    -8873    -8850    -8837    -8839    -8846    -8853 
   -8864    -8878    -8893    -8914    -8943    -8984    -9030    -9074 
   -9121    -9172    -9225    -9287    -9357    -9422    -9481    -9537 
   -9581    -9616    -9653    -9693    -9726    -9756    -9786    -9809 
   -9821    -9828    -9835    -9834    -9824    -9804    -9771    -9732 
   -9690    -9648    -9601    -9553    -9510    -9466    -9413    -9357 
   -9307    -9255    -9200    -9146    -9096    -9046    -8998    -8958 
   -8928    -8904    -8887    -8877    -8868    -8862    -8859    -8858 
   -8860    -8867    -8877    -8889    -8903    -8925    -8953    -8984 
   -9019    -9053    -9086    -9118    -9149    -9182    -9221    -9259 
   -9298    -9340    -9383    -9427    -9470    -9512    -9553    -9595 
   -9632    -9665    -9700    -9732    -9756    -9776    -9792    -9803 
   -9813    -9817    -9817    -9811    -9801    -9787    -9760    -9726 
   -9693    -9652    -9604    -9553    -9499    -9447    -9395    -9340 
   -9285    -9228    -9168    -9108    -9049    -8992    -8942    -8902 
   -8869    -8842    -8820    -8809    -8807    -8806    -8803    -8802 
   -8806    -8813    -8828    -8854    -8892    -8940    -8996    -9052 
   -9108    -9163    -9216    -9268    -9326    -9387    -9444    -9499 
   -9553    -9605    -9658    -9704    -9744    -9785    -9823    -9849 
   -9868    -9882    -9890    -9892    -9897    -9901    -9900    -9893 
   -9875    -9850    -9821    -9784    -9742    -9702    -9662    -9619 
   -9570    -9520    -9473    -9431    -9393    -9352    -9317    -9289 
   -9259    -9231    -9209    -9188    -9169    -9155    -9145    -9139 
   -9133    -9128    -9124    -9131    -9147    -9161    -9180    -9202 
   -9219    -9233    -9243    -9250    -9258    -9272    -9293    -9317 
   -9338    -9357    -9372    -9383    -9397    -9412    -9426    -9434 
   -9438    -9443    -9449    -9455    -9460    -9465    -9464    -9462 
   -9462    -9460    -9453    -9447    -9441    -9431    -9425    -9421 
   -9418    -9422    -9428    -9432    -9436    -9444    -9458    -9472 
   -9486    -9503    -9516    -9527    -9543    -9564    -9580    -9592 
   -9610    -9629    -9646    -9668    -9675    -9671    -9681    -9693 
   -9704    -9713    -9709    -9705    -9700    -9682    -9662    -9643 
   -9625    -9614    -9600    -9569    -9533    -9508    -9484    -9450 
   -9412    -9388    -9379    -9371    -9355    -9331    -9307    -9288 
   -9274    -9255    -9234    -9225    -9234    -9247    -9249    -9247 
   -9249    -9249    -9254    -9276    -9303    -9332    -9361    -9379 
   -9393    -9410    -9427    -9456    -9493    -9528    -9561    -9592 
   -9618    -9639    -9653    -9666    -9682    -9710    -9742    -9761 
   -9767    -9762    -9755    -9756    -9758    -9757    -9748    -9726 
   -9702    -9681    -9653    -9623    -9598    -9574    -9544    -9507 
   -9472    -9440    -9405    -9372    -9339    -9302    -9270    -9240 
   -9210    -9185    -9163    -9147    -9138    -9130    -9119    -9112 
   -9111    -9114    -9123    -9139    -9154    -9169    -9189    -9212 
   -9237    -9263    -9292    -9327    -9361    -9393    -9431    -9472 
   -9514    -9553    -9588    -9624    -9661    -9688    -9711    -9738 
   -9764    -9783    -9793    -9801    -9806    -9804    -9802    -9793 
   -9770    -9750    -9729    -9698    -9665    -9634    -9606    -9575 
   -9541    -9509    -9473    -9434    -9395    -9350    -9302    -9256 
   -9211    -9171    -9139    -9114    -9094    -9072    -9051    -9028 
   -9002    -8976    -8951    -8932    -8922    -8911    -8899    -8894 
   -8894    -8899    -8907    -8915    -8925    -8933    -8937    -8945 
   -8958    -8976    -9002    -9034    -9062    -9084    -9109    -9138 
   -9159    -9179    -9207    -9234    -9259    -9286    -9312    -9338 
   -9364    -9386    -9402    -9411    -9422    -9437    -9445    -9454 
   -9465    -9463    -9452    -9442    -9433    -9423    -9408    -9393 
   -9384    -9373    -9360    -9354    -9353    -9355    -9353    -9345 
   -9337    -9329    -9325    -9325    -9327    -9340    -9359    -9377 
   -9393    -9409    -9428    -9448    -9467    -9489    -9514    -9534 
   -9551    -9567    -9589    -9615    -9639    -9661    -9680    -9692 
   -9701    -9709    -9710    -9708    -9704    -9695    -9688    -9682 
   -9674    -9665    -9655    -9645    -9628    -9604    -9580    -9554 
   -9525    -9495    -9468    -9447    -9430    -9417    -9401    -9380 
   -9359    -9341    -9319    -9298    -9279    -9259    -9243    -9230 
   -9223    -9223    -9218    -9211    -9205    -9197    -9191    -9188 
   -9184    -9175    -9165    -9159    -9154    -9150    -9153    -9157 
   -9153    -9147    -9143    -9138    -9134    -9129    -9119    -9105 
   -9094    -9091    -9087    -9079    -9072    -9066    -9060    -9062 
   -9071    -9080    -9089    -9101    -9111    -9120    -9134    -9154 
   -9178    -9211    -9250    -9285    -9317    -9349    -9380    -9410 
   -9444    -9481    -9514    -9545    -9575    -9597    -9617    -9642 
   -9663    -9680    -9699    -9714    -9722    -9730    -9740    -9747 
   -9751    -9750    -9742    -9735    -9738    -9742    -9739    -9736 
   -9738    -9738    -9735    -9729    -9720    -9712    -9706    -9699 
   -9690    -9679    -9672    -9670    -9664    -9649    -9633    -9612 
   -9592    -9582    -9573    -9558    -9543    -9528    -9506    -9482 
   -9458    -9432    -9407    -9382    -9354    -9320    -9289    -9260 
   -9226    -9194    -9172    -9152    -9124    -9091    -9063    -9039 
   -9016    -9000    -8992    -8982    -8968    -8957    -8945    -8931 
   -8922    -8920    -8924    -8938    -8957    -8973    -8986    -9005 
   -9029    -9059    -9097    -9134    -9171    -9209    -9250    -9291 
   -9328    -9362    -9397    -9428    -9457    -9484    -9502    -9516 
   -9531    -9542    -9550    -9558    -9563    -9561    -9562    -9559 
   -9547    -9537    -9534    -9532    -9528    -9524    -9522    -9519 
   -9514    -9512    -9510    -9504    -9498    -9493    -9490    -9486 
   -9476    -9464    -9452    -9437    -9417    -9399    -9387    -9379 
   -9370    -9362    -9353    -9344    -9336    -9329    -9320    -9306 
   -9292    -9285    -9282    -9281    -9283    -9291    -9301    -9307 
   -9314    -9326    -9340    -9351    -9360    -9370    -9379    -9388 
   -9397    -9411    -9429    -9451    -9470    -9489    -9505    -9512 
   -9510    -9503    -9491    -9483    -9482    -9485    -9491    -9496 
   -9498    -9498    -9494    -9485    -9476    -9470    -9463    -9457 
   -9454    -9448    -9446    -9449    -9449    -9449    -9453    -9457 
   -9462    -9465    -9471    -9479    -9486    -9496    -9507    -9516 
   -9521    -9523    -9525    -9532    -9546    -9560    -9570    -9579 
   -9584    -9583    -9582    -9579    -9569    -9558    -9550    -9539 
   -9527    -9515    -9496    -9472    -9452    -9433    -9411    -9389 
   -9369    -9345    -9316    -9288    -9261    -9235    -9215    -9195 
   -9171    -9147    -9131    -9120    -9113    -9114    -9117    -9114 
   -9113    -9117    -9121    -9128    -9139    -9151    -9161    -9173 
   -9193    -9216    -9243    -9279    -9318    -9355    -9387    -9416 
   -9445    -9475    -9504    -9529    -9555    -9582    -9604    -9622 
   -9639    -9656    -9672    -9685    -9695    -9704    -9708    -9710 
   -9706    -9699    -9694    -9688    -9679    -9664    -9643    -9621 
   -9599    -9575    -9552    -9534    -9518    -9497    -9474    -9453 
   -9436    -9420    -9406    -9394    -9382    -9370    -9355    -9338 
   -9321    -9308    -9303    -9303    -9303    -9305    -9309    -9312 
   -9314    -9319    -9323    -9327    -9334    -9342    -9346    -9349 
   -9357    -9369    -9382    -9396    -9409    -9421    -9430    -9438 
   -9448    -9463    -9481    -9497    -9507    -9517    -9526    -9526 
   -9521    -9519    -9519    -9517    -9513    -9508    -9502    -9497 
   -9493    -9483    -9469    -9456    -9443    -9426    -9412    -9400 
   -9386    -9376    -9369    -9360    -9345    -9326    -9307    -9290 
   -9277    -9271    -9271    -9269    -9263    -9257    -9254    -9253 
   -9255    -9261    -9266    -9273    -9283    -9293    -9308    -9327 
   -9345    -9363    -9377    -9387    -9398    -9411    -9425    -9442 
   -9461    -9477    -9489    -9501    -9511    -9520    -9526    -9528 
   -9529    -9529    -9528    -9524    -9520    -9516    -9512    -9510 
   -9508    -9501    -9491    -9480    -9465    -9453    -9449    -9445 
