Origin Time       2025/01/13 21:19:00
Lat.              31.8
Long.             131.6
Depth. (km)       30
Mag.              6.9
Station Code      FKIH07
Station Lat.      35.4573
Station Long.     135.7266
Station Height(m) -61.5
Record Time       2025/01/13 21:22:18
Sampling Freq(Hz) 100Hz
Duration Time(s)  120
Dir.              2
Scale Factor      2940(gal)/6170270
Max. Acc. (gal)   0.134
Last Correction   2025/01/13 21:22:03
Memo.             
[...]
   15208    15210    15212    15213    15215    15218    15219    15219 
   15219    15219    15221    15221    15219    15218    15218    15217 
   15217    15218    15217    15216    15215    15216    15216    15216 
   15219    15221    15222    15225    15227    15228    15231    15236 
   15237    15238    15241    15246    15251    15253    15256    15262 
   15266    15267    15271    15274    15275    15277    15278    15279 
   15282    15283    15282    15281    15282    15283    15281    15279 
   15278    15277    15273    15267    15262    15259    15255    15252 
   15250    15248    15244    15241    15240    15239    15235    15233 
   15232    15228    15228    15230    15230    15230    15232    15231 
   15228    15226    15225    15223    15222    15222    15221    15218 
   15219    15221    15219    15219    15223    15224    15227    15233 
   15235    15235    15238    15241    15245    15248    15249    15250 
   15253    15256    15258    15260    15263    15265    15265    15265 
   15267    15269    15268    15266    15265    15263    15261    15258 
   15257    15257    15255    15252    15250    15248    15246    15244 
   15240    15239    15239    15234    15229    15226    15223    15224 
   15223    15219    15218    15220    15218    15217    15218    15219 
   15219    15219    15220    15219    15218    15218    15217    15216 
   15217    15218    15219    15219    15218    15214    15214    15217 
   15215    15216    15219    15218    15216    15216    15214    15210 
   15210    15212    15215    15218    15218    15216    15219    15222 
   15223    15224    15226    15226    15227    15227    15227    15230 
   15231    15227    15225    15225    15224    15222    15222    15220 
   15217    15213    15210    15207    15207    15207    15207    15206 
   15205    15204    15203    15202    15203    15206    15206    15207 
   15209    15211    15215    15220    15223    15228    15233    15237 
   15241    15243    15245    15249    15252    15252    15252    15248 
   15246    15246    15244    15240    15241    15243    15239    15236 
   15235    15233    15230    15228    15226    15222    15219    15218 
   15215    15211    15209    15209    15208    15208    15208    15206 
   15204    15204    15203    15202    15202    15203    15204    15204 
   15205    15209    15213    15214    15215    15217    15220    15222 
   15222    15223    15226    15228    15229    15231    15234    15235 
   15236    15237    15238    15239    15238    15238    15240    15240 
   15237    15239    15241    15238    15238    15239    15239    15239 
   15239    15240    15242    15242    15241    15241    15241    15242 
   15245    15245    15244    15245    15245    15245    15245    15246 
   15248    15246    15243    15242    15239    15237    15236    15234 
   15231    15229    15227    15226    15224    15221    15218    15218 
   15219    15218    15218    15219    15222    15225    15225    15224 
   15225    15226    15226    15229    15232    15231    15232    15235 
   15236    15234    15233    15235    15236    15235    15235    15236 
   15236    15236    15238    15241    15242    15242    15242    15243 
   15245    15244    15242    15243    15245    15245    15246    15248 
   15248    15248    15249    15251    15250    15248    15246    15246 
   15246    15244    15241    15237    15234    15232    15232    15230 
   15225    15222    15221    15221    15223    15223    15222    15221 
   15220    15219    15218    15216    15217    15216    15211    15210 
   15211    15209    15204    15200    15197    15194    15190    15187 
   15185    15183    15182    15180    15177    15176    15176    15175 
   15172    15170    15171    15171    15171    15171    15172    15174 
   15176    15179    15183    15186    15189    15191    15194    15199 
   15203    15208    15213    15217    15223    15228    15230    15234 
   15240    15244    15247    15252    15255    15255    15259    15263 
   15261    15261    15263    15264    15266    15268    15269    15272 
   15274    15276    15277    15277    15277    15276    15276    15276 
   15275    15275    15276    15275    15274    15276    15277    15275 
   15276    15278    15277    15274    15271    15268    15266    15263 
   15256    15254    15253    15251    15249    15246    15245    15243 
   15239    15236    15235    15233    15232    15234    15234    15233 
   15235    15233    15230    15230    15231    15232    15231    15229 
   15229    15230    15230    15232    15233    15234    15236    15238 
   15240    15244    15249    15250    15251    15252    15251    15252 
   15255    15256    15256    15254    15252    15253    15252    15252 
   15255    15254    15251    15253    15256    15257    15258    15257 
   15258    15261    15260    15258    15258    15258    15254    15253 
   15251    15249    15247    15245    15241    15239    15238    15234 
   15231    15230    15226    15222    15221    15223    15223    15223 
   15221    15217    15215    15216    15215    15213    15213    15213 
   15213    15216    15220    15218    15216    15217    15215    15215 
   15217    15217    15217    15217    15216    15216    15216    15214 
   15212    15212    15214    15215    15217    15221    15222    15223 
   15226    15228    15232    15236    15238    15242    15247    15250 
   15253    15257    15260    15262    15263    15264    15264    15265 
   15268    15271    15272    15275    15275    15275    15277    15278 
   15279    15280    15280    15283    15285    15285    15285    15284 
   15283    15286    15288    15285    15284    15285    15283    15282 
   15282    15282    15282    15283    15284    15283    15284    15287 
   15288    15290    15294    15295    15295    15296    15298    15299 
   15300    15298    15296    15295    15296    15295    15291    15288 
   15287    15283    15278    15272    15264    15259    15254    15247 
   15243    15239    15231    15226    15224    15221    15218    15216 
   15213    15212    15211    15210    15210    15211    15213    15215 
   15217    15219    15222    15225    15228    15230    15233    15237 
   15239    15240    15244    15248    15250    15254    15256    15258 
   15262    15267    15268    15268    15270    15271    15271    15271 
   15271    15273    15277    15276    15275    15278    15280    15282 
   15286    15289    15292    15296    15301    15305    15309    15314 
   15318    15323    15328    15332    15339    15346    15352    15360 
   15366    15370    15374    15376    15379    15383    15386    15389 
   15390    15389    15389    15389    15388    15385    15380    15379 
   15379    15376    15372    15368    15365    15363    15362    15360 
   15358    15355    15353    15353    15353    15352    15348    15344 
   15344    15343    15340    15338    15334    15330    15327    15324 
   15318    15313    15309    15305    15299    15297    15297    15293 
   15288    15286    15284    15278    15272    15270    15270    15270 
   15267    15263    15260    15260    15257    15255    15256    15253 
   15249    15245    15241    15239    15237    15231    15226    15224 
   15219    15212    15208    15203    15197    15192    15188    15184 
   15178    15173    15169    15165    15162    15158    15155    15155 
   15153    15151    15150    15148    15147    15150    15151    15153 
   15156    15155    15153    15154    15155    15153    15152    15153 
   15152    15151    15153    15153    15155    15158    15159    15162 
   15166    15168    15172    15179    15184    15188    15195    15201 
   15207    15215    15222    15230    15238    15244    15250    15257 
   15265    15271    15277    15283    15286    15291    15296    15298 
   15300    15304    15306    15307    15311    15313    15311    15310 
   15311    15311    15311    15311    15309    15309    15311    15308 
   15305    15305    15303    15303    15303    15301    15299    15297 
   15295    15293    15292    15289    15286    15283    15281    15279 
   15276    15274    15270    15269    15268    15264    15262    15260 
   15257    15255    15252    15245    15245    15248    15243    15237 
   15238    15235    15231    15230    15226    15221    15220    15216 
   15213    15213    15211    15209    15210    15209    15207    15206 
   15205    15204    15205    15204    15201    15199    15199    15201 
   15203    15201    15199    15204    15206    15206    15211    15215 
   15216    15217    15218    15222    15226    15227    15228    15230 
   15232    15235    15237    15240    15243    15246    15248    15252 
   15258    15261    15265    15268    15270    15274    15277    15277 
   15280    15284    15284    15283    15282    15285    15285    15283 
   15283    15282    15279    15277    15275    15275    15273    15269 
   15267    15266    15262    15256    15252    15250    15249    15246 
   15245    15245    15243    15242    15241    15237    15236    15236 
   15234    15232    15229    15228    15230    15229    15226    15225 
   15223    15221    15218    15214    15209    15207    15205    15200 
   15195    15195    15193    15189    15187    15185    15183    15181 
   15180    15176    15175    15177    15176    15174    15176    15180 
   15183    15187    15191    15196    15199    15204    15212    15218 
   15225    15231    15234    15240    15248    15251    15253    15256 
   15259    15264    15268    15269    15271    15275    15277    15276 
   15276    15278    15278    15276    15274    15274    15272    15269 
   15266    15264    15261    15257    15255    15250    15244    15239 
   15233    15228    15225    15220    15214    15209    15206    15202 
   15199    15198    15197    15194    15193    15192    15193    15194 
   15196    15199    15202    15203    15206    15209    15212    15215 
   15215    15215    15216    15215    15215    15215    15213    15209 
   15205    15201    15198    15194    15191    15186    15182    15180 
   15177    15174    15175    15173    15168    15164    15163    15162 
   15160    15157    15158    15158    15157    15156    15159    15162 
   15162    15163    15162    15161    15164    15166    15165    15168 
   15170    15170    15174    15178    15178    15180    15184    15187 
   15189    15192    15197    15202    15206    15207    15209    15214 
   15219    15223    15228    15231    15237    15243    15246    15250 
   15257    15261    15265    15272    15278    15281    15285    15291 
   15295    15298    15301    15305    15311    15313    15314    15317 
   15320    15322    15323    15324    15324    15325    15327    15328 
   15328    15326    15326    15328    15329    15325    15325    15327 
   15327    15326    15325    15323    15321    15321    15323    15325 
   15326    15326    15327    15327    15327    15328    15328    15327 
   15327    15328    15329    15329    15328    15328    15327    15325 
   15322    15321    15322    15322    15317    15314    15316    15316 
   15313    15313    15315    15315    15316    15317    15318    15317 
   15317    15319    15319    15318    15317    15316    15314    15312 
   15312    15312    15308    15305    15305    15303    15301    15298 
   15295    15293    15291    15289    15288    15286    15285    15286 
   15285    15285    15287    15289    15290    15292    15294    15296 
   15298    15301    15303    15306    15310    15312    15313    15317 
   15319    15319    15321    15324    15326    15328    15330    15329 
   15329    15330    15332    15334    15337    15338    15337    15338 
   15341    15343    15343    15344    15345    15345    15344    15344 
   15345    15347    15346    15345    15345    15346    15343    15342 
   15342    15339    15337    15337    15334    15330    15329    15330 
   15328    15325    15324    15323    15319    15314    15311    15309 
   15309    15307    15304    15303    15303    15302    15304    15305 
   15305    15306    15306    15307    15309    15309    15310    15310 
   15307    15304    15301    15298    15294    15290    15286    15283 
   15280    15276    15272    15268    15265    15261    15256    15252 
   15249    15243    15239    15236    15233    15228    15224    15220 
   15215    15213    15211    15209    15208    15205    15202    15199 
   15193    15190    15189    15185    15182    15179    15176    15175 
   15175    15172    15171    15172    15174    15176    15176    15178 
   15180    15180    15182    15184    15184    15184    15185    15185 
   15188    15190    15191    15193    15196    15199    15201    15205 
   15209    15212    15216    15220    15222    15225    15231    15238 
   15243    15249    15257    15263    15267    15271    15277    15282 
   15286    15292    15299    15302    15305    15310    15312    15315 
   15320    15318    15316    15320    15322    15320    15318    15316 
   15316    15313    15309    15308    15306    15304    15303    15300 
   15299    15300    15295    15291    15292    15291    15289    15289 
   15290    15291    15290    15287    15287    15290    15291    15294 
   15297    15296    15300    15307    15309    15312    15319    15325 
   15330    15338    15345    15351    15360    15369    15376    15383 
   15392    15401    15409    15419    15427    15435    15444    15452 
   15459    15465    15470    15478    15489    15496    15499    15505 
   15513    15517    15520    15524    15530    15533    15534    15536 
   15541    15541    15540    15539    15539    15537    15536    15534 
   15529    15523    15520    15516    15510    15505    15499    15492 
   15485    15477    15468    15458    15446    15434    15422    15411 
   15398    15384    15372    15359    15345    15331    15319    15310 
   15299    15286    15278    15267    15254    15247    15240    15230 
   15224    15218    15211    15206    15201    15197    15195    15190 
   15184    15179    15176    15175    15174    15171    15168    15166 
   15162    15161    15160    15161    15160    15155    15153    15153 
   15149    15145    15145    15143    15142    15142    15141    15140 
   15140    15141    15141    15142    15144    15146    15147    15148 
   15149    15154    15157    15157    15160    15164    15166    15169 
   15174    15177    15179    15182    15185    15186    15190    15194 
   15196    15200    15204    15205    15208    15215    15218    15220 
   15226    15232    15233    15237    15241    15240    15241    15245 
   15246    15250    15254    15253    15253    15254    15256    15255 
   15253    15255    15259    15258    15256    15255    15255    15256 
   15257    15259    15262    15262    15262    15264    15266    15267 
   15267    15268    15272    15272    15268    15269    15272    15273 
   15274    15273    15272    15271    15271    15270    15268    15265 
   15261    15256    15252    15248    15244    15243    15240    15237 
   15236    15233    15233    15235    15235    15236    15238    15240 
   15244    15248    15253    15259    15263    15270    15279    15285 
   15290    15296    15302    15306    15312    15317    15320    15322 
   15324    15326    15329    15329    15328    15328    15329    15327 
   15327    15327    15325    15323    15322    15322    15320    15321 
   15323    15321    15319    15321    15322    15320    15321    15324 
   15325    15327    15330    15331    15332    15337    15340    15342 
   15346    15348    15351    15355    15357    15357    15360    15361 
   15360    15360    15362    15360    15358    15356    15352    15346 
   15342    15339    15333    15326    15320    15314    15307    15300 
   15292    15286    15281    15274    15269    15264    15256    15251 
   15248    15242    15237    15234    15229    15222    15218    15214 
   15209    15205    15202    15199    15195    15191    15189    15186 
   15182    15182    15180    15175    15174    15174    15172    15172 
   15173    15174    15175    15176    15176    15177    15179    15182 
   15186    15187    15192    15199    15204    15208    15211    15215 
   15221    15226    15231    15237    15242    15244    15249    15258 
   15266    15274    15280    15287    15295    15300    15306    15313 
   15318    15324    15335    15341    15345    15352    15359    15363 
   15368    15373    15379    15384    15388    15393    15399    15404 
   15410    15414    15417    15419    15422    15426    15430    15430 
   15430    15433    15433    15431    15430    15430    15427    15424 
   15422    15418    15413    15410    15406    15402    15396    15390 
   15387    15384    15376    15370    15366    15361    15356    15352 
   15346    15341    15338    15333    15327    15323    15320    15314 
   15307    15303    15297    15290    15284    15278    15271    15265 
   15260    15252    15246    15241    15235    15227    15223    15220 
   15215    15209    15206    15205    15205    15204    15203    15201 
   15201    15201    15200    15201    15202    15204    15206    15207 
   15207    15208    15210    15210    15208    15208    15210    15208 
   15205    15205    15205    15202    15197    15194    15189    15186 
   15180    15174    15171    15166    15161    15158    15152    15144 
   15141    15137    15133    15128    15122    15120    15118    15113 
   15110    15110    15108    15104    15105    15106    15105    15107 
   15109    15111    15114    15117    15122    15126    15129    15135 
   15142    15151    15158    15165    15173    15183    15192    15202 
   15211    15217    15225    15234    15242    15251    15260    15265 
   15272    15279    15283    15289    15298    15305    15309    15314 
   15320    15325    15332    15337    15340    15343    15348    15352 
   15355    15358    15360    15362    15364    15366    15366    15366 
   15368    15368    15366    15365    15364    15361    15356    15354 
   15352    15349    15345    15341    15339    15336    15332    15326 
   15322    15319    15315    15310    15305    15299    15295    15292 
   15285    15278    15272    15265    15255    15249    15245    15236 
   15227    15218    15209    15201    15193    15183    15175    15168 
   15160    15153    15145    15138    15135    15132    15128    15124 
   15122    15118    15117    15117    15115    15114    15116    15117 
   15117    15119    15122    15124    15126    15129    15135    15140 
   15143    15146    15151    15156    15159    15163    15170    15175 
   15179    15182    15184    15189    15195    15197    15201    15207 
   15209    15213    15220    15223    15225    15228    15232    15239 
   15244    15247    15253    15261    15266    15271    15280    15287 
   15292    15302    15310    15315    15323    15331    15339    15348 
   15356    15360    15366    15373    15378    15381    15386    15390 
   15392    15394    15394    15393    15396    15398    15394    15393 
   15392    15390    15389    15390    15389    15388    15387    15386 
   15385    15384    15385    15385    15384    15380    15380    15382 
   15380    15376    15375    15371    15367    15365    15363    15358 
   15351    15346    15342    15336    15328    15319    15312    15305 
   15296    15287    15280    15272    15261    15251    15244    15236 
   15228    15219    15207    15199    15196    15190    15184    15180 
