Origin Time       2025/01/13 21:19:00
Lat.              31.8
Long.             131.6
Depth. (km)       30
Mag.              6.9
Station Code      FKIH04
Station Lat.      35.5587
Station Long.     135.8694
Station Height(m) -197
Record Time       2025/01/13 21:22:31
Sampling Freq(Hz) 100Hz
Duration Time(s)  120
Dir.              3
Scale Factor      3920(gal)/6170801
Max. Acc. (gal)   0.154
Last Correction   2025/01/13 21:22:16
Memo.             
   30433    30435    30435    30435    30434    30436    30438    30438 
   30438    30440    30441    30441    30442    30442    30442    30444 
   30444    30446    30446    30444    30446    30448    30445    30447 
   30449    30449    30449    30447    30447    30451    30451    30449 
   30449    30450    30449    30449    30450    30451    30451    30451 
   30452    30453    30455    30455    30456    30457    30457    30459 
   30461    30460    30458    30458    30461    30460    30458    30461 
   30463    30461    30458    30458    30457    30455    30455    30456 
   30455    30452    30453    30455    30452    30449    30449    30448 
   30447    30448    30445    30441    30442    30442    30439    30437 
   30434    30431    30429    30426    30426    30425    30420    30420 
   30421    30415    30410    30411    30414    30412    30407    30407 
   30409    30406    30404    30404    30403    30401    30399    30400 
   30403    30399    30398    30401    30402    30399    30398    30401 
   30402    30401    30402    30405    30405    30406    30409    30410 
   30410    30412    30412    30412    30414    30413    30416    30421 
   30421    30420    30421    30423    30423    30422    30424    30429 
   30428    30426    30429    30432    30432    30432    30435    30438 
   30439    30443    30444    30445    30449    30452    30453    30453 
   30457    30464    30466    30466    30468    30472    30475    30475 
   30474    30479    30482    30483    30487    30488    30489    30491 
   30492    30494    30496    30497    30495    30494    30497    30496 
   30495    30495    30494    30495    30495    30492    30490    30488 
   30484    30481    30479    30476    30473    30471    30471    30469 
   30463    30460    30459    30456    30452    30449    30448    30447 
   30443    30440    30443    30441    30437    30438    30439    30438 
   30440    30443    30439    30441    30445    30443    30443    30448 
   30447    30447    30455    30460    30460    30465    30470    30471 
   30475    30479    30483    30488    30489    30487    30490    30496 
   30496    30497    30501    30501    30502    30505    30504    30503 
   30503    30503    30502    30501    30501    30498    30497    30499 
   30499    30497    30497    30497    30497    30497    30496    30494 
   30495    30496    30495    30495    30496    30497    30498    30498 
   30498    30497    30498    30500    30499    30499    30501    30503 
   30505    30507    30507    30507    30509    30510    30510    30511 
   30512    30511    30510    30511    30511    30511    30512    30513 
   30511    30509    30510    30511    30506    30502    30502    30503 
   30500    30496    30496    30494    30490    30488    30487    30487 
   30486    30483    30483    30482    30480    30481    30482    30481 
   30480    30482    30483    30482    30482    30481    30481    30481 
   30480    30479    30477    30476    30478    30477    30473    30472 
   30471    30467    30463    30464    30463    30459    30457    30460 
   30459    30457    30455    30455    30453    30451    30451    30448 
   30448    30449    30447    30447    30446    30443    30444    30443 
   30440    30439    30438    30436    30435    30434    30431    30432 
   30433    30431    30431    30434    30432    30430    30432    30432 
   30433    30433    30430    30430    30432    30431    30431    30432 
   30430    30429    30431    30433    30431    30427    30427    30429 
   30427    30426    30425    30421    30419    30420    30417    30412 
   30410    30410    30405    30401    30399    30392    30386    30384 
   30380    30375    30373    30369    30364    30364    30361    30351 
   30347    30346    30342    30339    30338    30335    30334    30336 
   30336    30335    30333    30333    30333    30333    30336    30338 
   30339    30340    30343    30348    30351    30353    30359    30365 
   30367    30369    30373    30378    30380    30382    30388    30389 
   30386    30390    30394    30393    30395    30400    30402    30402 
   30406    30409    30410    30413    30416    30419    30420    30422 
   30426    30429    30432    30436    30436    30436    30441    30444 
   30445    30448    30452    30454    30454    30456    30459    30460 
   30460    30461    30462    30465    30466    30468    30471    30474 
   30476    30478    30480    30480    30480    30483    30486    30487 
   30488    30490    30493    30494    30495    30497    30498    30497 
   30498    30502    30501    30499    30501    30501    30498    30500 
   30505    30504    30504    30503    30499    30498    30499    30496 
   30493    30492    30490    30487    30488    30486    30481    30480 
   30481    30480    30476    30473    30474    30475    30471    30470 
   30471    30473    30472    30471    30472    30471    30470    30472 
   30472    30470    30471    30473    30468    30466    30469    30466 
   30465    30468    30464    30460    30459    30457    30455    30453 
   30449    30446    30444    30441    30441    30439    30433    30430 
   30428    30425    30424    30419    30415    30416    30412    30408 
   30407    30406    30404    30404    30402    30400    30399    30396 
   30392    30392    30390    30387    30386    30384    30381    30382 
   30380    30377    30375    30376    30377    30375    30375    30376 
   30374    30374    30375    30374    30375    30377    30376    30377 
   30379    30381    30382    30384    30387    30389    30392    30396 
   30399    30402    30407    30413    30417    30419    30425    30432 
   30435    30440    30446    30446    30448    30455    30460    30462 
   30465    30467    30471    30474    30475    30476    30476    30476 
   30476    30476    30478    30477    30475    30474    30472    30471 
   30469    30465    30463    30462    30462    30458    30455    30456 
   30456    30454    30453    30452    30450    30452    30452    30452 
   30453    30454    30452    30453    30457    30458    30458    30459 
   30462    30464    30466    30467    30466    30466    30468    30467 
   30466    30465    30463    30464    30465    30462    30459    30457 
   30456    30453    30450    30447    30443    30438    30437    30435 
   30431    30427    30424    30421    30418    30414    30412    30407 
   30403    30400    30396    30394    30390    30385    30380    30377 
   30373    30369    30366    30361    30356    30353    30352    30350 
   30347    30345    30346    30345    30343    30344    30344    30342 
   30344    30349    30349    30352    30357    30360    30363    30368 
   30373    30378    30383    30387    30391    30396    30402    30406 
   30413    30420    30423    30425    30432    30439    30439    30440 
   30448    30454    30454    30454    30456    30459    30462    30462 
   30462    30462    30462    30464    30463    30458    30459    30461 
   30459    30454    30454    30455    30454    30452    30452    30452 
   30450    30450    30451    30450    30448    30449    30450    30449 
   30452    30455    30454    30455    30459    30460    30465    30469 
   30469    30471    30476    30478    30480    30481    30483    30486 
   30489    30490    30491    30494    30497    30497    30496    30498 
   30501    30502    30501    30502    30502    30500    30501    30502 
   30501    30501    30502    30501    30500    30500    30500    30500 
   30500    30500    30499    30498    30494    30491    30491    30489 
   30485    30484    30482    30477    30473    30472    30471    30466 
   30462    30460    30457    30457    30454    30448    30445    30447 
   30446    30443    30442    30443    30442    30442    30444    30444 
   30444    30447    30449    30451    30454    30455    30457    30463 
   30469    30473    30476    30480    30486    30490    30492    30495 
   30497    30500    30507    30508    30507    30510    30509    30506 
   30509    30511    30510    30508    30505    30504    30502    30499 
   30496    30490    30484    30482    30479    30475    30469    30464 
   30460    30457    30454    30451    30447    30442    30438    30436 
   30433    30429    30427    30427    30421    30417    30418    30412 
   30408    30411    30409    30405    30405    30402    30399    30397 
   30393    30389    30388    30387    30383    30378    30374    30372 
   30369    30363    30359    30359    30355    30349    30343    30338 
   30333    30325    30319    30314    30307    30300    30295    30288 
   30280    30275    30271    30262    30256    30253    30245    30237 
   30234    30228    30222    30218    30214    30212    30208    30204 
   30202    30201    30201    30200    30199    30200    30201    30203 
   30209    30210    30211    30217    30224    30231    30236    30241 
   30246    30253    30262    30273    30282    30288    30296    30305 
   30314    30326    30336    30343    30352    30363    30372    30380 
   30391    30400    30407    30415    30425    30431    30439    30448 
   30455    30459    30464    30470    30476    30486    30492    30494 
   30502    30508    30510    30515    30519    30522    30525    30529 
   30535    30538    30539    30545    30550    30549    30551    30557 
   30559    30561    30566    30569    30571    30574    30574    30575 
   30578    30581    30583    30584    30586    30586    30585    30586 
   30588    30589    30588    30588    30588    30587    30586    30586 
   30586    30583    30579    30580    30581    30578    30574    30571 
   30570    30568    30565    30561    30559    30556    30555    30550 
   30545    30544    30541    30536    30535    30534    30531    30529 
   30526    30525    30522    30518    30515    30512    30510    30508 
   30505    30504    30503    30499    30496    30494    30490    30488 
   30489    30484    30481    30482    30480    30477    30474    30471 
   30472    30472    30469    30466    30466    30467    30468    30467 
   30465    30467    30467    30465    30467    30468    30467    30467 
   30467    30467    30466    30464    30462    30461    30459    30457 
   30456    30455    30454    30451    30448    30446    30444    30440 
   30438    30435    30431    30427    30425    30422    30418    30416 
   30415    30412    30406    30403    30401    30398    30396    30394 
   30388    30386    30387    30382    30375    30375    30376    30371 
   30368    30368    30364    30362    30363    30359    30356    30355 
   30354    30353    30355    30355    30353    30354    30356    30358 
   30358    30358    30359    30363    30366    30369    30374    30377 
   30378    30382    30388    30391    30395    30398    30402    30407 
   30410    30414    30420    30422    30426    30432    30434    30438 
   30443    30447    30451    30453    30457    30460    30461    30463 
   30468    30472    30473    30475    30478    30477    30479    30485 
   30486    30488    30491    30493    30496    30499    30501    30503 
   30506    30509    30510    30512    30512    30515    30518    30517 
   30517    30519    30519    30518    30520    30521    30520    30519 
   30518    30518    30517    30517    30517    30518    30517    30516 
   30513    30511    30511    30510    30507    30506    30502    30501 
   30500    30495    30492    30491    30487    30483    30479    30472 
   30466    30464    30461    30455    30448    30443    30439    30435 
   30429    30422    30415    30411    30409    30403    30395    30391 
   30388    30385    30382    30378    30374    30372    30369    30368 
   30368    30367    30366    30365    30366    30368    30367    30367 
   30370    30372    30374    30377    30381    30385    30387    30388 
   30392    30397    30401    30404    30409    30413    30418    30423 
   30426    30428    30433    30439    30444    30449    30453    30454 
   30457    30465    30470    30472    30476    30480    30482    30486 
   30490    30490    30494    30499    30502    30504    30508    30510 
   30513    30515    30514    30516    30520    30523    30523    30525 
   30527    30526    30524    30527    30530    30528    30528    30526 
   30523    30525    30525    30521    30519    30518    30513    30510 
   30510    30506    30503    30503    30500    30495    30494    30493 
   30492    30490    30484    30482    30480    30476    30476    30477 
   30472    30470    30472    30469    30466    30467    30465    30463 
   30463    30461    30459    30460    30460    30459    30459    30458 
   30458    30462    30461    30459    30459    30460    30460    30461 
   30461    30462    30466    30465    30464    30466    30466    30465 
   30467    30466    30465    30467    30464    30462    30463    30461 
   30458    30460    30460    30456    30453    30453    30453    30450 
   30449    30452    30452    30446    30444    30445    30445    30445 
   30443    30440    30444    30443    30439    30441    30440    30438 
   30439    30437    30436    30437    30435    30432    30433    30433 
   30430    30430    30428    30428    30428    30423    30421    30423 
   30422    30420    30419    30417    30416    30415    30413    30411 
   30410    30408    30408    30407    30406    30402    30401    30400 
   30399    30397    30395    30396    30395    30392    30390    30385 
   30382    30383    30383    30382    30383    30384    30382    30379 
   30379    30381    30381    30382    30380    30380    30384    30388 
   30386    30385    30387    30391    30392    30391    30395    30399 
   30398    30399    30402    30405    30407    30405    30408    30414 
   30414    30412    30413    30416    30416    30415    30416    30416 
   30416    30417    30416    30414    30412    30411    30409    30409 
   30407    30402    30397    30396    30394    30389    30383    30380 
   30378    30374    30367    30362    30359    30354    30350    30346 
   30337    30329    30329    30327    30319    30313    30310    30305 
   30299    30294    30292    30290    30285    30281    30279    30277 
   30273    30269    30269    30269    30267    30267    30266    30264 
   30260    30260    30263    30263    30263    30265    30267    30270 
   30271    30273    30280    30284    30287    30290    30295    30300 
   30303    30305    30310    30315    30318    30323    30326    30329 
   30334    30337    30340    30344    30347    30351    30355    30356 
   30358    30364    30368    30370    30369    30374    30382    30383 
   30385    30390    30395    30400    30402    30404    30412    30419 
   30421    30427    30436    30441    30446    30452    30458    30466 
   30472    30479    30487    30494    30501    30509    30514    30518 
   30525    30533    30537    30541    30546    30552    30558    30564 
   30566    30571    30579    30581    30585    30592    30593    30591 
   30596    30604    30608    30608    30610    30615    30615    30616 
   30623    30626    30625    30628    30630    30632    30636    30635 
   30634    30634    30634    30635    30639    30639    30637    30639 
   30638    30637    30640    30641    30638    30638    30640    30637 
   30635    30636    30634    30632    30633    30632    30628    30628 
   30628    30622    30619    30618    30616    30615    30610    30603 
   30601    30596    30589    30581    30575    30571    30564    30554 
   30545    30537    30528    30519    30510    30501    30493    30483 
   30473    30463    30453    30445    30437    30428    30420    30413 
   30406    30398    30389    30383    30380    30375    30367    30362 
   30360    30355    30351    30352    30350    30347    30345    30345 
   30345    30343    30343    30347    30347    30344    30344    30345 
   30347    30351    30350    30349    30352    30354    30353    30354 
   30355    30358    30362    30362    30361    30364    30366    30368 
   30374    30375    30377    30380    30381    30381    30384    30387 
   30390    30391    30392    30397    30397    30394    30398    30401 
   30400    30400    30400    30402    30401    30397    30397    30399 
   30398    30394    30390    30389    30387    30384    30382    30380 
   30376    30370    30368    30369    30364    30358    30358    30355 
   30351    30349    30345    30343    30341    30339    30338    30336 
   30334    30334    30335    30335    30333    30335    30338    30337 
   30335    30336    30339    30340    30340    30342    30345    30348 
   30347    30351    30357    30359    30362    30366    30366    30369 
   30374    30374    30377    30384    30388    30392    30400    30405 
   30408    30414    30420    30427    30434    30442    30449    30456 
   30462    30471    30483    30491    30497    30508    30518    30525 
   30533    30545    30555    30561    30568    30578    30586    30592 
   30601    30608    30612    30619    30626    30629    30632    30634 
   30638    30642    30644    30646    30647    30647    30649    30649 
   30647    30647    30646    30644    30642    30639    30641    30640 
   30633    30629    30627    30623    30621    30616    30609    30605 
   30602    30597    30593    30589    30583    30580    30576    30568 
   30563    30558    30550    30546    30543    30534    30528    30525 
   30520    30514    30509    30504    30498    30494    30489    30483 
   30478    30473    30467    30461    30455    30451    30446    30440 
   30435    30428    30422    30415    30409    30404    30399    30393 
   30388    30383    30377    30368    30362    30359    30356    30349 
   30343    30339    30335    30331    30328    30324    30318    30317 
   30316    30314    30311    30308    30308    30309    30307    30307 
   30309    30308    30307    30310    30311    30312    30315    30318 
   30321    30327    30331    30333    30338    30343    30347    30352 
   30357    30360    30368    30373    30375    30381    30387    30391 
   30399    30405    30405    30410    30415    30417    30423    30428 
   30427    30429    30433    30437    30437    30437    30438    30440 
   30442    30442    30440    30440    30441    30438    30436    30435 
   30433    30433    30432    30431    30430    30429    30425    30424 
   30427    30428    30424    30423    30422    30420    30422    30422 
   30420    30423    30423    30422    30423    30422    30423    30426 
   30425    30422    30423    30425    30427    30427    30427    30427 
   30427    30425    30425    30425    30422    30419    30420    30420 
   30417    30416    30416    30413    30410    30410    30407    30403 
   30403    30403    30400    30396    30394    30391    30392    30393 
   30387    30385    30388    30386    30381    30379    30379    30380 
   30381    30378    30376    30375    30376    30375    30373    30374 
   30377    30379    30379    30380    30381    30382    30384    30387 
   30390    30393    30396    30398    30401    30406    30408    30411 
   30414    30416    30420    30425    30427    30430    30435    30437 
   30439    30445    30449    30451    30452    30454    30458    30460 
   30462    30465    30467    30467    30468    30469    30467    30468 
   30471    30471    30471    30472    30468    30465    30466    30464 
   30461    30458    30457    30456    30453    30450    30449    30447 
   30442    30437    30436    30437    30433    30428    30426    30425 
   30425    30424    30422    30420    30418    30418    30420    30421 
