Origin Time       2025/01/13 21:19:00
Lat.              31.8
Long.             131.6
Depth. (km)       30
Mag.              6.9
Station Code      FKIH04
Station Lat.      35.5587
Station Long.     135.8694
Station Height(m) 3
Record Time       2025/01/13 21:22:31
Sampling Freq(Hz) 100Hz
Duration Time(s)  120
Dir.              4
Scale Factor      3920(gal)/6170801
Max. Acc. (gal)   1.044
Last Correction   2025/01/13 21:22:16
Memo.             
[...]
   -2720    -2709    -2695    -2678    -2666    -2656    -2645    -2637 
   -2629    -2621    -2614    -2605    -2597    -2593    -2587    -2582 
   -2581    -2582    -2587    -2592    -2601    -2614    -2630    -2647 
   -2668    -2693    -2722    -2753    -2782    -2816    -2854    -2889 
   -2928    -2972    -3013    -3051    -3091    -3127    -3163    -3199 
   -3236    -3273    -3312    -3350    -3387    -3422    -3455    -3484 
   -3507    -3528    -3546    -3559    -3567    -3575    -3579    -3578 
   -3574    -3568    -3557    -3541    -3523    -3502    -3477    -3448 
   -3415    -3383    -3349    -3311    -3268    -3228    -3187    -3141 
   -3098    -3059    -3015    -2973    -2932    -2887    -2842    -2799 
   -2756    -2715    -2677    -2642    -2608    -2576    -2547    -2520 
   -2497    -2476    -2456    -2438    -2422    -2410    -2402    -2395 
   -2391    -2390    -2392    -2397    -2404    -2413    -2423    -2436 
   -2449    -2459    -2473    -2494    -2514    -2535    -2562    -2590 
   -2616    -2644    -2674    -2705    -2738    -2772    -2809    -2850 
   -2890    -2930    -2971    -3012    -3052    -3087    -3119    -3149 
   -3172    -3193    -3218    -3241    -3259    -3278    -3295    -3307 
   -3317    -3326    -3332    -3335    -3336    -3333    -3325    -3314 
   -3300    -3281    -3257    -3233    -3207    -3176    -3146    -3119 
   -3092    -3066    -3041    -3018    -2996    -2972    -2950    -2933 
   -2913    -2893    -2879    -2867    -2857    -2848    -2843    -2839 
   -2834    -2830    -2828    -2825    -2824    -2827    -2831    -2835 
   -2840    -2848    -2858    -2866    -2870    -2875    -2879    -2880 
   -2877    -2873    -2871    -2870    -2871    -2872    -2869    -2869 
   -2871    -2865    -2859    -2856    -2849    -2841    -2837    -2830 
   -2821    -2817    -2816    -2814    -2817    -2821    -2825    -2832 
   -2843    -2854    -2866    -2879    -2892    -2905    -2918    -2931 
   -2945    -2957    -2967    -2980    -2991    -3001    -3013    -3026 
   -3037    -3051    -3068    -3087    -3106    -3128    -3152    -3173 
   -3191    -3205    -3218    -3229    -3234    -3238    -3241    -3238 
   -3236    -3234    -3229    -3223    -3217    -3208    -3196    -3182 
   -3166    -3146    -3126    -3107    -3089    -3073    -3058    -3045 
   -3033    -3020    -3009    -2997    -2987    -2980    -2972    -2962 
   -2954    -2949    -2941    -2932    -2927    -2921    -2917    -2916 
   -2917    -2920    -2925    -2930    -2938    -2949    -2960    -2971 
   -2983    -2996    -3010    -3022    -3032    -3042    -3052    -3059 
   -3067    -3074    -3078    -3082    -3086    -3085    -3081    -3080 
   -3076    -3067    -3057    -3049    -3038    -3026    -3016    -3008 
   -3001    -2994    -2989    -2985    -2981    -2979    -2977    -2971 
   -2964    -2958    -2948    -2935    -2929    -2924    -2917    -2915 
   -2917    -2917    -2920    -2927    -2934    -2940    -2949    -2961 
   -2971    -2977    -2988    -3000    -3009    -3021    -3035    -3045 
   -3053    -3062    -3068    -3074    -3083    -3091    -3097    -3104 
   -3114    -3125    -3137    -3149    -3162    -3176    -3190    -3200 
   -3207    -3212    -3215    -3216    -3216    -3214    -3209    -3206 
   -3202    -3193    -3181    -3169    -3152    -3128    -3104    -3078 
   -3045    -3010    -2977    -2943    -2911    -2881    -2850    -2821 
   -2792    -2760    -2729    -2701    -2672    -2643    -2620    -2601 
   -2582    -2567    -2559    -2553    -2551    -2555    -2562    -2572 
   -2586    -2604    -2621    -2642    -2666    -2693    -2720    -2747 
   -2778    -2813    -2848    -2885    -2924    -2960    -2998    -3040 
   -3078    -3115    -3153    -3194    -3232    -3265    -3296    -3326 
   -3350    -3372    -3392    -3406    -3418    -3430    -3439    -3445 
   -3450    -3451    -3450    -3448    -3439    -3425    -3410    -3391 
   -3369    -3344    -3317    -3289    -3258    -3227    -3195    -3162 
   -3128    -3094    -3060    -3024    -2986    -2948    -2910    -2871 
   -2835    -2797    -2758    -2725    -2691    -2657    -2633    -2612 
   -2595    -2585    -2581    -2579    -2578    -2586    -2601    -2618 
   -2636    -2661    -2689    -2716    -2748    -2780    -2810    -2847 
   -2887    -2927    -2970    -3019    -3068    -3120    -3172    -3220 
   -3267    -3316    -3362    -3403    -3440    -3475    -3509    -3544 
   -3575    -3603    -3630    -3652    -3667    -3680    -3688    -3690 
   -3686    -3679    -3666    -3647    -3622    -3596    -3565    -3529 
   -3490    -3445    -3394    -3342    -3288    -3232    -3175    -3113 
   -3047    -2980    -2911    -2842    -2775    -2713    -2655    -2604 
   -2555    -2509    -2468    -2432    -2401    -2379    -2368    -2364 
   -2363    -2369    -2385    -2407    -2433    -2467    -2509    -2554 
   -2603    -2657    -2714    -2771    -2830    -2894    -2959    -3022 
   -3086    -3151    -3211    -3270    -3331    -3387    -3434    -3477 
   -3515    -3544    -3567    -3584    -3598    -3606    -3607    -3604 
   -3599    -3589    -3574    -3556    -3533    -3505    -3472    -3437 
   -3398    -3356    -3313    -3268    -3219    -3169    -3119    -3068 
   -3020    -2974    -2927    -2882    -2840    -2799    -2759    -2719 
   -2680    -2644    -2609    -2577    -2548    -2517    -2487    -2462 
   -2440    -2417    -2399    -2392    -2388    -2380    -2374    -2373 
   -2371    -2370    -2372    -2374    -2374    -2378    -2382    -2389 
   -2400    -2414    -2430    -2449    -2468    -2488    -2508    -2529 
   -2550    -2572    -2597    -2620    -2638    -2657    -2673    -2685 
   -2697    -2710    -2722    -2733    -2747    -2764    -2780    -2795 
   -2811    -2825    -2839    -2856    -2873    -2887    -2899    -2911 
   -2923    -2933    -2946    -2965    -2990    -3017    -3046    -3081 
   -3118    -3154    -3194    -3235    -3276    -3317    -3357    -3395 
   -3434    -3475    -3516    -3557    -3594    -3629    -3662    -3691 
   -3713    -3731    -3744    -3750    -3756    -3758    -3752    -3743 
   -3730    -3708    -3684    -3660    -3627    -3591    -3554    -3513 
   -3466    -3418    -3372    -3325    -3278    -3229    -3179    -3131 
   -3085    -3036    -2990    -2947    -2903    -2855    -2814    -2775 
   -2734    -2698    -2667    -2637    -2613    -2597    -2583    -2566 
   -2551    -2542    -2536    -2529    -2521    -2517    -2515    -2511 
   -2512    -2516    -2519    -2521    -2530    -2539    -2544    -2551 
   -2561    -2571    -2580    -2594    -2609    -2621    -2634    -2652 
   -2671    -2687    -2703    -2722    -2741    -2760    -2783    -2809 
   -2831    -2849    -2870    -2889    -2908    -2936    -2969    -2990 
   -3003    -3019    -3034    -3046    -3063    -3082    -3101    -3113 
   -3120    -3126    -3130    -3127    -3124    -3119    -3104    -3087 
   -3073    -3057    -3040    -3026    -3010    -2989    -2971    -2955 
   -2936    -2916    -2897    -2877    -2854    -2832    -2812    -2793 
   -2783    -2783    -2778    -2771    -2775    -2786    -2792    -2803 
   -2823    -2841    -2853    -2862    -2870    -2885    -2909    -2936 
   -2961    -2986    -3012    -3032    -3046    -3061    -3081    -3101 
   -3119    -3131    -3136    -3139    -3143    -3145    -3146    -3144 
   -3138    -3128    -3118    -3105    -3087    -3070    -3051    -3029 
   -3009    -2994    -2976    -2956    -2936    -2912    -2888    -2871 
   -2855    -2845    -2843    -2843    -2848    -2859    -2871    -2885 
   -2902    -2919    -2936    -2956    -2977    -2995    -3013    -3030 
   -3049    -3076    -3106    -3137    -3170    -3205    -3237    -3263 
   -3286    -3308    -3328    -3344    -3356    -3366    -3374    -3383 
   -3389    -3390    -3386    -3377    -3361    -3340    -3314    -3292 
   -3272    -3249    -3226    -3209    -3190    -3169    -3149    -3129 
   -3104    -3078    -3051    -3025    -2998    -2972    -2954    -2934 
   -2912    -2891    -2868    -2844    -2824    -2807    -2795    -2782 
   -2769    -2760    -2751    -2738    -2724    -2709    -2690    -2676 
   -2666    -2658    -2656    -2661    -2664    -2666    -2674    -2686 
   -2697    -2710    -2732    -2762    -2795    -2832    -2874    -2921 
   -2971    -3026    -3087    -3142    -3193    -3249    -3304    -3358 
   -3416    -3480    -3540    -3592    -3642    -3687    -3724    -3754 
   -3782    -3805    -3822    -3832    -3829    -3818    -3802    -3777 
   -3740    -3697    -3649    -3594    -3536    -3476    -3412    -3340 
   -3262    -3184    -3109    -3037    -2966    -2892    -2821    -2750 
   -2676    -2603    -2534    -2469    -2410    -2354    -2299    -2252 
   -2211    -2174    -2143    -2119    -2097    -2081    -2072    -2065 
   -2067    -2081    -2096    -2113    -2143    -2182    -2225    -2273 
   -2327    -2384    -2445    -2512    -2582    -2650    -2719    -2786 
   -2853    -2913    -2970    -3031    -3093    -3153    -3217    -3279 
   -3338    -3394    -3440    -3480    -3515    -3547    -3586    -3615 
   -3634    -3652    -3656    -3655    -3660    -3664    -3659    -3647 
   -3626    -3602    -3575    -3542    -3507    -3469    -3428    -3393 
   -3366    -3337    -3305    -3271    -3232    -3194    -3160    -3134 
   -3114    -3091    -3067    -3042    -3019    -3000    -2982    -2960 
   -2933    -2902    -2880    -2872    -2857    -2840    -2833    -2826 
   -2818    -2815    -2810    -2801    -2780    -2753    -2737    -2733 
   -2732    -2725    -2713    -2706    -2704    -2698    -2692    -2687 
   -2681    -2672    -2667    -2669    -2669    -2668    -2671    -2672 
   -2671    -2673    -2680    -2685    -2680    -2668    -2662    -2662 
   -2660    -2652    -2637    -2619    -2600    -2585    -2570    -2557 
   -2545    -2526    -2503    -2484    -2471    -2458    -2450    -2449 
   -2451    -2453    -2455    -2454    -2455    -2465    -2483    -2504 
   -2529    -2560    -2595    -2635    -2678    -2724    -2770    -2817 
   -2869    -2927    -2985    -3040    -3092    -3142    -3190    -3240 
   -3291    -3338    -3379    -3419    -3459    -3500    -3542    -3582 
   -3614    -3638    -3658    -3677    -3692    -3696    -3692    -3684 
   -3669    -3654    -3643    -3623    -3595    -3568    -3536    -3494 
   -3448    -3405    -3363    -3324    -3289    -3253    -3211    -3169 
   -3125    -3074    -3017    -2964    -2913    -2864    -2820    -2778 
   -2738    -2700    -2666    -2632    -2598    -2566    -2538    -2512 
   -2490    -2475    -2468    -2464    -2465    -2475    -2490    -2507 
   -2527    -2552    -2583    -2616    -2644    -2676    -2718    -2767 
   -2820    -2870    -2923    -2981    -3041    -3099    -3150    -3195 
   -3239    -3285    -3334    -3386    -3434    -3473    -3507    -3540 
   -3566    -3582    -3591    -3595    -3586    -3564    -3535    -3502 
   -3464    -3425    -3381    -3333    -3283    -3232    -3175    -3115 
   -3060    -3005    -2945    -2878    -2810    -2745    -2681    -2616 
   -2556    -2496    -2439    -2395    -2358    -2321    -2292    -2272 
   -2255    -2239    -2229    -2228    -2229    -2234    -2249    -2270 
   -2297    -2333    -2376    -2416    -2456    -2504    -2551    -2593 
   -2640    -2691    -2745    -2807    -2874    -2944    -3011    -3074 
   -3132    -3182    -3227    -3276    -3325    -3366    -3404    -3443 
   -3480    -3509    -3533    -3557    -3576    -3596    -3616    -3635 
   -3651    -3668    -3680    -3686    -3693    -3703    -3706    -3705 
   -3706    -3707    -3707    -3706    -3702    -3692    -3678    -3667 
   -3662    -3658    -3649    -3638    -3624    -3603    -3575    -3544 
   -3514    -3482    -3441    -3398    -3355    -3308    -3256    -3204 
   -3157    -3112    -3068    -3023    -2970    -2916    -2863    -2812 
   -2766    -2729    -2694    -2658    -2628    -2603    -2569    -2534 
   -2507    -2485    -2470    -2463    -2456    -2449    -2446    -2452 
   -2466    -2485    -2511    -2543    -2578    -2614    -2652    -2692 
   -2727    -2764    -2809    -2853    -2891    -2931    -2979    -3028 
   -3073    -3116    -3153    -3186    -3220    -3251    -3277    -3305 
   -3335    -3360    -3374    -3379    -3377    -3375    -3376    -3373 
   -3358    -3334    -3306    -3271    -3240    -3211    -3177    -3136 
   -3090    -3038    -2984    -2930    -2875    -2822    -2775    -2735 
   -2696    -2651    -2600    -2551    -2511    -2478    -2454    -2431 
   -2400    -2371    -2352    -2335    -2323    -2319    -2319    -2326 
   -2343    -2366    -2392    -2421    -2451    -2485    -2521    -2558 
   -2599    -2646    -2701    -2763    -2828    -2892    -2954    -3012 
   -3071    -3136    -3205    -3273    -3334    -3391    -3442    -3485 
   -3528    -3572    -3613    -3649    -3681    -3709    -3731    -3740 
   -3747    -3757    -3757    -3747    -3734    -3715    -3690    -3657 
   -3619    -3579    -3533    -3481    -3425    -3364    -3293    -3217 
   -3136    -3050    -2964    -2880    -2794    -2708    -2622    -2534 
   -2447    -2364    -2283    -2202    -2121    -2045    -1976    -1916 
   -1867    -1832    -1805    -1778    -1754    -1741    -1736    -1740 
   -1755    -1780    -1816    -1866    -1925    -1987    -2056    -2134 
   -2222    -2316    -2407    -2508    -2620    -2736    -2863    -2998 
   -3127    -3252    -3377    -3495    -3611    -3730    -3840    -3939 
   -4034    -4130    -4225    -4314    -4391    -4456    -4510    -4555 
   -4590    -4612    -4621    -4619    -4603    -4574    -4536    -4491 
   -4439    -4380    -4316    -4240    -4155    -4066    -3974    -3879 
   -3777    -3667    -3550    -3428    -3307    -3191    -3080    -2974 
   -2873    -2771    -2671    -2578    -2487    -2401    -2322    -2249 
   -2182    -2125    -2077    -2032    -1993    -1963    -1939    -1922 
   -1912    -1908    -1912    -1925    -1940    -1960    -1986    -2022 
   -2065    -2112    -2163    -2215    -2265    -2319    -2379    -2443 
   -2513    -2583    -2650    -2717    -2783    -2845    -2903    -2960 
   -3019    -3080    -3137    -3189    -3237    -3277    -3314    -3355 
   -3394    -3425    -3452    -3471    -3480    -3483    -3487    -3489 
   -3486    -3477    -3462    -3440    -3410    -3376    -3338    -3300 
   -3260    -3217    -3174    -3131    -3084    -3036    -2986    -2935 
   -2884    -2833    -2776    -2720    -2669    -2622    -2581    -2547 
   -2514    -2482    -2457    -2441    -2423    -2406    -2396    -2391 
   -2389    -2393    -2402    -2412    -2427    -2451    -2482    -2521 
   -2565    -2611    -2658    -2708    -2762    -2821    -2881    -2940 
   -2998    -3057    -3117    -3179    -3246    -3315    -3383    -3449 
   -3507    -3557    -3603    -3642    -3677    -3712    -3744    -3765 
   -3778    -3785    -3788    -3785    -3777    -3759    -3726    -3683 
   -3635    -3585    -3536    -3488    -3434    -3371    -3304    -3234 
   -3154    -3069    -2982    -2891    -2795    -2700    -2607    -2516 
   -2427    -2336    -2248    -2163    -2086    -2013    -1945    -1885 
   -1836    -1794    -1762    -1738    -1722    -1713    -1714    -1728 
   -1752    -1783    -1823    -1873    -1927    -1986    -2053    -2125 
   -2199    -2280    -2368    -2460    -2552    -2648    -2751    -2858 
   -2967    -3069    -3161    -3244    -3321    -3400    -3481    -3560 
   -3633    -3697    -3748    -3792    -3831    -3859    -3878    -3898 
   -3917    -3927    -3924    -3914    -3896    -3868    -3836    -3799 
   -3759    -3720    -3680    -3636    -3594    -3550    -3496    -3434 
   -3369    -3301    -3233    -3162    -3090    -3024    -2961    -2895 
   -2828    -2756    -2678    -2604    -2535    -2474    -2428    -2390 
   -2350    -2310    -2271    -2233    -2197    -2160    -2126    -2101 
   -2080    -2063    -2052    -2047    -2049    -2053    -2057    -2065 
   -2079    -2103    -2136    -2177    -2225    -2276    -2325    -2379 
   -2441    -2515    -2597    -2683    -2771    -2857    -2939    -3022 
   -3107    -3191    -3273    -3356    -3435    -3509    -3579    -3638 
   -3694    -3750    -3795    -3831    -3868    -3901    -3930    -3956 
   -3972    -3978    -3976    -3966    -3944    -3914    -3879    -3836 
   -3788    -3736    -3677    -3617    -3561    -3497    -3427    -3356 
   -3284    -3209    -3130    -3054    -2987    -2920    -2855    -2797 
   -2736    -2673    -2613    -2558    -2508    -2467    -2430    -2396 
   -2365    -2336    -2313    -2299    -2295    -2297    -2304    -2316 
   -2327    -2337    -2347    -2360    -2389    -2428    -2465    -2504 
   -2544    -2588    -2635    -2683    -2735    -2788    -2842    -2897 
   -2945    -2991    -3038    -3082    -3124    -3168    -3210    -3251 
   -3288    -3317    -3344    -3366    -3387    -3409    -3427    -3438 
   -3442    -3446    -3441    -3426    -3411    -3399    -3381    -3359 
   -3337    -3315    -3285    -3250    -3215    -3177    -3138    -3096 
   -3048    -3002    -2955    -2907    -2862    -2812    -2765    -2724 
   -2679    -2635    -2598    -2563    -2531    -2507    -2486    -2466 
   -2449    -2438    -2429    -2422    -2420    -2420    -2420    -2423 
   -2435    -2454    -2473    -2495    -2518    -2542    -2572    -2610 
   -2647    -2685    -2727    -2770    -2811    -2849    -2886    -2923 
   -2958    -2991    -3021    -3050    -3081    -3111    -3133    -3153 
   -3170    -3184    -3196    -3206    -3209    -3210    -3212    -3208 
   -3196    -3182    -3165    -3145    -3122    -3100    -3080    -3060 
   -3041    -3021    -2999    -2978    -2959    -2937    -2912    -2892 
   -2879    -2867    -2856    -2849    -2844    -2838    -2831    -2826 
   -2825    -2827    -2833    -2844    -2859    -2877    -2897    -2920 
   -2943    -2969    -3000    -3028    -3059    -3093    -3124    -3156 
   -3191    -3226    -3258    -3287    -3315    -3342    -3366    -3386 
   -3404    -3419    -3431    -3440    -3447    -3452    -3452    -3448 
   -3442    -3433    -3420    -3404    -3385    -3364    -3340    -3315 
   -3289    -3263    -3236    -3209    -3183    -3156    -3126    -3096 
   -3064    -3031    -3001    -2972    -2945    -2920    -2894    -2866 
   -2841    -2817    -2791    -2771    -2755    -2741    -2731    -2722 
   -2714    -2710    -2709    -2709    -2709    -2711    -2718    -2722 
   -2727    -2734    -2743    -2758    -2776    -2793    -2811    -2829 
   -2845    -2863    -2883    -2902    -2920    -2938    -2957    -2975 
   -2988    -3002    -3020    -3037    -3047    -3057    -3067    -3072 
   -3079    -3087    -3091    -3095    -3100    -3101    -3100    -3101 
   -3101    -3099    -3097    -3095    -3090    -3090    -3092    -3092 
   -3093    -3097    -3099    -3101    -3103    -3103    -3105    -3107 
   -3105    -3100    -3097    -3096    -3092    -3082    -3072    -3063 
   -3050    -3031    -3009    -2990    -2972    -2953    -2932    -2911 
   -2891    -2869    -2842    -2815    -2788    -2760    -2732    -2706 
   -2682    -2657    -2632    -2608    -2590    -2576    -2562    -2546 
   -2532    -2524    -2516    -2510    -2513    -2522    -2532    -2546 
   -2565    -2582    -2598    -2617    -2639    -2661    -2684    -2708 
   -2733    -2759    -2784    -2810    -2835    -2855    -2876    -2895 
   -2909    -2924    -2937    -2945    -2957    -2971    -2980    -2988 
