Origin Time       2025/01/13 21:19:00
Lat.              31.8
Long.             131.6
Depth. (km)       30
Mag.              6.9
Station Code      FKIH01
Station Lat.      36.0955
Station Long.     136.3617
Station Height(m) 65
Record Time       2025/01/13 21:22:48
Sampling Freq(Hz) 100Hz
Duration Time(s)  120
Dir.              5
Scale Factor      7845(gal)/8223790
Max. Acc. (gal)   0.111
Last Correction   2025/01/13 21:22:49
Memo.             
[...]
   -8090    -8089    -8087    -8090    -8090    -8090    -8090    -8090 
   -8091    -8091    -8090    -8093    -8094    -8093    -8090    -8090 
   -8093    -8094    -8094    -8097    -8100    -8102    -8104    -8104 
   -8106    -8109    -8109    -8113    -8116    -8113    -8113    -8116 
   -8113    -8112    -8114    -8117    -8117    -8117    -8117    -8120 
   -8125    -8131    -8132    -8131    -8131    -8135    -8136    -8132 
   -8129    -8129    -8129    -8128    -8128    -8129    -8129    -8129 
   -8127    -8127    -8125    -8124    -8124    -8117    -8113    -8116 
   -8114    -8113    -8112    -8108    -8108    -8109    -8109    -8109 
   -8110    -8110    -8110    -8112    -8114    -8114    -8114    -8113 
   -8108    -8106    -8104    -8102    -8100    -8095    -8094    -8094 
   -8091    -8091    -8093    -8095    -8098    -8102    -8105    -8106 
   -8108    -8108    -8109    -8112    -8109    -8108    -8106    -8104 
   -8102    -8101    -8097    -8095    -8097    -8095    -8095    -8100 
   -8101    -8101    -8101    -8100    -8101    -8105    -8105    -8102 
   -8102    -8101    -8097    -8094    -8094    -8097    -8098    -8095 
   -8095    -8095    -8095    -8095    -8100    -8101    -8100    -8098 
   -8094    -8087    -8082    -8079    -8077    -8070    -8066    -8063 
   -8059    -8063    -8064    -8059    -8056    -8059    -8058    -8059 
   -8060    -8059    -8059    -8060    -8059    -8060    -8060    -8059 
   -8055    -8054    -8055    -8054    -8050    -8048    -8050    -8048 
   -8047    -8048    -8050    -8050    -8048    -8050    -8051    -8052 
   -8058    -8063    -8064    -8066    -8070    -8075    -8079    -8082 
   -8087    -8089    -8090    -8093    -8094    -8094    -8094    -8093 
   -8091    -8089    -8085    -8085    -8083    -8083    -8085    -8089 
   -8091    -8093    -8095    -8098    -8102    -8106    -8108    -8108 
   -8108    -8106    -8109    -8110    -8108    -8106    -8104    -8100 
   -8098    -8098    -8094    -8095    -8098    -8098    -8098    -8097 
   -8098    -8100    -8100    -8102    -8106    -8108    -8108    -8108 
   -8106    -8108    -8110    -8112    -8112    -8112    -8113    -8114 
   -8114    -8116    -8114    -8113    -8114    -8114    -8112    -8109 
   -8108    -8105    -8105    -8104    -8104    -8106    -8108    -8110 
   -8112    -8113    -8116    -8120    -8122    -8127    -8129    -8129 
   -8131    -8133    -8133    -8131    -8129    -8131    -8129    -8127 
   -8124    -8122    -8121    -8117    -8114    -8114    -8112    -8109 
   -8110    -8110    -8109    -8110    -8112    -8113    -8114    -8117 
   -8118    -8118    -8117    -8116    -8117    -8116    -8113    -8112 
   -8109    -8105    -8104    -8101    -8097    -8094    -8093    -8093 
   -8091    -8089    -8090    -8094    -8094    -8093    -8095    -8100 
   -8100    -8100    -8098    -8100    -8104    -8104    -8100    -8100 
   -8100    -8097    -8094    -8094    -8093    -8089    -8086    -8083 
   -8082    -8081    -8081    -8082    -8083    -8085    -8085    -8085 
   -8082    -8083    -8087    -8085    -8083    -8083    -8083    -8083 
   -8083    -8085    -8085    -8083    -8083    -8082    -8081    -8081 
   -8082    -8083    -8082    -8081    -8082    -8082    -8081    -8082 
   -8081    -8079    -8082    -8085    -8083    -8083    -8083    -8086 
   -8087    -8085    -8082    -8079    -8078    -8079    -8079    -8081 
   -8079    -8077    -8075    -8073    -8071    -8073    -8074    -8075 
   -8078    -8078    -8078    -8081    -8082    -8083    -8087    -8091 
   -8093    -8094    -8095    -8097    -8098    -8097    -8095    -8094 
   -8090    -8085    -8081    -8078    -8073    -8068    -8068    -8064 
   -8059    -8056    -8055    -8054    -8054    -8055    -8052    -8052 
   -8056    -8058    -8055    -8058    -8059    -8056    -8055    -8052 
   -8050    -8046    -8044    -8041    -8037    -8033    -8035    -8035 
   -8033    -8033    -8036    -8040    -8041    -8044    -8048    -8048 
   -8050    -8056    -8060    -8063    -8066    -8067    -8071    -8074 
   -8075    -8081    -8087    -8090    -8094    -8097    -8095    -8094 
   -8098    -8101    -8100    -8101    -8105    -8106    -8106    -8110 
   -8112    -8116    -8121    -8124    -8124    -8127    -8128    -8127 
   -8127    -8129    -8127    -8121    -8117    -8110    -8108    -8106 
   -8101    -8095    -8091    -8087    -8085    -8085    -8083    -8081 
   -8081    -8082    -8083    -8085    -8089    -8091    -8091    -8093 
   -8091    -8091    -8091    -8089    -8085    -8081    -8078    -8074 
   -8068    -8066    -8063    -8060    -8058    -8055    -8054    -8050 
   -8046    -8047    -8046    -8043    -8043    -8044    -8044    -8044 
   -8047    -8050    -8052    -8054    -8055    -8059    -8067    -8071 
   -8073    -8075    -8079    -8079    -8078    -8082    -8083    -8079 
   -8079    -8081    -8079    -8081    -8081    -8077    -8078    -8082 
   -8085    -8086    -8089    -8091    -8094    -8097    -8098    -8098 
   -8101    -8102    -8102    -8101    -8102    -8104    -8101    -8097 
   -8094    -8089    -8085    -8082    -8081    -8079    -8077    -8078 
   -8079    -8077    -8081    -8085    -8085    -8086    -8089    -8089 
   -8091    -8091    -8087    -8087    -8086    -8082    -8083    -8085 
   -8078    -8075    -8074    -8070    -8067    -8063    -8060    -8058 
   -8052    -8048    -8046    -8043    -8041    -8043    -8043    -8043 
   -8043    -8044    -8044    -8043    -8044    -8041    -8039    -8037 
   -8037    -8036    -8032    -8029    -8029    -8027    -8024    -8027 
   -8027    -8025    -8025    -8027    -8032    -8039    -8040    -8043 
   -8048    -8054    -8055    -8056    -8058    -8059    -8063    -8067 
   -8066    -8068    -8074    -8074    -8073    -8077    -8081    -8083 
   -8086    -8086    -8085    -8085    -8086    -8083    -8081    -8078 
   -8075    -8073    -8068    -8066    -8066    -8066    -8064    -8063 
   -8064    -8068    -8070    -8071    -8074    -8073    -8071    -8074 
   -8077    -8075    -8071    -8070    -8070    -8067    -8067    -8070 
   -8071    -8070    -8070    -8071    -8073    -8075    -8077    -8079 
   -8078    -8078    -8079    -8078    -8075    -8071    -8066    -8064 
   -8062    -8056    -8054    -8051    -8048    -8047    -8046    -8043 
   -8040    -8039    -8037    -8037    -8036    -8033    -8029    -8029 
   -8029    -8028    -8031    -8032    -8029    -8028    -8031    -8033 
   -8033    -8035    -8036    -8037    -8037    -8040    -8043    -8044 
   -8047    -8048    -8050    -8051    -8051    -8051    -8052    -8054 
   -8058    -8060    -8060    -8060    -8062    -8066    -8074    -8078 
   -8079    -8083    -8087    -8089    -8091    -8094    -8098    -8101 
   -8102    -8106    -8112    -8112    -8112    -8113    -8113    -8116 
   -8116    -8118    -8122    -8125    -8128    -8131    -8133    -8139 
   -8143    -8145    -8149    -8152    -8155    -8162    -8163    -8160 
   -8159    -8156    -8152    -8151    -8149    -8147    -8144    -8144 
   -8140    -8133    -8135    -8139    -8139    -8140    -8144    -8144 
   -8143    -8145    -8149    -8152    -8151    -8148    -8148    -8148 
   -8147    -8144    -8144    -8144    -8141    -8137    -8136    -8135 
   -8132    -8125    -8121    -8121    -8116    -8108    -8106    -8104 
   -8098    -8095    -8093    -8089    -8086    -8086    -8085    -8085 
   -8085    -8081    -8079    -8079    -8073    -8067    -8066    -8060 
   -8052    -8050    -8047    -8040    -8033    -8028    -8025    -8024 
   -8021    -8017    -8014    -8014    -8017    -8017    -8016    -8017 
   -8017    -8017    -8023    -8024    -8023    -8025    -8027    -8027 
   -8031    -8036    -8037    -8040    -8044    -8048    -8051    -8055 
   -8062    -8068    -8070    -8073    -8078    -8078    -8079    -8083 
   -8086    -8090    -8094    -8100    -8104    -8106    -8112    -8118 
   -8121    -8127    -8132    -8136    -8140    -8141    -8141    -8143 
   -8143    -8141    -8140    -8137    -8133    -8129    -8131    -8135 
   -8136    -8137    -8137    -8137    -8139    -8140    -8141    -8143 
   -8141    -8139    -8135    -8132    -8131    -8128    -8125    -8122 
   -8118    -8116    -8112    -8109    -8108    -8104    -8100    -8097 
   -8095    -8093    -8094    -8097    -8094    -8091    -8090    -8089 
   -8089    -8087    -8087    -8089    -8086    -8085    -8085    -8081 
   -8077    -8075    -8073    -8068    -8063    -8058    -8054    -8050 
   -8048    -8050    -8047    -8047    -8048    -8047    -8048    -8051 
   -8050    -8048    -8050    -8048    -8044    -8040    -8037    -8033 
   -8029    -8024    -8021    -8021    -8019    -8014    -8012    -8009 
   -8009    -8012    -8012    -8013    -8016    -8016    -8017    -8021 
   -8020    -8021    -8023    -8023    -8021    -8023    -8027    -8027 
   -8025    -8027    -8027    -8027    -8027    -8031    -8032    -8035 
   -8036    -8037    -8037    -8039    -8037    -8035    -8037    -8040 
   -8040    -8040    -8041    -8040    -8041    -8043    -8044    -8047 
   -8048    -8050    -8051    -8050    -8046    -8048    -8052    -8050 
   -8048    -8050    -8051    -8051    -8054    -8055    -8056    -8060 
   -8063    -8063    -8066    -8070    -8070    -8068    -8070    -8071 
   -8071    -8071    -8070    -8067    -8067    -8067    -8064    -8066 
   -8067    -8067    -8066    -8063    -8060    -8060    -8063    -8064 
   -8063    -8063    -8064    -8066    -8066    -8064    -8067    -8071 
   -8073    -8074    -8078    -8081    -8083    -8086    -8086    -8091 
   -8095    -8094    -8094    -8095    -8094    -8090    -8090    -8090 
   -8090    -8090    -8089    -8089    -8093    -8094    -8097    -8104 
   -8113    -8117    -8121    -8127    -8131    -8132    -8133    -8135 
   -8137    -8137    -8137    -8136    -8133    -8133    -8133    -8135 
   -8135    -8135    -8136    -8140    -8141    -8144    -8151    -8155 
   -8155    -8158    -8163    -8166    -8167    -8167    -8166    -8163 
   -8162    -8159    -8156    -8152    -8145    -8140    -8139    -8140 
   -8136    -8131    -8128    -8125    -8122    -8122    -8121    -8120 
   -8120    -8116    -8112    -8110    -8110    -8106    -8105    -8104 
   -8100    -8100    -8101    -8100    -8101    -8102    -8104    -8102 
   -8101    -8104    -8106    -8106    -8105    -8104    -8104    -8104 
   -8101    -8097    -8094    -8094    -8093    -8093    -8093    -8094 
   -8095    -8094    -8094    -8094    -8090    -8086    -8086    -8085 
   -8081    -8078    -8075    -8073    -8073    -8073    -8071    -8067 
   -8068    -8073    -8074    -8073    -8073    -8075    -8078    -8077 
   -8077    -8078    -8078    -8079    -8081    -8075    -8073    -8074 
   -8071    -8067    -8066    -8066    -8062    -8056    -8055    -8054 
   -8054    -8051    -8048    -8048    -8047    -8043    -8039    -8040 
   -8039    -8036    -8036    -8033    -8032    -8031    -8029    -8029 
   -8028    -8027    -8025    -8025    -8025    -8024    -8021    -8021 
   -8021    -8020    -8023    -8024    -8023    -8024    -8027    -8031 
   -8035    -8036    -8033    -8037    -8043    -8043    -8043    -8047 
   -8048    -8050    -8052    -8054    -8056    -8062    -8063    -8064 
   -8068    -8073    -8077    -8081    -8082    -8082    -8085    -8086 
   -8087    -8090    -8090    -8090    -8095    -8102    -8100    -8100 
   -8106    -8110    -8113    -8116    -8120    -8124    -8124    -8124 
   -8125    -8128    -8131    -8131    -8129    -8133    -8132    -8128 
   -8129    -8131    -8125    -8125    -8122    -8118    -8118    -8118 
   -8116    -8114    -8113    -8110    -8108    -8109    -8109    -8109 
   -8108    -8106    -8105    -8102    -8104    -8106    -8106    -8104 
   -8104    -8105    -8106    -8102    -8098    -8100    -8098    -8098 
   -8101    -8104    -8101    -8098    -8101    -8102    -8104    -8106 
   -8106    -8108    -8108    -8105    -8106    -8104    -8101    -8102 
   -8102    -8102    -8102    -8104    -8102    -8104    -8105    -8105 
   -8104    -8102    -8100    -8097    -8097    -8094    -8094    -8094 
   -8094    -8093    -8091    -8089    -8086    -8085    -8085    -8081 
   -8075    -8073    -8071    -8067    -8062    -8062    -8059    -8056 
   -8056    -8056    -8054    -8051    -8048    -8047    -8046    -8043 
   -8041    -8040    -8039    -8039    -8039    -8033    -8031    -8031 
   -8029    -8025    -8025    -8027    -8023    -8023    -8024    -8021 
   -8017    -8017    -8014    -8013    -8013    -8012    -8009    -8008 
   -8006    -8005    -8006    -8010    -8012    -8013    -8016    -8019 
   -8023    -8028    -8028    -8031    -8037    -8040    -8043    -8047 
   -8048    -8051    -8055    -8058    -8064    -8070    -8074    -8079 
   -8082    -8085    -8091    -8098    -8105    -8109    -8112    -8114 
   -8120    -8124    -8129    -8135    -8137    -8136    -8139    -8144 
   -8143    -8143    -8148    -8149    -8151    -8155    -8158    -8159 
   -8163    -8167    -8168    -8170    -8172    -8174    -8176    -8179 
   -8181    -8178    -8178    -8179    -8179    -8175    -8168    -8162 
   -8159    -8156    -8149    -8144    -8140    -8133    -8127    -8124 
   -8121    -8113    -8108    -8104    -8095    -8087    -8085    -8079 
   -8073    -8064    -8054    -8046    -8040    -8032    -8024    -8019 
   -8016    -8012    -8010    -8010    -8006    -8005    -8005    -8001 
   -7997    -7993    -7989    -7986    -7985    -7982    -7977    -7973 
   -7973    -7970    -7969    -7973    -7975    -7975    -7978    -7979 
   -7982    -7985    -7989    -7990    -7992    -7993    -7994    -7993 
   -7994    -7997    -7998    -8000    -7998    -8000    -8002    -8004 
   -8005    -8009    -8016    -8019    -8021    -8027    -8029    -8032 
   -8036    -8039    -8039    -8039    -8039    -8039    -8037    -8037 
   -8040    -8040    -8037    -8037    -8041    -8040    -8040    -8044 
   -8046    -8046    -8048    -8048    -8048    -8054    -8056    -8059 
   -8064    -8067    -8068    -8071    -8077    -8077    -8075    -8077 
   -8081    -8081    -8079    -8082    -8085    -8083    -8082    -8083 
   -8085    -8087    -8090    -8090    -8093    -8094    -8095    -8097 
   -8095    -8097    -8100    -8100    -8097    -8100    -8100    -8097 
   -8097    -8098    -8097    -8097    -8101    -8101    -8100    -8102 
   -8104    -8105    -8106    -8110    -8110    -8108    -8109    -8109 
   -8108    -8109    -8110    -8109    -8109    -8110    -8110    -8112 
   -8112    -8112    -8114    -8116    -8116    -8117    -8117    -8118 
   -8117    -8117    -8117    -8113    -8110    -8109    -8106    -8105 
   -8104    -8104    -8106    -8106    -8105    -8105    -8104    -8106 
   -8108    -8108    -8108    -8108    -8105    -8101    -8101    -8101 
   -8097    -8095    -8093    -8093    -8093    -8090    -8089    -8091 
   -8093    -8089    -8087    -8086    -8087    -8086    -8085    -8082 
   -8081    -8079    -8077    -8074    -8071    -8074    -8075    -8073 
   -8073    -8077    -8075    -8073    -8078    -8081    -8079    -8079 
   -8078    -8079    -8082    -8083    -8085    -8083    -8083    -8086 
   -8086    -8087    -8091    -8093    -8094    -8097    -8098    -8101 
   -8102    -8101    -8105    -8106    -8108    -8110    -8110    -8109 
   -8113    -8113    -8113    -8118    -8121    -8120    -8121    -8122 
   -8121    -8122    -8121    -8120    -8120    -8118    -8114    -8112 
   -8112    -8108    -8102    -8101    -8100    -8095    -8094    -8094 
   -8097    -8097    -8091    -8090    -8093    -8097    -8095    -8093 
   -8091    -8090    -8089    -8089    -8086    -8082    -8082    -8082 
   -8081    -8078    -8081    -8081    -8079    -8079    -8078    -8079 
   -8082    -8085    -8085    -8085    -8086    -8091    -8095    -8095 
   -8095    -8098    -8100    -8100    -8100    -8101    -8102    -8105 
   -8104    -8102    -8104    -8102    -8101    -8104    -8105    -8105 
   -8106    -8106    -8108    -8109    -8105    -8104    -8106    -8105 
   -8101    -8100    -8100    -8101    -8097    -8093    -8089    -8090 
   -8090    -8089    -8090    -8089    -8089    -8091    -8093    -8090 
   -8091    -8093    -8093    -8094    -8097    -8097    -8097    -8097 
   -8098    -8101    -8102    -8101    -8101    -8102    -8104    -8102 
   -8104    -8106    -8108    -8108    -8106    -8105    -8106    -8108 
   -8106    -8108    -8108    -8106    -8104    -8104    -8105    -8106 
   -8108    -8109    -8110    -8112    -8113    -8114    -8117    -8117 
   -8113    -8113    -8116    -8113    -8109    -8108    -8104    -8097 
   -8093    -8091    -8085    -8079    -8079    -8078    -8073    -8068 
   -8066    -8064    -8063    -8060    -8059    -8059    -8056    -8054 
   -8054    -8052    -8048    -8043    -8040    -8039    -8035    -8031 
   -8031    -8025    -8020    -8021    -8019    -8014    -8013    -8014 
   -8014    -8013    -8014    -8019    -8020    -8020    -8021    -8025 
   -8027    -8029    -8037    -8040    -8039    -8043    -8044    -8041 
   -8043    -8048    -8048    -8051    -8055    -8055    -8055    -8058 
   -8059    -8063    -8070    -8075    -8079    -8086    -8093    -8097 
   -8101    -8105    -8109    -8113    -8116    -8117    -8120    -8121 
   -8118    -8120    -8121    -8120    -8120    -8121    -8122    -8122 
   -8121    -8121    -8125    -8127    -8128    -8128    -8129    -8132 
   -8136    -8137    -8140    -8141    -8141    -8143    -8145    -8144 
   -8141    -8140    -8140    -8139    -8139    -8136    -8132    -8131 
   -8131    -8129    -8128    -8127    -8124    -8122    -8121    -8118 
   -8117    -8118    -8118    -8120    -8118    -8117    -8117    -8116 
   -8116    -8117    -8117    -8114    -8113    -8110    -8108    -8105 
   -8104    -8100    -8097    -8095    -8095    -8094    -8095    -8098 
   -8101    -8100    -8101    -8104    -8104    -8102    -8102    -8100 
   -8100    -8098    -8095    -8093    -8090    -8086    -8083    -8081 
   -8075    -8074    -8071    -8068    -8068    -8067    -8066    -8067 
   -8067    -8064    -8062    -8060    -8060    -8059    -8055    -8054 
   -8051    -8044    -8039    -8037    -8037    -8035    -8031    -8028 
   -8021    -8019    -8020    -8020    -8019    -8019    -8017    -8016 
   -8017    -8019    -8020    -8020    -8021    -8023    -8027    -8031 
   -8032    -8036    -8039    -8039    -8040    -8040    -8041    -8043 
   -8046    -8046    -8047    -8048    -8048    -8050    -8052    -8054 
   -8054    -8055    -8059    -8064    -8068    -8070    -8071    -8075 
   -8077    -8078    -8083    -8082    -8079    -8083    -8083    -8082 
   -8085    -8086    -8085    -8085    -8085    -8087    -8089    -8087 
   -8087    -8090    -8093    -8093    -8093    -8097    -8098    -8097 
   -8101    -8104    -8102    -8104    -8106    -8105    -8104    -8106 
   -8109    -8109    -8109    -8110    -8113    -8113    -8110    -8110 
   -8113    -8114    -8116    -8116    -8116    -8118    -8124    -8128 
   -8129    -8133    -8136    -8136    -8137    -8140    -8139    -8136 
   -8135    -8136    -8135    -8133    -8132    -8132    -8132    -8132 
   -8135    -8133    -8137    -8143    -8141    -8141    -8144    -8143 
   -8139    -8141    -8139    -8135    -8133    -8129    -8124    -8120 
   -8113    -8108    -8106    -8102    -8097    -8094    -8094    -8091 
