Origin Time       2025/01/13 21:19:00
Lat.              31.8
Long.             131.6
Depth. (km)       30
Mag.              6.9
Station Code      FKIH07
Station Lat.      35.4573
Station Long.     135.7266
Station Height(m) 43
Record Time       2025/01/13 21:22:18
Sampling Freq(Hz) 100Hz
Duration Time(s)  120
Dir.              5
Scale Factor      3920(gal)/6170801
Max. Acc. (gal)   0.156
Last Correction   2025/01/13 21:22:03
Memo.             
[...]
  -19302   -19308   -19309   -19302   -19292   -19275   -19257   -19243 
  -19232   -19224   -19218   -19213   -19210   -19207   -19205   -19206 
  -19210   -19221   -19239   -19267   -19299   -19327   -19346   -19361 
  -19371   -19374   -19372   -19365   -19351   -19332   -19312   -19289 
  -19263   -19237   -19212   -19190   -19170   -19156   -19151   -19149 
  -19151   -19159   -19171   -19184   -19196   -19207   -19215   -19222 
  -19229   -19234   -19235   -19233   -19229   -19224   -19219   -19213 
  -19210   -19207   -19206   -19211   -19222   -19237   -19255   -19276 
  -19296   -19310   -19320   -19329   -19337   -19340   -19338   -19334 
  -19326   -19318   -19313   -19310   -19305   -19299   -19292   -19286 
  -19281   -19276   -19271   -19269   -19267   -19261   -19255   -19251 
  -19245   -19237   -19227   -19217   -19210   -19206   -19206   -19213 
  -19221   -19228   -19239   -19252   -19262   -19269   -19276   -19279 
  -19279   -19277   -19273   -19266   -19261   -19251   -19239   -19227 
  -19213   -19202   -19199   -19203   -19210   -19218   -19226   -19236 
  -19247   -19258   -19270   -19277   -19281   -19283   -19282   -19283 
  -19284   -19283   -19281   -19280   -19281   -19283   -19284   -19287 
  -19290   -19291   -19294   -19298   -19295   -19290   -19284   -19276 
  -19268   -19259   -19251   -19247   -19245   -19247   -19253   -19261 
  -19269   -19278   -19288   -19301   -19314   -19322   -19327   -19325 
  -19315   -19301   -19289   -19277   -19258   -19235   -19216   -19200 
  -19187   -19187   -19196   -19208   -19226   -19250   -19267   -19279 
  -19288   -19295   -19299   -19303   -19306   -19309   -19311   -19307 
  -19297   -19284   -19273   -19267   -19270   -19277   -19288   -19302 
  -19312   -19317   -19315   -19311   -19306   -19302   -19300   -19295 
  -19290   -19286   -19278   -19270   -19264   -19261   -19259   -19257 
  -19255   -19252   -19246   -19239   -19233   -19230   -19230   -19232 
  -19237   -19243   -19248   -19254   -19261   -19267   -19271   -19270 
  -19268   -19268   -19274   -19283   -19292   -19300   -19304   -19306 
  -19307   -19305   -19302   -19298   -19294   -19292   -19290   -19286 
  -19281   -19274   -19267   -19260   -19257   -19261   -19266   -19277 
  -19294   -19307   -19318   -19328   -19334   -19336   -19334   -19327 
  -19316   -19306   -19296   -19287   -19278   -19272   -19265   -19257 
  -19250   -19243   -19235   -19227   -19219   -19212   -19205   -19205 
  -19212   -19217   -19225   -19235   -19241   -19247   -19260   -19272 
  -19284   -19293   -19294   -19289   -19283   -19276   -19268   -19260 
  -19257   -19255   -19253   -19254   -19253   -19249   -19243   -19239 
  -19239   -19244   -19251   -19256   -19262   -19264   -19262   -19261 
  -19262   -19262   -19262   -19263   -19265   -19273   -19280   -19284 
  -19288   -19292   -19296   -19298   -19299   -19298   -19297   -19297 
  -19296   -19295   -19295   -19293   -19290   -19287   -19279   -19266 
  -19250   -19235   -19226   -19224   -19225   -19230   -19237   -19241 
  -19244   -19252   -19261   -19270   -19279   -19284   -19285   -19283 
  -19281   -19277   -19273   -19271   -19267   -19263   -19263   -19265 
  -19264   -19262   -19265   -19270   -19275   -19280   -19283   -19279 
  -19276   -19271   -19264   -19256   -19247   -19243   -19242   -19241 
  -19244   -19253   -19259   -19263   -19263   -19258   -19255   -19259 
  -19263   -19268   -19273   -19276   -19280   -19288   -19295   -19298 
  -19298   -19297   -19296   -19296   -19296   -19294   -19292   -19293 
  -19295   -19300   -19307   -19313   -19315   -19312   -19310   -19311 
  -19316   -19326   -19336   -19344   -19350   -19351   -19350   -19346 
  -19340   -19335   -19328   -19320   -19316   -19311   -19304   -19296 
  -19290   -19282   -19274   -19270   -19268   -19266   -19267   -19268 
  -19264   -19259   -19256   -19250   -19244   -19240   -19238   -19238 
  -19235   -19228   -19221   -19214   -19208   -19201   -19196   -19196 
  -19199   -19204   -19212   -19220   -19227   -19236   -19245   -19248 
  -19248   -19251   -19254   -19251   -19249   -19245   -19235   -19226 
  -19217   -19208   -19204   -19205   -19207   -19216   -19227   -19232 
  -19236   -19243   -19252   -19257   -19260   -19263   -19265   -19268 
  -19268   -19272   -19279   -19286   -19294   -19301   -19303   -19300 
  -19292   -19279   -19267   -19259   -19254   -19251   -19249   -19247 
  -19246   -19249   -19252   -19255   -19261   -19269   -19276   -19282 
  -19286   -19289   -19292   -19291   -19287   -19281   -19274   -19264 
  -19252   -19241   -19232   -19225   -19222   -19221   -19219   -19224 
  -19231   -19236   -19241   -19246   -19250   -19254   -19262   -19268 
  -19272   -19275   -19277   -19278   -19277   -19276   -19272   -19266 
  -19259   -19252   -19244   -19237   -19232   -19225   -19216   -19209 
  -19206   -19208   -19212   -19222   -19234   -19246   -19260   -19273 
  -19283   -19292   -19297   -19300   -19305   -19308   -19308   -19307 
  -19302   -19292   -19282   -19272   -19263   -19260   -19262   -19269 
  -19275   -19280   -19284   -19286   -19288   -19291   -19295   -19299 
  -19303   -19306   -19308   -19309   -19305   -19295   -19279   -19264 
  -19256   -19253   -19256   -19264   -19275   -19284   -19287   -19288 
  -19284   -19274   -19265   -19259   -19255   -19253   -19252   -19252 
  -19250   -19244   -19236   -19227   -19216   -19209   -19206   -19205 
  -19209   -19217   -19225   -19232   -19234   -19231   -19223   -19213 
  -19208   -19210   -19212   -19217   -19224   -19227   -19227   -19224 
  -19219   -19217   -19216   -19217   -19222   -19228   -19234   -19242 
  -19250   -19255   -19256   -19255   -19252   -19245   -19234   -19225 
  -19220   -19215   -19209   -19204   -19201   -19197   -19195   -19193 
  -19193   -19195   -19198   -19197   -19196   -19197   -19196   -19195 
  -19198   -19206   -19215   -19226   -19244   -19262   -19277   -19291 
  -19305   -19316   -19327   -19336   -19341   -19340   -19337   -19334 
  -19329   -19320   -19310   -19298   -19289   -19287   -19289   -19291 
  -19291   -19286   -19279   -19273   -19269   -19265   -19259   -19250 
  -19240   -19227   -19214   -19208   -19204   -19198   -19191   -19186 
  -19184   -19183   -19186   -19190   -19196   -19204   -19214   -19223 
  -19232   -19240   -19248   -19255   -19261   -19265   -19268   -19270 
  -19269   -19264   -19258   -19253   -19246   -19236   -19228   -19220 
  -19209   -19199   -19187   -19173   -19161   -19149   -19135   -19124 
  -19117   -19103   -19090   -19088   -19087   -19085   -19088   -19093 
  -19099   -19108   -19115   -19120   -19126   -19135   -19144   -19156 
  -19172   -19184   -19197   -19211   -19220   -19228   -19232   -19233 
  -19235   -19233   -19229   -19224   -19215   -19201   -19188   -19178 
  -19169   -19162   -19156   -19154   -19155   -19157   -19162   -19169 
  -19179   -19195   -19213   -19233   -19255   -19275   -19288   -19293 
  -19292   -19285   -19277   -19270   -19262   -19257   -19255   -19253 
  -19252   -19252   -19255   -19257   -19259   -19262   -19263   -19266 
  -19276   -19285   -19288   -19295   -19310   -19320   -19323   -19328 
  -19332   -19327   -19325   -19330   -19335   -19334   -19336   -19341 
  -19339   -19333   -19330   -19320   -19312   -19311   -19310   -19310 
  -19315   -19321   -19320   -19318   -19317   -19316   -19314   -19314 
  -19315   -19315   -19313   -19309   -19305   -19298   -19293   -19293 
  -19293   -19295   -19297   -19298   -19300   -19304   -19307   -19309 
  -19309   -19305   -19301   -19297   -19290   -19282   -19275   -19265 
  -19250   -19235   -19224   -19216   -19207   -19199   -19195   -19191 
  -19191   -19199   -19205   -19209   -19209   -19206   -19206   -19205 
  -19202   -19200   -19202   -19204   -19206   -19207   -19209   -19208 
  -19210   -19219   -19227   -19236   -19246   -19252   -19253   -19253 
  -19251   -19247   -19242   -19238   -19237   -19237   -19241   -19243 
  -19244   -19246   -19248   -19250   -19251   -19251   -19252   -19253 
  -19252   -19253   -19254   -19253   -19253   -19249   -19242   -19239 
  -19237   -19237   -19240   -19244   -19249   -19256   -19263   -19270 
  -19277   -19284   -19292   -19298   -19305   -19312   -19315   -19316 
  -19318   -19320   -19318   -19314   -19308   -19297   -19288   -19281 
  -19274   -19273   -19279   -19286   -19293   -19299   -19302   -19298 
  -19289   -19281   -19274   -19270   -19270   -19270   -19273   -19279 
  -19280   -19281   -19281   -19275   -19270   -19267   -19261   -19259 
  -19262   -19262   -19262   -19264   -19263   -19256   -19247   -19237 
  -19224   -19212   -19203   -19194   -19187   -19182   -19177   -19172 
  -19169   -19168   -19171   -19177   -19186   -19196   -19208   -19223 
  -19236   -19246   -19254   -19261   -19266   -19270   -19275   -19279 
  -19279   -19275   -19269   -19264   -19261   -19262   -19264   -19271 
  -19279   -19287   -19294   -19299   -19302   -19306   -19304   -19299 
  -19296   -19291   -19285   -19281   -19277   -19274   -19276   -19279 
  -19283   -19288   -19291   -19292   -19292   -19295   -19299   -19303 
  -19307   -19310   -19315   -19317   -19317   -19318   -19318   -19318 
  -19321   -19324   -19324   -19326   -19324   -19318   -19311   -19302 
  -19290   -19280   -19270   -19261   -19254   -19248   -19245   -19242 
  -19239   -19236   -19230   -19221   -19213   -19204   -19192   -19182 
  -19178   -19176   -19179   -19190   -19204   -19219   -19236   -19248 
  -19259   -19271   -19282   -19290   -19295   -19298   -19299   -19292 
  -19284   -19278   -19271   -19268   -19267   -19271   -19277   -19288 
  -19302   -19316   -19327   -19335   -19339   -19338   -19336   -19332 
  -19325   -19318   -19311   -19304   -19299   -19295   -19293   -19290 
  -19284   -19279   -19272   -19265   -19259   -19253   -19248   -19248 
  -19250   -19251   -19255   -19264   -19273   -19281   -19288   -19296 
  -19305   -19312   -19319   -19325   -19330   -19335   -19336   -19335 
  -19333   -19329   -19322   -19318   -19317   -19313   -19310   -19310 
  -19310   -19310   -19314   -19319   -19319   -19316   -19313   -19310 
  -19306   -19303   -19301   -19300   -19302   -19302   -19301   -19301 
  -19297   -19290   -19281   -19273   -19263   -19255   -19250   -19244 
  -19241   -19241   -19240   -19241   -19246   -19251   -19258   -19263 
  -19265   -19264   -19264   -19260   -19254   -19245   -19236   -19228 
  -19219   -19210   -19202   -19192   -19181   -19171   -19163   -19159 
  -19160   -19163   -19161   -19160   -19164   -19168   -19172   -19178 
  -19183   -19189   -19199   -19206   -19210   -19214   -19215   -19216 
  -19214   -19210   -19209   -19208   -19204   -19205   -19208   -19206 
  -19201   -19198   -19192   -19185   -19182   -19182   -19187   -19199 
  -19212   -19225   -19236   -19243   -19246   -19249   -19249   -19246 
  -19243   -19239   -19235   -19230   -19222   -19210   -19196   -19183 
  -19170   -19160   -19155   -19154   -19159   -19166   -19175   -19188 
  -19199   -19205   -19209   -19207   -19201   -19195   -19195   -19197 
  -19198   -19198   -19199   -19202   -19206   -19210   -19216   -19224 
  -19230   -19240   -19250   -19255   -19257   -19264   -19271   -19276 
  -19281   -19283   -19280   -19275   -19266   -19257   -19253   -19250 
  -19251   -19251   -19248   -19245   -19242   -19237   -19234   -19236 
  -19239   -19243   -19246   -19244   -19238   -19230   -19217   -19202 
  -19189   -19176   -19163   -19156   -19153   -19150   -19149   -19148 
  -19149   -19153   -19156   -19157   -19160   -19167   -19174   -19180 
  -19186   -19192   -19190   -19184   -19177   -19170   -19162   -19151 
  -19142   -19137   -19133   -19131   -19133   -19138   -19142   -19148 
  -19157   -19172   -19184   -19193   -19201   -19206   -19208   -19210 
  -19215   -19222   -19226   -19228   -19228   -19232   -19237   -19241 
  -19246   -19255   -19263   -19268   -19268   -19264   -19257   -19247 
  -19241   -19234   -19224   -19214   -19206   -19195   -19181   -19170 
  -19163   -19158   -19153   -19148   -19148   -19151   -19160   -19174 
  -19192   -19215   -19237   -19256   -19274   -19291   -19303   -19315 
  -19326   -19331   -19331   -19328   -19323   -19313   -19302   -19294 
  -19289   -19285   -19288   -19296   -19304   -19314   -19323   -19331 
  -19339   -19348   -19353   -19354   -19356   -19359   -19359   -19354 
  -19349   -19344   -19338   -19333   -19326   -19319   -19316   -19312 
  -19307   -19306   -19303   -19297   -19293   -19288   -19281   -19277 
  -19275   -19275   -19276   -19279   -19286   -19294   -19301   -19306 
  -19309   -19308   -19304   -19298   -19291   -19279   -19267   -19255 
  -19243   -19228   -19213   -19202   -19192   -19177   -19166   -19160 
  -19155   -19154   -19159   -19169   -19177   -19183   -19192   -19199 
  -19204   -19210   -19213   -19216   -19219   -19220   -19220   -19220 
  -19218   -19216   -19216   -19219   -19222   -19228   -19238   -19247 
  -19254   -19261   -19268   -19268   -19267   -19265   -19262   -19258 
  -19255   -19249   -19243   -19237   -19231   -19221   -19213   -19206 
  -19199   -19195   -19191   -19183   -19171   -19157   -19143   -19130 
  -19121   -19115   -19110   -19103   -19098   -19095   -19093   -19094 
  -19097   -19101   -19101   -19100   -19099   -19098   -19096   -19094 
  -19091   -19088   -19084   -19080   -19078   -19076   -19071   -19066 
  -19059   -19052   -19045   -19036   -19027   -19022   -19015   -19006 
  -19004   -19004   -19002   -19003   -19008   -19014   -19022   -19034 
  -19048   -19062   -19075   -19088   -19101   -19115   -19130   -19148 
  -19162   -19170   -19175   -19182   -19186   -19191   -19197   -19200 
  -19201   -19202   -19201   -19200   -19203   -19207   -19212   -19222 
  -19233   -19248   -19267   -19287   -19301   -19311   -19320   -19326 
  -19330   -19333   -19334   -19330   -19326   -19321   -19316   -19312 
  -19308   -19304   -19300   -19299   -19303   -19307   -19312   -19322 
  -19332   -19338   -19339   -19342   -19340   -19331   -19323   -19321 
  -19321   -19323   -19328   -19336   -19345   -19356   -19367   -19376 
  -19384   -19389   -19390   -19390   -19391   -19389   -19384   -19373 
  -19357   -19341   -19327   -19314   -19304   -19297   -19293   -19291 
  -19288   -19288   -19292   -19290   -19286   -19286   -19285   -19283 
  -19283   -19282   -19278   -19271   -19266   -19261   -19255   -19249 
  -19247   -19245   -19241   -19238   -19238   -19238   -19238   -19239 
  -19244   -19252   -19257   -19260   -19265   -19267   -19268   -19271 
  -19274   -19276   -19278   -19278   -19281   -19283   -19278   -19272 
  -19267   -19261   -19256   -19252   -19247   -19247   -19250   -19254 
  -19258   -19262   -19260   -19256   -19251   -19245   -19237   -19230 
  -19229   -19231   -19231   -19232   -19233   -19231   -19228   -19227 
  -19228   -19230   -19234   -19242   -19251   -19260   -19267   -19270 
  -19270   -19269   -19268   -19264   -19260   -19256   -19252   -19248 
  -19241   -19230   -19219   -19211   -19200   -19185   -19172   -19159 
  -19146   -19136   -19129   -19123   -19121   -19120   -19119   -19121 
  -19128   -19136   -19145   -19158   -19171   -19183   -19195   -19204 
  -19210   -19213   -19215   -19215   -19217   -19220   -19221   -19220 
  -19218   -19215   -19211   -19204   -19196   -19192   -19188   -19184 
  -19183   -19181   -19178   -19172   -19166   -19160   -19152   -19144 
  -19140   -19139   -19140   -19142   -19146   -19151   -19155   -19157 
  -19158   -19157   -19155   -19152   -19153   -19155   -19156   -19157 
  -19162   -19169   -19181   -19197   -19211   -19225   -19244   -19262 
  -19280   -19298   -19312   -19321   -19327   -19330   -19328   -19323 
  -19317   -19311   -19303   -19295   -19287   -19282   -19282   -19282 
  -19281   -19284   -19292   -19299   -19305   -19312   -19321   -19329 
  -19335   -19340   -19343   -19342   -19339   -19337   -19334   -19334 
  -19334   -19332   -19329   -19327   -19323   -19316   -19313   -19311 
  -19309   -19310   -19310   -19308   -19308   -19308   -19304   -19302 
  -19299   -19296   -19294   -19290   -19283   -19277   -19267   -19254 
  -19241   -19228   -19213   -19200   -19190   -19181   -19172   -19167 
  -19163   -19162   -19163   -19160   -19159   -19161   -19159   -19157 
  -19157   -19156   -19153   -19147   -19143   -19138   -19131   -19123 
  -19111   -19100   -19093   -19085   -19076   -19076   -19078   -19081 
  -19088   -19100   -19112   -19122   -19130   -19139   -19143   -19143 
  -19144   -19146   -19145   -19144   -19147   -19150   -19152   -19158 
  -19166   -19172   -19179   -19191   -19199   -19205   -19214   -19221 
  -19220   -19218   -19217   -19212   -19207   -19204   -19202   -19199 
  -19198   -19201   -19209   -19217   -19226   -19239   -19253   -19266 
  -19281   -19294   -19300   -19305   -19312   -19317   -19318   -19319 
  -19318   -19313   -19306   -19301   -19295   -19285   -19282   -19282 
  -19280   -19281   -19283   -19283   -19282   -19281   -19277   -19273 
  -19271   -19264   -19257   -19254   -19255   -19259   -19266   -19274 
  -19283   -19293   -19303   -19312   -19318   -19324   -19332   -19340 
  -19344   -19349   -19354   -19356   -19357   -19361   -19369   -19375 
  -19382   -19391   -19400   -19406   -19413   -19417   -19418   -19412 
  -19403   -19393   -19381   -19367   -19356   -19346   -19338   -19335 
  -19333   -19330   -19327   -19321   -19317   -19317   -19316   -19313 
  -19312   -19309   -19302   -19292   -19280   -19267   -19254   -19243 
  -19234   -19228   -19225   -19223   -19222   -19225   -19230   -19235 
  -19238   -19237   -19234   -19230   -19227   -19224   -19220   -19214 
  -19205   -19192   -19176   -19159   -19141   -19126   -19116   -19106 
  -19100   -19101   -19103   -19108   -19115   -19124   -19134   -19145 
  -19155   -19166   -19175   -19185   -19198   -19207   -19215   -19224 
  -19230   -19234   -19238   -19238   -19238   -19240   -19237   -19232 
  -19230   -19229   -19226   -19226   -19228   -19230   -19230   -19233 
  -19236   -19237   -19240   -19246   -19252   -19259   -19269   -19281 
  -19294   -19307   -19319   -19331   -19341   -19351   -19358   -19364 
  -19372   -19376   -19379   -19384   -19388   -19390   -19392   -19391 
  -19387   -19382   -19376   -19369   -19362   -19355   -19347   -19342 
  -19338   -19333   -19327   -19323   -19317   -19310   -19303   -19299 
  -19295   -19286   -19276   -19267   -19258   -19248   -19240   -19235 
  -19230   -19227   -19225   -19224   -19226   -19234   -19243   -19250 
  -19260   -19275   -19288   -19296   -19303   -19308   -19311   -19313 
  -19312   -19308   -19304   -19298   -19286   -19272   -19257   -19241 
  -19224   -19208   -19189   -19171   -19155   -19143   -19131   -19120 
  -19112   -19106   -19102   -19097   -19096   -19096   -19099   -19104 
  -19108   -19116   -19128   -19138   -19149   -19162   -19174   -19184 
  -19194   -19203   -19209   -19213   -19215   -19214   -19208   -19198 
  -19188   -19179   -19168   -19158   -19149   -19142   -19134   -19128 
  -19124   -19122   -19122   -19124   -19130   -19138   -19144   -19154 
  -19167   -19181   -19194   -19207   -19219   -19230   -19240   -19248 
  -19259   -19268   -19272   -19276   -19279   -19282   -19287   -19295 
  -19304   -19313   -19321   -19327   -19332   -19340   -19351   -19356 
