Origin Time       2025/01/13 21:19:00
Lat.              31.8
Long.             131.6
Depth. (km)       30
Mag.              6.9
Station Code      FKIH02
Station Lat.      35.9483
Station Long.     136.0556
Station Height(m) 120
Record Time       2025/01/13 21:22:35
Sampling Freq(Hz) 100Hz
Duration Time(s)  120
Dir.              6
Scale Factor      7845(gal)/8223790
Max. Acc. (gal)   0.120
Last Correction   2025/01/13 21:22:37
Memo.             
[...]
  -26015   -26019   -26018   -26017   -26019   -26021   -26019   -26019 
  -26019   -26017   -26017   -26017   -26015   -26018   -26019   -26018 
  -26017   -26017   -26015   -26015   -26015   -26013   -26010   -26007 
  -26005   -26003   -26002   -25999   -25992   -25990   -25988   -25984 
  -25982   -25982   -25978   -25972   -25969   -25969   -25967   -25963 
  -25961   -25959   -25957   -25955   -25949   -25947   -25945   -25942 
  -25938   -25938   -25937   -25936   -25933   -25932   -25932   -25932 
  -25933   -25930   -25926   -25925   -25925   -25926   -25926   -25925 
  -25925   -25928   -25928   -25926   -25929   -25932   -25933   -25934 
  -25934   -25933   -25933   -25936   -25937   -25937   -25940   -25942 
  -25942   -25947   -25948   -25951   -25956   -25959   -25960   -25961 
  -25964   -25968   -25974   -25978   -25980   -25980   -25984   -25988 
  -25991   -25992   -25994   -25994   -25995   -25996   -25996   -25998 
  -26003   -26009   -26013   -26015   -26018   -26018   -26021   -26023 
  -26026   -26028   -26026   -26026   -26029   -26030   -26030   -26033 
  -26037   -26037   -26036   -26036   -26034   -26037   -26036   -26036 
  -26040   -26041   -26040   -26041   -26040   -26037   -26036   -26034 
  -26036   -26037   -26034   -26032   -26032   -26029   -26028   -26030 
  -26032   -26034   -26032   -26028   -26029   -26029   -26028   -26028 
  -26026   -26022   -26021   -26023   -26021   -26017   -26017   -26017 
  -26015   -26014   -26013   -26014   -26015   -26015   -26013   -26011 
  -26010   -26009   -26006   -26005   -26003   -25999   -25998   -25998 
  -25995   -25990   -25991   -25994   -25990   -25987   -25987   -25987 
  -25984   -25983   -25983   -25982   -25979   -25976   -25975   -25975 
  -25975   -25972   -25971   -25967   -25964   -25965   -25964   -25959 
  -25957   -25956   -25953   -25949   -25945   -25942   -25941   -25941 
  -25941   -25941   -25942   -25940   -25938   -25937   -25934   -25936 
  -25937   -25936   -25933   -25933   -25930   -25930   -25929   -25930 
  -25934   -25932   -25926   -25929   -25932   -25932   -25930   -25930 
  -25933   -25934   -25932   -25933   -25936   -25936   -25934   -25934 
  -25932   -25930   -25930   -25929   -25928   -25929   -25929   -25930 
  -25932   -25933   -25932   -25929   -25929   -25929   -25926   -25925 
  -25922   -25921   -25920   -25915   -25913   -25911   -25909   -25906 
  -25905   -25903   -25905   -25905   -25903   -25899   -25899   -25902 
  -25905   -25906   -25907   -25909   -25910   -25910   -25914   -25917 
  -25917   -25917   -25917   -25917   -25917   -25915   -25917   -25918 
  -25915   -25918   -25924   -25924   -25922   -25922   -25922   -25928 
  -25932   -25933   -25933   -25936   -25941   -25945   -25945   -25947 
  -25948   -25951   -25953   -25955   -25957   -25959   -25960   -25960 
  -25959   -25960   -25964   -25968   -25969   -25971   -25972   -25974 
  -25974   -25974   -25975   -25975   -25978   -25982   -25980   -25980 
  -25984   -25984   -25984   -25988   -25991   -25992   -25994   -25995 
  -25994   -25996   -25999   -25999   -25998   -25998   -26001   -26002 
  -26002   -26005   -26009   -26010   -26009   -26010   -26013   -26014 
  -26015   -26017   -26014   -26013   -26014   -26015   -26014   -26014 
  -26017   -26018   -26017   -26018   -26018   -26019   -26021   -26021 
  -26021   -26023   -26022   -26019   -26021   -26021   -26019   -26021 
  -26021   -26021   -26021   -26021   -26026   -26028   -26026   -26026 
  -26025   -26026   -26030   -26032   -26032   -26032   -26033   -26034 
  -26034   -26034   -26036   -26036   -26036   -26036   -26034   -26037 
  -26038   -26037   -26036   -26034   -26034   -26034   -26034   -26033 
  -26032   -26030   -26033   -26036   -26033   -26032   -26034   -26030 
  -26028   -26028   -26026   -26023   -26022   -26019   -26017   -26014 
  -26011   -26009   -26006   -26003   -25999   -25999   -25998   -25995 
  -25994   -25990   -25986   -25983   -25980   -25978   -25976   -25975 
  -25971   -25968   -25965   -25961   -25960   -25959   -25953   -25952 
  -25949   -25947   -25944   -25941   -25937   -25937   -25938   -25937 
  -25936   -25930   -25926   -25926   -25925   -25924   -25926   -25921 
  -25915   -25915   -25915   -25913   -25914   -25911   -25911   -25911 
  -25910   -25910   -25911   -25910   -25910   -25913   -25914   -25917 
  -25921   -25924   -25924   -25925   -25926   -25926   -25926   -25929 
  -25930   -25930   -25933   -25932   -25932   -25937   -25937   -25933 
  -25933   -25934   -25937   -25941   -25938   -25937   -25940   -25940 
  -25941   -25942   -25942   -25942   -25944   -25945   -25945   -25949 
  -25952   -25951   -25949   -25949   -25949   -25951   -25951   -25951 
  -25949   -25951   -25955   -25959   -25957   -25957   -25959   -25961 
  -25963   -25967   -25968   -25969   -25969   -25969   -25971   -25972 
  -25975   -25975   -25976   -25976   -25978   -25979   -25979   -25975 
  -25974   -25976   -25976   -25976   -25976   -25978   -25979   -25978 
  -25974   -25975   -25974   -25971   -25969   -25969   -25967   -25965 
  -25964   -25963   -25960   -25956   -25953   -25952   -25951   -25949 
  -25947   -25945   -25944   -25941   -25938   -25934   -25933   -25932 
  -25933   -25932   -25929   -25926   -25925   -25924   -25921   -25920 
  -25920   -25921   -25918   -25915   -25915   -25914   -25913   -25911 
  -25910   -25910   -25910   -25909   -25909   -25910   -25910   -25907 
  -25906   -25906   -25907   -25906   -25905   -25905   -25903   -25903 
  -25903   -25903   -25905   -25905   -25906   -25911   -25913   -25913 
  -25915   -25915   -25914   -25914   -25920   -25922   -25921   -25918 
  -25918   -25920   -25921   -25924   -25926   -25928   -25928   -25928 
  -25929   -25933   -25936   -25940   -25942   -25944   -25945   -25949 
  -25953   -25956   -25959   -25961   -25964   -25965   -25968   -25971 
  -25972   -25974   -25979   -25984   -25986   -25986   -25986   -25988 
  -25991   -25995   -25999   -26001   -26005   -26006   -26006   -26009 
  -26013   -26014   -26014   -26015   -26013   -26013   -26015   -26018 
  -26019   -26023   -26023   -26022   -26021   -26021   -26019   -26018 
  -26021   -26021   -26019   -26019   -26021   -26019   -26019   -26019 
  -26021   -26023   -26023   -26023   -26025   -26028   -26029   -26029 
  -26028   -26026   -26026   -26029   -26030   -26030   -26029   -26029 
  -26030   -26032   -26030   -26030   -26030   -26030   -26034   -26034 
  -26032   -26033   -26036   -26036   -26037   -26044   -26042   -26038 
  -26042   -26048   -26049   -26052   -26053   -26052   -26050   -26050 
  -26052   -26056   -26057   -26060   -26059   -26056   -26056   -26056 
  -26057   -26060   -26060   -26063   -26061   -26057   -26060   -26060 
  -26056   -26055   -26053   -26050   -26050   -26049   -26048   -26046 
  -26048   -26049   -26046   -26044   -26044   -26044   -26042   -26044 
  -26042   -26038   -26037   -26036   -26034   -26030   -26026   -26025 
  -26022   -26017   -26014   -26011   -26007   -26005   -26001   -25998 
  -25994   -25986   -25982   -25978   -25974   -25969   -25965   -25961 
  -25956   -25949   -25945   -25941   -25936   -25932   -25925   -25920 
  -25917   -25911   -25910   -25911   -25905   -25898   -25895   -25895 
  -25894   -25890   -25887   -25886   -25883   -25883   -25886   -25886 
  -25887   -25886   -25883   -25883   -25884   -25884   -25884   -25886 
  -25888   -25888   -25888   -25888   -25890   -25893   -25893   -25893 
  -25895   -25899   -25901   -25901   -25907   -25913   -25914   -25918 
  -25921   -25925   -25929   -25933   -25938   -25941   -25944   -25952 
  -25959   -25960   -25965   -25971   -25974   -25975   -25982   -25988 
  -25990   -25992   -25999   -26001   -26002   -26007   -26011   -26013 
  -26015   -26017   -26018   -26025   -26032   -26034   -26032   -26032 
  -26036   -26036   -26034   -26036   -26036   -26034   -26034   -26033 
  -26030   -26029   -26026   -26023   -26022   -26021   -26021   -26018 
  -26017   -26015   -26015   -26011   -26007   -26005   -26002   -26001 
  -25999   -25995   -25992   -25990   -25987   -25984   -25982   -25979 
  -25978   -25975   -25972   -25971   -25967   -25964   -25964   -25965 
  -25965   -25967   -25965   -25964   -25964   -25964   -25963   -25964 
  -25967   -25967   -25968   -25971   -25971   -25968   -25968   -25969 
  -25971   -25971   -25971   -25969   -25969   -25972   -25975   -25975 
  -25975   -25975   -25975   -25976   -25976   -25975   -25972   -25972 
  -25974   -25975   -25974   -25974   -25974   -25974   -25972   -25974 
  -25976   -25975   -25975   -25979   -25982   -25979   -25980   -25984 
  -25984   -25983   -25982   -25986   -25988   -25988   -25988   -25990 
  -25987   -25984   -25987   -25988   -25987   -25987   -25988   -25990 
  -25986   -25987   -25991   -25987   -25982   -25982   -25984   -25984 
  -25984   -25980   -25978   -25976   -25974   -25971   -25967   -25964 
  -25961   -25961   -25959   -25952   -25949   -25947   -25942   -25937 
  -25936   -25934   -25930   -25926   -25922   -25918   -25915   -25910 
  -25903   -25901   -25898   -25897   -25893   -25887   -25883   -25880 
  -25875   -25871   -25870   -25866   -25863   -25861   -25860   -25856 
  -25853   -25855   -25853   -25848   -25849   -25849   -25847   -25845 
  -25845   -25844   -25847   -25848   -25848   -25852   -25856   -25856 
  -25855   -25856   -25859   -25860   -25860   -25864   -25867   -25866 
  -25870   -25876   -25882   -25887   -25891   -25893   -25898   -25903 
  -25909   -25913   -25918   -25924   -25926   -25928   -25933   -25941 
  -25944   -25944   -25947   -25951   -25955   -25957   -25961   -25965 
  -25968   -25971   -25975   -25982   -25984   -25987   -25991   -25991 
  -25991   -25995   -26001   -26005   -26005   -26003   -26006   -26007 
  -26007   -26011   -26013   -26011   -26014   -26018   -26019   -26018 
  -26017   -26021   -26022   -26021   -26022   -26025   -26026   -26026 
  -26026   -26026   -26028   -26028   -26026   -26026   -26026   -26028 
  -26026   -26028   -26029   -26029   -26029   -26030   -26032   -26034 
  -26036   -26037   -26038   -26038   -26038   -26038   -26036   -26036 
  -26036   -26036   -26034   -26032   -26029   -26032   -26029   -26023 
  -26025   -26023   -26021   -26021   -26017   -26014   -26015   -26011 
  -26007   -26007   -26003   -25998   -25996   -25992   -25991   -25990 
  -25987   -25986   -25986   -25982   -25976   -25975   -25972   -25969 
  -25968   -25967   -25965   -25960   -25959   -25959   -25959   -25959 
  -25960   -25959   -25960   -25961   -25961   -25963   -25964   -25964 
  -25967   -25967   -25965   -25968   -25968   -25965   -25967   -25969 
  -25971   -25971   -25971   -25974   -25975   -25975   -25976   -25980 
  -25979   -25978   -25980   -25984   -25987   -25987   -25984   -25986 
  -25990   -25988   -25987   -25988   -25988   -25991   -25992   -25991 
  -25988   -25990   -25988   -25986   -25987   -25988   -25987   -25986 
  -25984   -25982   -25982   -25980   -25978   -25974   -25971   -25971 
  -25971   -25965   -25964   -25964   -25960   -25956   -25951   -25947 
  -25945   -25941   -25938   -25937   -25933   -25929   -25925   -25922 
  -25921   -25918   -25914   -25911   -25910   -25910   -25909   -25909 
  -25905   -25903   -25905   -25905   -25905   -25903   -25901   -25903 
  -25905   -25903   -25906   -25910   -25909   -25910   -25915   -25918 
  -25920   -25921   -25924   -25926   -25929   -25932   -25936   -25938 
  -25938   -25942   -25945   -25948   -25951   -25953   -25955   -25956 
  -25961   -25965   -25965   -25967   -25969   -25971   -25974   -25975 
  -25976   -25980   -25978   -25975   -25979   -25980   -25980   -25980 
  -25978   -25979   -25979   -25979   -25982   -25980   -25978   -25978 
  -25979   -25978   -25976   -25974   -25972   -25969   -25971   -25972 
  -25969   -25968   -25969   -25969   -25969   -25971   -25972   -25969 
  -25967   -25968   -25968   -25968   -25971   -25974   -25971   -25969 
  -25969   -25967   -25965   -25964   -25964   -25963   -25960   -25961 
  -25961   -25957   -25957   -25957   -25955   -25953   -25951   -25949 
  -25948   -25948   -25948   -25945   -25945   -25945   -25942   -25942 
  -25944   -25942   -25944   -25947   -25944   -25941   -25945   -25948 
  -25947   -25949   -25949   -25947   -25948   -25948   -25947   -25948 
  -25949   -25951   -25951   -25951   -25948   -25947   -25952   -25953 
  -25952   -25952   -25955   -25953   -25953   -25956   -25957   -25959 
  -25961   -25963   -25964   -25963   -25961   -25961   -25961   -25959 
  -25961   -25963   -25963   -25963   -25960   -25960   -25961   -25959 
  -25959   -25959   -25956   -25955   -25955   -25951   -25949   -25948 
  -25945   -25947   -25951   -25949   -25949   -25951   -25952   -25953 
  -25955   -25953   -25953   -25952   -25953   -25957   -25961   -25961 
  -25963   -25965   -25968   -25968   -25968   -25971   -25974   -25975 
  -25976   -25976   -25978   -25979   -25983   -25984   -25986   -25988 
  -25990   -25991   -25991   -25992   -25996   -25999   -25999   -26002 
  -26006   -26007   -26010   -26011   -26011   -26013   -26013   -26013 
  -26014   -26015   -26017   -26021   -26022   -26022   -26023   -26026 
  -26026   -26026   -26029   -26032   -26033   -26034   -26033   -26036 
  -26040   -26042   -26048   -26050   -26049   -26052   -26056   -26057 
  -26063   -26065   -26067   -26071   -26075   -26079   -26080   -26080 
  -26083   -26088   -26091   -26091   -26092   -26095   -26094   -26092 
  -26094   -26094   -26094   -26096   -26096   -26094   -26094   -26094 
  -26094   -26092   -26088   -26090   -26091   -26087   -26086   -26090 
  -26087   -26084   -26086   -26083   -26077   -26075   -26072   -26068 
  -26067   -26061   -26053   -26050   -26050   -26044   -26038   -26034 
  -26030   -26025   -26021   -26015   -26007   -26003   -25999   -25994 
  -25988   -25984   -25978   -25969   -25964   -25961   -25955   -25945 
  -25938   -25932   -25926   -25922   -25917   -25910   -25905   -25898 
  -25893   -25891   -25887   -25880   -25876   -25874   -25870   -25867 
  -25864   -25861   -25856   -25852   -25851   -25851   -25848   -25845 
  -25845   -25844   -25845   -25847   -25844   -25845   -25848   -25847 
  -25848   -25853   -25853   -25851   -25855   -25859   -25861   -25866 
  -25867   -25866   -25871   -25876   -25878   -25880   -25887   -25891 
  -25893   -25895   -25898   -25905   -25913   -25914   -25915   -25921 
  -25926   -25929   -25930   -25934   -25938   -25940   -25944   -25949 
  -25951   -25952   -25957   -25959   -25957   -25959   -25960   -25961 
  -25963   -25965   -25964   -25963   -25967   -25968   -25967   -25967 
  -25967   -25967   -25968   -25969   -25968   -25968   -25968   -25968 
  -25969   -25968   -25965   -25965   -25965   -25963   -25963   -25963 
  -25961   -25959   -25957   -25957   -25956   -25955   -25951   -25949 
  -25949   -25948   -25945   -25945   -25947   -25942   -25941   -25940 
  -25938   -25937   -25936   -25937   -25936   -25933   -25934   -25934 
  -25929   -25928   -25930   -25928   -25928   -25928   -25929   -25932 
  -25929   -25925   -25928   -25929   -25925   -25925   -25928   -25930 
  -25932   -25929   -25928   -25930   -25930   -25929   -25928   -25928 
  -25928   -25924   -25922   -25921   -25921   -25926   -25925   -25922 
  -25924   -25924   -25922   -25924   -25924   -25922   -25926   -25929 
  -25926   -25925   -25928   -25930   -25930   -25933   -25936   -25937 
  -25938   -25942   -25945   -25948   -25951   -25952   -25952   -25955 
  -25956   -25957   -25959   -25960   -25961   -25964   -25964   -25965 
  -25969   -25972   -25972   -25975   -25978   -25978   -25976   -25980 
  -25982   -25982   -25983   -25986   -25986   -25984   -25988   -25991 
  -25988   -25990   -25994   -25995   -25991   -25994   -25996   -25995 
  -25994   -25995   -25998   -25998   -25996   -25996   -25994   -25994 
  -25996   -25996   -25994   -25991   -25992   -25990   -25988   -25988 
  -25988   -25986   -25984   -25986   -25987   -25983   -25979   -25979 
  -25980   -25979   -25975   -25976   -25979   -25976   -25975   -25976 
  -25976   -25978   -25976   -25976   -25980   -25983   -25982   -25983 
  -25986   -25984   -25984   -25987   -25988   -25988   -25992   -25995 
  -25995   -25994   -25995   -25999   -25998   -25995   -25996   -25996 
  -25998   -26001   -26001   -25998   -25998   -25999   -25998   -25998 
  -26001   -26001   -25998   -25996   -25996   -25995   -25991   -25991 
  -25992   -25990   -25987   -25988   -25990   -25988   -25988   -25987 
  -25984   -25984   -25984   -25980   -25979   -25980   -25979   -25979 
  -25976   -25971   -25974   -25974   -25972   -25974   -25972   -25969 
  -25968   -25968   -25965   -25967   -25969   -25968   -25965   -25964 
  -25964   -25964   -25964   -25964   -25964   -25963   -25963   -25963 
  -25963   -25963   -25960   -25961   -25963   -25961   -25961   -25961 
  -25961   -25959   -25957   -25960   -25961   -25957   -25955   -25955 
  -25955   -25953   -25957   -25957   -25956   -25957   -25959   -25959 
  -25957   -25959   -25961   -25961   -25960   -25963   -25965   -25967 
  -25967   -25965   -25965   -25967   -25971   -25974   -25972   -25971 
  -25972   -25974   -25978   -25978   -25975   -25975   -25978   -25979 
  -25979   -25980   -25982   -25982   -25979   -25978   -25980   -25982 
  -25982   -25983   -25982   -25979   -25978   -25979   -25979   -25979 
  -25979   -25976   -25976   -25975   -25974   -25975   -25976   -25974 
  -25969   -25969   -25967   -25968   -25969   -25968   -25968   -25968 
  -25967   -25968   -25968   -25965   -25964   -25965   -25967   -25964 
  -25961   -25960   -25956   -25952   -25952   -25952   -25951   -25948 
  -25945   -25945   -25945   -25944   -25942   -25941   -25942   -25945 
  -25945   -25941   -25938   -25938   -25937   -25936   -25936   -25936 
  -25936   -25936   -25933   -25932   -25933   -25936   -25937   -25934 
  -25932   -25932   -25933   -25934   -25934   -25933   -25932   -25932 
  -25933   -25932   -25930   -25932   -25934   -25933   -25933   -25932 
  -25929   -25932   -25933   -25930   -25932   -25934   -25936   -25937 
  -25937   -25933   -25933   -25934   -25937   -25936   -25933   -25934 
  -25937   -25936   -25936   -25936   -25934   -25934   -25936   -25933 
  -25933   -25934   -25936   -25934   -25933   -25932   -25933   -25936 
  -25938   -25938   -25940   -25941   -25941   -25941   -25942   -25947 
  -25951   -25955   -25955   -25955   -25956   -25959   -25961   -25961 
  -25963   -25964   -25967   -25968   -25969   -25971   -25975   -25980 
  -25984   -25984   -25983   -25984   -25987   -25991   -25994   -25995 
  -25996   -25999   -25998   -25999   -26003   -26006   -26006   -26006 
  -26006   -26006   -26009   -26010   -26007   -26006   -26006   -26007 
  -26009   -26009   -26007   -26007   -26010   -26013   -26013   -26010 
  -26009   -26009   -26010   -26010   -26010   -26010   -26011   -26011 
  -26009   -26006   -26007   -26009   -26006   -26005   -26005   -26003 
  -26002   -26001   -25999   -26003   -26002   -25998   -25998   -25998 
  -25996   -25995   -25994   -25994   -25996   -25996   -25994   -25994 
  -25992   -25991   -25994   -25996   -25995   -25992   -25991   -25994 
  -25995   -25995   -25994   -25994   -25995   -25992   -25995   -25998 
  -25998   -25995   -25998   -25999   -25996   -25996   -25996   -25998 
