Origin Time       2025/01/13 21:19:00
Lat.              31.8
Long.             131.6
Depth. (km)       30
Mag.              6.9
Station Code      FKIH07
Station Lat.      35.4573
Station Long.     135.7266
Station Height(m) -61.5
Record Time       2025/01/13 21:22:18
Sampling Freq(Hz) 100Hz
Duration Time(s)  120
Dir.              1
Scale Factor      2940(gal)/6170270
Max. Acc. (gal)   0.190
Last Correction   2025/01/13 21:22:03
Memo.             
[...]
  -27534   -27534   -27536   -27536   -27536   -27538   -27540   -27541 
  -27542   -27544   -27545   -27546   -27546   -27546   -27549   -27553 
  -27556   -27559   -27563   -27568   -27572   -27575   -27578   -27579 
  -27581   -27584   -27586   -27590   -27592   -27592   -27596   -27598 
  -27596   -27595   -27595   -27592   -27593   -27595   -27594   -27591 
  -27589   -27589   -27591   -27590   -27590   -27593   -27595   -27594 
  -27595   -27595   -27595   -27595   -27593   -27592   -27593   -27591 
  -27588   -27587   -27585   -27584   -27582   -27579   -27576   -27575 
  -27570   -27565   -27563   -27562   -27558   -27556   -27554   -27550 
  -27549   -27552   -27552   -27551   -27551   -27552   -27553   -27553 
  -27554   -27555   -27557   -27558   -27559   -27561   -27563   -27564 
  -27566   -27568   -27569   -27571   -27571   -27571   -27571   -27569 
  -27567   -27566   -27565   -27565   -27566   -27565   -27563   -27563 
  -27563   -27558   -27554   -27555   -27552   -27550   -27550   -27550 
  -27551   -27550   -27547   -27547   -27549   -27549   -27547   -27546 
  -27545   -27545   -27544   -27544   -27544   -27544   -27545   -27544 
  -27542   -27541   -27542   -27545   -27545   -27545   -27547   -27549 
  -27550   -27550   -27550   -27551   -27552   -27551   -27550   -27551 
  -27552   -27556   -27558   -27559   -27564   -27569   -27570   -27574 
  -27581   -27586   -27590   -27594   -27596   -27599   -27604   -27607 
  -27609   -27612   -27617   -27622   -27625   -27629   -27635   -27640 
  -27644   -27649   -27652   -27653   -27656   -27660   -27661   -27659 
  -27660   -27661   -27658   -27656   -27655   -27651   -27647   -27643 
  -27637   -27632   -27629   -27626   -27621   -27616   -27612   -27610 
  -27606   -27602   -27602   -27600   -27596   -27595   -27595   -27590 
  -27585   -27585   -27585   -27582   -27580   -27580   -27577   -27575 
  -27574   -27573   -27574   -27574   -27572   -27572   -27574   -27575 
  -27574   -27576   -27577   -27575   -27575   -27577   -27578   -27578 
  -27578   -27580   -27582   -27581   -27580   -27580   -27583   -27584 
  -27582   -27580   -27578   -27577   -27578   -27575   -27571   -27571 
  -27570   -27566   -27560   -27557   -27555   -27551   -27548   -27546 
  -27542   -27541   -27542   -27542   -27540   -27540   -27539   -27537 
  -27539   -27543   -27546   -27548   -27550   -27554   -27556   -27558 
  -27560   -27562   -27565   -27566   -27569   -27574   -27578   -27581 
  -27585   -27587   -27588   -27591   -27592   -27591   -27592   -27592 
  -27590   -27588   -27589   -27588   -27585   -27582   -27579   -27576 
  -27576   -27575   -27570   -27567   -27566   -27562   -27559   -27555 
  -27552   -27549   -27548   -27547   -27545   -27541   -27541   -27539 
  -27535   -27533   -27532   -27530   -27529   -27527   -27524   -27522 
  -27522   -27523   -27522   -27520   -27521   -27523   -27524   -27527 
  -27532   -27532   -27534   -27538   -27540   -27544   -27549   -27551 
  -27554   -27560   -27563   -27566   -27570   -27573   -27575   -27578 
  -27583   -27587   -27588   -27592   -27597   -27597   -27597   -27598 
  -27599   -27599   -27596   -27593   -27594   -27597   -27596   -27594 
  -27595   -27596   -27595   -27595   -27597   -27598   -27596   -27594 
  -27594   -27593   -27593   -27597   -27596   -27595   -27597   -27598 
  -27598   -27600   -27601   -27600   -27598   -27598   -27601   -27602 
  -27603   -27606   -27606   -27603   -27606   -27608   -27606   -27604 
  -27603   -27603   -27605   -27605   -27605   -27606   -27606   -27605 
  -27606   -27606   -27605   -27606   -27606   -27604   -27605   -27605 
  -27604   -27605   -27606   -27607   -27606   -27606   -27606   -27606 
  -27606   -27606   -27605   -27604   -27602   -27601   -27599   -27597 
  -27596   -27596   -27595   -27591   -27590   -27591   -27591   -27587 
  -27585   -27585   -27584   -27582   -27582   -27584   -27584   -27583 
  -27582   -27582   -27583   -27584   -27583   -27583   -27585   -27586 
  -27585   -27584   -27583   -27582   -27581   -27580   -27579   -27578 
  -27578   -27577   -27574   -27572   -27570   -27567   -27565   -27563 
  -27561   -27558   -27556   -27555   -27553   -27553   -27552   -27552 
  -27554   -27555   -27554   -27555   -27557   -27556   -27556   -27558 
  -27557   -27557   -27558   -27559   -27561   -27565   -27566   -27566 
  -27567   -27570   -27572   -27573   -27572   -27572   -27573   -27574 
  -27577   -27579   -27578   -27578   -27579   -27578   -27580   -27581 
  -27580   -27580   -27580   -27581   -27581   -27581   -27580   -27579 
  -27579   -27578   -27575   -27574   -27576   -27576   -27573   -27574 
  -27576   -27575   -27577   -27579   -27579   -27579   -27581   -27580 
  -27580   -27585   -27590   -27591   -27594   -27599   -27600   -27603 
  -27608   -27609   -27610   -27615   -27617   -27616   -27620   -27624 
  -27624   -27626   -27632   -27636   -27638   -27641   -27646   -27649 
  -27653   -27657   -27660   -27664   -27669   -27671   -27674   -27679 
  -27683   -27687   -27691   -27696   -27698   -27701   -27703   -27702 
  -27703   -27705   -27706   -27706   -27706   -27706   -27702   -27698 
  -27698   -27696   -27692   -27691   -27689   -27685   -27682   -27679 
  -27675   -27670   -27668   -27663   -27660   -27658   -27653   -27647 
  -27643   -27637   -27633   -27630   -27628   -27623   -27616   -27611 
  -27607   -27602   -27598   -27594   -27589   -27586   -27581   -27577 
  -27573   -27565   -27560   -27557   -27551   -27543   -27538   -27535 
  -27530   -27524   -27520   -27516   -27513   -27509   -27503   -27498 
  -27494   -27490   -27487   -27485   -27483   -27481   -27481   -27481 
  -27480   -27478   -27476   -27476   -27477   -27475   -27474   -27473 
  -27471   -27469   -27465   -27462   -27459   -27454   -27452   -27451 
  -27447   -27444   -27443   -27442   -27440   -27441   -27441   -27442 
  -27441   -27442   -27443   -27444   -27447   -27449   -27449   -27452 
  -27457   -27460   -27464   -27470   -27476   -27483   -27489   -27494 
  -27501   -27510   -27515   -27520   -27531   -27542   -27550   -27558 
  -27567   -27577   -27586   -27595   -27608   -27618   -27627   -27638 
  -27645   -27651   -27660   -27667   -27673   -27680   -27686   -27690 
  -27696   -27700   -27704   -27707   -27708   -27711   -27712   -27711 
  -27710   -27709   -27709   -27708   -27706   -27703   -27700   -27696 
  -27692   -27689   -27683   -27678   -27673   -27666   -27659   -27651 
  -27642   -27636   -27629   -27622   -27616   -27608   -27600   -27596 
  -27590   -27581   -27576   -27574   -27568   -27562   -27561   -27560 
  -27554   -27551   -27549   -27548   -27548   -27549   -27550   -27551 
  -27553   -27553   -27554   -27556   -27558   -27560   -27562   -27563 
  -27566   -27568   -27569   -27571   -27573   -27575   -27577   -27577 
  -27577   -27576   -27573   -27572   -27572   -27571   -27568   -27566 
  -27565   -27565   -27564   -27562   -27560   -27559   -27557   -27557 
  -27557   -27555   -27552   -27550   -27548   -27545   -27543   -27541 
  -27539   -27534   -27532   -27534   -27532   -27530   -27529   -27527 
  -27527   -27529   -27528   -27526   -27529   -27531   -27532   -27534 
  -27537   -27542   -27547   -27550   -27554   -27560   -27567   -27573 
  -27577   -27582   -27588   -27592   -27596   -27601   -27607   -27611 
  -27616   -27622   -27627   -27629   -27632   -27635   -27637   -27638 
  -27641   -27642   -27640   -27639   -27638   -27637   -27635   -27636 
  -27636   -27633   -27629   -27625   -27624   -27622   -27618   -27614 
  -27609   -27603   -27596   -27588   -27583   -27578   -27570   -27564 
  -27559   -27554   -27553   -27551   -27549   -27549   -27548   -27548 
  -27551   -27551   -27550   -27554   -27557   -27559   -27562   -27567 
  -27572   -27576   -27582   -27589   -27592   -27596   -27601   -27603 
  -27606   -27608   -27609   -27611   -27613   -27617   -27618   -27617 
  -27618   -27621   -27622   -27619   -27617   -27615   -27614   -27612 
  -27609   -27604   -27599   -27595   -27591   -27581   -27572   -27570 
  -27568   -27559   -27551   -27547   -27541   -27536   -27532   -27527 
  -27524   -27517   -27511   -27509   -27504   -27497   -27495   -27493 
  -27487   -27482   -27479   -27476   -27474   -27471   -27469   -27470 
  -27468   -27467   -27469   -27469   -27469   -27473   -27476   -27477 
  -27480   -27482   -27483   -27485   -27488   -27489   -27489   -27490 
  -27490   -27490   -27489   -27489   -27489   -27488   -27487   -27487 
  -27486   -27485   -27484   -27485   -27486   -27484   -27481   -27482 
  -27482   -27480   -27478   -27477   -27476   -27475   -27474   -27472 
  -27470   -27470   -27466   -27462   -27463   -27460   -27456   -27456 
  -27456   -27455   -27455   -27455   -27456   -27457   -27456   -27455 
  -27457   -27461   -27465   -27468   -27470   -27474   -27477   -27479 
  -27483   -27488   -27492   -27496   -27498   -27501   -27508   -27511 
  -27511   -27516   -27522   -27527   -27532   -27534   -27539   -27547 
  -27552   -27555   -27559   -27564   -27570   -27574   -27576   -27579 
  -27584   -27585   -27586   -27589   -27592   -27593   -27594   -27596 
  -27598   -27597   -27600   -27603   -27602   -27603   -27606   -27607 
  -27608   -27611   -27612   -27614   -27617   -27619   -27620   -27621 
  -27622   -27624   -27625   -27623   -27625   -27629   -27627   -27625 
  -27627   -27629   -27631   -27635   -27638   -27643   -27646   -27648 
  -27652   -27658   -27663   -27670   -27675   -27677   -27681   -27687 
  -27691   -27696   -27702   -27703   -27704   -27706   -27706   -27707 
  -27707   -27707   -27707   -27705   -27704   -27704   -27701   -27699 
  -27699   -27695   -27691   -27690   -27685   -27679   -27677   -27675 
  -27672   -27667   -27664   -27660   -27657   -27651   -27646   -27643 
  -27637   -27633   -27629   -27624   -27618   -27616   -27613   -27609 
  -27604   -27601   -27599   -27595   -27593   -27592   -27590   -27588 
  -27587   -27587   -27587   -27585   -27583   -27584   -27585   -27584 
  -27584   -27586   -27585   -27587   -27591   -27593   -27593   -27596 
  -27602   -27606   -27608   -27616   -27624   -27628   -27635   -27646 
  -27652   -27658   -27670   -27678   -27684   -27692   -27698   -27704 
  -27709   -27711   -27713   -27716   -27717   -27717   -27715   -27713 
  -27713   -27713   -27712   -27708   -27704   -27700   -27695   -27690 
  -27686   -27678   -27671   -27666   -27657   -27647   -27640   -27632 
  -27622   -27616   -27609   -27600   -27592   -27584   -27574   -27565 
  -27557   -27550   -27542   -27534   -27527   -27519   -27512   -27508 
  -27505   -27500   -27495   -27493   -27492   -27493   -27492   -27490 
  -27493   -27494   -27492   -27495   -27501   -27504   -27506   -27513 
  -27518   -27521   -27529   -27536   -27541   -27547   -27555   -27563 
  -27569   -27574   -27581   -27584   -27588   -27595   -27600   -27603 
  -27607   -27612   -27613   -27614   -27620   -27624   -27624   -27628 
  -27632   -27633   -27636   -27639   -27640   -27641   -27645   -27647 
  -27649   -27649   -27649   -27651   -27651   -27651   -27650   -27650 
  -27651   -27649   -27647   -27648   -27646   -27644   -27643   -27640 
  -27638   -27637   -27635   -27635   -27633   -27630   -27629   -27631 
  -27630   -27626   -27624   -27623   -27620   -27618   -27618   -27617 
  -27616   -27614   -27611   -27610   -27611   -27607   -27604   -27604 
  -27601   -27598   -27597   -27595   -27593   -27596   -27596   -27594 
  -27595   -27597   -27598   -27599   -27603   -27606   -27607   -27612 
  -27617   -27620   -27628   -27634   -27636   -27642   -27650   -27655 
  -27662   -27668   -27673   -27682   -27691   -27698   -27706   -27713 
  -27721   -27728   -27734   -27743   -27750   -27754   -27760   -27767 
  -27771   -27776   -27781   -27783   -27788   -27794   -27798   -27801 
  -27807   -27812   -27814   -27817   -27819   -27819   -27818   -27817 
  -27816   -27814   -27810   -27809   -27809   -27805   -27799   -27797 
  -27795   -27789   -27785   -27782   -27775   -27769   -27763   -27757 
  -27750   -27742   -27733   -27725   -27718   -27707   -27698   -27691 
  -27682   -27673   -27667   -27660   -27653   -27646   -27642   -27637 
  -27629   -27622   -27618   -27613   -27611   -27609   -27603   -27600 
  -27600   -27596   -27593   -27592   -27590   -27584   -27581   -27580 
  -27576   -27572   -27571   -27569   -27566   -27564   -27564   -27563 
  -27560   -27557   -27556   -27557   -27556   -27555   -27554   -27553 
  -27551   -27553   -27554   -27552   -27551   -27552   -27550   -27547 
  -27547   -27544   -27542   -27544   -27544   -27544   -27543   -27542 
  -27544   -27544   -27543   -27546   -27549   -27548   -27551   -27555 
  -27560   -27565   -27568   -27572   -27578   -27582   -27587   -27593 
  -27598   -27605   -27609   -27614   -27621   -27627   -27632   -27638 
  -27643   -27649   -27657   -27667   -27677   -27684   -27690   -27699 
  -27709   -27718   -27726   -27734   -27741   -27750   -27758   -27765 
  -27772   -27778   -27782   -27790   -27796   -27797   -27799   -27800 
  -27800   -27801   -27799   -27793   -27789   -27784   -27775   -27766 
  -27756   -27746   -27738   -27725   -27712   -27699   -27686   -27671 
  -27657   -27645   -27629   -27610   -27598   -27583   -27563   -27546 
  -27531   -27515   -27499   -27482   -27464   -27445   -27427   -27410 
  -27393   -27375   -27359   -27343   -27327   -27311   -27296   -27282 
  -27268   -27255   -27244   -27232   -27223   -27213   -27206   -27202 
  -27196   -27193   -27192   -27190   -27192   -27193   -27195   -27201 
  -27209   -27215   -27224   -27235   -27246   -27257   -27270   -27284 
  -27300   -27318   -27337   -27354   -27373   -27393   -27415   -27436 
  -27455   -27473   -27493   -27513   -27529   -27546   -27567   -27586 
  -27598   -27613   -27630   -27644   -27653   -27665   -27679   -27688 
  -27695   -27702   -27708   -27714   -27719   -27719   -27720   -27723 
  -27722   -27718   -27713   -27707   -27702   -27696   -27688   -27681 
  -27673   -27662   -27652   -27643   -27632   -27621   -27609   -27598 
  -27588   -27578   -27567   -27556   -27547   -27537   -27526   -27517 
  -27510   -27503   -27495   -27489   -27481   -27473   -27468   -27465 
  -27461   -27457   -27455   -27453   -27453   -27454   -27455   -27456 
  -27457   -27460   -27464   -27470   -27476   -27480   -27486   -27493 
  -27502   -27510   -27520   -27532   -27545   -27556   -27569   -27583 
  -27597   -27612   -27627   -27641   -27657   -27671   -27686   -27703 
  -27717   -27733   -27751   -27767   -27781   -27798   -27814   -27827 
  -27841   -27857   -27872   -27885   -27901   -27913   -27925   -27939 
  -27949   -27957   -27966   -27970   -27972   -27976   -27977   -27976 
  -27973   -27968   -27963   -27957   -27947   -27937   -27927   -27915 
  -27900   -27886   -27873   -27859   -27843   -27826   -27809   -27794 
  -27781   -27765   -27747   -27732   -27717   -27702   -27690   -27676 
  -27661   -27649   -27638   -27628   -27620   -27610   -27600   -27590 
  -27585   -27578   -27572   -27570   -27567   -27562   -27561   -27558 
  -27551   -27549   -27550   -27548   -27547   -27544   -27541   -27541 
  -27541   -27539   -27537   -27535   -27534   -27534   -27531   -27529 
  -27529   -27527   -27524   -27522   -27520   -27518   -27514   -27510 
  -27508   -27505   -27500   -27497   -27494   -27487   -27481   -27477 
  -27473   -27469   -27464   -27460   -27458   -27455   -27451   -27450 
  -27449   -27447   -27447   -27446   -27445   -27444   -27443   -27444 
  -27444   -27444   -27445   -27444   -27444   -27446   -27447   -27446 
  -27448   -27449   -27449   -27450   -27452   -27454   -27454   -27455 
  -27459   -27458   -27459   -27467   -27473   -27475   -27482   -27489 
  -27493   -27500   -27509   -27519   -27527   -27534   -27544   -27554 
  -27560   -27569   -27580   -27590   -27600   -27610   -27620   -27630 
  -27642   -27649   -27655   -27665   -27674   -27681   -27689   -27696 
  -27702   -27708   -27711   -27713   -27716   -27718   -27718   -27717 
  -27715   -27713   -27711   -27706   -27698   -27693   -27689   -27682 
  -27675   -27668   -27661   -27653   -27645   -27638   -27631   -27625 
  -27619   -27612   -27608   -27603   -27598   -27595   -27593   -27591 
  -27590   -27589   -27588   -27588   -27587   -27588   -27591   -27591 
  -27589   -27589   -27589   -27587   -27586   -27584   -27582   -27581 
  -27580   -27579   -27577   -27575   -27575   -27575   -27573   -27570 
  -27569   -27571   -27572   -27570   -27569   -27570   -27570   -27569 
  -27569   -27570   -27572   -27571   -27568   -27568   -27565   -27562 
  -27561   -27561   -27560   -27557   -27555   -27553   -27548   -27546 
  -27544   -27540   -27538   -27537   -27535   -27533   -27531   -27531 
  -27532   -27530   -27530   -27531   -27530   -27530   -27531   -27533 
  -27536   -27540   -27544   -27543   -27545   -27550   -27553   -27556 
  -27561   -27564   -27567   -27571   -27574   -27578   -27584   -27589 
  -27591   -27595   -27603   -27608   -27612   -27620   -27626   -27631 
  -27636   -27641   -27649   -27657   -27662   -27667   -27670   -27676 
  -27682   -27685   -27687   -27690   -27692   -27694   -27695   -27694 
  -27695   -27695   -27693   -27691   -27690   -27688   -27683   -27681 
  -27677   -27673   -27670   -27666   -27661   -27656   -27651   -27645 
  -27637   -27631   -27625   -27616   -27608   -27602   -27595   -27590 
  -27583   -27575   -27567   -27561   -27555   -27549   -27545   -27540 
  -27536   -27534   -27530   -27528   -27529   -27528   -27527   -27528 
  -27529   -27531   -27533   -27534   -27537   -27540   -27541   -27540 
  -27541   -27543   -27543   -27540   -27538   -27539   -27537   -27533 
  -27530   -27527   -27522   -27517   -27511   -27505   -27501   -27496 
  -27490   -27484   -27479   -27475   -27472   -27468   -27463   -27458 
  -27455   -27454   -27452   -27449   -27448   -27447   -27447   -27447 
  -27447   -27447   -27446   -27447   -27451   -27452   -27454   -27460 
  -27462   -27463   -27469   -27476   -27478   -27483   -27489   -27494 
  -27501   -27508   -27512   -27517   -27524   -27531   -27536   -27543 
  -27551   -27556   -27562   -27569   -27575   -27582   -27588   -27593 
  -27599   -27603   -27606   -27611   -27617   -27622   -27626   -27630 
  -27634   -27638   -27640   -27643   -27644   -27644   -27646   -27651 
  -27655   -27656   -27658   -27660   -27662   -27663   -27667   -27669 
  -27670   -27672   -27675   -27679   -27684   -27686   -27686   -27689 
  -27693   -27698   -27703   -27705   -27705   -27709   -27714   -27717 
  -27720   -27724   -27729   -27731   -27734   -27738   -27739   -27740 
  -27743   -27744   -27744   -27746   -27746   -27745   -27746   -27745 
  -27743   -27744   -27743   -27738   -27737   -27735   -27731   -27729 
  -27726   -27722   -27722   -27721   -27717   -27714   -27713   -27710 
  -27707   -27705   -27701   -27698   -27695   -27692   -27690   -27689 
  -27687   -27686   -27684   -27682   -27683   -27685   -27685   -27686 
  -27687   -27687   -27689   -27692   -27693   -27693   -27697   -27702 
  -27700   -27699   -27704   -27708   -27709   -27710   -27711   -27709 
  -27712   -27715   -27714   -27715   -27716   -27714   -27716   -27721 
  -27721   -27721   -27721   -27722   -27723   -27722   -27721   -27722 
  -27721   -27720   -27719   -27719   -27718   -27716   -27715   -27715 
