Origin Time       2025/01/13 21:19:00
Lat.              31.8
Long.             131.6
Depth. (km)       30
Mag.              6.9
Station Code      FKIH01
Station Lat.      36.0955
Station Long.     136.3617
Station Height(m) -35
Record Time       2025/01/13 21:22:48
Sampling Freq(Hz) 100Hz
Duration Time(s)  120
Dir.              3
Scale Factor      2942(gal)/8224139
Max. Acc. (gal)   0.108
Last Correction   2025/01/13 21:22:49
Memo.             
[...]
  -80504   -80505   -80508   -80508   -80505   -80505   -80508   -80508 
  -80508   -80509   -80507   -80505   -80507   -80505   -80505   -80507 
  -80505   -80503   -80500   -80499   -80500   -80500   -80497   -80496 
  -80497   -80496   -80495   -80496   -80495   -80495   -80495   -80496 
  -80496   -80495   -80499   -80503   -80501   -80500   -80504   -80505 
  -80505   -80507   -80509   -80511   -80512   -80514   -80514   -80516 
  -80518   -80518   -80519   -80518   -80520   -80524   -80527   -80528 
  -80534   -80536   -80536   -80539   -80546   -80549   -80551   -80554 
  -80558   -80559   -80562   -80565   -80568   -80569   -80570   -80573 
  -80576   -80576   -80573   -80574   -80576   -80576   -80574   -80574 
  -80574   -80573   -80570   -80569   -80572   -80572   -80570   -80572 
  -80573   -80570   -80569   -80572   -80572   -80569   -80566   -80565 
  -80565   -80569   -80568   -80566   -80569   -80570   -80568   -80570 
  -80574   -80572   -80570   -80572   -80573   -80572   -80570   -80568 
  -80569   -80570   -80570   -80572   -80573   -80569   -80566   -80569 
  -80574   -80574   -80570   -80573   -80572   -80570   -80572   -80570 
  -80569   -80570   -80570   -80570   -80569   -80569   -80570   -80568 
  -80565   -80566   -80563   -80561   -80562   -80562   -80559   -80557 
  -80553   -80551   -80553   -80551   -80549   -80545   -80546   -80547 
  -80546   -80543   -80543   -80545   -80543   -80542   -80543   -80543 
  -80538   -80538   -80541   -80539   -80538   -80539   -80539   -80538 
  -80539   -80536   -80536   -80538   -80535   -80532   -80534   -80531 
  -80528   -80530   -80532   -80531   -80530   -80528   -80527   -80526 
  -80523   -80523   -80523   -80524   -80523   -80523   -80520   -80520 
  -80522   -80520   -80520   -80522   -80520   -80520   -80523   -80520 
  -80518   -80519   -80520   -80518   -80516   -80518   -80515   -80512 
  -80511   -80511   -80509   -80509   -80508   -80508   -80507   -80505 
  -80507   -80505   -80501   -80503   -80504   -80504   -80504   -80504 
  -80505   -80508   -80509   -80507   -80507   -80509   -80511   -80512 
  -80509   -80509   -80515   -80514   -80508   -80509   -80514   -80514 
  -80509   -80508   -80508   -80507   -80504   -80500   -80500   -80500 
  -80497   -80496   -80495   -80493   -80492   -80489   -80491   -80493 
  -80493   -80493   -80496   -80495   -80495   -80499   -80500   -80497 
  -80499   -80503   -80501   -80499   -80500   -80503   -80501   -80505 
  -80508   -80508   -80511   -80512   -80514   -80518   -80522   -80523 
  -80523   -80526   -80530   -80534   -80535   -80535   -80535   -80541 
  -80546   -80545   -80545   -80549   -80551   -80551   -80553   -80554 
  -80553   -80550   -80551   -80551   -80550   -80551   -80554   -80555 
  -80554   -80555   -80558   -80555   -80553   -80559   -80561   -80555 
  -80559   -80565   -80563   -80563   -80568   -80568   -80566   -80569 
  -80572   -80573   -80572   -80573   -80576   -80574   -80570   -80572 
  -80574   -80570   -80566   -80568   -80566   -80565   -80566   -80563 
  -80559   -80561   -80561   -80555   -80551   -80553   -80551   -80549 
  -80550   -80550   -80547   -80545   -80543   -80541   -80539   -80541 
  -80542   -80538   -80534   -80538   -80541   -80538   -80538   -80538 
  -80541   -80539   -80536   -80535   -80536   -80538   -80539   -80538 
  -80535   -80535   -80535   -80536   -80538   -80541   -80541   -80539 
  -80542   -80542   -80542   -80543   -80543   -80543   -80549   -80551 
  -80550   -80550   -80551   -80553   -80551   -80551   -80554   -80553 
  -80550   -80551   -80553   -80553   -80551   -80547   -80546   -80550 
  -80550   -80546   -80545   -80546   -80547   -80547   -80547   -80545 
  -80546   -80549   -80545   -80539   -80539   -80543   -80545   -80543 
  -80543   -80543   -80543   -80543   -80543   -80543   -80541   -80539 
  -80538   -80538   -80538   -80536   -80531   -80528   -80530   -80527 
  -80522   -80516   -80515   -80512   -80508   -80505   -80504   -80503 
  -80503   -80501   -80500   -80499   -80499   -80500   -80500   -80497 
  -80499   -80500   -80504   -80507   -80505   -80507   -80508   -80511 
  -80514   -80511   -80509   -80512   -80515   -80515   -80518   -80518 
  -80519   -80519   -80518   -80522   -80522   -80523   -80524   -80523 
  -80522   -80523   -80523   -80522   -80522   -80523   -80522   -80519 
  -80519   -80520   -80520   -80519   -80520   -80520   -80520   -80519 
  -80520   -80522   -80522   -80519   -80519   -80519   -80519   -80520 
  -80520   -80520   -80520   -80520   -80520   -80519   -80516   -80516 
  -80515   -80512   -80512   -80512   -80507   -80505   -80505   -80504 
  -80501   -80503   -80501   -80501   -80500   -80501   -80501   -80501 
  -80504   -80507   -80504   -80501   -80505   -80509   -80511   -80511 
  -80511   -80515   -80519   -80520   -80523   -80526   -80526   -80527 
  -80528   -80531   -80534   -80538   -80543   -80547   -80549   -80551 
  -80557   -80562   -80568   -80572   -80578   -80586   -80589   -80595 
  -80599   -80604   -80612   -80619   -80627   -80634   -80635   -80640 
  -80649   -80654   -80659   -80666   -80671   -80677   -80682   -80688 
  -80688   -80690   -80696   -80696   -80700   -80705   -80705   -80704 
  -80708   -80713   -80712   -80712   -80715   -80712   -80713   -80716 
  -80715   -80715   -80716   -80716   -80715   -80713   -80712   -80711 
  -80711   -80708   -80707   -80708   -80703   -80693   -80692   -80692 
  -80682   -80677   -80674   -80667   -80661   -80655   -80647   -80640 
  -80632   -80626   -80620   -80613   -80604   -80597   -80590   -80581 
  -80574   -80568   -80559   -80553   -80546   -80538   -80531   -80523 
  -80516   -80512   -80504   -80497   -80491   -80484   -80478   -80473 
  -80468   -80465   -80460   -80455   -80453   -80453   -80451   -80447 
  -80445   -80445   -80442   -80442   -80443   -80442   -80442   -80445 
  -80445   -80446   -80446   -80447   -80450   -80451   -80454   -80455 
  -80457   -80462   -80469   -80470   -80473   -80478   -80482   -80485 
  -80492   -80495   -80496   -80501   -80507   -80508   -80509   -80514 
  -80518   -80520   -80524   -80527   -80530   -80532   -80535   -80538 
  -80542   -80541   -80543   -80549   -80553   -80554   -80555   -80558 
  -80562   -80565   -80563   -80563   -80566   -80568   -80568   -80569 
  -80572   -80572   -80573   -80572   -80572   -80574   -80573   -80573 
  -80573   -80570   -80568   -80570   -80570   -80568   -80568   -80568 
  -80566   -80565   -80565   -80565   -80561   -80557   -80558   -80558 
  -80557   -80557   -80557   -80554   -80554   -80551   -80545   -80541 
  -80541   -80536   -80535   -80532   -80528   -80524   -80520   -80516 
  -80512   -80509   -80507   -80500   -80496   -80495   -80488   -80482 
  -80481   -80474   -80470   -80469   -80466   -80461   -80458   -80457 
  -80457   -80457   -80450   -80446   -80449   -80449   -80447   -80447 
  -80449   -80447   -80449   -80450   -80450   -80451   -80451   -80450 
  -80451   -80454   -80458   -80460   -80460   -80462   -80465   -80468 
  -80473   -80477   -80480   -80482   -80488   -80491   -80493   -80500 
  -80507   -80509   -80515   -80520   -80524   -80532   -80542   -80546 
  -80550   -80557   -80563   -80572   -80577   -80582   -80589   -80597 
  -80603   -80607   -80615   -80623   -80630   -80636   -80640   -80647 
  -80655   -80658   -80661   -80667   -80671   -80674   -80678   -80680 
  -80682   -80685   -80686   -80686   -80686   -80689   -80688   -80684 
  -80680   -80676   -80671   -80667   -80661   -80655   -80650   -80642 
  -80634   -80628   -80622   -80611   -80601   -80593   -80586   -80577 
  -80568   -80558   -80547   -80541   -80536   -80528   -80518   -80511 
  -80504   -80497   -80491   -80487   -80481   -80473   -80469   -80469 
  -80464   -80461   -80457   -80454   -80454   -80451   -80449   -80447 
  -80447   -80449   -80449   -80449   -80450   -80450   -80450   -80453 
  -80453   -80453   -80455   -80458   -80460   -80461   -80464   -80466 
  -80469   -80473   -80476   -80480   -80485   -80489   -80496   -80501 
  -80505   -80511   -80515   -80520   -80526   -80530   -80538   -80545 
  -80547   -80551   -80559   -80566   -80568   -80570   -80576   -80580 
  -80581   -80585   -80589   -80593   -80596   -80597   -80600   -80605 
  -80611   -80612   -80613   -80619   -80623   -80626   -80628   -80632 
  -80635   -80636   -80638   -80642   -80647   -80651   -80651   -80653 
  -80658   -80661   -80663   -80667   -80673   -80677   -80681   -80682 
  -80686   -80690   -80692   -80694   -80698   -80698   -80698   -80700 
  -80701   -80700   -80698   -80700   -80698   -80696   -80696   -80693 
  -80689   -80688   -80685   -80684   -80681   -80676   -80669   -80663 
  -80658   -80651   -80644   -80640   -80635   -80628   -80619   -80612 
  -80607   -80597   -80586   -80584   -80578   -80570   -80566   -80558 
  -80549   -80545   -80542   -80536   -80531   -80524   -80522   -80519 
  -80516   -80512   -80512   -80511   -80507   -80507   -80509   -80511 
  -80511   -80511   -80515   -80519   -80519   -80519   -80526   -80530 
  -80531   -80536   -80543   -80543   -80547   -80554   -80554   -80555 
  -80559   -80559   -80562   -80566   -80566   -80566   -80570   -80572 
  -80574   -80576   -80573   -80572   -80573   -80572   -80574   -80577 
  -80577   -80573   -80573   -80576   -80573   -80570   -80572   -80573 
  -80570   -80565   -80562   -80563   -80563   -80561   -80559   -80558 
  -80555   -80554   -80554   -80550   -80549   -80549   -80546   -80542 
  -80541   -80535   -80534   -80534   -80528   -80524   -80523   -80518 
  -80515   -80512   -80507   -80501   -80499   -80496   -80491   -80485 
  -80481   -80476   -80468   -80464   -80462   -80454   -80446   -80442 
  -80438   -80433   -80427   -80420   -80415   -80410   -80401   -80397 
  -80396   -80389   -80383   -80380   -80377   -80374   -80372   -80368 
  -80364   -80358   -80356   -80356   -80353   -80350   -80350   -80350 
  -80349   -80347   -80350   -80352   -80349   -80350   -80356   -80358 
  -80362   -80368   -80372   -80377   -80383   -80393   -80404   -80410 
  -80419   -80433   -80441   -80450   -80460   -80468   -80478   -80491 
  -80500   -80514   -80527   -80541   -80549   -80558   -80569   -80580 
  -80592   -80603   -80613   -80624   -80635   -80644   -80651   -80659 
  -80670   -80678   -80681   -80689   -80697   -80697   -80697   -80704 
  -80711   -80715   -80717   -80717   -80716   -80720   -80723   -80720 
  -80717   -80715   -80712   -80709   -80707   -80704   -80700   -80693 
  -80685   -80681   -80674   -80665   -80661   -80655   -80643   -80634 
  -80627   -80617   -80607   -80597   -80589   -80580   -80569   -80561 
  -80550   -80539   -80532   -80523   -80511   -80499   -80491   -80484 
  -80476   -80469   -80461   -80451   -80446   -80442   -80434   -80426 
  -80422   -80416   -80412   -80408   -80404   -80404   -80400   -80396 
  -80395   -80395   -80395   -80393   -80392   -80393   -80396   -80397 
  -80400   -80403   -80404   -80407   -80412   -80416   -80420   -80424 
  -80428   -80433   -80439   -80445   -80450   -80460   -80465   -80468 
  -80476   -80482   -80487   -80496   -80503   -80507   -80518   -80528 
  -80535   -80543   -80553   -80561   -80569   -80578   -80585   -80592 
  -80599   -80607   -80616   -80627   -80635   -80644   -80653   -80661 
  -80673   -80681   -80686   -80697   -80707   -80709   -80716   -80727 
  -80734   -80739   -80747   -80751   -80755   -80762   -80766   -80769 
  -80773   -80777   -80779   -80779   -80781   -80784   -80782   -80781 
  -80778   -80775   -80774   -80770   -80763   -80759   -80757   -80751 
  -80744   -80736   -80730   -80723   -80716   -80711   -80704   -80694 
  -80688   -80681   -80674   -80665   -80657   -80650   -80640   -80630 
  -80622   -80613   -80605   -80595   -80586   -80578   -80569   -80558 
  -80547   -80539   -80531   -80520   -80509   -80499   -80488   -80478 
  -80469   -80457   -80446   -80437   -80424   -80416   -80407   -80395 
  -80388   -80384   -80376   -80365   -80357   -80350   -80343   -80337 
  -80331   -80325   -80319   -80315   -80312   -80310   -80310   -80311 
  -80310   -80308   -80308   -80308   -80310   -80315   -80319   -80322 
  -80327   -80333   -80338   -80343   -80352   -80362   -80370   -80377 
  -80388   -80397   -80404   -80415   -80427   -80434   -80443   -80454 
  -80464   -80476   -80482   -80484   -80492   -80500   -80504   -80511 
  -80519   -80523   -80524   -80526   -80530   -80532   -80532   -80531 
  -80531   -80530   -80526   -80527   -80528   -80524   -80520   -80515 
  -80514   -80509   -80503   -80496   -80496   -80492   -80484   -80480 
  -80476   -80470   -80465   -80458   -80451   -80446   -80441   -80433 
  -80427   -80424   -80418   -80408   -80406   -80400   -80392   -80387 
  -80383   -80377   -80372   -80366   -80364   -80360   -80352   -80347 
  -80345   -80341   -80337   -80334   -80331   -80331   -80327   -80325 
  -80325   -80327   -80327   -80326   -80325   -80325   -80327   -80331 
  -80334   -80338   -80341   -80342   -80350   -80358   -80361   -80370 
  -80380   -80385   -80396   -80407   -80414   -80426   -80439   -80451 
  -80462   -80473   -80487   -80501   -80515   -80528   -80542   -80555 
  -80569   -80584   -80597   -80609   -80623   -80636   -80650   -80663 
  -80676   -80689   -80701   -80712   -80724   -80732   -80743   -80754 
  -80762   -80770   -80782   -80790   -80798   -80805   -80812   -80816 
  -80821   -80828   -80831   -80832   -80836   -80838   -80838   -80842 
  -80843   -80842   -80844   -80846   -80844   -80843   -80843   -80839 
  -80836   -80836   -80833   -80828   -80825   -80821   -80819   -80815 
  -80809   -80804   -80798   -80794   -80789   -80779   -80771   -80765 
  -80757   -80750   -80740   -80731   -80724   -80716   -80704   -80693 
  -80685   -80677   -80663   -80653   -80643   -80631   -80619   -80607 
  -80593   -80584   -80573   -80559   -80549   -80535   -80520   -80508 
  -80496   -80485   -80473   -80462   -80453   -80442   -80434   -80426 
  -80415   -80407   -80403   -80395   -80388   -80387   -80384   -80379 
  -80376   -80374   -80372   -80370   -80372   -80374   -80377   -80381 
  -80384   -80384   -80388   -80395   -80396   -80403   -80412   -80416 
  -80422   -80430   -80434   -80442   -80450   -80455   -80464   -80477 
  -80485   -80489   -80496   -80507   -80519   -80528   -80539   -80547 
  -80557   -80566   -80576   -80586   -80597   -80605   -80613   -80624 
  -80634   -80642   -80649   -80658   -80665   -80673   -80682   -80690 
  -80697   -80704   -80708   -80709   -80713   -80720   -80721   -80724 
  -80731   -80732   -80736   -80740   -80736   -80735   -80738   -80736 
  -80736   -80739   -80734   -80725   -80724   -80721   -80719   -80716 
  -80711   -80708   -80705   -80698   -80693   -80692   -80686   -80680 
  -80678   -80671   -80663   -80661   -80658   -80651   -80647   -80643 
  -80638   -80635   -80632   -80628   -80623   -80619   -80615   -80611 
  -80611   -80611   -80608   -80605   -80603   -80600   -80600   -80599 
  -80595   -80593   -80593   -80589   -80589   -80589   -80586   -80584 
  -80582   -80580   -80577   -80577   -80576   -80574   -80576   -80576 
  -80573   -80572   -80574   -80574   -80574   -80574   -80576   -80577 
  -80580   -80584   -80585   -80585   -80586   -80588   -80592   -80595 
  -80597   -80600   -80604   -80609   -80612   -80615   -80622   -80623 
  -80622   -80626   -80628   -80630   -80634   -80635   -80635   -80636 
  -80639   -80639   -80636   -80630   -80630   -80634   -80630   -80627 
  -80626   -80622   -80617   -80616   -80611   -80607   -80603   -80599 
  -80593   -80589   -80585   -80581   -80577   -80572   -80565   -80558 
  -80554   -80549   -80545   -80539   -80534   -80530   -80526   -80519 
  -80514   -80511   -80507   -80500   -80496   -80489   -80482   -80477 
  -80470   -80461   -80457   -80453   -80445   -80435   -80428   -80424 
  -80416   -80408   -80403   -80396   -80388   -80381   -80373   -80364 
  -80357   -80350   -80343   -80337   -80333   -80325   -80316   -80314 
  -80312   -80307   -80300   -80298   -80295   -80288   -80284   -80284 
  -80284   -80283   -80283   -80281   -80280   -80280   -80281   -80283 
  -80284   -80284   -80287   -80293   -80298   -80300   -80306   -80314 
  -80320   -80327   -80333   -80339   -80346   -80354   -80362   -80370 
  -80380   -80391   -80399   -80404   -80414   -80423   -80428   -80435 
  -80443   -80450   -80455   -80465   -80470   -80474   -80481   -80485 
  -80485   -80491   -80496   -80496   -80500   -80508   -80509   -80509 
  -80512   -80514   -80514   -80518   -80519   -80519   -80522   -80524 
  -80524   -80527   -80528   -80530   -80531   -80532   -80535   -80536 
  -80538   -80541   -80539   -80539   -80541   -80541   -80545   -80549 
  -80550   -80553   -80557   -80559   -80561   -80562   -80565   -80569 
  -80572   -80576   -80577   -80577   -80582   -80588   -80588   -80592 
  -80597   -80599   -80604   -80608   -80609   -80611   -80613   -80619 
  -80623   -80624   -80626   -80630   -80631   -80630   -80630   -80630 
  -80630   -80628   -80628   -80627   -80626   -80623   -80619   -80615 
  -80612   -80611   -80608   -80603   -80599   -80597   -80593   -80589 
  -80588   -80585   -80578   -80574   -80570   -80568   -80563   -80558 
  -80557   -80557   -80553   -80549   -80547   -80546   -80546   -80546 
  -80542   -80541   -80543   -80543   -80542   -80542   -80543   -80543 
  -80546   -80550   -80551   -80551   -80557   -80558   -80555   -80559 
  -80563   -80565   -80568   -80572   -80572   -80574   -80580   -80582 
  -80586   -80590   -80593   -80595   -80597   -80600   -80604   -80605 
  -80608   -80611   -80611   -80615   -80617   -80619   -80620   -80620 
  -80622   -80623   -80623   -80624   -80626   -80626   -80624   -80623 
  -80623   -80623   -80620   -80619   -80617   -80615   -80612   -80611 
  -80608   -80607   -80608   -80607   -80600   -80597   -80596   -80595 
  -80592   -80589   -80586   -80586   -80584   -80580   -80581   -80580 
  -80573   -80570   -80570   -80566   -80565   -80568   -80565   -80562 
  -80562   -80563   -80562   -80561   -80559   -80559   -80562   -80565 
  -80565   -80566   -80566   -80563   -80563   -80565   -80562   -80563 
  -80562   -80559   -80561   -80561   -80555   -80553   -80554   -80553 
  -80549   -80545   -80539   -80536   -80535   -80534   -80530   -80524 
  -80522   -80518   -80511   -80507   -80504   -80499   -80496   -80493 
  -80487   -80484   -80480   -80474   -80472   -80469   -80462   -80460 
  -80460   -80457   -80454   -80454   -80454   -80451   -80449   -80447 
  -80447   -80446   -80446   -80446   -80442   -80441   -80442   -80442 
  -80442   -80439   -80437   -80434   -80433   -80433   -80430   -80428 
  -80428   -80427   -80427   -80426   -80423   -80422   -80424   -80423 
  -80420   -80422   -80424   -80420   -80422   -80426   -80424   -80423 
  -80424   -80428   -80433   -80431   -80433   -80437   -80439   -80442 
  -80446   -80449   -80453   -80457   -80462   -80465   -80468   -80473 
  -80478   -80482   -80487   -80492   -80496   -80503   -80508   -80512 
  -80518   -80523   -80526   -80528   -80531   -80534   -80542   -80549 
  -80553   -80553   -80555   -80563   -80568   -80569   -80573   -80576 
  -80580   -80584   -80586   -80588   -80590   -80592   -80595   -80599 
  -80599   -80599   -80603   -80605   -80607   -80607   -80605   -80607 
