Origin Time       2025/01/13 21:19:00
Lat.              31.8
Long.             131.6
Depth. (km)       30
Mag.              6.9
Station Code      FKIH02
Station Lat.      35.9483
Station Long.     136.0556
Station Height(m) 20
Record Time       2025/01/13 21:22:35
Sampling Freq(Hz) 100Hz
Duration Time(s)  120
Dir.              2
Scale Factor      3923(gal)/8224838
Max. Acc. (gal)   0.197
Last Correction   2025/01/13 21:22:37
Memo.             
[...]
  -13267   -13266   -13263   -13263   -13265   -13261   -13258   -13257 
  -13251   -13250   -13250   -13247   -13242   -13240   -13239   -13238 
  -13235   -13231   -13228   -13228   -13225   -13225   -13224   -13221 
  -13223   -13224   -13220   -13220   -13221   -13219   -13217   -13217 
  -13217   -13217   -13217   -13217   -13219   -13219   -13217   -13220 
  -13224   -13227   -13230   -13231   -13232   -13236   -13238   -13238 
  -13238   -13240   -13244   -13247   -13246   -13247   -13250   -13250 
  -13251   -13254   -13255   -13255   -13255   -13257   -13258   -13259 
  -13259   -13261   -13261   -13262   -13262   -13262   -13265   -13263 
  -13262   -13265   -13263   -13265   -13266   -13262   -13262   -13266 
  -13265   -13262   -13263   -13265   -13261   -13261   -13262   -13261 
  -13258   -13257   -13258   -13257   -13251   -13248   -13250   -13250 
  -13247   -13246   -13248   -13248   -13248   -13251   -13252   -13254 
  -13254   -13254   -13255   -13255   -13255   -13254   -13254   -13259 
  -13262   -13261   -13261   -13266   -13269   -13269   -13270   -13273 
  -13273   -13275   -13279   -13284   -13285   -13285   -13288   -13290 
  -13294   -13296   -13296   -13296   -13297   -13298   -13300   -13302 
  -13304   -13305   -13306   -13306   -13306   -13312   -13315   -13316 
  -13317   -13320   -13324   -13325   -13323   -13324   -13328   -13327 
  -13323   -13327   -13329   -13327   -13325   -13327   -13327   -13329 
  -13331   -13331   -13335   -13336   -13335   -13338   -13342   -13346 
  -13347   -13348   -13347   -13347   -13347   -13346   -13344   -13340 
  -13338   -13338   -13336   -13332   -13332   -13329   -13325   -13321 
  -13321   -13319   -13315   -13309   -13305   -13301   -13297   -13292 
  -13288   -13285   -13284   -13277   -13271   -13271   -13270   -13263 
  -13261   -13259   -13254   -13250   -13247   -13247   -13246   -13243 
  -13239   -13235   -13232   -13234   -13231   -13230   -13228   -13225 
  -13224   -13225   -13224   -13223   -13224   -13225   -13224   -13225 
  -13224   -13223   -13221   -13223   -13224   -13223   -13223   -13224 
  -13225   -13228   -13228   -13225   -13230   -13234   -13235   -13236 
  -13239   -13239   -13242   -13246   -13248   -13248   -13247   -13248 
  -13251   -13252   -13254   -13255   -13254   -13254   -13254   -13255 
  -13257   -13258   -13258   -13259   -13259   -13257   -13258   -13257 
  -13257   -13261   -13262   -13259   -13258   -13257   -13255   -13254 
  -13251   -13247   -13247   -13242   -13238   -13236   -13232   -13227 
  -13224   -13223   -13219   -13215   -13211   -13208   -13208   -13205 
  -13200   -13200   -13197   -13194   -13193   -13193   -13189   -13184 
  -13185   -13182   -13177   -13176   -13177   -13174   -13171   -13171 
  -13171   -13170   -13170   -13171   -13174   -13174   -13177   -13181 
  -13181   -13181   -13185   -13189   -13190   -13192   -13196   -13200 
  -13201   -13201   -13204   -13211   -13216   -13219   -13220   -13224 
  -13228   -13228   -13231   -13235   -13236   -13239   -13243   -13244 
  -13247   -13250   -13251   -13251   -13252   -13254   -13257   -13262 
  -13261   -13261   -13265   -13265   -13263   -13266   -13266   -13266 
  -13267   -13269   -13271   -13273   -13274   -13275   -13277   -13277 
  -13279   -13282   -13281   -13281   -13285   -13288   -13292   -13294 
  -13294   -13298   -13305   -13305   -13312   -13320   -13323   -13327 
  -13332   -13336   -13342   -13347   -13354   -13360   -13365   -13367 
  -13374   -13378   -13381   -13386   -13389   -13390   -13397   -13400 
  -13402   -13405   -13405   -13408   -13413   -13416   -13412   -13410 
  -13413   -13410   -13409   -13412   -13410   -13405   -13405   -13406 
  -13408   -13406   -13402   -13402   -13401   -13397   -13396   -13394 
  -13390   -13386   -13385   -13383   -13379   -13379   -13379   -13373 
  -13367   -13369   -13367   -13363   -13358   -13356   -13354   -13348 
  -13346   -13343   -13340   -13340   -13339   -13336   -13333   -13332 
  -13329   -13328   -13327   -13325   -13324   -13324   -13323   -13319 
  -13316   -13317   -13313   -13308   -13311   -13306   -13300   -13297 
  -13294   -13290   -13289   -13288   -13281   -13277   -13275   -13271 
  -13267   -13267   -13266   -13261   -13258   -13257   -13254   -13255 
  -13255   -13252   -13255   -13255   -13257   -13259   -13259   -13258 
  -13259   -13263   -13265   -13265   -13265   -13267   -13267   -13267 
  -13269   -13271   -13270   -13269   -13270   -13271   -13269   -13267 
  -13267   -13265   -13263   -13262   -13259   -13258   -13258   -13257 
  -13255   -13252   -13251   -13250   -13246   -13244   -13244   -13243 
  -13240   -13240   -13240   -13239   -13235   -13235   -13235   -13234 
  -13230   -13227   -13227   -13227   -13221   -13216   -13217   -13215 
  -13211   -13209   -13207   -13204   -13204   -13203   -13201   -13200 
  -13198   -13198   -13198   -13198   -13198   -13197   -13198   -13200 
  -13200   -13201   -13203   -13204   -13203   -13203   -13204   -13207 
  -13205   -13203   -13204   -13205   -13205   -13205   -13207   -13209 
  -13213   -13215   -13216   -13220   -13224   -13225   -13227   -13231 
  -13235   -13240   -13244   -13247   -13251   -13257   -13261   -13263 
  -13263   -13270   -13277   -13278   -13282   -13288   -13292   -13296 
  -13302   -13306   -13309   -13313   -13321   -13324   -13327   -13332 
  -13335   -13338   -13342   -13343   -13344   -13348   -13354   -13355 
  -13355   -13358   -13359   -13362   -13366   -13362   -13362   -13367 
  -13367   -13367   -13369   -13370   -13369   -13369   -13371   -13371 
  -13373   -13373   -13374   -13374   -13374   -13371   -13371   -13371 
  -13371   -13373   -13375   -13375   -13374   -13373   -13374   -13375 
  -13377   -13378   -13379   -13381   -13381   -13382   -13385   -13386 
  -13386   -13386   -13387   -13386   -13386   -13386   -13383   -13382 
  -13378   -13374   -13373   -13370   -13367   -13365   -13359   -13355 
  -13351   -13347   -13342   -13339   -13333   -13329   -13325   -13319 
  -13313   -13309   -13304   -13294   -13290   -13286   -13281   -13274 
  -13269   -13263   -13259   -13255   -13248   -13242   -13236   -13231 
  -13228   -13223   -13216   -13209   -13204   -13198   -13196   -13190 
  -13184   -13178   -13174   -13169   -13163   -13158   -13154   -13146 
  -13138   -13132   -13124   -13116   -13105   -13097   -13090   -13081 
  -13072   -13065   -13054   -13047   -13046   -13036   -13027   -13027 
  -13020   -13014   -13011   -13008   -13001   -12997   -12997   -12995 
  -12993   -12997   -12996   -12992   -12996   -12999   -13000   -13007 
  -13011   -13015   -13022   -13027   -13034   -13047   -13055   -13061 
  -13069   -13081   -13093   -13104   -13112   -13124   -13136   -13146 
  -13157   -13169   -13180   -13188   -13200   -13212   -13224   -13234 
  -13242   -13255   -13266   -13273   -13281   -13288   -13294   -13304 
  -13309   -13315   -13324   -13328   -13329   -13336   -13342   -13344 
  -13351   -13354   -13355   -13360   -13363   -13363   -13365   -13366 
  -13367   -13367   -13367   -13367   -13367   -13366   -13365   -13362 
  -13359   -13356   -13354   -13347   -13343   -13340   -13335   -13331 
  -13324   -13316   -13311   -13306   -13297   -13290   -13285   -13274 
  -13266   -13262   -13254   -13246   -13240   -13231   -13223   -13217 
  -13208   -13201   -13198   -13193   -13188   -13178   -13170   -13167 
  -13165   -13158   -13153   -13149   -13146   -13140   -13135   -13131 
  -13128   -13124   -13120   -13119   -13119   -13116   -13111   -13111 
  -13112   -13109   -13108   -13109   -13105   -13103   -13103   -13101 
  -13101   -13100   -13100   -13100   -13097   -13100   -13103   -13101 
  -13101   -13103   -13103   -13103   -13108   -13109   -13109   -13112 
  -13113   -13115   -13116   -13117   -13120   -13124   -13126   -13127 
  -13130   -13132   -13138   -13140   -13143   -13146   -13147   -13153 
  -13159   -13163   -13166   -13170   -13176   -13180   -13182   -13186 
  -13192   -13196   -13198   -13201   -13207   -13209   -13212   -13219 
  -13227   -13230   -13234   -13242   -13246   -13248   -13257   -13266 
  -13270   -13273   -13278   -13286   -13294   -13300   -13305   -13313 
  -13323   -13328   -13333   -13340   -13347   -13358   -13367   -13373 
  -13382   -13393   -13400   -13406   -13416   -13427   -13436   -13443 
  -13451   -13456   -13462   -13470   -13474   -13475   -13481   -13483 
  -13485   -13486   -13487   -13489   -13490   -13490   -13489   -13487 
  -13487   -13487   -13486   -13481   -13478   -13479   -13475   -13470 
  -13464   -13459   -13455   -13452   -13446   -13437   -13431   -13423 
  -13412   -13404   -13398   -13390   -13382   -13373   -13362   -13352 
  -13344   -13335   -13327   -13321   -13313   -13306   -13300   -13293 
  -13282   -13277   -13273   -13265   -13257   -13254   -13248   -13244 
  -13240   -13234   -13225   -13221   -13216   -13209   -13208   -13203 
  -13196   -13193   -13190   -13185   -13181   -13178   -13173   -13167 
  -13165   -13162   -13157   -13154   -13151   -13146   -13142   -13138 
  -13134   -13130   -13124   -13120   -13119   -13112   -13107   -13109 
  -13104   -13097   -13096   -13095   -13088   -13086   -13085   -13080 
  -13076   -13073   -13070   -13069   -13066   -13061   -13055   -13054 
  -13054   -13053   -13051   -13049   -13045   -13043   -13045   -13041 
  -13041   -13042   -13041   -13039   -13038   -13038   -13041   -13042 
  -13039   -13038   -13038   -13039   -13041   -13041   -13041   -13045 
  -13045   -13045   -13047   -13049   -13049   -13053   -13054   -13055 
  -13058   -13062   -13068   -13072   -13077   -13081   -13084   -13090 
  -13097   -13100   -13107   -13115   -13122   -13130   -13139   -13144 
  -13151   -13161   -13167   -13173   -13182   -13194   -13201   -13205 
  -13213   -13221   -13231   -13238   -13243   -13251   -13258   -13263 
  -13271   -13278   -13284   -13290   -13297   -13302   -13308   -13311 
  -13313   -13319   -13324   -13328   -13333   -13335   -13336   -13342 
  -13346   -13347   -13347   -13348   -13350   -13354   -13356   -13356 
  -13358   -13356   -13355   -13356   -13354   -13351   -13351   -13350 
  -13347   -13346   -13344   -13343   -13343   -13338   -13335   -13335 
  -13331   -13325   -13324   -13323   -13320   -13317   -13315   -13312 
  -13311   -13309   -13306   -13305   -13304   -13302   -13304   -13304 
  -13300   -13297   -13300   -13298   -13300   -13301   -13298   -13298 
  -13301   -13301   -13301   -13302   -13301   -13300   -13301   -13300 
  -13298   -13297   -13296   -13293   -13294   -13292   -13288   -13284 
  -13282   -13282   -13279   -13274   -13270   -13267   -13266   -13263 
  -13258   -13251   -13248   -13246   -13238   -13232   -13231   -13227 
  -13219   -13213   -13211   -13207   -13201   -13196   -13192   -13188 
  -13186   -13184   -13178   -13178   -13180   -13177   -13174   -13173 
  -13176   -13176   -13177   -13180   -13181   -13184   -13189   -13189 
  -13190   -13200   -13204   -13208   -13216   -13220   -13225   -13234 
  -13239   -13243   -13251   -13258   -13263   -13269   -13275   -13282 
  -13288   -13294   -13302   -13305   -13311   -13319   -13323   -13328 
  -13331   -13332   -13338   -13342   -13343   -13343   -13346   -13350 
  -13352   -13355   -13355   -13356   -13362   -13362   -13365   -13366 
  -13366   -13371   -13375   -13375   -13377   -13377   -13375   -13379 
  -13381   -13378   -13378   -13381   -13381   -13379   -13378   -13378 
  -13381   -13381   -13378   -13378   -13381   -13378   -13377   -13378 
  -13378   -13381   -13381   -13379   -13381   -13383   -13381   -13381 
  -13381   -13379   -13379   -13378   -13378   -13378   -13378   -13377 
  -13374   -13374   -13373   -13369   -13363   -13360   -13359   -13355 
  -13351   -13347   -13343   -13340   -13336   -13331   -13325   -13319 
  -13315   -13312   -13305   -13298   -13296   -13293   -13286   -13279 
  -13275   -13270   -13265   -13259   -13257   -13252   -13247   -13242 
  -13238   -13232   -13227   -13223   -13220   -13215   -13209   -13204 
  -13200   -13196   -13192   -13190   -13188   -13185   -13180   -13171 
  -13169   -13167   -13162   -13158   -13155   -13153   -13151   -13149 
  -13144   -13140   -13136   -13135   -13134   -13131   -13130   -13127 
  -13124   -13123   -13120   -13117   -13115   -13112   -13109   -13108 
  -13105   -13103   -13100   -13097   -13095   -13095   -13092   -13089 
  -13086   -13084   -13084   -13082   -13082   -13082   -13081   -13077 
  -13077   -13078   -13078   -13080   -13085   -13084   -13085   -13088 
  -13088   -13090   -13097   -13099   -13099   -13104   -13108   -13111 
  -13115   -13119   -13123   -13127   -13131   -13134   -13138   -13142 
  -13149   -13153   -13154   -13157   -13162   -13169   -13173   -13173 
  -13176   -13180   -13182   -13186   -13190   -13190   -13193   -13197 
  -13198   -13200   -13204   -13205   -13204   -13207   -13209   -13207 
  -13205   -13207   -13209   -13211   -13207   -13205   -13208   -13208 
  -13208   -13209   -13209   -13209   -13211   -13212   -13215   -13215 
  -13216   -13220   -13223   -13225   -13234   -13236   -13240   -13248 
  -13254   -13258   -13266   -13277   -13284   -13292   -13304   -13312 
  -13321   -13332   -13343   -13355   -13369   -13379   -13396   -13410 
  -13420   -13433   -13450   -13463   -13475   -13489   -13501   -13516 
  -13529   -13540   -13552   -13564   -13575   -13589   -13601   -13612 
  -13618   -13625   -13636   -13644   -13649   -13656   -13662   -13664 
  -13668   -13671   -13671   -13672   -13675   -13674   -13670   -13667 
  -13667   -13663   -13655   -13651   -13649   -13644   -13635   -13626 
  -13618   -13612   -13601   -13587   -13578   -13568   -13555   -13539 
  -13522   -13506   -13491   -13479   -13463   -13441   -13425   -13409 
  -13389   -13370   -13350   -13328   -13309   -13290   -13270   -13247 
  -13221   -13198   -13177   -13157   -13136   -13116   -13095   -13072 
  -13051   -13034   -13015   -12997   -12982   -12966   -12951   -12939 
  -12926   -12914   -12904   -12895   -12887   -12880   -12877   -12874 
  -12872   -12870   -12870   -12872   -12876   -12880   -12883   -12885 
  -12893   -12900   -12908   -12920   -12930   -12939   -12951   -12961 
  -12970   -12981   -12991   -13005   -13019   -13032   -13047   -13059 
  -13069   -13080   -13093   -13105   -13116   -13127   -13136   -13146 
  -13155   -13165   -13173   -13180   -13184   -13188   -13194   -13200 
  -13205   -13209   -13213   -13215   -13217   -13219   -13217   -13220 
  -13224   -13224   -13220   -13220   -13223   -13220   -13219   -13219 
  -13217   -13216   -13215   -13212   -13211   -13209   -13204   -13203 
  -13203   -13201   -13197   -13197   -13197   -13194   -13192   -13193 
  -13194   -13193   -13190   -13192   -13190   -13188   -13189   -13188 
  -13188   -13188   -13186   -13186   -13188   -13188   -13189   -13185 
  -13184   -13186   -13188   -13186   -13185   -13185   -13186   -13189 
  -13188   -13184   -13184   -13186   -13188   -13189   -13189   -13188 
  -13190   -13193   -13193   -13194   -13198   -13203   -13207   -13211 
  -13216   -13221   -13228   -13235   -13243   -13250   -13258   -13266 
  -13275   -13282   -13289   -13297   -13305   -13316   -13324   -13331 
  -13338   -13347   -13355   -13359   -13367   -13375   -13382   -13387 
  -13397   -13404   -13406   -13413   -13421   -13423   -13427   -13432 
  -13437   -13441   -13441   -13444   -13448   -13450   -13452   -13455 
  -13454   -13454   -13456   -13456   -13455   -13455   -13454   -13454 
  -13454   -13452   -13451   -13448   -13447   -13448   -13443   -13440 
  -13439   -13433   -13431   -13429   -13427   -13421   -13417   -13414 
  -13409   -13404   -13401   -13396   -13390   -13387   -13381   -13375 
  -13371   -13365   -13359   -13355   -13351   -13346   -13340   -13336 
  -13329   -13324   -13320   -13316   -13306   -13300   -13294   -13290 
  -13286   -13279   -13271   -13265   -13259   -13257   -13251   -13247 
  -13243   -13236   -13228   -13227   -13223   -13216   -13212   -13209 
  -13205   -13198   -13194   -13193   -13188   -13181   -13177   -13177 
  -13173   -13170   -13169   -13165   -13162   -13161   -13158   -13155 
  -13154   -13154   -13155   -13154   -13151   -13151   -13151   -13151 
  -13153   -13155   -13157   -13159   -13159   -13162   -13166   -13169 
  -13173   -13176   -13178   -13184   -13189   -13192   -13196   -13203 
  -13208   -13213   -13219   -13224   -13228   -13232   -13238   -13243 
  -13248   -13254   -13261   -13267   -13271   -13274   -13282   -13289 
  -13292   -13298   -13302   -13305   -13309   -13315   -13319   -13323 
  -13327   -13331   -13333   -13333   -13338   -13342   -13342   -13342 
  -13344   -13346   -13346   -13343   -13340   -13338   -13336   -13335 
  -13329   -13327   -13325   -13320   -13316   -13313   -13308   -13302 
  -13296   -13288   -13284   -13281   -13274   -13267   -13262   -13255 
  -13248   -13242   -13235   -13231   -13224   -13215   -13208   -13201 
  -13194   -13189   -13180   -13171   -13167   -13161   -13155   -13150 
  -13142   -13136   -13134   -13127   -13117   -13115   -13111   -13104 
  -13101   -13100   -13095   -13090   -13088   -13085   -13084   -13081 
  -13077   -13072   -13069   -13068   -13065   -13063   -13062   -13061 
  -13058   -13057   -13057   -13057   -13058   -13057   -13054   -13057 
  -13058   -13057   -13058   -13061   -13062   -13063   -13066   -13069 
  -13072   -13076   -13078   -13081   -13084   -13086   -13090   -13096 
  -13099   -13103   -13109   -13115   -13120   -13127   -13132   -13138 
  -13146   -13154   -13159   -13165   -13171   -13178   -13185   -13193 
  -13200   -13207   -13212   -13219   -13227   -13236   -13244   -13250 
  -13257   -13266   -13275   -13282   -13286   -13294   -13304   -13311 
  -13316   -13323   -13332   -13342   -13350   -13356   -13362   -13371 
  -13378   -13385   -13394   -13401   -13409   -13421   -13431   -13435 
  -13444   -13452   -13456   -13460   -13467   -13473   -13477   -13482 
  -13486   -13491   -13494   -13495   -13497   -13500   -13502   -13504 
  -13502   -13505   -13505   -13502   -13502   -13500   -13495   -13493 
  -13487   -13485   -13479   -13474   -13471   -13463   -13454   -13448 
  -13441   -13432   -13427   -13419   -13409   -13400   -13392   -13382 
  -13371   -13359   -13347   -13339   -13329   -13317   -13306   -13298 
  -13290   -13278   -13267   -13258   -13248   -13240   -13231   -13220 
  -13212   -13205   -13198   -13193   -13186   -13177   -13170   -13167 
  -13162   -13155   -13150   -13147   -13146   -13142   -13140   -13138 
  -13135   -13134   -13131   -13130   -13130   -13130   -13127   -13128 
  -13130   -13131   -13131   -13132   -13134   -13136   -13136   -13138 
  -13140   -13140   -13142   -13144   -13146   -13144   -13149   -13153 
  -13154   -13155   -13158   -13159   -13162   -13165   -13166   -13170 
  -13173   -13176   -13180   -13186   -13189   -13192   -13197   -13200 
  -13203   -13209   -13215   -13216   -13219   -13223   -13231   -13236 
  -13239   -13243   -13246   -13252   -13259   -13263   -13269   -13275 
  -13279   -13282   -13284   -13289   -13293   -13296   -13298   -13301 
  -13302   -13304   -13306   -13308   -13309   -13312   -13312   -13313 
  -13315   -13312   -13313   -13316   -13313   -13315   -13316   -13315 
  -13315   -13316   -13313   -13312   -13313   -13311   -13311   -13313 
