Origin Time       2025/01/13 21:19:00
Lat.              31.8
Long.             131.6
Depth. (km)       30
Mag.              6.9
Station Code      FKIH07
Station Lat.      35.4573
Station Long.     135.7266
Station Height(m) 43
Record Time       2025/01/13 21:22:18
Sampling Freq(Hz) 100Hz
Duration Time(s)  120
Dir.              4
Scale Factor      3920(gal)/6170801
Max. Acc. (gal)   0.245
Last Correction   2025/01/13 21:22:03
Memo.             
[...]
  -33411   -33418   -33423   -33429   -33436   -33438   -33439   -33437 
  -33433   -33428   -33424   -33417   -33412   -33409   -33403   -33401 
  -33403   -33409   -33420   -33432   -33442   -33452   -33458   -33458 
  -33456   -33452   -33450   -33450   -33452   -33453   -33456   -33465 
  -33474   -33482   -33492   -33499   -33504   -33504   -33497   -33486 
  -33473   -33458   -33446   -33439   -33437   -33439   -33441   -33442 
  -33442   -33444   -33446   -33447   -33451   -33454   -33456   -33464 
  -33475   -33485   -33496   -33504   -33505   -33499   -33492   -33485 
  -33474   -33464   -33457   -33449   -33439   -33430   -33422   -33412 
  -33406   -33402   -33397   -33392   -33386   -33380   -33377   -33375 
  -33375   -33378   -33384   -33392   -33403   -33414   -33427   -33440 
  -33453   -33463   -33473   -33480   -33482   -33485   -33492   -33500 
  -33506   -33509   -33506   -33497   -33485   -33472   -33456   -33443 
  -33433   -33424   -33414   -33408   -33402   -33399   -33402   -33404 
  -33406   -33410   -33412   -33415   -33416   -33415   -33411   -33407 
  -33403   -33400   -33401   -33407   -33415   -33423   -33434   -33441 
  -33440   -33440   -33439   -33437   -33434   -33434   -33437   -33439 
  -33445   -33455   -33464   -33471   -33475   -33473   -33465   -33457 
  -33446   -33433   -33423   -33418   -33413   -33413   -33414   -33415 
  -33416   -33418   -33422   -33428   -33430   -33431   -33431   -33428 
  -33427   -33431   -33439   -33451   -33465   -33483   -33502   -33517 
  -33531   -33546   -33558   -33565   -33570   -33572   -33572   -33569 
  -33566   -33563   -33562   -33559   -33554   -33550   -33548   -33545 
  -33541   -33534   -33524   -33512   -33497   -33479   -33460   -33445 
  -33435   -33424   -33412   -33405   -33400   -33399   -33406   -33413 
  -33424   -33436   -33447   -33457   -33466   -33474   -33479   -33478 
  -33477   -33473   -33465   -33455   -33444   -33439   -33435   -33431 
  -33428   -33428   -33430   -33435   -33441   -33444   -33449   -33454 
  -33457   -33456   -33459   -33461   -33457   -33451   -33444   -33437 
  -33432   -33429   -33428   -33435   -33447   -33455   -33465   -33473 
  -33476   -33477   -33476   -33470   -33458   -33443   -33428   -33415 
  -33404   -33398   -33398   -33400   -33402   -33399   -33396   -33392 
  -33387   -33384   -33385   -33388   -33395   -33405   -33419   -33434 
  -33447   -33459   -33467   -33470   -33469   -33466   -33464   -33460 
  -33458   -33456   -33456   -33459   -33461   -33464   -33471   -33474 
  -33474   -33477   -33483   -33488   -33495   -33500   -33500   -33500 
  -33499   -33493   -33485   -33475   -33462   -33452   -33446   -33437 
  -33430   -33424   -33416   -33409   -33402   -33393   -33382   -33375 
  -33371   -33367   -33368   -33375   -33384   -33393   -33402   -33410 
  -33419   -33425   -33427   -33426   -33424   -33422   -33419   -33416 
  -33414   -33415   -33416   -33415   -33417   -33420   -33421   -33422 
  -33425   -33430   -33436   -33442   -33447   -33452   -33459   -33466 
  -33470   -33475   -33479   -33478   -33476   -33473   -33468   -33466 
  -33466   -33466   -33465   -33463   -33459   -33458   -33460   -33462 
  -33467   -33472   -33476   -33482   -33487   -33492   -33494   -33491 
  -33486   -33478   -33463   -33448   -33436   -33430   -33432   -33438 
  -33445   -33449   -33449   -33448   -33445   -33443   -33444   -33449 
  -33454   -33461   -33465   -33468   -33475   -33482   -33485   -33486 
  -33484   -33482   -33484   -33488   -33491   -33492   -33491   -33490 
  -33486   -33479   -33471   -33464   -33458   -33454   -33455   -33458 
  -33462   -33466   -33472   -33478   -33483   -33489   -33494   -33492 
  -33487   -33479   -33466   -33451   -33441   -33434   -33433   -33439 
  -33448   -33457   -33463   -33470   -33473   -33473   -33476   -33480 
  -33483   -33487   -33490   -33489   -33487   -33482   -33471   -33457 
  -33443   -33429   -33417   -33413   -33412   -33414   -33421   -33431 
  -33443   -33452   -33464   -33476   -33483   -33486   -33490   -33493 
  -33493   -33493   -33491   -33485   -33475   -33465   -33455   -33443 
  -33431   -33419   -33409   -33401   -33397   -33395   -33394   -33395 
  -33394   -33396   -33401   -33406   -33413   -33423   -33431   -33435 
  -33438   -33446   -33451   -33456   -33465   -33471   -33471   -33469 
  -33463   -33459   -33457   -33456   -33459   -33460   -33459   -33457 
  -33457   -33453   -33447   -33444   -33441   -33438   -33434   -33429 
  -33424   -33421   -33421   -33424   -33428   -33435   -33442   -33448 
  -33455   -33459   -33462   -33466   -33469   -33469   -33471   -33471 
  -33469   -33467   -33465   -33464   -33462   -33456   -33450   -33446 
  -33443   -33438   -33435   -33434   -33435   -33435   -33437   -33443 
  -33450   -33458   -33464   -33465   -33465   -33470   -33479   -33490 
  -33503   -33516   -33527   -33538   -33548   -33557   -33565   -33568 
  -33569   -33568   -33563   -33554   -33548   -33542   -33535   -33528 
  -33523   -33518   -33515   -33511   -33506   -33504   -33505   -33505 
  -33508   -33517   -33528   -33542   -33558   -33577   -33593   -33603 
  -33610   -33612   -33606   -33599   -33589   -33574   -33558   -33543 
  -33526   -33510   -33496   -33487   -33483   -33482   -33484   -33486 
  -33487   -33490   -33492   -33494   -33495   -33497   -33497   -33493 
  -33489   -33488   -33484   -33481   -33476   -33467   -33457   -33448 
  -33441   -33435   -33431   -33428   -33421   -33411   -33402   -33397 
  -33396   -33396   -33399   -33405   -33409   -33409   -33407   -33400 
  -33396   -33398   -33397   -33399   -33400   -33391   -33387   -33389 
  -33383   -33375   -33374   -33373   -33359   -33347   -33346   -33340 
  -33334   -33338   -33340   -33340   -33346   -33349   -33350   -33353 
  -33354   -33353   -33350   -33346   -33340   -33333   -33329   -33327 
  -33323   -33320   -33315   -33310   -33307   -33309   -33315   -33322 
  -33332   -33340   -33348   -33359   -33367   -33373   -33382   -33389 
  -33392   -33394   -33395   -33390   -33384   -33382   -33381   -33380 
  -33388   -33399   -33408   -33422   -33440   -33458   -33477   -33500 
  -33524   -33546   -33566   -33584   -33597   -33605   -33612   -33615 
  -33614   -33612   -33611   -33607   -33603   -33598   -33592   -33588 
  -33585   -33580   -33572   -33564   -33560   -33558   -33559   -33561 
  -33560   -33556   -33553   -33548   -33540   -33531   -33521   -33509 
  -33498   -33489   -33483   -33478   -33473   -33468   -33465   -33463 
  -33460   -33457   -33457   -33456   -33453   -33449   -33441   -33431 
  -33420   -33408   -33397   -33390   -33385   -33381   -33379   -33379 
  -33381   -33381   -33380   -33383   -33389   -33396   -33406   -33419 
  -33434   -33448   -33461   -33475   -33488   -33495   -33500   -33503 
  -33503   -33498   -33492   -33486   -33476   -33464   -33454   -33447 
  -33441   -33437   -33437   -33439   -33439   -33436   -33433   -33432 
  -33430   -33429   -33429   -33427   -33424   -33423   -33422   -33421 
  -33425   -33430   -33432   -33433   -33433   -33431   -33428   -33425 
  -33422   -33418   -33412   -33403   -33395   -33389   -33381   -33376 
  -33375   -33375   -33377   -33383   -33392   -33400   -33408   -33417 
  -33425   -33432   -33444   -33457   -33466   -33472   -33479   -33486 
  -33492   -33498   -33508   -33517   -33523   -33530   -33533   -33534 
  -33537   -33540   -33542   -33546   -33550   -33551   -33550   -33548 
  -33541   -33529   -33518   -33507   -33496   -33487   -33479   -33470 
  -33467   -33468   -33466   -33467   -33467   -33458   -33445   -33434 
  -33423   -33413   -33406   -33400   -33394   -33388   -33383   -33382 
  -33382   -33380   -33379   -33379   -33379   -33380   -33386   -33395 
  -33404   -33414   -33425   -33433   -33442   -33456   -33468   -33479 
  -33493   -33506   -33516   -33523   -33530   -33537   -33541   -33544 
  -33546   -33543   -33538   -33532   -33527   -33519   -33510   -33503 
  -33496   -33492   -33490   -33485   -33475   -33468   -33459   -33449 
  -33440   -33436   -33433   -33430   -33428   -33428   -33425   -33422 
  -33421   -33419   -33413   -33406   -33396   -33385   -33375   -33366 
  -33357   -33351   -33345   -33340   -33341   -33345   -33351   -33357 
  -33360   -33362   -33365   -33365   -33362   -33356   -33349   -33344 
  -33344   -33348   -33356   -33371   -33390   -33404   -33415   -33427 
  -33438   -33446   -33448   -33444   -33439   -33431   -33418   -33401 
  -33386   -33374   -33362   -33352   -33345   -33338   -33334   -33332 
  -33332   -33333   -33336   -33339   -33346   -33354   -33361   -33369 
  -33375   -33377   -33377   -33376   -33371   -33367   -33364   -33360 
  -33352   -33346   -33342   -33338   -33337   -33339   -33342   -33344 
  -33347   -33350   -33350   -33350   -33352   -33354   -33355   -33355 
  -33354   -33351   -33349   -33348   -33347   -33349   -33355   -33362 
  -33374   -33389   -33402   -33417   -33433   -33444   -33453   -33463 
  -33469   -33474   -33476   -33476   -33477   -33477   -33473   -33471 
  -33469   -33466   -33463   -33461   -33460   -33464   -33468   -33473 
  -33482   -33490   -33494   -33498   -33501   -33504   -33500   -33495 
  -33493   -33493   -33492   -33493   -33493   -33495   -33497   -33495 
  -33496   -33497   -33495   -33494   -33492   -33487   -33485   -33484 
  -33482   -33477   -33471   -33469   -33471   -33475   -33478   -33479 
  -33481   -33483   -33484   -33490   -33498   -33505   -33516   -33530 
  -33542   -33556   -33571   -33581   -33588   -33592   -33592   -33588 
  -33583   -33582   -33583   -33585   -33589   -33594   -33598   -33600 
  -33597   -33592   -33588   -33582   -33575   -33568   -33559   -33549 
  -33538   -33530   -33521   -33513   -33508   -33500   -33492   -33487 
  -33482   -33476   -33472   -33471   -33473   -33476   -33477   -33480 
  -33483   -33485   -33486   -33485   -33484   -33482   -33478   -33475 
  -33473   -33470   -33467   -33462   -33458   -33453   -33448   -33442 
  -33438   -33437   -33436   -33439   -33445   -33451   -33456   -33460 
  -33465   -33470   -33475   -33480   -33484   -33486   -33487   -33486 
  -33485   -33485   -33486   -33487   -33490   -33498   -33509   -33519 
  -33531   -33548   -33563   -33574   -33589   -33602   -33612   -33622 
  -33633   -33639   -33641   -33636   -33628   -33620   -33606   -33587 
  -33569   -33549   -33531   -33515   -33500   -33488   -33483   -33478 
  -33471   -33470   -33469   -33461   -33455   -33448   -33436   -33423 
  -33410   -33400   -33393   -33387   -33382   -33380   -33377   -33374 
  -33375   -33379   -33382   -33387   -33389   -33387   -33385   -33381 
  -33376   -33372   -33363   -33350   -33342   -33337   -33332   -33331 
  -33333   -33335   -33343   -33356   -33374   -33395   -33417   -33441 
  -33459   -33473   -33488   -33502   -33510   -33518   -33526   -33532 
  -33537   -33537   -33534   -33529   -33523   -33515   -33505   -33495 
  -33487   -33478   -33469   -33462   -33462   -33465   -33469   -33474 
  -33485   -33499   -33514   -33530   -33543   -33554   -33565   -33571 
  -33569   -33563   -33554   -33543   -33528   -33514   -33502   -33488 
  -33475   -33463   -33455   -33452   -33456   -33462   -33471   -33482 
  -33493   -33502   -33511   -33516   -33516   -33516   -33516   -33511 
  -33505   -33499   -33492   -33483   -33476   -33469   -33466   -33467 
  -33469   -33473   -33476   -33477   -33480   -33483   -33482   -33479 
  -33475   -33472   -33464   -33454   -33443   -33431   -33420   -33410 
  -33405   -33403   -33406   -33416   -33431   -33449   -33471   -33497 
  -33524   -33546   -33565   -33583   -33596   -33605   -33613   -33619 
  -33617   -33611   -33605   -33599   -33593   -33591   -33591   -33591 
  -33592   -33594   -33601   -33614   -33628   -33642   -33654   -33664 
  -33672   -33679   -33684   -33686   -33685   -33682   -33678   -33673 
  -33669   -33666   -33664   -33664   -33663   -33662   -33662   -33659 
  -33656   -33655   -33653   -33651   -33651   -33649   -33644   -33638 
  -33630   -33617   -33604   -33592   -33580   -33565   -33548   -33532 
  -33516   -33499   -33484   -33473   -33464   -33456   -33449   -33444 
  -33442   -33440   -33438   -33437   -33438   -33440   -33442   -33446 
  -33450   -33451   -33455   -33460   -33461   -33464   -33466   -33462 
  -33458   -33456   -33451   -33445   -33440   -33433   -33426   -33422 
  -33419   -33415   -33414   -33416   -33416   -33412   -33408   -33406 
  -33403   -33401   -33398   -33395   -33393   -33393   -33392   -33394 
  -33397   -33401   -33408   -33417   -33428   -33439   -33450   -33462 
  -33468   -33472   -33478   -33481   -33478   -33471   -33463   -33453 
  -33444   -33435   -33427   -33421   -33415   -33410   -33405   -33403 
  -33406   -33409   -33413   -33422   -33433   -33445   -33461   -33476 
  -33490   -33505   -33519   -33529   -33537   -33544   -33552   -33557 
  -33562   -33565   -33571   -33578   -33584   -33593   -33603   -33612 
  -33623   -33632   -33639   -33648   -33655   -33659   -33664   -33667 
  -33666   -33666   -33666   -33665   -33662   -33656   -33649   -33644 
  -33639   -33632   -33623   -33614   -33604   -33593   -33581   -33571 
  -33560   -33551   -33540   -33528   -33514   -33498   -33477   -33456 
  -33438   -33418   -33397   -33382   -33368   -33354   -33343   -33328 
  -33310   -33291   -33274   -33257   -33241   -33225   -33211   -33196 
  -33182   -33169   -33157   -33147   -33139   -33129   -33117   -33106 
  -33096   -33090   -33086   -33083   -33081   -33079   -33076   -33075 
  -33077   -33081   -33090   -33104   -33120   -33136   -33153   -33174 
  -33194   -33214   -33236   -33262   -33288   -33312   -33337   -33362 
  -33382   -33399   -33416   -33429   -33439   -33449   -33459   -33470 
  -33481   -33495   -33512   -33529   -33549   -33567   -33583   -33599 
  -33612   -33622   -33628   -33630   -33633   -33635   -33630   -33624 
  -33618   -33611   -33603   -33596   -33590   -33582   -33573   -33566 
  -33556   -33545   -33536   -33527   -33517   -33506   -33493   -33482 
  -33471   -33456   -33440   -33424   -33405   -33385   -33366   -33347 
  -33331   -33316   -33303   -33295   -33289   -33285   -33283   -33285 
  -33291   -33298   -33306   -33320   -33334   -33346   -33360   -33373 
  -33383   -33391   -33397   -33399   -33401   -33400   -33398   -33398 
  -33399   -33400   -33406   -33412   -33417   -33422   -33427   -33431 
  -33438   -33447   -33457   -33467   -33479   -33492   -33506   -33521 
  -33540   -33558   -33574   -33590   -33607   -33622   -33637   -33656 
  -33674   -33691   -33708   -33725   -33743   -33759   -33774   -33790 
  -33805   -33819   -33827   -33832   -33836   -33841   -33844   -33843 
  -33842   -33839   -33835   -33828   -33820   -33813   -33804   -33787 
  -33766   -33743   -33720   -33695   -33671   -33649   -33627   -33609 
  -33592   -33575   -33562   -33550   -33535   -33518   -33504   -33491 
  -33478   -33467   -33456   -33447   -33440   -33435   -33431   -33430 
  -33430   -33428   -33423   -33417   -33413   -33411   -33409   -33409 
  -33411   -33416   -33422   -33430   -33435   -33440   -33445   -33446 
  -33444   -33443   -33438   -33429   -33423   -33418   -33414   -33411 
  -33409   -33405   -33402   -33399   -33394   -33388   -33386   -33384 
  -33381   -33381   -33383   -33387   -33392   -33395   -33398   -33398 
  -33396   -33390   -33383   -33376   -33367   -33357   -33349   -33339 
  -33329   -33321   -33311   -33302   -33298   -33298   -33301   -33310 
  -33323   -33338   -33353   -33367   -33380   -33391   -33399   -33404 
  -33409   -33411   -33410   -33407   -33402   -33394   -33386   -33382 
  -33377   -33368   -33356   -33347   -33339   -33331   -33324   -33322 
  -33327   -33334   -33339   -33340   -33343   -33346   -33351   -33358 
  -33365   -33371   -33380   -33393   -33407   -33420   -33435   -33452 
  -33471   -33493   -33514   -33535   -33555   -33573   -33586   -33597 
  -33606   -33613   -33618   -33622   -33626   -33627   -33624   -33618 
  -33613   -33609   -33605   -33600   -33595   -33588   -33579   -33569 
  -33560   -33549   -33536   -33520   -33507   -33497   -33487   -33477 
  -33468   -33457   -33446   -33437   -33427   -33418   -33414   -33412 
  -33412   -33413   -33419   -33434   -33449   -33462   -33476   -33491 
  -33504   -33517   -33527   -33533   -33536   -33537   -33534   -33528 
  -33523   -33514   -33499   -33484   -33470   -33452   -33433   -33419 
  -33405   -33394   -33390   -33388   -33389   -33395   -33404   -33414 
  -33424   -33432   -33441   -33448   -33454   -33458   -33460   -33463 
  -33466   -33466   -33465   -33462   -33458   -33454   -33444   -33433 
  -33426   -33419   -33413   -33408   -33402   -33399   -33401   -33402 
  -33399   -33396   -33395   -33391   -33387   -33385   -33383   -33382 
  -33381   -33380   -33382   -33385   -33386   -33389   -33395   -33397 
  -33400   -33404   -33408   -33417   -33428   -33439   -33455   -33469 
  -33478   -33489   -33498   -33501   -33502   -33503   -33501   -33500 
  -33498   -33495   -33494   -33496   -33498   -33498   -33501   -33507 
  -33509   -33512   -33519   -33525   -33532   -33542   -33554   -33563 
  -33572   -33582   -33587   -33589   -33592   -33591   -33587   -33585 
  -33584   -33581   -33579   -33574   -33570   -33564   -33553   -33541 
  -33531   -33522   -33513   -33505   -33499   -33495   -33492   -33490 
  -33488   -33484   -33477   -33470   -33460   -33448   -33438   -33429 
  -33419   -33411   -33407   -33402   -33395   -33390   -33388   -33385 
  -33381   -33381   -33380   -33377   -33377   -33382   -33388   -33395 
  -33403   -33411   -33422   -33433   -33444   -33455   -33463   -33468 
  -33472   -33473   -33471   -33464   -33455   -33443   -33428   -33416 
  -33400   -33379   -33361   -33343   -33323   -33306   -33291   -33280 
  -33273   -33268   -33266   -33267   -33269   -33276   -33286   -33295 
  -33306   -33320   -33334   -33348   -33362   -33372   -33379   -33384 
  -33381   -33376   -33376   -33376   -33371   -33368   -33367   -33367 
  -33369   -33375   -33380   -33386   -33395   -33405   -33416   -33426 
  -33436   -33445   -33455   -33463   -33472   -33481   -33492   -33502 
  -33510   -33518   -33525   -33531   -33536   -33542   -33546   -33545 
  -33542   -33541   -33540   -33536   -33531   -33527   -33520   -33513 
  -33507   -33498   -33490   -33484   -33479   -33478   -33481   -33488 
  -33494   -33500   -33508   -33514   -33519   -33526   -33531   -33532 
  -33533   -33534   -33534   -33531   -33530   -33532   -33536   -33542 
  -33551   -33560   -33567   -33573   -33580   -33589   -33594   -33596 
  -33599   -33599   -33597   -33600   -33605   -33610   -33612   -33614 
  -33619   -33621   -33622   -33623   -33623   -33621   -33617   -33612 
  -33605   -33597   -33589   -33581   -33572   -33562   -33550   -33539 
  -33532   -33526   -33522   -33517   -33511   -33510   -33511   -33512 
  -33521   -33534   -33544   -33554   -33560   -33560   -33561   -33562 
  -33561   -33561   -33559   -33556   -33550   -33543   -33542   -33544 
  -33546   -33548   -33549   -33548   -33547   -33545   -33544   -33544 
  -33543   -33543   -33543   -33542   -33541   -33539   -33539   -33542 
  -33546   -33552   -33559   -33563   -33566   -33569   -33569   -33567 
  -33565   -33563   -33564   -33565   -33564   -33562   -33561   -33559 
