Origin Time       2025/01/13 21:19:00
Lat.              31.8
Long.             131.6
Depth. (km)       30
Mag.              6.9
Station Code      FKIH02
Station Lat.      35.9483
Station Long.     136.0556
Station Height(m) 120
Record Time       2025/01/13 21:22:35
Sampling Freq(Hz) 100Hz
Duration Time(s)  120
Dir.              4
Scale Factor      7845(gal)/8223790
Max. Acc. (gal)   0.207
Last Correction   2025/01/13 21:22:37
Memo.             
[...]
   -4785    -4784    -4783    -4781    -4784    -4785    -4785    -4787 
   -4784    -4774    -4770    -4766    -4757    -4750    -4749    -4743 
   -4742    -4747    -4749    -4749    -4752    -4753    -4754    -4757 
   -4758    -4762    -4765    -4764    -4760    -4758    -4757    -4756 
   -4753    -4750    -4752    -4754    -4757    -4757    -4757    -4758 
   -4756    -4754    -4754    -4753    -4749    -4746    -4743    -4738 
   -4737    -4737    -4738    -4742    -4743    -4747    -4752    -4753 
   -4756    -4754    -4754    -4756    -4756    -4756    -4760    -4762 
   -4765    -4770    -4776    -4777    -4777    -4774    -4772    -4770 
   -4766    -4762    -4762    -4760    -4756    -4757    -4757    -4760 
   -4762    -4764    -4766    -4769    -4772    -4777    -4784    -4788 
   -4789    -4791    -4791    -4789    -4788    -4784    -4781    -4783 
   -4783    -4783    -4788    -4788    -4784    -4783    -4781    -4774 
   -4768    -4765    -4762    -4758    -4756    -4756    -4758    -4765 
   -4772    -4776    -4779    -4783    -4787    -4789    -4789    -4789 
   -4787    -4783    -4779    -4773    -4770    -4768    -4764    -4765 
   -4765    -4760    -4761    -4761    -4757    -4760    -4760    -4762 
   -4769    -4768    -4765    -4766    -4766    -4762    -4757    -4760 
   -4762    -4761    -4764    -4768    -4766    -4765    -4765    -4769 
   -4772    -4776    -4776    -4777    -4783    -4785    -4787    -4796 
   -4800    -4801    -4808    -4810    -4806    -4804    -4800    -4792 
   -4788    -4785    -4779    -4773    -4773    -4772    -4770    -4770 
   -4774    -4779    -4783    -4789    -4795    -4795    -4795    -4796 
   -4791    -4783    -4776    -4772    -4768    -4766    -4768    -4766 
   -4765    -4766    -4764    -4764    -4765    -4766    -4768    -4768 
   -4766    -4768    -4769    -4764    -4762    -4770    -4774    -4776 
   -4781    -4783    -4783    -4784    -4783    -4784    -4783    -4774 
   -4772    -4774    -4772    -4765    -4761    -4760    -4758    -4756 
   -4756    -4760    -4765    -4770    -4779    -4785    -4791    -4796 
   -4800    -4799    -4799    -4801    -4801    -4799    -4800    -4801 
   -4799    -4796    -4792    -4788    -4789    -4787    -4783    -4784 
   -4787    -4787    -4791    -4795    -4791    -4791    -4791    -4789 
   -4791    -4788    -4783    -4779    -4777    -4777    -4774    -4772 
   -4772    -4770    -4768    -4768    -4770    -4770    -4768    -4768 
   -4766    -4765    -4766    -4766    -4762    -4761    -4761    -4757 
   -4750    -4749    -4753    -4754    -4757    -4761    -4765    -4766 
   -4764    -4761    -4762    -4760    -4754    -4752    -4749    -4747 
   -4742    -4741    -4742    -4735    -4729    -4726    -4719    -4715 
   -4718    -4718    -4715    -4716    -4718    -4718    -4722    -4723 
   -4727    -4734    -4738    -4743    -4750    -4753    -4757    -4760 
   -4758    -4760    -4762    -4766    -4766    -4765    -4761    -4761 
   -4760    -4757    -4756    -4753    -4752    -4754    -4756    -4756 
   -4760    -4764    -4765    -4769    -4774    -4777    -4787    -4792 
   -4793    -4795    -4793    -4793    -4799    -4800    -4797    -4795 
   -4796    -4797    -4796    -4792    -4788    -4787    -4787    -4784 
   -4783    -4781    -4781    -4783    -4784    -4779    -4779    -4783 
   -4784    -4783    -4780    -4777    -4774    -4772    -4769    -4764 
   -4760    -4753    -4750    -4752    -4747    -4745    -4747    -4749 
   -4749    -4749    -4749    -4750    -4752    -4753    -4753    -4753 
   -4754    -4753    -4752    -4749    -4743    -4742    -4738    -4729 
   -4723    -4722    -4719    -4718    -4720    -4722    -4725    -4725 
   -4722    -4726    -4734    -4738    -4742    -4749    -4753    -4754 
   -4757    -4756    -4757    -4757    -4754    -4756    -4758    -4757 
   -4756    -4757    -4758    -4760    -4762    -4764    -4765    -4769 
   -4773    -4776    -4783    -4788    -4789    -4792    -4791    -4785 
   -4779    -4777    -4774    -4772    -4774    -4774    -4770    -4770 
   -4770    -4769    -4769    -4770    -4772    -4773    -4776    -4779 
   -4780    -4781    -4787    -4791    -4797    -4804    -4810    -4819 
   -4828    -4835    -4843    -4849    -4853    -4855    -4854    -4854 
   -4851    -4843    -4834    -4826    -4816    -4808    -4801    -4795 
   -4788    -4787    -4783    -4779    -4783    -4784    -4783    -4787 
   -4795    -4800    -4801    -4807    -4814    -4815    -4816    -4820 
   -4823    -4820    -4816    -4818    -4818    -4816    -4818    -4816 
   -4814    -4812    -4807    -4799    -4797    -4793    -4787    -4780 
   -4777    -4776    -4777    -4777    -4777    -4779    -4780    -4781 
   -4785    -4787    -4785    -4785    -4785    -4784    -4785    -4784 
   -4780    -4776    -4776    -4774    -4774    -4777    -4779    -4774 
   -4774    -4774    -4770    -4772    -4769    -4765    -4766    -4764 
   -4761    -4764    -4761    -4760    -4760    -4760    -4760    -4761 
   -4764    -4764    -4762    -4766    -4770    -4770    -4769    -4766 
   -4765    -4768    -4765    -4762    -4764    -4765    -4765    -4762 
   -4758    -4754    -4753    -4749    -4743    -4741    -4737    -4733 
   -4730    -4725    -4722    -4723    -4722    -4722    -4726    -4725 
   -4720    -4720    -4723    -4722    -4718    -4712    -4710    -4704 
   -4704    -4711    -4712    -4712    -4716    -4715    -4714    -4718 
   -4722    -4720    -4720    -4719    -4719    -4720    -4720    -4718 
   -4718    -4716    -4714    -4712    -4712    -4710    -4704    -4702 
   -4704    -4704    -4707    -4707    -4707    -4711    -4715    -4712 
   -4711    -4714    -4718    -4716    -4715    -4715    -4716    -4719 
   -4722    -4727    -4730    -4733    -4738    -4745    -4752    -4756 
   -4757    -4760    -4761    -4762    -4761    -4758    -4758    -4757 
   -4757    -4757    -4754    -4750    -4752    -4753    -4750    -4753 
   -4754    -4753    -4757    -4761    -4758    -4758    -4760    -4761 
   -4761    -4761    -4762    -4760    -4756    -4756    -4754    -4747 
   -4741    -4739    -4737    -4733    -4730    -4730    -4729    -4730 
   -4731    -4730    -4729    -4729    -4730    -4730    -4731    -4733 
   -4730    -4730    -4733    -4729    -4725    -4720    -4718    -4716 
   -4715    -4714    -4714    -4714    -4714    -4719    -4723    -4727 
   -4734    -4739    -4741    -4742    -4745    -4747    -4749    -4750 
   -4753    -4754    -4756    -4760    -4765    -4766    -4765    -4769 
   -4772    -4773    -4774    -4779    -4783    -4785    -4792    -4800 
   -4807    -4814    -4818    -4822    -4830    -4837    -4843    -4851 
   -4860    -4865    -4868    -4873    -4878    -4880    -4880    -4880 
   -4880    -4878    -4874    -4872    -4872    -4868    -4860    -4857 
   -4851    -4847    -4847    -4847    -4843    -4842    -4841    -4839 
   -4838    -4837    -4837    -4839    -4839    -4835    -4831    -4826 
   -4823    -4823    -4816    -4810    -4808    -4806    -4799    -4799 
   -4799    -4796    -4793    -4791    -4788    -4785    -4783    -4777 
   -4777    -4774    -4766    -4761    -4762    -4762    -4760    -4752 
   -4743    -4738    -4735    -4731    -4730    -4733    -4729    -4725 
   -4729    -4731    -4735    -4745    -4746    -4749    -4756    -4761 
   -4765    -4769    -4770    -4770    -4772    -4773    -4774    -4779 
   -4781    -4781    -4781    -4783    -4783    -4783    -4780    -4776 
   -4774    -4777    -4774    -4770    -4769    -4766    -4768    -4769 
   -4769    -4769    -4770    -4770    -4773    -4776    -4777    -4777 
   -4777    -4776    -4776    -4779    -4779    -4777    -4777    -4779 
   -4777    -4780    -4785    -4787    -4784    -4787    -4788    -4785 
   -4788    -4788    -4787    -4785    -4784    -4783    -4783    -4787 
   -4791    -4789    -4791    -4789    -4787    -4788    -4788    -4788 
   -4791    -4795    -4799    -4803    -4808    -4811    -4815    -4820 
   -4827    -4833    -4837    -4842    -4849    -4854    -4857    -4861 
   -4866    -4870    -4874    -4878    -4884    -4891    -4896    -4901 
   -4907    -4911    -4915    -4918    -4919    -4919    -4916    -4909 
   -4908    -4908    -4901    -4897    -4895    -4888    -4887    -4885 
   -4882    -4884    -4885    -4884    -4887    -4889    -4885    -4884 
   -4882    -4880    -4874    -4870    -4869    -4868    -4861    -4855 
   -4857    -4858    -4855    -4854    -4854    -4853    -4847    -4842 
   -4842    -4835    -4824    -4816    -4810    -4801    -4793    -4784 
   -4777    -4770    -4760    -4754    -4752    -4750    -4746    -4741 
   -4739    -4742    -4742    -4743    -4746    -4745    -4745    -4747 
   -4750    -4753    -4756    -4753    -4750    -4752    -4750    -4749 
   -4747    -4745    -4742    -4741    -4742    -4738    -4730    -4725 
   -4719    -4712    -4708    -4704    -4699    -4696    -4693    -4692 
   -4693    -4693    -4692    -4698    -4703    -4704    -4708    -4715 
   -4722    -4727    -4726    -4726    -4730    -4731    -4729    -4734 
   -4742    -4742    -4739    -4745    -4745    -4739    -4739    -4741 
   -4739    -4737    -4737    -4739    -4739    -4739    -4745    -4750 
   -4752    -4754    -4758    -4765    -4772    -4776    -4777    -4779 
   -4781    -4785    -4792    -4796    -4796    -4800    -4804    -4806 
   -4808    -4811    -4814    -4816    -4819    -4826    -4828    -4830 
   -4834    -4835    -4834    -4834    -4830    -4826    -4823    -4818 
   -4810    -4807    -4807    -4804    -4800    -4801    -4803    -4800 
   -4801    -4807    -4810    -4810    -4811    -4811    -4810    -4807 
   -4804    -4800    -4793    -4789    -4785    -4777    -4772    -4766 
   -4764    -4762    -4757    -4753    -4754    -4752    -4743    -4741 
   -4739    -4731    -4726    -4725    -4720    -4714    -4708    -4707 
   -4706    -4704    -4702    -4700    -4698    -4700    -4704    -4704 
   -4703    -4703    -4700    -4698    -4693    -4687    -4683    -4680 
   -4675    -4669    -4666    -4668    -4671    -4673    -4680    -4688 
   -4693    -4696    -4699    -4704    -4710    -4716    -4722    -4723 
   -4727    -4733    -4737    -4745    -4753    -4756    -4761    -4769 
   -4773    -4773    -4780    -4789    -4793    -4796    -4801    -4803 
   -4804    -4811    -4815    -4816    -4820    -4824    -4826    -4831 
   -4839    -4843    -4847    -4850    -4853    -4854    -4855    -4857 
   -4857    -4858    -4860    -4861    -4860    -4858    -4860    -4862 
   -4864    -4868    -4869    -4872    -4873    -4873    -4877    -4880 
   -4881    -4884    -4888    -4888    -4888    -4893    -4897    -4896 
   -4900    -4900    -4896    -4899    -4904    -4904    -4904    -4908 
   -4908    -4901    -4899    -4900    -4904    -4904    -4904    -4901 
   -4896    -4892    -4891    -4889    -4888    -4885    -4884    -4881 
   -4876    -4872    -4866    -4864    -4861    -4861    -4857    -4853 
   -4853    -4855    -4855    -4854    -4854    -4847    -4839    -4837 
   -4834    -4830    -4827    -4827    -4826    -4823    -4819    -4815 
   -4815    -4818    -4815    -4812    -4811    -4810    -4807    -4803 
   -4796    -4789    -4783    -4779    -4776    -4773    -4770    -4768 
   -4764    -4762    -4761    -4758    -4754    -4747    -4742    -4739 
   -4741    -4737    -4727    -4723    -4723    -4718    -4714    -4711 
   -4708    -4707    -4706    -4706    -4707    -4707    -4704    -4702 
   -4700    -4698    -4696    -4698    -4699    -4696    -4692    -4691 
   -4687    -4684    -4683    -4679    -4679    -4683    -4683    -4680 
   -4680    -4683    -4685    -4688    -4693    -4702    -4710    -4716 
   -4722    -4733    -4743    -4750    -4756    -4762    -4768    -4776 
   -4783    -4789    -4795    -4799    -4800    -4799    -4799    -4797 
   -4796    -4795    -4795    -4796    -4796    -4795    -4796    -4797 
   -4799    -4804    -4810    -4814    -4818    -4823    -4831    -4839 
   -4842    -4845    -4851    -4857    -4860    -4862    -4866    -4870 
   -4873    -4873    -4870    -4869    -4864    -4858    -4854    -4846 
   -4841    -4837    -4830    -4826    -4823    -4819    -4818    -4815 
   -4810    -4808    -4808    -4807    -4804    -4801    -4800    -4799 
   -4799    -4799    -4796    -4795    -4795    -4793    -4793    -4792 
   -4788    -4784    -4783    -4777    -4769    -4762    -4752    -4742 
   -4734    -4727    -4718    -4710    -4704    -4699    -4693    -4689 
   -4685    -4683    -4680    -4675    -4669    -4668    -4664    -4657 
   -4650    -4644    -4637    -4635    -4633    -4630    -4629    -4626 
   -4621    -4618    -4618    -4614    -4611    -4610    -4608    -4608 
   -4608    -4606    -4606    -4607    -4604    -4603    -4604    -4604 
   -4606    -4608    -4611    -4614    -4618    -4625    -4630    -4635 
   -4639    -4642    -4648    -4653    -4657    -4665    -4673    -4677 
   -4685    -4696    -4708    -4720    -4726    -4731    -4739    -4746 
   -4752    -4761    -4768    -4772    -4779    -4787    -4788    -4787 
   -4788    -4789    -4791    -4796    -4799    -4800    -4807    -4814 
   -4819    -4833    -4846    -4851    -4860    -4872    -4881    -4889 
   -4900    -4909    -4919    -4927    -4934    -4938    -4939    -4942 
   -4947    -4949    -4950    -4951    -4954    -4957    -4957    -4958 
   -4957    -4957    -4961    -4963    -4965    -4962    -4963    -4968 
   -4972    -4972    -4973    -4977    -4984    -4986    -4988    -4990 
   -4992    -4989    -4988    -4985    -4984    -4982    -4976    -4970 
   -4963    -4954    -4946    -4941    -4932    -4920    -4914    -4912 
   -4905    -4896    -4891    -4884    -4877    -4872    -4864    -4854 
   -4849    -4845    -4835    -4831    -4828    -4823    -4818    -4815 
   -4811    -4803    -4796    -4789    -4784    -4779    -4769    -4757 
   -4754    -4754    -4746    -4739    -4739    -4737    -4733    -4730 
   -4727    -4726    -4729    -4727    -4722    -4720    -4723    -4722 
   -4720    -4723    -4720    -4723    -4729    -4730    -4730    -4737 
   -4745    -4750    -4754    -4756    -4756    -4757    -4757    -4758 
   -4757    -4758    -4762    -4764    -4765    -4769    -4770    -4772 
   -4773    -4772    -4773    -4777    -4777    -4774    -4774    -4779 
   -4781    -4781    -4783    -4787    -4791    -4793    -4796    -4799 
   -4799    -4804    -4807    -4808    -4815    -4820    -4819    -4820 
   -4824    -4824    -4824    -4824    -4820    -4819    -4820    -4818 
   -4811    -4808    -4808    -4804    -4797    -4791    -4783    -4777 
   -4774    -4773    -4769    -4765    -4764    -4765    -4761    -4757 
   -4752    -4747    -4746    -4742    -4738    -4734    -4731    -4729 
   -4727    -4723    -4716    -4708    -4703    -4698    -4691    -4684 
   -4679    -4672    -4662    -4656    -4650    -4645    -4645    -4644 
   -4642    -4642    -4644    -4649    -4654    -4657    -4666    -4676 
   -4677    -4679    -4684    -4687    -4687    -4689    -4691    -4687 
   -4689    -4692    -4691    -4691    -4695    -4695    -4693    -4696 
   -4699    -4702    -4704    -4708    -4712    -4718    -4720    -4726 
   -4733    -4738    -4742    -4745    -4750    -4760    -4768    -4769 
   -4776    -4789    -4796    -4799    -4808    -4812    -4814    -4818 
   -4823    -4827    -4831    -4834    -4838    -4843    -4847    -4847 
   -4847    -4849    -4846    -4847    -4849    -4847    -4847    -4851 
   -4854    -4854    -4857    -4861    -4860    -4860    -4861    -4860 
   -4865    -4870    -4868    -4862    -4862    -4864    -4858    -4853 
   -4849    -4846    -4843    -4838    -4834    -4830    -4823    -4816 
   -4811    -4803    -4792    -4784    -4781    -4774    -4765    -4756 
   -4750    -4742    -4735    -4727    -4720    -4718    -4715    -4712 
   -4711    -4707    -4702    -4699    -4698    -4700    -4702    -4699 
   -4698    -4702    -4704    -4706    -4710    -4714    -4711    -4712 
   -4714    -4714    -4714    -4710    -4707    -4711    -4714    -4712 
   -4711    -4715    -4720    -4726    -4729    -4735    -4743    -4750 
   -4757    -4765    -4770    -4779    -4784    -4787    -4791    -4793 
   -4796    -4800    -4801    -4806    -4810    -4811    -4814    -4814 
   -4814    -4818    -4818    -4818    -4819    -4818    -4816    -4816 
   -4816    -4815    -4815    -4816    -4816    -4814    -4814    -4811 
   -4806    -4803    -4804    -4801    -4797    -4796    -4792    -4788 
   -4789    -4791    -4791    -4795    -4796    -4797    -4801    -4801 
   -4800    -4803    -4803    -4800    -4799    -4799    -4801    -4799 
   -4800    -4803    -4801    -4801    -4803    -4803    -4806    -4808 
   -4806    -4804    -4808    -4808    -4804    -4807    -4807    -4806 
   -4811    -4812    -4812    -4816    -4819    -4822    -4830    -4831 
   -4828    -4831    -4835    -4838    -4839    -4839    -4842    -4843 
   -4842    -4843    -4849    -4850    -4851    -4854    -4854    -4855 
   -4861    -4862    -4860    -4857    -4851    -4846    -4842    -4837 
   -4830    -4823    -4815    -4806    -4801    -4795    -4784    -4776 
   -4773    -4766    -4761    -4764    -4761    -4757    -4757    -4756 
   -4750    -4745    -4739    -4734    -4733    -4727    -4719    -4718 
   -4716    -4711    -4708    -4706    -4702    -4703    -4710    -4711 
   -4708    -4708    -4711    -4711    -4707    -4704    -4704    -4706 
   -4706    -4704    -4703    -4703    -4702    -4702    -4699    -4695 
   -4698    -4702    -4700    -4700    -4703    -4703    -4704    -4708 
   -4710    -4711    -4714    -4715    -4719    -4722    -4723    -4727 
   -4729    -4727    -4729    -4731    -4733    -4729    -4726    -4730 
   -4731    -4729    -4729    -4731    -4731    -4730    -4731    -4733 
   -4735    -4738    -4741    -4743    -4745    -4747    -4747    -4749 
   -4749    -4749    -4749    -4752    -4753    -4752    -4752    -4752 
   -4750    -4749    -4750    -4752    -4750    -4754    -4754    -4753 
   -4758    -4764    -4766    -4773    -4780    -4784    -4789    -4797 
   -4803    -4807    -4814    -4816    -4819    -4826    -4831    -4831 
   -4833    -4837    -4838    -4838    -4838    -4838    -4839    -4843 
   -4845    -4843    -4845    -4843    -4839    -4837    -4834    -4831 
   -4830    -4826    -4823    -4823    -4824    -4822    -4818    -4815 
   -4812    -4812    -4814    -4810    -4806    -4800    -4796    -4795 
   -4791    -4787    -4784    -4783    -4783    -4781    -4781    -4780 
   -4779    -4780    -4783    -4780    -4781    -4788    -4789    -4787 
   -4785    -4784    -4785    -4785    -4785    -4787    -4792    -4793 
   -4792    -4792    -4793    -4793    -4795    -4795    -4795    -4799 
   -4799    -4795    -4797    -4799    -4796    -4800    -4807    -4806 
   -4808    -4815    -4818    -4820    -4826    -4827    -4831    -4839 
   -4843    -4845    -4850    -4855    -4861    -4865    -4869    -4873 
   -4876    -4878    -4880    -4878    -4881    -4880    -4876    -4877 
   -4876    -4870    -4865    -4862    -4858    -4853    -4849    -4847 
   -4845    -4839    -4835    -4833    -4826    -4823    -4823    -4822 
   -4820    -4818    -4818    -4819    -4816    -4811    -4806    -4799 
   -4793    -4789    -4783    -4776    -4768    -4761    -4756    -4747 
   -4741    -4733    -4729    -4727    -4723    -4718    -4714    -4712 
