Origin Time       2025/01/13 21:19:00
Lat.              31.8
Long.             131.6
Depth. (km)       30
Mag.              6.9
Station Code      FKIH01
Station Lat.      36.0955
Station Long.     136.3617
Station Height(m) -35
Record Time       2025/01/13 21:22:48
Sampling Freq(Hz) 100Hz
Duration Time(s)  120
Dir.              1
Scale Factor      2942(gal)/8224139
Max. Acc. (gal)   0.131
Last Correction   2025/01/13 21:22:49
Memo.             
[...]
    1497     1501     1501     1503     1505     1505     1510     1510 
    1507     1514     1514     1512     1514     1514     1512     1517 
    1520     1516     1516     1517     1517     1518     1517     1516 
    1521     1521     1517     1521     1522     1520     1520     1518 
    1518     1525     1524     1517     1520     1525     1524     1518 
    1516     1516     1517     1516     1514     1512     1506     1505 
    1503     1499     1499     1497     1491     1491     1493     1489 
    1486     1485     1483     1485     1483     1479     1479     1483 
    1483     1479     1482     1486     1483     1483     1485     1486 
    1487     1487     1490     1493     1493     1491     1494     1495 
    1498     1503     1506     1503     1505     1510     1510     1512 
    1517     1517     1516     1521     1525     1521     1522     1525 
    1525     1528     1528     1525     1528     1529     1528     1529 
    1534     1532     1529     1534     1537     1536     1534     1534 
    1536     1539     1541     1543     1543     1541     1540     1544 
    1547     1544     1544     1545     1544     1547     1548     1548 
    1548     1549     1549     1549     1548     1547     1547     1549 
    1553     1552     1549     1552     1551     1545     1545     1548 
    1548     1548     1548     1545     1544     1544     1545     1545 
    1548     1548     1544     1543     1544     1543     1540     1540 
    1544     1541     1534     1536     1539     1536     1533     1532 
    1529     1526     1526     1525     1525     1524     1517     1514 
    1513     1512     1509     1505     1503     1505     1501     1497 
    1497     1495     1495     1495     1490     1487     1489     1487 
    1487     1489     1486     1485     1485     1482     1482     1483 
    1480     1480     1479     1475     1476     1475     1471     1472 
    1476     1475     1475     1474     1472     1476     1478     1478 
    1478     1478     1478     1480     1483     1483     1486     1489 
    1489     1490     1493     1494     1495     1493     1493     1501 
    1501     1495     1501     1503     1498     1499     1505     1502 
    1501     1503     1505     1505     1505     1506     1506     1506 
    1509     1509     1510     1513     1516     1517     1517     1518 
    1518     1517     1518     1521     1520     1520     1520     1518 
    1518     1520     1517     1517     1520     1518     1516     1514 
    1517     1516     1516     1521     1521     1516     1518     1521 
    1520     1521     1525     1526     1524     1525     1529     1529 
    1528     1530     1533     1534     1533     1532     1534     1540 
    1543     1539     1539     1541     1543     1547     1547     1545 
    1544     1548     1552     1551     1547     1548     1549     1548 
    1549     1549     1545     1545     1543     1540     1544     1541 
    1534     1536     1534     1529     1526     1521     1518     1517 
    1517     1516     1512     1509     1505     1502     1503     1501 
    1497     1497     1495     1491     1490     1490     1489     1487 
    1485     1482     1478     1476     1476     1474     1470     1470 
    1471     1468     1467     1467     1466     1464     1463     1460 
    1460     1460     1459     1460     1460     1460     1460     1459 
    1462     1467     1467     1464     1468     1471     1471     1475 
    1478     1479     1485     1486     1486     1491     1497     1495 
    1499     1502     1503     1509     1509     1507     1513     1514 
    1516     1517     1520     1525     1525     1520     1525     1528 
    1526     1528     1528     1528     1533     1534     1536     1537 
    1539     1537     1537     1540     1543     1543     1541     1547 
    1549     1548     1552     1556     1552     1549     1552     1553 
    1553     1553     1553     1551     1551     1549     1545     1544 
    1543     1536     1533     1533     1529     1526     1525     1520 
    1514     1514     1510     1505     1499     1495     1491     1486 
    1480     1475     1474     1468     1460     1458     1455     1449 
    1445     1443     1439     1432     1431     1431     1425     1421 
    1420     1414     1412     1412     1409     1406     1406     1405 
    1402     1402     1401     1399     1405     1408     1405     1408 
    1410     1413     1418     1418     1422     1432     1433     1437 
    1444     1448     1455     1464     1471     1478     1483     1486 
    1493     1503     1513     1517     1521     1530     1540     1547 
    1552     1561     1570     1575     1582     1591     1598     1603 
    1613     1620     1622     1626     1632     1636     1641     1645 
    1649     1653     1655     1655     1657     1660     1660     1661 
    1663     1660     1661     1663     1660     1659     1660     1657 
    1652     1653     1651     1644     1642     1644     1642     1636 
    1632     1632     1629     1624     1622     1620     1617     1614 
    1610     1607     1605     1602     1601     1597     1595     1593 
    1587     1587     1587     1582     1575     1574     1572     1570 
    1566     1561     1560     1560     1556     1551     1551     1547 
    1543     1545     1543     1536     1534     1536     1533     1528 
    1522     1524     1525     1521     1520     1518     1514     1512 
    1509     1512     1516     1510     1509     1513     1510     1510 
    1512     1506     1509     1517     1514     1510     1513     1517 
    1518     1520     1518     1518     1522     1525     1526     1529 
    1530     1532     1536     1537     1536     1540     1544     1543 
    1543     1547     1549     1549     1551     1552     1552     1553 
    1557     1559     1560     1563     1564     1564     1564     1564 
    1566     1567     1567     1566     1564     1563     1561     1557 
    1556     1557     1556     1556     1552     1547     1549     1548 
    1544     1544     1543     1540     1539     1539     1536     1532 
    1530     1529     1526     1525     1525     1522     1518     1516 
    1510     1506     1503     1501     1495     1490     1489     1486 
    1482     1479     1476     1471     1466     1460     1456     1452 
    1448     1443     1439     1435     1429     1426     1424     1414 
    1409     1408     1404     1399     1394     1391     1390     1387 
    1383     1381     1379     1378     1379     1378     1378     1379 
    1381     1379     1381     1383     1386     1390     1394     1394 
    1399     1405     1405     1409     1416     1418     1424     1428 
    1425     1431     1437     1441     1445     1451     1458     1462 
    1463     1468     1474     1479     1482     1485     1493     1499 
    1502     1502     1505     1512     1514     1517     1521     1521 
    1522     1526     1528     1529     1529     1530     1533     1537 
    1540     1541     1543     1544     1545     1545     1548     1556 
    1559     1557     1559     1567     1568     1567     1572     1572 
    1567     1571     1572     1567     1566     1570     1564     1557 
    1556     1553     1545     1540     1537     1528     1517     1510 
    1501     1491     1482     1471     1460     1452     1444     1431 
    1416     1404     1394     1379     1367     1360     1348     1339 
    1329     1316     1306     1298     1290     1285     1278     1271 
    1264     1256     1250     1246     1244     1244     1243     1243 
    1244     1243     1244     1251     1254     1252     1256     1260 
    1266     1273     1278     1283     1290     1296     1300     1308 
    1314     1318     1324     1333     1339     1345     1354     1356 
    1364     1374     1377     1383     1394     1401     1406     1414 
    1421     1424     1426     1436     1444     1447     1453     1463 
    1466     1468     1475     1480     1482     1485     1490     1494 
    1494     1499     1506     1506     1505     1510     1514     1513 
    1513     1513     1512     1513     1514     1509     1506     1507 
    1503     1499     1499     1498     1497     1498     1497     1490 
    1490     1491     1489     1489     1489     1487     1487     1489 
    1487     1487     1489     1490     1489     1490     1491     1491 
    1491     1491     1491     1490     1493     1494     1490     1490 
    1493     1491     1490     1487     1487     1486     1479     1475 
    1475     1472     1470     1464     1459     1459     1452     1443 
    1443     1439     1431     1432     1432     1424     1418     1417 
    1413     1410     1409     1408     1405     1402     1404     1404 
    1399     1401     1402     1401     1404     1412     1413     1410 
    1413     1418     1425     1431     1437     1443     1445     1453 
    1460     1466     1474     1479     1486     1495     1507     1514 
    1516     1525     1539     1540     1545     1560     1567     1570 
    1580     1587     1590     1595     1598     1599     1603     1609 
    1611     1610     1610     1614     1613     1610     1611     1611 
    1607     1607     1607     1603     1602     1601     1597     1591 
    1590     1586     1582     1579     1575     1570     1566     1564 
    1559     1551     1547     1545     1537     1530     1533     1530 
    1524     1520     1514     1512     1513     1509     1503     1501 
    1499     1497     1495     1497     1497     1495     1494     1489 
    1487     1491     1491     1487     1489     1486     1485     1486 
    1485     1483     1482     1480     1479     1474     1472     1472 
    1468     1470     1471     1468     1468     1470     1468     1468 
    1471     1475     1475     1475     1476     1476     1479     1487 
    1491     1493     1499     1501     1503     1513     1520     1520 
    1526     1532     1536     1544     1552     1553     1560     1566 
    1570     1578     1583     1583     1588     1595     1597     1601 
    1605     1607     1610     1613     1614     1614     1618     1618 
    1620     1622     1621     1618     1618     1618     1613     1610 
    1606     1603     1598     1591     1588     1583     1578     1574 
    1564     1552     1544     1537     1526     1518     1510     1499 
    1486     1472     1464     1456     1445     1433     1418     1408 
    1402     1391     1378     1366     1355     1345     1336     1328 
    1321     1312     1304     1300     1293     1286     1282     1277 
    1271     1269     1267     1267     1263     1263     1266     1266 
    1267     1273     1273     1274     1278     1281     1286     1293 
    1296     1298     1308     1317     1320     1327     1337     1345 
    1354     1360     1368     1381     1391     1399     1410     1421 
    1431     1441     1451     1460     1470     1480     1490     1501 
    1509     1516     1524     1533     1541     1548     1553     1556 
    1560     1567     1572     1572     1571     1571     1574     1574 
    1574     1574     1570     1568     1566     1560     1560     1556 
    1548     1544     1541     1534     1524     1520     1516     1506 
    1498     1494     1485     1476     1468     1460     1455     1445 
    1439     1429     1418     1410     1401     1387     1377     1367 
    1359     1352     1340     1329     1323     1312     1298     1289 
    1278     1267     1262     1252     1243     1237     1228     1220 
    1217     1213     1205     1200     1201     1201     1196     1196 
    1201     1202     1202     1206     1213     1219     1223     1228 
    1240     1251     1258     1269     1281     1293     1306     1320 
    1335     1347     1360     1375     1393     1410     1424     1439 
    1456     1472     1487     1503     1518     1533     1548     1563 
    1579     1594     1607     1618     1630     1642     1655     1668 
    1676     1682     1690     1699     1707     1715     1719     1726 
    1734     1734     1737     1745     1746     1745     1748     1750 
    1749     1749     1750     1750     1748     1745     1744     1741 
    1738     1732     1725     1721     1717     1710     1702     1694 
    1688     1680     1672     1664     1653     1647     1637     1625 
    1618     1613     1599     1590     1586     1572     1561     1553 
    1543     1534     1529     1518     1507     1503     1498     1491 
    1485     1478     1474     1470     1462     1456     1456     1453 
    1451     1448     1447     1447     1445     1440     1439     1440 
    1443     1443     1440     1440     1443     1444     1445     1445 
    1445     1447     1449     1448     1448     1448     1447     1447 
    1444     1448     1451     1449     1449     1451     1451     1453 
    1453     1456     1460     1460     1460     1464     1467     1470 
    1475     1476     1475     1482     1489     1487     1493     1501 
    1502     1505     1509     1513     1516     1518     1524     1526 
    1526     1530     1533     1530     1530     1533     1536     1537 
    1537     1536     1536     1537     1534     1530     1530     1528 
    1522     1520     1517     1513     1507     1501     1495     1490 
    1480     1472     1466     1453     1443     1435     1425     1410 
    1399     1391     1381     1367     1355     1344     1335     1321 
    1310     1298     1285     1277     1269     1254     1244     1237 
    1227     1217     1209     1198     1190     1185     1175     1170 
    1167     1161     1152     1147     1143     1138     1139     1136 
    1131     1131     1134     1134     1134     1131     1131     1132 
    1138     1142     1146     1152     1158     1161     1170     1179 
    1185     1193     1204     1212     1225     1239     1246     1256 
    1270     1283     1294     1305     1321     1340     1351     1360 
    1378     1395     1408     1422     1440     1451     1466     1483 
    1497     1509     1524     1537     1551     1563     1575     1586 
    1597     1610     1621     1630     1641     1652     1659     1667 
    1675     1682     1690     1699     1705     1713     1719     1722 
    1728     1737     1741     1742     1748     1755     1759     1761 
    1765     1773     1775     1769     1769     1773     1773     1776 
    1780     1780     1777     1775     1773     1775     1773     1764 
    1759     1760     1756     1749     1744     1738     1730     1722 
    1717     1707     1694     1688     1683     1671     1656     1647 
    1636     1625     1614     1599     1586     1579     1567     1552 
    1540     1526     1514     1505     1495     1480     1467     1459 
    1449     1437     1431     1424     1414     1406     1402     1397 
    1386     1379     1379     1377     1368     1366     1364     1362 
    1358     1359     1358     1356     1359     1360     1359     1358 
    1359     1364     1367     1366     1370     1372     1368     1371 
    1377     1377     1375     1377     1381     1385     1383     1387 
    1393     1393     1393     1397     1402     1405     1408     1412 
    1416     1420     1425     1431     1433     1439     1444     1447 
    1453     1464     1470     1471     1479     1489     1497     1501 
    1506     1516     1524     1533     1540     1545     1551     1556 
    1564     1571     1575     1580     1587     1591     1594     1597 
    1599     1602     1603     1605     1605     1605     1605     1602 
    1601     1602     1603     1601     1597     1598     1597     1591 
    1587     1583     1582     1579     1575     1572     1570     1568 
    1568     1566     1559     1556     1559     1556     1553     1552 
    1555     1555     1551     1548     1549     1549     1547     1547 
    1549     1548     1544     1544     1545     1545     1545     1543 
    1541     1541     1539     1536     1536     1533     1532     1530 
    1526     1525     1521     1517     1518     1517     1513     1512 
    1510     1509     1507     1506     1507     1510     1509     1507 
    1507     1506     1509     1514     1514     1518     1522     1522 
    1525     1529     1530     1537     1543     1541     1543     1547 
    1549     1549     1548     1551     1552     1551     1548     1549 
    1548     1545     1543     1541     1537     1536     1530     1524 
    1522     1517     1510     1507     1505     1501     1498     1493 
    1490     1487     1483     1483     1478     1472     1478     1476 
    1468     1470     1474     1470     1468     1470     1471     1472 
    1470     1471     1476     1478     1478     1478     1479     1486 
    1486     1485     1489     1490     1489     1494     1495     1491 
    1491     1497     1501     1498     1498     1502     1501     1495 
    1495     1499     1498     1497     1499     1495     1489     1490 
    1491     1487     1485     1485     1479     1475     1475     1472 
    1468     1464     1460     1458     1455     1452     1447     1443 
    1439     1433     1428     1426     1424     1417     1416     1416 
    1410     1404     1398     1395     1393     1390     1387     1385 
    1382     1379     1375     1375     1372     1370     1368     1366 
    1364     1366     1367     1366     1363     1363     1366     1366 
    1366     1366     1367     1367     1368     1371     1375     1379 
    1379     1377     1381     1386     1390     1394     1398     1405 
    1410     1416     1422     1425     1429     1436     1441     1445 
    1451     1458     1462     1470     1478     1476     1480     1490 
    1494     1497     1502     1505     1509     1513     1517     1520 
    1525     1530     1532     1536     1543     1544     1544     1551 
    1559     1561     1563     1567     1568     1572     1578     1578 
    1582     1588     1590     1593     1595     1598     1603     1606 
    1609     1611     1613     1613     1618     1618     1618     1620 
    1618     1620     1621     1615     1614     1618     1615     1610 
    1609     1603     1597     1593     1587     1582     1576     1568 
    1561     1556     1549     1539     1525     1517     1510     1499 
    1490     1482     1471     1460     1451     1440     1431     1424 
    1412     1401     1397     1389     1379     1374     1367     1359 
    1356     1356     1354     1348     1347     1350     1350     1348 
    1351     1354     1355     1359     1363     1368     1377     1377 
    1381     1394     1404     1408     1418     1428     1435     1443 
    1452     1462     1474     1486     1491     1499     1510     1521 
    1528     1533     1540     1551     1559     1566     1576     1587 
    1593     1598     1605     1610     1617     1628     1634     1638 
    1648     1653     1657     1669     1678     1680     1690     1698 
    1702     1709     1717     1723     1730     1737     1742     1746 
    1750     1756     1760     1764     1768     1771     1773     1776 
    1775     1773     1776     1773     1772     1773     1772     1768 
    1764     1757     1752     1748     1742     1732     1726     1718 
    1706     1701     1692     1680     1669     1657     1645     1634 
    1624     1611     1601     1587     1578     1570     1559     1547 
    1534     1522     1512     1501     1493     1480     1468     1460 
    1448     1436     1426     1416     1408     1398     1387     1379 
    1370     1360     1351     1340     1332     1325     1317     1312 
