Origin Time       2025/01/13 21:19:00
Lat.              31.8
Long.             131.6
Depth. (km)       30
Mag.              6.9
Station Code      FKIH02
Station Lat.      35.9483
Station Long.     136.0556
Station Height(m) 20
Record Time       2025/01/13 21:22:35
Sampling Freq(Hz) 100Hz
Duration Time(s)  120
Dir.              3
Scale Factor      3923(gal)/8224838
Max. Acc. (gal)   0.124
Last Correction   2025/01/13 21:22:37
Memo.             
[...]
  -42360   -42363   -42365   -42365   -42365   -42365   -42364   -42364 
  -42363   -42361   -42363   -42358   -42352   -42352   -42352   -42345 
  -42341   -42338   -42331   -42327   -42326   -42322   -42314   -42309 
  -42303   -42299   -42295   -42288   -42283   -42277   -42269   -42265 
  -42263   -42256   -42249   -42244   -42238   -42233   -42228   -42222 
  -42217   -42211   -42206   -42203   -42198   -42192   -42192   -42188 
  -42182   -42178   -42178   -42175   -42171   -42171   -42169   -42167 
  -42167   -42164   -42161   -42161   -42164   -42168   -42171   -42169 
  -42171   -42171   -42172   -42175   -42178   -42182   -42184   -42187 
  -42191   -42191   -42194   -42198   -42199   -42205   -42213   -42217 
  -42219   -42223   -42228   -42236   -42242   -42245   -42250   -42257 
  -42263   -42271   -42277   -42282   -42287   -42292   -42298   -42303 
  -42310   -42314   -42318   -42322   -42329   -42334   -42338   -42344 
  -42349   -42350   -42354   -42360   -42364   -42367   -42369   -42372 
  -42373   -42379   -42384   -42385   -42388   -42391   -42394   -42396 
  -42398   -42398   -42398   -42402   -42404   -42404   -42403   -42404 
  -42408   -42406   -42400   -42399   -42402   -42399   -42398   -42398 
  -42394   -42391   -42388   -42390   -42391   -42387   -42383   -42385 
  -42384   -42380   -42377   -42376   -42373   -42372   -42369   -42365 
  -42361   -42358   -42356   -42353   -42349   -42345   -42345   -42341 
  -42337   -42337   -42333   -42327   -42325   -42325   -42322   -42319 
  -42318   -42318   -42314   -42307   -42303   -42302   -42299   -42298 
  -42295   -42292   -42288   -42284   -42284   -42283   -42277   -42275 
  -42273   -42271   -42269   -42268   -42265   -42261   -42260   -42261 
  -42259   -42253   -42252   -42252   -42249   -42241   -42237   -42234 
  -42229   -42226   -42225   -42219   -42213   -42209   -42209   -42206 
  -42199   -42195   -42195   -42192   -42190   -42188   -42186   -42183 
  -42183   -42182   -42180   -42182   -42183   -42179   -42179   -42184 
  -42186   -42186   -42190   -42190   -42192   -42195   -42194   -42196 
  -42202   -42201   -42199   -42202   -42203   -42205   -42203   -42198 
  -42199   -42203   -42201   -42195   -42194   -42194   -42190   -42188 
  -42188   -42186   -42178   -42172   -42172   -42172   -42165   -42160 
  -42159   -42157   -42156   -42151   -42147   -42145   -42145   -42141 
  -42137   -42133   -42132   -42132   -42133   -42132   -42130   -42130 
  -42129   -42126   -42128   -42129   -42128   -42126   -42130   -42130 
  -42128   -42128   -42132   -42133   -42132   -42136   -42140   -42140 
  -42142   -42151   -42151   -42149   -42153   -42157   -42161   -42167 
  -42174   -42176   -42179   -42184   -42188   -42191   -42198   -42202 
  -42206   -42211   -42217   -42221   -42222   -42225   -42230   -42236 
  -42240   -42242   -42246   -42249   -42249   -42252   -42256   -42259 
  -42263   -42264   -42265   -42271   -42271   -42271   -42277   -42280 
  -42283   -42287   -42288   -42292   -42296   -42299   -42302   -42303 
  -42306   -42310   -42311   -42313   -42317   -42319   -42321   -42323 
  -42327   -42329   -42329   -42331   -42333   -42333   -42338   -42342 
  -42340   -42340   -42342   -42342   -42341   -42344   -42346   -42346 
  -42345   -42344   -42346   -42348   -42348   -42349   -42353   -42354 
  -42353   -42356   -42358   -42358   -42361   -42365   -42365   -42365 
  -42368   -42369   -42372   -42375   -42377   -42379   -42380   -42381 
  -42384   -42384   -42388   -42391   -42392   -42394   -42396   -42399 
  -42400   -42398   -42398   -42399   -42402   -42402   -42400   -42400 
  -42400   -42400   -42402   -42400   -42398   -42398   -42398   -42395 
  -42392   -42391   -42390   -42387   -42383   -42379   -42375   -42375 
  -42371   -42365   -42361   -42357   -42352   -42346   -42340   -42333 
  -42327   -42327   -42325   -42314   -42309   -42303   -42298   -42291 
  -42284   -42279   -42276   -42271   -42265   -42261   -42255   -42249 
  -42245   -42240   -42236   -42233   -42223   -42217   -42215   -42214 
  -42207   -42202   -42199   -42195   -42188   -42186   -42184   -42178 
  -42175   -42175   -42171   -42164   -42161   -42161   -42159   -42155 
  -42156   -42156   -42155   -42152   -42152   -42152   -42153   -42155 
  -42153   -42156   -42160   -42161   -42160   -42161   -42167   -42168 
  -42169   -42174   -42176   -42178   -42180   -42183   -42186   -42188 
  -42187   -42188   -42194   -42194   -42191   -42192   -42195   -42198 
  -42196   -42196   -42198   -42198   -42199   -42201   -42202   -42203 
  -42202   -42201   -42201   -42202   -42206   -42209   -42209   -42211 
  -42213   -42214   -42215   -42218   -42221   -42225   -42226   -42226 
  -42228   -42232   -42234   -42234   -42237   -42244   -42245   -42245 
  -42246   -42249   -42252   -42256   -42257   -42259   -42264   -42265 
  -42267   -42268   -42269   -42269   -42272   -42273   -42276   -42276 
  -42279   -42280   -42279   -42277   -42279   -42279   -42276   -42273 
  -42272   -42269   -42265   -42264   -42264   -42260   -42255   -42248 
  -42245   -42242   -42240   -42234   -42229   -42225   -42221   -42215 
  -42213   -42210   -42205   -42198   -42195   -42192   -42187   -42183 
  -42180   -42176   -42171   -42168   -42164   -42156   -42148   -42148 
  -42148   -42138   -42132   -42133   -42130   -42126   -42129   -42126 
  -42122   -42122   -42120   -42117   -42118   -42117   -42117   -42118 
  -42115   -42113   -42115   -42115   -42114   -42114   -42114   -42114 
  -42114   -42115   -42115   -42115   -42118   -42121   -42121   -42122 
  -42126   -42129   -42132   -42136   -42140   -42141   -42142   -42144 
  -42149   -42155   -42159   -42163   -42167   -42172   -42178   -42180 
  -42186   -42191   -42192   -42201   -42211   -42215   -42218   -42226 
  -42232   -42236   -42244   -42252   -42257   -42263   -42267   -42272 
  -42280   -42286   -42287   -42294   -42303   -42307   -42311   -42319 
  -42322   -42326   -42333   -42337   -42340   -42345   -42346   -42349 
  -42353   -42357   -42357   -42358   -42363   -42365   -42365   -42367 
  -42368   -42367   -42365   -42368   -42367   -42369   -42372   -42369 
  -42368   -42369   -42365   -42364   -42367   -42365   -42363   -42364 
  -42365   -42361   -42360   -42361   -42361   -42360   -42358   -42363 
  -42363   -42363   -42364   -42367   -42365   -42365   -42365   -42365 
  -42368   -42371   -42371   -42372   -42376   -42379   -42379   -42377 
  -42379   -42383   -42384   -42387   -42394   -42395   -42392   -42396 
  -42402   -42404   -42407   -42410   -42411   -42412   -42419   -42423 
  -42421   -42421   -42425   -42429   -42430   -42427   -42426   -42431 
  -42434   -42431   -42433   -42433   -42429   -42427   -42430   -42429 
  -42426   -42426   -42427   -42425   -42422   -42421   -42418   -42414 
  -42412   -42414   -42411   -42407   -42403   -42400   -42399   -42396 
  -42391   -42390   -42387   -42383   -42377   -42372   -42369   -42367 
  -42356   -42349   -42346   -42338   -42330   -42326   -42318   -42310 
  -42304   -42294   -42284   -42279   -42269   -42257   -42249   -42241 
  -42230   -42223   -42215   -42202   -42192   -42186   -42178   -42171 
  -42164   -42153   -42147   -42140   -42134   -42130   -42125   -42117 
  -42115   -42110   -42105   -42105   -42102   -42095   -42093   -42093 
  -42093   -42090   -42093   -42095   -42094   -42095   -42095   -42097 
  -42101   -42102   -42105   -42109   -42110   -42114   -42120   -42125 
  -42129   -42137   -42138   -42141   -42151   -42159   -42163   -42167 
  -42172   -42179   -42183   -42192   -42203   -42210   -42218   -42228 
  -42234   -42241   -42249   -42257   -42265   -42272   -42280   -42286 
  -42292   -42303   -42309   -42315   -42323   -42327   -42333   -42340 
  -42344   -42348   -42353   -42358   -42365   -42371   -42373   -42376 
  -42376   -42377   -42380   -42380   -42380   -42381   -42381   -42381 
  -42380   -42375   -42372   -42373   -42368   -42361   -42360   -42356 
  -42352   -42346   -42340   -42336   -42333   -42322   -42317   -42318 
  -42311   -42303   -42298   -42294   -42288   -42283   -42280   -42279 
  -42269   -42264   -42264   -42259   -42256   -42253   -42246   -42245 
  -42245   -42242   -42241   -42241   -42241   -42240   -42237   -42237 
  -42237   -42237   -42238   -42240   -42241   -42241   -42241   -42242 
  -42245   -42246   -42248   -42249   -42249   -42252   -42253   -42255 
  -42257   -42259   -42259   -42261   -42264   -42265   -42267   -42268 
  -42269   -42269   -42271   -42272   -42271   -42272   -42275   -42277 
  -42277   -42276   -42279   -42283   -42283   -42283   -42284   -42283 
  -42287   -42290   -42287   -42287   -42291   -42290   -42286   -42286 
  -42287   -42286   -42286   -42286   -42287   -42287   -42284   -42284 
  -42284   -42283   -42280   -42279   -42280   -42280   -42277   -42275 
  -42275   -42271   -42264   -42260   -42260   -42255   -42249   -42248 
  -42242   -42234   -42229   -42221   -42214   -42211   -42205   -42195 
  -42190   -42184   -42174   -42165   -42161   -42155   -42144   -42137 
  -42130   -42122   -42114   -42109   -42102   -42093   -42083   -42076 
  -42070   -42063   -42059   -42056   -42048   -42041   -42036   -42030 
  -42026   -42024   -42021   -42020   -42018   -42014   -42014   -42014 
  -42012   -42013   -42017   -42017   -42017   -42021   -42022   -42025 
  -42030   -42036   -42039   -42043   -42047   -42051   -42057   -42064 
  -42070   -42076   -42086   -42093   -42101   -42110   -42117   -42124 
  -42134   -42147   -42155   -42164   -42176   -42186   -42192   -42198 
  -42206   -42217   -42226   -42236   -42244   -42249   -42256   -42264 
  -42268   -42275   -42284   -42288   -42294   -42300   -42303   -42306 
  -42311   -42317   -42321   -42323   -42325   -42329   -42336   -42338 
  -42341   -42346   -42345   -42341   -42346   -42350   -42350   -42353 
  -42353   -42354   -42358   -42360   -42357   -42357   -42361   -42365 
  -42368   -42367   -42363   -42367   -42369   -42369   -42371   -42372 
  -42371   -42372   -42372   -42372   -42375   -42375   -42375   -42373 
  -42373   -42376   -42375   -42372   -42376   -42377   -42375   -42375 
  -42373   -42369   -42368   -42371   -42369   -42365   -42363   -42361 
  -42357   -42353   -42352   -42348   -42341   -42338   -42337   -42331 
  -42325   -42319   -42317   -42315   -42309   -42303   -42303   -42298 
  -42291   -42287   -42283   -42279   -42275   -42271   -42268   -42265 
  -42260   -42257   -42252   -42246   -42246   -42246   -42245   -42242 
  -42240   -42237   -42238   -42240   -42238   -42240   -42240   -42241 
  -42244   -42242   -42246   -42252   -42250   -42255   -42259   -42259 
  -42261   -42268   -42272   -42272   -42275   -42279   -42282   -42283 
  -42287   -42290   -42292   -42296   -42298   -42295   -42296   -42299 
  -42300   -42302   -42300   -42298   -42298   -42302   -42300   -42296 
  -42296   -42295   -42292   -42292   -42290   -42287   -42286   -42282 
  -42279   -42277   -42275   -42272   -42267   -42263   -42260   -42253 
  -42246   -42244   -42238   -42233   -42230   -42221   -42215   -42210 
  -42203   -42195   -42188   -42182   -42176   -42171   -42163   -42156 
  -42151   -42147   -42141   -42137   -42133   -42129   -42128   -42125 
  -42120   -42120   -42117   -42115   -42120   -42121   -42120   -42122 
  -42126   -42126   -42130   -42136   -42137   -42141   -42149   -42153 
  -42159   -42169   -42172   -42174   -42180   -42188   -42194   -42202 
  -42209   -42209   -42211   -42222   -42228   -42230   -42236   -42241 
  -42242   -42244   -42250   -42257   -42257   -42261   -42268   -42269 
  -42268   -42271   -42275   -42279   -42280   -42277   -42279   -42282 
  -42282   -42284   -42286   -42282   -42283   -42287   -42287   -42286 
  -42286   -42284   -42282   -42279   -42279   -42279   -42276   -42273 
  -42275   -42276   -42272   -42268   -42269   -42271   -42267   -42264 
  -42264   -42264   -42264   -42263   -42260   -42257   -42257   -42256 
  -42255   -42255   -42255   -42250   -42246   -42244   -42245   -42242 
  -42236   -42234   -42234   -42229   -42225   -42222   -42222   -42221 
  -42217   -42217   -42214   -42207   -42205   -42203   -42202   -42202 
  -42198   -42194   -42192   -42190   -42188   -42190   -42187   -42183 
  -42183   -42184   -42188   -42191   -42188   -42187   -42191   -42195 
  -42196   -42195   -42198   -42202   -42203   -42206   -42209   -42210 
  -42213   -42214   -42214   -42217   -42221   -42225   -42228   -42226 
  -42226   -42230   -42229   -42230   -42233   -42233   -42233   -42230 
  -42230   -42233   -42233   -42232   -42230   -42228   -42228   -42229 
  -42226   -42223   -42221   -42222   -42222   -42219   -42217   -42218 
  -42217   -42218   -42218   -42218   -42221   -42223   -42223   -42226 
  -42230   -42233   -42233   -42234   -42241   -42245   -42248   -42252 
  -42253   -42259   -42267   -42269   -42271   -42273   -42277   -42283 
  -42287   -42288   -42292   -42295   -42299   -42303   -42304   -42304 
  -42309   -42314   -42317   -42318   -42319   -42323   -42325   -42326 
  -42330   -42334   -42336   -42340   -42344   -42346   -42346   -42348 
  -42354   -42360   -42358   -42360   -42368   -42372   -42375   -42381 
  -42384   -42384   -42390   -42398   -42400   -42402   -42407   -42414 
  -42418   -42422   -42423   -42427   -42434   -42439   -42444   -42449 
  -42452   -42456   -42464   -42468   -42471   -42476   -42483   -42484 
  -42487   -42493   -42498   -42502   -42504   -42506   -42508   -42511 
  -42515   -42516   -42516   -42516   -42516   -42518   -42518   -42518 
  -42516   -42514   -42516   -42515   -42508   -42504   -42503   -42500 
  -42499   -42498   -42489   -42481   -42479   -42473   -42468   -42461 
  -42452   -42444   -42435   -42426   -42418   -42408   -42398   -42387 
  -42377   -42367   -42354   -42344   -42333   -42321   -42307   -42298 
  -42288   -42276   -42263   -42252   -42241   -42228   -42215   -42202 
  -42191   -42183   -42171   -42156   -42145   -42136   -42124   -42114 
  -42106   -42094   -42080   -42072   -42068   -42060   -42049   -42043 
  -42033   -42025   -42022   -42018   -42014   -42012   -42009   -42007 
  -42005   -42003   -42005   -42005   -42003   -42005   -42012   -42016 
  -42018   -42021   -42025   -42029   -42036   -42044   -42048   -42055 
  -42061   -42067   -42072   -42079   -42088   -42098   -42105   -42110 
  -42117   -42126   -42134   -42140   -42147   -42153   -42160   -42168 
  -42169   -42176   -42188   -42190   -42195   -42207   -42210   -42211 
  -42221   -42225   -42228   -42234   -42237   -42238   -42244   -42248 
  -42249   -42252   -42253   -42255   -42260   -42263   -42260   -42257 
  -42259   -42260   -42260   -42259   -42255   -42255   -42256   -42255 
  -42253   -42249   -42249   -42249   -42248   -42245   -42241   -42234 
  -42233   -42237   -42237   -42229   -42223   -42225   -42223   -42218 
  -42213   -42213   -42213   -42210   -42207   -42206   -42202   -42199 
  -42195   -42194   -42192   -42188   -42187   -42188   -42187   -42183 
  -42182   -42182   -42182   -42179   -42178   -42178   -42176   -42172 
  -42171   -42171   -42167   -42167   -42169   -42169   -42168   -42169 
  -42168   -42164   -42163   -42164   -42164   -42164   -42164   -42163 
  -42161   -42160   -42159   -42159   -42163   -42164   -42160   -42161 
  -42165   -42167   -42165   -42167   -42168   -42169   -42174   -42176 
  -42179   -42180   -42180   -42187   -42191   -42192   -42196   -42201 
  -42202   -42206   -42211   -42215   -42218   -42221   -42225   -42230 
  -42234   -42238   -42242   -42245   -42250   -42256   -42256   -42259 
  -42267   -42269   -42269   -42272   -42277   -42282   -42284   -42286 
  -42287   -42291   -42298   -42299   -42302   -42304   -42306   -42306 
  -42306   -42306   -42311   -42313   -42313   -42315   -42315   -42315 
  -42318   -42315   -42315   -42319   -42317   -42314   -42311   -42307 
  -42309   -42309   -42304   -42303   -42302   -42300   -42299   -42292 
  -42287   -42290   -42291   -42287   -42286   -42287   -42284   -42280 
  -42280   -42277   -42276   -42276   -42277   -42277   -42276   -42275 
  -42277   -42279   -42279   -42277   -42280   -42283   -42282   -42286 
  -42287   -42284   -42288   -42292   -42294   -42294   -42296   -42300 
  -42299   -42298   -42303   -42306   -42304   -42307   -42311   -42310 
  -42310   -42311   -42310   -42310   -42311   -42310   -42309   -42307 
  -42304   -42303   -42304   -42302   -42300   -42299   -42298   -42295 
  -42295   -42294   -42288   -42287   -42287   -42286   -42283   -42283 
  -42280   -42275   -42276   -42279   -42276   -42273   -42273   -42272 
  -42273   -42271   -42265   -42265   -42267   -42263   -42260   -42261 
  -42263   -42261   -42259   -42259   -42259   -42256   -42256   -42259 
  -42255   -42250   -42250   -42248   -42246   -42246   -42244   -42244 
  -42244   -42238   -42236   -42240   -42238   -42233   -42233   -42236 
  -42236   -42236   -42234   -42234   -42236   -42238   -42234   -42234 
  -42238   -42241   -42241   -42240   -42241   -42242   -42241   -42244 
  -42248   -42249   -42249   -42252   -42256   -42257   -42257   -42263 
  -42267   -42265   -42268   -42272   -42271   -42269   -42272   -42273 
  -42276   -42277   -42280   -42282   -42279   -42282   -42287   -42286 
  -42287   -42291   -42291   -42290   -42290   -42290   -42291   -42294 
  -42295   -42295   -42291   -42290   -42290   -42288   -42288   -42287 
  -42283   -42283   -42279   -42273   -42273   -42273   -42268   -42265 
  -42264   -42259   -42255   -42253   -42250   -42248   -42245   -42242 
  -42238   -42234   -42232   -42230   -42228   -42223   -42221   -42218 
  -42218   -42218   -42214   -42210   -42207   -42205   -42205   -42206 
  -42199   -42196   -42199   -42198   -42195   -42196   -42194   -42191 
  -42192   -42194   -42192   -42192   -42191   -42186   -42186   -42187 
  -42190   -42191   -42188   -42183   -42184   -42186   -42184   -42182 
  -42183   -42184   -42183   -42182   -42184   -42186   -42182   -42180 
  -42182   -42180   -42179   -42180   -42183   -42180   -42182   -42186 
  -42183   -42182   -42186   -42188   -42187   -42186   -42187   -42188 
  -42188   -42192   -42194   -42192   -42192   -42194   -42192   -42190 
  -42191   -42188   -42188   -42190   -42187   -42186   -42188   -42191 
  -42192   -42191   -42191   -42192   -42195   -42195   -42196   -42199 
  -42199   -42199   -42203   -42207   -42209   -42213   -42217   -42221 
  -42222   -42225   -42228   -42228   -42233   -42238   -42238   -42241 
  -42245   -42249   -42255   -42260   -42260   -42260   -42268   -42276 
  -42277   -42279   -42284   -42291   -42292   -42296   -42300   -42302 
  -42306   -42310   -42314   -42317   -42321   -42325   -42329   -42331 
  -42331   -42333   -42336   -42337   -42338   -42338   -42338   -42340 
  -42344   -42342   -42338   -42341   -42342   -42341   -42341   -42342 
  -42340   -42338   -42337   -42337   -42338   -42336   -42333   -42336 
  -42334   -42331   -42331   -42329   -42323   -42322   -42323   -42319 
  -42315   -42315   -42313   -42311   -42310   -42307   -42306   -42304 
  -42303   -42304   -42302   -42299   -42299   -42296   -42296   -42296 
  -42295   -42294   -42294   -42295   -42296   -42295   -42295   -42298 
  -42299   -42299   -42299   -42300   -42304   -42306   -42304   -42307 
  -42309   -42310   -42313   -42315   -42313   -42313   -42315   -42318 
