Origin Time       2025/01/13 21:19:00
Lat.              31.8
Long.             131.6
Depth. (km)       30
Mag.              6.9
Station Code      FKIH01
Station Lat.      36.0955
Station Long.     136.3617
Station Height(m) -35
Record Time       2025/01/13 21:22:48
Sampling Freq(Hz) 100Hz
Duration Time(s)  120
Dir.              2
Scale Factor      2942(gal)/8224139
Max. Acc. (gal)   0.097
Last Correction   2025/01/13 21:22:49
Memo.             
[...]
    6305     6304     6300     6299     6297     6296     6295     6296 
    6293     6288     6288     6286     6284     6284     6282     6277 
    6274     6270     6268     6265     6264     6259     6257     6254 
    6251     6247     6243     6241     6237     6232     6232     6232 
    6230     6226     6224     6224     6220     6218     6216     6214 
    6211     6210     6210     6208     6208     6207     6207     6207 
    6205     6208     6208     6207     6208     6211     6215     6215 
    6214     6215     6219     6222     6222     6223     6228     6232 
    6232     6234     6238     6241     6243     6246     6246     6249 
    6251     6253     6254     6258     6262     6266     6265     6266 
    6270     6272     6272     6277     6277     6273     6274     6278 
    6274     6273     6276     6274     6274     6277     6276     6273 
    6274     6273     6272     6273     6274     6273     6270     6268 
    6269     6269     6269     6269     6266     6266     6266     6268 
    6270     6270     6269     6270     6270     6272     6273     6272 
    6273     6276     6276     6277     6277     6278     6284     6286 
    6286     6293     6297     6297     6301     6305     6307     6312 
    6319     6322     6327     6332     6335     6339     6343     6345 
    6347     6353     6357     6361     6365     6366     6367     6372 
    6374     6377     6381     6385     6386     6386     6389     6394 
    6394     6394     6399     6399     6399     6400     6399     6394 
    6393     6393     6390     6388     6384     6380     6376     6372 
    6370     6367     6361     6358     6355     6350     6345     6343 
    6340     6338     6335     6328     6324     6323     6322     6319 
    6316     6312     6309     6305     6303     6300     6300     6297 
    6295     6293     6291     6289     6289     6289     6291     6292 
    6288     6281     6281     6284     6282     6282     6284     6281 
    6277     6277     6277     6276     6274     6273     6272     6269 
    6266     6264     6264     6261     6259     6258     6257     6255 
    6254     6250     6249     6249     6246     6245     6245     6242 
    6242     6243     6241     6239     6239     6239     6238     6237 
    6237     6234     6231     6231     6231     6230     6228     6224 
    6222     6220     6219     6220     6218     6215     6215     6215 
    6211     6212     6215     6211     6210     6214     6214     6211 
    6214     6215     6214     6215     6216     6216     6216     6219 
    6219     6220     6224     6228     6230     6230     6230     6232 
    6235     6235     6237     6238     6243     6246     6246     6249 
    6251     6253     6255     6258     6261     6264     6264     6262 
    6265     6266     6265     6266     6272     6270     6269     6273 
    6276     6273     6274     6277     6276     6277     6280     6282 
    6286     6289     6291     6291     6291     6293     6297     6299 
    6300     6301     6303     6303     6305     6308     6308     6308 
    6311     6312     6313     6313     6315     6319     6320     6319 
    6319     6319     6320     6322     6322     6320     6322     6322 
    6319     6320     6323     6322     6322     6322     6323     6323 
    6323     6323     6326     6326     6326     6327     6326     6326 
    6327     6327     6327     6330     6327     6324     6326     6328 
    6328     6326     6324     6324     6323     6323     6323     6322 
    6319     6318     6318     6318     6319     6322     6319     6318 
    6319     6318     6316     6322     6324     6323     6323     6324 
    6328     6331     6332     6338     6342     6346     6349     6354 
    6358     6362     6367     6373     6378     6381     6386     6392 
    6397     6399     6400     6401     6408     6411     6412     6416 
    6417     6417     6420     6420     6419     6420     6421     6417 
    6415     6413     6411     6407     6405     6403     6396     6388 
    6385     6384     6378     6372     6365     6357     6354     6350 
    6342     6334     6327     6320     6315     6307     6300     6297 
    6291     6282     6277     6272     6268     6264     6258     6254 
    6253     6253     6250     6249     6249     6247     6251     6257 
    6258     6261     6265     6266     6269     6273     6272     6274 
    6281     6284     6285     6289     6293     6296     6299     6300 
    6304     6309     6312     6315     6318     6319     6324     6328 
    6334     6338     6336     6338     6347     6351     6351     6355 
    6361     6362     6366     6367     6370     6374     6378     6381 
    6382     6384     6384     6386     6388     6390     6390     6389 
    6388     6386     6382     6381     6381     6377     6376     6372 
    6366     6363     6361     6358     6357     6354     6351     6350 
    6347     6343     6339     6338     6338     6336     6332     6328 
    6327     6324     6323     6322     6320     6319     6318     6318 
    6318     6318     6315     6315     6318     6319     6318     6319 
    6320     6320     6323     6322     6320     6323     6323     6322 
    6326     6326     6323     6324     6327     6330     6330     6331 
    6332     6334     6336     6342     6345     6346     6350     6355 
    6358     6361     6363     6369     6373     6377     6378     6384 
    6392     6397     6401     6405     6408     6411     6416     6420 
    6423     6428     6432     6435     6439     6442     6446     6448 
    6448     6448     6451     6451     6451     6450     6450     6451 
    6448     6444     6443     6440     6435     6430     6423     6420 
    6417     6411     6404     6397     6392     6389     6382     6374 
    6369     6365     6361     6357     6350     6349     6346     6340 
    6340     6340     6335     6334     6336     6336     6335     6336 
    6336     6338     6340     6340     6340     6343     6346     6346 
    6347     6349     6349     6347     6349     6353     6354     6351 
    6351     6351     6351     6353     6351     6353     6354     6351 
    6350     6353     6355     6355     6355     6357     6358     6361 
    6363     6367     6372     6374     6376     6377     6381     6386 
    6390     6393     6397     6400     6407     6412     6415     6417 
    6420     6424     6428     6431     6434     6436     6435     6435 
    6438     6438     6435     6436     6436     6434     6434     6432 
    6428     6427     6427     6423     6417     6415     6413     6409 
    6404     6399     6396     6390     6384     6382     6380     6367 
    6361     6362     6359     6351     6343     6336     6331     6327 
    6320     6311     6304     6300     6295     6285     6276     6269 
    6264     6258     6253     6245     6235     6228     6224     6218 
    6211     6204     6199     6193     6187     6184     6181     6173 
    6170     6170     6166     6161     6158     6160     6160     6158 
    6160     6158     6156     6156     6157     6158     6157     6157 
    6157     6160     6161     6158     6160     6165     6168     6168 
    6170     6173     6173     6176     6177     6180     6183     6187 
    6192     6196     6199     6201     6207     6215     6220     6223 
    6226     6232     6241     6245     6251     6262     6269     6273 
    6277     6284     6293     6303     6309     6318     6324     6331 
    6340     6347     6353     6362     6373     6381     6390     6397 
    6403     6409     6419     6426     6428     6434     6438     6443 
    6447     6451     6455     6459     6461     6461     6461     6462 
    6462     6459     6454     6450     6448     6443     6438     6434 
    6426     6421     6415     6407     6399     6392     6386     6381 
    6372     6361     6354     6346     6336     6327     6319     6309 
    6301     6295     6288     6278     6269     6262     6255     6247 
    6243     6237     6231     6226     6219     6215     6212     6210 
    6205     6201     6201     6203     6199     6196     6197     6197 
    6196     6197     6199     6201     6204     6207     6210     6212 
    6218     6222     6223     6228     6235     6239     6242     6247 
    6253     6255     6261     6269     6273     6274     6282     6286 
    6288     6292     6300     6305     6307     6311     6315     6320 
    6327     6330     6332     6339     6342     6343     6349     6354 
    6358     6365     6372     6373     6376     6381     6385     6389 
    6393     6397     6403     6409     6412     6415     6420     6428 
    6435     6438     6440     6447     6453     6457     6462     6466 
    6467     6473     6477     6482     6484     6486     6489     6492 
    6493     6494     6496     6498     6500     6498     6500     6500 
    6497     6494     6496     6494     6490     6488     6488     6485 
    6482     6480     6477     6473     6469     6467     6463     6459 
    6457     6455     6451     6448     6444     6440     6438     6436 
    6434     6428     6427     6427     6424     6420     6417     6416 
    6413     6409     6407     6403     6399     6397     6394     6392 
    6389     6384     6380     6380     6377     6376     6372     6369 
    6366     6362     6362     6363     6359     6357     6355     6355 
    6354     6355     6355     6353     6353     6355     6355     6354 
    6354     6354     6354     6354     6351     6351     6351     6351 
    6349     6347     6345     6343     6343     6340     6336     6335 
    6334     6330     6327     6327     6322     6318     6318     6312 
    6307     6305     6303     6299     6295     6291     6285     6280 
    6274     6273     6270     6264     6259     6254     6247     6246 
    6242     6235     6231     6228     6220     6215     6214     6208 
    6203     6200     6197     6189     6183     6180     6174     6170 
    6165     6162     6158     6153     6151     6149     6146     6145 
    6142     6141     6141     6139     6141     6143     6142     6145 
    6149     6151     6157     6161     6165     6169     6174     6178 
    6184     6189     6199     6204     6210     6215     6220     6224 
    6231     6235     6238     6245     6249     6253     6257     6262 
    6266     6268     6272     6274     6277     6278     6278     6282 
    6285     6286     6286     6288     6288     6291     6292     6293 
    6295     6296     6299     6300     6304     6308     6311     6312 
    6315     6319     6323     6324     6327     6331     6334     6334 
    6336     6342     6343     6346     6350     6353     6353     6357 
    6361     6361     6361     6363     6365     6366     6367     6366 
    6366     6370     6374     6376     6377     6380     6382     6388 
    6390     6393     6397     6399     6404     6412     6413     6416 
    6421     6427     6430     6436     6442     6442     6444     6454 
    6457     6457     6463     6467     6469     6471     6475     6478 
    6481     6481     6482     6482     6482     6484     6485     6484 
    6481     6478     6480     6480     6474     6469     6467     6465 
    6461     6455     6450     6444     6438     6432     6428     6421 
    6413     6408     6404     6396     6385     6381     6376     6369 
    6363     6357     6349     6340     6331     6326     6323     6316 
    6309     6301     6295     6286     6278     6273     6268     6261 
    6254     6246     6242     6239     6234     6228     6228     6224 
    6218     6216     6216     6214     6212     6212     6211     6214 
    6215     6212     6214     6218     6216     6218     6220     6222 
    6223     6224     6224     6224     6228     6231     6230     6232 
    6235     6237     6238     6239     6239     6239     6239     6239 
    6242     6243     6241     6238     6242     6246     6246     6245 
    6245     6245     6246     6249     6249     6246     6246     6249 
    6249     6247     6247     6250     6251     6251     6254     6257 
    6258     6262     6264     6262     6268     6270     6272     6277 
    6282     6285     6289     6293     6296     6303     6309     6312 
    6316     6326     6330     6332     6339     6346     6351     6357 
    6363     6370     6373     6378     6385     6389     6394     6399 
    6401     6409     6415     6417     6421     6424     6427     6435 
    6439     6440     6446     6450     6451     6455     6461     6463 
    6466     6469     6473     6477     6480     6482     6482     6480 
    6484     6489     6488     6488     6488     6485     6486     6486 
    6484     6480     6478     6475     6471     6466     6461     6454 
    6450     6444     6436     6430     6421     6411     6404     6397 
    6385     6373     6366     6355     6345     6334     6322     6312 
    6301     6291     6281     6272     6261     6249     6239     6231 
    6223     6214     6204     6195     6185     6176     6170     6164 
    6157     6149     6142     6135     6127     6123     6119     6114 
    6111     6108     6106     6102     6097     6096     6097     6099 
    6099     6100     6102     6107     6112     6115     6120     6126 
    6133     6142     6151     6161     6173     6185     6197     6212 
    6227     6241     6254     6269     6286     6304     6319     6332 
    6350     6366     6381     6394     6407     6421     6438     6451 
    6462     6474     6486     6500     6511     6517     6528     6538 
    6543     6551     6559     6562     6566     6573     6577     6579 
    6582     6583     6583     6583     6585     6585     6583     6581 
    6578     6577     6573     6567     6566     6563     6558     6554 
    6550     6543     6536     6534     6528     6521     6512     6507 
    6504     6500     6494     6490     6485     6480     6477     6474 
    6470     6465     6462     6459     6457     6454     6450     6447 
    6446     6440     6436     6434     6431     6427     6421     6417 
    6415     6411     6407     6403     6397     6392     6388     6382 
    6380     6377     6372     6365     6361     6358     6355     6351 
    6346     6345     6342     6335     6330     6327     6323     6319 
    6318     6313     6309     6309     6309     6307     6303     6300 
    6299     6295     6292     6291     6288     6285     6284     6282 
    6284     6284     6280     6276     6274     6272     6272     6269 
    6266     6268     6268     6264     6261     6261     6259     6258 
    6258     6258     6254     6253     6254     6251     6250     6250 
    6251     6250     6249     6250     6254     6254     6254     6255 
    6258     6258     6257     6259     6264     6265     6265     6265 
    6268     6270     6269     6272     6274     6276     6277     6281 
    6281     6282     6285     6285     6284     6288     6291     6293 
    6295     6295     6297     6300     6304     6307     6308     6309 
    6313     6315     6316     6319     6323     6323     6323     6327 
    6330     6328     6331     6332     6331     6331     6332     6331 
    6330     6332     6332     6330     6328     6327     6323     6320 
    6322     6320     6318     6315     6311     6305     6301     6300 
    6299     6295     6288     6285     6284     6281     6277     6272 
    6266     6262     6258     6251     6247     6245     6242     6238 
    6238     6237     6232     6230     6230     6230     6230     6230 
    6230     6231     6232     6234     6235     6238     6239     6242 
    6246     6251     6254     6255     6259     6264     6265     6269 
    6274     6278     6282     6285     6286     6293     6297     6299 
    6304     6309     6309     6311     6315     6318     6319     6319 
    6319     6319     6322     6323     6320     6320     6322     6320 
    6316     6319     6319     6313     6311     6311     6308     6303 
    6300     6300     6296     6293     6293     6289     6285     6284 
    6282     6277     6274     6274     6272     6270     6272     6270 
    6269     6270     6269     6272     6273     6274     6274     6274 
    6274     6276     6278     6278     6278     6281     6282     6281 
    6282     6286     6285     6282     6284     6285     6284     6284 
    6284     6280     6277     6276     6274     6273     6270     6268 
    6268     6266     6264     6258     6254     6255     6255     6251 
    6249     6247     6246     6242     6238     6238     6238     6235 
    6232     6232     6231     6228     6228     6228     6230     6228 
    6227     6227     6227     6230     6232     6234     6237     6242 
    6245     6247     6254     6259     6262     6268     6274     6281 
    6289     6297     6303     6311     6320     6328     6335     6342 
    6350     6358     6366     6374     6384     6393     6401     6408 
    6415     6421     6430     6438     6448     6455     6458     6465 
    6470     6471     6474     6478     6478     6482     6486     6486 
    6485     6484     6485     6485     6484     6484     6480     6474 
    6471     6467     6462     6457     6454     6448     6442     6435 
    6427     6419     6413     6405     6396     6390     6384     6372 
    6362     6353     6346     6339     6331     6323     6313     6307 
    6300     6292     6284     6278     6273     6266     6261     6254 
    6250     6247     6241     6237     6234     6227     6222     6220 
    6218     6215     6211     6207     6204     6203     6200     6199 
    6199     6196     6195     6193     6191     6189     6188     6188 
    6189     6188     6188     6191     6192     6192     6192     6193 
    6196     6200     6199     6197     6203     6207     6210     6214 
    6215     6218     6220     6222     6224     6228     6232     6235 
    6234     6237     6241     6243     6245     6247     6251     6253 
    6254     6255     6257     6258     6262     6264     6265     6268 
    6270     6273     6276     6280     6282     6284     6286     6291 
    6293     6296     6299     6304     6309     6312     6316     6319 
    6323     6330     6334     6336     6342     6349     6354     6361 
    6367     6370     6376     6385     6389     6393     6400     6403 
    6408     6415     6420     6426     6430     6432     6439     6444 
    6446     6447     6448     6454     6455     6455     6457     6455 
    6455     6454     6451     6450     6451     6450     6446     6443 
    6440     6435     6432     6430     6426     6421     6419     6415 
    6411     6405     6401     6399     6393     6386     6382     6381 
    6378     6373     6365     6358     6355     6351     6347     6347 
    6345     6338     6335     6332     6324     6320     6320     6318 
    6312     6309     6307     6300     6296     6296     6293     6289 
    6286     6284     6282     6282     6278     6276     6276     6274 
    6273     6272     6268     6266     6266     6261     6257     6255 
    6254     6253     6251     6246     6243     6243     6241     6238 
    6237     6234     6231     6231     6227     6222     6219     6218 
    6215     6215     6214     6207     6205     6207     6204     6200 
    6197     6196     6195     6191     6188     6187     6191     6191 
    6188     6191     6192     6191     6193     6196     6197     6201 
    6205     6211     6212     6215     6222     6227     6231     6237 
    6239     6243     6250     6257     6261     6264     6266     6272 
