Origin Time       2025/01/13 21:19:00
Lat.              31.8
Long.             131.6
Depth. (km)       30
Mag.              6.9
Station Code      FKIH02
Station Lat.      35.9483
Station Long.     136.0556
Station Height(m) 120
Record Time       2025/01/13 21:22:35
Sampling Freq(Hz) 100Hz
Duration Time(s)  120
Dir.              5
Scale Factor      7845(gal)/8223790
Max. Acc. (gal)   0.225
Last Correction   2025/01/13 21:22:37
Memo.             
[...]
    2116     2118     2118     2122     2126     2128     2130     2134 
    2138     2139     2141     2145     2147     2146     2147     2147 
    2143     2142     2142     2141     2138     2137     2137     2135 
    2133     2130     2130     2134     2137     2138     2141     2143 
    2146     2147     2145     2143     2143     2146     2151     2155 
    2157     2158     2158     2154     2151     2150     2146     2146 
    2145     2135     2128     2128     2128     2130     2133     2134 
    2134     2135     2138     2139     2137     2135     2135     2134 
    2131     2130     2130     2128     2128     2127     2124     2118 
    2114     2112     2111     2108     2108     2107     2106     2103 
    2100     2100     2107     2111     2111     2114     2119     2120 
    2123     2123     2122     2123     2124     2120     2118     2115 
    2110     2107     2107     2104     2101     2100     2101     2103 
    2104     2106     2104     2100     2096     2091     2087     2084 
    2083     2083     2081     2077     2080     2084     2088     2092 
    2095     2099     2103     2106     2108     2111     2118     2123 
    2127     2133     2139     2143     2147     2151     2154     2157 
    2157     2154     2151     2150     2149     2145     2142     2141 
    2137     2130     2128     2131     2134     2137     2142     2146 
    2150     2160     2169     2173     2176     2180     2182     2182 
    2181     2180     2181     2182     2180     2174     2173     2169 
    2162     2157     2151     2146     2138     2133     2134     2137 
    2139     2146     2149     2153     2160     2162     2162     2165 
    2161     2157     2153     2149     2146     2145     2143     2145 
    2145     2147     2147     2143     2142     2139     2135     2133 
    2131     2127     2126     2130     2130     2127     2128     2134 
    2135     2134     2138     2139     2141     2145     2149     2150 
    2150     2153     2157     2160     2161     2165     2172     2176 
    2178     2181     2185     2188     2188     2191     2189     2182 
    2181     2182     2177     2170     2173     2173     2169     2169 
    2168     2166     2165     2165     2169     2174     2174     2177 
    2182     2187     2185     2185     2185     2185     2184     2181 
    2177     2173     2170     2165     2157     2151     2147     2145 
    2142     2138     2135     2133     2128     2122     2123     2127 
    2126     2126     2130     2133     2133     2138     2142     2145 
    2147     2147     2147     2146     2143     2139     2137     2135 
    2134     2133     2134     2133     2131     2133     2134     2133 
    2131     2133     2135     2134     2133     2137     2138     2134 
    2128     2127     2126     2122     2122     2123     2120     2115 
    2115     2118     2116     2112     2110     2106     2100     2096 
    2091     2085     2081     2074     2065     2060     2053     2046 
    2042     2039     2037     2037     2037     2041     2045     2049 
    2054     2061     2066     2070     2072     2073     2077     2079 
    2080     2081     2080     2079     2077     2079     2081     2085 
    2088     2087     2083     2083     2084     2084     2083     2085 
    2085     2085     2088     2093     2096     2104     2112     2115 
    2118     2119     2120     2122     2119     2115     2115     2116 
    2115     2112     2114     2118     2118     2116     2118     2118 
    2115     2112     2111     2111     2112     2108     2107     2108 
    2108     2110     2115     2120     2124     2128     2131     2135 
    2141     2145     2149     2157     2160     2158     2162     2168 
    2168     2168     2168     2166     2166     2165     2161     2158 
    2154     2150     2145     2139     2134     2128     2123     2123 
    2122     2118     2112     2108     2106     2106     2110     2114 
    2118     2123     2128     2135     2142     2146     2151     2157 
    2161     2164     2165     2168     2168     2168     2169     2168 
    2164     2164     2158     2154     2153     2150     2150     2151 
    2149     2150     2154     2155     2157     2158     2157     2157 
    2160     2160     2162     2166     2166     2169     2174     2177 
    2182     2192     2195     2199     2204     2205     2204     2201 
    2195     2189     2185     2182     2178     2172     2169     2165 
    2161     2160     2158     2153     2150     2149     2146     2143 
    2143     2145     2146     2147     2151     2154     2157     2161 
    2166     2172     2169     2166     2168     2165     2157     2150 
    2146     2142     2131     2122     2118     2114     2106     2100 
    2093     2085     2081     2080     2076     2074     2077     2079 
    2080     2083     2087     2091     2091     2092     2097     2099 
    2093     2093     2095     2092     2089     2089     2085     2077 
    2074     2076     2074     2073     2073     2074     2073     2072 
    2074     2081     2085     2087     2092     2095     2093     2096 
    2099     2096     2091     2087     2088     2088     2085     2083 
    2083     2083     2080     2076     2077     2080     2080     2081 
    2084     2085     2085     2088     2084     2080     2081     2079 
    2074     2072     2068     2065     2064     2062     2064     2068 
    2073     2077     2084     2089     2092     2097     2104     2106 
    2107     2112     2120     2127     2131     2137     2142     2147 
    2151     2153     2153     2151     2154     2157     2155     2157 
    2157     2155     2157     2161     2164     2161     2161     2165 
    2169     2172     2177     2180     2182     2191     2192     2193 
    2199     2203     2205     2207     2208     2212     2211     2209 
    2215     2219     2216     2218     2226     2234     2239     2246 
    2255     2263     2270     2278     2285     2288     2293     2296 
    2295     2295     2295     2290     2286     2282     2277     2274 
    2268     2259     2254     2253     2250     2246     2241     2232 
    2226     2216     2207     2199     2191     2184     2178     2174 
    2168     2162     2155     2151     2147     2142     2138     2135 
    2127     2120     2118     2112     2107     2107     2106     2099 
    2095     2093     2093     2092     2091     2088     2087     2083 
    2080     2083     2084     2084     2084     2084     2084     2084 
    2083     2081     2083     2083     2077     2074     2076     2074 
    2072     2073     2073     2073     2074     2079     2081     2081 
    2084     2091     2095     2099     2104     2110     2115     2122 
    2128     2139     2151     2157     2160     2166     2174     2176 
    2178     2188     2192     2193     2196     2199     2201     2201 
    2200     2200     2201     2203     2203     2205     2207     2205 
    2211     2214     2214     2215     2218     2222     2226     2230 
    2232     2235     2238     2239     2239     2241     2241     2238 
    2235     2232     2230     2227     2224     2220     2216     2211 
    2211     2212     2211     2211     2212     2212     2214     2215 
    2215     2216     2216     2216     2216     2214     2211     2208 
    2208     2209     2208     2207     2205     2204     2203     2196 
    2193     2193     2187     2177     2174     2173     2166     2164 
    2162     2162     2161     2158     2157     2154     2150     2150 
    2150     2146     2141     2142     2143     2141     2137     2137 
    2137     2137     2134     2133     2134     2133     2130     2130 
    2126     2116     2110     2107     2101     2096     2093     2091 
    2085     2079     2073     2070     2069     2062     2057     2052 
    2045     2039     2037     2033     2027     2025     2020     2016 
    2016     2014     2011     2010     2007     2007     2010     2007 
    2008     2015     2025     2031     2035     2043     2052     2057 
    2058     2062     2068     2066     2068     2073     2077     2077 
    2077     2076     2077     2076     2074     2076     2077     2081 
    2087     2089     2091     2091     2099     2108     2112     2120 
    2133     2139     2147     2160     2168     2173     2176     2177 
    2178     2178     2174     2169     2164     2160     2154     2150 
    2149     2146     2143     2142     2142     2145     2149     2151 
    2157     2164     2168     2172     2180     2187     2191     2196 
    2199     2199     2204     2209     2207     2204     2205     2205 
    2203     2203     2201     2200     2200     2200     2203     2207 
    2208     2212     2219     2223     2224     2226     2227     2230 
    2234     2234     2232     2232     2234     2235     2236     2236 
    2236     2236     2238     2236     2235     2236     2238     2239 
    2238     2235     2234     2234     2236     2239     2241     2238 
    2239     2242     2238     2235     2236     2236     2232     2232 
    2235     2236     2241     2242     2241     2242     2243     2243 
    2241     2238     2231     2224     2215     2205     2196     2191 
    2182     2176     2170     2166     2162     2158     2154     2153 
    2149     2145     2146     2146     2143     2142     2143     2142 
    2138     2135     2133     2128     2128     2126     2124     2126 
    2122     2115     2114     2110     2103     2097     2091     2087 
    2087     2087     2088     2091     2089     2088     2093     2097 
    2100     2103     2104     2104     2106     2106     2107     2112 
    2111     2108     2110     2111     2108     2110     2111     2112 
    2114     2115     2115     2118     2122     2122     2122     2122 
    2123     2122     2119     2118     2115     2114     2114     2114 
    2114     2114     2115     2118     2119     2116     2114     2115 
    2116     2115     2119     2122     2120     2120     2120     2118 
    2116     2118     2118     2115     2114     2114     2112     2114 
    2112     2108     2112     2116     2114     2114     2115     2119 
    2124     2130     2134     2137     2139     2145     2150     2151 
    2155     2161     2164     2166     2169     2173     2174     2177 
    2184     2189     2191     2195     2200     2201     2205     2211 
    2209     2209     2211     2208     2205     2203     2199     2195 
    2189     2181     2178     2178     2170     2164     2164     2161 
    2151     2147     2146     2142     2138     2135     2135     2139 
    2139     2134     2133     2137     2134     2130     2133     2131 
    2127     2124     2122     2119     2118     2115     2111     2110 
    2108     2106     2103     2099     2097     2097     2096     2096 
    2097     2100     2103     2101     2100     2101     2104     2106 
    2106     2106     2107     2104     2100     2095     2088     2088 
    2087     2083     2080     2077     2074     2076     2076     2076 
    2079     2080     2080     2081     2083     2084     2087     2087 
    2085     2084     2080     2077     2070     2062     2061     2058 
    2053     2050     2047     2046     2049     2053     2054     2056 
    2058     2064     2065     2069     2077     2084     2088     2095 
    2100     2104     2108     2111     2114     2116     2118     2116 
    2115     2115     2115     2112     2110     2110     2110     2111 
    2114     2116     2122     2126     2126     2130     2135     2137 
    2141     2146     2147     2151     2157     2162     2172     2176 
    2177     2182     2187     2187     2185     2185     2187     2185 
    2184     2188     2191     2187     2187     2191     2192     2193 
    2197     2201     2203     2204     2208     2208     2209     2211 
    2212     2216     2222     2220     2218     2220     2226     2227 
    2228     2231     2232     2234     2236     2235     2235     2236 
    2238     2238     2239     2234     2231     2234     2231     2228 
    2230     2231     2232     2231     2231     2232     2230     2222 
    2216     2215     2211     2207     2205     2203     2200     2196 
    2191     2187     2185     2182     2178     2178     2176     2169 
    2166     2166     2164     2162     2164     2162     2161     2162 
    2162     2161     2161     2158     2154     2155     2155     2153 
    2149     2151     2155     2157     2160     2164     2164     2166 
    2169     2172     2172     2172     2176     2178     2177     2174 
    2173     2172     2168     2165     2166     2164     2158     2158 
    2160     2154     2150     2150     2146     2143     2145     2138 
    2128     2124     2122     2115     2108     2100     2093     2084 
    2076     2069     2062     2058     2053     2042     2030     2023 
    2019     2012     2004     1996     1988     1981     1977     1971 
    1962     1957     1952     1944     1937     1935     1930     1926 
    1925     1926     1925     1923     1926     1931     1931     1934 
    1941     1945     1949     1953     1954     1960     1966     1969 
    1969     1971     1972     1973     1975     1979     1983     1987 
    1989     1993     1998     2002     2007     2015     2023     2033 
    2042     2053     2062     2072     2087     2100     2114     2128 
    2139     2151     2168     2180     2191     2204     2216     2226 
    2236     2247     2257     2268     2278     2292     2304     2313 
    2320     2328     2340     2351     2355     2361     2366     2371 
    2374     2374     2374     2373     2371     2367     2359     2353 
    2346     2338     2332     2324     2312     2303     2296     2288 
    2278     2270     2265     2259     2251     2243     2239     2235 
    2231     2227     2222     2218     2216     2211     2205     2203 
    2200     2193     2188     2181     2174     2174     2176     2169 
    2161     2158     2157     2155     2153     2151     2151     2150 
    2149     2150     2147     2145     2147     2149     2149     2151 
    2153     2154     2154     2155     2162     2165     2165     2166 
    2169     2172     2174     2173     2170     2173     2176     2177 
    2176     2174     2174     2174     2174     2172     2172     2173 
    2169     2165     2162     2160     2154     2155     2157     2155 
    2154     2154     2155     2158     2160     2161     2166     2172 
    2172     2170     2174     2180     2180     2182     2187     2189 
    2191     2195     2196     2197     2197     2196     2195     2192 
    2187     2180     2176     2172     2165     2160     2153     2145 
    2138     2133     2127     2118     2111     2107     2099     2095 
    2089     2083     2079     2076     2069     2061     2058     2058 
    2054     2050     2049     2046     2042     2041     2038     2037 
    2037     2037     2035     2035     2037     2038     2035     2033 
    2033     2035     2035     2033     2031     2029     2026     2030 
    2033     2030     2030     2033     2035     2039     2042     2045 
    2049     2052     2053     2057     2060     2058     2057     2060 
    2062     2060     2060     2061     2062     2065     2068     2073 
    2081     2085     2089     2096     2101     2103     2108     2114 
    2116     2118     2126     2133     2133     2135     2141     2139 
    2138     2142     2143     2142     2143     2145     2145     2145 
    2146     2149     2154     2161     2162     2166     2170     2174 
    2178     2182     2181     2181     2184     2189     2191     2191 
    2197     2203     2200     2203     2211     2211     2208     2208 
    2211     2215     2214     2209     2208     2208     2207     2205 
    2205     2204     2201     2199     2197     2196     2196     2193 
    2189     2185     2182     2181     2182     2181     2180     2178 
    2176     2170     2168     2166     2162     2157     2157     2157 
    2151     2146     2145     2142     2138     2137     2133     2128 
    2124     2118     2110     2108     2108     2103     2099     2096 
    2093     2091     2088     2087     2083     2081     2079     2077 
    2077     2077     2077     2080     2083     2080     2079     2081 
    2083     2084     2087     2084     2085     2092     2097     2104 
    2106     2108     2116     2120     2123     2130     2134     2138 
    2143     2147     2151     2154     2155     2160     2162     2166 
    2169     2169     2170     2174     2176     2178     2182     2185 
    2188     2193     2199     2201     2209     2216     2219     2223 
    2230     2232     2235     2236     2236     2241     2242     2241 
    2242     2242     2238     2236     2234     2232     2231     2230 
    2230     2228     2228     2230     2230     2226     2226     2224 
    2224     2228     2232     2234     2236     2236     2235     2236 
    2241     2241     2238     2235     2235     2235     2232     2228 
    2224     2220     2219     2215     2209     2204     2199     2192 
    2188     2184     2182     2181     2177     2174     2169     2165 
    2165     2162     2160     2154     2150     2153     2150     2143 
    2143     2141     2133     2131     2131     2127     2126     2123 
    2116     2111     2108     2104     2096     2089     2088     2088 
    2088     2084     2081     2084     2081     2072     2066     2068 
    2064     2057     2053     2049     2045     2042     2038     2035 
    2031     2027     2025     2020     2014     2010     2008     2006 
    2004     2007     2008     2010     2011     2014     2018     2019 
    2020     2026     2029     2030     2033     2035     2039     2042 
    2047     2050     2056     2062     2068     2070     2077     2084 
    2088     2097     2107     2110     2114     2120     2124     2128 
    2135     2142     2147     2151     2154     2157     2161     2165 
    2168     2172     2174     2180     2184     2182     2187     2193 
    2193     2195     2199     2204     2211     2214     2215     2215 
    2216     2218     2216     2214     2215     2218     2214     2212 
    2214     2211     2208     2207     2201     2199     2197     2191 
    2188     2187     2182     2181     2180     2178     2180     2178 
    2177     2177     2178     2177     2177     2177     2174     2174 
    2177     2176     2174     2176     2174     2170     2169     2169 
    2164     2161     2161     2155     2147     2143     2142     2137 
    2133     2131     2128     2123     2120     2116     2112     2112 
    2111     2107     2104     2103     2100     2101     2106     2104 
    2103     2103     2103     2106     2106     2101     2101     2103 
    2103     2103     2104     2106     2104     2106     2108     2107 
    2108     2110     2112     2115     2116     2120     2123     2123 
    2124     2124     2124     2127     2128     2130     2131     2130 
    2127     2127     2128     2124     2122     2122     2119     2118 
    2120     2119     2118     2122     2120     2119     2126     2128 
    2130     2135     2137     2137     2139     2141     2139     2139 
    2141     2141     2142     2143     2141     2139     2142     2143 
    2138     2134     2133     2127     2124     2124     2122     2115 
    2114     2111     2104     2099     2095     2093     2091     2087 
    2087     2088     2084     2081     2083     2081     2080     2079 
