Origin Time       2025/01/13 21:19:00
Lat.              31.8
Long.             131.6
Depth. (km)       30
Mag.              6.9
Station Code      FKIH04
Station Lat.      35.5587
Station Long.     135.8694
Station Height(m) 3
Record Time       2025/01/13 21:22:31
Sampling Freq(Hz) 100Hz
Duration Time(s)  120
Dir.              6
Scale Factor      3920(gal)/6170801
Max. Acc. (gal)   0.167
Last Correction   2025/01/13 21:22:16
Memo.             
[...]
  -31037   -31032   -31027   -31023   -31020   -31015   -31010   -31005 
  -31004   -31002   -30996   -30989   -30984   -30977   -30967   -30960 
  -30955   -30952   -30952   -30954   -30958   -30959   -30958   -30959 
  -30964   -30970   -30977   -30983   -30989   -30997   -31008   -31020 
  -31031   -31041   -31052   -31061   -31067   -31072   -31078   -31081 
  -31083   -31088   -31092   -31095   -31096   -31096   -31092   -31086 
  -31080   -31072   -31065   -31059   -31050   -31045   -31042   -31034 
  -31028   -31027   -31027   -31025   -31026   -31030   -31036   -31041 
  -31042   -31046   -31050   -31051   -31051   -31050   -31048   -31049 
  -31050   -31049   -31050   -31050   -31048   -31045   -31044   -31044 
  -31039   -31031   -31024   -31016   -31005   -30996   -30988   -30979 
  -30970   -30965   -30964   -30963   -30959   -30956   -30955   -30953 
  -30953   -30956   -30957   -30960   -30966   -30971   -30978   -30986 
  -30992   -31000   -31010   -31016   -31019   -31026   -31033   -31037 
  -31040   -31045   -31047   -31044   -31041   -31037   -31028   -31016 
  -31005   -30993   -30980   -30969   -30959   -30946   -30932   -30926 
  -30925   -30922   -30921   -30925   -30930   -30936   -30945   -30953 
  -30961   -30970   -30977   -30987   -30999   -31006   -31015   -31026 
  -31031   -31036   -31043   -31048   -31052   -31054   -31058   -31058 
  -31058   -31058   -31055   -31049   -31048   -31050   -31050   -31050 
  -31052   -31054   -31055   -31056   -31056   -31057   -31055   -31051 
  -31049   -31044   -31037   -31032   -31027   -31024   -31026   -31029 
  -31032   -31037   -31043   -31050   -31056   -31059   -31061   -31064 
  -31070   -31073   -31073   -31072   -31074   -31075   -31074   -31069 
  -31066   -31065   -31061   -31054   -31056   -31058   -31055   -31055 
  -31055   -31051   -31050   -31053   -31053   -31049   -31046   -31043 
  -31041   -31043   -31045   -31045   -31046   -31047   -31045   -31045 
  -31046   -31045   -31045   -31045   -31049   -31056   -31063   -31068 
  -31077   -31086   -31093   -31099   -31105   -31110   -31117   -31122 
  -31127   -31131   -31130   -31128   -31128   -31125   -31121   -31118 
  -31116   -31112   -31111   -31115   -31117   -31113   -31112   -31113 
  -31112   -31114   -31115   -31113   -31115   -31120   -31124   -31127 
  -31133   -31138   -31141   -31142   -31143   -31144   -31143   -31140 
  -31139   -31136   -31131   -31129   -31130   -31128   -31126   -31126 
  -31124   -31120   -31116   -31111   -31107   -31104   -31102   -31101 
  -31101   -31100   -31099   -31099   -31098   -31096   -31096   -31098 
  -31096   -31092   -31090   -31086   -31081   -31078   -31076   -31075 
  -31074   -31074   -31077   -31079   -31082   -31089   -31095   -31096 
  -31100   -31105   -31105   -31106   -31111   -31114   -31114   -31116 
  -31114   -31109   -31105   -31102   -31098   -31094   -31091   -31089 
  -31085   -31078   -31069   -31060   -31049   -31037   -31027   -31017 
  -31007   -30998   -30990   -30979   -30969   -30961   -30951   -30943 
  -30940   -30936   -30932   -30931   -30931   -30932   -30936   -30941 
  -30944   -30946   -30951   -30955   -30955   -30957   -30959   -30960 
  -30960   -30961   -30962   -30962   -30965   -30971   -30977   -30979 
  -30984   -30992   -30997   -31002   -31009   -31014   -31021   -31029 
  -31039   -31049   -31058   -31067   -31078   -31083   -31085   -31088 
  -31091   -31092   -31094   -31097   -31097   -31093   -31090   -31088 
  -31085   -31078   -31076   -31077   -31073   -31068   -31067   -31064 
  -31059   -31056   -31053   -31050   -31048   -31046   -31040   -31035 
  -31037   -31038   -31037   -31037   -31043   -31047   -31050   -31055 
  -31063   -31068   -31074   -31082   -31086   -31088   -31093   -31099 
  -31101   -31103   -31108   -31112   -31116   -31119   -31121   -31123 
  -31123   -31122   -31122   -31121   -31120   -31118   -31116   -31117 
  -31120   -31119   -31119   -31122   -31124   -31126   -31129   -31129 
  -31129   -31130   -31128   -31127   -31126   -31125   -31121   -31115 
  -31109   -31099   -31093   -31086   -31076   -31067   -31060   -31049 
  -31037   -31027   -31019   -31013   -31008   -31005   -31002   -31002 
  -31000   -30996   -30992   -30991   -30990   -30992   -30995   -30999 
  -31004   -31012   -31020   -31025   -31031   -31040   -31050   -31058 
  -31066   -31074   -31084   -31093   -31096   -31097   -31101   -31105 
  -31104   -31102   -31099   -31094   -31086   -31078   -31070   -31059 
  -31049   -31042   -31034   -31028   -31023   -31021   -31019   -31017 
  -31016   -31016   -31015   -31013   -31014   -31017   -31021   -31021 
  -31019   -31018   -31020   -31022   -31025   -31028   -31031   -31032 
  -31032   -31033   -31032   -31029   -31026   -31028   -31032   -31036 
  -31042   -31049   -31056   -31064   -31072   -31079   -31087   -31093 
  -31098   -31103   -31110   -31114   -31120   -31129   -31137   -31142 
  -31147   -31153   -31156   -31157   -31158   -31160   -31162   -31165 
  -31170   -31173   -31175   -31179   -31182   -31181   -31177   -31175 
  -31173   -31165   -31158   -31153   -31145   -31137   -31128   -31118 
  -31108   -31097   -31086   -31074   -31062   -31051   -31041   -31031 
  -31024   -31018   -31009   -31001   -31000   -31000   -30997   -30996 
  -30998   -30996   -30997   -31003   -31007   -31009   -31013   -31019 
  -31027   -31036   -31046   -31055   -31062   -31070   -31079   -31086 
  -31095   -31102   -31110   -31119   -31127   -31136   -31142   -31147 
  -31152   -31152   -31149   -31146   -31140   -31133   -31125   -31115 
  -31104   -31093   -31084   -31075   -31062   -31051   -31040   -31027 
  -31014   -31001   -30988   -30977   -30967   -30958   -30949   -30941 
  -30934   -30929   -30927   -30924   -30921   -30917   -30913   -30908 
  -30907   -30906   -30905   -30904   -30905   -30909   -30912   -30918 
  -30928   -30936   -30945   -30957   -30967   -30975   -30984   -30993 
  -31001   -31013   -31028   -31043   -31057   -31068   -31075   -31082 
  -31092   -31100   -31106   -31110   -31116   -31122   -31124   -31126 
  -31129   -31132   -31132   -31128   -31123   -31120   -31116   -31108 
  -31101   -31094   -31086   -31079   -31075   -31072   -31067   -31063 
  -31062   -31059   -31055   -31051   -31048   -31042   -31035   -31031 
  -31031   -31029   -31024   -31019   -31012   -31006   -31001   -30991 
  -30983   -30979   -30972   -30963   -30959   -30956   -30951   -30948 
  -30947   -30949   -30949   -30949   -30952   -30954   -30955   -30957 
  -30963   -30967   -30969   -30971   -30975   -30978   -30984   -30993 
  -31000   -31009   -31017   -31024   -31031   -31036   -31039   -31046 
  -31059   -31068   -31076   -31088   -31096   -31098   -31101   -31105 
  -31106   -31109   -31117   -31123   -31129   -31134   -31135   -31135 
  -31135   -31137   -31137   -31137   -31140   -31141   -31137   -31137 
  -31143   -31144   -31143   -31150   -31158   -31157   -31156   -31159 
  -31161   -31158   -31155   -31156   -31160   -31161   -31160   -31160 
  -31158   -31159   -31164   -31170   -31176   -31185   -31194   -31201 
  -31204   -31210   -31215   -31214   -31216   -31223   -31230   -31238 
  -31245   -31250   -31259   -31265   -31266   -31271   -31280   -31288 
  -31294   -31303   -31310   -31311   -31311   -31309   -31307   -31309 
  -31312   -31311   -31305   -31300   -31293   -31281   -31265   -31250 
  -31237   -31224   -31212   -31201   -31188   -31174   -31162   -31151 
  -31138   -31126   -31113   -31101   -31089   -31076   -31067   -31054 
  -31034   -31020   -31010   -30996   -30983   -30976   -30968   -30957 
  -30950   -30945   -30940   -30938   -30937   -30933   -30932   -30935 
  -30935   -30936   -30941   -30947   -30949   -30954   -30960   -30964 
  -30965   -30965   -30963   -30957   -30950   -30946   -30943   -30938 
  -30935   -30933   -30929   -30923   -30918   -30917   -30915   -30913 
  -30913   -30912   -30912   -30909   -30904   -30903   -30903   -30895 
  -30891   -30894   -30892   -30892   -30901   -30905   -30908   -30914 
  -30921   -30925   -30925   -30928   -30930   -30930   -30933   -30936 
  -30938   -30941   -30944   -30945   -30948   -30950   -30947   -30945 
  -30947   -30947   -30948   -30946   -30945   -30949   -30952   -30954 
  -30961   -30968   -30979   -30995   -31010   -31026   -31041   -31055 
  -31072   -31091   -31109   -31126   -31141   -31153   -31162   -31167 
  -31172   -31176   -31174   -31168   -31164   -31158   -31147   -31138 
  -31129   -31118   -31107   -31094   -31076   -31060   -31047   -31034 
  -31023   -31013   -31002   -30992   -30983   -30975   -30966   -30955 
  -30948   -30944   -30940   -30940   -30944   -30947   -30951   -30962 
  -30975   -30984   -30993   -31006   -31018   -31031   -31044   -31056 
  -31067   -31081   -31092   -31098   -31105   -31112   -31114   -31116 
  -31115   -31108   -31106   -31110   -31111   -31111   -31114   -31119 
  -31121   -31123   -31129   -31135   -31135   -31137   -31146   -31152 
  -31154   -31160   -31170   -31178   -31181   -31185   -31189   -31185 
  -31178   -31178   -31181   -31179   -31178   -31178   -31166   -31148 
  -31138   -31132   -31120   -31107   -31097   -31084   -31066   -31049 
  -31038   -31026   -31014   -31008   -31002   -30991   -30981   -30979 
  -30978   -30974   -30972   -30974   -30972   -30964   -30968   -30980 
  -30989   -30997   -31005   -31008   -31011   -31015   -31020   -31030 
  -31049   -31068   -31075   -31072   -31071   -31073   -31074   -31077 
  -31088   -31096   -31097   -31097   -31091   -31080   -31075   -31074 
  -31068   -31056   -31048   -31039   -31021   -31014   -31019   -31018 
  -31008   -30993   -30977   -30959   -30941   -30932   -30925   -30915 
  -30908   -30902   -30891   -30882   -30884   -30893   -30903   -30908 
  -30912   -30914   -30912   -30920   -30938   -30959   -30974   -30987 
  -31002   -31017   -31028   -31039   -31054   -31067   -31077   -31083 
  -31088   -31096   -31107   -31119   -31132   -31142   -31152   -31162 
  -31168   -31175   -31185   -31193   -31193   -31193   -31197   -31195 
  -31186   -31179   -31177   -31173   -31167   -31164   -31162   -31159 
  -31154   -31145   -31139   -31137   -31133   -31125   -31115   -31112 
  -31109   -31102   -31098   -31092   -31084   -31075   -31066   -31057 
  -31047   -31038   -31028   -31016   -31002   -30989   -30980   -30975 
  -30971   -30969   -30970   -30970   -30968   -30967   -30969   -30969 
  -30966   -30962   -30960   -30961   -30963   -30965   -30965   -30968 
  -30970   -30969   -30970   -30975   -30978   -30990   -31003   -31009 
  -31016   -31024   -31027   -31023   -31018   -31015   -31016   -31020 
  -31028   -31035   -31040   -31043   -31049   -31058   -31059   -31053 
  -31049   -31041   -31030   -31021   -31015   -31010   -31008   -31006 
  -31002   -30995   -30985   -30973   -30962   -30955   -30953   -30953 
  -30951   -30952   -30957   -30964   -30970   -30974   -30983   -30998 
  -31009   -31016   -31023   -31029   -31033   -31037   -31041   -31048 
  -31058   -31067   -31075   -31085   -31095   -31100   -31107   -31113 
  -31115   -31114   -31108   -31100   -31095   -31089   -31081   -31072 
  -31063   -31055   -31041   -31023   -31008   -30995   -30985   -30977 
  -30975   -30978   -30979   -30979   -30980   -30984   -30995   -31006 
  -31012   -31017   -31024   -31036   -31047   -31050   -31054   -31065 
  -31079   -31098   -31119   -31132   -31141   -31153   -31163   -31160 
  -31150   -31142   -31138   -31140   -31146   -31143   -31131   -31123 
  -31124   -31122   -31111   -31099   -31083   -31067   -31062   -31051 
  -31037   -31028   -31022   -31023   -31017   -31002   -30999   -30999 
  -31002   -31008   -31008   -31011   -31022   -31030   -31033   -31034 
  -31036   -31049   -31057   -31058   -31061   -31069   -31084   -31101 
  -31111   -31119   -31130   -31142   -31157   -31167   -31167   -31171 
  -31176   -31169   -31154   -31145   -31145   -31148   -31147   -31140 
  -31132   -31117   -31095   -31078   -31066   -31065   -31075   -31082 
  -31085   -31089   -31093   -31093   -31086   -31081   -31079   -31073 
  -31077   -31083   -31079   -31079   -31084   -31087   -31090   -31092 
  -31094   -31094   -31087   -31081   -31079   -31076   -31078   -31078 
  -31077   -31075   -31065   -31058   -31056   -31058   -31065   -31069 
  -31075   -31088   -31096   -31099   -31105   -31119   -31138   -31156 
  -31174   -31190   -31201   -31215   -31233   -31248   -31262   -31277 
  -31291   -31303   -31312   -31319   -31320   -31316   -31315   -31313 
  -31308   -31301   -31287   -31268   -31254   -31244   -31237   -31230 
  -31223   -31217   -31209   -31201   -31194   -31179   -31165   -31150 
  -31134   -31127   -31122   -31116   -31114   -31109   -31105   -31107 
  -31104   -31100   -31095   -31090   -31087   -31079   -31073   -31070 
  -31068   -31074   -31085   -31094   -31103   -31107   -31107   -31105 
  -31099   -31094   -31095   -31097   -31104   -31116   -31128   -31138 
  -31147   -31158   -31162   -31158   -31153   -31145   -31133   -31121 
  -31111   -31107   -31112   -31121   -31130   -31137   -31140   -31140 
  -31131   -31115   -31103   -31089   -31073   -31058   -31046   -31038 
  -31032   -31028   -31024   -31016   -31006   -30999   -30986   -30976 
  -30969   -30958   -30951   -30950   -30948   -30950   -30953   -30954 
  -30948   -30933   -30915   -30898   -30876   -30857   -30841   -30825 
  -30816   -30813   -30811   -30806   -30801   -30805   -30811   -30810 
  -30809   -30803   -30801   -30803   -30801   -30799   -30803   -30806 
  -30814   -30823   -30829   -30841   -30856   -30872   -30884   -30885 
  -30887   -30889   -30885   -30884   -30889   -30893   -30900   -30907 
  -30911   -30914   -30912   -30908   -30900   -30888   -30873   -30860 
  -30847   -30836   -30840   -30854   -30864   -30872   -30882   -30890 
  -30898   -30908   -30916   -30925   -30944   -30964   -30984   -31007 
  -31032   -31051   -31066   -31082   -31100   -31118   -31135   -31147 
  -31157   -31170   -31185   -31199   -31205   -31206   -31209   -31209 
  -31210   -31215   -31218   -31217   -31216   -31216   -31210   -31200 
  -31194   -31190   -31182   -31175   -31172   -31169   -31167   -31161 
  -31148   -31135   -31133   -31135   -31130   -31121   -31111   -31106 
  -31111   -31117   -31114   -31107   -31105   -31106   -31105   -31102 
  -31101   -31102   -31103   -31110   -31120   -31121   -31118   -31115 
  -31112   -31110   -31110   -31110   -31107   -31104   -31107   -31110 
  -31110   -31107   -31099   -31093   -31098   -31095   -31081   -31071 
  -31065   -31052   -31041   -31040   -31042   -31042   -31044   -31052 
  -31053   -31045   -31042   -31047   -31054   -31064   -31082   -31101 
  -31116   -31131   -31144   -31156   -31174   -31191   -31200   -31205 
  -31204   -31201   -31203   -31208   -31208   -31206   -31206   -31205 
  -31191   -31177   -31171   -31168   -31167   -31167   -31166   -31160 
  -31143   -31126   -31117   -31112   -31110   -31111   -31105   -31094 
  -31086   -31082   -31081   -31087   -31096   -31103   -31110   -31117 
  -31124   -31130   -31136   -31145   -31151   -31148   -31139   -31129 
  -31119   -31108   -31101   -31090   -31071   -31048   -31018   -30987 
  -30965   -30950   -30937   -30927   -30917   -30905   -30896   -30887 
  -30874   -30863   -30858   -30852   -30842   -30832   -30824   -30814 
  -30806   -30803   -30801   -30801   -30802   -30802   -30807   -30814 
  -30818   -30822   -30830   -30838   -30842   -30847   -30851   -30853 
  -30855   -30860   -30866   -30867   -30867   -30872   -30877   -30876 
  -30872   -30871   -30875   -30883   -30893   -30907   -30921   -30930 
  -30944   -30961   -30973   -30980   -30985   -30985   -30986   -30991 
  -31003   -31020   -31039   -31056   -31073   -31088   -31097   -31102 
  -31106   -31109   -31109   -31108   -31115   -31127   -31133   -31139 
  -31141   -31136   -31132   -31130   -31126   -31121   -31115   -31112 
  -31113   -31116   -31122   -31131   -31133   -31126   -31117   -31107 
  -31096   -31093   -31095   -31097   -31097   -31098   -31095   -31095 
  -31105   -31121   -31140   -31157   -31168   -31178   -31185   -31191 
  -31196   -31198   -31198   -31194   -31187   -31179   -31171   -31166 
  -31167   -31167   -31165   -31158   -31146   -31131   -31112   -31093 
  -31083   -31073   -31063   -31055   -31047   -31037   -31028   -31022 
  -31020   -31023   -31033   -31045   -31054   -31061   -31068   -31077 
  -31084   -31085   -31087   -31091   -31094   -31097   -31104   -31114 
  -31124   -31128   -31130   -31134   -31134   -31126   -31121   -31120 
  -31118   -31113   -31107   -31096   -31086   -31085   -31088   -31090 
  -31097   -31106   -31108   -31104   -31103   -31104   -31103   -31102 
  -31100   -31091   -31085   -31088   -31095   -31102   -31108   -31108 
  -31101   -31094   -31094   -31096   -31098   -31100   -31097   -31085 
  -31072   -31063   -31054   -31045   -31041   -31040   -31037   -31034 
  -31032   -31034   -31036   -31040   -31046   -31051   -31053   -31052 
  -31045   -31035   -31027   -31024   -31028   -31039   -31050   -31061 
  -31070   -31071   -31071   -31077   -31084   -31096   -31109   -31118 
  -31123   -31126   -31127   -31135   -31147   -31155   -31158   -31158 
  -31156   -31156   -31160   -31166   -31171   -31176   -31176   -31168 
  -31158   -31148   -31139   -31133   -31127   -31118   -31108   -31100 
  -31091   -31084   -31081   -31083   -31086   -31084   -31074   -31062 
  -31051   -31036   -31022   -31012   -31003   -30994   -30988   -30981 
  -30969   -30959   -30958   -30961   -30966   -30972   -30981   -30991 
  -30998   -31006   -31018   -31033   -31049   -31063   -31071   -31075 
  -31078   -31081   -31086   -31092   -31099   -31103   -31102   -31100 
  -31100   -31102   -31108   -31116   -31123   -31124   -31118   -31107 
  -31096   -31087   -31082   -31078   -31076   -31071   -31065   -31062 
  -31064   -31071   -31076   -31074   -31070   -31062   -31055   -31052 
  -31051   -31051   -31051   -31047   -31041   -31032   -31020   -31011 
  -31010   -31014   -31020   -31024   -31022   -31014   -31002   -30989 
  -30977   -30970   -30969   -30972   -30977   -30975   -30967   -30960 
  -30956   -30958   -30966   -30973   -30978   -30983   -30989   -30998 
  -31012   -31024   -31032   -31034   -31032   -31026   -31020   -31019 
  -31026   -31037   -31047   -31051   -31047   -31040   -31035   -31029 
  -31026   -31026   -31025   -31016   -31001   -30984   -30970   -30962 
  -30963   -30964   -30964   -30964   -30958   -30948   -30940   -30939 
  -30941   -30945   -30953   -30961   -30965   -30970   -30974   -30975 
  -30977   -30983   -30991   -30997   -31007   -31023   -31039   -31055 
  -31069   -31078   -31085   -31089   -31090   -31094   -31099   -31102 
  -31107   -31114   -31121   -31129   -31138   -31145   -31148   -31149 
  -31149   -31153   -31158   -31161   -31163   -31161   -31152   -31140 
  -31129   -31121   -31114   -31107   -31107   -31104   -31096   -31087 
  -31078   -31072   -31068   -31065   -31062   -31057   -31051   -31044 
  -31031   -31021   -31022   -31025   -31026   -31029   -31034   -31040 
  -31047   -31054   -31061   -31065   -31065   -31065   -31064   -31061 
  -31063   -31070   -31081   -31092   -31102   -31111   -31114   -31113 
  -31112   -31109   -31105   -31102   -31098   -31095   -31090   -31084 
