Origin Time       2025/01/13 21:19:00
Lat.              31.8
Long.             131.6
Depth. (km)       30
Mag.              6.9
Station Code      FKIH07
Station Lat.      35.4573
Station Long.     135.7266
Station Height(m) -61.5
Record Time       2025/01/13 21:22:18
Sampling Freq(Hz) 100Hz
Duration Time(s)  120
Dir.              3
Scale Factor      2940(gal)/6170270
Max. Acc. (gal)   0.121
Last Correction   2025/01/13 21:22:03
Memo.             
[...]
   99145    99146    99143    99142    99145    99144    99141    99141 
   99142    99139    99137    99136    99137    99139    99141    99138 
   99138    99141    99140    99138    99140    99142    99142    99140 
   99139    99140    99140    99136    99134    99135    99135    99132 
   99129    99127    99127    99125    99123    99122    99120    99118 
   99118    99118    99116    99115    99114    99112    99113    99114 
   99115    99117    99118    99119    99121    99125    99124    99122 
   99125    99128    99127    99128    99132    99135    99137    99138 
   99139    99142    99145    99147    99152    99157    99159    99159 
   99162    99166    99167    99169    99172    99173    99174    99178 
   99180    99179    99177    99177    99176    99175    99176    99177 
   99175    99175    99175    99172    99169    99168    99167    99163 
   99158    99156    99153    99151    99149    99145    99141    99141 
   99140    99137    99135    99133    99132    99130    99126    99122 
   99120    99118    99116    99112    99109    99109    99107    99104 
   99102    99097    99093    99090    99086    99082    99078    99075 
   99072    99068    99065    99063    99062    99061    99061    99065 
   99067    99069    99073    99077    99081    99089    99094    99096 
   99103    99112    99115    99120    99126    99128    99131    99135 
   99136    99137    99136    99135    99135    99138    99139    99139 
   99143    99145    99142    99144    99149    99148    99145    99146 
   99145    99144    99147    99146    99144    99147    99148    99147 
   99152    99152    99146    99145    99148    99145    99142    99142 
   99140    99136    99136    99141    99140    99137    99140    99142 
   99142    99142    99142    99144    99148    99148    99144    99144 
   99146    99145    99145    99146    99144    99142    99140    99137 
   99134    99131    99129    99128    99124    99121    99118    99112 
   99109    99107    99104    99104    99103    99101    99100    99096 
   99095    99098    99098    99096    99096    99097    99099    99100 
   99101    99101    99099    99099    99101    99099    99099    99101 
   99102    99103    99104    99104    99104    99104    99104    99104 
   99105    99106    99103    99102    99105    99106    99106    99106 
   99108    99110    99110    99109    99110    99110    99110    99112 
   99112    99111    99111    99110    99111    99110    99109    99110 
   99110    99110    99111    99113    99114    99113    99114    99117 
   99116    99116    99117    99115    99117    99117    99117    99119 
   99119    99117    99121    99123    99122    99124    99123    99123 
   99127    99127    99124    99126    99126    99124    99125    99125 
   99122    99122    99123    99122    99121    99122    99122    99122 
   99122    99122    99122    99124    99127    99125    99122    99125 
   99127    99125    99126    99127    99126    99125    99126    99126 
   99127    99129    99129    99129    99130    99130    99132    99134 
   99133    99134    99136    99138    99140    99142    99146    99147 
   99147    99154    99158    99159    99163    99167    99168    99170 
   99174    99176    99176    99177    99177    99177    99178    99180 
   99182    99182    99182    99185    99187    99188    99187    99187 
   99189    99191    99192    99193    99191    99190    99195    99196 
   99193    99195    99197    99196    99197    99196    99193    99192 
   99190    99189    99191    99191    99188    99187    99189    99189 
   99187    99185    99182    99180    99180    99178    99173    99169 
   99164    99161    99157    99154    99150    99148    99144    99140 
   99141    99139    99135    99135    99134    99129    99128    99129 
   99128    99127    99129    99128    99127    99128    99129    99128 
   99130    99131    99131    99129    99128    99130    99130    99128 
   99128    99129    99128    99130    99135    99135    99133    99136 
   99140    99141    99142    99143    99142    99141    99142    99143 
   99146    99148    99148    99149    99149    99149    99150    99151 
   99150    99151    99153    99155    99153    99150    99151    99152 
   99151    99153    99151    99148    99147    99147    99142    99141 
   99142    99138    99136    99138    99135    99131    99132    99129 
   99126    99125    99122    99117    99114    99113    99111    99109 
   99108    99104    99100    99101    99098    99095    99095    99093 
   99091    99092    99092    99091    99093    99094    99094    99097 
   99100    99100    99100    99101    99102    99102    99103    99104 
   99107    99108    99108    99111    99115    99116    99118    99125 
   99130    99132    99137    99142    99143    99147    99154    99156 
   99156    99158    99160    99161    99162    99160    99159    99158 
   99156    99151    99147    99145    99140    99135    99131    99127 
   99123    99118    99114    99110    99106    99100    99096    99094 
   99089    99083    99081    99078    99071    99067    99065    99066 
   99067    99064    99061    99062    99062    99061    99062    99061 
   99059    99060    99061    99063    99064    99063    99066    99069 
   99070    99074    99081    99087    99090    99094    99099    99101 
   99106    99114    99118    99119    99122    99127    99131    99133 
   99135    99136    99139    99142    99143    99142    99142    99141 
   99141    99142    99139    99137    99139    99138    99134    99132 
   99130    99130    99128    99127    99130    99131    99127    99126 
   99129    99129    99128    99129    99128    99127    99130    99131 
   99126    99124    99125    99124    99120    99117    99113    99112 
   99111    99108    99105    99105    99104    99104    99104    99104 
   99102    99102    99103    99102    99099    99100    99101    99099 
   99097    99095    99092    99089    99086    99082    99076    99071 
   99068    99065    99062    99057    99053    99052    99050    99045 
   99041    99040    99041    99039    99037    99037    99037    99036 
   99037    99039    99040    99040    99040    99041    99043    99045 
   99046    99049    99052    99054    99056    99057    99062    99070 
   99072    99075    99082    99087    99090    99094    99099    99102 
   99104    99107    99109    99110    99111    99115    99119    99119 
   99118    99121    99125    99124    99120    99122    99125    99123 
   99123    99125    99123    99121    99122    99120    99119    99119 
   99119    99120    99120    99119    99120    99121    99121    99122 
   99124    99126    99127    99126    99127    99132    99133    99132 
   99135    99139    99140    99143    99142    99142    99144    99144 
   99143    99145    99144    99142    99141    99138    99138    99141 
   99141    99138    99136    99134    99133    99135    99134    99133 
   99133    99132    99131    99130    99129    99127    99126    99125 
   99122    99121    99119    99115    99116    99116    99113    99113 
   99113    99110    99107    99106    99105    99103    99100    99098 
   99098    99096    99096    99096    99094    99095    99097    99095 
   99095    99098    99099    99099    99102    99104    99105    99111 
   99119    99121    99123    99128    99133    99136    99142    99145 
   99146    99148    99152    99155    99158    99158    99158    99159 
   99157    99157    99157    99155    99154    99154    99151    99148 
   99145    99143    99142    99138    99134    99134    99133    99128 
   99125    99124    99121    99118    99116    99116    99116    99114 
   99114    99117    99117    99113    99113    99116    99114    99112 
   99113    99114    99114    99115    99113    99110    99108    99105 
   99104    99106    99103    99100    99100    99098    99096    99096 
   99093    99092    99092    99091    99089    99088    99086    99085 
   99084    99085    99084    99083    99084    99086    99086    99087 
   99089    99093    99098    99102    99106    99114    99121    99124 
   99129    99137    99143    99148    99155    99160    99167    99175 
   99181    99189    99199    99205    99213    99221    99227    99234 
   99242    99247    99254    99261    99268    99273    99276    99279 
   99281    99281    99280    99280    99281    99279    99274    99271 
   99267    99260    99255    99250    99241    99234    99229    99221 
   99213    99208    99200    99193    99188    99182    99176    99171 
   99168    99165    99163    99159    99155    99151    99147    99146 
   99146    99144    99143    99141    99139    99139    99139    99138 
   99137    99138    99140    99142    99144    99143    99144    99147 
   99149    99151    99155    99160    99164    99167    99168    99172 
   99178    99180    99180    99181    99184    99188    99191    99189 
   99188    99189    99190    99191    99188    99186    99188    99189 
   99188    99187    99186    99187    99188    99186    99182    99183 
   99182    99179    99181    99180    99175    99173    99172    99168 
   99167    99165    99162    99162    99164    99163    99162    99163 
   99162    99162    99163    99162    99161    99163    99164    99163 
   99165    99166    99164    99165    99165    99163    99163    99163 
   99161    99161    99161    99157    99156    99154    99150    99148 
   99146    99142    99138    99136    99131    99127    99125    99122 
   99120    99118    99114    99112    99109    99105    99104    99102 
   99099    99096    99093    99092    99093    99091    99089    99089 
   99090    99090    99087    99085    99087    99087    99088    99090 
   99092    99095    99097    99098    99101    99106    99109    99110 
   99113    99116    99117    99118    99121    99122    99122    99124 
   99126    99126    99128    99130    99130    99130    99132    99132 
   99133    99135    99135    99135    99136    99136    99136    99136 
   99134    99133    99132    99129    99125    99121    99115    99111 
   99109    99105    99098    99093    99088    99084    99079    99078 
   99075    99070    99070    99072    99068    99068    99071    99071 
   99071    99076    99079    99082    99086    99086    99087    99091 
   99097    99102    99104    99106    99106    99109    99115    99118 
   99121    99126    99128    99131    99136    99138    99141    99144 
   99145    99148    99150    99152    99154    99158    99160    99162 
   99166    99167    99168    99172    99173    99175    99183    99187 
   99188    99194    99202    99207    99211    99216    99223    99225 
   99227    99234    99237    99238    99241    99243    99245    99247 
   99245    99243    99243    99241    99240    99239    99235    99230 
   99228    99225    99219    99215    99210    99202    99198    99195 
   99187    99180    99175    99168    99162    99156    99149    99143 
   99139    99136    99133    99130    99129    99125    99122    99121 
   99119    99118    99119    99119    99122    99124    99122    99122 
   99119    99113    99111    99110    99106    99104    99101    99096 
   99091    99086    99080    99077    99073    99066    99059    99053 
   99047    99038    99031    99024    99017    99009    99003    98996 
   98988    98982    98975    98968    98963    98957    98952    98949 
   98946    98942    98938    98936    98935    98933    98933    98936 
   98935    98936    98940    98940    98942    98949    98956    98961 
   98968    98975    98980    98985    98992    99000    99007    99014 
   99023    99030    99033    99038    99044    99049    99053    99060 
   99065    99069    99074    99079    99082    99084    99088    99092 
   99094    99101    99106    99109    99115    99120    99121    99126 
   99131    99133    99139    99145    99150    99155    99160    99164 
   99168    99176    99183    99190    99196    99200    99204    99211 
   99217    99221    99227    99232    99236    99241    99246    99248 
   99250    99254    99257    99257    99257    99259    99258    99257 
   99256    99255    99253    99251    99250    99248    99245    99242 
   99240    99236    99231    99227    99226    99221    99216    99215 
   99215    99212    99209    99206    99203    99199    99199    99197 
   99192    99190    99191    99186    99184    99184    99180    99177 
   99174    99170    99170    99169    99166    99165    99165    99165 
   99167    99167    99167    99169    99169    99168    99170    99170 
   99168    99168    99167    99166    99166    99164    99164    99163 
   99160    99160    99157    99150    99146    99145    99141    99138 
   99134    99127    99120    99116    99108    99096    99088    99080 
   99068    99056    99045    99035    99023    99009    98999    98990 
   98978    98968    98958    98948    98941    98934    98927    98922 
   98916    98908    98903    98902    98900    98896    98894    98897 
   98898    98899    98901    98901    98905    98913    98918    98923 
   98932    98941    98950    98959    98964    98974    98987    98997 
   99005    99014    99025    99037    99047    99057    99069    99077 
   99087    99099    99107    99116    99130    99141    99149    99160 
   99170    99178    99188    99199    99208    99218    99228    99237 
   99244    99251    99260    99269    99275    99281    99289    99298 
   99304    99310    99318    99327    99332    99335    99342    99353 
   99357    99357    99363    99372    99375    99378    99382    99382 
   99383    99383    99381    99380    99381    99380    99375    99370 
   99366    99361    99355    99346    99339    99330    99319    99311 
   99302    99291    99281    99273    99263    99254    99244    99234 
   99224    99215    99205    99195    99189    99187    99179    99171 
   99169    99163    99155    99151    99147    99142    99138    99134 
   99129    99125    99121    99116    99114    99112    99108    99104 
   99102    99100    99096    99094    99092    99091    99090    99088 
   99087    99087    99088    99088    99085    99084    99082    99080 
   99082    99080    99075    99073    99071    99067    99065    99060 
   99056    99053    99047    99042    99039    99035    99029    99023 
   99018    99013    99006    98998    98993    98989    98983    98977 
   98974    98972    98967    98964    98965    98962    98959    98963 
   98964    98963    98967    98973    98975    98979    98984    98987 
   98988    98995    99003    99004    99006    99014    99020    99024 
   99028    99031    99033    99039    99043    99045    99048    99050 
   99052    99053    99052    99052    99051    99048    99044    99041 
   99036    99032    99027    99021    99015    99009    99001    98992 
   98985    98979    98974    98968    98960    98954    98949    98943 
   98938    98933    98928    98926    98925    98920    98917    98916 
   98915    98916    98917    98916    98917    98920    98924    98929 
   98933    98938    98947    98955    98964    98974    98984    98995 
   99008    99019    99031    99046    99060    99074    99090    99104 
   99118    99131    99143    99157    99173    99185    99196    99211 
   99225    99236    99245    99256    99267    99276    99284    99293 
   99302    99308    99311    99314    99319    99319    99317    99317 
   99317    99315    99312    99312    99311    99305    99301    99300 
   99296    99290    99286    99284    99278    99272    99269    99264 
   99257    99253    99248    99240    99233    99230    99227    99222 
   99215    99213    99210    99203    99198    99195    99191    99188 
   99185    99180    99177    99175    99173    99169    99165    99161 
   99158    99155    99152    99149    99146    99143    99141    99139 
   99135    99133    99132    99130    99126    99121    99119    99119 
   99117    99112    99110    99112    99111    99107    99105    99105 
   99106    99106    99105    99106    99108    99111    99113    99114 
   99116    99117    99118    99120    99122    99124    99128    99131 
   99132    99133    99136    99138    99141    99141    99143    99146 
   99149    99150    99150    99150    99151    99151    99149    99148 
   99150    99151    99151    99152    99153    99152    99153    99156 
   99158    99156    99158    99163    99163    99162    99164    99166 
   99166    99165    99164    99163    99162    99162    99157    99151 
   99148    99141    99133    99128    99121    99112    99106    99097 
   99086    99077    99068    99059    99051    99042    99034    99026 
   99017    99012    99010    99006    99001    98997    98996    98996 
   98997    98998    99001    99007    99012    99016    99021    99028 
   99034    99042    99053    99063    99074    99087    99097    99105 
   99117    99128    99138    99149    99159    99170    99182    99191 
   99199    99210    99218    99224    99232    99240    99247    99253 
   99257    99260    99262    99264    99270    99272    99271    99273 
   99278    99278    99277    99277    99277    99278    99280    99280 
   99280    99280    99280    99282    99283    99280    99280    99280 
   99278    99279    99280    99278    99277    99276    99270    99267 
   99266    99263    99258    99253    99249    99244    99239    99233 
   99230    99226    99218    99211    99207    99201    99194    99186 
   99178    99170    99163    99157    99148    99141    99136    99129 
   99121    99117    99112    99105    99101    99094    99087    99083 
   99076    99069    99064    99060    99054    99051    99046    99040 
   99036    99034    99027    99023    99021    99018    99015    99015 
   99014    99012    99014    99015    99015    99017    99022    99023 
   99025    99031    99034    99036    99040    99046    99051    99057 
   99063    99068    99073    99078    99084    99092    99100    99108 
   99115    99117    99122    99130    99136    99140    99146    99152 
   99157    99162    99164    99168    99172    99175    99178    99183 
   99188    99193    99196    99196    99201    99209    99213    99215 
   99220    99225    99229    99235    99241    99244    99249    99257 
   99260    99262    99269    99275    99277    99281    99286    99288 
   99290    99295    99297    99296    99296    99296    99295    99294 
   99292    99288    99284    99281    99277    99272    99266    99260 
   99254    99249    99243    99235    99227    99220    99213    99205 
   99198    99193    99187    99175    99167    99162    99154    99147 
   99142    99134    99127    99123    99120    99117    99114    99107 
   99102    99098    99096    99094    99090    99086    99084    99083 
   99083    99084    99085    99084    99084    99087    99089    99090 
   99092    99093    99096    99099    99103    99106    99109    99112 
   99115    99119    99124    99126    99128    99130    99135    99138 
   99138    99140    99142    99146    99149    99149    99146    99146 
   99145    99144    99145    99143    99141    99140    99137    99135 
   99134    99131    99132    99131    99126    99123    99122    99119 
   99114    99109    99107    99105    99101    99098    99096    99091 
   99087    99084    99079    99073    99068    99063    99058    99056 
   99049    99041    99039    99036    99030    99026    99021    99015 
   99010    99004    98999    98994    98990    98988    98983    98977 
