Origin Time       2025/01/13 21:19:00
Lat.              31.8
Long.             131.6
Depth. (km)       30
Mag.              6.9
Station Code      FKIH01
Station Lat.      36.0955
Station Long.     136.3617
Station Height(m) 65
Record Time       2025/01/13 21:22:48
Sampling Freq(Hz) 100Hz
Duration Time(s)  120
Dir.              6
Scale Factor      7845(gal)/8223790
Max. Acc. (gal)   0.112
Last Correction   2025/01/13 21:22:49
Memo.             
[...]
    9996     9998     9999    10000     9999     9996     9996     9995 
    9992     9995     9996     9996     9999    10000    10000    10002 
    9999     9996     9999    10000     9999     9998     9999    10002 
   10000     9999    10002    10000    10002    10004    10004    10002 
   10002    10000    10000    10004    10004    10003    10002    10002 
   10002    10002    10000    10000    10003    10000     9996     9994 
    9995     9995     9992     9994     9995     9991     9990     9990 
    9988     9988     9990     9988     9985     9984     9981     9979 
    9977     9977     9977     9976     9977     9976     9975     9973 
    9971     9969     9968     9969     9969     9972     9973     9972 
    9972     9972     9971     9969     9971     9975     9976     9975 
    9973     9973     9975     9976     9977     9976     9975     9973 
    9973     9977     9979     9975     9973     9975     9973     9972 
    9972     9971     9971     9972     9971     9969     9969     9972 
    9975     9975     9973     9973     9975     9975     9973     9972 
    9973     9973     9971     9972     9976     9975     9973     9972 
    9971     9971     9973     9972     9971     9973     9976     9976 
    9975     9975     9979     9979     9975     9976     9980     9980 
    9980     9981     9983     9983     9983     9985     9984     9980 
    9983     9985     9985     9987     9990     9985     9984     9987 
    9987     9984     9985     9987     9987     9988     9988     9987 
    9987     9987     9987     9990     9991     9990     9990     9990 
    9987     9987     9990     9988     9990     9991     9991     9990 
    9988     9988     9994     9996     9994     9994     9995     9995 
    9992     9991     9995     9996     9995     9994     9991     9991 
    9994     9994     9992     9991     9992     9994     9995     9996 
    9996     9998     9996     9996     9998     9998     9996     9999 
   10000    10000     9999     9998    10000    10002    10000     9999 
    9996     9996     9998     9999     9999     9998     9996     9996 
    9998     9998     9996     9998     9996     9994     9998     9999 
    9998    10000    10000     9998    10000    10002     9998    10000 
   10004    10004    10004    10007    10006    10003    10003    10003 
   10002    10003    10003    10003    10002    10000    10003    10006 
   10004    10000    10002    10003    10002    10003    10004    10002 
    9996     9996     9998     9994     9992     9995     9995     9994 
    9992     9987     9985     9987     9990     9991     9987     9984 
    9984     9981     9980     9981     9981     9981     9981     9983 
    9981     9976     9976     9980     9981     9981     9981     9980 
    9980     9980     9979     9981     9983     9981     9983     9980 
    9973     9973     9977     9977     9976     9975     9973     9976 
    9979     9976     9973     9973     9971     9971     9973     9973 
    9971     9972     9975     9976     9975     9973     9976     9979 
    9980     9981     9981     9979     9977     9981     9984     9983 
    9981     9981     9984     9987     9988     9987     9987     9985 
    9983     9985     9987     9985     9985     9987     9988     9987 
    9985     9987     9984     9983     9985     9987     9987     9987 
    9987     9987     9988     9987     9984     9984     9985     9987 
    9988     9988     9985     9983     9981     9980     9980     9981 
    9985     9984     9979     9977     9979     9980     9980     9980 
    9981     9984     9983     9981     9981     9979     9980     9983 
    9980     9979     9981     9981     9981     9983     9985     9984 
    9983     9985     9987     9984     9984     9987     9990     9985 
    9983     9985     9985     9984     9984     9985     9985     9985 
    9985     9985     9987     9990     9991     9991     9992     9995 
    9996     9995     9996     9996     9995     9998    10000    10002 
   10004    10006    10004    10004    10006    10006    10004    10003 
   10000    10002    10003    10003    10003    10003    10002    10000 
    9998     9996     9996     9995     9995     9995     9994     9996 
    9998     9995     9994     9992     9991     9992     9994     9994 
    9994     9994     9992     9991     9992     9994     9992     9991 
    9991     9992     9994     9992     9990     9991     9992     9992 
    9991     9990     9988     9988     9990     9990     9991     9995 
    9994     9992     9991     9990     9988     9991     9994     9995 
    9995     9991     9991     9998     9999     9999    10002    10002 
    9998     9998    10000    10003    10004    10003     9999     9998 
   10000    10002    10000    10000    10002     9999     9996     9998 
    9999     9998     9996     9994     9992     9994     9994     9992 
    9992     9992     9988     9987     9987     9987     9985     9984 
    9981     9979     9976     9976     9973     9969     9969     9969 
    9963     9957     9957     9956     9956     9956     9953     9950 
    9946     9944     9942     9938     9934     9936     9934     9931 
    9930     9927     9925     9925     9926     9925     9921     9918 
    9922     9925     9919     9919     9921     9918     9918     9919 
    9917     9917     9921     9922     9922     9923     9921     9921 
    9925     9925     9925     9923     9923     9926     9929     9931 
    9933     9933     9933     9937     9940     9941     9946     9949 
    9950     9952     9957     9960     9963     9965     9971     9972 
    9972     9976     9980     9981     9985     9987     9987     9991 
    9995     9995     9998    10004    10007    10008    10008    10008 
   10008    10008    10014    10018    10022    10025    10021    10019 
   10022    10023    10023    10022    10019    10019    10022    10021 
   10021    10025    10023    10021    10021    10019    10018    10017 
   10015    10017    10015    10011    10008    10008    10006    10006 
   10006    10003    10000    10002    10004    10002     9998     9998 
    9994     9990     9991     9988     9985     9988     9990     9987 
    9987     9988     9983     9980     9981     9980     9979     9980 
    9980     9979     9980     9980     9976     9975     9979     9979 
    9976     9976     9973     9971     9972     9975     9976     9976 
    9972     9972     9975     9976     9973     9973     9976     9976 
    9977     9977     9976     9975     9977     9979     9980     9981 
    9983     9981     9981     9980     9981     9981     9980     9984 
    9985     9981     9981     9987     9988     9988     9992     9992 
    9991     9995     9999    10002    10002    10002    10004    10006 
   10006    10008    10011    10011    10011    10015    10015    10011 
   10014    10019    10019    10019    10022    10019    10018    10018 
   10015    10015    10019    10018    10018    10021    10015    10012 
   10019    10019    10015    10017    10018    10014    10012    10012 
   10010    10007    10007    10007    10007    10007    10004    10000 
    9998     9996     9996     9995     9992     9988     9987     9987 
    9983     9979     9977     9975     9972     9969     9967     9965 
    9964     9963     9960     9957     9954     9950     9950     9949 
    9945     9946     9942     9937     9940     9938     9934     9934 
    9933     9927     9927     9933     9934     9930     9929     9931 
    9933     9933     9936     9940     9940     9937     9938     9946 
    9949     9949     9953     9957     9958     9961     9965     9971 
    9971     9972     9979     9983     9984     9987     9988     9988 
    9994     9998    10000    10002    10004    10007    10008    10006 
   10007    10011    10012    10015    10017    10018    10019    10021 
   10019    10018    10018    10021    10019    10019    10021    10019 
   10018    10018    10019    10017    10012    10014    10017    10015 
   10014    10012    10008    10006    10006    10006    10004    10003 
   10003    10002     9998     9994     9991     9988     9988     9988 
    9987     9983     9977     9976     9976     9973     9972     9972 
    9971     9969     9969     9967     9964     9964     9963     9961 
    9961     9960     9958     9956     9956     9957     9954     9952 
    9950     9948     9948     9948     9949     9948     9941     9940 
    9942     9940     9937     9936     9937     9936     9933     9929 
    9927     9927     9926     9926     9926     9926     9925     9923 
    9922     9925     9927     9925     9925     9927     9926     9925 
    9927     9929     9930     9934     9934     9933     9936     9936 
    9936     9942     9946     9948     9949     9952     9954     9954 
    9957     9964     9967     9967     9969     9972     9973     9976 
    9980     9984     9985     9985     9988     9991     9994     9992 
    9992     9994     9995     9996     9999    10000     9999    10000 
    9999     9995     9992     9996     9998     9995     9995     9994 
    9992     9991     9992     9990     9985     9983     9981     9981 
    9981     9981     9980     9977     9977     9979     9976     9972 
    9971     9969     9971     9973     9975     9971     9968     9969 
    9971     9969     9971     9972     9973     9972     9971     9972 
    9975     9975     9976     9976     9975     9973     9977     9980 
    9980     9981     9980     9977     9980     9981     9980     9983 
    9985     9985     9987     9987     9988     9990     9990     9991 
    9995     9992     9992     9996    10000    10004    10006    10006 
   10008    10010    10010    10014    10018    10017    10015    10021 
   10026    10026    10027    10030    10034    10034    10034    10038 
   10041    10042    10044    10045    10045    10049    10053    10054 
   10057    10057    10058    10057    10058    10062    10064    10062 
   10062    10062    10064    10062    10060    10060    10061    10058 
   10056    10056    10053    10050    10049    10045    10041    10037 
   10034    10031    10027    10022    10018    10017    10017    10012 
   10006    10000     9994     9991     9988     9984     9976     9972 
    9968     9965     9961     9954     9952     9950     9945     9941 
    9940     9937     9934     9931     9931     9926     9923     9925 
    9921     9918     9922     9922     9918     9919     9917     9914 
    9915     9914     9911     9914     9917     9918     9921     9923 
    9926     9930     9934     9934     9934     9938     9941     9944 
    9949     9953     9956     9958     9960     9961     9967     9971 
    9975     9979     9983     9985     9991     9995     9998    10003 
   10008    10011    10012    10014    10017    10019    10023    10029 
   10029    10027    10030    10034    10033    10034    10039    10039 
   10041    10045    10045    10039    10038    10041    10042    10042 
   10044    10042    10041    10041    10039    10035    10035    10033 
   10030    10030    10030    10029    10026    10023    10021    10018 
   10015    10012    10010    10006    10006    10002     9996     9995 
    9995     9991     9984     9983     9981     9975     9972     9969 
    9964     9958     9957     9957     9956     9950     9945     9940 
    9936     9936     9930     9923     9923     9923     9918     9914 
    9911     9907     9904     9904     9902     9899     9896     9895 
    9894     9894     9894     9892     9891     9892     9890     9888 
    9888     9892     9898     9896     9895     9900     9902     9902 
    9904     9907     9909     9913     9917     9921     9921     9921 
    9926     9929     9933     9937     9938     9941     9948     9949 
    9949     9957     9963     9965     9969     9972     9975     9981 
    9985     9987     9994     9998     9998    10002    10007    10011 
   10017    10019    10022    10026    10031    10035    10039    10044 
   10048    10049    10053    10054    10054    10058    10065    10068 
   10072    10073    10071    10075    10077    10073    10075    10077 
   10077    10077    10079    10077    10076    10075    10071    10068 
   10069    10069    10066    10065    10061    10056    10052    10048 
   10045    10045    10039    10033    10033    10030    10023    10022 
   10019    10011    10008    10008    10003     9996     9995     9996 
    9995     9994     9990     9987     9988     9990     9988     9987 
    9987     9988     9990     9990     9990     9992     9994     9995 
    9995     9995     9999    10000    10002    10002    10006    10008 
   10008    10008    10011    10017    10019    10019    10022    10029 
   10034    10030    10031    10038    10038    10037    10042    10045 
   10045    10045    10048    10052    10053    10056    10058    10060 
   10062    10065    10064    10065    10069    10069    10068    10066 
   10068    10069    10069    10069    10069    10065    10064    10066 
   10065    10064    10064    10061    10057    10057    10057    10054 
   10050    10046    10041    10035    10031    10031    10029    10022 
   10017    10012    10006    10003     9999     9992     9987     9981 
    9976     9972     9968     9960     9954     9952     9946     9937 
    9931     9930     9925     9921     9918     9913     9906     9903 
    9902     9899     9895     9890     9888     9887     9880     9876 
    9880     9882     9876     9872     9871     9871     9871     9869 
    9868     9867     9867     9868     9867     9867     9868     9871 
    9873     9873     9872     9873     9873     9877     9880     9880 
    9880     9883     9886     9887     9888     9891     9895     9898 
    9899     9903     9904     9906     9913     9918     9921     9923 
    9926     9930     9937     9940     9945     9950     9953     9956 
    9964     9968     9969     9975     9981     9985     9988     9994 
   10000    10004    10008    10015    10019    10019    10021    10027 
   10033    10033    10037    10042    10041    10042    10048    10046 
   10046    10050    10053    10052    10053    10050    10048    10050 
   10050    10046    10045    10044    10044    10045    10041    10035 
   10033    10027    10027    10027    10027    10022    10017    10012 
   10010    10007    10004    10002     9998     9996     9994     9988 
    9983     9980     9977     9971     9967     9967     9963     9958 
    9956     9954     9949     9945     9941     9936     9936     9938 
    9936     9926     9922     9923     9921     9915     9915     9915 
    9917     9917     9917     9915     9911     9911     9911     9913 
    9914     9915     9917     9918     9917     9917     9919     9921 
    9921     9923     9926     9926     9927     9929     9930     9934 
    9934     9933     9938     9941     9940     9944     9944     9945 
    9949     9950     9953     9954     9954     9957     9957     9956 
    9958     9961     9960     9963     9965     9964     9964     9965 
    9965     9965     9969     9969     9965     9964     9968     9971 
    9972     9972     9971     9969     9969     9969     9973     9976 
    9973     9971     9972     9973     9972     9969     9973     9975 
    9971     9967     9968     9968     9967     9967     9965     9963 
    9961     9960     9960     9960     9958     9956     9956     9956 
    9952     9950     9952     9950     9948     9949     9950     9949 
    9948     9948     9948     9949     9950     9948     9949     9952 
    9953     9952     9953     9954     9958     9963     9963     9963 
    9964     9964     9965     9967     9971     9973     9977     9979 
    9979     9980     9984     9985     9988     9991     9990     9992 
    9996     9998    10000    10004    10003    10004    10007    10010 
   10014    10017    10015    10019    10025    10026    10029    10033 
   10034    10038    10041    10042    10046    10049    10054    10060 
   10060    10061    10064    10065    10069    10073    10072    10073 
   10081    10084    10083    10084    10087    10087    10085    10088 
   10089    10089    10091    10089    10089    10088    10089    10091 
   10088    10087    10087    10084    10080    10079    10079    10077 
   10075    10072    10066    10062    10061    10061    10058    10054 
   10050    10044    10039    10039    10038    10033    10029    10026 
   10023    10019    10018    10015    10012    10012    10010    10006 
   10004    10004    10003    10000    10000     9999     9995     9995 
    9994     9995     9995     9991     9991     9992     9991     9990 
    9990     9987     9987     9988     9987     9987     9988     9988 
    9985     9983     9984     9983     9981     9983     9984     9983 
    9983     9981     9980     9979     9976     9975     9977     9976 
    9975     9975     9972     9968     9971     9972     9967     9963 
    9965     9967     9963     9961     9963     9961     9957     9956 
    9954     9953     9954     9950     9949     9952     9954     9953 
    9954     9954     9952     9953     9952     9949     9952     9954 
    9956     9958     9961     9960     9960     9964     9968     9967 
    9964     9965     9968     9969     9971     9972     9973     9976 
    9977     9976     9977     9980     9981     9981     9980     9981 
    9980     9979     9981     9984     9981     9981     9981     9983 
    9984     9983     9981     9980     9979     9980     9979     9977 
    9975     9972     9973     9973     9975     9973     9972     9973 
    9971     9967     9967     9967     9965     9964     9963     9964 
    9965     9964     9964     9964     9961     9958     9957     9960 
    9960     9957     9958     9957     9956     9957     9957     9957 
    9960     9960     9960     9961     9961     9958     9961     9964 
    9963     9963     9963     9964     9967     9967     9967     9968 
    9968     9968     9969     9971     9971     9969     9972     9975 
    9973     9975     9977     9976     9979     9979     9976     9979 
    9979     9975     9976     9980     9984     9981     9979     9983 
    9980     9972     9973     9977     9979     9980     9979     9977 
    9977     9979     9979     9977     9976     9979     9980     9977 
    9979     9981     9983     9984     9988     9987     9985     9988 
    9992     9994     9992     9994     9996     9996     9998    10002 
   10004    10006    10007    10007    10007    10008    10011    10012 
   10014    10014    10015    10017    10018    10017    10018    10022 
   10019    10018    10022    10022    10018    10019    10023    10025 
   10025    10025    10025    10026    10025    10025    10027    10029 
   10031    10034    10034    10034    10035    10034    10031    10033 
   10034    10033    10031    10034    10034    10033    10031    10033 
   10035    10035    10033    10030    10027    10027    10027    10026 
   10026    10026    10023    10021    10018    10018    10019    10015 
   10010    10011    10011    10006    10004    10004    10002     9999 
   10000     9998     9992     9992     9991     9988     9988     9985 
    9983     9984     9981     9979     9977     9976     9973     9973 
    9973     9971     9969     9969     9967     9965     9965     9963 
    9964     9967     9965     9961     9958     9961     9965     9963 
