Origin Time       2025/01/13 21:19:00
Lat.              31.8
Long.             131.6
Depth. (km)       30
Mag.              6.9
Station Code      FKIH02
Station Lat.      35.9483
Station Long.     136.0556
Station Height(m) 20
Record Time       2025/01/13 21:22:35
Sampling Freq(Hz) 100Hz
Duration Time(s)  120
Dir.              1
Scale Factor      3923(gal)/8224838
Max. Acc. (gal)   0.195
Last Correction   2025/01/13 21:22:37
Memo.             
[...]
   30423    30420    30420    30424    30426    30426    30429    30433 
   30434    30435    30438    30439    30438    30438    30438    30435 
   30435    30437    30437    30437    30438    30441    30443    30445 
   30443    30446    30451    30453    30453    30454    30456    30457 
   30460    30460    30460    30465    30469    30469    30469    30472 
   30472    30470    30469    30472    30470    30469    30470    30469 
   30469    30470    30470    30469    30469    30469    30470    30472 
   30469    30466    30465    30462    30464    30465    30464    30464 
   30461    30458    30458    30457    30454    30453    30450    30450 
   30450    30446    30445    30443    30442    30441    30439    30438 
   30434    30434    30433    30431    30431    30431    30429    30427 
   30427    30424    30423    30423    30423    30419    30419    30420 
   30419    30418    30418    30416    30416    30415    30414    30414 
   30411    30408    30408    30408    30407    30408    30408    30406 
   30406    30407    30407    30412    30416    30415    30416    30418 
   30419    30420    30423    30424    30426    30427    30427    30427 
   30430    30431    30430    30429    30430    30431    30434    30435 
   30434    30434    30439    30442    30442    30442    30445    30446 
   30445    30443    30445    30445    30445    30442    30439    30438 
   30437    30433    30431    30430    30427    30424    30420    30418 
   30418    30416    30415    30414    30414    30411    30410    30411 
   30411    30407    30406    30407    30406    30404    30403    30400 
   30402    30403    30402    30399    30399    30402    30402    30400 
   30403    30407    30410    30411    30412    30412    30414    30416 
   30420    30422    30423    30426    30426    30427    30429    30427 
   30427    30427    30427    30429    30429    30429    30431    30431 
   30434    30435    30434    30433    30433    30433    30431    30431 
   30434    30435    30431    30430    30433    30431    30430    30430 
   30426    30423    30422    30422    30420    30418    30418    30416 
   30411    30411    30412    30410    30410    30407    30404    30404 
   30403    30400    30400    30399    30396    30396    30393    30392 
   30393    30392    30391    30392    30395    30397    30397    30397 
   30397    30397    30402    30403    30404    30407    30410    30410 
   30411    30414    30416    30419    30418    30419    30422    30426 
   30427    30430    30433    30434    30434    30438    30441    30441 
   30442    30442    30445    30446    30446    30447    30447    30451 
   30456    30458    30460    30461    30462    30465    30466    30469 
   30472    30476    30478    30480    30480    30481    30484    30487 
   30488    30487    30489    30491    30492    30491    30491    30489 
   30488    30491    30495    30491    30488    30492    30492    30491 
   30489    30487    30484    30483    30483    30480    30477    30474 
   30470    30469    30468    30465    30460    30456    30457    30456 
   30450    30447    30445    30441    30438    30437    30434    30430 
   30426    30422    30420    30416    30414    30411    30404    30402 
   30404    30400    30397    30399    30396    30392    30395    30396 
   30395    30396    30399    30399    30400    30403    30402    30402 
   30406    30410    30411    30411    30412    30414    30415    30418 
   30422    30423    30424    30429    30437    30439    30438    30445 
   30449    30451    30454    30456    30458    30462    30464    30468 
   30474    30478    30480    30483    30485    30488    30491    30493 
   30493    30495    30499    30501    30501    30503    30504    30504 
   30505    30505    30505    30505    30504    30503    30501    30500 
   30497    30499    30500    30496    30492    30491    30487    30483 
   30483    30478    30472    30469    30469    30465    30458    30457 
   30456    30453    30450    30447    30445    30442    30442    30439 
   30437    30437    30435    30434    30435    30431    30429    30430 
   30427    30420    30419    30418    30418    30416    30411    30406 
   30404    30403    30399    30395    30392    30388    30385    30381 
   30379    30376    30373    30372    30372    30369    30368    30366 
   30364    30361    30361    30361    30360    30360    30362    30362 
   30362    30361    30360    30358    30360    30360    30360    30361 
   30360    30360    30360    30360    30360    30358    30360    30361 
   30364    30364    30361    30361    30362    30362    30364    30362 
   30365    30369    30370    30369    30369    30375    30376    30376 
   30376    30379    30381    30381    30381    30381    30384    30385 
   30387    30388    30388    30391    30393    30395    30395    30397 
   30402    30403    30402    30406    30408    30408    30411    30412 
   30414    30416    30416    30418    30418    30418    30420    30424 
   30423    30422    30424    30423    30426    30429    30426    30426 
   30427    30429    30430    30427    30424    30427    30430    30427 
   30426    30429    30430    30429    30429    30430    30433    30435 
   30437    30439    30442    30443    30445    30449    30454    30456 
   30460    30464    30462    30466    30473    30476    30480    30487 
   30488    30491    30497    30501    30501    30505    30514    30518 
   30519    30520    30524    30527    30528    30530    30531    30532 
   30535    30535    30539    30541    30538    30541    30541    30539 
   30545    30549    30546    30547    30549    30546    30545    30545 
   30546    30547    30545    30543    30546    30545    30543    30546 
   30546    30543    30543    30542    30539    30538    30535    30534 
   30534    30530    30527    30526    30524    30520    30516    30514 
   30512    30511    30508    30505    30501    30496    30495    30493 
   30487    30483    30483    30481    30478    30476    30474    30472 
   30469    30469    30466    30464    30464    30462    30462    30461 
   30458    30460    30464    30464    30464    30468    30473    30473 
   30473    30474    30477    30478    30478    30481    30487    30489 
   30488    30489    30493    30496    30496    30497    30501    30503 
   30504    30508    30512    30512    30515    30518    30519    30519 
   30523    30524    30523    30523    30527    30526    30522    30520 
   30520    30520    30516    30515    30514    30510    30504    30503 
   30501    30497    30493    30488    30484    30483    30476    30470 
   30466    30460    30453    30445    30435    30430    30423    30415 
   30408    30403    30396    30389    30379    30370    30364    30356 
   30348    30342    30335    30325    30316    30311    30307    30302 
   30295    30288    30283    30280    30273    30268    30268    30265 
   30260    30260    30261    30258    30256    30258    30261    30262 
   30262    30262    30267    30269    30268    30269    30277    30280 
   30283    30288    30291    30295    30302    30308    30311    30315 
   30323    30327    30333    30341    30343    30349    30361    30368 
   30369    30377    30384    30389    30399    30406    30408    30415 
   30420    30424    30429    30434    30437    30438    30441    30446 
   30446    30446    30450    30451    30451    30454    30454    30453 
   30450    30450    30451    30449    30447    30449    30446    30442 
   30441    30441    30438    30435    30434    30431    30430    30429 
   30427    30426    30424    30422    30419    30419    30419    30418 
   30416    30416    30415    30414    30414    30412    30414    30414 
   30410    30410    30412    30414    30414    30414    30414    30416 
   30416    30414    30414    30412    30411    30414    30414    30412 
   30414    30415    30414    30411    30411    30411    30412    30412 
   30410    30411    30414    30412    30407    30407    30407    30404 
   30402    30400    30397    30395    30389    30383    30380    30379 
   30375    30369    30362    30358    30354    30348    30339    30333 
   30329    30323    30314    30307    30300    30291    30284    30279 
   30272    30262    30257    30254    30246    30238    30230    30225 
   30221    30217    30213    30208    30206    30202    30198    30195 
   30192    30190    30190    30191    30191    30188    30188    30188 
   30191    30192    30192    30195    30200    30202    30203    30207 
   30211    30218    30223    30226    30231    30237    30241    30248 
   30257    30265    30272    30277    30285    30295    30302    30308 
   30319    30326    30333    30342    30350    30353    30362    30370 
   30376    30383    30393    30400    30407    30414    30419    30426 
   30433    30438    30443    30447    30456    30464    30466    30472 
   30478    30484    30489    30492    30496    30503    30507    30510 
   30514    30518    30523    30527    30530    30532    30535    30541 
   30545    30545    30549    30551    30553    30554    30554    30553 
   30553    30555    30557    30555    30554    30553    30553    30553 
   30551    30551    30547    30545    30542    30538    30537    30532 
   30527    30527    30524    30522    30518    30514    30512    30508 
   30499    30493    30493    30487    30480    30478    30474    30465 
   30460    30457    30451    30446    30442    30437    30431    30427 
   30422    30414    30408    30406    30402    30396    30392    30389 
   30385    30384    30380    30376    30373    30369    30366    30365 
   30361    30361    30360    30357    30356    30354    30354    30356 
   30352    30352    30354    30354    30356    30358    30360    30362 
   30365    30372    30375    30375    30377    30383    30385    30387 
   30392    30400    30404    30408    30414    30418    30420    30426 
   30435    30443    30447    30450    30457    30464    30469    30476 
   30481    30484    30489    30497    30501    30504    30511    30516 
   30519    30526    30530    30531    30537    30545    30549    30550 
   30553    30555    30557    30559    30559    30559    30561    30561 
   30558    30558    30557    30553    30551    30549    30545    30542 
   30539    30534    30527    30522    30516    30511    30503    30493 
   30487    30480    30473    30464    30457    30450    30442    30435 
   30430    30422    30412    30406    30399    30392    30385    30377 
   30369    30361    30354    30349    30346    30337    30327    30323 
   30321    30310    30303    30300    30296    30291    30285    30280 
   30276    30272    30269    30267    30260    30256    30252    30252 
   30249    30244    30241    30238    30234    30229    30229    30226 
   30221    30217    30215    30215    30214    30211    30211    30210 
   30207    30204    30204    30206    30203    30200    30203    30207 
   30207    30204    30204    30208    30213    30211    30211    30217 
   30219    30221    30222    30226    30229    30233    30238    30242 
   30242    30248    30256    30261    30265    30271    30277    30283 
   30287    30291    30298    30302    30304    30311    30315    30321 
   30327    30330    30335    30342    30346    30352    30356    30360 
   30366    30372    30375    30383    30387    30391    30396    30402 
   30411    30415    30416    30424    30431    30435    30442    30446 
   30450    30456    30462    30468    30472    30477    30484    30489 
   30492    30497    30507    30510    30510    30516    30520    30527 
   30531    30535    30541    30546    30549    30551    30558    30561 
   30562    30566    30566    30566    30570    30572    30570    30574 
   30574    30569    30568    30568    30564    30559    30557    30551 
   30546    30541    30537    30532    30524    30515    30510    30505 
   30497    30488    30481    30476    30465    30458    30454    30445 
   30434    30430    30426    30416    30406    30399    30389    30383 
   30379    30370    30360    30353    30346    30338    30333    30326 
   30319    30316    30311    30303    30298    30296    30294    30288 
   30285    30284    30279    30277    30279    30280    30279    30277 
   30279    30279    30280    30283    30283    30284    30288    30294 
   30296    30298    30302    30307    30310    30315    30322    30327 
   30334    30339    30343    30350    30357    30362    30369    30380 
   30391    30395    30402    30410    30416    30426    30437    30445 
   30454    30461    30470    30481    30489    30499    30511    30519 
   30527    30539    30550    30558    30566    30577    30585    30595 
   30607    30612    30619    30630    30639    30649    30658    30667 
   30676    30682    30688    30696    30704    30709    30712    30716 
   30721    30728    30732    30731    30732    30738    30738    30735 
   30736    30735    30734    30732    30731    30730    30726    30720 
   30716    30709    30703    30700    30693    30682    30674    30665 
   30655    30647    30642    30632    30619    30607    30597    30588 
   30576    30565    30554    30542    30528    30518    30508    30492 
   30481    30472    30461    30447    30434    30422    30410    30393 
   30381    30369    30353    30338    30329    30315    30300    30287 
   30276    30264    30252    30238    30227    30217    30204    30192 
   30180    30168    30159    30149    30138    30127    30119    30111 
   30102    30092    30086    30078    30069    30064    30059    30051 
   30044    30041    30037    30028    30024    30024    30021    30015 
   30015    30015    30014    30014    30015    30021    30022    30024 
   30029    30030    30034    30046    30053    30057    30068    30078 
   30083    30092    30106    30118    30127    30137    30148    30160 
   30172    30183    30195    30208    30222    30234    30248    30262 
   30276    30288    30299    30312    30327    30342    30356    30366 
   30379    30388    30396    30408    30422    30433    30443    30454 
   30460    30466    30476    30483    30489    30495    30501    30508 
   30512    30512    30516    30518    30519    30522    30524    30526 
   30527    30526    30526    30528    30524    30518    30519    30520 
   30516    30512    30510    30507    30503    30499    30493    30489 
   30489    30485    30478    30474    30473    30468    30460    30456 
   30453    30449    30443    30439    30433    30424    30418    30415 
   30411    30407    30403    30399    30392    30391    30388    30381 
   30380    30377    30373    30372    30370    30370    30370    30369 
   30366    30368    30368    30369    30370    30370    30372    30375 
   30376    30380    30384    30387    30392    30396    30399    30406 
   30414    30419    30426    30431    30438    30449    30454    30457 
   30464    30473    30481    30488    30495    30501    30512    30522 
   30527    30532    30542    30547    30551    30557    30565    30572 
   30573    30572    30577    30581    30582    30584    30585    30585 
   30585    30586    30586    30585    30584    30580    30578    30578 
   30573    30569    30569    30566    30559    30554    30554    30550 
   30545    30542    30537    30530    30523    30519    30515    30508 
   30504    30499    30492    30485    30477    30470    30462    30453 
   30445    30441    30433    30422    30414    30410    30402    30393 
   30389    30381    30372    30368    30364    30357    30352    30345 
   30339    30337    30330    30323    30321    30316    30315    30314 
   30308    30306    30306    30304    30304    30303    30300    30299 
   30300    30304    30306    30307    30310    30315    30316    30319 
   30325    30330    30335    30339    30346    30350    30356    30364 
   30372    30377    30385    30391    30396    30404    30414    30422 
   30429    30435    30441    30449    30458    30466    30473    30480 
   30488    30495    30500    30508    30514    30516    30523    30531 
   30535    30539    30541    30543    30549    30553    30557    30558 
   30559    30559    30561    30559    30554    30554    30554    30551 
   30546    30542    30538    30535    30531    30526    30522    30515 
   30508    30504    30499    30492    30485    30480    30473    30465 
   30458    30456    30447    30438    30431    30426    30419    30414 
   30408    30402    30395    30389    30384    30379    30373    30370 
   30369    30365    30361    30357    30357    30358    30357    30356 
   30353    30353    30356    30354    30353    30356    30358    30358 
   30361    30362    30364    30366    30369    30370    30372    30375 
   30377    30377    30379    30381    30381    30381    30383    30380 
   30379    30380    30380    30377    30376    30375    30375    30372 
   30370    30369    30365    30361    30362    30358    30354    30353 
   30349    30345    30342    30338    30333    30329    30326    30322 
   30316    30312    30307    30304    30303    30298    30295    30292 
   30287    30281    30280    30279    30276    30275    30273    30272 
   30272    30272    30273    30273    30275    30276    30279    30280 
   30284    30292    30296    30300    30303    30307    30315    30325 
   30330    30334    30341    30348    30356    30365    30375    30381 
   30391    30402    30410    30416    30424    30434    30442    30449 
   30458    30466    30473    30478    30484    30491    30500    30507 
   30511    30519    30523    30526    30531    30538    30541    30545 
   30549    30554    30557    30558    30561    30565    30565    30566 
   30570    30572    30570    30570    30572    30573    30573    30573 
   30573    30570    30572    30570    30566    30566    30566    30564 
   30561    30559    30559    30558    30553    30549    30546    30545 
   30543    30539    30537    30538    30535    30532    30531    30528 
   30527    30527    30523    30519    30518    30520    30518    30514 
   30512    30511    30511    30510    30507    30505    30500    30497 
   30499    30496    30493    30492    30489    30483    30477    30472 
   30470    30462    30457    30454    30446    30438    30434    30427 
   30422    30415    30407    30402    30399    30392    30384    30376 
   30369    30364    30357    30349    30341    30337    30333    30326 
   30318    30315    30314    30310    30307    30307    30302    30299 
   30302    30300    30299    30300    30302    30303    30304    30303 
   30304    30308    30312    30315    30319    30322    30325    30329 
   30335    30341    30342    30346    30350    30352    30357    30361 
   30365    30370    30373    30376    30380    30385    30388    30388 
   30387    30391    30395    30397    30400    30402    30400    30400 
   30403    30404    30403    30403    30403    30402    30402    30402 
   30400    30397    30396    30397    30393    30389    30387    30385 
   30381    30379    30377    30373    30366    30361    30357    30352 
   30348    30342    30337    30334    30329    30321    30316    30314 
   30311    30307    30303    30299    30295    30292    30289    30289 
   30287    30284    30284    30283    30284    30285    30285    30285 
   30285    30285    30285    30289    30295    30299    30299    30299 
   30304    30310    30312    30319    30326    30330    30337    30343 
   30350    30357    30365    30376    30383    30391    30399    30407 
   30414    30419    30426    30435    30443    30449    30456    30464 
