Origin Time       2025/01/13 21:19:00
Lat.              31.8
Long.             131.6
Depth. (km)       30
Mag.              6.9
Station Code      FKIH04
Station Lat.      35.5587
Station Long.     135.8694
Station Height(m) -197
Record Time       2025/01/13 21:22:31
Sampling Freq(Hz) 100Hz
Duration Time(s)  120
Dir.              2
Scale Factor      3920(gal)/6170801
Max. Acc. (gal)   0.089
Last Correction   2025/01/13 21:22:16
Memo.             
[...]
   14180    14176    14175    14177    14174    14176    14177    14174 
   14174    14177    14174    14173    14173    14171    14170    14171 
   14169    14168    14169    14169    14166    14165    14167    14166 
   14166    14168    14166    14164    14164    14165    14166    14166 
   14166    14169    14167    14164    14166    14167    14164    14165 
   14166    14165    14165    14165    14166    14167    14167    14165 
   14167    14170    14171    14172    14173    14174    14175    14176 
   14179    14181    14179    14181    14186    14185    14184    14187 
   14189    14191    14190    14189    14194    14197    14196    14196 
   14196    14199    14204    14204    14205    14209    14210    14210 
   14214    14217    14216    14216    14220    14222    14222    14224 
   14228    14230    14229    14230    14231    14231    14229    14229 
   14231    14231    14230    14231    14229    14226    14226    14226 
   14225    14223    14219    14217    14218    14215    14209    14204 
   14203    14201    14195    14191    14190    14186    14183    14181 
   14177    14174    14172    14168    14166    14166    14163    14160 
   14161    14158    14153    14151    14151    14150    14147    14145 
   14144    14144    14141    14140    14139    14137    14136    14139 
   14138    14135    14136    14138    14136    14135    14135    14135 
   14136    14136    14132    14131    14131    14129    14128    14128 
   14126    14126    14129    14128    14126    14128    14129    14128 
   14128    14127    14128    14132    14134    14135    14137    14139 
   14139    14141    14142    14143    14146    14147    14148    14152 
   14155    14154    14155    14160    14162    14163    14162    14164 
   14167    14169    14169    14171    14173    14173    14172    14173 
   14173    14172    14172    14172    14171    14170    14171    14170 
   14170    14171    14168    14165    14165    14162    14161    14164 
   14161    14159    14159    14157    14154    14156    14157    14155 
   14153    14151    14151    14152    14152    14150    14150    14149 
   14148    14146    14143    14143    14143    14142    14141    14139 
   14140    14140    14138    14138    14138    14138    14139    14137 
   14135    14137    14138    14136    14134    14133    14133    14130 
   14127    14127    14126    14122    14119    14119    14120    14119 
   14117    14116    14117    14119    14120    14117    14115    14114 
   14115    14116    14114    14112    14115    14116    14114    14115 
   14114    14112    14116    14118    14117    14118    14122    14124 
   14124    14125    14126    14130    14135    14134    14134    14137 
   14141    14144    14146    14147    14150    14151    14154    14159 
   14162    14163    14164    14167    14172    14174    14178    14182 
   14182    14185    14190    14191    14195    14200    14201    14203 
   14207    14207    14208    14210    14210    14212    14215    14214 
   14216    14219    14220    14221    14217    14216    14219    14217 
   14215    14216    14214    14213    14212    14210    14209    14207 
   14204    14202    14199    14197    14196    14192    14187    14185 
   14182    14181    14179    14176    14176    14174    14167    14165 
   14166    14165    14163    14161    14161    14162    14159    14155 
   14156    14157    14155    14156    14157    14152    14148    14149 
   14148    14144    14144    14143    14139    14137    14138    14138 
   14133    14130    14130    14129    14127    14124    14122    14119 
   14116    14115    14114    14112    14109    14105    14102    14102 
   14101    14097    14097    14097    14095    14094    14093    14092 
   14092    14091    14089    14089    14089    14091    14093    14092 
   14091    14092    14092    14093    14094    14093    14094    14095 
   14096    14098    14099    14098    14098    14098    14099    14100 
   14100    14100    14101    14102    14105    14105    14102    14101 
   14102    14101    14102    14101    14098    14097    14095    14093 
   14094    14094    14091    14092    14095    14093    14093    14095 
   14094    14096    14098    14096    14096    14099    14099    14099 
   14101    14103    14103    14104    14105    14106    14109    14112 
   14113    14113    14117    14122    14122    14126    14133    14135 
   14134    14139    14144    14146    14151    14156    14158    14162 
   14166    14167    14168    14172    14173    14172    14175    14180 
   14181    14181    14183    14184    14185    14187    14187    14187 
   14188    14187    14187    14186    14183    14181    14182    14181 
   14180    14181    14181    14180    14181    14183    14182    14182 
   14184    14188    14189    14187    14188    14192    14194    14194 
   14198    14198    14198    14205    14207    14205    14208    14209 
   14208    14210    14214    14213    14214    14217    14218    14218 
   14222    14224    14224    14226    14228    14228    14228    14228 
   14227    14225    14225    14228    14229    14228    14227    14228 
   14228    14225    14223    14223    14221    14217    14216    14214 
   14211    14208    14208    14209    14207    14203    14201    14201 
   14200    14200    14202    14199    14196    14196    14197    14196 
   14196    14197    14198    14198    14199    14200    14202    14204 
   14204    14205    14210    14214    14218    14221    14221    14223 
   14225    14227    14230    14233    14236    14238    14239    14240 
   14241    14241    14241    14244    14245    14244    14244    14245 
   14243    14241    14242    14244    14243    14238    14235    14235 
   14234    14232    14231    14228    14224    14221    14219    14217 
   14213    14209    14206    14205    14205    14203    14200    14197 
   14193    14192    14192    14188    14187    14188    14186    14184 
   14183    14183    14186    14184    14181    14183    14185    14183 
   14184    14185    14184    14186    14186    14186    14187    14187 
   14188    14188    14187    14188    14189    14188    14189    14189 
   14189    14189    14188    14189    14193    14195    14193    14189 
   14191    14194    14193    14191    14191    14193    14192    14188 
   14189    14192    14187    14187    14189    14185    14182    14180 
   14178    14178    14177    14174    14171    14167    14168    14169 
   14166    14165    14164    14162    14163    14162    14159    14160 
   14161    14157    14159    14163    14161    14160    14162    14163 
   14162    14163    14163    14162    14163    14164    14164    14165 
   14167    14167    14165    14165    14165    14165    14163    14162 
   14163    14160    14157    14158    14156    14152    14153    14152 
   14150    14148    14145    14144    14143    14138    14137    14138 
   14135    14132    14133    14131    14127    14128    14127    14124 
   14123    14124    14123    14121    14122    14123    14123    14123 
   14123    14124    14124    14125    14128    14130    14131    14136 
   14136    14135    14139    14140    14142    14148    14150    14152 
   14156    14157    14159    14161    14164    14169    14172    14174 
   14176    14179    14181    14185    14187    14190    14195    14197 
   14196    14199    14206    14207    14206    14211    14213    14214 
   14220    14224    14225    14226    14226    14228    14232    14233 
   14234    14238    14240    14241    14243    14246    14248    14248 
   14249    14255    14259    14259    14262    14268    14270    14269 
   14273    14278    14279    14283    14287    14286    14286    14291 
   14295    14297    14298    14298    14299    14300    14301    14300 
   14300    14300    14299    14300    14300    14296    14296    14298 
   14296    14294    14293    14291    14290    14288    14284    14280 
   14278    14277    14273    14271    14270    14267    14263    14261 
   14257    14252    14250    14246    14242    14240    14238    14233 
   14229    14228    14226    14223    14220    14216    14214    14211 
   14208    14208    14206    14202    14201    14198    14195    14194 
   14193    14192    14190    14188    14187    14186    14183    14182 
   14182    14180    14179    14180    14177    14173    14173    14172 
   14171    14171    14169    14167    14166    14164    14163    14164 
   14163    14161    14159    14159    14159    14159    14159    14158 
   14157    14158    14160    14161    14161    14161    14162    14162 
   14165    14167    14168    14171    14171    14170    14174    14177 
   14177    14176    14177    14180    14183    14183    14184    14185 
   14187    14190    14190    14190    14192    14193    14193    14193 
   14195    14195    14195    14195    14194    14195    14197    14197 
   14196    14198    14201    14201    14201    14202    14203    14202 
   14203    14204    14206    14210    14213    14214    14216    14217 
   14218    14220    14221    14222    14223    14223    14224    14227 
   14227    14225    14226    14227    14224    14222    14224    14222 
   14218    14217    14213    14206    14204    14203    14195    14189 
   14188    14182    14173    14169    14164    14157    14149    14143 
   14140    14135    14129    14124    14117    14111    14110    14106 
   14099    14094    14089    14085    14081    14079    14078    14076 
   14073    14072    14070    14068    14069    14069    14069    14069 
   14068    14069    14071    14071    14070    14070    14069    14068 
   14070    14072    14070    14069    14069    14068    14070    14069 
   14068    14069    14068    14067    14067    14066    14063    14063 
   14065    14062    14059    14060    14060    14060    14062    14062 
   14059    14060    14061    14060    14063    14065    14063    14064 
   14068    14069    14072    14077    14079    14080    14085    14090 
   14094    14098    14102    14109    14117    14121    14127    14135 
   14140    14146    14153    14160    14166    14174    14182    14187 
   14193    14200    14206    14213    14217    14221    14229    14234 
   14236    14239    14247    14251    14251    14255    14259    14257 
   14260    14264    14263    14266    14269    14269    14271    14272 
   14272    14274    14273    14272    14274    14274    14273    14271 
   14269    14271    14273    14270    14269    14268    14268    14270 
   14269    14266    14268    14267    14265    14267    14266    14263 
   14266    14268    14268    14268    14265    14265    14267    14268 
   14267    14268    14267    14266    14269    14271    14268    14267 
   14269    14269    14265    14262    14262    14260    14258    14257 
   14255    14250    14250    14251    14246    14243    14242    14237 
   14235    14236    14233    14230    14227    14224    14222    14221 
   14220    14218    14216    14213    14210    14210    14208    14204 
   14202    14202    14201    14199    14200    14199    14196    14195 
   14197    14196    14193    14195    14198    14196    14195    14196 
   14196    14197    14196    14196    14194    14194    14195    14193 
   14191    14188    14186    14186    14185    14183    14184    14184 
   14182    14181    14182    14181    14179    14179    14180    14178 
   14178    14178    14179    14180    14177    14175    14178    14179 
   14178    14180    14179    14176    14177    14176    14176    14179 
   14175    14170    14172    14172    14169    14170    14172    14169 
   14167    14168    14167    14163    14161    14161    14160    14159 
   14155    14155    14157    14154    14154    14155    14152    14150 
   14149    14147    14145    14143    14144    14143    14139    14138 
   14139    14136    14135    14136    14133    14132    14132    14131 
   14129    14128    14128    14128    14125    14123    14124    14122 
   14119    14117    14116    14115    14114    14113    14112    14111 
   14111    14109    14106    14106    14107    14105    14102    14101 
   14101    14099    14099    14099    14095    14093    14094    14096 
   14095    14093    14092    14091    14090    14088    14088    14089 
   14087    14087    14088    14084    14083    14084    14081    14081 
   14082    14078    14079    14080    14077    14077    14078    14078 
   14077    14075    14074    14075    14075    14075    14075    14075 
   14076    14077    14077    14077    14078    14081    14081    14080 
   14080    14081    14084    14085    14086    14089    14091    14092 
   14094    14097    14098    14100    14102    14103    14104    14107 
   14112    14111    14113    14118    14118    14118    14122    14123 
   14121    14123    14124    14122    14123    14125    14124    14122 
   14125    14125    14122    14122    14123    14119    14117    14118 
   14120    14117    14114    14114    14112    14109    14110    14111 
   14109    14107    14107    14107    14106    14107    14109    14110 
   14110    14110    14112    14116    14118    14119    14122    14123 
   14125    14127    14128    14131    14133    14135    14140    14142 
   14142    14147    14152    14153    14155    14160    14163    14166 
   14170    14173    14177    14180    14182    14187    14193    14195 
   14195    14200    14206    14210    14214    14217    14218    14222 
   14228    14232    14237    14239    14240    14246    14251    14254 
   14258    14260    14265    14270    14270    14274    14280    14281 
   14281    14285    14289    14291    14295    14298    14300    14301 
   14302    14303    14305    14307    14308    14306    14307    14308 
   14306    14304    14303    14302    14297    14293    14290    14288 
   14284    14279    14275    14270    14264    14259    14257    14253 
   14247    14241    14236    14232    14227    14221    14218    14214 
   14207    14205    14203    14197    14194    14192    14186    14184 
   14183    14181    14181    14178    14174    14172    14172    14170 
   14168    14168    14167    14166    14167    14165    14164    14166 
   14165    14162    14163    14161    14160    14162    14161    14159 
   14160    14158    14157    14157    14155    14155    14156    14154 
   14152    14152    14150    14149    14150    14150    14149    14151 
   14153    14153    14153    14156    14161    14163    14167    14173 
   14176    14179    14184    14191    14196    14200    14206    14213 
   14217    14221    14226    14232    14239    14242    14246    14252 
   14257    14257    14260    14264    14266    14268    14270    14268 
   14266    14269    14268    14266    14266    14264    14260    14259 
   14259    14254    14249    14246    14244    14241    14236    14232 
   14230    14224    14219    14216    14213    14207    14203    14199 
   14193    14189    14186    14180    14174    14172    14170    14163 
   14156    14155    14153    14149    14145    14139    14136    14134 
   14134    14133    14129    14128    14127    14126    14125    14124 
   14120    14121    14122    14121    14123    14125    14123    14123 
   14126    14128    14129    14132    14134    14135    14139    14143 
   14145    14148    14150    14152    14152    14155    14157    14158 
   14160    14161    14161    14163    14163    14161    14161    14160 
   14161    14162    14161    14162    14163    14161    14160    14163 
   14162    14160    14162    14165    14163    14163    14165    14164 
   14165    14167    14167    14170    14172    14171    14175    14177 
   14175    14178    14180    14181    14186    14187    14184    14187 
   14191    14189    14192    14196    14196    14197    14200    14201 
   14201    14204    14207    14207    14208    14209    14209    14212 
   14213    14212    14213    14214    14216    14218    14218    14218 
   14219    14220    14220    14220    14223    14223    14221    14223 
   14223    14220    14222    14223    14220    14217    14217    14218 
   14217    14216    14214    14213    14211    14208    14207    14208 
   14207    14204    14202    14200    14197    14194    14195    14197 
   14193    14191    14192    14192    14191    14188    14187    14188 
   14185    14181    14183    14183    14180    14177    14177    14177 
   14172    14168    14169    14167    14164    14159    14155    14155 
   14150    14144    14143    14140    14136    14134    14130    14127 
   14124    14121    14118    14116    14114    14112    14111    14111 
   14109    14106    14107    14106    14104    14107    14108    14104 
   14105    14108    14108    14110    14113    14114    14116    14117 
   14116    14120    14125    14127    14131    14134    14137    14141 
   14142    14143    14147    14149    14151    14154    14160    14163 
   14163    14164    14167    14171    14172    14174    14178    14179 
   14179    14181    14180    14180    14183    14183    14181    14180 
   14178    14179    14181    14180    14178    14177    14175    14172 
   14170    14169    14167    14164    14161    14161    14159    14155 
   14154    14154    14150    14147    14146    14144    14142    14140 
   14138    14138    14136    14133    14131    14128    14126    14127 
   14125    14123    14121    14120    14120    14119    14115    14113 
   14114    14114    14114    14114    14114    14114    14112    14111 
   14111    14111    14109    14112    14116    14115    14112    14113 
   14113    14114    14113    14114    14117    14119    14115    14115 
   14119    14120    14120    14122    14123    14122    14123    14124 
   14128    14130    14130    14134    14139    14140    14139    14141 
   14143    14146    14150    14151    14151    14154    14158    14157 
   14159    14164    14164    14165    14169    14169    14168    14171 
   14173    14171    14170    14171    14172    14172    14172    14172 
   14171    14169    14168    14168    14167    14164    14162    14163 
   14163    14160    14159    14159    14156    14156    14155    14153 
   14153    14152    14150    14150    14150    14149    14148    14148 
   14148    14148    14149    14149    14148    14147    14149    14148 
   14147    14150    14151    14152    14155    14154    14151    14155 
   14157    14159    14163    14164    14164    14168    14170    14169 
   14174    14178    14178    14183    14187    14185    14185    14189 
   14191    14191    14193    14192    14192    14194    14193    14194 
   14195    14191    14191    14191    14188    14188    14189    14185 
   14182    14180    14177    14173    14169    14164    14163    14161 
   14157    14153    14150    14148    14145    14141    14139    14137 
   14136    14134    14130    14126    14125    14126    14125    14121 
   14118    14117    14118    14117    14118    14118    14116    14118 
   14119    14118    14119    14121    14122    14122    14124    14128 
   14130    14131    14132    14134    14135    14135    14135    14136 
   14139    14139    14137    14137    14137    14135    14137    14136 
   14132    14132    14130    14128    14128    14125    14122    14121 
   14117    14113    14111    14106    14102    14103    14101    14094 
   14092    14091    14087    14085    14085    14084    14081    14079 
   14081    14082    14080    14081    14081    14080    14082    14084 
   14085    14087    14086    14087    14089    14091    14095    14096 
   14096    14100    14103    14102    14105    14107    14106    14108 
