Origin Time       2025/01/13 21:19:00
Lat.              31.8
Long.             131.6
Depth. (km)       30
Mag.              6.9
Station Code      FKIH04
Station Lat.      35.5587
Station Long.     135.8694
Station Height(m) -197
Record Time       2025/01/13 21:22:31
Sampling Freq(Hz) 100Hz
Duration Time(s)  120
Dir.              1
Scale Factor      3920(gal)/6170801
Max. Acc. (gal)   0.132
Last Correction   2025/01/13 21:22:16
Memo.             
  -17481   -17482   -17486   -17490   -17489   -17489   -17491   -17493 
  -17492   -17490   -17492   -17491   -17488   -17490   -17489   -17487 
  -17488   -17489   -17487   -17485   -17486   -17485   -17483   -17481 
  -17481   -17482   -17482   -17480   -17478   -17479   -17480   -17481 
  -17480   -17479   -17480   -17480   -17478   -17479   -17481   -17481 
  -17482   -17482   -17482   -17485   -17487   -17488   -17488   -17487 
  -17491   -17496   -17496   -17496   -17500   -17502   -17502   -17504 
  -17508   -17508   -17507   -17511   -17511   -17507   -17508   -17508 
  -17507   -17507   -17506   -17507   -17509   -17509   -17510   -17509 
  -17509   -17513   -17512   -17509   -17511   -17512   -17511   -17509 
  -17508   -17509   -17509   -17508   -17506   -17504   -17506   -17505 
  -17504   -17504   -17504   -17504   -17505   -17505   -17506   -17506 
  -17505   -17504   -17505   -17504   -17503   -17504   -17504   -17503 
  -17503   -17503   -17501   -17498   -17496   -17496   -17499   -17497 
  -17497   -17498   -17496   -17496   -17496   -17495   -17496   -17497 
  -17496   -17496   -17497   -17498   -17499   -17500   -17500   -17501 
  -17503   -17501   -17501   -17503   -17505   -17507   -17509   -17510 
  -17509   -17509   -17509   -17510   -17511   -17510   -17511   -17511 
  -17510   -17513   -17514   -17512   -17514   -17515   -17516   -17518 
  -17516   -17516   -17518   -17519   -17520   -17520   -17520   -17522 
  -17522   -17520   -17520   -17522   -17521   -17521   -17522   -17521 
  -17518   -17519   -17521   -17520   -17520   -17523   -17522   -17521 
  -17519   -17518   -17516   -17515   -17515   -17511   -17509   -17508 
  -17505   -17503   -17500   -17496   -17493   -17491   -17489   -17489 
  -17489   -17486   -17484   -17485   -17486   -17483   -17481   -17482 
  -17483   -17482   -17482   -17483   -17485   -17486   -17487   -17489 
  -17490   -17490   -17493   -17494   -17495   -17498   -17500   -17501 
  -17501   -17503   -17504   -17504   -17506   -17509   -17508   -17509 
  -17511   -17512   -17512   -17513   -17514   -17515   -17516   -17516 
  -17517   -17518   -17518   -17517   -17520   -17521   -17517   -17518 
  -17520   -17520   -17522   -17523   -17522   -17524   -17524   -17524 
  -17525   -17526   -17524   -17524   -17525   -17526   -17526   -17525 
  -17525   -17525   -17524   -17524   -17525   -17524   -17525   -17523 
  -17520   -17522   -17525   -17524   -17524   -17524   -17522   -17524 
  -17524   -17523   -17524   -17524   -17521   -17524   -17527   -17525 
  -17524   -17525   -17526   -17525   -17524   -17525   -17526   -17526 
  -17526   -17526   -17526   -17525   -17525   -17524   -17526   -17525 
  -17523   -17525   -17523   -17519   -17518   -17517   -17515   -17515 
  -17515   -17515   -17514   -17515   -17513   -17509   -17510   -17510 
  -17506   -17504   -17504   -17501   -17497   -17494   -17492   -17490 
  -17487   -17484   -17481   -17478   -17472   -17467   -17464   -17461 
  -17459   -17455   -17451   -17447   -17442   -17439   -17437   -17434 
  -17431   -17428   -17427   -17427   -17429   -17428   -17424   -17424 
  -17425   -17424   -17424   -17425   -17426   -17426   -17426   -17427 
  -17428   -17429   -17431   -17436   -17439   -17439   -17443   -17447 
  -17450   -17455   -17455   -17458   -17465   -17467   -17468   -17473 
  -17476   -17477   -17482   -17487   -17487   -17490   -17492   -17492 
  -17494   -17497   -17498   -17496   -17496   -17497   -17499   -17498 
  -17498   -17498   -17498   -17500   -17499   -17496   -17494   -17493 
  -17493   -17492   -17489   -17486   -17485   -17483   -17480   -17480 
  -17482   -17480   -17477   -17478   -17480   -17480   -17479   -17478 
  -17478   -17478   -17477   -17476   -17477   -17475   -17474   -17476 
  -17477   -17478   -17477   -17475   -17476   -17476   -17475   -17476 
  -17476   -17476   -17478   -17479   -17479   -17479   -17479   -17481 
  -17483   -17483   -17486   -17489   -17489   -17490   -17492   -17492 
  -17495   -17500   -17500   -17501   -17504   -17508   -17510   -17512 
  -17514   -17518   -17521   -17522   -17525   -17529   -17530   -17532 
  -17535   -17538   -17539   -17541   -17545   -17548   -17550   -17551 
  -17553   -17557   -17559   -17561   -17564   -17565   -17565   -17568 
  -17571   -17570   -17570   -17572   -17574   -17574   -17573   -17572 
  -17571   -17571   -17571   -17572   -17571   -17570   -17569   -17568 
  -17566   -17563   -17559   -17557   -17554   -17550   -17548   -17545 
  -17538   -17534   -17530   -17523   -17519   -17516   -17508   -17499 
  -17493   -17491   -17485   -17475   -17468   -17463   -17459   -17453 
  -17447   -17442   -17437   -17431   -17427   -17425   -17420   -17417 
  -17417   -17414   -17409   -17408   -17407   -17406   -17404   -17401 
  -17401   -17405   -17405   -17404   -17404   -17405   -17407   -17408 
  -17410   -17413   -17417   -17419   -17420   -17423   -17428   -17430 
  -17432   -17436   -17437   -17435   -17438   -17443   -17444   -17445 
  -17446   -17444   -17445   -17447   -17448   -17448   -17449   -17450 
  -17449   -17449   -17451   -17450   -17448   -17447   -17448   -17448 
  -17448   -17448   -17448   -17449   -17448   -17447   -17448   -17450 
  -17450   -17447   -17447   -17450   -17450   -17448   -17453   -17453 
  -17450   -17453   -17454   -17454   -17457   -17459   -17459   -17462 
  -17463   -17463   -17467   -17469   -17469   -17470   -17472   -17473 
  -17473   -17476   -17481   -17482   -17482   -17486   -17490   -17490 
  -17490   -17491   -17490   -17491   -17494   -17495   -17494   -17493 
  -17494   -17494   -17492   -17493   -17492   -17490   -17489   -17489 
  -17487   -17485   -17485   -17485   -17486   -17486   -17485   -17484 
  -17485   -17485   -17484   -17486   -17487   -17487   -17488   -17489 
  -17490   -17493   -17495   -17496   -17498   -17501   -17503   -17505 
  -17508   -17511   -17512   -17513   -17516   -17518   -17520   -17522 
  -17524   -17526   -17528   -17529   -17531   -17531   -17532   -17534 
  -17536   -17539   -17539   -17538   -17539   -17539   -17540   -17540 
  -17541   -17543   -17543   -17541   -17542   -17544   -17546   -17548 
  -17549   -17549   -17550   -17554   -17556   -17555   -17555   -17557 
  -17559   -17560   -17560   -17559   -17561   -17563   -17560   -17559 
  -17563   -17563   -17560   -17561   -17563   -17558   -17558   -17561 
  -17560   -17559   -17560   -17559   -17562   -17563   -17559   -17559 
  -17563   -17561   -17559   -17561   -17562   -17561   -17561   -17562 
  -17562   -17560   -17559   -17560   -17562   -17563   -17560   -17559 
  -17561   -17562   -17560   -17557   -17558   -17559   -17557   -17556 
  -17558   -17556   -17554   -17556   -17555   -17554   -17557   -17557 
  -17554   -17555   -17557   -17556   -17557   -17558   -17559   -17560 
  -17559   -17559   -17557   -17557   -17560   -17561   -17561   -17562 
  -17564   -17564   -17563   -17564   -17565   -17562   -17562   -17564 
  -17561   -17558   -17559   -17556   -17553   -17553   -17552   -17549 
  -17548   -17545   -17540   -17537   -17537   -17535   -17533   -17530 
  -17526   -17524   -17519   -17517   -17516   -17512   -17510   -17510 
  -17508   -17505   -17503   -17503   -17501   -17502   -17504   -17502 
  -17500   -17500   -17501   -17501   -17501   -17500   -17500   -17502 
  -17502   -17503   -17505   -17503   -17503   -17505   -17508   -17510 
  -17510   -17509   -17511   -17513   -17513   -17512   -17512   -17512 
  -17513   -17511   -17511   -17512   -17512   -17513   -17511   -17508 
  -17510   -17512   -17511   -17510   -17508   -17509   -17510   -17508 
  -17507   -17507   -17510   -17511   -17510   -17512   -17514   -17514 
  -17515   -17515   -17516   -17519   -17521   -17521   -17521   -17523 
  -17525   -17525   -17528   -17533   -17535   -17536   -17540   -17543 
  -17543   -17547   -17552   -17551   -17551   -17556   -17561   -17562 
  -17563   -17568   -17570   -17571   -17572   -17574   -17576   -17579 
  -17580   -17582   -17584   -17586   -17587   -17587   -17588   -17589 
  -17590   -17593   -17593   -17594   -17597   -17594   -17592   -17596 
  -17597   -17597   -17598   -17599   -17599   -17598   -17601   -17602 
  -17599   -17600   -17604   -17604   -17603   -17605   -17607   -17606 
  -17606   -17608   -17610   -17610   -17611   -17611   -17609   -17612 
  -17614   -17613   -17614   -17617   -17617   -17616   -17619   -17620 
  -17619   -17619   -17621   -17621   -17621   -17622   -17623   -17622 
  -17622   -17624   -17624   -17622   -17620   -17620   -17620   -17619 
  -17617   -17618   -17616   -17614   -17614   -17613   -17613   -17611 
  -17606   -17607   -17611   -17609   -17605   -17603   -17603   -17603 
  -17603   -17602   -17601   -17599   -17601   -17602   -17599   -17598 
  -17600   -17597   -17595   -17597   -17596   -17594   -17594   -17595 
  -17594   -17592   -17589   -17589   -17591   -17588   -17585   -17586 
  -17585   -17581   -17579   -17579   -17577   -17574   -17570   -17568 
  -17564   -17558   -17555   -17553   -17547   -17539   -17535   -17531 
  -17521   -17514   -17510   -17501   -17492   -17484   -17474   -17466 
  -17457   -17446   -17440   -17433   -17423   -17413   -17406   -17399 
  -17390   -17382   -17375   -17367   -17360   -17354   -17347   -17339 
  -17334   -17331   -17325   -17321   -17317   -17312   -17310   -17308 
  -17306   -17305   -17306   -17304   -17304   -17302   -17300   -17303 
  -17304   -17303   -17307   -17311   -17312   -17313   -17317   -17324 
  -17327   -17332   -17340   -17345   -17351   -17359   -17364   -17368 
  -17378   -17388   -17393   -17399   -17409   -17417   -17426   -17434 
  -17441   -17450   -17457   -17464   -17472   -17479   -17487   -17493 
  -17496   -17503   -17511   -17518   -17522   -17526   -17533   -17541 
  -17544   -17545   -17552   -17561   -17566   -17568   -17573   -17578 
  -17580   -17586   -17592   -17595   -17598   -17603   -17604   -17607 
  -17611   -17614   -17616   -17618   -17620   -17625   -17628   -17630 
  -17630   -17629   -17632   -17634   -17632   -17633   -17635   -17634 
  -17631   -17630   -17629   -17626   -17621   -17619   -17616   -17608 
  -17603   -17599   -17592   -17586   -17581   -17574   -17569   -17561 
  -17554   -17548   -17537   -17529   -17525   -17517   -17507   -17500 
  -17494   -17487   -17479   -17472   -17467   -17464   -17457   -17451 
  -17448   -17445   -17440   -17436   -17433   -17430   -17427   -17424 
  -17424   -17424   -17422   -17419   -17419   -17421   -17420   -17421 
  -17423   -17421   -17418   -17419   -17421   -17421   -17420   -17420 
  -17421   -17419   -17417   -17418   -17417   -17416   -17417   -17414 
  -17410   -17411   -17411   -17409   -17407   -17406   -17405   -17403 
  -17402   -17400   -17399   -17400   -17399   -17398   -17397   -17395 
  -17394   -17393   -17394   -17397   -17399   -17398   -17399   -17400 
  -17400   -17406   -17412   -17412   -17414   -17420   -17424   -17428 
  -17430   -17434   -17440   -17444   -17448   -17452   -17456   -17461 
  -17465   -17468   -17471   -17475   -17476   -17479   -17484   -17485 
  -17487   -17492   -17496   -17498   -17500   -17503   -17506   -17508 
  -17511   -17513   -17515   -17518   -17520   -17523   -17527   -17530 
  -17533   -17533   -17535   -17540   -17543   -17543   -17545   -17549 
  -17553   -17558   -17560   -17559   -17562   -17567   -17569   -17571 
  -17575   -17578   -17577   -17577   -17579   -17581   -17580   -17584 
  -17586   -17584   -17583   -17585   -17586   -17588   -17590   -17589 
  -17589   -17590   -17591   -17592   -17591   -17591   -17592   -17593 
  -17593   -17592   -17592   -17592   -17592   -17592   -17589   -17589 
  -17588   -17585   -17586   -17587   -17587   -17587   -17586   -17584 
  -17584   -17585   -17584   -17584   -17583   -17583   -17584   -17584 
  -17584   -17586   -17588   -17587   -17590   -17595   -17594   -17595 
  -17601   -17603   -17602   -17604   -17608   -17612   -17613   -17614 
  -17620   -17620   -17619   -17624   -17627   -17626   -17628   -17627 
  -17628   -17631   -17631   -17628   -17627   -17629   -17629   -17625 
  -17625   -17626   -17620   -17617   -17616   -17613   -17612   -17609 
  -17604   -17603   -17601   -17592   -17588   -17585   -17581   -17579 
  -17577   -17570   -17565   -17561   -17557   -17555   -17552   -17549 
  -17548   -17545   -17539   -17537   -17534   -17531   -17526   -17521 
  -17517   -17515   -17511   -17507   -17504   -17502   -17500   -17498 
  -17495   -17492   -17491   -17488   -17485   -17482   -17480   -17479 
  -17479   -17476   -17475   -17475   -17473   -17471   -17470   -17470 
  -17470   -17470   -17468   -17467   -17469   -17467   -17468   -17469 
  -17468   -17468   -17470   -17472   -17473   -17472   -17471   -17473 
  -17471   -17468   -17470   -17472   -17473   -17474   -17474   -17476 
  -17479   -17481   -17485   -17489   -17492   -17495   -17498   -17502 
  -17505   -17508   -17514   -17519   -17520   -17523   -17529   -17534 
  -17538   -17541   -17545   -17548   -17551   -17554   -17556   -17559 
  -17561   -17564   -17568   -17568   -17569   -17573   -17573   -17571 
  -17571   -17571   -17571   -17572   -17571   -17569   -17565   -17564 
  -17563   -17559   -17556   -17553   -17549   -17543   -17536   -17532 
  -17530   -17523   -17518   -17514   -17507   -17500   -17494   -17487 
  -17478   -17470   -17467   -17459   -17450   -17444   -17435   -17426 
  -17419   -17411   -17405   -17398   -17389   -17384   -17376   -17368 
  -17365   -17359   -17350   -17347   -17344   -17339   -17336   -17334 
  -17331   -17329   -17326   -17326   -17325   -17324   -17326   -17328 
  -17328   -17330   -17332   -17333   -17338   -17341   -17343   -17345 
  -17348   -17351   -17354   -17359   -17364   -17368   -17370   -17373 
  -17378   -17383   -17386   -17391   -17396   -17399   -17402   -17408 
  -17413   -17416   -17420   -17424   -17428   -17433   -17435   -17437 
  -17441   -17446   -17450   -17453   -17457   -17462   -17465   -17467 
  -17469   -17473   -17479   -17484   -17485   -17489   -17496   -17499 
  -17501   -17508   -17513   -17514   -17520   -17525   -17528   -17534 
  -17541   -17544   -17547   -17553   -17557   -17561   -17565   -17572 
  -17575   -17577   -17580   -17583   -17589   -17592   -17592   -17594 
  -17598   -17598   -17598   -17601   -17601   -17601   -17607   -17607 
  -17604   -17606   -17611   -17610   -17609   -17610   -17611   -17611 
  -17612   -17612   -17611   -17609   -17608   -17609   -17608   -17604 
  -17601   -17599   -17598   -17595   -17591   -17588   -17586   -17583 
  -17578   -17575   -17573   -17567   -17562   -17562   -17558   -17552 
  -17547   -17542   -17538   -17536   -17528   -17521   -17519   -17517 
  -17512   -17505   -17499   -17494   -17488   -17484   -17481   -17475 
  -17469   -17467   -17463   -17456   -17453   -17451   -17446   -17444 
  -17442   -17438   -17437   -17435   -17432   -17433   -17433   -17430 
  -17430   -17430   -17428   -17429   -17433   -17436   -17438   -17438 
  -17441   -17446   -17447   -17448   -17451   -17456   -17463   -17465 
  -17467   -17475   -17482   -17486   -17492   -17496   -17501   -17509 
  -17515   -17519   -17528   -17536   -17543   -17550   -17557   -17563 
  -17568   -17576   -17583   -17588   -17596   -17605   -17610   -17613 
  -17619   -17625   -17629   -17634   -17640   -17642   -17646   -17653 
  -17656   -17657   -17663   -17668   -17666   -17669   -17675   -17676 
  -17677   -17681   -17684   -17683   -17683   -17686   -17688   -17686 
  -17687   -17691   -17690   -17687   -17689   -17690   -17688   -17687 
  -17687   -17686   -17685   -17683   -17682   -17683   -17682   -17681 
  -17681   -17678   -17677   -17677   -17675   -17672   -17670   -17670 
  -17671   -17666   -17659   -17657   -17657   -17655   -17652   -17645 
  -17644   -17642   -17634   -17628   -17623   -17618   -17613   -17606 
  -17595   -17590   -17587   -17578   -17570   -17563   -17556   -17549 
  -17541   -17530   -17522   -17516   -17509   -17501   -17493   -17484 
  -17475   -17471   -17465   -17455   -17448   -17441   -17436   -17432 
  -17426   -17419   -17415   -17410   -17408   -17406   -17404   -17403 
  -17404   -17404   -17404   -17402   -17403   -17407   -17407   -17406 
  -17409   -17414   -17417   -17418   -17421   -17425   -17429   -17431 
  -17435   -17444   -17447   -17447   -17453   -17460   -17465   -17469 
  -17472   -17477   -17483   -17485   -17488   -17493   -17496   -17499 
  -17503   -17508   -17508   -17508   -17512   -17516   -17515   -17516 
  -17518   -17517   -17517   -17518   -17516   -17513   -17513   -17511 
  -17507   -17505   -17503   -17497   -17495   -17492   -17486   -17483 
  -17481   -17474   -17469   -17465   -17459   -17456   -17452   -17446 
  -17441   -17437   -17433   -17427   -17423   -17420   -17416   -17412 
  -17407   -17402   -17401   -17401   -17401   -17400   -17396   -17395 
  -17397   -17398   -17397   -17399   -17404   -17407   -17408   -17413 
  -17419   -17422   -17428   -17435   -17439   -17445   -17452   -17457 
  -17462   -17472   -17481   -17489   -17496   -17502   -17511   -17520 
  -17525   -17533   -17541   -17547   -17553   -17558   -17564   -17572 
  -17579   -17584   -17588   -17591   -17597   -17605   -17610   -17614 
  -17617   -17621   -17625   -17628   -17628   -17632   -17635   -17636 
  -17638   -17642   -17643   -17640   -17641   -17645   -17644   -17641 
  -17643   -17644   -17642   -17642   -17643   -17641   -17639   -17638 
  -17637   -17638   -17636   -17634   -17634   -17630   -17629   -17630 
  -17625   -17623   -17622   -17617   -17614   -17614   -17611   -17609 
  -17608   -17604   -17603   -17601   -17597   -17594   -17592   -17589 
  -17584   -17580   -17577   -17574   -17569   -17565   -17563   -17557 
  -17551   -17547   -17543   -17537   -17532   -17525   -17517   -17514 
  -17509   -17499   -17494   -17489   -17481   -17475   -17470   -17462 
  -17453   -17447   -17441   -17434   -17429   -17424   -17419   -17414 
  -17409   -17404   -17399   -17396   -17392   -17386   -17382   -17380 
  -17377   -17375   -17375   -17373   -17369   -17370   -17373   -17372 
  -17369   -17371   -17372   -17373   -17376   -17380   -17384   -17386 
  -17390   -17394   -17396   -17400   -17406   -17409   -17413   -17418 
  -17420   -17425   -17432   -17436   -17441   -17446   -17453   -17457 
  -17459   -17464   -17469   -17473   -17477   -17482   -17485   -17489 
  -17494   -17496   -17497   -17500   -17503   -17504   -17507   -17510 
  -17511   -17512   -17515   -17516   -17514   -17516   -17517   -17516 
  -17515   -17514   -17512   -17510   -17507   -17505   -17501   -17497 
  -17495   -17493   -17485   -17480   -17478   -17473   -17465   -17459 
  -17457   -17453   -17446   -17442   -17439   -17434   -17430   -17427 
  -17420   -17417   -17416   -17412   -17410   -17408   -17404   -17399 
  -17398   -17398   -17396   -17392   -17392   -17393   -17391   -17391 
  -17392   -17392   -17392   -17391   -17394   -17396   -17397   -17397 
  -17399   -17402   -17403   -17405   -17409   -17411   -17411   -17414 
  -17418   -17420   -17423   -17424   -17426   -17431   -17432   -17433 
  -17439   -17441   -17440   -17442   -17444   -17447   -17451   -17452 
  -17453   -17455   -17455   -17456   -17458   -17457   -17456   -17459 
  -17461   -17458   -17457   -17459   -17459   -17454   -17453   -17453 
