Origin Time       2025/01/13 21:19:00
Lat.              31.8
Long.             131.6
Depth. (km)       30
Mag.              6.9
Station Code      FKOH04
Station Lat.      33.5512
Station Long.     130.7451
Station Height(m) -40
Record Time       2025/01/13 21:20:04
Sampling Freq(Hz) 100Hz
Duration Time(s)  159
Dir.              3
Scale Factor      2942(gal)/8224139
Max. Acc. (gal)   1.323
Last Correction   2025/01/13 21:20:05
Memo.             
[...]
  150562   150595   150615   150620   150614   150592   150557   150518 
  150472   150427   150392   150354   150311   150276   150245   150218 
  150199   150186   150180   150180   150198   150225   150245   150253 
  150241   150215   150183   150142   150095   150041   149987   149941 
  149895   149850   149796   149740   149697   149656   149608   149563 
  149535   149521   149523   149539   149577   149631   149701   149787 
  149882   149979   150083   150190   150298   150399   150484   150560 
  150633   150708   150782   150836   150870   150900   150930   150951 
  150971   150997   151021   151038   151047   151050   151044   151035 
  151017   150996   150973   150948   150913   150870   150816   150751 
  150677   150592   150492   150372   150249   150130   150014   149897 
  149774   149652   149542   149436   149338   149246   149156   149065 
  148991   148944   148909   148883   148876   148884   148896   148914 
  148942   148975   149013   149054   149099   149154   149222   149299 
  149388   149485   149584   149681   149767   149841   149909   149971 
  150034   150095   150149   150206   150259   150303   150340   150377 
  150421   150472   150531   150596   150678   150780   150886   150993 
  151092   151182   151266   151340   151402   151448   151472   151479 
  151480   151482   151487   151506   151533   151565   151598   151615 
  151618   151610   151584   151544   151498   151448   151389   151320 
  151244   151163   151078   151000   150932   150878   150838   150805 
  150777   150750   150715   150676   150641   150604   150558   150514 
  150479   150452   150431   150415   150406   150399   150387   150377 
  150377   150379   150376   150371   150367   150368   150385   150410 
  150438   150480   150539   150616   150709   150813   150927   151048 
  151174   151293   151398   151498   151591   151671   151733   151776 
  151798   151796   151775   151742   151692   151629   151569   151514 
  151459   151413   151389   151379   151380   151401   151441   151503 
  151588   151691   151812   151956   152118   152289   152460   152620 
  152768   152901   153007   153091   153145   153164   153154   153126 
  153071   152983   152869   152729   152568   152392   152200   151993 
  151780   151571   151376   151197   151039   150913   150828   150785 
  150780   150803   150840   150882   150921   150955   150973   150963 
  150938   150907   150861   150788   150693   150591   150476   150350 
  150222   150090   149958   149831   149702   149570   149439   149314 
  149191   149069   148946   148825   148701   148578   148463   148360 
  148274   148208   148159   148126   148119   148138   148167   148205 
  148257   148316   148386   148463   148532   148585   148626   148653 
  148663   148664   148667   148668   148675   148694   148718   148748 
  148788   148828   148860   148896   148938   148981   149015   149040 
  149067   149089   149103   149111   149111   149107   149103   149099 
  149100   149107   149116   149133   149148   149169   149206   149258 
  149324   149404   149507   149639   149789   149945   150106   150272 
  150433   150584   150709   150813   150907   150984   151032   151060 
  151070   151055   151012   150934   150820   150677   150511   150327 
  150136   149949   149785   149648   149544   149465   149412   149388 
  149381   149384   149399   149416   149430   149440   149450   149462 
  149481   149507   149542   149581   149625   149677   149725   149763 
  149798   149835   149872   149910   149944   149990   150055   150132 
  150221   150317   150418   150533   150660   150797   150942   151079 
  151195   151298   151397   151491   151584   151683   151776   151853 
  151915   151965   152004   152028   152032   152020   152003   151978 
  151956   151935   151914   151895   151877   151857   151834   151803 
  151758   151708   151654   151596   151537   151478   151420   151371 
  151325   151281   151248   151222   151191   151162   151141   151125 
  151108   151096   151082   151056   151032   151020   151006   150982 
  150950   150915   150880   150842   150790   150734   150680   150642 
  150619   150600   150591   150603   150633   150676   150723   150769 
  150811   150847   150870   150876   150862   150830   150777   150708 
  150630   150543   150448   150336   150213   150093   149982   149870 
  149759   149654   149555   149470   149392   149319   149262   149206 
  149145   149096   149069   149062   149075   149106   149169   149262 
  149366   149474   149592   149717   149847   149970   150088   150201 
  150302   150396   150487   150568   150630   150680   150731   150788 
  150839   150881   150913   150938   150948   150939   150917   150901 
  150886   150878   150882   150897   150925   150966   151012   151065 
  151125   151186   151244   151302   151355   151395   151425   151445 
  151460   151467   151463   151445   151416   151376   151329   151268 
  151193   151109   151029   150959   150904   150866   150854   150866 
  150892   150920   150952   150978   150990   150998   151006   151000 
  150975   150946   150913   150869   150813   150743   150669   150592 
  150499   150399   150302   150202   150105   150010   149916   149817 
  149717   149620   149530   149450   149373   149299   149241   149199 
  149168   149149   149143   149162   149207   149269   149335   149408 
  149482   149550   149619   149683   149733   149778   149814   149843 
  149867   149883   149901   149931   149974   150043   150145   150271 
  150410   150561   150719   150882   151042   151177   151282   151363 
  151409   151407   151366   151287   151173   151029   150873   150707 
  150543   150383   150228   150088   149971   149868   149779   149698 
  149623   149551   149489   149435   149385   149335   149291   149254 
  149227   149210   149204   149204   149207   149220   149245   149268 
  149291   149326   149362   149396   149431   149463   149497   149538 
  149580   149624   149673   149717   149756   149782   149796   149809 
  149824   149835   149841   149844   149851   149862   149874   149895 
  149928   149968   150022   150094   150179   150269   150357   150434 
  150503   150564   150614   150650   150676   150699   150726   150749 
  150769   150789   150812   150840   150873   150904   150938   150969 
  150990   150998   150990   150973   150952   150931   150908   150892 
  150882   150884   150897   150915   150944   150996   151056   151119 
  151179   151237   151291   151335   151357   151362   151353   151332 
  151289   151228   151151   151059   150959   150855   150743   150627 
  150504   150372   150238   150111   149995   149898   149824   149775 
  149751   149746   149762   149800   149859   149929   150002   150074 
  150144   150214   150275   150321   150353   150372   150385   150404 
  150429   150458   150488   150516   150545   150583   150627   150666 
  150689   150700   150705   150707   150700   150684   150669   150668 
  150681   150712   150763   150830   150913   151004   151100   151200 
  151295   151387   151470   151529   151563   151579   151580   151557 
  151507   151441   151371   151305   151232   151162   151102   151042 
  150986   150938   150892   150859   150838   150822   150813   150816 
  150819   150813   150804   150797   150792   150781   150770   150753 
  150722   150682   150642   150597   150542   150480   150414   150338 
  150261   150194   150121   150045   149978   149914   149852   149793 
  149739   149693   149663   149644   149631   149623   149611   149594 
  149582   149566   149551   149547   149555   149577   149609   149654 
  149709   149778   149855   149937   150025   150110   150196   150290 
  150383   150469   150549   150619   150682   150738   150782   150819 
  150854   150885   150915   150944   150974   151000   151013   151011 
  150989   150940   150871   150795   150715   150635   150561   150488 
  150422   150367   150313   150259   150205   150148   150097   150059 
  150034   150030   150066   150129   150210   150315   150442   150585 
  150750   150924   151087   151248   151399   151528   151632   151714 
  151769   151795   151795   151769   151713   151629   151524   151395 
  151252   151104   150952   150799   150642   150483   150322   150167 
  150022   149883   149754   149634   149527   149443   149382   149335 
  149301   149287   149283   149288   149301   149312   149314   149305 
  149292   149278   149265   149260   149269   149287   149320   149380 
  149459   149551   149654   149758   149867   149982   150093   150199 
  150307   150426   150549   150674   150805   150932   151054   151173 
  151279   151366   151434   151486   151514   151524   151522   151511 
  151505   151507   151517   151536   151567   151600   151637   151677 
  151721   151768   151816   151865   151916   151978   152045   152104 
  152154   152193   152217   152217   152197   152166   152126   152076 
  152018   151958   151903   151850   151807   151773   151744   151726 
  151726   151740   151760   151787   151826   151870   151916   151960 
  151999   152020   152028   152028   152015   151991   151951   151889 
  151802   151694   151572   151438   151286   151123   150961   150790 
  150615   150442   150280   150122   149966   149812   149663   149517 
  149382   149257   149141   149038   148945   148869   148813   148768 
  148734   148703   148668   148628   148581   148520   148444   148355 
  148262   148170   148080   147999   147926   147858   147793   147734 
  147687   147660   147645   147640   147658   147702   147764   147849 
  147958   148086   148238   148401   148564   148729   148896   149060 
  149215   149359   149494   149620   149733   149823   149891   149944 
  149989   150029   150068   150107   150156   150221   150306   150404 
  150511   150634   150774   150923   151083   151259   151436   151613 
  151787   151951   152108   152250   152371   152475   152564   152641 
  152710   152768   152820   152861   152890   152914   152923   152914 
  152891   152856   152803   152734   152649   152558   152467   152382 
  152305   152232   152170   152126   152096   152080   152082   152109 
  152157   152223   152304   152388   152475   152555   152625   152683 
  152717   152734   152743   152739   152722   152705   152683   152651 
  152609   152560   152502   152436   152366   152294   152219   152143 
  152078   152020   151961   151904   151850   151796   151741   151677 
  151602   151511   151406   151293   151175   151054   150928   150800 
  150665   150534   150407   150273   150133   149995   149862   149736 
  149616   149504   149397   149301   149218   149141   149073   149013 
  148954   148906   148873   148859   148867   148894   148934   148995 
  149081   149183   149292   149409   149532   149651   149760   149855 
  149936   150007   150074   150128   150178   150228   150280   150333 
  150381   150430   150479   150526   150570   150597   150603   150589 
  150561   150514   150450   150379   150296   150203   150113   150028 
  149932   149829   149725   149616   149497   149372   149247   149122 
  148996   148876   148763   148652   148549   148458   148379   148315 
  148266   148239   148232   148242   148258   148278   148301   148325 
  148351   148370   148377   148379   148381   148379   148379   148387 
  148404   148425   148451   148486   148524   148564   148606   148651 
  148693   148733   148779   148828   148882   148942   149004   149073 
  149154   149242   149335   149430   149523   149612   149700   149777 
  149841   149902   149959   150016   150078   150140   150196   150250 
  150307   150363   150408   150445   150473   150498   150518   150542 
  150572   150608   150654   150716   150790   150877   150977   151090 
  151212   151339   151467   151587   151702   151807   151896   151958 
  151992   152000   151978   151934   151862   151765   151656   151545 
  151433   151326   151233   151152   151075   150998   150920   150839 
  150751   150660   150579   150507   150442   150399   150381   150388 
  150419   150471   150539   150627   150732   150846   150961   151083 
  151216   151351   151482   151617   151753   151895   152038   152173 
  152304   152432   152552   152664   152766   152853   152925   152972 
  152996   152995   152963   152910   152840   152749   152647   152537 
  152427   152311   152192   152082   151988   151904   151830   151769 
  151715   151672   151641   151615   151598   151599   151611   151629 
  151657   151692   151727   151761   151791   151811   151827   151838 
  151839   151826   151796   151753   151690   151596   151482   151348 
  151190   151009   150808   150595   150376   150155   149935   149715 
  149505   149315   149135   148961   148799   148643   148491   148347 
  148207   148068   147937   147819   147714   147623   147560   147533 
  147538   147565   147621   147702   147804   147920   148042   148163 
  148284   148392   148481   148554   148616   148666   148706   148741 
  148772   148813   148867   148929   148998   149083   149184   149297 
  149424   149559   149701   149843   149983   150117   150226   150309 
  150372   150415   150438   150445   150438   150425   150407   150387 
  150371   150358   150354   150356   150365   150384   150410   150446 
  150495   150553   150623   150711   150816   150950   151109   151286 
  151482   151698   151922   152145   152370   152589   152798   153004 
  153206   153388   153549   153694   153814   153913   154001   154072 
  154121   154148   154160   154157   154130   154084   154020   153933 
  153831   153715   153584   153430   153253   153060   152844   152606 
  152358   152100   151833   151563   151297   151039   150800   150581 
  150381   150198   150034   149882   149735   149594   149461   149328 
  149202   149083   148975   148873   148784   148710   148653   148622 
  148616   148626   148656   148706   148774   148864   148971   149088 
  149222   149370   149536   149720   149902   150083   150263   150431 
  150584   150719   150831   150916   150979   151015   151028   151024 
  151004   150967   150913   150847   150776   150700   150616   150529 
  150431   150329   150228   150118   150005   149894   149786   149674 
  149551   149424   149299   149169   149042   148922   148809   148707 
  148618   148545   148489   148452   148436   148444   148468   148505 
  148551   148597   148643   148690   148737   148783   148833   148886 
  148940   148999   149068   149139   149204   149265   149324   149372 
  149404   149430   149446   149449   149445   149438   149427   149415 
  149409   149409   149422   149450   149485   149527   149581   149646 
  149719   149798   149886   149987   150095   150210   150338   150475 
  150619   150774   150939   151114   151294   151475   151660   151843 
  152027   152211   152390   152567   152743   152907   153056   153192 
  153311   153409   153490   153561   153625   153685   153735   153770 
  153794   153809   153805   153782   153743   153686   153607   153500 
  153365   153208   153033   152836   152616   152381   152130   151865 
  151587   151299   151013   150739   150476   150222   149979   149754 
  149547   149362   149191   149038   148914   148814   148732   148670 
  148626   148591   148568   148560   148555   148558   148571   148582 
  148595   148620   148647   148672   148706   148751   148803   148855 
  148906   148952   148986   149010   149031   149031   149003   148959 
  148900   148825   148733   148629   148528   148435   148347   148273 
  148217   148178   148155   148144   148150   148176   148216   148279 
  148370   148481   148612   148759   148921   149089   149258   149423 
  149578   149721   149854   149966   150070   150169   150259   150345 
  150429   150503   150561   150607   150639   150657   150666   150662 
  150645   150618   150589   150554   150512   150469   150426   150388 
  150357   150341   150344   150356   150377   150412   150452   150485 
  150515   150534   150549   150568   150584   150596   150614   150643 
  150684   150728   150782   150843   150904   150966   151027   151074 
  151113   151140   151144   151131   151102   151056   150998   150936 
  150874   150819   150772   150736   150715   150711   150728   150766 
  150822   150897   150994   151108   151228   151355   151484   151613 
  151738   151857   151970   152084   152197   152304   152404   152502 
  152602   152698   152783   152859   152930   152988   153029   153056 
  153061   153042   153004   152946   152869   152774   152655   152520 
  152370   152199   152004   151796   151572   151336   151096   150851 
  150606   150360   150113   149868   149632   149404   149180   148979 
  148799   148636   148501   148400   148323   148277   148259   148263 
  148286   148325   148374   148421   148466   148513   148560   148601 
  148636   148670   148705   148745   148792   148844   148895   148952 
  149017   149085   149164   149256   149359   149472   149584   149702 
  149828   149952   150066   150167   150257   150325   150367   150379 
  150365   150329   150273   150203   150115   150014   149913   149818 
  149727   149644   149574   149511   149451   149411   149391   149382 
  149388   149409   149446   149490   149538   149588   149638   149685 
  149725   149763   149800   149833   149862   149883   149905   149926 
  149948   149972   149994   150017   150043   150068   150097   150128 
  150160   150202   150255   150321   150402   150492   150588   150695 
  150799   150894   150990   151081   151151   151200   151233   151255 
  151264   151263   151256   151240   151217   151191   151166   151136 
  151108   151089   151079   151079   151092   151123   151170   151224 
  151287   151359   151430   151502   151571   151627   151673   151708 
  151735   151756   151772   151783   151791   151792   151787   151781 
  151775   151765   151756   151750   151749   151754   151765   151780 
  151795   151811   151826   151834   151835   151827   151806   151777 
  151740   151690   151625   151542   151448   151340   151218   151090 
  150962   150838   150724   150618   150519   150435   150360   150288 
  150217   150137   150043   149937   149829   149709   149581   149453 
  149326   149200   149077   148957   148842   148730   148620   148521 
  148436   148362   148300   148252   148221   148207   148200   148204 
  148221   148247   148274   148309   148350   148393   148439   148479 
  148520   148572   148628   148680   148741   148810   148876   148953 
  149042   149133   149231   149339   149453   149582   149716   149837 
  149956   150076   150184   150286   150379   150462   150538   150597 
  150641   150666   150672   150653   150611   150553   150484   150404 
  150317   150223   150130   150039   149939   149835   149729   149623 
  149516   149416   149323   149238   149165   149108   149073   149054 
  149050   149068   149108   149168   149245   149334   149436   149551 
  149674   149806   149943   150082   150223   150365   150500   150627 
  150750   150873   150990   151096   151194   151291   151378   151452 
  151521   151582   151632   151669   151690   151694   151690   151675 
  151648   151615   151573   151528   151480   151432   151389   151352 
  151320   151305   151302   151302   151312   151330   151357   151397 
  151445   151499   151563   151632   151702   151777   151854   151924 
