Origin Time       2025/01/13 21:19:00
Lat.              31.8
Long.             131.6
Depth. (km)       30
Mag.              6.9
Station Code      FKOH04
Station Lat.      33.5512
Station Long.     130.7451
Station Height(m) 60
Record Time       2025/01/13 21:20:04
Sampling Freq(Hz) 100Hz
Duration Time(s)  159
Dir.              4
Scale Factor      7845(gal)/8223790
Max. Acc. (gal)   3.043
Last Correction   2025/01/13 21:20:05
Memo.             
[...]
    2022     2243     2452     2664     2886     3092     3245     3315 
    3285     3154     2932     2637     2296     1944     1617     1329 
    1086      905      800      776      828      947     1136     1395 
    1695     1989     2238     2415     2515     2539     2482     2354 
    2188     2020     1872     1752     1665     1621     1620     1651 
    1695     1744     1794     1853     1927     1998     2038     2049 
    2058     2088     2139     2216     2303     2370     2398     2380 
    2309     2199     2074     1962     1883     1848     1864     1914 
    1975     2031     2072     2079     2053     1996     1908     1810 
    1726     1659     1586     1491     1370     1227     1078      932 
     796      683      614      611      681      811      978     1154 
    1308     1425     1497     1518     1494     1432     1332     1204 
    1061      922      797      684      576      491      441      425 
     437      475      553      681      853     1047     1231     1389 
    1514     1597     1620     1572     1464     1335     1224     1154 
    1142     1202     1335     1513     1707     1903     2100     2297 
    2484     2633     2728     2774     2762     2671     2489     2223 
    1919     1629     1383     1197     1080     1036     1063     1142 
    1244     1360     1495     1663     1873     2128     2413     2717 
    3024     3307     3534     3672     3701     3616     3431     3171 
    2868     2569     2305     2088     1921     1814     1779     1809 
    1884     1975     2064     2151     2235     2305     2347     2354 
    2336     2293     2220     2111     1958     1761     1537     1308 
    1075      849      652      518      461      484      584      749 
     970     1232     1502     1749     1968     2147     2262     2301 
    2255     2122     1915     1659     1377     1092      837      645 
     540      510      531      602      722      876     1040     1204 
    1362     1520     1675     1817     1918     1958     1942     1871 
    1741     1564     1363     1169     1015      918      889      928 
    1038     1210     1437     1706     1999     2290     2550     2745 
    2857     2883     2829     2695     2492     2253     2015     1811 
    1664     1571     1514     1485     1486     1509     1536     1567 
    1611     1672     1760     1865     1960     2043     2134     2230 
    2322     2394     2438     2462     2477     2473     2448     2427 
    2444     2505     2578     2651     2720     2778     2816     2818 
    2774     2683     2548     2369     2151     1902     1640     1391 
    1178     1021      942      946     1035     1201     1420     1672 
    1937     2189     2401     2554     2641     2663     2605     2463 
    2242     1961     1655     1360     1096      864      673      540 
     465      449      492      595      750      942     1142     1321 
    1470     1579     1637     1634     1576     1480     1377     1283 
    1202     1121     1035      947      874      826      795      774 
     766      772      780      783      780      781      808      869 
     947     1030     1111     1190     1266     1324     1360     1386 
    1412     1441     1475     1516     1571     1649     1732     1802 
    1872     1960     2072     2196     2309     2407     2502     2590 
    2648     2663     2628     2559     2478     2390     2299     2208 
    2131     2077     2041     2007     1975     1957     1977     2027 
    2099     2197     2312     2412     2467     2444     2327     2127 
    1867     1579     1298     1063      899      803      758      757 
     787      839      915     1003     1108     1251     1436     1638 
    1825     1964     2046     2070     2041     1950     1800     1614 
    1431     1286     1200     1188     1267     1440     1676     1930 
    2168     2376     2550     2682     2768     2808     2808     2786 
    2739     2647     2501     2323     2134     1935     1733     1551 
    1418     1352     1356     1417     1530     1707     1945     2214 
    2478     2710     2887     3001     3040     3003     2898     2733 
    2523     2276     2014     1760     1525     1309     1121      969 
     872      842      881      969     1080     1200     1325     1433 
    1499     1513     1479     1422     1354     1270     1170     1063 
     973      908      858      826      834      905     1044     1235 
    1451     1669     1885     2085     2236     2324     2363     2367 
    2340     2282     2195     2089     1984     1888     1804     1744 
    1729     1764     1840     1935     2038     2146     2265     2392 
    2512     2621     2733     2859     2980     3072     3110     3075 
    2976     2818     2606     2366     2131     1926     1772     1679 
    1649     1680     1752     1831     1888     1902     1871     1796 
    1665     1470     1227      974      746      556      407      307 
     268      301      390      508      646      801      978     1155 
    1294     1375     1409     1409     1372     1291     1186     1092 
    1035     1032     1069     1125     1194     1274     1350     1412 
    1462     1516     1597     1715     1852     1987     2111     2203 
    2246     2241     2195     2134     2095     2084     2095     2128 
    2193     2286     2396     2512     2619     2708     2770     2790 
    2772     2724     2650     2566     2482     2396     2305     2208 
    2095     1949     1764     1560     1366     1201     1067      972 
     924      935     1003     1107     1229     1385     1574     1765 
    1922     2020     2047     2002     1876     1675     1421     1155 
     924      754      633      560      552      596      672      768 
     868      974     1107     1263     1420     1564     1684     1771 
    1819     1818     1769     1701     1633     1571     1520     1487 
    1480     1498     1537     1587     1651     1748     1896     2106 
    2358     2621     2868     3078     3214     3252     3196     3072 
    2906     2725     2533     2319     2084     1845     1607     1377 
    1169     1005      908      895      955     1053     1158     1264 
    1362     1420     1412     1339     1220     1080      923      766 
     631      545      530      587      703      878     1111     1391 
    1687     1965     2216     2434     2613     2735     2771     2722 
    2610     2439     2205     1921     1620     1344     1124      974 
     901      909     1000     1159     1358     1564     1760     1927 
    2042     2079     2031     1919     1764     1580     1394     1233 
    1116     1058     1073     1159     1304     1493     1710     1923 
    2095     2196     2218     2173     2076     1926     1734     1525 
    1325     1155     1027      931      866      845      862      904 
     961     1030     1121     1247     1405     1587     1798     2037 
    2290     2527     2712     2825     2860     2824     2725     2567 
    2355     2114     1872     1652     1478     1382     1383     1495 
    1715     2018     2363     2721     3051     3307     3456     3485 
    3407     3245     3015     2735     2436     2154     1911     1702 
    1521     1379     1302     1302     1367     1490     1661     1863 
    2062     2226     2324     2342     2289     2177     2016     1823 
    1628     1453     1306     1173     1048      951      895      877 
     885      915      974     1073     1209     1362     1502     1617 
    1699     1741     1728     1657     1547     1426     1314     1233 
    1206     1248     1362     1530     1721     1910     2089     2249 
    2371     2438     2436     2366     2245     2080     1885     1676 
    1475     1301     1166     1080     1048     1069     1132     1221 
    1305     1378     1435     1472     1494     1498     1485     1453 
    1401     1321     1228     1127     1028      945      869      799 
     754      745      768      818      886      981     1112     1273 
    1436     1579     1679     1728     1733     1694     1620     1530 
    1448     1399     1404     1456     1540     1634     1723     1795 
    1840     1861     1868     1869     1871     1875     1894     1931 
    1985     2046     2110     2181     2276     2394     2517     2620 
    2700     2762     2806     2824     2803     2748     2690     2656 
    2651     2668     2708     2778     2886     3011     3132     3226 
    3295     3349     3385     3395     3381     3345     3277     3173 
    3021     2817     2569     2278     1960     1634     1332     1088 
     919      816      780      814      907     1059     1258     1486 
    1738     2010     2285     2546     2760     2906     2970     2948 
    2843     2675     2470     2250     2037     1837     1660     1516 
    1410     1339     1301     1310     1383     1520     1707     1918 
    2128     2324     2489     2598     2652     2675     2679     2662 
    2610     2500     2324     2095     1811     1476     1111      754 
     457      259      163      151      206      319      467      610 
     722      785      801      789      754      691      592      464 
     325      198       91       33       48      141      303      514 
     761     1038     1321     1579     1782     1908     1965     1966 
    1914     1803     1633     1420     1186      935      673      425 
     217       81       31       83      243      504      853     1251 
    1645     1993     2272     2469     2583     2624     2605     2558 
    2505     2458     2425     2407     2394     2385     2361     2311 
    2245     2172     2095     2016     1950     1922     1950     2039 
    2174     2326     2481     2632     2762     2840     2849     2798 
    2708     2602     2498     2404     2340     2324     2346     2389 
    2448     2528     2641     2786     2941     3094     3231     3345 
    3420     3446     3397     3268     3076     2852     2612     2377 
    2178     2041     1972     1973     2026     2107     2203     2297 
    2371     2420     2450     2474     2508     2554     2604     2648 
    2679     2677     2612     2467     2255     2006     1749     1498 
    1250     1008      788      598      430      283      172      124 
     153      264      450      700      992     1302     1595     1834 
    1996     2070     2060     1962     1786     1549     1278     1001 
     733      480      272      126       49       47      120      260 
     472      751     1067     1372     1625     1787     1840     1772 
    1583     1283      908      519      163     -130     -333     -433 
    -427     -324     -137      112      396      696      996     1277 
    1528     1738     1894     1984     1999     1944     1834     1694 
    1529     1348     1173     1028      942      908      909      936 
     985     1044     1109     1171     1231     1300     1385     1475 
    1552     1611     1655     1679     1674     1620     1521     1401 
    1271     1139     1007      885      799      772      808      903 
    1051     1250     1494     1765     2035     2288     2521     2737 
    2924     3069     3172     3234     3249     3204     3106     2968 
    2821     2693     2593     2528     2502     2517     2569     2647 
    2722     2770     2782     2755     2686     2592     2488     2380 
    2280     2197     2138     2103     2092     2093     2085     2060 
    2019     1960     1872     1744     1575     1386     1201     1047 
     931      854      812      800      808      822      826      824 
     832      857      905      985     1107     1275     1470     1664 
    1842     1995     2116     2204     2249     2241     2192     2120 
    2043     1961     1872     1779     1691     1593     1472     1341 
    1221     1128     1062     1021     1016     1051     1124     1223 
    1316     1377     1401     1397     1364     1320     1289     1300 
    1371     1501     1661     1841     2026     2200     2354     2478 
    2567     2631     2683     2728     2759     2772     2779     2771 
    2737     2666     2548     2397     2220     2027     1836     1672 
    1571     1544     1584     1692     1861     2072     2305     2538 
    2747     2937     3110     3256     3365     3431     3456     3447 
    3410     3342     3246     3142     3056     2990     2941     2903 
    2883     2880     2879     2860     2812     2739     2658     2577 
    2493     2415     2344     2292     2251     2205     2137     2054 
    1953     1827     1674     1495     1309     1134      958      769 
     568      363      171       -4     -160     -287     -363     -368 
    -305     -186      -24      166      373      573      735      846 
     916      949      936      873      766      645      526      407 
     291      186      101       47       22       22       47      108 
     211      346      488      623      746      851      931      974 
     989     1004     1043     1121     1247     1422     1648     1922 
    2223     2524     2813     3075     3308     3512     3684     3808 
    3882     3916     3913     3870     3790     3693     3599     3515 
    3435     3366     3318     3296     3303     3326     3358     3403 
    3458     3510     3535     3519     3461     3370     3254     3106 
    2932     2754     2582     2412     2241     2083     1946     1840 
    1764     1707     1660     1610     1543     1439     1277     1050 
     776      468      130     -220     -562     -877    -1138    -1328 
   -1443    -1468    -1399    -1242    -1009     -734     -445     -163 
     110      363      576      753      900     1020     1117     1170 
    1155     1081      966      826      672      533      441      414 
     459      542      639      762      896     1017     1142     1248 
    1350     1472     1582     1672     1734     1742     1734     1719 
    1691     1695     1738     1831     1995     2180     2362     2548 
    2691     2781     2820     2799     2749     2705     2656     2605 
    2542     2455     2366     2257     2108     1942     1769     1617 
    1512     1445     1421     1443     1490     1547     1598     1624 
    1636     1647     1644     1637     1640     1655     1683     1713 
    1726     1728     1719     1703     1686     1668     1661     1679 
    1718     1756     1777     1780     1764     1726     1667     1586 
    1497     1416     1344     1270     1190     1125     1085     1065 
    1066     1088     1131     1213     1325     1440     1553     1657 
    1745     1829     1902     1958     2015     2080     2164     2259 
    2370     2500     2641     2787     2929     3048     3140     3206 
    3234     3210     3132     3007     2844     2651     2438     2231 
    2054     1921     1833     1788     1783     1825     1912     2023 
    2134     2223     2288     2330     2340     2323     2282     2223 
    2153     2074     1979     1868     1750     1633     1526     1426 
    1343     1289     1270     1281     1308     1344     1386     1431 
    1471     1499     1512     1524     1547     1567     1566     1534 
    1480     1418     1347     1271     1204     1159     1146     1167 
    1215     1271     1329     1385     1432     1459     1470     1470 
    1460     1444     1420     1386     1345     1308     1269     1216 
    1151     1094     1057     1031     1008      985      959      927 
     888      847      824      838      888      967     1070     1194 
    1335     1475     1584     1649     1691     1728     1767     1806 
    1842     1867     1876     1864     1815     1728     1615     1499 
    1389     1294     1231     1223     1282     1394     1533     1687 
    1849     2014     2169     2295     2377     2427     2465     2496 
    2516     2517     2512     2513     2525     2547     2577     2617 
    2674     2747     2818     2879     2928     2968     2998     3003 
    2979     2929     2847     2731     2570     2362     2133     1903 
    1690     1509     1370     1291     1289     1362     1497     1688 
    1923     2187     2447     2679     2868     2999     3061     3052 
    2970     2830     2660     2469     2261     2046     1840     1660 
    1517     1399     1302     1233     1197     1194     1210     1232 
    1246     1254     1248     1213     1140     1034      904      754 
     580      392      218       83        0      -27        2       86 
     217      383      562      739      904     1058     1208     1347 
    1456     1537     1594     1617     1601     1548     1464     1374 
    1304     1263     1250     1278     1367     1505     1669     1846 
    2025     2199     2361     2498     2608     2686     2733     2741 
    2694     2587     2417     2201     1957     1698     1441     1215 
    1051      965      936      961     1028     1131     1259     1393 
    1507     1599     1676     1742     1777     1773     1746     1710 
    1675     1645     1621     1603     1597     1599     1599     1582 
    1551     1518     1498     1497     1516     1564     1649     1755 
    1857     1942     1996     2022     2020     1987     1931     1877 
    1830     1790     1736     1656     1553     1432     1296     1150 
    1007      889      815      787      789      819      881      978 
    1108     1252     1398     1548     1696     1837     1949     2027 
    2076     2103     2120     2133     2142     2161     2192     2224 
    2239     2222     2166     2073     1944     1775     1579     1375 
    1190     1039      924      846      814      832      904     1020 
    1179     1381     1611     1861     2106     2334     2539     2721 
    2879     3007     3100     3165     3211     3237     3242     3225 
    3188     3145     3102     3048     2980     2911     2859     2820 
    2785     2754     2736     2727     2722     2713     2693     2662 
    2637     2629     2623     2614     2613     2619     2624     2612 
    2577     2524     2452     2358     2238     2103     1961     1822 
    1698     1582     1471     1375     1297     1233     1173     1116 
    1074     1042     1013      981      943      905      870      831 
     787      737      684      634      588      535      468      392 
     318      255      213      202      229      297      398      519 
     645      768      885      988     1062     1096     1096     1075 
    1036      981      926      882      876      919     1004     1123 
    1282     1471     1667     1850     2015     2154     2262     2335 
    2359     2340     2290     2219     2128     2016     1888     1769 
    1674     1598     1543     1503     1489     1509     1556     1618 
    1692     1777     1864     1935     1975     1979     1958     1921 
    1868     1800     1730     1671     1628     1590     1559     1534 
    1521     1526     1543     1555     1567     1586     1614     1652 
    1694     1738     1803     1887     1972     2053     2128     2188 
    2223     2216     2168     2096     2014     1934     1864     1799 
    1741     1695     1663     1634     1607     1586     1586     1614 
    1659     1715     1783     1858     1939     2011     2061     2097 
    2128     2155     2174     2184     2196     2228     2286     2365 
    2455     2555     2668     2790     2905     3001     3084     3160 
    3221     3249     3235     3190     3126     3040     2925     2786 
