Origin Time       2025/01/13 21:19:00
Lat.              31.8
Long.             131.6
Depth. (km)       30
Mag.              6.9
Station Code      FKOH01
Station Lat.      33.8849
Station Long.     130.9798
Station Height(m) 15
Record Time       2025/01/13 21:20:12
Sampling Freq(Hz) 100Hz
Duration Time(s)  120
Dir.              5
Scale Factor      7845(gal)/8223790
Max. Acc. (gal)   1.138
Last Correction   2025/01/13 21:20:13
Memo.             
[...]
   -4860    -4872    -4924    -5008    -5094    -5174    -5247    -5297 
   -5309    -5275    -5200    -5116    -5047    -5007    -5009    -5044 
   -5092    -5146    -5193    -5206    -5184    -5142    -5097    -5069 
   -5067    -5088    -5134    -5192    -5246    -5292    -5317    -5294 
   -5217    -5120    -5047    -5030    -5076    -5169    -5273    -5348 
   -5373    -5347    -5286    -5202    -5112    -5038    -5000    -5000 
   -5036    -5100    -5174    -5240    -5271    -5255    -5209    -5165 
   -5131    -5136    -5188    -5255    -5321    -5377    -5389    -5348 
   -5275    -5193    -5124    -5085    -5067    -5058    -5038    -5005 
   -4986    -4989    -5005    -5026    -5047    -5071    -5108    -5157 
   -5212    -5254    -5266    -5259    -5247    -5240    -5239    -5242 
   -5251    -5259    -5244    -5202    -5146    -5092    -5062    -5074 
   -5136    -5227    -5321    -5401    -5452    -5474    -5458    -5395 
   -5309    -5224    -5144    -5070    -5020    -5020    -5077    -5173 
   -5271    -5348    -5382    -5363    -5317    -5286    -5292    -5320 
   -5348    -5371    -5387    -5383    -5359    -5319    -5255    -5175 
   -5104    -5051    -5027    -5053    -5119    -5196    -5269    -5328 
   -5355    -5346    -5306    -5243    -5185    -5147    -5135    -5154 
   -5181    -5193    -5189    -5159    -5108    -5061    -5022    -4989 
   -4976    -4985    -5013    -5057    -5097    -5125    -5142    -5143 
   -5128    -5098    -5059    -5013    -4968    -4946    -4968    -5016 
   -5080    -5151    -5215    -5256    -5282    -5289    -5270    -5236 
   -5196    -5161    -5148    -5162    -5184    -5205    -5223    -5232 
   -5233    -5225    -5221    -5228    -5239    -5255    -5277    -5293 
   -5300    -5296    -5278    -5248    -5227    -5228    -5250    -5283 
   -5324    -5351    -5346    -5313    -5274    -5231    -5189    -5166 
   -5165    -5178    -5192    -5196    -5190    -5175    -5147    -5115 
   -5086    -5054    -5019    -4992    -4992    -5015    -5047    -5089 
   -5135    -5169    -5178    -5170    -5147    -5115    -5080    -5051 
   -5032    -5031    -5057    -5107    -5159    -5200    -5231    -5252 
   -5266    -5282    -5305    -5336    -5367    -5386    -5386    -5367 
   -5324    -5266    -5215    -5189    -5186    -5198    -5221    -5243 
   -5267    -5305    -5354    -5397    -5417    -5395    -5337    -5255 
   -5163    -5089    -5047    -5036    -5051    -5096    -5175    -5270 
   -5341    -5383    -5377    -5309    -5211    -5127    -5081    -5088 
   -5144    -5229    -5314    -5381    -5414    -5395    -5323    -5208 
   -5074    -4957    -4885    -4876    -4931    -5039    -5173    -5308 
   -5418    -5468    -5445    -5358    -5239    -5121    -5019    -4928 
   -4860    -4827    -4828    -4869    -4958    -5080    -5205    -5317 
   -5398    -5432    -5421    -5374    -5297    -5213    -5138    -5077 
   -5049    -5058    -5097    -5154    -5209    -5243    -5259    -5270 
   -5283    -5287    -5266    -5217    -5158    -5101    -5050    -5009 
   -4968    -4911    -4842    -4772    -4708    -4679    -4700    -4765 
   -4869    -5004    -5150    -5283    -5398    -5483    -5526    -5532 
   -5495    -5417    -5319    -5217    -5130    -5085    -5092    -5140 
   -5227    -5335    -5433    -5506    -5547    -5559    -5557    -5562 
   -5580    -5617    -5671    -5724    -5741    -5699    -5601    -5460 
   -5289    -5124    -5000    -4930    -4931    -5024    -5189    -5373 
   -5540    -5661    -5722    -5711    -5644    -5540    -5405    -5255 
   -5120    -5017    -4953    -4931    -4953    -4992    -5035    -5082 
   -5123    -5155    -5185    -5196    -5185    -5162    -5125    -5085 
   -5066    -5089    -5162    -5269    -5371    -5437    -5452    -5413 
   -5337    -5255    -5177    -5100    -5028    -4970    -4923    -4878 
   -4842    -4818    -4799    -4796    -4822    -4885    -4992    -5135 
   -5283    -5421    -5532    -5584    -5574    -5503    -5382    -5250 
   -5150    -5092    -5076    -5088    -5100    -5103    -5093    -5065 
   -5015    -4951    -4889    -4854    -4870    -4943    -5063    -5205 
   -5340    -5449    -5520    -5535    -5490    -5395    -5255    -5084 
   -4909    -4761    -4661    -4618    -4626    -4685    -4785    -4908 
   -5058    -5232    -5394    -5516    -5593    -5607    -5553    -5460 
   -5343    -5208    -5089    -5015    -4986    -4992    -5022    -5063 
   -5109    -5150    -5174    -5174    -5148    -5107    -5071    -5066 
   -5090    -5143    -5198    -5223    -5201    -5139    -5040    -4924 
   -4827    -4785    -4818    -4915    -5054    -5200    -5316    -5379 
   -5385    -5347    -5274    -5178    -5085    -5026    -5005    -5032 
   -5094    -5165    -5238    -5301    -5343    -5371    -5393    -5394 
   -5378    -5350    -5313    -5277    -5236    -5177    -5104    -5028 
   -4957    -4892    -4845    -4834    -4869    -4936    -5013    -5080 
   -5105    -5082    -5028    -4968    -4936    -4953    -5015    -5111 
   -5216    -5302    -5360    -5390    -5387    -5356    -5316    -5287 
   -5287    -5321    -5381    -5456    -5530    -5584    -5609    -5603 
   -5566    -5499    -5414    -5323    -5254    -5228    -5246    -5301 
   -5378    -5443    -5466    -5436    -5346    -5208    -5055    -4924 
   -4846    -4835    -4889    -4973    -5051    -5103    -5117    -5082 
   -5008    -4939    -4903    -4895    -4911    -4938    -4951    -4942 
   -4920    -4895    -4877    -4872    -4877    -4888    -4904    -4924 
   -4947    -4962    -4969    -4977    -4985    -5001    -5036    -5092 
   -5148    -5186    -5211    -5231    -5240    -5242    -5246    -5246 
   -5242    -5247    -5275    -5323    -5374    -5412    -5428    -5418 
   -5383    -5335    -5290    -5255    -5235    -5246    -5292    -5348 
   -5391    -5413    -5409    -5387    -5359    -5331    -5319    -5327 
   -5351    -5395    -5448    -5486    -5502    -5499    -5478    -5440 
   -5393    -5350    -5310    -5270    -5236    -5219    -5209    -5206 
   -5219    -5252    -5316    -5401    -5494    -5583    -5651    -5676 
   -5655    -5595    -5513    -5425    -5347    -5281    -5228    -5194 
   -5186    -5201    -5232    -5274    -5321    -5355    -5354    -5313 
   -5239    -5135    -5015    -4892    -4773    -4665    -4579    -4530 
   -4527    -4568    -4645    -4741    -4830    -4904    -4974    -5022 
   -5024    -4993    -4939    -4870    -4826    -4831    -4865    -4903 
   -4945    -4984    -5012    -5031    -5035    -5019    -4988    -4947 
   -4914    -4896    -4896    -4907    -4914    -4901    -4880    -4847 
   -4810    -4785    -4796    -4851    -4938    -5026    -5092    -5120 
   -5103    -5053    -4988    -4918    -4854    -4810    -4785    -4776 
   -4776    -4787    -4814    -4855    -4919    -5000    -5092    -5188 
   -5270    -5333    -5378    -5395    -5391    -5379    -5368    -5368 
   -5387    -5424    -5472    -5517    -5556    -5605    -5656    -5697 
   -5714    -5701    -5659    -5602    -5544    -5505    -5497    -5517 
   -5564    -5629    -5684    -5724    -5741    -5732    -5706    -5678 
   -5659    -5648    -5636    -5622    -5605    -5578    -5551    -5535 
   -5539    -5563    -5595    -5617    -5614    -5586    -5556    -5544 
   -5551    -5574    -5601    -5622    -5624    -5599    -5557    -5506 
   -5439    -5368    -5316    -5286    -5277    -5283    -5301    -5329 
   -5362    -5378    -5364    -5317    -5240    -5154    -5080    -5026 
   -4996    -4984    -4990    -5027    -5089    -5158    -5209    -5220 
   -5179    -5084    -4949    -4806    -4688    -4621    -4606    -4638 
   -4715    -4816    -4916    -4999    -5055    -5078    -5069    -5036 
   -4993    -4953    -4931    -4934    -4951    -4973    -4988    -4978 
   -4935    -4866    -4791    -4720    -4668    -4637    -4610    -4572 
   -4529    -4494    -4482    -4518    -4618    -4766    -4935    -5086 
   -5190    -5243    -5243    -5202    -5150    -5105    -5061    -5015 
   -4965    -4912    -4869    -4841    -4827    -4826    -4838    -4864 
   -4911    -4978    -5053    -5131    -5211    -5274    -5314    -5341 
   -5354    -5360    -5367    -5368    -5358    -5328    -5267    -5190 
   -5113    -5038    -4972    -4928    -4908    -4914    -4938    -4978 
   -5042    -5121    -5209    -5300    -5374    -5428    -5470    -5497 
   -5509    -5514    -5522    -5529    -5529    -5524    -5506    -5472 
   -5432    -5404    -5395    -5410    -5464    -5555    -5660    -5755 
   -5827    -5860    -5830    -5744    -5629    -5513    -5416    -5358 
   -5332    -5329    -5337    -5335    -5309    -5270    -5221    -5171 
   -5136    -5117    -5121    -5154    -5220    -5302    -5377    -5417 
   -5410    -5364    -5297    -5219    -5150    -5105    -5085    -5082 
   -5092    -5111    -5130    -5148    -5162    -5165    -5147    -5105 
   -5049    -4984    -4919    -4868    -4841    -4837    -4847    -4869 
   -4903    -4942    -4970    -4974    -4957    -4912    -4846    -4779 
   -4741    -4742    -4792    -4885    -5005    -5134    -5244    -5312 
   -5327    -5287    -5206    -5107    -5012    -4932    -4882    -4870 
   -4896    -4951    -5031    -5113    -5179    -5227    -5251    -5247 
   -5227    -5206    -5198    -5211    -5242    -5275    -5286    -5263 
   -5205    -5117    -5011    -4905    -4816    -4750    -4712    -4708 
   -4720    -4730    -4731    -4726    -4710    -4689    -4669    -4646 
   -4619    -4592    -4563    -4540    -4541    -4563    -4602    -4662 
   -4731    -4792    -4846    -4904    -4973    -5046    -5109    -5157 
   -5185    -5193    -5169    -5113    -5054    -5020    -5016    -5042 
   -5086    -5127    -5150    -5148    -5121    -5077    -5034    -4996 
   -4968    -4954    -4953    -4961    -4980    -5003    -5024    -5039 
   -5040    -5015    -4972    -4923    -4869    -4818    -4789    -4788 
   -4814    -4857    -4912    -4966    -5007    -5038    -5067    -5089 
   -5104    -5112    -5108    -5094    -5078    -5066    -5078    -5120 
   -5178    -5236    -5279    -5296    -5286    -5278    -5283    -5300 
   -5317    -5337    -5347    -5337    -5312    -5281    -5251    -5225 
   -5213    -5228    -5265    -5316    -5382    -5459    -5533    -5591 
   -5634    -5674    -5717    -5765    -5825    -5880    -5913    -5914 
   -5894    -5861    -5822    -5791    -5782    -5778    -5759    -5725 
   -5683    -5641    -5617    -5622    -5653    -5694    -5707    -5672 
   -5595    -5498    -5405    -5337    -5306    -5304    -5319    -5348 
   -5377    -5386    -5367    -5313    -5225    -5116    -5004    -4918 
   -4878    -4891    -4959    -5067    -5182    -5278    -5347    -5378 
   -5370    -5340    -5306    -5283    -5282    -5305    -5333    -5347 
   -5341    -5327    -5310    -5296    -5279    -5263    -5263    -5301 
   -5373    -5466    -5576    -5691    -5795    -5877    -5927    -5927 
   -5865    -5745    -5594    -5444    -5333    -5278    -5270    -5305 
   -5367    -5428    -5466    -5464    -5424    -5368    -5327    -5317 
   -5346    -5400    -5454    -5486    -5479    -5421    -5324    -5213 
   -5115    -5061    -5071    -5138    -5224    -5300    -5344    -5352 
   -5337    -5308    -5265    -5233    -5215    -5200    -5193    -5186 
   -5170    -5146    -5124    -5123    -5161    -5238    -5346    -5467 
   -5574    -5641    -5668    -5657    -5616    -5552    -5475    -5390 
   -5320    -5275    -5248    -5231    -5209    -5171    -5125    -5088 
   -5063    -5058    -5088    -5148    -5227    -5314    -5397    -5445 
   -5454    -5429    -5385    -5332    -5283    -5236    -5186    -5135 
   -5086    -5044    -5019    -5016    -5023    -5030    -5031    -5019 
   -5000    -4988    -5000    -5043    -5109    -5182    -5247    -5282 
   -5281    -5247    -5197    -5147    -5115    -5123    -5162    -5209 
   -5258    -5302    -5333    -5352    -5351    -5319    -5260    -5178 
   -5080    -4990    -4928    -4905    -4932    -4993    -5066    -5130 
   -5170    -5184    -5171    -5136    -5089    -5043    -5008    -4985 
   -4972    -4966    -4959    -4949    -4928    -4905    -4888    -4876 
   -4877    -4904    -4959    -5038    -5128    -5216    -5282    -5316 
   -5321    -5301    -5259    -5205    -5150    -5096    -5054    -5032 
   -5036    -5057    -5081    -5100    -5108    -5108    -5105    -5107 
   -5125    -5174    -5246    -5320    -5386    -5440    -5471    -5471 
   -5447    -5406    -5352    -5290    -5229    -5170    -5111    -5057 
   -5015    -4989    -4999    -5042    -5093    -5132    -5138    -5101 
   -5028    -4935    -4853    -4814    -4834    -4920    -5061    -5232 
   -5406    -5557    -5678    -5760    -5806    -5823    -5826    -5822 
   -5821    -5821    -5825    -5838    -5860    -5887    -5929    -5981 
   -6034    -6085    -6130    -6162    -6184    -6192    -6178    -6145 
   -6100    -6054    -6021    -6011    -6027    -6054    -6077    -6081 
   -6064    -6038    -6016    -5995    -5977    -5958    -5915    -5850 
   -5765    -5660    -5549    -5454    -5383    -5336    -5310    -5298 
   -5296    -5306    -5337    -5385    -5422    -5431    -5400    -5324 
   -5221    -5124    -5044    -4986    -4957    -4942    -4931    -4912 
   -4869    -4797    -4714    -4641    -4596    -4590    -4614    -4649 
   -4684    -4711    -4726    -4739    -4758    -4785    -4806    -4803 
   -4769    -4706    -4619    -4536    -4476    -4456    -4483    -4546 
   -4610    -4646    -4635    -4572    -4457    -4310    -4166    -4054 
   -3994    -3994    -4044    -4128    -4221    -4303    -4364    -4398 
   -4395    -4357    -4297    -4232    -4191    -4191    -4241    -4342 
   -4479    -4617    -4727    -4784    -4766    -4683    -4564    -4448 
   -4356    -4299    -4288    -4325    -4394    -4482    -4585    -4687 
   -4773    -4834    -4865    -4866    -4841    -4792    -4742    -4714 
   -4720    -4761    -4824    -4895    -4954    -4995    -5011    -5005 
   -4992    -4972    -4950    -4934    -4920    -4914    -4930    -4972 
   -5038    -5130    -5238    -5343    -5428    -5489    -5512    -5487 
   -5422    -5328    -5232    -5166    -5148    -5182    -5260    -5351 
   -5427    -5476    -5491    -5467    -5421    -5370    -5323    -5297 
   -5294    -5308    -5323    -5323    -5301    -5259    -5190    -5089 
   -4963    -4833    -4715    -4637    -4621    -4672    -4773    -4889 
   -4982    -5027    -5024    -4995    -4954    -4930    -4942    -4989 
   -5058    -5143    -5224    -5279    -5314    -5340    -5363    -5390 
   -5417    -5436    -5432    -5405    -5364    -5327    -5305    -5302 
   -5319    -5343    -5371    -5402    -5432    -5462    -5493    -5520 
   -5544    -5572    -5595    -5611    -5628    -5651    -5678    -5710 
   -5745    -5779    -5800    -5809    -5802    -5786    -5757    -5713 
   -5664    -5621    -5593    -5591    -5616    -5659    -5706    -5742 
   -5769    -5787    -5792    -5792    -5780    -5751    -5711    -5661 
   -5609    -5568    -5552    -5559    -5583    -5609    -5625    -5620 
   -5590    -5552    -5514    -5478    -5432    -5375    -5305    -5227 
   -5146    -5078    -5050    -5074    -5140    -5228    -5313    -5371 
   -5395    -5389    -5366    -5339    -5320    -5309    -5301    -5289 
   -5271    -5246    -5227    -5225    -5242    -5274    -5309    -5339 
   -5364    -5390    -5424    -5468    -5526    -5594    -5668    -5741 
   -5795    -5825    -5840    -5850    -5864    -5884    -5910    -5927 
   -5923    -5886    -5818    -5742    -5670    -5610    -5571    -5537 
   -5483    -5402    -5310    -5224    -5154    -5115    -5115    -5154 
   -5224    -5316    -5401    -5454    -5462    -5427    -5351    -5252 
   -5152    -5069    -5011    -4981    -4957    -4915    -4851    -4780 
   -4715    -4671    -4654    -4666    -4684    -4699    -4715    -4726 
   -4726    -4719    -4699    -4658    -4602    -4540    -4475    -4421 
   -4384    -4365    -4361    -4375    -4407    -4461    -4521    -4579 
   -4635    -4692    -4743    -4797    -4858    -4918    -4980    -5040 
   -5090    -5131    -5163    -5193    -5215    -5227    -5225    -5209 
   -5182    -5163    -5162    -5182    -5215    -5246    -5263    -5270 
   -5260    -5225    -5174    -5124    -5084    -5061    -5062    -5088 
   -5135    -5196    -5255    -5302    -5333    -5341    -5317    -5269 
   -5208    -5136    -5063    -4995    -4932    -4885    -4851    -4828 
   -4823    -4828    -4843    -4872    -4915    -4968    -5024    -5078 
   -5123    -5154    -5179    -5196    -5202    -5198    -5170    -5111 
   -5027    -4931    -4853    -4819    -4835    -4896    -4977    -5046 
   -5090    -5115    -5123    -5124    -5119    -5101    -5066    -5012 
   -4946    -4884    -4830    -4792    -4773    -4781    -4828    -4911 
   -5012    -5117    -5211    -5273    -5298    -5285    -5225    -5124 
   -4992    -4842    -4687    -4542    -4419    -4334    -4301    -4320 
   -4388    -4491    -4598    -4687    -4762    -4835    -4916    -5011 
   -5111    -5200    -5269    -5310    -5319    -5301    -5270    -5236 
   -5215    -5221    -5258    -5320    -5406    -5509    -5625    -5741 
   -5842    -5917    -5954    -5935    -5854    -5725    -5567    -5406 
   -5267    -5154    -5063    -4990    -4923    -4857    -4807    -4776 
   -4774    -4816    -4892    -4980    -5061    -5111    -5116    -5069 
   -4976    -4860    -4742    -4639    -4569    -4529    -4506    -4488 
   -4473    -4479    -4517    -4591    -4698    -4810    -4903    -4970 
   -5017    -5043    -5057    -5069    -5086    -5113    -5146    -5175 
   -5196    -5206    -5215    -5228    -5250    -5275    -5298    -5313 
   -5317    -5316    -5313    -5301    -5282    -5259    -5233    -5217 
   -5216    -5227    -5254    -5304    -5374    -5459    -5553    -5645 
   -5719    -5776    -5811    -5827    -5832    -5825    -5810    -5792 
   -5779    -5771    -5769    -5786    -5825    -5875    -5929    -5981 
   -6016    -6018    -5983    -5919    -5845    -5778    -5738    -5726 
   -5740    -5761    -5771    -5760    -5738    -5702    -5656    -5620 
   -5601    -5602    -5622    -5674    -5759    -5868    -5988    -6107 
   -6203    -6268    -6303    -6308    -6289    -6251    -6199    -6135 
   -6072    -6008    -5942    -5883    -5834    -5796    -5787    -5805 
   -5836    -5868    -5886    -5876    -5841    -5783    -5692    -5579 
   -5467    -5366    -5290    -5256    -5271    -5323    -5394    -5471 
   -5539    -5572    -5571    -5535    -5467    -5382    -5297    -5223 
   -5162    -5117    -5100    -5104    -5132    -5182    -5240    -5285 
   -5308    -5301    -5266    -5221    -5175    -5131    -5103    -5082 
   -5065    -5051    -5034    -5016    -5004    -4986    -4959    -4920 
   -4868    -4806    -4738    -4666    -4600    -4548    -4504    -4467 
   -4441    -4426    -4414    -4398    -4372    -4333    -4278    -4218 
   -4168    -4137    -4136    -4168    -4226    -4295    -4356    -4394 
   -4413    -4432    -4459    -4502    -4550    -4583    -4595    -4596 
   -4592    -4598    -4619    -4656    -4700    -4742    -4769    -4781 
   -4784    -4784    -4795    -4823    -4866    -4923    -4988    -5044 
   -5092    -5127    -5139    -5134    -5112    -5080    -5049    -5034 
   -5042    -5069    -5100    -5124    -5131    -5109    -5069    -5027 
   -4986    -4954    -4938    -4930    -4926    -4932    -4946    -4972 
