Origin Time       2025/01/13 21:19:00
Lat.              31.8
Long.             131.6
Depth. (km)       30
Mag.              6.9
Station Code      FKOH07
Station Lat.      33.3678
Station Long.     130.6354
Station Height(m) -422
Record Time       2025/01/13 21:20:14
Sampling Freq(Hz) 100Hz
Duration Time(s)  152
Dir.              3
Scale Factor      3923(gal)/8224838
Max. Acc. (gal)   1.230
Last Correction   2025/01/13 21:20:14
Memo.             
[...]
   -3385    -3356    -3311    -3262    -3222    -3196    -3190    -3206 
   -3242    -3283    -3291    -3244    -3142    -3009    -2871    -2747 
   -2647    -2575    -2527    -2502    -2496    -2494    -2486    -2469 
   -2442    -2403    -2370    -2374    -2420    -2513    -2652    -2818 
   -2984    -3125    -3219    -3261    -3261    -3240    -3218    -3204 
   -3192    -3183    -3168    -3140    -3105    -3075    -3056    -3059 
   -3090    -3157    -3267    -3393    -3510    -3612    -3680    -3703 
   -3696    -3666    -3616    -3564    -3522    -3500    -3500    -3508 
   -3519    -3532    -3550    -3569    -3591    -3620    -3663    -3716 
   -3775    -3848    -3932    -4028    -4132    -4232    -4324    -4395 
   -4438    -4444    -4414    -4352    -4267    -4166    -4060    -3958 
   -3863    -3788    -3738    -3703    -3684    -3666    -3626    -3558 
   -3474    -3392    -3331    -3306    -3314    -3346    -3403    -3476 
   -3553    -3615    -3659    -3686    -3699    -3699    -3693    -3676 
   -3647    -3595    -3493    -3353    -3208    -3088    -3002    -2936 
   -2882    -2843    -2817    -2794    -2766    -2736    -2706    -2681 
   -2670    -2679    -2698    -2720    -2744    -2764    -2767    -2743 
   -2686    -2608    -2529    -2459    -2412    -2389    -2386    -2398 
   -2424    -2458    -2493    -2521    -2531    -2524    -2509    -2479 
   -2439    -2400    -2357    -2309    -2263    -2220    -2192    -2192 
   -2219    -2255    -2286    -2307    -2308    -2281    -2227    -2145 
   -2037    -1919    -1803    -1715    -1671    -1663    -1680    -1707 
   -1719    -1715    -1705    -1701    -1722    -1757    -1784    -1804 
   -1821    -1833    -1842    -1846    -1834    -1817    -1796    -1749 
   -1678    -1595    -1503    -1406    -1316    -1232    -1156    -1094 
   -1063    -1075    -1134    -1225    -1331    -1437    -1533    -1606 
   -1660    -1695    -1710    -1718    -1729    -1744    -1768    -1802 
   -1842    -1895    -1969    -2068    -2195    -2347    -2505    -2651 
   -2772    -2871    -2949    -3015    -3072    -3113    -3129    -3114 
   -3067    -3010    -2974    -2965    -2986    -3038    -3103    -3161 
   -3208    -3248    -3277    -3307    -3337    -3372    -3419    -3474 
   -3530    -3582    -3627    -3651    -3661    -3670    -3684    -3697 
   -3726    -3771    -3821    -3879    -3951    -4029    -4112    -4207 
   -4313    -4411    -4500    -4579    -4649    -4708    -4745    -4753 
   -4735    -4692    -4621    -4536    -4449    -4372    -4314    -4282 
   -4271    -4276    -4288    -4298    -4305    -4307    -4291    -4256 
   -4213    -4155    -4077    -3983    -3869    -3742    -3620    -3512 
   -3431    -3372    -3316    -3258    -3203    -3157    -3133    -3132 
   -3150    -3187    -3240    -3294    -3326    -3338    -3331    -3308 
   -3285    -3272    -3277    -3311    -3372    -3447    -3526    -3585 
   -3619    -3632    -3630    -3618    -3591    -3549    -3505    -3469 
   -3437    -3402    -3360    -3298    -3218    -3133    -3045    -2947 
   -2848    -2755    -2654    -2538    -2408    -2268    -2126    -2003 
   -1918    -1884    -1892    -1919    -1954    -1989    -2022    -2058 
   -2095    -2138    -2200    -2284    -2385    -2505    -2633    -2762 
   -2883    -2992    -3091    -3171    -3233    -3277    -3302    -3314 
   -3325    -3327    -3311    -3281    -3242    -3180    -3096    -3009 
   -2920    -2832    -2759    -2709    -2689    -2702    -2731    -2752 
   -2775    -2799    -2835    -2890    -2964    -3041    -3106    -3157 
   -3204    -3256    -3312    -3364    -3407    -3450    -3496    -3546 
   -3600    -3647    -3693    -3744    -3786    -3811    -3816    -3804 
   -3780    -3753    -3713    -3665    -3624    -3595    -3584    -3599 
   -3630    -3661    -3682    -3701    -3711    -3703    -3673    -3622 
   -3551    -3469    -3381    -3308    -3257    -3227    -3226    -3241 
   -3264    -3302    -3352    -3412    -3485    -3559    -3626    -3676 
   -3705    -3716    -3712    -3703    -3701    -3708    -3717    -3723 
   -3712    -3685    -3646    -3593    -3534    -3478    -3416    -3342 
   -3260    -3176    -3094    -3017    -2949    -2883    -2798    -2695 
   -2582    -2458    -2327    -2200    -2073    -1952    -1845    -1764 
   -1706    -1674    -1672    -1702    -1749    -1800    -1854    -1922 
   -2023    -2161    -2327    -2500    -2671    -2839    -3001    -3149 
   -3275    -3360    -3388    -3366    -3310    -3237    -3160    -3086 
   -3017    -2947    -2864    -2771    -2682    -2623    -2592    -2582 
   -2596    -2629    -2668    -2710    -2751    -2787    -2812    -2826 
   -2826    -2808    -2783    -2762    -2733    -2693    -2633    -2554 
   -2473    -2416    -2397    -2416    -2463    -2524    -2586    -2646 
   -2709    -2786    -2880    -2990    -3110    -3231    -3345    -3456 
   -3568    -3670    -3766    -3846    -3893    -3904    -3882    -3834 
   -3765    -3684    -3604    -3528    -3458    -3396    -3342    -3287 
   -3219    -3140    -3053    -2972    -2906    -2859    -2829    -2818 
   -2824    -2833    -2844    -2849    -2852    -2855    -2847    -2820 
   -2768    -2694    -2612    -2524    -2440    -2365    -2292    -2231 
   -2184    -2146    -2119    -2107    -2108    -2114    -2128    -2161 
   -2207    -2254    -2297    -2343    -2393    -2440    -2486    -2533 
   -2585    -2640    -2691    -2732    -2766    -2791    -2810    -2839 
   -2878    -2911    -2941    -2964    -2967    -2949    -2932    -2924 
   -2921    -2918    -2907    -2880    -2845    -2801    -2747    -2709 
   -2691    -2677    -2666    -2650    -2612    -2559    -2497    -2428 
   -2366    -2323    -2282    -2238    -2199    -2168    -2141    -2127 
   -2134    -2155    -2188    -2224    -2263    -2311    -2363    -2412 
   -2458    -2500    -2547    -2613    -2695    -2794    -2902    -3015 
   -3136    -3258    -3380    -3501    -3613    -3712    -3811    -3915 
   -4009    -4093    -4176    -4241    -4275    -4276    -4244    -4179 
   -4097    -4014    -3944    -3889    -3859    -3858    -3875    -3901 
   -3925    -3927    -3905    -3865    -3808    -3747    -3684    -3623 
   -3581    -3562    -3566    -3600    -3653    -3715    -3785    -3859 
   -3940    -4025    -4112    -4194    -4271    -4334    -4380    -4409 
   -4425    -4442    -4459    -4468    -4469    -4465    -4460    -4446 
   -4421    -4398    -4379    -4357    -4334    -4305    -4264    -4221 
   -4183    -4147    -4104    -4052    -3985    -3900    -3801    -3692 
   -3578    -3462    -3342    -3218    -3091    -2959    -2822    -2681 
   -2536    -2392    -2251    -2139    -2065    -2016    -1983    -1953 
   -1919    -1884    -1849    -1818    -1792    -1767    -1742    -1714 
   -1680    -1655    -1640    -1632    -1633    -1644    -1657    -1671 
   -1686    -1706    -1723    -1745    -1777    -1817    -1852    -1881 
   -1896    -1890    -1861    -1810    -1744    -1669    -1587    -1501 
   -1422    -1350    -1282    -1229    -1189    -1165    -1161    -1175 
   -1208    -1244    -1273    -1300    -1328    -1351    -1367    -1385 
   -1397    -1409    -1432    -1483    -1567    -1683    -1838    -2027 
   -2242    -2488    -2749    -3009    -3258    -3487    -3682    -3832 
   -3931    -3993    -4033    -4058    -4075    -4081    -4070    -4048 
   -4020    -3996    -3982    -3964    -3940    -3897    -3828    -3747 
   -3666    -3595    -3542    -3512    -3497    -3489    -3478    -3460 
   -3445    -3435    -3437    -3461    -3523    -3615    -3728    -3847 
   -3962    -4068    -4160    -4239    -4309    -4368    -4413    -4433 
   -4422    -4387    -4337    -4283    -4234    -4197    -4164    -4131 
   -4094    -4048    -3989    -3927    -3852    -3774    -3700    -3622 
   -3539    -3453    -3352    -3237    -3119    -3005    -2897    -2799 
   -2714    -2635    -2556    -2488    -2432    -2398    -2388    -2382 
   -2381    -2389    -2390    -2384    -2371    -2347    -2316    -2285 
   -2250    -2203    -2146    -2084    -2018    -1948    -1880    -1822 
   -1772    -1734    -1715    -1714    -1728    -1765    -1826    -1898 
   -1977    -2065    -2145    -2199    -2218    -2195    -2137    -2062 
   -1991    -1927    -1884    -1863    -1860    -1881    -1930    -1992 
   -2064    -2145    -2228    -2313    -2397    -2477    -2536    -2574 
   -2598    -2610    -2612    -2605    -2586    -2560    -2532    -2501 
   -2467    -2443    -2434    -2427    -2420    -2421    -2427    -2446 
   -2484    -2519    -2552    -2596    -2641    -2689    -2739    -2783 
   -2810    -2820    -2821    -2818    -2825    -2852    -2891    -2943 
   -3003    -3065    -3125    -3181    -3234    -3284    -3329    -3368 
   -3397    -3422    -3453    -3501    -3562    -3634    -3712    -3774 
   -3808    -3823    -3816    -3789    -3747    -3694    -3623    -3534 
   -3442    -3353    -3269    -3195    -3136    -3098    -3079    -3075 
   -3087    -3107    -3123    -3125    -3114    -3102    -3096    -3099 
   -3119    -3153    -3196    -3253    -3327    -3422    -3523    -3619 
   -3711    -3794    -3861    -3908    -3943    -3964    -3967    -3958 
   -3942    -3913    -3879    -3848    -3821    -3801    -3802    -3825 
   -3851    -3865    -3873    -3874    -3858    -3825    -3781    -3717 
   -3636    -3547    -3450    -3341    -3225    -3096    -2967    -2845 
   -2733    -2635    -2543    -2448    -2349    -2245    -2145    -2058 
   -1979    -1899    -1806    -1690    -1561    -1432    -1300    -1179 
   -1071     -972     -891     -849     -847     -886     -967    -1084 
   -1227    -1389    -1559    -1728    -1890    -2046    -2196    -2339 
   -2475    -2609    -2739    -2856    -2967    -3069    -3148    -3192 
   -3207    -3195    -3161    -3118    -3069    -3022    -2971    -2910 
   -2847    -2793    -2752    -2731    -2728    -2735    -2735    -2721 
   -2691    -2640    -2569    -2488    -2403    -2316    -2242    -2192 
   -2166    -2170    -2203    -2255    -2322    -2397    -2471    -2543 
   -2620    -2697    -2772    -2848    -2926    -3011    -3099    -3194 
   -3292    -3395    -3499    -3603    -3703    -3802    -3910    -4014 
   -4106    -4195    -4275    -4342    -4409    -4483    -4558    -4637 
   -4714    -4776    -4808    -4811    -4788    -4735    -4658    -4567 
   -4464    -4351    -4244    -4148    -4056    -3967    -3882    -3801 
   -3727    -3663    -3608    -3553    -3485    -3393    -3279    -3132 
   -2957    -2772    -2583    -2394    -2220    -2065    -1918    -1777 
   -1638    -1506    -1382    -1267    -1167    -1084    -1023     -993 
    -988    -1007    -1058    -1127    -1209    -1304    -1393    -1476 
   -1556    -1629    -1696    -1763    -1821    -1871    -1914    -1960 
   -2002    -2049    -2115    -2195    -2280    -2376    -2473    -2558 
   -2628    -2683    -2717    -2747    -2778    -2802    -2829    -2866 
   -2891    -2905    -2907    -2899    -2880    -2862    -2848    -2843 
   -2847    -2859    -2867    -2874    -2882    -2893    -2911    -2938 
   -2978    -3034    -3106    -3195    -3300    -3408    -3511    -3596 
   -3649    -3673    -3677    -3657    -3620    -3591    -3577    -3574 
   -3582    -3605    -3624    -3628    -3616    -3584    -3534    -3476 
   -3404    -3318    -3221    -3115    -3010    -2918    -2847    -2798 
   -2782    -2790    -2816    -2859    -2910    -2964    -3024    -3090 
   -3160    -3241    -3337    -3447    -3569    -3703    -3840    -3967 
   -4089    -4202    -4299    -4379    -4448    -4504    -4554    -4600 
   -4637    -4665    -4700    -4739    -4781    -4820    -4846    -4849 
   -4831    -4808    -4787    -4766    -4750    -4745    -4743    -4726 
   -4688    -4633    -4561    -4487    -4414    -4344    -4279    -4218 
   -4156    -4090    -4018    -3939    -3844    -3736    -3616    -3483 
   -3345    -3206    -3064    -2933    -2818    -2716    -2629    -2554 
   -2473    -2385    -2288    -2189    -2093    -1999    -1914    -1842 
   -1776    -1718    -1678    -1657    -1657    -1680    -1715    -1759 
   -1811    -1864    -1903    -1927    -1937    -1930    -1918    -1900 
   -1880    -1864    -1849    -1838    -1822    -1791    -1752    -1705 
   -1653    -1614    -1587    -1572    -1570    -1571    -1571    -1575 
   -1579    -1574    -1563    -1548    -1529    -1507    -1489    -1475 
   -1464    -1460    -1470    -1475    -1483    -1509    -1549    -1595 
   -1651    -1717    -1794    -1888    -1993    -2107    -2227    -2338 
   -2438    -2529    -2606    -2679    -2756    -2833    -2911    -2994 
   -3084    -3176    -3256    -3323    -3384    -3434    -3469    -3493 
   -3512    -3520    -3522    -3534    -3559    -3596    -3649    -3715 
   -3785    -3863    -3951    -4033    -4112    -4191    -4264    -4333 
   -4398    -4452    -4491    -4514    -4515    -4507    -4492    -4471 
   -4446    -4410    -4368    -4320    -4259    -4199    -4147    -4093 
   -4055    -4036    -4014    -3977    -3927    -3865    -3804    -3746 
   -3689    -3640    -3597    -3551    -3496    -3420    -3333    -3245 
   -3154    -3068    -2995    -2934    -2894    -2880    -2891    -2932 
   -3005    -3098    -3203    -3302    -3387    -3464    -3528    -3586 
   -3638    -3682    -3719    -3736    -3730    -3699    -3642    -3568 
   -3487    -3393    -3277    -3154    -3029    -2883    -2721    -2563 
   -2407    -2249    -2099    -1952    -1800    -1645    -1486    -1320 
   -1159    -1009     -873     -747     -639     -552     -479     -425 
    -403     -409     -423     -454     -511     -585     -680     -803 
    -947    -1111    -1287    -1482    -1690    -1895    -2089    -2265 
   -2415    -2543    -2652    -2741    -2814    -2876    -2929    -2968 
   -2997    -3015    -3013    -2987    -2943    -2876    -2791    -2691 
   -2586    -2482    -2381    -2281    -2193    -2115    -2034    -1968 
   -1915    -1869    -1848    -1848    -1854    -1869    -1885    -1899 
   -1904    -1895    -1879    -1844    -1800    -1764    -1740    -1741 
   -1777    -1840    -1937    -2065    -2218    -2389    -2575    -2760 
   -2933    -3092    -3225    -3331    -3416    -3481    -3524    -3553 
   -3581    -3618    -3661    -3723    -3804    -3892    -3987    -4095 
   -4210    -4324    -4441    -4564    -4688    -4807    -4923    -5020 
   -5096    -5155    -5197    -5215    -5215    -5197    -5162    -5111 
   -5059    -5015    -4968    -4916    -4870    -4823    -4769    -4706 
   -4644    -4587    -4527    -4455    -4372    -4287    -4209    -4141 
   -4086    -4043    -4000    -3944    -3882    -3817    -3746    -3676 
   -3613    -3554    -3501    -3449    -3392    -3330    -3273    -3223 
   -3177    -3136    -3087    -3037    -2988    -2938    -2889    -2840 
   -2789    -2731    -2675    -2623    -2578    -2546    -2520    -2498 
   -2489    -2488    -2490    -2500    -2515    -2533    -2555    -2573 
   -2589    -2608    -2628    -2648    -2667    -2682    -2683    -2668 
   -2652    -2641    -2631    -2627    -2635    -2647    -2664    -2698 
   -2745    -2809    -2890    -2982    -3079    -3183    -3281    -3375 
   -3461    -3526    -3568    -3595    -3605    -3604    -3611    -3630 
   -3650    -3672    -3697    -3719    -3731    -3743    -3753    -3753 
   -3744    -3736    -3723    -3699    -3672    -3651    -3639    -3642 
   -3655    -3665    -3666    -3657    -3634    -3599    -3555    -3511 
   -3465    -3420    -3380    -3342    -3299    -3256    -3219    -3187 
   -3163    -3150    -3140    -3129    -3123    -3121    -3123    -3137 
   -3161    -3198    -3230    -3246    -3260    -3275    -3276    -3268 
   -3246    -3203    -3138    -3059    -2961    -2859    -2760    -2666 
   -2577    -2494    -2423    -2366    -2316    -2282    -2269    -2268 
   -2282    -2320    -2378    -2452    -2536    -2629    -2727    -2817 
   -2909    -3005    -3100    -3198    -3303    -3415    -3534    -3662 
   -3792    -3919    -4044    -4172    -4293    -4402    -4494    -4563 
   -4617    -4649    -4656    -4641    -4608    -4552    -4479    -4394 
   -4293    -4179    -4048    -3897    -3730    -3547    -3360    -3171 
   -2978    -2793    -2624    -2473    -2344    -2228    -2130    -2060 
   -1996    -1933    -1888    -1865    -1853    -1850    -1867    -1883 
   -1895    -1911    -1922    -1931    -1949    -1969    -1991    -2031 
   -2081    -2135    -2196    -2268    -2358    -2459    -2555    -2656 
   -2759    -2851    -2934    -3011    -3071    -3115    -3146    -3156 
   -3152    -3140    -3117    -3084    -3046    -3002    -2955    -2907 
   -2867    -2837    -2814    -2790    -2771    -2756    -2740    -2727 
   -2717    -2714    -2725    -2747    -2778    -2820    -2860    -2897 
   -2930    -2956    -2971    -2984    -2997    -3007    -3024    -3037 
   -3045    -3052    -3055    -3053    -3052    -3057    -3073    -3105 
   -3153    -3213    -3284    -3364    -3445    -3524    -3604    -3685 
   -3774    -3865    -3952    -4041    -4122    -4187    -4237    -4270 
   -4278    -4264    -4234    -4190    -4137    -4082    -4025    -3973 
   -3924    -3871    -3809    -3743    -3672    -3593    -3507    -3412 
   -3315    -3218    -3127    -3052    -2990    -2947    -2905    -2853 
   -2806    -2760    -2704    -2650    -2598    -2532    -2454    -2376 
   -2296    -2211    -2124    -2047    -1980    -1923    -1880    -1856 
   -1853    -1864    -1884    -1919    -1966    -2020    -2081    -2150 
   -2231    -2323    -2416    -2513    -2608    -2691    -2764    -2825 
   -2872    -2911    -2937    -2952    -2961    -2961    -2957    -2955 
   -2943    -2914    -2883    -2851    -2809    -2764    -2720    -2670 
   -2617    -2565    -2520    -2482    -2444    -2419    -2409    -2405 
   -2404    -2400    -2394    -2382    -2362    -2336    -2305    -2270 
   -2231    -2185    -2139    -2088    -2035    -1983    -1927    -1867 
   -1810    -1757    -1703    -1664    -1641    -1626    -1617    -1629 
   -1663    -1710    -1772    -1852    -1944    -2045    -2150    -2258 
   -2362    -2458    -2548    -2631    -2697    -2760    -2825    -2889 
   -2956    -3022    -3087    -3154    -3218    -3276    -3339    -3410 
   -3472    -3524    -3576    -3618    -3658    -3699    -3738    -3782 
   -3828    -3871    -3915    -3952    -3978    -4000    -4021    -4036 
   -4048    -4070    -4095    -4129    -4171    -4206    -4233    -4261 
   -4286    -4307    -4340    -4372    -4386    -4391    -4398    -4396 
   -4390    -4387    -4380    -4368    -4357    -4340    -4306    -4263 
   -4214    -4158    -4095    -4032    -3975    -3915    -3848    -3786 
   -3726    -3665    -3605    -3551    -3496    -3427    -3350    -3268 
   -3177    -3083    -3001    -2932    -2857    -2783    -2720    -2655 
   -2590    -2523    -2450    -2385    -2332    -2284    -2245    -2215 
   -2187    -2166    -2154    -2147    -2153    -2164    -2174    -2181 
   -2187    -2191    -2189    -2180    -2169    -2160    -2146    -2131 
   -2126    -2133    -2154    -2193    -2249    -2316    -2388    -2461 
   -2531    -2592    -2641    -2677    -2700    -2710    -2702    -2687 
   -2677    -2656    -2624    -2605    -2600    -2579    -2556    -2560 
   -2570    -2574    -2601    -2641    -2678    -2735    -2814    -2894 
   -2970    -3056    -3146    -3229    -3316    -3411    -3499    -3581 
   -3666    -3747    -3823    -3894    -3964    -4031    -4093    -4149 
