Origin Time       2025/01/13 21:19:00
Lat.              31.8
Long.             131.6
Depth. (km)       30
Mag.              6.9
Station Code      FKOH01
Station Lat.      33.8849
Station Long.     130.9798
Station Height(m) -185
Record Time       2025/01/13 21:20:12
Sampling Freq(Hz) 100Hz
Duration Time(s)  120
Dir.              3
Scale Factor      2942(gal)/8224139
Max. Acc. (gal)   0.641
Last Correction   2025/01/13 21:20:13
Memo.             
[...]
   43021    42971    42927    42888    42846    42800    42757    42719 
   42691    42658    42626    42601    42579    42550    42518    42481 
   42442    42403    42371    42345    42326    42319    42318    42310 
   42298    42288    42287    42298    42314    42329    42338    42353 
   42377    42404    42437    42475    42500    42508    42511    42525 
   42557    42599    42645    42695    42739    42777    42816    42858 
   42896    42931    42962    42988    43008    43021    43038    43056 
   43069    43071    43069    43054    43023    42996    42979    42974 
   42969    42955    42940    42924    42905    42884    42861    42839 
   42822    42807    42792    42774    42755    42735    42720    42714 
   42704    42682    42651    42624    42601    42579    42557    42538 
   42527    42522    42511    42495    42477    42461    42464    42483 
   42507    42527    42549    42577    42603    42618    42634    42655 
   42666    42662    42658    42651    42633    42606    42583    42560 
   42538    42519    42510    42519    42541    42558    42566    42580 
   42600    42630    42674    42730    42800    42881    42959    43021 
   43079    43143    43214    43291    43370    43444    43505    43544 
   43565    43586    43600    43591    43568    43540    43497    43436 
   43372    43316    43263    43213    43163    43098    43032    42982 
   42932    42865    42797    42742    42691    42639    42604    42579 
   42554    42527    42498    42465    42437    42411    42384    42371 
   42369    42372    42385    42410    42435    42461    42496    42539 
   42592    42645    42696    42750    42801    42844    42889    42936 
   42990    43050    43121    43209    43298    43376    43456    43537 
   43610    43672    43715    43746    43764    43764    43753    43734 
   43696    43645    43592    43534    43470    43406    43339    43270 
   43210    43160    43123    43094    43070    43063    43081    43094 
   43096    43100    43100    43097    43101    43112    43128    43143 
   43156    43174    43193    43209    43224    43225    43214    43205 
   43195    43178    43151    43117    43077    43036    42986    42930 
   42873    42820    42773    42735    42704    42672    42631    42579 
   42525    42477    42433    42388    42353    42333    42323    42317 
   42310    42306    42303    42310    42323    42340    42367    42406 
   42441    42469    42499    42533    42570    42610    42643    42670 
   42709    42765    42824    42882    42935    42978    43021    43066 
   43106    43135    43150    43155    43146    43123    43089    43040 
   42988    42936    42876    42808    42750    42696    42646    42606 
   42562    42515    42464    42415    42367    42314    42264    42222 
   42190    42160    42138    42128    42124    42122    42134    42168 
   42207    42245    42284    42326    42372    42419    42472    42535 
   42595    42646    42703    42773    42846    42916    42981    43032 
   43059    43067    43074    43085    43098    43114    43132    43146 
   43150    43137    43119    43098    43083    43067    43047    43032 
   43023    43008    42994    42989    42994    43006    43020    43028 
   43024    43001    42961    42912    42871    42834    42795    42766 
   42742    42714    42682    42651    42622    42599    42589    42591 
   42587    42580    42579    42585    42604    42641    42695    42746 
   42788    42828    42865    42889    42900    42897    42897    42901 
   42903    42904    42898    42877    42842    42804    42773    42745 
   42714    42688    42668    42661    42666    42681    42705    42731 
   42754    42774    42795    42817    42836    42853    42870    42882 
   42886    42900    42923    42940    42957    42974    42985    42986 
   42992    42998    43004    43015    43038    43066    43090    43110 
   43132    43159    43189    43214    43228    43231    43221    43212 
   43220    43232    43243    43260    43279    43287    43298    43324 
   43357    43395    43428    43449    43464    43471    43471    43464 
   43448    43422    43395    43370    43337    43299    43264    43225 
   43190    43166    43146    43128    43113    43092    43063    43032 
   43013    42998    42982    42969    42955    42940    42932    42931 
   42934    42947    42965    42985    43009    43028    43042    43054 
   43059    43063    43063    43059    43042    43013    42978    42940 
   42900    42855    42811    42759    42708    42664    42627    42606 
   42595    42577    42547    42514    42479    42444    42410    42379 
   42356    42331    42300    42256    42199    42142    42090    42045 
   42012    41978    41945    41916    41882    41848    41821    41801 
   41782    41775    41782    41793    41805    41827    41860    41893 
   41922    41962    42012    42071    42141    42209    42268    42326 
   42383    42438    42500    42583    42684    42795    42909    43023 
   43127    43217    43302    43382    43448    43505    43556    43606 
   43654    43691    43726    43764    43795    43821    43846    43865 
   43879    43887    43885    43876    43869    43868    43875    43893 
   43914    43934    43960    43985    44014    44046    44077    44115 
   44154    44178    44192    44203    44211    44223    44247    44273 
   44297    44317    44334    44344    44342    44323    44298    44273 
   44251    44231    44209    44190    44169    44142    44128    44123 
   44112    44096    44077    44054    44024    43995    43972    43951 
   43922    43888    43854    43818    43784    43762    43750    43741 
   43731    43719    43700    43675    43645    43611    43576    43534 
   43475    43410    43348    43286    43222    43166    43119    43073 
   43025    42985    42948    42919    42903    42900    42907    42925 
   42958    43005    43054    43104    43162    43222    43274    43318 
   43357    43376    43374    43367    43356    43343    43337    43333 
   43320    43301    43276    43240    43189    43132    43071    43008 
   42952    42911    42867    42823    42790    42766    42742    42724 
   42707    42687    42664    42639    42619    42607    42606    42604 
   42600    42610    42628    42647    42665    42684    42704    42730 
   42757    42778    42799    42824    42865    42923    42989    43054 
   43116    43170    43209    43245    43287    43322    43347    43363 
   43370    43366    43355    43336    43302    43255    43191    43119 
   43047    42979    42911    42842    42768    42678    42584    42492 
   42406    42325    42240    42161    42099    42043    41989    41949 
   41922    41912    41924    41953    41994    42034    42075    42122 
   42176    42240    42323    42419    42520    42624    42726    42827 
   42932    43031    43131    43236    43333    43417    43488    43548 
   43594    43623    43637    43642    43648    43653    43654    43652 
   43649    43640    43619    43600    43582    43555    43518    43479 
   43441    43401    43356    43312    43268    43229    43191    43154 
   43116    43077    43033    42997    42971    42952    42944    42946 
   42948    42957    42978    43015    43066    43120    43177    43241 
   43310    43380    43452    43517    43576    43630    43672    43699 
   43717    43729    43727    43711    43686    43645    43588    43525 
   43461    43394    43328    43258    43183    43114    43050    42985 
   42917    42851    42784    42716    42657    42606    42552    42502 
   42466    42434    42394    42348    42300    42255    42202    42140 
   42082    42025    41968    41918    41874    41833    41800    41760 
   41720    41689    41666    41650    41639    41635    41639    41647 
   41658    41667    41673    41674    41670    41662    41665    41677 
   41692    41698    41697    41688    41673    41658    41642    41617 
   41592    41573    41561    41565    41584    41613    41642    41665 
   41682    41702    41720    41733    41748    41764    41786    41813 
   41848    41895    41947    42001    42056    42103    42141    42179 
   42221    42268    42323    42385    42444    42495    42542    42595 
   42655    42720    42790    42859    42921    42977    43025    43067 
   43102    43135    43167    43202    43240    43285    43333    43384 
   43436    43478    43513    43548    43578    43610    43650    43698 
   43749    43807    43872    43941    44008    44069    44124    44170 
   44205    44238    44275    44316    44359    44404    44439    44464 
   44482    44489    44493    44497    44491    44477    44450    44405 
   44356    44313    44270    44231    44197    44165    44128    44084 
   44035    43992    43958    43920    43885    43861    43841    43822 
   43807    43796    43784    43769    43764    43771    43787    43818 
   43853    43888    43929    43978    44032    44081    44120    44149 
   44158    44150    44131    44107    44086    44082    44081    44073 
   44059    44038    44005    43968    43926    43876    43822    43757 
   43679    43588    43488    43376    43263    43156    43056    42977 
   42916    42859    42803    42745    42676    42596    42508    42412 
   42317    42237    42174    42124    42087    42048    42006    41966 
   41921    41882    41848    41817    41793    41781    41769    41754 
   41731    41702    41670    41639    41616    41598    41578    41555 
   41530    41499    41463    41435    41419    41401    41377    41361 
   41354    41357    41365    41374    41389    41401    41411    41423 
   41435    41440    41447    41459    41478    41508    41550    41594 
   41638    41683    41729    41773    41816    41858    41904    41959 
   42028    42107    42195    42291    42395    42506    42620    42730 
   42820    42892    42959    43024    43086    43151    43213    43276 
   43343    43410    43467    43515    43559    43591    43607    43610 
   43605    43595    43590    43590    43588    43590    43596    43594 
   43580    43567    43548    43514    43475    43432    43376    43308 
   43239    43179    43128    43081    43036    42997    42961    42924 
   42877    42820    42762    42700    42642    42596    42554    42510 
   42471    42439    42419    42412    42412    42417    42415    42410 
   42410    42412    42418    42433    42454    42484    42525    42569 
   42603    42634    42668    42699    42731    42765    42789    42804 
   42815    42820    42817    42813    42819    42830    42842    42865 
   42898    42934    42970    43006    43040    43071    43101    43131 
   43162    43189    43213    43243    43282    43325    43370    43414 
   43456    43490    43507    43522    43546    43573    43600    43630 
   43660    43696    43735    43773    43816    43862    43907    43947 
   43977    44000    44019    44027    44019    44003    43984    43960 
   43926    43888    43852    43819    43781    43741    43706    43671 
   43627    43587    43553    43515    43476    43441    43409    43390 
   43379    43371    43374    43390    43417    43452    43491    43533 
   43580    43629    43672    43704    43730    43746    43761    43781 
   43806    43834    43876    43927    43981    44041    44111    44182 
   44244    44302    44355    44398    44437    44464    44474    44475 
   44481    44485    44482    44474    44463    44446    44425    44406 
   44386    44361    44325    44285    44243    44201    44158    44116 
   44070    44011    43947    43885    43815    43742    43673    43603 
   43537    43479    43421    43362    43299    43232    43155    43075 
   42990    42896    42804    42716    42628    42545    42464    42381 
   42300    42225    42161    42110    42066    42032    42002    41972 
   41951    41939    41925    41910    41899    41894    41885    41871 
   41858    41843    41827    41816    41818    41837    41871    41906 
   41940    41968    41986    41994    42002    42018    42037    42055 
   42072    42095    42124    42151    42167    42175    42186    42196 
   42201    42213    42237    42265    42304    42353    42394    42431 
   42473    42507    42541    42576    42608    42642    42677    42708 
   42731    42746    42750    42751    42759    42769    42778    42796 
   42823    42850    42870    42888    42900    42896    42886    42885 
   42889    42900    42931    42975    43025    43081    43133    43175 
   43208    43225    43231    43227    43214    43197    43182    43173 
   43168    43164    43159    43158    43159    43162    43163    43164 
   43168    43171    43171    43167    43160    43151    43135    43113 
   43090    43063    43038    43019    42996    42963    42932    42900 
   42867    42843    42828    42815    42801    42789    42777    42770 
   42780    42799    42819    42843    42874    42915    42963    43019 
   43079    43143    43204    43249    43274    43289    43298    43302 
   43299    43293    43294    43301    43305    43310    43309    43297 
   43279    43255    43228    43204    43181    43159    43144    43135 
   43124    43120    43117    43105    43094    43092    43086    43083 
   43092    43101    43102    43100    43097    43093    43085    43081 
   43077    43067    43062    43063    43067    43067    43063    43062 
   43062    43058    43051    43043    43029    43013    42993    42963 
   42921    42876    42826    42766    42701    42635    42564    42489 
   42415    42333    42248    42163    42070    41968    41878    41793 
   41710    41636    41561    41482    41413    41355    41305    41264 
   41226    41193    41173    41160    41156    41164    41180    41207 
   41250    41301    41364    41440    41523    41609    41702    41797 
   41890    41983    42079    42178    42279    42384    42495    42604 
   42715    42822    42924    43032    43143    43254    43364    43472 
   43569    43667    43754    43827    43891    43951    44004    44046 
   44082    44115    44132    44142    44153    44170    44182    44188 
   44190    44188    44167    44134    44088    44031    43964    43895 
   43833    43773    43722    43681    43649    43623    43611    43609 
   43609    43606    43592    43569    43536    43490    43438    43386 
   43340    43310    43289    43276    43275    43275    43268    43254 
   43220    43170    43113    43056    43002    42957    42923    42892 
   42859    42835    42820    42813    42816    42830    42857    42894 
   42946    43002    43054    43104    43158    43208    43251    43286 
   43305    43317    43329    43332    43324    43312    43294    43270 
   43237    43205    43170    43127    43074    43011    42940    42871 
   42807    42751    42708    42668    42633    42601    42573    42550 
   42535    42525    42514    42507    42508    42518    42534    42554 
   42566    42570    42561    42543    42522    42493    42464    42425 
   42381    42342    42307    42271    42238    42207    42174    42140 
   42110    42080    42047    42018    42001    41985    41968    41956 
   41940    41920    41908    41908    41908    41905    41905    41910 
   41920    41935    41953    41972    41989    42013    42039    42060 
   42083    42111    42142    42171    42196    42223    42249    42273 
   42303    42337    42369    42400    42425    42453    42498    42542 
   42584    42627    42668    42703    42745    42790    42839    42893 
   42951    43008    43062    43114    43167    43214    43258    43295 
   43330    43371    43413    43449    43480    43510    43538    43571 
   43606    43636    43659    43680    43695    43703    43708    43706 
   43700    43686    43659    43623    43590    43564    43553    43557 
   43567    43578    43587    43587    43580    43572    43563    43553 
   43546    43541    43538    43538    43529    43519    43514    43509 
   43503    43498    43488    43475    43456    43432    43406    43378 
   43344    43299    43244    43183    43119    43048    42981    42915 
   42843    42772    42701    42633    42565    42506    42458    42425 
   42404    42394    42394    42410    42431    42457    42489    42531 
   42587    42647    42703    42753    42796    42835    42877    42916 
   42947    42970    42981    42984    42986    42990    42994    42997 
   43000    43002    43002    42997    42992    42984    42975    42970 
   42966    42962    42959    42951    42934    42917    42898    42877 
   42861    42851    42846    42847    42857    42878    42901    42920 
   42938    42944    42942    42935    42916    42878    42835    42792 
   42749    42705    42668    42639    42608    42579    42547    42506 
   42454    42400    42353    42317    42286    42259    42236    42215 
   42202    42192    42180    42178    42176    42169    42164    42160 
   42156    42163    42178    42196    42225    42264    42303    42344 
   42384    42425    42468    42508    42549    42592    42639    42687 
   42731    42780    42831    42885    42942    43000    43062    43135 
   43205    43267    43329    43387    43434    43478    43518    43557 
   43598    43642    43681    43714    43748    43784    43819    43846 
   43864    43869    43853    43827    43802    43776    43745    43714 
   43684    43646    43599    43542    43482    43413    43333    43245 
   43150    43052    42958    42863    42768    42677    42591    42510 
   42434    42363    42299    42248    42207    42172    42152    42148 
   42152    42161    42179    42202    42229    42260    42296    42336 
   42383    42431    42481    42539    42600    42658    42714    42770 
   42819    42855    42882    42909    42934    42950    42958    42959 
   42951    42938    42921    42908    42893    42876    42862    42850 
   42838    42830    42824    42824    42836    42857    42884    42915 
   42942    42965    42985    43006    43033    43065    43104    43154 
   43205    43254    43303    43355    43398    43433    43455    43460 
   43455    43440    43418    43390    43355    43317    43286    43259 
   43228    43194    43163    43125    43079    43029    42981    42932 
   42884    42844    42812    42778    42755    42739    42723    42708 
   42707    42714    42726    42746    42781    42827    42871    42916 
   42963    43013    43067    43128    43198    43276    43353    43432 
   43514    43595    43667    43729    43785    43834    43868    43891 
   43907    43906    43883    43849    43807    43749    43686    43627 
   43569    43503    43434    43364    43283    43193    43101    43009 
   42920    42836    42759    42688    42622    42562    42511    42460 
   42411    42369    42334    42307    42294    42294    42304    42322 
   42340    42356    42375    42395    42411    42425    42438    42448 
   42449    42449    42452    42457    42464    42468    42466    42473 
   42485    42495    42507    42526    42547    42572    42606    42643 
   42676    42712    42751    42784    42817    42853    42874    42892 
   42905    42907    42900    42892    42880    42857    42824    42781 
   42726    42668    42614    42562    42511    42462    42419    42385 
   42356    42331    42321    42319    42322    42337    42361    42394 
   42437    42484    42534    42587    42641    42682    42712    42732 
   42745    42751    42750    42742    42734    42723    42709    42700 
   42688    42672    42651    42633    42618    42610    42608    42612 
   42620    42630    42645    42668    42696    42735    42782    42836 
