Origin Time       2025/01/13 21:19:00
Lat.              31.8
Long.             131.6
Depth. (km)       30
Mag.              6.9
Station Code      FKOH04
Station Lat.      33.5512
Station Long.     130.7451
Station Height(m) 60
Record Time       2025/01/13 21:20:04
Sampling Freq(Hz) 100Hz
Duration Time(s)  159
Dir.              5
Scale Factor      7845(gal)/8223790
Max. Acc. (gal)   2.349
Last Correction   2025/01/13 21:20:05
Memo.             
[...]
   -5252    -5204    -5142    -5078    -5031    -5022    -5065    -5140 
   -5224    -5313    -5400    -5462    -5475    -5414    -5277    -5093 
   -4895    -4704    -4561    -4494    -4495    -4545    -4615    -4675 
   -4737    -4818    -4904    -4974    -5026    -5039    -4995    -4895 
   -4747    -4587    -4463    -4395    -4375    -4387    -4421    -4473 
   -4545    -4627    -4691    -4725    -4750    -4788    -4853    -4951 
   -5069    -5189    -5298    -5381    -5437    -5487    -5540    -5583 
   -5587    -5525    -5401    -5248    -5092    -4938    -4783    -4627 
   -4482    -4374    -4307    -4272    -4267    -4276    -4268    -4224 
   -4139    -4028    -3931    -3878    -3870    -3882    -3898    -3921 
   -3935    -3916    -3855    -3765    -3663    -3580    -3543    -3559 
   -3636    -3778    -3960    -4151    -4333    -4502    -4671    -4837 
   -4980    -5090    -5175    -5227    -5235    -5179    -5054    -4884 
   -4702    -4527    -4386    -4298    -4291    -4371    -4509    -4658 
   -4793    -4926    -5066    -5202    -5320    -5402    -5449    -5466 
   -5441    -5362    -5236    -5086    -4934    -4804    -4698    -4617 
   -4575    -4572    -4585    -4603    -4633    -4698    -4807    -4942 
   -5058    -5128    -5154    -5130    -5046    -4896    -4691    -4477 
   -4290    -4144    -4037    -3955    -3893    -3862    -3859    -3866 
   -3874    -3886    -3900    -3904    -3893    -3869    -3839    -3804 
   -3763    -3719    -3684    -3676    -3707    -3777    -3866    -3960 
   -4068    -4193    -4310    -4401    -4469    -4525    -4575    -4627 
   -4676    -4719    -4757    -4788    -4808    -4816    -4815    -4803 
   -4770    -4708    -4606    -4464    -4297    -4117    -3946    -3805 
   -3720    -3708    -3770    -3893    -4051    -4217    -4372    -4495 
   -4545    -4514    -4436    -4342    -4251    -4168    -4106    -4074 
   -4064    -4067    -4047    -3971    -3854    -3724    -3603    -3515 
   -3472    -3470    -3519    -3620    -3751    -3875    -3982    -4081 
   -4171    -4243    -4302    -4359    -4423    -4509    -4604    -4706 
   -4824    -4955    -5074    -5157    -5189    -5155    -5057    -4907 
   -4706    -4479    -4282    -4144    -4071    -4064    -4113    -4210 
   -4353    -4526    -4710    -4889    -5061    -5202    -5293    -5329 
   -5313    -5254    -5166    -5070    -4978    -4896    -4841    -4824 
   -4839    -4857    -4850    -4811    -4742    -4646    -4534    -4430 
   -4355    -4328    -4359    -4429    -4523    -4653    -4806    -4954 
   -5076    -5159    -5219    -5278    -5337    -5381    -5405    -5432 
   -5481    -5549    -5613    -5653    -5670    -5645    -5568    -5443 
   -5274    -5090    -4922    -4777    -4664    -4592    -4576    -4634 
   -4758    -4908    -5044    -5151    -5223    -5248    -5217    -5138 
   -5032    -4926    -4833    -4753    -4684    -4639    -4622    -4622 
   -4627    -4625    -4617    -4599    -4561    -4494    -4392    -4271 
   -4151    -4033    -3940    -3892    -3894    -3942    -4008    -4059 
   -4089    -4116    -4145    -4179    -4209    -4222    -4224    -4233 
   -4236    -4212    -4158    -4087    -4020    -3966    -3919    -3875 
   -3836    -3802    -3782    -3767    -3750    -3750    -3784    -3834 
   -3863    -3855    -3821    -3773    -3721    -3678    -3655    -3682 
   -3771    -3906    -4064    -4221    -4372    -4522    -4671    -4819 
   -4972    -5132    -5297    -5441    -5532    -5549    -5518    -5460 
   -5367    -5248    -5131    -5035    -4969    -4939    -4930    -4922 
   -4911    -4888    -4830    -4726    -4596    -4464    -4348    -4268 
   -4225    -4222    -4283    -4395    -4518    -4625    -4689    -4711 
   -4706    -4680    -4631    -4579    -4541    -4517    -4500    -4490 
   -4477    -4473    -4488    -4504    -4507    -4509    -4523    -4553 
   -4592    -4629    -4661    -4710    -4776    -4834    -4862    -4857 
   -4833    -4804    -4784    -4779    -4800    -4854    -4916    -4950 
   -4938    -4889    -4818    -4723    -4614    -4494    -4375    -4278 
   -4217    -4167    -4101    -4020    -3944    -3885    -3852    -3843 
   -3851    -3885    -3943    -4005    -4063    -4122    -4186    -4257 
   -4328    -4382    -4418    -4437    -4437    -4406    -4334    -4243 
   -4158    -4094    -4052    -4032    -4040    -4074    -4114    -4141 
   -4136    -4098    -4055    -4031    -4031    -4058    -4118    -4216 
   -4336    -4446    -4538    -4617    -4673    -4700    -4714    -4730 
   -4760    -4816    -4900    -4963    -4988    -4996    -4989    -4954 
   -4893    -4816    -4741    -4685    -4653    -4638    -4641    -4672 
   -4731    -4806    -4880    -4946    -5001    -5055    -5097    -5116 
   -5121    -5138    -5159    -5159    -5119    -5039    -4930    -4801 
   -4668    -4552    -4488    -4498    -4581    -4730    -4919    -5121 
   -5325    -5506    -5643    -5711    -5714    -5655    -5533    -5340 
   -5067    -4737    -4384    -4039    -3720    -3460    -3287    -3215 
   -3245    -3350    -3492    -3646    -3794    -3908    -3970    -3977 
   -3921    -3817    -3673    -3478    -3250    -3041    -2878    -2772 
   -2733    -2752    -2829    -2972    -3159    -3354    -3554    -3774 
   -4012    -4263    -4525    -4791    -5047    -5283    -5485    -5640 
   -5753    -5845    -5922    -5975    -5998    -5996    -5973    -5915 
   -5817    -5687    -5548    -5439    -5389    -5405    -5478    -5594 
   -5729    -5848    -5911    -5892    -5791    -5630    -5439    -5224 
   -4988    -4743    -4513    -4295    -4066    -3820    -3593    -3419 
   -3318    -3289    -3334    -3457    -3665    -3936    -4220    -4457 
   -4623    -4710    -4718    -4665    -4580    -4499    -4450    -4430 
   -4425    -4429    -4442    -4471    -4534    -4626    -4716    -4799 
   -4870    -4907    -4887    -4795    -4638    -4455    -4287    -4144 
   -4044    -4010    -4052    -4153    -4279    -4401    -4496    -4565 
   -4604    -4615    -4607    -4606    -4629    -4675    -4729    -4768 
   -4783    -4769    -4731    -4679    -4618    -4579    -4595    -4673 
   -4806    -4981    -5178    -5367    -5526    -5629    -5652    -5613 
   -5529    -5406    -5239    -5019    -4762    -4500    -4247    -4023 
   -3862    -3793    -3825    -3954    -4143    -4341    -4529    -4699 
   -4839    -4947    -5022    -5065    -5090    -5104    -5096    -5054 
   -4976    -4878    -4766    -4639    -4503    -4376    -4286    -4240 
   -4232    -4239    -4261    -4326    -4432    -4564    -4710    -4860 
   -5015    -5161    -5269    -5328    -5341    -5308    -5228    -5115 
   -4982    -4838    -4693    -4554    -4411    -4270    -4148    -4064 
   -4033    -4064    -4152    -4294    -4483    -4698    -4905    -5085 
   -5212    -5278    -5293    -5256    -5171    -5062    -4951    -4842 
   -4723    -4581    -4413    -4228    -4045    -3866    -3690    -3539 
   -3447    -3434    -3493    -3612    -3785    -4016    -4286    -4563 
   -4814    -5023    -5194    -5335    -5433    -5487    -5513    -5530 
   -5539    -5522    -5472    -5397    -5321    -5263    -5225    -5197 
   -5165    -5121    -5074    -5028    -4980    -4938    -4919    -4931 
   -4965    -5013    -5078    -5154    -5224    -5265    -5270    -5255 
   -5243    -5255    -5304    -5364    -5428    -5501    -5566    -5591 
   -5562    -5478    -5362    -5228    -5077    -4919    -4780    -4693 
   -4657    -4653    -4665    -4692    -4731    -4772    -4781    -4731 
   -4614    -4442    -4233    -4001    -3773    -3584    -3458    -3399 
   -3399    -3438    -3510    -3611    -3717    -3798    -3839    -3835 
   -3788    -3699    -3570    -3418    -3275    -3177    -3145    -3181 
   -3275    -3418    -3603    -3800    -3978    -4114    -4205    -4268 
   -4318    -4357    -4380    -4396    -4414    -4423    -4421    -4421 
   -4442    -4499    -4594    -4708    -4814    -4896    -4946    -4941 
   -4870    -4752    -4621    -4507    -4426    -4380    -4363    -4384 
   -4446    -4531    -4606    -4656    -4695    -4737    -4773    -4797 
   -4804    -4799    -4776    -4715    -4606    -4460    -4328    -4248 
   -4233    -4283    -4396    -4571    -4791    -5024    -5232    -5398 
   -5520    -5599    -5647    -5663    -5644    -5601    -5547    -5476 
   -5383    -5289    -5232    -5224    -5255    -5300    -5339    -5371 
   -5397    -5401    -5375    -5314    -5232    -5148    -5073    -5000 
   -4942    -4912    -4900    -4887    -4849    -4773    -4681    -4590 
   -4487    -4378    -4280    -4212    -4185    -4186    -4183    -4164 
   -4143    -4125    -4102    -4067    -4023    -3977    -3921    -3838 
   -3712    -3558    -3419    -3325    -3287    -3314    -3412    -3584 
   -3817    -4068    -4290    -4452    -4548    -4576    -4544    -4463 
   -4356    -4253    -4174    -4120    -4102    -4155    -4297    -4509 
   -4777    -5077    -5374    -5653    -5887    -6037    -6083    -6027 
   -5895    -5710    -5476    -5193    -4885    -4572    -4249    -3917 
   -3580    -3253    -2959    -2712    -2512    -2367    -2297    -2323 
   -2435    -2609    -2825    -3071    -3337    -3592    -3801    -3950 
   -4043    -4101    -4129    -4125    -4089    -4024    -3939    -3866 
   -3817    -3804    -3850    -3969    -4148    -4353    -4554    -4746 
   -4918    -5049    -5127    -5166    -5200    -5260    -5348    -5440 
   -5516    -5568    -5594    -5579    -5509    -5390    -5236    -5076 
   -4941    -4839    -4779    -4772    -4816    -4899    -5001    -5112 
   -5231    -5354    -5464    -5553    -5629    -5702    -5772    -5829 
   -5856    -5849    -5821    -5783    -5730    -5645    -5528    -5386 
   -5225    -5046    -4845    -4642    -4463    -4320    -4214    -4132 
   -4062    -4009    -3974    -3937    -3886    -3831    -3792    -3777 
   -3774    -3771    -3771    -3794    -3848    -3928    -4035    -4172 
   -4353    -4581    -4841    -5104    -5350    -5566    -5718    -5769 
   -5705    -5545    -5332    -5100    -4878    -4668    -4486    -4357 
   -4287    -4255    -4239    -4243    -4271    -4315    -4368    -4422 
   -4460    -4484    -4498    -4486    -4434    -4355    -4264    -4166 
   -4063    -3948    -3831    -3746    -3720    -3748    -3831    -3979 
   -4187    -4440    -4710    -4957    -5158    -5304    -5383    -5393 
   -5323    -5174    -4963    -4703    -4395    -4059    -3723    -3416 
   -3156    -2936    -2748    -2616    -2552    -2546    -2592    -2674 
   -2775    -2891    -3017    -3132    -3237    -3352    -3489    -3647 
   -3821    -4008    -4205    -4405    -4588    -4734    -4831    -4887 
   -4919    -4930    -4911    -4849    -4749    -4631    -4518    -4419 
   -4360    -4367    -4456    -4615    -4807    -4995    -5152    -5263 
   -5323    -5321    -5255    -5157    -5063    -4993    -4953    -4930 
   -4920    -4928    -4943    -4950    -4935    -4911    -4899    -4900 
   -4891    -4855    -4792    -4696    -4571    -4422    -4260    -4118 
   -4043    -4043    -4112    -4233    -4372    -4514    -4642    -4727 
   -4745    -4708    -4660    -4630    -4635    -4680    -4761    -4873 
   -5012    -5161    -5289    -5389    -5470    -5526    -5556    -5557 
   -5530    -5485    -5425    -5343    -5223    -5073    -4916    -4756 
   -4581    -4402    -4232    -4089    -3981    -3896    -3809    -3705 
   -3586    -3457    -3321    -3177    -3045    -2959    -2941    -2997 
   -3119    -3306    -3545    -3817    -4097    -4351    -4558    -4726 
   -4849    -4924    -4953    -4949    -4938    -4926    -4907    -4877 
   -4847    -4833    -4824    -4812    -4784    -4737    -4691    -4657 
   -4627    -4595    -4558    -4519    -4473    -4418    -4352    -4293 
   -4271    -4297    -4356    -4434    -4531    -4641    -4747    -4818 
   -4827    -4788    -4734    -4698    -4691    -4719    -4801    -4947 
   -5136    -5337    -5524    -5667    -5746    -5742    -5643    -5448 
   -5196    -4945    -4730    -4552    -4414    -4341    -4326    -4348 
   -4387    -4413    -4421    -4426    -4436    -4450    -4471    -4517 
   -4595    -4695    -4793    -4878    -4950    -5013    -5065    -5097 
   -5109    -5112    -5113    -5115    -5086    -5005    -4888    -4756 
   -4607    -4442    -4264    -4087    -3939    -3843    -3801    -3816 
   -3902    -4066    -4283    -4518    -4738    -4930    -5077    -5165 
   -5186    -5143    -5059    -4965    -4880    -4800    -4723    -4662 
   -4621    -4584    -4541    -4488    -4444    -4410    -4378    -4336 
   -4268    -4178    -4077    -3962    -3831    -3713    -3646    -3653 
   -3728    -3846    -3989    -4152    -4306    -4418    -4479    -4491 
   -4461    -4392    -4287    -4149    -4000    -3874    -3796    -3771 
   -3805    -3912    -4098    -4351    -4641    -4923    -5163    -5351 
   -5462    -5486    -5443    -5360    -5275    -5209    -5163    -5131 
   -5119    -5132    -5155    -5167    -5165    -5159    -5158    -5161 
   -5161    -5151    -5135    -5116    -5085    -5023    -4928    -4823 
   -4731    -4665    -4623    -4612    -4644    -4711    -4795    -4868 
   -4907    -4918    -4919    -4914    -4901    -4889    -4896    -4922 
   -4953    -4985    -5015    -5046    -5093    -5157    -5225    -5312 
   -5435    -5603    -5796    -5980    -6142    -6288    -6416    -6505 
   -6517    -6443    -6293    -6076    -5814    -5532    -5248    -4993 
   -4795    -4648    -4530    -4430    -4344    -4252    -4141    -4000 
   -3835    -3681    -3554    -3441    -3333    -3218    -3095    -2967 
   -2824    -2659    -2481    -2317    -2197    -2127    -2097    -2108 
   -2165    -2262    -2389    -2535    -2700    -2890    -3109    -3342 
   -3568    -3766    -3937    -4077    -4162    -4186    -4159    -4104 
   -4058    -4040    -4043    -4067    -4129    -4224    -4337    -4450 
   -4552    -4646    -4747    -4858    -4988    -5143    -5325    -5528 
   -5732    -5904    -6029    -6106    -6141    -6130    -6076    -5996 
   -5927    -5890    -5890    -5918    -5964    -6033    -6119    -6211 
   -6296    -6357    -6386    -6393    -6367    -6291    -6162    -5991 
   -5783    -5536    -5265    -4995    -4752    -4560    -4423    -4317 
   -4216    -4125    -4063    -4021    -3996    -4000    -4043    -4135 
   -4261    -4383    -4483    -4563    -4610    -4612    -4567    -4480 
   -4383    -4298    -4214    -4122    -4027    -3939    -3870    -3819 
   -3796    -3804    -3840    -3908    -3996    -4071    -4112    -4116 
   -4067    -3974    -3861    -3748    -3677    -3665    -3704    -3792 
   -3921    -4083    -4268    -4440    -4565    -4646    -4706    -4752 
   -4797    -4835    -4864    -4899    -4949    -5008    -5071    -5130 
   -5186    -5246    -5290    -5312    -5327    -5351    -5386    -5421 
   -5444    -5451    -5433    -5381    -5278    -5131    -4970    -4823 
   -4700    -4599    -4515    -4444    -4380    -4315    -4226    -4099 
   -3954    -3813    -3701    -3619    -3569    -3554    -3577    -3632 
   -3692    -3726    -3735    -3726    -3694    -3650    -3597    -3551 
   -3539    -3565    -3607    -3655    -3713    -3778    -3851    -3931 
   -4017    -4120    -4239    -4367    -4471    -4525    -4536    -4500 
   -4419    -4301    -4158    -4018    -3920    -3873    -3866    -3908 
   -4006    -4152    -4330    -4513    -4677    -4824    -4953    -5049 
   -5094    -5086    -5039    -4976    -4897    -4788    -4642    -4469 
   -4283    -4090    -3897    -3716    -3576    -3488    -3442    -3431 
   -3457    -3518    -3611    -3719    -3821    -3900    -3966    -4028 
   -4086    -4136    -4189    -4267    -4378    -4502    -4623    -4730 
   -4823    -4899    -4950    -4980    -5004    -5054    -5148    -5275 
   -5408    -5541    -5671    -5780    -5854    -5877    -5844    -5773 
   -5683    -5579    -5468    -5360    -5274    -5213    -5157    -5084 
   -4993    -4911    -4850    -4811    -4796    -4810    -4862    -4945 
   -5031    -5094    -5128    -5136    -5123    -5090    -5043    -4993 
   -4950    -4908    -4847    -4749    -4619    -4484    -4353    -4220 
   -4097    -4004    -3951    -3939    -3950    -3966    -3979    -3986 
   -3975    -3939    -3885    -3834    -3815    -3835    -3885    -3956 
   -4045    -4155    -4266    -4360    -4426    -4482    -4546    -4631 
   -4738    -4866    -5017    -5184    -5339    -5443    -5476    -5447 
   -5362    -5215    -5007    -4750    -4482    -4230    -4014    -3843 
   -3724    -3674    -3703    -3785    -3888    -3993    -4094    -4174 
   -4212    -4194    -4131    -4051    -3990    -3956    -3954    -3978 
   -4027    -4101    -4186    -4256    -4310    -4369    -4449    -4552 
   -4675    -4822    -4996    -5182    -5358    -5493    -5579    -5638 
   -5686    -5714    -5713    -5688    -5663    -5648    -5643    -5640 
   -5647    -5674    -5724    -5787    -5840    -5876    -5898    -5898 
   -5867    -5799    -5702    -5590    -5467    -5323    -5144    -4936 
   -4715    -4488    -4261    -4033    -3821    -3647    -3518    -3431 
   -3385    -3381    -3430    -3523    -3638    -3748    -3846    -3932 
   -3991    -4006    -3974    -3901    -3801    -3697    -3588    -3472 
   -3366    -3296    -3267    -3281    -3335    -3431    -3572    -3742 
   -3917    -4072    -4194    -4291    -4371    -4421    -4436    -4445 
   -4469    -4511    -4573    -4654    -4750    -4864    -4989    -5109 
   -5216    -5319    -5427    -5529    -5621    -5692    -5742    -5772 
   -5757    -5668    -5498    -5266    -5003    -4731    -4455    -4190 
   -3966    -3804    -3711    -3673    -3669    -3701    -3775    -3879 
   -3985    -4060    -4110    -4137    -4132    -4099    -4039    -3963 
   -3901    -3855    -3817    -3771    -3726    -3699    -3699    -3711 
   -3730    -3767    -3838    -3936    -4055    -4189    -4329    -4475 
   -4622    -4753    -4851    -4916    -4958    -4977    -4965    -4924 
   -4884    -4869    -4887    -4936    -5009    -5107    -5224    -5347 
   -5452    -5522    -5552    -5544    -5489    -5383    -5232    -5059 
   -4900    -4765    -4650    -4558    -4503    -4488    -4503    -4517 
   -4503    -4464    -4409    -4334    -4225    -4086    -3943    -3811 
   -3700    -3612    -3541    -3493    -3483    -3497    -3514    -3519 
   -3528    -3564    -3632    -3728    -3840    -3974    -4126    -4283 
   -4426    -4538    -4625    -4695    -4747    -4773    -4776    -4769 
   -4757    -4737    -4696    -4631    -4563    -4518    -4511    -4529 
   -4565    -4625    -4702    -4780    -4849    -4892    -4931    -4988 
   -5062    -5151    -5252    -5363    -5482    -5601    -5699    -5755 
   -5768    -5759    -5733    -5695    -5651    -5616    -5607    -5628 
   -5656    -5682    -5710    -5744    -5769    -5769    -5733    -5679 
   -5621    -5556    -5483    -5398    -5310    -5235    -5171    -5107 
   -5032    -4968    -4920    -4877    -4823    -4749    -4662    -4572 
   -4468    -4348    -4221    -4101    -4001    -3932    -3889    -3861 
   -3856    -3879    -3921    -3964    -3998    -4027    -4055    -4072 
   -4079    -4087    -4106    -4151    -4222    -4307    -4401    -4507 
   -4622    -4729    -4814    -4869    -4907    -4946    -4982    -5009 
   -5035    -5069    -5107    -5131    -5119    -5073    -5005    -4924 
   -4838    -4757    -4706    -4704    -4754    -4831    -4914    -4988 
   -5046    -5078    -5063    -4997    -4895    -4774    -4653    -4537 
