Origin Time       2025/01/13 21:19:00
Lat.              31.8
Long.             131.6
Depth. (km)       30
Mag.              6.9
Station Code      FKOH07
Station Lat.      33.3678
Station Long.     130.6354
Station Height(m) 15
Record Time       2025/01/13 21:20:14
Sampling Freq(Hz) 100Hz
Duration Time(s)  152
Dir.              5
Scale Factor      7845(gal)/8223790
Max. Acc. (gal)   8.467
Last Correction   2025/01/13 21:20:14
Memo.             
[...]
    5220     5512     5813     6095     6359     6617     6840     6979 
    7001     6882     6633     6307     5958     5624     5358     5208 
    5167     5220     5348     5505     5655     5776     5832     5799 
    5695     5557     5425     5312     5223     5157     5104     5031 
    4903     4699     4399     3998     3531     3079     2709     2463 
    2361     2417     2631     2974     3388     3812     4221     4617 
    4995     5331     5616     5860     6075     6251     6359     6392 
    6327     6135     5836     5472     5073     4695     4372     4086 
    3862     3747     3747     3854     4013     4160     4279     4349 
    4328     4209     4009     3757     3487     3211     2957     2768 
    2644     2559     2501     2457     2415     2370     2319     2270 
    2254     2292     2407     2586     2801     3051     3334     3623 
    3892     4120     4295     4421     4515     4588     4634     4641 
    4614     4577     4552     4565     4639     4768     4931     5128 
    5348     5583     5830     6073     6304     6500     6612     6613 
    6517     6332     6060     5713     5306     4869     4422     3981 
    3582     3256     2986     2767     2604     2500     2477     2544 
    2698     2922     3188     3461     3699     3870     3986     4050 
    4045     3986     3905     3823     3767     3757     3798     3916 
    4120     4380     4661     4932     5194     5464     5736     5985 
    6227     6482     6741     6984     7179     7303     7344     7275 
    7090     6820     6494     6133     5760     5406     5104     4874 
    4720     4614     4517     4414     4313     4195     4056     3901 
    3748     3627     3539     3485     3473     3493     3526     3565 
    3630     3744     3908     4102     4318     4542     4757     4931 
    5013     4990     4900     4788     4695     4652     4665     4737 
    4845     4981     5162     5374     5583     5768     5911     6004 
    6066     6103     6087     6010     5906     5794     5676     5559 
    5444     5341     5270     5250     5285     5366     5464     5563 
    5678     5811     5964     6134     6288     6396     6457     6462 
    6384     6223     5979     5663     5332     5047     4827     4675 
    4595     4583     4627     4716     4822     4912     4965     4977 
    4969     4962     4968     4997     5059     5169     5316     5482 
    5652     5809     5934     6034     6103     6130     6120     6080 
    6030     5987     5941     5879     5783     5649     5487     5314 
    5152     5019     4918     4847     4830     4869     4943     5055 
    5177     5248     5251     5169     4992     4753     4480     4176 
    3844     3488     3115     2759     2442     2188     2030     1985 
    2045     2215     2500     2882     3335     3832     4337     4835 
    5333     5819     6259     6620     6895     7094     7210     7249 
    7213     7099     6937     6752     6544     6339     6156     5995 
    5876     5794     5724     5665     5616     5574     5559     5586 
    5647     5717     5759     5742     5652     5506     5344     5181 
    5020     4858     4689     4523     4369     4229     4098     3971 
    3827     3649     3454     3254     3060     2887     2740     2629 
    2579     2575     2609     2679     2766     2835     2849     2781 
    2637     2457     2273     2123     2034     2020     2088     2214 
    2390     2621     2886     3148     3397     3636     3866     4086 
    4306     4523     4712     4861     4962     5003     4982     4907 
    4769     4569     4329     4083     3848     3627     3433     3288 
    3218     3241     3365     3582     3877     4232     4639     5067 
    5467     5778     5948     5952     5826     5629     5389     5116 
    4835     4575     4357     4217     4167     4195     4279     4392 
    4531     4714     4939     5197     5472     5760     6054     6359 
    6655     6913     7142     7329     7423     7430     7384     7276 
    7101     6845     6520     6162     5783     5429     5143     4891 
    4677     4521     4382     4232     4063     3869     3662     3473 
    3315     3190     3105     3056     3028     3009     2998     3001 
    3014     3034     3063     3102     3154     3234     3346     3489 
    3659     3838     4014     4201     4383     4550     4688     4758 
    4741     4657     4530     4406     4318     4268     4241     4214 
    4198     4228     4324     4488     4711     4968     5246     5535 
    5811     6048     6207     6255     6181     5987     5698     5339 
    4914     4428     3910     3410     2936     2492     2091     1734 
    1414     1135      891      683      527      446      461      588 
     837     1205     1674     2205     2786     3400     4028     4635 
    5190     5676     6069     6346     6523     6623     6654     6635 
    6582     6512     6458     6430     6412     6394     6373     6347 
    6327     6322     6343     6412     6527     6662     6802     6951 
    7099     7241     7354     7411     7392     7291     7103     6837 
    6498     6091     5640     5188     4756     4357     3994     3672 
    3393     3156     2980     2889     2879     2952     3113     3350 
    3646     3974     4299     4577     4780     4905     4951     4920 
    4846     4762     4683     4619     4598     4638     4741     4896 
    5078     5263     5440     5575     5643     5653     5634     5602 
    5576     5583     5641     5756     5917     6080     6197     6232 
    6177     6033     5805     5521     5202     4864     4536     4259 
    4060     3954     3947     4035     4190     4402     4680     4999 
    5312     5606     5865     6064     6208     6307     6365     6390 
    6408     6438     6508     6647     6856     7109     7376     7630 
    7858     8048     8187     8260     8260     8202     8112     8006 
    7902     7808     7713     7619     7528     7434     7341     7244 
    7113     6925     6673     6349     5983     5614     5274     4980 
    4733     4522     4338     4171     4005     3828     3630     3399 
    3133     2836     2535     2268     2062     1926     1852     1831 
    1846     1865     1872     1860     1827     1784     1749     1729 
    1722     1742     1788     1842     1898     1949     1985     2002 
    2023     2077     2157     2270     2432     2627     2824     3010 
    3179     3326     3457     3570     3684     3820     3990     4203 
    4468     4768     5084     5401     5690     5911     6049     6104 
    6075     5985     5865     5719     5556     5371     5162     4943 
    4723     4507     4293     4068     3832     3593     3353     3113 
    2889     2693     2524     2388     2293     2230     2192     2176 
    2170     2168     2172     2181     2205     2255     2335     2452 
    2612     2801     3013     3256     3534     3838     4166     4511 
    4858     5197     5522     5829     6115     6382     6632     6866 
    7075     7254     7402     7503     7538     7497     7373     7173 
    6924     6666     6430     6222     6027     5830     5622     5406 
    5184     4950     4706     4459     4224     4024     3889     3828 
    3825     3863     3932     4024     4147     4305     4475     4641 
    4803     4951     5094     5252     5421     5584     5724     5817 
    5846     5817     5748     5653     5541     5422     5294     5158 
    5015     4866     4716     4594     4527     4521     4560     4645 
    4783     4973     5212     5499     5817     6135     6435     6689 
    6891     7047     7157     7240     7308     7361     7400     7435 
    7462     7468     7439     7377     7275     7138     6995     6867 
    6743     6604     6448     6276     6085     5892     5697     5479 
    5235     4962     4660     4351     4058     3790     3558     3362 
    3183     3011     2845     2662     2446     2205     1944     1668 
    1401     1165      973      843      797      832      938     1111 
    1345     1617     1922     2253     2581     2901     3222     3542 
    3873     4221     4568     4907     5235     5530     5780     5995 
    6180     6334     6461     6569     6652     6706     6735     6747 
    6751     6739     6705     6658     6606     6552     6502     6455 
    6394     6327     6268     6222     6210     6242     6293     6335 
    6349     6328     6268     6157     6011     5841     5629     5371 
    5090     4783     4440     4083     3736     3402     3075     2755 
    2442     2147     1883     1667     1533     1493     1541     1686 
    1922     2250     2662     3127     3620     4112     4583     5015 
    5387     5699     5956     6158     6311     6420     6486     6521 
    6554     6604     6670     6752     6876     7044     7244     7481 
    7757     8046     8324     8565     8741     8834     8846     8772 
    8611     8374     8074     7739     7385     6998     6578     6142 
    5694     5236     4799     4418     4110     3873     3707     3603 
    3557     3564     3605     3673     3759     3858     3960     4064 
    4179     4313     4464     4630     4801     4972     5123     5231 
    5292     5321     5343     5347     5329     5297     5254     5224 
    5221     5243     5317     5462     5663     5906     6154     6370 
    6546     6664     6709     6674     6570     6417     6222     5992 
    5749     5505     5271     5062     4864     4648     4394     4091 
    3744     3356     2940     2520     2116     1715     1306      903 
     529      183     -137     -422     -676     -915    -1142    -1348 
   -1517    -1638    -1688    -1651    -1539    -1364    -1138     -873 
    -579     -249      106      473      837     1181     1485     1730 
    1908     2027     2104     2160     2215     2290     2390     2515 
    2666     2841     3034     3233     3419     3574     3685     3754 
    3798     3847     3932     4071     4268     4529     4853     5217 
    5597     5962     6286     6547     6729     6832     6875     6895 
    6907     6921     6952     6999     7053     7109     7134     7101 
    7006     6866     6696     6520     6373     6270     6204     6169 
    6154     6145     6143     6156     6178     6220     6291     6381 
    6500     6652     6826     7021     7238     7460     7668     7848 
    7973     8025     8016     7954     7847     7730     7627     7550 
    7504     7495     7522     7570     7630     7689     7727     7738 
    7739     7736     7735     7746     7774     7817     7873     7931 
    7966     7965     7919     7813     7655     7450     7200     6914 
    6601     6259     5899     5543     5204     4889     4608     4365 
    4176     4056     4017     4060     4167     4307     4468     4638 
    4800     4947     5069     5150     5184     5162     5076     4920 
    4706     4445     4172     3924     3731     3613     3577     3607 
    3681     3786     3913     4041     4152     4243     4310     4351 
    4356     4330     4287     4216     4105     3977     3848     3713 
    3588     3484     3397     3338     3321     3352     3433     3558 
    3724     3923     4131     4329     4511     4666     4792     4893 
    4973     5019     5034     5030     5007     4963     4909     4842 
    4770     4702     4635     4579     4523     4446     4347     4248 
    4174     4131     4113     4108     4109     4105     4074     4009 
    3919     3817     3708     3585     3462     3349     3241     3150 
    3087     3045     3026     3049     3110     3191     3291     3410 
    3543     3696     3859     4021     4180     4347     4523     4723 
    4950     5202     5472     5740     5996     6218     6390     6524 
    6625     6694     6741     6767     6754     6693     6585     6435 
    6245     6014     5745     5448     5113     4730     4311     3866 
    3392     2909     2439     1993     1583     1227      947      750 
     641      623      675      751      824      859      831      754 
     641      502      378      306      305      399      594      872 
    1209     1576     1946     2326     2701     3040     3323     3539 
    3694     3801     3855     3867     3839     3761     3636     3464 
    3240     2988     2732     2459     2178     1918     1696     1517 
    1379     1279     1198     1134     1086     1053     1038     1050 
    1101     1197     1331     1502     1702     1911     2114     2299 
    2457     2589     2694     2771     2830     2893     2987     3130 
    3322     3576     3906     4282     4698     5177     5699     6249 
    6814     7371     7923     8467     8985     9491     9975    10403 
   10774    11068    11264    11396    11491    11561    11632    11723 
   11840    11993    12174    12371    12575    12758    12910    13022 
   13077    13068    13000    12870    12702    12521    12325    12129 
   11947    11769    11611    11489    11385    11298    11229    11148 
   11037    10894    10698    10455    10181     9877     9559     9240 
    8927     8630     8343     8059     7794     7561     7354     7173 
    7006     6844     6677     6497     6315     6142     5984     5853 
    5757     5699     5686     5728     5826     5984     6197     6450 
    6718     6979     7195     7326     7371     7337     7222     7036 
    6798     6516     6210     5906     5614     5343     5088     4823 
    4523     4170     3759     3296     2787     2251     1698     1132 
     581       66     -421     -877    -1290    -1674    -2039    -2392 
   -2737    -3084    -3423    -3731    -3971    -4109    -4118    -3987 
   -3719    -3326    -2826    -2254    -1647    -1038     -472       21 
     422      718      912     1015     1051     1048     1013      949 
     869      766      630      465      274       51     -178     -403 
    -616     -797     -935    -1024    -1051    -1019     -940     -820 
    -652     -434     -159      191      642     1200     1837     2517 
    3200     3858     4465     5005     5472     5852     6119     6272 
    6311     6227     6038     5782     5471     5143     4839     4575 
    4347     4162     4008     3871     3751     3640     3549     3489 
    3465     3489     3589     3769     4017     4324     4657     4985 
    5289     5547     5740     5872     5965     6031     6104     6222 
    6392     6610     6883     7206     7554     7908     8252     8564 
    8833     9063     9251     9398     9520     9624     9702     9756 
    9790     9796     9755     9667     9533     9351     9136     8912 
    8703     8541     8452     8438     8505     8644     8826     9027 
    9239     9441     9609     9729     9778     9736     9622     9462 
    9261     9036     8810     8587     8374     8186     8028     7893 
    7780     7677     7555     7400     7218     7015     6790     6547 
    6297     6060     5844     5637     5439     5267     5125     5003 
    4896     4812     4769     4770     4804     4857     4932     5031 
    5152     5279     5390     5470     5514     5518     5486     5425 
    5344     5255     5157     5039     4903     4743     4569     4387 
    4205     4033     3886     3765     3658     3547     3416     3250 
    3042     2790     2504     2182     1837     1490     1152      828 
     533      280       66     -112     -252     -359     -452     -531 
    -596     -648     -669     -656     -618     -561     -492     -423 
    -357     -288     -220     -147      -56       67      232      430 
     660      922     1209     1510     1796     2041     2239     2386 
    2484     2554     2629     2740     2902     3119     3396     3732 
    4099     4465     4806     5103     5336     5503     5611     5665 
    5678     5675     5682     5707     5746     5783     5806     5802 
    5759     5663     5497     5263     4962     4600     4197     3767 
    3334     2920     2543     2232     2018     1904     1890     1971 
    2128     2326     2559     2841     3165     3530     3927     4334 
    4741     5130     5482     5798     6080     6318     6507     6643 
    6736     6820     6914     7024     7156     7319     7511     7726 
    7947     8159     8351     8510     8641     8757     8860     8947 
    9022     9077     9120     9139     9123     9092     9047     8962 
    8833     8669     8463     8217     7954     7676     7387     7111 
    6870     6681     6548     6465     6421     6408     6404     6400 
    6401     6397     6399     6419     6465     6546     6662     6793 
    6922     7029     7084     7076     7018     6909     6747     6552 
    6342     6126     5923     5746     5594     5466     5360     5262 
    5159     5050     4922     4772     4612     4456     4314     4207 
    4144     4124     4153     4222     4318     4436     4571     4711 
    4838     4930     4970     4959     4892     4777     4623     4436 
    4230     4025     3821     3627     3454     3306     3176     3078 
    3024     3009     3018     3044     3075     3106     3137     3172 
    3207     3242     3279     3322     3364     3402     3433     3434 
    3393     3319     3226     3144     3084     3042     3019     3014 
    3013     3015     3022     3025     3015     2980     2911     2812 
    2681     2516     2339     2170     2020     1900     1814     1761 
    1742     1753     1792     1860     1952     2074     2235     2431 
    2670     2967     3322     3724     4162     4615     5084     5557 
    6029     6490     6933     7358     7769     8147     8484     8769 
    8991     9139     9213     9221     9177     9084     8955     8803 
    8629     8436     8217     7962     7663     7318     6932     6507 
    6042     5541     5013     4467     3901     3337     2794     2272 
    1779     1323      892      484      102     -255     -587     -878 
   -1121    -1321    -1483    -1605    -1695    -1756    -1777    -1760 
   -1707    -1629    -1522    -1372    -1183     -957     -677     -349 
       8      392      807     1235     1661     2081     2486     2874 
    3250     3613     3966     4310     4641     4963     5287     5614 
    5935     6238     6513     6759     6970     7138     7269     7365 
    7414     7414     7387     7338     7273     7203     7145     7107 
    7101     7136     7209     7303     7411     7527     7646     7758 
    7862     7956     8046     8128     8210     8294     8368     8414 
    8424     8375     8259     8087     7857     7568     7253     6937 
    6637     6376     6162     5988     5830     5682     5543     5409 
    5274     5146     5027     4927     4853     4810     4795     4797 
    4812     4835     4861     4888     4912     4927     4936     4947 
    4966     4993     5031     5074     5113     5144     5174     5204 
    5233     5277     5344     5428     5521     5624     5717     5787 
    5838     5871     5891     5918     5958     6026     6138     6295 
    6488     6714     6951     7168     7346     7476     7553     7578 
    7558     7507     7425     7318     7198     7061     6906     6735 
    6550     6363     6178     5988     5798     5611     5432     5263 
    5121     5011     4928     4866     4814     4766     4720     4675 
    4631     4596     4556     4504     4452     4391     4321     4243 
    4151     4055     3963     3883     3829     3811     3835     3915 
    4044     4210     4411     4637     4885     5148     5410     5660 
