Origin Time       2025/01/13 21:19:00
Lat.              31.8
Long.             131.6
Depth. (km)       30
Mag.              6.9
Station Code      FKOH04
Station Lat.      33.5512
Station Long.     130.7451
Station Height(m) -40
Record Time       2025/01/13 21:20:04
Sampling Freq(Hz) 100Hz
Duration Time(s)  159
Dir.              1
Scale Factor      2942(gal)/8224139
Max. Acc. (gal)   1.717
Last Correction   2025/01/13 21:20:05
Memo.             
[...]
   43056    42971    42893    42831    42799    42796    42817    42855 
   42898    42948    43025    43127    43241    43378    43524    43663 
   43796    43918    44019    44096    44145    44178    44217    44274 
   44343    44412    44478    44550    44629    44721    44822    44923 
   45017    45108    45202    45291    45370    45439    45490    45524 
   45530    45511    45469    45401    45312    45204    45079    44952 
   44826    44705    44599    44525    44475    44435    44402    44375 
   44352    44336    44324    44316    44319    44336    44352    44359 
   44367    44356    44323    44289    44269    44259    44255    44255 
   44261    44263    44263    44266    44273    44293    44338    44396 
   44460    44521    44559    44582    44620    44662    44694    44724 
   44753    44780    44809    44826    44829    44825    44807    44793 
   44784    44760    44714    44651    44575    44500    44432    44369 
   44302    44220    44123    44014    43896    43799    43719    43642 
   43572    43509    43441    43378    43314    43245    43174    43102 
   43032    42963    42892    42808    42719    42627    42525    42425 
   42318    42192    42075    41976    41881    41791    41716    41658 
   41627    41627    41656    41705    41750    41785    41818    41856 
   41893    41929    41966    42001    42047    42118    42215    42337 
   42475    42614    42754    42904    43063    43228    43402    43583 
   43761    43920    44050    44150    44219    44258    44280    44289 
   44288    44275    44259    44242    44231    44230    44227    44223 
   44239    44282    44344    44419    44505    44591    44675    44771 
   44880    44992    45102    45202    45293    45385    45478    45574 
   45665    45743    45816    45893    45971    46037    46089    46125 
   46138    46136    46116    46062    45982    45886    45779    45665 
   45532    45384    45234    45073    44905    44733    44551    44362 
   44177    43993    43822    43673    43533    43395    43286    43206 
   43147    43110    43087    43075    43071    43060    43044    43025 
   43001    42974    42946    42917    42897    42880    42865    42855 
   42849    42849    42844    42838    42836    42831    42823    42824 
   42828    42828    42826    42811    42780    42739    42704    42672 
   42647    42649    42664    42693    42749    42812    42888    42984 
   43078    43177    43286    43401    43515    43626    43733    43838 
   43941    44043    44143    44243    44344    44436    44523    44594 
   44644    44690    44730    44747    44747    44737    44709    44676 
   44656    44636    44617    44601    44586    44578    44585    44617 
   44671    44724    44787    44872    44959    45054    45164    45274 
   45377    45469    45553    45640    45725    45796    45851    45883 
   45887    45864    45810    45731    45634    45528    45423    45316 
   45211    45115    45033    44960    44899    44852    44807    44756 
   44702    44644    44583    44521    44463    44406    44332    44251 
   44170    44082    43992    43897    43792    43677    43559    43444 
   43336    43235    43146    43062    42989    42931    42884    42834 
   42773    42703    42634    42577    42533    42500    42480    42458 
   42426    42391    42357    42323    42286    42238    42183    42121 
   42053    41986    41921    41866    41828    41809    41796    41781 
   41774    41782    41797    41823    41862    41917    41994    42094 
   42213    42342    42480    42619    42758    42901    43046    43190 
   43351    43537    43735    43929    44118    44305    44482    44637 
   44775    44894    44995    45081    45153    45206    45241    45262 
   45277    45283    45270    45253    45237    45211    45176    45144 
   45115    45090    45058    45009    44936    44841    44726    44604 
   44479    44358    44235    44108    43981    43854    43726    43605 
   43501    43417    43348    43295    43263    43248    43240    43225 
   43206    43195    43187    43174    43158    43144    43125    43121 
   43147    43198    43282    43398    43528    43663    43802    43945 
   44101    44267    44424    44562    44674    44763    44837    44896 
   44940    44968    44988    45000    45004    44999    44982    44955 
   44932    44921    44918    44921    44946    44994    45052    45119 
   45180    45226    45264    45299    45323    45333    45320    45288 
   45233    45158    45075    44976    44867    44759    44658    44558 
   44456    44346    44226    44101    43973    43829    43683    43542 
   43409    43290    43174    43048    42932    42835    42761    42712 
   42680    42654    42643    42651    42673    42703    42735    42778 
   42827    42866    42908    42963    43032    43121    43222    43322 
   43416    43503    43588    43673    43767    43876    43992    44116 
   44246    44366    44489    44621    44753    44888    45030    45177 
   45324    45468    45605    45728    45837    45927    45981    45998 
   46001    45994    45967    45910    45833    45750    45666    45586 
   45507    45423    45327    45208    45069    44915    44745    44558 
   44359    44157    43951    43741    43525    43313    43112    42915 
   42730    42569    42427    42300    42199    42122    42061    42010 
   41960    41920    41890    41864    41844    41847    41879    41941 
   42022    42114    42221    42338    42453    42569    42687    42796 
   42901    43013    43127    43240    43349    43449    43555    43676 
   43803    43934    44072    44201    44323    44451    44583    44709 
   44837    44973    45096    45196    45280    45354    45419    45476 
   45520    45550    45567    45573    45566    45539    45486    45412 
   45315    45198    45061    44907    44752    44598    44436    44267 
   44104    43962    43843    43748    43679    43623    43579    43545 
   43503    43448    43389    43326    43270    43227    43186    43137 
   43078    43005    42916    42830    42749    42665    42593    42546 
   42525    42522    42541    42577    42619    42662    42716    42776 
   42831    42890    42955    43011    43055    43106    43159    43225 
   43317    43417    43519    43637    43765    43903    44068    44255 
   44439    44612    44766    44884    44982    45063    45133    45196 
   45247    45269    45262    45238    45207    45160    45104    45045 
   44975    44894    44801    44686    44555    44408    44235    44039 
   43825    43598    43364    43129    42900    42692    42514    42364 
   42253    42178    42138    42148    42206    42304    42431    42562 
   42693    42834    42981    43119    43239    43347    43445    43532 
   43607    43676    43746    43821    43892    43951    44001    44051 
   44096    44124    44145    44158    44154    44135    44097    44034 
   43961    43888    43812    43745    43695    43648    43603    43568 
   43542    43522    43515    43525    43549    43573    43587    43591 
   43591    43588    43579    43559    43532    43502    43468    43437 
   43401    43351    43301    43249    43200    43155    43116    43086 
   43075    43086    43113    43158    43224    43298    43374    43465 
   43573    43668    43745    43816    43891    43966    44032    44095 
   44153    44199    44263    44350    44433    44525    44636    44760 
   44895    45038    45181    45306    45409    45513    45612    45696 
   45766    45812    45833    45837    45812    45751    45673    45586 
   45503    45442    45395    45349    45311    45272    45222    45165 
   45091    44996    44894    44778    44649    44520    44386    44261 
   44140    44022    43922    43838    43762    43702    43656    43609 
   43564    43529    43502    43471    43424    43363    43297    43225 
   43162    43120    43092    43077    43073    43085    43128    43193 
   43267    43352    43434    43506    43576    43641    43690    43734 
   43776    43802    43818    43825    43819    43810    43811    43808 
   43796    43787    43776    43756    43729    43703    43677    43645 
   43606    43565    43517    43455    43387    43310    43225    43135 
   43050    42971    42894    42823    42758    42700    42647    42607 
   42574    42545    42520    42507    42506    42519    42541    42561 
   42580    42599    42622    42649    42680    42720    42763    42803 
   42849    42904    42958    43005    43046    43078    43117    43178 
   43245    43316    43398    43497    43606    43726    43860    43999 
   44147    44315    44485    44640    44791    44938    45069    45189 
   45299    45389    45472    45557    45640    45724    45809    45893 
   45986    46101    46225    46345    46471    46597    46720    46842 
   46955    47052    47133    47189    47214    47206    47170    47098 
   46984    46838    46672    46494    46302    46094    45871    45640 
   45407    45172    44956    44771    44612    44491    44408    44343 
   44308    44302    44313    44344    44389    44435    44487    44541 
   44595    44647    44687    44713    44720    44710    44679    44629 
   44585    44558    44541    44543    44559    44572    44586    44605 
   44629    44659    44693    44736    44783    44811    44817    44803 
   44761    44693    44614    44509    44379    44244    44097    43943 
   43789    43640    43492    43341    43189    43036    42867    42680 
   42487    42291    42091    41897    41708    41523    41354    41224 
   41127    41054    41031    41048    41081    41134    41208    41297 
   41401    41512    41621    41724    41816    41901    41989    42063 
   42125    42178    42210    42238    42265    42290    42326    42368 
   42403    42445    42491    42538    42587    42638    42693    42745 
   42789    42839    42904    42982    43071    43181    43302    43424 
   43555    43700    43846    43985    44122    44251    44373    44479 
   44567    44635    44691    44749    44820    44901    44982    45056 
   45129    45203    45266    45322    45380    45427    45465    45512 
   45558    45601    45651    45697    45740    45783    45832    45890 
   45951    46014    46084    46152    46217    46291    46380    46465 
   46539    46597    46634    46645    46642    46634    46623    46616 
   46603    46575    46541    46499    46435    46359    46273    46183 
   46116    46075    46047    46033    46033    46029    46014    45983 
   45918    45817    45686    45528    45350    45150    44922    44670 
   44412    44154    43897    43648    43414    43208    43027    42874 
   42759    42677    42618    42593    42584    42573    42566    42552 
   42518    42473    42437    42414    42391    42365    42341    42311 
   42283    42267    42255    42241    42234    42230    42218    42205 
   42190    42167    42142    42113    42071    42026    41979    41918 
   41841    41759    41681    41609    41543    41480    41428    41392 
   41366    41354    41355    41362    41376    41413    41473    41540 
   41608    41673    41728    41775    41821    41864    41902    41944 
   41993    42049    42118    42194    42268    42337    42395    42435 
   42468    42504    42553    42610    42664    42711    42768    42820 
   42862    42905    42943    42969    42993    43011    43023    43035 
   43040    43044    43052    43066    43090    43125    43166    43212 
   43270    43347    43434    43533    43648    43780    43929    44092 
   44261    44424    44578    44725    44867    45017    45181    45350 
   45517    45692    45859    46009    46153    46284    46386    46467 
   46518    46535    46541    46546    46546    46530    46492    46437 
   46373    46299    46210    46109    45994    45848    45675    45496 
   45300    45085    44863    44629    44394    44177    43968    43756 
   43551    43360    43186    43031    42893    42773    42673    42593 
   42534    42500    42499    42529    42579    42643    42722    42807 
   42898    42994    43087    43178    43264    43337    43394    43444 
   43486    43505    43511    43503    43480    43448    43407    43368 
   43339    43301    43266    43243    43222    43209    43202    43197 
   43193    43179    43159    43154    43168    43198    43245    43305 
   43368    43440    43522    43614    43715    43827    43945    44072 
   44209    44354    44505    44659    44813    44957    45083    45191 
   45274    45324    45350    45364    45368    45369    45373    45376 
   45373    45374    45381    45389    45400    45416    45443    45482 
   45538    45607    45693    45796    45906    46025    46155    46284 
   46415    46552    46681    46796    46899    46993    47063    47112 
   47148    47173    47182    47182    47171    47144    47106    47055 
   46978    46885    46785    46669    46529    46359    46170    45970 
   45751    45513    45265    44998    44713    44423    44124    43821 
   43524    43245    42984    42730    42492    42275    42078    41905 
   41760    41638    41534    41443    41362    41285    41214    41134 
   41044    40959    40878    40795    40724    40663    40599    40541 
   40497    40455    40416    40387    40365    40339    40316    40297 
   40285    40288    40297    40311    40340    40385    40454    40558 
   40691    40848    41030    41242    41476    41736    42016    42310 
   42622    42943    43276    43621    43974    44320    44651    44971 
   45285    45586    45882    46172    46454    46732    47007    47264 
   47515    47757    47979    48181    48361    48510    48628    48701 
   48730    48730    48701    48654    48583    48475    48339    48180 
   47984    47776    47572    47360    47135    46907    46674    46433 
   46178    45913    45630    45322    45003    44676    44334    43969 
   43586    43189    42776    42361    41959    41571    41193    40841 
   40525    40236    39974    39737    39523    39353    39235    39160 
   39137    39158    39209    39290    39390    39503    39627    39757 
   39895    40039    40189    40350    40518    40686    40860    41035 
   41195    41337    41465    41573    41674    41773    41862    41951 
   42041    42121    42199    42279    42361    42460    42577    42708 
   42865    43044    43237    43432    43622    43808    43980    44130 
   44270    44404    44524    44632    44733    44817    44887    44955 
   45007    45045    45083    45104    45108    45107    45098    45081 
   45064    45042    45006    44948    44875    44794    44701    44595 
   44493    44404    44320    44238    44162    44088    44008    43942 
   43885    43834    43800    43795    43808    43835    43872    43900 
   43912    43916    43914    43891    43861    43838    43807    43765 
   43725    43677    43618    43563    43518    43479    43441    43402 
   43357    43317    43274    43227    43190    43163    43146    43146 
   43166    43204    43266    43356    43467    43607    43777    43973 
   44192    44416    44632    44838    45026    45191    45338    45465 
   45566    45636    45682    45715    45727    45729    45729    45719 
   45696    45665    45638    45612    45574    45530    45482    45427 
   45362    45299    45238    45177    45119    45053    44977    44903 
   44829    44751    44678    44608    44543    44481    44423    44363 
   44292    44209    44131    44058    43985    43915    43864    43821 
   43780    43767    43777    43795    43814    43833    43845    43842 
   43826    43814    43803    43791    43783    43764    43725    43676 
   43622    43556    43478    43401    43337    43282    43225    43171 
   43124    43073    43024    42992    42958    42907    42858    42817 
   42765    42714    42668    42610    42545    42479    42410    42352 
   42319    42307    42310    42325    42348    42381    42434    42492 
   42547    42607    42665    42732    42808    42881    42963    43044 
   43106    43163    43212    43241    43260    43272    43276    43285 
   43295    43306    43324    43345    43374    43414    43461    43517 
   43579    43638    43704    43780    43865    43968    44088    44211 
   44344    44490    44641    44795    44959    45130    45299    45469 
   45642    45812    45979    46125    46248    46350    46419    46453 
   46452    46414    46344    46253    46152    46041    45931    45829 
   45732    45642    45562    45492    45434    45393    45372    45365 
   45362    45372    45392    45403    45401    45399    45384    45353 
   45320    45280    45231    45184    45129    45063    44990    44910 
   44814    44706    44591    44469    44331    44180    44019    43860 
   43699    43536    43366    43186    42998    42803    42601    42404 
   42219    42049    41889    41743    41615    41500    41397    41312 
   41241    41181    41141    41125    41125    41134    41162    41212 
   41273    41351    41447    41554    41682    41828    41983    42152 
   42331    42525    42730    42948    43175    43397    43610    43816 
   44015    44207    44393    44563    44710    44829    44918    44976 
   44999    44995    44972    44918    44838    44751    44652    44543 
   44419    44286    44159    44035    43918    43814    43718    43642 
   43583    43526    43472    43425    43389    43363    43345    43336 
   43330    43322    43320    43314    43302    43303    43316    43330 
   43360    43406    43459    43522    43598    43677    43752    43827 
   43906    43973    44026    44074    44116    44154    44184    44196 
   44186    44150    44099    44042    43973    43888    43799    43710 
   43618    43519    43426    43344    43270    43209    43166    43129 
   43108    43101    43105    43129    43171    43220    43278    43345 
   43414    43497    43600    43706    43804    43896    43962    43993 
   43999    43981    43939    43884    43814    43731    43646    43568 
   43494    43421    43360    43312    43271    43251    43254    43278 
   43326    43398    43483    43592    43722    43854    43992    44147 
   44316    44491    44678    44868    45060    45257    45451    45642 
   45832    46010    46170    46319    46462    46592    46700    46785 
   46854    46909    46953    46982    46997    46994    46980    46965 
   46946    46912    46866    46811    46743    46670    46593    46502 
   46395    46275    46143    46002    45852    45704    45565    45432 
   45306    45179    45053    44937    44822    44699    44572    44431 
   44273    44103    43926    43742    43557    43370    43181    42992 
   42805    42623    42435    42242    42063    41898    41742    41593 
   41463    41362    41285    41227    41185    41156    41137    41126 
   41119    41127    41137    41146    41157    41165    41177    41199 
   41229    41270    41332    41415    41512    41619    41733    41858 
   41990    42124    42259    42392    42526    42660    42788    42917 
   43051    43183    43317    43445    43561    43663    43745    43819 
   43889    43946    43989    44034    44080    44126    44172    44209 
   44231    44246    44259    44265    44259    44258    44262    44263 
   44266    44274    44274    44266    44257    44248    44234    44208 
   44176    44136    44097    44059    44024    44001    43984    43968 
   43958    43949    43937    43935    43937    43934    43945    43962 
   43974    43992    44018    44039    44058    44074    44089    44103 
   44108    44105    44108    44115    44123    44136    44151    44165 
