Origin Time       2025/01/13 21:19:00
Lat.              31.8
Long.             131.6
Depth. (km)       30
Mag.              6.9
Station Code      FKOH10
Station Lat.      33.2891
Station Long.     130.8170
Station Height(m) 190
Record Time       2025/01/13 21:20:00
Sampling Freq(Hz) 100Hz
Duration Time(s)  175
Dir.              6
Scale Factor      7845(gal)/8223790
Max. Acc. (gal)   2.826
Last Correction   2025/01/13 21:20:01
Memo.             
[...]
  -12698   -12739   -12733   -12752   -12773   -12779   -12766   -12731 
  -12685   -12636   -12621   -12694   -12807   -12907   -13034   -13192 
  -13317   -13365   -13331   -13263   -13188   -13073   -12915   -12757 
  -12650   -12619   -12642   -12691   -12757   -12820   -12907   -13042 
  -13174   -13269   -13333   -13371   -13381   -13338   -13251   -13169 
  -13103   -13063   -13054   -13027   -12972   -12920   -12872   -12819 
  -12785   -12762   -12715   -12663   -12660   -12723   -12803   -12837 
  -12812   -12757   -12691   -12633   -12607   -12636   -12729   -12853 
  -12942   -12981   -13008   -13049   -13088   -13073   -12978   -12864 
  -12781   -12717   -12636   -12541   -12457   -12393   -12343   -12313 
  -12305   -12309   -12309   -12283   -12228   -12179   -12179   -12249 
  -12364   -12476   -12567   -12652   -12739   -12827   -12926   -13041 
  -13132   -13171   -13173   -13151   -13117   -13093   -13070   -13038 
  -13018   -13031   -13081   -13157   -13232   -13259   -13220   -13174 
  -13161   -13154   -13157   -13186   -13235   -13265   -13228   -13140 
  -13057   -12985   -12923   -12860   -12766   -12675   -12638   -12640 
  -12649   -12654   -12636   -12594   -12526   -12422   -12286   -12114 
  -11939   -11828   -11765   -11692   -11608   -11529   -11491   -11531 
  -11611   -11699   -11807   -11908   -11954   -11927   -11859   -11809 
  -11751   -11649   -11545   -11464   -11398   -11384   -11470   -11653 
  -11854   -11989   -12055   -12094   -12102   -12066   -11996   -11925 
  -11885   -11843   -11773   -11712   -11688   -11696   -11735   -11812 
  -11893   -11946   -11994   -12052   -12109   -12151   -12189   -12228 
  -12274   -12345   -12459   -12584   -12698   -12788   -12856   -12906 
  -12916   -12899   -12893   -12883   -12826   -12712   -12572   -12449 
  -12359   -12290   -12231   -12148   -12044   -11952   -11892   -11884 
  -11934   -12015   -12124   -12276   -12433   -12568   -12695   -12827 
  -12972   -13109   -13215   -13297   -13379   -13447   -13448   -13366 
  -13266   -13188   -13119   -13081   -13088   -13100   -13099   -13113 
  -13167   -13231   -13269   -13271   -13223   -13119   -13012   -12973 
  -13012   -13069   -13107   -13130   -13124   -13073   -13004   -12934 
  -12868   -12816   -12758   -12656   -12540   -12467   -12445   -12438 
  -12433   -12448   -12503   -12592   -12692   -12789   -12896   -12989 
  -13022   -13003   -12968   -12885   -12715   -12509   -12351   -12263 
  -12233   -12240   -12282   -12374   -12494   -12618   -12745   -12856 
  -12946   -13004   -13035   -13120   -13298   -13489   -13640   -13761 
  -13863   -13956   -14025   -14053   -14021   -13891   -13693   -13516 
  -13390   -13313   -13292   -13297   -13285   -13234   -13184   -13203 
  -13273   -13320   -13323   -13302   -13277   -13258   -13252   -13293 
  -13375   -13440   -13462   -13431   -13371   -13324   -13288   -13250 
  -13207   -13157   -13128   -13147   -13192   -13224   -13217   -13176 
  -13107   -12993   -12849   -12721   -12615   -12515   -12442   -12434 
  -12487   -12591   -12768   -13007   -13240   -13400   -13489   -13593 
  -13743   -13873   -13923   -13906   -13883   -13851   -13767   -13672 
  -13603   -13524   -13409   -13289   -13205   -13158   -13084   -12928 
  -12707   -12482   -12310   -12205   -12117   -12006   -11885   -11766 
  -11666   -11641   -11691   -11742   -11745   -11731   -11728   -11716 
  -11685   -11634   -11527   -11352   -11161   -11011   -10903   -10828 
  -10785   -10756   -10710   -10640   -10573   -10523   -10467   -10382 
  -10277   -10179   -10112   -10106   -10185   -10334   -10484   -10596 
  -10725   -10926   -11176   -11402   -11554   -11645   -11716   -11770 
  -11800   -11828   -11884   -11977   -12102   -12245   -12409   -12582 
  -12758   -12942   -13105   -13216   -13298   -13400   -13513   -13589 
  -13601   -13549   -13459   -13375   -13359   -13431   -13545   -13643 
  -13707   -13752   -13772   -13772   -13778   -13798   -13797   -13734 
  -13620   -13462   -13252   -13035   -12857   -12727   -12663   -12673 
  -12706   -12706   -12677   -12640   -12604   -12594   -12596   -12619 
  -12660   -12700   -12766   -12865   -12945   -13004   -13049   -13059 
  -13042   -13031   -13081   -13211   -13383   -13576   -13756   -13869 
  -13917   -13936   -13936   -13937   -13954   -13971   -13991   -14019 
  -14049   -14098   -14161   -14206   -14207   -14131   -13965   -13765 
  -13603   -13500   -13408   -13296   -13189   -13093   -13001   -12945 
  -12930   -12935   -12945   -12928   -12892   -12847   -12771   -12676 
  -12606   -12537   -12436   -12317   -12240   -12258   -12344   -12459 
  -12602   -12735   -12820   -12865   -12897   -12964   -13032   -13023 
  -12947   -12831   -12661   -12451   -12249   -12083   -11952   -11827 
  -11693   -11584   -11503   -11449   -11445   -11495   -11577   -11659 
  -11715   -11734   -11726   -11708   -11704   -11726   -11769   -11811 
  -11847   -11900   -11975   -12082   -12248   -12447   -12609   -12702 
  -12745   -12741   -12685   -12633   -12619   -12627   -12636   -12641 
  -12680   -12769   -12884   -13005   -13123   -13219   -13339   -13518 
  -13730   -13938   -14092   -14156   -14158   -14121   -14053   -14006 
  -13998   -14011   -14029   -14040   -14042   -14045   -14048   -14065 
  -14116   -14197   -14268   -14272   -14206   -14107   -13976   -13797 
  -13605   -13436   -13273   -13076   -12883   -12750   -12663   -12586 
  -12540   -12540   -12542   -12513   -12460   -12394   -12320   -12213 
  -12039   -11831   -11635   -11453   -11296   -11172   -11075   -11001 
  -10933   -10886   -10878   -10883   -10889   -10912   -10948   -10982 
  -11018   -11055   -11115   -11225   -11362   -11497   -11607   -11678 
  -11724   -11751   -11777   -11858   -12004   -12170   -12325   -12461 
  -12563   -12638   -12726   -12852   -12999   -13115   -13194   -13270 
  -13358   -13450   -13535   -13599   -13618   -13581   -13513   -13448 
  -13401   -13377   -13374   -13382   -13389   -13406   -13447   -13508 
  -13578   -13647   -13697   -13728   -13741   -13743   -13774   -13855 
  -13944   -14002   -14048   -14110   -14180   -14237   -14304   -14430 
  -14573   -14666   -14708   -14719   -14712   -14715   -14742   -14798 
  -14852   -14852   -14801   -14705   -14562   -14401   -14218   -13999 
  -13776   -13566   -13382   -13255   -13163   -13066   -12965   -12877 
  -12792   -12688   -12599   -12556   -12518   -12451   -12367   -12253 
  -12100   -11936   -11789   -11673   -11576   -11484   -11418   -11387 
  -11358   -11306   -11225   -11146   -11086   -10999   -10878   -10758 
  -10669   -10613   -10588   -10594   -10665   -10812   -11013   -11236 
  -11464   -11684   -11888   -12079   -12253   -12387   -12459   -12471 
  -12449   -12418   -12366   -12260   -12124   -11978   -11815   -11650 
  -11511   -11408   -11364   -11354   -11349   -11352   -11360   -11375 
  -11406   -11462   -11570   -11716   -11867   -12008   -12123   -12208 
  -12302   -12428   -12567   -12703   -12837   -12987   -13162   -13324 
  -13443   -13537   -13606   -13639   -13659   -13686   -13728   -13779 
  -13813   -13803   -13763   -13720   -13694   -13690   -13705   -13737 
  -13775   -13830   -13946   -14118   -14287   -14424   -14530   -14588 
  -14598   -14571   -14505   -14395   -14247   -14080   -13915   -13768 
  -13645   -13554   -13460   -13313   -13109   -12891   -12703   -12544 
  -12380   -12231   -12106   -11963   -11827   -11762   -11761   -11790 
  -11832   -11865   -11871   -11865   -11886   -11963   -12075   -12193 
  -12294   -12376   -12442   -12487   -12521   -12550   -12586   -12645 
  -12707   -12729   -12681   -12572   -12434   -12280   -12125   -12005 
  -11897   -11766   -11630   -11515   -11425   -11362   -11348   -11384 
  -11461   -11588   -11776   -12016   -12287   -12553   -12765   -12924 
  -13057   -13158   -13227   -13288   -13351   -13432   -13520   -13581 
  -13614   -13636   -13639   -13603   -13529   -13443   -13369   -13305 
  -13265   -13252   -13243   -13224   -13205   -13186   -13188   -13215 
  -13239   -13261   -13301   -13340   -13342   -13284   -13171   -13039 
  -12891   -12704   -12496   -12297   -12101   -11912   -11753   -11612 
  -11468   -11326   -11214   -11151   -11117   -11092   -11101   -11145 
  -11203   -11283   -11396   -11541   -11707   -11859   -12005   -12172 
  -12328   -12465   -12627   -12783   -12893   -12962   -12980   -12962 
  -12942   -12901   -12849   -12793   -12714   -12625   -12537   -12440 
  -12367   -12313   -12212   -12067   -11925   -11799   -11686   -11574 
  -11468   -11377   -11284   -11207   -11183   -11199   -11248   -11335 
  -11445   -11562   -11701   -11861   -12017   -12141   -12217   -12253 
  -12283   -12322   -12375   -12455   -12545   -12650   -12806   -13000 
  -13201   -13374   -13489   -13562   -13594   -13567   -13509   -13450 
  -13390   -13351   -13344   -13352   -13360   -13375   -13406   -13441 
  -13450   -13421   -13373   -13324   -13281   -13239   -13213   -13231 
  -13298   -13400   -13522   -13663   -13795   -13898   -13991   -14092 
  -14169   -14210   -14223   -14193   -14133   -14049   -13940   -13834 
  -13745   -13666   -13609   -13558   -13497   -13447   -13408   -13389 
  -13397   -13427   -13483   -13554   -13612   -13653   -13667   -13660 
  -13655   -13652   -13644   -13614   -13571   -13548   -13540   -13525 
  -13497   -13439   -13343   -13224   -13069   -12874   -12681   -12521 
  -12399   -12321   -12275   -12249   -12240   -12240   -12247   -12247 
  -12235   -12214   -12167   -12078   -11965   -11831   -11682   -11547 
  -11416   -11261   -11109   -10990   -10895   -10821   -10771   -10750 
  -10762   -10791   -10831   -10910   -11017   -11109   -11188   -11265 
  -11344   -11429   -11514   -11604   -11693   -11761   -11819   -11881 
  -11932   -11978   -12008   -12000   -11965   -11925   -11900   -11880 
  -11823   -11732   -11628   -11503   -11384   -11295   -11221   -11183 
  -11184   -11195   -11227   -11272   -11306   -11346   -11400   -11460 
  -11514   -11549   -11592   -11666   -11754   -11865   -12020   -12199 
  -12395   -12603   -12808   -13015   -13211   -13371   -13513   -13645 
  -13761   -13878   -14018   -14193   -14374   -14534   -14679   -14820 
  -14943   -15056   -15168   -15256   -15288   -15257   -15188   -15099 
  -14990   -14878   -14793   -14724   -14651   -14578   -14521   -14478 
  -14443   -14409   -14373   -14358   -14380   -14426   -14476   -14511 
  -14521   -14503   -14447   -14353   -14239   -14133   -14048   -13987 
  -13952   -13933   -13918   -13875   -13788   -13674   -13548   -13421 
  -13293   -13147   -12992   -12850   -12715   -12607   -12545   -12506 
  -12474   -12457   -12467   -12503   -12546   -12571   -12579   -12563 
  -12486   -12347   -12185   -12036   -11900   -11769   -11655   -11562 
  -11491   -11462   -11487   -11539   -11604   -11664   -11681   -11662 
  -11635   -11597   -11558   -11526   -11506   -11514   -11558   -11624 
  -11736   -11898   -12085   -12275   -12447   -12561   -12626   -12648 
  -12627   -12599   -12598   -12594   -12550   -12498   -12464   -12440 
  -12426   -12433   -12455   -12476   -12471   -12436   -12391   -12339 
  -12285   -12233   -12185   -12129   -12048   -11950   -11858   -11776 
  -11686   -11589   -11487   -11380   -11268   -11148   -11017   -10866 
  -10704   -10559   -10443   -10350   -10295   -10272   -10258   -10242 
  -10218   -10197   -10203   -10230   -10268   -10314   -10365   -10412 
  -10442   -10457   -10474   -10496   -10513   -10535   -10573   -10625 
  -10705   -10816   -10953   -11111   -11277   -11465   -11672   -11866 
  -12039   -12198   -12336   -12441   -12513   -12560   -12614   -12664 
  -12707   -12791   -12924   -13069   -13221   -13400   -13601   -13797 
  -13967   -14121   -14253   -14338   -14385   -14416   -14443   -14465 
  -14488   -14516   -14551   -14571   -14555   -14500   -14411   -14289 
  -14138   -13981   -13861   -13788   -13744   -13724   -13733   -13770 
  -13834   -13927   -14042   -14166   -14269   -14328   -14359   -14376 
  -14391   -14409   -14412   -14397   -14373   -14339   -14299   -14254 
  -14193   -14121   -14040   -13938   -13817   -13689   -13551   -13400 
  -13263   -13176   -13136   -13115   -13090   -13059   -13020   -12985 
  -12970   -12964   -12960   -12958   -12942   -12918   -12906   -12920 
  -12970   -13041   -13112   -13167   -13196   -13200   -13182   -13136 
  -13070   -12989   -12900   -12814   -12731   -12654   -12582   -12505 
  -12438   -12426   -12471   -12569   -12714   -12884   -13084   -13298 
  -13473   -13617   -13748   -13852   -13936   -13998   -14045   -14091 
  -14107   -14085   -14031   -13937   -13818   -13686   -13536   -13400 
  -13285   -13181   -13096   -13022   -12943   -12870   -12796   -12714 
  -12637   -12557   -12482   -12424   -12367   -12326   -12298   -12244 
  -12178   -12106   -12039   -12005   -11996   -11998   -12033   -12073 
  -12096   -12118   -12125   -12089   -12021   -11917   -11781   -11616 
  -11414   -11211   -11038   -10885   -10758   -10648   -10563   -10525 
  -10521   -10543   -10589   -10617   -10623   -10639   -10659   -10678 
  -10705   -10748   -10820   -10912   -11010   -11117   -11227   -11337 
  -11443   -11537   -11603   -11658   -11715   -11767   -11819   -11873 
  -11927   -11981   -12037   -12104   -12201   -12328   -12472   -12642 
  -12831   -13023   -13213   -13396   -13578   -13752   -13910   -14057 
  -14188   -14307   -14428   -14543   -14643   -14750   -14883   -15049 
  -15221   -15383   -15526   -15635   -15670   -15601   -15450   -15261 
  -15068   -14886   -14725   -14586   -14450   -14296   -14131   -13973 
  -13840   -13736   -13660   -13599   -13533   -13459   -13401   -13379 
  -13389   -13419   -13466   -13522   -13567   -13603   -13651   -13705 
  -13748   -13774   -13765   -13713   -13602   -13440   -13248   -13045 
  -12838   -12640   -12433   -12201   -11950   -11707   -11499   -11321 
  -11148   -10983   -10832   -10696   -10588   -10528   -10535   -10606 
  -10725   -10876   -11047   -11233   -11439   -11647   -11824   -11965 
  -12074   -12164   -12247   -12334   -12417   -12479   -12510   -12525 
  -12559   -12604   -12642   -12679   -12704   -12704   -12680   -12629 
  -12555   -12479   -12430   -12417   -12429   -12452   -12469   -12469 
  -12449   -12437   -12449   -12459   -12448   -12421   -12374   -12299 
  -12205   -12113   -12040   -11975   -11913   -11855   -11803   -11746 
  -11678   -11616   -11554   -11473   -11392   -11335   -11306   -11306 
  -11348   -11422   -11514   -11608   -11693   -11762   -11815   -11869 
  -11931   -12000   -12073   -12140   -12208   -12278   -12336   -12372 
  -12397   -12410   -12426   -12452   -12482   -12519   -12568   -12611 
  -12654   -12707   -12768   -12822   -12850   -12853   -12846   -12837 
  -12825   -12822   -12826   -12835   -12852   -12865   -12884   -12919 
  -12964   -13020   -13077   -13132   -13207   -13300   -13402   -13509 
  -13609   -13721   -13856   -13990   -14122   -14249   -14350   -14415 
  -14453   -14481   -14497   -14492   -14465   -14411   -14323   -14196 
  -14045   -13900   -13749   -13576   -13424   -13319   -13247   -13197 
  -13157   -13113   -13070   -13043   -13034   -13039   -13041   -13023 
  -12984   -12926   -12861   -12800   -12729   -12658   -12609   -12561 
  -12526   -12507   -12453   -12357   -12240   -12097   -11961   -11848 
  -11770   -11742   -11743   -11765   -11832   -11924   -12028   -12137 
  -12218   -12272   -12320   -12364   -12414   -12463   -12501   -12532 
  -12546   -12548   -12552   -12528   -12475   -12433   -12401   -12357 
  -12312   -12266   -12233   -12218   -12208   -12210   -12232   -12256 
  -12280   -12325   -12379   -12441   -12517   -12598   -12671   -12725 
  -12766   -12812   -12874   -12960   -13058   -13149   -13220   -13296 
  -13379   -13454   -13501   -13514   -13486   -13423   -13335   -13231 
  -13136   -13078   -13061   -13077   -13108   -13143   -13169   -13157 
  -13105   -13054   -13016   -12988   -12974   -12974   -12989   -13016 
  -13047   -13081   -13116   -13149   -13176   -13196   -13220   -13273 
  -13343   -13406   -13468   -13528   -13576   -13624   -13664   -13679 
  -13668   -13641   -13614   -13598   -13571   -13510   -13410   -13265 
  -13076   -12870   -12691   -12552   -12460   -12413   -12388   -12376 
  -12386   -12410   -12430   -12433   -12413   -12403   -12417   -12437 
  -12460   -12488   -12536   -12606   -12671   -12726   -12796   -12866 
  -12923   -12966   -12987   -12984   -12961   -12918   -12869   -12811 
  -12730   -12626   -12509   -12384   -12252   -12100   -11944   -11800 
  -11657   -11511   -11353   -11188   -11041   -10917   -10809   -10721 
  -10654   -10606   -10585   -10593   -10629   -10674   -10708   -10732 
  -10758   -10794   -10859   -10970   -11130   -11335   -11566   -11808 
  -12052   -12285   -12515   -12756   -12984   -13188   -13356   -13479 
  -13572   -13653   -13743   -13846   -13945   -14041   -14143   -14251 
  -14374   -14508   -14638   -14758   -14852   -14925   -14985   -15039 
  -15098   -15149   -15172   -15176   -15152   -15098   -15034   -14960 
  -14855   -14723   -14580   -14431   -14280   -14138   -14004   -13869 
  -13733   -13601   -13463   -13329   -13213   -13116   -13036   -12968 
  -12895   -12820   -12758   -12715   -12679   -12642   -12614   -12592 
  -12564   -12537   -12502   -12453   -12426   -12425   -12410   -12391 
  -12379   -12349   -12301   -12245   -12167   -12070   -11961   -11846 
  -11742   -11658   -11596   -11556   -11516   -11481   -11469   -11484 
  -11523   -11591   -11670   -11734   -11767   -11774   -11769   -11758 
  -11736   -11715   -11693   -11661   -11619   -11570   -11512   -11452 
  -11399   -11354   -11322   -11308   -11317   -11353   -11414   -11483 
  -11550   -11618   -11686   -11759   -11834   -11901   -11971   -12047 
  -12120   -12191   -12253   -12287   -12303   -12318   -12325   -12324 
  -12318   -12316   -12320   -12340   -12375   -12417   -12467   -12523 
  -12568   -12600   -12633   -12661   -12692   -12731   -12781   -12870 
  -12976   -13068   -13174   -13281   -13365   -13451   -13535   -13599 
  -13668   -13738   -13797   -13845   -13887   -13914   -13927   -13937 
  -13946   -13959   -13991   -14044   -14091   -14139   -14195   -14243 
  -14274   -14292   -14289   -14262   -14200   -14103   -13987   -13845 
  -13686   -13535   -13406   -13308   -13243   -13212   -13216   -13240 
  -13278   -13331   -13386   -13436   -13474   -13502   -13532   -13551 
  -13551   -13543   -13518   -13474   -13433   -13381   -13306   -13234 
  -13161   -13082   -13009   -12938   -12860   -12777   -12679   -12568 
  -12467   -12380   -12317   -12270   -12237   -12231   -12232   -12220 
  -12202   -12172   -12133   -12086   -12012   -11936   -11885   -11839 
  -11813   -11819   -11830   -11836   -11828   -11793   -11749   -11696 
  -11627   -11568   -11529   -11502   -11507   -11546   -11603   -11682 
  -11777   -11866   -11956   -12037   -12098   -12156   -12213   -12248 
  -12268   -12294   -12324   -12347   -12363   -12376   -12388   -12402 
  -12409   -12418   -12444   -12476   -12503   -12538   -12584   -12631 
  -12673   -12692   -12685   -12680   -12661   -12618   -12583   -12549 
  -12479   -12405   -12333   -12241   -12159   -12112   -12089   -12091 
  -12124   -12175   -12233   -12295   -12363   -12429   -12496   -12556 
