Origin Time       2025/01/13 21:19:00
Lat.              31.8
Long.             131.6
Depth. (km)       30
Mag.              6.9
Station Code      FKOH10
Station Lat.      33.2891
Station Long.     130.8170
Station Height(m) -10
Record Time       2025/01/13 21:20:00
Sampling Freq(Hz) 100Hz
Duration Time(s)  175
Dir.              3
Scale Factor      2942(gal)/8224139
Max. Acc. (gal)   1.989
Last Correction   2025/01/13 21:20:01
Memo.             
[...]
   42931    43042    43062    43009    42932    42878    42878    42932 
   43040    43201    43383    43594    43800    43881    43811    43681 
   43561    43499    43514    43536    43490    43370    43202    43015 
   42828    42606    42300    41974    41743    41677    41754    41875 
   41980    42061    42082    42037    42024    42113    42280    42475 
   42672    42863    42997    43013    42928    42811    42696    42599 
   42542    42560    42655    42790    42919    42996    42985    42894 
   42788    42742    42772    42836    42931    43027    43020    42893 
   42736    42611    42539    42518    42533    42564    42564    42519 
   42479    42461    42403    42252    42006    41685    41330    41034 
   40879    40842    40853    40886    40960    41060    41149    41247 
   41372    41497    41625    41755    41839    41878    41920    41976 
   42063    42215    42466    42805    43121    43326    43416    43403 
   43320    43252    43290    43444    43669    43912    44131    44300 
   44413    44482    44514    44517    44502    44508    44571    44671 
   44752    44776    44716    44555    44317    44045    43785    43556 
   43357    43200    43087    43043    43073    43146    43248    43371 
   43494    43586    43602    43524    43362    43146    42921    42714 
   42502    42268    42048    41899    41841    41845    41862    41863 
   41821    41735    41659    41619    41550    41440    41326    41216 
   41161    41192    41278    41388    41500    41584    41639    41694 
   41774    41898    42066    42245    42398    42527    42658    42742 
   42700    42527    42306    42142    42086    42130    42261    42442 
   42653    42904    43183    43405    43478    43393    43235    43094 
   43009    42954    42901    42853    42804    42770    42781    42778 
   42674    42483    42240    41968    41754    41685    41747    41870 
   42029    42253    42552    42867    43077    43094    42936    42689 
   42462    42329    42291    42348    42492    42703    42959    43205 
   43364    43438    43494    43592    43734    43889    44035    44108 
   44034    43845    43633    43443    43295    43248    43317    43440 
   43575    43721    43852    43927    43942    43891    43752    43546 
   43341    43170    43036    42920    42778    42614    42462    42329 
   42203    42086    41976    41899    41925    42097    42367    42616 
   42735    42695    42558    42418    42354    42395    42493    42585 
   42647    42662    42601    42489    42369    42246    42161    42159 
   42248    42418    42601    42705    42707    42653    42607    42587 
   42577    42574    42593    42670    42815    42975    43082    43125 
   43132    43104    43027    42893    42714    42514    42326    42183 
   42087    42029    41995    41962    41916    41852    41790    41818 
   41986    42202    42352    42437    42502    42550    42558    42523 
   42452    42360    42286    42272    42313    42348    42348    42341 
   42323    42280    42242    42229    42211    42179    42142    42074 
   41959    41867    41848    41881    41947    42053    42199    42350 
   42468    42569    42691    42792    42800    42742    42681    42620 
   42561    42531    42538    42556    42542    42471    42352    42221 
   42102    42009    41956    41955    42012    42133    42306    42481 
   42611    42689    42703    42647    42558    42473    42421    42385 
   42310    42179    42049    41949    41870    41820    41817    41851 
   41909    41990    42064    42084    42032    41943    41859    41810 
   41810    41856    41905    41940    41987    42034    42072    42113 
   42142    42174    42249    42367    42483    42560    42576    42526 
   42414    42260    42095    41947    41855    41836    41899    42070 
   42309    42531    42715    42880    43023    43120    43155    43154 
   43146    43114    43058    43023    43038    43085    43129    43137 
   43108    43071    43029    42975    42931    42935    43012    43135 
   43251    43374    43509    43603    43615    43571    43505    43418 
   43289    43086    42817    42515    42203    41924    41739    41654 
   41634    41632    41611    41559    41486    41392    41295    41249 
   41310    41489    41743    41998    42211    42392    42541    42633 
   42649    42596    42503    42407    42365    42435    42619    42898 
   43232    43551    43826    44038    44134    44116    44066    44016 
   43941    43857    43815    43831    43906    44031    44201    44397 
   44608    44851    45102    45288    45393    45457    45482    45423 
   45250    44995    44736    44550    44450    44450    44570    44772 
   44983    45146    45247    45333    45423    45481    45468    45358 
   45166    44942    44721    44523    44374    44297    44294    44346 
   44423    44504    44558    44560    44518    44451    44352    44219 
   44066    43930    43826    43756    43740    43760    43768    43748 
   43698    43626    43541    43463    43422    43441    43526    43661 
   43799    43912    43996    44037    43997    43854    43629    43380 
   43147    42907    42643    42391    42160    41922    41667    41415 
   41199    41027    40880    40768    40699    40671    40683    40744 
   40852    40983    41104    41224    41361    41521    41701    41867 
   41964    42002    42040    42074    42076    42063    42067    42088 
   42130    42198    42263    42314    42380    42466    42554    42670 
   42835    42988    43079    43108    43092    43052    42984    42880 
   42766    42693    42668    42642    42615    42630    42704    42815 
   42928    43015    43062    43070    43038    42954    42822    42670 
   42533    42433    42407    42434    42421    42333    42230    42142 
   42033    41881    41677    41427    41152    40892    40717    40644 
   40597    40517    40424    40348    40306    40288    40263    40216 
   40161    40126    40130    40184    40275    40393    40548    40722 
   40875    40992    41062    41087    41106    41139    41192    41308 
   41492    41694    41885    42039    42137    42199    42244    42296 
   42384    42506    42651    42797    42917    43033    43160    43251 
   43256    43163    42969    42687    42350    42024    41758    41565 
   41419    41299    41241    41285    41399    41520    41646    41783 
   41912    42001    42051    42066    42022    41883    41670    41501 
   41466    41553    41697    41875    42090    42350    42662    43028 
   43429    43808    44089    44270    44429    44635    44882    45104 
   45231    45262    45266    45326    45470    45648    45804    45952 
   46144    46394    46665    46921    47150    47345    47521    47696 
   47848    47933    47947    47908    47830    47730    47590    47416 
   47256    47119    46974    46824    46676    46531    46371    46188 
   45994    45801    45627    45480    45346    45198    45007    44787 
   44574    44374    44174    43934    43615    43241    42881    42581 
   42349    42167    42006    41829    41620    41362    41035    40671 
   40344    40099    39945    39883    39920    40032    40149    40228 
   40296    40347    40362    40371    40389    40382    40365    40359 
   40373    40441    40595    40803    41037    41280    41512    41743 
   41975    42175    42314    42383    42388    42357    42322    42325 
   42385    42483    42564    42595    42557    42435    42260    42087 
   41921    41758    41611    41474    41332    41173    40984    40759 
   40509    40231    39916    39604    39343    39185    39186    39337 
   39572    39814    39996    40123    40244    40387    40544    40706 
   40863    41000    41141    41312    41507    41702    41887    42051 
   42196    42326    42439    42550    42650    42716    42734    42697 
   42620    42537    42488    42527    42650    42790    42901    42977 
   43047    43135    43225    43320    43440    43595    43776    43965 
   44158    44351    44514    44621    44686    44722    44732    44722 
   44701    44732    44879    45100    45312    45454    45515    45539 
   45571    45612    45638    45631    45594    45516    45366    45172 
   44992    44853    44780    44767    44771    44770    44740    44641 
   44444    44151    43776    43348    42915    42516    42148    41800 
   41474    41175    40903    40695    40562    40493    40485    40535 
   40621    40697    40693    40578    40367    40089    39776    39468 
   39189    38919    38662    38470    38379    38387    38481    38623 
   38788    38952    39093    39233    39402    39567    39694    39816 
   39997    40250    40532    40811    41094    41400    41755    42161 
   42593    43039    43475    43879    44263    44625    44949    45250 
   45523    45739    45897    45997    46048    46062    46048    46044 
   46106    46237    46371    46453    46473    46430    46330    46209 
   46084    45943    45783    45609    45419    45219    45041    44918 
   44844    44790    44733    44655    44558    44440    44302    44142 
   43908    43561    43139    42700    42277    41912    41625    41396 
   41196    41023    40868    40730    40612    40504    40394    40305 
   40257    40243    40257    40312    40398    40506    40647    40780 
   40857    40875    40855    40817    40749    40629    40447    40178 
   39833    39488    39201    38965    38757    38576    38438    38340 
   38265    38219    38223    38259    38313    38403    38526    38676 
   38840    38993    39137    39270    39364    39445    39556    39702 
   39876    40092    40362    40672    40996    41339    41712    42115 
   42537    42955    43344    43663    43904    44097    44284    44481 
   44668    44829    44977    45117    45262    45463    45752    46106 
   46468    46758    46950    47063    47089    47009    46843    46634 
   46425    46240    46093    45983    45891    45808    45716    45616 
   45542    45488    45423    45361    45328    45335    45380    45436 
   45469    45468    45446    45412    45358    45283    45193    45104 
   45040    45003    44971    44932    44891    44832    44755    44694 
   44660    44635    44616    44602    44572    44500    44354    44124 
   43837    43526    43239    43012    42851    42734    42624    42488 
   42302    42057    41767    41442    41087    40728    40410    40147 
   39920    39727    39568    39406    39213    39021    38888    38827 
   38813    38815    38838    38896    38970    39028    39043    38988 
   38866    38716    38584    38523    38595    38797    39081    39421 
   39831    40321    40867    41424    41960    42431    42795    43033 
   43173    43268    43393    43578    43815    44069    44307    44516 
   44694    44852    45002    45130    45233    45296    45284    45179 
   44982    44705    44385    44074    43804    43595    43452    43360 
   43305    43271    43254    43259    43266    43262    43275    43313 
   43371    43440    43494    43534    43572    43590    43594    43621 
   43679    43753    43852    43981    44119    44217    44219    44109 
   43919    43665    43371    43071    42785    42514    42253    42007 
   41789    41575    41342    41095    40851    40624    40446    40344 
   40333    40427    40591    40787    41008    41254    41542    41885 
   42242    42580    42903    43191    43418    43590    43717    43796 
   43865    43977    44142    44324    44485    44591    44652    44716 
   44797    44886    44984    45072    45114    45115    45103    45084 
   45056    45017    44955    44859    44728    44582    44436    44284 
   44116    43949    43808    43687    43546    43367    43155    42935 
   42736    42572    42468    42465    42569    42750    42977    43237 
   43513    43777    44015    44215    44379    44513    44624    44739 
   44863    44971    45052    45121    45195    45293    45409    45515 
   45596    45636    45624    45557    45442    45297    45137    44942 
   44702    44413    44095    43780    43505    43282    43097    42938 
   42807    42691    42554    42372    42156    41940    41744    41561 
   41382    41212    41057    40923    40830    40792    40814    40872 
   40940    41002    41054    41060    40987    40860    40718    40567 
   40396    40228    40113    40053    40031    40034    40038    40011 
   39939    39834    39708    39582    39467    39376    39328    39317 
   39332    39378    39464    39591    39748    39914    40084    40248 
   40397    40522    40628    40722    40817    40905    40988    41069 
   41145    41216    41289    41364    41443    41539    41659    41796 
   41913    41978    41986    41956    41925    41936    41987    42064 
   42172    42319    42519    42768    43035    43291    43548    43837 
   44154    44478    44802    45111    45384    45619    45821    45983 
   46101    46190    46288    46427    46608    46808    47013    47189 
   47293    47294    47209    47082    46938    46774    46585    46380 
   46187    46013    45848    45693    45547    45414    45291    45180 
   45077    44980    44913    44899    44921    44953    45003    45067 
   45123    45165    45187    45193    45195    45193    45189    45181 
   45173    45185    45231    45296    45346    45333    45229    45031 
   44764    44443    44091    43737    43406    43112    42866    42665 
   42498    42348    42190    42001    41783    41540    41266    40959 
   40624    40278    39937    39607    39286    38985    38720    38508 
   38361    38265    38190    38098    37967    37800    37623    37461 
   37322    37222    37195    37250    37359    37496    37658    37840 
   38021    38179    38308    38410    38479    38515    38537    38551 
   38573    38615    38670    38735    38821    38943    39104    39299 
   39515    39750    40000    40255    40521    40794    41075    41373 
   41688    42020    42352    42657    42925    43166    43371    43530 
   43657    43769    43884    44019    44172    44334    44491    44625 
   44722    44784    44811    44791    44722    44643    44612    44647 
   44725    44824    44918    44998    45080    45158    45198    45181 
   45100    44967    44833    44745    44702    44682    44682    44713 
   44779    44864    44921    44917    44863    44783    44672    44513 
   44304    44084    43895    43749    43644    43587    43572    43592 
   43638    43710    43800    43888    43957    44035    44146    44278 
   44432    44608    44778    44942    45119    45314    45532    45792 
   46091    46402    46688    46931    47132    47283    47371    47418 
   47461    47518    47601    47711    47825    47929    48000    48004 
   47953    47869    47763    47650    47553    47467    47356    47204 
   47028    46851    46700    46596    46521    46441    46352    46244 
   46126    46021    45925    45805    45642    45450    45233    44975 
   44689    44401    44128    43883    43673    43486    43270    42993 
   42664    42292    41904    41524    41172    40853    40558    40273 
   40015    39815    39665    39529    39379    39201    39009    38836 
   38730    38716    38786    38901    39055    39251    39464    39658 
   39807    39915    39997    40050    40063    40053    40032    39988 
   39897    39777    39656    39556    39479    39413    39359    39322 
   39307    39322    39356    39397    39441    39499    39564    39633 
   39729    39853    39974    40063    40124    40178    40254    40355 
   40471    40612    40795    41030    41311    41616    41901    42122 
   42257    42310    42287    42199    42082    41974    41889    41831 
   41804    41810    41845    41914    42007    42110    42214    42319 
   42437    42577    42716    42817    42846    42776    42600    42340 
   42033    41721    41430    41196    41057    41022    41067    41138 
   41191    41220    41239    41235    41196    41118    41014    40891 
   40745    40585    40433    40301    40189    40108    40063    40053 
   40077    40130    40208    40308    40428    40576    40760    40975 
   41222    41523    41882    42276    42668    43035    43371    43692 
   44008    44327    44648    44955    45230    45485    45721    45906 
   46029    46111    46178    46238    46294    46338    46386    46438 
   46508    46611    46718    46803    46880    46955    47024    47093 
   47148    47181    47201    47216    47204    47146    47028    46853 
   46645    46445    46300    46224    46188    46172    46155    46130 
   46087    46002    45858    45644    45361    45025    44674    44342 
   44054    43823    43626    43447    43282    43114    42924    42689 
   42394    42047    41671    41284    40906    40545    40192    39838 
   39487    39151    38827    38516    38241    38032    37926    37913 
   37945    37989    38026    38045    38037    38006    37968    37929 
   37885    37856    37863    37908    37983    38087    38205    38318 
   38416    38499    38574    38659    38765    38892    39042    39217 
   39414    39630    39850    40061    40262    40455    40656    40895 
   41180    41500    41854    42237    42626    43013    43403    43784 
   44157    44521    44844    45103    45316    45500    45652    45773 
   45875    45960    46005    45994    45925    45810    45688    45574 
   45458    45341    45241    45172    45121    45069    45030    45007 
   44984    44941    44865    44759    44640    44521    44405    44294 
   44205    44146    44109    44089    44080    44072    44065    44077 
   44115    44172    44235    44289    44319    44331    44340    44354 
   44383    44431    44486    44548    44604    44636    44625    44563 
   44459    44334    44196    44080    44028    44065    44182    44363 
   44575    44794    44998    45173    45333    45470    45563    45613 
   45615    45555    45446    45304    45139    44964    44799    44644 
   44481    44292    44064    43785    43464    43120    42778    42464 
   42192    41971    41793    41642    41535    41501    41532    41600 
   41694    41802    41899    41976    42051    42126    42190    42242 
   42294    42345    42395    42431    42435    42410    42356    42269 
   42157    42014    41820    41574    41307    41021    40713    40412 
   40154    39955    39810    39714    39664    39641    39644    39680 
   39735    39803    39876    39943    40007    40055    40070    40082 
   40142    40277    40498    40774    41057    41316    41532    41697 
   41827    41948    42082    42240    42421    42596    42734    42827 
   42888    42934    42954    42947    42927    42907    42909    42946 
   43005    43082    43164    43244    43309    43343    43341    43316 
   43294    43294    43316    43367    43445    43519    43580    43626 
   43664    43694    43703    43699    43707    43733    43767    43810 
   43857    43907    43956    43993    44010    44012    44010    43991 
   43957    43924    43873    43800    43729    43653    43579    43526 
   43487    43456    43452    43470    43476    43448    43384    43291 
   43163    42989    42776    42543    42319    42130    41975    41850 
   41758    41693    41634    41566    41492    41407    41318    41237 
   41177    41145    41133    41127    41123    41137    41183    41264 
   41369    41484    41600    41716    41833    41952    42063    42137 
   42138    42061    41929    41767    41600    41449    41331    41243 
   41158    41073    40992    40909    40814    40716    40618    40543 
