Origin Time       2025/01/13 21:19:00
Lat.              31.8
Long.             131.6
Depth. (km)       30
Mag.              6.9
Station Code      FKOH01
Station Lat.      33.8849
Station Long.     130.9798
Station Height(m) 15
Record Time       2025/01/13 21:20:12
Sampling Freq(Hz) 100Hz
Duration Time(s)  120
Dir.              4
Scale Factor      7845(gal)/8223790
Max. Acc. (gal)   0.789
Last Correction   2025/01/13 21:20:13
Memo.             
[...]
    -654     -707     -714     -661     -557     -418     -267     -135 
     -52      -43     -112     -244     -421     -602     -745     -816 
    -789     -665     -479     -280     -124      -51      -60     -132 
    -238     -346     -434     -508     -576     -630     -668     -676 
    -650     -612     -585     -581     -607     -638     -646     -625 
    -579     -531     -513     -523     -557     -596     -610     -576 
    -515     -460     -430     -430     -461     -507     -540     -540 
    -514     -465     -388     -294     -190      -70       44      120 
     143      109       22     -109     -270     -422     -522     -552 
    -529     -481     -437     -411     -405     -421     -453     -486 
    -513     -541     -584     -630     -652     -638     -603     -556 
    -511     -486     -481     -487     -475     -422     -337     -243 
    -163     -117     -109     -140     -211     -310     -422     -530 
    -615     -666     -679     -643     -571     -479     -395     -329 
    -268     -203     -151     -118     -114     -151     -233     -352 
    -492     -638     -765     -853     -882     -846     -756     -649 
    -561     -514     -504     -515     -527     -533     -537     -553 
    -585     -621     -646     -653     -634     -591     -544     -508 
    -488     -481     -475     -459     -423     -368     -311     -275 
    -270     -297     -333     -365     -405     -444     -471     -490 
    -499     -496     -476     -422     -337     -245     -164      -98 
     -43        0       28       31        2      -48     -106     -170 
    -234     -297     -351     -396     -454     -525     -596     -661 
    -711     -733     -718     -657     -561     -453     -352     -259 
    -183     -143     -149     -205     -303     -426     -549     -635 
    -675     -665     -610     -527     -446     -382     -330     -288 
    -260     -241     -228     -228     -251     -302     -384     -475 
    -538     -560     -545     -502     -433     -342     -251     -180 
    -151     -171     -234     -322     -418     -525     -633     -723 
    -788     -831     -855     -864     -849     -789     -683     -542 
    -383     -226      -98       -4       59       89       76       27 
     -51     -156     -288     -434     -571     -685     -762     -788 
    -762     -699     -612     -519     -433     -368     -346     -383 
    -463     -567     -680     -787     -868     -908     -900     -845 
    -756     -642     -521     -406     -310     -251     -243     -287 
    -372     -472     -562     -625     -648     -639     -612     -573 
    -531     -494     -469     -465     -471     -475     -480     -479 
    -452     -396     -328     -259     -198     -157     -156     -197 
    -279     -407     -561     -712     -845     -923     -927     -859 
    -741     -607     -484     -373     -280     -210     -163     -135 
    -128     -139     -166     -203     -245     -283     -325     -383 
    -453     -529     -607     -684     -751     -797     -801     -758 
    -687     -604     -517     -429     -344     -270     -222     -214 
    -244     -286     -310     -305     -272     -228     -190     -178 
    -213     -294     -409     -544     -685     -808     -891     -927 
    -916     -865     -792     -710     -619     -534     -461     -403 
    -376     -383     -414     -461     -506     -526     -522     -504 
    -479     -468     -491     -533     -577     -618     -645     -658 
    -672     -689     -708     -726     -727     -695     -633     -544 
    -448     -372     -329     -313     -319     -333     -349     -372 
    -398     -427     -464     -487     -499     -510     -515     -519 
    -531     -553     -583     -610     -625     -635     -656     -688 
    -734     -791     -861     -938    -1008    -1067    -1104    -1104 
   -1073    -1016     -938     -845     -753     -669     -588     -502 
    -418     -345     -291     -275     -295     -336     -390     -442 
    -480     -503     -515     -519     -511     -495     -479     -463 
    -445     -433     -421     -409     -400     -399     -399     -399 
    -403     -403     -405     -427     -468     -504     -529     -530 
    -504     -456     -399     -355     -329     -325     -340     -363 
    -386     -405     -406     -376     -318     -238     -155      -91 
     -64      -79     -137     -224     -318     -406     -471     -506 
    -511     -494     -468     -440     -417     -407     -402     -398 
    -415     -469     -553     -652     -746     -818     -837     -789 
    -691     -561     -421     -292     -194     -141     -144     -193 
    -272     -368     -460     -534     -572     -558     -510     -436 
    -338     -226     -126      -67      -64     -106     -186     -291 
    -388     -463     -517     -558     -587     -585     -550     -488 
    -407     -309     -190      -72       17       76      102       87 
      48        0      -56     -120     -176     -218     -251     -280 
    -311     -353     -402     -444     -473     -488     -477     -453 
    -423     -386     -351     -332     -329     -333     -340     -353 
    -369     -379     -371     -344     -315     -295     -295     -322 
    -380     -459     -538     -596     -622     -629     -637     -649 
    -661     -668     -657     -623     -580     -552     -561     -611 
    -695     -789     -878     -958    -1021    -1063    -1088    -1089 
   -1059    -1007     -938     -861     -799     -764     -751     -762 
    -793     -839     -891     -945     -999    -1039    -1054    -1030 
    -963     -880     -800     -734     -688     -675     -692     -730 
    -778     -830     -868     -876     -849     -783     -679     -562 
    -457     -383     -348     -344     -346     -334     -297     -241 
    -182     -139     -126     -133     -145     -157     -166     -179 
    -214     -271     -337     -391     -409     -388     -344     -294 
    -253     -237     -253     -299     -367     -446     -534     -618 
    -703     -791     -872     -915     -903     -849     -769     -688 
    -631     -602     -596     -606     -600     -564     -496     -407 
    -329     -283     -268     -282     -313     -349     -384     -407 
    -410     -399     -379     -351     -307     -255     -203     -159 
    -128     -112     -103     -101     -105     -108     -108     -118 
    -140     -172     -229     -317     -436     -572     -700     -799 
    -854     -850     -783     -664     -511     -342     -195      -98 
     -55      -60      -95     -151     -222     -302     -384     -461 
    -538     -611     -670     -703     -700     -665     -603     -526 
    -448     -369     -301     -255     -234     -247     -294     -364 
    -433     -480     -495     -473     -423     -363     -306     -267 
    -253     -256     -264     -275     -294     -315     -351     -405 
    -465     -525     -568     -576     -541     -473     -378     -271 
    -191     -163     -180     -230     -299     -365     -423     -464 
    -483     -499     -534     -595     -676     -773     -872     -957 
   -1028    -1078    -1105    -1115    -1107    -1077    -1026     -961 
    -885     -812     -765     -749     -761     -791     -815     -819 
    -804     -776     -743     -716     -707     -708     -708     -700 
    -689     -669     -649     -637     -627     -626     -623     -596 
    -548     -494     -434     -391     -372     -353     -319     -274 
    -209     -130      -63      -18        0      -16      -56     -101 
    -143     -167     -156     -122      -85      -35       32       99 
     157      199      205      168       93      -13     -130     -229 
    -298     -332     -325     -294     -264     -241     -237     -265 
    -315     -363     -395     -394     -363     -307     -236     -164 
    -112      -85      -78      -93     -125     -166     -199     -225 
    -236     -228     -207     -178     -139      -97      -60      -45 
     -70     -135     -221     -305     -360     -372     -348     -310 
    -283     -276     -292     -342     -427     -533     -639     -730 
    -795     -819     -800     -737     -641     -531     -432     -359 
    -337     -369     -440     -538     -637     -704     -729     -706 
    -641     -557     -473     -396     -341     -306     -267     -221 
    -186     -172     -199     -275     -380     -486     -571     -626 
    -654     -661     -657     -648     -619     -569     -502     -418 
    -336     -271     -228     -220     -253     -322     -409     -498 
    -581     -654     -724     -785     -826     -824     -765     -649 
    -498     -340     -209     -126      -97     -112     -157     -213 
    -272     -337     -402     -467     -527     -580     -629     -670 
    -695     -702     -692     -658     -591     -500     -406     -325 
    -264     -221     -198     -201     -221     -260     -321     -390 
    -456     -517     -552     -546     -496     -399     -278     -156 
     -60      -17      -39     -118     -230     -345     -446     -529 
    -587     -619     -631     -638     -646     -643     -625     -587 
    -525     -437     -326     -203      -83       14       76       89 
      47      -49     -197     -373     -561     -731     -858     -908 
    -859     -719     -508     -259      -20      162      261      263 
     163       -2     -198     -392     -557     -670     -729     -726 
    -669     -577     -471     -364     -282     -232     -207     -211 
    -230     -241     -238     -230     -225     -232     -256     -287 
    -310     -319     -322     -329     -348     -382     -426     -465 
    -487     -483     -444     -376     -297     -221     -164     -141 
    -167     -240     -337     -423     -483     -511     -503     -468 
    -403     -318     -244     -209     -226     -301     -417     -542 
    -639     -687     -680     -642     -595     -554     -534     -534 
    -541     -554     -579     -607     -646     -706     -778     -864 
    -949    -1009    -1034    -1032    -1009     -969     -924     -880 
    -842     -814     -801     -815     -847     -885     -916     -935 
    -934     -920     -901     -885     -874     -866     -854     -837 
    -830     -843     -868     -896     -915     -905     -866     -805 
    -730     -656     -604     -575     -562     -567     -580     -604 
    -634     -664     -691     -715     -723     -718     -714     -726 
    -757     -808     -874     -946    -1012    -1067    -1097    -1084 
   -1035     -954     -845     -719     -585     -456     -345     -276 
    -247     -247     -271     -319     -386     -456     -515     -560 
    -579     -572     -545     -514     -500     -515     -553     -606 
    -662     -714     -762     -811     -847     -864     -855     -822 
    -770     -719     -669     -618     -561     -490     -405     -321 
    -267     -260     -299     -371     -467     -569     -669     -754 
    -812     -842     -847     -832     -803     -761     -719     -680 
    -652     -634     -627     -637     -672     -719     -769     -812 
    -838     -842     -822     -774     -703     -610     -514     -433 
    -373     -332     -310     -319     -361     -423     -483     -518 
    -522     -491     -426     -342     -259     -187     -137     -101 
     -67      -40      -25      -25      -54     -116     -193     -265 
    -324     -353     -357     -348     -325     -291     -255     -218 
    -183     -152     -122      -99      -89      -81      -72      -75 
     -93     -126     -168     -201     -205     -176     -125      -72 
     -43      -52      -95     -163     -237     -299     -340     -360 
    -367     -365     -356     -338     -326     -333     -360     -403 
    -467     -544     -625     -715     -803     -870     -903     -893 
    -853     -803     -765     -750     -756     -773     -773     -746 
    -700     -652     -618     -603     -606     -608     -594     -567 
    -541     -526     -527     -537     -534     -507     -449     -363 
    -279     -228     -221     -265     -342     -421     -490     -548 
    -596     -635     -666     -677     -652     -581     -480     -372 
    -270     -179     -101      -37        4       31       47       43 
      18       -9      -29      -40      -40      -22        9       45 
      79       90       64        8      -60     -122     -163     -175 
    -159     -128      -89      -43        1       36       70      102 
     121      114       81       17      -62     -141     -203     -241 
    -249     -243     -232     -229     -232     -234     -237     -252 
    -278     -310     -353     -392     -421     -445     -460     -461 
    -448     -418     -365     -282     -172      -62       29       85 
     106       97       43      -54     -175     -305     -433     -556 
    -664     -754     -827     -878     -896     -882     -837     -754 
    -645     -521     -399     -299     -230     -189     -186     -230 
    -313     -423     -554     -685     -801     -886     -928     -930 
    -888     -797     -673     -535     -409     -306     -245     -243 
    -290     -378     -498     -626     -734     -811     -843     -824 
    -770     -697     -611     -522     -444     -380     -326     -283 
    -259     -257     -287     -349     -426     -510     -595     -666 
    -719     -753     -764     -753     -727     -683     -616     -527 
    -421     -313     -221     -170     -183     -276     -437     -637 
    -845    -1034    -1177    -1263    -1291    -1267    -1194    -1080 
    -934     -780     -643     -544     -494     -492     -530     -602 
    -693     -788     -874     -946     -999    -1024    -1017     -980 
    -908     -814     -703     -580     -457     -351     -268     -213 
    -190     -202     -245     -310     -391     -475     -564     -654 
    -737     -807     -862     -897     -909     -895     -851     -787 
    -712     -638     -580     -541     -519     -517     -533     -573 
    -646     -745     -855     -966    -1054    -1088    -1057     -963 
    -822     -658     -513     -405     -334     -295     -280     -288 
    -321     -380     -456     -546     -637     -712     -760     -764 
    -724     -653     -561     -461     -361     -276     -221     -199 
    -217     -272     -349     -440     -527     -595     -635     -653 
    -645     -619     -575     -502     -403     -292     -190     -109 
     -52      -29      -39      -60      -76      -81      -71      -62 
     -71     -108     -168     -241     -310     -369     -419     -456 
    -479     -481     -463     -425     -383     -353     -352     -383 
    -442     -519     -594     -643     -653     -627     -581     -530 
    -502     -507     -531     -567     -594     -591     -554     -492 
    -417     -349     -306     -291     -301     -324     -342     -351 
    -348     -344     -349     -364     -387     -407     -403     -371 
    -326     -290     -276     -295     -340     -399     -471     -548 
    -616     -677     -733     -777     -816     -843     -843     -811 
    -751     -672     -594     -533     -488     -461     -463     -487 
    -517     -544     -567     -576     -567     -545     -508     -467 
    -430     -407     -407     -444     -511     -595     -666     -707 
    -712     -681     -623     -561     -504     -444     -375     -303 
    -225     -141      -63       12       75      114      117       78 
     -10     -140     -283     -419     -534     -615     -657     -673 
    -681     -696     -726     -770     -823     -864     -881     -872 
    -831     -778     -726     -672     -616     -572     -542     -531 
    -537     -565     -614     -672     -730     -778     -808     -822 
    -822     -820     -823     -827     -826     -811     -778     -733 
    -680     -619     -557     -502     -457     -429     -411     -405 
    -407     -414     -422     -433     -440     -440     -436     -433 
    -437     -442     -450     -464     -475     -490     -508     -525 
    -542     -562     -580     -591     -585     -554     -500     -437 
    -375     -329     -314     -319     -329     -336     -325     -298 
    -267     -241     -232     -255     -306     -372     -449     -521 
    -560     -560     -521     -453     -375     -305     -255     -233 
    -240     -270     -319     -395     -496     -621     -756     -889 
   -1001    -1085    -1138    -1156    -1147    -1104    -1023     -916 
    -792     -657     -529     -430     -373     -364     -398     -461 
    -542     -621     -681     -722     -745     -758     -762     -762 
    -757     -737     -699     -649     -581     -500     -422     -349 
    -294     -267     -270     -302     -352     -398     -432     -450 
    -446     -411     -349     -270     -190     -120      -71      -51 
     -54      -72     -105     -148     -202     -267     -344     -434 
    -521     -579     -589     -546     -461     -367     -282     -211 
    -156     -121     -110     -121     -164     -238     -330     -426 
    -511     -565     -572     -531     -450     -337     -217     -121 
     -66      -55      -82     -145     -230     -326     -422     -511 
    -585     -642     -689     -731     -760     -772     -765     -735 
    -675     -577     -448     -294     -132       20      147      236 
     279      274      221      130       12     -116     -230     -321 
    -384     -409     -395     -346     -260     -151      -35       64 
     118      112       43      -78     -226     -384     -537     -669 
    -773     -849     -895     -900     -872     -823     -770     -723 
    -708     -738     -797     -876     -957    -1011    -1030    -1028 
   -1013     -996     -988     -984     -978     -966     -945     -919 
    -895     -872     -849     -823     -791     -749     -696     -642 
    -610     -612     -657     -731     -810     -874     -912     -911 
    -870     -792     -689     -571     -450     -344     -267     -220 
    -203     -218     -257     -319     -391     -461     -521     -557 
    -567     -558     -537     -511     -483     -452     -418     -379 
    -334     -290     -244     -205     -189     -202     -243     -309 
    -391     -488     -603     -723     -828     -899     -918     -874 
    -774     -637     -479     -322     -184      -81      -20       -6 
     -35      -99     -190     -295     -399     -486     -544     -568 
    -549     -486     -373     -230      -87       35      124      168 
     166      129       81       29       -9      -28      -32      -39 
     -62     -112     -187     -276     -371     -461     -535     -587 
    -619     -630     -602     -541     -459     -369     -294     -237 
    -199     -187     -207     -253     -326     -418     -518     -618 
    -703     -762     -787     -769     -699     -580     -433     -280 
    -144      -45        5       12      -25     -101     -203     -322 
    -440     -542     -614     -642     -635     -608     -565     -517 
    -477     -461     -471     -510     -584     -681     -793     -900 
    -978    -1011     -996     -936     -849     -745     -638     -541 
    -460     -394     -351     -336     -345     -368     -398     -426 
    -441     -436     -407     -363     -319     -294     -298     -338 
    -414     -510     -602     -673     -710     -704     -668     -618 
