Origin Time       2025/01/13 21:19:00
Lat.              31.8
Long.             131.6
Depth. (km)       30
Mag.              6.9
Station Code      FKOH04
Station Lat.      33.5512
Station Long.     130.7451
Station Height(m) 60
Record Time       2025/01/13 21:20:04
Sampling Freq(Hz) 100Hz
Duration Time(s)  159
Dir.              6
Scale Factor      7845(gal)/8223790
Max. Acc. (gal)   1.262
Last Correction   2025/01/13 21:20:05
Memo.             
[...]
   -2425    -2478    -2523    -2554    -2582    -2597    -2600    -2619 
   -2650    -2678    -2709    -2743    -2776    -2818    -2849    -2862 
   -2864    -2856    -2833    -2810    -2793    -2785    -2776    -2758 
   -2748    -2758    -2756    -2747    -2759    -2783    -2810    -2841 
   -2863    -2868    -2864    -2848    -2813    -2771    -2724    -2662 
   -2600    -2533    -2444    -2350    -2273    -2200    -2137    -2108 
   -2107    -2123    -2153    -2196    -2254    -2309    -2358    -2403 
   -2450    -2496    -2532    -2556    -2565    -2544    -2511    -2469 
   -2408    -2330    -2247    -2172    -2106    -2030    -1956    -1899 
   -1848    -1802    -1775    -1760    -1757    -1773    -1806    -1848 
   -1880    -1894    -1891    -1890    -1904    -1941    -2002    -2085 
   -2176    -2268    -2367    -2448    -2504    -2552    -2585    -2605 
   -2623    -2628    -2628    -2635    -2636    -2631    -2627    -2631 
   -2639    -2648    -2658    -2663    -2673    -2690    -2709    -2718 
   -2732    -2767    -2821    -2887    -2964    -3046    -3121    -3183 
   -3230    -3275    -3319    -3366    -3419    -3477    -3532    -3572 
   -3607    -3632    -3640    -3659    -3703    -3743    -3767    -3774 
   -3753    -3713    -3673    -3628    -3591    -3564    -3535    -3508 
   -3500    -3504    -3508    -3512    -3507    -3480    -3443    -3411 
   -3392    -3392    -3397    -3407    -3427    -3443    -3449    -3451 
   -3457    -3450    -3439    -3435    -3414    -3377    -3342    -3299 
   -3253    -3215    -3179    -3149    -3136    -3130    -3141    -3167 
   -3183    -3195    -3211    -3210    -3177    -3113    -3015    -2909 
   -2829    -2770    -2716    -2679    -2654    -2614    -2555    -2488 
   -2424    -2394    -2405    -2443    -2512    -2609    -2710    -2795 
   -2857    -2901    -2940    -2986    -3025    -3056    -3094    -3129 
   -3152    -3163    -3161    -3149    -3144    -3150    -3156    -3161 
   -3165    -3153    -3134    -3114    -3078    -3028    -2987    -2959 
   -2948    -2963    -2983    -2980    -2956    -2922    -2883    -2837 
   -2793    -2749    -2709    -2674    -2639    -2606    -2571    -2524 
   -2477    -2440    -2425    -2428    -2430    -2428    -2430    -2427 
   -2423    -2416    -2389    -2343    -2292    -2245    -2208    -2193 
   -2196    -2200    -2188    -2155    -2107    -2066    -2053    -2064 
   -2108    -2185    -2272    -2353    -2421    -2463    -2481    -2498 
   -2525    -2547    -2563    -2578    -2581    -2575    -2574    -2573 
   -2562    -2551    -2550    -2556    -2562    -2571    -2587    -2592 
   -2581    -2587    -2617    -2650    -2685    -2712    -2714    -2706 
   -2702    -2681    -2643    -2616    -2600    -2581    -2559    -2539 
   -2529    -2533    -2555    -2586    -2616    -2648    -2683    -2722 
   -2776    -2843    -2898    -2940    -2979    -3024    -3065    -3095 
   -3105    -3099    -3092    -3086    -3079    -3088    -3126    -3179 
   -3234    -3284    -3321    -3333    -3321    -3296    -3273    -3258 
   -3244    -3219    -3190    -3144    -3079    -3009    -2932    -2851 
   -2772    -2705    -2667    -2659    -2651    -2632    -2613    -2593 
   -2569    -2546    -2540    -2559    -2594    -2629    -2656    -2683 
   -2709    -2704    -2674    -2655    -2631    -2590    -2558    -2525 
   -2481    -2443    -2413    -2394    -2392    -2401    -2412    -2425 
   -2443    -2461    -2470    -2471    -2481    -2504    -2532    -2562 
   -2592    -2619    -2644    -2670    -2681    -2673    -2654    -2640 
   -2627    -2598    -2569    -2550    -2535    -2525    -2532    -2550 
   -2570    -2604    -2647    -2683    -2706    -2718    -2733    -2756 
   -2776    -2793    -2824    -2864    -2894    -2917    -2932    -2934 
   -2925    -2924    -2943    -2971    -3002    -3049    -3114    -3167 
   -3198    -3206    -3194    -3176    -3171    -3177    -3202    -3235 
   -3254    -3246    -3217    -3169    -3099    -3028    -2986    -2967 
   -2959    -2967    -2972    -2957    -2932    -2901    -2868    -2840 
   -2809    -2772    -2745    -2724    -2683    -2620    -2554    -2504 
   -2478    -2477    -2505    -2555    -2612    -2667    -2720    -2764 
   -2805    -2862    -2928    -2987    -3036    -3067    -3063    -3033 
   -3003    -3003    -3040    -3110    -3203    -3295    -3356    -3381 
   -3380    -3353    -3307    -3254    -3215    -3194    -3181    -3164 
   -3132    -3091    -3048    -3002    -2965    -2963    -2990    -3033 
   -3080    -3118    -3129    -3107    -3069    -3025    -2980    -2955 
   -2951    -2956    -2965    -2974    -2964    -2936    -2901    -2860 
   -2821    -2795    -2783    -2791    -2833    -2884    -2914    -2921 
   -2907    -2889    -2875    -2874    -2879    -2894    -2917    -2921 
   -2883    -2814    -2729    -2637    -2559    -2497    -2446    -2425 
   -2436    -2451    -2474    -2505    -2528    -2546    -2555    -2556 
   -2569    -2593    -2608    -2608    -2600    -2574    -2536    -2492 
   -2444    -2412    -2396    -2386    -2388    -2393    -2407    -2436 
   -2479    -2528    -2583    -2643    -2689    -2713    -2727    -2733 
   -2751    -2782    -2817    -2867    -2933    -2988    -3030    -3063 
   -3080    -3079    -3068    -3056    -3042    -3018    -2976    -2924 
   -2871    -2832    -2799    -2776    -2766    -2755    -2747    -2754 
   -2767    -2778    -2778    -2771    -2759    -2736    -2708    -2678 
   -2654    -2643    -2650    -2674    -2698    -2701    -2691    -2679 
   -2656    -2625    -2596    -2560    -2517    -2473    -2431    -2393 
   -2374    -2380    -2394    -2413    -2444    -2482    -2519    -2548 
   -2560    -2554    -2550    -2550    -2533    -2502    -2471    -2439 
   -2408    -2390    -2393    -2420    -2479    -2552    -2616    -2674 
   -2724    -2748    -2759    -2774    -2779    -2772    -2763    -2758 
   -2752    -2748    -2754    -2758    -2755    -2751    -2751    -2754 
   -2766    -2802    -2860    -2920    -2976    -3029    -3072    -3099 
   -3118    -3150    -3187    -3211    -3226    -3227    -3211    -3187 
   -3161    -3145    -3137    -3132    -3123    -3107    -3084    -3057 
   -3032    -3007    -2979    -2949    -2921    -2887    -2847    -2803 
   -2754    -2687    -2620    -2567    -2532    -2511    -2511    -2532 
   -2556    -2566    -2563    -2562    -2563    -2569    -2594    -2636 
   -2682    -2724    -2755    -2771    -2782    -2794    -2795    -2794 
   -2798    -2801    -2806    -2822    -2843    -2863    -2887    -2916 
   -2944    -2965    -2971    -2965    -2940    -2883    -2817    -2741 
   -2655    -2578    -2512    -2439    -2373    -2311    -2253    -2218 
   -2204    -2203    -2219    -2254    -2300    -2357    -2421    -2484 
   -2540    -2597    -2647    -2685    -2713    -2751    -2794    -2833 
   -2874    -2916    -2944    -2967    -2992    -3018    -3045    -3082 
   -3118    -3152    -3177    -3173    -3153    -3145    -3137    -3122 
   -3129    -3149    -3164    -3172    -3177    -3179    -3175    -3167 
   -3156    -3136    -3102    -3065    -3033    -3002    -2976    -2952 
   -2929    -2913    -2906    -2894    -2862    -2803    -2731    -2659 
   -2598    -2556    -2536    -2538    -2540    -2532    -2509    -2466 
   -2416    -2376    -2338    -2309    -2297    -2285    -2262    -2236 
   -2209    -2177    -2141    -2107    -2077    -2064    -2065    -2077 
   -2101    -2134    -2162    -2173    -2161    -2142    -2135    -2141 
   -2160    -2199    -2238    -2253    -2250    -2239    -2214    -2197 
   -2211    -2247    -2288    -2319    -2324    -2307    -2273    -2230 
   -2189    -2177    -2195    -2228    -2268    -2305    -2328    -2334 
   -2338    -2359    -2403    -2459    -2525    -2596    -2670    -2760 
   -2847    -2909    -2963    -3013    -3052    -3087    -3132    -3177 
   -3215    -3246    -3269    -3280    -3275    -3262    -3245    -3233 
   -3229    -3230    -3246    -3285    -3346    -3420    -3497    -3570 
   -3630    -3676    -3717    -3755    -3780    -3796    -3805    -3797 
   -3780    -3763    -3744    -3715    -3685    -3666    -3646    -3626 
   -3620    -3624    -3624    -3619    -3600    -3559    -3501    -3439 
   -3372    -3299    -3229    -3168    -3123    -3087    -3038    -2984 
   -2947    -2916    -2878    -2848    -2824    -2783    -2737    -2689 
   -2619    -2540    -2462    -2393    -2350    -2330    -2323    -2324 
   -2315    -2286    -2257    -2226    -2193    -2177    -2172    -2153 
   -2124    -2091    -2039    -1976    -1927    -1898    -1880    -1873 
   -1877    -1888    -1900    -1908    -1922    -1948    -1977    -2003 
   -2020    -2022    -2015    -2010    -2004    -2003    -2006    -2011 
   -2019    -2025    -2029    -2033    -2033    -2015    -1989    -1977 
   -1985    -2012    -2052    -2088    -2107    -2093    -2052    -2007 
   -1979    -1975    -1998    -2038    -2077    -2104    -2116    -2114 
   -2103    -2096    -2097    -2106    -2123    -2154    -2200    -2251 
   -2301    -2358    -2425    -2500    -2581    -2666    -2745    -2816 
   -2872    -2917    -2952    -2972    -2983    -2999    -3024    -3048 
   -3083    -3129    -3175    -3225    -3281    -3341    -3399    -3449 
   -3488    -3512    -3515    -3500    -3474    -3429    -3364    -3289 
   -3221    -3161    -3106    -3057    -3022    -2997    -2970    -2951 
   -2944    -2941    -2943    -2948    -2948    -2926    -2898    -2880 
   -2855    -2813    -2771    -2733    -2694    -2655    -2617    -2590 
   -2587    -2606    -2633    -2667    -2704    -2737    -2775    -2828 
   -2893    -2963    -3042    -3133    -3217    -3284    -3339    -3376 
   -3395    -3412    -3433    -3451    -3470    -3484    -3487    -3472 
   -3435    -3395    -3373    -3362    -3365    -3388    -3423    -3460 
   -3489    -3508    -3524    -3542    -3569    -3605    -3635    -3662 
   -3684    -3688    -3682    -3680    -3672    -3657    -3640    -3619 
   -3588    -3542    -3495    -3458    -3435    -3418    -3402    -3387 
   -3364    -3330    -3287    -3231    -3176    -3130    -3086    -3045 
   -3011    -2983    -2965    -2957    -2947    -2925    -2887    -2843 
   -2799    -2762    -2728    -2700    -2681    -2670    -2655    -2641 
   -2637    -2627    -2609    -2594    -2579    -2571    -2570    -2565 
   -2554    -2536    -2504    -2463    -2421    -2385    -2351    -2320 
   -2299    -2284    -2270    -2263    -2268    -2280    -2305    -2339 
   -2371    -2405    -2434    -2451    -2466    -2478    -2488    -2502 
   -2533    -2571    -2610    -2658    -2701    -2720    -2724    -2713 
   -2670    -2619    -2582    -2556    -2544    -2542    -2528    -2497 
   -2461    -2419    -2374    -2343    -2330    -2320    -2305    -2281 
   -2246    -2204    -2158    -2110    -2065    -2025    -1977    -1918 
   -1854    -1794    -1741    -1706    -1702    -1722    -1763    -1814 
   -1867    -1922    -1983    -2045    -2116    -2191    -2251    -2305 
   -2351    -2371    -2370    -2369    -2367    -2358    -2347    -2335 
   -2316    -2305    -2305    -2300    -2299    -2308    -2323    -2336 
   -2349    -2361    -2378    -2407    -2438    -2470    -2515    -2575 
   -2648    -2731    -2813    -2884    -2949    -3014    -3084    -3154 
   -3219    -3283    -3343    -3385    -3408    -3419    -3426    -3437 
   -3460    -3492    -3532    -3586    -3654    -3724    -3789    -3847 
   -3885    -3902    -3905    -3890    -3858    -3813    -3759    -3704 
   -3658    -3618    -3582    -3561    -3554    -3558    -3558    -3547 
   -3523    -3483    -3439    -3400    -3362    -3323    -3287    -3240 
   -3177    -3099    -3014    -2929    -2844    -2763    -2697    -2648 
   -2614    -2601    -2601    -2601    -2604    -2602    -2594    -2594 
   -2602    -2619    -2650    -2691    -2722    -2740    -2749    -2745 
   -2735    -2724    -2716    -2704    -2673    -2613    -2529    -2424 
   -2315    -2222    -2153    -2100    -2052    -2002    -1946    -1884 
   -1821    -1763    -1714    -1676    -1644    -1621    -1605    -1590 
   -1566    -1540    -1533    -1547    -1572    -1603    -1628    -1637 
   -1645    -1655    -1671    -1705    -1756    -1830    -1931    -2033 
   -2127    -2222    -2299    -2362    -2425    -2492    -2567    -2656 
   -2752    -2847    -2926    -2987    -3034    -3072    -3100    -3132 
   -3173    -3222    -3277    -3333    -3368    -3385    -3391    -3372 
   -3341    -3321    -3298    -3276    -3264    -3252    -3234    -3198 
   -3156    -3114    -3063    -3015    -2976    -2934    -2897    -2863 
   -2822    -2778    -2732    -2685    -2641    -2602    -2581    -2581 
   -2594    -2614    -2644    -2664    -2679    -2702    -2725    -2751 
   -2787    -2836    -2899    -2968    -3022    -3072    -3126    -3169 
   -3196    -3217    -3231    -3252    -3276    -3304    -3346    -3396 
   -3443    -3480    -3507    -3522    -3526    -3524    -3518    -3491 
   -3460    -3435    -3412    -3399    -3392    -3381    -3366    -3346 
   -3319    -3291    -3269    -3257    -3256    -3258    -3249    -3222 
   -3190    -3157    -3132    -3129    -3145    -3169    -3198    -3214 
   -3207    -3186    -3149    -3113    -3086    -3061    -3040    -3019 
   -2992    -2953    -2906    -2856    -2812    -2775    -2745    -2713 
   -2675    -2632    -2582    -2528    -2478    -2430    -2382    -2336 
   -2281    -2212    -2134    -2058    -1987    -1917    -1854    -1806 
   -1767    -1732    -1694    -1656    -1611    -1561    -1514    -1475 
   -1452    -1456    -1483    -1526    -1582    -1634    -1671    -1699 
   -1734    -1773    -1822    -1884    -1956    -2030    -2110    -2195 
   -2288    -2385    -2486    -2587    -2685    -2774    -2856    -2941 
   -3038    -3137    -3227    -3308    -3372    -3420    -3457    -3484 
   -3514    -3553    -3592    -3624    -3646    -3654    -3650    -3631 
   -3601    -3577    -3564    -3557    -3549    -3537    -3523    -3508 
   -3483    -3443    -3402    -3366    -3335    -3307    -3284    -3275 
   -3273    -3276    -3289    -3312    -3338    -3368    -3403    -3435 
   -3464    -3488    -3504    -3522    -3541    -3549    -3553    -3551 
   -3534    -3503    -3465    -3415    -3361    -3302    -3237    -3177 
   -3123    -3072    -3034    -3010    -2987    -2960    -2926    -2886 
   -2828    -2759    -2704    -2667    -2654    -2658    -2666    -2667 
   -2659    -2643    -2635    -2648    -2681    -2724    -2775    -2824 
   -2863    -2887    -2897    -2895    -2889    -2871    -2849    -2821 
   -2790    -2767    -2752    -2745    -2743    -2733    -2721    -2702 
   -2681    -2663    -2648    -2633    -2621    -2608    -2590    -2565 
   -2528    -2489    -2455    -2423    -2401    -2401    -2411    -2427 
   -2454    -2488    -2519    -2550    -2581    -2610    -2641    -2663 
   -2664    -2650    -2631    -2608    -2578    -2546    -2515    -2485 
   -2457    -2420    -2369    -2312    -2253    -2192    -2138    -2097 
   -2066    -2041    -2014    -1980    -1945    -1917    -1895    -1890 
   -1903    -1922    -1945    -1968    -1975    -1971    -1966    -1968 
   -1983    -2018    -2073    -2142    -2216    -2296    -2382    -2473 
   -2563    -2658    -2766    -2886    -3005    -3122    -3235    -3337 
   -3424    -3497    -3550    -3581    -3593    -3591    -3578    -3558 
   -3537    -3530    -3532    -3534    -3539    -3541    -3530    -3512 
   -3493    -3476    -3462    -3456    -3449    -3434    -3400    -3339 
   -3265    -3195    -3140    -3098    -3073    -3057    -3038    -3010 
   -2968    -2920    -2875    -2849    -2848    -2864    -2893    -2929 
   -2960    -2982    -2992    -2995    -3003    -3021    -3042    -3068 
   -3103    -3141    -3165    -3175    -3176    -3163    -3144    -3133 
   -3122    -3114    -3121    -3137    -3152    -3163    -3156    -3136 
   -3114    -3094    -3076    -3069    -3069    -3068    -3061    -3041 
   -3007    -2960    -2905    -2857    -2826    -2805    -2794    -2801 
   -2806    -2797    -2781    -2762    -2729    -2687    -2643    -2598 
   -2555    -2521    -2500    -2486    -2477    -2474    -2482    -2500 
   -2525    -2556    -2590    -2620    -2641    -2659    -2667    -2663 
   -2655    -2644    -2628    -2606    -2577    -2542    -2504    -2452 
   -2388    -2323    -2268    -2230    -2211    -2197    -2189    -2184 
   -2177    -2173    -2169    -2169    -2181    -2196    -2214    -2230 
   -2242    -2254    -2263    -2269    -2278    -2285    -2289    -2290 
   -2285    -2277    -2273    -2278    -2288    -2300    -2316    -2331 
   -2340    -2347    -2353    -2362    -2384    -2416    -2459    -2511 
   -2567    -2621    -2675    -2729    -2785    -2835    -2878    -2913 
   -2936    -2951    -2971    -2997    -3033    -3080    -3132    -3180 
   -3221    -3260    -3302    -3350    -3403    -3464    -3526    -3585 
   -3632    -3659    -3669    -3665    -3655    -3651    -3653    -3658 
   -3670    -3680    -3667    -3643    -3616    -3584    -3547    -3519 
   -3499    -3487    -3480    -3465    -3441    -3414    -3387    -3361 
   -3337    -3307    -3267    -3213    -3150    -3076    -2997    -2925 
   -2863    -2817    -2794    -2774    -2752    -2736    -2716    -2695 
   -2685    -2685    -2693    -2710    -2728    -2744    -2759    -2775 
   -2801    -2828    -2859    -2899    -2945    -2980    -3009    -3034 
   -3055    -3080    -3117    -3159    -3203    -3250    -3287    -3303 
   -3302    -3292    -3279    -3272    -3268    -3252    -3221    -3177 
   -3118    -3048    -2978    -2910    -2841    -2776    -2721    -2675 
   -2633    -2596    -2562    -2533    -2511    -2492    -2475    -2469 
   -2467    -2467    -2470    -2470    -2462    -2450    -2428    -2405 
   -2388    -2384    -2393    -2404    -2409    -2409    -2407    -2400 
   -2390    -2380    -2369    -2351    -2336    -2323    -2307    -2292 
   -2284    -2270    -2247    -2220    -2185    -2149    -2116    -2088 
   -2070    -2068    -2070    -2080    -2095    -2104    -2107    -2112 
   -2118    -2119    -2123    -2134    -2147    -2165    -2182    -2200 
   -2212    -2224    -2236    -2254    -2276    -2295    -2312    -2335 
   -2359    -2386    -2420    -2461    -2512    -2571    -2633    -2704 
   -2779    -2849    -2918    -2991    -3061    -3126    -3188    -3234 
   -3260    -3273    -3276    -3261    -3241    -3225    -3203    -3172 
   -3137    -3105    -3078    -3059    -3046    -3036    -3024    -3002 
   -2978    -2955    -2929    -2901    -2886    -2878    -2864    -2848 
   -2837    -2825    -2817    -2822    -2833    -2840    -2851    -2860 
   -2866    -2868    -2871    -2875    -2884    -2902    -2922    -2943 
   -2964    -2992    -3024    -3045    -3064    -3080    -3092    -3102 
   -3113    -3122    -3127    -3129    -3126    -3118    -3107    -3100 
   -3107    -3118    -3123    -3127    -3130    -3129    -3130    -3134 
   -3141    -3152    -3168    -3181    -3186    -3183    -3177    -3169 
   -3159    -3149    -3140    -3133    -3123    -3113    -3102    -3083 
   -3064    -3052    -3037    -3006    -2964    -2910    -2841    -2770 
   -2702    -2640    -2597    -2566    -2533    -2498    -2450    -2386 
   -2326    -2270    -2227    -2201    -2191    -2187    -2180    -2160 
   -2135    -2114    -2091    -2072    -2070    -2088    -2118    -2155 
   -2192    -2212    -2223    -2235    -2243    -2243    -2249    -2253 
