Origin Time       2025/01/13 21:19:00
Lat.              31.8
Long.             131.6
Depth. (km)       30
Mag.              6.9
Station Code      FKOH07
Station Lat.      33.3678
Station Long.     130.6354
Station Height(m) 15
Record Time       2025/01/13 21:20:14
Sampling Freq(Hz) 100Hz
Duration Time(s)  152
Dir.              4
Scale Factor      7845(gal)/8223790
Max. Acc. (gal)   9.898
Last Correction   2025/01/13 21:20:14
Memo.             
[...]
   19381    19533    19657    19728    19730    19646    19489    19296 
   19095    18889    18679    18478    18287    18080    17845    17579 
   17301    17057    16900    16860    16939    17120    17375    17670 
   17965    18231    18457    18644    18800    18922    19025    19121 
   19214    19302    19369    19402    19396    19353    19246    19040 
   18724    18322    17856    17361    16868    16395    15966    15619 
   15367    15214    15159    15182    15265    15396    15560    15749 
   15950    16129    16259    16348    16416    16465    16480    16441 
   16356    16245    16136    16031    15919    15816    15743    15708 
   15711    15743    15796    15873    16005    16210    16486    16814 
   17174    17539    17887    18206    18495    18751    18958    19110 
   19221    19283    19279    19215    19099    18932    18725    18496 
   18237    17949    17667    17448    17342    17371    17540    17820 
   18149    18472    18755    18978    19111    19147    19098    18989 
   18840    18662    18465    18272    18102    17957    17825    17687 
   17517    17301    17059    16822    16611    16449    16360    16375 
   16522    16800    17177    17597    18004    18346    18555    18590 
   18474    18269    18021    17760    17509    17280    17080    16914 
   16791    16686    16561    16405    16206    15961    15687    15419 
   15194    15024    14898    14820    14790    14802    14864    14974 
   15109    15259    15429    15619    15819    16032    16267    16501 
   16713    16891    17010    17061    17051    16997    16918    16834 
   16746    16642    16528    16391    16231    16062    15897    15747 
   15641    15599    15630    15719    15857    16033    16214    16368 
   16476    16526    16510    16436    16316    16162    16008    15893 
   15850    15890    16011    16191    16416    16653    16849    16974 
   17026    17011    16980    16964    16989    17093    17282    17539 
   17838    18156    18480    18812    19143    19464    19777    20073 
   20344    20602    20835    21034    21195    21312    21375    21389 
   21370    21346    21336    21328    21316    21288    21222    21095 
   20899    20626    20275    19861    19407    18949    18538    18216 
   18010    17929    17960    18075    18241    18399    18485    18461 
   18331    18119    17849    17545    17246    16987    16794    16691 
   16671    16700    16734    16733    16672    16540    16352    16150 
   15973    15844    15795    15843    15979    16189    16457    16764 
   17085    17405    17716    18003    18238    18409    18522    18569 
   18546    18449    18319    18200    18064    17886    17717    17583 
   17479    17398    17311    17217    17130    17024    16900    16792 
   16721    16692    16721    16800    16916    17058    17204    17331 
   17431    17514    17586    17662    17779    17964    18211    18500 
   18820    19151    19483    19811    20113    20374    20603    20827 
   21035    21205    21359    21516    21687    21887    22121    22346 
   22520    22620    22620    22515    22310    22013    21649    21238 
   20799    20364    19959    19593    19255    18905    18526    18102 
   17633    17159    16710    16308    15988    15781    15688    15692 
   15766    15880    16002    16123    16225    16294    16312    16271 
   16170    16005    15762    15433    15037    14596    14129    13666 
   13246    12901    12641    12460    12347    12282    12258    12274 
   12336    12464    12664    12926    13240    13603    14008    14427 
   14827    15187    15487    15696    15812    15855    15822    15714 
   15562    15400    15261    15186    15187    15276    15464    15728 
   16035    16357    16663    16923    17135    17305    17442    17558 
   17658    17740    17824    17932    18071    18257    18489    18743 
   18993    19201    19330    19380    19357    19263    19117    18945 
   18769    18607    18486    18415    18387    18409    18485    18608 
   18767    18951    19152    19350    19522    19653    19735    19769 
   19747    19670    19549    19375    19141    18862    18544    18188 
   17817    17462    17138    16861    16648    16487    16364    16271 
   16212    16195    16227    16297    16389    16472    16529    16565 
   16610    16665    16723    16789    16866    16934    16970    16968 
   16933    16872    16799    16733    16680    16640    16618    16599 
   16560    16494    16409    16333    16287    16263    16260    16286 
   16330    16382    16443    16518    16622    16783    17027    17367 
   17801    18308    18863    19419    19938    20398    20788    21101 
   21338    21504    21624    21714    21802    21921    22072    22233 
   22384    22497    22526    22423    22185    21837    21404    20926 
   20439    19975    19587    19326    19198    19176    19238    19346 
   19445    19473    19396    19205    18921    18598    18288    18018 
   17798    17637    17517    17394    17230    17027    16818    16625 
   16475    16383    16347    16359    16398    16434    16441    16407 
   16345    16275    16210    16168    16152    16160    16187    16216 
   16213    16147    16002    15778    15481    15120    14716    14301 
   13905    13562    13313    13176    13140    13194    13324    13513 
   13749    14038    14385    14787    15257    15805    16411    17045 
   17675    18280    18839    19325    19720    20020    20217    20299 
   20267    20144    19951    19703    19422    19133    18835    18516 
   18171    17795    17370    16885    16379    15901    15475    15121 
   14882    14778    14805    14951    15202    15537    15921    16322 
   16699    17010    17242    17393    17463    17446    17335    17140 
   16883    16592    16303    16047    15843    15705    15657    15703 
   15840    16063    16352    16679    17022    17361    17683    17986 
   18250    18474    18665    18806    18902    18968    19005    18997 
   18939    18831    18685    18524    18380    18283    18253    18299 
   18439    18663    18958    19307    19689    20081    20461    20818 
   21151    21454    21691    21841    21901    21899    21870    21809 
   21722    21647    21591    21514    21384    21180    20877    20471 
   20000    19512    19041    18616    18270    18029    17875    17787 
   17747    17739    17737    17718    17656    17539    17382    17205 
   17012    16806    16588    16374    16189    16058    15990    15984 
   16029    16112    16208    16301    16372    16416    16437    16441 
   16428    16420    16430    16438    16438    16441    16457    16498 
   16565    16659    16795    16964    17146    17346    17556    17770 
   17984    18192    18389    18580    18752    18891    18987    19033 
   19020    18954    18846    18693    18492    18231    17902    17493 
   17008    16460    15885    15334    14843    14424    14091    13855 
   13711    13653    13671    13752    13906    14138    14436    14777 
   15128    15477    15817    16132    16409    16653    16892    17142 
   17385    17614    17818    17976    18085    18153    18184    18203 
   18241    18315    18449    18659    18952    19333    19793    20309 
   20849    21381    21865    22269    22580    22804    22950    23043 
   23110    23164    23199    23202    23145    22999    22747    22397 
   21971    21486    20965    20436    19936    19494    19102    18736 
   18372    17999    17641    17312    17010    16750    16538    16352 
   16179    15994    15778    15529    15248    14948    14654    14386 
   14169    14029    13969    13983    14065    14206    14370    14521 
   14639    14725    14794    14866    14958    15082    15256    15481 
   15735    15992    16239    16460    16626    16721    16737    16659 
   16476    16205    15876    15525    15194    14906    14690    14569 
   14528    14527    14540    14569    14600    14616    14613    14589 
   14531    14450    14353    14251    14175    14150    14199    14337 
   14547    14773    14976    15148    15259    15284    15240    15152 
   15053    14986    14980    15051    15205    15431    15701    15989 
   16275    16544    16783    16977    17146    17311    17474    17649 
   17845    18053    18254    18435    18592    18720    18816    18904 
   19005    19121    19261    19429    19592    19720    19789    19788 
   19715    19577    19395    19213    19076    19014    19043    19152 
   19321    19514    19700    19847    19928    19953    19940    19899 
   19834    19770    19749    19792    19912    20100    20339    20621 
   20937    21259    21558    21820    22038    22204    22312    22357 
   22345    22284    22187    22064    21911    21720    21489    21212 
   20875    20471    20004    19481    18928    18365    17821    17312 
   16853    16461    16163    15981    15932    16023    16243    16572 
   16972    17397    17794    18118    18349    18480    18512    18453 
   18312    18115    17887    17645    17402    17163    16945    16762 
   16625    16537    16497    16503    16572    16715    16935    17240 
   17625    18073    18571    19087    19573    19988    20295    20459 
   20475    20366    20147    19846    19498    19141    18805    18499 
   18216    17961    17718    17470    17216    16961    16702    16436 
   16173    15940    15757    15623    15541    15523    15569    15646 
   15714    15768    15816    15871    15961    16102    16291    16528 
   16806    17091    17335    17512    17605    17597    17487    17290 
   17028    16726    16420    16143    15917    15745    15628    15564 
   15526    15498    15454    15385    15313    15238    15155    15086 
   15052    15049    15063    15070    15055    15010    14929    14813 
   14656    14459    14241    14015    13786    13560    13355    13182 
   13050    12962    12931    12954    13019    13116    13248    13414 
   13612    13819    14019    14199    14345    14461    14563    14647 
   14733    14862    15055    15326    15689    16133    16634    17172 
   17717    18231    18681    19048    19321    19489    19561    19568 
   19542    19502    19458    19426    19430    19483    19561    19661 
   19800    19973    20175    20410    20663    20925    21201    21500 
   21816    22131    22434    22707    22925    23049    23051    22928 
   22688    22358    21976    21562    21143    20748    20393    20098 
   19865    19681    19569    19521    19481    19425    19350    19244 
   19084    18885    18677    18492    18357    18287    18280    18330 
   18419    18520    18607    18661    18681    18677    18659    18643 
   18651    18706    18823    18991    19221    19496    19791    20081 
   20352    20574    20707    20736    20660    20495    20254    19959 
   19641    19314    18979    18642    18315    17999    17693    17385 
   17081    16783    16470    16144    15803    15419    14997    14559 
   14126    13714    13351    13066    12869    12765    12758    12841 
   12997    13205    13437    13663    13861    14008    14088    14094 
   14040    13961    13895    13880    13961    14152    14438    14800 
   15205    15603    15948    16206    16356    16395    16344    16243 
   16139    16071    16065    16137    16301    16533    16789    17037 
   17254    17415    17512    17564    17598    17641    17729    17879 
   18098    18380    18697    19005    19248    19388    19433    19391 
   19276    19130    18995    18878    18770    18671    18585    18515 
   18465    18449    18470    18511    18563    18642    18727    18804 
   18885    18959    19014    19047    19049    19022    18985    18955 
   18936    18935    18951    18971    18975    18947    18883    18785 
   18658    18497    18311    18121    17934    17747    17574    17436 
   17335    17253    17181    17109    17026    16926    16819    16723 
   16665    16664    16726    16842    16985    17119    17212    17230 
   17149    16970    16702    16351    15946    15541    15165    14847 
   14605    14442    14331    14246    14154    14044    13907    13744 
   13574    13444    13405    13485    13698    14044    14513    15075 
   15688    16321    16950    17551    18102    18598    19032    19408 
   19751    20074    20394    20727    21092    21494    21919    22351 
   22786    23188    23529    23804    24008    24124    24143    24084 
   23961    23774    23542    23291    23036    22804    22613    22476 
   22399    22364    22347    22339    22319    22253    22134    21973 
   21763    21504    21204    20871    20517    20155    19792    19419 
   19026    18611    18168    17680    17138    16532    15861    15153 
   14438    13741    13097    12526    12046    11661    11344    11060 
   10795    10532    10255     9969     9688     9437     9229     9078 
    9012     9043     9166     9389     9702    10093    10546    11022 
   11497    11962    12399    12793    13147    13479    13811    14156 
   14530    14926    15330    15727    16087    16390    16627    16799 
   16918    17003    17084    17170    17251    17327    17393    17413 
   17379    17309    17213    17095    16965    16843    16734    16627 
   16509    16368    16209    16032    15843    15664    15515    15410 
   15357    15360    15407    15491    15601    15734    15888    16060 
   16248    16470    16735    17050    17424    17856    18339    18870 
   19440    20027    20611    21180    21730    22270    22809    23346 
   23893    24460    25030    25578    26091    26561    26974    27322 
   27598    27796    27918    27965    27936    27812    27592    27267 
   26821    26266    25636    24958    24256    23564    22910    22324 
   21824    21411    21092    20861    20703    20611    20571    20555 
   20563    20590    20630    20680    20726    20744    20725    20653 
   20513    20293    19985    19593    19145    18657    18156    17687 
   17286    16976    16765    16661    16656    16723    16837    16977 
   17135    17298    17454    17605    17749    17874    17968    18022 
   18021    17948    17799    17582    17305    16983    16630    16274 
   15921    15573    15228    14891    14562    14226    13867    13486 
   13084    12646    12186    11708    11209    10705    10222     9780 
    9412     9134     8945     8831     8780     8775     8791     8808 
    8831     8853     8877     8923     9031     9228     9525     9949 
   10516    11219    12036    12934    13879    14827    15722    16536 
   17250    17852    18361    18802    19201    19572    19926    20270 
   20596    20885    21105    21239    21285    21251    21159    21023 
   20858    20696    20564    20461    20375    20299    20231    20144 
   20023    19855    19629    19344    19013    18642    18234    17810 
   17385    16969    16579    16218    15892    15601    15346    15133 
   14966    14840    14752    14692    14651    14632    14621    14604 
   14584    14561    14521    14474    14446    14443    14469    14544 
   14679    14875    15134    15454    15832    16256    16718    17213 
   17741    18306    18894    19491    20086    20661    21197    21697 
   22152    22557    22921    23253    23533    23751    23916    24019 
   24058    24039    23955    23818    23658    23494    23325    23166 
   23026    22910    22815    22728    22636    22522    22369    22172 
   21937    21668    21379    21088    20798    20514    20244    19984 
   19720    19449    19168    18875    18565    18260    17982    17737 
   17529    17375    17281    17226    17194    17181    17166    17126 
   17046    16919    16753    16555    16339    16124    15912    15705 
   15514    15327    15134    14926    14705    14478    14253    14034 
   13822    13630    13470    13343    13261    13247    13306    13414 
   13554    13707    13834    13899    13902    13853    13741    13589 
   13431    13281    13136    13003    12874    12735    12584    12421 
   12244    12067    11927    11850    11853    11951    12151    12440 
   12804    13227    13684    14158    14635    15110    15577    16040 
   16513    17014    17536    18079    18634    19183    19716    20212 
   20649    21022    21327    21571    21771    21944    22110    22268 
   22414    22543    22639    22678    22662    22580    22430    22227 
   21984    21717    21432    21119    20775    20405    20009    19600 
   19192    18802    18461    18192    18007    17911    17891    17922 
   17994    18094    18204    18320    18449    18590    18744    18908 
   19075    19232    19357    19438    19464    19421    19319    19182 
   19026    18875    18740    18644    18598    18593    18620    18669 
   18727    18779    18824    18864    18894    18905    18900    18885 
   18864    18846    18847    18878    18925    18989    19062    19132 
   19187    19229    19253    19257    19237    19176    19067    18906 
   18681    18392    18064    17716    17358    17008    16684    16383 
   16105    15850    15618    15406    15209    15028    14879    14760 
   14670    14609    14569    14536    14516    14507    14504    14513 
   14546    14600    14673    14762    14859    14967    15097    15257 
   15460    15715    16035    16414    16838    17293    17764    18227 
   18663    19052    19363    19587    19731    19799    19791    19719 
   19610    19485    19360    19244    19140    19043    18948    18837 
   18694    18523    18319    18083    17821    17558    17302    17057 
   16825    16609    16394    16166    15930    15699    15483    15294 
   15156    15078    15057    15101    15194    15326    15495    15693 
   15911    16148    16406    16672    16929    17163    17381    17579 
   17745    17880    17990    18084    18162    18222    18266    18303 
   18331    18368    18419    18480    18546    18604    18635    18617 
   18532    18392    18220    18037    17864    17703    17555    17432 
   17311    17161    16974    16750    16491    16209    15916    15639 
   15406    15232    15132    15124    15207    15381    15633    15940 
   16291    16681    17095    17513    17929    18345    18752    19147 
   19515    19849    20144    20401    20615    20784    20898    20957 
   20979    20956    20895    20807    20699    20587    20495    20433 
   20412    20436    20491    20565    20657    20744    20812    20861 
   20883    20872    20822    20738    20623    20480    20312    20124 
   19919    19691    19427    19136    18831    18513    18192    17880 
   17583    17305    17047    16804    16557    16313    16121    15961 
   15792    15642    15504    15346    15174    14976    14760    14547 
   14327    14104    13900    13711    13536    13374    13216    13062 
   12931    12845    12799    12792    12841    12934    13053    13186 
   13327    13463    13589    13690    13763    13814    13857    13899 
   13952    14021    14112    14237    14393    14578    14804    15068 
   15375    15727    16124    16565    17038    17508    17956    18358 
   18696    18963    19164    19290    19344    19332    19261    19136 
   18956    18724    18455    18172    17890    17628    17408    17244 
   17146    17119    17170    17294    17478    17718    18013    18331 
   18650    18960    19251    19504    19732    19946    20143    20332 
   20525    20713    20883    21033    21163    21263    21327    21369 
   21398    21404    21390    21367    21330    21282    21227    21159 
