Origin Time       2025/01/13 21:19:00
Lat.              31.8
Long.             131.6
Depth. (km)       30
Mag.              6.9
Station Code      FKOH10
Station Lat.      33.2891
Station Long.     130.8170
Station Height(m) -10
Record Time       2025/01/13 21:20:00
Sampling Freq(Hz) 100Hz
Duration Time(s)  175
Dir.              2
Scale Factor      2942(gal)/8224139
Max. Acc. (gal)   2.227
Last Correction   2025/01/13 21:20:01
Memo.             
[...]
  143575   143758   143955   144058   144065   144008   143841   143546 
  143201   142894   142677   142577   142612   142724   142808   142857 
  142927   143008   143114   143303   143533   143721   143884   144055 
  144188   144244   144265   144270   144248   144212   144185   144173 
  144153   144120   144084   144049   144050   144124   144228   144305 
  144343   144352   144344   144300   144204   144082   143934   143761 
  143627   143571   143534   143484   143438   143411   143417   143446 
  143463   143442   143368   143210   143024   142909   142892   142951 
  143051   143128   143186   143278   143353   143344   143299   143272 
  143266   143302   143392   143502   143600   143694   143810   143946 
  144067   144153   144186   144159   144101   144049   144001   143961 
  143928   143849   143738   143668   143621   143586   143631   143718 
  143762   143777   143737   143614   143472   143338   143202   143136 
  143197   143330   143459   143559   143672   143812   143924   144005 
  144113   144231   144309   144367   144401   144382   144339   144321 
  144359   144432   144468   144429   144382   144396   144444   144474 
  144470   144428   144319   144121   143876   143657   143509   143437 
  143442   143490   143522   143518   143464   143379   143329   143344 
  143398   143487   143621   143781   143954   144069   144039   143942 
  143891   143870   143892   143951   143938   143812   143635   143433 
  143274   143229   143271   143370   143509   143637   143749   143864 
  143950   143997   144023   144020   143988   143924   143839   143768 
  143710   143684   143731   143826   143938   144053   144107   144090 
  144058   144007   143954   143970   144023   144046   144036   143970 
  143877   143808   143711   143586   143546   143630   143812   144058 
  144275   144400   144431   144405   144377   144391   144448   144514 
  144567   144628   144755   144938   145096   145183   145201   145162 
  145112   145095   145085   145037   144926   144772   144622   144498 
  144390   144328   144333   144329   144235   144055   143843   143677 
  143586   143496   143364   143235   143136   143039   142948   142897 
  142889   142909   142927   142906   142874   142861   142828   142767 
  142701   142618   142537   142499   142477   142414   142321   142267 
  142285   142348   142406   142443   142476   142483   142389   142199 
  141994   141802   141639   141574   141604   141635   141660   141723 
  141795   141862   141956   142065   142140   142169   142175   142159 
  142144   142171   142258   142396   142523   142596   142650   142723 
  142832   142987   143152   143287   143415   143561   143735   143900 
  143980   143972   143939   143915   143914   143945   143973   143973 
  143957   143919   143842   143749   143671   143576   143433   143284 
  143174   143086   143009   142916   142770   142632   142560   142518 
  142539   142701   142973   143272   143556   143783   143914   143943 
  143884   143764   143617   143446   143235   143023   142881   142847 
  142906   142998   143074   143167   143283   143392   143498   143569 
  143552   143484   143451   143488   143573   143658   143769   143953 
  144173   144389   144609   144822   145007   145150   145208   145177 
  145103   145030   145003   145041   145102   145139   145143   145138 
  145150   145176   145230   145347   145485   145562   145561   145493 
  145374   145264   145219   145218   145211   145173   145123   145099 
  145091   145064   145017   144952   144861   144783   144772   144823 
  144864   144836   144753   144634   144475   144306   144182   144162 
  144236   144316   144355   144391   144475   144625   144814   145023 
  145257   145474   145620   145690   145712   145689   145611   145503 
  145409   145299   145142   144994   144864   144720   144579   144448 
  144316   144197   144107   144050   143984   143873   143758   143683 
  143641   143631   143656   143707   143776   143845   143905   143958 
  143968   143885   143706   143440   143109   142770   142453   142146 
  141860   141597   141359   141183   141050   140919   140810   140748 
  140709   140683   140699   140764   140863   140983   141062   141066 
  141043   141034   141029   141048   141100   141142   141139   141139 
  141223   141434   141764   142173   142608   143012   143330   143522 
  143619   143665   143641   143590   143621   143748   143908   144069 
  144234   144447   144728   145011   145212   145311   145328   145274 
  145173   145077   145027   145017   145012   145006   145011   145021 
  145015   145002   144996   145011   145071   145166   145287   145444 
  145628   145812   146010   146232   146457   146664   146816   146900 
  146925   146904   146847   146754   146612   146430   146226   145991 
  145748   145547   145412   145309   145222   145169   145165   145201 
  145277   145339   145343   145291   145143   144875   144548   144247 
  143993   143784   143595   143411   143260   143140   143029   142960 
  142959   142992   143023   143025   142985   142935   142909   142904 
  142921   142993   143133   143340   143563   143725   143792   143808 
  143799   143748   143671   143653   143743   143873   143964   144011 
  144024   143986   143928   143901   143873   143776   143613   143421 
  143199   142944   142645   142277   141866   141444   141037   140674 
  140377   140125   139897   139689   139494   139291   139079   138913 
  138823   138773   138775   138858   138962   139043   139131   139286 
  139567   139984   140487   141049   141615   142101   142506   142848 
  143086   143206   143235   143193   143112   143004   142902   142852 
  142843   142882   143019   143244   143517   143815   144092   144310 
  144497   144622   144629   144576   144556   144558   144564   144570 
  144536   144467   144410   144397   144443   144549   144703   144895 
  145107   145293   145422   145507   145589   145696   145827   145955 
  146051   146083   146036   145933   145820   145727   145644   145555 
  145462   145358   145247   145147   145077   145048   145057   145092 
  145116   145083   144975   144813   144648   144548   144526   144535 
  144537   144531   144521   144529   144544   144553   144586   144632 
  144671   144703   144729   144764   144844   144980   145169   145405 
  145674   145940   146171   146352   146496   146628   146770   146915 
  147025   147079   147098   147112   147136   147167   147197   147252 
  147318   147349   147351   147285   147056   146692   146302   145968 
  145713   145493   145257   145010   144733   144386   144003   143642 
  143321   143031   142785   142582   142399   142217   142044   141898 
  141798   141783   141871   142049   142276   142487   142612   142631 
  142573   142487   142399   142277   142082   141836   141573   141309 
  141104   140998   140942   140900   140907   140989   141154   141390 
  141650   141903   142192   142538   142925   143349   143788   144185 
  144514   144806   145102   145404   145670   145881   146063   146199 
  146249   146200   146017   145706   145384   145122   144900   144718 
  144597   144568   144644   144779   144899   144940   144868   144714 
  144502   144228   143893   143536   143228   143005   142854   142801 
  142873   143029   143214   143387   143527   143621   143660   143673 
  143719   143810   143899   143946   143958   143966   144007   144120 
  144306   144521   144753   144973   145137   145253   145331   145370 
  145430   145543   145647   145660   145557   145345   145057   144740 
  144447   144207   144016   143853   143706   143590   143506   143461 
  143478   143577   143750   143958   144134   144219   144227   144207 
  144188   144200   144258   144355   144463   144548   144609   144616 
  144517   144363   144219   144062   143870   143665   143465   143294 
  143158   143028   142881   142735   142615   142519   142427   142312 
  142177   142041   141922   141876   141959   142148   142389   142646 
  142900   143164   143442   143695   143901   144031   144043   143932 
  143702   143365   142971   142539   142082   141637   141224   140840 
  140498   140231   140038   139914   139865   139872   139888   139899 
  139907   139911   139926   139954   139951   139900   139843   139826 
  139878   140026   140265   140586   140984   141392   141716   141951 
  142141   142265   142290   142222   142086   141924   141791   141709 
  141667   141702   141853   142102   142392   142701   142997   143221 
  143351   143399   143399   143386   143367   143352   143383   143461 
  143556   143677   143861   144111   144400   144674   144894   145057 
  145147   145176   145206   145280   145380   145478   145548   145562 
  145469   145251   144950   144661   144481   144455   144551   144702 
  144869   145025   145126   145160   145158   145162   145188   145254 
  145365   145494   145623   145774   145989   146271   146569   146842 
  147069   147225   147290   147293   147260   147175   147025   146821 
  146591   146383   146249   146186   146161   146187   146269   146360 
  146396   146365   146280   146161   146045   145957   145899   145858 
  145822   145794   145779   145759   145719   145697   145732   145766 
  145732   145650   145544   145399   145208   144981   144706   144367 
  143991   143630   143287   142947   142653   142429   142245   142094 
  141971   141835   141673   141508   141351   141203   141062   140938 
  140899   141014   141249   141542   141866   142194   142473   142668 
  142793   142878   142928   142948   142965   142979   143005   143046 
  143077   143118   143210   143338   143490   143665   143839   143981 
  144082   144132   144128   144104   144088   144074   144078   144123 
  144174   144197   144181   144094   143923   143700   143465   143263 
  143127   143040   142981   142969   143002   143035   143044   143031 
  142994   142947   142879   142777   142638   142466   142302   142182 
  142083   141982   141886   141793   141675   141529   141361   141178 
  141022   140929   140894   140914   141003   141142   141272   141347 
  141373   141392   141448   141548   141650   141728   141799   141860 
  141885   141895   141940   142022   142111   142186   142229   142226 
  142164   142057   141966   141952   142007   142076   142153   142252 
  142391   142600   142870   143168   143476   143779   144061   144293 
  144431   144471   144448   144385   144310   144255   144246   144316 
  144451   144580   144684   144757   144775   144755   144737   144725 
  144725   144753   144811   144896   144998   145083   145112   145077 
  145015   144971   144944   144925   144914   144891   144842   144759 
  144634   144487   144348   144227   144128   144065   144012   143949 
  143865   143743   143590   143460   143401   143425   143534   143710 
  143897   144040   144134   144174   144170   144159   144146   144086 
  143984   143862   143754   143700   143685   143660   143626   143614 
  143618   143625   143604   143526   143407   143278   143168   143117 
  143113   143108   143079   143046   143036   143066   143116   143185 
  143286   143417   143561   143668   143687   143621   143499   143329 
  143112   142869   142612   142346   142095   141855   141629   141465 
  141381   141355   141359   141374   141401   141446   141497   141532 
  141548   141583   141679   141826   142007   142222   142453   142662 
  142852   143035   143182   143263   143262   143186   143070   142944 
  142840   142790   142803   142885   143050   143282   143557   143860 
  144169   144466   144734   144964   145142   145257   145322   145377 
  145438   145492   145536   145567   145579   145581   145596   145647 
  145740   145854   145960   146057   146163   146296   146466   146662 
  146850   146988   147047   147024   146920   146755   146562   146364 
  146192   146071   145993   145959   145983   146043   146111   146176 
  146215   146219   146213   146215   146230   146260   146315   146414 
  146543   146680   146811   146905   146936   146934   146940   146946 
  146938   146944   146950   146932   146923   146925   146884   146799 
  146730   146704   146708   146713   146697   146658   146596   146504 
  146383   146219   146006   145743   145442   145118   144776   144418 
  144055   143714   143426   143209   143043   142905   142767   142614 
  142461   142319   142179   142020   141818   141554   141239   140890 
  140494   140092   139761   139513   139321   139191   139145   139174 
  139252   139344   139406   139417   139388   139318   139193   139048 
  138932   138855   138812   138815   138878   138985   139110   139243 
  139380   139506   139596   139658   139708   139752   139770   139753 
  139698   139623   139545   139477   139437   139445   139533   139696 
  139885   140032   140116   140140   140123   140096   140109   140190 
  140332   140526   140790   141124   141489   141844   142184   142511 
  142817   143087   143297   143432   143517   143603   143735   143922 
  144128   144336   144541   144757   145014   145308   145593   145841 
  146061   146263   146450   146623   146758   146838   146873   146878 
  146867   146871   146901   146936   146966   147010   147075   147140 
  147212   147309   147433   147556   147652   147719   147769   147793 
  147780   147739   147684   147619   147550   147479   147378   147240 
  147093   146973   146917   146965   147125   147383   147699   148034 
  148352   148644   148918   149183   149432   149646   149812   149932 
  149993   149979   149898   149754   149535   149247   148926   148599 
  148250   147868   147475   147085   146707   146368   146075   145814 
  145584   145372   145154   144919   144671   144406   144139   143873 
  143618   143401   143236   143110   143025   142994   143001   143013 
  143023   143036   143047   143056   143067   143071   143059   143043 
  143044   143068   143095   143081   142994   142832   142620   142379 
  142101   141767   141378   140953   140537   140178   139905   139739 
  139680   139691   139726   139780   139866   139997   140189   140417 
  140637   140830   140999   141156   141311   141447   141556   141675 
  141814   141956   142079   142140   142119   142024   141853   141628 
  141397   141211   141068   140946   140837   140761   140745   140806 
  140972   141245   141601   142015   142466   142940   143418   143865 
  144252   144597   144900   145133   145269   145315   145304   145268 
  145207   145110   144991   144876   144794   144769   144811   144911 
  145060   145246   145463   145727   146020   146291   146516   146695 
  146819   146898   146925   146859   146711   146511   146264   145980 
  145683   145382   145085   144807   144526   144212   143868   143537 
  143235   142960   142743   142632   142643   142757   142943   143172 
  143392   143571   143730   143884   144030   144174   144319   144463 
  144617   144772   144909   145006   145061   145077   145062   145023 
  144958   144857   144721   144555   144333   144040   143700   143341 
  142965   142581   142213   141889   141628   141461   141412   141480 
  141625   141802   141999   142209   142399   142547   142651   142704 
  142712   142701   142682   142674   142685   142677   142614   142516 
  142423   142376   142420   142574   142827   143156   143517   143862 
  144163   144410   144593   144714   144799   144872   144963   145108 
  145336   145625   145943   146291   146666   147033   147352   147584 
  147696   147677   147525   147268   146956   146632   146319   146026 
  145752   145496   145242   144967   144666   144358   144043   143698 
  143313   142888   142446   142026   141640   141284   140981   140756 
  140591   140479   140414   140373   140331   140263   140151   140009 
  139881   139792   139758   139785   139881   140051   140310   140683 
  141164   141697   142209   142643   142982   143222   143364   143409 
  143363   143266   143159   143074   143024   143016   143037   143068 
  143101   143139   143181   143230   143303   143371   143376   143289 
  143125   142904   142643   142360   142071   141818   141631   141478 
  141330   141191   141070   140969   140888   140829   140791   140783 
  140827   140933   141095   141280   141471   141689   141937   142215 
  142508   142782   143009   143186   143338   143503   143677   143822 
  143914   143966   143999   144038   144120   144267   144481   144753 
  145068   145386   145677   145928   146136   146302   146426   146504 
  146545   146569   146576   146569   146565   146576   146603   146650 
  146743   146904   147132   147383   147610   147788   147906   147946 
  147931   147893   147827   147710   147525   147255   146911   146557 
  146242   145971   145724   145504   145318   145160   145045   144994 
  144991   144985   144933   144826   144693   144558   144440   144343 
  144256   144162   144053   143923   143787   143665   143572   143486 
  143378   143243   143098   142946   142800   142704   142697   142790 
  142956   143140   143310   143453   143548   143569   143517   143411 
  143278   143128   142963   142805   142689   142615   142539   142441 
  142323   142183   142028   141848   141636   141420   141255   141165 
  141147   141195   141258   141274   141211   141087   140910   140659 
  140333   139973   139606   139260   138964   138740   138604   138553 
  138551   138569   138601   138677   138808   138973   139145   139311 
  139477   139661   139873   140113   140370   140617   140841   141054 
  141264   141454   141612   141760   141929   142129   142362   142632 
  142906   143139   143314   143456   143595   143764   143980   144234 
  144514   144805   145072   145318   145539   145719   145874   146029 
  146175   146319   146473   146626   146777   146943   147128   147306 
  147434   147509   147546   147544   147507   147461   147406   147325 
  147233   147148   147056   146954   146851   146765   146716   146705 
  146709   146722   146763   146870   147066   147348   147687   148046 
  148387   148679   148894   149027   149085   149053   148905   148645 
  148296   147876   147420   146952   146502   146091   145720   145373 
  145046   144741   144478   144255   144035   143795   143554   143329 
  143129   142944   142759   142578   142407   142218   141997   141767 
  141540   141313   141110   140958   140877   140852   140852   140864 
  140886   140925   141000   141100   141197   141274   141331   141351 
  141328   141293   141300   141389   141552   141752   141948   142109 
  142233   142333   142407   142453   142493   142555   142646   142766 
  142904   143044   143198   143364   143506   143590   143590   143496 
  143345   143178   142994   142794   142588   142373   142150   141937 
  141750   141612   141543   141547   141615   141721   141832   141947 
  142088   142263   142461   142700   143005   143368   143769   144197 
  144636   145069   145497   145906   146271   146581   146830   147015 
  147141   147209   147226   147212   147187   147197   147282   147432 
  147614   147800   147968   148101   148203   148279   148335   148367 
  148375   148351   148298   148231   148147   148050   147958   147885 
  147811   147744   147712   147711   147707   147683   147619   147513 
  147376   147220   147056   146893   146731   146573   146421   146259 
  146095   145956   145854   145752   145629   145488   145318   145116 
