Origin Time       2025/01/13 21:19:00
Lat.              31.8
Long.             131.6
Depth. (km)       30
Mag.              6.9
Station Code      FKOH01
Station Lat.      33.8849
Station Long.     130.9798
Station Height(m) -185
Record Time       2025/01/13 21:20:12
Sampling Freq(Hz) 100Hz
Duration Time(s)  120
Dir.              2
Scale Factor      2942(gal)/8224139
Max. Acc. (gal)   0.948
Last Correction   2025/01/13 21:20:13
Memo.             
[...]
    7896     7913     7925     7923     7911     7900     7878     7844 
    7804     7773     7758     7742     7731     7731     7726     7708 
    7686     7663     7649     7639     7620     7603     7599     7607 
    7624     7638     7631     7618     7609     7591     7569     7562 
    7568     7574     7582     7589     7604     7627     7639     7639 
    7632     7622     7619     7623     7622     7622     7627     7619 
    7601     7588     7584     7582     7584     7591     7599     7607 
    7615     7623     7631     7639     7641     7630     7609     7595 
    7588     7589     7605     7632     7649     7655     7666     7678 
    7676     7658     7645     7635     7635     7650     7663     7659 
    7649     7641     7635     7635     7642     7647     7635     7605 
    7566     7530     7495     7466     7460     7466     7479     7489 
    7497     7511     7533     7542     7534     7522     7510     7495 
    7484     7477     7472     7469     7460     7441     7420     7406 
    7393     7381     7368     7350     7329     7310     7302     7296 
    7292     7295     7298     7304     7331     7368     7392     7408 
    7426     7445     7458     7470     7497     7535     7565     7582 
    7600     7609     7616     7636     7657     7668     7673     7676 
    7682     7701     7727     7749     7761     7766     7770     7773 
    7784     7803     7815     7823     7834     7835     7834     7834 
    7830     7825     7819     7804     7788     7777     7766     7754 
    7754     7755     7743     7713     7670     7622     7576     7531 
    7484     7446     7435     7446     7470     7499     7514     7519 
    7527     7531     7524     7507     7479     7442     7406     7377 
    7356     7345     7348     7358     7376     7407     7443     7474 
    7491     7496     7503     7507     7508     7530     7558     7569 
    7578     7604     7631     7657     7690     7722     7738     7744 
    7743     7736     7736     7749     7774     7812     7848     7867 
    7861     7835     7800     7759     7722     7692     7662     7626 
    7589     7555     7516     7477     7445     7422     7407     7398 
    7387     7379     7375     7380     7391     7396     7399     7412 
    7425     7426     7416     7395     7366     7345     7344     7356 
    7380     7420     7460     7477     7469     7450     7431     7416 
    7411     7412     7416     7423     7445     7476     7503     7516 
    7511     7500     7489     7474     7473     7488     7510     7541 
    7574     7607     7641     7661     7662     7647     7616     7577 
    7547     7527     7520     7523     7530     7551     7589     7634 
    7678     7723     7770     7816     7842     7838     7820     7798 
    7778     7770     7769     7776     7788     7794     7786     7762 
    7723     7682     7650     7619     7588     7561     7541     7528 
    7516     7511     7524     7565     7616     7670     7719     7758 
    7789     7817     7843     7863     7881     7898     7911     7911 
    7900     7881     7867     7867     7867     7858     7857     7865 
    7878     7894     7897     7881     7844     7773     7680     7577 
    7466     7366     7283     7200     7130     7078     7045     7033 
    7034     7045     7057     7063     7068     7068     7064     7052 
    7024     6982     6939     6906     6893     6895     6907     6929 
    6963     6998     7028     7052     7071     7096     7126     7157 
    7196     7240     7281     7318     7349     7373     7398     7437 
    7487     7530     7553     7564     7565     7561     7553     7539 
    7534     7538     7545     7560     7588     7615     7628     7620 
    7609     7604     7611     7645     7681     7715     7754     7780 
    7809     7820     7809     7789     7744     7703     7659     7616 
    7588     7588     7623     7662     7713     7758     7788     7808 
    7815     7815     7803     7784     7751     7705     7672     7645 
    7622     7604     7597     7600     7605     7612     7616     7627 
    7638     7662     7695     7720     7747     7773     7798     7820 
    7839     7854     7862     7867     7861     7844     7820     7789 
    7757     7726     7711     7720     7750     7786     7820     7843 
    7847     7838     7805     7761     7724     7689     7654     7632 
    7607     7574     7553     7550     7550     7554     7564     7578 
    7603     7634     7676     7722     7778     7839     7896     7939 
    7954     7940     7911     7869     7819     7784     7767     7765 
    7777     7797     7819     7834     7834     7820     7807     7792 
    7766     7734     7701     7676     7657     7638     7616     7596 
    7576     7553     7528     7511     7497     7484     7481     7493 
    7519     7543     7557     7569     7588     7612     7643     7681 
    7720     7765     7817     7871     7921     7952     7951     7927 
    7886     7835     7786     7747     7709     7678     7662     7649 
    7635     7618     7580     7519     7449     7371     7288     7217 
    7164     7133     7121     7121     7122     7128     7136     7138 
    7130     7123     7133     7159     7198     7250     7312     7371 
    7419     7458     7487     7515     7546     7584     7627     7670 
    7715     7767     7834     7905     7975     8044     8106     8156 
    8190     8198     8183     8154     8116     8078     8052     8043 
    8054     8082     8118     8163     8214     8257     8274     8262 
    8233     8198     8155     8098     8041     7983     7921     7850 
    7763     7669     7588     7535     7496     7454     7414     7371 
    7325     7284     7258     7242     7226     7213     7210     7210 
    7203     7199     7199     7194     7177     7159     7141     7117 
    7099     7101     7115     7136     7159     7184     7194     7177 
    7161     7150     7137     7128     7126     7129     7129     7117 
    7101     7088     7067     7041     7013     6984     6968     6979 
    7007     7041     7079     7107     7119     7115     7098     7080 
    7084     7101     7118     7141     7167     7200     7249     7300 
    7354     7416     7481     7547     7622     7716     7816     7896 
    7955     8006     8058     8121     8186     8235     8276     8326 
    8380     8432     8465     8473     8469     8464     8457     8451 
    8452     8459     8468     8475     8476     8464     8430     8382 
    8333     8295     8275     8275     8286     8299     8320     8340 
    8355     8361     8355     8334     8307     8276     8247     8221 
    8199     8197     8222     8263     8306     8348     8388     8419 
    8437     8438     8419     8382     8318     8239     8156     8075 
    8004     7944     7896     7854     7812     7758     7699     7632 
    7554     7477     7408     7337     7263     7191     7118     7048 
    6990     6941     6894     6845     6787     6720     6650     6578 
    6512     6459     6424     6407     6409     6428     6450     6469 
    6486     6498     6508     6511     6507     6502     6500     6481 
    6455     6443     6434     6424     6419     6417     6423     6427 
    6424     6423     6424     6423     6428     6434     6442     6466 
    6502     6539     6581     6632     6687     6735     6771     6804 
    6844     6897     6957     7025     7095     7169     7242     7307 
    7369     7430     7483     7533     7580     7632     7699     7777 
    7854     7921     7974     8014     8043     8060     8071     8074 
    8075     8091     8121     8152     8185     8222     8252     8270 
    8282     8289     8289     8290     8298     8317     8344     8370 
    8387     8399     8413     8433     8455     8471     8484     8495 
    8495     8487     8469     8451     8436     8426     8422     8424 
    8428     8430     8429     8433     8445     8465     8488     8510 
    8519     8515     8500     8467     8407     8334     8257     8176 
    8100     8024     7942     7865     7805     7753     7713     7696 
    7692     7693     7701     7719     7739     7753     7758     7759 
    7754     7749     7749     7755     7763     7765     7754     7724 
    7688     7647     7600     7555     7527     7514     7510     7506 
    7503     7496     7468     7426     7380     7327     7272     7215 
    7144     7049     6951     6856     6775     6712     6667     6633 
    6610     6597     6592     6593     6600     6625     6662     6698 
    6737     6782     6820     6855     6891     6924     6957     6990 
    7025     7060     7091     7118     7153     7195     7241     7291 
    7346     7396     7434     7457     7476     7492     7504     7512 
    7511     7507     7510     7524     7541     7560     7580     7603 
    7626     7658     7703     7751     7804     7861     7920     7975 
    8028     8081     8133     8182     8221     8247     8255     8241 
    8220     8202     8178     8149     8132     8116     8100     8087 
    8074     8064     8066     8058     8044     8044     8050     8050 
    8050     8047     8039     8028     8012     7986     7956     7927 
    7893     7861     7827     7793     7776     7763     7757     7769 
    7797     7840     7892     7940     7981     8017     8052     8090 
    8128     8159     8195     8240     8295     8367     8442     8527 
    8618     8699     8764     8812     8843     8853     8854     8850 
    8830     8797     8761     8721     8677     8638     8598     8549 
    8510     8492     8479     8463     8445     8411     8359     8299 
    8235     8168     8114     8077     8048     8019     7989     7956 
    7924     7908     7901     7902     7913     7927     7936     7948 
    7965     7986     8016     8051     8089     8132     8187     8243 
    8287     8318     8322     8297     8260     8217     8168     8129 
    8101     8079     8074     8078     8083     8091     8094     8070 
    8027     7979     7927     7863     7798     7738     7673     7600 
    7519     7437     7361     7294     7240     7199     7171     7155 
    7148     7145     7136     7118     7103     7096     7091     7079 
    7047     6990     6909     6812     6709     6602     6500     6411 
    6332     6270     6224     6183     6149     6127     6111     6099 
    6088     6080     6076     6069     6065     6076     6110     6176 
    6262     6359     6466     6565     6646     6713     6764     6810 
    6855     6895     6937     6993     7057     7115     7164     7202 
    7230     7258     7287     7315     7344     7372     7400     7427 
    7450     7465     7480     7496     7514     7524     7527     7528 
    7519     7495     7466     7433     7388     7342     7285     7215 
    7140     7063     6990     6922     6860     6813     6785     6766 
    6759     6758     6745     6735     6737     6740     6744     6759 
    6779     6801     6831     6862     6883     6889     6880     6875 
    6878     6893     6920     6964     7022     7086     7142     7176 
    7183     7173     7159     7140     7122     7109     7102     7102 
    7107     7117     7134     7156     7168     7171     7176     7183 
    7194     7209     7219     7219     7210     7192     7164     7129 
    7095     7078     7071     7076     7103     7146     7188     7229 
    7271     7311     7356     7404     7452     7489     7510     7511 
    7488     7454     7426     7412     7411     7419     7434     7450 
    7458     7460     7465     7477     7497     7520     7543     7570 
    7596     7605     7605     7607     7607     7609     7609     7597 
    7585     7577     7568     7565     7574     7588     7597     7601 
    7608     7612     7604     7588     7572     7551     7537     7538 
    7555     7580     7597     7603     7601     7595     7581     7564 
    7547     7537     7535     7542     7554     7576     7607     7643 
    7690     7747     7805     7862     7917     7960     7987     8004 
    8008     8000     7981     7954     7927     7902     7890     7896 
    7911     7927     7946     7958     7966     7977     7990     8006 
    8023     8033     8040     8043     8025     7990     7950     7904 
    7851     7812     7794     7792     7790     7785     7771     7747 
    7711     7674     7635     7591     7554     7533     7515     7500 
    7493     7501     7524     7553     7584     7615     7639     7654 
    7653     7639     7638     7665     7705     7749     7794     7838 
    7870     7894     7908     7902     7879     7839     7785     7726 
    7665     7600     7533     7462     7393     7325     7244     7145 
    7032     6910     6789     6673     6565     6461     6358     6257 
    6150     6027     5890     5759     5648     5549     5460     5383 
    5317     5267     5235     5216     5215     5220     5221     5216 
    5206     5205     5217     5239     5269     5305     5351     5412 
    5486     5566     5651     5728     5791     5848     5904     5962 
    6030     6111     6208     6323     6450     6583     6723     6856 
    6976     7094     7204     7308     7423     7545     7655     7765 
    7873     7970     8051     8124     8187     8239     8271     8294 
    8318     8347     8376     8409     8444     8478     8509     8545 
    8590     8640     8694     8753     8815     8878     8942     9004 
    9059     9104     9147     9207     9277     9344     9417     9495 
    9570     9649     9737     9829     9922    10006    10077    10141 
   10192    10224    10235    10222    10192    10146    10088    10033 
    9987     9949     9927     9927     9934     9936     9922     9894 
    9856     9807     9747     9682     9616     9545     9475     9413 
    9359     9319     9289     9267     9247     9220     9178     9117 
    9040     8958     8873     8788     8706     8630     8561     8494 
    8419     8349     8293     8243     8197     8156     8116     8070 
    8013     7948     7890     7836     7784     7738     7700     7668 
    7639     7616     7588     7543     7492     7447     7407     7376 
    7354     7339     7329     7321     7311     7302     7296     7295 
    7295     7299     7307     7325     7350     7377     7410     7458 
    7522     7597     7681     7755     7815     7873     7935     7998 
    8062     8122     8170     8198     8208     8202     8190     8168 
    8132     8079     8020     7958     7896     7827     7757     7690 
    7627     7558     7495     7447     7402     7360     7331     7314 
    7302     7292     7272     7248     7219     7176     7121     7064 
    7005     6951     6899     6852     6812     6770     6731     6690 
    6640     6586     6544     6515     6497     6486     6471     6451 
    6415     6355     6280     6197     6111     6030     5969     5925 
    5892     5877     5884     5904     5937     5976     6025     6077 
    6122     6153     6174     6189     6200     6208     6222     6247 
    6284     6328     6376     6423     6469     6509     6546     6585 
    6627     6667     6706     6745     6787     6826     6866     6905 
    6937     6968     7001     7034     7082     7136     7183     7218 
    7236     7236     7227     7218     7214     7221     7229     7225 
    7209     7182     7148     7117     7084     7041     6983     6914 
    6841     6771     6705     6648     6606     6569     6529     6489 
    6450     6412     6385     6372     6373     6386     6408     6430 
    6455     6496     6554     6610     6651     6689     6727     6760 
    6795     6840     6899     6971     7047     7117     7186     7253 
    7314     7362     7408     7456     7504     7560     7622     7690 
    7766     7851     7944     8032     8113     8191     8271     8355 
    8448     8556     8668     8780     8888     8985     9069     9146 
    9212     9265     9304     9335     9362     9391     9413     9424 
    9427     9418     9396     9360     9313     9243     9147     9043 
    8935     8824     8718     8623     8532     8446     8364     8270 
    8167     8064     7966     7871     7784     7709     7650     7596 
    7555     7533     7518     7511     7510     7507     7501     7499 
    7493     7485     7484     7491     7503     7516     7534     7557 
    7582     7607     7635     7673     7715     7751     7785     7812 
    7823     7824     7832     7854     7885     7923     7959     7978 
    7978     7970     7951     7923     7898     7888     7878     7865 
    7854     7842     7824     7804     7788     7785     7796     7811 
    7830     7858     7902     7950     7994     8046     8089     8114 
    8136     8151     8162     8170     8168     8158     8143     8128 
    8114     8104     8100     8110     8139     8191     8263     8343 
    8425     8499     8560     8608     8650     8694     8730     8749 
    8758     8757     8746     8726     8700     8681     8672     8665 
    8650     8630     8603     8565     8511     8433     8340     8229 
    8100     7962     7819     7672     7531     7402     7285     7182 
    7098     7040     7010     7002     7005     7011     7022     7036 
    7057     7088     7122     7155     7192     7238     7284     7327 
    7376     7429     7492     7576     7680     7800     7933     8077 
    8218     8351     8463     8559     8635     8691     8725     8737 
    8737     8726     8702     8671     8642     8615     8588     8557 
    8525     8487     8440     8374     8297     8218     8136     8051 
    7977     7909     7850     7800     7765     7743     7735     7738 
    7734     7708     7673     7635     7581     7516     7452     7383 
    7306     7223     7142     7063     6987     6912     6836     6764 
    6698     6635     6579     6536     6511     6501     6504     6504 
    6486     6450     6397     6331     6255     6173     6100     6050 
    6022     6014     6021     6031     6037     6035     6037     6043 
    6056     6081     6116     6151     6185     6212     6230     6235 
    6228     6205     6165     6115     6062     6011     5960     5911 
    5864     5817     5764     5702     5630     5564     5506     5456 
    5409     5368     5329     5286     5247     5211     5178     5154 
    5134     5127     5144     5185     5250     5337     5444     5560 
    5671     5778     5879     5975     6070     6168     6261     6357 
    6450     6540     6632     6729     6833     6930     7020     7105 
    7184     7257     7326     7383     7433     7484     7527     7560 
    7582     7588     7578     7568     7553     7539     7537     7546 
    7564     7595     7645     7699     7751     7813     7886     7963 
    8051     8133     8208     8283     8355     8421     8488     8559 
    8625     8687     8748     8812     8877     8946     9027     9121 
    9224     9327     9429     9524     9605     9670     9706     9717 
    9717     9707     9690     9676     9667     9660     9653     9629 
    9586     9528     9456     9382     9313     9243     9166     9092 
    9023     8950     8876     8811     8757     8712     8680     8653 
    8626     8595     8560     8525     8490     8445     8401     8355 
    8301     8240     8179     8117     8059     8014     7985     7963 
    7943     7924     7898     7879     7873     7870     7874     7885 
    7894     7905     7913     7921     7924     7915     7896     7867 
