Origin Time       2025/01/13 21:19:00
Lat.              31.8
Long.             131.6
Depth. (km)       30
Mag.              6.9
Station Code      FKOH07
Station Lat.      33.3678
Station Long.     130.6354
Station Height(m) 15
Record Time       2025/01/13 21:20:14
Sampling Freq(Hz) 100Hz
Duration Time(s)  152
Dir.              6
Scale Factor      7845(gal)/8223790
Max. Acc. (gal)   4.284
Last Correction   2025/01/13 21:20:14
Memo.             
[...]
    2249     2309     2389     2442     2462     2484     2544     2650 
    2743     2776     2789     2833     2897     2944     2978     2995 
    2963     2866     2748     2674     2637     2563     2407     2231 
    2126     2095     2058     1971     1858     1776     1759     1802 
    1888     2008     2153     2266     2292     2272     2305     2381 
    2401     2330     2224     2169     2193     2251     2295     2320 
    2362     2417     2461     2504     2573     2679     2810     2913 
    2978     3032     3086     3153     3227     3265     3261     3253 
    3241     3198     3109     2991     2916     2932     3019     3136 
    3250     3352     3453     3537     3553     3493     3395     3303 
    3254     3256     3292     3350     3437     3566     3719     3839 
    3882     3829     3705     3557     3406     3250     3094     2960 
    2841     2698     2519     2331     2187     2115     2076     2023 
    1979     1992     2118     2342     2596     2853     3105     3311 
    3469     3600     3719     3816     3883     3921     3924     3861 
    3716     3507     3257     2975     2671     2381     2134     1945 
    1823     1771     1772     1813     1863     1892     1922     1956 
    1933     1830     1669     1499     1397     1399     1462     1507 
    1487     1426     1374     1348     1321     1248     1144     1081 
    1077     1090     1078     1042     1034     1090     1177     1237 
    1239     1208     1210     1267     1328     1343     1328     1352 
    1459     1625     1792     1912     1984     2034     2087     2145 
    2174     2139     2069     1992     1896     1784     1647     1470 
    1310     1224     1188     1173     1167     1179     1235     1317 
    1391     1460     1540     1645     1777     1887     1930     1912 
    1861     1810     1786     1788     1807     1844     1898     1973 
    2076     2196     2309     2373     2366     2312     2262     2253 
    2305     2436     2628     2840     3033     3172     3245     3269 
    3262     3217     3138     3055     2970     2867     2754     2650 
    2563     2478     2389     2315     2296     2344     2428     2509 
    2577     2646     2743     2859     2934     2929     2852     2752 
    2690     2673     2654     2635     2662     2749     2891     3055 
    3200     3319     3412     3488     3564     3645     3697     3707 
    3697     3712     3766     3828     3831     3759     3663     3582 
    3503     3408     3302     3196     3103     3029     2957     2852 
    2705     2536     2366     2230     2134     2060     2019     2019 
    2042     2079     2118     2145     2155     2143     2116     2085 
    2061     2033     1969     1869     1784     1756     1795     1840 
    1815     1741     1683     1667     1674     1655     1598     1529 
    1471     1429     1395     1352     1289     1209     1147     1151 
    1198     1208     1142     1044     1012     1058     1109     1112 
    1075     1058     1094     1136     1120     1055      996      989 
    1036     1111     1181     1233     1301     1412     1574     1767 
    1934     2037     2092     2131     2165     2180     2153     2096 
    2062     2056     2026     1948     1830     1723     1674     1679 
    1707     1734     1745     1760     1809     1891     1987     2089 
    2189     2277     2386     2517     2629     2728     2841     2976 
    3114     3219     3260     3244     3215     3217     3234     3229 
    3172     3073     3002     3006     3051     3071     3040     2990 
    2976     3014     3078     3161     3254     3314     3300     3207 
    3055     2889     2751     2639     2538     2436     2336     2282 
    2304     2359     2403     2390     2309     2201     2099     2014 
    1973     1993     2065     2173     2322     2512     2728     2921 
    3034     3072     3092     3141     3211     3272     3279     3238 
    3187     3133     3073     3014     2956     2905     2862     2809 
    2728     2612     2492     2404     2343     2295     2223     2100 
    1950     1811     1706     1651     1632     1632     1640     1645 
    1634     1606     1578     1553     1517     1468     1431     1436 
    1489     1540     1560     1566     1610     1707     1829     1969 
    2122     2250     2334     2359     2332     2290     2247     2201 
    2166     2149     2154     2195     2258     2340     2451     2592 
    2756     2930     3084     3207     3283     3285     3215     3110 
    3019     2974     2970     2988     3029     3090     3163     3245 
    3352     3473     3549     3549     3496     3407     3283     3121 
    2937     2781     2691     2695     2778     2876     2928     2928 
    2913     2918     2945     2970     2955     2886     2799     2741 
    2714     2686     2627     2527     2416     2328     2258     2188 
    2133     2110     2126     2185     2269     2334     2340     2272 
    2150     2020     1908     1830     1799     1825     1879     1907 
    1921     2015     2150     2146     2035     1942     1842     1786 
    1810     1814     1798     1803     1810     1818     1802     1741 
    1661     1568     1459     1354     1266     1204     1181     1216 
    1306     1416     1520     1630     1769     1939     2103     2243 
    2384     2540     2691     2783     2771     2694     2641     2646 
    2693     2748     2779     2787     2783     2797     2841     2874 
    2844     2737     2586     2450     2343     2230     2073     1865 
    1651     1485     1386     1333     1293     1233     1146     1040 
     943      874      814      730      637      577      580      625 
     662      672      706      814      972     1127     1269     1412 
    1580     1798     2043     2276     2496     2717     2921     3086 
    3226     3346     3433     3495     3549     3586     3615     3657 
    3705     3734     3719     3661     3608     3612     3680     3794 
    3916     4021     4120     4213     4301     4386     4449     4483 
    4488     4460     4386     4245     4035     3774     3493     3219 
    2965     2743     2547     2350     2147     1965     1822     1722 
    1657     1622     1614     1622     1641     1684     1746     1810 
    1856     1877     1907     1962     2025     2065     2065     2026 
    1973     1941     1948     1973     2006     2060     2135     2212 
    2296     2382     2463     2543     2623     2694     2751     2781 
    2771     2720     2646     2565     2493     2447     2425     2390 
    2309     2184     2047     1939     1880     1849     1813     1748 
    1676     1648     1687     1791     1926     2052     2154     2242 
    2317     2385     2430     2454     2481     2523     2578     2616 
    2612     2570     2498     2394     2280     2197     2160     2149 
    2114     2043     1993     2004     2057     2112     2142     2149 
    2150     2143     2115     2062     1987     1903     1825     1757 
    1710     1679     1656     1636     1611     1568     1525     1514 
    1547     1618     1705     1760     1776     1760     1729     1722 
    1767     1842     1908     1944     1971     2027     2133     2249 
    2324     2365     2405     2452     2481     2466     2398     2301 
    2219     2172     2142     2137     2158     2182     2195     2199 
    2215     2262     2323     2376     2417     2452     2497     2566 
    2633     2678     2713     2776     2889     3033     3171     3275 
    3342     3384     3404     3387     3329     3235     3126     3034 
    2968     2906     2856     2845     2886     2971     3063     3126 
    3160     3190     3222     3258     3299     3327     3335     3342 
    3357     3370     3389     3426     3472     3515     3543     3543 
    3511     3458     3393     3329     3268     3208     3154     3110 
    3075     3037     2987     2936     2889     2843     2809     2801 
    2810     2812     2787     2747     2695     2633     2573     2511 
    2439     2366     2296     2212     2124     2062     2053     2100 
    2178     2249     2309     2393     2524     2685     2820     2883 
    2890     2886     2886     2864     2793     2656     2482     2322 
    2197     2119     2074     2035     1984     1926     1884     1879 
    1894     1891     1856     1798     1742     1707     1688     1675 
    1661     1638     1617     1614     1625     1621     1579     1501 
    1401     1304     1223     1146     1040      885      703      546 
     436      341      245      174      162      222      349      508 
     680      869     1086     1318     1536     1714     1857     1985 
    2112     2245     2373     2496     2608     2682     2700     2687 
    2697     2754     2853     2970     3084     3198     3342     3538 
    3754     3928     4025     4058     4052     4023     3955     3829 
    3649     3429     3191     2961     2748     2536     2324     2158 
    2061     1972     1873     1819     1804     1821     1876     1931 
    1954     1933     1861     1786     1750     1752     1779     1819 
    1848     1858     1877     1915     1969     2047     2155     2284 
    2417     2544     2670     2810     2968     3146     3353     3572 
    3765     3927     4070     4187     4268     4299     4282     4236 
    4195     4149     4070     3959     3844     3734     3626     3501 
    3346     3180     3036     2910     2779     2635     2509     2423 
    2374     2336     2276     2191     2093     1984     1872     1748 
    1611     1487     1387     1318     1279     1256     1227     1185 
    1146     1111     1071     1040     1038     1047     1057     1061 
    1057     1066     1117     1200     1300     1417     1553     1707 
    1869     2015     2131     2216     2265     2281     2281     2270 
    2243     2201     2151     2093     2038     1992     1944     1894 
    1856     1838     1836     1840     1867     1918     1969     1999 
    1991     1935     1846     1768     1722     1696     1684     1696 
    1734     1791     1853     1910     1958     2007     2066     2134 
    2196     2255     2327     2419     2536     2690     2880     3086 
    3280     3449     3592     3707     3786     3828     3836     3827 
    3812     3794     3763     3717     3659     3586     3496     3388 
    3256     3092     2910     2712     2496     2293     2143     2052 
    2000     1979     1991     2037     2096     2145     2161     2127 
    2042     1922     1788     1665     1564     1474     1389     1327 
    1301     1318     1372     1448     1530     1613     1696     1786 
    1896     2019     2142     2280     2435     2596     2752     2890 
    3005     3106     3203     3311     3420     3511     3596     3688 
    3769     3819     3838     3832     3819     3801     3781     3761 
    3747     3738     3724     3699     3670     3663     3662     3618 
    3508     3341     3142     2949     2774     2601     2430     2288 
    2192     2126     2060     1977     1883     1791     1702     1605 
    1517     1464     1440     1418     1393     1371     1359     1360 
    1362     1348     1329     1313     1305     1331     1404     1516 
    1645     1767     1883     2006     2134     2249     2336     2396 
    2440     2485     2542     2606     2660     2682     2666     2613 
    2539     2459     2359     2234     2101     1954     1779     1590 
    1399     1204     1009      818      627      452      302      180 
      81       12      -13        8       74      163      240      313 
     411      540      680      815      939     1062     1206     1364 
    1530     1707     1885     2056     2212     2359     2506     2650 
    2770     2852     2898     2929     2961     3009     3095     3213 
    3334     3450     3550     3624     3661     3645     3586     3520 
    3472     3451     3446     3443     3454     3495     3549     3593 
    3624     3630     3600     3543     3469     3375     3267     3154 
    3045     2941     2851     2767     2671     2555     2430     2322 
    2245     2184     2137     2097     2046     1987     1935     1899 
    1877     1879     1896     1922     1954     1987     1999     1975 
    1931     1914     1921     1931     1933     1923     1911     1922 
    1968     2037     2115     2212     2335     2471     2596     2690 
    2768     2866     2970     3053     3107     3122     3105     3079 
    3052     3018     2992     2975     2948     2906     2849     2787 
    2740     2717     2727     2764     2816     2867     2911     2956 
    3014     3080     3156     3245     3342     3430     3492     3520 
    3514     3492     3481     3487     3505     3532     3569     3618 
    3681     3757     3829     3893     3950     3986     3998     4002 
    3996     3967     3900     3775     3609     3431     3264     3111 
    2955     2786     2617     2454     2315     2197     2085     1977 
    1872     1773     1705     1679     1684     1709     1760     1844 
    1962     2120     2290     2458     2624     2774     2893     2990 
    3092     3200     3285     3323     3308     3265     3208     3144 
    3076     3005     2934     2897     2899     2930     2988     3044 
    3079     3091     3080     3052     2983     2841     2651     2442 
    2223     2007     1807     1609     1410     1223     1035      853 
     692      546      386      210       55      -68     -180     -301 
    -441     -588     -738     -891    -1047    -1215    -1395    -1560 
   -1705    -1830    -1934    -2019    -2081    -2128    -2154    -2143 
   -2106    -2041    -1945    -1838    -1699    -1506    -1290    -1051 
    -788     -514     -211      108      423      751     1086     1393 
    1688     1989     2286     2586     2859     3060     3208     3326 
    3433     3558     3689     3816     3952     4090     4241     4418 
    4591     4747     4889     5007     5090     5148     5171     5158 
    5131     5109     5088     5055     5008     4954     4897     4831 
    4766     4691     4590     4484     4382     4261     4140     4032 
    3936     3846     3739     3609     3464     3311     3163     3021 
    2876     2735     2600     2471     2366     2293     2250     2223 
    2216     2232     2276     2340     2407     2475     2569     2698 
    2859     3036     3204     3353     3488     3626     3771     3928 
    4093     4249     4376     4450     4468     4438     4364     4252 
    4112     3954     3804     3672     3553     3445     3346     3252 
    3161     3067     2948     2813     2660     2470     2250     2034 
    1845     1686     1545     1412     1290     1189     1090      976 
     853      729      616      517      409      290      168       74 
       4      -58     -109     -148     -183     -207     -217     -220 
    -213     -206     -201     -189     -175     -160     -121      -41 
      71      203      345      491      641      797      966     1146 
    1331     1501     1645     1780     1915     2047     2178     2296 
    2386     2458     2517     2563     2598     2620     2612     2570 
    2497     2388     2243     2074     1888     1705     1545     1410 
    1279     1139      992      872      803      770      747      715 
     670      611      548      487      417      345      280      225 
     189      193      232      297      396      530      693      878 
    1062     1231     1399     1591     1798     2008     2219     2430 
    2646     2848     3009     3127     3222     3310     3392     3462 
    3527     3586     3646     3711     3770     3820     3881     3954 
    4021     4070     4110     4153     4206     4267     4333     4390 
    4440     4502     4572     4650     4735     4812     4874     4935 
    5007     5090     5186     5277     5336     5367     5391     5406 
    5409     5406     5420     5459     5524     5605     5683     5752 
    5799     5810     5778     5713     5644     5589     5532     5447 
    5317     5162     5011     4880     4743     4576     4379     4168 
    3952     3735     3500     3249     3002     2756     2509     2263 
    2019     1773     1544     1332     1140      967      796      622 
     452      290      133      -13     -152     -294     -438     -562 
    -654     -711     -735     -749     -762     -776     -795     -814 
    -822     -820     -810     -795     -770     -718     -650     -579 
    -491     -398     -294     -168      -29      129      307      483 
     653      818      981     1161     1354     1563     1791     2015 
    2224     2416     2583     2716     2808     2853     2849     2797 
    2713     2616     2500     2365     2214     2052     1896     1755 
    1613     1463     1332     1243     1193     1178     1188     1219 
    1271     1332     1395     1455     1498     1533     1576     1622 
    1667     1718     1767     1810     1850     1880     1908     1934 
    1954     1972     1981     1998     2027     2072     2154     2272 
    2392     2509     2632     2758     2894     3046     3213     3368 
    3499     3604     3686     3757     3819     3852     3844     3800 
    3738     3676     3628     3603     3592     3585     3580     3578 
    3595     3631     3680     3723     3753     3784     3831     3892 
    3951     4001     4051     4089     4122     4179     4240     4274 
    4279     4260     4233     4206     4167     4099     4012     3909 
    3801     3705     3620     3530     3441     3352     3258     3175 
    3119     3095     3096     3121     3157     3186     3206     3226 
    3229     3194     3134     3065     3003     2943     2864     2754 
    2604     2448     2309     2162     1996     1809     1606     1402 
    1209     1024      846      679      545      444      369      315 
     267      228      203      183      155      120       86       60 
      39       10      -14      -14        8       62      153      270 
     399      540      683      824      963     1100     1232     1366 
    1512     1675     1836     1977     2096     2199     2305     2416 
    2515     2582     2609     2608     2589     2566     2546     2523 
    2497     2474     2450     2434     2427     2413     2393     2373 
    2353     2336     2331     2338     2351     2370     2388     2392 
    2385     2369     2336     2288     2228     2169     2108     2043 
    1971     1892     1813     1740     1684     1645     1614     1584 
    1556     1544     1549     1563     1578     1598     1634     1694 
    1769     1856     1946     2047     2161     2290     2440     2589 
    2728     2864     2994     3121     3258     3391     3496     3582 
    3662     3735     3798     3847     3889     3929     3973     4025 
    4081     4139     4199     4252     4288     4324     4361     4391 
    4411     4432     4461     4511     4575     4630     4665     4685 
    4706     4729     4734     4707     4658     4603     4557     4529 
    4507     4473     4425     4364     4287     4189     4067     3921 
    3744     3534     3306     3063     2817     2585     2363     2142 
    1927     1734     1561     1391     1223     1067      932      828 
     760      703      648      592      540      498      467      445 
     423      390      346      297      230      136        8     -136 
    -275     -399     -507     -596     -676     -734     -747     -716 
