Origin Time       2025/01/13 21:19:00
Lat.              31.8
Long.             131.6
Depth. (km)       30
Mag.              6.9
Station Code      FKOH03
Station Lat.      33.5608
Station Long.     130.5499
Station Height(m) 85
Record Time       2025/01/13 21:20:08
Sampling Freq(Hz) 100Hz
Duration Time(s)  147
Dir.              1
Scale Factor      2942(gal)/8224139
Max. Acc. (gal)   0.785
Last Correction   2025/01/13 21:20:10
Memo.             
[...]
  -12162   -12239   -12336   -12440   -12526   -12580   -12614   -12618 
  -12596   -12569   -12542   -12526   -12523   -12525   -12533   -12553 
  -12588   -12627   -12669   -12718   -12758   -12776   -12773   -12760 
  -12753   -12762   -12785   -12815   -12827   -12818   -12807   -12803 
  -12818   -12846   -12873   -12899   -12926   -12939   -12931   -12901 
  -12858   -12825   -12818   -12838   -12879   -12931   -12996   -13077 
  -13166   -13250   -13324   -13381   -13424   -13447   -13443   -13421 
  -13392   -13358   -13328   -13306   -13286   -13263   -13232   -13193 
  -13151   -13117   -13088   -13051   -13003   -12939   -12868   -12810 
  -12776   -12758   -12758   -12784   -12834   -12899   -12965   -13020 
  -13073   -13131   -13186   -13231   -13266   -13284   -13282   -13269 
  -13247   -13224   -13211   -13212   -13228   -13255   -13300   -13360 
  -13425   -13495   -13554   -13594   -13633   -13667   -13683   -13684 
  -13671   -13635   -13583   -13522   -13454   -13390   -13346   -13313 
  -13292   -13277   -13270   -13279   -13294   -13304   -13305   -13286 
  -13242   -13185   -13126   -13073   -13031   -12999   -12974   -12954 
  -12930   -12892   -12841   -12789   -12748   -12719   -12710   -12721 
  -12744   -12761   -12766   -12765   -12772   -12799   -12842   -12884 
  -12916   -12937   -12951   -12978   -13016   -13053   -13085   -13109 
  -13128   -13147   -13165   -13190   -13227   -13271   -13320   -13365 
  -13398   -13425   -13448   -13460   -13464   -13462   -13439   -13393 
  -13332   -13269   -13212   -13157   -13103   -13054   -13014   -12993 
  -12995   -13008   -13028   -13039   -13028   -13004   -12982   -12976 
  -12977   -12973   -12966   -12965   -12966   -12980   -13009   -13043 
  -13069   -13081   -13077   -13069   -13063   -13045   -13000   -12945 
  -12903   -12869   -12842   -12834   -12843   -12858   -12873   -12891 
  -12901   -12891   -12864   -12827   -12788   -12752   -12714   -12664 
  -12599   -12528   -12460   -12411   -12380   -12349   -12306   -12259 
  -12210   -12162   -12124   -12110   -12127   -12155   -12186   -12220 
  -12251   -12272   -12287   -12291   -12289   -12291   -12303   -12312 
  -12317   -12333   -12359   -12376   -12394   -12415   -12429   -12441 
  -12456   -12482   -12517   -12556   -12603   -12657   -12718   -12772 
  -12802   -12811   -12807   -12795   -12789   -12792   -12788   -12768 
  -12726   -12657   -12563   -12457   -12352   -12263   -12204   -12166 
  -12145   -12136   -12140   -12160   -12197   -12256   -12340   -12440 
  -12540   -12638   -12741   -12845   -12953   -13061   -13155   -13228 
  -13278   -13309   -13329   -13343   -13352   -13350   -13343   -13347 
  -13359   -13375   -13398   -13410   -13397   -13356   -13297   -13223 
  -13142   -13059   -12976   -12899   -12831   -12776   -12729   -12688 
  -12661   -12640   -12619   -12606   -12604   -12614   -12640   -12677 
  -12725   -12776   -12838   -12924   -13041   -13180   -13329   -13481 
  -13610   -13703   -13764   -13788   -13772   -13738   -13687   -13621 
  -13562   -13510   -13462   -13423   -13400   -13383   -13371   -13358 
  -13332   -13296   -13261   -13231   -13217   -13223   -13244   -13277 
  -13331   -13406   -13493   -13589   -13691   -13790   -13879   -13953 
  -14013   -14050   -14061   -14057   -14052   -14045   -14045   -14046 
  -14042   -14041   -14041   -14035   -14029   -14021   -14003   -13973 
  -13921   -13857   -13792   -13725   -13667   -13622   -13587   -13559 
  -13528   -13493   -13452   -13401   -13338   -13267   -13186   -13093 
  -13007   -12943   -12897   -12873   -12866   -12862   -12856   -12845 
  -12834   -12823   -12814   -12834   -12891   -12972   -13068   -13176 
  -13278   -13366   -13437   -13497   -13544   -13574   -13589   -13591 
  -13581   -13556   -13514   -13454   -13375   -13281   -13186   -13103 
  -13020   -12949   -12895   -12853   -12822   -12785   -12737   -12691 
  -12656   -12626   -12603   -12583   -12560   -12533   -12499   -12469 
  -12447   -12421   -12387   -12345   -12307   -12283   -12262   -12239 
  -12213   -12177   -12131   -12078   -12020   -11962   -11912   -11869 
  -11840   -11836   -11863   -11915   -11983   -12067   -12163   -12274 
  -12403   -12540   -12675   -12807   -12926   -13027   -13113   -13181 
  -13219   -13219   -13178   -13104   -13018   -12928   -12833   -12735 
  -12631   -12511   -12383   -12253   -12131   -12024   -11944   -11884 
  -11830   -11788   -11763   -11747   -11740   -11747   -11758   -11777 
  -11805   -11836   -11877   -11935   -12009   -12091   -12175   -12255 
  -12334   -12409   -12478   -12546   -12613   -12660   -12680   -12668 
  -12619   -12544   -12453   -12352   -12252   -12166   -12090   -12016 
  -11950   -11908   -11893   -11909   -11954   -12004   -12058   -12114 
  -12159   -12190   -12210   -12229   -12249   -12262   -12267   -12262 
  -12248   -12239   -12248   -12276   -12328   -12411   -12523   -12661 
  -12823   -13007   -13198   -13392   -13578   -13744   -13879   -13988 
  -14087   -14179   -14268   -14372   -14489   -14607   -14719   -14821 
  -14914   -14991   -15037   -15061   -15052   -14987   -14889   -14763 
  -14607   -14434   -14260   -14092   -13940   -13798   -13671   -13560 
  -13455   -13367   -13293   -13217   -13136   -13057   -12984   -12922 
  -12879   -12852   -12837   -12841   -12861   -12885   -12915   -12945 
  -12962   -12958   -12941   -12911   -12868   -12815   -12756   -12690 
  -12610   -12505   -12379   -12244   -12106   -11970   -11840   -11723 
  -11616   -11530   -11475   -11450   -11457   -11493   -11547   -11612 
  -11681   -11751   -11826   -11907   -12004   -12110   -12217   -12320 
  -12420   -12503   -12565   -12621   -12671   -12702   -12714   -12718 
  -12712   -12698   -12691   -12707   -12742   -12795   -12866   -12946 
  -13031   -13138   -13258   -13374   -13490   -13595   -13674   -13722 
  -13743   -13738   -13720   -13693   -13656   -13616   -13574   -13535 
  -13504   -13494   -13505   -13529   -13566   -13616   -13674   -13745 
  -13833   -13925   -14015   -14094   -14146   -14173   -14183   -14187 
  -14208   -14249   -14285   -14303   -14288   -14242   -14170   -14069 
  -13942   -13802   -13656   -13508   -13367   -13243   -13147   -13090 
  -13065   -13065   -13085   -13117   -13158   -13207   -13265   -13335 
  -13417   -13501   -13587   -13674   -13753   -13822   -13869   -13886 
  -13880   -13849   -13792   -13716   -13620   -13504   -13373   -13247 
  -13122   -12981   -12831   -12688   -12567   -12464   -12378   -12312 
  -12272   -12239   -12204   -12175   -12160   -12159   -12175   -12210 
  -12253   -12290   -12321   -12353   -12382   -12397   -12405   -12407 
  -12398   -12379   -12361   -12345   -12326   -12295   -12247   -12187 
  -12123   -12058   -11997   -11936   -11880   -11835   -11805   -11794 
  -11794   -11803   -11826   -11859   -11898   -11946   -12001   -12055 
  -12106   -12156   -12204   -12249   -12302   -12364   -12436   -12522 
  -12622   -12734   -12849   -12962   -13069   -13158   -13230   -13298 
  -13360   -13409   -13456   -13501   -13537   -13574   -13603   -13629 
  -13668   -13724   -13783   -13845   -13910   -13965   -14006   -14030 
  -14034   -14014   -13964   -13894   -13815   -13740   -13663   -13598 
  -13554   -13513   -13467   -13417   -13362   -13300   -13227   -13135 
  -13036   -12939   -12850   -12780   -12734   -12714   -12715   -12734 
  -12771   -12825   -12895   -12978   -13072   -13163   -13235   -13282 
  -13308   -13308   -13292   -13265   -13224   -13169   -13100   -13020 
  -12931   -12826   -12706   -12577   -12440   -12303   -12170   -12037 
  -11908   -11784   -11678   -11599   -11554   -11547   -11574   -11626 
  -11703   -11796   -11897   -12013   -12133   -12247   -12352   -12455 
  -12556   -12656   -12765   -12891   -13027   -13154   -13269   -13373 
  -13460   -13539   -13606   -13657   -13707   -13759   -13807   -13852 
  -13883   -13902   -13925   -13954   -13990   -14025   -14049   -14061 
  -14068   -14064   -14052   -14040   -14025   -13996   -13957   -13914 
  -13857   -13784   -13701   -13609   -13505   -13392   -13271   -13140 
  -13011   -12895   -12796   -12719   -12665   -12626   -12595   -12571 
  -12548   -12526   -12499   -12464   -12434   -12415   -12409   -12417 
  -12438   -12475   -12511   -12538   -12561   -12582   -12603   -12625 
  -12637   -12644   -12646   -12645   -12645   -12652   -12667   -12702 
  -12757   -12820   -12889   -12964   -13032   -13089   -13142   -13182 
  -13205   -13225   -13244   -13263   -13290   -13324   -13360   -13406 
  -13459   -13510   -13556   -13589   -13606   -13616   -13617   -13613 
  -13610   -13608   -13605   -13605   -13605   -13608   -13612   -13612 
  -13613   -13605   -13589   -13570   -13540   -13498   -13448   -13390 
  -13321   -13239   -13146   -13053   -12969   -12896   -12830   -12775 
  -12744   -12739   -12760   -12792   -12829   -12874   -12926   -12968 
  -12997   -13011   -13001   -12988   -12978   -12964   -12947   -12928 
  -12895   -12849   -12793   -12725   -12648   -12560   -12461   -12357 
  -12256   -12163   -12081   -12012   -11963   -11943   -11936   -11938 
  -11952   -11974   -11993   -12020   -12058   -12106   -12170   -12247 
  -12334   -12429   -12521   -12611   -12698   -12773   -12841   -12904 
  -12962   -13011   -13054   -13097   -13147   -13205   -13265   -13319 
  -13359   -13393   -13420   -13439   -13463   -13490   -13509   -13513 
  -13495   -13452   -13389   -13312   -13221   -13116   -13003   -12888 
  -12781   -12690   -12613   -12537   -12459   -12375   -12286   -12194 
  -12100   -12002   -11916   -11846   -11794   -11767   -11776   -11812 
  -11857   -11894   -11932   -11973   -12004   -12023   -12036   -12050 
  -12064   -12079   -12097   -12124   -12154   -12181   -12202   -12206 
  -12182   -12131   -12064   -11993   -11923   -11858   -11799   -11739 
  -11680   -11624   -11578   -11554   -11551   -11572   -11614   -11676 
  -11761   -11870   -12009   -12186   -12388   -12609   -12830   -13032 
  -13219   -13394   -13563   -13725   -13883   -14031   -14168   -14293 
  -14412   -14519   -14616   -14704   -14770   -14823   -14855   -14844 
  -14801   -14748   -14685   -14605   -14531   -14469   -14400   -14322 
  -14245   -14172   -14104   -14046   -13998   -13946   -13892   -13841 
  -13794   -13752   -13718   -13689   -13657   -13617   -13571   -13525 
  -13477   -13431   -13396   -13366   -13343   -13336   -13346   -13355 
  -13354   -13336   -13300   -13239   -13167   -13096   -13030   -12978 
  -12931   -12887   -12856   -12842   -12846   -12866   -12903   -12957 
  -13019   -13070   -13105   -13116   -13104   -13073   -13035   -12989 
  -12935   -12893   -12862   -12835   -12819   -12812   -12808   -12808 
  -12812   -12820   -12819   -12804   -12784   -12762   -12739   -12717 
  -12691   -12658   -12626   -12598   -12573   -12548   -12521   -12491 
  -12461   -12429   -12395   -12353   -12293   -12216   -12139   -12074 
  -12020   -11973   -11928   -11889   -11858   -11839   -11832   -11836 
  -11855   -11873   -11882   -11886   -11878   -11861   -11843   -11819 
  -11777   -11722   -11664   -11616   -11588   -11581   -11604   -11650 
  -11705   -11769   -11839   -11913   -11989   -12058   -12113   -12162 
  -12209   -12267   -12333   -12407   -12494   -12590   -12692   -12803 
  -12922   -13053   -13201   -13358   -13508   -13651   -13780   -13895 
  -13994   -14065   -14115   -14143   -14156   -14161   -14162   -14165 
  -14162   -14143   -14107   -14058   -13999   -13946   -13905   -13869 
  -13844   -13824   -13803   -13787   -13775   -13761   -13741   -13718 
  -13697   -13671   -13639   -13598   -13551   -13505   -13460   -13417 
  -13374   -13333   -13302   -13273   -13240   -13215   -13201   -13197 
  -13193   -13188   -13177   -13153   -13127   -13109   -13092   -13076 
  -13066   -13065   -13068   -13072   -13074   -13072   -13061   -13046 
  -13024   -12989   -12943   -12893   -12837   -12783   -12739   -12708 
  -12695   -12695   -12702   -12714   -12734   -12754   -12775   -12792 
  -12810   -12826   -12853   -12895   -12941   -12984   -13034   -13086 
  -13138   -13188   -13235   -13282   -13327   -13369   -13409   -13451 
  -13505   -13556   -13597   -13622   -13624   -13595   -13552   -13494 
  -13421   -13344   -13273   -13198   -13119   -13031   -12938   -12856 
  -12795   -12744   -12708   -12691   -12679   -12675   -12680   -12685 
  -12696   -12714   -12738   -12765   -12791   -12800   -12788   -12760 
  -12718   -12658   -12579   -12479   -12357   -12217   -12060   -11898 
  -11743   -11601   -11481   -11387   -11319   -11276   -11253   -11248 
  -11254   -11273   -11306   -11338   -11367   -11398   -11430   -11468 
  -11518   -11578   -11653   -11732   -11817   -11915   -12023   -12147 
  -12289   -12436   -12576   -12704   -12814   -12896   -12960   -13011 
  -13046   -13061   -13065   -13057   -13038   -13022   -13016   -13030 
  -13057   -13092   -13122   -13126   -13099   -13042   -12972   -12899 
  -12807   -12702   -12598   -12486   -12376   -12289   -12232   -12209 
  -12216   -12247   -12303   -12378   -12460   -12544   -12630   -12711 
  -12779   -12827   -12864   -12897   -12935   -12980   -13030   -13080 
  -13123   -13159   -13192   -13224   -13252   -13274   -13294   -13317 
  -13344   -13370   -13386   -13382   -13362   -13328   -13277   -13211 
  -13139   -13068   -13004   -12962   -12947   -12962   -12993   -13045 
  -13123   -13220   -13333   -13471   -13622   -13784   -13950   -14115 
  -14278   -14442   -14605   -14766   -14910   -15029   -15117   -15149 
  -15128   -15090   -15024   -14908   -14767   -14615   -14426   -14199 
  -13971   -13760   -13559   -13373   -13219   -13081   -12953   -12838 
  -12735   -12644   -12565   -12499   -12445   -12402   -12376   -12374 
  -12388   -12428   -12492   -12575   -12669   -12771   -12873   -12981 
  -13105   -13230   -13348   -13464   -13560   -13628   -13672   -13698 
  -13709   -13707   -13695   -13689   -13698   -13711   -13716   -13709 
  -13678   -13617   -13531   -13424   -13296   -13146   -12978   -12785 
  -12573   -12367   -12179   -12021   -11904   -11823   -11770   -11743 
  -11743   -11772   -11816   -11885   -11997   -12141   -12310   -12502 
  -12711   -12933   -13155   -13366   -13559   -13737   -13892   -14031 
  -14162   -14277   -14370   -14435   -14467   -14463   -14427   -14357 
  -14257   -14145   -14035   -13933   -13842   -13756   -13680   -13624 
  -13578   -13547   -13533   -13537   -13563   -13599   -13644   -13701 
  -13767   -13845   -13937   -14040   -14149   -14261   -14372   -14474 
  -14570   -14651   -14702   -14731   -14709   -14623   -14513   -14385 
  -14223   -14052   -13880   -13706   -13535   -13367   -13205   -13050 
  -12908   -12787   -12675   -12569   -12482   -12414   -12366   -12334 
  -12321   -12317   -12316   -12318   -12329   -12348   -12380   -12426 
  -12482   -12548   -12619   -12687   -12752   -12822   -12900   -12974 
  -13041   -13092   -13119   -13120   -13092   -13031   -12946   -12852 
  -12750   -12645   -12542   -12445   -12359   -12286   -12229   -12190 
  -12168   -12155   -12151   -12159   -12179   -12212   -12260   -12333 
  -12434   -12565   -12715   -12869   -13023   -13174   -13319   -13455 
  -13585   -13706   -13826   -13936   -14031   -14114   -14179   -14222 
  -14243   -14241   -14220   -14180   -14127   -14068   -13992   -13890 
  -13755   -13593   -13409   -13213   -13023   -12847   -12690   -12553 
  -12438   -12344   -12268   -12209   -12168   -12156   -12185   -12259 
  -12370   -12499   -12644   -12798   -12951   -13101   -13248   -13392 
  -13528   -13659   -13778   -13879   -13954   -13994   -13995   -13964 
  -13903   -13811   -13694   -13567   -13436   -13305   -13185   -13088 
  -13018   -12972   -12953   -12957   -12981   -13023   -13073   -13130 
  -13194   -13265   -13350   -13452   -13560   -13660   -13743   -13797 
  -13829   -13837   -13819   -13776   -13710   -13629   -13532   -13424 
  -13308   -13190   -13085   -13011   -12964   -12943   -12946   -12970 
  -13012   -13065   -13120   -13180   -13235   -13275   -13298   -13305 
  -13297   -13281   -13263   -13244   -13221   -13196   -13161   -13111 
  -13051   -12987   -12918   -12841   -12756   -12673   -12591   -12503 
  -12414   -12314   -12205   -12108   -12029   -11971   -11942   -11943 
  -11981   -12054   -12154   -12272   -12393   -12506   -12611   -12714 
  -12806   -12895   -12992   -13081   -13158   -13225   -13274   -13300 
  -13306   -13296   -13275   -13242   -13182   -13095   -12984   -12854 
  -12708   -12555   -12401   -12248   -12100   -11961   -11842   -11747 
  -11674   -11631   -11615   -11618   -11649   -11699   -11754   -11809 
  -11854   -11878   -11888   -11877   -11857   -11835   -11813   -11803 
  -11803   -11819   -11858   -11925   -12010   -12108   -12209   -12317 
  -12432   -12548   -12663   -12775   -12881   -12980   -13069   -13138 
  -13193   -13243   -13281   -13304   -13316   -13317   -13312   -13304 
  -13293   -13281   -13261   -13221   -13158   -13074   -12980   -12872 
  -12750   -12617   -12479   -12347   -12224   -12123   -12044   -11983 
  -11946   -11929   -11932   -11948   -11974   -12008   -12054   -12105 
  -12159   -12221   -12285   -12349   -12415   -12484   -12556   -12623 
  -12680   -12729   -12769   -12798   -12815   -12827   -12831   -12829 
  -12825   -12819   -12823   -12839   -12866   -12907   -12951   -12997 
  -13055   -13120   -13178   -13244   -13323   -13401   -13477   -13548 
  -13609   -13664   -13725   -13797   -13872   -13941   -14003   -14056 
  -14088   -14092   -14076   -14046   -13999   -13930   -13848   -13763 
  -13682   -13614   -13555   -13500   -13443   -13381   -13316   -13258 
  -13207   -13167   -13140   -13120   -13107   -13100   -13097   -13096 
  -13093   -13088   -13080   -13059   -13022   -12972   -12897   -12802 
  -12688   -12552   -12399   -12244   -12093   -11958   -11839   -11732 
  -11646   -11587   -11558   -11556   -11580   -11622   -11684   -11765 
  -11858   -11965   -12078   -12187   -12297   -12406   -12509   -12614 
  -12727   -12843   -12960   -13078   -13192   -13290   -13370   -13429 
  -13466   -13479   -13473   -13451   -13410   -13351   -13278   -13193 
  -13103   -13009   -12912   -12818   -12722   -12623   -12536   -12465 
  -12405   -12360   -12332   -12318   -12330   -12360   -12393   -12437 
  -12494   -12550   -12610   -12675   -12739   -12795   -12842   -12883 
  -12911   -12922   -12916   -12893   -12853   -12803   -12760   -12729 
  -12706   -12691   -12688   -12696   -12712   -12742   -12787   -12839 
  -12897   -12960   -13016   -13073   -13130   -13186   -13243   -13302 
  -13363   -13427   -13494   -13568   -13645   -13726   -13809   -13886 
  -13954   -14006   -14027   -14019   -13992   -13949   -13890   -13822 
  -13751   -13671   -13583   -13500   -13420   -13339   -13251   -13157 
  -13062   -12966   -12869   -12777   -12692   -12614   -12532   -12448 
  -12371   -12307   -12259   -12236   -12243   -12275   -12328   -12402 
  -12494   -12594   -12692   -12787   -12870   -12938   -12985   -13015 
  -13035   -13045   -13041   -13030   -13016   -12992   -12964   -12939 
  -12910   -12873   -12830   -12783   -12739   -12708   -12687   -12677 
  -12684   -12704   -12731   -12764   -12802   -12849   -12895   -12939 
  -12992   -13047   -13101   -13157   -13215   -13273   -13328   -13381 
