Origin Time       2025/01/13 21:19:00
Lat.              31.8
Long.             131.6
Depth. (km)       30
Mag.              6.9
Station Code      FKOH07
Station Lat.      33.3678
Station Long.     130.6354
Station Height(m) -422
Record Time       2025/01/13 21:20:14
Sampling Freq(Hz) 100Hz
Duration Time(s)  152
Dir.              2
Scale Factor      3923(gal)/8224838
Max. Acc. (gal)   1.721
Last Correction   2025/01/13 21:20:14
Memo.             
[...]
   -3665    -3609    -3580    -3578    -3600    -3634    -3676    -3719 
   -3761    -3805    -3856    -3921    -3998    -4087    -4175    -4245 
   -4299    -4337    -4355    -4352    -4336    -4305    -4256    -4198 
   -4141    -4085    -4033    -3997    -3982    -3996    -4041    -4113 
   -4203    -4307    -4415    -4515    -4600    -4666    -4712    -4730 
   -4708    -4645    -4548    -4422    -4278    -4125    -3971    -3829 
   -3719    -3645    -3609    -3623    -3677    -3759    -3852    -3933 
   -3987    -4010    -3996    -3944    -3863    -3759    -3632    -3481 
   -3314    -3136    -2959    -2801    -2683    -2614    -2586    -2593 
   -2632    -2689    -2758    -2837    -2922    -3011    -3103    -3200 
   -3300    -3387    -3456    -3516    -3576    -3626    -3674    -3724 
   -3767    -3809    -3858    -3904    -3944    -3983    -4017    -4044 
   -4070    -4099    -4129    -4153    -4182    -4216    -4248    -4270 
   -4279    -4276    -4260    -4236    -4199    -4152    -4102    -4056 
   -4018    -3977    -3931    -3898    -3882    -3885    -3912    -3970 
   -4059    -4174    -4303    -4430    -4546    -4635    -4684    -4683 
   -4621    -4500    -4330    -4125    -3898    -3677    -3469    -3284 
   -3127    -3011    -2952    -2952    -3002    -3105    -3267    -3470 
   -3696    -3939    -4187    -4428    -4660    -4872    -5053    -5208 
   -5335    -5424    -5482    -5509    -5497    -5445    -5364    -5262 
   -5135    -4982    -4814    -4641    -4473    -4309    -4155    -4028 
   -3923    -3840    -3794    -3782    -3793    -3825    -3870    -3913 
   -3947    -3971    -3985    -3977    -3948    -3904    -3846    -3789 
   -3742    -3703    -3667    -3640    -3618    -3599    -3589    -3581 
   -3565    -3554    -3554    -3553    -3546    -3541    -3534    -3523 
   -3504    -3476    -3431    -3377    -3327    -3288    -3262    -3256 
   -3273    -3312    -3370    -3449    -3541    -3638    -3744    -3854 
   -3950    -4036    -4118    -4193    -4249    -4284    -4290    -4263 
   -4202    -4113    -4009    -3900    -3798    -3724    -3681    -3666 
   -3677    -3703    -3735    -3771    -3825    -3898    -3987    -4090 
   -4206    -4325    -4432    -4527    -4614    -4673    -4699    -4695 
   -4661    -4600    -4523    -4440    -4351    -4263    -4171    -4074 
   -3983    -3909    -3851    -3809    -3773    -3740    -3705    -3658 
   -3599    -3545    -3500    -3464    -3445    -3450    -3469    -3499 
   -3546    -3607    -3681    -3763    -3854    -3956    -4074    -4197 
   -4320    -4433    -4522    -4591    -4652    -4707    -4752    -4784 
   -4800    -4801    -4789    -4761    -4719    -4677    -4634    -4588 
   -4544    -4503    -4469    -4449    -4446    -4457    -4473    -4491 
   -4500    -4494    -4473    -4444    -4398    -4342    -4284    -4220 
   -4155    -4097    -4047    -4009    -3979    -3954    -3939    -3936 
   -3933    -3928    -3923    -3925    -3942    -3966    -3997    -4040 
   -4098    -4160    -4218    -4267    -4295    -4299    -4282    -4249 
   -4212    -4178    -4144    -4104    -4052    -3981    -3896    -3807 
   -3719    -3640    -3581    -3535    -3501    -3481    -3478    -3496 
   -3534    -3585    -3639    -3696    -3761    -3819    -3859    -3892 
   -3920    -3932    -3925    -3898    -3854    -3794    -3726    -3655 
   -3578    -3496    -3410    -3329    -3256    -3195    -3142    -3109 
   -3109    -3134    -3187    -3260    -3349    -3458    -3574    -3686 
   -3792    -3885    -3956    -4014    -4054    -4070    -4063    -4043 
   -4009    -3960    -3908    -3848    -3786    -3731    -3684    -3643 
   -3622    -3623    -3642    -3677    -3730    -3808    -3917    -4048 
   -4187    -4330    -4469    -4588    -4688    -4762    -4796    -4799 
   -4769    -4688    -4564    -4407    -4221    -4016    -3809    -3612 
   -3426    -3265    -3134    -3037    -2972    -2933    -2911    -2909 
   -2924    -2960    -3017    -3094    -3191    -3311    -3450    -3607 
   -3765    -3913    -4059    -4203    -4332    -4445    -4542    -4614 
   -4662    -4692    -4707    -4715    -4707    -4681    -4637    -4571 
   -4494    -4421    -4352    -4294    -4241    -4189    -4136    -4091 
   -4051    -4014    -3986    -3967    -3958    -3959    -3969    -3983 
   -4001    -4023    -4051    -4081    -4110    -4145    -4176    -4191 
   -4193    -4182    -4159    -4132    -4104    -4074    -4043    -4008 
   -3963    -3905    -3835    -3763    -3693    -3618    -3543    -3476 
   -3408    -3339    -3277    -3227    -3194    -3179    -3176    -3188 
   -3203    -3217    -3226    -3237    -3257    -3288    -3329    -3380 
   -3431    -3476    -3511    -3526    -3527    -3519    -3496    -3462 
   -3431    -3412    -3397    -3388    -3388    -3396    -3422    -3472 
   -3543    -3638    -3759    -3897    -4036    -4170    -4297    -4423 
   -4553    -4687    -4820    -4949    -5066    -5170    -5260    -5336 
   -5398    -5451    -5493    -5521    -5537    -5543    -5533    -5510 
   -5476    -5429    -5374    -5319    -5263    -5213    -5162    -5098 
   -5034    -4969    -4903    -4847    -4803    -4779    -4780    -4801 
   -4841    -4900    -4963    -5026    -5081    -5117    -5131    -5124 
   -5090    -5023    -4926    -4803    -4662    -4517    -4369    -4226 
   -4093    -3971    -3855    -3740    -3632    -3534    -3451    -3388 
   -3343    -3311    -3292    -3280    -3271    -3262    -3260    -3264 
   -3269    -3284    -3310    -3352    -3415    -3499    -3603    -3723 
   -3850    -3981    -4117    -4255    -4394    -4542    -4699    -4860 
   -5030    -5204    -5370    -5528    -5679    -5815    -5931    -6031 
   -6111    -6166    -6205    -6228    -6230    -6208    -6156    -6070 
   -5960    -5823    -5665    -5506    -5348    -5185    -5016    -4853 
   -4692    -4530    -4382    -4252    -4141    -4058    -3994    -3943 
   -3898    -3858    -3820    -3794    -3784    -3789    -3812    -3836 
   -3854    -3861    -3852    -3824    -3780    -3723    -3658    -3593 
   -3528    -3460    -3392    -3337    -3300    -3283    -3279    -3289 
   -3314    -3343    -3368    -3384    -3391    -3399    -3411    -3423 
   -3431    -3439    -3456    -3488    -3532    -3592    -3677    -3789 
   -3920    -4064    -4221    -4380    -4531    -4673    -4814    -4947 
   -5071    -5185    -5287    -5374    -5437    -5481    -5505    -5510 
   -5491    -5455    -5414    -5368    -5321    -5281    -5246    -5212 
   -5170    -5107    -5024    -4923    -4803    -4677    -4554    -4428 
   -4299    -4176    -4056    -3943    -3854    -3785    -3731    -3693 
   -3663    -3635    -3609    -3582    -3557    -3530    -3497    -3458 
   -3403    -3334    -3261    -3187    -3109    -3034    -2965    -2894 
   -2817    -2739    -2658    -2578    -2511    -2462    -2434    -2436 
   -2469    -2520    -2596    -2695    -2810    -2936    -3079    -3238 
   -3412    -3599    -3782    -3960    -4143    -4333    -4529    -4725 
   -4907    -5071    -5211    -5304    -5344    -5336    -5277    -5173 
   -5031    -4860    -4677    -4492    -4306    -4126    -3963    -3812 
   -3658    -3505    -3361    -3219    -3076    -2932    -2797    -2686 
   -2601    -2540    -2515    -2532    -2581    -2652    -2751    -2872 
   -3002    -3132    -3262    -3397    -3532    -3659    -3774    -3879 
   -3973    -4051    -4114    -4172    -4229    -4279    -4330    -4386 
   -4432    -4460    -4467    -4445    -4402    -4336    -4248    -4151 
   -4047    -3948    -3877    -3838    -3838    -3885    -3970    -4086 
   -4232    -4388    -4540    -4684    -4812    -4924    -5016    -5082 
   -5125    -5144    -5135    -5104    -5062    -5019    -4984    -4959 
   -4949    -4953    -4970    -5004    -5051    -5100    -5142    -5165 
   -5169    -5151    -5112    -5057    -4989    -4912    -4830    -4757 
   -4696    -4641    -4591    -4545    -4496    -4437    -4365    -4283 
   -4193    -4091    -3982    -3858    -3713    -3546    -3357    -3159 
   -2959    -2768    -2600    -2463    -2363    -2301    -2273    -2269 
   -2289    -2336    -2409    -2508    -2629    -2759    -2882    -2991 
   -3076    -3140    -3180    -3199    -3204    -3196    -3177    -3160 
   -3144    -3133    -3137    -3157    -3200    -3267    -3348    -3445 
   -3562    -3694    -3836    -3987    -4145    -4299    -4452    -4596 
   -4727    -4843    -4939    -5013    -5070    -5107    -5119    -5107 
   -5081    -5043    -4992    -4930    -4860    -4781    -4698    -4611 
   -4518    -4414    -4311    -4228    -4160    -4106    -4074    -4055 
   -4040    -4031    -4025    -4025    -4032    -4051    -4086    -4128 
   -4174    -4218    -4251    -4266    -4270    -4271    -4268    -4267 
   -4278    -4305    -4345    -4402    -4475    -4552    -4622    -4693 
   -4756    -4804    -4849    -4889    -4927    -4968    -5000    -5022 
   -5042    -5057    -5061    -5058    -5049    -5028    -4999    -4953 
   -4880    -4783    -4677    -4577    -4482    -4396    -4322    -4263 
   -4217    -4174    -4140    -4128    -4125    -4135    -4162    -4186 
   -4195    -4189    -4163    -4118    -4071    -4028    -3979    -3927 
   -3873    -3823    -3786    -3765    -3759    -3771    -3793    -3812 
   -3820    -3819    -3808    -3788    -3769    -3759    -3753    -3743 
   -3731    -3715    -3690    -3662    -3635    -3607    -3565    -3514 
   -3462    -3407    -3346    -3289    -3242    -3200    -3167    -3149 
   -3146    -3152    -3169    -3198    -3240    -3292    -3348    -3406 
   -3461    -3514    -3566    -3618    -3658    -3688    -3704    -3703 
   -3680    -3635    -3574    -3501    -3423    -3349    -3287    -3235 
   -3199    -3181    -3180    -3192    -3225    -3275    -3326    -3369 
   -3403    -3419    -3424    -3418    -3391    -3342    -3276    -3202 
   -3123    -3040    -2967    -2921    -2899    -2897    -2910    -2933 
   -2963    -2998    -3036    -3068    -3098    -3121    -3130    -3130 
   -3127    -3126    -3132    -3146    -3165    -3186    -3214    -3252 
   -3294    -3349    -3411    -3465    -3511    -3551    -3582    -3601 
   -3620    -3642    -3658    -3673    -3686    -3701    -3723    -3746 
   -3770    -3792    -3804    -3809    -3815    -3813    -3808    -3801 
   -3784    -3753    -3708    -3646    -3568    -3480    -3389    -3302 
   -3226    -3171    -3134    -3125    -3148    -3194    -3258    -3334 
   -3415    -3501    -3588    -3678    -3770    -3869    -3978    -4106 
   -4259    -4432    -4621    -4815    -5007    -5192    -5358    -5491 
   -5591    -5657    -5697    -5715    -5721    -5717    -5697    -5653 
   -5599    -5557    -5533    -5529    -5555    -5602    -5663    -5738 
   -5823    -5913    -6015    -6129    -6243    -6354    -6457    -6544 
   -6624    -6698    -6756    -6791    -6809    -6809    -6789    -6755 
   -6705    -6642    -6561    -6461    -6338    -6188    -6014    -5814 
   -5591    -5348    -5086    -4814    -4531    -4251    -3981    -3730 
   -3503    -3303    -3130    -2979    -2841    -2710    -2598    -2502 
   -2419    -2354    -2305    -2274    -2276    -2309    -2374    -2475 
   -2602    -2751    -2913    -3080    -3246    -3403    -3542    -3661 
   -3759    -3836    -3896    -3935    -3962    -3979    -3983    -3986 
   -3986    -3973    -3952    -3929    -3894    -3854    -3805    -3744 
   -3681    -3622    -3564    -3504    -3435    -3350    -3252    -3133 
   -2995    -2847    -2701    -2566    -2447    -2349    -2272    -2211 
   -2158    -2119    -2099    -2096    -2100    -2116    -2150    -2184 
   -2215    -2255    -2304    -2369    -2467    -2594    -2747    -2921 
   -3109    -3306    -3512    -3720    -3923    -4118    -4305    -4471 
   -4612    -4727    -4814    -4862    -4865    -4835    -4774    -4685 
   -4583    -4484    -4399    -4347    -4322    -4329    -4376    -4445 
   -4525    -4614    -4706    -4788    -4854    -4893    -4911    -4907 
   -4882    -4847    -4800    -4745    -4689    -4648    -4625    -4617 
   -4621    -4641    -4676    -4712    -4756    -4806    -4853    -4887 
   -4907    -4922    -4935    -4945    -4954    -4972    -4990    -5004 
   -5022    -5040    -5058    -5071    -5073    -5061    -5027    -4972 
   -4905    -4839    -4776    -4729    -4702    -4681    -4666    -4653 
   -4633    -4608    -4584    -4554    -4522    -4473    -4406    -4317 
   -4210    -4105    -4012    -3935    -3883    -3866    -3871    -3897 
   -3943    -3998    -4051    -4101    -4137    -4155    -4155    -4133 
   -4091    -4039    -3982    -3920    -3846    -3762    -3667    -3558 
   -3437    -3300    -3144    -2960    -2756    -2531    -2290    -2047 
   -1814    -1606    -1428    -1277    -1152    -1055     -982     -932 
    -901     -896     -930    -1003    -1113    -1270    -1463    -1676 
   -1906    -2149    -2389    -2623    -2847    -3055    -3250    -3431 
   -3588    -3728    -3869    -4008    -4145    -4286    -4432    -4583 
   -4731    -4880    -5020    -5143    -5254    -5356    -5441    -5516 
   -5575    -5610    -5610    -5578    -5506    -5393    -5244    -5070 
   -4876    -4675    -4483    -4306    -4151    -4018    -3910    -3825 
   -3767    -3738    -3738    -3767    -3834    -3933    -4058    -4199 
   -4356    -4523    -4696    -4868    -5040    -5208    -5366    -5512 
   -5636    -5742    -5836    -5918    -6003    -6096    -6196    -6304 
   -6419    -6539    -6654    -6766    -6870    -6963    -7051    -7138 
   -7217    -7285    -7346    -7400    -7447    -7491    -7530    -7564 
   -7596    -7623    -7642    -7651    -7650    -7634    -7597    -7534 
   -7443    -7321    -7163    -6974    -6756    -6517    -6261    -5999 
   -5751    -5510    -5278    -5082    -4916    -4766    -4649    -4560 
   -4475    -4396    -4320    -4225    -4105    -3958    -3786    -3599 
   -3396    -3186    -2971    -2755    -2542    -2344    -2168    -2008 
   -1876    -1771    -1674    -1576    -1478    -1379    -1289    -1209 
   -1139    -1074    -1024     -989     -969     -961     -972    -1000 
   -1048    -1109    -1174    -1247    -1321    -1401    -1490    -1590 
   -1698    -1814    -1933    -2056    -2191    -2331    -2467    -2592 
   -2700    -2779    -2821    -2829    -2805    -2744    -2659    -2563 
   -2462    -2359    -2272    -2208    -2168    -2145    -2137    -2131 
   -2123    -2112    -2096    -2081    -2068    -2057    -2054    -2058 
   -2083    -2131    -2205    -2309    -2448    -2616    -2799    -2995 
   -3198    -3402    -3600    -3800    -4004    -4206    -4402    -4595 
   -4787    -4966    -5125    -5259    -5364    -5441    -5486    -5486 
   -5445    -5370    -5274    -5170    -5077    -5011    -4974    -4959 
   -4968    -5003    -5061    -5140    -5235    -5333    -5428    -5509 
   -5568    -5609    -5625    -5616    -5593    -5557    -5508    -5451 
   -5394    -5335    -5270    -5200    -5117    -5016    -4891    -4734 
   -4554    -4363    -4163    -3967    -3781    -3603    -3435    -3273 
   -3117    -2971    -2830    -2700    -2589    -2498    -2427    -2381 
   -2359    -2361    -2386    -2436    -2513    -2621    -2756    -2909 
   -3068    -3223    -3368    -3496    -3605    -3690    -3751    -3789 
   -3807    -3808    -3797    -3774    -3740    -3704    -3667    -3631 
   -3603    -3582    -3574    -3588    -3616    -3653    -3700    -3757 
   -3815    -3873    -3932    -3996    -4059    -4120    -4185    -4251 
   -4320    -4391    -4453    -4504    -4549    -4584    -4610    -4634 
   -4657    -4665    -4656    -4623    -4576    -4522    -4467    -4429 
   -4411    -4414    -4438    -4480    -4542    -4623    -4726    -4843 
   -4963    -5071    -5166    -5242    -5298    -5337    -5360    -5368 
   -5352    -5310    -5244    -5151    -5040    -4918    -4783    -4642 
   -4503    -4367    -4234    -4104    -3986    -3883    -3788    -3701 
   -3620    -3539    -3454    -3368    -3283    -3207    -3138    -3083 
   -3042    -3019    -3014    -3022    -3046    -3088    -3142    -3213 
   -3300    -3400    -3511    -3631    -3754    -3877    -3994    -4101 
   -4198    -4279    -4349    -4419    -4487    -4549    -4621    -4696 
   -4766    -4845    -4930    -5012    -5097    -5178    -5246    -5301 
   -5343    -5371    -5391    -5408    -5418    -5418    -5408    -5391 
   -5360    -5310    -5248    -5174    -5093    -5013    -4938    -4880 
   -4835    -4803    -4785    -4776    -4773    -4769    -4762    -4754 
   -4742    -4716    -4673    -4610    -4525    -4422    -4305    -4185 
   -4067    -3947    -3825    -3712    -3603    -3505    -3423    -3352 
   -3284    -3219    -3157    -3096    -3038    -2987    -2943    -2911 
   -2902    -2918    -2964    -3036    -3126    -3229    -3329    -3411 
   -3466    -3495    -3492    -3460    -3406    -3335    -3256    -3171 
   -3095    -3034    -2988    -2955    -2930    -2918    -2917    -2914 
   -2910    -2911    -2907    -2890    -2864    -2833    -2794    -2748 
   -2704    -2655    -2604    -2554    -2515    -2489    -2471    -2462 
   -2463    -2475    -2502    -2552    -2620    -2702    -2801    -2906 
   -3015    -3119    -3218    -3314    -3408    -3507    -3615    -3730 
   -3851    -3975    -4098    -4221    -4345    -4465    -4575    -4683 
   -4784    -4868    -4939    -5005    -5058    -5098    -5136    -5167 
   -5192    -5212    -5233    -5255    -5281    -5310    -5346    -5389 
   -5441    -5509    -5584    -5670    -5763    -5856    -5944    -6025 
   -6092    -6137    -6149    -6133    -6095    -6038    -5971    -5902 
   -5826    -5749    -5683    -5621    -5563    -5513    -5467    -5424 
   -5381    -5332    -5278    -5223    -5158    -5086    -5007    -4927 
   -4851    -4784    -4727    -4683    -4653    -4631    -4617    -4610 
   -4604    -4591    -4564    -4519    -4457    -4380    -4291    -4189 
   -4071    -3947    -3820    -3694    -3580    -3477    -3392    -3321 
   -3258    -3206    -3159    -3121    -3091    -3060    -3022    -2988 
   -2951    -2913    -2887    -2868    -2851    -2849    -2866    -2889 
   -2914    -2945    -2979    -3013    -3048    -3080    -3110    -3142 
   -3180    -3225    -3277    -3339    -3403    -3464    -3514    -3553 
   -3580    -3592    -3588    -3574    -3554    -3528    -3499    -3464 
   -3429    -3403    -3383    -3358    -3337    -3329    -3325    -3327 
   -3341    -3358    -3381    -3414    -3450    -3488    -3526    -3553 
   -3570    -3578    -3578    -3573    -3565    -3559    -3557    -3553 
   -3551    -3543    -3528    -3508    -3480    -3449    -3420    -3391 
   -3366    -3349    -3335    -3322    -3304    -3287    -3272    -3258 
   -3246    -3248    -3267    -3299    -3348    -3410    -3488    -3581 
   -3681    -3786    -3894    -4000    -4098    -4195    -4291    -4379 
   -4463    -4548    -4627    -4703    -4781    -4855    -4920    -4984 
   -5055    -5127    -5205    -5297    -5393    -5498    -5622    -5752 
   -5881    -6015    -6141    -6243    -6326    -6390    -6439    -6465 
   -6474    -6474    -6457    -6420    -6377    -6326    -6258    -6170 
   -6070    -5960    -5837    -5709    -5578    -5441    -5300    -5154 
   -5003    -4851    -4710    -4580    -4465    -4374    -4310    -4268 
   -4245    -4251    -4279    -4325    -4391    -4475    -4563    -4646 
   -4719    -4774    -4801    -4800    -4776    -4742    -4699    -4648 
   -4599    -4556    -4514    -4477    -4441    -4407    -4390    -4383 
