Origin Time       2025/01/13 21:19:00
Lat.              31.8
Long.             131.6
Depth. (km)       30
Mag.              6.9
Station Code      FKOH03
Station Lat.      33.5608
Station Long.     130.5499
Station Height(m) 185
Record Time       2025/01/13 21:20:08
Sampling Freq(Hz) 100Hz
Duration Time(s)  147
Dir.              6
Scale Factor      7845(gal)/8223790
Max. Acc. (gal)   0.898
Last Correction   2025/01/13 21:20:10
Memo.             
[...]
     355      310      272      244      229      232      233      213 
     172      144      136      141      162      189      210      233 
     271      318      363      394      423      461      503      542 
     587      625      633      600      560      560      599      614 
     581      542      530      527      504      450      391      364 
     386      433      457      429      369      319      314      345 
     369      361      344      346      376      409      417      392 
     348      318      333      376      413      426      418      402 
     395      395      386      379      379      371      360      352 
     340      313      270      240      251      274      268      226 
     186      174      170      145      109       85       78       76 
      58       32       31       52       66       56       39       22 
       0      -37      -78      -99      -86      -45      -20      -32 
     -60      -64      -43      -12       25       67      103      121 
     116      106      121      155      182      178      140      101 
      75       51       35       43       71       83       45      -16 
     -39       -5       51       90      117      162      203      198 
     168      183      244      291      283      249      247      290 
     322      307      276      288      345      398      415      410 
     398      382      359      328      317      345      395      427 
     432      421      406      390      378      383      415      467 
     527      579      595      576      572      629      715      753 
     710      619      544      518      531      538      517      476 
     429      387      356      328      295      263      260      295 
     330      341      345      355      372      387      391      399 
     417      433      437      430      422      425      429      438 
     463      477      471      454      432      406      373      328 
     287      279      297      313      319      332      355      365 
     359      355      372      411      444      446      442      449 
     449      445      453      460      446      422      413      425 
     430      402      346      307      302      322      353      382 
     403      411      406      400      413      450      496      521 
     507      471      445      437      440      457      483      498 
     500      499      488      471      460      468      473      438 
     353      270      249      282      303      282      234      193 
     162      153      183      233      272      279      271      284 
     315      352      388      418      440      461      487      521 
     562      599      623      631      627      619      619      626 
     635      635      631      631      630      619      602      581 
     562      553      558      561      554      554      567      576 
     567      537      502      479      473      484      494      492 
     486      480      475      484      519      577      631      665 
     706      769      831      846      795      729      703      696 
     669      634      626      638      625      557      468      411 
     392      375      361      371      380      353      287      214 
     163      129       97       66       47       37       33       33 
      48       87      139      182      220      260      290      306 
     328      351      361      356      340      337      364      387 
     372      330      294      267      240      216      198      178 
     152      126      120      139      160      176      197      213 
     211      206      220      257      283      264      232      237 
     271      279      247      216      229      279      334      387 
     429      446      440      427      437      459      465      454 
     444      448      461      464      457      460      488      525 
     527      480      405      340      301      271      245      245 
     260      251      210      170      163      183      206      224 
     253      306      352      369      369      363      353      336 
     313      306      311      314      309      298      280      256 
     232      228      245      270      279      291      337      410 
     468      491      499      519      550      571      572      568 
     567      564      549      523      506      495      457      371 
     256      167      145      157      130       44      -66     -148 
    -174     -156     -124     -101     -110     -141     -157     -143 
    -113      -74      -17       55      125      178      237      321 
     396      429      440      453      460      442      411      399 
     418      426      409      400      423      467      529      599 
     649      658      645      654      697      749      777      772 
     753      751      768      776      770      762      753      739 
     723      704      679      638      595      567      546      533 
     546      572      571      550      554      589      619      616 
     588      572      589      625      650      660      652      618 
     562      510      480      465      442      400      341      280 
     226      178      136       94       47       -5      -43      -47 
     -14       51      132      190      209      201      198      220 
     257      302      346      383      400      402      391      378 
     367      348      332      341      361      365      367      388 
     425      469      513      549      571      585      598      599 
     584      571      558      529      480      434      407      392 
     372      344      318      310      315      330      345      360 
     388      437      491      540      583      612      635      677 
     739      812      880      913      927      958     1013     1058 
    1065     1048     1026     1004      980      946      892      816 
     742      689      652      621      588      550      513      481 
     449      413      380      365      360      346      313      274 
     247      237      232      214      182      143      112      110 
     139      172      194      205      214      225      226      209 
     180      167      174      199      232      257      259      224 
     180      168      197      233      248      245      240      243 
     241      233      240      276      322      330      287      225 
     176      136       90       39      -12      -43      -55      -74 
    -110     -149     -180     -195     -205     -214     -225     -245 
    -257     -236     -180     -120      -93      -93      -86      -58 
     -29      -14        2       45      109      163      193      228 
     286      336      346      329      313      317      328      328 
     326      322      302      275      272      305      341      355 
     363      388      419      425      406      413      467      523 
     538      517      502      504      494      449      402      388 
     402      407      400      405      419      425      414      403 
     411      426      417      373      311      267      260      265 
     248      202      149      121      120      108       68       29 
      12       12       14        9       12       29       48       67 
      97      130      167      214      259      294      330      373 
     419      454      465      469      494      540      581      595 
     589      583      576      561      542      523      511      511 
     519      526      531      546      562      569      560      540 
     523      526      544      564      573      561      537      525 
     530      542      561      571      556      533      519      504 
     479      454      454      475      486      475      461      463 
     479      503      522      526      527      533      537      533 
     530      540      560      572      564      542      518      491 
     459      421      384      355      306      228      153      116 
     108      118      153      205      260      317      365      418 
     487      556      604      631      656      681      691      684 
     673      666      680      704      712      711      729      772 
     823      869      916      966     1003     1012     1004      986 
     965      939      905      866      824      772      708      635 
     560      484      407      328      259      205      151       89 
      24      -40      -98     -149     -191     -199     -170     -130 
    -102      -97      -98      -87      -67      -56      -62      -66 
     -49      -20        1       -4      -40      -82     -101      -95 
     -90      -81      -56      -21        1       -1       -9       14 
      79      171      275      376      453      506      546      587 
     635      681      703      711      704      665      603      533 
     469      429      399      360      317      276      240      214 
     210      233      259      268      268      274      291      324 
     359      388      406      406      406      415      425      433 
     446      461      468      464      457      453      449      437 
     417      388      352      319      299      295      302      290 
     257      225      205      194      183      166      132       70 
      -6      -85     -159     -220     -255     -247     -201     -140 
    -101      -86      -64       -9       72      168      274      382 
     469      523      549      557      553      549      554      565 
     562      533      480      440      440      457      459      442 
     429      434      457      476      484      486      477      473 
     486      500      496      468      425      369      292      201 
     128       91       63       24      -25      -70     -102     -139 
    -176     -190     -166     -118      -56       10       70      116 
     151      178      205      230      241      229      203      187 
     171      133       93       68       45       22       32       75 
     130      178      209      232      264      298      322      340 
     353      368      395      436      475      498      504      503 
     498      490      486      487      491      521      589      665 
     715      739      753      770      791      797      792      797 
     820      839      838      835      846      862      869      870 
     868      854      834      815      804      792      766      724 
     687      672      677      677      654      621      608      633 
     691      761      818      855      886      920      946      957 
     957      955      950      938      927      922      918      903 
     876      845      807      754      689      625      569      525 
     495      481      481      488      481      449      409      387 
     400      449      498      499      450      386      340      328 
     332      315      282      261      274      305      322      318 
     309      315      337      342      329      315      306      295 
     284      287      315      356      388      406      414      426 
     450      472      479      472      448      415      379      348 
     326      303      267      230      198      167      133      105 
      93      102      117      120      101       72       60       67 
      85      113      149      183      206      230      259      290 
     317      355      422      506      568      596      606      616 
     634      645      639      633      638      654      664      661 
     648      627      606      581      553      515      469      421 
     373      325      261      184      117       81       68       62 
      44       10      -18      -36      -45      -60      -90     -135 
    -174     -202     -228     -257     -287     -309     -315     -310 
    -302     -286     -260     -224     -178     -129      -76      -12 
      59      129      193      234      261      307      367      406 
     415      418      415      418      433      445      442      440 
     450      468      467      444      414      395      391      382 
     359      333      315      302      278      244      225      234 
     251      255      245      237      247      267      291      317 
     346      392      450      504      544      579      622      658 
     673      677      684      688      680      666      664      672 
     684      696      710      722      731      735      739      753 
     792      847      895      912      907      896      889      886 
     893      904      897      862      807      749      692      629 
     554      475      414      372      332      284      237      194 
     156      122      101      103      135      171      195      214 
     237      265      306      360      422      483      538      591 
     630      642      641      638      639      638      629      612 
     591      572      557      542      525      500      471      452 
     450      468      495      515      522      525      534      560 
     599      635      664      693      716      722      724      743 
     793      862      930      980      997      992      994     1017 
    1047     1061     1050     1017      967      904      832      762 
     689      604      500      387      283      182       70      -43 
    -125     -175     -211     -248     -291     -342     -387     -415 
    -427     -440     -463     -500     -544     -569     -567     -535 
    -494     -461     -434     -395     -344     -290     -237     -193 
    -151     -106      -66      -25       13       43       55       62 
      72       87       99      105      102       94       68       29 
      -4      -16       -6        5        2        1       21       51 
      78      102      128      155      182      205      217      214 
     203      201      225      264      292      311      330      346 
     352      355      379      423      468      494      502      507 
     529      562      603      649      683      699      711      729 
     745      753      756      770      808      855      892      907 
     904      900      904      903      893      882      872      851 
     814      774      746      726      710      696      691      697 
     720      745      751      734      710      691      681      676 
     669      656      637      621      614      618      631      646 
     648      623      575      526      496      484      472      444 
     407      375      348      332      329      336      341      338 
     322      299      283      286      306      325      333      352 
     392      438      468      486      506      534      556      558 
     553      550      540      521      500      473      445      411 
     356      294      244      209      189      168      128       79 
      35        6       -1       -2      -12      -22      -33      -52 
     -81      -99     -105     -102     -101     -103     -102      -82 
     -56      -20       41      116      179      229      288      368 
     446      508      558      603      642      666      675      685 
     720      765      803      850      909      967     1013     1038 
    1048     1061     1074     1082     1089     1080     1038      974 
     913      854      788      706      615      535      469      409 
     345      276      209      159      133      135      147      152 
     160      176      198      222      253      294      345      410 
     483      545      577      577      575      599      645      688 
     711      712      689      648      592      533      492      476 
     467      449      415      365      314      274      253      252 
     249      241      241      247      241      222      199      180 
     174      178      184      186      189      211      259      318 
     376      422      452      477      511      549      596      657 
     706      738      764      789      822      847      855      846 
     819      774      724      669      614      560      490      387 
     270      144       22      -70     -118     -136     -144     -156 
    -167     -164     -145     -114      -78      -47      -29      -25 
     -29      -36      -43      -59      -81     -101     -109     -102 
     -91      -81      -58       -8       59      125      183      236 
     291      349      405      446      477      500      517      526 
     529      533      531      517      487      442      386      342 
     315      287      265      261      268      274      274      276 
     306      345      369      386      409      448      495      540 
     584      627      658      670      670      672      679      692 
     700      700      687      664      643      629      611      596 
     579      560      554      562      560      535      508      500 
     508      522      527      515      483      444      411      376 
     340      299      251      195      145      103       74       44 
      24       21       24       33       62       98      129      157 
     198      259      326      373      398      411      433      469 
     510      549      589      633      661      672      676      688 
     714      746      774      787      777      760      749      751 
     768      797      822      831      835      837      828      819 
     807      783      746      702      650      599      550      492 
     423      355      288      224      163      102       45        0 
     -41      -76     -109     -133     -130      -99      -63      -33 
       1       51      103      153      207      271      334      388 
     442      502      558      598      614      616      615      604 
     575      529      471      415      363      301      232      166 
     106       59       14      -31      -74     -109     -133     -128 
     -95      -56      -27       -1       45      116      186      241 
     287      336      392      454      517      572      619      657 
     680      681      666      646      638      639      638      626 
     608      588      576      591      631      670      695      708 
     724      753      793      835      878      922      959      986 
     999     1000      999     1004     1008     1000      974      939 
     901      854      792      726      664      608      567      523 
     477      440      413      386      360      342      342      351 
     352      342      333      325      313      305      310      313 
     305      292      286      282      284      292      295      291 
     284      283      290      306      330      345      340      319 
     298      275      248      220      190      162      121       62 
      -8      -76     -130     -160     -175     -175     -167     -166 
    -172     -175     -167     -153     -132     -103      -60      -14 
      12       24       31       37       51       71       99      133 
     164      184      189      180      168      157      149      153 
     175      202      222      238      243      237      236      243 
     253      265      275      279      282      279      265      260 
     276      294      302      306      305      288      253      205 
