Origin Time       2025/01/13 21:19:00
Lat.              31.8
Long.             131.6
Depth. (km)       30
Mag.              6.9
Station Code      FKOH03
Station Lat.      33.5608
Station Long.     130.5499
Station Height(m) 85
Record Time       2025/01/13 21:20:08
Sampling Freq(Hz) 100Hz
Duration Time(s)  147
Dir.              3
Scale Factor      2942(gal)/8224139
Max. Acc. (gal)   0.843
Last Correction   2025/01/13 21:20:10
Memo.             
[...]
  -61650   -61723   -61790   -61854   -61911   -61954   -61985   -62005 
  -62020   -62021   -62005   -61985   -61965   -61943   -61909   -61851 
  -61774   -61688   -61588   -61487   -61385   -61279   -61173   -61080 
  -61013   -60968   -60930   -60907   -60912   -60939   -60980   -61034 
  -61082   -61114   -61150   -61196   -61244   -61287   -61322   -61353 
  -61388   -61439   -61492   -61524   -61537   -61542   -61550   -61562 
  -61578   -61595   -61603   -61599   -61603   -61603   -61582   -61557 
  -61543   -61533   -61520   -61514   -61499   -61484   -61474   -61456 
  -61443   -61450   -61466   -61496   -61531   -61558   -61592   -61634 
  -61668   -61695   -61719   -61738   -61758   -61788   -61830   -61870 
  -61915   -61979   -62055   -62133   -62218   -62293   -62357   -62411 
  -62441   -62459   -62487   -62507   -62498   -62475   -62461   -62453 
  -62445   -62440   -62437   -62446   -62467   -62483   -62490   -62490 
  -62484   -62480   -62476   -62456   -62424   -62382   -62328   -62274 
  -62220   -62168   -62140   -62141   -62145   -62154   -62178   -62214 
  -62244   -62271   -62309   -62348   -62384   -62422   -62446   -62463 
  -62483   -62476   -62430   -62372   -62306   -62228   -62136   -62043 
  -61960   -61902   -61863   -61821   -61782   -61755   -61735   -61720 
  -61700   -61668   -61641   -61624   -61607   -61588   -61576   -61572 
  -61573   -61576   -61580   -61584   -61587   -61580   -61560   -61533 
  -61503   -61473   -61452   -61427   -61393   -61353   -61294   -61227 
  -61172   -61107   -61022   -60948   -60898   -60876   -60871   -60878 
  -60887   -60894   -60912   -60959   -61010   -61053   -61109   -61183 
  -61267   -61361   -61457   -61538   -61599   -61634   -61654   -61658 
  -61639   -61604   -61572   -61542   -61510   -61476   -61452   -61442 
  -61442   -61445   -61446   -61446   -61435   -61416   -61410   -61418 
  -61419   -61418   -61434   -61468   -61523   -61599   -61665   -61705 
  -61730   -61735   -61719   -61682   -61635   -61592   -61555   -61516 
  -61484   -61462   -61438   -61406   -61381   -61356   -61325   -61310 
  -61300   -61291   -61288   -61292   -61299   -61318   -61354   -61402 
  -61453   -61501   -61545   -61591   -61635   -61654   -61643   -61612 
  -61569   -61503   -61423   -61356   -61306   -61252   -61204   -61177 
  -61167   -61172   -61190   -61211   -61233   -61244   -61244   -61245 
  -61250   -61261   -61287   -61323   -61369   -61430   -61491   -61557 
  -61632   -61695   -61743   -61781   -61798   -61809   -61820   -61821 
  -61828   -61855   -61885   -61905   -61917   -61923   -61909   -61873 
  -61815   -61739   -61649   -61546   -61441   -61330   -61217   -61106 
  -61001   -60910   -60853   -60820   -60801   -60798   -60812   -60833 
  -60852   -60862   -60868   -60882   -60903   -60929   -60953   -60980 
  -61007   -61032   -61053   -61065   -61064   -61063   -61063   -61069 
  -61084   -61103   -61123   -61150   -61180   -61211   -61246   -61281 
  -61306   -61303   -61265   -61213   -61152   -61071   -60974   -60876 
  -60789   -60713   -60658   -60635   -60633   -60648   -60671   -60691 
  -60716   -60755   -60808   -60867   -60934   -61010   -61099   -61200 
  -61292   -61375   -61468   -61568   -61663   -61759   -61858   -61952 
  -62046   -62135   -62199   -62247   -62282   -62293   -62274   -62241 
  -62201   -62140   -62058   -61974   -61900   -61842   -61800   -61774 
  -61754   -61736   -61730   -61727   -61719   -61713   -61715   -61717 
  -61723   -61730   -61736   -61755   -61788   -61824   -61852   -61877 
  -61894   -61909   -61920   -61924   -61928   -61942   -61952   -61948 
  -61933   -61929   -61933   -61929   -61924   -61921   -61919   -61915 
  -61905   -61889   -61863   -61816   -61754   -61693   -61624   -61545 
  -61470   -61411   -61372   -61344   -61323   -61312   -61300   -61287 
  -61284   -61284   -61268   -61241   -61221   -61219   -61236   -61281 
  -61346   -61418   -61496   -61572   -61638   -61699   -61757   -61805 
  -61835   -61846   -61846   -61848   -61858   -61854   -61827   -61794 
  -61767   -61742   -61716   -61688   -61674   -61681   -61688   -61697 
  -61719   -61746   -61777   -61808   -61838   -61866   -61882   -61886 
  -61878   -61863   -61832   -61773   -61699   -61614   -61508   -61399 
  -61291   -61179   -61074   -60988   -60918   -60862   -60826   -60824 
  -60841   -60868   -60910   -60980   -61088   -61225   -61380   -61550 
  -61728   -61909   -62097   -62280   -62453   -62613   -62749   -62850 
  -62927   -62986   -63008   -63004   -62986   -62957   -62912   -62842 
  -62754   -62654   -62527   -62383   -62235   -62086   -61944   -61803 
  -61663   -61551   -61469   -61411   -61372   -61339   -61310   -61288 
  -61265   -61231   -61188   -61134   -61075   -61022   -60971   -60920 
  -60872   -60816   -60751   -60700   -60666   -60639   -60613   -60586 
  -60562   -60543   -60528   -60523   -60523   -60521   -60525   -60551 
  -60602   -60670   -60745   -60814   -60870   -60926   -60983   -61033 
  -61076   -61095   -61083   -61069   -61067   -61057   -61042   -61033 
  -61021   -60999   -60970   -60945   -60933   -60940   -60966   -61010 
  -61074   -61152   -61240   -61339   -61441   -61537   -61636   -61746 
  -61862   -61992   -62122   -62241   -62340   -62407   -62422   -62383 
  -62318   -62244   -62160   -62071   -61992   -61921   -61858   -61807 
  -61763   -61711   -61650   -61584   -61520   -61476   -61449   -61442 
  -61461   -61487   -61497   -61503   -61497   -61480   -61461   -61434 
  -61393   -61353   -61307   -61256   -61210   -61172   -61145   -61133 
  -61136   -61156   -61192   -61244   -61303   -61366   -61426   -61472 
  -61514   -61551   -61577   -61601   -61615   -61600   -61568   -61516 
  -61443   -61365   -61275   -61172   -61060   -60929   -60783   -60633 
  -60492   -60359   -60230   -60102   -59983   -59883   -59817   -59790 
  -59800   -59842   -59910   -59994   -60093   -60210   -60331   -60451 
  -60575   -60704   -60825   -60940   -61037   -61115   -61191   -61256 
  -61298   -61325   -61338   -61352   -61388   -61442   -61504   -61580 
  -61673   -61771   -61873   -61966   -62044   -62106   -62151   -62175 
  -62182   -62172   -62155   -62133   -62109   -62090   -62081   -62063 
  -62033   -62005   -61981   -61950   -61915   -61874   -61823   -61769 
  -61726   -61699   -61686   -61677   -61658   -61643   -61636   -61627 
  -61607   -61587   -61588   -61608   -61646   -61707   -61790   -61900 
  -62032   -62171   -62306   -62440   -62568   -62683   -62777   -62851 
  -62922   -62985   -63026   -63051   -63067   -63069   -63057   -63027 
  -62995   -62965   -62934   -62910   -62883   -62851   -62822   -62777 
  -62703   -62611   -62510   -62399   -62286   -62171   -62070   -61983 
  -61897   -61819   -61751   -61689   -61635   -61587   -61541   -61515 
  -61507   -61506   -61510   -61526   -61547   -61569   -61585   -61596 
  -61600   -61593   -61570   -61531   -61488   -61443   -61392   -61337 
  -61290   -61260   -61246   -61249   -61265   -61291   -61322   -61348 
  -61360   -61365   -61373   -61373   -61376   -61395   -61426   -61477 
  -61547   -61620   -61689   -61749   -61796   -61839   -61879   -61915 
  -61948   -61985   -62033   -62093   -62145   -62187   -62230   -62271 
  -62307   -62338   -62357   -62357   -62341   -62324   -62294   -62241 
  -62167   -62075   -61974   -61875   -61777   -61682   -61604   -61534 
  -61472   -61425   -61381   -61335   -61299   -61260   -61219   -61196 
  -61191   -61191   -61198   -61206   -61196   -61167   -61132   -61096 
  -61052   -61009   -60970   -60934   -60916   -60921   -60939   -60971 
  -61010   -61042   -61067   -61082   -61087   -61087   -61080   -61068 
  -61065   -61067   -61068   -61075   -61086   -61101   -61125   -61156 
  -61192   -61233   -61272   -61306   -61331   -61346   -61345   -61334 
  -61319   -61302   -61277   -61256   -61240   -61217   -61191   -61175 
  -61164   -61156   -61161   -61180   -61207   -61250   -61315   -61389 
  -61477   -61577   -61666   -61732   -61784   -61824   -61846   -61836 
  -61796   -61731   -61645   -61541   -61425   -61299   -61172   -61055 
  -60952   -60863   -60783   -60713   -60663   -60633   -60613   -60601 
  -60596   -60589   -60579   -60561   -60524   -60470   -60399   -60324 
  -60258   -60192   -60139   -60108   -60087   -60080   -60095   -60124 
  -60161   -60205   -60266   -60338   -60428   -60552   -60700   -60864 
  -61048   -61244   -61445   -61653   -61857   -62048   -62239   -62426 
  -62599   -62762   -62905   -63009   -63081   -63121   -63135   -63127 
  -63097   -63053   -63009   -62964   -62915   -62876   -62843   -62816 
  -62803   -62807   -62810   -62802   -62792   -62783   -62770   -62745 
  -62702   -62648   -62579   -62488   -62384   -62271   -62147   -62016 
  -61875   -61709   -61533   -61365   -61202   -61041   -60902   -60799 
  -60736   -60706   -60701   -60724   -60778   -60852   -60939   -61042 
  -61160   -61273   -61393   -61528   -61655   -61770   -61867   -61942 
  -61994   -62025   -62031   -62021   -61992   -61936   -61865   -61786 
  -61699   -61605   -61519   -61437   -61362   -61302   -61245   -61194 
  -61165   -61152   -61142   -61146   -61173   -61218   -61277   -61352 
  -61435   -61524   -61605   -61682   -61762   -61839   -61900   -61942 
  -61978   -62013   -62039   -62074   -62132   -62203   -62287   -62380 
  -62478   -62583   -62685   -62773   -62824   -62837   -62816   -62762 
  -62669   -62549   -62424   -62291   -62144   -61998   -61867   -61738 
  -61607   -61487   -61385   -61304   -61246   -61213   -61204   -61226 
  -61249   -61260   -61276   -61291   -61292   -61294   -61302   -61303 
  -61300   -61299   -61296   -61290   -61283   -61272   -61265   -61279 
  -61312   -61360   -61429   -61518   -61618   -61730   -61850   -61966 
  -62086   -62212   -62325   -62429   -62527   -62618   -62695   -62749 
  -62776   -62770   -62730   -62665   -62581   -62482   -62371   -62263 
  -62171   -62102   -62060   -62041   -62029   -62035   -62056   -62082 
  -62117   -62155   -62186   -62199   -62194   -62170   -62122   -62056 
  -61979   -61893   -61803   -61726   -61658   -61603   -61565   -61526 
  -61480   -61437   -61399   -61373   -61357   -61345   -61331   -61319 
  -61307   -61288   -61250   -61191   -61119   -61038   -60949   -60859 
  -60760   -60663   -60581   -60509   -60455   -60431   -60423   -60415 
  -60412   -60417   -60419   -60416   -60420   -60427   -60436   -60461 
  -60482   -60501   -60531   -60566   -60600   -60636   -60666   -60685 
  -60702   -60723   -60733   -60733   -60720   -60686   -60640   -60594 
  -60543   -60477   -60396   -60322   -60265   -60220   -60191   -60180 
  -60177   -60183   -60192   -60199   -60196   -60192   -60197   -60224 
  -60274   -60346   -60435   -60529   -60624   -60725   -60829   -60921 
  -61009   -61099   -61169   -61219   -61260   -61284   -61294   -61288 
  -61273   -61269   -61268   -61257   -61254   -61265   -61291   -61329 
  -61376   -61419   -61456   -61487   -61510   -61530   -61549   -61562 
  -61582   -61619   -61661   -61701   -61739   -61773   -61793   -61798 
  -61788   -61761   -61727   -61680   -61619   -61561   -61516   -61483 
  -61457   -61442   -61445   -61461   -61484   -61518   -61572   -61638 
  -61703   -61767   -61834   -61892   -61948   -62005   -62044   -62075 
  -62122   -62171   -62208   -62239   -62257   -62264   -62260   -62245 
  -62224   -62183   -62128   -62066   -61996   -61923   -61843   -61747 
  -61638   -61524   -61414   -61310   -61211   -61121   -61037   -60967 
  -60916   -60871   -60841   -60840   -60845   -60851   -60867   -60886 
  -60897   -60909   -60934   -60970   -61025   -61103   -61192   -61291 
  -61410   -61531   -61647   -61766   -61881   -61986   -62095   -62213 
  -62326   -62438   -62553   -62660   -62760   -62858   -62951   -63034 
  -63111   -63189   -63262   -63321   -63369   -63400   -63409   -63396 
  -63354   -63279   -63181   -63067   -62937   -62791   -62652   -62509 
  -62361   -62228   -62097   -61965   -61844   -61736   -61645   -61573 
  -61511   -61460   -61420   -61392   -61376   -61366   -61356   -61344 
  -61342   -61349   -61349   -61346   -61358   -61385   -61422   -61461 
  -61497   -61537   -61584   -61626   -61654   -61677   -61699   -61719 
  -61740   -61769   -61789   -61796   -61800   -61790   -61759   -61711 
  -61645   -61550   -61435   -61317   -61199   -61080   -60976   -60894 
  -60835   -60782   -60736   -60702   -60670   -60642   -60624   -60617 
  -60617   -60619   -60615   -60604   -60585   -60559   -60528   -60490 
  -60450   -60401   -60343   -60291   -60242   -60193   -60158   -60138 
  -60131   -60145   -60188   -60262   -60363   -60496   -60655   -60818 
  -60984   -61161   -61338   -61511   -61669   -61811   -61938   -62044 
  -62129   -62190   -62224   -62230   -62210   -62156   -62070   -61963 
  -61838   -61700   -61568   -61439   -61315   -61199   -61098   -61018 
  -60956   -60918   -60910   -60916   -60926   -60945   -60968   -61002 
  -61038   -61065   -61086   -61103   -61118   -61125   -61115   -61094 
  -61057   -60997   -60932   -60875   -60814   -60752   -60701   -60656 
  -60617   -60582   -60550   -60512   -60470   -60421   -60363   -60300 
  -60228   -60158   -60096   -60027   -59954   -59900   -59864   -59842 
  -59838   -59854   -59904   -59988   -60097   -60239   -60408   -60602 
  -60829   -61065   -61307   -61564   -61815   -62054   -62287   -62505 
  -62710   -62900   -63069   -63216   -63346   -63467   -63570   -63659 
  -63741   -63805   -63853   -63884   -63880   -63855   -63823   -63778 
  -63714   -63647   -63572   -63485   -63387   -63283   -63178   -63074 
  -62969   -62870   -62780   -62698   -62626   -62554   -62490   -62437 
  -62397   -62365   -62340   -62324   -62321   -62322   -62332   -62353 
  -62372   -62391   -62411   -62424   -62425   -62413   -62383   -62351 
  -62322   -62290   -62255   -62228   -62201   -62174   -62144   -62112 
  -62082   -62048   -62006   -61958   -61894   -61835   -61778   -61704 
  -61626   -61555   -61484   -61404   -61325   -61249   -61168   -61082 
  -60999   -60917   -60844   -60782   -60721   -60662   -60602   -60543 
  -60488   -60435   -60384   -60340   -60309   -60282   -60254   -60234 
  -60230   -60237   -60247   -60259   -60274   -60295   -60313   -60331 
  -60347   -60366   -60388   -60404   -60407   -60401   -60390   -60378 
  -60370   -60372   -60384   -60415   -60463   -60515   -60567   -60631 
  -60686   -60733   -60777   -60799   -60810   -60821   -60840   -60874 
  -60914   -60959   -61013   -61068   -61125   -61186   -61245   -61304 
  -61360   -61418   -61474   -61522   -61570   -61616   -61649   -61672 
  -61685   -61692   -61701   -61713   -61720   -61719   -61697   -61653 
  -61599   -61546   -61487   -61430   -61383   -61339   -61298   -61267 
  -61249   -61245   -61252   -61271   -61300   -61344   -61402   -61468 
  -61541   -61634   -61732   -61835   -61942   -62039   -62127   -62212 
  -62289   -62356   -62418   -62468   -62526   -62590   -62635   -62672 
  -62723   -62768   -62795   -62812   -62812   -62784   -62738   -62675 
  -62594   -62505   -62397   -62266   -62124   -61975   -61824   -61677 
  -61533   -61391   -61248   -61109   -60982   -60860   -60748   -60644 
  -60536   -60435   -60343   -60251   -60153   -60048   -59946   -59849 
  -59760   -59703   -59680   -59674   -59699   -59756   -59834   -59941 
  -60079   -60242   -60426   -60619   -60826   -61040   -61240   -61435 
  -61622   -61773   -61897   -62008   -62098   -62166   -62205   -62214 
  -62198   -62154   -62081   -61993   -61888   -61766   -61647   -61535 
  -61422   -61308   -61194   -61082   -60991   -60925   -60868   -60828 
  -60808   -60802   -60812   -60836   -60878   -60929   -60988   -61064 
  -61152   -61248   -61342   -61427   -61508   -61595   -61685   -61766 
  -61838   -61900   -61951   -61993   -62021   -62046   -62056   -62041 
  -62009   -61969   -61911   -61840   -61763   -61680   -61587   -61491 
  -61399   -61303   -61207   -61130   -61053   -60967   -60882   -60793 
  -60698   -60619   -60548   -60482   -60444   -60430   -60428   -60455 
  -60512   -60593   -60704   -60848   -61010   -61192   -61389   -61587 
  -61786   -61987   -62170   -62329   -62465   -62564   -62622   -62649 
  -62646   -62622   -62581   -62538   -62509   -62490   -62480   -62490 
  -62517   -62564   -62626   -62685   -62734   -62773   -62803   -62815 
  -62802   -62765   -62714   -62644   -62552   -62436   -62298   -62148 
  -61990   -61834   -61684   -61546   -61425   -61318   -61227   -61157 
  -61106   -61075   -61067   -61072   -61091   -61129   -61194   -61271 
  -61349   -61426   -61497   -61560   -61611   -61650   -61678   -61704 
  -61720   -61715   -61695   -61661   -61619   -61572   -61512   -61438 
  -61354   -61254   -61142   -61040   -60949   -60872   -60820   -60785 
  -60767   -60770   -60779   -60798   -60822   -60848   -60872   -60889 
  -60891   -60890   -60893   -60903   -60912   -60916   -60916   -60921 
  -60936   -60949   -60972   -61015   -61075   -61159   -61267   -61392 
  -61534   -61685   -61831   -61973   -62104   -62218   -62320   -62406 
  -62478   -62529   -62552   -62560   -62548   -62506   -62446   -62364 
  -62264   -62160   -62046   -61920   -61790   -61663   -61541   -61414 
  -61291   -61183   -61079   -60968   -60859   -60766   -60682   -60602 
  -60531   -60469   -60420   -60389   -60370   -60350   -60322   -60291 
  -60249   -60207   -60177   -60158   -60151   -60166   -60201   -60245 
  -60309   -60397   -60492   -60601   -60728   -60870   -61029   -61192 
  -61365   -61551   -61738   -61921   -62091   -62244   -62380   -62490 
  -62572   -62638   -62681   -62702   -62698   -62658   -62598   -62515 
  -62411   -62294   -62154   -61994   -61839   -61686   -61539   -61415 
  -61310   -61218   -61146   -61092   -61055   -61041   -61053   -61088 
  -61155   -61245   -61342   -61457   -61591   -61734   -61884   -62028 
  -62162   -62295   -62434   -62563   -62661   -62731   -62769   -62770 
  -62741   -62679   -62579   -62455   -62309   -62155   -62000   -61839 
  -61680   -61537   -61404   -61280   -61168   -61069   -60984   -60920 
  -60876   -60853   -60845   -60848   -60852   -60860   -60875   -60887 
  -60889   -60885   -60872   -60852   -60829   -60790   -60732   -60659 
  -60573   -60477   -60380   -60284   -60192   -60112   -60046   -59985 
  -59931   -59888   -59863   -59857   -59873   -59915   -59981   -60070 
  -60183   -60311   -60451   -60594   -60739   -60890   -61036   -61168 
  -61284   -61389   -61483   -61551   -61601   -61638   -61658   -61665 
  -61666   -61666   -61662   -61653   -61646   -61646   -61646   -61646 
  -61650   -61658   -61669   -61666   -61659   -61662   -61665   -61665 
  -61669   -61669   -61666   -61685   -61715   -61740   -61770   -61815 
  -61874   -61942   -62005   -62077   -62168   -62268   -62367   -62469 
  -62565   -62645   -62716   -62776   -62815   -62839   -62850   -62837 
  -62807   -62773   -62737   -62687   -62638   -62598   -62554   -62518 
  -62492   -62469   -62452   -62432   -62406   -62378   -62347   -62320 
  -62295   -62278   -62270   -62257   -62239   -62218   -62190   -62151 
  -62105   -62050   -61982   -61917   -61865   -61823   -61786   -61755 
  -61727   -61697   -61672   -61653   -61631   -61601   -61574   -61557 
  -61545   -61531   -61534   -61557   -61589   -61642   -61722   -61816 
