Origin Time       2025/01/13 21:19:00
Lat.              31.8
Long.             131.6
Depth. (km)       30
Mag.              6.9
Station Code      FKOH10
Station Lat.      33.2891
Station Long.     130.8170
Station Height(m) 190
Record Time       2025/01/13 21:20:00
Sampling Freq(Hz) 100Hz
Duration Time(s)  175
Dir.              5
Scale Factor      7845(gal)/8223790
Max. Acc. (gal)   2.747
Last Correction   2025/01/13 21:20:01
Memo.             
[...]
   10478    11036    11539    11913    12133    12237    12272    12248 
   12166    12028    11848    11645    11441    11272    11172    11136 
   11122    11094    11043    10978    10918    10868    10813    10736 
   10642    10574    10582    10652    10728    10766    10740    10658 
   10571    10534    10555    10628    10736    10837    10885    10862 
   10812    10781    10794    10843    10887    10908    10895    10839 
   10766    10724    10712    10713    10702    10652    10551    10424 
   10330    10324    10403    10515    10602    10600    10474    10278 
   10098     9991     9985    10065    10187    10308    10412    10520 
   10666    10862    11094    11334    11529    11657    11740    11805 
   11880    11977    12094    12197    12244    12235    12191    12131 
   12058    11966    11824    11622    11391    11146    10908    10698 
   10525    10370    10212    10042     9888     9794     9782     9832 
    9900     9934     9904     9830     9780     9805     9887     9988 
   10069    10088    10022     9886     9729     9612     9566     9582 
    9616     9607     9536     9439     9364     9343     9375     9454 
    9589     9776     9980    10154    10260    10287    10260    10216 
   10172    10110    10004     9850     9695     9593     9559     9575 
    9597     9586     9560     9558     9583     9622     9653     9674 
    9713     9809     9965    10142    10285    10366    10407    10454 
   10554    10712    10871    10962    10960    10897    10832    10817 
   10860    10925    10953    10921    10845    10774    10746    10775 
   10825    10836    10760    10593    10368    10129     9906     9724 
    9586     9490     9436     9427     9474     9601     9806    10069 
   10332    10517    10574    10512    10407    10341    10338    10366 
   10363    10297    10196    10131    10187    10407    10752    11113 
   11396    11566    11630    11627    11612    11610    11597    11527 
   11354    11070    10716    10361    10053     9840     9748     9747 
    9771     9794     9828     9892    10017    10199    10397    10570 
   10687    10740    10735    10689    10623    10561    10512    10473 
   10458    10467    10497    10538    10573    10586    10582    10578 
   10594    10615    10590    10498    10336    10118     9903     9756 
    9694     9686     9675     9591     9402     9143     8895     8707 
    8594     8540     8521     8538     8592     8679     8799     8949 
    9108     9252     9358     9390     9325     9185     9028     8899 
    8818     8769     8715     8648     8602     8595     8633     8730 
    8877     9049     9220     9363     9441     9441     9370     9259 
    9128     8980     8822     8657     8482     8313     8195     8171 
    8247     8397     8600     8841     9105     9394     9687     9945 
   10143    10273    10324    10328    10327    10339    10369    10435 
   10551    10713    10910    11101    11234    11284    11267    11217 
   11155    11092    11029    10947    10841    10728    10612    10496 
   10390    10300    10245    10265    10380    10567    10787    11003 
   11203    11398    11601    11794    11948    12028    11998    11862 
   11661    11452    11277    11161    11099    11079    11080    11088 
   11087    11095    11149    11267    11435    11628    11793    11896 
   11944    11961    11975    12013    12051    12042    11959    11790 
   11545    11269    11025    10825    10663    10540    10454    10397 
   10354    10327    10322    10336    10368    10384    10342    10230 
   10072     9911     9790     9729     9729     9757     9778     9779 
    9765     9760     9791     9863     9956    10044    10099    10118 
   10107    10077    10041     9994     9927     9845     9769     9720 
    9705     9724     9765     9813     9853     9884     9906     9915 
    9913     9915     9934     9969    10018    10089    10196    10338 
   10501    10669    10804    10858    10818    10705    10543    10369 
   10223    10119    10038     9961     9886     9822     9790     9809 
    9883     9996    10122    10226    10295    10326    10312    10242 
   10138    10049    10023    10080    10176    10241    10227    10129 
    9984     9849     9740     9628     9487     9319     9136     8984 
    8899     8880     8903     8945     8984     9028     9090     9169 
    9252     9324     9359     9352     9316     9266     9217     9169 
    9107     9011     8868     8692     8523     8394     8340     8364 
    8430     8513     8592     8649     8672     8684     8715     8796 
    8932     9094     9252     9398     9544     9715     9934    10185 
   10432    10639    10790    10902    10994    11065    11110    11121 
   11098    11065    11059    11097    11167    11232    11265    11264 
   11240    11229    11264    11318    11341    11300    11192    11047 
   10889    10724    10573    10462    10420    10466    10596    10758 
   10883    10922    10868    10754    10625    10524    10462    10408 
   10361    10338    10346    10386    10454    10528    10593    10654 
   10731    10813    10875    10890    10848    10768    10674    10573 
   10458    10320    10154    10000     9883     9801     9741     9683 
    9606     9512     9445     9460     9563     9713     9855     9936 
    9963     9994    10069    10180    10289    10357    10372    10354 
   10326    10278    10208    10115     9994     9865     9769     9706 
    9648     9578     9493     9404     9337     9306     9300     9297 
    9279     9252     9248     9297     9398     9522     9636     9734 
    9815     9880     9942    10002    10035    10044    10048    10060 
   10071    10056     9998     9887     9756     9666     9643     9672 
    9711     9715     9695     9687     9732     9844     9984    10095 
   10160    10188    10219    10284    10369    10440    10473    10465 
   10444    10427    10399    10354    10293    10233    10192    10174 
   10168    10172    10206    10297    10473    10709    10940    11115 
   11206    11219    11215    11242    11314    11403    11464    11466 
   11415    11322    11192    11051    10925    10831    10789    10798 
   10833    10854    10849    10851    10883    10948    11029    11087 
   11087    11051    11007    10983    10997    11047    11125    11233 
   11367    11526    11718    11931    12139    12314    12440    12514 
   12533    12483    12375    12221    12051    11904    11786    11688 
   11584    11448    11295    11169    11105    11114    11190    11299 
   11404    11479    11503    11460    11349    11205    11065    10964 
   10899    10833    10739    10625    10494    10355    10233    10127 
   10021     9898     9749     9579     9406     9254     9136     9049 
    8970     8880     8775     8672     8596     8577     8613     8657 
    8661     8592     8445     8252     8043     7851     7705     7600 
    7512     7438     7388     7368     7391     7469     7599     7751 
    7889     7983     8009     7970     7905     7842     7793     7774 
    7789     7836     7931     8087     8297     8534     8762     8939 
    9045     9089     9101     9111     9121     9107     9061     9008 
    8961     8941     8964     9039     9170     9342     9521     9676 
    9787     9857     9903     9946    10004    10081    10181    10315 
   10485    10673    10860    11025    11155    11261    11350    11411 
   11438    11422    11371    11311    11265    11240    11229    11219 
   11207    11196    11200    11226    11272    11342    11446    11573 
   11693    11772    11777    11711    11614    11534    11507    11526 
   11562    11591    11607    11635    11697    11796    11907    11989 
   12017    11993    11940    11909    11935    12009    12101    12175 
   12199    12166    12104    12048    12021    12021    12039    12058 
   12075    12116    12195    12317    12474    12642    12779    12858 
   12872    12820    12723    12609    12502    12402    12280    12112 
   11890    11635    11391    11188    11022    10875    10732    10578 
   10431    10316    10239    10185    10146    10108    10068    10037 
   10015     9984     9914     9782     9590     9370     9166     9005 
    8891     8819     8776     8735     8698     8676     8680     8707 
    8746     8776     8793     8795     8788     8807     8880     9007 
    9166     9316     9412     9440     9427     9405     9400     9406 
    9383     9298     9166     9035     8939     8907     8923     8927 
    8877     8784     8684     8630     8660     8749     8843     8903 
    8915     8903     8923     9016     9194     9451     9742    10007 
   10197    10291    10303    10276    10254    10258    10280    10292 
   10258    10172    10075    10022    10064    10206    10393    10578 
   10756    10949    11195    11492    11782    11994    12077    12028 
   11905    11755    11604    11469    11340    11203    11063    10916 
   10777    10671    10613    10596    10594    10589    10571    10544 
   10527    10546    10612    10705    10787    10813    10770    10681 
   10562    10443    10361    10304    10249    10185    10114    10060 
   10045    10071    10138    10211    10235    10179    10034     9837 
    9655     9520     9431     9364     9288     9194     9100     9019 
    8966     8946     8955     8999     9069     9148     9246     9371 
    9528     9705     9886    10050    10180    10262    10320    10376 
   10435    10490    10525    10538    10548    10561    10573    10594 
   10629    10682    10768    10886    11021    11163    11287    11365 
   11367    11279    11122    10920    10694    10486    10323    10196 
   10111    10077    10093    10153    10253    10374    10507    10643 
   10791    10971    11182    11396    11580    11692    11708    11638 
   11503    11335    11156    10979    10817    10669    10539    10459 
   10442    10493    10609    10767    10921    11024    11060    11038 
   10979    10898    10802    10679    10520    10316    10088     9869 
    9688     9543     9424     9328     9246     9175     9127     9086 
    9027     8924     8781     8621     8472     8368     8311     8279 
    8243     8185     8100     7997     7888     7804     7780     7817 
    7909     8047     8220     8422     8668     8974     9343     9734 
   10080    10323    10455    10500    10494    10461    10368    10172 
    9886     9576     9329     9217     9236     9315     9378     9389 
    9377     9414     9549     9755     9954    10066    10054     9918 
    9697     9459     9261     9130     9074     9057     9030     8984 
    8941     8930     8980     9093     9219     9325     9410     9501 
    9651     9884    10161    10422    10606    10701    10755    10827 
   10953    11152    11391    11623    11828    11996    12121    12225 
   12318    12402    12479    12541    12568    12559    12536    12521 
   12514    12491    12414    12245    11997    11740    11560    11489 
   11500    11519    11476    11368    11264    11237    11314    11468 
   11634    11745    11780    11758    11718    11680    11627    11541 
   11411    11242    11052    10860    10685    10540    10432    10362 
   10318    10277    10242    10230    10262    10351    10470    10559 
   10559    10447    10273    10129    10052    10022     9995     9913 
    9771     9628     9541     9531     9571     9610     9599     9532 
    9431     9324     9225     9136     9054     8985     8932     8878 
    8811     8726     8626     8530     8460     8424     8414     8399 
    8372     8363     8403     8490     8594     8669     8687     8665 
    8642     8637     8638     8625     8598     8586     8633     8780 
    9022     9282     9471     9547     9517     9427     9309     9170 
    9020     8880     8766     8704     8691     8695     8710     8735 
    8785     8895     9063     9259     9439     9571     9670     9761 
    9865     9976    10057    10075    10048    10011    10000    10042 
   10126    10230    10358    10527    10746    10995    11238    11434 
   11566    11641    11693    11750    11794    11813    11801    11772 
   11761    11782    11824    11871    11909    11943    11998    12081 
   12175    12268    12352    12425    12499    12569    12603    12577 
   12506    12393    12245    12081    11913    11751    11597    11434 
   11259    11060    10835    10611    10416    10273    10197    10184 
   10206    10247    10308    10396    10519    10677    10831    10929 
   10953    10916    10829    10725    10609    10473    10336    10230 
   10173    10172    10212    10262    10291    10293    10288    10288 
   10288    10273    10228    10142    10021     9890     9776     9691 
    9621     9553     9483     9397     9292     9180     9074     9000 
    8974     9000     9067     9143     9188     9197     9193     9219 
    9310     9459     9629     9767     9830     9833     9806     9787 
    9809     9865     9927     9979     9996     9980     9948     9898 
    9837     9780     9726     9676     9613     9520     9413     9319 
    9274     9317     9433     9571     9676     9720     9715     9705 
    9742     9849     9980    10075    10110    10098    10066    10064 
   10115    10199    10280    10336    10353    10339    10322    10326 
   10378    10478    10605    10735    10841    10922    11011    11149 
   11354    11597    11805    11915    11901    11816    11738    11731 
   11813    11936    12043    12128    12199    12295    12449    12640 
   12820    12962    13046    13086    13107    13103    13066    12996 
   12892    12765    12636    12513    12390    12263    12139    12029 
   11936    11853    11769    11662    11516    11334    11124    10886 
   10633    10378    10135     9938     9798     9687     9590     9498 
    9394     9281     9181     9086     8977     8839     8654     8449 
    8274     8147     8066     8000     7923     7831     7742     7686 
    7693     7763     7890     8040     8187     8326     8452     8567 
    8683     8800     8918     9027     9127     9236     9377     9545 
    9725     9877     9965     9987     9963     9914     9855     9784 
    9684     9551     9397     9236     9085     8951     8837     8727 
    8617     8510     8419     8367     8371     8437     8540     8641 
    8715     8758     8795     8868     8985     9128     9274     9398 
    9501     9614     9761     9940    10134    10312    10440    10517 
   10558    10586    10609    10625    10642    10640    10608    10557 
   10485    10407    10359    10365    10417    10488    10530    10513 
   10453    10384    10336    10326    10336    10335    10311    10284 
   10273    10295    10347    10393    10399    10355    10276    10189 
   10133    10111    10100    10077    10034     9990     9979    10022 
   10126    10274    10439    10590    10706    10793    10854    10885 
   10891    10894    10902    10926    10979    11048    11122    11209 
   11321    11469    11643    11808    11938    12032    12105    12179 
   12253    12299    12294    12232    12133    12036    11959    11901 
   11850    11778    11688    11592    11507    11439    11375    11291 
   11172    11024    10885    10787    10727    10677    10602    10488 
   10368    10295    10277    10295    10315    10301    10250    10187 
   10147    10153    10183    10201    10177    10096     9963     9801 
    9639     9490     9358     9236     9116     9008     8923     8861 
    8827     8826     8850     8897     8953     9007     9061     9113 
    9171     9258     9379     9516     9643     9744     9803     9832 
    9852     9860     9852     9828     9779     9707     9626     9547 
    9471     9401     9348     9317     9301     9297     9298     9270 
    9201     9109     9026     8974     8965     8978     8993     8995 
    8989     9015     9090     9220     9401     9603     9784     9931 
   10034    10099    10156    10220    10296    10382    10474    10573 
   10679    10787    10890    10971    11017    11024    10994    10944 
   10903    10895    10924    10991    11088    11200    11318    11435 
   11543    11654    11770    11881    11986    12067    12097    12081 
   12028    11950    11865    11786    11712    11638    11550    11442 
   11329    11223    11137    11080    11045    11009    10951    10855 
   10725    10577    10426    10289    10173    10076    10007     9967 
    9938     9899     9823     9701     9566     9456     9394     9382 
    9373     9306     9171     8996     8831     8735     8722     8764 
    8833     8911     8993     9089     9204     9325     9425     9489 
    9505     9471     9408     9319     9209     9090     8977     8888 
    8849     8860     8904     8970     9058     9166     9281     9405 
    9518     9590     9620     9636     9660     9705     9749     9765 
    9740     9683     9632     9610     9621     9641     9640     9612 
    9579     9582     9663     9817    10004    10191    10350    10467 
   10552    10625    10698    10759    10800    10821    10824    10824 
   10841    10890    10978    11090    11203    11311    11408    11497 
   11580    11650    11718    11780    11830    11862    11873    11862 
   11839    11812    11776    11738    11691    11632    11570    11503 
   11426    11346    11260    11161    11052    10936    10821    10713 
   10612    10509    10396    10266    10135    10022     9944     9896 
    9867     9844     9813     9778     9764     9794     9868     9975 
   10087    10177    10241    10284    10322    10354    10373    10366 
   10328    10273    10203    10127    10062     9999     9923     9845 
    9767     9698     9651     9621     9607     9614     9636     9655 
    9666     9679     9691     9703     9724     9737     9738     9718 
    9671     9617     9582     9558     9518     9447     9340     9215 
    9109     9050     9040     9066     9105     9146     9194     9263 
    9354     9452     9544     9626     9713     9830     9995    10195 
   10403    10602    10787    10952    11098    11229    11333    11396 
   11421    11418    11396    11356    11291    11207    11110    11016 
   10944    10895    10863    10832    10785    10723    10669    10632 
   10623    10632    10654    10693    10755    10827    10894    10941 
   10955    10948    10945    10956    10983    11011    11009    10972 
   10924    10882    10859    10854    10847    10827    10787    10736 
   10700    10690    10697    10712    10727    10739    10750    10758 
   10756    10741    10694    10605    10480    10349    10230    10126 
   10038     9963     9890     9822     9774     9742     9725     9717 
    9702     9672     9632     9587     9540     9495     9458     9424 
    9393     9362     9325     9271     9198     9121     9058     9016 
    8993     8969     8923     8861     8804     8773     8784     8831 
    8885     8912     8908     8907     8932     8992     9070     9138 
    9167     9154     9120     9101     9105     9126     9153     9180 
    9208     9248     9305     9369     9443     9531     9629     9744 
    9867     9977    10071    10157    10246    10351    10474    10593 
   10697    10785    10867    10966    11082    11200    11306    11381 
   11421    11429    11408    11367    11304    11222    11130    11038 
   10957    10889    10820    10754    10697    10656    10633    10619 
