Origin Time       2025/01/13 21:19:00
Lat.              31.8
Long.             131.6
Depth. (km)       30
Mag.              6.9
Station Code      FKOH03
Station Lat.      33.5608
Station Long.     130.5499
Station Height(m) 185
Record Time       2025/01/13 21:20:08
Sampling Freq(Hz) 100Hz
Duration Time(s)  147
Dir.              5
Scale Factor      7845(gal)/8223790
Max. Acc. (gal)   1.494
Last Correction   2025/01/13 21:20:10
Memo.             
[...]
    3684     3632     3558     3491     3465     3512     3607     3694 
    3744     3742     3699     3642     3607     3615     3658     3709 
    3753     3770     3758     3728     3704     3705     3751     3835 
    3919     3970     3991     3996     3983     3962     3933     3905 
    3883     3878     3890     3913     3939     3963     3985     3998 
    4002     4004     4002     3989     3967     3963     3998     4051 
    4091     4102     4087     4082     4120     4203     4315     4432 
    4522     4575     4595     4592     4581     4580     4595     4629 
    4671     4704     4707     4666     4590     4502     4449     4461 
    4521     4588     4637     4649     4615     4536     4428     4318 
    4230     4198     4228     4302     4395     4480     4526     4518 
    4460     4388     4332     4305     4302     4288     4232     4136 
    4032     3960     3947     3973     3994     3983     3944     3908 
    3906     3943     3998     4044     4062     4056     4039     4008 
    3969     3932     3910     3908     3928     3970     4008     4014 
    3983     3929     3878     3839     3805     3786     3797     3838 
    3896     3947     3975     3981     3981     3989     4004     4010 
    4000     3979     3971     3979     4000     4039     4104     4185 
    4268     4330     4348     4311     4239     4167     4125     4133 
    4182     4244     4280     4263     4205     4131     4058     4010 
    4002     4020     4041     4043     4005     3942     3894     3890 
    3939     4012     4062     4052     3981     3878     3782     3715 
    3680     3662     3628     3576     3534     3534     3577     3635 
    3665     3638     3558     3454     3370     3364     3457     3624 
    3805     3948     4043     4095     4110     4098     4071     4043 
    4006     3963     3927     3898     3893     3927     3981     4029 
    4056     4062     4066     4097     4168     4268     4360     4410 
    4413     4384     4352     4348     4367     4376     4347     4280 
    4191     4113     4067     4047     4039     4016     3964     3897 
    3821     3735     3645     3558     3477     3397     3312     3219 
    3127     3065     3057     3103     3184     3269     3329     3360 
    3380     3410     3450     3497     3541     3581     3636     3713 
    3805     3913     4033     4145     4240     4293     4287     4245 
    4194     4147     4117     4108     4097     4072     4035     3991 
    3962     3958     3973     3987     3986     3959     3908     3838 
    3775     3753     3786     3869     3977     4060     4078     4032 
    3950     3873     3840     3852     3889     3935     3964     3962 
    3928     3874     3817     3782     3790     3843     3915     3948 
    3913     3819     3704     3630     3645     3754     3919     4082 
    4182     4206     4194     4206     4286     4428     4584     4693 
    4716     4658     4568     4498     4479     4502     4525     4504 
    4426     4299     4153     4016     3920     3873     3848     3820 
    3793     3782     3801     3844     3886     3890     3852     3792 
    3728     3699     3712     3740     3759     3738     3667     3577 
    3501     3462     3464     3489     3515     3518     3489     3441 
    3406     3396     3397     3383     3334     3252     3169     3122 
    3121     3149     3175     3164     3102     3002     2897     2830 
    2833     2890     2961     3002     2982     2922     2868     2867 
    2948     3111     3300     3430     3453     3395     3323     3312 
    3399     3553     3713     3820     3848     3820     3780     3782 
    3863     4009     4171     4298     4352     4333     4276     4234 
    4237     4282     4344     4383     4379     4348     4324     4330 
    4365     4421     4479     4513     4507     4472     4421     4378 
    4372     4410     4471     4526     4548     4542     4538     4549 
    4581     4637     4700     4752     4783     4784     4752     4688 
    4607     4519     4430     4355     4315     4315     4349     4395 
    4434     4453     4459     4460     4461     4460     4444     4402 
    4325     4221     4098     3970     3862     3788     3750     3742 
    3754     3770     3769     3736     3693     3657     3642     3657 
    3694     3740     3790     3842     3890     3932     3954     3960 
    3958     3936     3883     3801     3699     3608     3550     3524 
    3519     3516     3484     3415     3321     3210     3102     3030 
    3014     3055     3123     3187     3223     3235     3238     3258 
    3306     3365     3403     3396     3343     3272     3218     3206 
    3241     3300     3361     3406     3423     3406     3362     3307 
    3272     3276     3299     3310     3291     3262     3260     3307 
    3403     3535     3663     3754     3801     3821     3839     3873 
    3931     4005     4085     4166     4243     4305     4337     4328 
    4282     4229     4203     4225     4283     4341     4368     4356 
    4320     4282     4267     4279     4291     4290     4276     4263 
    4266     4291     4338     4387     4415     4438     4463     4492 
    4529     4569     4599     4596     4561     4499     4407     4295 
    4182     4091     4036     4010     3998     3978     3932     3870 
    3811     3762     3726     3705     3708     3742     3797     3844 
    3859     3838     3786     3732     3696     3677     3662     3638 
    3605     3586     3609     3673     3744     3794     3811     3797 
    3761     3712     3658     3618     3616     3667     3748     3811 
    3815     3751     3650     3557     3515     3534     3585     3635 
    3653     3622     3559     3495     3447     3420     3420     3443 
    3483     3530     3581     3639     3700     3755     3805     3850 
    3885     3921     3964     4018     4083     4141     4171     4168 
    4144     4113     4108     4140     4197     4251     4266     4216 
    4108     3974     3856     3780     3747     3751     3784     3824 
    3856     3867     3844     3794     3731     3678     3665     3699 
    3765     3848     3927     3974     3981     3950     3886     3805 
    3742     3732     3777     3862     3944     3977     3950     3875 
    3786     3734     3743     3820     3943     4066     4145     4187 
    4214     4249     4317     4410     4494     4529     4517     4487 
    4488     4545     4653     4774     4854     4862     4796     4671 
    4527     4410     4342     4326     4341     4357     4353     4318 
    4260     4206     4190     4222     4287     4357     4402     4402 
    4368     4320     4280     4270     4276     4274     4249     4199 
    4129     4072     4055     4089     4170     4271     4345     4351 
    4274     4135     3978     3856     3786     3761     3762     3775 
    3786     3786     3766     3732     3692     3642     3585     3531 
    3491     3469     3464     3477     3519     3582     3640     3663 
    3635     3562     3470     3392     3349     3353     3400     3473 
    3539     3573     3572     3553     3550     3595     3677     3765 
    3828     3839     3811     3785     3798     3852     3920     3970 
    3991     3991     3996     4023     4079     4153     4221     4252 
    4251     4233     4214     4214     4237     4274     4311     4329 
    4313     4271     4221     4194     4214     4263     4299     4290 
    4220     4106     3987     3901     3865     3875     3912     3951 
    3970     3960     3919     3852     3781     3720     3670     3642 
    3643     3673     3738     3831     3927     4005     4054     4081 
    4109     4155     4209     4259     4287     4284     4261     4248 
    4255     4275     4303     4344     4392     4450     4502     4514 
    4483     4418     4333     4255     4197     4164     4164     4187 
    4222     4268     4313     4342     4361     4387     4422     4461 
    4491     4492     4455     4399     4351     4310     4280     4253 
    4218     4176     4131     4083     4040     4006     3985     3963 
    3939     3921     3910     3902     3905     3931     3979     4039 
    4086     4108     4109     4105     4109     4124     4147     4171 
    4193     4212     4218     4212     4191     4155     4102     4045 
    4001     3981     3981     3990     3993     3974     3923     3848 
    3767     3686     3618     3557     3497     3435     3380     3360 
    3393     3481     3607     3731     3817     3848     3825     3773 
    3734     3731     3763     3809     3843     3852     3846     3824 
    3789     3748     3708     3670     3636     3604     3568     3531 
    3511     3505     3512     3519     3523     3522     3519     3520 
    3531     3570     3650     3758     3879     4004     4116     4199 
    4239     4241     4233     4239     4266     4293     4290     4247 
    4159     4047     3937     3846     3789     3778     3807     3852 
    3878     3852     3770     3646     3537     3501     3557     3676 
    3804     3886     3900     3855     3797     3775     3807     3873 
    3931     3942     3889     3789     3680     3600     3580     3623 
    3719     3838     3940     3987     3956     3840     3667     3496 
    3370     3312     3323     3379     3439     3483     3499     3496 
    3488     3492     3512     3547     3593     3624     3608     3534 
    3418     3291     3186     3121     3099     3115     3153     3188 
    3208     3215     3215     3233     3294     3399     3530     3662 
    3773     3840     3871     3888     3908     3955     4021     4079 
    4108     4108     4099     4104     4125     4158     4178     4178 
    4174     4170     4185     4236     4320     4413     4491     4534 
    4552     4564     4572     4581     4595     4610     4627     4649 
    4671     4685     4687     4671     4639     4595     4542     4494 
    4461     4452     4460     4469     4469     4442     4378     4286 
    4193     4113     4043     3986     3950     3929     3915     3901 
    3894     3904     3944     4004     4050     4056     4021     3962 
    3898     3852     3831     3821     3804     3773     3739     3723 
    3730     3754     3781     3800     3813     3828     3851     3889 
    3928     3956     3956     3916     3844     3774     3740     3773 
    3879     4027     4151     4206     4175     4070     3947     3879 
    3904     4008     4143     4257     4318     4333     4340     4379 
    4468     4587     4698     4765     4768     4714     4617     4492 
    4368     4268     4185     4116     4060     4014     3970     3915 
    3848     3778     3712     3662     3640     3651     3685     3723 
    3748     3750     3726     3690     3659     3645     3666     3727 
    3801     3844     3842     3807     3762     3736     3740     3761 
    3769     3735     3650     3531     3423     3366     3356     3369 
    3380     3360     3302     3227     3157     3123     3145     3221 
    3329     3423     3468     3462     3433     3399     3380     3389 
    3433     3497     3564     3623     3684     3755     3840     3929 
    4005     4048     4048     4001     3931     3878     3874     3920 
    3994     4066     4113     4122     4091     4028     3955     3896 
    3855     3832     3823     3832     3867     3923     3983     4041 
    4086     4104     4091     4051     3994     3932     3878     3824 
    3769     3720     3681     3657     3651     3649     3642     3634 
    3631     3645     3692     3782     3894     3990     4035     4014 
    3947     3882     3856     3873     3909     3932     3921     3878 
    3817     3774     3769     3794     3838     3882     3913     3929 
    3940     3956     3997     4064     4147     4212     4240     4237 
    4230     4247     4294     4365     4440     4488     4495     4467 
    4430     4409     4414     4445     4490     4540     4591     4629 
    4639     4630     4615     4600     4596     4612     4638     4665 
    4689     4689     4666     4644     4631     4633     4644     4649 
    4637     4602     4556     4521     4502     4496     4494     4490 
    4472     4440     4386     4298     4164     4000     3838     3703 
    3604     3543     3500     3456     3410     3368     3325     3285 
    3248     3203     3161     3129     3111     3115     3153     3227 
    3322     3408     3465     3474     3441     3387     3339     3318 
    3316     3315     3303     3277     3246     3222     3213     3204 
    3187     3153     3107     3067     3053     3082     3154     3261 
    3388     3524     3646     3738     3792     3820     3851     3897 
    3947     3991     4023     4032     4031     4021     4002     3986 
    3981     3979     3973     3946     3890     3819     3765     3753 
    3782     3842     3893     3905     3877     3828     3785     3765 
    3762     3763     3757     3738     3707     3680     3670     3697 
    3758     3835     3904     3946     3951     3931     3894     3854 
    3827     3807     3785     3770     3773     3790     3813     3825 
    3815     3794     3781     3785     3811     3851     3886     3894 
    3888     3893     3928     3994     4081     4167     4234     4271 
    4274     4253     4220     4185     4172     4190     4220     4240 
    4232     4186     4117     4047     4000     3993     4028     4083 
    4141     4185     4210     4229     4255     4301     4368     4444 
    4517     4598     4698     4827     4989     5167     5329     5444 
    5498     5501     5471     5428     5390     5358     5316     5256 
    5178     5089     5004     4938     4901     4884     4868     4846 
    4810     4758     4699     4638     4588     4546     4513     4498 
    4494     4486     4468     4448     4433     4419     4406     4392 
    4380     4372     4368     4367     4369     4369     4356     4329 
    4288     4244     4193     4140     4095     4052     4002     3931 
    3832     3721     3627     3562     3532     3527     3526     3515 
    3496     3478     3477     3496     3527     3547     3546     3531 
    3510     3489     3470     3441     3392     3323     3246     3177 
    3132     3115     3119     3127     3122     3096     3059     3028 
    3022     3049     3109     3188     3260     3303     3323     3338 
    3368     3414     3464     3499     3515     3522     3537     3573 
    3638     3711     3767     3788     3766     3717     3654     3596 
    3562     3564     3586     3613     3632     3646     3662     3690 
    3734     3780     3816     3840     3846     3842     3832     3819 
    3802     3785     3770     3770     3792     3824     3848     3858 
    3848     3819     3781     3742     3709     3694     3709     3751 
    3805     3846     3855     3823     3769     3731     3724     3757 
    3817     3863     3873     3856     3824     3786     3758     3727 
    3693     3659     3620     3578     3543     3512     3496     3512 
    3558     3630     3707     3757     3770     3770     3781     3817 
    3874     3932     3973     3991     4010     4043     4085     4133 
    4170     4179     4172     4160     4155     4159     4172     4198 
    4232     4278     4337     4395     4432     4446     4457     4480 
    4523     4580     4638     4684     4710     4722     4739     4774 
    4827     4880     4920     4935     4922     4891     4850     4806 
    4760     4716     4673     4619     4542     4448     4347     4243 
    4145     4066     4001     3932     3838     3720     3604     3516 
    3468     3447     3427     3387     3323     3257     3225     3249 
    3329     3445     3561     3639     3674     3670     3638     3592 
    3547     3512     3488     3477     3481     3495     3522     3555 
    3591     3620     3634     3628     3618     3615     3628     3658 
    3690     3701     3677     3616     3523     3418     3322     3249 
    3199     3167     3146     3137     3133     3130     3132     3150 
    3188     3250     3333     3416     3478     3520     3553     3580 
    3608     3640     3674     3692     3685     3662     3632     3607 
    3591     3592     3613     3650     3696     3747     3800     3851 
    3904     3955     3997     4031     4055     4071     4086     4110 
    4149     4203     4267     4334     4401     4460     4507     4541 
    4560     4569     4571     4576     4598     4637     4693     4764 
    4828     4881     4920     4935     4920     4887     4855     4843 
    4854     4882     4908     4907     4869     4801     4712     4608 
    4495     4384     4293     4236     4216     4229     4255     4264 
    4252     4221     4183     4151     4139     4147     4168     4190 
    4203     4198     4171     4121     4059     3991     3931     3885 
    3852     3820     3767     3686     3589     3493     3407     3349 
    3331     3342     3366     3389     3403     3407     3408     3412 
    3433     3473     3528     3577     3607     3622     3635     3673 
    3748     3854     3974     4091     4179     4236     4274     4305 
    4336     4364     4378     4363     4310     4225     4122     4020 
    3936     3878     3843     3819     3794     3769     3740     3705 
    3667     3631     3595     3557     3524     3497     3487     3500 
    3534     3582     3640     3682     3699     3684     3642     3592 
    3564     3574     3613     3650     3661     3635     3569     3496 
    3451     3450     3495     3559     3604     3611     3582     3539 
    3512     3519     3551     3595     3628     3642     3639     3638 
    3659     3708     3774     3852     3928     3986     4027     4051 
    4063     4070     4083     4105     4136     4180     4236     4279 
    4294     4280     4243     4193     4145     4105     4066     4027 
    3989     3956     3937     3946     3978     4014     4040     4048 
    4044     4031     4023     4033     4077     4152     4244     4336 
    4414     4464     4483     4483     4487     4498     4509     4513 
    4507     4492     4472     4444     4396     4334     4261     4193 
    4136     4086     4039     3991     3940     3902     3890     3906 
    3944     3982     4004     4004     3991     3979     3981     4004 
    4056     4128     4199     4255     4283     4280     4266     4260 
    4272     4291     4305     4298     4259     4203     4163     4144 
    4145     4156     4158     4129     4070     3986     3886     3792 
    3716     3666     3646     3645     3647     3649     3650     3653 
    3657     3665     3678     3689     3700     3715     3732     3747 
    3747     3723     3669     3586     3492     3418     3384     3385 
    3399     3396     3365     3311     3252     3206     3191     3208 
    3256     3316     3381     3445     3500     3547     3599     3649 
    3693     3726     3738     3727     3696     3659     3636     3630 
    3639     3659     3681     3703     3727     3748     3763     3775 
    3796     3825     3874     3946     4031     4108     4163     4199 
    4218     4225     4225     4216     4197     4174     4155     4155 
    4174     4199     4218     4220     4198     4164     4122     4081 
    4045     4008     3967     3927     3879     3827     3771     3716 
    3673     3646     3638     3653     3690     3742     3789     3827 
    3856     3879     3897     3915     3929     3944     3964     3993 
