Origin Time       2025/01/13 21:19:00
Lat.              31.8
Long.             131.6
Depth. (km)       30
Mag.              6.9
Station Code      FKOH10
Station Lat.      33.2891
Station Long.     130.8170
Station Height(m) -10
Record Time       2025/01/13 21:20:00
Sampling Freq(Hz) 100Hz
Duration Time(s)  175
Dir.              1
Scale Factor      2942(gal)/8224139
Max. Acc. (gal)   3.097
Last Correction   2025/01/13 21:20:01
Memo.             
[...]
  132192   132285   132368   132416   132394   132356   132383   132517 
  132754   133037   133284   133439   133479   133420   133300   133149 
  132991   132852   132729   132624   132537   132443   132314   132151 
  131965   131788   131656   131566   131523   131554   131639   131703 
  131707   131643   131529   131414   131352   131373   131467   131577 
  131653   131699   131739   131757   131727   131665   131607   131596 
  131645   131730   131812   131843   131796   131708   131647   131645 
  131697   131816   132017   132256   132441   132520   132474   132298 
  132059   131857   131726   131634   131529   131375   131207   131116 
  131151   131257   131382   131535   131727   131935   132135   132277 
  132337   132318   132219   132073   131931   131822   131772   131788 
  131834   131870   131895   131917   131959   132038   132132   132194 
  132200   132139   131986   131753   131504   131305   131168   131098 
  131137   131336   131672   132040   132322   132478   132517   132456 
  132331   132204   132086   131953   131816   131696   131577   131458 
  131357   131306   131325   131403   131503   131596   131670   131704 
  131661   131548   131461   131498   131645   131823   131957   131998 
  131936   131847   131834   131911   132046   132223   132368   132398 
  132313   132182   132074   132019   132001   131976   131942   131950 
  131981   132000   132038   132109   132196   132300   132391   132436 
  132432   132381   132291   132181   132035   131824   131591   131414 
  131318   131298   131332   131346   131296   131234   131233   131328 
  131494   131662   131801   131971   132225   132507   132711   132787 
  132750   132663   132565   132460   132359   132309   132314   132336 
  132337   132308   132274   132270   132277   132270   132240   132183 
  132154   132198   132304   132421   132520   132605   132676   132734 
  132780   132787   132727   132621   132470   132237   131934   131635 
  131409   131247   131095   130929   130771   130659   130634   130720 
  130879   131075   131315   131587   131843   132043   132194   132332 
  132455   132509   132472   132383   132282   132193   132132   132102 
  132104   132115   132090   132031   131989   132015   132121   132275 
  132398   132462   132530   132665   132840   132984   133034   133007 
  132977   132961   132939   132914   132888   132853   132823   132814 
  132822   132815   132760   132640   132460   132251   132044   131889 
  131827   131838   131872   131892   131882   131869   131908   132007 
  132123   132233   132340   132449   132571   132694   132771   132792 
  132787   132772   132753   132727   132661   132537   132394   132278 
  132212   132182   132156   132135   132167   132279   132444   132617 
  132742   132759   132640   132424   132213   132123   132181   132336 
  132506   132629   132727   132852   132961   132985   132910   132768 
  132621   132520   132459   132402   132325   132205   132030   131834 
  131666   131575   131562   131549   131464   131290   131025   130723 
  130458   130265   130179   130208   130306   130432   130557   130643 
  130707   130781   130869   130951   131016   131067   131139   131271 
  131456   131645   131797   131892   131939   131957   131931   131841 
  131699   131568   131521   131558   131616   131672   131731   131766 
  131773   131823   131963   132132   132233   132227   132152   132057 
  131934   131762   131569   131396   131259   131174   131148   131152 
  131184   131269   131411   131606   131791   131915   132036   132217 
  132417   132580   132651   132611   132513   132412   132336   132301 
  132301   132298   132256   132151   131997   131843   131695   131526 
  131359   131232   131148   131058   130925   130808   130790   130879 
  131040   131230   131410   131549   131687   131895   132162   132381 
  132457   132403   132321   132298   132339   132402   132444   132463 
  132459   132410   132322   132220   132106   131986   131866   131749 
  131633   131479   131302   131222   131288   131398   131437   131404 
  131390   131458   131588   131739   131907   132071   132200   132309 
  132416   132471   132444   132358   132243   132136   132065   132020 
  131996   132012   132090   132210   132325   132406   132466   132513 
  132540   132547   132524   132439   132301   132150   131993   131819 
  131634   131476   131386   131372   131414   131499   131607   131679 
  131716   131800   131965   132197   132475   132740   132939   133056 
  133073   133012   132922   132840   132763   132691   132665   132678 
  132678   132687   132748   132835   132915   132988   133030   132993 
  132880   132723   132568   132449   132344   132216   132069   131930 
  131808   131677   131530   131363   131155   130945   130816   130802 
  130909   131112   131332   131514   131681   131847   132017   132192 
  132317   132343   132300   132241   132183   132159   132214   132332 
  132440   132472   132385   132212   132074   132069   132177   132331 
  132490   132614   132630   132516   132318   132123   131971   131849 
  131720   131603   131548   131589   131738   132004   132398   132858 
  133258   133517   133609   133532   133362   133196   133070   132979 
  132892   132804   132761   132806   132914   133029   133107   133115 
  133041   132918   132791   132673   132594   132568   132553   132489 
  132359   132181   132012   131907   131870   131865   131853   131804 
  131724   131626   131526   131468   131487   131557   131650   131753 
  131857   131976   132111   132228   132281   132241   132105   131904 
  131689   131488   131295   131118   131002   130978   131040   131168 
  131307   131383   131386   131377   131376   131352   131295   131209 
  131099   130983   130856   130709   130566   130451   130361   130266 
  130157   130087   130115   130253   130488   130759   130989   131153 
  131288   131419   131549   131677   131785   131819   131753   131622 
  131472   131333   131220   131147   131118   131134   131193   131284 
  131388   131488   131625   131854   132158   132455   132702   132908 
  133097   133272   133413   133506   133555   133563   133510   133378 
  133174   132950   132764   132626   132505   132374   132228   132104 
  132034   131982   131900   131774   131622   131484   131419   131445 
  131541   131685   131855   132016   132142   132208   132214   132197 
  132166   132144   132158   132160   132089   131931   131723   131541 
  131431   131390   131398   131440   131496   131566   131641   131706 
  131784   131920   132117   132332   132517   132669   132783   132837 
  132856   132885   132918   132889   132749   132518   132277   132078 
  131944   131890   131924   132024   132173   132341   132472   132553 
  132595   132575   132509   132460   132439   132432   132451   132471 
  132476   132506   132553   132543   132439   132282   132123   131996 
  131928   131936   131982   132011   132020   132030   132077   132178 
  132275   132324   132378   132479   132610   132717   132725   132622 
  132487   132368   132251   132115   131962   131795   131611   131422 
  131290   131259   131311   131407   131508   131612   131733   131834 
  131869   131828   131720   131577   131448   131353   131309   131314 
  131326   131288   131206   131151   131186   131309   131471   131633 
  131774   131872   131938   132007   132078   132178   132336   132487 
  132538   132474   132352   132233   132127   132007   131869   131731 
  131607   131506   131448   131437   131463   131515   131580   131639 
  131674   131672   131652   131668   131746   131857   131939   131969 
  131988   132028   132063   132052   131981   131892   131869   131949 
  132058   132132   132162   132148   132086   132001   131926   131865 
  131792   131693   131606   131576   131622   131733   131880   131992 
  132012   131981   131920   131808   131661   131502   131311   131116 
  130967   130878   130842   130846   130854   130874   130951   131082 
  131251   131461   131652   131735   131707   131635   131608   131656 
  131724   131757   131764   131772   131791   131814   131838   131890 
  131990   132124   132282   132448   132583   132665   132676   132565 
  132324   132017   131738   131525   131368   131228   131083   130968 
  130929   130958   131033   131147   131265   131346   131369   131361 
  131363   131390   131446   131556   131720   131912   132119   132317 
  132453   132520   132541   132507   132395   132216   132027   131905 
  131869   131876   131888   131899   131935   132020   132106   132082 
  131913   131700   131541   131445   131376   131317   131279   131284 
  131322   131349   131344   131321   131314   131355   131422   131495 
  131612   131788   131957   132084   132186   132274   132328   132333 
  132289   132198   132090   132039   132093   132190   132246   132224 
  132135   132008   131889   131814   131765   131708   131638   131585 
  131588   131661   131796   131965   132119   132193   132142   131984 
  131777   131548   131307   131076   130855   130661   130538   130511 
  130577   130713   130887   131079   131284   131515   131770   132028 
  132286   132544   132794   133016   133178   133257   133250   133199 
  133164   133166   133188   133212   133246   133296   133363   133454 
  133567   133682   133752   133751   133706   133666   133633   133585 
  133488   133327   133137   132968   132844   132754   132678   132603 
  132552   132545   132611   132745   132899   133018   133080   133097 
  133095   133070   133027   132981   132923   132806   132636   132501 
  132444   132421   132395   132362   132310   132224   132098   131950 
  131805   131692   131631   131635   131691   131727   131707   131673 
  131645   131571   131436   131290   131187   131161   131215   131306 
  131395   131472   131527   131550   131556   131569   131620   131699 
  131760   131776   131755   131710   131691   131764   131916   132084 
  132228   132344   132456   132599   132764   132885   132933   132948 
  132979   133024   133074   133135   133195   133257   133324   133350 
  133319   133278   133253   133243   133239   133213   133149   133066 
  133000   132981   132985   132958   132918   132904   132894   132848 
  132787   132740   132711   132710   132717   132692   132625   132520 
  132381   132232   132090   131950   131828   131743   131685   131637 
  131592   131561   131549   131538   131506   131423   131272   131089 
  130939   130897   130998   131213   131484   131770   132012   132162 
  132225   132239   132251   132306   132371   132352   132196   131928 
  131637   131419   131340   131398   131529   131662   131776   131862 
  131901   131895   131847   131773   131720   131720   131738   131724 
  131650   131525   131384   131265   131190   131147   131102   131033 
  130920   130746   130550   130399   130316   130300   130320   130320 
  130297   130291   130318   130385   130485   130577   130628   130639 
  130647   130705   130827   131005   131221   131423   131552   131593 
  131591   131562   131485   131365   131249   131164   131078   130962 
  130810   130620   130383   130106   129845   129659   129543   129477 
  129465   129506   129597   129729   129868   129967   130021   130060 
  130100   130157   130227   130304   130377   130423   130426   130404 
  130374   130350   130354   130428   130615   130918   131284   131631 
  131922   132140   132279   132352   132379   132378   132382   132413 
  132436   132375   132179   131880   131508   131067   130592   130168 
  129871   129724   129716   129832   130092   130513   131059   131664 
  132273   132840   133331   133729   134015   134181   134233   134188 
  134080   133945   133786   133577   133323   133054   132792   132552 
  132348   132189   132082   132017   131984   131988   132044   132144 
  132252   132355   132462   132575   132668   132725   132733   132676 
  132561   132410   132246   132104   132019   131989   132012   132100 
  132273   132543   132862   133166   133448   133737   134015   134249 
  134437   134558   134584   134528   134422   134252   134022   133801 
  133631   133509   133419   133342   133265   133200   133159   133145 
  133149   133164   133166   133151   133132   133135   133165   133186 
  133149   133018   132825   132621   132451   132360   132347   132352 
  132352   132363   132391   132467   132640   132935   133344   133814 
  134254   134600   134829   134963   135049   135113   135136   135103 
  135009   134858   134677   134507   134379   134299   134265   134299 
  134412   134582   134794   135055   135338   135589   135757   135839 
  135847   135773   135615   135390   135126   134854   134608   134437 
  134362   134369   134428   134526   134650   134805   135013   135292 
  135618   135943   136250   136556   136853   137066   137131   137065 
  136902   136651   136331   135962   135540   135066   134532   133942 
  133346   132802   132322   131913   131591   131332   131102   130898 
  130725   130589   130480   130380   130285   130223   130214   130242 
  130283   130302   130281   130226   130135   129998   129829   129644 
  129438   129182   128866   128524   128196   127892   127604   127330 
  127063   126802   126590   126495   126540   126690   126887   127099 
  127314   127542   127784   128011   128194   128324   128379   128332 
  128154   127836   127402   126867   126257   125647   125118   124706 
  124425   124267   124205   124221   124271   124272   124162   123946 
  123678   123454   123338   123326   123390   123504   123653   123846 
  124109   124449   124853   125308   125786   126256   126706   127148 
  127604   128104   128657   129200   129643   129965   130218   130446 
  130658   130858   131060   131261   131433   131561   131649   131706 
  131731   131745   131787   131900   132094   132345   132609   132856 
  133088   133324   133596   133920   134296   134692   135044   135326 
  135561   135760   135908   135992   136020   136036   136119   136325 
  136663   137114   137656   138272   138929   139565   140082   140383 
  140429   140244   139876   139383   138836   138310   137872   137546 
  137301   137091   136871   136628   136358   136039   135630   135145 
  134647   134177   133755   133390   133110   132949   132902   132914 
  132945   132966   132953   132908   132852   132786   132715   132671 
  132679   132730   132788   132825   132818   132752   132645   132545 
  132464   132382   132294   132212   132132   132069   132042   132042 
  132036   132003   131920   131803   131680   131591   131587   131696 
  131901   132185   132537   132922   133282   133586   133807   133909 
  133888   133785   133650   133539   133496   133509   133527   133520 
  133494   133492   133544   133654   133790   133938   134077   134191 
  134260   134254   134175   134064   133972   133897   133830   133776 
  133732   133697   133695   133737   133791   133814   133807   133799 
  133798   133793   133759   133654   133436   133091   132614   132020 
  131357   130696   130110   129645   129285   129000   128791   128680 
  128680   128764   128881   128996   129099   129204   129328   129467 
  129620   129751   129818   129849   129886   129917   129933   129948 
  129979   130041   130119   130183   130215   130231   130233   130222 
  130234   130297   130383   130445   130470   130462   130426   130365 
  130281   130198   130167   130215   130326   130466   130599   130702 
  130759   130723   130561   130303   130002   129705   129454   129271 
  129159   129132   129222   129402   129605   129798   130000   130233 
  130504   130808   131132   131473   131828   132197   132572   132929 
  133249   133535   133794   134025   134235   134443   134671   134943 
  135284   135700   136155   136560   136836   136938   136876   136695 
  136439   136138   135830   135526   135221   134898   134561   134242 
  134002   133860   133783   133747   133744   133751   133721   133636 
  133521   133416   133326   133235   133135   133022   132889   132727 
  132544   132378   132262   132183   132101   131974   131776   131534 
  131311   131128   130991   130928   130916   130906   130882   130828 
  130742   130643   130574   130540   130505   130427   130292   130098 
  129855   129609   129405   129261   129186   129189   129257   129393 
  129618   129910   130196   130416   130551   130596   130567   130512 
  130466   130424   130369   130280   130154   130010   129870   129760 
  129713   129755   129907   130152   130420   130667   130898   131114 
  131310   131484   131633   131753   131851   131938   132019   132111 
  132239   132421   132644   132881   133116   133308   133386   133317 
  133115   132814   132455   132078   131710   131373   131095   130889 
  130719   130538   130329   130115   129936   129799   129695   129637 
  129649   129743   129911   130117   130314   130515   130754   131033 
  131348   131687   132027   132344   132622   132862   133062   133211 
  133296   133320   133311   133290   133274   133278   133284   133234 
  133095   132888   132676   132540   132506   132537   132584   132642 
  132717   132818   132983   133235   133563   133933   134289   134566 
  134727   134784   134766   134713   134659   134605   134546   134492 
  134451   134414   134368   134298   134195   134065   133894   133644 
  133327   132984   132655   132360   132128   131984   131901   131807 
  131664   131510   131392   131330   131326   131384   131485   131599 
  131701   131799   131886   131950   131962   131907   131762   131527 
  131230   130918   130619   130339   130091   129888   129739   129644 
  129614   129647   129722   129816   129924   130075   130293   130566 
  130863   131166   131461   131742   132016   132306   132621   132958 
  133304   133620   133874   134057   134168   134210   134222   134233 
  134238   134248   134279   134318   134334   134300   134207   134064 
  133879   133654   133407   133164   132954   132795   132695   132679 
  132757   132925   133170   133488   133847   134202   134497   134688 
  134755   134713   134590   134404   134158   133878   133597   133355 
  133177   133050   132931   132804   132653   132443   132152   131793 
  131407   131043   130723   130450   130210   129988   129794   129648 
  129547   129465   129381   129282   129168   129054   128964   128896 
  128849   128825   128833   128865   128906   128983   129134   129344 
  129566   129764   129903   129975   130010   130048   130104   130191 
  130297   130391   130435   130423   130373   130316   130275   130256 
  130285   130391   130576   130813   131071   131307   131517   131724 
  131924   132085   132214   132336   132460   132598   132763   132961 
  133191   133416   133591   133686   133699   133648   133563   133488 
  133438   133420   133455   133560   133737   133968   134227   134514 
  134828   135145   135429   135652   135793   135837   135797   135719 
  135635   135560   135496   135429   135332   135197   135016   134793 
  134554   134327   134129   133968   133829   133686   133550   133447 
  133369   133285   133150   132921   132594   132220   131843   131484 
  131155   130851   130555   130248   129915   129575   129270   129026 
  128835   128676   128524   128383   128279   128224   128206   128214 
  128250   128302   128356   128397   128409   128386   128337   128271 
