Origin Time       2025/01/13 21:19:00
Lat.              31.8
Long.             131.6
Depth. (km)       30
Mag.              6.9
Station Code      FKOH01
Station Lat.      33.8849
Station Long.     130.9798
Station Height(m) -185
Record Time       2025/01/13 21:20:12
Sampling Freq(Hz) 100Hz
Duration Time(s)  120
Dir.              1
Scale Factor      2942(gal)/8224139
Max. Acc. (gal)   0.444
Last Correction   2025/01/13 21:20:13
Memo.             
[...]
  167763   167798   167823   167845   167854   167840   167818   167800 
  167778   167753   167738   167729   167718   167707   167694   167670 
  167640   167610   167583   167567   167557   167551   167551   167555 
  167566   167584   167590   167574   167551   167524   167490   167458 
  167425   167393   167367   167344   167320   167289   167247   167202 
  167165   167139   167123   167111   167108   167128   167174   167223 
  167256   167274   167289   167300   167310   167335   167360   167378 
  167398   167418   167427   167435   167448   167458   167468   167472 
  167458   167427   167383   167333   167285   167251   167243   167251 
  167250   167235   167217   167200   167182   167173   167169   167151 
  167128   167115   167117   167143   167186   167225   167254   167274 
  167292   167308   167320   167332   167348   167373   167404   167448 
  167486   167503   167506   167508   167503   167494   167487   167479 
  167466   167455   167452   167449   167451   167458   167468   167483 
  167503   167528   167545   167556   167572   167593   167613   167633 
  167649   167659   167663   167667   167671   167672   167663   167637 
  167597   167541   167471   167387   167301   167227   167177   167147 
  167132   167135   167152   167173   167192   167204   167194   167163 
  167127   167093   167059   167034   167024   167026   167034   167043 
  167049   167061   167093   167154   167244   167352   167466   167567 
  167644   167698   167729   167740   167741   167733   167713   167694 
  167683   167684   167698   167719   167733   167741   167764   167798 
  167830   167852   167854   167837   167809   167784   167761   167737 
  167726   167719   167701   167670   167637   167599   167563   167537 
  167522   167522   167526   167524   167516   167502   167494   167513 
  167541   167562   167575   167587   167597   167594   167575   167553 
  167548   167571   167614   167657   167701   167749   167798   167837 
  167842   167806   167744   167682   167626   167576   167533   167502 
  167479   167472   167490   167522   167567   167626   167692   167753 
  167805   167837   167846   167842   167846   167865   167894   167922 
  167942   167957   167977   168002   168023   168056   168096   168130 
  168156   168185   168224   168270   168313   168349   168381   168393 
  168382   168347   168292   168226   168153   168075   167991   167898 
  167794   167692   167606   167532   167472   167435   167414   167408 
  167417   167449   167490   167514   167514   167498   167475   167445 
  167409   167374   167350   167329   167314   167317   167325   167332 
  167356   167366   167375   167397   167381   167385   167398   167390 
  167418   167425   167440   167481   167510   167575   167632   167679 
  167709   167698   167668   167609   167552   167501   167451   167413 
  167371   167341   167328   167346   167375   167418   167490   167568 
  167648   167705   167736   167737   167707   167651   167579   167509 
  167429   167363   167316   167274   167235   167190   167140   167076 
  167009   166959   166919   166893   166881   166887   166903   166922 
  166946   166973   167009   167038   167043   167020   166985   166943 
  166892   166841   166806   166793   166811   166849   166897   166959 
  167027   167092   167158   167206   167232   167252   167260   167255 
  167247   167251   167258   167258   167263   167277   167289   167306 
  167333   167363   167389   167421   167470   167521   167563   167590 
  167594   167575   167548   167528   167514   167513   167525   167544 
  167564   167586   167605   167609   167601   167584   167562   167535 
  167520   167522   167540   167574   167618   167656   167672   167660 
  167629   167584   167539   167498   167452   167391   167328   167263 
  167204   167161   167120   167077   167038   167005   166981   166974 
  166990   167028   167084   167143   167186   167212   167235   167265 
  167309   167377   167467   167568   167657   167734   167806   167869 
  167922   167976   168029   168079   168118   168134   168126   168099 
  168054   168007   167972   167938   167900   167867   167836   167807 
  167784   167763   167748   167748   167752   167755   167756   167764 
  167768   167757   167738   167719   167707   167701   167694   167686 
  167683   167686   167679   167660   167636   167595   167548   167512 
  167490   167494   167526   167570   167605   167632   167659   167682 
  167692   167690   167672   167645   167610   167578   167541   167495 
  167454   167431   167417   167402   167382   167360   167346   167333 
  167313   167290   167270   167248   167232   167231   167236   167251 
  167271   167279   167275   167269   167266   167274   167301   167337 
  167371   167393   167394   167375   167351   167344   167356   167377 
  167409   167439   167460   167482   167509   167536   167557   167575 
  167598   167628   167656   167686   167722   167769   167823   167869 
  167891   167894   167881   167868   167860   167846   167825   167800 
  167779   167763   167763   167784   167817   167854   167895   167937 
  167962   167968   167952   167919   167873   167825   167773   167719 
  167670   167634   167613   167601   167599   167594   167583   167582 
  167583   167583   167586   167601   167628   167661   167691   167710 
  167719   167734   167761   167799   167845   167895   167950   168006 
  168042   168058   168058   168052   168035   168007   167960   167894 
  167818   167737   167653   167567   167483   167410   167347   167286 
  167238   167202   167182   167178   167194   167224   167260   167301 
  167347   167400   167444   167479   167524   167576   167628   167674 
  167711   167738   167759   167780   167792   167784   167760   167726 
  167683   167633   167574   167502   167425   167355   167290   167244 
  167224   167215   167212   167217   167225   167228   167225   167225 
  167228   167229   167229   167213   167185   167152   167113   167086 
  167082   167093   167130   167181   167238   167301   167360   167417 
  167472   167521   167544   167548   167549   167549   167556   167574 
  167594   167603   167595   167578   167555   167529   167514   167513 
  167513   167510   167517   167535   167559   167575   167583   167587 
  167591   167591   167579   167566   167559   167555   167551   167552 
  167553   167559   167575   167601   167621   167634   167644   167649 
  167653   167660   167663   167663   167663   167664   167676   167697 
  167715   167738   167763   167778   167782   167773   167752   167722 
  167686   167634   167578   167532   167498   167472   167455   167445 
  167432   167406   167375   167348   167332   167316   167300   167287 
  167273   167255   167240   167235   167240   167255   167273   167286 
  167298   167301   167296   167293   167294   167300   167319   167339 
  167348   167344   167332   167310   167283   167259   167244   167238 
  167233   167232   167236   167255   167287   167321   167347   167366 
  167379   167382   167370   167346   167323   167308   167308   167329 
  167371   167422   167464   167489   167508   167528   167544   167557 
  167562   167551   167518   167464   167390   167308   167225   167142 
  167059   166978   166893   166810   166733   166668   166615   166573 
  166546   166540   166545   166561   166591   166625   166649   166668 
  166684   166700   166730   166783   166845   166903   166955   167004 
  167046   167074   167094   167111   167136   167177   167227   167277 
  167324   167362   167385   167398   167404   167406   167409   167409 
  167406   167413   167422   167435   167460   167502   167553   167605 
  167655   167707   167756   167796   167833   167861   167880   167895 
  167898   167890   167884   167881   167881   167887   167891   167899 
  167907   167913   167910   167894   167867   167844   167832   167822 
  167811   167799   167791   167791   167795   167790   167764   167732 
  167699   167665   167626   167575   167510   167439   167364   167302 
  167250   167204   167178   167178   167190   167212   167240   167273 
  167306   167352   167401   167464   167537   167610   167690   167756 
  167795   167813   167813   167809   167799   167787   167773   167769 
  167776   167783   167794   167807   167823   167836   167842   167848 
  167852   167857   167873   167902   167942   167989   168037   168083 
  168126   168162   168178   168169   168143   168108   168072   168045 
  168030   168027   168030   168035   168041   168046   168057   168072 
  168091   168111   168124   168127   168120   168107   168096   168083 
  168056   168019   167975   167914   167841   167771   167709   167653 
  167605   167562   167524   167486   167445   167410   167375   167340 
  167304   167254   167194   167134   167065   166992   166926   166862 
  166810   166765   166726   166695   166665   166637   166615   166594 
  166572   166558   166554   166560   166577   166595   166610   166617 
  166617   166617   166611   166602   166598   166602   166611   166622 
  166635   166653   166658   166648   166638   166627   166608   166585 
  166565   166557   166564   166584   166610   166641   166672   166702 
  166737   166779   166826   166885   166950   167013   167080   167151 
  167231   167325   167431   167535   167637   167734   167822   167894 
  167942   167969   167991   167998   167988   167969   167941   167907 
  167864   167810   167752   167694   167640   167593   167560   167543 
  167535   167530   167529   167521   167509   167486   167449   167413 
  167383   167352   167321   167290   167252   167217   167189   167162 
  167147   167150   167165   167194   167233   167277   167329   167395 
  167470   167547   167626   167698   167752   167796   167836   167871 
  167902   167925   167938   167942   167929   167903   167881   167871 
  167869   167875   167891   167919   167945   167969   167999   168031 
  168056   168077   168095   168095   168081   168060   168029   167984 
  167922   167854   167794   167737   167688   167656   167625   167586 
  167552   167521   167489   167460   167439   167429   167431   167443 
  167468   167503   167541   167579   167611   167641   167668   167691 
  167717   167740   167745   167738   167721   167683   167628   167572 
  167525   167494   167481   167482   167498   167526   167560   167602 
  167648   167692   167733   167763   167779   167780   167773   167759 
  167741   167721   167702   167695   167703   167709   167711   167717 
  167719   167713   167692   167653   167599   167529   167435   167314 
  167184   167053   166932   166839   166768   166710   166653   166592 
  166531   166479   166441   166421   166419   166432   166449   166465 
  166483   166502   166529   166567   166607   166646   166681   166714 
  166745   166783   166834   166903   166978   167059   167147   167228 
  167298   167373   167447   167513   167574   167626   167674   167726 
  167792   167864   167937   168010   168076   168134   168192   168249 
  168286   168303   168304   168297   168278   168250   168228   168224 
  168227   168239   168259   168284   168299   168303   168291   168254 
  168203   168153   168114   168087   168077   168080   168089   168099 
  168097   168092   168092   168088   168080   168075   168056   168016 
  167972   167925   167879   167841   167814   167805   167805   167811 
  167833   167867   167922   168003   168091   168176   168255   168320 
  168365   168382   168376   168350   168309   168255   168189   168122 
  168056   167989   167931   167888   167856   167826   167790   167748 
  167706   167659   167601   167545   167497   167458   167424   167389 
  167359   167333   167308   167290   167279   167271   167270   167279 
  167292   167309   167336   167373   167410   167451   167487   167514 
  167533   167541   167547   167564   167584   167599   167609   167620 
  167632   167638   167648   167667   167687   167710   167737   167760 
  167769   167765   167759   167752   167741   167726   167707   167687 
  167678   167679   167686   167697   167707   167706   167691   167671 
  167644   167607   167567   167528   167487   167449   167424   167417 
  167427   167448   167479   167505   167521   167535   167548   167566 
  167582   167593   167598   167590   167575   167557   167540   167520 
  167501   167489   167479   167475   167481   167494   167522   167567 
  167611   167653   167690   167717   167740   167760   167767   167756 
  167736   167705   167672   167644   167618   167589   167562   167547 
  167532   167517   167510   167514   167522   167536   167551   167566 
  167590   167616   167628   167632   167634   167640   167652   167671 
  167694   167724   167748   167765   167788   167818   167842   167869 
  167913   167968   168025   168087   168147   168197   168241   168278 
  168311   168338   168355   168361   168354   168332   168295   168243 
  168187   168131   168075   168019   167972   167931   167898   167867 
  167836   167800   167764   167725   167679   167622   167557   167486 
  167409   167332   167265   167215   167196   167204   167225   167258 
  167300   167346   167391   167435   167466   167493   167517   167536 
  167555   167572   167591   167613   167633   167659   167698   167740 
  167775   167806   167830   167845   167853   167863   167877   167899 
  167921   167938   167954   167967   167968   167949   167908   167845 
  167755   167643   167516   167374   167232   167096   166961   166843 
  166741   166646   166563   166492   166438   166388   166341   166305 
  166276   166256   166248   166255   166274   166305   166341   166369 
  166396   166425   166456   166491   166529   166564   166595   166635 
  166673   166700   166731   166770   166811   166849   166884   166909 
  166923   166930   166946   166972   166997   167024   167051   167065 
  167067   167058   167039   167017   166999   166981   166957   166923 
  166885   166850   166819   166793   166770   166750   166737   166730 
  166730   166739   166754   166768   166781   166804   166838   166882 
  166935   166985   167023   167051   167077   167108   167150   167193 
  167232   167273   167310   167340   167364   167378   167374   167352 
  167316   167270   167220   167181   167150   167123   167098   167074 
  167044   167022   167000   166972   166938   166895   166839   166783 
  166727   166680   166653   166642   166642   166665   166708   166758 
  166812   166862   166901   166928   166938   166934   166923   166907 
  166885   166864   166846   166831   166822   166820   166826   166842 
  166869   166897   166924   166947   166969   166996   167023   167040 
  167044   167044   167046   167049   167058   167080   167112   167167 
  167236   167308   167383   167454   167508   167549   167578   167605 
  167643   167688   167741   167798   167852   167896   167930   167954 
  167967   167967   167953   167926   167890   167854   167833   167837 
  167869   167919   167976   168034   168081   168114   168146   168185 
  168235   168293   168350   168401   168442   168459   168457   168443 
  168424   168397   168362   168324   168289   168259   168237   168219 
  168195   168161   168119   168069   168006   167933   167864   167798 
  167728   167659   167595   167537   167482   167439   167405   167370 
  167339   167317   167309   167302   167290   167269   167233   167200 
  167185   167198   167240   167301   167370   167443   167509   167560 
  167601   167647   167692   167730   167757   167771   167763   167741 
  167714   167679   167632   167579   167518   167455   167404   167362 
  167329   167313   167314   167329   167362   167409   167464   167524 
  167582   167638   167688   167732   167775   167822   167876   167927 
  167984   168060   168139   168211   168280   168343   168403   168457 
  168505   168554   168600   168632   168652   168662   168667   168674 
  168679   168685   168686   168682   168670   168644   168615   168583 
  168551   168524   168500   168473   168446   168423   168400   168365 
  168326   168284   168228   168164   168096   168025   167954   167895 
  167845   167809   167792   167799   167818   167837   167856   167873 
  167881   167884   167888   167891   167890   167887   167881   167876 
  167867   167844   167810   167779   167749   167725   167713   167709 
  167707   167705   167711   167733   167763   167798   167841   167883 
  167911   167926   167926   167907   167871   167821   167763   167698 
  167633   167578   167536   167508   167491   167475   167448   167410 
  167362   167302   167236   167166   167098   167040   166999   166973 
  166959   166961   166985   167022   167063   167113   167169   167221 
  167265   167297   167323   167340   167352   167360   167364   167360 
  167348   167332   167310   167283   167259   167233   167209   167193 
  167182   167174   167173   167181   167190   167188   167174   167154 
  167125   167090   167049   167004   166965   166923   166872   166815 
  166761   166706   166650   166606   166576   166565   166569   166588 
  166614   166644   166672   166691   166698   166698   166688   166673 
  166654   166630   166607   166594   166608   166653   166723   166815 
  166919   167024   167125   167215   167285   167344   167393   167428 
  167445   167451   167451   167447   167441   167439   167440   167443 
  167443   167436   167422   167404   167377   167343   167300   167244 
  167181   167113   167049   166986   166932   166887   166838   166791 
  166752   166720   166696   166675   166652   166638   166639   166642 
  166646   166652   166658   166666   166687   166715   166746   166788 
  166835   166881   166932   166988   167039   167092   167154   167217 
  167285   167354   167416   167471   167521   167556   167580   167597 
  167603   167611   167622   167633   167645   167651   167649   167644 
  167638   167640   167653   167676   167711   167757   167809   167859 
  167915   167979   168038   168096   168149   168185   168203   168212 
  168216   168214   168203   168185   168164   168142   168122   168104 
  168089   168066   168029   167981   167925   167857   167788   167728 
  167678   167640   167621   167610   167602   167594   167580   167562 
  167543   167518   167487   167451   167413   167381   167354   167333 
  167323   167321   167325   167336   167356   167378   167394   167410 
  167429   167444   167462   167483   167502   167518   167535   167547 
  167549   167547   167536   167509   167476   167444   167412   167386 
  167366   167352   167341   167333   167333   167336   167331   167323 
  167308   167289   167274   167260   167244   167227   167209   167192 
  167171   167147   167120   167098   167086   167080   167078   167073 
  167067   167067   167071   167077   167089   167107   167130   167169 
  167227   167297   167373   167449   167517   167567   167607   167647 
  167683   167718   167748   167775   167807   167844   167883   167926 
  167972   168010   168034   168042   168034   168011   167984   167950 
  167902   167845   167783   167717   167647   167568   167479   167389 
  167313   167255   167209   167174   167139   167098   167051   166989 
  166912   166834   166761   166698   166650   166619   166603   166600 
  166607   166626   166654   166692   166741   166799   166853   166903 
  166945   166978   167009   167034   167049   167070   167097   167128 
  167166   167209   167255   167302   167344   167377   167394   167397 
