Origin Time       2025/01/13 21:19:00
Lat.              31.8
Long.             131.6
Depth. (km)       30
Mag.              6.9
Station Code      FKOH03
Station Lat.      33.5608
Station Long.     130.5499
Station Height(m) 185
Record Time       2025/01/13 21:20:08
Sampling Freq(Hz) 100Hz
Duration Time(s)  147
Dir.              4
Scale Factor      7845(gal)/8223790
Max. Acc. (gal)   0.939
Last Correction   2025/01/13 21:20:10
Memo.             
[...]
   -3292    -3258    -3272    -3288    -3264    -3191    -3107    -3068 
   -3107    -3225    -3372    -3483    -3539    -3561    -3570    -3603 
   -3669    -3746    -3785    -3759    -3688    -3636    -3645    -3709 
   -3789    -3827    -3797    -3719    -3631    -3574    -3559    -3558 
   -3527    -3460    -3387    -3345    -3362    -3435    -3526    -3578 
   -3561    -3474    -3343    -3211    -3106    -3034    -2984    -2953 
   -2947    -2964    -3010    -3067    -3125    -3177    -3215    -3226 
   -3207    -3168    -3130    -3113    -3107    -3103    -3102    -3114 
   -3154    -3221    -3296    -3358    -3379    -3360    -3326    -3302 
   -3298    -3312    -3322    -3292    -3206    -3083    -2972    -2916 
   -2925    -2983    -3068    -3171    -3272    -3343    -3337    -3221 
   -3028    -2843    -2748    -2790    -2968    -3217    -3433    -3520 
   -3450    -3264    -3055    -2921    -2905    -3007    -3199    -3399 
   -3519    -3519    -3416    -3273    -3169    -3173    -3284    -3437 
   -3532    -3523    -3427    -3306    -3221    -3202    -3238    -3287 
   -3308    -3298    -3267    -3227    -3195    -3180    -3196    -3242 
   -3304    -3375    -3438    -3462    -3442    -3393    -3349    -3338 
   -3360    -3400    -3453    -3496    -3499    -3441    -3330    -3207 
   -3141    -3184    -3334    -3526    -3681    -3751    -3748    -3717 
   -3694    -3690    -3689    -3665    -3601    -3508    -3419    -3364 
   -3348    -3353    -3362    -3365    -3358    -3329    -3268    -3198 
   -3175    -3238    -3362    -3472    -3492    -3407    -3281    -3202 
   -3226    -3356    -3530    -3669    -3720    -3680    -3582    -3485 
   -3426    -3422    -3478    -3576    -3672    -3713    -3676    -3581 
   -3483    -3427    -3446    -3532    -3646    -3727    -3748    -3721 
   -3670    -3608    -3549    -3510    -3522    -3585    -3654    -3682 
   -3655    -3580    -3488    -3427    -3420    -3450    -3485    -3501 
   -3491    -3458    -3415    -3369    -3329    -3291    -3256    -3217 
   -3173    -3138    -3126    -3152    -3226    -3333    -3434    -3480 
   -3443    -3350    -3252    -3198    -3229    -3349    -3516    -3658 
   -3717    -3682    -3581    -3462    -3383    -3396    -3504    -3632 
   -3684    -3616    -3451    -3273    -3168    -3167    -3234    -3311 
   -3354    -3352    -3348    -3388    -3470    -3559    -3640    -3703 
   -3736    -3750    -3748    -3717    -3646    -3547    -3457    -3411 
   -3412    -3423    -3408    -3360    -3291    -3231    -3204    -3215 
   -3257    -3310    -3350    -3365    -3353    -3311    -3258    -3227 
   -3245    -3307    -3392    -3473    -3528    -3545    -3522    -3468 
   -3410    -3373    -3372    -3395    -3418    -3433    -3438    -3427 
   -3393    -3354    -3322    -3298    -3302    -3338    -3381    -3392 
   -3358    -3289    -3207    -3129    -3071    -3057    -3088    -3130 
   -3157    -3163    -3152    -3141    -3154    -3188    -3208    -3195 
   -3141    -3064    -3015    -3041    -3130    -3241    -3329    -3348 
   -3288    -3183    -3067    -2976    -2953    -3007    -3100    -3176 
   -3196    -3154    -3078    -3011    -3002    -3061    -3164    -3273 
   -3353    -3377    -3349    -3304    -3281    -3303    -3360    -3410 
   -3414    -3368    -3296    -3222    -3168    -3146    -3152    -3163 
   -3160    -3129    -3072    -3009    -2957    -2945    -2984    -3064 
   -3168    -3273    -3357    -3396    -3389    -3362    -3356    -3399 
   -3489    -3603    -3711    -3781    -3800    -3767    -3699    -3608 
   -3516    -3439    -3397    -3392    -3410    -3430    -3431    -3418 
   -3407    -3406    -3415    -3422    -3418    -3411    -3418    -3430 
   -3422    -3380    -3316    -3252    -3214    -3241    -3333    -3438 
   -3505    -3518    -3488    -3460    -3469    -3504    -3538    -3550 
   -3549    -3561    -3597    -3661    -3748    -3829    -3877    -3875 
   -3821    -3728    -3622    -3524    -3462    -3441    -3453    -3492 
   -3541    -3566    -3561    -3534    -3501    -3483    -3485    -3499 
   -3505    -3491    -3449    -3396    -3361    -3384    -3489    -3659 
   -3827    -3933    -3962    -3931    -3883    -3862    -3877    -3920 
   -3969    -3996    -3985    -3946    -3897    -3858    -3842    -3846 
   -3873    -3912    -3932    -3906    -3829    -3711    -3574    -3449 
   -3354    -3299    -3283    -3294    -3321    -3362    -3415    -3458 
   -3477    -3469    -3435    -3376    -3298    -3208    -3130    -3088 
   -3095    -3149    -3237    -3321    -3373    -3379    -3331    -3265 
   -3238    -3289    -3418    -3585    -3734    -3816    -3820    -3773 
   -3719    -3685    -3670    -3658    -3623    -3559    -3495    -3442 
   -3399    -3360    -3321    -3285    -3254    -3219    -3194    -3184 
   -3187    -3202    -3235    -3277    -3308    -3302    -3262    -3214 
   -3190    -3217    -3299    -3412    -3510    -3550    -3512    -3412 
   -3283    -3152    -3041    -2960    -2902    -2856    -2820    -2798 
   -2793    -2791    -2785    -2771    -2767    -2793    -2857    -2949 
   -3052    -3156    -3249    -3322    -3379    -3423    -3457    -3495 
   -3550    -3608    -3650    -3672    -3657    -3596    -3499    -3388 
   -3284    -3196    -3115    -3034    -2951    -2880    -2839    -2816 
   -2783    -2733    -2677    -2644    -2660    -2733    -2843    -2949 
   -3017    -3036    -3025    -3017    -3052    -3148    -3273    -3369 
   -3399    -3366    -3310    -3277    -3285    -3323    -3368    -3388 
   -3366    -3306    -3226    -3152    -3099    -3067    -3052    -3040 
   -2999    -2918    -2812    -2713    -2659    -2685    -2775    -2889 
   -2987    -3057    -3103    -3146    -3203    -3265    -3302    -3284 
   -3230    -3168    -3134    -3156    -3222    -3291    -3329    -3318 
   -3275    -3237    -3230    -3277    -3389    -3546    -3707    -3834 
   -3906    -3929    -3925    -3942    -4004    -4093    -4187    -4271 
   -4322    -4330    -4298    -4241    -4175    -4116    -4078    -4054 
   -4024    -3982    -3910    -3809    -3705    -3619    -3554    -3518 
   -3516    -3546    -3585    -3613    -3618    -3595    -3543    -3485 
   -3454    -3456    -3476    -3488    -3474    -3447    -3430    -3443 
   -3503    -3599    -3697    -3762    -3766    -3704    -3592    -3447 
   -3292    -3148    -3040    -2974    -2936    -2907    -2874    -2818 
   -2739    -2654    -2592    -2583    -2637    -2731    -2818    -2866 
   -2857    -2808    -2767    -2785    -2875    -3001    -3106    -3148 
   -3118    -3042    -2968    -2956    -3037    -3177    -3311    -3381 
   -3364    -3284    -3204    -3183    -3227    -3306    -3384    -3431 
   -3433    -3412    -3402    -3426    -3500    -3616    -3736    -3834 
   -3898    -3936    -3950    -3944    -3919    -3865    -3784    -3681 
   -3581    -3511    -3476    -3466    -3480    -3511    -3565    -3636 
   -3708    -3763    -3804    -3825    -3835    -3852    -3894    -3959 
   -4035    -4095    -4112    -4075    -4001    -3919    -3866    -3874 
   -3946    -4044    -4098    -4043    -3865    -3608    -3354    -3190 
   -3149    -3226    -3352    -3435    -3422    -3325    -3196    -3121 
   -3156    -3307    -3519    -3705    -3792    -3763    -3680    -3630 
   -3670    -3801    -3966    -4086    -4102    -4008    -3840    -3657 
   -3504    -3406    -3349    -3308    -3261    -3188    -3080    -2963 
   -2860    -2783    -2752    -2782    -2864    -2976    -3084    -3159 
   -3180    -3150    -3099    -3090    -3159    -3283    -3406    -3478 
   -3480    -3402    -3265    -3123    -3019    -2971    -2982    -3026 
   -3059    -3057    -3017    -2944    -2864    -2809    -2794    -2820 
   -2871    -2917    -2933    -2920    -2895    -2880    -2894    -2930 
   -2980    -3040    -3102    -3157    -3195    -3217    -3226    -3227 
   -3215    -3199    -3188    -3191    -3210    -3250    -3314    -3400 
   -3499    -3588    -3654    -3686    -3682    -3661    -3653    -3669 
   -3707    -3750    -3785    -3790    -3763    -3720    -3684    -3666 
   -3681    -3734    -3807    -3865    -3879    -3856    -3809    -3753 
   -3696    -3647    -3609    -3586    -3569    -3543    -3503    -3460 
   -3430    -3427    -3453    -3489    -3511    -3500    -3450    -3376 
   -3307    -3265    -3267    -3303    -3349    -3387    -3415    -3426 
   -3429    -3434    -3453    -3495    -3555    -3616    -3646    -3627 
   -3568    -3495    -3427    -3380    -3341    -3289    -3214    -3109 
   -2980    -2856    -2764    -2713    -2702    -2718    -2741    -2752 
   -2740    -2712    -2704    -2752    -2882    -3068    -3252    -3381 
   -3423    -3387    -3319    -3281    -3303    -3376    -3462    -3530 
   -3573    -3604    -3636    -3684    -3732    -3766    -3789    -3805 
   -3821    -3832    -3831    -3820    -3808    -3809    -3831    -3874 
   -3913    -3927    -3920    -3901    -3883    -3892    -3928    -3952 
   -3933    -3870    -3780    -3686    -3620    -3584    -3554    -3510 
   -3438    -3342    -3246    -3168    -3119    -3096    -3088    -3083 
   -3071    -3055    -3045    -3061    -3119    -3204    -3275    -3295 
   -3245    -3150    -3063    -3030    -3072    -3168    -3268    -3335 
   -3354    -3316    -3245    -3173    -3136    -3154    -3225    -3319 
   -3408    -3460    -3466    -3451    -3442    -3465    -3532    -3632 
   -3740    -3819    -3839    -3796    -3700    -3573    -3464    -3411 
   -3429    -3499    -3593    -3672    -3699    -3678    -3634    -3595 
   -3591    -3624    -3676    -3716    -3734    -3726    -3700    -3677 
   -3663    -3655    -3658    -3676    -3694    -3700    -3684    -3631 
   -3545    -3457    -3393    -3356    -3330    -3288    -3219    -3130 
   -3045    -3001    -3009    -3056    -3115    -3171    -3223    -3284 
   -3358    -3450    -3547    -3632    -3685    -3688    -3635    -3542 
   -3441    -3368    -3352    -3383    -3423    -3441    -3412    -3333 
   -3217    -3100    -3007    -2938    -2880    -2821    -2762    -2709 
   -2674    -2671    -2718    -2808    -2910    -2995    -3046    -3065 
   -3071    -3086    -3125    -3187    -3261    -3335    -3400    -3443 
   -3462    -3469    -3472    -3478    -3496    -3515    -3520    -3514 
   -3496    -3470    -3454    -3465    -3501    -3549    -3582    -3592 
   -3573    -3547    -3538    -3557    -3582    -3585    -3543    -3456 
   -3339    -3225    -3133    -3082    -3073    -3100    -3148    -3196 
   -3226    -3230    -3206    -3153    -3087    -3029    -2986    -2955 
   -2936    -2918    -2893    -2867    -2860    -2889    -2948    -3025 
   -3090    -3119    -3110    -3068    -3006    -2952    -2932    -2949 
   -2994    -3052    -3110    -3159    -3180    -3171    -3130    -3068 
   -3006    -2956    -2922    -2911    -2918    -2921    -2905    -2853 
   -2770    -2691    -2668    -2731    -2872    -3064    -3245    -3369 
   -3433    -3464    -3512    -3630    -3815    -4009    -4147    -4185 
   -4122    -4017    -3952    -3978    -4085    -4216    -4313    -4340 
   -4287    -4187    -4087    -4025    -4016    -4039    -4059    -4048 
   -4000    -3915    -3811    -3723    -3682    -3688    -3719    -3751 
   -3762    -3746    -3717    -3693    -3688    -3699    -3704    -3694 
   -3673    -3646    -3628    -3630    -3642    -3643    -3607    -3534 
   -3451    -3383    -3349    -3356    -3377    -3396    -3406    -3402 
   -3372    -3321    -3256    -3199    -3179    -3222    -3321    -3426 
   -3488    -3488    -3443    -3403    -3406    -3466    -3554    -3624 
   -3635    -3572    -3454    -3325    -3217    -3160    -3167    -3221 
   -3284    -3327    -3330    -3300    -3260    -3233    -3237    -3271 
   -3308    -3323    -3308    -3281    -3258    -3250    -3264    -3280 
   -3279    -3249    -3196    -3138    -3099    -3084    -3088    -3092 
   -3072    -3003    -2891    -2772    -2683    -2646    -2660    -2720 
   -2799    -2860    -2874    -2841    -2781    -2721    -2701    -2748 
   -2851    -2968    -3045    -3052    -3003    -2932    -2866    -2833 
   -2843    -2884    -2944    -3006    -3061    -3105    -3132    -3138 
   -3127    -3114    -3109    -3113    -3118    -3123    -3136    -3163 
   -3225    -3331    -3464    -3595    -3711    -3802    -3877    -3951 
   -4032    -4106    -4152    -4155    -4117    -4055    -3983    -3916 
   -3873    -3858    -3865    -3871    -3861    -3825    -3766    -3689 
   -3618    -3568    -3551    -3559    -3569    -3570    -3565    -3555 
   -3554    -3568    -3596    -3638    -3688    -3727    -3753    -3763 
   -3761    -3744    -3713    -3665    -3601    -3535    -3485    -3466 
   -3487    -3518    -3531    -3519    -3485    -3454    -3453    -3484 
   -3532    -3568    -3562    -3512    -3443    -3377    -3339    -3341 
   -3370    -3392    -3387    -3361    -3326    -3295    -3272    -3249 
   -3218    -3187    -3164    -3154    -3163    -3191    -3230    -3267 
   -3295    -3312    -3327    -3341    -3343    -3338    -3337    -3342 
   -3356    -3375    -3392    -3414    -3447    -3499    -3565    -3643 
   -3712    -3761    -3789    -3797    -3794    -3794    -3805    -3825 
   -3843    -3842    -3798    -3707    -3576    -3427    -3302    -3227 
   -3219    -3261    -3306    -3310    -3260    -3169    -3073    -3022 
   -3041    -3130    -3265    -3395    -3468    -3462    -3388    -3276 
   -3175    -3138    -3184    -3280    -3361    -3370    -3273    -3091 
   -2890    -2743    -2704    -2755    -2821    -2839    -2776    -2643 
   -2497    -2404    -2403    -2492    -2637    -2783    -2891    -2943 
   -2947    -2933    -2947    -2998    -3069    -3132    -3171    -3180 
   -3172    -3165    -3171    -3192    -3223    -3252    -3273    -3292 
   -3319    -3350    -3372    -3372    -3338    -3280    -3226    -3210 
   -3248    -3333    -3431    -3500    -3520    -3505    -3491    -3501 
   -3542    -3584    -3585    -3515    -3388    -3249    -3150    -3126 
   -3168    -3233    -3271    -3252    -3192    -3136    -3115    -3145 
   -3221    -3314    -3395    -3441    -3445    -3423    -3396    -3377 
   -3375    -3395    -3443    -3505    -3562    -3600    -3613    -3596 
   -3553    -3495    -3430    -3365    -3315    -3285    -3285    -3306 
   -3327    -3327    -3298    -3258    -3233    -3248    -3315    -3416 
   -3507    -3557    -3565    -3551    -3559    -3619    -3723    -3851 
   -3981    -4089    -4170    -4229    -4267    -4288    -4293    -4284 
   -4287    -4306    -4332    -4348    -4314    -4210    -4059    -3886 
   -3719    -3589    -3511    -3465    -3431    -3383    -3306    -3210 
   -3121    -3072    -3076    -3119    -3179    -3222    -3223    -3175 
   -3091    -3010    -2982    -3026    -3130    -3268    -3404    -3503 
   -3547    -3570    -3603    -3658    -3739    -3831    -3912    -3970 
   -4008    -4029    -4031    -4009    -3964    -3902    -3827    -3743 
   -3661    -3591    -3541    -3510    -3496    -3484    -3442    -3348 
   -3194    -2999    -2813    -2673    -2598    -2579    -2581    -2563 
   -2529    -2513    -2554    -2668    -2853    -3065    -3252    -3373 
   -3433    -3461    -3512    -3623    -3789    -3971    -4124    -4213 
   -4234    -4213    -4179    -4164    -4172    -4193    -4201    -4179 
   -4122    -4031    -3919    -3808    -3701    -3605    -3528    -3470 
   -3441    -3446    -3470    -3489    -3493    -3488    -3488    -3507 
   -3550    -3612    -3681    -3735    -3761    -3771    -3788    -3819 
   -3869    -3939    -4016    -4081    -4116    -4118    -4095    -4060 
   -4013    -3955    -3888    -3809    -3715    -3607    -3500    -3407 
   -3330    -3271    -3235    -3223    -3217    -3203    -3177    -3154 
   -3145    -3153    -3175    -3188    -3183    -3157    -3118    -3087 
   -3084    -3095    -3109    -3126    -3146    -3168    -3199    -3244 
   -3308    -3376    -3424    -3443    -3435    -3412    -3393    -3393 
   -3412    -3420    -3391    -3314    -3204    -3092    -3024    -3011 
   -3038    -3072    -3075    -3034    -2975    -2918    -2886    -2895 
   -2943    -3010    -3083    -3146    -3206    -3269    -3356    -3488 
   -3667    -3862    -4027    -4129    -4168    -4155    -4118    -4102 
   -4117    -4152    -4187    -4191    -4145    -4050    -3921    -3782 
   -3665    -3596    -3570    -3551    -3500    -3392    -3235    -3063 
   -2907    -2803    -2764    -2793    -2875    -2975    -3057    -3113 
   -3137    -3144    -3148    -3176    -3250    -3383    -3554    -3732 
   -3879    -3967    -3973    -3917    -3858    -3843    -3894    -3998 
   -4098    -4140    -4085    -3932    -3732    -3539    -3395    -3325 
   -3321    -3353    -3377    -3362    -3311    -3241    -3183    -3180 
   -3252    -3384    -3538    -3663    -3730    -3732    -3694    -3655 
   -3653    -3699    -3780    -3859    -3904    -3877    -3773    -3619 
   -3457    -3329    -3269    -3283    -3334    -3385    -3400    -3366 
   -3302    -3248    -3244    -3315    -3451    -3608    -3734    -3785 
   -3754    -3666    -3569    -3514    -3516    -3554    -3591    -3599 
   -3555    -3470    -3375    -3303    -3280    -3294    -3307    -3284 
   -3207    -3079    -2933    -2828    -2797    -2836    -2910    -2963 
   -2960    -2893    -2791    -2722    -2737    -2855    -3046    -3260 
   -3433    -3530    -3549    -3511    -3454    -3422    -3435    -3485 
   -3555    -3624    -3661    -3649    -3593    -3503    -3399    -3311 
   -3249    -3213    -3186    -3150    -3091    -3005    -2899    -2793 
   -2714    -2681    -2690    -2718    -2747    -2754    -2727    -2683 
   -2644    -2632    -2664    -2736    -2828    -2918    -2976    -2991 
   -2965    -2924    -2894    -2902    -2948    -3014    -3086    -3145 
   -3188    -3225    -3262    -3303    -3339    -3365    -3389    -3430 
   -3496    -3596    -3708    -3802    -3855    -3858    -3821    -3777 
   -3742    -3713    -3684    -3639    -3570    -3489    -3411    -3348 
   -3304    -3268    -3223    -3172    -3115    -3053    -3003    -2980 
   -2974    -2970    -2964    -2959    -2957    -2964    -2997    -3051 
   -3106    -3153    -3183    -3190    -3184    -3180    -3195    -3231 
   -3285    -3345    -3395    -3422    -3420    -3400    -3370    -3346 
   -3335    -3330    -3322    -3306    -3277    -3257    -3260    -3280 
   -3310    -3343    -3377    -3419    -3481    -3564    -3657    -3746 
   -3821    -3867    -3888    -3904    -3919    -3935    -3963    -4000 
   -4031    -4056    -4071    -4060    -4021    -3958    -3886    -3824 
   -3771    -3721    -3663    -3601    -3541    -3491    -3456    -3433 
   -3416    -3410    -3406    -3406    -3418    -3430    -3431    -3416 
   -3393    -3373    -3362    -3352    -3331    -3287    -3218    -3142 
   -3079    -3042    -3022    -3007    -2994    -2976    -2944    -2898 
   -2841    -2783    -2741    -2729    -2743    -2764    -2787    -2803 
   -2806    -2812    -2844    -2907    -2988    -3065    -3126    -3177 
   -3225    -3279    -3350    -3427    -3493    -3550    -3601    -3651 
   -3707    -3757    -3788    -3790    -3765    -3717    -3663    -3618 
   -3576    -3534    -3485    -3423    -3346    -3260    -3176    -3107 
   -3069    -3064    -3071    -3065    -3034    -2979    -2918    -2890 
   -2921    -3009    -3118    -3210    -3253    -3253    -3237    -3233 
   -3264    -3327    -3400    -3464    -3497    -3500    -3488    -3474 
