Origin Time       2025/01/13 21:19:00
Lat.              31.8
Long.             131.6
Depth. (km)       30
Mag.              6.9
Station Code      FKOH04
Station Lat.      33.5512
Station Long.     130.7451
Station Height(m) -40
Record Time       2025/01/13 21:20:04
Sampling Freq(Hz) 100Hz
Duration Time(s)  159
Dir.              2
Scale Factor      2942(gal)/8224139
Max. Acc. (gal)   1.532
Last Correction   2025/01/13 21:20:05
Memo.             
[...]
   17801    17752    17729    17743    17770    17795    17828    17864 
   17901    17934    17977    18042    18123    18206    18277    18327 
   18364    18397    18432    18476    18527    18592    18666    18725 
   18758    18781    18817    18867    18922    18983    19039    19083 
   19107    19111    19099    19074    19030    18975    18901    18810 
   18725    18644    18551    18439    18312    18188    18098    18045 
   18010    17979    17944    17917    17926    17976    18056    18139 
   18212    18287    18377    18480    18598    18732    18871    19014 
   19160    19294    19406    19514    19643    19797    19954    20102 
   20235    20352    20476    20599    20700    20791    20871    20934 
   20979    21003    21006    20983    20937    20872    20775    20645 
   20494    20340    20193    20048    19901    19759    19626    19499 
   19383    19273    19170    19072    18986    18913    18854    18793 
   18738    18689    18650    18619    18589    18559    18539    18520 
   18504    18490    18476    18462    18441    18408    18381    18364 
   18355    18355    18355    18342    18323    18311    18303    18310 
   18333    18364    18412    18486    18582    18690    18800    18912 
   19025    19144    19269    19386    19485    19572    19649    19731 
   19834    19948    20063    20183    20308    20436    20574    20710 
   20830    20934    21016    21066    21099    21130    21145    21134 
   21095    21034    20970    20910    20841    20764    20680    20583 
   20488    20399    20301    20198    20093    19980    19869    19788 
   19745    19719    19701    19700    19718    19750    19789    19820 
   19855    19885    19901    19912    19917    19920    19932    19959 
   19985    20001    20013    20024    20039    20056    20070    20094 
   20146    20218    20306    20398    20479    20560    20649    20741 
   20837    20929    21003    21061    21103    21122    21122    21103 
   21062    20996    20903    20791    20663    20514    20356    20197 
   20052    19920    19793    19688    19618    19579    19557    19545 
   19529    19516    19514    19507    19499    19489    19476    19450 
   19410    19361    19314    19269    19224    19165    19090    19012 
   18937    18858    18779    18709    18644    18589    18551    18524 
   18519    18540    18573    18624    18692    18754    18805    18855 
   18895    18931    18962    18982    18976    18945    18904    18864 
   18817    18748    18658    18553    18430    18295    18164    18037 
   17910    17797    17702    17622    17567    17540    17532    17529 
   17540    17566    17597    17624    17645    17656    17658    17660 
   17664    17678    17718    17770    17814    17845    17864    17886 
   17907    17923    17948    17987    18034    18085    18127    18165 
   18226    18308    18399    18501    18617    18736    18868    19016 
   19157    19288    19408    19522    19633    19754    19881    19982 
   20047    20093    20140    20196    20250    20295    20336    20366 
   20398    20441    20482    20517    20563    20619    20683    20748 
   20817    20887    20950    21001    21043    21091    21155    21231 
   21297    21347    21382    21400    21396    21375    21350    21327 
   21303    21273    21234    21173    21088    20980    20849    20695 
   20515    20331    20147    19959    19776    19603    19440    19288 
   19149    19022    18910    18804    18701    18612    18534    18474 
   18430    18399    18388    18396    18419    18454    18486    18513 
   18547    18584    18617    18665    18732    18802    18868    18933 
   18989    19033    19084    19134    19180    19233    19287    19330 
   19357    19376    19398    19427    19452    19462    19461    19450 
   19433    19413    19390    19363    19333    19306    19284    19268 
   19253    19232    19192    19140    19086    19052    19033    19021 
   19018    19024    19036    19066    19110    19155    19198    19256 
   19321    19380    19427    19471    19522    19587    19666    19757 
   19845    19931    20011    20074    20128    20177    20213    20236 
   20245    20241    20232    20224    20206    20182    20160    20136 
   20115    20121    20147    20175    20206    20243    20285    20326 
   20364    20401    20418    20414    20409    20401    20376    20340 
   20297    20259    20223    20173    20109    20034    19943    19846 
   19753    19668    19592    19512    19438    19384    19345    19315 
   19282    19236    19188    19145    19091    19020    18945    18866 
   18782    18706    18636    18566    18505    18450    18401    18364 
   18335    18311    18296    18292    18307    18326    18334    18328 
   18311    18285    18256    18219    18166    18104    18056    18026 
   18011    18004    18004    18021    18050    18099    18169    18260 
   18365    18493    18650    18810    18964    19126    19290    19448 
   19606    19759    19912    20073    20231    20382    20541    20717 
   20904    21104    21305    21501    21690    21867    22019    22150 
   22262    22350    22412    22449    22453    22418    22346    22246 
   22119    21957    21764    21548    21305    21039    20754    20451 
   20136    19818    19488    19152    18825    18522    18239    17973 
   17737    17533    17355    17193    17031    16881    16756    16660 
   16591    16540    16514    16518    16542    16592    16663    16745 
   16852    16995    17169    17362    17570    17791    18018    18250 
   18488    18713    18925    19128    19314    19485    19654    19820 
   19981    20119    20214    20277    20316    20344    20371    20398 
   20405    20387    20355    20305    20232    20158    20096    20051 
   20017    19986    19957    19926    19888    19853    19820    19777 
   19730    19684    19651    19637    19626    19619    19620    19622 
   19611    19585    19546    19487    19414    19344    19283    19237 
   19198    19156    19103    19045    18983    18906    18812    18717 
   18619    18512    18407    18310    18225    18160    18114    18087 
   18080    18096    18142    18219    18312    18411    18509    18600 
   18681    18762    18846    18925    18998    19063    19114    19153 
   19194    19232    19260    19275    19280    19279    19279    19275 
   19267    19267    19273    19286    19303    19319    19327    19337 
   19342    19344    19353    19357    19346    19334    19313    19278 
   19236    19183    19133    19099    19079    19057    19021    18982 
   18966    18960    18948    18933    18922    18914    18906    18894 
   18878    18858    18840    18821    18789    18750    18717    18702 
   18716    18743    18769    18797    18839    18885    18927    18978 
   19047    19121    19197    19287    19392    19496    19596    19697 
   19782    19853    19904    19928    19934    19932    19917    19874 
   19807    19727    19634    19518    19380    19228    19074    18924 
   18770    18611    18457    18318    18200    18102    18021    17961 
   17929    17921    17934    17952    17961    17967    17973    17982 
   17996    18004    17988    17963    17934    17911    17891    17865 
   17826    17778    17726    17670    17620    17583    17551    17527 
   17520    17529    17558    17602    17655    17716    17788    17865 
   17936    18002    18072    18153    18243    18335    18438    18559 
   18689    18820    18944    19067    19203    19353    19504    19662 
   19822    19973    20125    20271    20413    20559    20715    20876 
   21034    21186    21338    21481    21608    21712    21793    21849 
   21888    21917    21930    21925    21886    21810    21714    21606 
   21490    21366    21234    21100    20961    20808    20653    20505 
   20360    20225    20104    19996    19911    19843    19780    19715 
   19647    19579    19518    19464    19406    19350    19303    19259 
   19222    19198    19188    19191    19207    19241    19291    19359 
   19442    19526    19596    19661    19708    19719    19703    19672 
   19622    19550    19467    19371    19260    19133    18993    18850 
   18702    18559    18422    18287    18158    18048    17953    17867 
   17787    17706    17621    17550    17496    17446    17397    17358 
   17329    17317    17319    17336    17366    17392    17412    17440 
   17483    17545    17632    17740    17863    17994    18123    18246 
   18355    18461    18576    18702    18829    18947    19070    19197 
   19321    19446    19584    19727    19874    20029    20185    20333 
   20478    20611    20733    20835    20910    20966    21007    21024 
   21018    20996    20970    20946    20920    20880    20821    20758 
   20700    20641    20568    20471    20355    20213    20056    19890 
   19708    19516    19327    19143    18966    18809    18682    18582 
   18505    18455    18445    18472    18538    18639    18775    18947 
   19144    19369    19622    19884    20151    20425    20694    20958 
   21215    21454    21671    21853    22010    22148    22249    22318 
   22364    22385    22385    22365    22315    22237    22141    22026 
   21887    21724    21540    21352    21172    20995    20815    20629 
   20440    20247    20052    19859    19666    19475    19286    19099 
   18914    18732    18569    18431    18314    18214    18125    18040 
   17961    17891    17830    17779    17733    17693    17645    17594 
   17541    17474    17388    17304    17220    17128    17042    16968 
   16906    16857    16821    16804    16819    16865    16937    17031 
   17138    17253    17386    17540    17709    17883    18064    18260 
   18473    18693    18914    19124    19317    19510    19693    19851 
   19982    20097    20201    20282    20339    20367    20359    20316 
   20248    20152    20032    19899    19762    19629    19507    19394 
   19282    19178    19089    19012    18952    18918    18908    18917 
   18944    18975    19002    19020    19041    19075    19120    19165 
   19211    19264    19338    19435    19548    19666    19792    19923 
   20054    20170    20258    20314    20349    20363    20352    20321 
   20277    20213    20135    20046    19954    19865    19791    19741 
   19712    19710    19734    19778    19842    19921    20012    20123 
   20255    20399    20556    20725    20893    21061    21239    21435 
   21633    21821    21995    22148    22265    22345    22388    22388 
   22347    22270    22158    22018    21856    21668    21463    21253 
   21038    20831    20642    20470    20305    20142    19986    19839 
   19691    19537    19388    19255    19126    18994    18866    18754 
   18650    18553    18468    18388    18310    18239    18180    18133 
   18092    18060    18040    18022    18010    18022    18057    18111 
   18181    18273    18392    18519    18636    18743    18837    18933 
   19033    19120    19191    19252    19309    19369    19425    19471 
   19516    19552    19558    19550    19530    19489    19441    19387 
   19307    19205    19087    18954    18804    18655    18511    18377 
   18262    18161    18072    18002    17949    17921    17914    17929 
   17975    18053    18172    18327    18509    18724    18971    19232 
   19499    19770    20044    20305    20542    20758    20950    21111 
   21244    21338    21386    21408    21404    21373    21319    21239 
   21132    21010    20866    20717    20565    20406    20237    20059 
   19885    19732    19593    19462    19354    19269    19205    19165 
   19151    19157    19183    19214    19238    19261    19284    19305 
   19323    19337    19345    19356    19363    19360    19353    19340 
   19314    19275    19230    19171    19097    19014    18924    18825 
   18723    18624    18543    18485    18454    18443    18445    18459 
   18474    18488    18509    18534    18553    18581    18619    18654 
   18690    18738    18786    18828    18870    18906    18935    18954 
   18960    18952    18935    18912    18883    18848    18814    18787 
   18762    18742    18733    18736    18747    18767    18804    18854 
   18925    19024    19133    19237    19336    19418    19475    19518 
   19546    19557    19552    19526    19487    19445    19398    19344 
   19290    19232    19164    19106    19066    19035    19013    19005 
   19008    19021    19048    19089    19144    19215    19303    19399 
   19498    19603    19712    19815    19905    19981    20043    20092 
   20139    20182    20212    20235    20258    20286    20325    20375 
   20436    20505    20571    20629    20675    20703    20710    20694 
   20652    20572    20456    20320    20177    20019    19854    19693 
   19535    19384    19234    19083    18929    18774    18628    18495 
   18362    18231    18104    17988    17886    17790    17705    17639 
   17598    17579    17581    17602    17645    17713    17790    17849 
   17901    17955    17999    18036    18071    18100    18126    18157 
   18184    18198    18210    18226    18243    18257    18274    18297 
   18324    18345    18353    18349    18324    18279    18207    18103 
   17975    17830    17676    17516    17355    17208    17074    16964 
   16892    16848    16818    16814    16825    16848    16895    16965 
   17054    17159    17280    17424    17597    17797    18015    18258 
   18527    18819    19134    19472    19826    20194    20569    20946 
   21315    21666    21998    22304    22577    22824    23040    23224 
   23375    23490    23565    23619    23646    23647    23635    23604 
   23553    23498    23433    23353    23260    23151    23022    22869 
   22689    22497    22296    22092    21888    21675    21465    21255 
   21035    20811    20576    20322    20061    19800    19546    19295 
   19040    18779    18519    18264    18019    17771    17514    17262 
   17011    16769    16548    16341    16147    15971    15827    15711 
   15608    15519    15449    15387    15349    15349    15376    15430 
   15516    15628    15757    15909    16092    16302    16541    16798 
   17061    17334    17604    17857    18106    18345    18558    18748 
   18922    19071    19202    19326    19433    19527    19619    19707 
   19795    19881    19961    20035    20112    20181    20232    20277 
   20320    20363    20405    20445    20486    20538    20610    20684 
   20749    20802    20839    20865    20883    20893    20881    20845 
   20796    20736    20668    20602    20529    20445    20347    20237 
   20127    20016    19901    19774    19635    19491    19344    19198 
   19049    18900    18756    18613    18468    18322    18180    18050 
   17941    17855    17786    17732    17701    17695    17709    17745 
   17811    17899    18009    18141    18288    18445    18619    18812 
   19014    19226    19448    19668    19884    20092    20287    20475 
   20661    20844    21019    21188    21342    21478    21600    21705 
   21794    21875    21929    21945    21940    21917    21871    21803 
   21728    21649    21574    21504    21438    21373    21308    21242 
   21173    21103    21031    20958    20880    20794    20700    20602 
   20502    20402    20304    20197    20082    19963    19845    19737 
   19633    19531    19440    19361    19300    19263    19249    19259 
   19287    19332    19390    19471    19569    19677    19793    19909 
   20019    20117    20202    20281    20353    20414    20463    20495 
   20509    20506    20487    20451    20395    20325    20241    20152 
   20056    19938    19796    19643    19480    19310    19140    18964 
   18785    18611    18441    18276    18126    17990    17863    17756 
   17659    17572    17500    17437    17392    17371    17370    17381 
   17401    17436    17481    17521    17567    17620    17674    17739 
   17811    17879    17944    18011    18076    18138    18203    18279 
   18369    18470    18576    18685    18797    18909    19016    19125 
   19238    19352    19464    19575    19687    19800    19913    20027 
   20137    20233    20313    20376    20426    20466    20490    20507 
   20524    20522    20505    20471    20418    20339    20237    20120 
   19986    19843    19703    19562    19426    19303    19197    19116 
   19067    19051    19059    19090    19141    19199    19263    19329 
   19390    19448    19504    19558    19615    19678    19751    19843 
   19946    20044    20128    20197    20263    20322    20362    20387 
   20409    20422    20429    20418    20380    20325    20250    20152 
   20042    19917    19786    19658    19523    19377    19217    19045 
   18874    18698    18513    18319    18112    17905    17701    17508 
   17328    17166    17018    16883    16767    16669    16587    16528 
   16497    16492    16517    16580    16671    16780    16915    17078 
   17259    17462    17675    17891    18115    18339    18555    18769 
   18978    19176    19375    19570    19751    19919    20078    20233 
   20380    20520    20660    20794    20922    21045    21163    21274 
   21370    21455    21529    21573    21594    21605    21600    21575 
   21539    21489    21427    21358    21281    21193    21101    21000 
   20880    20744    20592    20430    20260    20079    19885    19680 
   19475    19276    19074    18867    18677    18508    18369    18264 
   18188    18139    18121    18131    18164    18211    18272    18355 
   18457    18571    18696    18821    18954    19097    19248    19408 
   19576    19737    19896    20055    20210    20362    20507    20632 
   20737    20835    20923    20993    21051    21096    21123    21139 
   21136    21111    21068    21014    20949    20883    20812    20727 
   20633    20536    20429    20318    20212    20105    19990    19865 
   19735    19600    19456    19309    19159    19009    18868    18735 
   18608    18496    18395    18304    18230    18172    18127    18103 
   18088    18077    18088    18119    18169    18246    18343    18453 
   18578    18725    18891    19067    19256    19454    19654    19847 
   20036    20212    20375    20528    20661    20779    20879    20950 
   20999    21027    21033    21020    20995    20952    20906    20854 
   20794    20719    20629    20528    20418    20302    20175    20055 
   19943    19832    19719    19606    19492    19383    19284    19184 
   19083    18993    18913    18832    18750    18666    18588    18507 
   18415    18318    18216    18111    18011    17915    17815    17716 
   17625    17543    17459    17375    17290    17208    17136    17073 
   17010    16951    16907    16865    16822    16794    16775    16758 
   16749    16754    16773    16808    16857    16924    17003    17091 
   17188    17290    17400    17521    17645    17770    17902    18053 
   18218    18381    18550    18731    18916    19107    19302    19483 
   19657    19822    19966    20105    20236    20345    20430    20493 
   20532    20556    20560    20540    20501    20444    20378    20306 
   20224    20131    20032    19923    19800    19676    19548    19415 
   19287    19165    19049    18952    18874    18804    18743    18692 
   18640    18589    18544    18503    18470    18458    18459    18469 
   18497    18544    18604    18678    18765    18859    18964    19082 
   19201    19311    19415    19512    19597    19668    19737    19804 
