Origin Time       2025/01/13 21:19:00
Lat.              31.8
Long.             131.6
Depth. (km)       30
Mag.              6.9
Station Code      FKOH01
Station Lat.      33.8849
Station Long.     130.9798
Station Height(m) 15
Record Time       2025/01/13 21:20:12
Sampling Freq(Hz) 100Hz
Duration Time(s)  120
Dir.              6
Scale Factor      7845(gal)/8223790
Max. Acc. (gal)   0.663
Last Correction   2025/01/13 21:20:13
Memo.             
[...]
  -32468   -32466   -32478   -32508   -32532   -32543   -32552   -32567 
  -32587   -32609   -32621   -32614   -32593   -32584   -32594   -32602 
  -32613   -32638   -32674   -32707   -32745   -32771   -32776   -32775 
  -32775   -32775   -32776   -32776   -32772   -32769   -32767   -32772 
  -32784   -32788   -32776   -32752   -32729   -32714   -32697   -32674 
  -32663   -32664   -32664   -32648   -32607   -32563   -32540   -32532 
  -32528   -32516   -32483   -32452   -32445   -32456   -32474   -32478 
  -32458   -32432   -32422   -32425   -32436   -32458   -32493   -32536 
  -32580   -32599   -32583   -32557   -32551   -32566   -32590   -32594 
  -32566   -32533   -32526   -32541   -32552   -32543   -32525   -32520 
  -32535   -32559   -32575   -32570   -32556   -32567   -32599   -32624 
  -32629   -32636   -32665   -32713   -32746   -32748   -32737   -32737 
  -32745   -32746   -32728   -32692   -32647   -32616   -32616   -32629 
  -32630   -32617   -32606   -32599   -32594   -32598   -32609   -32609 
  -32613   -32630   -32655   -32676   -32680   -32659   -32630   -32610 
  -32589   -32571   -32570   -32572   -32567   -32551   -32517   -32474 
  -32441   -32414   -32385   -32358   -32343   -32329   -32309   -32294 
  -32292   -32287   -32278   -32267   -32250   -32217   -32189   -32186 
  -32213   -32256   -32306   -32358   -32410   -32471   -32530   -32574 
  -32593   -32593   -32580   -32571   -32578   -32607   -32651   -32687 
  -32698   -32691   -32686   -32690   -32695   -32703   -32717   -32721 
  -32714   -32709   -32715   -32726   -32724   -32703   -32675   -32653 
  -32656   -32675   -32686   -32672   -32634   -32586   -32543   -32506 
  -32482   -32462   -32431   -32390   -32348   -32312   -32290   -32274 
  -32248   -32220   -32194   -32182   -32188   -32202   -32211   -32208 
  -32202   -32202   -32220   -32263   -32324   -32370   -32386   -32393 
  -32410   -32439   -32462   -32464   -32459   -32460   -32459   -32463 
  -32468   -32456   -32414   -32370   -32364   -32394   -32418   -32418 
  -32397   -32371   -32358   -32367   -32387   -32406   -32409   -32406 
  -32413   -32436   -32466   -32482   -32472   -32454   -32449   -32471 
  -32499   -32517   -32528   -32545   -32564   -32590   -32616   -32644 
  -32672   -32687   -32687   -32692   -32707   -32741   -32794   -32848 
  -32886   -32880   -32842   -32806   -32784   -32773   -32763   -32740 
  -32703   -32670   -32652   -32653   -32660   -32656   -32643   -32628 
  -32617   -32606   -32599   -32597   -32578   -32539   -32498   -32462 
  -32429   -32412   -32400   -32387   -32382   -32383   -32391   -32409 
  -32429   -32449   -32467   -32486   -32514   -32555   -32599   -32643 
  -32682   -32707   -32726   -32748   -32765   -32775   -32790   -32805 
  -32821   -32852   -32890   -32904   -32894   -32864   -32827   -32799 
  -32790   -32787   -32767   -32715   -32647   -32594   -32578   -32567 
  -32535   -32495   -32460   -32427   -32410   -32421   -32435   -32431 
  -32414   -32398   -32397   -32417   -32456   -32499   -32522   -32517 
  -32497   -32472   -32460   -32471   -32487   -32482   -32459   -32432 
  -32416   -32420   -32443   -32463   -32462   -32463   -32491   -32528 
  -32544   -32533   -32513   -32509   -32528   -32559   -32590   -32606 
  -32610   -32629   -32664   -32695   -32697   -32674   -32644   -32624 
  -32617   -32621   -32625   -32620   -32613   -32607   -32597   -32568 
  -32535   -32510   -32494   -32468   -32428   -32389   -32366   -32381 
  -32429   -32495   -32547   -32563   -32570   -32591   -32626   -32652 
  -32648   -32621   -32597   -32589   -32591   -32589   -32572   -32552 
  -32535   -32521   -32503   -32490   -32497   -32518   -32532   -32537 
  -32553   -32579   -32601   -32609   -32602   -32575   -32530   -32485 
  -32456   -32439   -32427   -32425   -32437   -32452   -32458   -32451 
  -32432   -32414   -32410   -32421   -32440   -32455   -32449   -32436 
  -32432   -32436   -32440   -32439   -32425   -32397   -32382   -32397 
  -32417   -32431   -32435   -32410   -32374   -32350   -32331   -32313 
  -32304   -32300   -32293   -32285   -32286   -32306   -32341   -32374 
  -32381   -32375   -32390   -32424   -32460   -32490   -32505   -32510 
  -32524   -32551   -32583   -32610   -32620   -32603   -32576   -32560 
  -32544   -32525   -32509   -32490   -32470   -32452   -32432   -32410 
  -32401   -32400   -32400   -32409   -32420   -32433   -32452   -32470 
  -32482   -32494   -32505   -32517   -32543   -32587   -32630   -32653 
  -32659   -32661   -32665   -32674   -32678   -32667   -32648   -32633 
  -32629   -32640   -32664   -32688   -32706   -32722   -32741   -32767 
  -32815   -32872   -32907   -32923   -32934   -32948   -32961   -32968 
  -32975   -32983   -32977   -32953   -32922   -32900   -32880   -32848 
  -32811   -32788   -32772   -32765   -32772   -32779   -32768   -32736 
  -32694   -32661   -32645   -32644   -32645   -32644   -32626   -32584 
  -32529   -32478   -32431   -32383   -32333   -32275   -32216   -32170 
  -32148   -32144   -32146   -32148   -32151   -32161   -32166   -32165 
  -32158   -32146   -32131   -32120   -32121   -32138   -32159   -32167 
  -32161   -32155   -32154   -32157   -32163   -32171   -32167   -32142 
  -32108   -32081   -32054   -32027   -32009   -32000   -31993   -31993 
  -31997   -32007   -32020   -32030   -32038   -32040   -32036   -32028 
  -32023   -32027   -32032   -32026   -32017   -32017   -32024   -32032 
  -32040   -32053   -32069   -32085   -32104   -32134   -32170   -32194 
  -32204   -32202   -32196   -32189   -32190   -32200   -32211   -32212 
  -32204   -32202   -32215   -32231   -32256   -32286   -32301   -32304 
  -32316   -32347   -32391   -32441   -32485   -32514   -32528   -32533 
  -32537   -32539   -32528   -32510   -32493   -32479   -32474   -32471 
  -32467   -32460   -32451   -32431   -32410   -32406   -32420   -32436 
  -32433   -32410   -32390   -32382   -32378   -32383   -32395   -32400 
  -32395   -32390   -32394   -32406   -32414   -32417   -32431   -32459 
  -32506   -32564   -32603   -32616   -32618   -32625   -32647   -32668 
  -32672   -32649   -32611   -32589   -32590   -32602   -32617   -32626 
  -32625   -32621   -32624   -32643   -32671   -32679   -32653   -32606 
  -32553   -32502   -32456   -32421   -32389   -32364   -32362   -32373 
  -32389   -32401   -32398   -32378   -32352   -32331   -32320   -32310 
  -32294   -32275   -32263   -32256   -32258   -32269   -32283   -32309 
  -32350   -32397   -32449   -32510   -32566   -32607   -32647   -32683 
  -32713   -32745   -32783   -32815   -32838   -32859   -32876   -32898 
  -32922   -32934   -32937   -32937   -32930   -32917   -32895   -32860 
  -32817   -32783   -32764   -32748   -32725   -32692   -32648   -32598 
  -32544   -32493   -32447   -32401   -32358   -32328   -32305   -32286 
  -32265   -32243   -32224   -32213   -32206   -32205   -32216   -32238 
  -32248   -32248   -32251   -32262   -32279   -32292   -32285   -32269 
  -32267   -32287   -32323   -32362   -32395   -32421   -32452   -32493 
  -32529   -32548   -32552   -32552   -32562   -32589   -32625   -32655 
  -32657   -32636   -32607   -32583   -32557   -32518   -32464   -32402 
  -32351   -32325   -32316   -32302   -32273   -32228   -32185   -32163 
  -32163   -32174   -32185   -32189   -32185   -32179   -32188   -32208 
  -32236   -32273   -32314   -32350   -32377   -32406   -32448   -32501 
  -32553   -32589   -32603   -32609   -32616   -32632   -32644   -32649 
  -32651   -32653   -32665   -32698   -32744   -32772   -32779   -32792 
  -32818   -32848   -32875   -32895   -32913   -32927   -32927   -32917 
  -32904   -32895   -32892   -32899   -32907   -32910   -32908   -32910 
  -32917   -32926   -32931   -32926   -32918   -32922   -32937   -32953 
  -32961   -32961   -32958   -32961   -32975   -33003   -33034   -33050 
  -33048   -33039   -33033   -33034   -33041   -33037   -33027   -33035 
  -33053   -33060   -33052   -33034   -33010   -32979   -32948   -32926 
  -32907   -32876   -32834   -32799   -32780   -32776   -32780   -32784 
  -32783   -32776   -32773   -32771   -32757   -32722   -32667   -32605 
  -32556   -32524   -32498   -32468   -32440   -32427   -32431   -32447 
  -32455   -32445   -32414   -32375   -32341   -32328   -32339   -32355 
  -32355   -32335   -32304   -32278   -32275   -32292   -32300   -32286 
  -32263   -32242   -32224   -32215   -32209   -32197   -32158   -32089 
  -32003   -31941   -31930   -31943   -31958   -31973   -31986   -31989 
  -32003   -32030   -32055   -32065   -32059   -32038   -32016   -32011 
  -32020   -32031   -32022   -31990   -31958   -31943   -31954   -31985 
  -32020   -32047   -32057   -32063   -32085   -32125   -32178   -32228 
  -32260   -32263   -32243   -32219   -32206   -32208   -32202   -32177 
  -32148   -32135   -32131   -32128   -32124   -32128   -32135   -32128 
  -32104   -32085   -32080   -32084   -32104   -32130   -32146   -32155 
  -32158   -32150   -32148   -32161   -32170   -32174   -32185   -32209 
  -32252   -32310   -32364   -32398   -32406   -32394   -32382   -32394 
  -32428   -32467   -32498   -32524   -32551   -32587   -32634   -32679 
  -32715   -32757   -32811   -32872   -32925   -32952   -32949   -32938 
  -32935   -32934   -32925   -32903   -32883   -32887   -32914   -32945 
  -32958   -32946   -32910   -32880   -32886   -32918   -32945   -32961 
  -32964   -32954   -32949   -32954   -32962   -32962   -32954   -32948 
  -32957   -32991   -33035   -33073   -33087   -33068   -33042   -33033 
  -33041   -33056   -33065   -33060   -33031   -33000   -32985   -32984 
  -32983   -32965   -32937   -32910   -32884   -32871   -32876   -32890 
  -32888   -32868   -32840   -32803   -32764   -32722   -32675   -32622 
  -32572   -32526   -32489   -32463   -32441   -32417   -32390   -32370 
  -32355   -32351   -32356   -32358   -32343   -32325   -32317   -32316 
  -32314   -32308   -32300   -32296   -32292   -32270   -32231   -32198 
  -32189   -32201   -32223   -32242   -32254   -32266   -32290   -32319 
  -32346   -32371   -32386   -32393   -32405   -32425   -32452   -32487 
  -32518   -32537   -32549   -32574   -32618   -32670   -32718   -32757 
  -32779   -32787   -32791   -32795   -32792   -32776   -32742   -32702 
  -32676   -32667   -32663   -32655   -32640   -32621   -32609   -32609 
  -32614   -32614   -32599   -32583   -32571   -32564   -32564   -32567 
  -32571   -32570   -32575   -32593   -32609   -32611   -32603   -32591 
  -32570   -32551   -32548   -32552   -32544   -32520   -32486   -32454 
  -32431   -32422   -32416   -32398   -32381   -32375   -32371   -32359 
  -32336   -32305   -32275   -32254   -32244   -32246   -32243   -32236 
  -32228   -32221   -32215   -32202   -32175   -32134   -32088   -32055 
  -32044   -32047   -32051   -32046   -32040   -32050   -32074   -32100 
  -32119   -32127   -32128   -32136   -32159   -32196   -32238   -32262 
  -32265   -32267   -32283   -32306   -32324   -32336   -32351   -32371 
  -32400   -32422   -32433   -32435   -32427   -32409   -32389   -32363 
  -32333   -32304   -32279   -32259   -32242   -32229   -32221   -32220 
  -32225   -32228   -32219   -32194   -32163   -32136   -32116   -32094 
  -32071   -32047   -32020   -32001   -31996   -31990   -31972   -31947 
  -31928   -31926   -31941   -31958   -31962   -31951   -31945   -31958 
  -31989   -32022   -32042   -32039   -32028   -32034   -32066   -32108 
  -32144   -32165   -32175   -32202   -32247   -32283   -32301   -32305 
  -32304   -32321   -32356   -32385   -32395   -32398   -32401   -32410 
  -32431   -32452   -32472   -32501   -32544   -32595   -32653   -32714 
  -32763   -32795   -32822   -32848   -32875   -32896   -32914   -32937 
  -32958   -32964   -32960   -32950   -32933   -32913   -32894   -32876 
  -32864   -32857   -32849   -32846   -32846   -32848   -32857   -32865 
  -32867   -32861   -32848   -32830   -32806   -32775   -32742   -32718 
  -32703   -32703   -32717   -32730   -32738   -32742   -32742   -32742 
  -32748   -32752   -32740   -32714   -32690   -32678   -32674   -32672 
  -32664   -32651   -32636   -32626   -32621   -32611   -32602   -32594 
  -32586   -32579   -32570   -32555   -32541   -32530   -32528   -32535 
  -32549   -32563   -32574   -32586   -32593   -32582   -32556   -32535 
  -32529   -32526   -32522   -32524   -32530   -32532   -32529   -32520 
  -32499   -32470   -32439   -32413   -32397   -32389   -32383   -32379 
  -32381   -32382   -32382   -32381   -32382   -32389   -32395   -32397 
  -32393   -32391   -32394   -32393   -32389   -32389   -32391   -32400 
  -32416   -32436   -32456   -32471   -32483   -32494   -32510   -32540 
  -32582   -32626   -32668   -32697   -32703   -32694   -32674   -32656 
  -32651   -32651   -32647   -32640   -32621   -32591   -32567   -32548 
  -32514   -32467   -32410   -32360   -32329   -32319   -32316   -32319 
  -32319   -32317   -32321   -32332   -32344   -32354   -32354   -32344 
  -32337   -32343   -32359   -32375   -32387   -32389   -32381   -32377 
  -32381   -32391   -32406   -32416   -32418   -32422   -32439   -32462 
  -32486   -32505   -32513   -32512   -32502   -32489   -32475   -32460 
  -32447   -32441   -32444   -32451   -32459   -32460   -32459   -32464 
  -32472   -32483   -32499   -32514   -32526   -32537   -32547   -32553 
  -32562   -32566   -32563   -32564   -32578   -32602   -32633   -32663 
  -32684   -32709   -32738   -32767   -32798   -32827   -32854   -32883 
  -32918   -32952   -32983   -33016   -33049   -33075   -33106   -33142 
  -33172   -33191   -33199   -33193   -33187   -33174   -33146   -33111 
  -33073   -33037   -33014   -32999   -32977   -32944   -32902   -32859 
  -32819   -32792   -32765   -32730   -32697   -32672   -32657   -32648 
  -32633   -32602   -32562   -32520   -32485   -32458   -32432   -32395 
  -32350   -32314   -32292   -32271   -32244   -32206   -32161   -32117 
  -32082   -32058   -32035   -32008   -31986   -31974   -31968   -31970 
  -31981   -32000   -32032   -32073   -32116   -32162   -32201   -32233 
  -32266   -32298   -32313   -32306   -32290   -32283   -32286   -32292 
  -32298   -32305   -32309   -32312   -32309   -32297   -32283   -32277 
  -32279   -32286   -32296   -32309   -32323   -32340   -32366   -32390 
  -32404   -32412   -32414   -32412   -32420   -32447   -32483   -32520 
  -32548   -32567   -32583   -32591   -32587   -32575   -32556   -32537 
  -32526   -32525   -32517   -32501   -32476   -32441   -32398   -32356 
  -32319   -32292   -32281   -32277   -32282   -32302   -32333   -32368 
  -32397   -32410   -32421   -32433   -32449   -32475   -32512   -32552 
  -32598   -32644   -32676   -32697   -32707   -32714   -32715   -32718 
  -32726   -32729   -32728   -32725   -32715   -32701   -32680   -32655 
  -32622   -32590   -32559   -32541   -32540   -32552   -32571   -32595 
  -32618   -32645   -32683   -32719   -32744   -32765   -32787   -32813 
  -32845   -32873   -32892   -32899   -32899   -32903   -32913   -32918 
  -32913   -32899   -32891   -32890   -32890   -32886   -32872   -32850 
  -32834   -32830   -32833   -32827   -32809   -32790   -32775   -32761 
  -32751   -32748   -32749   -32753   -32748   -32732   -32715   -32701 
  -32697   -32707   -32718   -32715   -32701   -32684   -32679   -32678 
  -32668   -32648   -32610   -32567   -32537   -32521   -32516   -32516 
  -32508   -32499   -32506   -32518   -32522   -32505   -32471   -32437 
  -32413   -32390   -32364   -32333   -32300   -32262   -32232   -32216 
  -32209   -32202   -32197   -32197   -32205   -32223   -32250   -32275 
  -32289   -32289   -32275   -32258   -32244   -32235   -32233   -32240 
  -32252   -32273   -32296   -32316   -32337   -32359   -32370   -32374 
  -32378   -32382   -32389   -32398   -32401   -32391   -32368   -32343 
  -32323   -32309   -32294   -32277   -32260   -32256   -32266   -32289 
  -32314   -32339   -32368   -32402   -32431   -32458   -32486   -32513 
  -32539   -32567   -32594   -32611   -32622   -32630   -32643   -32667 
  -32703   -32738   -32757   -32756   -32744   -32730   -32715   -32705 
  -32692   -32674   -32651   -32621   -32593   -32568   -32540   -32512 
  -32486   -32466   -32452   -32449   -32452   -32449   -32440   -32428 
  -32417   -32412   -32410   -32410   -32412   -32414   -32427   -32452 
  -32481   -32501   -32512   -32513   -32509   -32506   -32506   -32508 
  -32518   -32530   -32536   -32535   -32526   -32518   -32517   -32517 
  -32520   -32533   -32551   -32564   -32578   -32583   -32575   -32560 
  -32549   -32545   -32543   -32541   -32548   -32570   -32603   -32637 
  -32661   -32679   -32701   -32730   -32761   -32798   -32833   -32846 
  -32842   -32837   -32830   -32819   -32810   -32803   -32798   -32792 
  -32791   -32788   -32784   -32779   -32763   -32742   -32722   -32706 
  -32695   -32690   -32687   -32683   -32675   -32672   -32665   -32641 
  -32610   -32583   -32562   -32547   -32540   -32536   -32522   -32502 
  -32478   -32447   -32412   -32378   -32341   -32310   -32285   -32260 
  -32239   -32216   -32194   -32181   -32173   -32174   -32185   -32196 
  -32200   -32197   -32190   -32181   -32170   -32158   -32147   -32135 
  -32130   -32144   -32171   -32200   -32235   -32273   -32308   -32347 
  -32398   -32460   -32528   -32593   -32644   -32684   -32722   -32756 
  -32788   -32817   -32832   -32827   -32822   -32821   -32829   -32841 
  -32844   -32829   -32802   -32771   -32745   -32726   -32706   -32676 
  -32640   -32605   -32576   -32557   -32548   -32540   -32530   -32522 
  -32510   -32501   -32495   -32493   -32491   -32495   -32502   -32508 
  -32513   -32516   -32516   -32508   -32497   -32490   -32494   -32506 
  -32522   -32536   -32539   -32540   -32543   -32544   -32544   -32543 
  -32544   -32548   -32549   -32545   -32540   -32535   -32525   -32510 
  -32490   -32462   -32422   -32381   -32348   -32329   -32320   -32308 
  -32292   -32278   -32271   -32277   -32296   -32319   -32340   -32366 
  -32400   -32437   -32471   -32497   -32516   -32535   -32556   -32579 
  -32598   -32610   -32610   -32602   -32595   -32593   -32589   -32586 
  -32578   -32563   -32552   -32551   -32544   -32537   -32530   -32517 
  -32499   -32474   -32445   -32427   -32413   -32395   -32377   -32360 
  -32344   -32327   -32302   -32270   -32233   -32197   -32166   -32146 
  -32139   -32132   -32116   -32098   -32092   -32096   -32116   -32148 
  -32188   -32225   -32260   -32294   -32325   -32358   -32395   -32429 
  -32463   -32503   -32545   -32586   -32629   -32671   -32702   -32722 
  -32736   -32738   -32737   -32740   -32744   -32746   -32748   -32740 
  -32725   -32710   -32699   -32698   -32709   -32725   -32738   -32753 
  -32767   -32783   -32799   -32803   -32792   -32769   -32744   -32726 
  -32721   -32714   -32701   -32672   -32637   -32609   -32593   -32583 
  -32572   -32555   -32532   -32501   -32471   -32449   -32437   -32433 
  -32432   -32428   -32429   -32437   -32452   -32474   -32505   -32536 
  -32563   -32589   -32614   -32643   -32671   -32694   -32714   -32733 
  -32751   -32769   -32786   -32794   -32792   -32783   -32769   -32757 
  -32742   -32732   -32725   -32721   -32710   -32690   -32661   -32632 
  -32605   -32575   -32543   -32518   -32505   -32499   -32509   -32530 
  -32549   -32568   -32584   -32594   -32599   -32614   -32630   -32641 
  -32651   -32655   -32645   -32630   -32618   -32611   -32597   -32568 
