Origin Time       2025/01/13 21:19:00
Lat.              31.8
Long.             131.6
Depth. (km)       30
Mag.              6.9
Station Code      FKOH03
Station Lat.      33.5608
Station Long.     130.5499
Station Height(m) 85
Record Time       2025/01/13 21:20:08
Sampling Freq(Hz) 100Hz
Duration Time(s)  147
Dir.              2
Scale Factor      2942(gal)/8224139
Max. Acc. (gal)   1.086
Last Correction   2025/01/13 21:20:10
Memo.             
[...]
  -47644   -47618   -47590   -47560   -47530   -47495   -47449   -47395 
  -47341   -47297   -47260   -47231   -47217   -47218   -47229   -47241 
  -47239   -47210   -47166   -47123   -47078   -47028   -46974   -46915 
  -46855   -46804   -46764   -46730   -46703   -46691   -46685   -46673 
  -46650   -46615   -46568   -46519   -46479   -46437   -46388   -46334 
  -46288   -46260   -46240   -46222   -46202   -46159   -46095   -46026 
  -45956   -45893   -45832   -45760   -45685   -45612   -45538   -45463 
  -45384   -45291   -45192   -45104   -45033   -44975   -44933   -44899 
  -44871   -44857   -44860   -44875   -44894   -44915   -44940   -44967 
  -45009   -45065   -45129   -45196   -45258   -45299   -45316   -45319 
  -45308   -45293   -45268   -45231   -45202   -45187   -45189   -45208 
  -45237   -45277   -45333   -45399   -45478   -45577   -45688   -45804 
  -45924   -46035   -46136   -46225   -46294   -46338   -46367   -46391 
  -46408   -46421   -46423   -46423   -46427   -46429   -46425   -46418 
  -46407   -46396   -46402   -46421   -46442   -46460   -46476   -46483 
  -46481   -46480   -46485   -46494   -46504   -46515   -46527   -46537 
  -46539   -46538   -46523   -46496   -46457   -46407   -46357   -46315 
  -46276   -46232   -46187   -46148   -46111   -46076   -46045   -46012 
  -45974   -45937   -45908   -45887   -45871   -45859   -45860   -45874 
  -45890   -45901   -45909   -45914   -45918   -45931   -45944   -45948 
  -45947   -45949   -45968   -46001   -46037   -46086   -46152   -46233 
  -46322   -46414   -46512   -46615   -46718   -46820   -46919   -47009 
  -47094   -47175   -47254   -47326   -47393   -47448   -47487   -47501 
  -47483   -47440   -47371   -47281   -47179   -47073   -46974   -46890 
  -46815   -46747   -46691   -46646   -46608   -46577   -46552   -46526 
  -46500   -46479   -46453   -46421   -46377   -46321   -46259   -46188 
  -46110   -46017   -45908   -45798   -45709   -45640   -45589   -45557 
  -45540   -45538   -45546   -45569   -45608   -45662   -45727   -45801 
  -45891   -45991   -46102   -46228   -46363   -46510   -46674   -46853 
  -47039   -47225   -47391   -47538   -47673   -47794   -47888   -47954 
  -47991   -47995   -47985   -47976   -47962   -47946   -47927   -47898 
  -47853   -47794   -47718   -47625   -47521   -47414   -47306   -47197 
  -47088   -46978   -46862   -46745   -46631   -46527   -46427   -46334 
  -46253   -46195   -46161   -46151   -46157   -46174   -46199   -46238 
  -46296   -46360   -46421   -46479   -46526   -46558   -46587   -46623 
  -46666   -46718   -46770   -46808   -46818   -46801   -46762   -46704 
  -46629   -46550   -46476   -46413   -46368   -46340   -46322   -46323 
  -46342   -46373   -46417   -46471   -46518   -46546   -46554   -46541 
  -46510   -46467   -46408   -46337   -46263   -46180   -46083   -45976 
  -45863   -45748   -45636   -45530   -45430   -45337   -45256   -45195 
  -45164   -45156   -45168   -45204   -45269   -45358   -45472   -45598 
  -45728   -45851   -45968   -46084   -46203   -46319   -46441   -46565 
  -46673   -46759   -46824   -46878   -46921   -46958   -46988   -47020 
  -47055   -47081   -47104   -47136   -47182   -47233   -47290   -47351 
  -47412   -47470   -47536   -47617   -47717   -47822   -47926   -48024 
  -48114   -48192   -48263   -48323   -48375   -48442   -48512   -48581 
  -48651   -48717   -48778   -48843   -48906   -48957   -48982   -48983 
  -48972   -48945   -48903   -48856   -48802   -48741   -48682   -48616 
  -48546   -48466   -48363   -48247   -48128   -48001   -47869   -47733 
  -47591   -47443   -47289   -47129   -46967   -46804   -46642   -46484 
  -46340   -46202   -46067   -45941   -45828   -45736   -45667   -45611 
  -45566   -45523   -45474   -45430   -45399   -45377   -45362   -45354 
  -45351   -45351   -45349   -45333   -45299   -45249   -45183   -45115 
  -45057   -44994   -44925   -44852   -44779   -44713   -44658   -44618 
  -44599   -44595   -44612   -44655   -44712   -44776   -44838   -44886 
  -44918   -44940   -44957   -44973   -44983   -44995   -45011   -45041 
  -45092   -45168   -45268   -45400   -45555   -45717   -45873   -46017 
  -46145   -46256   -46352   -46434   -46506   -46570   -46629   -46678 
  -46722   -46764   -46805   -46838   -46859   -46874   -46881   -46878 
  -46873   -46865   -46851   -46839   -46834   -46839   -46858   -46882 
  -46909   -46943   -46988   -47046   -47120   -47217   -47337   -47468 
  -47594   -47707   -47810   -47902   -47974   -48031   -48081   -48122 
  -48151   -48176   -48201   -48228   -48261   -48296   -48321   -48331 
  -48339   -48347   -48354   -48361   -48371   -48379   -48381   -48378 
  -48375   -48369   -48351   -48319   -48280   -48240   -48201   -48159 
  -48109   -48042   -47957   -47864   -47772   -47676   -47580   -47487 
  -47393   -47294   -47191   -47085   -46973   -46861   -46755   -46653 
  -46548   -46448   -46352   -46256   -46168   -46086   -45998   -45913 
  -45832   -45752   -45670   -45590   -45517   -45462   -45435   -45435 
  -45450   -45466   -45484   -45508   -45531   -45554   -45578   -45592 
  -45586   -45566   -45536   -45499   -45465   -45436   -45415   -45405 
  -45418   -45451   -45495   -45547   -45609   -45682   -45762   -45847 
  -45939   -46033   -46125   -46211   -46286   -46346   -46402   -46457 
  -46514   -46565   -46604   -46646   -46703   -46774   -46854   -46936 
  -47007   -47059   -47098   -47129   -47158   -47173   -47171   -47159 
  -47140   -47120   -47098   -47073   -47047   -47023   -46998   -46975 
  -46962   -46955   -46957   -46967   -46978   -46992   -47007   -47020 
  -47038   -47065   -47102   -47148   -47201   -47258   -47316   -47375 
  -47429   -47464   -47482   -47487   -47475   -47447   -47406   -47355 
  -47297   -47244   -47194   -47146   -47098   -47048   -46996   -46947 
  -46899   -46835   -46759   -46673   -46580   -46495   -46426   -46373 
  -46341   -46329   -46332   -46352   -46386   -46426   -46465   -46495 
  -46512   -46531   -46558   -46593   -46641   -46695   -46750   -46796 
  -46812   -46797   -46761   -46708   -46649   -46597   -46561   -46541 
  -46537   -46539   -46545   -46552   -46554   -46548   -46533   -46525 
  -46523   -46530   -46542   -46560   -46572   -46572   -46552   -46516 
  -46465   -46395   -46305   -46209   -46120   -46036   -45958   -45885 
  -45816   -45736   -45639   -45522   -45384   -45243   -45114   -45004 
  -44917   -44853   -44817   -44807   -44817   -44840   -44872   -44915 
  -44969   -45033   -45096   -45154   -45211   -45265   -45310   -45349 
  -45385   -45418   -45449   -45484   -45523   -45561   -45592   -45624 
  -45658   -45692   -45717   -45732   -45739   -45728   -45706   -45692 
  -45692   -45708   -45747   -45802   -45875   -45966   -46071   -46182 
  -46296   -46407   -46514   -46618   -46718   -46812   -46905   -46993 
  -47073   -47142   -47194   -47236   -47271   -47298   -47321   -47343 
  -47367   -47399   -47444   -47495   -47537   -47560   -47555   -47524 
  -47487   -47457   -47426   -47397   -47371   -47345   -47317   -47287 
  -47258   -47224   -47193   -47160   -47119   -47075   -47034   -46985 
  -46924   -46863   -46801   -46734   -46670   -46608   -46545   -46480 
  -46408   -46337   -46276   -46228   -46180   -46138   -46097   -46047 
  -45989   -45936   -45894   -45856   -45821   -45794   -45781   -45778 
  -45794   -45828   -45879   -45944   -46014   -46087   -46153   -46210 
  -46263   -46315   -46379   -46450   -46543   -46656   -46766   -46872 
  -46973   -47061   -47124   -47163   -47179   -47178   -47155   -47102 
  -47013   -46899   -46776   -46653   -46530   -46415   -46306   -46201 
  -46109   -46022   -45933   -45848   -45769   -45690   -45611   -45532 
  -45461   -45400   -45350   -45315   -45301   -45303   -45310   -45320 
  -45330   -45341   -45349   -45350   -45347   -45338   -45319   -45289 
  -45256   -45226   -45203   -45188   -45191   -45206   -45235   -45277 
  -45315   -45345   -45369   -45396   -45427   -45469   -45528   -45600 
  -45673   -45747   -45823   -45900   -45974   -46037   -46090   -46138 
  -46187   -46229   -46263   -46286   -46298   -46302   -46294   -46271 
  -46233   -46184   -46132   -46079   -46026   -45974   -45927   -45900 
  -45895   -45910   -45945   -45997   -46057   -46128   -46215   -46310 
  -46400   -46480   -46554   -46626   -46700   -46782   -46869   -46959 
  -47050   -47125   -47175   -47205   -47225   -47245   -47268   -47298 
  -47328   -47340   -47331   -47304   -47264   -47220   -47178   -47142 
  -47108   -47075   -47055   -47040   -47028   -47029   -47046   -47075 
  -47113   -47143   -47167   -47189   -47212   -47248   -47293   -47337 
  -47376   -47402   -47403   -47386   -47353   -47306   -47241   -47160 
  -47071   -46982   -46894   -46809   -46724   -46637   -46548   -46457 
  -46376   -46318   -46284   -46275   -46279   -46290   -46303   -46314 
  -46321   -46333   -46349   -46369   -46403   -46452   -46502   -46553 
  -46604   -46657   -46711   -46768   -46828   -46882   -46915   -46932 
  -46954   -46978   -47005   -47034   -47063   -47093   -47119   -47136 
  -47142   -47128   -47093   -47052   -47017   -46990   -46981   -46996 
  -47024   -47061   -47108   -47154   -47194   -47229   -47254   -47271 
  -47290   -47309   -47325   -47343   -47367   -47399   -47440   -47490 
  -47553   -47628   -47704   -47779   -47845   -47900   -47950   -47996 
  -48028   -48055   -48084   -48105   -48112   -48105   -48089   -48060 
  -48022   -47980   -47927   -47857   -47769   -47669   -47564   -47460 
  -47360   -47266   -47174   -47089   -47002   -46909   -46815   -46722 
  -46623   -46519   -46414   -46302   -46174   -46035   -45895   -45762 
  -45639   -45524   -45418   -45314   -45211   -45115   -45025   -44933 
  -44847   -44768   -44697   -44641   -44610   -44608   -44631   -44664 
  -44703   -44751   -44798   -44842   -44888   -44942   -45003   -45076 
  -45165   -45257   -45349   -45443   -45536   -45620   -45690   -45750 
  -45802   -45859   -45924   -45985   -46043   -46103   -46163   -46219 
  -46280   -46340   -46394   -46446   -46498   -46543   -46584   -46616 
  -46638   -46638   -46626   -46619   -46612   -46599   -46593   -46595 
  -46599   -46611   -46633   -46658   -46687   -46722   -46764   -46815 
  -46863   -46899   -46911   -46908   -46896   -46880   -46861   -46839 
  -46819   -46793   -46750   -46687   -46603   -46504   -46398   -46282 
  -46149   -46003   -45850   -45696   -45547   -45415   -45303   -45215 
  -45148   -45091   -45046   -45017   -45010   -45031   -45073   -45134 
  -45212   -45310   -45431   -45567   -45713   -45859   -46006   -46151 
  -46290   -46415   -46526   -46627   -46720   -46812   -46909   -47001 
  -47082   -47148   -47196   -47229   -47255   -47275   -47293   -47306 
  -47317   -47335   -47362   -47393   -47428   -47468   -47502   -47521 
  -47530   -47538   -47549   -47575   -47615   -47661   -47713   -47767 
  -47807   -47834   -47856   -47872   -47887   -47896   -47906   -47912 
  -47911   -47906   -47902   -47885   -47853   -47802   -47722   -47626 
  -47532   -47440   -47352   -47272   -47200   -47136   -47078   -47025 
  -46980   -46932   -46881   -46820   -46758   -46704   -46658   -46620 
  -46596   -46584   -46580   -46580   -46576   -46564   -46539   -46500 
  -46448   -46381   -46307   -46232   -46168   -46125   -46105   -46102 
  -46113   -46136   -46175   -46226   -46283   -46348   -46422   -46492 
  -46553   -46614   -46668   -46710   -46747   -46776   -46796   -46819 
  -46839   -46853   -46859   -46861   -46866   -46873   -46878   -46892 
  -46916   -46947   -46986   -47024   -47054   -47071   -47077   -47067 
  -47051   -47034   -47015   -46985   -46946   -46894   -46834   -46768 
  -46693   -46606   -46500   -46390   -46271   -46137   -46002   -45874 
  -45752   -45642   -45542   -45447   -45358   -45272   -45185   -45102 
  -45021   -44948   -44879   -44811   -44749   -44702   -44668   -44641 
  -44622   -44613   -44613   -44617   -44633   -44655   -44682   -44721 
  -44770   -44817   -44857   -44894   -44928   -44959   -44986   -45010 
  -45030   -45045   -45069   -45106   -45148   -45204   -45285   -45389 
  -45505   -45631   -45766   -45912   -46064   -46219   -46381   -46548 
  -46722   -46900   -47083   -47271   -47449   -47618   -47777   -47914 
  -48022   -48104   -48161   -48195   -48213   -48224   -48224   -48215 
  -48201   -48184   -48159   -48132   -48111   -48093   -48085   -48096 
  -48127   -48173   -48232   -48301   -48374   -48443   -48487   -48500 
  -48492   -48465   -48421   -48362   -48285   -48195   -48099   -47996 
  -47889   -47777   -47655   -47530   -47406   -47285   -47171   -47065 
  -46961   -46866   -46785   -46723   -46680   -46650   -46637   -46630 
  -46623   -46622   -46626   -46633   -46649   -46677   -46714   -46754 
  -46797   -46839   -46876   -46907   -46934   -46954   -46969   -46981 
  -46988   -46981   -46961   -46926   -46884   -46847   -46816   -46789 
  -46774   -46765   -46758   -46755   -46750   -46743   -46741   -46741 
  -46742   -46742   -46741   -46737   -46731   -46726   -46714   -46696 
  -46680   -46665   -46647   -46630   -46608   -46573   -46525   -46462 
  -46400   -46338   -46271   -46202   -46129   -46056   -45990   -45932 
  -45878   -45831   -45796   -45782   -45782   -45793   -45819   -45846 
  -45860   -45859   -45846   -45817   -45781   -45742   -45697   -45647 
  -45594   -45530   -45450   -45358   -45252   -45125   -44983   -44828 
  -44666   -44505   -44348   -44196   -44049   -43915   -43799   -43699 
  -43615   -43553   -43511   -43484   -43475   -43484   -43519   -43578 
  -43649   -43730   -43821   -43914   -44000   -44082   -44166   -44244 
  -44312   -44379   -44440   -44491   -44536   -44575   -44609   -44633 
  -44664   -44701   -44733   -44760   -44790   -44826   -44872   -44930 
  -44995   -45065   -45137   -45216   -45301   -45388   -45474   -45567 
  -45666   -45775   -45901   -46032   -46167   -46310   -46445   -46568 
  -46684   -46793   -46892   -46980   -47058   -47129   -47200   -47271 
  -47337   -47401   -47466   -47534   -47599   -47657   -47709   -47757 
  -47806   -47856   -47908   -47970   -48042   -48122   -48208   -48294 
  -48373   -48436   -48485   -48517   -48535   -48540   -48539   -48529 
  -48517   -48500   -48473   -48439   -48398   -48350   -48285   -48208 
  -48118   -48015   -47902   -47788   -47683   -47590   -47510   -47444 
  -47393   -47353   -47318   -47289   -47270   -47258   -47244   -47236 
  -47229   -47216   -47197   -47171   -47135   -47094   -47051   -47012 
  -46980   -46958   -46939   -46916   -46894   -46876   -46854   -46835 
  -46822   -46813   -46808   -46809   -46819   -46834   -46853   -46876 
  -46903   -46927   -46942   -46953   -46965   -46975   -46982   -46984 
  -46986   -46988   -46984   -46978   -46978   -46988   -46998   -47012 
  -47035   -47059   -47083   -47120   -47159   -47194   -47235   -47274 
  -47305   -47328   -47347   -47358   -47356   -47345   -47328   -47293 
  -47240   -47173   -47088   -46990   -46882   -46769   -46650   -46525 
  -46398   -46279   -46167   -46067   -45981   -45905   -45837   -45775 
  -45721   -45677   -45640   -45615   -45593   -45571   -45553   -45528 
  -45500   -45476   -45450   -45420   -45388   -45343   -45287   -45216 
  -45135   -45042   -44941   -44845   -44753   -44672   -44606   -44555 
  -44518   -44497   -44494   -44508   -44540   -44587   -44652   -44733 
  -44832   -44942   -45054   -45177   -45318   -45473   -45638   -45812 
  -45983   -46148   -46309   -46468   -46620   -46766   -46900   -47012 
  -47101   -47175   -47240   -47294   -47337   -47379   -47418   -47453 
  -47487   -47520   -47545   -47568   -47583   -47587   -47580   -47572 
  -47565   -47557   -47552   -47555   -47561   -47574   -47590   -47610 
  -47638   -47667   -47694   -47725   -47756   -47788   -47822   -47860 
  -47899   -47941   -47980   -48016   -48057   -48100   -48147   -48199 
  -48249   -48282   -48300   -48300   -48281   -48244   -48196   -48134 
  -48058   -47972   -47876   -47775   -47673   -47579   -47495   -47420 
  -47352   -47299   -47252   -47208   -47167   -47127   -47085   -47044 
  -47004   -46958   -46909   -46855   -46792   -46724   -46661   -46596 
  -46522   -46438   -46353   -46267   -46179   -46094   -46012   -45928 
  -45841   -45758   -45675   -45592   -45512   -45431   -45343   -45253 
  -45156   -45052   -44952   -44856   -44760   -44671   -44591   -44514 
  -44437   -44366   -44304   -44250   -44203   -44166   -44147   -44147 
  -44170   -44217   -44280   -44352   -44436   -44524   -44610   -44702 
  -44803   -44906   -45010   -45114   -45215   -45314   -45405   -45488 
  -45557   -45612   -45659   -45701   -45738   -45778   -45828   -45879 
  -45935   -46001   -46074   -46151   -46241   -46352   -46477   -46611 
  -46753   -46899   -47046   -47190   -47326   -47452   -47557   -47642 
  -47717   -47781   -47831   -47869   -47895   -47906   -47896   -47871 
  -47825   -47757   -47671   -47569   -47448   -47318   -47185   -47039 
  -46886   -46738   -46600   -46473   -46356   -46255   -46168   -46095 
  -46043   -46008   -45986   -45986   -46002   -46033   -46084   -46148 
  -46215   -46292   -46377   -46472   -46584   -46700   -46812   -46930 
  -47043   -47139   -47225   -47301   -47360   -47405   -47439   -47461 
  -47474   -47478   -47480   -47484   -47490   -47499   -47517   -47541 
  -47572   -47603   -47628   -47645   -47655   -47661   -47667   -47675 
  -47683   -47691   -47692   -47686   -47677   -47663   -47634   -47594 
  -47544   -47484   -47422   -47355   -47285   -47213   -47139   -47062 
  -46980   -46890   -46796   -46697   -46596   -46485   -46369   -46259 
  -46160   -46075   -46003   -45943   -45893   -45850   -45816   -45798 
  -45793   -45806   -45832   -45858   -45885   -45924   -45968   -46010 
  -46049   -46086   -46120   -46147   -46168   -46172   -46161   -46141 
  -46098   -46039   -45971   -45894   -45810   -45731   -45655   -45589 
  -45530   -45480   -45443   -45423   -45412   -45407   -45414   -45428 
  -45454   -45496   -45549   -45611   -45682   -45763   -45839   -45908 
  -45970   -46022   -46072   -46125   -46174   -46215   -46255   -46280 
  -46286   -46280   -46265   -46234   -46201   -46168   -46132   -46090 
  -46047   -46003   -45958   -45913   -45871   -45832   -45801   -45783 
  -45775   -45777   -45787   -45805   -45828   -45858   -45893   -45940 
  -45999   -46064   -46134   -46219   -46305   -46383   -46465   -46548 
  -46620   -46691   -46762   -46830   -46893   -46950   -46992   -47028 
  -47063   -47094   -47128   -47167   -47209   -47251   -47290   -47326 
  -47364   -47406   -47453   -47506   -47560   -47614   -47669   -47725 
  -47775   -47811   -47838   -47858   -47864   -47864   -47861   -47850 
  -47830   -47804   -47772   -47734   -47688   -47638   -47586   -47532 
  -47486   -47443   -47398   -47366   -47340   -47309   -47275   -47243 
  -47210   -47177   -47140   -47102   -47058   -47004   -46944   -46881 
  -46808   -46730   -46650   -46569   -46485   -46400   -46318   -46240 
  -46164   -46094   -46029   -45970   -45924   -45886   -45859   -45846 
  -45843   -45852   -45874   -45902   -45940   -45993   -46055   -46128 
  -46211   -46298   -46386   -46475   -46560   -46641   -46711   -46766 
  -46811   -46843   -46855   -46857   -46854   -46842   -46823   -46799 
  -46761   -46712   -46661   -46610   -46562   -46518   -46479   -46448 
