Origin Time       2025/01/13 21:19:00
Lat.              31.8
Long.             131.6
Depth. (km)       30
Mag.              6.9
Station Code      FKOH07
Station Lat.      33.3678
Station Long.     130.6354
Station Height(m) -422
Record Time       2025/01/13 21:20:14
Sampling Freq(Hz) 100Hz
Duration Time(s)  152
Dir.              1
Scale Factor      3923(gal)/8224838
Max. Acc. (gal)   1.145
Last Correction   2025/01/13 21:20:14
Memo.             
[...]
    2165     2083     1991     1894     1802     1723     1655     1605 
    1578     1571     1586     1625     1683     1759     1846     1950 
    2065     2177     2289     2400     2498     2582     2658     2735 
    2813     2884     2951     3007     3044     3061     3072     3075 
    3068     3055     3032     3006     2995     3005     3038     3102 
    3196     3323     3472     3635     3807     3964     4099     4210 
    4297     4351     4378     4384     4364     4306     4222     4117 
    3991     3861     3731     3611     3511     3435     3383     3357 
    3375     3430     3512     3627     3773     3924     4072     4216 
    4334     4432     4509     4553     4567     4556     4518     4452 
    4361     4249     4113     3951     3757     3527     3273     3005 
    2735     2484     2262     2077     1935     1842     1800     1806 
    1848     1904     1960     2002     2027     2043     2062     2081 
    2100     2123     2154     2195     2245     2292     2330     2354 
    2365     2351     2316     2263     2192     2112     2027     1944 
    1869     1809     1775     1783     1834     1938     2093     2285 
    2509     2754     2994     3223     3429     3597     3732     3825 
    3865     3850     3784     3674     3538     3385     3231     3086 
    2957     2857     2768     2678     2594     2513     2436     2374 
    2330     2312     2322     2347     2385     2431     2481     2535 
    2589     2636     2673     2687     2678     2650     2604     2544 
    2475     2404     2342     2288     2236     2189     2158     2150 
    2168     2218     2292     2382     2485     2587     2678     2752 
    2810     2847     2862     2862     2857     2855     2859     2874 
    2889     2897     2895     2878     2836     2767     2670     2540 
    2374     2178     1954     1710     1460     1216      992      800 
     643      521      438      392      372      373      398      436 
     481      544      627      731      861     1024     1220     1432 
    1652     1881     2104     2313     2513     2695     2852     2982 
    3073     3126     3154     3169     3179     3187     3194     3202 
    3215     3229     3253     3298     3350     3410     3488     3578 
    3670     3761     3843     3910     3967     4016     4043     4054 
    4052     4039     4016     3987     3951     3902     3852     3805 
    3762     3736     3739     3762     3802     3850     3886     3905 
    3904     3877     3819     3730     3616     3478     3321     3157 
    2997     2839     2697     2577     2470     2386     2334     2293 
    2261     2238     2216     2197     2195     2203     2220     2249 
    2290     2344     2415     2488     2563     2647     2729     2806 
    2890     2975     3056     3138     3215     3272     3302     3318 
    3318     3284     3223     3144     3032     2891     2741     2582 
    2421     2268     2128     2015     1938     1892     1877     1888 
    1904     1918     1929     1927     1918     1904     1883     1852 
    1804     1749     1690     1628     1557     1482     1404     1323 
    1244     1189     1158     1147     1158     1182     1224     1289 
    1367     1451     1544     1641     1744     1849     1950     2046 
    2134     2205     2263     2317     2369     2423     2485     2558 
    2636     2721     2820     2933     3059     3200     3358     3527 
    3701     3879     4056     4233     4398     4538     4645     4711 
    4739     4735     4702     4641     4560     4461     4359     4255 
    4140     4024     3923     3825     3730     3634     3527     3400 
    3252     3087     2909     2729     2562     2405     2268     2154 
    2064     1995     1957     1937     1931     1949     1987     2037 
    2101     2181     2265     2350     2435     2516     2593     2671 
    2739     2778     2791     2783     2745     2683     2612     2538 
    2470     2417     2374     2343     2332     2338     2354     2389 
    2451     2548     2685     2855     3055     3272     3495     3715 
    3925     4116     4279     4413     4509     4563     4573     4538 
    4460     4338     4179     3989     3782     3573     3368     3169 
    2982     2810     2658     2525     2417     2339     2297     2292 
    2323     2377     2444     2528     2625     2728     2837     2947 
    3041     3125     3196     3244     3268     3268     3234     3173 
    3088     2987     2880     2774     2687     2636     2628     2666 
    2745     2868     3032     3218     3422     3639     3854     4054 
    4237     4396     4526     4617     4656     4649     4604     4529 
    4428     4310     4180     4044     3910     3780     3643     3511 
    3387     3273     3184     3113     3052     3009     2978     2955 
    2943     2932     2924     2921     2916     2907     2901     2889 
    2866     2832     2783     2722     2651     2559     2436     2281 
    2100     1910     1725     1561     1428     1324     1248     1201 
    1177     1169     1177     1196     1224     1260     1291     1314 
    1329     1332     1328     1327     1333     1348     1379     1426 
    1487     1560     1630     1699     1764     1815     1849     1863 
    1854     1833     1798     1753     1711     1671     1633     1609 
    1603     1618     1656     1718     1803     1910     2035     2168 
    2304     2438     2556     2659     2743     2798     2824     2818 
    2783     2731     2670     2597     2508     2419     2335     2261 
    2203     2170     2157     2150     2143     2131     2108     2077 
    2043     2012     1989     1977     1983     2006     2038     2077 
    2118     2151     2176     2189     2182     2158     2126     2089 
    2049     2016     2006     2010     2027     2061     2108     2165 
    2238     2326     2421     2524     2637     2754     2872     3005 
    3144     3280     3410     3531     3632     3709     3770     3821 
    3867     3920     3971     4016     4050     4078     4099     4108 
    4110     4113     4099     4059     3998     3915     3811     3701 
    3595     3496     3415     3348     3289     3240     3199     3163 
    3130     3103     3073     3033     2974     2884     2770     2628 
    2461     2288     2118     1950     1796     1664     1553     1464 
    1402     1363     1343     1347     1382     1449     1541     1664 
    1814     1973     2133     2284     2416     2532     2632     2709 
    2774     2824     2856     2874     2879     2868     2848     2826 
    2810     2802     2802     2808     2809     2801     2786     2764 
    2729     2690     2652     2619     2590     2570     2556     2551 
    2554     2565     2585     2612     2643     2660     2663     2654 
    2621     2577     2540     2511     2490     2485     2492     2501 
    2511     2515     2515     2516     2512     2494     2471     2446 
    2419     2394     2376     2363     2371     2404     2457     2529 
    2617     2706     2794     2872     2933     2976     3006     3019 
    3022     3013     2998     2982     2961     2940     2920     2895 
    2862     2817     2772     2739     2714     2704     2728     2782 
    2863     2971     3095     3225     3356     3478     3580     3659 
    3716     3758     3789     3817     3847     3883     3924     3964 
    3998     4023     4035     4027     3993     3931     3843     3732 
    3601     3461     3314     3154     2986     2814     2641     2458 
    2266     2087     1923     1786     1688     1626     1597     1599 
    1633     1701     1810     1948     2110     2293     2482     2655 
    2798     2894     2928     2906     2833     2721     2586     2444 
    2301     2172     2060     1972     1908     1871     1856     1863 
    1881     1912     1953     2003     2056     2106     2155     2204 
    2245     2272     2285     2285     2268     2239     2204     2151 
    2085     2012     1933     1849     1775     1717     1688     1703 
    1760     1853     1973     2111     2257     2407     2559     2721 
    2894     3064     3233     3389     3518     3618     3689     3726 
    3727     3696     3623     3515     3380     3221     3037     2851 
    2668     2494     2339     2201     2081     1984     1911     1857 
    1822     1807     1809     1823     1852     1884     1917     1945 
    1960     1957     1941     1915     1880     1840     1807     1783 
    1761     1752     1753     1757     1768     1790     1810     1833 
    1858     1877     1896     1923     1956     1989     2031     2084 
    2133     2178     2230     2281     2344     2425     2529     2662 
    2817     2991     3177     3365     3549     3713     3854     3973 
    4058     4104     4128     4126     4090     4027     3935     3809 
    3665     3523     3388     3277     3202     3161     3153     3177 
    3223     3283     3361     3454     3551     3657     3765     3867 
    3970     4078     4186     4280     4360     4426     4472     4496 
    4509     4507     4483     4437     4367     4264     4129     3974 
    3801     3612     3414     3211     3014     2826     2651     2489 
    2349     2238     2160     2101     2065     2047     2034     2016 
    2000     1983     1962     1945     1930     1919     1921     1937 
    1964     2003     2050     2084     2101     2097     2066     2018 
    1954     1876     1792     1706     1617     1533     1459     1395 
    1341     1309     1293     1293     1317     1356     1399     1444 
    1489     1537     1587     1630     1669     1702     1729     1753 
    1769     1773     1768     1746     1710     1665     1615     1564 
    1528     1509     1502     1512     1540     1582     1644     1726 
    1821     1926     2039     2149     2257     2369     2482     2601 
    2724     2848     2974     3094     3200     3300     3384     3454 
    3510     3543     3559     3555     3530     3480     3408     3321 
    3221     3121     3032     2951     2879     2822     2778     2747 
    2733     2736     2754     2791     2843     2905     2976     3042 
    3098     3144     3175     3192     3200     3195     3180     3163 
    3145     3136     3127     3117     3111     3106     3103     3109 
    3119     3136     3156     3175     3186     3179     3161     3133 
    3099     3064     3030     2999     2971     2943     2920     2914 
    2917     2922     2929     2932     2932     2917     2886     2843 
    2782     2704     2612     2509     2400     2297     2200     2108 
    2022     1938     1854     1772     1695     1620     1539     1455 
    1379     1306     1235     1178     1144     1135     1152     1196 
    1256     1327     1399     1472     1539     1597     1656     1719 
    1787     1868     1958     2056     2168     2299     2454     2637 
    2844     3075     3325     3580     3824     4056     4274     4471 
    4646     4799     4927     5020     5071     5092     5084     5034 
    4945     4827     4683     4511     4318     4106     3883     3655 
    3430     3208     2995     2805     2648     2532     2469     2455 
    2477     2521     2574     2621     2659     2689     2712     2732 
    2751     2768     2783     2801     2820     2843     2867     2887 
    2906     2926     2943     2952     2951     2933     2898     2848 
    2789     2717     2636     2558     2479     2408     2350     2311 
    2290     2293     2319     2366     2430     2500     2573     2636 
    2679     2704     2710     2704     2686     2659     2633     2619 
    2621     2641     2685     2751     2836     2929     3017     3100 
    3180     3241     3280     3299     3302     3292     3271     3240 
    3208     3180     3154     3137     3121     3107     3105     3106 
    3109     3107     3103     3095     3078     3055     3026     2994 
    2965     2943     2930     2930     2944     2967     2997     3025 
    3057     3090     3115     3140     3163     3172     3173     3171 
    3161     3154     3160     3180     3218     3277     3356     3453 
    3565     3682     3808     3937     4059     4171     4267     4337 
    4399     4450     4477     4494     4504     4496     4480     4459 
    4421     4369     4306     4220     4110     3979     3824     3649 
    3447     3227     2998     2759     2517     2278     2045     1825 
    1618     1418     1235     1070      920      795      697      630 
     592      575      573      584      595      607      618      622 
     622      622      623      630      656      695      742      811 
     907     1019     1144     1283     1426     1567     1706     1842 
    1979     2115     2255     2394     2531     2663     2785     2887 
    2972     3045     3099     3134     3161     3179     3184     3186 
    3184     3181     3180     3180     3188     3207     3231     3258 
    3291     3325     3357     3384     3399     3397     3376     3338 
    3288     3223     3150     3079     3005     2934     2867     2795 
    2729     2667     2608     2562     2529     2502     2492     2501 
    2529     2579     2652     2751     2870     3005     3149     3299 
    3443     3578     3703     3815     3909     3986     4044     4087 
    4120     4141     4147     4141     4114     4060     3989     3897 
    3782     3661     3532     3395     3256     3109     2952     2793 
    2623     2448     2280     2111     1938     1765     1593     1420 
    1251     1088      927      778      643      525      432      364 
     322      310      329      368      418      480      546      619 
     695      769      846      928     1007     1082     1147     1206 
    1260     1304     1341     1385     1436     1499     1571     1648 
    1732     1821     1915     2015     2124     2239     2357     2482 
    2609     2729     2845     2960     3060     3148     3230     3298 
    3352     3399     3433     3449     3458     3465     3469     3469 
    3470     3472     3468     3454     3430     3395     3352     3307 
    3260     3210     3160     3115     3079     3049     3025     3010 
    3006     3013     3032     3061     3098     3136     3179     3219 
    3249     3276     3296     3311     3329     3341     3348     3349 
    3346     3341     3337     3339     3356     3376     3396     3416 
    3435     3445     3451     3457     3453     3443     3441     3445 
    3453     3468     3497     3538     3588     3647     3709     3769 
    3832     3896     3944     3987     4029     4063     4087     4108 
    4114     4110     4095     4064     4021     3964     3897     3824 
    3746     3659     3572     3480     3381     3284     3184     3082 
    2980     2882     2790     2705     2627     2566     2521     2489 
    2477     2478     2486     2497     2512     2527     2539     2555 
    2574     2587     2602     2614     2616     2610     2598     2566 
    2523     2473     2413     2349     2285     2228     2177     2127 
    2076     2033     1995     1957     1930     1919     1922     1945 
    1985     2035     2099     2172     2246     2327     2413     2497 
    2570     2627     2674     2713     2735     2747     2755     2749 
    2728     2704     2668     2617     2559     2496     2420     2342 
    2274     2220     2182     2169     2176     2192     2223     2259 
    2290     2322     2349     2367     2389     2417     2450     2493 
    2547     2605     2673     2745     2816     2889     2967     3049 
    3134     3219     3298     3370     3431     3472     3495     3503 
    3496     3474     3441     3400     3354     3303     3252     3203 
    3157     3113     3071     3034     2997     2959     2928     2902 
    2880     2867     2867     2872     2882     2898     2913     2925 
    2941     2959     2971     2984     2997     3007     3019     3026 
    3030     3037     3037     3033     3029     3017     2992     2960 
    2913     2851     2775     2681     2573     2457     2336     2211 
    2083     1954     1833     1718     1611     1516     1433     1363 
    1309     1275     1258     1256     1274     1302     1337     1379 
    1416     1444     1467     1482     1498     1522     1559     1613 
    1688     1776     1879     1999     2123     2249     2374     2496 
    2604     2698     2772     2825     2860     2871     2857     2818 
    2760     2695     2625     2551     2486     2431     2384     2347 
    2326     2315     2316     2326     2338     2359     2390     2427 
    2470     2515     2550     2582     2608     2623     2625     2616 
    2596     2566     2529     2489     2450     2420     2407     2405 
    2415     2440     2478     2520     2567     2617     2667     2721 
    2774     2820     2860     2899     2937     2965     2983     3005 
    3022     3034     3042     3045     3044     3038     3028     3017 
    3006     2997     2988     2976     2964     2959     2956     2952 
    2952     2957     2960     2957     2955     2953     2949     2947 
    2955     2967     2978     2987     2992     2995     2994     2987 
    2975     2959     2944     2932     2922     2924     2932     2943 
    2959     2976     2995     3011     3017     3014     3006     2990 
    2967     2943     2920     2905     2899     2905     2921     2952 
    2994     3045     3103     3167     3226     3277     3321     3350 
    3369     3383     3396     3407     3415     3420     3420     3414 
    3406     3395     3377     3358     3345     3331     3323     3323 
    3330     3348     3379     3420     3474     3539     3607     3678 
    3751     3823     3894     3959     4009     4045     4068     4071 
    4055     4020     3963     3889     3797     3685     3564     3430 
    3285     3134     2978     2816     2654     2500     2351     2218 
    2106     2015     1949     1910     1898     1908     1939     1987 
    2039     2096     2160     2216     2274     2334     2380     2421 
    2465     2493     2508     2515     2505     2477     2438     2388 
    2330     2266     2200     2137     2084     2041     2008     1984 
    1966     1960     1960     1964     1973     1987     1999     2011 
    2026     2042     2066     2099     2143     2196     2253     2317 
    2385     2451     2515     2573     2621     2662     2698     2731 
    2760     2789     2817     2845     2870     2886     2899     2909 
    2907     2899     2887     2864     2837     2808     2775     2741 
    2706     2677     2652     2635     2625     2627     2644     2670 
    2706     2759     2821     2893     2976     3065     3159     3257 
    3354     3446     3532     3615     3692     3761     3823     3878 
    3923     3960     4000     4041     4085     4131     4179     4217 
    4240     4248     4241     4220     4180     4126     4062     3996 
    3928     3852     3774     3696     3611     3522     3429     3323 
    3210     3092     2971     2847     2724     2606     2501     2411 
    2336     2277     2232     2199     2174     2153     2134     2119 
    2099     2076     2053     2025     1989     1954     1912     1871 
    1826     1776     1726     1676     1626     1574     1526     1486 
    1444     1408     1377     1345     1324     1314     1304     1298 
    1301     1300     1294     1291     1286     1278     1267     1250 
    1224     1197     1162     1128     1098     1071     1050     1040 
