Origin Time       2025/01/13 21:19:00
Lat.              31.8
Long.             131.6
Depth. (km)       30
Mag.              6.9
Station Code      FKOH10
Station Lat.      33.2891
Station Long.     130.8170
Station Height(m) 190
Record Time       2025/01/13 21:20:00
Sampling Freq(Hz) 100Hz
Duration Time(s)  175
Dir.              4
Scale Factor      7845(gal)/8223790
Max. Acc. (gal)   4.034
Last Correction   2025/01/13 21:20:01
Memo.             
[...]
    5764     5775     5692     5601     5583     5665     5805     5926 
    5988     5976     5907     5861     5900     5995     6054     6015 
    5902     5769     5668     5629     5606     5540     5470     5443 
    5440     5422     5364     5270     5170     5128     5202     5377 
    5556     5655     5651     5597     5576     5614     5705     5814 
    5863     5805     5706     5641     5613     5609     5633     5683 
    5738     5783     5815     5838     5848     5827     5779     5710 
    5621     5505     5379     5298     5274     5263     5240     5220 
    5189     5112     5013     4957     4965     5017     5097     5175 
    5213     5185     5113     5085     5146     5235     5287     5333 
    5425     5553     5676     5780     5860     5871     5823     5784 
    5799     5856     5913     5919     5832     5649     5456     5375 
    5435     5563     5634     5559     5386     5251     5227     5306 
    5424     5485     5460     5428     5483     5609     5697     5697 
    5620     5466     5294     5197     5173     5123     5011     4903 
    4849     4841     4882     4990     5113     5198     5271     5385 
    5533     5651     5668     5586     5474     5410     5414     5462 
    5509     5508     5470     5481     5582     5705     5765     5759 
    5699     5589     5478     5454     5520     5582     5568     5483 
    5371     5287     5281     5350     5436     5476     5452     5422 
    5474     5620     5784     5884     5884     5791     5674     5634 
    5688     5746     5728     5632     5522     5483     5545     5643 
    5698     5698     5649     5570     5505     5479     5448     5354 
    5232     5198     5279     5364     5348     5250     5166     5177 
    5279     5391     5394     5246     5047     4982     5144     5445 
    5729     5921     6002     5975     5934     5992     6095     6064 
    5826     5494     5231     5151     5273     5466     5543     5449 
    5323     5309     5405     5510     5555     5552     5591     5752 
    6002     6219     6309     6269     6162     6048     5921     5751 
    5532     5306     5116     4977     4877     4804     4753     4725 
    4725     4769     4851     4930     4972     5005     5067     5178 
    5355     5583     5800     5940     5985     5984     5973     5967 
    5980     5975     5876     5710     5611     5648     5730     5760 
    5729     5653     5570     5559     5655     5775     5822     5818 
    5864     6014     6228     6434     6550     6501     6299     6058 
    5904     5896     5969     6002     5948     5833     5691     5580 
    5528     5493     5402     5225     5032     4934     4981     5142 
    5329     5436     5425     5366     5344     5367     5387     5393 
    5435     5556     5753     5946     6010     5902     5728     5644 
    5732     5915     6016     5925     5698     5501     5455     5552 
    5707     5846     5895     5844     5780     5780     5819     5791 
    5629     5374     5173     5177     5406     5691     5811     5679 
    5406     5197     5143     5174     5179     5115     5023     5023 
    5200     5493     5734     5811     5764     5678     5580     5505 
    5486     5486     5440     5356     5319     5355     5416     5479 
    5557     5636     5691     5714     5684     5574     5402     5267 
    5260     5373     5499     5533     5452     5329     5256     5259 
    5254     5139     4924     4704     4576     4591     4711     4862 
    5004     5146     5296     5437     5553     5624     5629     5598 
    5601     5657     5724     5779     5832     5848     5807     5759 
    5732     5690     5601     5509     5458     5418     5348     5255 
    5146     5000     4833     4703     4654     4656     4669     4707 
    4749     4787     4896     5134     5440     5699     5867     5962 
    5985     5910     5780     5686     5651     5644     5629     5603 
    5567     5513     5448     5408     5401     5398     5381     5343 
    5292     5247     5232     5273     5394     5556     5656     5655 
    5621     5609     5587     5574     5636     5744     5802     5790 
    5759     5745     5748     5761     5780     5778     5744     5702 
    5683     5721     5810     5895     5954     6012     6037     5957 
    5772     5598     5526     5486     5359     5171     5040     5022 
    5077     5173     5282     5321     5263     5220     5282     5398 
    5462     5451     5385     5274     5155     5111     5178     5296 
    5370     5377     5363     5383     5425     5454     5471     5468 
    5427     5391     5416     5476     5545     5606     5641     5670 
    5732     5813     5844     5802     5764     5790     5867     5968 
    6050     6064     6041     6077     6193     6282     6245     6100 
    5945     5830     5760     5745     5788     5819     5755     5653 
    5628     5649     5655     5680     5718     5647     5449     5290 
    5251     5219     5105     4953     4820     4747     4793     4980 
    5205     5310     5248     5134     5117     5259     5491     5687 
    5741     5641     5497     5459     5589     5813     5975     5977 
    5860     5729     5664     5683     5740     5769     5746     5701 
    5676     5698     5744     5776     5779     5779     5799     5844 
    5907     5980     6023     5988     5892     5782     5663     5543 
    5431     5324     5215     5115     5081     5155     5296     5471 
    5694     5919     6097     6235     6318     6309     6232     6158 
    6138     6137     6107     6061     5995     5884     5771     5694 
    5636     5587     5551     5505     5433     5352     5316     5350 
    5425     5501     5552     5587     5645     5730     5800     5815 
    5740     5563     5347     5154     5004     4893     4792     4684 
    4588     4523     4522     4611     4770     4955     5109     5169 
    5109     4973     4866     4882     4999     5120     5181     5159 
    5086     5036     5065     5162     5251     5260     5181     5073 
    5015     5039     5098     5112     5035     4891     4760     4738 
    4842     4981     5084     5117     5078     5046     5097     5211 
    5314     5373     5405     5441     5491     5574     5659     5668 
    5643     5724     5929     6147     6284     6319     6297     6257 
    6247     6291     6331     6292     6181     6052     5945     5886 
    5884     5907     5877     5780     5687     5661     5724     5813 
    5807     5698     5580     5521     5539     5622     5729     5798 
    5786     5749     5782     5845     5857     5795     5652     5460 
    5304     5265     5352     5458     5467     5394     5305     5239 
    5193     5146     5089     5031     4977     4949     4959     5012 
    5121     5308     5540     5742     5846     5846     5786     5687 
    5566     5486     5494     5548     5589     5575     5499     5409 
    5363     5359     5343     5281     5185     5080     5015     5047 
    5174     5350     5555     5794     6022     6153     6143     6033 
    5883     5749     5676     5664     5663     5618     5549     5543 
    5611     5667     5686     5699     5709     5729     5796     5900 
    5988     6038     6088     6147     6154     6062     5913     5768 
    5671     5633     5626     5614     5572     5494     5414     5391 
    5425     5471     5501     5509     5493     5451     5394     5343 
    5286     5201     5109     5046     5043     5105     5193     5243 
    5213     5097     4973     4954     5062     5236     5378     5420 
    5389     5332     5286     5290     5333     5366     5381     5385 
    5390     5418     5454     5482     5501     5485     5449     5460 
    5559     5724     5873     5950     5960     5902     5818     5773 
    5748     5668     5544     5437     5375     5323     5271     5251 
    5243     5232     5256     5310     5339     5319     5271     5223 
    5167     5117     5088     5082     5125     5259     5458     5638 
    5757     5832     5877     5896     5881     5795     5603     5337 
    5107     5013     5055     5142     5175     5124     5044     5000 
    5039     5171     5321     5383     5319     5205     5166     5223 
    5317     5390     5374     5255     5139     5109     5127     5130 
    5116     5121     5169     5260     5374     5460     5487     5499 
    5563     5683     5810     5908     5969     6014     6054     6095 
    6119     6103     6035     5950     5873     5817     5803     5823 
    5814     5737     5614     5497     5414     5373     5352     5294 
    5170     5031     4946     4928     4935     4919     4858     4761 
    4681     4687     4785     4945     5123     5304     5468     5574 
    5593     5570     5571     5607     5660     5697     5659     5525 
    5386     5344     5371     5385     5358     5289     5178     5051 
    4978     5007     5093     5158     5167     5147     5169     5283 
    5463     5630     5698     5649     5599     5667     5819     5929 
    5919     5836     5751     5706     5705     5697     5611     5459 
    5344     5360     5494     5647     5722     5702     5618     5521 
    5482     5512     5533     5475     5352     5238     5170     5140 
    5139     5136     5109     5085     5130     5283     5481     5594 
    5594     5568     5599     5702     5842     5933     5883     5722 
    5583     5555     5616     5697     5741     5755     5786     5875 
    6012     6151     6251     6286     6262     6235     6249     6289 
    6324     6330     6297     6259     6285     6404     6536     6569 
    6462     6276     6118     6045     5998     5887     5674     5397 
    5140     4978     4936     4978     5028     5046     5054     5098 
    5204     5359     5513     5618     5665     5679     5701     5753 
    5790     5741     5613     5487     5420     5385     5354     5331 
    5310     5297     5324     5397     5452     5436     5366     5298 
    5275     5309     5395     5505     5587     5626     5657     5717 
    5788     5827     5815     5759     5675     5590     5551     5568 
    5586     5570     5551     5548     5578     5645     5703     5702 
    5644     5587     5579     5587     5568     5537     5535     5582 
    5659     5746     5834     5900     5934     5980     6053     6118 
    6158     6197     6239     6224     6150     6104     6123     6145 
    6134     6107     6079     6060     6045     6035     6021     5972 
    5907     5864     5829     5768     5680     5605     5568     5529 
    5451     5370     5313     5275     5265     5286     5310     5314 
    5316     5323     5325     5314     5297     5271     5236     5208 
    5206     5223     5244     5277     5296     5254     5147     5022 
    4911     4828     4783     4772     4784     4819     4897     5027 
    5175     5314     5443     5562     5667     5749     5796     5791 
    5711     5574     5421     5275     5158     5070     4984     4888 
    4797     4729     4699     4707     4739     4772     4787     4796 
    4826     4897     5030     5217     5414     5571     5675     5734 
    5767     5791     5798     5757     5671     5562     5458     5382 
    5359     5375     5378     5339     5275     5223     5209     5231 
    5229     5177     5107     5047     5012     5016     5054     5101 
    5132     5140     5151     5189     5228     5244     5231     5162 
    5032     4896     4788     4695     4596     4480     4351     4226 
    4108     3982     3834     3678     3588     3609     3713     3823 
    3908     4000     4135     4324     4577     4853     5071     5198 
    5263     5325     5410     5510     5633     5778     5895     5953 
    5984     6030     6092     6133     6120     6058     5977     5922 
    5922     5973     6048     6089     6054     5964     5849     5713 
    5556     5429     5374     5378     5416     5502     5655     5865 
    6133     6439     6724     6936     7075     7176     7246     7277 
    7267     7196     7044     6839     6646     6508     6420     6339 
    6207     6010     5788     5594     5459     5377     5296     5174 
    5020     4881     4789     4747     4760     4818     4888     4936 
    4953     4928     4868     4800     4750     4720     4702     4698 
    4716     4756     4834     4976     5169     5416     5742     6123 
    6480     6745     6913     6998     7009     6976     6930     6858 
    6735     6592     6492     6453     6419     6353     6242     6089 
    5944     5865     5853     5879     5915     5940     5954     5987 
    6064     6172     6268     6315     6291     6197     6069     5945 
    5838     5744     5656     5594     5607     5728     5917     6110 
    6289     6457     6619     6774     6907     6995     7011     6971 
    6921     6886     6864     6837     6779     6718     6708     6758 
    6844     6947     7037     7102     7160     7252     7375     7462 
    7443     7327     7152     6957     6802     6727     6697     6642 
    6525     6408     6372     6436     6570     6729     6870     6975 
    7086     7276     7562     7874     8133     8295     8338     8271 
    8118     7920     7686     7392     7022     6615     6205     5825 
    5478     5165     4895     4661     4452     4274     4124     3978 
    3823     3701     3649     3650     3686     3777     3925     4070 
    4135     4117     4062     3987     3897     3777     3615     3416 
    3194     2991     2840     2691     2484     2227     1983     1790 
    1652     1559     1478     1383     1293     1281     1420     1696 
    2016     2293     2492     2641     2805     3018     3233     3368 
    3369     3240     3052     2906     2832     2776     2693     2589 
    2513     2519     2623     2785     2910     2911     2785     2610 
    2461     2339     2226     2097     1958     1853     1869     2066 
    2407     2791     3160     3528     3954     4465     5008     5502 
    5891     6162     6366     6578     6821     7045     7191     7245 
    7219     7148     7082     7061     7079     7094     7063     6999 
    6966     7011     7144     7317     7457     7538     7584     7649 
    7778     7948     8101     8224     8328     8422     8507     8573 
    8604     8575     8479     8355     8195     7967     7704     7481 
    7352     7357     7522     7821     8187     8541     8829     9024 
    9117     9120     9038     8850     8559     8198     7809     7445 
    7142     6890     6642     6353     6010     5637     5260     4889 
    4522     4153     3775     3414     3118     2934     2880     2949 
    3129     3383     3651     3902     4137     4361     4591     4824 
    5026     5167     5258     5337     5427     5509     5566     5597 
    5595     5593     5651     5776     5940     6110     6257     6374 
    6447     6475     6511     6592     6700     6806     6906     7002 
    7111     7256     7449     7651     7788     7832     7798     7720 
    7635     7531     7381     7187     6957     6713     6496     6332 
    6215     6110     6010     5942     5925     5952     6025     6143 
    6266     6351     6397     6417     6412     6376     6309     6215 
    6110     6019     5958     5907     5815     5668     5499     5362 
    5285     5229     5123     4923     4639     4328     4063     3869 
    3689     3474     3233     3036     2941     2960     3057     3163 
    3225     3262     3327     3446     3603     3735     3815     3855 
    3866     3874     3915     3977     4023     4024     3986     3928 
    3865     3807     3781     3804     3877     3987     4117     4259 
    4407     4553     4703     4897     5138     5359     5498     5548 
    5524     5451     5377     5358     5387     5413     5417     5433 
    5483     5559     5640     5726     5815     5903     6015     6188 
    6409     6616     6755     6820     6836     6822     6779     6721 
    6660     6604     6569     6569     6608     6690     6813     6964 
    7118     7252     7342     7369     7337     7272     7203     7146 
    7123     7133     7134     7082     6967     6820     6669     6511 
    6334     6137     5922     5710     5544     5440     5373     5317 
    5271     5255     5297     5405     5570     5745     5890     5995 
    6061     6093     6102     6084     6002     5834     5599     5308 
    4984     4681     4430     4216     4027     3892     3838     3851 
    3900     3978     4074     4166     4251     4334     4396     4425 
    4444     4496     4599     4719     4816     4880     4891     4866 
    4833     4776     4676     4530     4364     4240     4189     4189 
    4224     4303     4432     4595     4774     4969     5166     5346 
    5526     5737     5941     6076     6114     6072     5968     5821 
    5655     5498     5366     5270     5219     5219     5273     5381 
    5522     5684     5849     5984     6058     6065     6006     5883 
    5728     5587     5505     5470     5444     5395     5319     5213 
    5097     4995     4911     4843     4803     4783     4769     4761 
    4735     4676     4595     4519     4483     4498     4537     4591 
    4657     4734     4846     5013     5231     5487     5775     6089 
    6421     6754     7057     7317     7527     7669     7724     7701 
    7624     7507     7348     7153     6943     6720     6502     6319 
    6170     6041     5917     5791     5653     5491     5320     5174 
    5069     5013     5007     5040     5117     5256     5444     5643 
    5813     5914     5930     5899     5872     5856     5832     5790 
    5728     5653     5611     5643     5738     5846     5906     5883 
    5780     5634     5483     5359     5273     5185     5067     4963 
    4912     4922     4989     5101     5225     5331     5418     5524 
    5670     5842     6016     6157     6242     6265     6235     6153 
    6011     5832     5656     5499     5344     5174     4978     4773 
    4594     4482     4463     4531     4658     4806     4953     5094 
    5232     5390     5570     5732     5876     6021     6176     6357 
    6563     6756     6905     7001     7047     7067     7079     7090 
    7090     7056     6986     6910     6852     6808     6762     6689 
    6578     6426     6243     6052     5864     5674     5483     5320 
    5204     5130     5090     5088     5124     5211     5328     5435 
    5495     5498     5452     5378     5294     5208     5116     5004 
    4882     4770     4666     4558     4460     4384     4322     4249 
    4179     4141     4140     4172     4245     4337     4418     4487 
    4542     4595     4646     4672     4676     4676     4672     4669 
    4669     4661     4657     4672     4714     4797     4901     5005 
    5098     5162     5198     5229     5244     5232     5208     5177 
    5152     5159     5200     5250     5258     5201     5121     5070 
    5063     5105     5193     5287     5364     5445     5564     5709 
    5857     5998     6127     6266     6442     6663     6902     7111 
    7275     7420     7574     7734     7861     7912     7874     7759 
    7609     7481     7380     7271     7142     7007     6875     6754 
    6667     6637     6637     6625     6588     6523     6427     6305 
    6172     6022     5837     5617     5383     5147     4915     4665 
    4399     4158     3967     3835     3774     3763     3769     3797 
