Origin Time       2025/01/13 21:19:00
Lat.              31.8
Long.             131.6
Depth. (km)       30
Mag.              6.9
Station Code      GNMH08
Station Lat.      36.4917
Station Long.     138.5244
Station Height(m) 1040
Record Time       2025/01/13 21:23:57
Sampling Freq(Hz) 100Hz
Duration Time(s)  120
Dir.              4
Scale Factor      7845(gal)/8223790
Max. Acc. (gal)   0.175
Last Correction   2025/01/13 21:23:59
Memo.             
[...]
   12205    12206    12208    12209    12208    12206    12208    12206 
   12205    12210    12216    12217    12220    12218    12216    12220 
   12221    12220    12222    12228    12231    12229    12228    12229 
   12235    12239    12236    12239    12241    12240    12240    12244 
   12245    12244    12247    12248    12251    12252    12252    12253 
   12253    12253    12256    12262    12263    12262    12260    12262 
   12263    12266    12267    12266    12266    12271    12274    12271 
   12274    12278    12275    12276    12282    12280    12279    12285 
   12287    12286    12286    12285    12286    12290    12293    12294 
   12295    12294    12295    12297    12294    12293    12297    12301 
   12301    12302    12303    12303    12303    12306    12303    12302 
   12309    12309    12307    12309    12309    12309    12307    12309 
   12312    12314    12314    12313    12309    12306    12309    12312 
   12312    12314    12314    12312    12312    12316    12314    12309 
   12312    12313    12309    12306    12309    12310    12309    12307 
   12310    12310    12307    12306    12305    12305    12309    12307 
   12303    12301    12299    12301    12305    12306    12302    12298 
   12297    12297    12295    12295    12295    12294    12294    12295 
   12295    12293    12290    12290    12290    12289    12291    12294 
   12290    12286    12286    12291    12294    12293    12290    12290 
   12293    12294    12294    12295    12293    12295    12299    12295 
   12298    12303    12299    12297    12302    12307    12306    12306 
   12309    12307    12306    12309    12314    12317    12320    12320 
   12317    12318    12324    12326    12324    12325    12329    12332 
   12332    12336    12340    12340    12343    12345    12345    12347 
   12355    12361    12359    12357    12360    12363    12366    12370 
   12374    12376    12376    12374    12376    12380    12382    12382 
   12386    12390    12391    12390    12390    12395    12397    12394 
   12395    12397    12394    12393    12395    12395    12397    12397 
   12397    12399    12399    12397    12394    12390    12387    12388 
   12387    12384    12383    12380    12380    12379    12376    12374 
   12370    12364    12361    12360    12355    12351    12349    12344 
   12339    12336    12328    12320    12318    12316    12309    12305 
   12302    12295    12289    12282    12278    12274    12267    12262 
   12258    12253    12249    12244    12236    12229    12226    12222 
   12216    12214    12213    12206    12199    12197    12194    12190 
   12185    12181    12181    12177    12172    12174    12172    12170 
   12170    12166    12162    12160    12160    12160    12158    12159 
   12160    12160    12158    12158    12160    12160    12155    12155 
   12159    12162    12162    12160    12160    12162    12164    12167 
   12167    12168    12171    12170    12170    12175    12175    12172 
   12175    12178    12179    12182    12186    12187    12187    12190 
   12191    12191    12194    12197    12199    12202    12205    12208 
   12208    12208    12213    12217    12221    12222    12221    12222 
   12228    12231    12231    12231    12236    12244    12245    12245 
   12251    12251    12249    12253    12258    12263    12263    12263 
   12267    12267    12267    12272    12276    12276    12276    12278 
   12278    12279    12283    12283    12280    12283    12289    12287 
   12285    12286    12286    12285    12283    12285    12289    12289 
   12285    12280    12279    12282    12283    12282    12280    12279 
   12278    12276    12276    12274    12270    12272    12275    12271 
   12267    12266    12264    12263    12262    12260    12260    12259 
   12258    12258    12258    12256    12253    12252    12252    12252 
   12252    12251    12249    12251    12253    12251    12248    12251 
   12249    12249    12256    12256    12255    12256    12258    12256 
   12259    12262    12263    12266    12264    12263    12267    12268 
   12270    12272    12274    12275    12275    12274    12279    12283 
   12280    12280    12286    12286    12286    12290    12291    12289 
   12290    12293    12289    12290    12298    12298    12295    12297 
   12298    12294    12291    12293    12295    12295    12295    12295 
   12295    12294    12290    12291    12290    12287    12289    12289 
   12285    12280    12282    12282    12279    12280    12279    12275 
   12274    12272    12271    12271    12271    12270    12268    12266 
   12262    12263    12262    12260    12263    12266    12262    12258 
   12256    12258    12258    12258    12259    12258    12258    12259 
   12260    12262    12262    12263    12263    12263    12262    12266 
   12270    12270    12268    12270    12275    12275    12274    12276 
   12280    12279    12282    12285    12289    12294    12295    12295 
   12297    12301    12303    12303    12307    12314    12314    12317 
   12322    12324    12324    12329    12334    12336    12336    12337 
   12340    12344    12349    12349    12349    12355    12359    12360 
   12360    12360    12366    12368    12368    12372    12374    12374 
   12375    12376    12379    12383    12382    12383    12388    12390 
   12387    12387    12387    12387    12388    12390    12391    12393 
   12391    12391    12394    12393    12388    12388    12388    12387 
   12386    12383    12383    12383    12379    12376    12375    12374 
   12376    12375    12370    12368    12367    12360    12356    12356 
   12356    12355    12352    12347    12345    12348    12343    12336 
   12332    12329    12329    12328    12324    12321    12320    12317 
   12310    12306    12307    12303    12297    12298    12298    12290 
   12287    12290    12291    12290    12283    12275    12275    12278 
   12274    12270    12271    12272    12268    12262    12262    12266 
   12267    12264    12262    12264    12263    12262    12263    12264 
   12264    12267    12267    12267    12267    12267    12268    12272 
   12275    12274    12275    12280    12285    12285    12286    12289 
   12291    12293    12294    12295    12297    12299    12303    12305 
   12306    12309    12313    12317    12321    12320    12317    12320 
   12326    12330    12326    12329    12334    12332    12330    12333 
   12334    12337    12340    12341    12343    12339    12337    12340 
   12340    12336    12334    12337    12339    12337    12333    12332 
   12333    12333    12325    12320    12321    12318    12316    12316 
   12313    12312    12309    12302    12297    12293    12293    12291 
   12285    12282    12282    12279    12275    12271    12268    12266 
   12262    12258    12253    12248    12248    12249    12245    12241 
   12239    12239    12237    12237    12233    12231    12235    12236 
   12231    12226    12228    12229    12229    12226    12228    12229 
   12225    12225    12229    12233    12235    12235    12233    12228 
   12229    12236    12235    12233    12239    12237    12236    12239 
   12240    12239    12243    12244    12245    12244    12241    12244 
   12248    12248    12251    12252    12251    12252    12252    12251 
   12252    12255    12262    12262    12258    12259    12262    12263 
   12266    12266    12264    12264    12264    12266    12267    12272 
   12275    12274    12272    12271    12270    12271    12272    12274 
   12274    12272    12274    12276    12275    12272    12274    12276 
   12275    12272    12274    12272    12271    12272    12270    12266 
   12267    12268    12264    12263    12263    12263    12259    12256 
   12256    12253    12248    12247    12249    12245    12243    12241 
   12237    12235    12235    12232    12229    12231    12229    12225 
   12221    12220    12221    12221    12218    12217    12216    12212 
   12212    12210    12205    12204    12206    12206    12204    12202 
   12201    12199    12199    12197    12193    12191    12191    12191 
   12189    12186    12189    12189    12186    12183    12182    12181 
   12182    12181    12178    12175    12175    12177    12172    12170 
   12171    12170    12170    12170    12168    12168    12168    12168 
   12167    12166    12166    12166    12164    12164    12167    12164 
   12162    12162    12163    12164    12166    12168    12168    12168 
   12167    12166    12168    12174    12172    12174    12177    12175 
   12178    12182    12182    12182    12185    12187    12189    12189 
   12194    12198    12195    12198    12205    12208    12205    12206 
   12213    12216    12216    12220    12225    12226    12231    12236 
   12236    12235    12237    12240    12241    12248    12256    12259 
   12260    12263    12263    12264    12272    12276    12276    12279 
   12283    12286    12287    12293    12298    12294    12295    12303 
   12306    12306    12312    12317    12318    12321    12325    12329 
   12330    12329    12332    12339    12343    12344    12347    12349 
   12352    12353    12351    12353    12360    12363    12364    12366 
   12367    12370    12372    12372    12375    12380    12382    12382 
   12382    12382    12386    12388    12390    12391    12393    12391 
   12391    12395    12397    12398    12401    12398    12399    12403 
   12401    12399    12403    12402    12401    12401    12402    12402 
   12402    12402    12399    12399    12398    12395    12397    12398 
   12390    12388    12390    12384    12382    12379    12376    12376 
   12375    12372    12368    12364    12361    12359    12356    12355 
   12349    12345    12341    12337    12334    12332    12329    12325 
   12320    12313    12310    12307    12305    12302    12297    12291 
   12289    12285    12279    12276    12276    12271    12264    12266 
   12267    12260    12252    12247    12248    12248    12243    12241 
   12241    12239    12235    12233    12231    12231    12231    12229 
   12226    12225    12225    12221    12224    12229    12225    12221 
   12226    12229    12226    12226    12229    12229    12231    12233 
   12233    12236    12241    12241    12243    12247    12248    12249 
   12252    12256    12259    12263    12268    12268    12271    12276 
   12278    12283    12290    12291    12290    12295    12299    12302 
   12305    12305    12307    12314    12318    12318    12321    12328 
   12332    12332    12333    12334    12336    12337    12337    12340 
   12345    12345    12344    12348    12349    12348    12348    12345 
   12347    12352    12351    12348    12349    12347    12341    12340 
   12341    12344    12343    12337    12336    12340    12337    12332 
   12330    12329    12326    12326    12324    12322    12325    12321 
   12316    12312    12307    12305    12303    12302    12299    12294 
   12291    12293    12290    12285    12282    12283    12280    12276 
   12275    12271    12263    12262    12263    12259    12256    12255 
   12251    12245    12244    12240    12233    12233    12235    12229 
   12224    12221    12218    12217    12213    12210    12210    12206 
   12202    12202    12201    12197    12194    12191    12191    12191 
   12191    12190    12189    12186    12186    12186    12185    12183 
   12185    12186    12187    12187    12185    12181    12186    12191 
   12187    12186    12190    12190    12191    12195    12198    12197 
   12197    12199    12201    12204    12206    12205    12208    12210 
   12210    12213    12214    12217    12218    12218    12220    12222 
   12221    12222    12226    12226    12226    12231    12231    12231 
   12236    12239    12236    12236    12237    12236    12237    12240 
   12243    12245    12247    12243    12245    12251    12251    12248 
   12249    12252    12252    12252    12252    12252    12252    12256 
   12258    12260    12266    12266    12260    12262    12264    12266 
   12266    12266    12270    12271    12272    12274    12275    12275 
   12274    12276    12282    12283    12282    12285    12286    12287 
   12290    12291    12291    12297    12302    12299    12298    12301 
   12299    12299    12307    12310    12309    12313    12316    12316 
   12318    12320    12320    12321    12324    12326    12328    12330 
   12334    12336    12334    12337    12343    12345    12344    12347 
   12352    12353    12355    12359    12359    12356    12363    12368 
   12367    12368    12372    12375    12375    12376    12379    12379 
   12379    12383    12384    12383    12386    12388    12387    12386 
   12387    12388    12388    12391    12391    12388    12387    12390 
   12387    12386    12387    12386    12383    12382    12380    12378 
   12376    12378    12380    12378    12371    12368    12367    12364 
   12363    12361    12356    12353    12352    12347    12341    12345 
   12347    12340    12334    12330    12325    12321    12320    12314 
   12309    12307    12306    12302    12295    12290    12289    12286 
   12278    12271    12268    12266    12262    12258    12252    12247 
   12244    12240    12235    12232    12228    12224    12221    12216 
   12209    12205    12199    12197    12194    12189    12187    12186 
   12178    12171    12170    12166    12160    12159    12155    12151 
   12151    12145    12137    12139    12140    12132    12127    12124 
   12121    12121    12118    12114    12110    12108    12105    12104 
   12102    12101    12101    12100    12098    12098    12098    12094 
   12093    12096    12096    12096    12094    12096    12100    12102 
   12102    12101    12101    12104    12105    12108    12113    12117 
   12117    12120    12125    12129    12132    12137    12143    12145 
   12148    12152    12156    12166    12172    12174    12182    12190 
   12189    12194    12205    12210    12216    12220    12224    12229 
   12236    12244    12252    12258    12260    12266    12276    12285 
   12289    12293    12299    12306    12310    12317    12324    12329 
   12334    12340    12345    12351    12353    12355    12360    12368 
   12372    12378    12382    12380    12384    12387    12386    12386 
   12391    12397    12397    12395    12395    12395    12395    12395 
   12395    12397    12395    12390    12386    12383    12384    12384 
   12379    12378    12379    12376    12370    12364    12363    12361 
   12355    12349    12347    12344    12341    12339    12336    12333 
   12326    12318    12318    12317    12314    12309    12305    12302 
   12301    12297    12291    12290    12293    12291    12289    12285 
   12282    12285    12282    12276    12279    12280    12279    12279 
   12276    12276    12280    12279    12279    12285    12285    12283 
   12287    12289    12289    12291    12294    12295    12295    12297 
   12301    12306    12310    12312    12313    12314    12314    12318 
   12324    12325    12332    12336    12333    12334    12340    12345 
   12345    12345    12352    12355    12353    12356    12359    12363 
   12366    12368    12374    12374    12372    12372    12367    12371 
   12382    12382    12378    12382    12384    12380    12378    12380 
   12384    12383    12380    12378    12376    12376    12375    12372 
   12372    12372    12371    12367    12363    12360    12359    12353 
   12349    12349    12345    12341    12337    12334    12329    12325 
   12321    12317    12312    12307    12303    12297    12293    12290 
   12287    12280    12274    12271    12266    12260    12258    12252 
   12247    12241    12236    12232    12226    12220    12217    12214 
   12210    12205    12199    12197    12193    12189    12183    12178 
   12179    12177    12168    12167    12168    12163    12159    12159 
   12158    12154    12152    12154    12151    12148    12148    12148 
   12145    12145    12147    12147    12147    12148    12148    12145 
   12147    12151    12152    12158    12160    12159    12158    12162 
   12164    12163    12166    12174    12178    12179    12183    12186 
   12187    12194    12198    12198    12204    12208    12208    12212 
   12218    12220    12224    12231    12235    12235    12237    12240 
   12245    12252    12255    12253    12258    12263    12267    12268 
   12271    12275    12278    12276    12279    12285    12285    12286 
   12291    12295    12294    12295    12299    12299    12297    12301 
   12305    12305    12303    12302    12305    12306    12305    12303 
   12307    12312    12309    12305    12306    12306    12306    12305 
   12303    12305    12302    12301    12302    12302    12301    12301 
   12299    12299    12297    12294    12294    12295    12291    12290 
   12290    12287    12287    12289    12289    12289    12289    12285 
   12282    12280    12279    12282    12283    12279    12276    12278 
   12276    12276    12278    12279    12276    12275    12274    12274 
   12272    12271    12271    12272    12272    12274    12272    12271 
   12272    12274    12271    12270    12274    12274    12272    12271 
   12271    12270    12270    12271    12272    12274    12271    12272 
   12274    12271    12274    12279    12278    12274    12274    12276 
   12276    12276    12279    12279    12278    12279    12282    12283 
   12283    12282    12280    12279    12280    12282    12280    12279 
   12282    12282    12282    12285    12283    12282    12283    12283 
   12280    12283    12283    12279    12276    12278    12278    12278 
   12280    12278    12275    12276    12275    12272    12274    12275 
   12276    12272    12266    12267    12270    12268    12267    12267 
   12268    12266    12258    12256    12256    12253    12253    12255 
   12252    12247    12247    12248    12244    12239    12237    12237 
   12232    12226    12224    12224    12224    12221    12220    12218 
   12216    12212    12208    12206    12206    12205    12199    12195 
   12197    12195    12191    12190    12191    12190    12186    12183 
   12186    12186    12182    12181    12177    12175    12178    12181 
   12183    12183    12179    12179    12182    12183    12185    12187 
   12187    12187    12189    12190    12191    12197    12201    12198 
   12201    12206    12208    12209    12213    12216    12221    12225 
   12225    12226    12231    12236    12239    12241    12248    12252 
   12253    12260    12266    12268    12271    12278    12282    12282 
   12286    12294    12298    12299    12306    12310    12313    12318 
   12320    12320    12324    12329    12334    12339    12340    12341 
   12347    12348    12345    12351    12356    12356    12357    12361 
   12363    12366    12368    12366    12366    12368    12370    12371 
   12374    12375    12374    12371    12371    12374    12374    12371 
   12370    12370    12368    12366    12366    12366    12364    12361 
   12359    12357    12359    12360    12357    12353    12352    12351 
   12348    12345    12344    12345    12347    12343    12336    12336 
   12337    12333    12329    12326    12325    12324    12321    12318 
   12321    12324    12320    12317    12316    12313    12310    12310 
   12307    12306    12307    12306    12303    12303    12302    12298 
   12297    12301    12303    12301    12294    12291    12297    12298 
