Origin Time       2025/01/13 21:19:00
Lat.              31.8
Long.             131.6
Depth. (km)       30
Mag.              6.9
Station Code      GNMH08
Station Lat.      36.4917
Station Long.     138.5244
Station Height(m) 1040
Record Time       2025/01/13 21:23:57
Sampling Freq(Hz) 100Hz
Duration Time(s)  120
Dir.              5
Scale Factor      7845(gal)/8223790
Max. Acc. (gal)   0.223
Last Correction   2025/01/13 21:23:59
Memo.             
[...]
   10700    10694    10697    10696    10692    10690    10685    10677 
   10670    10669    10670    10663    10656    10655    10652    10647 
   10639    10633    10632    10627    10621    10617    10615    10612 
   10606    10598    10592    10588    10589    10586    10579    10575 
   10574    10569    10566    10562    10558    10557    10554    10550 
   10550    10546    10540    10539    10540    10538    10534    10530 
   10530    10527    10525    10527    10528    10524    10520    10521 
   10524    10520    10519    10520    10520    10519    10517    10524 
   10530    10527    10525    10528    10528    10527    10530    10535 
   10540    10540    10540    10546    10542    10538    10548    10557 
   10557    10559    10562    10566    10565    10566    10573    10579 
   10584    10586    10593    10596    10593    10596    10601    10606 
   10615    10619    10620    10625    10627    10628    10632    10635 
   10636    10639    10640    10644    10648    10652    10659    10659 
   10655    10659    10667    10670    10669    10670    10675    10675 
   10674    10679    10679    10679    10682    10683    10685    10687 
   10689    10687    10687    10689    10687    10687    10692    10692 
   10689    10693    10694    10692    10689    10690    10694    10692 
   10687    10689    10690    10685    10682    10686    10690    10687 
   10683    10685    10683    10681    10681    10681    10681    10681 
   10681    10679    10677    10678    10682    10681    10681    10679 
   10673    10673    10675    10674    10673    10675    10679    10681 
   10677    10675    10681    10678    10674    10677    10681    10678 
   10677    10679    10679    10679    10682    10682    10678    10678 
   10675    10675    10678    10677    10678    10679    10677    10679 
   10679    10679    10677    10675    10677    10673    10670    10674 
   10675    10674    10673    10669    10667    10667    10665    10669 
   10671    10669    10669    10665    10659    10658    10658    10658 
   10655    10654    10656    10654    10650    10647    10643    10639 
   10636    10633    10631    10625    10624    10625    10619    10612 
   10608    10606    10605    10598    10596    10596    10590    10586 
   10584    10579    10577    10575    10574    10571    10566    10565 
   10563    10559    10559    10558    10552    10550    10548    10547 
   10544    10542    10542    10542    10542    10540    10539    10539 
   10538    10536    10536    10535    10532    10535    10534    10530 
   10530    10532    10534    10532    10531    10531    10535    10536 
   10535    10532    10534    10538    10542    10538    10535    10539 
   10542    10538    10542    10547    10543    10543    10548    10550 
   10547    10548    10555    10559    10558    10561    10565    10566 
   10565    10565    10570    10574    10575    10578    10577    10575 
   10581    10585    10584    10586    10593    10598    10597    10593 
   10600    10605    10606    10609    10612    10615    10616    10617 
   10621    10625    10629    10632    10632    10635    10639    10639 
   10646    10652    10651    10650    10656    10663    10660    10659 
   10669    10674    10671    10674    10677    10681    10687    10685 
   10683    10686    10690    10697    10701    10701    10704    10702 
   10701    10705    10708    10709    10710    10712    10714    10714 
   10713    10716    10716    10717    10720    10719    10719    10717 
   10717    10719    10719    10717    10719    10720    10719    10717 
   10717    10717    10716    10716    10714    10714    10714    10710 
   10710    10714    10712    10709    10709    10709    10709    10706 
   10705    10706    10704    10700    10701    10700    10698    10700 
   10697    10694    10693    10693    10694    10693    10694    10696 
   10689    10689    10693    10690    10687    10689    10692    10690 
   10687    10689    10687    10686    10687    10686    10686    10689 
   10689    10689    10690    10692    10692    10689    10689    10689 
   10689    10693    10697    10694    10694    10694    10692    10693 
   10693    10692    10694    10694    10693    10694    10696    10696 
   10697    10701    10698    10694    10698    10701    10697    10698 
   10702    10702    10704    10704    10705    10705    10702    10704 
   10704    10702    10704    10706    10710    10710    10706    10706 
   10708    10708    10708    10706    10706    10710    10708    10706 
   10709    10709    10706    10706    10708    10706    10704    10704 
   10704    10702    10702    10704    10704    10702    10698    10698 
   10696    10694    10693    10689    10689    10690    10685    10682 
   10679    10675    10675    10674    10670    10666    10663    10663 
   10659    10651    10650    10650    10644    10642    10640    10638 
   10632    10627    10621    10620    10617    10615    10612    10609 
   10604    10601    10598    10596    10592    10589    10585    10582 
   10584    10581    10574    10573    10573    10571    10565    10562 
   10565    10563    10558    10559    10561    10558    10557    10555 
   10555    10557    10555    10551    10552    10557    10555    10552 
   10557    10558    10555    10555    10557    10561    10561    10557 
   10559    10562    10565    10567    10567    10566    10569    10570 
   10570    10574    10577    10577    10578    10581    10581    10581 
   10585    10586    10586    10589    10593    10592    10590    10590 
   10592    10590    10592    10598    10598    10594    10597    10600 
   10600    10598    10598    10601    10605    10605    10602    10598 
   10600    10604    10604    10604    10606    10611    10609    10604 
   10604    10608    10609    10609    10609    10609    10611    10609 
   10609    10609    10605    10608    10615    10611    10606    10608 
   10606    10606    10608    10609    10609    10608    10609    10608 
   10604    10606    10606    10606    10605    10604    10609    10611 
   10604    10605    10605    10598    10604    10612    10611    10606 
   10606    10612    10612    10612    10615    10615    10615    10616 
   10619    10623    10625    10625    10627    10625    10625    10627 
   10632    10636    10635    10638    10644    10644    10644    10648 
   10651    10651    10655    10659    10663    10665    10669    10671 
   10673    10674    10677    10678    10683    10685    10683    10689 
   10696    10696    10693    10694    10698    10702    10704    10702 
   10704    10709    10714    10712    10714    10717    10719    10721 
   10717    10717    10725    10724    10720    10724    10727    10725 
   10727    10727    10727    10728    10728    10728    10727    10727 
   10728    10728    10724    10721    10724    10724    10721    10721 
   10723    10721    10719    10716    10713    10712    10709    10710 
   10710    10706    10706    10708    10704    10696    10692    10690 
   10689    10687    10687    10682    10675    10675    10674    10669 
   10666    10665    10662    10658    10654    10652    10647    10640 
   10636    10633    10629    10628    10627    10625    10620    10613 
   10608    10606    10605    10598    10593    10590    10585    10584 
   10585    10579    10575    10574    10570    10566    10563    10562 
   10559    10555    10554    10552    10547    10546    10546    10540 
   10535    10536    10535    10532    10530    10531    10531    10524 
   10519    10520    10519    10515    10515    10516    10515    10512 
   10513    10511    10507    10504    10504    10507    10507    10503 
   10505    10503    10494    10497    10498    10493    10492    10494 
   10496    10494    10492    10489    10488    10486    10490    10496 
   10493    10488    10489    10494    10492    10488    10492    10497 
   10497    10497    10501    10503    10504    10507    10507    10507 
   10511    10516    10516    10516    10519    10520    10525    10532 
   10536    10540    10542    10544    10548    10550    10557    10563 
   10567    10571    10575    10581    10586    10588    10592    10601 
   10605    10611    10620    10627    10628    10633    10640    10643 
   10648    10658    10660    10666    10679    10687    10689    10692 
   10698    10706    10712    10719    10727    10729    10731    10740 
   10746    10751    10756    10760    10766    10770    10773    10779 
   10783    10787    10793    10798    10802    10804    10806    10810 
   10812    10816    10822    10827    10828    10825    10827    10832 
   10836    10839    10841    10839    10837    10843    10847    10847 
   10843    10845    10848    10844    10845    10851    10849    10848 
   10847    10847    10844    10844    10849    10851    10845    10844 
   10847    10845    10839    10836    10839    10837    10833    10832 
   10829    10827    10827    10822    10818    10818    10814    10812 
   10809    10802    10800    10800    10795    10793    10789    10783 
   10779    10778    10771    10766    10763    10759    10756    10755 
   10750    10744    10741    10736    10729    10725    10721    10720 
   10716    10709    10705    10700    10693    10689    10682    10678 
   10677    10673    10670    10665    10656    10651    10644    10642 
   10642    10632    10624    10625    10620    10612    10605    10602 
   10597    10592    10589    10586    10578    10573    10567    10562 
   10561    10558    10550    10546    10540    10539    10536    10530 
   10525    10520    10513    10512    10508    10504    10504    10500 
   10492    10489    10489    10486    10482    10478    10474    10469 
   10465    10463    10461    10459    10454    10449    10449    10446 
   10443    10443    10440    10438    10436    10436    10436    10434 
   10432    10434    10430    10427    10430    10431    10430    10430 
   10434    10434    10430    10430    10434    10435    10435    10436 
   10438    10438    10438    10440    10443    10443    10447    10451 
   10454    10453    10451    10455    10461    10465    10469    10469 
   10471    10473    10471    10478    10484    10485    10490    10494 
   10494    10494    10496    10500    10505    10509    10512    10513 
   10513    10520    10524    10525    10528    10527    10530    10535 
   10538    10539    10542    10543    10543    10544    10550    10554 
   10551    10554    10561    10561    10561    10563    10569    10571 
   10574    10581    10584    10584    10588    10590    10592    10594 
   10597    10601    10604    10605    10609    10612    10615    10621 
   10623    10625    10633    10636    10635    10640    10646    10647 
   10648    10654    10660    10662    10667    10674    10675    10677 
   10678    10679    10686    10693    10694    10696    10700    10704 
   10706    10710    10713    10713    10714    10717    10724    10728 
   10728    10731    10735    10736    10735    10736    10740    10746 
   10746    10746    10751    10750    10751    10756    10758    10759 
   10762    10764    10762    10759    10763    10768    10764    10766 
   10773    10774    10771    10771    10773    10768    10768    10773 
   10777    10774    10773    10774    10775    10773    10771    10774 
   10774    10770    10771    10771    10768    10770    10773    10770 
   10766    10766    10770    10768    10764    10767    10768    10764 
   10763    10762    10762    10762    10759    10762    10762    10758 
   10756    10755    10754    10751    10750    10754    10754    10750 
   10748    10746    10741    10741    10740    10740    10739    10736 
   10733    10731    10728    10728    10728    10725    10720    10717 
   10716    10716    10713    10709    10705    10705    10705    10702 
   10700    10697    10692    10689    10686    10685    10683    10681 
   10678    10674    10671    10670    10667    10665    10660    10658 
   10658    10654    10647    10650    10650    10642    10639    10639 
   10638    10638    10633    10632    10629    10625    10624    10623 
   10621    10619    10615    10613    10612    10609    10608    10606 
   10604    10602    10598    10593    10592    10592    10590    10586 
   10584    10584    10581    10575    10571    10569    10570    10566 
   10565    10563    10558    10554    10551    10544    10543    10540 
   10535    10535    10536    10531    10523    10519    10517    10513 
   10508    10509    10508    10501    10497    10494    10492    10488 
   10484    10482    10484    10480    10474    10471    10467    10462 
   10461    10463    10458    10455    10458    10455    10449    10449 
   10451    10450    10446    10446    10450    10450    10443    10444 
   10449    10447    10444    10450    10455    10454    10454    10458 
   10459    10459    10459    10463    10470    10473    10474    10480 
   10482    10485    10492    10497    10500    10501    10507    10512 
   10513    10519    10528    10531    10536    10543    10543    10551 
   10562    10565    10567    10577    10586    10588    10594    10608 
   10611    10612    10624    10632    10635    10642    10651    10658 
   10663    10670    10678    10683    10692    10698    10704    10712 
   10720    10728    10739    10744    10750    10754    10759    10767 
   10775    10778    10785    10794    10801    10806    10812    10816 
   10821    10828    10831    10833    10841    10847    10848    10851 
   10854    10854    10859    10864    10866    10868    10868    10866 
   10864    10867    10871    10870    10866    10868    10866    10862 
   10862    10859    10855    10855    10852    10848    10841    10837 
   10839    10833    10828    10824    10818    10817    10813    10804 
   10797    10793    10787    10782    10778    10773    10767    10763 
   10759    10748    10739    10736    10732    10728    10721    10713 
   10712    10708    10700    10692    10687    10685    10678    10671 
   10671    10669    10663    10659    10652    10648    10648    10648 
   10643    10636    10636    10638    10633    10628    10625    10621 
   10621    10620    10619    10620    10617    10615    10619    10619 
   10613    10613    10613    10612    10613    10615    10616    10613 
   10612    10615    10615    10615    10613    10612    10615    10616 
   10619    10619    10615    10616    10620    10621    10623    10624 
   10624    10625    10625    10625    10625    10628    10632    10633 
   10632    10635    10638    10635    10636    10640    10639    10638 
   10642    10643    10642    10643    10643    10640    10640    10640 
   10644    10646    10640    10640    10643    10638    10635    10633 
   10632    10632    10631    10629    10628    10621    10617    10617 
   10612    10606    10604    10602    10601    10597    10594    10593 
   10588    10584    10581    10578    10573    10565    10559    10558 
   10554    10551    10550    10546    10540    10534    10532    10535 
   10530    10521    10521    10520    10516    10515    10517    10517 
   10511    10508    10508    10505    10501    10503    10505    10505 
   10504    10505    10507    10507    10511    10507    10504    10508 
   10515    10513    10511    10512    10519    10519    10517    10524 
   10527    10527    10531    10532    10531    10534    10535    10538 
   10539    10542    10547    10546    10546    10551    10552    10551 
   10552    10559    10563    10559    10558    10565    10566    10566 
   10570    10575    10575    10571    10573    10578    10578    10577 
   10581    10582    10581    10579    10582    10585    10582    10581 
   10585    10590    10593    10589    10588    10586    10585    10590 
   10594    10588    10588    10593    10592    10589    10590    10594 
   10596    10594    10594    10593    10593    10597    10598    10594 
   10596    10598    10600    10600    10598    10601    10602    10602 
   10604    10608    10608    10609    10612    10612    10609    10613 
   10620    10619    10620    10623    10621    10623    10627    10628 
   10628    10631    10635    10635    10632    10635    10639    10639 
   10639    10643    10648    10646    10642    10644    10650    10648 
   10650    10654    10655    10654    10654    10658    10658    10655 
   10663    10667    10667    10671    10671    10669    10673    10677 
   10678    10678    10681    10685    10687    10689    10693    10697 
   10698    10697    10698    10704    10704    10704    10709    10710 
   10710    10712    10713    10720    10721    10717    10720    10723 
   10720    10719    10721    10723    10720    10721    10725    10724 
   10721    10720    10719    10719    10720    10719    10717    10716 
   10713    10710    10709    10708    10706    10704    10704    10702 
   10700    10694    10689    10687    10687    10681    10682    10682 
   10677    10674    10671    10669    10669    10665    10660    10656 
   10650    10652    10654    10651    10652    10652    10648    10646 
   10644    10643    10640    10642    10646    10642    10639    10640 
   10640    10638    10636    10640    10642    10638    10639    10643 
   10642    10643    10646    10646    10646    10647    10651    10651 
   10648    10650    10651    10652    10656    10656    10658    10658 
   10658    10660    10660    10659    10663    10666    10665    10666 
   10666    10665    10666    10667    10667    10666    10669    10674 
   10674    10667    10662    10666    10670    10667    10666    10670 
   10667    10666    10669    10666    10667    10666    10660    10660 
   10663    10663    10663    10662    10659    10658    10656    10656 
   10656    10658    10658    10650    10646    10652    10652    10648 
   10648    10647    10644    10642    10642    10638    10635    10638 
   10636    10628    10624    10627    10627    10621    10616    10620 
   10620    10613    10611    10608    10604    10604    10602    10598 
   10597    10596    10594    10590    10586    10585    10585    10585 
   10584    10581    10579    10581    10579    10579    10575    10574 
   10579    10579    10579    10579    10579    10579    10577    10577 
   10578    10578    10582    10588    10586    10588    10590    10589 
   10589    10593    10596    10598    10602    10605    10605    10608 
   10609    10608    10609    10616    10621    10621    10624    10629 
   10632    10627    10631    10642    10643    10640    10644    10648 
   10655    10658    10658    10662    10663    10666    10671    10673 
   10675    10679    10682    10686    10689    10692    10697    10696 
   10694    10697    10704    10710    10712    10710    10714    10720 
   10720    10716    10720    10728    10725    10721    10728    10733 
   10728    10728    10735    10735    10731    10731    10732    10731 
   10731    10733    10729    10723    10721    10727    10725    10720 
   10721    10721    10716    10714    10712    10705    10704    10704 
   10701    10697    10696    10696    10690    10685    10685    10685 
   10681    10675    10671    10671    10667    10662    10660    10660 
   10654    10651    10655    10654    10646    10640    10642    10640 
   10635    10632    10631    10629    10628    10625    10625    10625 
   10624    10624    10620    10617    10619    10615    10612    10615 
   10616    10612    10612    10617    10615    10609    10613    10616 
