Origin Time       2025/01/13 21:19:00
Lat.              31.8
Long.             131.6
Depth. (km)       30
Mag.              6.9
Station Code      GNMH08
Station Lat.      36.4917
Station Long.     138.5244
Station Height(m) 890
Record Time       2025/01/13 21:23:57
Sampling Freq(Hz) 100Hz
Duration Time(s)  120
Dir.              1
Scale Factor      2942(gal)/8224139
Max. Acc. (gal)   0.106
Last Correction   2025/01/13 21:23:59
Memo.             
[...]
 -130180  -130177  -130179  -130181  -130176  -130173  -130172  -130171 
 -130169  -130168  -130167  -130164  -130161  -130157  -130157  -130156 
 -130150  -130148  -130146  -130145  -130142  -130138  -130135  -130137 
 -130133  -130127  -130123  -130119  -130115  -130114  -130113  -130107 
 -130106  -130106  -130099  -130094  -130092  -130088  -130086  -130084 
 -130081  -130079  -130076  -130072  -130069  -130068  -130065  -130063 
 -130061  -130057  -130052  -130050  -130049  -130048  -130046  -130044 
 -130038  -130036  -130034  -130033  -130032  -130029  -130025  -130023 
 -130023  -130018  -130014  -130015  -130014  -130011  -130006  -130003 
 -130003  -130000  -129996  -129995  -129992  -129990  -129987  -129986 
 -129982  -129980  -129978  -129976  -129973  -129969  -129967  -129965 
 -129964  -129960  -129959  -129957  -129955  -129953  -129952  -129949 
 -129946  -129946  -129945  -129942  -129940  -129938  -129937  -129937 
 -129936  -129936  -129933  -129934  -129936  -129934  -129930  -129932 
 -129933  -129933  -129934  -129934  -129933  -129932  -129934  -129937 
 -129936  -129938  -129938  -129937  -129940  -129942  -129942  -129944 
 -129945  -129946  -129949  -129946  -129945  -129949  -129949  -129949 
 -129953  -129953  -129953  -129955  -129953  -129953  -129955  -129955 
 -129956  -129956  -129955  -129956  -129957  -129957  -129956  -129956 
 -129957  -129959  -129956  -129955  -129957  -129957  -129955  -129955 
 -129956  -129952  -129951  -129951  -129948  -129946  -129948  -129946 
 -129942  -129941  -129941  -129938  -129936  -129936  -129934  -129930 
 -129929  -129928  -129929  -129926  -129924  -129922  -129919  -129917 
 -129914  -129914  -129913  -129907  -129907  -129907  -129902  -129898 
 -129897  -129895  -129894  -129890  -129886  -129884  -129886  -129884 
 -129882  -129878  -129875  -129875  -129876  -129875  -129872  -129871 
 -129870  -129867  -129868  -129868  -129867  -129864  -129864  -129867 
 -129867  -129867  -129868  -129870  -129870  -129870  -129871  -129874 
 -129875  -129876  -129879  -129880  -129880  -129884  -129886  -129887 
 -129891  -129898  -129901  -129903  -129907  -129910  -129913  -129917 
 -129921  -129926  -129930  -129932  -129937  -129942  -129944  -129946 
 -129953  -129960  -129960  -129963  -129969  -129975  -129979  -129982 
 -129987  -129990  -129992  -129999  -130003  -130005  -130011  -130017 
 -130021  -130023  -130029  -130032  -130033  -130040  -130046  -130049 
 -130053  -130057  -130061  -130065  -130072  -130077  -130079  -130081 
 -130090  -130094  -130099  -130106  -130107  -130108  -130115  -130123 
 -130125  -130126  -130133  -130140  -130141  -130144  -130148  -130152 
 -130157  -130158  -130160  -130167  -130171  -130172  -130177  -130180 
 -130179  -130180  -130184  -130187  -130188  -130189  -130191  -130192 
 -130192  -130194  -130194  -130194  -130194  -130195  -130194  -130191 
 -130191  -130192  -130189  -130189  -130189  -130187  -130185  -130181 
 -130177  -130177  -130176  -130173  -130173  -130171  -130167  -130165 
 -130164  -130160  -130158  -130157  -130152  -130148  -130146  -130145 
 -130142  -130140  -130137  -130137  -130135  -130134  -130131  -130127 
 -130127  -130126  -130125  -130122  -130122  -130121  -130119  -130118 
 -130117  -130115  -130117  -130117  -130114  -130113  -130114  -130113 
 -130108  -130110  -130111  -130108  -130107  -130110  -130108  -130106 
 -130106  -130106  -130107  -130107  -130103  -130103  -130103  -130100 
 -130099  -130099  -130100  -130100  -130099  -130098  -130096  -130095 
 -130096  -130096  -130094  -130092  -130090  -130091  -130091  -130088 
 -130087  -130087  -130086  -130084  -130086  -130087  -130083  -130081 
 -130083  -130080  -130079  -130079  -130075  -130077  -130079  -130076 
 -130076  -130076  -130075  -130075  -130072  -130073  -130075  -130072 
 -130069  -130072  -130072  -130071  -130071  -130071  -130068  -130068 
 -130069  -130067  -130067  -130068  -130065  -130065  -130065  -130063 
 -130063  -130063  -130061  -130061  -130061  -130060  -130060  -130057 
 -130056  -130057  -130054  -130053  -130052  -130050  -130049  -130046 
 -130046  -130045  -130042  -130042  -130044  -130042  -130040  -130036 
 -130036  -130038  -130037  -130034  -130032  -130032  -130033  -130033 
 -130032  -130029  -130026  -130027  -130026  -130023  -130025  -130026 
 -130025  -130025  -130025  -130025  -130025  -130026  -130026  -130026 
 -130027  -130026  -130025  -130027  -130027  -130026  -130027  -130032 
 -130033  -130034  -130034  -130036  -130037  -130037  -130037  -130040 
 -130040  -130040  -130044  -130045  -130045  -130045  -130048  -130048 
 -130048  -130050  -130052  -130050  -130048  -130049  -130053  -130054 
 -130052  -130052  -130052  -130050  -130050  -130050  -130050  -130049 
 -130048  -130046  -130045  -130046  -130045  -130041  -130038  -130037 
 -130034  -130034  -130033  -130027  -130025  -130023  -130022  -130019 
 -130014  -130011  -130009  -130005  -130002  -130000  -129996  -129992 
 -129988  -129984  -129979  -129973  -129971  -129969  -129965  -129959 
 -129956  -129951  -129944  -129938  -129936  -129932  -129929  -129926 
 -129922  -129914  -129907  -129903  -129901  -129895  -129890  -129884 
 -129880  -129878  -129874  -129865  -129860  -129857  -129855  -129851 
 -129848  -129845  -129843  -129837  -129832  -129829  -129824  -129820 
 -129820  -129817  -129813  -129810  -129807  -129806  -129805  -129805 
 -129803  -129799  -129798  -129799  -129799  -129795  -129793  -129795 
 -129798  -129797  -129797  -129799  -129799  -129801  -129801  -129802 
 -129803  -129805  -129807  -129811  -129816  -129818  -129821  -129824 
 -129828  -129829  -129833  -129838  -129844  -129847  -129849  -129855 
 -129860  -129861  -129867  -129874  -129878  -129880  -129886  -129892 
 -129897  -129899  -129903  -129909  -129913  -129917  -129924  -129928 
 -129929  -129933  -129941  -129942  -129941  -129948  -129955  -129955 
 -129955  -129960  -129965  -129967  -129969  -129972  -129973  -129976 
 -129978  -129979  -129978  -129978  -129980  -129983  -129983  -129982 
 -129983  -129984  -129983  -129982  -129983  -129983  -129983  -129980 
 -129979  -129980  -129982  -129979  -129978  -129978  -129973  -129972 
 -129976  -129975  -129972  -129971  -129971  -129968  -129967  -129965 
 -129964  -129965  -129964  -129961  -129961  -129963  -129963  -129960 
 -129959  -129959  -129959  -129956  -129957  -129957  -129959  -129959 
 -129959  -129959  -129957  -129960  -129960  -129961  -129964  -129964 
 -129963  -129964  -129967  -129968  -129968  -129971  -129975  -129973 
 -129972  -129975  -129980  -129982  -129983  -129984  -129987  -129990 
 -129994  -129998  -129998  -129999  -130003  -130009  -130011  -130013 
 -130015  -130019  -130023  -130025  -130030  -130033  -130036  -130038 
 -130041  -130045  -130050  -130053  -130057  -130063  -130065  -130068 
 -130072  -130076  -130079  -130084  -130090  -130090  -130092  -130099 
 -130103  -130106  -130110  -130114  -130118  -130121  -130123  -130125 
 -130127  -130131  -130137  -130138  -130140  -130142  -130145  -130149 
 -130152  -130154  -130157  -130157  -130156  -130157  -130161  -130164 
 -130162  -130162  -130164  -130167  -130167  -130168  -130168  -130169 
 -130171  -130171  -130168  -130167  -130171  -130172  -130169  -130168 
 -130169  -130171  -130169  -130168  -130168  -130168  -130168  -130168 
 -130168  -130168  -130167  -130165  -130165  -130165  -130165  -130165 
 -130164  -130164  -130164  -130162  -130162  -130161  -130161  -130164 
 -130162  -130162  -130164  -130162  -130162  -130167  -130164  -130162 
 -130164  -130164  -130165  -130169  -130169  -130169  -130171  -130171 
 -130173  -130176  -130175  -130176  -130180  -130181  -130180  -130183 
 -130188  -130188  -130189  -130192  -130195  -130196  -130200  -130203 
 -130203  -130207  -130211  -130214  -130216  -130219  -130222  -130226 
 -130229  -130231  -130234  -130238  -130242  -130245  -130250  -130254 
 -130256  -130258  -130264  -130265  -130265  -130270  -130275  -130275 
 -130275  -130279  -130283  -130284  -130288  -130293  -130293  -130295 
 -130297  -130300  -130299  -130296  -130300  -130303  -130300  -130303 
 -130306  -130304  -130304  -130303  -130302  -130302  -130303  -130303 
 -130300  -130297  -130299  -130297  -130293  -130291  -130292  -130289 
 -130283  -130280  -130281  -130276  -130275  -130273  -130268  -130265 
 -130261  -130253  -130249  -130249  -130245  -130238  -130234  -130229 
 -130223  -130218  -130215  -130211  -130203  -130198  -130195  -130189 
 -130181  -130176  -130172  -130168  -130158  -130150  -130148  -130145 
 -130137  -130130  -130123  -130114  -130108  -130104  -130096  -130091 
 -130086  -130079  -130068  -130061  -130057  -130049  -130042  -130037 
 -130032  -130023  -130017  -130011  -130005  -129998  -129992  -129984 
 -129976  -129971  -129967  -129959  -129951  -129945  -129940  -129934 
 -129932  -129924  -129914  -129911  -129909  -129901  -129895  -129891 
 -129886  -129879  -129876  -129875  -129870  -129865  -129861  -129855 
 -129852  -129851  -129847  -129844  -129841  -129836  -129833  -129836 
 -129836  -129830  -129828  -129826  -129825  -129825  -129822  -129822 
 -129825  -129821  -129820  -129824  -129824  -129821  -129824  -129828 
 -129829  -129828  -129826  -129828  -129829  -129833  -129836  -129836 
 -129838  -129845  -129847  -129849  -129851  -129851  -129857  -129861 
 -129861  -129864  -129868  -129875  -129880  -129880  -129883  -129890 
 -129895  -129898  -129902  -129906  -129909  -129915  -129919  -129922 
 -129928  -129933  -129934  -129938  -129945  -129949  -129952  -129957 
 -129961  -129964  -129968  -129971  -129975  -129980  -129983  -129987 
 -129992  -129995  -129998  -130000  -130003  -130007  -130011  -130010 
 -130011  -130017  -130021  -130022  -130023  -130025  -130025  -130026 
 -130029  -130029  -130029  -130033  -130034  -130032  -130033  -130037 
 -130037  -130037  -130037  -130037  -130037  -130040  -130040  -130037 
 -130038  -130037  -130037  -130038  -130037  -130036  -130034  -130032 
 -130033  -130032  -130027  -130026  -130025  -130025  -130022  -130019 
 -130019  -130019  -130018  -130013  -130011  -130010  -130010  -130009 
 -130005  -130005  -130006  -130000  -129999  -130002  -129996  -129991 
 -129990  -129988  -129986  -129986  -129984  -129980  -129979  -129978 
 -129976  -129973  -129972  -129969  -129967  -129967  -129967  -129963 
 -129961  -129961  -129961  -129960  -129959  -129957  -129956  -129955 
 -129955  -129953  -129955  -129955  -129952  -129953  -129956  -129955 
 -129951  -129951  -129955  -129956  -129955  -129953  -129956  -129957 
 -129959  -129961  -129963  -129963  -129964  -129967  -129971  -129975 
 -129976  -129978  -129982  -129986  -129988  -129991  -129992  -129998 
 -130002  -130003  -130006  -130011  -130015  -130019  -130025  -130027 
 -130033  -130037  -130042  -130046  -130052  -130056  -130061  -130064 
 -130071  -130077  -130080  -130084  -130091  -130096  -130099  -130104 
 -130111  -130115  -130117  -130122  -130127  -130131  -130137  -130142 
 -130144  -130149  -130153  -130156  -130161  -130168  -130171  -130173 
 -130179  -130183  -130183  -130184  -130191  -130195  -130198  -130202 
 -130204  -130204  -130208  -130215  -130216  -130216  -130221  -130223 
 -130223  -130226  -130229  -130231  -130231  -130233  -130235  -130235 
 -130237  -130239  -130239  -130239  -130242  -130243  -130242  -130242 
 -130245  -130245  -130242  -130241  -130239  -130238  -130238  -130239 
 -130241  -130238  -130234  -130234  -130233  -130231  -130231  -130229 
 -130225  -130225  -130225  -130219  -130218  -130216  -130212  -130208 
 -130207  -130204  -130202  -130200  -130198  -130195  -130192  -130189 
 -130181  -130176  -130179  -130177  -130169  -130165  -130164  -130160 
 -130156  -130152  -130150  -130148  -130144  -130140  -130140  -130135 
 -130130  -130127  -130123  -130118  -130114  -130113  -130110  -130107 
 -130100  -130096  -130094  -130090  -130083  -130079  -130075  -130071 
 -130068  -130063  -130059  -130056  -130048  -130042  -130041  -130036 
 -130030  -130027  -130022  -130017  -130013  -130006  -130000  -129998 
 -129991  -129984  -129979  -129973  -129969  -129964  -129956  -129952 
 -129948  -129940  -129936  -129933  -129925  -129919  -129917  -129913 
 -129909  -129905  -129898  -129892  -129890  -129887  -129880  -129875 
 -129872  -129871  -129870  -129865  -129863  -129857  -129853  -129853 
 -129851  -129848  -129848  -129845  -129841  -129840  -129840  -129837 
 -129837  -129840  -129840  -129837  -129834  -129834  -129837  -129838 
 -129834  -129837  -129844  -129844  -129843  -129847  -129849  -129849 
 -129849  -129851  -129856  -129860  -129861  -129864  -129870  -129874 
 -129875  -129878  -129884  -129888  -129892  -129897  -129902  -129907 
 -129914  -129917  -129921  -129928  -129933  -129940  -129948  -129953 
 -129960  -129968  -129972  -129979  -129988  -129994  -129999  -130007 
 -130014  -130021  -130027  -130033  -130042  -130053  -130060  -130065 
 -130073  -130080  -130087  -130095  -130103  -130111  -130117  -130126 
 -130135  -130142  -130152  -130158  -130164  -130173  -130181  -130185 
 -130194  -130204  -130212  -130216  -130225  -130234  -130235  -130242 
 -130252  -130256  -130261  -130266  -130269  -130276  -130283  -130287 
 -130295  -130300  -130300  -130304  -130308  -130311  -130314  -130318 
 -130322  -130326  -130327  -130330  -130334  -130334  -130334  -130335 
 -130337  -130338  -130338  -130338  -130337  -130337  -130341  -130339 
 -130335  -130335  -130334  -130333  -130331  -130329  -130324  -130320 
 -130320  -130318  -130312  -130308  -130307  -130303  -130296  -130292 
 -130289  -130283  -130275  -130269  -130266  -130258  -130252  -130248 
 -130239  -130230  -130226  -130221  -130211  -130203  -130198  -130187 
 -130179  -130175  -130168  -130160  -130149  -130142  -130135  -130127 
 -130118  -130110  -130103  -130096  -130087  -130076  -130069  -130064 
 -130056  -130048  -130040  -130032  -130025  -130019  -130011  -130005 
 -130000  -129994  -129987  -129983  -129978  -129969  -129963  -129957 
 -129955  -129951  -129942  -129936  -129933  -129929  -129925  -129922 
 -129918  -129914  -129911  -129909  -129906  -129902  -129898  -129898 
 -129895  -129891  -129891  -129892  -129890  -129886  -129887  -129884 
 -129882  -129884  -129884  -129880  -129879  -129879  -129878  -129880 
 -129880  -129879  -129880  -129882  -129880  -129880  -129882  -129880 
 -129882  -129883  -129883  -129886  -129888  -129888  -129890  -129891 
 -129891  -129891  -129894  -129895  -129897  -129899  -129901  -129901 
 -129902  -129905  -129907  -129909  -129913  -129914  -129913  -129914 
 -129915  -129917  -129921  -129921  -129919  -129922  -129925  -129925 
 -129926  -129929  -129929  -129929  -129930  -129930  -129933  -129934 
 -129933  -129932  -129934  -129938  -129936  -129936  -129937  -129936 
 -129934  -129933  -129932  -129932  -129934  -129934  -129930  -129932 
 -129932  -129930  -129930  -129928  -129928  -129930  -129929  -129926 
 -129929  -129929  -129928  -129928  -129929  -129929  -129928  -129926 
 -129930  -129933  -129933  -129933  -129934  -129936  -129938  -129941 
 -129942  -129944  -129946  -129951  -129955  -129957  -129959  -129963 
 -129967  -129969  -129972  -129976  -129982  -129987  -129992  -129996 
 -130002  -130006  -130010  -130015  -130022  -130029  -130032  -130037 
 -130045  -130050  -130053  -130061  -130068  -130073  -130080  -130086 
 -130090  -130098  -130104  -130110  -130118  -130126  -130131  -130138 
 -130145  -130152  -130158  -130165  -130172  -130175  -130181  -130192 
 -130195  -130198  -130206  -130210  -130212  -130218  -130225  -130229 
 -130234  -130235  -130239  -130245  -130249  -130250  -130253  -130257 
 -130257  -130257  -130261  -130265  -130265  -130266  -130265  -130265 
 -130268  -130269  -130269  -130268  -130265  -130262  -130262  -130265 
 -130265  -130261  -130260  -130257  -130249  -130246  -130248  -130243 
 -130239  -130235  -130231  -130229  -130223  -130218  -130215  -130210 
 -130204  -130199  -130194  -130189  -130187  -130180  -130173  -130168 
 -130164  -130157  -130152  -130148  -130141  -130133  -130129  -130122 
 -130115  -130111  -130107  -130099  -130092  -130090  -130086  -130080 
 -130075  -130071  -130065  -130060  -130054  -130050  -130048  -130042 
 -130038  -130033  -130030  -130029  -130023  -130018  -130015  -130011 
 -130010  -130010  -130007  -130002  -129998  -129996  -129996  -129995 
 -129994  -129992  -129991  -129987  -129984  -129987  -129988  -129984 
 -129984  -129987  -129984  -129983  -129983  -129986  -129986  -129986 
 -129987  -129987  -129988  -129991  -129991  -129991  -129994  -129995 
 -129996  -129998  -130000  -130000  -130003  -130009  -130010  -130011 
 -130013  -130014  -130017  -130018  -130019  -130025  -130029  -130029 
 -130029  -130033  -130037  -130038  -130038  -130041  -130045  -130046 
 -130050  -130054  -130053  -130053  -130056  -130061  -130064  -130064 
 -130067  -130071  -130071  -130072  -130076  -130077  -130079  -130081 
 -130086  -130088  -130088  -130090  -130090  -130092  -130096  -130099 
 -130100  -130103  -130103  -130103  -130106  -130106  -130108  -130114 
 -130114  -130114  -130117  -130119  -130122  -130122  -130123  -130125 
 -130125  -130127  -130130  -130131  -130133  -130133  -130134  -130138 
 -130138  -130137  -130140  -130142  -130142  -130142  -130144  -130145 
 -130148  -130148  -130146  -130149  -130150  -130150  -130153  -130154 
 -130154  -130156  -130157  -130157  -130158  -130162  -130162  -130164 
 -130162  -130162  -130165  -130168  -130168  -130171  -130172  -130172 
 -130171  -130172  -130173  -130175  -130173  -130175  -130176  -130177 
 -130180  -130181  -130181  -130183  -130184  -130185  -130185  -130187 
 -130187  -130184  -130185  -130188  -130188  -130188  -130189  -130188 
 -130187  -130188  -130189  -130187  -130184  -130185  -130188  -130187 
 -130185  -130187  -130185  -130184  -130184  -130180  -130177  -130179 
 -130177  -130173  -130172  -130171  -130167  -130162  -130162  -130160 
 -130154  -130150  -130148  -130145  -130142  -130137  -130133  -130129 
 -130126  -130119  -130115  -130111  -130106  -130102  -130098  -130092 
 -130086  -130079  -130072  -130068  -130064  -130056  -130048  -130044 
 -130037  -130029  -130023  -130017  -130011  -130005  -129996  -129988 
 -129983  -129978  -129969  -129963  -129956  -129948  -129942  -129938 
 -129933  -129926  -129918  -129911  -129906  -129901  -129895  -129891 
 -129887  -129880  -129872  -129868  -129864  -129860  -129857  -129855 
 -129852  -129847  -129843  -129841  -129840  -129836  -129832  -129830 
 -129830  -129828  -129826  -129828  -129825  -129822  -129821  -129820 
 -129818  -129820  -129820  -129818  -129818  -129821  -129822  -129820 
 -129822  -129826  -129826  -129826  -129828  -129830  -129832  -129832 
 -129833  -129832  -129834  -129841  -129843  -129843  -129845  -129847 
 -129848  -129851  -129853  -129856  -129859  -129861  -129864  -129867 
 -129868  -129871  -129874  -129879  -129883  -129884  -129887  -129891 
 -129894  -129897  -129898  -129898  -129902  -129909  -129911  -129911 
 -129914  -129918  -129918  -129922  -129928  -129928  -129928  -129933 
 -129937  -129938  -129941  -129944  -129945  -129949  -129955  -129955 
