Origin Time       2025/01/13 21:19:00
Lat.              31.8
Long.             131.6
Depth. (km)       30
Mag.              6.9
Station Code      GNMH08
Station Lat.      36.4917
Station Long.     138.5244
Station Height(m) 890
Record Time       2025/01/13 21:23:57
Sampling Freq(Hz) 100Hz
Duration Time(s)  120
Dir.              3
Scale Factor      2942(gal)/8224139
Max. Acc. (gal)   0.090
Last Correction   2025/01/13 21:23:59
Memo.             
[...]
  -30176   -30177   -30176   -30179   -30179   -30179   -30179   -30180 
  -30179   -30179   -30180   -30181   -30181   -30183   -30184   -30183 
  -30184   -30187   -30188   -30188   -30188   -30190   -30190   -30190 
  -30192   -30196   -30195   -30192   -30190   -30186   -30188   -30192 
  -30192   -30194   -30195   -30192   -30192   -30198   -30198   -30196 
  -30198   -30196   -30198   -30198   -30198   -30198   -30198   -30198 
  -30198   -30199   -30199   -30198   -30196   -30198   -30200   -30199 
  -30198   -30199   -30198   -30196   -30196   -30196   -30199   -30199 
  -30198   -30195   -30194   -30195   -30195   -30194   -30194   -30192 
  -30192   -30190   -30188   -30190   -30190   -30188   -30187   -30186 
  -30186   -30186   -30184   -30181   -30184   -30183   -30179   -30180 
  -30181   -30179   -30179   -30180   -30179   -30177   -30177   -30177 
  -30176   -30176   -30176   -30172   -30173   -30176   -30173   -30175 
  -30176   -30175   -30175   -30175   -30173   -30172   -30175   -30177 
  -30175   -30173   -30173   -30175   -30175   -30175   -30173   -30175 
  -30176   -30175   -30173   -30177   -30177   -30176   -30177   -30177 
  -30175   -30177   -30180   -30179   -30180   -30180   -30179   -30181 
  -30181   -30179   -30181   -30183   -30181   -30181   -30186   -30187 
  -30186   -30184   -30184   -30187   -30188   -30187   -30187   -30190 
  -30192   -30194   -30192   -30192   -30194   -30196   -30199   -30202 
  -30202   -30206   -30208   -30206   -30207   -30211   -30215   -30215 
  -30214   -30214   -30217   -30219   -30222   -30223   -30225   -30226 
  -30230   -30233   -30234   -30235   -30238   -30242   -30246   -30249 
  -30249   -30250   -30253   -30256   -30256   -30257   -30260   -30262 
  -30264   -30264   -30265   -30268   -30269   -30268   -30269   -30273 
  -30273   -30273   -30276   -30276   -30277   -30280   -30279   -30277 
  -30281   -30283   -30281   -30280   -30281   -30281   -30283   -30283 
  -30281   -30281   -30279   -30277   -30281   -30283   -30279   -30281 
  -30281   -30277   -30275   -30276   -30276   -30273   -30273   -30275 
  -30275   -30272   -30273   -30271   -30267   -30265   -30265   -30261 
  -30260   -30261   -30262   -30260   -30254   -30252   -30252   -30252 
  -30250   -30250   -30249   -30248   -30246   -30244   -30238   -30238 
  -30238   -30233   -30231   -30229   -30226   -30229   -30229   -30223 
  -30222   -30223   -30222   -30219   -30217   -30218   -30218   -30215 
  -30213   -30211   -30210   -30208   -30207   -30207   -30207   -30204 
  -30202   -30202   -30203   -30203   -30202   -30202   -30199   -30196 
  -30194   -30194   -30195   -30194   -30191   -30191   -30188   -30187 
  -30188   -30187   -30184   -30184   -30184   -30180   -30180   -30180 
  -30175   -30175   -30176   -30175   -30169   -30169   -30172   -30169 
  -30167   -30168   -30167   -30160   -30156   -30161   -30163   -30160 
  -30160   -30159   -30152   -30153   -30156   -30154   -30150   -30153 
  -30154   -30152   -30150   -30152   -30152   -30149   -30150   -30152 
  -30152   -30150   -30152   -30152   -30153   -30154   -30154   -30156 
  -30159   -30160   -30161   -30163   -30165   -30165   -30167   -30168 
  -30169   -30171   -30173   -30175   -30179   -30180   -30179   -30179 
  -30181   -30186   -30188   -30187   -30188   -30194   -30196   -30196 
  -30199   -30203   -30203   -30207   -30211   -30210   -30210   -30214 
  -30214   -30214   -30217   -30218   -30218   -30221   -30225   -30227 
  -30226   -30226   -30230   -30233   -30233   -30234   -30237   -30235 
  -30235   -30238   -30240   -30242   -30245   -30245   -30244   -30245 
  -30248   -30246   -30246   -30248   -30246   -30246   -30248   -30249 
  -30250   -30250   -30249   -30249   -30249   -30252   -30252   -30249 
  -30246   -30248   -30252   -30253   -30250   -30248   -30248   -30252 
  -30254   -30253   -30250   -30250   -30252   -30256   -30256   -30256 
  -30256   -30256   -30256   -30257   -30257   -30258   -30260   -30260 
  -30260   -30261   -30264   -30264   -30262   -30267   -30269   -30268 
  -30269   -30273   -30273   -30271   -30273   -30276   -30279   -30279 
  -30277   -30277   -30279   -30279   -30281   -30281   -30279   -30279 
  -30280   -30283   -30283   -30280   -30281   -30283   -30283   -30283 
  -30281   -30280   -30283   -30283   -30281   -30281   -30281   -30280 
  -30280   -30279   -30277   -30279   -30277   -30273   -30273   -30275 
  -30271   -30269   -30271   -30272   -30269   -30267   -30267   -30264 
  -30261   -30261   -30260   -30258   -30258   -30257   -30254   -30252 
  -30253   -30252   -30248   -30249   -30248   -30245   -30245   -30245 
  -30242   -30244   -30242   -30240   -30241   -30241   -30238   -30238 
  -30237   -30237   -30235   -30235   -30238   -30237   -30235   -30240 
  -30241   -30241   -30242   -30242   -30242   -30245   -30246   -30245 
  -30248   -30252   -30252   -30254   -30256   -30254   -30258   -30264 
  -30264   -30264   -30268   -30271   -30273   -30275   -30276   -30277 
  -30280   -30283   -30285   -30287   -30289   -30294   -30295   -30296 
  -30299   -30303   -30306   -30306   -30308   -30311   -30312   -30315 
  -30319   -30316   -30315   -30318   -30319   -30319   -30321   -30322 
  -30322   -30322   -30323   -30322   -30321   -30321   -30321   -30315 
  -30315   -30318   -30315   -30311   -30312   -30311   -30306   -30304 
  -30306   -30302   -30298   -30296   -30294   -30289   -30285   -30283 
  -30281   -30279   -30275   -30272   -30271   -30265   -30258   -30258 
  -30257   -30254   -30249   -30245   -30242   -30242   -30240   -30234 
  -30229   -30229   -30226   -30219   -30219   -30218   -30213   -30210 
  -30210   -30204   -30203   -30203   -30196   -30192   -30191   -30187 
  -30184   -30181   -30180   -30179   -30175   -30169   -30167   -30164 
  -30161   -30157   -30156   -30156   -30154   -30153   -30149   -30144 
  -30141   -30138   -30134   -30132   -30130   -30127   -30122   -30119 
  -30118   -30114   -30109   -30105   -30103   -30102   -30100   -30095 
  -30091   -30090   -30090   -30087   -30083   -30082   -30080   -30078 
  -30075   -30072   -30069   -30067   -30064   -30063   -30061   -30059 
  -30055   -30053   -30055   -30053   -30051   -30048   -30045   -30045 
  -30044   -30041   -30042   -30042   -30038   -30038   -30041   -30036 
  -30033   -30038   -30038   -30036   -30037   -30038   -30038   -30036 
  -30036   -30037   -30037   -30036   -30038   -30040   -30041   -30042 
  -30044   -30045   -30045   -30045   -30048   -30051   -30052   -30052 
  -30055   -30056   -30057   -30060   -30063   -30063   -30065   -30069 
  -30071   -30071   -30072   -30073   -30075   -30078   -30079   -30083 
  -30087   -30087   -30087   -30090   -30095   -30099   -30099   -30099 
  -30102   -30103   -30106   -30110   -30113   -30115   -30118   -30119 
  -30121   -30123   -30126   -30130   -30134   -30137   -30138   -30141 
  -30145   -30150   -30152   -30154   -30159   -30164   -30167   -30164 
  -30168   -30175   -30179   -30181   -30184   -30188   -30191   -30196 
  -30199   -30200   -30207   -30213   -30214   -30219   -30225   -30227 
  -30230   -30234   -30240   -30244   -30248   -30252   -30258   -30265 
  -30268   -30272   -30279   -30284   -30288   -30291   -30296   -30303 
  -30306   -30308   -30315   -30323   -30326   -30326   -30329   -30338 
  -30342   -30343   -30350   -30354   -30356   -30361   -30366   -30370 
  -30373   -30376   -30377   -30380   -30384   -30387   -30388   -30391 
  -30396   -30399   -30399   -30400   -30403   -30404   -30404   -30406 
  -30408   -30407   -30406   -30406   -30407   -30408   -30407   -30406 
  -30404   -30404   -30404   -30400   -30397   -30399   -30396   -30391 
  -30389   -30387   -30383   -30380   -30379   -30375   -30369   -30362 
  -30360   -30358   -30353   -30350   -30348   -30343   -30339   -30333 
  -30327   -30322   -30319   -30315   -30308   -30300   -30300   -30299 
  -30292   -30285   -30283   -30280   -30272   -30267   -30264   -30260 
  -30254   -30249   -30245   -30242   -30238   -30233   -30230   -30227 
  -30223   -30219   -30214   -30211   -30208   -30203   -30199   -30198 
  -30194   -30191   -30188   -30184   -30181   -30180   -30175   -30168 
  -30168   -30169   -30164   -30159   -30154   -30153   -30152   -30148 
  -30145   -30144   -30142   -30138   -30136   -30133   -30132   -30129 
  -30126   -30125   -30123   -30119   -30118   -30118   -30118   -30117 
  -30114   -30114   -30113   -30110   -30109   -30110   -30110   -30109 
  -30107   -30105   -30102   -30103   -30106   -30103   -30100   -30100 
  -30100   -30099   -30098   -30099   -30098   -30096   -30095   -30094 
  -30092   -30092   -30094   -30095   -30094   -30092   -30091   -30091 
  -30090   -30091   -30090   -30088   -30088   -30088   -30087   -30087 
  -30086   -30086   -30087   -30083   -30082   -30086   -30084   -30082 
  -30084   -30086   -30084   -30083   -30083   -30086   -30087   -30087 
  -30090   -30092   -30095   -30095   -30096   -30098   -30098   -30100 
  -30107   -30109   -30109   -30114   -30117   -30121   -30126   -30126 
  -30130   -30136   -30140   -30142   -30146   -30152   -30156   -30161 
  -30165   -30168   -30173   -30180   -30183   -30187   -30192   -30196 
  -30200   -30203   -30207   -30213   -30214   -30219   -30227   -30231 
  -30233   -30238   -30242   -30244   -30248   -30250   -30254   -30257 
  -30260   -30262   -30267   -30268   -30271   -30273   -30276   -30277 
  -30281   -30283   -30284   -30288   -30294   -30294   -30292   -30295 
  -30299   -30299   -30299   -30302   -30302   -30304   -30304   -30303 
  -30302   -30302   -30303   -30302   -30303   -30306   -30306   -30304 
  -30304   -30304   -30302   -30300   -30302   -30302   -30299   -30296 
  -30298   -30298   -30296   -30294   -30291   -30291   -30289   -30288 
  -30287   -30285   -30284   -30281   -30280   -30279   -30276   -30273 
  -30272   -30271   -30271   -30271   -30269   -30267   -30264   -30265 
  -30265   -30262   -30258   -30258   -30260   -30258   -30256   -30254 
  -30256   -30258   -30256   -30256   -30257   -30256   -30254   -30254 
  -30257   -30260   -30260   -30260   -30260   -30260   -30261   -30261 
  -30262   -30265   -30269   -30269   -30269   -30271   -30272   -30275 
  -30277   -30279   -30277   -30279   -30283   -30285   -30284   -30285 
  -30287   -30289   -30289   -30288   -30291   -30294   -30294   -30292 
  -30294   -30295   -30296   -30298   -30302   -30300   -30298   -30299 
  -30302   -30299   -30298   -30300   -30298   -30295   -30296   -30295 
  -30294   -30296   -30294   -30287   -30287   -30289   -30287   -30283 
  -30281   -30281   -30280   -30277   -30275   -30272   -30269   -30268 
  -30265   -30264   -30262   -30257   -30252   -30252   -30249   -30244 
  -30238   -30237   -30234   -30230   -30225   -30222   -30219   -30215 
  -30213   -30210   -30206   -30202   -30198   -30194   -30190   -30188 
  -30186   -30181   -30176   -30172   -30171   -30168   -30164   -30159 
  -30156   -30152   -30148   -30148   -30146   -30142   -30141   -30140 
  -30136   -30133   -30130   -30130   -30129   -30126   -30123   -30125 
  -30123   -30121   -30117   -30118   -30119   -30117   -30115   -30117 
  -30117   -30115   -30115   -30118   -30118   -30117   -30119   -30119 
  -30117   -30119   -30119   -30117   -30119   -30122   -30122   -30122 
  -30123   -30125   -30125   -30126   -30129   -30130   -30132   -30130 
  -30132   -30134   -30136   -30136   -30138   -30144   -30144   -30144 
  -30148   -30149   -30150   -30154   -30156   -30156   -30160   -30163 
  -30164   -30167   -30168   -30169   -30173   -30176   -30179   -30183 
  -30184   -30186   -30190   -30195   -30196   -30200   -30204   -30207 
  -30211   -30214   -30217   -30219   -30223   -30229   -30231   -30237 
  -30241   -30245   -30248   -30249   -30253   -30257   -30262   -30267 
  -30271   -30276   -30280   -30283   -30288   -30291   -30295   -30298 
  -30300   -30306   -30311   -30314   -30318   -30321   -30323   -30327 
  -30329   -30331   -30337   -30341   -30343   -30348   -30349   -30350 
  -30353   -30357   -30358   -30357   -30360   -30365   -30368   -30366 
  -30366   -30369   -30370   -30372   -30375   -30375   -30375   -30375 
  -30373   -30375   -30376   -30377   -30376   -30375   -30376   -30376 
  -30372   -30372   -30376   -30373   -30370   -30372   -30372   -30368 
  -30364   -30368   -30368   -30362   -30361   -30362   -30361   -30357 
  -30354   -30354   -30353   -30349   -30348   -30348   -30343   -30342 
  -30342   -30339   -30337   -30335   -30331   -30327   -30327   -30325 
  -30321   -30319   -30318   -30315   -30314   -30310   -30308   -30308 
  -30304   -30303   -30303   -30299   -30296   -30298   -30295   -30292 
  -30291   -30288   -30285   -30283   -30281   -30283   -30285   -30283 
  -30279   -30276   -30275   -30273   -30271   -30271   -30272   -30267 
  -30265   -30267   -30262   -30260   -30261   -30257   -30253   -30252 
  -30252   -30253   -30252   -30246   -30244   -30242   -30240   -30235 
  -30231   -30230   -30226   -30221   -30217   -30211   -30208   -30206 
  -30202   -30196   -30192   -30187   -30179   -30175   -30172   -30165 
  -30159   -30154   -30150   -30144   -30134   -30127   -30125   -30118 
  -30111   -30105   -30096   -30088   -30083   -30078   -30072   -30067 
  -30061   -30053   -30048   -30042   -30034   -30030   -30028   -30021 
  -30015   -30010   -30006   -30003   -29999   -29994   -29990   -29987 
  -29984   -29982   -29978   -29976   -29975   -29971   -29971   -29971 
  -29968   -29968   -29968   -29965   -29967   -29968   -29968   -29970 
  -29972   -29974   -29975   -29976   -29978   -29980   -29984   -29986 
  -29991   -29998   -30001   -30005   -30010   -30015   -30019   -30025 
  -30033   -30038   -30044   -30049   -30056   -30064   -30071   -30078 
  -30086   -30091   -30099   -30110   -30118   -30123   -30133   -30144 
  -30152   -30156   -30164   -30175   -30181   -30190   -30199   -30208 
  -30218   -30225   -30233   -30244   -30250   -30257   -30267   -30276 
  -30283   -30291   -30300   -30308   -30316   -30323   -30330   -30338 
  -30346   -30352   -30357   -30364   -30372   -30379   -30384   -30387 
  -30393   -30402   -30407   -30410   -30414   -30416   -30422   -30427 
  -30430   -30430   -30434   -30437   -30438   -30439   -30442   -30443 
  -30445   -30446   -30446   -30443   -30442   -30443   -30442   -30441 
  -30439   -30438   -30437   -30435   -30433   -30429   -30427   -30422 
  -30418   -30415   -30411   -30406   -30402   -30396   -30392   -30385 
  -30380   -30377   -30370   -30362   -30358   -30353   -30346   -30342 
  -30333   -30327   -30325   -30321   -30314   -30307   -30300   -30294 
  -30287   -30283   -30280   -30272   -30267   -30262   -30258   -30253 
  -30246   -30242   -30242   -30237   -30229   -30226   -30223   -30221 
  -30217   -30213   -30210   -30208   -30207   -30203   -30198   -30196 
  -30195   -30192   -30191   -30190   -30186   -30187   -30187   -30181 
  -30181   -30180   -30176   -30177   -30179   -30176   -30173   -30173 
  -30173   -30173   -30172   -30169   -30171   -30172   -30172   -30171 
  -30172   -30171   -30168   -30168   -30169   -30168   -30169   -30172 
  -30167   -30167   -30168   -30168   -30171   -30172   -30167   -30165 
  -30168   -30169   -30169   -30167   -30165   -30169   -30171   -30168 
  -30167   -30167   -30167   -30168   -30167   -30164   -30164   -30165 
  -30168   -30168   -30164   -30161   -30163   -30163   -30161   -30160 
  -30160   -30159   -30156   -30157   -30157   -30154   -30153   -30154 
  -30153   -30150   -30149   -30149   -30145   -30142   -30144   -30142 
  -30138   -30137   -30137   -30137   -30134   -30132   -30133   -30130 
  -30127   -30125   -30122   -30123   -30125   -30121   -30118   -30119 
  -30121   -30117   -30113   -30115   -30117   -30115   -30114   -30111 
  -30113   -30113   -30115   -30115   -30114   -30113   -30114   -30114 
  -30115   -30115   -30117   -30117   -30118   -30122   -30125   -30123 
  -30122   -30126   -30130   -30132   -30134   -30136   -30136   -30140 
  -30145   -30144   -30144   -30146   -30149   -30152   -30153   -30156 
  -30160   -30163   -30165   -30169   -30171   -30173   -30177   -30180 
  -30183   -30186   -30188   -30191   -30194   -30198   -30200   -30203 
  -30207   -30210   -30213   -30215   -30219   -30225   -30227   -30229 
  -30234   -30237   -30235   -30241   -30248   -30248   -30249   -30253 
  -30257   -30258   -30261   -30265   -30268   -30271   -30273   -30275 
  -30276   -30277   -30279   -30280   -30281   -30284   -30285   -30285 
  -30288   -30289   -30288   -30289   -30294   -30294   -30292   -30294 
  -30296   -30295   -30292   -30294   -30295   -30295   -30295   -30294 
  -30295   -30296   -30294   -30295   -30295   -30292   -30291   -30291 
  -30289   -30291   -30294   -30291   -30285   -30285   -30287   -30284 
  -30283   -30280   -30279   -30280   -30279   -30277   -30277   -30280 
  -30280   -30275   -30273   -30276   -30275   -30272   -30273   -30273 
  -30272   -30268   -30267   -30269   -30269   -30268   -30268   -30267 
  -30265   -30265   -30267   -30268   -30267   -30265   -30268   -30269 
  -30267   -30265   -30265   -30267   -30267   -30268   -30268   -30268 
  -30267   -30267   -30269   -30269   -30268   -30271   -30271   -30267 
  -30268   -30272   -30272   -30271   -30272   -30275   -30275   -30275 
  -30276   -30277   -30277   -30280   -30280   -30280   -30280   -30281 
  -30281   -30283   -30284   -30285   -30287   -30287   -30285   -30285 
  -30285   -30285   -30284   -30285   -30285   -30284   -30283   -30283 
  -30284   -30283   -30283   -30283   -30280   -30277   -30275   -30272 
  -30272   -30271   -30267   -30267   -30265   -30260   -30260   -30261 
  -30256   -30250   -30250   -30249   -30245   -30242   -30238   -30234 
  -30233   -30233   -30229   -30225   -30221   -30218   -30217   -30214 
  -30208   -30207   -30206   -30200   -30198   -30196   -30195   -30191 
  -30187   -30186   -30184   -30180   -30179   -30176   -30173   -30175 
  -30173   -30168   -30167   -30168   -30165   -30163   -30163   -30163 
  -30161   -30160   -30160   -30159   -30160   -30161   -30161   -30157 
  -30157   -30160   -30161   -30161   -30163   -30165   -30165   -30164 
  -30167   -30171   -30172   -30173   -30176   -30177   -30180   -30186 
  -30191   -30190   -30190   -30194   -30196   -30202   -30207   -30207 
  -30208   -30213   -30218   -30222   -30225   -30227   -30231   -30235 
  -30238   -30242   -30245   -30248   -30253   -30256   -30260   -30265 
  -30268   -30268   -30269   -30273   -30277   -30277   -30280   -30284 
  -30287   -30289   -30292   -30294   -30295   -30296   -30300   -30304 
  -30304   -30304   -30307   -30308   -30308   -30312   -30316   -30316 
  -30316   -30319   -30322   -30323   -30323   -30326   -30327   -30325 
  -30326   -30330   -30329   -30327   -30330   -30331   -30330   -30330 
  -30330   -30333   -30335   -30333   -30331   -30334   -30335   -30335 
  -30337   -30337   -30338   -30338   -30335   -30334   -30334   -30335 
  -30337   -30337   -30337   -30339   -30337   -30335   -30337   -30338 
  -30338   -30337   -30334   -30331   -30333   -30335   -30333   -30331 
  -30335   -30338   -30331   -30329   -30330   -30330   -30329   -30327 
  -30326   -30325   -30323   -30321   -30319   -30318   -30316   -30315 
  -30315   -30311   -30306   -30304   -30303   -30302   -30296   -30292 
