Origin Time       2025/01/13 21:19:00
Lat.              31.8
Long.             131.6
Depth. (km)       30
Mag.              6.9
Station Code      GNMH08
Station Lat.      36.4917
Station Long.     138.5244
Station Height(m) 890
Record Time       2025/01/13 21:23:57
Sampling Freq(Hz) 100Hz
Duration Time(s)  120
Dir.              2
Scale Factor      2942(gal)/8224139
Max. Acc. (gal)   0.163
Last Correction   2025/01/13 21:23:59
Memo.             
[...]
  285172   285168   285167   285165   285160   285156   285155   285155 
  285155   285152   285148   285147   285145   285142   285141   285140 
  285138   285137   285134   285133   285132   285130   285129   285126 
  285126   285128   285125   285122   285125   285122   285121   285122 
  285122   285122   285124   285125   285124   285122   285124   285124 
  285121   285122   285124   285124   285128   285129   285128   285129 
  285132   285133   285136   285137   285138   285141   285144   285144 
  285145   285151   285155   285156   285157   285159   285160   285164 
  285168   285167   285168   285175   285175   285176   285182   285184 
  285184   285187   285190   285194   285196   285199   285203   285206 
  285206   285210   285215   285218   285221   285226   285229   285230 
  285236   285241   285242   285245   285250   285256   285260   285263 
  285263   285268   285275   285276   285283   285288   285287   285290 
  285296   285298   285303   285309   285311   285315   285318   285317 
  285319   285326   285329   285330   285334   285334   285337   285342 
  285342   285341   285346   285349   285346   285346   285348   285348 
  285346   285348   285348   285348   285348   285346   285344   285341 
  285341   285340   285337   285334   285333   285330   285326   285322 
  285319   285315   285310   285307   285302   285296   285295   285290 
  285282   285276   285271   285264   285259   285253   285248   285241 
  285236   285230   285225   285217   285210   285205   285196   285191 
  285188   285183   285174   285167   285163   285156   285148   285144 
  285141   285133   285126   285122   285120   285113   285107   285103 
  285098   285094   285091   285086   285082   285080   285074   285068 
  285067   285063   285059   285057   285055   285051   285049   285047 
  285043   285041   285039   285037   285036   285034   285032   285032 
  285033   285032   285030   285029   285029   285026   285028   285028 
  285026   285026   285030   285032   285030   285029   285032   285034 
  285036   285037   285036   285037   285040   285040   285041   285044 
  285045   285047   285048   285049   285053   285053   285055   285059 
  285059   285060   285064   285066   285068   285072   285070   285072 
  285078   285079   285080   285083   285086   285088   285088   285093 
  285095   285095   285099   285102   285102   285106   285110   285111 
  285114   285114   285117   285121   285122   285124   285125   285128 
  285130   285133   285136   285140   285144   285145   285148   285151 
  285153   285159   285163   285164   285164   285168   285174   285176 
  285179   285180   285182   285184   285188   285194   285198   285203 
  285206   285207   285214   285217   285219   285225   285228   285229 
  285233   285238   285242   285246   285250   285253   285257   285259 
  285260   285264   285269   285271   285271   285275   285277   285280 
  285284   285288   285290   285291   285294   285296   285298   285300 
  285304   285306   285307   285309   285310   285310   285313   285317 
  285319   285319   285317   285319   285323   285322   285322   285326 
  285325   285325   285330   285329   285326   285326   285327   285329 
  285327   285327   285330   285327   285326   285326   285327   285329 
  285326   285325   285326   285325   285321   285322   285322   285319 
  285317   285317   285314   285314   285313   285311   285307   285307 
  285309   285307   285303   285302   285300   285298   285299   285294 
  285291   285294   285292   285290   285287   285282   285280   285280 
  285277   285275   285273   285271   285271   285271   285268   285263 
  285260   285260   285259   285256   285255   285255   285255   285252 
  285249   285248   285248   285249   285245   285244   285246   285245 
  285241   285242   285244   285244   285244   285244   285242   285244 
  285244   285241   285241   285242   285242   285244   285245   285246 
  285249   285248   285248   285250   285255   285255   285256   285256 
  285259   285263   285263   285264   285268   285271   285272   285276 
  285277   285279   285283   285286   285288   285290   285296   285299 
  285299   285303   285306   285307   285310   285315   285319   285321 
  285325   285329   285334   285336   285337   285340   285342   285345 
  285350   285352   285352   285356   285360   285363   285365   285367 
  285367   285372   285373   285373   285375   285376   285377   285379 
  285381   285383   285381   285380   285383   285385   285384   285381 
  285381   285385   285385   285383   285383   285381   285380   285379 
  285376   285376   285376   285373   285373   285372   285368   285365 
  285365   285365   285361   285357   285356   285353   285350   285348 
  285346   285345   285341   285336   285336   285331   285326   285322 
  285318   285313   285310   285307   285302   285296   285292   285291 
  285286   285279   285276   285273   285265   285260   285257   285252 
  285245   285240   285237   285232   285223   285219   285217   285210 
  285205   285202   285195   285190   285186   285182   285178   285171 
  285165   285161   285155   285149   285148   285142   285137   285134 
  285132   285126   285122   285121   285117   285114   285111   285107 
  285103   285103   285102   285098   285095   285097   285095   285091 
  285090   285093   285091   285090   285091   285091   285090   285088 
  285088   285090   285090   285090   285090   285091   285093   285097 
  285097   285098   285099   285101   285102   285106   285109   285107 
  285107   285110   285114   285114   285118   285124   285124   285125 
  285130   285133   285136   285138   285140   285142   285145   285148 
  285149   285151   285155   285157   285159   285160   285163   285168 
  285172   285174   285176   285179   285179   285182   285186   285187 
  285191   285194   285195   285198   285201   285205   285207   285211 
  285214   285217   285221   285223   285226   285228   285230   285234 
  285237   285236   285238   285244   285249   285250   285252   285255 
  285259   285261   285261   285265   285268   285268   285267   285268 
  285275   285277   285279   285280   285283   285284   285283   285284 
  285290   285291   285290   285292   285294   285294   285294   285295 
  285296   285299   285298   285299   285299   285298   285300   285303 
  285302   285302   285304   285302   285300   285302   285300   285299 
  285300   285303   285300   285296   285298   285298   285296   285295 
  285295   285294   285294   285295   285291   285288   285288   285288 
  285286   285284   285284   285282   285282   285282   285276   285273 
  285275   285271   285269   285271   285268   285263   285261   285259 
  285255   285256   285255   285249   285249   285248   285244   285238 
  285237   285236   285233   285228   285225   285223   285221   285217 
  285215   285214   285210   285206   285202   285198   285196   285195 
  285190   285186   285184   285180   285175   285171   285169   285165 
  285163   285161   285157   285152   285149   285148   285142   285136 
  285134   285133   285128   285124   285124   285121   285114   285113 
  285109   285106   285106   285105   285098   285097   285097   285095 
  285091   285088   285087   285086   285080   285080   285082   285079 
  285078   285076   285075   285074   285074   285074   285074   285074 
  285074   285071   285070   285071   285071   285070   285075   285076 
  285074   285074   285075   285079   285080   285082   285086   285086 
  285088   285091   285091   285094   285098   285101   285102   285105 
  285110   285113   285113   285115   285120   285124   285128   285130 
  285133   285137   285141   285144   285148   285152   285157   285161 
  285163   285165   285171   285175   285178   285180   285184   285188 
  285192   285199   285201   285202   285207   285211   285215   285221 
  285225   285226   285229   285233   285238   285242   285245   285250 
  285256   285260   285261   285264   285265   285271   285276   285280 
  285282   285284   285286   285287   285294   285299   285300   285303 
  285307   285310   285310   285311   285314   285319   285323   285326 
  285327   285330   285331   285336   285337   285337   285338   285341 
  285342   285345   285348   285349   285349   285350   285352   285354 
  285354   285353   285353   285353   285354   285354   285354   285357 
  285358   285357   285356   285357   285360   285360   285360   285360 
  285356   285354   285357   285357   285354   285354   285356   285356 
  285356   285354   285354   285354   285350   285349   285350   285348 
  285346   285346   285346   285346   285346   285344   285342   285342 
  285341   285342   285341   285338   285341   285342   285338   285338 
  285341   285338   285337   285338   285336   285336   285336   285334 
  285336   285336   285334   285336   285338   285340   285338   285340 
  285340   285338   285338   285340   285341   285340   285340   285342 
  285342   285341   285344   285344   285342   285345   285345   285344 
  285344   285346   285348   285348   285346   285345   285346   285348 
  285346   285342   285342   285345   285344   285341   285341   285342 
  285342   285341   285340   285338   285337   285337   285336   285333 
  285333   285333   285331   285329   285329   285327   285323   285323 
  285323   285321   285319   285319   285318   285315   285314   285315 
  285314   285311   285313   285310   285309   285311   285309   285302 
  285303   285303   285299   285296   285296   285295   285295   285291 
  285290   285291   285288   285286   285284   285282   285279   285279 
  285279   285277   285275   285272   285271   285268   285265   285265 
  285264   285260   285256   285256   285256   285253   285249   285246 
  285246   285246   285242   285238   285238   285237   285234   285232 
  285232   285232   285229   285228   285228   285223   285217   285219 
  285219   285215   285215   285213   285207   285206   285209   285207 
  285205   285201   285198   285198   285196   285195   285196   285195 
  285188   285186   285186   285187   285184   285182   285183   285182 
  285179   285178   285175   285174   285176   285174   285171   285172 
  285172   285171   285171   285171   285167   285165   285167   285167 
  285164   285165   285164   285161   285164   285165   285160   285160 
  285163   285160   285160   285161   285157   285155   285157   285160 
  285157   285156   285156   285155   285155   285155   285156   285155 
  285152   285151   285151   285153   285153   285152   285151   285151 
  285151   285151   285149   285148   285148   285148   285149   285149 
  285148   285151   285153   285155   285153   285155   285157   285156 
  285157   285161   285161   285164   285168   285168   285169   285175 
  285179   285179   285183   285184   285187   285191   285194   285196 
  285199   285203   285207   285211   285215   285219   285223   285226 
  285230   285232   285233   285238   285245   285245   285249   285252 
  285253   285257   285261   285261   285263   285265   285269   285275 
  285277   285279   285283   285284   285284   285287   285290   285292 
  285296   285298   285300   285304   285306   285307   285309   285313 
  285317   285321   285319   285319   285323   285327   285329   285330 
  285334   285337   285338   285342   285345   285345   285346   285352 
  285356   285354   285354   285357   285361   285364   285367   285368 
  285368   285365   285369   285375   285373   285373   285376   285376 
  285376   285376   285376   285376   285377   285376   285375   285375 
  285373   285372   285371   285368   285367   285368   285365   285360 
  285360   285360   285356   285352   285349   285344   285344   285341 
  285333   285327   285327   285326   285322   285319   285313   285306 
  285304   285300   285295   285291   285287   285284   285279   285275 
  285269   285264   285261   285259   285255   285248   285244   285241 
  285237   285232   285228   285223   285218   285214   285213   285209 
  285203   285199   285195   285191   285187   285183   285179   285176 
  285172   285164   285160   285159   285155   285149   285145   285140 
  285134   285130   285126   285124   285118   285113   285107   285102 
  285101   285097   285090   285084   285083   285080   285076   285070 
  285066   285063   285059   285053   285049   285047   285045   285043 
  285039   285036   285032   285030   285028   285025   285020   285018 
  285018   285018   285014   285013   285016   285013   285010   285010 
  285010   285009   285007   285007   285009   285009   285009   285012 
  285013   285013   285014   285017   285022   285024   285024   285026 
  285029   285030   285032   285037   285044   285048   285051   285055 
  285057   285063   285068   285072   285078   285083   285088   285095 
  285099   285106   285114   285121   285128   285134   285138   285149 
  285156   285161   285171   285180   285187   285196   285207   285214 
  285218   285226   285238   285246   285252   285260   285271   285280 
  285286   285294   285303   285313   285317   285325   285338   285346 
  285353   285363   285371   285381   285392   285399   285407   285415 
  285423   285433   285441   285449   285458   285466   285475   285484 
  285495   285503   285508   285515   285523   285530   285539   285550 
  285558   285565   285570   285577   285585   285592   285599   285607 
  285614   285619   285626   285631   285638   285645   285646   285650 
  285658   285662   285664   285668   285676   285678   285678   285682 
  285688   285688   285689   285691   285692   285693   285695   285693 
  285692   285692   285693   285693   285691   285688   285685   285684 
  285682   285678   285677   285674   285670   285668   285662   285657 
  285654   285650   285645   285639   285634   285630   285626   285618 
  285611   285606   285599   285592   285581   285576   285572   285560 
  285550   285545   285535   285526   285518   285511   285502   285492 
  285483   285472   285462   285453   285444   285433   285423   285414 
  285403   285391   285380   285371   285363   285349   285337   285329 
  285318   285306   285298   285287   285275   285263   285248   285236 
  285228   285218   285206   285196   285186   285172   285163   285153 
  285141   285133   285121   285110   285103   285093   285079   285071 
  285064   285055   285045   285037   285028   285018   285010   285001 
  284991   284985   284978   284971   284963   284955   284949   284945 
  284939   284931   284924   284920   284916   284910   284904   284899 
  284898   284893   284887   284883   284882   284881   284875   284870 
  284870   284867   284863   284863   284863   284860   284862   284862 
  284856   284855   284858   284856   284856   284858   284856   284856 
  284858   284856   284855   284856   284858   284858   284859   284860 
  284862   284863   284863   284864   284868   284868   284867   284870 
  284875   284877   284877   284881   284885   284886   284886   284890 
  284895   284898   284899   284904   284906   284910   284914   284918 
  284926   284928   284931   284939   284944   284948   284953   284959 
  284964   284968   284972   284978   284982   284990   284998   285001 
  285006   285013   285020   285025   285030   285033   285043   285051 
  285053   285057   285067   285076   285082   285088   285094   285098 
  285105   285113   285118   285126   285134   285138   285145   285155 
  285159   285165   285174   285180   285186   285191   285198   285205 
  285213   285221   285226   285230   285237   285245   285253   285260 
  285265   285271   285279   285288   285294   285298   285306   285315 
  285323   285330   285336   285344   285349   285356   285365   285373 
  285380   285387   285395   285402   285408   285414   285421   285429 
  285435   285442   285448   285454   285462   285468   285472   285480 
  285487   285491   285498   285504   285511   285515   285520   285527 
  285533   285538   285543   285550   285556   285557   285561   285564 
  285568   285573   285580   285585   285587   285585   285589   285593 
  285595   285596   285600   285603   285603   285604   285607   285607 
  285608   285608   285606   285604   285606   285603   285601   285606 
  285601   285597   285596   285595   285591   285587   285581   285580 
  285579   285576   285570   285562   285558   285554   285547   285543 
  285538   285533   285527   285520   285514   285507   285500   285492 
  285485   285483   285476   285465   285458   285453   285444   285437 
  285429   285419   285412   285407   285399   285390   285380   285372 
  285364   285357   285350   285342   285336   285327   285317   285310 
  285303   285294   285286   285280   285273   285265   285257   285248 
  285237   285229   285225   285218   285209   285201   285194   285188 
  285178   285168   285165   285159   285151   285145   285137   285129 
  285124   285120   285110   285102   285095   285087   285082   285075 
  285068   285060   285053   285047   285040   285034   285026   285022 
  285018   285009   285002   284999   284993   284985   284976   284971 
  284968   284960   284953   284949   284944   284939   284936   284928 
  284921   284920   284914   284909   284904   284899   284893   284889 
  284885   284882   284879   284877   284870   284867   284866   284863 
  284860   284859   284856   284855   284854   284850   284851   284852 
  284848   284847   284850   284851   284851   284852   284852   284852 
  284856   284859   284859   284862   284866   284867   284870   284872 
  284875   284879   284886   284893   284897   284901   284906   284912 
  284918   284926   284933   284939   284947   284956   284964   284974 
  284982   284990   284998   285006   285018   285029   285040   285048 
  285059   285072   285084   285094   285105   285117   285130   285144 
  285157   285167   285179   285194   285206   285217   285229   285242 
  285259   285273   285282   285291   285304   285319   285333   285341 
  285352   285367   285379   285391   285402   285412   285422   285433 
  285442   285453   285464   285473   285483   285492   285502   285510 
  285518   285526   285535   285543   285549   285558   285566   285572 
  285577   285584   285588   285593   285601   285607   285611   285616 
  285619   285623   285628   285633   285633   285635   285639   285641 
  285641   285642   285643   285645   285646   285647   285647   285646 
  285646   285647   285646   285641   285637   285635   285634   285628 
  285627   285626   285619   285612   285610   285603   285596   285591 
  285585   285580   285573   285565   285557   285550   285543   285534 
  285526   285518   285508   285503   285496   285485   285477   285471 
  285460   285450   285442   285433   285426   285418   285408   285402 
  285392   285380   285371   285367   285361   285353   285342   285334 
  285327   285321   285314   285309   285299   285294   285290   285283 
  285275   285269   285264   285260   285256   285249   285244   285240 
  285236   285233   285230   285223   285219   285218   285215   285211 
  285209   285206   285205   285201   285198   285199   285196   285192 
  285194   285194   285187   285187   285188   285184   285180   285182 
  285182   285178   285175   285176   285176   285175   285174   285169 
  285169   285171   285168   285165   285164   285163   285160   285159 
  285157   285156   285153   285151   285149   285148   285144   285140 
