Origin Time       2025/01/13 21:19:00
Lat.              31.8
Long.             131.6
Depth. (km)       30
Mag.              6.9
Station Code      GNMH08
Station Lat.      36.4917
Station Long.     138.5244
Station Height(m) 1040
Record Time       2025/01/13 21:23:57
Sampling Freq(Hz) 100Hz
Duration Time(s)  120
Dir.              6
Scale Factor      7845(gal)/8223790
Max. Acc. (gal)   0.095
Last Correction   2025/01/13 21:23:59
Memo.             
[...]
    4965     4963     4965     4963     4962     4963     4961     4957 
    4961     4963     4962     4959     4957     4955     4953     4947 
    4951     4953     4951     4953     4947     4945     4946     4946 
    4946     4946     4943     4941     4941     4943     4941     4938 
    4941     4941     4938     4938     4935     4935     4935     4939 
    4942     4936     4934     4938     4938     4936     4938     4935 
    4936     4938     4936     4939     4939     4938     4939     4936 
    4938     4939     4938     4938     4936     4938     4942     4942 
    4941     4938     4939     4943     4939     4935     4938     4938 
    4938     4939     4936     4936     4936     4938     4939     4938 
    4936     4936     4934     4936     4939     4938     4938     4936 
    4936     4938     4936     4938     4936     4936     4936     4936 
    4935     4935     4936     4936     4934     4932     4938     4936 
    4930     4932     4939     4941     4936     4932     4936     4939 
    4936     4935     4936     4941     4941     4936     4936     4938 
    4941     4942     4938     4938     4942     4943     4942     4942 
    4943     4946     4946     4943     4945     4949     4947     4947 
    4947     4946     4949     4951     4949     4946     4947     4951 
    4950     4951     4951     4947     4949     4951     4951     4954 
    4951     4950     4951     4953     4950     4947     4946     4949 
    4949     4949     4947     4946     4946     4947     4946     4943 
    4941     4943     4943     4941     4941     4942     4939     4942 
    4938     4935     4942     4942     4934     4931     4935     4935 
    4932     4934     4935     4930     4928     4928     4927     4928 
    4926     4926     4927     4923     4922     4922     4918     4919 
    4920     4915     4914     4912     4912     4912     4909     4908 
    4909     4907     4905     4904     4905     4907     4903     4901 
    4900     4900     4903     4901     4900     4900     4896     4896 
    4897     4897     4900     4899     4893     4895     4897     4899 
    4900     4899     4899     4900     4899     4901     4901     4900 
    4901     4900     4903     4905     4904     4905     4907     4908 
    4908     4905     4909     4915     4912     4911     4912     4916 
    4920     4919     4919     4922     4922     4922     4922     4922 
    4926     4926     4927     4928     4928     4931     4931     4928 
    4931     4932     4932     4934     4932     4935     4939     4935 
    4936     4939     4938     4939     4939     4942     4946     4943 
    4942     4945     4946     4947     4947     4947     4949     4951 
    4951     4951     4953     4954     4954     4957     4959     4958 
    4958     4961     4962     4962     4963     4966     4966     4968 
    4970     4969     4968     4972     4972     4972     4973     4973 
    4973     4973     4972     4974     4976     4974     4976     4976 
    4974     4973     4970     4974     4976     4970     4966     4966 
    4966     4969     4966     4963     4963     4963     4963     4961 
    4959     4959     4959     4955     4953     4955     4957     4953 
    4951     4950     4947     4949     4949     4947     4950     4945 
    4943     4947     4943     4942     4945     4941     4942     4945 
    4941     4939     4938     4936     4936     4936     4938     4938 
    4934     4934     4934     4934     4934     4934     4931     4930 
    4931     4931     4927     4927     4930     4928     4927     4928 
    4924     4924     4926     4920     4920     4922     4920     4923 
    4924     4920     4918     4918     4922     4923     4922     4920 
    4919     4916     4918     4920     4922     4920     4919     4920 
    4922     4923     4922     4919     4922     4927     4928     4927 
    4922     4919     4920     4922     4923     4924     4923     4922 
    4918     4919     4924     4923     4918     4916     4916     4918 
    4916     4912     4914     4911     4912     4914     4911     4909 
    4911     4907     4905     4907     4908     4907     4905     4907 
    4907     4905     4907     4905     4904     4907     4907     4908 
    4909     4905     4904     4907     4908     4909     4908     4911 
    4912     4907     4907     4911     4916     4918     4914     4912 
    4914     4914     4916     4916     4915     4918     4919     4918 
    4915     4912     4918     4920     4918     4919     4923     4920 
    4918     4919     4922     4924     4923     4923     4923     4924 
    4927     4924     4923     4926     4928     4928     4926     4924 
    4931     4932     4931     4930     4928     4927     4927     4930 
    4934     4931     4928     4930     4928     4930     4932     4931 
    4928     4927     4928     4930     4927     4924     4927     4927 
    4926     4926     4924     4926     4924     4919     4918     4920 
    4920     4919     4915     4914     4912     4912     4912     4909 
    4908     4909     4907     4903     4901     4900     4901     4901 
    4899     4899     4897     4895     4893     4897     4899     4893 
    4891     4893     4893     4893     4895     4892     4889     4887 
    4889     4893     4892     4891     4891     4892     4895     4893 
    4893     4896     4893     4895     4897     4897     4901     4899 
    4895     4899     4904     4905     4907     4908     4907     4907 
    4909     4912     4911     4912     4912     4912     4918     4918 
    4912     4915     4918     4920     4923     4922     4922     4922 
    4920     4923     4926     4927     4931     4932     4931     4927 
    4926     4931     4934     4934     4935     4932     4931     4936 
    4939     4941     4941     4939     4942     4945     4946     4949 
    4949     4949     4954     4958     4958     4957     4958     4961 
    4965     4970     4970     4969     4973     4973     4972     4976 
    4977     4980     4982     4982     4986     4989     4985     4989 
    4992     4992     4995     4993     4995     4997     4996     4997 
    5000     5000     5001     5000     4999     5000     5003     5004 
    5001     5000     5003     5004     5004     5005     5003     5005 
    5005     5004     5004     5004     5005     5008     5005     5005 
    5005     5008     5009     5005     5005     5009     5007     5005 
    5007     5007     5007     5005     5005     5008     5005     5005 
    5007     5004     5003     5003     5004     5005     5001     5003 
    5007     5000     5000     5004     4999     4997     5000     4999 
    4999     4996     4996     4993     4992     4993     4992     4990 
    4995     4992     4986     4986     4984     4982     4984     4981 
    4980     4978     4980     4978     4974     4976     4977     4974 
    4974     4972     4969     4970     4970     4970     4968     4965 
    4965     4963     4961     4961     4961     4959     4959     4958 
    4955     4953     4953     4951     4949     4949     4946     4942 
    4945     4942     4936     4936     4935     4932     4932     4930 
    4928     4927     4923     4920     4918     4916     4916     4909 
    4907     4909     4905     4899     4897     4897     4893     4887 
    4888     4889     4884     4877     4874     4874     4872     4869 
    4869     4866     4862     4861     4858     4857     4857     4853 
    4851     4851     4849     4847     4850     4851     4850     4845 
    4845     4845     4841     4846     4850     4846     4846     4845 
    4845     4851     4851     4851     4854     4851     4853     4858 
    4860     4860     4862     4868     4868     4865     4868     4873 
    4872     4874     4877     4878     4881     4882     4884     4887 
    4888     4891     4891     4893     4899     4900     4899     4900 
    4901     4905     4909     4909     4911     4912     4916     4919 
    4916     4918     4920     4923     4926     4924     4924     4927 
    4930     4932     4935     4932     4934     4936     4938     4936 
    4935     4938     4942     4941     4945     4943     4941     4943 
    4947     4949     4945     4943     4950     4951     4950     4953 
    4950     4950     4953     4953     4957     4959     4957     4958 
    4958     4957     4961     4962     4963     4963     4963     4965 
    4966     4968     4969     4969     4972     4972     4969     4970 
    4969     4972     4976     4973     4973     4976     4974     4970 
    4969     4973     4976     4977     4974     4973     4972     4974 
    4976     4974     4976     4974     4974     4976     4976     4973 
    4972     4972     4976     4978     4980     4978     4976     4978 
    4980     4977     4980     4981     4980     4980     4978     4980 
    4984     4984     4984     4984     4982     4985     4986     4985 
    4985     4985     4986     4988     4988     4986     4984     4981 
    4981     4981     4982     4981     4978     4977     4974     4973 
    4976     4974     4974     4974     4968     4968     4969     4965 
    4962     4959     4958     4962     4959     4955     4957     4951 
    4950     4951     4947     4947     4949     4947     4949     4947 
    4945     4942     4941     4942     4941     4938     4938     4938 
    4938     4938     4936     4935     4932     4932     4936     4932 
    4931     4932     4931     4930     4931     4931     4928     4924 
    4923     4923     4926     4928     4924     4918     4919     4918 
    4915     4916     4918     4915     4912     4908     4907     4909 
    4912     4908     4903     4904     4904     4901     4904     4904 
    4901     4900     4899     4900     4901     4901     4900     4897 
    4899     4905     4907     4904     4900     4896     4903     4908 
    4905     4905     4907     4907     4909     4911     4911     4909 
    4909     4914     4914     4914     4914     4911     4915     4919 
    4919     4919     4918     4918     4922     4923     4926     4924 
    4919     4920     4923     4922     4923     4923     4923     4923 
    4919     4918     4920     4920     4918     4919     4922     4918 
    4914     4914     4912     4914     4914     4908     4908     4909 
    4907     4907     4907     4903     4904     4905     4904     4903 
    4899     4896     4896     4895     4897     4899     4896     4896 
    4896     4896     4897     4893     4893     4895     4893     4895 
    4895     4893     4896     4895     4896     4896     4895     4897 
    4900     4901     4900     4897     4900     4900     4899     4904 
    4905     4905     4908     4908     4911     4914     4911     4911 
    4914     4916     4918     4918     4919     4923     4924     4926 
    4927     4927     4928     4932     4935     4936     4936     4935 
    4935     4939     4946     4946     4946     4949     4950     4953 
    4954     4954     4957     4958     4955     4958     4963     4968 
    4969     4965     4963     4966     4970     4974     4974     4973 
    4970     4968     4973     4977     4977     4980     4977     4974 
    4978     4978     4976     4977     4974     4974     4977     4977 
    4977     4976     4976     4978     4974     4974     4973     4969 
    4969     4970     4972     4972     4970     4968     4968     4968 
    4968     4966     4963     4963     4961     4961     4961     4959 
    4961     4957     4951     4954     4955     4955     4951     4945 
    4946     4951     4949     4946     4941     4939     4943     4943 
    4938     4935     4936     4936     4932     4932     4934     4928 
    4927     4928     4926     4928     4930     4926     4924     4923 
    4923     4923     4924     4924     4920     4920     4922     4922 
    4923     4923     4919     4918     4918     4916     4916     4918 
    4919     4919     4915     4916     4916     4914     4918     4918 
    4914     4916     4915     4914     4914     4912     4912     4911 
    4909     4911     4909     4909     4908     4907     4908     4905 
    4904     4904     4900     4900     4903     4901     4904     4904 
    4897     4895     4893     4893     4895     4895     4893     4892 
    4889     4891     4889     4891     4889     4885     4884     4887 
    4885     4885     4880     4878     4884     4884     4885     4888 
    4882     4880     4881     4884     4888     4887     4884     4884 
    4882     4887     4892     4888     4888     4891     4891     4891 
    4889     4891     4891     4889     4895     4897     4896     4899 
    4899     4896     4897     4900     4901     4901     4901     4903 
    4904     4904     4904     4905     4907     4904     4901     4905 
    4908     4907     4908     4908     4909     4909     4905     4908 
    4909     4908     4911     4912     4907     4907     4907     4909 
    4912     4909     4908     4912     4912     4911     4908     4911 
    4914     4912     4915     4918     4919     4922     4920     4922 
    4926     4927     4928     4930     4930     4934     4936     4938 
    4942     4942     4942     4947     4949     4953     4957     4957 
    4959     4962     4965     4966     4969     4974     4974     4974 
    4977     4978     4985     4989     4989     4995     4996     4996 
    4999     4999     5001     5004     5005     5007     5007     5009 
    5015     5016     5017     5019     5019     5023     5024     5024 
    5026     5026     5031     5032     5028     5030     5032     5030 
    5031     5034     5032     5030     5030     5032     5031     5030 
    5032     5030     5028     5032     5028     5024     5020     5019 
    5023     5026     5020     5015     5012     5011     5008     5007 
    5005     5001     4999     4997     4993     4988     4985     4981 
    4978     4978     4973     4969     4962     4957     4955     4953 
    4946     4943     4941     4938     4931     4924     4924     4923 
    4919     4915     4908     4903     4899     4895     4895     4892 
    4888     4884     4877     4874     4874     4872     4869     4868 
    4864     4858     4855     4857     4854     4849     4854     4851 
    4845     4845     4843     4845     4846     4843     4842     4842 
    4842     4843     4839     4839     4843     4845     4846     4846 
    4843     4843     4846     4853     4855     4853     4854     4855 
    4854     4858     4864     4866     4866     4868     4870     4873 
    4874     4880     4880     4882     4888     4887     4889     4896 
    4897     4900     4901     4903     4908     4911     4912     4916 
    4918     4919     4922     4924     4928     4930     4931     4934 
    4932     4936     4943     4942     4942     4945     4945     4946 
    4946     4949     4951     4949     4949     4950     4951     4954 
    4953     4950     4950     4954     4957     4955     4950     4947 
    4947     4949     4951     4953     4954     4951     4946     4946 
    4951     4951     4950     4947     4946     4945     4945     4945 
    4945     4945     4947     4949     4946     4943     4943     4947 
    4947     4949     4950     4946     4945     4947     4946     4949 
    4953     4950     4946     4943     4947     4951     4951     4951 
    4953     4951     4954     4954     4949     4950     4954     4954 
    4955     4955     4953     4954     4954     4954     4957     4961 
    4959     4955     4957     4961     4959     4962     4963     4962 
    4961     4961     4962     4962     4959     4965     4968     4965 
    4962     4961     4959     4963     4966     4968     4965     4962 
    4966     4968     4963     4966     4968     4968     4965     4961 
    4963     4966     4963     4965     4962     4961     4962     4959 
    4961     4962     4962     4961     4959     4958     4958     4955 
    4955     4955     4955     4955     4955     4951     4953     4953 
    4951     4951     4950     4947     4947     4950     4950     4947 
    4947     4949     4946     4947     4946     4946     4946     4943 
    4943     4945     4946     4947     4943     4942     4942     4941 
    4942     4941     4938     4941     4939     4938     4942     4942 
    4939     4938     4935     4936     4936     4932     4932     4931 
    4930     4932     4931     4928     4931     4931     4930     4926 
    4923     4927     4928     4926     4926     4923     4923     4923 
    4922     4924     4920     4918     4922     4922     4920     4920 
    4918     4918     4920     4922     4922     4918     4918     4919 
    4920     4922     4919     4915     4919     4920     4920     4922 
    4919     4918     4919     4920     4922     4920     4918     4919 
    4919     4920     4919     4918     4919     4919     4919     4922 
    4919     4918     4919     4919     4919     4916     4916     4919 
    4920     4919     4916     4918     4922     4920     4918     4918 
    4918     4918     4919     4920     4923     4922     4919     4922 
    4920     4918     4918     4918     4920     4922     4919     4918 
    4916     4918     4920     4919     4919     4918     4915     4915 
    4915     4916     4920     4916     4914     4916     4915     4914 
    4915     4914     4915     4914     4909     4911     4912     4914 
    4912     4909     4909     4911     4911     4911     4911     4909 
    4908     4908     4908     4907     4908     4911     4909     4909 
    4907     4908     4911     4909     4909     4909     4907     4905 
    4909     4911     4911     4909     4907     4909     4911     4909 
    4909     4909     4911     4912     4912     4918     4918     4914 
    4916     4919     4920     4923     4920     4920     4926     4927 
    4927     4926     4924     4926     4928     4931     4930     4932 
    4938     4935     4932     4935     4935     4939     4941     4941 
    4941     4943     4946     4946     4943     4945     4947     4949 
    4950     4945     4942     4950     4951     4947     4947     4947 
    4947     4950     4949     4947     4946     4947     4946     4943 
    4947     4949     4945     4943     4943     4946     4946     4939 
    4941     4942     4936     4936     4939     4936     4932     4934 
    4938     4936     4932     4928     4924     4928     4930     4927 
    4926     4924     4920     4922     4923     4920     4920     4922 
    4923     4920     4916     4915     4915     4915     4916     4915 
    4914     4912     4907     4907     4908     4907     4908     4907 
    4904     4908     4907     4901     4900     4900     4901     4903 
    4900     4899     4897     4897     4900     4899     4897     4897 
    4899     4900     4897     4899     4901     4900     4897     4899 
    4897     4897     4897     4900     4900     4899     4900     4900 
    4897     4900     4903     4901     4900     4896     4900     4903 
    4899     4899     4900     4899     4899     4900     4899     4897 
    4895     4896     4897     4897     4896     4893     4892     4892 
    4891     4891     4891     4889     4891     4893     4892     4887 
    4882     4888     4891     4889     4888     4885     4884     4887 
    4887     4887     4888     4889     4891     4889     4887     4889 
    4889     4892     4897     4897     4895     4893     4896     4901 
    4903     4904     4905     4905     4907     4908     4909     4914 
