Origin Time       2025/01/13 21:19:00
Lat.              31.8
Long.             131.6
Depth. (km)       30
Mag.              6.9
Station Code      HRSH05
Station Lat.      34.5566
Station Long.     133.4179
Station Height(m) 20
Record Time       2025/01/13 21:21:15
Sampling Freq(Hz) 100Hz
Duration Time(s)  120
Dir.              4
Scale Factor      7845(gal)/8223790
Max. Acc. (gal)   1.071
Last Correction   2025/01/13 21:21:16
Memo.             
[...]
  -19033   -18901   -18766   -18657   -18596   -18565   -18509   -18445 
  -18397   -18334   -18233   -18145   -18102   -18103   -18139   -18203 
  -18306   -18447   -18570   -18632   -18661   -18670   -18657   -18655 
  -18697   -18760   -18819   -18855   -18836   -18782   -18743   -18733 
  -18762   -18827   -18864   -18831   -18779   -18754   -18756   -18812 
  -18867   -18847   -18801   -18801   -18814   -18797   -18743   -18670 
  -18597   -18543   -18519   -18526   -18563   -18634   -18744   -18882 
  -18998   -19063   -19109   -19147   -19155   -19129   -19074   -19013 
  -18975   -18945   -18887   -18820   -18762   -18698   -18648   -18639 
  -18644   -18638   -18617   -18563   -18473   -18396   -18361   -18360 
  -18380   -18384   -18351   -18343   -18396   -18473   -18567   -18684 
  -18778   -18832   -18879   -18941   -19010   -19060   -19072   -19064 
  -19053   -19009   -18895   -18760   -18665   -18603   -18546   -18481 
  -18423   -18419   -18473   -18553   -18675   -18836   -18964   -19018 
  -19003   -18913   -18778   -18666   -18584   -18526   -18534   -18611 
  -18697   -18752   -18755   -18709   -18684   -18711   -18728   -18713 
  -18690   -18650   -18590   -18539   -18486   -18446   -18466   -18524 
  -18563   -18596   -18631   -18677   -18756   -18839   -18860   -18856 
  -18895   -18999   -19140   -19248   -19276   -19272   -19267   -19214 
  -19116   -19033   -18971   -18901   -18813   -18689   -18531   -18389 
  -18288   -18210   -18149   -18123   -18139   -18196   -18260   -18299 
  -18347   -18423   -18513   -18631   -18762   -18855   -18914   -18955 
  -18936   -18844   -18705   -18531   -18349   -18227   -18198   -18211 
  -18220   -18229   -18249   -18296   -18345   -18337   -18295   -18288 
  -18322   -18355   -18370   -18368   -18388   -18472   -18574   -18644 
  -18716   -18809   -18908   -19010   -19076   -19059   -18989   -18921 
  -18881   -18873   -18871   -18837   -18787   -18758   -18720   -18651 
  -18570   -18492   -18435   -18387   -18306   -18250   -18288   -18362 
  -18430   -18530   -18642   -18713   -18765   -18816   -18862   -18912 
  -18958   -18976   -18972   -18960   -18918   -18817   -18692   -18608 
  -18605   -18662   -18724   -18771   -18831   -18918   -19020   -19122 
  -19203   -19252   -19296   -19336   -19325   -19245   -19129   -19005 
  -18894   -18790   -18669   -18549   -18476   -18442   -18420   -18418 
  -18445   -18495   -18547   -18565   -18549   -18567   -18632   -18693 
  -18748   -18781   -18746   -18689   -18654   -18619   -18589   -18567 
  -18528   -18492   -18495   -18503   -18497   -18526   -18611   -18693 
  -18742   -18792   -18856   -18901   -18891   -18832   -18762   -18719 
  -18702   -18709   -18739   -18771   -18806   -18871   -18948   -19017 
  -19053   -19009   -18916   -18839   -18739   -18594   -18472   -18408 
  -18373   -18387   -18476   -18598   -18721   -18821   -18879   -18925 
  -18970   -18995   -19008   -19039   -19103   -19199   -19298   -19329 
  -19275   -19211   -19155   -19041   -18898   -18801   -18742   -18682 
  -18616   -18547   -18503   -18501   -18489   -18465   -18473   -18503 
  -18543   -18597   -18620   -18616   -18640   -18686   -18708   -18711 
  -18701   -18654   -18590   -18528   -18443   -18360   -18327   -18320 
  -18311   -18318   -18349   -18405   -18486   -18558   -18590   -18598 
  -18586   -18559   -18542   -18559   -18596   -18632   -18674   -18746 
  -18847   -18956   -19036   -19070   -19063   -19003   -18912   -18832 
  -18765   -18708   -18662   -18615   -18569   -18516   -18436   -18376 
  -18395   -18451   -18497   -18558   -18634   -18670   -18670   -18665 
  -18661   -18682   -18744   -18820   -18890   -18955   -18995   -19010 
  -19033   -19047   -18991   -18881   -18770   -18696   -18675   -18673 
  -18635   -18608   -18647   -18723   -18796   -18847   -18829   -18750 
  -18675   -18617   -18569   -18561   -18582   -18607   -18648   -18727 
  -18825   -18894   -18887   -18819   -18746   -18693   -18648   -18609 
  -18578   -18549   -18555   -18634   -18742   -18824   -18854   -18817 
  -18769   -18774   -18793   -18773   -18750   -18756   -18783   -18813 
  -18831   -18828   -18823   -18840   -18877   -18914   -18955   -19002 
  -19049   -19062   -19022   -18975   -18971   -18989   -19003   -19022 
  -19024   -19021   -19060   -19102   -19086   -19030   -18976   -18912 
  -18851   -18817   -18777   -18702   -18646   -18632   -18644   -18670 
  -18701   -18746   -18824   -18928   -19029   -19121   -19186   -19183 
  -19126   -19063   -19005   -18944   -18873   -18779   -18675   -18592 
  -18532   -18470   -18388   -18299   -18239   -18233   -18246   -18250 
  -18287   -18366   -18442   -18495   -18530   -18543   -18558   -18567 
  -18551   -18544   -18559   -18557   -18546   -18535   -18490   -18438 
  -18408   -18366   -18307   -18281   -18293   -18304   -18345   -18435 
  -18530   -18603   -18652   -18675   -18696   -18716   -18688   -18620 
  -18561   -18508   -18455   -18397   -18327   -18289   -18306   -18303 
  -18243   -18187   -18161   -18129   -18079   -18026   -17968   -17922 
  -17913   -17919   -17928   -17944   -17960   -17995   -18081   -18189 
  -18276   -18345   -18403   -18461   -18499   -18461   -18368   -18311 
  -18300   -18299   -18314   -18343   -18349   -18341   -18350   -18362 
  -18372   -18416   -18509   -18612   -18698   -18752   -18785   -18817 
  -18840   -18835   -18810   -18771   -18743   -18754   -18771   -18766 
  -18759   -18751   -18733   -18748   -18816   -18901   -19001   -19111 
  -19205   -19276   -19333   -19349   -19325   -19267   -19160   -19030 
  -18924   -18827   -18709   -18596   -18508   -18450   -18438   -18496 
  -18609   -18735   -18850   -18940   -19010   -19068   -19087   -19086 
  -19107   -19129   -19136   -19141   -19120   -19060   -18997   -18931 
  -18854   -18793   -18746   -18688   -18639   -18616   -18594   -18596 
  -18639   -18662   -18638   -18616   -18605   -18612   -18642   -18659 
  -18652   -18681   -18765   -18864   -18963   -19045   -19084   -19089 
  -19083   -19068   -19051   -19037   -19009   -18975   -18945   -18882 
  -18789   -18713   -18665   -18630   -18621   -18638   -18655   -18678 
  -18704   -18713   -18744   -18836   -18945   -19030   -19079   -19071 
  -19021   -18962   -18906   -18870   -18860   -18883   -18955   -19087 
  -19230   -19336   -19421   -19495   -19533   -19529   -19495   -19435 
  -19354   -19221   -19014   -18785   -18571   -18376   -18208   -18079 
  -17979   -17919   -17909   -17923   -17952   -18004   -18064   -18103 
  -18118   -18110   -18096   -18096   -18088   -18063   -18060   -18103 
  -18166   -18243   -18347   -18466   -18578   -18678   -18770   -18871 
  -18976   -19039   -19053   -19051   -19024   -18967   -18927   -18904 
  -18855   -18781   -18688   -18551   -18395   -18254   -18112   -17977 
  -17890   -17851   -17865   -17944   -18050   -18180   -18347   -18508 
  -18640   -18778   -18898   -18963   -18997   -19022   -19032   -19035 
  -19037   -19029   -19016   -19002   -18982   -18970   -18970   -18937 
  -18873   -18828   -18802   -18766   -18721   -18675   -18623   -18580 
  -18540   -18477   -18399   -18307   -18189   -18079   -18011   -17986 
  -18003   -18063   -18149   -18254   -18370   -18466   -18524   -18584 
  -18673   -18773   -18885   -18989   -19059   -19094   -19086   -19044 
  -19003   -18945   -18851   -18763   -18694   -18624   -18565   -18527 
  -18496   -18474   -18466   -18455   -18449   -18495   -18613   -18762 
  -18912   -19045   -19138   -19197   -19245   -19290   -19319   -19317 
  -19271   -19190   -19066   -18883   -18693   -18542   -18412   -18301 
  -18234   -18180   -18129   -18114   -18119   -18119   -18134   -18158 
  -18169   -18199   -18274   -18368   -18470   -18590   -18706   -18821 
  -18955   -19056   -19082   -19051   -18978   -18894   -18827   -18736 
  -18611   -18507   -18439   -18366   -18301   -18273   -18257   -18258 
  -18288   -18295   -18260   -18204   -18145   -18095   -18075   -18075 
  -18092   -18138   -18212   -18307   -18430   -18551   -18636   -18725 
  -18820   -18889   -18955   -19032   -19101   -19152   -19167   -19130 
  -19082   -19060   -19049   -19029   -19005   -18964   -18901   -18821 
  -18712   -18597   -18528   -18495   -18482   -18503   -18555   -18634 
  -18739   -18848   -18929   -19012   -19125   -19246   -19361   -19449 
  -19477   -19477   -19473   -19426   -19325   -19194   -19029   -18839 
  -18636   -18420   -18214   -18065   -17986   -17946   -17946   -17977 
  -18023   -18091   -18166   -18219   -18268   -18330   -18374   -18388 
  -18396   -18420   -18463   -18526   -18605   -18698   -18816   -18958 
  -19114   -19275   -19413   -19518   -19612   -19687   -19711   -19693 
  -19638   -19543   -19437   -19330   -19202   -19052   -18905   -18773 
  -18652   -18562   -18507   -18490   -18508   -18526   -18520   -18517 
  -18527   -18515   -18489   -18473   -18438   -18374   -18318   -18288 
  -18295   -18343   -18411   -18492   -18590   -18674   -18729   -18779 
  -18808   -18793   -18763   -18742   -18715   -18682   -18638   -18565 
  -18485   -18416   -18335   -18256   -18193   -18125   -18072   -18067 
  -18067   -18038   -18014   -18025   -18057   -18102   -18158   -18211 
  -18269   -18350   -18439   -18531   -18642   -18740   -18804   -18851 
  -18879   -18879   -18886   -18895   -18885   -18887   -18921   -18954 
  -18966   -18954   -18928   -18908   -18882   -18829   -18777   -18738 
  -18677   -18598   -18534   -18499   -18492   -18507   -18517   -18528 
  -18567   -18650   -18760   -18870   -18949   -18997   -19036   -19076 
  -19086   -19051   -18979   -18890   -18802   -18716   -18608   -18512 
  -18476   -18484   -18540   -18655   -18785   -18906   -19037   -19144 
  -19201   -19241   -19263   -19233   -19170   -19091   -18997   -18890 
  -18769   -18636   -18540   -18503   -18492   -18520   -18620   -18750 
  -18858   -18943   -18995   -19022   -19048   -19041   -18981   -18894 
  -18802   -18702   -18627   -18588   -18549   -18509   -18507   -18519 
  -18523   -18528   -18523   -18519   -18540   -18566   -18588   -18605 
  -18607   -18582   -18546   -18504   -18466   -18459   -18484   -18495 
  -18495   -18520   -18558   -18598   -18643   -18652   -18620   -18571 
  -18511   -18459   -18447   -18459   -18473   -18495   -18524   -18563 
  -18605   -18619   -18593   -18573   -18574   -18558   -18516   -18474 
  -18436   -18418   -18441   -18484   -18535   -18611   -18700   -18798 
  -18909   -18987   -19012   -19022   -19021   -18983   -18921   -18837 
  -18735   -18628   -18511   -18396   -18338   -18343   -18365   -18397 
  -18459   -18532   -18612   -18717   -18823   -18912   -18995   -19071 
  -19128   -19156   -19140   -19095   -19059   -19013   -18936   -18855 
  -18789   -18732   -18709   -18716   -18715   -18727   -18779   -18843 
  -18902   -18979   -19047   -19082   -19105   -19122   -19133   -19136 
  -19107   -19041   -18974   -18908   -18816   -18700   -18584   -18484 
  -18427   -18420   -18424   -18434   -18474   -18532   -18590   -18651 
  -18706   -18747   -18783   -18802   -18797   -18794   -18806   -18806 
  -18806   -18816   -18802   -18779   -18779   -18802   -18855   -18927 
  -18975   -19014   -19064   -19067   -18991   -18898   -18793   -18658 
  -18528   -18419   -18319   -18257   -18235   -18219   -18210   -18207 
  -18206   -18226   -18261   -18270   -18258   -18257   -18258   -18252 
  -18253   -18266   -18288   -18327   -18387   -18457   -18532   -18601 
  -18650   -18700   -18769   -18828   -18877   -18928   -18972   -19012 
  -19037   -19026   -18986   -18935   -18864   -18774   -18673   -18557 
  -18432   -18318   -18198   -18076   -17996   -17965   -17957   -17987 
  -18045   -18096   -18139   -18185   -18225   -18265   -18316   -18365 
  -18415   -18480   -18547   -18597   -18651   -18725   -18802   -18878 
  -18956   -19049   -19167   -19292   -19388   -19458   -19533   -19597 
  -19638   -19642   -19580   -19464   -19329   -19167   -18998   -18859 
  -18731   -18612   -18542   -18530   -18546   -18584   -18638   -18701 
  -18793   -18895   -18954   -18986   -19024   -19032   -18998   -18948 
  -18870   -18769   -18666   -18550   -18420   -18310   -18226   -18165 
  -18134   -18127   -18127   -18149   -18204   -18276   -18373   -18508 
  -18643   -18765   -18889   -18989   -19036   -19048   -19048   -19045 
  -19044   -19041   -19045   -19080   -19130   -19151   -19134   -19093 
  -19028   -18958   -18902   -18843   -18771   -18704   -18635   -18576 
  -18549   -18546   -18562   -18598   -18621   -18624   -18631   -18628 
  -18600   -18582   -18586   -18576   -18546   -18528   -18519   -18507 
  -18501   -18486   -18458   -18449   -18468   -18516   -18589   -18657 
  -18728   -18817   -18887   -18918   -18925   -18910   -18867   -18812 
  -18750   -18673   -18596   -18522   -18447   -18400   -18373   -18328 
  -18272   -18227   -18191   -18166   -18160   -18149   -18139   -18153 
  -18176   -18196   -18215   -18220   -18211   -18211   -18196   -18135 
  -18073   -18046   -18031   -18031   -18067   -18115   -18189   -18330 
  -18496   -18647   -18796   -18932   -19051   -19176   -19279   -19334 
  -19379   -19429   -19475   -19514   -19527   -19495   -19450   -19406 
  -19318   -19187   -19055   -18936   -18847   -18781   -18702   -18611 
  -18538   -18481   -18420   -18354   -18288   -18222   -18169   -18125 
  -18073   -18052   -18094   -18161   -18245   -18354   -18459   -18549 
  -18648   -18754   -18852   -18955   -19057   -19165   -19307   -19458 
  -19583   -19687   -19768   -19809   -19797   -19700   -19516   -19287 
  -19036   -18762   -18500   -18285   -18112   -17983   -17913   -17894 
  -17918   -17990   -18083   -18189   -18331   -18492   -18652   -18829 
  -19001   -19130   -19226   -19287   -19303   -19305   -19294   -19252 
  -19202   -19165   -19107   -19017   -18929   -18848   -18785   -18739 
  -18679   -18617   -18581   -18538   -18473   -18409   -18335   -18241 
  -18156   -18099   -18054   -18045   -18087   -18164   -18276   -18418 
  -18569   -18721   -18854   -18940   -18986   -19005   -19003   -18989 
  -18976   -18964   -18941   -18925   -18925   -18910   -18881   -18854 
  -18808   -18767   -18760   -18738   -18671   -18607   -18559   -18517 
  -18500   -18511   -18530   -18562   -18609   -18657   -18715   -18802 
  -18905   -19036   -19188   -19314   -19402   -19476   -19526   -19545 
  -19534   -19485   -19408   -19319   -19205   -19075   -18951   -18824 
  -18698   -18590   -18482   -18368   -18274   -18203   -18125   -18063 
  -18045   -18050   -18075   -18139   -18223   -18295   -18368   -18435 
  -18501   -18580   -18652   -18704   -18763   -18843   -18913   -18966 
  -18995   -19002   -19013   -19024   -18987   -18922   -18860   -18785 
  -18697   -18607   -18503   -18396   -18318   -18252   -18181   -18125 
  -18079   -18038   -18013   -17998   -17998   -18027   -18069   -18100 
  -18126   -18154   -18166   -18168   -18183   -18212   -18252   -18297 
  -18337   -18372   -18426   -18485   -18536   -18607   -18681   -18735 
  -18794   -18873   -18959   -19063   -19180   -19291   -19403   -19511 
  -19589   -19650   -19703   -19734   -19750   -19762   -19735   -19661 
  -19570   -19456   -19318   -19190   -19068   -18971   -18927   -18901 
  -18873   -18881   -18928   -18968   -19001   -19037   -19037   -19013 
  -19009   -19013   -19020   -19044   -19059   -19063   -19094   -19133 
  -19151   -19165   -19178   -19172   -19163   -19136   -19076   -19018 
  -18968   -18904   -18832   -18771   -18694   -18598   -18516   -18436 
  -18353   -18276   -18203   -18135   -18077   -18014   -17944   -17882 
  -17830   -17786   -17767   -17778   -17795   -17834   -17926   -18042 
  -18172   -18316   -18447   -18554   -18646   -18700   -18706   -18704 
  -18693   -18646   -18571   -18493   -18412   -18346   -18310   -18292 
  -18287   -18288   -18285   -18303   -18339   -18345   -18328   -18334 
  -18337   -18296   -18231   -18166   -18112   -18079   -18072   -18096 
  -18158   -18242   -18331   -18431   -18527   -18600   -18659   -18704 
  -18727   -18724   -18700   -18646   -18571   -18492   -18403   -18322 
  -18272   -18243   -18220   -18215   -18226   -18238   -18262   -18299 
  -18334   -18387   -18451   -18504   -18555   -18598   -18592   -18555 
  -18527   -18507   -18492   -18484   -18463   -18432   -18415   -18408 
  -18412   -18446   -18493   -18532   -18589   -18685   -18782   -18862 
  -18940   -19020   -19093   -19151   -19172   -19156   -19137   -19099 
  -19035   -18986   -18948   -18908   -18902   -18917   -18932   -18976 
  -19033   -19078   -19134   -19183   -19211   -19249   -19298   -19323 
  -19321   -19298   -19251   -19184   -19114   -19044   -18985   -18948 
  -18928   -18906   -18877   -18856   -18860   -18886   -18906   -18912 
  -18927   -18944   -18937   -18925   -18939   -18962   -18972   -18982 
  -18989   -19006   -19071   -19153   -19214   -19280   -19341   -19356 
  -19337   -19290   -19202   -19091   -18974   -18843   -18701   -18562 
  -18430   -18308   -18207   -18126   -18090   -18110   -18144   -18175 
  -18234   -18303   -18349   -18395   -18451   -18497   -18542   -18596 
  -18643   -18688   -18724   -18731   -18738   -18770   -18797   -18819 
  -18848   -18859   -18848   -18839   -18824   -18797   -18777   -18756 
  -18716   -18685   -18667   -18644   -18634   -18631   -18612   -18598 
  -18603   -18596   -18578   -18576   -18584   -18596   -18607   -18594 
  -18562   -18546   -18540   -18524   -18501   -18465   -18418   -18395 
  -18384   -18346   -18303   -18265   -18219   -18183   -18168   -18150 
  -18131   -18134   -18152   -18177   -18204   -18214   -18215   -18233 
  -18258   -18279   -18310   -18350   -18377   -18400   -18426   -18453 
  -18497   -18571   -18657   -18748   -18848   -18937   -19013   -19093 
  -19164   -19225   -19287   -19330   -19352   -19391   -19441   -19471 
  -19499   -19539   -19573   -19602   -19611   -19579   -19535   -19489 
  -19422   -19361   -19334   -19311   -19286   -19284   -19291   -19286 
  -19288   -19282   -19228   -19156   -19097   -19036   -18990   -18952 
  -18885   -18806   -18733   -18639   -18538   -18449   -18353   -18258 
  -18191   -18126   -18065   -18044   -18065   -18112   -18180   -18256 
  -18337   -18423   -18484   -18490   -18477   -18481   -18474   -18436 
  -18381   -18304   -18215   -18130   -18037   -17942   -17868   -17809 
  -17774   -17766   -17763   -17767   -17801   -17849   -17892   -17941 
  -17992   -18030   -18073   -18112   -18134   -18171   -18237   -18300 
  -18374   -18470   -18561   -18635   -18694   -18719   -18729   -18769 
  -18812   -18840   -18883   -18947   -18999   -19039   -19060   -19059 
  -19060   -19074   -19079   -19080   -19089   -19102   -19130   -19180 
  -19232   -19278   -19330   -19368   -19380   -19390   -19395   -19390 
  -19391   -19372   -19303   -19210   -19110   -18990   -18847   -18700 
  -18554   -18423   -18312   -18207   -18126   -18091   -18075   -18084 
  -18133   -18192   -18258   -18349   -18438   -18508   -18571   -18623 
  -18659   -18705   -18751   -18783   -18824   -18870   -18900   -18929 
  -18963   -18978   -18974   -18972   -18978   -18990   -19006   -18994 
  -18948   -18900   -18844   -18769   -18696   -18632   -18563   -18505 
  -18474   -18463   -18477   -18524   -18593   -18685   -18800   -18908 
  -19016   -19141   -19261   -19356   -19456   -19561   -19639   -19696 
