Origin Time       2025/01/13 21:19:00
Lat.              31.8
Long.             131.6
Depth. (km)       30
Mag.              6.9
Station Code      HRSH01
Station Lat.      34.3736
Station Long.     133.0236
Station Height(m) 35
Record Time       2025/01/13 21:20:32
Sampling Freq(Hz) 100Hz
Duration Time(s)  132
Dir.              5
Scale Factor      7845(gal)/8223790
Max. Acc. (gal)   2.076
Last Correction   2025/01/13 21:20:32
Memo.             
[...]
    4144     4008     3910     3856     3859     3889     3873     3874 
    3982     4129     4216     4224     4135     3966     3855     3848 
    3834     3798     3811     3836     3796     3674     3523     3457 
    3553     3770     3970     4012     3909     3761     3576     3395 
    3343     3399     3474     3601     3802     3979     4004     3871 
    3708     3572     3449     3441     3616     3848     4027     4152 
    4185     4106     3954     3735     3527     3466     3561     3715 
    3894     4145     4468     4679     4587     4279     3932     3577 
    3241     3045     3068     3262     3537     3773     3836     3712 
    3545     3420     3307     3199     3125     3140     3333     3663 
    3916     4020     4074     4062     3973     3916     3905     3846 
    3707     3553     3505     3638     3875     4047     4051     3874 
    3576     3345     3316     3443     3690     4056     4392     4499 
    4342     4014     3585     3161     2895     2751     2670     2860 
    3396     4001     4433     4653     4700     4600     4271     3703 
    3126     2791     2758     2948     3230     3493     3738     4013 
    4244     4243     3960     3632     3503     3557     3701     3910 
    4131     4324     4482     4490     4229     3852     3657     3747 
    4043     4396     4675     4827     4841     4688     4413     4077 
    3678     3288     3087     3091     3200     3399     3603     3709 
    3829     4075     4287     4206     3812     3381     3168     3227 
    3527     3916     4182     4261     4167     3940     3744     3631 
    3484     3337     3310     3349     3325     3211     3063     2956 
    2983     3184     3520     3927     4279     4371     4125     3750 
    3500     3406     3368     3337     3302     3303     3468     3767 
    4008     4128     4194     4176     4050     3901     3847     3939 
    4095     4159     4091     4024     4062     4145     4190     4171 
    4094     4009     3969     3969     3994     4037     4075     4106 
    4094     3944     3643     3358     3234     3234     3329     3576 
    3896     4087     4089     4041     4029     3916     3636     3342 
    3194     3261     3523     3796     3893     3881     3905     3894 
    3750     3612     3618     3694     3694     3573     3469     3555 
    3808     4041     4067     3898     3728     3670     3694     3726 
    3726     3763     3873     3943     3921     3874     3812     3762 
    3854     4059     4145     4039     3948     4029     4228     4391 
    4399     4240     4024     3824     3613     3403     3271     3258 
    3323     3402     3484     3585     3704     3813     3856     3850 
    3924     4108     4237     4189     4024     3831     3665     3661 
    3834     3958     3954     3977     3990     3809     3464     3161 
    3055     3144     3289     3393     3457     3528     3635     3724 
    3770     3838     3939     4001     3967     3850     3748     3727 
    3793     3962     4213     4499     4731     4784     4676     4496 
    4279     4097     3975     3835     3665     3491     3288     3121 
    3096     3191     3321     3458     3555     3553     3473     3389 
    3372     3520     3807     4074     4217     4202     4112     4104 
    4167     4151     4006     3758     3511     3427     3522     3703 
    3875     3917     3815     3670     3551     3507     3568     3688 
    3854     4036     4139     4101     3967     3842     3775     3736 
    3728     3820     4040     4306     4490     4521     4395     4180 
    4023     3982     3983     3971     3947     3879     3762     3674 
    3638     3628     3696     3808     3836     3811     3816     3785 
    3727     3743     3755     3688     3696     3859     4031     4083 
    3990     3757     3442     3179     3087     3142     3240     3357 
    3491     3546     3469     3307     3109     2879     2643     2493 
    2536     2799     3179     3530     3798     4010     4160     4202 
    4099     3855     3541     3302     3242     3333     3516     3735 
    3848     3782     3636     3511     3433     3443     3538     3635 
    3712     3792     3804     3709     3588     3491     3356     3157 
    2961     2880     2934     3048     3184     3295     3319     3346 
    3427     3466     3496     3601     3689     3717     3782     3844 
    3823     3728     3546     3330     3283     3410     3503     3453 
    3327     3283     3437     3646     3669     3489     3246     3068 
    3056     3184     3353     3504     3612     3715     3850     3932 
    3893     3771     3607     3438     3400     3578     3832     3960 
    3952     3925     3940     3998     4109     4202     4160     3974 
    3715     3450     3229     3094     3078     3140     3172     3184 
    3315     3537     3653     3611     3476     3331     3294     3393 
    3522     3600     3612     3569     3559     3689     3948     4216 
    4344     4286     4104     3910     3847     3948     4054     4060 
    4018     3921     3766     3623     3469     3306     3265     3385 
    3616     3925     4140     4045     3761     3649     3847     4176 
    4399     4402     4280     4217     4232     4257     4288     4324 
    4395     4495     4441     4136     3761     3500     3356     3248 
    3152     3154     3306     3453     3457     3395     3302     3161 
    3123     3265     3495     3796     4102     4274     4363     4465 
    4509     4449     4357     4288     4263     4301     4387     4472 
    4510     4517     4534     4514     4395     4239     4166     4245 
    4461     4712     4891     4961     4907     4737     4522     4305 
    4118     4058     4140     4302     4548     4850     5027     4955 
    4689     4355     4090     4020     4126     4256     4313     4320 
    4326     4360     4395     4382     4303     4168     4035     3947 
    3850     3720     3654     3693     3747     3770     3832     3947 
    4010     3993     4021     4155     4318     4463     4592     4658 
    4631     4588     4614     4671     4662     4541     4299     3986 
    3757     3705     3758     3848     3993     4148     4225     4218 
    4114     3890     3682     3585     3510     3460     3462     3420 
    3331     3302     3302     3276     3298     3362     3365     3330 
    3354     3457     3650     3933     4209     4405     4579     4723 
    4735     4622     4476     4345     4295     4324     4290     4201 
    4240     4409     4518     4442     4206     3969     3886     3931 
    3964     4004     4144     4345     4569     4847     5128     5348 
    5452     5347     5028     4626     4306     4112     3935     3721 
    3584     3569     3545     3415     3244     3072     2870     2675 
    2579     2629     2837     3096     3269     3354     3372     3343 
    3360     3472     3612     3657     3592     3553     3612     3678 
    3685     3717     3807     3817     3716     3600     3497     3424 
    3443     3481     3424     3316     3229     3181     3198     3264 
    3388     3576     3728     3796     3780     3657     3507     3419 
    3415     3564     3855     4129     4274     4240     3997     3622 
    3283     3087     3075     3252     3566     3920     4220     4403 
    4432     4320     4147     4004     3917     3867     3867     3916 
    3933     3913     3897     3873     3850     3848     3846     3848 
    3877     3898     3896     3870     3811     3748     3728     3769 
    3829     3812     3681     3532     3415     3306     3218     3152 
    3051     2879     2668     2552     2609     2722     2760     2729 
    2666     2566     2473     2486     2652     2940     3303     3697 
    4017     4120     3993     3781     3592     3477     3465     3518 
    3604     3720     3761     3634     3372     3095     2964     3010 
    3106     3202     3339     3547     3767     3867     3800     3688 
    3605     3524     3484     3539     3635     3694     3670     3546 
    3395     3322     3326     3323     3298     3279     3262     3230 
    3237     3360     3526     3593     3551     3503     3542     3631 
    3659     3627     3584     3527     3464     3404     3304     3150 
    3025     2968     2894     2732     2517     2282     2074     2023 
    2172     2386     2573     2714     2787     2821     2855     2848 
    2862     3015     3262     3484     3649     3762     3839     3863 
    3798     3699     3643     3649     3736     3890     3989     3974 
    3948     4018     4180     4333     4409     4480     4604     4754 
    4881     4882     4731     4581     4542     4514     4365     4126 
    3917     3784     3688     3588     3520     3535     3573     3569 
    3586     3651     3672     3636     3649     3730     3788     3809 
    3877     4005     4158     4321     4450     4468     4340     4132 
    3948     3813     3743     3785     3867     3870     3789     3669 
    3510     3277     3015     2868     2882     2940     2963     3022 
    3167     3342     3478     3581     3673     3746     3790     3797 
    3755     3680     3651     3750     3909     4018     4072     4048 
    3909     3763     3719     3717     3700     3731     3862     4033 
    4187     4293     4306     4237     4159     4095     4014     3959 
    4035     4276     4581     4823     4957     5032     5096     5113 
    5054     4989     4916     4756     4580     4526     4606     4764 
    4899     4907     4785     4573     4272     3955     3758     3735 
    3848     4044     4225     4302     4286     4214     4068     3858 
    3686     3627     3585     3465     3322     3222     3136     3087 
    3106     3126     3130     3168     3248     3383     3589     3781 
    3858     3846     3870     3966     4006     3874     3616     3354 
    3195     3167     3152     3064     2994     3044     3163     3250 
    3281     3316     3400     3466     3430     3316     3214     3161 
    3138     3136     3213     3412     3662     3861     4036     4244 
    4452     4649     4839     4958     4981     4966     4945     4897 
    4803     4648     4455     4275     4145     4090     4133     4260 
    4418     4545     4614     4677     4765     4808     4749     4654 
    4642     4702     4737     4691     4537     4301     4060     3870 
    3713     3505     3204     2864     2544     2280     2106     2034 
    2025     2025     2022     2060     2177     2354     2520     2608 
    2612     2616     2713     2906     3115     3283     3465     3730 
    4010     4172     4186     4136     4101     4128     4174     4167 
    4145     4121     4024     3851     3693     3613     3634     3696 
    3692     3600     3456     3267     3086     3021     3076     3200 
    3385     3608     3835     4027     4094     4037     3973     3975 
    4068     4241     4468     4722     4899     4905     4792     4672 
    4599     4571     4579     4630     4704     4776     4850     4918 
    4961     4968     4926     4833     4672     4425     4122     3843 
    3636     3492     3392     3368     3381     3311     3122     2843 
    2489     2188     2097     2176     2293     2450     2686     2929 
    3071     3111     3107     3068     2976     2832     2695     2668 
    2770     2959     3208     3458     3643     3761     3848     3954 
    4087     4218     4322     4392     4410     4367     4326     4361 
    4442     4518     4604     4675     4637     4477     4314     4244 
    4225     4195     4185     4226     4272     4307     4342     4309 
    4199     4121     4109     4085     4002     3898     3805     3708 
    3605     3542     3543     3564     3508     3326     3103     2968 
    2988     3148     3334     3480     3609     3689     3681     3622 
    3532     3442     3387     3400     3511     3673     3802     3886 
    3955     4010     4013     3966     3937     3879     3672     3414 
    3283     3241     3187     3137     3167     3300     3450     3510 
    3473     3402     3373     3404     3456     3505     3514     3497 
    3551     3704     3865     3967     4020     4027     3994     3956 
    3927     3862     3724     3550     3414     3315     3244     3248 
    3314     3369     3437     3543     3592     3524     3392     3229 
    3109     3111     3184     3262     3368     3466     3505     3499 
    3434     3277     3107     3064     3172     3322     3407     3422 
    3407     3411     3441     3415     3334     3322     3403     3518 
    3672     3832     3919     3952     3986     4012     4033     4055 
    4067     4075     4072     4027     3932     3816     3697     3562 
    3415     3321     3348     3483     3670     3865     4023     4151 
    4298     4460     4592     4677     4688     4606     4460     4306 
    4167     4023     3817     3523     3213     3015     2928     2836 
    2744     2674     2592     2508     2409     2265     2166     2241 
    2527     2952     3360     3620     3711     3673     3561     3427 
    3349     3415     3686     4164     4723     5171     5414     5513 
    5547     5521     5435     5332     5211     5057     4907     4723 
    4456     4207     4060     3937     3798     3738     3820     4031 
    4347     4666     4820     4777     4623     4428     4274     4220 
    4233     4291     4388     4464     4460     4394     4320     4276 
    4256     4230     4214     4253     4328     4387     4409     4387 
    4341     4309     4271     4163     4000     3825     3658     3532 
    3438     3275     2964     2528     2089     1769     1602     1590 
    1744     2037     2393     2687     2830     2916     3069     3279 
    3505     3723     3900     4060     4152     4099     3997     3975 
    4044     4167     4247     4178     3962     3646     3310     3102 
    3063     3083     3127     3238     3358     3362     3250     3148 
    3106     3080     3078     3150     3306     3541     3825     4060 
    4185     4268     4325     4270     4117     4002     3977     3985 
    3985     3974     3940     3904     3920     3967     3963     3913 
    3905     3951     3997     4044     4131     4295     4523     4731 
    4872     4953     4985     5011     5061     5130     5211     5294 
    5339     5324     5289     5259     5204     5086     4918     4743 
    4600     4456     4264     4055     3867     3726     3724     3896 
    4102     4236     4324     4387     4418     4461     4550     4629 
    4641     4587     4492     4395     4332     4287     4214     4113 
    4021     3902     3707     3464     3230     3059     3021     3119 
    3256     3372     3497     3628     3703     3715     3690     3642 
    3608     3640     3735     3789     3720     3599     3534     3499 
    3407     3235     3024     2820     2663     2589     2592     2636 
    2702     2744     2717     2652     2583     2504     2466     2548 
    2737     2982     3287     3646     3977     4202     4317     4380 
    4432     4455     4442     4419     4419     4441     4456     4438 
    4383     4309     4230     4143     4051     3948     3792     3557 
    3258     2937     2636     2394     2227     2123     2052     2025 
    2064     2118     2173     2270     2400     2552     2768     3030 
    3262     3435     3568     3626     3597     3564     3565     3565 
    3561     3585     3628     3642     3643     3696     3793     3869 
    3900     3910     3940     4005     4063     4058     3986     3910 
    3878     3855     3828     3844     3869     3867     3902     3975 
    4013     4020     4036     4067     4102     4106     4050     3989 
    4010     4131     4284     4376     4383     4380     4428     4494 
    4541     4575     4618     4671     4683     4607     4469     4321 
    4230     4218     4179     4020     3766     3505     3325     3248 
    3214     3208     3280     3433     3608     3766     3867     3882 
    3862     3852     3846     3865     3943     4029     4048     4016 
    3997     4010     4006     3927     3747     3493     3235     3017 
    2847     2743     2695     2700     2756     2821     2866     2914 
    2980     3063     3180     3365     3646     4002     4334     4565 
    4715     4788     4749     4646     4560     4486     4429     4438 
    4491     4531     4545     4496     4371     4210     4010     3743 
    3451     3217     3073     3026     3078     3188     3300     3389 
    3403     3315     3230     3227     3227     3156     3053     3006 
    3052     3150     3206     3171     3080     3022     3052     3119 
    3173     3268     3414     3543     3666     3796     3867     3889 
    3937     3977     3956     3931     3937     3932     3878     3805 
    3735     3690     3700     3736     3767     3801     3840     3892 
    3966     4028     4044     4037     4032     4014     3982     3912 
    3740     3461     3175     2986     2926     2964     3055     3184 
    3339     3496     3635     3731     3750     3731     3751     3855 
    4021     4189     4309     4364     4356     4309     4248     4176 
    4106     4035     3966     3905     3786     3553     3265     3045 
    2940     2898     2849     2812     2852     2978     3140     3307 
    3473     3653     3856     4051     4189     4268     4326     4368 
    4357     4279     4179     4098     4025     3931     3812     3696 
    3628     3619     3649     3694     3734     3778     3847     3909 
    3920     3869     3777     3703     3713     3823     3990     4153 
    4252     4245     4166     4072     4008     4002     4044     4104 
    4170     4247     4336     4425     4477     4492     4510     4550 
    4596     4645     4716     4810     4922     5044     5151     5228 
    5282     5294     5275     5239     5117     4887     4675     4525 
    4324     4017     3678     3350     3046     2803     2629     2516 
    2463     2455     2440     2403     2334     2227     2116     2073 
    2138     2282     2467     2687     2916     3121     3308     3450 
    3532     3595     3650     3709     3792     3881     3973     4094 
    4217     4284     4295     4264     4191     4131     4128     4141 
    4148     4125     4004     3797     3611     3480     3397     3375 
    3385     3392     3415     3473     3514     3476     3393     3366 
    3402     3420     3416     3418     3427     3442     3422     3342 
    3271     3269     3304     3354     3462     3627     3800     3966 
    4113     4197     4206     4170     4082     3944     3832     3788 
    3769     3742     3707     3647     3596     3608     3649     3647 
    3626     3642     3724     3850     3989     4152     4328     4464 
    4553     4584     4531     4445     4405     4411     4445     4495 
    4477     4334     4117     3861     3568     3268     2976     2714 
    2536     2447     2398     2362     2324     2274     2239     2253 
    2327     2455     2632     2849     3090     3303     3462     3570 
    3627     3651     3686     3742     3786     3802     3817     3859 
    3906     3956     4037     4109     4112     4086     4095     4110 
    4099     4062     3993     3910     3862     3842     3805     3731 
    3651     3639     3728     3886     4055     4179     4236     4284 
    4378     4488     4595     4681     4711     4725     4791     4877 
    4934     4972     4985     4972     4980     5030     5069     5030 
