Origin Time       2025/01/13 21:19:00
Lat.              31.8
Long.             131.6
Depth. (km)       30
Mag.              6.9
Station Code      HRSH03
Station Lat.      34.5183
Station Long.     133.1375
Station Height(m) -40
Record Time       2025/01/13 21:20:33
Sampling Freq(Hz) 100Hz
Duration Time(s)  142
Dir.              1
Scale Factor      3923(gal)/8224838
Max. Acc. (gal)   0.833
Last Correction   2025/01/13 21:20:34
Memo.             
[...]
  -28521   -28505   -28522   -28563   -28614   -28667   -28699   -28703 
  -28699   -28694   -28682   -28668   -28667   -28687   -28723   -28749 
  -28746   -28729   -28722   -28741   -28768   -28784   -28802   -28836 
  -28883   -28921   -28923   -28890   -28849   -28840   -28865   -28896 
  -28902   -28877   -28849   -28836   -28823   -28815   -28813   -28813 
  -28841   -28912   -28993   -29052   -29096   -29124   -29106   -29045 
  -28977   -28918   -28873   -28849   -28830   -28811   -28798   -28782 
  -28753   -28723   -28703   -28692   -28692   -28701   -28718   -28736 
  -28741   -28721   -28672   -28621   -28588   -28561   -28537   -28518 
  -28495   -28463   -28417   -28378   -28378   -28425   -28510   -28599 
  -28647   -28641   -28617   -28624   -28669   -28705   -28702   -28695 
  -28706   -28722   -28742   -28779   -28833   -28898   -28964   -29030 
  -29074   -29068   -29025   -28985   -28957   -28930   -28899   -28880 
  -28875   -28879   -28902   -28941   -28980   -29012   -29043   -29068 
  -29074   -29056   -29019   -28973   -28917   -28856   -28811   -28800 
  -28815   -28836   -28841   -28831   -28822   -28818   -28815   -28806 
  -28783   -28752   -28744   -28764   -28782   -28772   -28746   -28715 
  -28688   -28671   -28655   -28638   -28634   -28626   -28593   -28556 
  -28543   -28541   -28548   -28574   -28602   -28603   -28576   -28545 
  -28528   -28544   -28594   -28626   -28634   -28669   -28738   -28799 
  -28829   -28846   -28877   -28898   -28876   -28841   -28823   -28831 
  -28850   -28858   -28844   -28809   -28775   -28777   -28815   -28852 
  -28875   -28872   -28834   -28786   -28755   -28750   -28769   -28784 
  -28775   -28740   -28714   -28715   -28722   -28702   -28649   -28583 
  -28539   -28539   -28561   -28587   -28613   -28645   -28695   -28771 
  -28864   -28948   -28992   -28981   -28942   -28904   -28869   -28838 
  -28822   -28825   -28846   -28883   -28915   -28931   -28946   -28977 
  -28998   -28985   -28938   -28864   -28807   -28790   -28784   -28783 
  -28796   -28813   -28807   -28809   -28846   -28892   -28921   -28945 
  -28980   -29037   -29100   -29138   -29161   -29191   -29203   -29185 
  -29168   -29157   -29134   -29107   -29088   -29068   -29038   -29014 
  -29016   -29042   -29062   -29042   -28981   -28933   -28919   -28921 
  -28912   -28895   -28881   -28877   -28884   -28911   -28958   -29010 
  -29038   -29026   -28991   -28971   -28962   -28946   -28922   -28912 
  -28934   -28984   -29022   -29018   -28991   -28977   -28976   -28976 
  -28977   -28964   -28933   -28884   -28819   -28755   -28707   -28676 
  -28660   -28671   -28701   -28728   -28744   -28753   -28748   -28722 
  -28711   -28737   -28763   -28764   -28757   -28756   -28753   -28749 
  -28738   -28706   -28661   -28642   -28656   -28686   -28730   -28776 
  -28796   -28788   -28767   -28730   -28680   -28629   -28594   -28590 
  -28613   -28638   -28656   -28667   -28669   -28680   -28744   -28840 
  -28896   -28892   -28849   -28804   -28806   -28856   -28900   -28921 
  -28931   -28925   -28898   -28875   -28872   -28881   -28892   -28910 
  -28929   -28934   -28918   -28885   -28849   -28838   -28869   -28908 
  -28906   -28879   -28881   -28906   -28912   -28912   -28930   -28941 
  -28937   -28942   -28950   -28933   -28895   -28853   -28804   -28745 
  -28690   -28660   -28652   -28633   -28601   -28587   -28605   -28632 
  -28647   -28641   -28626   -28630   -28655   -28667   -28647   -28606 
  -28580   -28584   -28605   -28626   -28647   -28660   -28647   -28617 
  -28629   -28695   -28767   -28806   -28819   -28836   -28852   -28840 
  -28818   -28821   -28830   -28840   -28853   -28850   -28827   -28813 
  -28813   -28800   -28777   -28759   -28728   -28678   -28642   -28640 
  -28653   -28651   -28622   -28591   -28570   -28559   -28556   -28548 
  -28543   -28548   -28552   -28555   -28560   -28551   -28530   -28512 
  -28487   -28462   -28455   -28480   -28525   -28552   -28557   -28561 
  -28575   -28594   -28602   -28607   -28624   -28634   -28633   -28636 
  -28640   -28632   -28630   -28645   -28652   -28645   -28644   -28661 
  -28690   -28707   -28695   -28668   -28649   -28649   -28660   -28661 
  -28669   -28688   -28688   -28672   -28668   -28679   -28690   -28696 
  -28698   -28686   -28655   -28615   -28588   -28598   -28645   -28696 
  -28719   -28717   -28711   -28713   -28718   -28734   -28761   -28764 
  -28728   -28684   -28653   -28629   -28617   -28601   -28579   -28567 
  -28556   -28540   -28517   -28490   -28482   -28487   -28463   -28401 
  -28337   -28294   -28255   -28221   -28200   -28167   -28135   -28139 
  -28166   -28179   -28171   -28170   -28200   -28251   -28309   -28364 
  -28398   -28418   -28439   -28439   -28406   -28386   -28402   -28435 
  -28459   -28474   -28483   -28486   -28491   -28510   -28526   -28529 
  -28526   -28520   -28520   -28532   -28547   -28557   -28574   -28602 
  -28647   -28707   -28767   -28802   -28813   -28822   -28845   -28868 
  -28879   -28888   -28900   -28903   -28898   -28903   -28925   -28954 
  -28980   -28995   -29006   -29022   -29035   -29052   -29091   -29119 
  -29116   -29107   -29093   -29069   -29053   -29062   -29095   -29138 
  -29174   -29196   -29228   -29276   -29312   -29343   -29380   -29409 
  -29440   -29498   -29571   -29623   -29644   -29633   -29596   -29565 
  -29544   -29521   -29497   -29471   -29443   -29428   -29421   -29408 
  -29388   -29376   -29370   -29346   -29309   -29301   -29322   -29331 
  -29317   -29312   -29309   -29290   -29266   -29245   -29234   -29250 
  -29269   -29261   -29241   -29218   -29191   -29160   -29134   -29114 
  -29088   -29052   -29014   -28968   -28902   -28815   -28725   -28645 
  -28591   -28567   -28551   -28532   -28499   -28426   -28333   -28277 
  -28260   -28258   -28266   -28277   -28285   -28293   -28301   -28314 
  -28343   -28378   -28418   -28470   -28516   -28551   -28574   -28593 
  -28625   -28667   -28694   -28711   -28742   -28792   -28848   -28879 
  -28885   -28902   -28948   -28998   -29027   -29031   -29020   -29026 
  -29060   -29092   -29101   -29099   -29108   -29123   -29126   -29130 
  -29142   -29146   -29141   -29143   -29169   -29218   -29272   -29307 
  -29327   -29351   -29366   -29361   -29363   -29390   -29423   -29438 
  -29446   -29461   -29482   -29511   -29542   -29578   -29623   -29655 
  -29667   -29687   -29721   -29745   -29749   -29748   -29754   -29766 
  -29781   -29789   -29779   -29752   -29722   -29691   -29647   -29592 
  -29533   -29455   -29362   -29280   -29216   -29162   -29106   -29025 
  -28938   -28896   -28899   -28914   -28921   -28902   -28853   -28786 
  -28701   -28613   -28545   -28505   -28489   -28499   -28514   -28502 
  -28459   -28416   -28401   -28405   -28410   -28422   -28447   -28472 
  -28493   -28501   -28479   -28443   -28433   -28453   -28474   -28475 
  -28459   -28429   -28401   -28398   -28441   -28509   -28555   -28564 
  -28564   -28579   -28598   -28617   -28638   -28649   -28648   -28649 
  -28653   -28659   -28659   -28641   -28609   -28582   -28566   -28556 
  -28557   -28559   -28528   -28462   -28391   -28331   -28282   -28250 
  -28228   -28200   -28169   -28154   -28152   -28147   -28143   -28143 
  -28146   -28148   -28135   -28097   -28057   -28034   -28019   -27999 
  -27994   -28017   -28059   -28111   -28156   -28178   -28174   -28169 
  -28185   -28221   -28262   -28289   -28300   -28314   -28340   -28374 
  -28418   -28467   -28520   -28582   -28636   -28669   -28691   -28711 
  -28732   -28749   -28756   -28761   -28775   -28790   -28802   -28819 
  -28830   -28827   -28826   -28846   -28887   -28925   -28954   -28979 
  -29003   -29020   -29014   -28985   -28958   -28941   -28934   -28949 
  -28962   -28961   -28958   -28953   -28927   -28880   -28814   -28725 
  -28636   -28583   -28556   -28520   -28466   -28414   -28363   -28314 
  -28286   -28281   -28283   -28294   -28314   -28339   -28358   -28362 
  -28358   -28347   -28329   -28313   -28305   -28325   -28371   -28402 
  -28401   -28393   -28387   -28394   -28429   -28487   -28532   -28553 
  -28571   -28588   -28595   -28595   -28595   -28595   -28587   -28576 
  -28574   -28571   -28572   -28576   -28563   -28532   -28505   -28482 
  -28482   -28521   -28567   -28605   -28651   -28701   -28730   -28734 
  -28730   -28742   -28765   -28779   -28790   -28823   -28869   -28902 
  -28919   -28948   -28995   -29050   -29103   -29160   -29223   -29274 
  -29304   -29313   -29312   -29322   -29346   -29376   -29397   -29412 
  -29423   -29420   -29409   -29419   -29442   -29451   -29438   -29407 
  -29370   -29339   -29311   -29272   -29208   -29128   -29053   -28987 
  -28925   -28864   -28795   -28725   -28660   -28603   -28560   -28534 
  -28509   -28470   -28431   -28404   -28381   -28354   -28325   -28298 
  -28271   -28240   -28210   -28198   -28193   -28181   -28169   -28165 
  -28165   -28154   -28136   -28123   -28109   -28098   -28092   -28097 
  -28120   -28155   -28192   -28220   -28243   -28282   -28332   -28377 
  -28425   -28487   -28556   -28633   -28722   -28807   -28887   -28971 
  -29053   -29130   -29216   -29300   -29362   -29413   -29454   -29481 
  -29525   -29589   -29646   -29694   -29745   -29803   -29860   -29903 
  -29938   -29979   -30019   -30051   -30071   -30076   -30061   -30033 
  -29991   -29930   -29857   -29772   -29685   -29608   -29543   -29465 
  -29365   -29258   -29157   -29056   -28957   -28869   -28795   -28733 
  -28684   -28633   -28580   -28536   -28501   -28474   -28458   -28443 
  -28433   -28429   -28418   -28398   -28374   -28352   -28333   -28314 
  -28298   -28296   -28310   -28335   -28358   -28385   -28410   -28421 
  -28428   -28447   -28474   -28502   -28530   -28548   -28552   -28560 
  -28574   -28588   -28609   -28620   -28613   -28618   -28641   -28656 
  -28665   -28692   -28726   -28746   -28760   -28773   -28776   -28757 
  -28711   -28648   -28594   -28563   -28539   -28514   -28503   -28505 
  -28509   -28518   -28534   -28545   -28552   -28564   -28593   -28629 
  -28653   -28676   -28729   -28804   -28876   -28931   -28983   -29046 
  -29107   -29139   -29149   -29143   -29134   -29126   -29108   -29083 
  -29062   -29054   -29058   -29057   -29031   -28975   -28888   -28786 
  -28687   -28605   -28541   -28480   -28414   -28362   -28329   -28305 
  -28293   -28294   -28306   -28328   -28358   -28378   -28381   -28383 
  -28399   -28436   -28493   -28563   -28624   -28671   -28707   -28737 
  -28769   -28803   -28826   -28838   -28842   -28844   -28842   -28827 
  -28806   -28800   -28807   -28814   -28819   -28826   -28834   -28840 
  -28848   -28857   -28853   -28838   -28829   -28817   -28795   -28773 
  -28764   -28765   -28775   -28777   -28765   -28748   -28740   -28741 
  -28734   -28729   -28742   -28760   -28771   -28787   -28806   -28813 
  -28819   -28833   -28841   -28840   -28836   -28836   -28841   -28845 
  -28852   -28867   -28880   -28890   -28906   -28937   -28971   -29000 
  -29033   -29073   -29111   -29141   -29165   -29197   -29255   -29331 
  -29396   -29443   -29489   -29529   -29550   -29554   -29540   -29505 
  -29454   -29397   -29349   -29308   -29263   -29215   -29178   -29149 
  -29108   -29064   -29026   -28998   -28979   -28962   -28931   -28880 
  -28827   -28777   -28728   -28680   -28640   -28609   -28578   -28532 
  -28458   -28362   -28278   -28228   -28204   -28185   -28165   -28135 
  -28080   -28001   -27920   -27847   -27778   -27710   -27645   -27585 
  -27531   -27480   -27432   -27391   -27369   -27371   -27387   -27417 
  -27461   -27514   -27565   -27615   -27672   -27741   -27827   -27936 
  -28051   -28156   -28266   -28383   -28503   -28622   -28729   -28837 
  -28961   -29087   -29201   -29315   -29434   -29555   -29686   -29820 
  -29943   -30056   -30153   -30223   -30269   -30300   -30329   -30343 
  -30342   -30323   -30298   -30279   -30256   -30215   -30171   -30118 
  -30064   -30030   -30009   -29974   -29916   -29841   -29756   -29673 
  -29593   -29509   -29427   -29351   -29273   -29189   -29099   -29010 
  -28931   -28849   -28767   -28718   -28703   -28683   -28640   -28597 
  -28568   -28547   -28528   -28513   -28491   -28451   -28395   -28329 
  -28255   -28189   -28136   -28094   -28059   -28020   -27963   -27896 
  -27838   -27791   -27737   -27679   -27626   -27576   -27523   -27473 
  -27426   -27384   -27349   -27321   -27301   -27280   -27256   -27247 
  -27259   -27280   -27307   -27346   -27392   -27434   -27477   -27537 
  -27610   -27679   -27737   -27785   -27828   -27878   -27938   -27996 
  -28059   -28132   -28206   -28278   -28348   -28402   -28443   -28483 
  -28521   -28539   -28532   -28512   -28486   -28470   -28468   -28470 
  -28466   -28456   -28444   -28440   -28441   -28444   -28447   -28448 
  -28451   -28463   -28486   -28513   -28552   -28609   -28669   -28728 
  -28798   -28879   -28957   -29038   -29133   -29235   -29324   -29404 
  -29481   -29551   -29601   -29635   -29662   -29686   -29704   -29705 
  -29689   -29663   -29627   -29586   -29542   -29490   -29439   -29403 
  -29371   -29335   -29288   -29247   -29218   -29193   -29164   -29130 
  -29092   -29056   -29023   -28999   -28989   -28972   -28925   -28871 
  -28838   -28841   -28875   -28911   -28931   -28966   -29029   -29106 
  -29193   -29282   -29369   -29461   -29560   -29664   -29774   -29884 
  -29987   -30082   -30173   -30261   -30337   -30392   -30426   -30457 
  -30488   -30511   -30527   -30530   -30514   -30469   -30400   -30329 
  -30253   -30161   -30060   -29943   -29810   -29674   -29538   -29398 
  -29261   -29126   -28983   -28840   -28706   -28572   -28444   -28336 
  -28233   -28127   -28035   -27963   -27904   -27853   -27810   -27776 
  -27751   -27737   -27724   -27712   -27703   -27704   -27724   -27762 
  -27812   -27869   -27928   -27990   -28054   -28123   -28201   -28273 
  -28332   -28389   -28445   -28498   -28556   -28628   -28702   -28782 
  -28864   -28935   -28995   -29037   -29064   -29083   -29093   -29103 
  -29119   -29131   -29131   -29120   -29108   -29110   -29115   -29110 
  -29101   -29091   -29076   -29062   -29053   -29035   -29010   -28985 
  -28966   -28946   -28918   -28875   -28814   -28744   -28674   -28607 
  -28537   -28462   -28387   -28316   -28247   -28192   -28147   -28104 
  -28074   -28058   -28047   -28042   -28042   -28050   -28067   -28088 
  -28109   -28128   -28148   -28178   -28227   -28289   -28362   -28440 
  -28517   -28599   -28698   -28791   -28864   -28933   -29006   -29074 
  -29124   -29155   -29191   -29238   -29281   -29307   -29323   -29340 
  -29353   -29344   -29328   -29326   -29327   -29316   -29293   -29249 
  -29187   -29127   -29072   -29003   -28931   -28872   -28827   -28790 
  -28742   -28688   -28645   -28621   -28615   -28626   -28641   -28651 
  -28661   -28683   -28706   -28726   -28744   -28767   -28802   -28834 
  -28857   -28892   -28935   -28969   -28999   -29029   -29062   -29097 
  -29124   -29145   -29158   -29158   -29150   -29134   -29114   -29093 
  -29068   -29033   -28999   -28960   -28908   -28857   -28813   -28761 
  -28690   -28610   -28543   -28493   -28448   -28398   -28351   -28304 
  -28255   -28209   -28169   -28140   -28129   -28135   -28166   -28208 
  -28239   -28258   -28274   -28285   -28293   -28310   -28333   -28352 
  -28367   -28372   -28358   -28340   -28343   -28356   -28367   -28386 
  -28404   -28409   -28405   -28397   -28383   -28360   -28333   -28297 
  -28252   -28204   -28158   -28125   -28105   -28089   -28080   -28080 
  -28094   -28117   -28136   -28161   -28200   -28247   -28290   -28321 
  -28352   -28401   -28468   -28548   -28634   -28734   -28845   -28958 
  -29069   -29181   -29293   -29400   -29490   -29552   -29587   -29604 
  -29594   -29562   -29521   -29471   -29409   -29336   -29262   -29200 
  -29149   -29092   -29029   -28968   -28891   -28796   -28707   -28629 
  -28560   -28497   -28428   -28355   -28289   -28236   -28190   -28154 
  -28124   -28096   -28063   -28024   -27978   -27936   -27905   -27882 
  -27862   -27839   -27827   -27831   -27845   -27861   -27888   -27926 
  -27967   -28001   -28023   -28038   -28043   -28059   -28102   -28155 
  -28204   -28259   -28332   -28413   -28493   -28567   -28640   -28709 
  -28765   -28814   -28861   -28917   -28981   -29045   -29108   -29193 
  -29300   -29423   -29547   -29663   -29775   -29880   -29976   -30067 
  -30150   -30223   -30283   -30321   -30337   -30350   -30364   -30380 
  -30387   -30369   -30342   -30327   -30330   -30334   -30330   -30319 
  -30316   -30308   -30276   -30217   -30140   -30057   -29979   -29899 
  -29809   -29708   -29601   -29489   -29370   -29251   -29133   -29018 
  -28914   -28814   -28728   -28663   -28606   -28552   -28507   -28468 
  -28439   -28416   -28401   -28399   -28416   -28451   -28491   -28521 
  -28543   -28557   -28567   -28583   -28607   -28633   -28656   -28672 
  -28679   -28682   -28687   -28698   -28707   -28709   -28702   -28691 
  -28679   -28667   -28651   -28632   -28615   -28603   -28597   -28598 
  -28615   -28647   -28672   -28688   -28705   -28732   -28764   -28794 
  -28815   -28845   -28883   -28915   -28941   -28968   -28999   -29025 
  -29039   -29052   -29057   -29050   -29037   -29022   -29003   -28981 
  -28953   -28910   -28853   -28792   -28740   -28694   -28645   -28594 
  -28556   -28532   -28510   -28489   -28463   -28426   -28390   -28356 
  -28318   -28282   -28254   -28228   -28201   -28179   -28169   -28173 
  -28185   -28200   -28212   -28216   -28223   -28231   -28231   -28237 
  -28254   -28274   -28309   -28355   -28394   -28428   -28467   -28512 
  -28561   -28606   -28648   -28696   -28752   -28807   -28852   -28892 
  -28942   -29003   -29062   -29116   -29158   -29199   -29241   -29268 
  -29276   -29285   -29290   -29280   -29251   -29223   -29208   -29209 
  -29216   -29214   -29195   -29174   -29162   -29153   -29146   -29138 
  -29126   -29123   -29131   -29135   -29137   -29120   -29091   -29066 
  -29043   -29025   -29018   -29006   -28981   -28953   -28930   -28915 
  -28899   -28879   -28858   -28836   -28817   -28800   -28780   -28764 
  -28749   -28736   -28733   -28745   -28764   -28772   -28764   -28746 
  -28722   -28694   -28672   -28651   -28626   -28602   -28582   -28560 
  -28529   -28486   -28451   -28433   -28413   -28386   -28360   -28329 
  -28290   -28248   -28220   -28202   -28185   -28161   -28134   -28116 
  -28111   -28109   -28100   -28092   -28088   -28088   -28101   -28125 
  -28147   -28173   -28204   -28232   -28256   -28275   -28290   -28309 
  -28339   -28377   -28416   -28458   -28506   -28547   -28564   -28578 
  -28614   -28657   -28696   -28733   -28777   -28826   -28872   -28917 
  -28962   -29010   -29061   -29115   -29170   -29224   -29274   -29326 
  -29378   -29428   -29471   -29525   -29600   -29682   -29758   -29813 
  -29855   -29902   -29955   -30002   -30044   -30087   -30133   -30167 
  -30186   -30195   -30196   -30180   -30154   -30136   -30122   -30106 
  -30083   -30042   -29986   -29925   -29870   -29822   -29776   -29717 
  -29641   -29556   -29469   -29374   -29276   -29178   -29085   -28995 
  -28910   -28838   -28779   -28722   -28669   -28628   -28601   -28591 
  -28587   -28570   -28544   -28532   -28540   -28556   -28564   -28566 
