Origin Time       2025/01/13 21:19:00
Lat.              31.8
Long.             131.6
Depth. (km)       30
Mag.              6.9
Station Code      HRSH17
Station Lat.      34.5716
Station Long.     132.2326
Station Height(m) 265
Record Time       2025/01/13 21:20:25
Sampling Freq(Hz) 100Hz
Duration Time(s)  138
Dir.              4
Scale Factor      7845(gal)/8223790
Max. Acc. (gal)   1.293
Last Correction   2025/01/13 21:20:26
Memo.             
[...]
   -2735    -2768    -2785    -2776    -2749    -2705    -2667    -2658 
   -2659    -2660    -2666    -2670    -2668    -2670    -2682    -2702 
   -2713    -2708    -2686    -2655    -2633    -2632    -2656    -2681 
   -2673    -2635    -2604    -2590    -2578    -2555    -2511    -2438 
   -2363    -2328    -2332    -2343    -2347    -2335    -2311    -2304 
   -2338    -2382    -2404    -2415    -2427    -2434    -2444    -2455 
   -2447    -2427    -2419    -2428    -2450    -2475    -2493    -2512 
   -2554    -2612    -2663    -2710    -2752    -2775    -2787    -2785 
   -2760    -2736    -2732    -2724    -2685    -2623    -2558    -2531 
   -2556    -2594    -2601    -2582    -2569    -2590    -2648    -2712 
   -2748    -2759    -2749    -2735    -2739    -2763    -2798    -2844 
   -2883    -2889    -2848    -2781    -2727    -2705    -2705    -2690 
   -2650    -2610    -2596    -2604    -2602    -2567    -2525    -2515 
   -2536    -2573    -2605    -2616    -2612    -2606    -2589    -2560 
   -2548    -2567    -2593    -2592    -2548    -2489    -2454    -2473 
   -2532    -2578    -2570    -2532    -2513    -2531    -2560    -2559 
   -2512    -2446    -2415    -2425    -2448    -2459    -2454    -2434 
   -2411    -2392    -2363    -2326    -2295    -2285    -2290    -2292 
   -2280    -2266    -2278    -2327    -2389    -2427    -2430    -2415 
   -2424    -2469    -2515    -2525    -2493    -2436    -2390    -2377 
   -2385    -2397    -2409    -2431    -2466    -2508    -2558    -2605 
   -2624    -2623    -2637    -2677    -2725    -2767    -2781    -2745 
   -2675    -2612    -2567    -2524    -2470    -2419    -2396    -2420 
   -2479    -2544    -2581    -2593    -2596    -2596    -2587    -2571 
   -2570    -2598    -2628    -2610    -2554    -2520    -2538    -2593 
   -2658    -2687    -2660    -2620    -2617    -2651    -2679    -2668 
   -2602    -2501    -2403    -2343    -2327    -2331    -2327    -2320 
   -2327    -2349    -2400    -2485    -2563    -2616    -2671    -2735 
   -2795    -2855    -2887    -2856    -2762    -2660    -2605    -2600 
   -2600    -2562    -2474    -2369    -2304    -2323    -2416    -2523 
   -2586    -2590    -2547    -2508    -2533    -2616    -2685    -2678 
   -2596    -2505    -2473    -2519    -2600    -2640    -2609    -2552 
   -2529    -2548    -2590    -2633    -2648    -2619    -2574    -2552 
   -2556    -2578    -2623    -2671    -2670    -2620    -2581    -2597 
   -2658    -2710    -2718    -2674    -2601    -2555    -2558    -2575 
   -2594    -2623    -2662    -2716    -2774    -2794    -2751    -2674 
   -2604    -2559    -2519    -2457    -2385    -2340    -2349    -2378 
   -2373    -2309    -2216    -2135    -2110    -2161    -2272    -2390 
   -2467    -2477    -2424    -2351    -2307    -2309    -2354    -2435 
   -2523    -2570    -2579    -2586    -2616    -2685    -2763    -2782 
   -2714    -2602    -2513    -2500    -2551    -2592    -2558    -2455 
   -2355    -2319    -2338    -2354    -2326    -2280    -2281    -2365 
   -2493    -2598    -2632    -2579    -2486    -2415    -2378    -2367 
   -2398    -2473    -2543    -2573    -2579    -2578    -2577    -2577 
   -2571    -2560    -2544    -2535    -2525    -2471    -2376    -2317 
   -2355    -2450    -2536    -2560    -2517    -2489    -2554    -2667 
   -2716    -2668    -2583    -2556    -2641    -2770    -2818    -2743 
   -2613    -2542    -2592    -2710    -2799    -2809    -2752    -2673 
   -2624    -2636    -2675    -2694    -2678    -2619    -2548    -2542 
   -2624    -2739    -2805    -2786    -2702    -2620    -2612    -2664 
   -2671    -2589    -2494    -2461    -2502    -2598    -2664    -2635 
   -2555    -2500    -2490    -2523    -2569    -2597    -2623    -2668 
   -2724    -2778    -2828    -2849    -2817    -2747    -2652    -2550 
   -2498    -2533    -2609    -2655    -2648    -2609    -2592    -2635 
   -2717    -2778    -2778    -2716    -2627    -2550    -2502    -2475 
   -2448    -2403    -2331    -2236    -2154    -2131    -2197    -2331 
   -2457    -2511    -2484    -2424    -2394    -2425    -2492    -2547 
   -2569    -2565    -2551    -2531    -2494    -2436    -2377    -2343 
   -2335    -2354    -2417    -2504    -2567    -2601    -2617    -2625 
   -2646    -2685    -2729    -2770    -2781    -2744    -2683    -2652 
   -2666    -2709    -2758    -2776    -2740    -2677    -2628    -2612 
   -2643    -2714    -2766    -2754    -2695    -2623    -2586    -2640 
   -2749    -2794    -2735    -2652    -2621    -2652    -2721    -2781 
   -2774    -2694    -2592    -2523    -2502    -2524    -2570    -2624 
   -2677    -2712    -2721    -2700    -2668    -2671    -2725    -2789 
   -2813    -2783    -2706    -2613    -2554    -2547    -2563    -2569 
   -2532    -2454    -2357    -2259    -2192    -2177    -2195    -2215 
   -2230    -2243    -2277    -2344    -2427    -2484    -2485    -2446 
   -2398    -2367    -2371    -2400    -2431    -2455    -2461    -2438 
   -2404    -2386    -2389    -2419    -2488    -2565    -2590    -2574 
   -2567    -2583    -2616    -2656    -2679    -2664    -2629    -2586 
   -2538    -2490    -2459    -2436    -2404    -2363    -2334    -2340 
   -2408    -2512    -2587    -2592    -2543    -2489    -2466    -2493 
   -2536    -2550    -2532    -2520    -2540    -2589    -2633    -2637 
   -2600    -2547    -2498    -2455    -2423    -2413    -2419    -2425 
   -2438    -2450    -2447    -2430    -2403    -2371    -2347    -2351 
   -2380    -2416    -2443    -2455    -2473    -2519    -2589    -2652 
   -2685    -2671    -2631    -2602    -2606    -2623    -2646    -2678 
   -2710    -2722    -2698    -2637    -2575    -2555    -2587    -2633 
   -2650    -2606    -2512    -2423    -2389    -2424    -2502    -2569 
   -2574    -2527    -2488    -2506    -2586    -2683    -2736    -2717 
   -2651    -2590    -2566    -2566    -2565    -2573    -2583    -2571 
   -2539    -2512    -2521    -2592    -2695    -2760    -2724    -2621 
   -2551    -2587    -2735    -2905    -2979    -2916    -2770    -2639 
   -2594    -2621    -2639    -2604    -2519    -2412    -2369    -2458 
   -2628    -2781    -2843    -2770    -2596    -2421    -2343    -2388 
   -2502    -2600    -2628    -2632    -2682    -2766    -2822    -2832 
   -2813    -2787    -2790    -2825    -2844    -2798    -2718    -2660 
   -2628    -2601    -2582    -2581    -2596    -2619    -2633    -2628 
   -2606    -2602    -2631    -2658    -2660    -2660    -2681    -2716 
   -2736    -2737    -2729    -2710    -2690    -2670    -2625    -2560 
   -2509    -2481    -2462    -2458    -2498    -2585    -2667    -2691 
   -2639    -2547    -2486    -2504    -2585    -2674    -2708    -2679 
   -2640    -2627    -2609    -2562    -2500    -2435    -2381    -2365 
   -2388    -2439    -2513    -2570    -2560    -2490    -2408    -2373 
   -2420    -2517    -2578    -2565    -2532    -2536    -2582    -2635 
   -2625    -2519    -2374    -2273    -2241    -2249    -2268    -2284 
   -2296    -2308    -2323    -2340    -2380    -2454    -2547    -2619 
   -2621    -2558    -2496    -2479    -2486    -2489    -2475    -2457 
   -2469    -2506    -2519    -2497    -2466    -2455    -2501    -2581 
   -2610    -2554    -2443    -2332    -2303    -2389    -2521    -2613 
   -2635    -2596    -2542    -2512    -2519    -2570    -2670    -2785 
   -2857    -2859    -2798    -2725    -2724    -2813    -2899    -2895 
   -2813    -2731    -2717    -2794    -2920    -3026    -3086    -3114 
   -3102    -3030    -2943    -2905    -2922    -2953    -2965    -2940 
   -2878    -2829    -2832    -2844    -2822    -2799    -2821    -2883 
   -2951    -2980    -2940    -2863    -2820    -2821    -2824    -2797 
   -2759    -2737    -2748    -2795    -2848    -2879    -2907    -2955 
   -2994    -2968    -2862    -2718    -2601    -2540    -2539    -2556 
   -2527    -2434    -2313    -2204    -2146    -2172    -2247    -2296 
   -2286    -2265    -2285    -2358    -2443    -2459    -2347    -2158 
   -2006    -1960    -2022    -2124    -2172    -2130    -2053    -2018 
   -2083    -2231    -2376    -2442    -2404    -2281    -2166    -2153 
   -2226    -2295    -2280    -2182    -2080    -2050    -2104    -2188 
   -2212    -2154    -2083    -2083    -2172    -2308    -2423    -2454 
   -2362    -2203    -2101    -2115    -2211    -2327    -2385    -2366 
   -2340    -2374    -2469    -2547    -2555    -2509    -2467    -2488 
   -2573    -2662    -2710    -2717    -2710    -2728    -2749    -2728 
   -2679    -2671    -2721    -2791    -2828    -2787    -2687    -2600 
   -2594    -2673    -2759    -2775    -2718    -2646    -2617    -2655 
   -2741    -2844    -2930    -2979    -2972    -2907    -2799    -2702 
   -2655    -2652    -2671    -2677    -2662    -2662    -2685    -2677 
   -2604    -2502    -2416    -2381    -2407    -2443    -2431    -2401 
   -2419    -2473    -2515    -2520    -2490    -2457    -2459    -2500 
   -2547    -2585    -2621    -2651    -2646    -2601    -2558    -2565 
   -2628    -2686    -2685    -2604    -2454    -2295    -2187    -2143 
   -2142    -2160    -2197    -2249    -2280    -2255    -2168    -2074 
   -2068    -2170    -2300    -2362    -2317    -2222    -2189    -2272 
   -2416    -2529    -2544    -2473    -2400    -2367    -2344    -2300 
   -2230    -2154    -2116    -2133    -2164    -2188    -2216    -2257 
   -2304    -2349    -2378    -2378    -2358    -2355    -2401    -2494 
   -2604    -2670    -2659    -2596    -2539    -2539    -2616    -2710 
   -2740    -2694    -2620    -2575    -2616    -2739    -2875    -2936 
   -2887    -2782    -2712    -2735    -2820    -2874    -2859    -2837 
   -2882    -2990    -3080    -3063    -2918    -2736    -2623    -2601 
   -2623    -2624    -2605    -2640    -2787    -2979    -3086    -3048 
   -2910    -2760    -2681    -2706    -2783    -2825    -2782    -2670 
   -2543    -2462    -2470    -2554    -2646    -2663    -2601    -2535 
   -2540    -2635    -2774    -2856    -2808    -2664    -2536    -2512 
   -2585    -2683    -2756    -2787    -2772    -2744    -2716    -2673 
   -2650    -2685    -2749    -2795    -2798    -2754    -2705    -2722 
   -2814    -2897    -2907    -2880    -2862    -2872    -2911    -2929 
   -2886    -2797    -2691    -2613    -2600    -2624    -2623    -2575 
   -2506    -2471    -2511    -2608    -2714    -2782    -2793    -2768 
   -2748    -2739    -2710    -2656    -2619    -2631    -2670    -2666 
   -2578    -2443    -2353    -2380    -2489    -2566    -2523    -2370 
   -2219    -2155    -2169    -2189    -2176    -2147    -2131    -2101 
   -2033    -1944    -1894    -1931    -2046    -2157    -2209    -2219 
   -2239    -2316    -2446    -2563    -2612    -2616    -2628    -2637 
   -2596    -2512    -2443    -2434    -2478    -2512    -2475    -2389 
   -2336    -2394    -2536    -2659    -2702    -2681    -2643    -2620 
   -2586    -2536    -2531    -2600    -2694    -2754    -2739    -2687 
   -2700    -2810    -2945    -3018    -2982    -2868    -2786    -2790 
   -2847    -2907    -2948    -2955    -2921    -2862    -2818    -2840 
   -2930    -3030    -3071    -3044    -2988    -2960    -2984    -3019 
   -3010    -2938    -2808    -2639    -2484    -2384    -2343    -2344 
   -2350    -2320    -2247    -2166    -2149    -2226    -2338    -2384 
   -2328    -2238    -2184    -2182    -2209    -2223    -2181    -2077 
   -1969    -1918    -1931    -1965    -1952    -1863    -1742    -1679 
   -1718    -1826    -1926    -1948    -1881    -1795    -1772    -1836 
   -1948    -2049    -2069    -1991    -1885    -1834    -1867    -1968 
   -2085    -2161    -2161    -2100    -2035    -2022    -2095    -2254 
   -2435    -2542    -2563    -2559    -2593    -2693    -2808    -2862 
   -2851    -2828    -2839    -2895    -2967    -3017    -3056    -3115 
   -3192    -3234    -3215    -3191    -3230    -3339    -3469    -3557 
   -3570    -3532    -3497    -3511    -3541    -3518    -3437    -3356 
   -3323    -3354    -3423    -3461    -3414    -3321    -3258    -3252 
   -3284    -3321    -3306    -3215    -3083    -2953    -2830    -2712 
   -2597    -2497    -2427    -2382    -2350    -2330    -2332    -2347 
   -2358    -2350    -2293    -2195    -2106    -2050    -2007    -1958 
   -1910    -1871    -1830    -1798    -1784    -1798    -1838    -1884 
   -1915    -1922    -1906    -1877    -1865    -1872    -1879    -1884 
   -1902    -1912    -1894    -1860    -1833    -1826    -1860    -1930 
   -2006    -2061    -2111    -2192    -2296    -2378    -2420    -2428 
   -2424    -2450    -2509    -2556    -2567    -2566    -2605    -2702 
   -2806    -2841    -2814    -2791    -2809    -2844    -2852    -2795 
   -2705    -2667    -2710    -2786    -2837    -2836    -2797    -2752 
   -2710    -2647    -2558    -2494    -2515    -2602    -2681    -2682 
   -2605    -2520    -2513    -2609    -2756    -2867    -2882    -2826 
   -2787    -2809    -2875    -2957    -3010    -2997    -2930    -2851 
   -2803    -2830    -2907    -2970    -2980    -2949    -2926    -2956 
   -3021    -3087    -3136    -3163    -3181    -3219    -3287    -3354 
   -3376    -3326    -3234    -3157    -3141    -3188    -3249    -3254 
   -3190    -3106    -3060    -3059    -3067    -3026    -2916    -2791 
   -2701    -2641    -2593    -2527    -2407    -2263    -2188    -2201 
   -2222    -2162    -2019    -1865    -1779    -1773    -1796    -1764 
   -1648    -1499    -1402    -1378    -1377    -1332    -1252    -1201 
   -1232    -1323    -1410    -1464    -1499    -1553    -1632    -1699 
   -1732    -1753    -1795    -1846    -1860    -1810    -1732    -1706 
   -1802    -1958    -2039    -2019    -1992    -2052    -2227    -2455 
   -2613    -2656    -2646    -2656    -2714    -2817    -2910    -2937 
   -2910    -2887    -2899    -2970    -3095    -3208    -3250    -3245 
   -3257    -3319    -3423    -3530    -3586    -3568    -3514    -3485 
   -3508    -3582    -3666    -3697    -3651    -3557    -3449    -3375 
   -3360    -3376    -3384    -3380    -3366    -3331    -3264    -3173 
   -3078    -3009    -2998    -3028    -3038    -3009    -2967    -2951 
   -2952    -2940    -2878    -2758    -2631    -2565    -2560    -2582 
   -2592    -2569    -2535    -2521    -2547    -2593    -2619    -2621 
   -2624    -2624    -2619    -2613    -2593    -2547    -2478    -2386 
   -2273    -2168    -2123    -2137    -2145    -2112    -2037    -1945 
   -1906    -1944    -1981    -1949    -1853    -1755    -1719    -1764 
   -1845    -1906    -1918    -1896    -1892    -1923    -1960    -1977 
   -1971    -1952    -1935    -1934    -1948    -1942    -1888    -1814 
   -1757    -1726    -1713    -1692    -1648    -1595    -1579    -1610 
   -1653    -1680    -1711    -1757    -1818    -1906    -2023    -2155 
   -2300    -2450    -2565    -2610    -2598    -2589    -2648    -2787 
   -2943    -3055    -3100    -3096    -3096    -3142    -3207    -3249 
   -3264    -3272    -3296    -3345    -3412    -3472    -3503    -3508 
   -3489    -3443    -3387    -3352    -3346    -3349    -3338    -3306 
   -3256    -3208    -3175    -3133    -3053    -2956    -2905    -2947 
   -3068    -3208    -3281    -3248    -3156    -3069    -3022    -3005 
   -2972    -2894    -2799    -2744    -2731    -2729    -2713    -2646 
   -2535    -2447    -2430    -2465    -2516    -2554    -2559    -2548 
   -2542    -2539    -2533    -2527    -2529    -2551    -2582    -2600 
   -2587    -2559    -2528    -2479    -2411    -2355    -2343    -2385 
   -2478    -2567    -2582    -2540    -2515    -2544    -2627    -2705 
   -2706    -2633    -2566    -2569    -2621    -2666    -2660    -2609 
   -2559    -2558    -2593    -2614    -2594    -2559    -2565    -2623 
   -2677    -2667    -2577    -2442    -2324    -2258    -2236    -2242 
   -2232    -2174    -2088    -2007    -1971    -2004    -2052    -2046 
   -1977    -1894    -1850    -1863    -1880    -1864    -1817    -1771 
   -1767    -1810    -1885    -1983    -2084    -2155    -2192    -2220 
   -2265    -2349    -2454    -2521    -2528    -2500    -2467    -2459 
   -2489    -2529    -2555    -2567    -2566    -2552    -2551    -2592 
   -2678    -2755    -2748    -2670    -2613    -2636    -2735    -2841 
   -2880    -2847    -2817    -2849    -2918    -2970    -2972    -2930 
   -2890    -2902    -2945    -2948    -2903    -2859    -2824    -2797 
   -2795    -2829    -2879    -2924    -2943    -2917    -2852    -2802 
   -2812    -2851    -2870    -2856    -2821    -2791    -2793    -2806 
   -2816    -2816    -2810    -2814    -2829    -2816    -2764    -2691 
   -2590    -2466    -2357    -2289    -2266    -2272    -2272    -2243 
   -2182    -2134    -2149    -2222    -2311    -2386    -2431    -2436 
   -2432    -2467    -2536    -2589    -2605    -2585    -2542    -2528 
   -2579    -2660    -2708    -2685    -2597    -2516    -2511    -2565 
   -2594    -2560    -2485    -2412    -2378    -2388    -2403    -2390 
   -2377    -2376    -2361    -2303    -2214    -2123    -2069    -2046 
   -1995    -1885    -1768    -1715    -1753    -1841    -1895    -1876 
   -1818    -1786    -1826    -1907    -1945    -1904    -1810    -1703 
   -1611    -1552    -1532    -1528    -1528    -1533    -1525    -1498 
   -1493    -1544    -1636    -1725    -1787    -1845    -1923    -2016 
   -2112    -2189    -2223    -2230    -2253    -2304    -2359    -2407 
   -2452    -2490    -2520    -2563    -2613    -2643    -2658    -2682 
   -2736    -2826    -2940    -3046    -3107    -3106    -3080    -3073 
   -3100    -3154    -3208    -3229    -3204    -3154    -3125    -3154 
   -3229    -3288    -3281    -3198    -3094    -3053    -3092    -3140 
   -3132    -3069    -3002    -2987    -3040    -3105    -3125    -3115 
   -3142    -3221    -3303    -3346    -3349    -3343    -3364    -3388 
   -3362    -3272    -3150    -3067    -3068    -3111    -3118    -3065 
   -2984    -2918    -2897    -2907    -2916    -2914    -2918    -2921 
   -2906    -2887    -2882    -2887    -2889    -2866    -2793    -2691 
   -2608    -2555    -2519    -2492    -2474    -2457    -2427    -2389 
   -2344    -2303    -2288    -2297    -2299    -2278    -2253    -2235 
   -2231    -2236    -2224    -2176    -2093    -1998    -1921    -1894 
   -1923    -1972    -2007    -2015    -1996    -1985    -2022    -2085 
   -2124    -2126    -2112    -2119    -2173    -2259    -2342    -2393 
   -2417    -2434    -2474    -2539    -2597    -2635    -2650    -2644 
   -2639    -2640    -2637    -2631    -2633    -2647    -2670    -2720 
   -2805    -2897    -2955    -2956    -2901    -2832    -2803    -2817 
   -2837    -2828    -2770    -2690    -2628    -2594    -2590    -2617 
   -2663    -2709    -2740    -2760    -2778    -2801    -2820    -2830 
   -2820    -2779    -2733    -2713    -2722    -2732    -2721    -2693 
   -2673    -2701    -2772    -2837    -2862    -2848    -2826    -2826 
   -2848    -2866    -2863    -2837    -2798    -2762    -2729    -2695 
   -2658    -2620    -2583    -2552    -2517    -2461    -2390    -2327 
   -2270    -2199    -2107    -2008    -1922    -1856    -1795    -1723 
   -1640    -1571    -1529    -1499    -1470    -1453    -1460    -1491 
   -1543    -1606    -1674    -1752    -1856    -1973    -2062    -2114 
