Origin Time       2025/01/13 21:19:00
Lat.              31.8
Long.             131.6
Depth. (km)       30
Mag.              6.9
Station Code      HRSH01
Station Lat.      34.3736
Station Long.     133.0236
Station Height(m) -170.3
Record Time       2025/01/13 21:20:32
Sampling Freq(Hz) 100Hz
Duration Time(s)  132
Dir.              2
Scale Factor      2942(gal)/8224139
Max. Acc. (gal)   0.856
Last Correction   2025/01/13 21:20:32
Memo.             
[...]
  105178   105173   105219   105282   105325   105349   105348   105335 
  105406   105536   105595   105601   105622   105684   105752   105746 
  105748   105825   105869   105864   105873   105916   106010   106151 
  106258   106266   106269   106313   106285   106201   106192   106249 
  106243   106165   106150   106164   106085   106024   106016   105933 
  105784   105669   105641   105675   105722   105786   105802   105717 
  105634   105591   105537   105506   105553   105640   105653   105579 
  105552   105598   105642   105691   105725   105723   105707   105672 
  105630   105580   105490   105463   105567   105649   105618   105603 
  105661   105698   105763   105931   106022   105973   106004   106107 
  106130   106105   106047   105945   105892   105907   105883   105798 
  105736   105686   105598   105536   105521   105540   105583   105599 
  105628   105726   105835   105931   106010   106050   106081   106112 
  106151   106201   106222   106178   106069   105938   105829   105672 
  105453   105273   105160   105075   105061   105140   105213   105237 
  105304   105421   105532   105678   105817   105849   105845   105852 
  105845   105868   105894   105881   105911   106020   106137   106197 
  106231   106263   106228   106101   105983   105888   105736   105549 
  105451   105457   105493   105522   105574   105683   105804   105841 
  105833   105867   105921   105976   106023   106027   106003   105961 
  105902   105849   105842   105914   105958   105849   105678   105578 
  105499   105412   105378   105405   105476   105574   105636   105657 
  105673   105671   105648   105634   105640   105660   105713   105790 
  105854   105921   105985   106003   105956   105937   106045   106143 
  106107   106051   106018   105987   106024   106070   106033   105973 
  105958   105950   105918   105931   106006   106049   106026   105960 
  105887   105860   105915   106015   106064   106081   106131   106146 
  106135   106150   106118   106042   105968   105853   105694   105532 
  105417   105348   105306   105301   105243   105094   104940   104761 
  104611   104623   104711   104787   104886   104974   105020   105035 
  105040   105052   105043   105016   104997   104926   104801   104691 
  104642   104710   104823   104846   104859   104957   105044   105048 
  105030   105073   105127   105082   105030   105048   105071   105088 
  105082   105023   104973   104953   104907   104862   104904   104985 
  105004   105015   105071   105123   105174   105206   105183   105133 
  105067   105020   105044   105058   104985   104907   104868   104796 
  104699   104688   104751   104799   104859   104930   104931   104924 
  104946   104912   104855   104853   104863   104836   104800   104830 
  104923   104984   104973   104940   104938   104943   104916   104934 
  105031   105074   105055   105098   105163   105187   105251   105351 
  105385   105358   105337   105291   105202   105142   105116   105093 
  105088   105106   105181   105302   105367   105335   105301   105308 
  105295   105283   105321   105336   105321   105331   105367   105489 
  105659   105729   105727   105721   105632   105480   105409   105441 
  105464   105429   105420   105433   105429   105464   105533   105576 
  105625   105668   105687   105756   105872   105949   105987   106056 
  106155   106189   106123   106057   106018   105948   105880   105842 
  105844   105922   105992   105950   105872   105849   105856   105861 
  105871   105875   105858   105844   105845   105846   105844   105835 
  105829   105856   105896   105899   105871   105871   105916   105972 
  106011   106039   106073   106120   106128   106053   105968   105949 
  105970   105991   106007   106047   106120   106162   106188   106235 
  106284   106380   106520   106668   106875   107079   107208   107307 
  107350   107327   107292   107271   107288   107360   107449   107543 
  107608   107589   107553   107543   107487   107439   107481   107508 
  107497   107509   107484   107414   107349   107277   107203   107164 
  107146   107096   107006   106895   106770   106689   106663   106620 
  106577   106606   106683   106741   106768   106774   106787   106821 
  106809   106725   106628   106587   106616   106652   106679   106701 
  106663   106578   106517   106521   106567   106586   106594   106643 
  106667   106629   106610   106639   106681   106690   106648   106593 
  106558   106532   106500   106429   106315   106219   106182   106150 
  106077   105999   105945   105918   105889   105867   105889   105927 
  105943   105938   105907   105865   105833   105822   105841   105845 
  105814   105826   105889   105915   105943   106042   106147   106247 
  106359   106429   106478   106569   106693   106814   106933   107084 
  107238   107331   107406   107480   107514   107520   107505   107500 
  107539   107519   107387   107271   107168   107009   106851   106713 
  106570   106448   106334   106195   106091   106042   105965   105849 
  105791   105761   105646   105499   105387   105259   105127   105051 
  105015   104957   104859   104749   104665   104589   104483   104417 
  104448   104454   104418   104423   104417   104440   104562   104637 
  104615   104637   104718   104795   104849   104896   104936   104980 
  105042   105047   105021   105069   105081   105046   105111   105166 
  105140   105171   105224   105252   105332   105416   105435   105444 
  105493   105529   105533   105564   105602   105630   105711   105761 
  105717   105668   105629   105605   105660   105741   105765   105802 
  105906   105988   106033   106080   106037   105899   105804   105763 
  105740   105752   105729   105651   105602   105572   105521   105506 
  105510   105471   105398   105309   105233   105212   105220   105235 
  105217   105143   105075   105008   104893   104834   104865   104889 
  104896   104884   104830   104751   104649   104519   104392   104302 
  104236   104156   104112   104137   104149   104113   104095   104134 
  104236   104372   104464   104503   104599   104768   104896   104958 
  104994   104988   104926   104853   104819   104824   104859   104901 
  104889   104847   104836   104823   104809   104816   104793   104785 
  104849   104936   105007   105052   105057   105027   104994   104953 
  104888   104830   104777   104722   104674   104614   104549   104521 
  104499   104436   104330   104228   104148   104079   104026   103978 
  103912   103881   103927   104006   104074   104140   104225   104295 
  104342   104360   104356   104430   104546   104556   104526   104558 
  104549   104484   104456   104417   104302   104207   104218   104228 
  104203   104259   104364   104480   104689   104927   105075   105214 
  105414   105601   105749   105902   106033   106126   106238   106328 
  106353   106382   106409   106401   106415   106409   106362   106353 
  106367   106330   106249   106189   106147   106099   106101   106128 
  106101   106100   106147   106141   106092   106060   106060   106056 
  106038   106058   106069   106024   105977   105939   105877   105772 
  105610   105456   105360   105278   105193   105148   105128   105106 
  105140   105251   105375   105493   105617   105684   105706   105779 
  105850   105867   105894   105919   105895   105844   105760   105672 
  105636   105601   105506   105386   105316   105278   105227   105220 
  105285   105324   105339   105418   105536   105632   105700   105748 
  105819   105956   106122   106266   106388   106498   106548   106559 
  106643   106764   106872   106995   107037   106990   107009   107052 
  107056   107115   107204   107246   107266   107283   107239   107125 
  107053   107055   107026   107014   107068   107110   107149   107190 
  107158   107076   106986   106894   106814   106740   106668   106624 
  106598   106577   106567   106533   106474   106444   106394   106276 
  106170   106104   106014   105911   105823   105721   105575   105389 
  105194   105040   104927   104830   104724   104614   104544   104553 
  104584   104591   104616   104683   104749   104791   104809   104824 
  104846   104876   104889   104893   104947   105007   105020   105100 
  105256   105354   105417   105555   105710   105811   105921   106022 
  106062   106103   106131   106099   106064   106018   105958   105957 
  106016   106096   106173   106265   106415   106556   106631   106710 
  106820   106886   106909   106956   107014   107030   107019   106992 
  106938   106898   106867   106795   106695   106574   106417   106288 
  106224   106159   106068   105961   105827   105717   105646   105556 
  105437   105308   105171   105039   104932   104872   104830   104809 
  104818   104750   104623   104565   104526   104418   104314   104275 
  104222   104159   104180   104229   104228   104251   104333   104446 
  104592   104760   104897   104998   105115   105251   105371   105462 
  105514   105590   105694   105752   105834   105956   105996   106000 
  106023   106007   105981   105983   105977   105980   105993   105972 
  105929   105938   105968   105969   105981   106010   106034   106062 
  106126   106253   106407   106566   106718   106839   106942   107018 
  107076   107168   107234   107254   107262   107234   107175   107065 
  106880   106693   106546   106417   106257   106053   105927   105885 
  105798   105688   105605   105494   105351   105223   105097   104931 
  104781   104688   104569   104448   104391   104325   104245   104202 
  104166   104172   104232   104279   104334   104423   104496   104557 
  104673   104819   104949   105116   105318   105491   105661   105830 
  105965   106064   106141   106224   106282   106292   106342   106413 
  106435   106438   106439   106451   106479   106471   106434   106398 
  106358   106296   106199   106099   106051   106016   105925   105807 
  105688   105553   105445   105393   105336   105287   105291   105277 
  105243   105270   105293   105251   105205   105163   105086   105001 
  104944   104904   104838   104738   104653   104587   104550   104600 
  104687   104789   104970   105166   105324   105495   105652   105748 
  105830   105904   105922   105898   105884   105889   105894   105900 
  105925   105941   105952   105969   105950   105910   105883   105831 
  105780   105759   105688   105560   105455   105368   105283   105236 
  105208   105127   105039   105038   105057   105017   104980   104965 
  104928   104876   104819   104770   104739   104704   104641   104581 
  104565   104561   104530   104498   104495   104496   104488   104487 
  104460   104391   104329   104283   104241   104205   104184   104197 
  104225   104251   104288   104342   104400   104473   104602   104773 
  104907   105031   105179   105310   105437   105552   105629   105711 
  105814   105895   105954   106026   106103   106159   106247   106370 
  106440   106475   106519   106546   106551   106510   106423   106361 
  106320   106274   106240   106174   106022   105837   105679   105544 
  105409   105285   105170   105021   104832   104676   104577   104500 
  104453   104483   104568   104660   104728   104755   104755   104764 
  104750   104695   104656   104684   104782   104920   105086   105285 
  105449   105584   105761   105922   106024   106134   106238   106294 
  106331   106367   106400   106459   106539   106608   106706   106856 
  107013   107191   107381   107531   107669   107804   107881   107894 
  107901   107962   108036   108040   108017   107998   107921   107835 
  107798   107723   107603   107509   107403   107311   107298   107289 
  107254   107212   107129   107011   106894   106741   106564   106407 
  106249   106095   105983   105853   105679   105528   105397   105235 
  105100   105017   104927   104834   104768   104700   104654   104687 
  104755   104780   104788   104839   104874   104845   104799   104758 
  104716   104683   104661   104637   104566   104463   104382   104313 
  104253   104240   104268   104322   104390   104468   104554   104623 
  104672   104715   104735   104730   104735   104760   104782   104828 
  104920   105020   105102   105197   105289   105336   105355   105386 
  105464   105540   105543   105541   105595   105667   105741   105814 
  105887   105950   106007   106074   106116   106137   106191   106246 
  106284   106357   106461   106555   106637   106732   106832   106915 
  106986   107045   107103   107175   107261   107360   107465   107526 
  107530   107562   107620   107623   107599   107601   107613   107627 
  107662   107713   107785   107859   107902   107923   107951   107977 
  107978   107955   107900   107816   107750   107703   107630   107524 
  107419   107304   107146   106952   106767   106612   106466   106316 
  106200   106134   106073   105997   105929   105884   105869   105858 
  105826   105806   105813   105821   105822   105804   105759   105678 
  105578   105491   105390   105251   105112   104976   104831   104712 
  104626   104561   104527   104521   104500   104461   104469   104535 
  104599   104665   104739   104785   104827   104901   104981   105052 
  105116   105136   105112   105089   105058   105024   105042   105089 
  105113   105120   105125   105171   105255   105341   105447   105552 
  105605   105598   105543   105457   105386   105317   105223   105116 
  105013   104899   104764   104631   104506   104391   104286   104186 
  104101   104022   103955   103901   103810   103707   103642   103566 
  103451   103345   103291   103287   103295   103312   103377   103492 
  103620   103739   103856   103977   104098   104256   104445   104633 
  104827   105016   105177   105331   105494   105661   105829   105988 
  106150   106305   106413   106493   106587   106660   106694   106717 
  106722   106706   106698   106705   106729   106782   106818   106837 
  106880   106938   106975   106980   106984   107009   107014   106990 
  106953   106875   106790   106739   106675   106591   106482   106323 
  106172   106053   105933   105856   105829   105792   105771   105776 
  105741   105690   105660   105599   105522   105471   105425   105395 
  105391   105382   105390   105433   105466   105467   105448   105393 
  105308   105251   105255   105293   105340   105381   105421   105472 
  105520   105571   105610   105588   105553   105540   105497   105460 
  105457   105432   105397   105371   105321   105255   105223   105260 
  105336   105398   105476   105592   105709   105825   105937   106010 
  106053   106069   106070   106105   106168   106209   106245   106296 
  106344   106359   106328   106269   106218   106182   106120   106026 
  105922   105806   105682   105545   105397   105251   105109   104989 
  104913   104854   104792   104747   104710   104657   104626   104637 
  104639   104633   104664   104699   104697   104701   104730   104754 
  104789   104841   104869   104897   104967   105042   105096   105160 
  105239   105308   105382   105464   105529   105599   105675   105732 
  105795   105853   105860   105835   105807   105763   105698   105628 
  105583   105572   105559   105537   105528   105529   105518   105491 
  105474   105517   105578   105595   105609   105632   105634   105621 
  105591   105552   105517   105483   105457   105435   105389   105316 
  105251   105202   105154   105120   105109   105094   105094   105140 
  105192   105217   105251   105310   105363   105406   105459   105494 
  105503   105514   105497   105451   105428   105390   105317   105270 
  105243   105213   105208   105247   105316   105379   105456   105561 
  105655   105756   105868   105952   106049   106172   106272   106354 
  106429   106477   106475   106427   106378   106348   106311   106278 
  106269   106274   106304   106346   106378   106416   106470   106536 
  106596   106639   106679   106699   106704   106741   106807   106852 
  106882   106929   106983   107042   107126   107207   107271   107338 
  107391   107414   107446   107488   107497   107477   107446   107395 
  107310   107230   107179   107098   106980   106859   106691   106489 
  106323   106165   105996   105853   105718   105559   105381   105216 
  105075   104922   104773   104665   104565   104471   104391   104321 
  104280   104271   104274   104265   104252   104256   104256   104269 
  104328   104390   104438   104487   104530   104573   104608   104642 
  104700   104760   104811   104865   104916   104950   104932   104882 
  104841   104789   104737   104714   104704   104701   104706   104718 
  104741   104770   104812   104876   104953   105035   105127   105227 
  105309   105382   105464   105526   105571   105632   105668   105668 
  105683   105711   105722   105723   105706   105700   105753   105830 
  105884   105912   105923   105931   105929   105926   105973   106065 
  106134   106189   106266   106334   106378   106451   106570   106687 
  106763   106807   106817   106772   106702   106627   106521   106382 
  106218   106030   105849   105699   105565   105436   105300   105133 
  104965   104849   104750   104623   104504   104431   104388   104356 
  104344   104329   104291   104265   104267   104271   104272   104286 
  104321   104382   104446   104504   104566   104615   104660   104743 
  104842   104915   104977   105051   105135   105216   105283   105333 
  105370   105405   105436   105455   105509   105599   105673   105736 
  105788   105834   105896   105970   106054   106155   106253   106332 
  106405   106483   106564   106637   106718   106825   106938   107036 
  107141   107257   107335   107366   107395   107439   107477   107496 
  107493   107455   107388   107325   107279   107222   107148   107069 
  106999   106951   106915   106868   106814   106771   106710   106627 
  106543   106462   106390   106328   106236   106112   105985   105837 
  105651   105463   105283   105094   104924   104773   104623   104510 
  104453   104410   104353   104314   104296   104274   104252   104259 
  104275   104284   104299   104329   104363   104399   104453   104527 
  104618   104718   104809   104892   104981   105066   105140   105214 
  105279   105331   105371   105399   105418   105436   105449   105456 
  105449   105440   105425   105403   105394   105387   105397   105441 
  105472   105493   105557   105622   105648   105691   105771   105856 
  105961   106076   106155   106230   106309   106355   106375   106363 
  106307   106250   106209   106164   106107   106069   106049   105985 
  105892   105827   105764   105702   105669   105642   105606   105570 
  105536   105522   105530   105544   105567   105622   105711   105795 
  105858   105926   106011   106091   106137   106155   106176   106189 
  106185   106158   106116   106081   106037   105968   105885   105792 
  105721   105667   105584   105507   105459   105379   105275   105193 
  105117   105032   104957   104897   104838   104787   104773   104776 
  104766   104772   104808   104845   104847   104828   104815   104789 
  104739   104704   104715   104750   104789   104818   104831   104841 
  104857   104872   104900   104957   105012   105052   105098   105163 
  105237   105295   105339   105382   105420   105470   105536   105576 
  105584   105588   105590   105590   105602   105613   105613   105609 
  105590   105568   105574   105580   105580   105601   105640   105683 
