Origin Time       2025/01/13 21:19:00
Lat.              31.8
Long.             131.6
Depth. (km)       30
Mag.              6.9
Station Code      HRSH16
Station Lat.      34.6629
Station Long.     132.6689
Station Height(m) 280
Record Time       2025/01/13 21:21:06
Sampling Freq(Hz) 100Hz
Duration Time(s)  120
Dir.              4
Scale Factor      7845(gal)/8223790
Max. Acc. (gal)   1.508
Last Correction   2025/01/13 21:21:07
Memo.             
[...]
    5973     6084     6057     6048     6075     6057     5987     5896 
    5825     5896     6208     6604     6777     6648     6377     6075 
    5779     5532     5332     5186     5150     5259     5501     5778 
    5950     6006     6108     6326     6451     6305     5999     5740 
    5645     5691     5745     5717     5629     5528     5464     5490 
    5567     5630     5730     5944     6216     6411     6480     6478 
    6448     6363     6204     6012     5826     5629     5452     5395 
    5501     5690     5859     5952     5940     5826     5711     5706 
    5841     6060     6286     6442     6457     6358     6247     6158 
    6029     5790     5474     5190     5024     5024     5197     5470 
    5718     5890     6043     6199     6284     6288     6270     6211 
    6070     5907     5773     5620     5482     5479     5587     5626 
    5512     5320     5167     5128     5220     5378     5491     5499 
    5490     5618     5913     6253     6531     6685     6674     6534 
    6370     6241     6108     5971     5900     5888     5849     5791 
    5786     5815     5846     5944     6149     6343     6421     6372 
    6172     5884     5682     5665     5794     5937     5994     5948 
    5867     5903     6130     6428     6643     6725     6655     6439 
    6197     5991     5757     5540     5472     5548     5672     5815 
    5964     6052     6092     6197     6357     6416     6299     6102 
    5940     5819     5702     5629     5670     5813     5979     6076 
    6045     5895     5719     5661     5772     5946     6077     6145 
    6107     5918     5636     5350     5111     5043     5282     5710 
    6000     5998     5846     5794     5904     6021     5995     5821 
    5572     5356     5279     5346     5452     5505     5497     5482 
    5516     5594     5655     5705     5813     6002     6251     6519 
    6687     6679     6540     6299     6010     5798     5660     5499 
    5401     5489     5664     5742     5670     5474     5242     5131 
    5219     5455     5783     6122     6367     6488     6504     6407 
    6241     6153     6199     6183     5872     5302     4747     4487 
    4606     4958     5329     5571     5630     5574     5584     5767 
    5998     6122     6127     6085     6060     6026     5914     5737 
    5605     5564     5539     5503     5520     5544     5483     5381 
    5360     5499     5740     5956     6089     6150     6168     6129 
    5969     5749     5641     5688     5830     5992     6007     5792 
    5530     5444     5579     5859     6133     6243     6203     6162 
    6174     6204     6220     6166     6073     6070     6180     6313 
    6405     6407     6319     6223     6149     6052     5953     5900 
    5877     5871     5873     5825     5728     5697     5790     6003 
    6340     6709     6943     6964     6831     6654     6489     6327 
    6143     5927     5722     5621     5683     5861     6035     6104 
    6076     6085     6227     6419     6538     6501     6228     5786 
    5467     5445     5595     5711     5678     5518     5412     5466 
    5578     5628     5621     5594     5578     5632     5783     5930 
    5937     5823     5734     5738     5764     5752     5742     5800 
    5911     6003     6043     6021     5911     5746     5648     5675 
    5729     5698     5647     5714     5941     6272     6586     6682 
    6439     5998     5587     5306     5170     5166     5236     5378 
    5655     6011     6278     6357     6315     6276     6212     6011 
    5691     5395     5287     5437     5728     5922     5872     5621 
    5373     5317     5412     5462     5422     5418     5574     5907 
    6311     6612     6701     6579     6331     6076     5926     5891 
    5880     5857     5845     5821     5751     5672     5625     5597 
    5605     5711     5896     6031     6057     6062     6142     6296 
    6420     6411     6254     5987     5697     5539     5530     5498 
    5402     5417     5597     5815     5976     6019     5904     5742 
    5742     5941     6123     6130     6030     5888     5728     5645 
    5667     5692     5656     5567     5445     5331     5287     5348 
    5505     5742     5949     5984     5859     5690     5587     5594 
    5652     5638     5532     5424     5379     5400     5478     5582 
    5670     5714     5729     5755     5798     5803     5740     5647 
    5594     5589     5586     5574     5602     5695     5815     5906 
    5950     5962     5961     5954     5935     5888     5756     5521 
    5271     5063     4884     4810     4934     5163     5323     5367 
    5395     5518     5752     6021     6232     6343     6330     6199 
    6039     5914     5779     5663     5674     5806     5930     5946 
    5869     5810     5863     6034     6212     6274     6215     6122 
    6087     6120     6170     6216     6264     6313     6373     6365 
    6183     5854     5509     5238     5119     5188     5358     5495 
    5590     5733     5946     6130     6189     6115     5948     5751 
    5610     5556     5533     5472     5408     5427     5549     5705 
    5826     5883     5880     5854     5833     5795     5698     5540 
    5382     5275     5224     5212     5235     5289     5382     5536 
    5705     5833     5915     5926     5829     5687     5564     5405 
    5208     5088     5089     5209     5459     5778     6046     6214 
    6322     6419     6516     6563     6509     6403     6345     6315 
    6255     6226     6308     6455     6596     6743     6866     6853 
    6691     6517     6431     6361     6208     6021     5926     5976 
    6130     6328     6507     6628     6721     6824     6886     6814 
    6586     6284     6008     5787     5593     5416     5278     5219 
    5304     5583     5979     6315     6523     6651     6667     6523 
    6307     6107     5934     5810     5713     5575     5448     5466 
    5634     5856     6065     6210     6216     6061     5821     5610 
    5497     5525     5726     6010     6187     6180     6079     5981 
    5964     6045     6138     6134     6053     6002     6048     6164 
    6254     6255     6204     6192     6272     6393     6458     6397 
    6235     6072     5967     5900     5868     5884     5952     6053 
    6165     6219     6181     6127     6170     6332     6535     6662 
    6642     6478     6231     5989     5834     5800     5886     6006 
    6010     5846     5597     5347     5136     5012     5019     5123 
    5220     5270     5335     5459     5607     5752     5922     6087 
    6188     6232     6208     6058     5778     5417     5074     4837 
    4746     4824     5049     5317     5551     5732     5838     5872 
    5919     5999     6027     6010     5996     5962     5902     5861 
    5888     5965     6046     6107     6143     6151     6123     6068 
    6039     6054     6073     6079     6080     6068     6015     5884 
    5692     5547     5548     5674     5826     5991     6170     6280 
    6280     6237     6162     6039     5919     5838     5771     5721 
    5680     5618     5552     5510     5459     5346     5185     5008 
    4888     4946     5173     5417     5584     5652     5606     5513 
    5472     5452     5381     5289     5211     5128     5039     4989 
    5004     5067     5169     5287     5364     5416     5530     5721 
    5948     6164     6253     6141     5934     5746     5553     5335 
    5197     5216     5356     5555     5729     5817     5865     5967 
    6135     6285     6323     6251     6150     6127     6215     6324 
    6400     6453     6458     6397     6280     6068     5764     5485 
    5371     5449     5595     5672     5682     5737     5899     6115 
    6278     6319     6257     6183     6173     6231     6305     6342 
    6323     6301     6323     6331     6255     6139     6079     6108 
    6185     6234     6201     6133     6142     6285     6511     6702 
    6727     6538     6238     5989     5857     5759     5603     5431 
    5343     5394     5595     5884     6112     6191     6174     6158 
    6177     6174     6081     5953     5902     5937     5998     6004 
    5907     5748     5606     5520     5475     5447     5412     5373 
    5400     5563     5800     5984     6048     5998     5886     5757 
    5625     5532     5540     5632     5718     5759     5740     5630 
    5448     5296     5269     5370     5536     5718     5871     5969 
    6068     6216     6370     6442     6377     6207     6016     5871 
    5818     5892     6045     6177     6243     6257     6250     6258 
    6322     6463     6685     6914     7065     7136     7137     7074 
    7007     6997     6984     6890     6708     6475     6239     6093 
    6083     6135     6174     6154     6015     5772     5555     5479 
    5532     5603     5616     5593     5606     5664     5718     5715 
    5632     5481     5333     5267     5274     5329     5414     5476 
    5474     5416     5343     5283     5235     5215     5270     5368 
    5414     5417     5459     5545     5643     5748     5846     5883 
    5819     5665     5460     5266     5119     5019     4970     4941 
    4895     4888     4970     5088     5174     5244     5339     5482 
    5682     5917     6137     6268     6270     6188     6112     6046 
    5950     5861     5827     5810     5767     5699     5618     5551 
    5537     5568     5613     5682     5790     5913     6042     6199 
    6374     6521     6623     6706     6762     6745     6660     6540 
    6376     6157     5938     5809     5821     5935     6057     6100 
    6056     5985     5972     6068     6254     6423     6462     6362 
    6191     6002     5826     5665     5508     5367     5246     5132 
    5063     5066     5092     5096     5128     5227     5331     5410 
    5487     5533     5512     5459     5429     5472     5614     5769 
    5825     5761     5617     5440     5287     5188     5128     5097 
    5107     5130     5136     5181     5312     5509     5724     5888 
    5960     5979     6025     6129     6270     6417     6550     6675 
    6831     6998     7086     7036     6878     6679     6489     6370 
    6342     6330     6264     6170     6133     6183     6280     6388 
    6498     6593     6643     6636     6573     6488     6426     6389 
    6365     6351     6322     6224     6030     5779     5547     5371 
    5239     5124     5035     5012     5065     5177     5328     5468 
    5549     5594     5648     5694     5713     5710     5684     5641 
    5603     5559     5479     5400     5370     5409     5518     5682 
    5849     5976     6075     6130     6089     5962     5811     5665 
    5551     5518     5574     5656     5714     5760     5803     5815 
    5782     5706     5584     5435     5285     5179     5184     5319 
    5543     5776     5950     6056     6095     6056     5968     5896 
    5861     5873     5960     6112     6295     6480     6617     6651 
    6586     6466     6307     6120     5935     5790     5692     5611 
    5548     5544     5598     5691     5832     5996     6134     6239 
    6336     6440     6554     6651     6693     6633     6457     6204 
    5933     5682     5472     5331     5270     5274     5351     5545 
    5830     6107     6326     6482     6573     6608     6612     6578 
    6473     6301     6104     5931     5814     5721     5613     5505 
    5416     5367     5389     5478     5620     5800     5987     6134 
    6224     6264     6258     6178     6015     5838     5705     5579 
    5448     5377     5397     5510     5706     5940     6149     6281 
    6311     6257     6177     6102     5979     5803     5670     5614 
    5564     5475     5350     5216     5121     5103     5162     5259 
    5348     5401     5404     5389     5421     5497     5568     5649 
    5778     5913     5979     5975     5948     5938     5964     6025 
    6070     6045     5969     5887     5842     5876     5977     6091 
    6173     6222     6281     6366     6420     6412     6396     6392 
    6347     6249     6160     6118     6116     6176     6318     6505 
    6675     6802     6864     6848     6754     6581     6339     6099 
    5937     5838     5737     5601     5464     5377     5351     5360 
    5367     5332     5233     5113     5053     5057     5098     5219 
    5427     5634     5752     5771     5746     5756     5836     5961 
    6072     6127     6129     6120     6139     6174     6201     6197 
    6154     6100     6076     6100     6158     6222     6273     6274 
    6193     6080     6037     6110     6243     6357     6417     6444 
    6442     6416     6374     6282     6111     5884     5663     5501 
    5404     5348     5340     5391     5470     5551     5648     5768 
    5908     6076     6259     6374     6353     6226     6053     5869 
    5697     5541     5370     5148     4893     4679     4548     4526 
    4606     4722     4823     4927     5054     5198     5351     5490 
    5602     5676     5717     5724     5703     5656     5571     5478 
    5439     5444     5427     5355     5252     5155     5096     5111 
    5202     5302     5337     5324     5321     5359     5432     5510 
    5544     5506     5425     5358     5332     5337     5363     5440 
    5602     5826     6046     6222     6349     6432     6497     6571 
    6651     6723     6797     6893     7006     7121     7231     7337 
    7415     7439     7402     7307     7177     7056     6963     6860 
    6718     6542     6357     6193     6042     5850     5598     5348 
    5192     5171     5259     5360     5405     5420     5475     5591 
    5726     5852     5968     6069     6156     6259     6357     6343 
    6189     5988     5823     5699     5595     5512     5455     5441 
    5497     5626     5792     5953     6081     6187     6285     6353 
    6377     6384     6373     6326     6255     6192     6133     6035 
    5876     5678     5464     5262     5089     4955     4861     4801 
    4793     4864     5008     5177     5320     5440     5578     5736 
    5894     6057     6204     6281     6320     6382     6448     6490 
    6531     6548     6511     6439     6361     6257     6141     6064 
    6043     6065     6091     6084     6045     6008     5989     6003 
    6061     6135     6146     6076     5983     5881     5742     5574 
    5381     5158     4941     4761     4633     4575     4600     4715 
    4908     5120     5298     5443     5570     5701     5871     6084 
    6292     6426     6447     6366     6238     6123     6034     5942 
    5840     5753     5706     5683     5664     5667     5718     5803 
    5886     5964     6019     6035     6034     6031     6006     5960 
    5903     5827     5722     5594     5460     5358     5329     5409 
    5586     5794     5972     6118     6243     6350     6431     6455 
    6413     6359     6350     6355     6311     6220     6122     6012 
    5898     5794     5715     5697     5734     5767     5773     5787 
    5803     5815     5860     5953     6054     6143     6222     6254 
    6234     6180     6097     5968     5805     5638     5472     5306 
    5171     5090     5062     5077     5113     5167     5254     5370 
    5472     5530     5579     5644     5699     5741     5799     5875 
    5949     6014     6068     6107     6107     6046     5940     5829 
    5763     5751     5764     5787     5809     5807     5783     5761 
    5765     5807     5894     5998     6095     6160     6174     6154 
    6146     6193     6300     6401     6432     6416     6404     6404 
    6409     6420     6428     6423     6405     6381     6366     6357 
    6332     6289     6235     6150     6027     5896     5773     5652 
    5563     5530     5537     5560     5606     5691     5798     5879 
    5923     5969     6033     6075     6080     6075     6052     5965 
    5815     5649     5501     5381     5313     5319     5375     5414 
    5417     5441     5540     5697     5844     5914     5877     5771 
    5660     5584     5540     5525     5518     5474     5383     5300 
    5262     5258     5283     5343     5421     5509     5609     5713 
    5818     5933     6046     6170     6311     6407     6390     6292 
    6200     6147     6103     6054     5994     5904     5806     5730 
    5686     5678     5697     5738     5832     5989     6174     6336 
    6444     6482     6458     6396     6305     6195     6087     6002 
    5917     5817     5726     5661     5593     5516     5462     5440 
    5447     5494     5579     5671     5753     5846     5954     6065 
    6168     6243     6266     6234     6172     6084     5967     5853 
    5788     5787     5830     5850     5814     5742     5664     5611 
    5624     5695     5772     5817     5853     5911     5999     6084 
    6116     6081     6016     5965     5938     5921     5898     5864 
    5815     5746     5676     5617     5571     5562     5609     5688 
    5752     5802     5861     5929     5977     6000     6006     6004 
    5989     5945     5883     5823     5764     5690     5614     5547 
    5468     5358     5240     5150     5096     5084     5117     5204 
    5336     5482     5611     5714     5779     5810     5829     5838 
    5819     5768     5703     5633     5563     5521     5506     5503 
    5518     5540     5535     5486     5433     5412     5417     5439 
    5455     5452     5458     5497     5555     5629     5713     5778 
    5823     5890     5972     6021     6018     5998     6002     6038 
    6091     6122     6115     6069     6003     5954     5942     5942 
    5923     5888     5844     5794     5757     5765     5823     5887 
    5895     5840     5775     5763     5818     5902     5987     6087 
    6180     6228     6232     6212     6174     6130     6089     6057 
    6031     6003     5977     5972     5988     6000     5987     5964 
    5962     5989     6026     6023     5957     5867     5825     5856 
    5937     6019     6049     6018     5981     5996     6062     6170 
    6308     6463     6616     6741     6808     6791     6696     6550 
    6404     6295     6201     6075     5900     5722     5599     5560 
    5570     5566     5528     5487     5487     5543     5622     5663 
    5637     5564     5489     5459     5456     5436     5404     5410 
    5482     5580     5632     5590     5489     5393     5323     5260 
    5193     5127     5078     5070     5130     5225     5308     5401 
    5536     5690     5838     5973     6079     6130     6157     6200 
    6237     6231     6210     6220     6246     6238     6193     6153 
    6133     6115     6075     6014     5942     5867     5813     5799 
    5795     5771     5736     5715     5734     5780     5802     5782 
    5741     5707     5690     5670     5607     5501     5387     5302 
    5255     5246     5256     5260     5269     5313     5389     5471 
    5574     5691     5764     5761     5730     5709     5683     5671 
    5695     5732     5761     5791     5852     5950     6070     6203 
    6349     6493     6608     6651     6615     6550     6507     6474 
    6417     6327     6215     6102     6018     5992     6010     6048 
    6122     6234     6353     6444     6497     6544     6631     6735 
