Origin Time       2025/01/13 21:19:00
Lat.              31.8
Long.             131.6
Depth. (km)       30
Mag.              6.9
Station Code      HRSH18
Station Lat.      34.4572
Station Long.     132.7923
Station Height(m) 235
Record Time       2025/01/13 21:20:26
Sampling Freq(Hz) 100Hz
Duration Time(s)  133
Dir.              5
Scale Factor      7845(gal)/8223790
Max. Acc. (gal)   1.790
Last Correction   2025/01/13 21:20:27
Memo.             
[...]
   -7314    -7435    -7402    -7196    -6983    -6851    -6821    -6925 
   -7145    -7364    -7408    -7230    -6947    -6655    -6448    -6494 
   -6805    -7160    -7365    -7400    -7306    -7136    -7026    -7076 
   -7213    -7335    -7346    -7182    -6918    -6663    -6515    -6582 
   -6756    -6858    -6912    -6939    -6880    -6737    -6517    -6291 
   -6230    -6376    -6606    -6868    -7106    -7199    -7191    -7210 
   -7240    -7242    -7279    -7384    -7503    -7580    -7615    -7596 
   -7485    -7291    -7067    -6878    -6820    -6918    -7048    -7072 
   -6971    -6786    -6612    -6508    -6467    -6501    -6554    -6558 
   -6574    -6612    -6697    -6944    -7200    -7217    -7052    -6816 
   -6554    -6373    -6266    -6115    -5900    -5703    -5599    -5594 
   -5676    -5844    -5985    -6037    -6089    -6154    -6153    -6123 
   -6131    -6138    -6111    -6080    -6019    -5910    -5833    -5841 
   -5938    -6143    -6397    -6592    -6655    -6544    -6345    -6234 
   -6230    -6285    -6411    -6482    -6407    -6366    -6447    -6508 
   -6520    -6559    -6600    -6628    -6670    -6673    -6600    -6512 
   -6482    -6542    -6687    -6851    -6912    -6863    -6779    -6673 
   -6575    -6589    -6733    -6936    -7083    -7078    -6901    -6635 
   -6385    -6222    -6172    -6261    -6438    -6597    -6682    -6706 
   -6728    -6760    -6813    -6933    -7067    -7138    -7145    -7055 
   -6841    -6586    -6361    -6164    -6027    -6008    -6037    -6058 
   -6123    -6170    -6151    -6137    -6084    -5973    -5948    -6042 
   -6133    -6119    -6019    -5914    -5891    -6034    -6318    -6551 
   -6586    -6463    -6282    -6087    -5938    -5938    -6065    -6176 
   -6188    -6146    -6189    -6407    -6702    -6924    -6990    -6917 
   -6806    -6705    -6616    -6558    -6484    -6399    -6350    -6273 
   -6123    -5972    -5877    -5907    -6115    -6474    -6866    -7115 
   -7160    -7088    -6994    -6918    -6895    -6980    -7190    -7391 
   -7464    -7453    -7346    -7102    -6822    -6577    -6362    -6234 
   -6222    -6284    -6378    -6547    -6828    -7102    -7246    -7325 
   -7426    -7541    -7654    -7769    -7842    -7881    -8012    -8186 
   -8221    -8156    -8070    -7897    -7647    -7414    -7263    -7231 
   -7296    -7361    -7346    -7283    -7186    -7020    -6868    -6831 
   -6932    -7160    -7389    -7531    -7670    -7866    -8081    -8279 
   -8429    -8500    -8509    -8479    -8402    -8289    -8185    -8112 
   -8081    -8112    -8135    -8052    -7927    -7820    -7677    -7534 
   -7466    -7422    -7331    -7210    -7074    -6925    -6814    -6825 
   -6975    -7186    -7373    -7489    -7508    -7435    -7290    -7106 
   -7001    -7079    -7276    -7447    -7512    -7410    -7161    -6880 
   -6608    -6345    -6181    -6196    -6358    -6546    -6652    -6709 
   -6772    -6787    -6705    -6610    -6581    -6575    -6573    -6598 
   -6606    -6592    -6660    -6805    -6897    -6928    -6971    -6968 
   -6871    -6826    -6907    -7011    -7114    -7227    -7315    -7414 
   -7504    -7511    -7491    -7522    -7566    -7555    -7468    -7357 
   -7318    -7383    -7476    -7523    -7510    -7403    -7230    -7102 
   -7038    -7020    -7096    -7210    -7191    -7056    -6941    -6889 
   -6893    -6934    -6970    -6957    -6894    -6868    -6964    -7072 
   -7038    -6886    -6727    -6615    -6554    -6598    -6775    -6982 
   -7169    -7410    -7659    -7803    -7882    -7962    -8004    -8024 
   -8059    -8068    -8014    -7916    -7792    -7628    -7433    -7258 
   -7114    -6955    -6801    -6666    -6548    -6507    -6534    -6590 
   -6702    -6816    -6902    -7055    -7246    -7415    -7560    -7611 
   -7538    -7415    -7272    -7086    -6883    -6735    -6660    -6639 
   -6627    -6567    -6477    -6469    -6556    -6621    -6602    -6531 
   -6502    -6625    -6837    -6999    -7110    -7172    -7123    -7007 
   -6921    -6895    -6952    -7053    -7084    -7040    -7011    -6980 
   -6898    -6813    -6764    -6760    -6818    -6855    -6754    -6573 
   -6415    -6291    -6227    -6249    -6323    -6443    -6592    -6702 
   -6737    -6725    -6736    -6786    -6829    -6843    -6826    -6755 
   -6609    -6419    -6273    -6241    -6301    -6407    -6516    -6600 
   -6617    -6519    -6361    -6266    -6255    -6308    -6417    -6543 
   -6655    -6783    -6928    -6988    -6885    -6714    -6610    -6523 
   -6393    -6288    -6237    -6222    -6265    -6339    -6316    -6172 
   -6039    -6014    -6080    -6249    -6504    -6739    -6899    -6986 
   -6999    -6978    -6994    -7072    -7156    -7180    -7210    -7348 
   -7541    -7649    -7601    -7418    -7194    -7032    -6974    -7034 
   -7190    -7395    -7612    -7824    -8041    -8257    -8387    -8338 
   -8117    -7847    -7655    -7541    -7442    -7341    -7234    -7121 
   -7006    -6880    -6779    -6782    -6917    -7121    -7317    -7537 
   -7844    -8186    -8449    -8591    -8613    -8565    -8536    -8534 
   -8486    -8302    -7973    -7577    -7219    -6967    -6829    -6789 
   -6745    -6556    -6269    -6089    -6108    -6296    -6598    -6907 
   -7161    -7383    -7584    -7740    -7843    -7927    -7993    -8001 
   -7981    -7921    -7699    -7304    -6836    -6362    -5984    -5784 
   -5702    -5643    -5602    -5579    -5517    -5440    -5451    -5586 
   -5807    -6038    -6172    -6178    -6150    -6200    -6309    -6367 
   -6300    -6114    -5899    -5745    -5680    -5678    -5636    -5495 
   -5329    -5221    -5196    -5256    -5371    -5491    -5578    -5630 
   -5683    -5741    -5860    -6054    -6208    -6295    -6411    -6594 
   -6845    -7150    -7410    -7573    -7670    -7682    -7573    -7379 
   -7125    -6813    -6521    -6315    -6172    -6108    -6153    -6238 
   -6281    -6274    -6257    -6266    -6322    -6417    -6561    -6777 
   -7045    -7350    -7715    -8074    -8280    -8295    -8194    -8067 
   -8012    -8070    -8163    -8174    -8055    -7850    -7636    -7481 
   -7439    -7466    -7461    -7399    -7315    -7295    -7423    -7668 
   -7956    -8216    -8353    -8336    -8208    -8046    -7852    -7551 
   -7171    -6802    -6528    -6438    -6539    -6720    -6825    -6755 
   -6578    -6415    -6309    -6327    -6538    -6864    -7171    -7429 
   -7643    -7765    -7743    -7573    -7265    -6853    -6450    -6207 
   -6185    -6276    -6320    -6245    -6089    -5903    -5738    -5690 
   -5806    -6018    -6243    -6481    -6731    -6970    -7203    -7412 
   -7510    -7449    -7331    -7273    -7265    -7252    -7177    -7014 
   -6870    -6895    -7080    -7279    -7392    -7445    -7468    -7470 
   -7534    -7715    -7929    -8085    -8156    -8110    -7954    -7776 
   -7608    -7389    -7136    -6921    -6763    -6652    -6528    -6305 
   -6058    -5930    -5933    -6037    -6214    -6389    -6482    -6511 
   -6577    -6696    -6760    -6709    -6562    -6353    -6133    -5940 
   -5756    -5579    -5437    -5368    -5382    -5463    -5574    -5667 
   -5757    -5903    -6115    -6416    -6809    -7161    -7403    -7592 
   -7757    -7901    -8006    -8021    -7979    -7919    -7835    -7789 
   -7803    -7807    -7765    -7647    -7438    -7227    -7105    -7060 
   -7064    -7061    -7014    -6984    -7011    -7072    -7141    -7156 
   -7082    -6961    -6797    -6579    -6374    -6191    -5989    -5811 
   -5721    -5748    -5861    -5987    -6085    -6181    -6328    -6523 
   -6687    -6758    -6756    -6723    -6729    -6860    -7063    -7172 
   -7099    -6890    -6662    -6535    -6551    -6647    -6768    -6902 
   -7030    -7153    -7310    -7531    -7786    -8010    -8209    -8421 
   -8603    -8703    -8715    -8658    -8561    -8436    -8301    -8185 
   -8066    -7911    -7703    -7437    -7145    -6874    -6631    -6447 
   -6372    -6400    -6485    -6651    -6882    -7064    -7177    -7249 
   -7202    -7048    -6906    -6824    -6798    -6816    -6859    -6934 
   -7026    -7099    -7125    -7075    -6943    -6771    -6664    -6667 
   -6727    -6828    -6970    -7078    -7130    -7177    -7191    -7123 
   -6988    -6793    -6556    -6385    -6307    -6181    -5956    -5736 
   -5598    -5545    -5580    -5682    -5783    -5879    -6038    -6255 
   -6486    -6735    -6984    -7199    -7337    -7322    -7159    -6956 
   -6779    -6639    -6536    -6462    -6397    -6358    -6382    -6492 
   -6673    -6872    -7015    -7113    -7242    -7418    -7608    -7762 
   -7817    -7842    -7933    -8040    -8073    -8021    -7920    -7844 
   -7842    -7905    -8036    -8181    -8239    -8232    -8229    -8210 
   -8160    -8040    -7824    -7599    -7416    -7240    -7071    -6933 
   -6831    -6748    -6687    -6644    -6574    -6509    -6517    -6535 
   -6486    -6378    -6232    -6089    -6004    -5968    -5940    -5918 
   -5906    -5914    -5969    -6068    -6172    -6270    -6349    -6354 
   -6299    -6253    -6216    -6174    -6146    -6118    -6115    -6183 
   -6272    -6330    -6369    -6389    -6373    -6324    -6319    -6390 
   -6480    -6550    -6594    -6592    -6574    -6585    -6592    -6589 
   -6640    -6729    -6743    -6650    -6519    -6427    -6420    -6465 
   -6492    -6498    -6511    -6536    -6593    -6709    -6907    -7163 
   -7430    -7677    -7840    -7870    -7807    -7715    -7624    -7584 
   -7646    -7776    -7881    -7896    -7811    -7666    -7523    -7461 
   -7542    -7703    -7786    -7746    -7632    -7462    -7280    -7184 
   -7191    -7223    -7202    -7072    -6853    -6627    -6469    -6381 
   -6332    -6376    -6523    -6689    -6822    -6897    -6893    -6855 
   -6805    -6737    -6716    -6747    -6775    -6836    -6957    -7091 
   -7207    -7268    -7221    -7110    -7049    -7063    -7087    -7096 
   -7082    -6978    -6808    -6679    -6636    -6662    -6705    -6733 
   -6771    -6840    -6945    -7102    -7250    -7352    -7454    -7566 
   -7662    -7720    -7726    -7689    -7605    -7458    -7311    -7199 
   -7069    -6905    -6724    -6562    -6462    -6407    -6353    -6284 
   -6205    -6145    -6123    -6154    -6212    -6245    -6243    -6220 
   -6165    -6084    -6025    -6031    -6102    -6164    -6156    -6103 
   -6046    -5994    -5980    -6030    -6110    -6192    -6280    -6381 
   -6488    -6596    -6690    -6752    -6759    -6696    -6597    -6520 
   -6490    -6515    -6578    -6632    -6664    -6717    -6802    -6887 
   -6974    -7094    -7236    -7369    -7519    -7707    -7862    -7942 
   -7983    -7952    -7803    -7601    -7443    -7376    -7393    -7447 
   -7488    -7476    -7425    -7422    -7485    -7562    -7639    -7690 
   -7684    -7699    -7807    -7940    -8020    -8017    -7913    -7766 
   -7642    -7524    -7429    -7368    -7279    -7186    -7176    -7214 
   -7219    -7183    -7080    -6918    -6797    -6801    -6901    -7025 
   -7129    -7155    -7084    -6984    -6878    -6740    -6608    -6528 
   -6508    -6542    -6594    -6613    -6617    -6646    -6648    -6596 
   -6544    -6513    -6509    -6561    -6655    -6756    -6859    -6966 
   -7044    -7057    -7001    -6880    -6733    -6612    -6554    -6548 
   -6543    -6544    -6581    -6628    -6683    -6778    -6885    -6941 
   -6907    -6825    -6770    -6755    -6774    -6810    -6799    -6725 
   -6642    -6558    -6477    -6393    -6295    -6249    -6367    -6666 
   -7053    -7399    -7593    -7615    -7515    -7360    -7192    -7056 
   -6979    -6978    -7041    -7111    -7094    -6953    -6712    -6442 
   -6214    -6039    -5908    -5833    -5819    -5854    -5934    -6050 
   -6158    -6222    -6264    -6318    -6384    -6480    -6612    -6729 
   -6791    -6826    -6848    -6845    -6845    -6853    -6833    -6799 
   -6778    -6747    -6693    -6635    -6609    -6635    -6700    -6779 
   -6862    -6959    -7075    -7218    -7395    -7560    -7674    -7774 
   -7869    -7940    -7998    -8046    -8059    -8055    -8040    -7993 
   -7894    -7735    -7537    -7354    -7213    -7138    -7130    -7155 
   -7198    -7249    -7283    -7284    -7227    -7123    -7033    -7006 
   -7074    -7192    -7287    -7344    -7361    -7330    -7303    -7314 
   -7314    -7269    -7206    -7163    -7167    -7204    -7240    -7237 
   -7202    -7156    -7111    -7122    -7237    -7396    -7523    -7631 
   -7708    -7693    -7615    -7519    -7402    -7294    -7226    -7157 
   -7049    -6921    -6808    -6693    -6532    -6366    -6257    -6204 
   -6204    -6251    -6324    -6428    -6547    -6620    -6632    -6624 
   -6589    -6489    -6358    -6232    -6096    -5958    -5850    -5775 
   -5729    -5714    -5746    -5818    -5906    -6033    -6187    -6346 
   -6552    -6808    -7037    -7203    -7291    -7311    -7322    -7360 
   -7433    -7508    -7534    -7518    -7500    -7504    -7524    -7512 
   -7442    -7339    -7238    -7177    -7167    -7172    -7177    -7186 
   -7217    -7296    -7403    -7469    -7447    -7348    -7211    -7101 
   -7057    -7071    -7076    -7021    -6907    -6756    -6605    -6501 
   -6396    -6197    -5969    -5817    -5748    -5763    -5827    -5860 
   -5805    -5653    -5468    -5363    -5400    -5567    -5783    -5957 
   -6056    -6087    -6070    -6052    -6057    -6048    -6002    -5967 
   -5972    -6034    -6156    -6268    -6313    -6335    -6381    -6475 
   -6650    -6913    -7222    -7530    -7827    -8117    -8380    -8596 
   -8749    -8791    -8680    -8476    -8278    -8133    -8032    -7947 
   -7840    -7703    -7560    -7423    -7312    -7306    -7441    -7641 
   -7831    -7989    -8110    -8217    -8305    -8325    -8267    -8152 
   -7985    -7788    -7578    -7368    -7167    -6978    -6812    -6681 
   -6583    -6524    -6511    -6566    -6685    -6826    -6975    -7155 
   -7358    -7530    -7608    -7576    -7465    -7339    -7261    -7242 
   -7252    -7241    -7146    -6959    -6763    -6642    -6620    -6690 
   -6789    -6863    -6922    -6966    -6995    -7040    -7102    -7145 
   -7144    -7102    -7022    -6922    -6833    -6752    -6660    -6562 
   -6481    -6409    -6322    -6220    -6138    -6107    -6139    -6215 
   -6308    -6435    -6600    -6754    -6848    -6891    -6910    -6891 
   -6806    -6647    -6431    -6214    -6062    -6006    -6023    -6084 
   -6154    -6189    -6188    -6203    -6278    -6426    -6642    -6907 
   -7169    -7369    -7485    -7510    -7447    -7350    -7275    -7207 
   -7109    -6991    -6875    -6770    -6675    -6594    -6538    -6513 
   -6507    -6538    -6637    -6768    -6876    -6974    -7056    -7103 
   -7172    -7322    -7522    -7700    -7843    -7950    -7982    -7915 
   -7759    -7574    -7441    -7384    -7376    -7396    -7420    -7414 
   -7357    -7250    -7119    -7005    -6940    -6939    -6994    -7095 
   -7226    -7338    -7380    -7357    -7327    -7344    -7408    -7481 
   -7527    -7514    -7412    -7244    -7063    -6912    -6793    -6689 
   -6604    -6521    -6415    -6316    -6261    -6239    -6237    -6226 
   -6204    -6200    -6224    -6270    -6324    -6380    -6440    -6502 
   -6574    -6677    -6818    -6976    -7083    -7109    -7101    -7119 
   -7179    -7252    -7308    -7356    -7384    -7352    -7246    -7117 
   -7045    -7067    -7150    -7253    -7344    -7408    -7434    -7425 
   -7406    -7387    -7375    -7354    -7272    -7146    -7049    -6983 
   -6921    -6874    -6849    -6859    -6895    -6902    -6871    -6829 
   -6789    -6799    -6848    -6876    -6909    -6951    -6957    -6941 
   -6936    -6945    -6983    -7038    -7071    -7057    -7001    -6922 
   -6822    -6717    -6651    -6637    -6651    -6650    -6606    -6561 
   -6583    -6682    -6795    -6882    -6929    -6937    -6941    -6967 
   -6983    -6972    -6951    -6905    -6831    -6745    -6667    -6600 
   -6528    -6454    -6426    -6440    -6453    -6484    -6532    -6539 
   -6505    -6475    -6469    -6502    -6581    -6664    -6709    -6710 
   -6697    -6678    -6637    -6592    -6550    -6497    -6481    -6519 
   -6552    -6569    -6594    -6600    -6583    -6594    -6635    -6660 
   -6673    -6687    -6697    -6705    -6737    -6791    -6844    -6867 
   -6833    -6735    -6606    -6501    -6458    -6492    -6601    -6755 
   -6903    -7011    -7079    -7129    -7180    -7223    -7245    -7263 
   -7290    -7304    -7283    -7233    -7187    -7149    -7098    -7026 
   -6941    -6864    -6816    -6777    -6712    -6640    -6598    -6577 
   -6597    -6679    -6767    -6839    -6920    -6998    -7074    -7169 
   -7231    -7218    -7173    -7144    -7136    -7157    -7180    -7153 
   -7092    -7047    -7007    -6951    -6889    -6840    -6820    -6841 
   -6895    -6957    -7024    -7082    -7115    -7137    -7182    -7257 
   -7352    -7449    -7499    -7481    -7449    -7456    -7476    -7474 
   -7453    -7393    -7314    -7256    -7217    -7194    -7188    -7184 
   -7179    -7184    -7218    -7290    -7375    -7438    -7473    -7477 
   -7477    -7510    -7561    -7608    -7657    -7686    -7676    -7658 
   -7628    -7550    -7441    -7329    -7207    -7080    -6983    -6932 
   -6887    -6824    -6751    -6663    -6554    -6466    -6434    -6447 
   -6475    -6492    -6493    -6475    -6419    -6327    -6243    -6180 
   -6133    -6100    -6085    -6087    -6111    -6139    -6156    -6183 
   -6222    -6274    -6350    -6432    -6504    -6558    -6588    -6582 
   -6547    -6512    -6489    -6481    -6485    -6485    -6474    -6465 
   -6461    -6480    -6515    -6528    -6521    -6509    -6482    -6458 
   -6470    -6516    -6559    -6588    -6629    -6670    -6696    -6725 
   -6745    -6744    -6756    -6791    -6835    -6878    -6899    -6902 
   -6903    -6902    -6889    -6876    -6882    -6902    -6916    -6907 
   -6875    -6821    -6775    -6772    -6795    -6814    -6826    -6837 
   -6855    -6898    -6968    -7038    -7067    -7036    -6987    -6957 
   -6943    -6945    -6949    -6906    -6816    -6724    -6669    -6658 
   -6670    -6700    -6755    -6845    -6966    -7105    -7240    -7339 
   -7383    -7398    -7434    -7503    -7564    -7585    -7554    -7462 
   -7349    -7253    -7165    -7090    -7057    -7053    -7034    -6994 
   -6947    -6898    -6855    -6832    -6818    -6791    -6752    -6698 
   -6615    -6513    -6419    -6338    -6299    -6330    -6385    -6403 
   -6372    -6285    -6166    -6075    -6046    -6081    -6168    -6285 
   -6397    -6467    -6501    -6529    -6556    -6582    -6620    -6671 
   -6728    -6754    -6745    -6750    -6756    -6750    -6758    -6774 
   -6756    -6710    -6682    -6674    -6650    -6619    -6615    -6612 
   -6577    -6542    -6546    -6594    -6694    -6847    -7024    -7206 
   -7380    -7533    -7647    -7723    -7767    -7793    -7801    -7807 
   -7817    -7820    -7793    -7727    -7627    -7501    -7358    -7207 
   -7075    -7001    -6983    -6993    -7022    -7047    -7041    -7034 
   -7030    -6991    -6933    -6902    -6879    -6852    -6849    -6862 
   -6864    -6855    -6824    -6755    -6674    -6609    -6577    -6570 
   -6582    -6605    -6620    -6631    -6674    -6747    -6802    -6835 
   -6868    -6887    -6893    -6932    -7007    -7084    -7157    -7211 
   -7226    -7222    -7202    -7144    -7051    -6922    -6790    -6716 
