Origin Time       2025/01/13 21:19:00
Lat.              31.8
Long.             131.6
Depth. (km)       30
Mag.              6.9
Station Code      HRSH16
Station Lat.      34.6629
Station Long.     132.6689
Station Height(m) 180
Record Time       2025/01/13 21:21:06
Sampling Freq(Hz) 100Hz
Duration Time(s)  120
Dir.              1
Scale Factor      2942(gal)/8224139
Max. Acc. (gal)   0.863
Last Correction   2025/01/13 21:21:07
Memo.             
[...]
  -32848   -32919   -33026   -33172   -33295   -33370   -33417   -33458 
  -33511   -33593   -33712   -33836   -33920   -33951   -33939   -33920 
  -33928   -33960   -34018   -34099   -34172   -34236   -34315   -34384 
  -34415   -34435   -34461   -34477   -34492   -34508   -34497   -34462 
  -34437   -34429   -34433   -34422   -34384   -34364   -34371   -34354 
  -34321   -34295   -34248   -34163   -34074   -34005   -33945   -33886 
  -33828   -33770   -33716   -33664   -33613   -33579   -33589   -33620 
  -33600   -33527   -33473   -33435   -33363   -33297   -33303   -33350 
  -33378   -33373   -33346   -33334   -33363   -33401   -33435   -33481 
  -33509   -33500   -33493   -33517   -33571   -33639   -33709   -33767 
  -33822   -33890   -33986   -34099   -34196   -34257   -34317   -34393 
  -34454   -34499   -34554   -34609   -34639   -34653   -34650   -34641 
  -34651   -34668   -34677   -34701   -34739   -34766   -34758   -34723 
  -34677   -34624   -34566   -34511   -34473   -34474   -34489   -34488 
  -34460   -34392   -34304   -34238   -34184   -34119   -34082   -34084 
  -34068   -33993   -33893   -33822   -33799   -33790   -33747   -33682 
  -33620   -33565   -33538   -33528   -33492   -33430   -33384   -33377 
  -33404   -33450   -33490   -33497   -33467   -33435   -33431   -33462 
  -33511   -33525   -33490   -33455   -33450   -33450   -33438   -33420 
  -33388   -33324   -33246   -33147   -33018   -32904   -32836   -32792 
  -32769   -32760   -32746   -32713   -32657   -32610   -32598   -32616 
  -32660   -32699   -32690   -32690   -32751   -32845   -32942   -33026 
  -33088   -33139   -33184   -33223   -33253   -33280   -33324   -33372 
  -33435   -33528   -33601   -33625   -33636   -33651   -33644   -33617 
  -33617   -33660   -33712   -33743   -33770   -33798   -33798   -33789 
  -33818   -33867   -33912   -33964   -34018   -34063   -34096   -34119 
  -34140   -34171   -34196   -34207   -34237   -34285   -34312   -34334 
  -34376   -34414   -34420   -34399   -34368   -34356   -34364   -34369 
  -34385   -34418   -34426   -34410   -34398   -34377   -34349   -34308 
  -34223   -34115   -34041   -33972   -33876   -33782   -33673   -33520 
  -33347   -33191   -33054   -32913   -32760   -32603   -32449   -32310 
  -32190   -32081   -32011   -31957   -31866   -31758   -31680   -31639 
  -31642   -31666   -31712   -31804   -31911   -31976   -32030   -32117 
  -32224   -32350   -32513   -32682   -32811   -32917   -33027   -33153 
  -33292   -33439   -33596   -33750   -33879   -33979   -34069   -34169 
  -34269   -34344   -34391   -34431   -34479   -34518   -34528   -34519 
  -34510   -34497   -34485   -34489   -34500   -34493   -34474   -34483 
  -34535   -34587   -34618   -34676   -34743   -34769   -34769   -34781 
  -34792   -34801   -34828   -34859   -34878   -34893   -34913   -34928 
  -34933   -34909   -34843   -34766   -34701   -34641   -34577   -34507 
  -34418   -34318   -34246   -34210   -34168   -34110   -34064   -34037 
  -34011   -33963   -33879   -33797   -33754   -33718   -33667   -33627 
  -33609   -33573   -33505   -33453   -33432   -33400   -33367   -33369 
  -33365   -33313   -33237   -33156   -33091   -33070   -33075   -33061 
  -33030   -32998   -32958   -32906   -32872   -32890   -32914   -32911 
  -32917   -32954   -33016   -33085   -33154   -33243   -33349   -33459 
  -33579   -33708   -33825   -33920   -34005   -34075   -34125   -34206 
  -34317   -34395   -34442   -34472   -34473   -34457   -34435   -34410 
  -34407   -34420   -34427   -34433   -34452   -34472   -34487   -34501 
  -34512   -34516   -34514   -34507   -34499   -34491   -34470   -34430 
  -34375   -34321   -34257   -34179   -34102   -34026   -33921   -33789 
  -33643   -33480   -33315   -33173   -33043   -32898   -32741   -32611 
  -32526   -32471   -32425   -32374   -32319   -32278   -32250   -32223 
  -32206   -32215   -32243   -32275   -32314   -32375   -32436   -32472 
  -32528   -32633   -32764   -32907   -33060   -33203   -33340   -33480 
  -33610   -33733   -33860   -33968   -34056   -34146   -34242   -34337 
  -34420   -34480   -34530   -34576   -34601   -34603   -34592   -34570 
  -34565   -34584   -34596   -34588   -34577   -34562   -34528   -34480 
  -34425   -34366   -34315   -34269   -34213   -34159   -34118   -34078 
  -34045   -34038   -34048   -34048   -34030   -34005   -33991   -33994 
  -34002   -34009   -34017   -34029   -34057   -34099   -34128   -34138 
  -34153   -34152   -34141   -34155   -34171   -34163   -34145   -34121 
  -34068   -33998   -33916   -33821   -33727   -33628   -33525   -33439 
  -33376   -33334   -33303   -33268   -33231   -33199   -33166   -33124 
  -33079   -33037   -32998   -32960   -32922   -32883   -32841   -32806 
  -32800   -32819   -32837   -32864   -32908   -32948   -32977   -33008 
  -33034   -33053   -33091   -33146   -33187   -33205   -33218   -33243 
  -33289   -33324   -33327   -33320   -33320   -33322   -33322   -33327 
  -33331   -33320   -33305   -33305   -33307   -33303   -33309   -33326 
  -33359   -33427   -33505   -33574   -33628   -33675   -33725   -33771 
  -33806   -33841   -33891   -33949   -33990   -34021   -34059   -34071 
  -34038   -33999   -33990   -33984   -33948   -33891   -33844   -33814 
  -33812   -33820   -33821   -33835   -33870   -33912   -33956   -33997 
  -34026   -34060   -34107   -34172   -34238   -34285   -34323   -34377 
  -34449   -34507   -34533   -34550   -34568   -34565   -34554   -34538 
  -34501   -34464   -34426   -34349   -34246   -34152   -34075   -34007 
  -33922   -33820   -33723   -33623   -33529   -33459   -33381   -33288 
  -33207   -33137   -33087   -33054   -33027   -32999   -32976   -32967 
  -32958   -32922   -32869   -32826   -32802   -32773   -32713   -32644 
  -32603   -32572   -32537   -32522   -32535   -32553   -32567   -32574 
  -32572   -32578   -32616   -32687   -32767   -32840   -32907   -32980 
  -33080   -33208   -33332   -33443   -33548   -33655   -33758   -33851 
  -33951   -34071   -34179   -34244   -34258   -34253   -34260   -34271 
  -34256   -34210   -34136   -34048   -33953   -33844   -33729   -33629 
  -33551   -33475   -33404   -33338   -33276   -33230   -33210   -33204 
  -33181   -33131   -33087   -33064   -33057   -33066   -33087   -33111 
  -33143   -33193   -33258   -33332   -33397   -33448   -33501   -33577 
  -33662   -33717   -33762   -33825   -33878   -33893   -33880   -33860 
  -33826   -33774   -33739   -33743   -33748   -33739   -33744   -33764 
  -33793   -33840   -33910   -34002   -34107   -34214   -34315   -34406 
  -34503   -34620   -34723   -34796   -34865   -34929   -34965   -34969 
  -34958   -34950   -34942   -34928   -34905   -34865   -34811   -34770 
  -34749   -34724   -34693   -34668   -34650   -34623   -34576   -34547 
  -34560   -34576   -34582   -34577   -34555   -34537   -34541   -34576 
  -34635   -34689   -34723   -34757   -34798   -34827   -34824   -34786 
  -34738   -34705   -34677   -34618   -34537   -34450   -34338   -34195 
  -34044   -33874   -33670   -33457   -33237   -32994   -32749   -32530 
  -32341   -32163   -31986   -31820   -31675   -31558   -31472   -31413 
  -31382   -31382   -31413   -31483   -31585   -31711   -31858   -32011 
  -32155   -32316   -32514   -32724   -32910   -33080   -33247   -33405 
  -33535   -33642   -33733   -33795   -33818   -33829   -33836   -33824 
  -33804   -33797   -33805   -33824   -33839   -33833   -33813   -33789 
  -33760   -33728   -33694   -33648   -33581   -33509   -33447   -33382 
  -33316   -33265   -33237   -33220   -33199   -33180   -33189   -33218 
  -33254   -33301   -33361   -33442   -33562   -33700   -33818   -33928 
  -34041   -34167   -34311   -34456   -34564   -34630   -34678   -34730 
  -34766   -34769   -34731   -34670   -34591   -34493   -34383   -34271 
  -34155   -34037   -33924   -33820   -33731   -33644   -33547   -33436 
  -33326   -33235   -33170   -33118   -33087   -33080   -33065   -33043 
  -33052   -33093   -33154   -33228   -33304   -33381   -33474   -33581 
  -33698   -33829   -33970   -34109   -34230   -34333   -34416   -34484 
  -34558   -34634   -34690   -34720   -34709   -34666   -34624   -34581 
  -34535   -34504   -34472   -34412   -34337   -34257   -34172   -34080 
  -33979   -33874   -33775   -33690   -33613   -33535   -33457   -33397 
  -33361   -33332   -33307   -33300   -33313   -33331   -33350   -33385 
  -33442   -33509   -33566   -33606   -33647   -33697   -33732   -33732 
  -33712   -33689   -33656   -33605   -33544   -33486   -33424   -33353 
  -33247   -33126   -33048   -33022   -33012   -33006   -33015   -33056 
  -33114   -33151   -33170   -33196   -33231   -33272   -33324   -33389 
  -33447   -33492   -33527   -33546   -33558   -33578   -33593   -33597 
  -33597   -33609   -33633   -33651   -33656   -33678   -33729   -33794 
  -33872   -33959   -34034   -34096   -34146   -34196   -34257   -34319 
  -34366   -34406   -34441   -34468   -34492   -34515   -34526   -34512 
  -34466   -34395   -34330   -34284   -34250   -34226   -34184   -34122 
  -34068   -34028   -34003   -33998   -33988   -33970   -33952   -33933 
  -33895   -33845   -33816   -33798   -33779   -33764   -33747   -33729 
  -33716   -33697   -33658   -33598   -33519   -33439   -33374   -33316 
  -33242   -33160   -33077   -32999   -32923   -32850   -32791   -32748 
  -32710   -32686   -32692   -32718   -32759   -32813   -32865   -32904 
  -32954   -33034   -33108   -33156   -33199   -33255   -33315   -33363 
  -33396   -33436   -33484   -33511   -33516   -33523   -33543   -33575 
  -33598   -33606   -33628   -33650   -33656   -33677   -33714   -33743 
  -33770   -33799   -33826   -33867   -33924   -33979   -34030   -34078 
  -34107   -34123   -34145   -34186   -34231   -34273   -34304   -34331 
  -34357   -34360   -34344   -34334   -34331   -34319   -34300   -34276 
  -34234   -34187   -34152   -34111   -34060   -34020   -33975   -33910 
  -33832   -33758   -33694   -33646   -33604   -33563   -33525   -33502 
  -33507   -33520   -33507   -33463   -33426   -33397   -33373   -33363 
  -33366   -33367   -33373   -33381   -33384   -33392   -33413   -33450 
  -33493   -33536   -33579   -33619   -33659   -33709   -33763   -33805 
  -33828   -33851   -33879   -33913   -33955   -33975   -33961   -33939 
  -33918   -33885   -33848   -33825   -33814   -33798   -33764   -33732 
  -33721   -33721   -33712   -33694   -33681   -33679   -33690   -33694 
  -33691   -33687   -33667   -33617   -33570   -33543   -33521   -33500 
  -33480   -33454   -33417   -33386   -33357   -33320   -33292   -33297 
  -33318   -33330   -33355   -33411   -33477   -33548   -33621   -33682 
  -33729   -33772   -33828   -33899   -33957   -33983   -33988   -33999 
  -34020   -34040   -34045   -34042   -34048   -34049   -34053   -34079 
  -34122   -34153   -34176   -34214   -34256   -34273   -34284   -34315 
  -34348   -34358   -34357   -34346   -34327   -34310   -34288   -34267 
  -34254   -34241   -34219   -34191   -34152   -34106   -34063   -34025 
  -33998   -33990   -33998   -34015   -34036   -34059   -34086   -34118 
  -34149   -34173   -34190   -34204   -34217   -34227   -34234   -34230 
  -34219   -34213   -34195   -34142   -34068   -34003   -33953   -33903 
  -33847   -33790   -33744   -33705   -33651   -33605   -33594   -33601 
  -33612   -33650   -33697   -33720   -33725   -33737   -33777   -33840 
  -33913   -33964   -33986   -33999   -34014   -34015   -34011   -34007 
  -33990   -33955   -33914   -33876   -33849   -33821   -33771   -33721 
  -33677   -33631   -33596   -33569   -33531   -33496   -33469   -33438 
  -33412   -33393   -33376   -33374   -33384   -33382   -33384   -33399 
  -33404   -33408   -33420   -33434   -33438   -33423   -33382   -33323 
  -33266   -33222   -33177   -33119   -33054   -32985   -32917   -32853 
  -32780   -32710   -32674   -32660   -32653   -32671   -32718   -32773 
  -32842   -32934   -33025   -33091   -33165   -33268   -33372   -33471 
  -33577   -33677   -33777   -33887   -33982   -34055   -34126   -34195 
  -34263   -34334   -34393   -34439   -34488   -34555   -34627   -34676 
  -34716   -34758   -34785   -34796   -34811   -34834   -34836   -34805 
  -34750   -34697   -34662   -34628   -34577   -34520   -34465   -34395 
  -34311   -34223   -34128   -34026   -33932   -33839   -33743   -33655 
  -33578   -33512   -33457   -33408   -33361   -33312   -33270   -33245 
  -33238   -33254   -33282   -33315   -33358   -33408   -33443   -33465 
  -33505   -33567   -33632   -33691   -33740   -33777   -33808   -33845 
  -33898   -33945   -33976   -34015   -34055   -34084   -34114   -34145 
  -34173   -34221   -34275   -34307   -34323   -34334   -34338   -34338 
  -34325   -34303   -34277   -34238   -34186   -34113   -34010   -33910 
  -33824   -33739   -33662   -33579   -33474   -33380   -33318   -33253 
  -33170   -33088   -33011   -32945   -32895   -32857   -32829   -32809 
  -32791   -32783   -32787   -32786   -32765   -32742   -32719   -32687 
  -32652   -32613   -32582   -32567   -32539   -32503   -32497   -32508 
  -32506   -32498   -32510   -32524   -32520   -32525   -32537   -32535 
  -32539   -32555   -32567   -32589   -32616   -32629   -32634   -32641 
  -32644   -32653   -32683   -32718   -32755   -32796   -32833   -32863 
  -32908   -32983   -33070   -33164   -33265   -33370   -33475   -33588 
  -33698   -33801   -33917   -34045   -34160   -34276   -34410   -34553 
  -34695   -34827   -34939   -35039   -35135   -35224   -35309   -35397 
  -35490   -35580   -35664   -35746   -35826   -35899   -35966   -36019 
  -36051   -36081   -36105   -36105   -36085   -36058   -36015   -35953 
  -35877   -35785   -35680   -35561   -35419   -35274   -35135   -34996 
  -34850   -34688   -34508   -34333   -34168   -34009   -33853   -33712 
  -33585   -33457   -33324   -33208   -33107   -33010   -32929   -32886 
  -32867   -32848   -32837   -32841   -32857   -32884   -32923   -32969 
  -33021   -33068   -33110   -33146   -33184   -33226   -33261   -33288 
  -33323   -33359   -33382   -33400   -33412   -33409   -33385   -33357 
  -33355   -33363   -33347   -33319   -33288   -33241   -33192   -33146 
  -33104   -33065   -33021   -32977   -32957   -32944   -32917   -32890 
  -32873   -32860   -32857   -32880   -32921   -32969   -33027   -33085 
  -33139   -33193   -33241   -33286   -33353   -33436   -33534   -33635 
  -33713   -33768   -33829   -33890   -33940   -33984   -34022   -34059 
  -34107   -34148   -34171   -34192   -34207   -34204   -34203   -34210 
  -34207   -34180   -34140   -34105   -34076   -34045   -34009   -33983 
  -33970   -33953   -33932   -33913   -33890   -33860   -33833   -33804 
  -33762   -33718   -33691   -33677   -33677   -33679   -33662   -33636 
  -33619   -33586   -33536   -33498   -33474   -33442   -33404   -33362 
  -33316   -33270   -33228   -33204   -33197   -33180   -33142   -33112 
  -33092   -33066   -33050   -33039   -33021   -33008   -33021   -33050 
  -33097   -33143   -33166   -33185   -33223   -33269   -33323   -33390 
  -33465   -33536   -33609   -33687   -33771   -33855   -33945   -34055 
  -34163   -34257   -34357   -34460   -34546   -34615   -34673   -34716 
  -34747   -34776   -34792   -34793   -34788   -34769   -34728   -34680 
  -34634   -34599   -34581   -34566   -34535   -34492   -34449   -34402 
  -34352   -34306   -34264   -34223   -34192   -34172   -34153   -34130 
  -34095   -34048   -34005   -33982   -33963   -33929   -33885   -33845 
  -33809   -33764   -33714   -33673   -33631   -33577   -33512   -33434 
  -33345   -33261   -33188   -33126   -33073   -33018   -32952   -32873 
  -32792   -32724   -32683   -32667   -32660   -32664   -32665   -32653 
  -32661   -32691   -32711   -32742   -32783   -32810   -32840   -32880 
  -32915   -32950   -32994   -33035   -33076   -33119   -33162   -33200 
  -33231   -33258   -33285   -33312   -33334   -33343   -33347   -33342 
  -33327   -33313   -33300   -33273   -33249   -33238   -33219   -33188 
  -33176   -33168   -33154   -33158   -33178   -33205   -33255   -33323 
  -33396   -33486   -33586   -33685   -33787   -33894   -33995   -34094 
  -34198   -34298   -34393   -34489   -34566   -34624   -34682   -34726 
  -34751   -34763   -34755   -34719   -34680   -34653   -34627   -34589 
  -34541   -34488   -34430   -34375   -34321   -34269   -34230   -34199 
  -34173   -34156   -34140   -34122   -34106   -34083   -34049   -34013 
  -33972   -33929   -33893   -33853   -33804   -33739   -33669   -33598 
  -33524   -33444   -33377   -33327   -33278   -33231   -33187   -33141 
  -33095   -33056   -33029   -33019   -33025   -33037   -33050   -33076 
  -33116   -33157   -33200   -33250   -33296   -33343   -33399   -33455 
  -33505   -33556   -33612   -33674   -33737   -33786   -33818   -33845 
  -33871   -33901   -33933   -33955   -33957   -33949   -33945   -33937 
  -33916   -33887   -33855   -33822   -33785   -33740   -33687   -33636 
  -33602   -33578   -33535   -33478   -33430   -33385   -33345   -33315 
  -33293   -33273   -33257   -33251   -33253   -33249   -33246   -33259 
  -33274   -33281   -33288   -33303   -33330   -33365   -33401   -33439 
  -33481   -33515   -33539   -33566   -33605   -33656   -33717   -33772 
  -33822   -33870   -33916   -33964   -34011   -34068   -34137   -34206 
  -34276   -34352   -34411   -34453   -34488   -34519   -34551   -34578 
  -34592   -34601   -34605   -34593   -34566   -34527   -34484   -34452 
  -34420   -34385   -34358   -34341   -34318   -34277   -34241   -34217 
  -34196   -34172   -34144   -34114   -34078   -34038   -33998   -33970 
  -33949   -33914   -33867   -33829   -33795   -33762   -33735   -33714 
  -33700   -33685   -33669   -33655   -33643   -33625   -33608   -33589 
  -33562   -33535   -33509   -33473   -33434   -33389   -33324   -33255 
  -33205   -33157   -33099   -33038   -32975   -32911   -32865   -32829 
  -32795   -32771   -32755   -32737   -32728   -32728   -32728   -32724 
  -32728   -32742   -32767   -32791   -32815   -32846   -32868   -32887 
  -32922   -32971   -33026   -33081   -33142   -33214   -33280   -33336 
  -33390   -33443   -33496   -33539   -33581   -33625   -33651   -33654 
  -33654   -33669   -33693   -33712   -33732   -33752   -33766   -33782 
  -33805   -33826   -33847   -33870   -33901   -33928   -33947   -33970 
  -33998   -34037   -34075   -34101   -34119   -34130   -34132   -34144 
  -34179   -34219   -34253   -34288   -34321   -34348   -34384   -34431 
  -34477   -34516   -34543   -34555   -34554   -34543   -34543   -34550 
  -34542   -34526   -34510   -34477   -34435   -34398   -34350   -34299 
  -34254   -34206   -34150   -34099   -34055   -34015   -33982   -33953 
  -33925   -33887   -33853   -33832   -33812   -33793   -33774   -33751 
  -33736   -33729   -33717   -33708   -33706   -33700   -33685   -33683 
  -33689   -33691   -33697   -33706   -33713   -33717   -33717   -33714 
  -33709   -33702   -33691   -33673   -33647   -33625   -33609   -33583 
  -33540   -33497   -33466   -33432   -33390   -33350   -33316   -33286 
  -33254   -33216   -33181   -33164   -33149   -33127   -33110   -33091 
  -33073   -33070   -33066   -33058   -33057   -33052   -33043   -33048 
  -33054   -33057   -33065   -33081   -33088   -33088   -33092   -33100 
  -33112   -33135   -33158   -33174   -33189   -33208   -33218   -33218 
  -33212   -33210   -33214   -33216   -33215   -33216   -33216   -33212 
  -33207   -33208   -33218   -33228   -33234   -33241   -33255   -33273 
