Origin Time       2025/01/13 21:19:00
Lat.              31.8
Long.             131.6
Depth. (km)       30
Mag.              6.9
Station Code      HRSH18
Station Lat.      34.4572
Station Long.     132.7923
Station Height(m) 135
Record Time       2025/01/13 21:20:26
Sampling Freq(Hz) 100Hz
Duration Time(s)  133
Dir.              1
Scale Factor      2942(gal)/8224139
Max. Acc. (gal)   0.934
Last Correction   2025/01/13 21:20:27
Memo.             
[...]
  166322   166183   166056   165991   165982   166001   166035   166067 
  166086   166081   166047   165991   165936   165909   165923   165983 
  166074   166140   166163   166158   166126   166059   165978   165944 
  165948   165913   165854   165858   165910   165935   165928   165902 
  165866   165852   165843   165827   165850   165885   165908   165959 
  166025   166071   166120   166148   166085   165962   165873   165816 
  165778   165784   165821   165858   165858   165813   165775   165766 
  165746   165707   165690   165692   165682   165678   165696   165719 
  165707   165678   165682   165715   165728   165705   165661   165618 
  165589   165580   165577   165603   165684   165774   165842   165912 
  165955   165943   165936   165951   165940   165913   165892   165873 
  165896   165951   165985   166004   166029   166063   166104   166147 
  166197   166230   166232   166243   166274   166305   166341   166369 
  166371   166367   166353   166291   166224   166221   166228   166198 
  166168   166152   166141   166158   166198   166243   166260   166251 
  166247   166236   166239   166280   166298   166276   166245   166178 
  166110   166098   166106   166071   166004   165967   165977   165985 
  165973   165936   165889   165870   165870   165874   165910   165985 
  166063   166109   166122   166105   166052   166005   166041   166135 
  166185   166195   166193   166133   166058   166041   166058   166079 
  166098   166090   166079   166108   166167   166225   166252   166249 
  166229   166202   166195   166240   166321   166365   166375   166410 
  166438   166428   166409   166395   166371   166345   166328   166290 
  166234   166207   166195   166143   166067   165998   165939   165909 
  165917   165913   165894   165920   165967   165950   165902   165892 
  165879   165835   165780   165742   165754   165813   165878   165900 
  165875   165875   165923   165973   166029   166068   166028   165935 
  165855   165801   165780   165812   165848   165847   165858   165883 
  165908   165975   166075   166136   166122   166050   165969   165920 
  165910   165898   165866   165856   165902   165989   166105   166197 
  166199   166163   166155   166141   166118   166110   166122   166176 
  166220   166182   166113   166045   165983   165973   165989   165964 
  165940   165969   166010   166037   166062   166050   165967   165869 
  165819   165816   165832   165851   165865   165874   165870   165847 
  165784   165661   165554   165530   165541   165553   165570   165595 
  165640   165697   165769   165834   165835   165773   165701   165663 
  165647   165638   165665   165744   165838   165902   165956   166010 
  166032   166014   165981   165942   165920   165931   165940   165925 
  165909   165886   165813   165727   165705   165692   165639   165599 
  165574   165541   165524   165538   165541   165510   165472   165464 
  165456   165414   165403   165460   165532   165609   165696   165759 
  165801   165848   165894   165940   165973   165973   165977   166014 
  166077   166141   166172   166186   166229   166255   166217   166205 
  166256   166266   166213   166160   166125   166106   166106   166124 
  166158   166190   166253   166383   166487   166494   166452   166414 
  166419   166476   166530   166541   166534   166536   166536   166537 
  166573   166631   166669   166685   166646   166556   166499   166473 
  166428   166394   166379   166336   166287   166270   166249   166201 
  166132   166077   166040   165962   165847   165754   165686   165653 
  165674   165704   165708   165728   165773   165796   165766   165694 
  165615   165549   165484   165423   165406   165424   165412   165350 
  165292   165254   165217   165188   165196   165215   165223   165231 
  165227   165234   165299   165388   165454   165503   165503   165476 
  165522   165626   165720   165809   165879   165905   165919   165951 
  165985   165994   166009   166037   166028   165994   165997   166006 
  165987   165971   165956   165923   165920   165933   165905   165898 
  165912   165901   165936   166020   166054   166036   166005   165962 
  165929   165929   165950   165964   165963   165956   165981   166033 
  166094   166176   166264   166328   166380   166436   166492   166542 
  166573   166564   166503   166415   166359   166341   166315   166275 
  166252   166243   166206   166140   166102   166101   166081   166035 
  166024   166070   166133   166170   166163   166129   166082   165989 
  165869   165782   165711   165631   165607   165650   165674   165666 
  165670   165696   165763   165854   165873   165790   165666   165573 
  165558   165581   165585   165584   165568   165526   165497   165505 
  165549   165622   165692   165717   165743   165859   165997   166036 
  166045   166070   166064   166060   166079   166124   166226   166344 
  166438   166529   166575   166558   166561   166611   166657   166681 
  166700   166679   166588   166513   166499   166477   166444   166445 
  166444   166440   166476   166513   166510   166453   166334   166210 
  166149   166151   166155   166105   166012   165908   165796   165688 
  165603   165570   165603   165654   165712   165804   165888   165909 
  165921   165952   165962   165959   165933   165873   165859   165885 
  165869   165828   165789   165727   165662   165632   165639   165661 
  165673   165680   165724   165823   165921   165963   165967   165963 
  165910   165815   165740   165649   165550   165546   165566   165537 
  165559   165649   165738   165839   165959   166067   166114   166113 
  166170   166283   166353   166411   166488   166496   166467   166500 
  166565   166607   166631   166635   166604   166576   166599   166650 
  166698   166719   166688   166646   166652   166661   166610   166517 
  166419   166324   166245   166195   166148   166105   166075   166051 
  166023   165985   165950   165927   165904   165883   165832   165726 
  165634   165608   165620   165624   165604   165607   165684   165762 
  165738   165665   165649   165672   165662   165611   165555   165514 
  165481   165446   165379   165316   165308   165308   165315   165391 
  165473   165495   165520   165557   165584   165638   165686   165694 
  165697   165696   165662   165592   165524   165530   165624   165742 
  165807   165824   165847   165866   165848   165854   165920   165994 
  166036   166071   166122   166162   166180   166206   166206   166179 
  166144   166070   165989   165946   165888   165829   165840   165906 
  165950   165951   165958   165983   166043   166135   166193   166209 
  166224   166212   166147   166078   166037   166005   165982   165971 
  165948   165916   165885   165846   165800   165773   165789   165807 
  165780   165740   165704   165655   165589   165504   165456   165508 
  165608   165659   165681   165712   165734   165766   165811   165789 
  165726   165715   165731   165750   165794   165881   166032   166218 
  166384   166518   166622   166702   166756   166785   166833   166882 
  166893   166903   166957   167001   166999   167012   167042   167019 
  166985   166984   166949   166851   166754   166692   166652   166641 
  166671   166706   166687   166596   166498   166425   166368   166341 
  166330   166287   166202   166121   166072   166040   166000   165943 
  165892   165866   165834   165793   165811   165888   165951   165967 
  165964   165952   165948   165989   166047   166071   166095   166137 
  166149   166137   166141   166117   166082   166128   166174   166114 
  166060   166081   166108   166104   166056   166021   166037   166028 
  165997   165993   165982   165982   166027   166066   166052   166000 
  165936   165870   165812   165775   165751   165750   165774   165790 
  165798   165811   165836   165874   165878   165835   165775   165712 
  165680   165712   165766   165790   165792   165775   165747   165723 
  165682   165651   165674   165708   165715   165766   165866   165894 
  165828   165765   165731   165736   165796   165846   165855   165861 
  165838   165777   165730   165703   165697   165735   165773   165769 
  165757   165754   165747   165724   165676   165638   165627   165627 
  165626   165586   165497   165392   165272   165183   165181   165210 
  165219   165287   165404   165414   165329   165321   165392   165422 
  165457   165595   165750   165828   165893   165973   166013   166032 
  166089   166153   166220   166317   166382   166367   166337   166317 
  166274   166218   166205   166229   166216   166176   166220   166293 
  166298   166333   166459   166563   166630   166718   166773   166739 
  166704   166788   166938   167007   167028   167093   167120   167081 
  167088   167158   167242   167344   167447   167506   167545   167614 
  167695   167759   167806   167819   167798   167768   167745   167695 
  167620   167591   167591   167545   167512   167520   167479   167394 
  167325   167290   167275   167258   167201   167092   166961   166866 
  166787   166646   166467   166314   166180   166047   165917   165804 
  165743   165688   165555   165375   165210   165102   165076   165092 
  165057   164978   164932   164906   164884   164914   164963   164972 
  164951   164883   164755   164625   164543   164484   164434   164400 
  164366   164327   164284   164270   164281   164259   164215   164191 
  164182   164191   164193   164155   164096   164060   164043   164037 
  164050   164072   164111   164182   164226   164224   164259   164330 
  164369   164376   164385   164446   164574   164659   164705   164810 
  164902   164953   165046   165123   165150   165203   165267   165326 
  165404   165497   165615   165731   165832   165947   166047   166132 
  166213   166240   166271   166372   166460   166477   166448   166382 
  166302   166271   166282   166293   166332   166394   166432   166467 
  166504   166552   166635   166711   166764   166837   166909   166985 
  167084   167173   167238   167275   167292   167290   167271   167274 
  167290   167287   167285   167283   167275   167236   167147   167078 
  167013   166880   166768   166691   166575   166464   166363   166263 
  166209   166113   165979   165908   165800   165636   165546   165484 
  165375   165252   165181   165180   165136   164968   164810   164772 
  164775   164759   164745   164714   164687   164705   164706   164687 
  164722   164830   164963   165045   165086   165160   165261   165357 
  165442   165497   165501   165483   165491   165530   165578   165638 
  165670   165658   165672   165717   165716   165684   165657   165604 
  165564   165564   165559   165527   165508   165527   165535   165501 
  165492   165507   165464   165389   165362   165361   165384   165453 
  165519   165564   165619   165678   165701   165705   165738   165761 
  165717   165677   165712   165757   165743   165705   165703   165747 
  165805   165867   165944   166000   166023   166064   166141   166195 
  166207   166209   166183   166170   166249   166361   166414   166457 
  166542   166630   166698   166754   166811   166888   166974   167043 
  167108   167227   167356   167394   167375   167421   167528   167632 
  167736   167840   167910   167960   168043   168146   168224   168286 
  168336   168358   168351   168296   168239   168220   168162   168046 
  167933   167825   167710   167583   167436   167324   167298   167271 
  167139   166990   166923   166868   166761   166644   166548   166461 
  166402   166334   166172   165994   165933   165935   165921   165920 
  165946   165936   165883   165840   165796   165754   165748   165736 
  165686   165628   165558   165460   165357   165264   165134   164965 
  164808   164673   164573   164504   164421   164315   164208   164126 
  164064   163988   163923   163922   163966   164011   164045   164065 
  164085   164146   164246   164350   164458   164556   164648   164775 
  164917   165026   165117   165208   165307   165393   165466   165572 
  165696   165815   165960   166113   166228   166310   166372   166441 
  166548   166622   166660   166723   166760   166761   166828   166930 
  166999   167066   167128   167163   167192   167208   167197   167190 
  167186   167131   167031   166981   166993   166953   166824   166685 
  166579   166488   166423   166376   166333   166313   166306   166252 
  166160   166083   166041   166043   166063   166067   166071   166063 
  166029   165970   165929   165932   165883   165773   165703   165639 
  165539   165457   165407   165350   165272   165167   165041   164940 
  164898   164852   164776   164700   164637   164620   164636   164652 
  164693   164751   164783   164818   164894   165007   165125   165213 
  165308   165441   165553   165634   165761   165910   166000   166062 
  166141   166210   166270   166342   166423   166496   166571   166648 
  166704   166746   166801   166861   166904   166919   166920   166966 
  167042   167088   167115   167130   167136   167178   167209   167166 
  167113   167113   167147   167193   167220   167212   167225   167282 
  167308   167305   167346   167397   167458   167589   167706   167726 
  167745   167796   167809   167841   167923   167954   167919   167869 
  167853   167868   167849   167796   167751   167724   167695   167599 
  167439   167298   167184   167049   166899   166735   166546   166357 
  166152   165910   165667   165443   165222   164991   164762   164544 
  164340   164196   164100   163969   163795   163648   163582   163545 
  163480   163431   163408   163385   163399   163455   163505   163522 
  163530   163588   163676   163729   163779   163861   163973   164133 
  164308   164454   164610   164783   164968   165164   165319   165472 
  165682   165878   166052   166266   166498   166685   166797   166882 
  166990   167097   167167   167188   167205   167247   167233   167166 
  167131   167101   167042   167005   167009   167009   166988   166968 
  166969   166982   166977   166966   166988   167040   167128   167258 
  167386   167487   167557   167583   167589   167593   167576   167540 
  167513   167494   167441   167358   167275   167175   167063   166970 
  166855   166715   166577   166418   166243   166056   165859   165673 
  165518   165408   165331   165265   165200   165110   165007   164920 
  164810   164679   164544   164430   164378   164355   164311   164261 
  164224   164205   164214   164231   164272   164365   164502   164686 
  164874   164999   165125   165329   165543   165692   165808   165939 
  166052   166118   166163   166213   166259   166276   166270   166282 
  166315   166322   166287   166232   166164   166121   166087   166027 
  166004   166048   166085   166068   166008   165958   165950   165942 
  165924   165925   165940   165931   165924   165962   166001   165994 
  165973   165975   166010   166052   166083   166133   166221   166271 
  166260   166275   166303   166259   166164   166098   166023   165901 
  165796   165735   165676   165619   165566   165487   165384   165280 
  165172   165100   165088   165078   165065   165096   165141   165164 
  165196   165249   165302   165323   165318   165335   165383   165420 
  165445   165466   165477   165507   165553   165597   165678   165778 
  165851   165916   165989   166051   166075   166078   166101   166105 
  166075   166079   166120   166126   166097   166078   166102   166149 
  166145   166086   166021   165946   165879   165839   165794   165770 
  165769   165770   165798   165852   165924   166035   166132   166207 
  166357   166587   166819   167027   167233   167421   167583   167755 
  167922   168041   168130   168222   168319   168389   168399   168381 
  168355   168243   168053   167886   167726   167518   167283   167036 
  166792   166536   166253   166004   165800   165592   165384   165173 
  164952   164767   164625   164481   164362   164327   164323   164309 
  164355   164466   164547   164605   164724   164891   165046   165208 
  165404   165616   165836   166059   166263   166428   166561   166689 
  166811   166922   167008   167027   166982   166938   166907   166864 
  166797   166706   166569   166396   166234   166094   165948   165796 
  165659   165550   165462   165381   165310   165268   165268   165285 
  165271   165246   165235   165208   165163   165115   165087   165091 
  165122   165184   165245   165268   165294   165335   165368   165410 
  165495   165611   165744   165858   165951   166085   166236   166315 
  166352   166401   166442   166464   166467   166472   166511   166554 
  166598   166672   166749   166793   166850   166934   166985   167009 
  167073   167131   167128   167124   167139   167138   167147   167177 
  167200   167194   167154   167080   166962   166820   166698   166575 
  166426   166275   166109   165915   165730   165585   165437   165265 
  165138   165078   165009   164922   164878   164870   164882   164901 
  164922   164951   165003   165083   165165   165229   165272   165321 
  165402   165470   165497   165518   165543   165581   165627   165682 
  165767   165858   165920   165989   166070   166141   166198   166220 
  166212   166187   166124   166045   165989   165920   165832   165761 
  165682   165570   165480   165460   165458   165420   165369   165348 
  165393   165481   165549   165607   165692   165790   165883   165993 
  166155   166345   166513   166668   166827   166965   167082   167217 
  167373   167512   167605   167657   167692   167729   167771   167796 
  167769   167722   167713   167717   167701   167686   167670   167640 
  167607   167586   167579   167570   167551   167537   167525   167495 
  167433   167350   167286   167233   167144   167030   166923   166816 
  166703   166600   166511   166398   166260   166133   166013   165897 
  165798   165694   165591   165508   165449   165411   165400   165406 
  165397   165388   165393   165402   165419   165433   165433   165438 
  165422   165372   165307   165221   165134   165065   164997   164911 
  164783   164627   164493   164367   164236   164133   164041   163939 
  163867   163834   163809   163767   163741   163740   163729   163728 
  163776   163844   163899   163965   164052   164149   164241   164324 
  164428   164548   164647   164744   164887   165042   165187   165342 
  165501   165649   165815   165989   166117   166218   166342   166463 
  166561   166649   166716   166762   166810   166872   166954   167031 
  167080   167121   167146   167132   167116   167111   167077   167005 
  166935   166887   166847   166796   166710   166606   166533   166479 
  166403   166332   166286   166249   166206   166151   166090   166016 
  165940   165882   165804   165696   165608   165538   165460   165392 
  165370   165376   165393   165433   165485   165551   165635   165711 
  165789   165882   165970   166082   166230   166355   166463   166602 
  166720   166793   166866   166938   166999   167055   167093   167098 
  167089   167057   166995   166916   166827   166742   166688   166644 
  166588   166540   166491   166425   166368   166332   166309   166272 
  166206   166159   166160   166159   166136   166122   166102   166054 
  165991   165943   165905   165842   165743   165649   165570   165491 
  165403   165300   165190   165092   165005   164905   164816   164763 
  164720   164685   164687   164706   164732   164770   164818   164895 
