Origin Time       2025/01/13 21:19:00
Lat.              31.8
Long.             131.6
Depth. (km)       30
Mag.              6.9
Station Code      HRSH05
Station Lat.      34.5566
Station Long.     133.4179
Station Height(m) -180
Record Time       2025/01/13 21:21:15
Sampling Freq(Hz) 100Hz
Duration Time(s)  120
Dir.              1
Scale Factor      2942(gal)/8224139
Max. Acc. (gal)   0.530
Last Correction   2025/01/13 21:21:16
Memo.             
[...]
   76088    76094    76107    76125    76137    76138    76149    76184 
   76227    76261    76303    76350    76377    76395    76430    76454 
   76439    76428    76447    76454    76451    76484    76540    76592 
   76623    76634    76631    76616    76609    76635    76674    76696 
   76711    76735    76769    76804    76831    76836    76839    76858 
   76870    76883    76921    76948    76959    76998    77045    77064 
   77085    77132    77188    77238    77269    77299    77342    77382 
   77418    77458    77485    77510    77549    77588    77610    77625 
   77647    77674    77693    77710    77731    77735    77718    77711 
   77700    77658    77629    77645    77684    77712    77710    77679 
   77641    77612    77610    77629    77633    77620    77600    77566 
   77535    77498    77444    77398    77368    77340    77311    77271 
   77215    77155    77091    77035    76971    76894    76821    76755 
   76696    76653    76615    76572    76536    76513    76484    76442 
   76411    76403    76400    76395    76391    76372    76347    76330 
   76318    76310    76304    76297    76293    76273    76234    76203 
   76187    76171    76158    76150    76137    76121    76099    76069 
   76041    76007    75967    75936    75915    75895    75876    75868 
   75876    75886    75875    75859    75859    75872    75898    75938 
   76003    76077    76140    76191    76238    76280    76320    76358 
   76391    76410    76405    76387    76377    76392    76416    76422 
   76407    76387    76366    76349    76334    76312    76280    76254 
   76231    76206    76198    76202    76185    76149    76123    76121 
   76108    76083    76076    76090    76091    76075    76054    76054 
   76083    76107    76103    76083    76060    76029    75982    75922 
   75871    75829    75772    75708    75643    75586    75555    75548 
   75559    75583    75610    75643    75686    75736    75798    75860 
   75911    75969    76042    76137    76242    76337    76423    76512 
   76599    76665    76707    76742    76777    76812    76846    76875 
   76900    76917    76933    76955    76983    77018    77056    77086 
   77107    77129    77157    77179    77180    77157    77122    77102 
   77089    77076    77089    77112    77114    77121    77144    77153 
   77151    77155    77160    77159    77145    77121    77095    77064 
   77012    76936    76877    76846    76836    76846    76858    76860 
   76863    76854    76840    76837    76828    76813    76792    76777 
   76781    76769    76738    76701    76657    76623    76596    76558 
   76523    76495    76469    76450    76441    76438    76443    76466 
   76486    76501    76540    76600    76666    76717    76738    76754 
   76782    76809    76827    76829    76829    76844    76855    76863 
   76886    76900    76893    76885    76881    76867    76843    76825 
   76835    76855    76856    76836    76805    76770    76740    76719 
   76686    76636    76582    76524    76461    76403    76351    76308 
   76285    76277    76287    76304    76300    76275    76252    76239 
   76239    76243    76231    76218    76225    76253    76303    76362 
   76416    76454    76478    76522    76580    76616    76655    76704 
   76748    76793    76832    76887    76954    77005    77044    77067 
   77068    77055    77044    77041    77025    76998    76983    76982 
   76979    76966    76948    76945    76962    76985    77005    77010 
   77016    77022    77008    77005    77036    77062    77066    77072 
   77078    77063    77041    77039    77033    77005    76977    76948 
   76912    76866    76808    76743    76685    76643    76628    76631 
   76627    76605    76581    76558    76530    76501    76476    76438 
   76392    76345    76297    76248    76184    76111    76056    76019 
   75978    75938    75921    75919    75938    75973    76018    76077 
   76142    76199    76246    76293    76333    76360    76392    76428 
   76449    76451    76443    76443    76464    76477    76496    76532 
   76547    76538    76531    76534    76547    76546    76500    76437 
   76373    76316    76264    76208    76165    76144    76123    76108 
   76119    76144    76160    76177    76199    76214    76215    76214 
   76211    76198    76180    76161    76142    76145    76160    76165 
   76177    76204    76235    76276    76327    76374    76418    76455 
   76480    76476    76458    76468    76505    76543    76588    76642 
   76682    76704    76721    76743    76756    76771    76790    76801 
   76806    76819    76840    76860    76870    76879    76897    76935 
   76998    77060    77103    77144    77184    77214    77238    77272 
   77305    77325    77321    77307    77307    77301    77283    77278 
   77259    77205    77148    77097    77021    76935    76863    76790 
   76711    76639    76573    76509    76455    76401    76358    76333 
   76307    76280    76265    76256    76254    76256    76250    76257 
   76279    76283    76264    76254    76260    76260    76245    76221 
   76195    76184    76192    76212    76234    76252    76260    76253 
   76245    76249    76249    76237    76225    76237    76264    76279 
   76293    76318    76338    76357    76378    76397    76419    76446 
   76473    76500    76523    76539    76531    76488    76449    76431 
   76408    76370    76345    76318    76265    76212    76175    76134 
   76094    76069    76046    76019    76007    76003    75988    75986 
   75994    76000    76029    76087    76154    76221    76277    76329 
   76393    76464    76518    76561    76604    76646    76685    76721 
   76766    76817    76867    76909    76951    76995    77031    77045 
   77052    77058    77056    77043    77022    76995    76978    76981 
   76979    76962    76944    76932    76931    76936    76940    76948 
   76977    77009    77022    77032    77039    77028    77002    76978 
   76981    76990    76960    76918    76896    76875    76860    76846 
   76829    76825    76817    76794    76766    76743    76729    76716 
   76688    76643    76592    76543    76503    76472    76442    76410 
   76366    76326    76299    76287    76292    76300    76297    76288 
   76280    76284    76304    76334    76358    76370    76373    76361 
   76331    76296    76264    76226    76173    76107    76056    76022 
   75978    75928    75888    75860    75848    75857    75860    75845 
   75838    75855    75890    75938    75978    76009    76048    76098 
   76144    76191    76249    76312    76360    76388    76412    76445 
   76477    76504    76522    76528    76531    76524    76515    76511 
   76497    76474    76461    76459    76454    76442    76449    76466 
   76470    76466    76472    76484    76493    76493    76496    76508 
   76516    76526    76551    76584    76604    76615    76613    76609 
   76623    76642    76650    76648    76639    76631    76639    76661 
   76684    76698    76724    76756    76779    76808    76843    76863 
   76886    76929    76982    77024    77064    77118    77159    77172 
   77180    77179    77160    77144    77126    77093    77045    76999 
   76962    76932    76917    76901    76873    76852    76836    76823 
   76828    76843    76847    76856    76875    76871    76855    76856 
   76850    76812    76775    76740    76690    76640    76584    76516 
   76454    76387    76320    76280    76242    76203    76181    76172 
   76158    76150    76152    76156    76165    76167    76156    76152 
   76152    76152    76150    76150    76153    76153    76150    76146 
   76135    76131    76142    76161    76179    76204    76250    76293 
   76324    76361    76410    76450    76485    76512    76512    76503 
   76512    76527    76528    76522    76527    76543    76546    76532 
   76515    76499    76481    76465    76445    76431    76431    76424 
   76400    76381    76377    76366    76356    76351    76351    76346 
   76334    76319    76316    76331    76362    76396    76427    76449 
   76459    76472    76482    76491    76504    76523    76553    76593 
   76639    76681    76725    76756    76765    76763    76758    76743 
   76734    76734    76732    76715    76696    76696    76694    76694 
   76692    76671    76642    76621    76617    76635    76661    76696 
   76738    76775    76815    76852    76879    76893    76894    76893 
   76909    76932    76944    76954    76968    76983    77001    77022 
   77035    77040    77060    77086    77105    77113    77120    77132 
   77132    77128    77132    77133    77129    77126    77114    77083 
   77052    77031    77008    76974    76941    76908    76870    76831 
   76786    76727    76655    76585    76530    76481    76432    76387 
   76346    76304    76258    76218    76187    76171    76172    76173 
   76165    76152    76140    76140    76152    76175    76218    76260 
   76272    76284    76306    76310    76308    76308    76297    76289 
   76283    76260    76252    76266    76279    76295    76323    76351 
   76384    76422    76450    76474    76504    76522    76530    76543 
   76545    76524    76499    76464    76426    76383    76322    76272 
   76249    76234    76214    76183    76146    76113    76073    76042 
   76027    76011    76003    76014    76033    76050    76061    76079 
   76117    76173    76222    76253    76297    76364    76437    76503 
   76562    76619    76661    76690    76708    76705    76693    76671 
   76647    76636    76634    76630    76632    76634    76640    76657 
   76662    76659    76654    76639    76626    76608    76597    76607 
   76601    76588    76589    76586    76586    76584    76574    76576 
   76572    76553    76543    76543    76527    76492    76441    76374 
   76300    76231    76171    76115    76072    76036    75994    75948 
   75905    75876    75860    75848    75843    75826    75807    75816 
   75841    75871    75918    75980    76041    76103    76171    76241 
   76302    76350    76396    76438    76485    76535    76561    76573 
   76585    76594    76597    76586    76565    76543    76511    76482 
   76465    76457    76455    76445    76435    76442    76450    76459 
   76489    76516    76531    76559    76594    76621    76658    76702 
   76747    76808    76882    76950    77021    77093    77147    77201 
   77264    77326    77375    77409    77436    77453    77448    77426 
   77413    77395    77360    77326    77295    77244    77184    77139 
   77097    77048    76993    76931    76863    76796    76732    76659 
   76581    76504    76419    76335    76260    76185    76130    76088 
   76045    76011    75986    75946    75898    75856    75820    75780 
   75743    75702    75655    75616    75593    75583    75589    75582 
   75558    75532    75514    75493    75473    75462    75442    75413 
   75398    75394    75389    75396    75421    75450    75467    75487 
   75513    75532    75560    75614    75668    75708    75753    75807 
   75871    75944    76010    76072    76142    76212    76295    76401 
   76518    76646    76779    76896    76993    77090    77190    77272 
   77325    77363    77407    77458    77502    77529    77545    77557 
   77558    77565    77583    77598    77611    77612    77588    77564 
   77550    77529    77495    77467    77460    77458    77450    77456 
   77476    77491    77492    77484    77480    77464    77427    77390 
   77353    77301    77257    77241    77225    77202    77191    77194 
   77199    77210    77220    77234    77264    77296    77323    77355 
   77384    77417    77456    77491    77515    77527    77521    77499 
   77469    77431    77392    77356    77323    77298    77278    77257 
   77237    77214    77187    77167    77159    77153    77152    77153 
   77152    77141    77128    77120    77116    77113    77098    77059 
   77020    76983    76936    76889    76844    76790    76734    76675 
   76608    76540    76480    76423    76362    76289    76218    76158 
   76102    76046    75998    75951    75895    75843    75795    75743 
   75693    75652    75617    75585    75550    75516    75490    75475 
   75469    75454    75420    75389    75367    75352    75332    75315 
   75315    75328    75342    75350    75358    75369    75381    75388 
   75392    75401    75401    75393    75385    75373    75374    75404 
   75448    75500    75556    75616    75676    75730    75794    75871 
   75944    76007    76063    76121    76189    76262    76341    76423 
   76504    76584    76663    76742    76810    76870    76929    76982 
   77020    77056    77087    77103    77116    77121    77117    77112 
   77103    77080    77045    77012    76970    76914    76871    76837 
   76778    76705    76639    76576    76516    76459    76412    76381 
   76354    76337    76345    76353    76345    76351    76374    76395 
   76418    76445    76472    76509    76557    76593    76626    76667 
   76721    76792    76856    76910    76971    77032    77079    77126 
   77175    77217    77253    77283    77321    77360    77371    77360 
   77356    77357    77361    77368    77368    77350    77321    77291 
   77265    77238    77213    77178    77132    77089    77037    76972 
   76908    76847    76789    76731    76655    76567    76489    76414 
   76329    76248    76167    76079    75983    75886    75798    75712 
   75624    75548    75490    75444    75388    75324    75277    75242 
   75205    75176    75154    75127    75095    75070    75060    75060 
   75068    75085    75115    75161    75217    75285    75369    75455 
   75539    75637    75739    75834    75940    76050    76148    76235 
   76330    76438    76543    76640    76735    76829    76927    77026 
   77124    77218    77310    77390    77458    77526    77591    77649 
   77701    77749    77788    77822    77843    77853    77858    77858 
   77853    77849    77846    77846    77847    77836    77818    77801 
   77789    77770    77746    77718    77685    77650    77602    77550 
   77498    77437    77380    77321    77255    77190    77121    77047 
   76971    76885    76794    76715    76627    76530    76437    76333 
   76239    76165    76081    76003    75940    75875    75818    75780 
   75739    75699    75679    75672    75683    75718    75745    75770 
   75824    75884    75934    75991    76042    76090    76141    76177 
   76215    76272    76318    76361    76412    76454    76488    76519 
   76546    76565    76576    76589    76608    76617    76617    76620 
   76619    76615    76613    76607    76589    76578    76578    76569 
   76550    76536    76523    76508    76499    76504    76512    76504 
   76499    76497    76489    76480    76469    76449    76416    76381 
   76345    76299    76245    76191    76130    76064    75996    75922 
   75841    75756    75671    75595    75523    75451    75389    75338 
   75293    75255    75216    75185    75176    75173    75173    75181 
   75193    75217    75243    75266    75304    75351    75393    75438 
   75493    75555    75624    75693    75757    75822    75879    75930 
   75980    76022    76059    76088    76102    76118    76141    76162 
   76173    76175    76180    76185    76192    76200    76191    76179 
   76180    76191    76208    76223    76229    76237    76245    76252 
   76264    76279    76293    76312    76338    76380    76434    76486 
   76531    76580    76644    76717    76778    76829    76867    76901 
   76947    76995    77031    77052    77059    77055    77045    77039 
   77026    77008    76994    76990    76983    76966    76940    76925 
   76923    76916    76916    76932    76951    76954    76962    76986 
   77012    77029    77039    77041    77049    77048    77039    77036 
   77031    77018    77013    77008    76995    76978    76967    76966 
   76958    76960    76963    76944    76921    76893    76858    76837 
   76825    76812    76796    76771    76739    76707    76675    76646 
   76616    76588    76567    76554    76539    76526    76519    76524 
   76532    76550    76584    76612    76636    76670    76702    76728 
   76751    76773    76790    76817    76859    76898    76932    76975 
   77018    77052    77091    77134    77170    77203    77237    77271 
   77306    77338    77373    77396    77396    77391    77380    77359 
   77344    77334    77322    77306    77284    77256    77228    77194 
   77153    77113    77076    77041    76995    76945    76904    76854 
   76796    76750    76705    76654    76604    76553    76508    76468 
   76424    76372    76322    76281    76246    76207    76165    76129 
   76103    76083    76057    76030    76015    76003    75987    75979 
   75969    75952    75942    75941    75945    75957    75972    75990 
   76005    76023    76052    76081    76108    76135    76167    76216 
   76254    76269    76303    76345    76360    76377    76410    76442 
   76481    76524    76559    76597    76634    76658    76692    76721 
   76728    76735    76744    76748    76750    76752    76758    76763 
   76779    76801    76813    76825    76839    76835    76823    76823 
   76828    76832    76819    76792    76774    76758    76743    76747 
   76759    76751    76729    76727    76736    76724    76713    76715 
   76713    76713    76708    76696    76696    76705    76715    76729 
   76748    76756    76755    76759    76759    76744    76715    76680 
   76647    76615    76573    76526    76492    76466    76423    76378 
   76343    76304    76280    76268    76248    76233    76230    76223 
   76215    76214    76211    76207    76211    76222    76226    76229 
   76241    76253    76252    76243    76237    76235    76233    76225 
   76215    76200    76185    76181    76175    76152    76119    76090 
   76053    76007    75972    75941    75909    75879    75848    75817 
   75793    75775    75762    75739    75717    75708    75695    75675 
   75656    75641    75631    75618    75613    75609    75604    75608 
   75624    75637    75659    75686    75701    75720    75751    75774 
   75790    75814    75838    75868    75906    75937    75963    75999 
   76036    76073    76114    76158    76204    76256    76308    76360 
   76423    76493    76554    76612    76675    76721    76748    76774 
   76802    76836    76864    76885    76909    76935    76952    76978 
   76999    77017    77043    77056    77056    77060    77062    77059 
   77066    77076    77074    77070    77078    77089    77099    77118 
   77125    77126    77126    77113    77098    77082    77060    77045 
   77044    77044    77041    77041    77045    77041    77029    77018 
   77005    76986    76966    76948    76933    76917    76902    76904 
   76902    76878    76851    76833    76809    76773    76734    76707 
   76698    76696    76684    76665    76658    76661    76661    76666 
   76669    76669    76675    76690    76708    76729    76754    76775 
   76797    76825    76843    76856    76885    76913    76936    76970 
   76995    77002    77012    77025    77037    77052    77070    77087 
   77103    77122    77143    77166    77186    77199    77217    77247 
   77278    77295    77299    77295    77296    77307    77309    77305 
   77306    77306    77296    77284    77275    77263    77253    77251 
