Origin Time       2025/01/13 21:19:00
Lat.              31.8
Long.             131.6
Depth. (km)       30
Mag.              6.9
Station Code      HRSH17
Station Lat.      34.5716
Station Long.     132.2326
Station Height(m) 265
Record Time       2025/01/13 21:20:25
Sampling Freq(Hz) 100Hz
Duration Time(s)  138
Dir.              5
Scale Factor      7845(gal)/8223790
Max. Acc. (gal)   1.133
Last Correction   2025/01/13 21:20:26
Memo.             
[...]
    -369     -445     -481     -491     -522     -606     -719     -822 
    -870     -843     -784     -781     -857     -936     -938     -835 
    -656     -475     -390     -449     -608     -783     -903     -931 
    -893     -884     -934     -990    -1012     -988     -922     -841 
    -783     -769     -788     -788     -747     -711     -703     -741 
    -854    -1008    -1107    -1111    -1066    -1031    -1032    -1051 
   -1053     -994     -854     -681     -576     -588     -668     -722 
    -696     -610     -511     -468     -523     -631     -687     -639 
    -544     -465     -449     -500     -583     -646     -691     -745 
    -795     -789     -716     -610     -526     -518     -569     -623 
    -627     -575     -514     -491     -519     -576     -600     -564 
    -484     -375     -265     -197     -178     -179     -162     -129 
    -137     -220     -380     -568     -684     -676     -596     -525 
    -513     -565     -630     -665     -680     -692     -697     -708 
    -723     -724     -734     -776     -838     -895     -926     -904 
    -865     -888     -996    -1151    -1305    -1383    -1316    -1104 
    -853     -696     -703     -861    -1089    -1289    -1374    -1333 
   -1224    -1112    -1035     -988     -967     -997    -1063    -1128 
   -1169    -1177    -1162    -1148    -1139    -1113    -1069    -1024 
   -1017    -1070    -1142    -1169    -1121    -1024     -934     -889 
    -905     -958     -990     -967     -901     -823     -773     -770 
    -801     -830     -816     -746     -666     -616     -599     -610 
    -642     -665     -649     -599     -533     -483     -448     -405 
    -356     -322     -321     -359     -410     -440     -436     -403 
    -352     -290     -214     -126      -70      -72     -112     -140 
    -121      -66      -17        2       -6      -54     -109     -129 
    -128     -139     -160     -189     -220     -256     -301     -315 
    -286     -255     -249     -255     -263     -284     -311     -318 
    -280     -205     -120      -70      -89     -178     -292     -367 
    -378     -351     -329     -363     -476     -615     -685     -652 
    -558     -491     -495     -546     -581     -545     -442     -329 
    -264     -276     -346     -444     -550     -635     -672     -666 
    -627     -588     -585     -595     -584     -569     -546     -495 
    -421     -337     -261     -214     -199     -210     -230     -267 
    -310     -324     -328     -363     -406     -434     -468     -488 
    -465     -413     -369     -360     -402     -475     -529     -533 
    -481     -386     -284     -247     -306     -446     -608     -727 
    -765     -729     -661     -616     -606     -623     -658     -696 
    -726     -731     -695     -625     -579     -630     -757     -862 
    -886     -832     -766     -774     -878    -1015    -1061     -973 
    -843     -761     -730     -720     -691     -622     -521     -410 
    -329     -301     -303     -328     -372     -399     -386     -399 
    -463     -525     -567     -592     -572     -522     -468     -405 
    -351     -332     -325     -337     -376     -417     -449     -480 
    -507     -519     -495     -442     -405     -419     -500     -611 
    -683     -689     -665     -642     -629     -626     -612     -565 
    -521     -521     -553     -594     -608     -580     -538     -517 
    -515     -521     -511     -464     -380     -321     -346     -436 
    -535     -594     -565     -479     -410     -391     -419     -467 
    -486     -457     -417     -417     -471     -529     -549     -545 
    -535     -544     -592     -661     -699     -688     -672     -689 
    -746     -828     -893     -881     -780     -660     -616     -664 
    -750     -826     -839     -788     -746     -756     -780     -785 
    -765     -714     -645     -602     -592     -598     -629     -683 
    -734     -764     -770     -743     -697     -662     -650     -649 
    -641     -608     -565     -556     -604     -719     -869     -959 
    -919     -778     -619     -533     -571     -670     -693     -571 
    -375     -251     -291     -459     -618     -648     -527     -356 
    -272     -329     -450     -508     -456     -346     -280     -338 
    -503     -666     -733     -702     -643     -626     -666     -742 
    -835     -922     -965     -961     -926     -874     -838     -832 
    -835     -819     -789     -769     -778     -839     -942    -1038 
   -1080    -1043     -965     -919     -934     -986    -1046    -1069 
   -1024     -951     -924     -977    -1096    -1235    -1325    -1336 
   -1296    -1255    -1252    -1291    -1364    -1443    -1497    -1483 
   -1393    -1291    -1232    -1216    -1243    -1283    -1264    -1197 
   -1144    -1138    -1171    -1223    -1225    -1158    -1063     -969 
    -893     -850     -826     -808     -810     -837     -869     -866 
    -814     -750     -688     -604     -508     -440     -432     -481 
    -530     -511     -427     -332     -283     -303     -367     -426 
    -433     -390     -355     -371     -432     -496     -519     -469 
    -364     -279     -278     -352     -461     -580     -670     -688 
    -630     -542     -477     -461     -490     -506     -453     -336 
    -199     -106     -108     -190     -279     -318     -307     -274 
    -263     -309     -400     -483     -511     -504     -514     -552 
    -591     -604     -588     -557     -527     -508     -498     -494 
    -529     -618     -715     -788     -828     -818     -776     -749 
    -756     -784     -797     -761     -704     -665     -638     -616 
    -608     -623     -665     -712     -729     -722     -730     -754 
    -778     -784     -753     -681     -616     -618     -697     -814 
    -903     -934     -923     -905     -904     -939    -1020    -1140 
   -1252    -1316    -1339    -1328    -1279    -1205    -1154    -1151 
   -1166    -1169    -1163    -1158    -1158    -1159    -1148    -1116 
   -1069    -1026    -1023    -1061    -1102    -1125    -1135    -1124 
   -1096    -1088    -1111    -1138    -1127    -1061     -988     -965 
    -997    -1075    -1158    -1177    -1135    -1111    -1146    -1227 
   -1304    -1328    -1283    -1197    -1117    -1084    -1098    -1124 
   -1131    -1127    -1104    -1035     -951     -889     -853     -857 
    -897     -928     -915     -858     -773     -696     -639     -589 
    -534     -484     -477     -529     -602     -645     -649     -653 
    -685     -738     -788     -818     -835     -873     -950    -1050 
   -1125    -1152    -1140    -1102    -1061    -1038    -1026    -1000 
    -943     -850     -737     -641     -591     -584     -588     -573 
    -538     -486     -434     -400     -375     -360     -356     -334 
    -317     -324     -310     -236     -113       39      170      214 
     159       56      -21      -39        9       89      136      106 
      24      -40      -62      -63      -63      -74     -108     -145 
    -147      -95       -5       97      166      159       89        2 
     -63      -71      -14       56       90       87       83      106 
     152      189      189      175      194      263      345      405 
     429      411      359      303      271      260      268      283 
     284      268      214      128       44      -33     -120     -193 
    -237     -268     -302     -342     -410     -510     -612     -689 
    -754     -812     -843     -861     -884     -899     -891     -870 
    -872     -915     -989    -1054    -1071    -1032     -972     -940 
    -972    -1057    -1147    -1202    -1217    -1204    -1181    -1166 
   -1165    -1182    -1225    -1283    -1324    -1333    -1323    -1312 
   -1324    -1348    -1350    -1310    -1252    -1200    -1162    -1115 
   -1038     -945     -865     -827     -842     -864     -851     -808 
    -764     -738     -726     -723     -722     -706     -675     -630 
    -583     -556     -533     -484     -399     -268     -122       -9 
      64      112      129      103       37      -22      -40      -28 
       2       51       82       74       44       -4      -74     -143 
    -199     -251     -291     -311     -324     -355     -409     -476 
    -541     -608     -680     -749     -797     -819     -814     -785 
    -764     -787     -869     -982    -1074    -1113    -1108    -1090 
   -1090    -1117    -1154    -1185    -1204    -1209    -1208    -1213 
   -1223    -1215    -1202    -1216    -1232    -1197    -1112    -1036 
    -997     -970     -938     -893     -828     -766     -730     -718 
    -706     -652     -546     -434     -346     -303     -313     -352 
    -382     -380     -357     -328     -318     -342     -378     -406 
    -432     -454     -468     -471     -457     -434     -436     -495 
    -604     -708     -764     -764     -723     -685     -703     -766 
    -815     -808     -749     -670     -612     -602     -627     -637 
    -621     -608     -612     -638     -681     -708     -720     -745 
    -783     -834     -886     -904     -908     -951    -1031    -1119 
   -1190    -1201    -1135    -1040     -962     -907     -862     -807 
    -735     -675     -649     -638     -621     -611     -614     -618 
    -631     -653     -657     -653     -683     -735     -776     -797 
    -803     -795     -768     -718     -673     -641     -606     -572 
    -541     -510     -504     -540     -577     -561     -473     -352 
    -261     -244     -298     -383     -452     -461     -438     -459 
    -542     -652     -758     -823     -835     -847     -907    -1028 
   -1198    -1358    -1443    -1444    -1381    -1314    -1312    -1371 
   -1459    -1522    -1510    -1410    -1279    -1183    -1147    -1166 
   -1201    -1198    -1150    -1092    -1031     -966     -913     -872 
    -804     -692     -557     -433     -353     -338     -361     -375 
    -337     -259     -210     -259     -371     -468     -515     -507 
    -460     -414     -378     -334     -290     -267     -268     -282 
    -287     -275     -261     -278     -333     -411     -498     -573 
    -630     -665     -697     -747     -811     -857     -870     -853 
    -831     -830     -845     -865     -885     -888     -880     -881 
    -900     -939     -988    -1003     -976     -927     -862     -792 
    -730     -662     -584     -510     -450     -388     -302     -199 
     -99      -25       16       39       63      110      167      193 
     179      148      118      108      122      136      114       56 
       5       -9       12       52       67       20      -64     -149 
    -225     -284     -310     -313     -314     -321     -330     -341 
    -352     -361     -378     -396     -410     -414     -400     -364 
    -309     -261     -243     -261     -307     -352     -368     -361 
    -367     -407     -475     -545     -585     -581     -553     -540 
    -554     -572     -554     -467     -314     -162      -81      -86 
    -153     -225     -272     -307     -338     -369     -403     -425 
    -437     -467     -519     -576     -607     -591     -545     -513 
    -519     -558     -602     -629     -641     -645     -653     -679 
    -716     -761     -792     -778     -726     -673     -646     -642 
    -654     -665     -662     -653     -638     -629     -648     -704 
    -796     -899     -996    -1077    -1134    -1181    -1248    -1336 
   -1424    -1482    -1501    -1491    -1489    -1517    -1567    -1611 
   -1626    -1606    -1561    -1521    -1516    -1553    -1606    -1625 
   -1576    -1479    -1395    -1359    -1370    -1398    -1399    -1344 
   -1263    -1206    -1201    -1242    -1290    -1320    -1321    -1296 
   -1263    -1243    -1246    -1266    -1291    -1314    -1327    -1314 
   -1297    -1286    -1267    -1242    -1209    -1158    -1093    -1039 
   -1004     -980     -957     -915     -853     -789     -751     -753 
    -792     -834     -828     -764     -672     -595     -557     -557 
    -571     -581     -587     -592     -589     -571     -537     -495 
    -464     -423     -356     -278     -220     -213     -256     -311 
    -334     -314     -256     -197     -190     -243     -315     -369 
    -376     -338     -286     -252     -257     -284     -299     -294 
    -284     -278     -282     -310     -357     -391     -402     -418 
    -469     -562     -680     -774     -792     -730     -635     -550 
    -473     -394     -311     -224     -133      -64      -21       17 
      62      114      176      248      315      369      398      395 
     372      361      379      409      406      337      211       75 
     -43     -137     -216     -306     -409     -517     -630     -739 
    -823     -886     -943     -997    -1040    -1074    -1089    -1062 
    -993     -924     -895     -913     -957     -974     -938     -870 
    -816     -814     -868     -939     -988    -1023    -1073    -1147 
   -1246    -1348    -1421    -1443    -1433    -1432    -1448    -1464 
   -1467    -1443    -1386    -1317    -1260    -1220    -1175    -1117 
   -1062    -1024    -1017    -1051    -1098    -1124    -1116    -1088 
   -1066    -1070    -1097    -1128    -1132    -1094    -1035     -996 
   -1001    -1016    -1005     -969     -920     -864     -807     -762 
    -715     -650     -584     -521     -441     -352     -263     -172 
     -89      -10       75      175      275      360      418      446 
     452      446      452      481      522      552      542      490 
     421      357      315      299      294      280      244      184 
     124       75       28      -36     -113     -189     -263     -336 
    -407     -483     -564     -645     -711     -743     -738     -734 
    -769     -831     -888     -909     -872     -787     -703     -660 
    -666     -704     -735     -734     -692     -619     -550     -504 
    -483     -484     -487     -473     -460     -464     -500     -556 
    -596     -614     -619     -615     -625     -662     -718     -765 
    -791     -793     -791     -791     -788     -778     -766     -746 
    -712     -668     -616     -565     -519     -488     -477     -479 
    -479     -467     -453     -454     -472     -492     -513     -525 
    -526     -525     -534     -542     -527     -491     -452     -442 
    -480     -553     -639     -727     -810     -892     -974    -1055 
   -1136    -1212    -1269    -1298    -1310    -1316    -1331    -1364 
   -1410    -1448    -1466    -1445    -1394    -1352    -1332    -1328 
   -1347    -1377    -1382    -1359    -1332    -1318    -1341    -1404 
   -1467    -1490    -1468    -1420    -1372    -1362    -1390    -1418 
   -1417    -1383    -1337    -1312    -1309    -1312    -1294    -1236 
   -1139    -1043     -972     -924     -886     -830     -742     -648 
    -575     -526     -487     -440     -378     -309     -247     -209 
    -210     -236     -247     -221     -164     -103      -67      -58 
     -59      -48        1       81      147      176      167      130 
     103      116      149      167      141       66      -37     -126 
    -178     -194     -205     -244     -307     -368     -414     -437 
    -440     -440     -461     -503     -542     -564     -561     -541 
    -526     -525     -525     -521     -508     -484     -454     -434 
    -415     -386     -345     -295     -241     -195     -164     -148 
    -139     -125     -109     -103     -114     -136     -168     -207 
    -240     -259     -256     -244     -253     -310     -400     -488 
    -553     -584     -588     -587     -600     -638     -692     -743 
    -778     -793     -800     -815     -850     -901     -953     -980 
    -990    -1015    -1065    -1132    -1216    -1282    -1294    -1271 
   -1250    -1239    -1232    -1213    -1167    -1108    -1061    -1027 
    -989     -942     -895     -850     -819     -808     -799     -784 
    -780     -795     -816     -839     -862     -877     -896     -938 
    -989    -1020    -1024    -1008     -986     -973     -972     -977 
    -990    -1016    -1034    -1020     -999     -993     -992     -984 
    -963     -932     -901     -888     -907     -950     -984     -974 
    -936     -891     -839     -784     -733     -685     -639     -595 
    -560     -530     -506     -496     -495     -492     -484     -464 
    -437     -418     -426     -454     -480     -487     -467     -430 
    -388     -341     -294     -265     -245     -221     -198     -175 
    -148     -139     -153     -174     -180     -174     -167     -180 
    -224     -278     -307     -298     -260     -222     -213     -243 
    -303     -365     -399     -395     -373     -375     -413     -459 
    -486     -490     -479     -476     -496     -533     -576     -621 
    -652     -672     -695     -722     -747     -772     -799     -830 
    -866     -907     -946     -977     -986     -989     -996    -1007 
   -1023    -1039    -1035    -1003     -961     -919     -885     -859 
    -842     -832     -831     -832     -843     -861     -872     -881 
    -897     -911     -913     -922     -940     -954     -953     -949 
    -942     -936     -939     -949     -959     -966     -973     -989 
   -1019    -1050    -1069    -1081    -1085    -1062    -1019     -967 
    -908     -839     -766     -689     -619     -558     -507     -467 
    -423     -361     -287     -224     -179     -155     -135     -108 
     -78      -59      -52      -56      -59      -58      -59      -68 
     -79      -89     -103     -137     -194     -261     -322     -364 
    -392     -422     -457     -486     -503     -517     -527     -538 
    -564     -599     -626     -643     -668     -712     -765     -814 
    -858     -895     -920     -939     -955     -967     -973     -966 
    -946     -915     -876     -835     -803     -785     -777     -762 
    -733     -692     -646     -602     -556     -507     -463     -429 
    -402     -388     -386     -380     -360     -328     -294     -264 
    -251     -256     -270     -268     -259     -265     -297     -337 
    -376     -399     -391     -375     -378     -400     -436     -468 
    -490     -498     -507     -522     -535     -538     -530     -527 
    -544     -576     -615     -643     -661     -687     -724     -761 
    -801     -842     -866     -874     -880     -888     -905     -924 
    -930     -920     -916     -920     -926     -940     -965     -985 
    -992     -984     -963     -947     -935     -922     -911     -911 
    -912     -912     -907     -896     -882     -870     -849     -818 
    -785     -764     -754     -761     -778     -791     -793     -804 
    -826     -854     -880     -900     -912     -907     -891     -881 
    -880     -876     -864     -837     -797     -756     -716     -683 
    -661     -639     -595     -526     -456     -400     -361     -352 
    -361     -348     -301     -244     -203     -175     -152     -132 
    -112      -90      -78      -78      -97     -130     -164     -197 
    -232     -282     -344     -392     -426     -442     -442     -452 
    -487     -535     -572     -585     -583     -581     -596     -631 
    -675     -707     -724     -735     -749     -770     -791     -795 
    -781     -757     -733     -712     -702     -695     -677     -648 
