Origin Time       2025/01/13 21:19:00
Lat.              31.8
Long.             131.6
Depth. (km)       30
Mag.              6.9
Station Code      HRSH03
Station Lat.      34.5183
Station Long.     133.1375
Station Height(m) 160
Record Time       2025/01/13 21:20:33
Sampling Freq(Hz) 100Hz
Duration Time(s)  142
Dir.              6
Scale Factor      7845(gal)/8223790
Max. Acc. (gal)   1.288
Last Correction   2025/01/13 21:20:34
Memo.             
[...]
   19068    19028    18972    18912    18835    18773    18778    18854 
   18972    19084    19161    19241    19337    19399    19390    19290 
   19125    18939    18769    18657    18588    18539    18561    18657 
   18785    18933    19035    19008    18893    18766    18619    18466 
   18441    18573    18689    18704    18705    18743    18821    18945 
   19045    19063    19055    19051    19021    18944    18844    18814 
   18890    18962    19006    19117    19248    19283    19219    19113 
   19026    19041    19145    19240    19279    19251    19192    19171 
   19145    19060    18970    18897    18825    18797    18823    18874 
   18963    19084    19203    19334    19477    19546    19458    19249 
   19043    18906    18816    18767    18794    18878    18960    19017 
   19053    19080    19093    19062    19010    19016    19071    19086 
   19045    18967    18854    18771    18779    18831    18877    18944 
   19018    19057    19066    19028    18936    18836    18751    18701 
   18723    18797    18855    18839    18744    18657    18677    18821 
   19008    19107    19079    18987    18868    18751    18715    18759 
   18783    18735    18648    18624    18732    18895    19026    19107 
   19130    19093    19037    18983    18910    18831    18767    18750 
   18802    18854    18837    18793    18750    18711    18748    18882 
   18979    18997    19001    18999    19020    19107    19191    19218 
   19229    19232    19219    19202    19157    19105    19106    19144 
   19188    19256    19288    19253    19194    19105    19035    19052 
   19089    19101    19122    19125    19114    19140    19170    19161 
   19134    19125    19133    19118    19087    19117    19215    19260 
   19203    19129    19080    19016    18906    18798    18721    18658 
   18642    18709    18809    18867    18868    18854    18829    18787 
   18770    18782    18778    18756    18731    18709    18675    18632 
   18655    18758    18824    18804    18769    18743    18694    18644 
   18612    18584    18578    18625    18709    18783    18821    18835 
   18871    18962    19072    19140    19156    19129    19059    18966 
   18878    18809    18766    18770    18824    18863    18848    18846 
   18895    18921    18887    18852    18843    18890    19002    19103 
   19140    19159    19182    19155    19053    18939    18890    18912 
   18958    19016    19068    19047    18991    19001    19020    18985 
   18964    19016    19128    19202    19137    18979    18847    18801 
   18858    18949    18985    18994    19030    19044    19002    18989 
   19029    18998    18837    18686    18625    18600    18621    18719 
   18798    18851    18974    19140    19214    19168    19064    18943 
   18832    18778    18751    18692    18657    18715    18786    18785 
   18769    18816    18908    19003    19074    19086    19060    19024 
   18925    18759    18612    18532    18532    18600    18659    18650 
   18589    18516    18516    18621    18715    18704    18652    18665 
   18767    18893    18995    19107    19201    19246    19291    19350 
   19386    19396    19415    19392    19286    19197    19203    19257 
   19307    19348    19330    19252    19180    19117    19033    18972 
   18974    19016    19048    19068    19143    19242    19232    19101 
   18978    18902    18851    18866    18937    18976    19008    19102 
   19213    19267    19268    19229    19120    18936    18773    18729 
   18766    18817    18906    19064    19207    19241    19178    19055 
   18910    18806    18748    18732    18819    19006    19199    19298 
   19252    19114    18975    18829    18670    18547    18504    18535 
   18549    18497    18511    18652    18798    18878    18913    18904 
   18859    18835    18866    18867    18806    18781    18769    18733 
   18792    18931    19029    19075    19080    19035    18941    18823 
   18743    18733    18759    18810    18885    18985    19141    19299 
   19344    19245    19078    18972    18956    18956    18967    18970 
   18913    18859    18863    18867    18812    18735    18732    18829 
   18982    19148    19288    19379    19403    19300    19094    18970 
   19018    19095    19113    19111    19106    19075    19032    19014 
   19068    19199    19319    19336    19186    18870    18536    18354 
   18333    18423    18627    18894    19113    19199    19138    18978 
   18831    18783    18765    18675    18539    18432    18424    18531 
   18674    18810    18983    19217    19415    19418    19221    18971 
   18744    18582    18531    18546    18559    18576    18655    18790 
   18940    19098    19236    19291    19260    19175    19045    18856 
   18640    18519    18535    18615    18719    18806    18831    18893 
   19089    19327    19500    19545    19386    19074    18817    18746 
   18746    18670    18566    18550    18663    18914    19246    19538 
   19707    19758    19747    19631    19349    19066    18925    18820 
   18679    18581    18577    18729    19057    19403    19554    19467 
   19290    19161    19078    18983    18885    18828    18839    18914 
   18983    18944    18844    18833    18933    19063    19136    19094 
   18976    18902    18893    18886    18901    18978    19080    19152 
   19121    19008    18908    18829    18797    18889    19018    19022 
   18891    18724    18590    18528    18586    18766    18987    19199 
   19376    19461    19438    19321    19098    18823    18616    18528 
   18539    18675    18940    19226    19410    19437    19290    19029 
   18783    18597    18477    18527    18744    18954    19075    19209 
   19398    19538    19503    19272    18968    18744    18674    18721 
   18769    18810    18972    19252    19457    19449    19290    19118 
   18958    18727    18476    18400    18624    19057    19469    19668 
   19631    19433    19124    18787    18566    18565    18746    18918 
   18943    18882    18874    18937    19028    19133    19236    19234 
   19047    18728    18422    18284    18418    18733    19083    19336 
   19337    19079    18742    18496    18418    18453    18472    18424 
   18376    18450    18655    18810    18847    18855    18843    18810 
   18794    18740    18671    18760    19028    19268    19280    19068 
   18814    18659    18624    18675    18750    18847    18999    19106 
   19072    18963    18897    18898    18893    18824    18727    18640 
   18609    18701    18900    19107    19310    19539    19697    19603 
   19295    18999    18804    18692    18693    18785    18882    18933 
   18937    18932    18960    19062    19191    19195    18993    18729 
   18571    18511    18473    18478    18593    18754    18858    18910 
   18943    18974    19057    19183    19224    19093    18885    18779 
   18767    18760    18820    18958    19071    19175    19338    19480 
   19519    19516    19496    19410    19283    19179    19060    18875 
   18669    18522    18499    18611    18773    18885    18951    19032 
   19134    19180    19095    18924    18725    18573    18603    18828 
   19057    19151    19080    18901    18754    18762    18925    19159 
   19350    19368    19141    18804    18585    18605    18864    19219 
   19437    19494    19512    19449    19178    18770    18528    18638 
   18931    19188    19284    19175    18948    18640    18300    18164 
   18365    18766    19130    19257    19143    18932    18719    18530 
   18462    18593    18809    18914    18866    18742    18640    18654 
   18763    18902    19124    19359    19376    19149    18867    18670 
   18644    18823    19103    19325    19359    19184    18932    18794 
   18837    18989    19132    19207    19205    19152    19136    19151 
   19132    19138    19228    19306    19292    19199    19053    18827 
   18544    18368    18395    18590    18890    19191    19398    19494 
   19430    19148    18760    18504    18493    18605    18654    18648 
   18743    18982    19260    19468    19541    19444    19221    18979 
   18781    18650    18640    18765    18982    19217    19349    19325 
   19218    19098    18944    18709    18503    18511    18635    18677 
   18747    18949    19130    19240    19319    19279    19103    18929 
   18812    18715    18655    18711    18893    19120    19265    19192 
   18910    18661    18624    18706    18804    18873    18862    18802 
   18719    18546    18391    18515    18909    19237    19263    19097 
   18939    18848    18782    18719    18701    18758    18814    18805 
   18797    18859    18991    19153    19253    19299    19386    19408 
   19201    18860    18613    18543    18581    18651    18762    18906 
   19020    19053    19049    19106    19240    19305    19163    18883 
   18666    18592    18553    18517    18597    18792    19025    19253 
   19371    19310    19128    18900    18670    18459    18345    18436 
   18696    19012    19334    19588    19645    19445    19095    18801 
   18675    18651    18621    18585    18620    18777    18982    19083 
   19049    18994    19002    19021    18964    18866    18814    18836 
   18904    18966    18989    18987    18982    18956    18870    18704 
   18589    18759    19207    19612    19747    19697    19564    19334 
   19040    18727    18455    18365    18553    18927    19264    19460 
   19579    19596    19403    19089    18824    18609    18422    18358 
   18468    18694    19036    19444    19700    19660    19417    19156 
   18937    18709    18507    18420    18450    18601    18877    19161 
   19352    19460    19523    19481    19261    18981    18794    18702 
   18700    18810    18944    18963    18810    18619    18592    18743 
   18997    19300    19489    19454    19345    19246    19053    18786 
   18596    18528    18503    18453    18449    18546    18681    18875 
   19151    19341    19311    19172    19093    19051    18933    18728 
   18463    18249    18269    18538    18925    19311    19558    19604 
   19511    19333    19084    18789    18528    18409    18451    18625 
   18897    19184    19445    19646    19683    19538    19318    19017 
   18604    18272    18223    18415    18717    19080    19457    19745 
   19853    19723    19400    19075    18867    18677    18462    18372 
   18480    18724    19014    19282    19491    19606    19579    19402 
   19156    18971    18858    18750    18665    18643    18675    18767 
   18904    18964    18928    18952    19048    19036    18893    18760 
   18725    18804    18972    19164    19300    19340    19237    18910 
   18482    18306    18473    18715    18829    18874    18989    19143 
   19228    19283    19371    19471    19441    19138    18688    18334 
   18157    18158    18328    18620    19003    19332    19396    19238 
   19029    18864    18850    19037    19284    19372    19234    18952 
   18650    18447    18424    18608    19002    19480    19785    19782 
   19527    19105    18674    18484    18566    18748    18918    18921 
   18665    18407    18431    18628    18766    18908    19228    19606 
   19747    19556    19205    18894    18666    18536    18553    18725 
   19048    19368    19404    19133    18862    18859    19102    19336 
   19377    19278    19124    18954    18837    18762    18678    18717 
   18952    19168    19218    19178    19079    18910    18781    18817 
   18998    19252    19500    19600    19491    19217    18839    18482 
   18257    18172    18261    18528    18835    19014    19012    18906 
   18864    18983    19165    19187    18925    18477    18030    17799 
   17919    18289    18716    19075    19317    19449    19422    19180 
   18870    18647    18492    18405    18461    18712    19084    19349 
   19384    19283    19130    18972    18886    18863    18756    18501 
   18214    18052    18118    18431    18935    19460    19757    19711 
   19369    18840    18315    18022    18077    18411    18847    19226 
   19461    19573    19627    19570    19287    18878    18558    18401 
   18435    18634    18889    19174    19454    19629    19651    19526 
   19259    18908    18570    18343    18331    18570    18937    19202 
   19298    19319    19360    19460    19495    19325    19053    18823 
   18690    18742    18922    19037    19053    19043    19024    19107 
   19338    19523    19475    19222    18916    18661    18504    18528 
   18727    18858    18742    18584    18671    18958    19214    19364 
   19458    19487    19336    18932    18364    17905    17793    18004 
   18405    18882    19256    19387    19268    19008    18837    18920 
   19170    19368    19349    19124    18836    18609    18559    18717 
   18945    19149    19346    19499    19494    19269    18949    18638 
   18345    18238    18490    18967    19454    19777    19728    19321 
   18846    18557    18512    18624    18789    18895    18843    18673 
   18530    18513    18662    18914    19126    19201    19133    18972 
   18789    18627    18465    18322    18354    18686    19147    19422 
   19363    19060    18733    18509    18357    18314    18495    18819 
   18990    18870    18631    18499    18530    18681    18917    19213 
   19480    19523    19278    18908    18588    18497    18774    19178 
   19349    19263    19043    18709    18396    18414    18812    19215 
   19369    19387    19373    19332    19255    19097    18909    18836 
   18883    18931    18875    18711    18597    18777    19283    19876 
   20290    20298    19774    18990    18423    18256    18416    18790 
   19190    19438    19462    19305    19114    19072    19213    19360 
   19333    19156    18943    18752    18644    18616    18607    18675 
   18917    19248    19504    19539    19253    18798    18562    18724 
   19014    19149    19187    19171    19032    18877    18763    18632 
   18624    18871    19186    19417    19570    19473    19012    18468 
   18158    18172    18493    18920    19147    19155    19045    18789 
   18532    18544    18810    19078    19157    19075    18917    18701 
   18476    18296    18206    18334    18716    19147    19417    19444 
   19273    19062    18906    18806    18759    18693    18517    18337 
   18333    18562    18951    19406    19866    20133    20020    19662 
   19245    18813    18469    18310    18362    18619    18909    19094 
   19226    19323    19286    19079    18844    18762    18835    18921 
   18917    18778    18567    18441    18447    18584    18893    19268 
   19503    19508    19386    19334    19318    19161    18966    18860 
   18762    18617    18477    18420    18501    18704    18958    19205 
   19448    19658    19693    19471    19102    18728    18458    18387 
   18509    18685    18804    18922    19075    19194    19338    19499 
   19489    19377    19325    19184    18895    18647    18528    18504 
   18616    18901    19215    19441    19643    19795    19750    19484 
   19083    18694    18466    18463    18619    18778    18904    19048 
   19151    19157    19152    19159    19097    18974    18944    19024 
   19076    19016    18833    18647    18627    18773    18985    19170 
   19272    19271    19136    18918    18756    18729    18832    18975 
   19033    19013    18971    18886    18812    18864    18974    19043 
   19171    19330    19294    19045    18793    18657    18627    18679 
   18781    18885    18974    19014    18986    18960    19003    19084 
   19141    19140    19110    19125    19160    19111    18971    18824 
   18755    18705    18565    18501    18750    19116    19276    19290 
   19300    19197    18914    18612    18435    18451    18627    18823 
   18954    19029    19048    19022    18975    18928    18877    18777 
   18625    18524    18584    18729    18762    18692    18715    18859 
   19074    19299    19369    19242    19071    18963    18887    18769 
   18650    18593    18555    18554    18646    18778    18898    18964 
   18956    18985    19097    19174    19122    18905    18571    18331 
   18303    18405    18578    18855    19128    19151    18918    18693 
   18603    18624    18728    18848    18954    19056    19107    19068 
   18979    18956    19059    19164    19171    19138    19090    19002 
   18987    19141    19377    19557    19602    19498    19296    19049 
   18866    18905    19144    19394    19527    19456    19245    19130 
   19144    19129    19045    19003    19118    19336    19495    19511 
   19359    19062    18739    18505    18403    18436    18601    18847 
   19095    19367    19688    19905    19849    19561    19190    18805 
   18485    18364    18457    18678    18970    19215    19275    19224 
   19234    19283    19246    19138    19071    19059    18963    18742 
   18542    18461    18513    18736    19071    19373    19538    19527 
   19365    19087    18796    18646    18628    18666    18785    18924 
   18941    18866    18814    18782    18738    18767    18895    18994 
   19033    19078    19089    19036    18959    18878    18814    18804 
   18885    19005    19017    18947    18914    18882    18825    18767 
   18700    18681    18756    18871    18997    19157    19319    19394 
   19322    19121    18906    18817    18809    18742    18689    18790 
   18999    19197    19311    19314    19244    19213    19265    19300 
   19229    19107    19035    19017    19037    19094    19124    19089 
   19094    19113    18948    18694    18677    18927    19167    19229 
   19167    19095    19066    19074    19116    19141    19063    18873 
   18663    18565    18679    18901    19017    19041    19094    19107 
   18975    18765    18601    18509    18468    18465    18476    18594 
   18897    19156    19126    18831    18397    18018    17871    17995 
   18389    18951    19418    19626    19522    19078    18492    18111 
   18125    18480    18904    19110    19057    18897    18862    19051 
   19241    19246    19225    19283    19279    19103    18827    18582 
   18451    18490    18770    19224    19595    19608    19233    18773 
   18511    18446    18484    18576    18696    18860    19063    19179 
   19082    18839    18616    18474    18404    18442    18589    18763 
   18912    19020    19067    19062    19005    18910    18814    18717 
   18631    18621    18674    18735    18820    18925    19017    19110 
   19230    19338    19341    19190    18916    18617    18435    18477 
   18727    19040    19260    19353    19309    19098    18851    18715 
   18603    18436    18333    18372    18497    18613    18636    18569 
   18500    18513    18608    18713    18783    18850    18900    18827 
   18603    18369    18227    18156    18171    18315    18484    18553 
   18557    18581    18625    18690    18856    19116    19264    19143 
   18813    18500    18411    18523    18677    18786    18806    18759 
   18752    18814    18858    18836    18809    18798    18770    18742 
   18720    18708    18771    18890    18909    18825    18832    18975 
   19103    19121    19021    18866    18814    18890    18970    19040 
   19109    19155    19192    19179    19143    19171    19171    19113 
   19133    19191    19180    19138    19128    19252    19491    19604 
   19500    19302    19095    18922    18840    18887    19030    19136 
   19147    19186    19322    19460    19523    19521    19496    19481 
