Origin Time       2025/01/13 21:19:00
Lat.              31.8
Long.             131.6
Depth. (km)       30
Mag.              6.9
Station Code      HRSH14
Station Lat.      34.2090
Station Long.     132.4063
Station Height(m) -60
Record Time       2025/01/13 21:20:27
Sampling Freq(Hz) 100Hz
Duration Time(s)  138
Dir.              3
Scale Factor      2942(gal)/8224139
Max. Acc. (gal)   1.113
Last Correction   2025/01/13 21:20:27
Memo.             
[...]
  112068   112162   112284   112419   112542   112645   112720   112770 
  112815   112845   112862   112912   112970   112989   112995   113005 
  112985   112922   112846   112773   112684   112592   112523   112449 
  112337   112203   112062   111905   111739   111593   111488   111429 
  111399   111366   111327   111307   111323   111346   111343   111327 
  111330   111369   111434   111503   111570   111635   111716   111825 
  111928   112016   112101   112155   112185   112237   112306   112353 
  112387   112419   112445   112441   112407   112355   112282   112191 
  112106   112029   111944   111865   111798   111721   111632   111562 
  111522   111496   111458   111437   111469   111530   111582   111622 
  111650   111678   111716   111743   111755   111759   111762   111763 
  111778   111816   111859   111882   111890   111915   111960   112018 
  112095   112158   112162   112155   112197   112240   112245   112232 
  112230   112255   112298   112351   112433   112531   112607   112631 
  112596   112540   112498   112473   112484   112523   112554   112579 
  112617   112668   112722   112764   112772   112746   112708   112679 
  112661   112635   112571   112477   112410   112376   112317   112220 
  112145   112117   112118   112149   112178   112171   112160   112178 
  112210   112249   112287   112314   112332   112317   112282   112286 
  112330   112375   112383   112356   112359   112414   112467   112476 
  112459   112453   112473   112490   112475   112460   112488   112527 
  112511   112457   112438   112444   112428   112418   112445   112455 
  112422   112402   112414   112434   112452   112476   112515   112540 
  112518   112475   112453   112452   112441   112406   112372   112364 
  112379   112394   112390   112368   112364   112409   112469   112503 
  112507   112494   112464   112433   112438   112479   112491   112440 
  112342   112230   112149   112145   112197   112234   112222   112174 
  112132   112098   112036   111928   111808   111705   111600   111489 
  111424   111446   111520   111604   111662   111651   111573   111478 
  111407   111393   111451   111539   111611   111662   111682   111685 
  111699   111713   111701   111667   111615   111539   111472   111445 
  111427   111387   111337   111307   111322   111369   111422   111456 
  111431   111362   111312   111307   111327   111358   111388   111407 
  111418   111437   111493   111578   111649   111690   111719   111742 
  111754   111758   111773   111788   111798   111820   111819   111775 
  111709   111635   111591   111585   111562   111532   111535   111534 
  111515   111523   111570   111630   111676   111726   111829   111948 
  112008   112045   112109   112166   112186   112171   112158   112185 
  112233   112256   112237   112203   112185   112179   112159   112091 
  111993   111915   111873   111835   111758   111635   111510   111402 
  111298   111211   111152   111088   111021   110965   110909   110864 
  110859   110856   110824   110797   110801   110808   110798   110764 
  110698   110625   110594   110623   110713   110839   110938   111021 
  111110   111149   111111   111071   111064   111076   111107   111144 
  111190   111249   111292   111310   111333   111353   111366   111418 
  111484   111518   111522   111522   111546   111604   111673   111761 
  111875   111966   111996   112013   112081   112163   112186   112152 
  112155   112240   112337   112380   112368   112338   112328   112325 
  112299   112270   112245   112239   112256   112274   112267   112248 
  112226   112209   112201   112198   112194   112201   112193   112131 
  112059   112063   112122   112147   112118   112083   112058   112021 
  111974   111928   111886   111856   111858   111885   111892   111848 
  111771   111717   111711   111700   111640   111568   111514   111477 
  111443   111399   111330   111217   111076   110965   110922   110924 
  110933   110941   110963   111024   111105   111175   111254   111348 
  111427   111520   111639   111735   111811   111881   111923   111963 
  112043   112155   112280   112384   112442   112503   112608   112706 
  112762   112797   112815   112830   112876   112935   112977   113005 
  113028   113077   113166   113250   113297   113323   113350   113375 
  113393   113431   113503   113574   113629   113690   113732   113744 
  113737   113715   113706   113717   113703   113664   113622   113563 
  113495   113439   113368   113275   113182   113085   112992   112942 
  112911   112838   112747   112676   112608   112541   112487   112438 
  112375   112280   112176   112098   112063   112066   112064   112044 
  112036   112055   112091   112143   112199   112248   112293   112347 
  112405   112459   112504   112521   112519   112545   112572   112558 
  112536   112507   112444   112375   112325   112261   112156   112017 
  111854   111692   111561   111457   111362   111287   111221   111125 
  111006   110921   110871   110821   110794   110790   110767   110728 
  110689   110655   110636   110651   110724   110841   110948   111030 
  111092   111118   111115   111082   111015   110956   110934   110925 
  110898   110864   110864   110909   110955   110964   110965   110994 
  111033   111075   111121   111153   111179   111242   111356   111462 
  111539   111626   111731   111844   111956   112058   112162   112272 
  112394   112513   112577   112600   112649   112714   112774   112855 
  112941   113009   113080   113136   113179   113235   113292   113350 
  113421   113489   113535   113548   113528   113517   113533   113524 
  113458   113368   113273   113143   112976   112818   112695   112581 
  112472   112374   112263   112137   112023   111927   111848   111770 
  111670   111566   111474   111385   111308   111238   111152   111060 
  110984   110907   110817   110740   110686   110629   110551   110471 
  110443   110481   110521   110538   110546   110550   110579   110664 
  110766   110860   110964   111080   111214   111372   111531   111669 
  111780   111877   111977   112098   112243   112387   112529   112675 
  112792   112873   112942   112996   113054   113130   113188   113198 
  113186   113174   113147   113096   113036   113011   113036   113069 
  113062   113038   113042   113063   113042   112974   112909   112865 
  112810   112719   112600   112504   112464   112452   112455   112465 
  112460   112448   112428   112369   112280   112191   112124   112098 
  112108   112108   112072   112025   111978   111929   111902   111883 
  111832   111766   111719   111681   111643   111605   111566   111528 
  111480   111424   111381   111338   111279   111218   111149   111080 
  111060   111075   111068   111037   111029   111063   111115   111176 
  111245   111312   111392   111505   111640   111769   111877   111967 
  112060   112144   112203   112270   112349   112411   112463   112526 
  112614   112712   112799   112877   112941   112976   112997   113024 
  113058   113094   113128   113159   113178   113179   113177   113205 
  113283   113389   113475   113520   113533   113521   113489   113441 
  113364   113267   113198   113144   113071   113007   112969   112927 
  112858   112764   112648   112515   112401   112325   112249   112158 
  112083   112025   111974   111933   111893   111855   111823   111754 
  111646   111543   111442   111323   111226   111180   111150   111130 
  111129   111133   111117   111046   110936   110863   110849   110849 
  110835   110798   110747   110700   110675   110687   110714   110695 
  110632   110567   110532   110540   110575   110597   110602   110602 
  110606   110644   110710   110751   110759   110776   110822   110878 
  110936   111010   111109   111215   111331   111488   111674   111840 
  111963   112066   112167   112259   112328   112363   112379   112414 
  112465   112513   112564   112625   112668   112683   112702   112753 
  112827   112895   112953   112997   113031   113063   113096   113120 
  113132   113134   113166   113254   113341   113381   113397   113417 
  113440   113479   113536   113598   113664   113724   113757   113795 
  113826   113829   113833   113837   113796   113725   113653   113580 
  113501   113405   113287   113155   113011   112861   112726   112619 
  112523   112421   112293   112129   111956   111809   111682   111558 
  111435   111311   111188   111059   110906   110741   110601   110500 
  110435   110377   110300   110214   110147   110127   110137   110154 
  110176   110208   110243   110274   110327   110401   110462   110533 
  110637   110756   110862   110937   111003   111083   111171   111248 
  111319   111391   111445   111454   111420   111384   111373   111375 
  111377   111380   111366   111335   111296   111241   111172   111113 
  111078   111046   110984   110905   110844   110801   110778   110795 
  110840   110894   110967   111059   111152   111237   111325   111416 
  111495   111564   111635   111727   111856   112008   112159   112313 
  112473   112621   112747   112841   112878   112876   112860   112824 
  112773   112742   112734   112722   112704   112687   112662   112623 
  112585   112557   112513   112457   112413   112376   112356   112363 
  112403   112476   112572   112688   112795   112860   112901   112930 
  112930   112927   112936   112949   112950   112931   112901   112876 
  112845   112781   112676   112558   112459   112360   112247   112118 
  111991   111886   111802   111721   111642   111586   111561   111538 
  111518   111523   111554   111591   111636   111689   111721   111727 
  111713   111682   111639   111592   111555   111539   111518   111484 
  111472   111497   111520   111503   111435   111346   111285   111268 
  111281   111335   111404   111443   111466   111492   111501   111516 
  111566   111639   111728   111838   111959   112098   112243   112372 
  112486   112606   112734   112850   112918   112955   113005   113044 
  113050   113051   113063   113066   113062   113067   113061   113004 
  112915   112846   112791   112722   112638   112527   112405   112320 
  112279   112245   112195   112131   112082   112056   112032   112004 
  111989   111996   111998   111964   111921   111915   111913   111888 
  111856   111840   111821   111784   111731   111699   111699   111693 
  111655   111597   111545   111510   111477   111438   111385   111323 
  111264   111221   111191   111153   111088   110991   110871   110755 
  110652   110562   110500   110446   110369   110272   110155   110039 
  109956   109899   109849   109807   109783   109798   109849   109900 
  109944   109996   110068   110161   110269   110381   110509   110671 
  110863   111065   111272   111478   111682   111894   112105   112282 
  112421   112553   112707   112869   113044   113233   113395   113513 
  113597   113665   113749   113852   113922   113931   113915   113910 
  113915   113926   113940   113938   113919   113911   113906   113892 
  113887   113884   113871   113863   113869   113894   113944   114002 
  114033   114016   113962   113900   113829   113734   113624   113495 
  113346   113212   113097   112955   112770   112573   112378   112199 
  112075   112013   111982   111958   111935   111890   111813   111732 
  111682   111663   111670   111690   111700   111699   111704   111724 
  111757   111792   111827   111855   111888   111959   112059   112141 
  112209   112266   112297   112305   112299   112288   112260   112212 
  112174   112162   112143   112094   112040   111993   111956   111924 
  111893   111865   111819   111731   111626   111526   111423   111316 
  111218   111127   111033   110916   110770   110632   110515   110404 
  110307   110243   110207   110178   110142   110103   110080   110074 
  110068   110050   110023   110015   110045   110087   110134   110207 
  110286   110365   110452   110546   110644   110752   110871   111019 
  111198   111391   111595   111802   112008   112214   112421   112634 
  112853   113062   113250   113414   113575   113759   113950   114103 
  114215   114327   114442   114515   114550   114561   114532   114462 
  114359   114220   114039   113825   113603   113378   113127   112873 
  112658   112480   112326   112190   112063   111956   111873   111794 
  111719   111642   111566   111504   111454   111412   111383   111372 
  111379   111377   111369   111379   111399   111408   111420   111441 
  111453   111462   111470   111465   111465   111476   111470   111458 
  111462   111462   111458   111481   111545   111643   111748   111838 
  111910   111969   112027   112110   112201   112280   112345   112398 
  112453   112510   112545   112553   112554   112560   112548   112513 
  112487   112488   112490   112482   112484   112472   112430   112390 
  112360   112311   112253   112213   112179   112153   112137   112120 
  112109   112095   112054   111990   111913   111828   111761   111723 
  111711   111705   111701   111716   111769   111852   111958   112075 
  112185   112278   112368   112471   112580   112679   112772   112862 
  112934   112977   113007   113038   113074   113108   113142   113171 
  113196   113220   113250   113293   113355   113416   113455   113474 
  113475   113470   113471   113451   113381   113282   113181   113084 
  112995   112916   112824   112685   112499   112294   112082   111855 
  111615   111379   111150   110907   110664   110452   110263   110076 
  109887   109701   109517   109354   109215   109093   109000   108940 
  108903   108881   108889   108940   109036   109154   109282   109440 
  109637   109864   110103   110347   110596   110845   111086   111316 
  111549   111782   112006   112209   112395   112584   112770   112941 
  113109   113282   113432   113560   113672   113748   113800   113861 
  113906   113910   113894   113871   113849   113826   113798   113764 
  113722   113675   113634   113606   113586   113564   113537   113518 
  113506   113494   113494   113505   113491   113452   113390   113290 
  113155   113019   112895   112779   112658   112523   112388   112267 
  112149   112014   111855   111692   111527   111361   111198   111037 
  110884   110747   110620   110490   110377   110312   110282   110269 
  110269   110265   110246   110235   110250   110286   110339   110412 
  110504   110604   110716   110843   110972   111098   111225   111353 
  111472   111588   111724   111870   112000   112106   112210   112317 
  112414   112507   112614   112715   112800   112876   112924   112939 
  112934   112904   112854   112799   112752   112708   112661   112618 
  112604   112611   112627   112654   112681   112696   112695   112677 
  112646   112602   112548   112513   112496   112469   112438   112428 
  112413   112376   112333   112287   112240   112195   112153   112120 
  112090   112063   112043   112035   112036   112040   112033   112017 
  112005   112005   112010   112014   112006   111986   111963   111932 
  111885   111809   111713   111628   111565   111504   111439   111357 
  111249   111153   111084   111005   110906   110816   110740   110677 
  110616   110560   110535   110550   110600   110660   110712   110771 
  110866   110995   111156   111341   111551   111770   111979   112194 
  112423   112665   112904   113121   113310   113486   113649   113783 
  113877   113929   113930   113896   113838   113755   113657   113570 
  113503   113431   113333   113225   113101   112950   112789   112631 
  112467   112299   112136   111978   111836   111715   111608   111515 
  111438   111380   111348   111348   111370   111410   111464   111537 
  111635   111758   111894   112048   112218   112374   112498   112599 
  112689   112779   112864   112938   112993   113027   113050   113085 
  113128   113167   113200   113213   113189   113142   113082   113001 
  112899   112776   112630   112463   112278   112081   111871   111651 
  111415   111159   110898   110644   110397   110162   109942   109738 
  109561   109401   109248   109117   109013   108938   108899   108886 
  108895   108924   108978   109057   109147   109248   109363   109485 
  109617   109763   109919   110074   110204   110313   110428   110554 
  110681   110817   110975   111145   111306   111447   111574   111699 
  111823   111944   112071   112195   112298   112390   112473   112538 
  112607   112683   112750   112831   112931   113035   113142   113240 
  113308   113348   113377   113397   113412   113414   113381   113314 
  113247   113185   113104   113003   112888   112761   112619   112468 
  112306   112136   111970   111828   111707   111592   111492   111431 
  111403   111391   111396   111430   111491   111572   111672   111771 
  111862   111959   112079   112212   112337   112446   112546   112650 
  112764   112870   112970   113066   113152   113224   113285   113321 
  113333   113331   113324   113324   113325   113317   113290   113250 
  113205   113162   113112   113054   112995   112926   112839   112760 
  112684   112599   112519   112455   112388   112324   112267   112216 
  112164   112120   112101   112109   112131   112147   112148   112156 
  112185   112221   112247   112255   112240   112203   112155   112099 
  112024   111937   111858   111771   111672   111569   111465   111365 
  111287   111230   111179   111129   111082   111051   111036   111032 
  111038   111052   111063   111071   111090   111123   111157   111195 
  111249   111314   111381   111462   111538   111589   111630   111678 
  111730   111774   111804   111824   111851   111881   111896   111897 
  111888   111875   111874   111878   111869   111844   111824   111821 
  111831   111850   111890   111952   112025   112102   112186   112270 
  112341   112403   112476   112560   112627   112676   112727   112766 
  112780   112769   112719   112638   112558   112477   112378   112243 
  112081   111916   111761   111608   111456   111299   111141   110994 
  110872   110766   110659   110563   110482   110423   110378   110336 
  110304   110304   110330   110366   110417   110489   110570   110663 
  110767   110874   110976   111079   111180   111281   111379   111460 
  111532   111620   111712   111790   111859   111933   112002   112058 
  112106   112160   112226   112306   112395   112486   112577   112656 
  112720   112779   112819   112841   112862   112880   112888   112892 
  112877   112833   112779   112727   112666   112600   112546   112487 
  112407   112332   112249   112144   112045   111974   111916   111869 
  111832   111792   111748   111708   111672   111638   111618   111599 
  111572   111565   111580   111589   111599   111611   111618   111620 
  111615   111603   111589   111582   111588   111603   111619   111647 
  111685   111724   111767   111815   111856   111893   111942   112001 
  112055   112098   112137   112172   112198   112232   112287   112345 
  112382   112407   112436   112468   112507   112549   112591   112627 
  112661   112699   112738   112773   112810   112842   112862   112877 
  112893   112905   112919   112932   112932   112928   112926   112905 
  112860   112803   112729   112631   112530   112425   112307   112185 
  112062   111933   111807   111674   111538   111410   111283   111152 
  111019   110883   110759   110654   110562   110485   110432   110390 
  110354   110331   110319   110315   110316   110317   110324   110339 
