Origin Time       2025/01/13 21:19:00
Lat.              31.8
Long.             131.6
Depth. (km)       30
Mag.              6.9
Station Code      HRSH13
Station Lat.      34.4122
Station Long.     132.3907
Station Height(m) -50
Record Time       2025/01/13 21:20:27
Sampling Freq(Hz) 100Hz
Duration Time(s)  125
Dir.              1
Scale Factor      2942(gal)/8224139
Max. Acc. (gal)   1.232
Last Correction   2025/01/13 21:20:27
Memo.             
[...]
   48971    48892    48810    48807    48845    48847    48864    48868 
   48870    48936    48917    48851    48907    48946    48913    48949 
   48983    48938    48957    48996    48924    48898    48942    48891 
   48887    49022    49100    49100    49142    49210    49273    49334 
   49389    49469    49551    49584    49573    49557    49573    49597 
   49621    49698    49785    49829    49839    49798    49789    49782 
   49686    49640    49678    49665    49604    49536    49518    49600 
   49685    49648    49603    49640    49643    49562    49470    49410 
   49347    49233    49114    49000    48907    48874    48849    48871 
   48942    48980    48990    48991    48960    48897    48857    48882 
   48925    48969    49023    49052    49050    48994    48906    48934 
   49073    49137    49100    49075    49033    48996    49045    49123 
   49192    49239    49208    49133    49068    49010    48968    48957 
   48940    48875    48824    48810    48768    48740    48740    48674 
   48635    48709    48789    48843    48933    49029    49054    49005 
   48948    48898    48859    48843    48803    48799    48907    49017 
   49095    49207    49261    49270    49372    49485    49519    49508 
   49486    49497    49446    49246    49076    49060    49103    49117 
   49127    49203    49284    49258    49234    49284    49270    49249 
   49289    49254    49172    49130    49065    48979    48910    48899 
   48956    48998    49025    49064    49064    49091    49158    49168 
   49157    49180    49200    49162    49081    49030    48972    48903 
   48937    49027    49054    49060    49068    49010    48964    49068 
   49208    49297    49372    49378    49334    49310    49266    49160 
   49072    49096    49142    49142    49161    49156    49095    49009 
   48933    48949    49002    49006    49009    48969    48870    48806 
   48790    48760    48706    48643    48635    48737    48848    48899 
   49007    49080    48994    48996    49138    49140    49015    48915 
   48787    48668    48708    48798    48829    48872    48921    48967 
   49014    49071    49188    49256    49167    49046    49041    49102 
   49075    48991    49003    49050    49052    49102    49179    49161 
   49117    49117    49102    49077    49038    48957    48884    48809 
   48752    48791    48851    48847    48844    48917    49014    49067 
   49134    49254    49296    49216    49161    49167    49184    49241 
   49258    49175    49103    49102    49138    49218    49322    49412 
   49422    49356    49362    49392    49337    49303    49335    49401 
   49485    49522    49496    49437    49411    49457    49474    49441 
   49426    49408    49387    49366    49307    49257    49273    49266 
   49233    49288    49342    49304    49283    49273    49214    49129 
   49092    49153    49196    49171    49204    49269    49307    49373 
   49385    49295    49249    49270    49283    49269    49235    49210 
   49176    49103    49025    48964    48903    48830    48797    48816 
   48836    48891    48976    49013    49014    49014    49041    49096 
   49141    49141    49092    49054    49022    48951    48913    48905 
   48855    48837    48884    48936    49000    49083    49140    49134 
   49118    49135    49092    49034    49046    49042    49022    48996 
   48932    48937    48973    48906    48830    48807    48737    48659 
   48649    48640    48649    48753    48837    48820    48793    48730 
   48624    48632    48776    48905    48948    48963    48930    48814 
   48687    48625    48660    48764    48816    48834    48929    48995 
   48953    48978    49067    49013    48888    48902    49005    49052 
   49009    48934    48888    48820    48703    48645    48697    48744 
   48702    48663    48636    48532    48450    48466    48490    48523 
   48564    48570    48601    48663    48670    48654    48694    48774 
   48810    48828    48919    49049    49204    49407    49531    49520 
   49503    49535    49590    49655    49712    49736    49713    49627 
   49534    49535    49588    49608    49658    49746    49813    49893 
   49935    49881    49800    49781    49817    49809    49797    49842 
   49783    49624    49565    49555    49505    49516    49588    49608 
   49601    49640    49705    49773    49806    49731    49608    49513 
   49447    49432    49368    49221    49156    49167    49148    49165 
   49234    49249    49204    49203    49254    49249    49160    49057 
   48990    48944    48859    48762    48720    48703    48737    48764 
   48694    48668    48705    48686    48682    48678    48582    48425 
   48280    48197    48172    48149    48101    48085    48101    48055 
   47968    47922    47918    47943    47974    48004    48045    48041 
   48015    48058    48128    48134    48065    48016    48047    48118 
   48217    48276    48247    48269    48370    48486    48624    48724 
   48753    48790    48807    48756    48739    48775    48772    48795 
   48892    49000    49142    49284    49339    49400    49527    49611 
   49678    49812    49851    49773    49742    49707    49689    49786 
   49828    49809    49910    50022    50022    50008    49981    49925 
   49986    50075    50045    50047    50079    50017    49978    49981 
   49956    49936    49905    49844    49783    49723    49659    49597 
   49540    49461    49392    49356    49306    49324    49403    49411 
   49380    49395    49454    49492    49491    49496    49500    49484 
   49415    49308    49248    49179    49092    49075    49071    49061 
   49119    49173    49161    49134    49108    49138    49254    49342 
   49300    49250    49293    49281    49165    49048    48918    48838 
   48822    48743    48620    48536    48497    48494    48492    48423 
   48370    48443    48489    48458    48512    48548    48467    48428 
   48469    48482    48470    48529    48697    48849    48884    48891 
   48932    48969    49033    49134    49208    49266    49354    49419 
   49465    49540    49573    49535    49480    49411    49354    49299 
   49248    49265    49323    49387    49423    49376    49357    49443 
   49469    49364    49283    49280    49239    49177    49175    49179 
   49152    49102    49013    48926    48922    49002    49103    49167 
   49222    49292    49310    49300    49310    49260    49164    49106 
   49040    48960    48957    48961    48887    48847    48864    48864 
   48892    48890    48795    48753    48772    48760    48789    48811 
   48797    48849    48859    48767    48698    48632    48620    48710 
   48721    48668    48716    48861    49040    49200    49323    49416 
   49491    49505    49403    49356    49423    49404    49333    49292 
   49214    49150    49125    49108    49168    49192    49068    48959 
   48946    48899    48829    48790    48682    48537    48509    48523 
   48412    48235    48132    48105    48085    48054    48055    48126 
   48141    48073    48109    48184    48193    48288    48462    48613 
   48728    48797    48871    48991    49110    49218    49351    49438 
   49437    49473    49519    49488    49504    49563    49599    49648 
   49657    49659    49725    49774    49828    49877    49793    49646 
   49565    49492    49335    49176    49108    49025    48878    48825 
   48849    48753    48632    48609    48493    48323    48316    48366 
   48379    48402    48373    48336    48388    48439    48489    48560 
   48541    48517    48617    48744    48860    48975    49029    49061 
   49104    49161    49235    49280    49264    49168    49072    49118 
   49222    49241    49273    49357    49345    49297    49319    49250 
   49110    49044    49000    48982    48949    48847    48783    48725 
   48659    48729    48848    48880    48901    48914    48898    48905 
   48856    48741    48716    48701    48614    48637    48768    48789 
   48683    48648    48768    48960    49149    49253    49283    49320 
   49338    49324    49320    49285    49208    49160    49172    49229 
   49261    49241    49260    49319    49403    49518    49565    49569 
   49631    49689    49689    49651    49627    49643    49597    49474 
   49446    49549    49621    49666    49759    49762    49701    49742 
   49762    49774    49900    49978    49986    50059    50141    50199 
   50249    50236    50197    50153    50122    50167    50188    50091 
   49972    49917    49881    49808    49724    49690    49682    49636 
   49542    49400    49246    49138    49054    48971    48930    48919 
   48880    48776    48670    48606    48508    48409    48344    48228 
   48084    47987    47915    47810    47709    47655    47601    47580 
   47644    47709    47719    47722    47695    47646    47746    47906 
   47937    48045    48289    48436    48513    48600    48648    48671 
   48667    48654    48668    48676    48693    48782    48902    48944 
   48915    48880    48864    48911    48945    48907    48933    48983 
   48924    48844    48805    48763    48763    48833    48905    48928 
   48980    49184    49407    49449    49462    49574    49634    49677 
   49794    49864    49866    49862    49824    49790    49804    49870 
   50001    50152    50267    50315    50369    50499    50542    50484 
   50558    50716    50761    50754    50755    50731    50723    50722 
   50637    50522    50481    50510    50585    50626    50537    50409 
   50349    50276    50141    50043    49958    49793    49616    49511 
   49445    49399    49342    49171    48967    48864    48733    48552 
   48459    48374    48189    48034    47961    47875    47815    47799 
   47709    47629    47665    47673    47640    47704    47791    47817 
   47903    48033    48100    48134    48109    48078    48154    48184 
   48093    48087    48173    48208    48212    48246    48261    48262 
   48320    48382    48377    48324    48285    48284    48244    48190 
   48223    48262    48244    48258    48331    48406    48460    48458 
   48366    48267    48219    48226    48244    48159    48058    48096 
   48180    48249    48366    48485    48575    48690    48852    49046 
   49225    49370    49499    49608    49708    49769    49810    49878 
   49936    49982    50056    50132    50125    50067    50055    50006 
   49883    49820    49794    49693    49574    49532    49518    49439 
   49320    49242    49162    48994    48833    48774    48686    48536 
   48424    48336    48361    48482    48520    48543    48625    48691 
   48810    48965    48991    48973    49069    49196    49245    49324 
   49496    49594    49577    49549    49534    49549    49600    49638 
   49661    49626    49520    49478    49503    49446    49358    49354 
   49381    49339    49227    49180    49207    49187    49172    49165 
   49068    48991    48949    48849    48778    48747    48675    48574 
   48481    48470    48533    48536    48520    48608    48687    48695 
   48774    48879    48911    48968    49033    49044    49076    49121 
   49130    49114    49111    49172    49261    49356    49445    49470 
   49539    49704    49783    49797    49866    49932    49979    50044 
   50086    50043    49962    49935    49917    49867    49840    49790 
   49674    49569    49477    49374    49323    49288    49225    49176 
   49145    49096    49042    49088    49154    49099    49072    49059 
   48949    48907    48876    48720    48612    48602    48605    48614 
   48598    48555    48485    48351    48199    48076    47966    47880 
   47841    47738    47555    47471    47440    47318    47260    47356 
   47479    47545    47609    47763    47991    48139    48195    48289 
   48415    48583    48820    49040    49270    49515    49704    49917 
   50140    50296    50475    50676    50808    50923    51032    51089 
   51144    51175    51173    51190    51167    51098    51052    50982 
   50850    50719    50615    50481    50348    50229    50040    49832 
   49675    49477    49285    49207    49107    48913    48762    48679 
   48562    48469    48458    48415    48379    48389    48312    48204 
   48176    48192    48300    48485    48577    48624    48764    48891 
   48940    48992    49102    49265    49368    49369    49362    49356 
   49350    49349    49350    49378    49365    49361    49411    49380 
   49293    49227    49144    49095    49077    49021    48979    48940 
   48859    48759    48683    48633    48501    48332    48323    48406 
   48420    48386    48389    48450    48554    48678    48784    48906 
   49063    49164    49219    49291    49333    49296    49229    49216 
   49234    49208    49158    49069    48932    48836    48782    48720 
   48659    48567    48469    48390    48269    48132    48024    47914 
   47827    47775    47704    47652    47636    47586    47569    47590 
   47529    47541    47683    47748    47802    47929    48012    48088 
   48236    48397    48544    48729    48870    48880    48888    48915 
   48909    48998    49149    49269    49396    49447    49457    49526 
   49555    49547    49553    49511    49472    49486    49451    49369 
   49319    49281    49250    49249    49248    49256    49269    49237 
   49164    49099    49048    48995    48932    48886    48879    48888 
   48909    48988    49157    49387    49613    49805    49968    50109 
   50261    50429    50606    50805    50994    51124    51197    51302 
   51479    51652    51794    51896    51983    52099    52211    52327 
   52462    52537    52536    52543    52567    52532    52458    52402 
   52288    52165    52105    51948    51769    51707    51584    51440 
   51322    51116    50897    50708    50468    50221    50025    49823 
   49553    49256    48982    48726    48463    48177    47941    47733 
   47456    47205    47021    46822    46678    46572    46426    46346 
   46279    46110    46018    46009    45914    45893    45940    45854 
   45800    45878    45924    45941    45993    46056    46114    46134 
   46167    46302    46431    46483    46584    46730    46807    46876 
   47029    47212    47355    47483    47596    47714    47883    48031 
   48116    48208    48300    48300    48244    48238    48258    48269 
   48321    48408    48498    48608    48725    48801    48817    48805 
   48817    48843    48860    48899    48967    49056    49157    49246 
   49373    49523    49631    49779    49958    50086    50244    50390 
   50480    50614    50739    50835    50965    51088    51193    51318 
   51441    51472    51464    51540    51599    51592    51606    51588 
   51495    51379    51263    51190    51193    51178    51125    51106 
   51069    50971    50842    50687    50527    50350    50163    49994 
   49775    49563    49408    49206    49037    48973    48843    48635 
   48521    48498    48451    48342    48212    48155    48159    48141 
   48147    48186    48208    48273    48367    48455    48610    48770 
   48829    48851    48944    49072    49134    49196    49306    49372 
   49403    49488    49604    49624    49589    49646    49697    49666 
   49673    49689    49603    49489    49462    49451    49351    49203 
   49099    49071    49041    48915    48774    48717    48632    48462 
   48273    48082    47934    47822    47753    47765    47764    47714 
   47698    47695    47713    47800    47887    47952    48049    48172 
   48281    48340    48366    48394    48428    48459    48452    48443 
   48482    48516    48539    48547    48513    48539    48620    48682 
   48802    48940    49003    49090    49191    49258    49385    49554 
   49673    49765    49863    49989    50103    50161    50210    50269 
   50344    50383    50365    50369    50371    50352    50350    50314 
   50229    50178    50143    50072    50009    49960    49897    49835 
   49762    49712    49711    49642    49507    49450    49416    49293 
   49164    49079    48996    48914    48787    48629    48501    48359 
   48251    48273    48303    48249    48174    48103    48016    47933 
   47871    47818    47756    47723    47744    47734    47659    47594 
   47572    47556    47563    47583    47567    47575    47673    47764 
   47811    47943    48115    48189    48277    48454    48616    48722 
   48807    48917    49069    49171    49191    49256    49364    49428 
   49500    49572    49586    49636    49728    49740    49712    49729 
   49777    49813    49796    49782    49828    49859    49863    49851 
   49798    49752    49665    49516    49418    49347    49261    49183 
   49059    48944    48888    48767    48581    48427    48276    48116 
   47964    47818    47706    47649    47605    47553    47536    47538 
   47551    47594    47640    47656    47673    47731    47790    47806 
   47822    47900    48008    48068    48123    48215    48288    48381 
   48498    48567    48679    48861    48994    49087    49223    49396 
   49569    49740    49917    50083    50172    50194    50255    50375 
   50502    50591    50616    50656    50691    50625    50544    50484 
   50341    50163    50055    49941    49777    49620    49443    49211 
   48999    48806    48573    48343    48162    48008    47889    47804 
   47713    47602    47513    47432    47336    47316    47329    47305 
   47368    47478    47470    47491    47652    47802    47942    48157 
   48377    48520    48625    48783    48984    49196    49384    49476 
   49539    49684    49836    49913    49982    50072    50130    50186 
   50253    50283    50279    50290    50306    50260    50187    50171 
   50139    50066    50056    50079    50021    49936    49904    49860 
   49820    49839    49847    49820    49820    49836    49815    49806 
   49848    49871    49916    50016    50055    50068    50097    50045 
   49974    49941    49879    49771    49634    49504    49404    49299 
   49184    49049    48880    48735    48631    48554    48473    48370 
   48305    48246    48159    48142    48141    48087    48085    48103 
   48091    48134    48204    48223    48230    48281    48367    48455 
   48512    48586    48736    48870    48930    49046    49246    49378 
   49469    49605    49715    49833    50028    50194    50305    50400 
   50485    50550    50593    50633    50592    50444    50329    50264 
   50155    50004    49882    49750    49594    49522    49419    49221 
   49106    49030    48879    48718    48589    48512    48467    48352 
   48234    48199    48120    48008    47958    47884    47800    47757 
   47721    47736    47768    47785    47858    47926    47920    47950 
   48055    48126    48153    48223    48298    48365    48502    48605 
   48585    48624    48724    48740    48744    48759    48775    48836 
   48860    48817    48766    48694    48620    48575    48528    48501 
   48508    48465    48396    48373    48351    48315    48263    48174 
   48141    48168    48168    48200    48259    48309    48415    48525 
   48610    48726    48837    48949    49092    49245    49414    49577 
   49708    49813    49923    50031    50114    50191    50249    50278 
   50295    50280    50249    50237    50230    50224    50240    50265 
   50267    50256    50237    50214    50203    50157    50051    49906 
   49770    49685    49613    49505    49381    49281    49226    49195 
   49162    49131    49088    49022    48982    48986    48969    48959 
