Origin Time       2025/01/13 21:19:00
Lat.              31.8
Long.             131.6
Depth. (km)       30
Mag.              6.9
Station Code      HRSH17
Station Lat.      34.5716
Station Long.     132.2326
Station Height(m) 163
Record Time       2025/01/13 21:20:25
Sampling Freq(Hz) 100Hz
Duration Time(s)  138
Dir.              2
Scale Factor      2942(gal)/8224139
Max. Acc. (gal)   1.031
Last Correction   2025/01/13 21:20:26
Memo.             
[...]
  274888   274815   274757   274707   274645   274575   274517   274469 
  274437   274432   274433   274419   274371   274287   274187   274104 
  274052   274043   274060   274083   274099   274105   274104   274101 
  274093   274085   274078   274060   274020   273963   273913   273879 
  273856   273834   273812   273804   273816   273829   273829   273827 
  273816   273793   273785   273812   273862   273905   273912   273893 
  273892   273921   273959   273998   274051   274113   274178   274247 
  274328   274415   274499   274553   274567   274561   274544   274513 
  274492   274487   274514   274587   274675   274735   274750   274715 
  274660   274612   274590   274598   274622   274648   274687   274749 
  274822   274907   275001   275097   275181   275244   275282   275293 
  275301   275310   275302   275281   275270   275278   275297   275296 
  275266   275236   275212   275188   275146   275070   274976   274889 
  274808   274726   274656   274590   274509   274433   274386   274359 
  274338   274301   274220   274108   273985   273865   273758   273689 
  273653   273634   273612   273580   273543   273515   273485   273449 
  273420   273412   273437   273478   273505   273508   273501   273499 
  273493   273473   273441   273404   273358   273314   273289   273292 
  273318   273346   273364   273379   273392   273392   273377   273360 
  273364   273397   273430   273441   273453   273481   273523   273577 
  273634   273682   273720   273755   273801   273865   273933   273998 
  274059   274106   274132   274162   274218   274307   274405   274491 
  274577   274673   274764   274843   274907   274949   274974   275007 
  275042   275077   275128   275206   275301   275395   275489   275578 
  275661   275732   275794   275845   275876   275888   275884   275869 
  275859   275865   275891   275922   275945   275958   275975   275998 
  276018   276029   276029   276014   275980   275938   275886   275825 
  275784   275778   275795   275832   275860   275849   275815   275790 
  275771   275751   275737   275737   275733   275697   275620   275516 
  275414   275333   275273   275215   275147   275085   275047   275040 
  275063   275100   275130   275152   275159   275123   275053   275003 
  274985   274968   274950   274957   274974   274972   274954   274947 
  274962   274985   275009   275038   275077   275125   275169   275200 
  275220   275238   275266   275305   275339   275362   275373   275363 
  275347   275354   275363   275331   275267   275223   275201   275185 
  275174   275177   275188   275182   275148   275112   275088   275050 
  274985   274928   274911   274903   274888   274872   274853   274833 
  274818   274795   274762   274729   274691   274639   274557   274448 
  274361   274325   274309   274272   274207   274133   274064   274017 
  274004   274013   274036   274063   274095   274141   274201   274251 
  274298   274361   274440   274521   274608   274699   274780   274843 
  274884   274915   274963   275016   275047   275063   275078   275101 
  275138   275169   275181   275189   275198   275194   275179   275154 
  275124   275120   275143   275170   275196   275202   275178   275150 
  275125   275080   275015   274945   274880   274831   274811   274824 
  274861   274893   274905   274908   274900   274880   274868   274868 
  274861   274861   274892   274945   274999   275046   275088   275117 
  275136   275143   275135   275123   275125   275140   275134   275092 
  275036   274995   274969   274946   274907   274860   274831   274819 
  274797   274766   274743   274737   274730   274710   274673   274618 
  274549   274476   274425   274399   274375   274353   274344   274320 
  274270   274216   274155   274079   274014   273990   273996   274004 
  274010   274023   274031   274032   274040   274070   274110   274143 
  274156   274167   274185   274207   274233   274271   274309   274324 
  274315   274315   274340   274383   274419   274433   274429   274425 
  274450   274513   274579   274623   274660   274699   274741   274800 
  274872   274930   274963   274974   274984   275017   275069   275116 
  275166   275219   275274   275341   275418   275494   275555   275582 
  275560   275502   275418   275327   275240   275163   275100   275050 
  275000   274954   274905   274845   274769   274675   274569   274465 
  274368   274286   274233   274191   274132   274054   273974   273900 
  273832   273777   273724   273680   273655   273639   273611   273574 
  273541   273514   273488   273456   273408   273337   273245   273160 
  273103   273067   273045   273038   273034   273005   272934   272841 
  272755   272697   272667   272651   272654   272679   272717   272748 
  272763   272763   272764   272774   272782   272785   272809   272875 
  272964   273072   273199   273329   273450   273542   273589   273622 
  273677   273767   273888   274027   274182   274348   274503   274618 
  274684   274714   274722   274726   274739   274772   274816   274874 
  274945   275023   275104   275179   275221   275213   275181   275165 
  275174   275197   275216   275212   275179   275136   275092   275053 
  275043   275071   275117   275162   275193   275208   275235   275285 
  275346   275402   275454   275493   275518   275529   275518   275503 
  275501   275520   275555   275578   275584   275590   275593   275583 
  275552   275512   275481   275444   275391   275348   275328   275310 
  275281   275228   275144   275051   274976   274909   274854   274820 
  274784   274723   274666   274627   274587   274536   274480   274426 
  274375   274307   274221   274140   274078   274025   273977   273946 
  273937   273950   273970   273987   274005   274010   273983   273950 
  273920   273871   273816   273765   273715   273670   273627   273576 
  273522   273468   273404   273331   273261   273202   273161   273125 
  273075   273014   272967   272948   272941   272930   272925   272941 
  272983   273046   273118   273181   273235   273284   273326   273365 
  273407   273454   273505   273558   273600   273631   273673   273726 
  273769   273788   273794   273800   273800   273792   273767   273735 
  273704   273676   273659   273643   273619   273603   273609   273624 
  273619   273578   273531   273503   273508   273543   273580   273601 
  273624   273651   273673   273693   273735   273801   273881   273958 
  274029   274095   274158   274229   274309   274386   274444   274465 
  274452   274410   274365   274342   274330   274306   274264   274218 
  274176   274143   274109   274051   273971   273898   273847   273805 
  273773   273762   273769   273785   273813   273843   273874   273925 
  274001   274083   274172   274274   274387   274517   274637   274727 
  274793   274858   274931   275009   275098   275208   275320   275417 
  275512   275598   275656   275699   275752   275799   275833   275872 
  275913   275937   275952   275965   275979   275991   275989   275973 
  275956   275952   275967   275991   276018   276046   276073   276097 
  276108   276108   276107   276118   276149   276208   276286   276376 
  276469   276551   276602   276635   276679   276736   276790   276837 
  276879   276929   276990   277047   277096   277141   277187   277246 
  277304   277346   277368   277353   277288   277195   277106   277014 
  276909   276798   276687   276573   276453   276323   276174   276011 
  275848   275684   275522   275379   275263   275155   275042   274935 
  274841   274749   274641   274517   274392   274280   274186   274106 
  274033   273970   273905   273835   273763   273700   273640   273580 
  273515   273449   273381   273303   273227   273169   273121   273073 
  273025   272979   272947   272932   272933   272960   273001   273028 
  273049   273086   273137   273195   273252   273311   273391   273491 
  273593   273689   273767   273831   273888   273942   273991   274048 
  274120   274193   274248   274297   274355   274433   274538   274654 
  274772   274899   275036   275170   275279   275358   275425   275503 
  275586   275663   275742   275823   275888   275927   275944   275938 
  275906   275863   275818   275775   275738   275702   275649   275590 
  275532   275481   275433   275374   275289   275184   275067   274962 
  274864   274745   274602   274463   274337   274218   274106   274004 
  273912   273827   273748   273670   273601   273535   273473   273424 
  273391   273356   273322   273296   273283   273281   273284   273298 
  273323   273361   273399   273434   273484   273549   273619   273711 
  273834   273967   274091   274220   274359   274502   274646   274791 
  274923   275036   275135   275219   275285   275343   275405   275472 
  275528   275553   275551   275539   275528   275520   275497   275440 
  275356   275262   275166   275077   274988   274891   274788   274689 
  274598   274527   274487   274463   274422   274372   274337   274320 
  274315   274324   274329   274324   274324   274329   274333   274334 
  274329   274326   274333   274317   274259   274180   274093   273991 
  273888   273793   273709   273646   273612   273601   273603   273618 
  273645   273684   273731   273770   273801   273827   273846   273865 
  273904   273967   274033   274094   274152   274199   274224   274233 
  274236   274220   274186   274163   274168   274198   274230   274251 
  274270   274301   274332   274352   274375   274414   274467   274529 
  274596   274671   274741   274806   274866   274919   274959   274985 
  274982   274957   274923   274880   274837   274789   274720   274621 
  274492   274337   274160   273982   273824   273688   273558   273430 
  273306   273177   273051   272955   272903   272880   272863   272849 
  272852   272870   272897   272936   272987   273059   273154   273267 
  273388   273518   273662   273820   273978   274128   274261   274387 
  274511   274637   274756   274861   274957   275053   275142   275217 
  275286   275341   275385   275425   275471   275508   275516   275503 
  275489   275475   275468   275468   275463   275456   275451   275425 
  275381   275339   275301   275252   275177   275077   274968   274858 
  274754   274654   274553   274465   274405   274353   274299   274245 
  274191   274135   274075   274017   273974   273964   273989   274037 
  274097   274149   274201   274267   274347   274430   274522   274629 
  274750   274876   275000   275136   275292   275462   275636   275794 
  275922   276027   276124   276212   276277   276328   276373   276401 
  276405   276396   276388   276380   276367   276351   276324   276292 
  276255   276204   276127   276046   275980   275925   275872   275826 
  275787   275751   275715   275674   275620   275566   275524   275501 
  275499   275510   275529   275549   275563   275560   275543   275516 
  275486   275443   275378   275301   275228   275167   275124   275090 
  275055   275015   274972   274950   274965   274995   275024   275057 
  275084   275103   275128   275152   275169   275182   275204   275233 
  275277   275316   275329   275313   275296   275283   275267   275239 
  275194   275128   275059   275001   274954   274909   274865   274823 
  274784   274739   274685   274638   274604   274584   274565   274540 
  274510   274480   274446   274406   274372   274347   274318   274280 
  274237   274174   274090   274010   273940   273871   273797   273712 
  273615   273510   273397   273287   273179   273064   272938   272820 
  272714   272629   272571   272524   272484   272450   272409   272369 
  272350   272362   272390   272424   272451   272473   272502   272543 
  272585   272628   272667   272685   272690   272701   272710   272722 
  272751   272791   272840   272895   272940   272963   272965   272947 
  272924   272899   272880   272884   272913   272951   272994   273038 
  273084   273140   273207   273273   273334   273400   273474   273554 
  273636   273721   273811   273912   274029   274152   274264   274359 
  274445   274522   274573   274602   274619   274638   274668   274707 
  274747   274784   274837   274916   275011   275096   275152   275186 
  275211   275235   275258   275282   275314   275356   275397   275432 
  275471   275518   275568   275618   275664   275691   275699   275695 
  275682   275659   275630   275598   275553   275494   275429   275367 
  275298   275216   275120   275017   274915   274816   274733   274673 
  274645   274645   274673   274730   274803   274888   274990   275104 
  275215   275336   275475   275628   275792   275971   276158   276340 
  276502   276635   276744   276832   276894   276926   276928   276905 
  276867   276812   276736   276636   276511   276362   276197   276015 
  275822   275622   275427   275231   275032   274833   274634   274448 
  274283   274151   274052   273974   273900   273821   273748   273703 
  273684   273678   273678   273685   273692   273692   273677   273640 
  273581   273505   273411   273302   273198   273111   273021   272920 
  272825   272747   272681   272632   272606   272598   272613   272654 
  272702   272747   272791   272848   272917   272997   273088   273186 
  273288   273389   273477   273545   273604   273663   273720   273771 
  273817   273854   273879   273905   273939   273981   274029   274087 
  274149   274221   274307   274403   274507   274629   274769   274923 
  275085   275244   275412   275589   275771   275957   276139   276312 
  276475   276631   276778   276914   277045   277176   277287   277369 
  277427   277458   277473   277481   277476   277454   277420   277371 
  277306   277225   277138   277041   276921   276785   276647   276507 
  276361   276203   276035   275863   275691   275524   275363   275209 
  275055   274897   274746   274611   274496   274407   274338   274283 
  274233   274186   274144   274113   274086   274064   274068   274093 
  274116   274136   274163   274199   274234   274266   274294   274321 
  274338   274352   274367   274380   274392   274398   274398   274388 
  274364   274324   274279   274243   274217   274199   274195   274203 
  274221   274252   274297   274353   274426   274507   274591   274672 
  274747   274818   274880   274931   274974   275012   275043   275066 
  275080   275084   275077   275054   275019   274997   274993   274984 
  274957   274922   274877   274822   274756   274673   274583   274502 
  274429   274357   274275   274187   274098   274010   273925   273836 
  273730   273611   273489   273368   273262   273181   273111   273053 
  273009   272972   272943   272914   272891   272875   272857   272835 
  272805   272774   272744   272721   272714   272713   272705   272690 
  272671   272640   272601   272565   272535   272517   272511   272516 
  272546   272596   272651   272721   272803   272897   273006   273122 
  273237   273356   273484   273611   273736   273871   274020   274172 
  274322   274469   274606   274737   274870   275000   275121   275228 
  275321   275410   275509   275610   275709   275813   275917   276011 
  276091   276165   276241   276311   276380   276446   276489   276513 
  276535   276546   276535   276512   276481   276431   276357   276277 
  276197   276116   276037   275956   275868   275782   275699   275621 
  275544   275468   275394   275333   275286   275239   275192   275159 
  275144   275144   275158   275186   275231   275283   275343   275412 
  275486   275563   275645   275721   275788   275852   275902   275931 
  275953   275965   275967   275960   275938   275892   275823   275745 
  275661   275570   275470   275373   275282   275194   275103   275000 
  274899   274801   274712   274629   274546   274465   274384   274302 
  274224   274152   274077   273997   273923   273852   273781   273717 
  273666   273619   273577   273542   273514   273499   273497   273500 
  273508   273524   273554   273597   273651   273709   273773   273836 
  273902   273969   274031   274077   274101   274108   274106   274095 
  274081   274067   274043   274004   273958   273921   273894   273867 
  273834   273796   273758   273724   273699   273676   273642   273604 
  273578   273577   273588   273596   273592   273578   273559   273539 
  273527   273523   273535   273576   273634   273697   273769   273843 
  273913   273982   274048   274113   274175   274237   274297   274351 
  274413   274488   274564   274634   274702   274758   274808   274860 
  274908   274950   274988   275027   275067   275111   275162   275216 
  275263   275316   275381   275444   275508   275578   275656   275728 
  275778   275802   275806   275798   275786   275772   275752   275724 
  275688   275636   275575   275520   275467   275410   275348   275287 
  275232   275179   275121   275057   274988   274918   274850   274787 
  274731   274679   274625   274569   274514   274463   274417   274376 
  274337   274286   274222   274153   274090   274037   273989   273946 
  273909   273881   273859   273840   273828   273831   273838   273843 
  273852   273865   273873   273875   273878   273878   273879   273892 
  273913   273939   273966   273989   274005   274010   274010   274010 
  274008   273997   273981   273962   273944   273931   273923   273915 
  273901   273877   273848   273817   273785   273762   273751   273740 
  273739   273759   273793   273840   273904   273978   274054   274131 
  274207   274299   274423   274556   274688   274828   274970   275103 
  275228   275346   275455   275555   275645   275728   275795   275848 
  275891   275931   275972   276002   276016   276014   275991   275957 
  275923   275892   275856   275811   275767   275725   275676   275618 
  275552   275478   275400   275321   275240   275161   275086   275017 
  274954   274895   274831   274765   274703   274644   274579   274510 
  274433   274359   274294   274239   274191   274152   274128   274121 
  274131   274153   274189   274226   274263   274307   274359   274411 
  274465   274515   274554   274594   274639   274691   274747   274804 
  274854   274903   274947   274984   275013   275036   275046   275046 
  275043   275039   275036   275035   275031   275024   275019   275016 
  275012   275009   275000   274984   274970   274962   274957   274954 
  274946   274924   274900   274881   274858   274826   274787   274745 
  274700   274652   274592   274529   274472   274414   274352   274290 
  274228   274167   274110   274058   274016   273982   273944   273901 
  273865   273836   273815   273801   273786   273773   273767   273771 
  273778   273781   273792   273815   273839   273865   273885   273909 
  273952   274002   274041   274077   274109   274132   274149   274162 
  274164   274156   274140   274120   274101   274085   274071   274067 
  274071   274077   274082   274083   274090   274109   274129   274149 
  274175   274206   274244   274297   274361   274444   274537   274625 
  274707   274793   274876   274953   275032   275117   275196   275263 
  275327   275383   275433   275472   275506   275539   275564   275576 
  275574   275560   275539   275506   275466   275427   275390   275354 
  275313   275269   275225   275188   275146   275103   275061   275022 
  274986   274961   274936   274905   274872   274837   274804   274773 
  274746   274725   274712   274702   274692   274685   274683   274679 
  274677   274680   274688   274699   274714   274738   274776   274819 
