Origin Time       2025/01/13 21:19:00
Lat.              31.8
Long.             131.6
Depth. (km)       30
Mag.              6.9
Station Code      HRSH14
Station Lat.      34.2090
Station Long.     132.4063
Station Height(m) 40
Record Time       2025/01/13 21:20:27
Sampling Freq(Hz) 100Hz
Duration Time(s)  138
Dir.              6
Scale Factor      7845(gal)/8223790
Max. Acc. (gal)   1.159
Last Correction   2025/01/13 21:20:27
Memo.             
[...]
     135      174      103       52       89      168      260      337 
     379      395      387      384      419      449      453      418 
     330      286      334      365      314      229      153       81 
      14        0        9      -48     -133     -166     -172     -183 
    -180     -157     -124     -126     -207     -315     -379     -368 
    -284     -198     -176     -175     -141     -125     -151     -147 
     -94      -45       27      130      191      224      249      218 
     171      159      163      172      179      148       82       -2 
     -54      -41      -39      -82     -130     -193     -253     -240 
    -179     -168     -195     -171      -95      -49      -59      -63 
     -54      -72     -105     -132     -145     -109      -48       -8 
      33       66       60       63       85       56      -32     -114 
    -125      -68        4       58       95      110      125      175 
     205      137       56       56      133      241      306      306 
     291      272      230      170      116       89       89      143 
     252      324      314      301      341      388      387      348 
     290      238      216      180      105        8      -79      -75 
      40      121      109      103      120      106       98      139 
     189      222      226      179      118      118      151      151 
      89      -21      -60       52      195      245      220      179 
     182      233      264      232      207      225      214      162 
     136      170      207      168       86      101      230      318 
     301      276      264      201      144      170      202      194 
     226      310      332      251      133       47       32       58 
      22      -63      -99      -58       27      121      186      229 
     261      245      182      151      186      234      249      251 
     280      315      292      221      151       72      -12      -45 
      -4       41       22      -27      -60      -76      -66      -10 
      21      -76     -271     -392     -373     -283     -164      -49 
     -31     -108     -167     -194     -206     -166     -147     -209 
    -234     -182     -124      -70      -24      -17      -52     -148 
    -275     -329     -251     -129      -76      -95     -148     -221 
    -297     -357     -388     -371     -326     -298     -298     -299 
    -261     -214     -214     -256     -288     -237      -87       24 
      32       28       37        8      -54      -95      -89      -67 
     -75     -143     -236     -274     -253     -225     -172     -148 
    -206     -267     -279     -256     -152        5       85       79 
      89      147      195      180      147      167      199      174 
     101       37       20       17       -6      -28      -12       40 
      90       60      -60     -171     -197     -193     -216     -248 
    -278     -291     -305     -373     -433     -371     -265     -233 
    -271     -357     -441     -440     -403     -436     -504     -535 
    -537     -525     -488     -476     -503     -488     -410     -325 
    -291     -345     -421     -403     -344     -379     -468     -503 
    -494     -477     -450     -383     -272     -178     -135      -94 
     -60      -68      -81      -81     -113     -167     -178     -125 
     -85     -113     -116      -24       67       85       79      126 
     216      244      189      155      198      243      195       91 
      31       74      163      190      187      214      220      189 
     144       74        9        5       28       16       -4       17 
      62      108      124       95       72       67       31      -12 
       2       54       79       66       32      -24      -98     -160 
    -187     -164      -94      -10       55       62      -47     -224 
    -333     -348     -338     -372     -438     -471     -444     -423 
    -463     -503     -475     -415     -357     -279     -205     -174 
    -157     -130     -118     -133     -121      -52       -8      -31 
     -48      -59      -67       27      182      275      311      311 
     276      264      283      322      429      550      554      499 
     488      469      434      423      394      379      461      596 
     700      734      714      683      642      626      685      769 
     819      822      772      712      662      606      549      472 
     382      357      380      403      484      616      673      611 
     465      298      253      359      413      328      210       94 
      16       68      162      132        2     -109     -144     -112 
     -25       66      116      155      167      129      136      199 
     240      245      230      194      144      103      117      202 
     322      361      256      135      129      153      110       62 
      14      -68     -125     -163     -259     -375     -471     -568 
    -594     -507     -446     -484     -523     -507     -481     -425 
    -319     -270     -303     -328     -317     -324     -357     -386 
    -395     -415     -437     -433     -444     -488     -541     -591 
    -621     -616     -585     -560     -558     -521     -415     -332 
    -319     -298     -226     -167     -160     -194     -229     -216 
    -147      -87      -85      -91      -66      -49      -47       -9 
      39       66       76       72       95      170      237      283 
     334      380      423      486      553      607      615      569 
     535      552      584      603      589      554      527      513 
     538      614      658      612      540      507      459      360 
     321      368      371      295      213      120       13      -72 
    -155     -216     -230     -253     -297     -302     -278     -278 
    -310     -364     -433     -468     -480     -540     -604     -618 
    -646     -711     -749     -756     -724     -634     -527     -440 
    -375     -340     -301     -280     -334     -387     -368     -288 
    -149       -6       49       33       24       29       41       98 
     210      342      444      456      414      418      461      486 
     500      499      453      414      432      457      461      484 
     525      553      553      526      500      499      498      456 
     421      467      518      460      344      257      218      222 
     207      128       51        9      -20      -28      -39      -51 
     -14       36       48       43       33       14       -9      -43 
     -70      -66      -56     -101     -191     -276     -337     -371 
    -368     -351     -348     -341     -306     -260     -229     -234 
    -288     -371     -417     -386     -333     -340     -375     -365 
    -321     -287     -290     -301     -259     -139      -22        5 
      -6        4       39      121      213      255      321      418 
     427      364      315      307      345      375      399      477 
     534      525      523      534      538      554      560      510 
     436      425      490      549      579      611      649      683 
     687      641      585      573      561      514      456      383 
     315      294      292      270      217      153      106      101 
     137      137       39      -71      -99      -63      -16       -4 
     -64     -195     -352     -471     -498     -448     -417     -444 
    -488     -522     -526     -487     -460     -504     -619     -719 
    -662     -496     -422     -480     -579     -675     -720     -675 
    -565     -450     -384     -379     -373     -349     -363     -421 
    -495     -554     -569     -552     -502     -427     -378     -365 
    -333     -271     -220     -184     -155     -130     -117     -132 
    -159     -147      -89       -1      117      218      230      170 
     108       97      174      313      411      432      445      464 
     430      360      317      297      286      311      365      419 
     488      560      575      565      591      622      638      654 
     638      602      614      666      727      774      772      724 
     680      662      700      757      722      648      637      639 
     638      642      585      480      396      349      332      314 
     260      180      114       81       68       36      -37     -117 
    -140     -157     -237     -329     -392     -448     -513     -583 
    -626     -638     -662     -719     -799     -870     -877     -816 
    -757     -735     -739     -727     -656     -562     -526     -533 
    -546     -561     -517     -379     -257     -225     -240     -243 
    -206     -145     -102     -105     -128     -128     -132     -189 
    -271     -340     -396     -429     -425     -437     -459     -449 
    -450     -481     -471     -413     -379     -386     -419     -459 
    -446     -373     -317     -279     -232     -205     -191     -144 
     -79      -39      -41      -81     -117     -109      -52       47 
     155      198      175      153      156      174      187      178 
     153      117       86       93      124      167      232      278 
     252      198      194      238      274      247      163      103 
     109      143      167      197      251      309      356      407 
     453      488      507      479      440      442      434      383 
     341      337      357      359      326      287      245      174 
      74      -28     -116     -166     -153     -135     -160     -162 
     -93      -25      -32     -110     -182     -163     -106     -102 
    -126     -136     -112      -49      -21      -79     -168     -205 
    -198     -224     -298     -322     -233     -135     -124     -164 
    -201     -234     -270     -301     -292     -213     -135     -110 
    -112     -130     -105        1       74       83      144      245 
     315      372      399      398      427      471      476      459 
     436      414      382      309      229      199      187      156 
     144      179      216      225      261      325      324      222 
      76      -31      -43        6       28        8      -25      -35 
      -6      -13      -56      -40       27       62       52       27 
      29       68       87       59        8      -40      -72     -124 
    -202     -265     -306     -330     -338     -340     -346     -382 
    -415     -400     -369     -353     -334     -336     -378     -414 
    -453     -549     -645     -681     -675     -637     -618     -685 
    -756     -743     -710     -689     -666     -681     -724     -706 
    -625     -554     -517     -487     -460     -453     -463     -465 
    -463     -445     -380     -288     -206     -125      -28       90 
     234      367      456      533      612      666      670      646 
     646      677      672      599      494      445      511      621 
     652      623      612      631      665      706      735      753 
     789      827      838      858      891      873      811      764 
     731      712      716      704      654      596      552      503 
     446      396      326      203       76       -1      -41      -52 
     -54      -76     -114     -124      -82      -25        0       12 
      29       20       -2        1        8        2       -5      -49 
    -116     -132      -83       -9       49       97      132      122 
     109      148      186      199      206      170       97       49 
      29       13        5        4        5       -1      -18       -5 
      45       85       75       28      -18      -70     -152     -237 
    -297     -355     -430     -494     -514     -518     -545     -592 
    -631     -661     -689     -708     -702     -704     -754     -824 
    -868     -865     -837     -811     -800     -791     -750     -665 
    -604     -596     -569     -525     -496     -445     -376     -326 
    -288     -264     -220     -108       29      149      256      332 
     380      448      552      648      695      708      723      750 
     803      869      919      947      974     1003     1004      982 
     955      911      859      807      731      642      550      461 
     384      288      163       79       71       91       83       14 
     -97     -202     -278     -305     -294     -275     -259     -265 
    -299     -319     -299     -260     -234     -233     -255     -286 
    -303     -284     -256     -260     -267     -237     -209     -202 
    -189     -193     -230     -249     -232     -193     -132      -71 
     -39      -25       -4       28       59       94      149      207 
     217      183      143      124      125      116       82       79 
     132      179      168      126      103      103      130      180 
     202      179      190      229      220      179      166      168 
     164      148      110       85       93       82       41        9 
     -18      -52      -45       17       76       86       74       75 
     103      157      226      284      303      292      309      363 
     402      414      426      423      402      414      468      496 
     465      433      433      448      457      449      440      456 
     487      499      500      510      530      573      594      537 
     460      421      384      322      255      198      137       48 
     -87     -253     -406     -506     -567     -639     -757     -872 
    -920     -928     -967    -1039    -1097    -1120    -1132    -1161 
   -1197    -1208    -1186    -1152    -1135    -1139    -1136    -1086 
    -981     -849     -726     -638     -577     -518     -433     -305 
    -151      -20       62      113      184      292      390      434 
     459      480      476      467      486      513      534      548 
     521      488      535      626      668      672      680      689 
     707      745      778      776      757      738      723      733 
     760      781      799      777      687      598      567      525 
     430      351      306      240      162      126      141      164 
     147       86        9      -48      -78     -113     -171     -243 
    -325     -402     -454     -487     -511     -534     -577     -639 
    -669     -662     -654     -649     -661     -703     -727     -704 
    -664     -625     -572     -527     -503     -442     -337     -245 
    -184     -141      -99      -44       22       83      136      174 
     187      199      225      244      255      288      329      345 
     352      355      348      336      315      295      303      328 
     330      306      275      256      259      275      295      303 
     307      328      355      372      369      333      292      278 
     240      178      160      163      122       60        4      -48 
     -78      -79      -72      -59      -55      -58      -41      -33 
     -40      -40      -55      -83      -87      -85      -97     -129 
    -178     -195     -180     -186     -197     -197     -213     -228 
    -230     -241     -260     -291     -319     -322     -349     -423 
    -488     -540     -619     -697     -733     -724     -687     -639 
    -580     -499     -402     -276     -141      -18      122      291 
     432      523      592      652      706      760      784      762 
     729      718      710      677      622      561      519      508 
     496      459      437      463      481      446      380      317 
     267      232      194      143       79        0      -87     -153 
    -176     -175     -174     -167     -162     -176     -190     -175 
    -129      -66      -20       -4        6       13       25       72 
     126      147      148      167      206      253      290      314 
     329      325      313      301      279      264      270      260 
     236      224      218      199      168      114       41      -35 
    -116     -194     -259     -317     -400     -529     -662     -758 
    -819     -862     -891     -916     -972    -1034    -1054    -1075 
   -1115    -1125    -1113    -1092    -1046    -1016    -1019    -1008 
    -966     -901     -830     -773     -731     -681     -607     -527 
    -473     -429     -378     -341     -325     -282     -205     -147 
    -124     -106      -75      -24       33       94      163      218 
     260      321      388      456      537      589      588      585 
     592      581      573      556      508      472      467      460 
     457      463      459      453      454      430      373      322 
     279      203      110       36      -25      -87     -149     -217 
    -271     -278     -249     -217     -205     -210     -180     -110 
     -54      -16       28       63       95      157      213      222 
     214      218      229      247      267      307      378      441 
     457      441      419      387      360      364      378      380 
     382      376      355      328      305      279      244      218 
     209      203      197      184      159      133      118      108 
     114      139      153      156      157      171      206      244 
     255      229      179      137      130      155      166      136 
      81       32        2      -21      -55      -95     -130     -168 
    -217     -268     -315     -359     -390     -398     -398     -405 
    -407     -403     -383     -336     -287     -268     -275     -278 
    -252     -220     -214     -214     -201     -195     -184     -157 
    -135     -110      -70      -39      -32      -43      -49      -28 
      -8      -39      -89     -105      -89      -54      -17        1 
      -4      -22      -35      -32      -10       47      112      145 
     159      184      228      272      301      321      345      341 
     307      292      295      265      226      194      151      116 
     105       72       -6     -101     -178     -244     -314     -380 
    -433     -490     -549     -595     -627     -652     -668     -677 
    -695     -712     -720     -700     -652     -611     -589     -562 
    -518     -468     -415     -361     -314     -275     -240     -213 
    -187     -157     -128     -102      -75      -54      -45      -37 
     -12       31       81      135      186      230      276      317 
     342      378      414      433      450      461      445      430 
     414      365      302      237      170      133      136      121 
      74       44       35       10      -16      -45      -95     -130 
    -125     -110     -109     -124     -137     -125     -103      -82 
     -48      -12        2       -5      -12       -6      -25      -60 
     -74      -81     -101     -110     -102      -98      -90      -75 
     -79      -93      -93      -81      -56      -39      -54      -75 
     -72      -37       22       62       60       55       70       95 
     125      164      198      206      211      234      256      261 
     267      279      292      298      287      274      276      306 
     345      361      363      368      364      351      341      315 
     278      263      256      230      205      176      124       54 
      -9      -68     -110     -137     -180     -236     -271     -286 
    -292     -314     -365     -426     -472     -499     -515     -545 
    -577     -589     -599     -629     -666     -684     -677     -666 
