Origin Time       2025/01/13 21:19:00
Lat.              31.8
Long.             131.6
Depth. (km)       30
Mag.              6.9
Station Code      HRSH01
Station Lat.      34.3736
Station Long.     133.0236
Station Height(m) 35
Record Time       2025/01/13 21:20:32
Sampling Freq(Hz) 100Hz
Duration Time(s)  132
Dir.              4
Scale Factor      7845(gal)/8223790
Max. Acc. (gal)   1.818
Last Correction   2025/01/13 21:20:32
Memo.             
[...]
    1595     1505     1532     1664     1919     2266     2519     2501 
    2262     1948     1699     1664     1853     2083     2168     2084 
    1931     1804     1744     1746     1769     1792     1815     1800 
    1725     1668     1707     1821     1953     2053     2073     2056 
    2052     2043     2043     2115     2289     2502     2602     2529 
    2409     2328     2280     2273     2282     2263     2228     2154 
    2046     1996     2026     2058     2042     1969     1885     1877 
    1985     2178     2438     2695     2793     2641     2331     1973 
    1692     1647     1888     2289     2614     2683     2536     2339 
    2150     1985     1919     1964     2046     2108     2149     2208 
    2284     2303     2269     2265     2311     2359     2374     2377 
    2386     2378     2362     2353     2332     2315     2343     2388 
    2393     2369     2349     2324     2251     2127     1983     1863 
    1840     1933     2079     2254     2401     2407     2276     2106 
    1949     1852     1837     1834     1833     1933     2131     2328 
    2484     2540     2415     2168     1933     1798     1844     2030 
    2176     2185     2103     1981     1881     1853     1863     1875 
    1919     1989     2052     2083     2027     1907     1861     1945 
    2103     2313     2515     2577     2525     2440     2305     2169 
    2096     2025     1958     1992     2131     2311     2492     2674 
    2863     2979     2852     2409     1879     1578     1579     1790 
    2111     2390     2482     2417     2296     2162     2076     2081 
    2112     2135     2151     2099     2010     2019     2100     2153 
    2157     2101     2029     2019     2069     2160     2316     2479 
    2521     2427     2288     2145     2025     2049     2257     2486 
    2621     2687     2682     2569     2366     2115     1927     1899 
    1999     2151     2270     2266     2177     2081     1973     1871 
    1809     1728     1598     1494     1482     1561     1687     1872 
    2185     2554     2755     2640     2235     1707     1281     1102 
    1213     1610     2158     2581     2691     2521     2188     1817 
    1594     1701     2084     2488     2720     2708     2465     2143 
    1956     2025     2286     2538     2640     2594     2425     2145 
    1892     1891     2153     2420     2506     2398     2079     1617 
    1259     1185     1421     1884     2347     2597     2592     2358 
    1983     1679     1609     1730     1942     2182     2403     2593 
    2731     2720     2527     2253     1999     1795     1660     1617 
    1706     1944     2255     2502     2546     2376     2142     1972 
    1853     1734     1663     1738     1973     2284     2513     2556 
    2457     2293     2166     2178     2307     2425     2471     2448 
    2324     2115     1952     1895     1873     1845     1864     1989 
    2203     2419     2583     2722     2847     2933     3010     3037 
    2874     2524     2161     1953     1991     2226     2501     2656 
    2612     2427     2166     1842     1549     1426     1509     1742 
    1987     2099     2126     2177     2218     2235     2285     2301 
    2164     1908     1696     1687     1950     2411     2879     3161 
    3123     2779     2354     2047     1848     1713     1683     1794 
    2002     2193     2312     2385     2343     2142     1953     1931 
    2020     2142     2297     2454     2529     2485     2355     2195 
    2015     1803     1603     1528     1669     2011     2452     2826 
    2948     2790     2550     2385     2284     2232     2254     2343 
    2461     2497     2421     2358     2303     2124     1891     1777 
    1792     1838     1873     1907     1939     1956     1987     2089 
    2239     2401     2574     2650     2529     2338     2231     2230 
    2304     2416     2551     2709     2845     2907     2866     2754 
    2667     2590     2454     2369     2444     2614     2758     2724 
    2431     2016     1651     1413     1393     1624     1949     2130 
    2130     2089     2088     2092     2076     2042     1991     1984 
    2088     2247     2367     2419     2376     2265     2197     2147 
    2031     1957     2002     2074     2127     2142     2088     1988 
    1872     1759     1692     1699     1738     1728     1664     1678 
    1830     2000     2057     2012     1973     2022     2081     2026 
    1871     1710     1595     1567     1682     1968     2342     2589 
    2525     2164     1664     1262     1210     1552     2081     2547 
    2736     2578     2226     1868     1675     1765     2061     2389 
    2631     2708     2629     2486     2361     2281     2228     2193 
    2161     2065     1877     1725     1722     1826     1919     1942 
    1908     1872     1894     2010     2212     2435     2570     2533 
    2340     2093     1918     1907     2068     2311     2511     2585 
    2504     2276     1966     1744     1760     2000     2350     2637 
    2637     2285     1740     1248     1028     1159     1620     2261 
    2767     2959     2866     2528     2114     1876     1830     1872 
    2019     2266     2502     2654     2664     2521     2351     2255 
    2151     2033     2052     2199     2308     2366     2420     2415 
    2317     2193     2087     1960     1796     1661     1605     1595 
    1576     1533     1509     1544     1649     1806     1960     2052 
    2061     2037     2045     2072     2038     1911     1765     1695 
    1780     2064     2485     2878     3063     2965     2648     2261 
    2000     1971     2089     2257     2459     2668     2782     2728 
    2597     2535     2546     2532     2519     2585     2663     2655 
    2579     2467     2343     2276     2255     2219     2127     1965 
    1857     1979     2263     2523     2667     2666     2574     2508 
    2542     2635     2694     2697     2663     2597     2517     2459 
    2435     2436     2419     2332     2263     2293     2320     2293 
    2288     2282     2187     2019     1925     1987     2118     2231 
    2342     2408     2350     2177     1976     1854     1861     1931 
    2023     2123     2143     2043     1933     1912     1992     2164 
    2404     2556     2496     2319     2141     1977     1890     1903 
    1969     2076     2176     2151     2023     1888     1788     1809 
    2029     2324     2512     2558     2474     2274     2058     1966 
    2058     2286     2532     2717     2806     2749     2504     2130 
    1840     1818     2027     2374     2813     3157     3187     2925 
    2517     2099     1834     1825     2012     2261     2455     2544 
    2521     2450     2438     2516     2650     2749     2677     2443 
    2172     1931     1806     1841     1949     2076     2239     2388 
    2455     2405     2185     1869     1667     1683     1850     2065 
    2255     2413     2512     2463     2262     2010     1815     1782 
    1998     2393     2783     3036     3071     2845     2450     2103 
    1930     1906     1979     2092     2172     2212     2211     2154 
    2114     2169     2285     2339     2269     2123     1991     1950 
    2035     2146     2172     2089     1850     1468     1190     1231 
    1530     1944     2353     2609     2619     2401     2045     1711 
    1553     1564     1609     1583     1517     1509     1594     1736 
    1891     1975     1881     1624     1360     1285     1498     1931 
    2370     2592     2484     2060     1474     1001      891     1171 
    1624     2004     2243     2300     2083     1675     1316     1142 
    1154     1296     1453     1574     1665     1721     1775     1881 
    2026     2154     2200     2189     2211     2231     2231     2307 
    2427     2481     2463     2389     2278     2235     2304     2416 
    2493     2467     2295     2041     1846     1788     1883     2116 
    2365     2428     2262     1979     1682     1448     1374     1474 
    1690     1971     2253     2447     2482     2330     2052     1803 
    1734     1906     2230     2525     2616     2482     2257     2038 
    1896     1926     2110     2355     2600     2768     2826     2805 
    2681     2434     2188     2079     2108     2231     2417     2619 
    2774     2745     2446     2014     1664     1524     1636     1895 
    2115     2216     2218     2142     2007     1846     1698     1567 
    1490     1526     1661     1840     1971     1973     1863     1718 
    1605     1555     1578     1684     1844     1966     2003     1966 
    1850     1694     1618     1645     1660     1630     1602     1590 
    1583     1551     1499     1560     1836     2218     2504     2613 
    2563     2390     2135     1884     1764     1837     1993     2126 
    2262     2405     2502     2567     2558     2401     2166     1968 
    1858     1881     2016     2218     2471     2700     2802     2740 
    2492     2145     1890     1814     1923     2182     2446     2579 
    2593     2493     2253     1973     1829     1811     1829     1921 
    2108     2266     2309     2297     2320     2409     2532     2666 
    2866     3167     3481     3689     3724     3595     3357     3079 
    2844     2727     2725     2818     2936     2938     2816     2704 
    2667     2701     2821     2982     3091     3134     3117     3014 
    2847     2655     2474     2335     2215     2106     2050     2031 
    1976     1898     1845     1804     1760     1709     1665     1676 
    1717     1694     1669     1779     1958     2069     2091     2030 
    1935     1902     1921     1939     1962     1965     1854     1607 
    1278      940      711      658      770     1019     1279     1364 
    1204      895      650      649      942     1525     2284     2903 
    3140     3044     2810     2650     2702     2930     3207     3439 
    3554     3520     3422     3370     3354     3326     3294     3254 
    3181     3098     3037     3010     3005     3002     2990     2998 
    3025     3041     3019     2911     2720     2529     2386     2273 
    2203     2174     2118     2038     2018     2031     2018     2018 
    2057     2088     2073     1987     1849     1703     1587     1551 
    1633     1765     1853     1896     1903     1834     1701     1583 
    1561     1625     1660     1625     1553     1435     1287     1209 
    1248     1385     1537     1613     1641     1680     1717     1755 
    1815     1869     1871     1814     1723     1636     1602     1684 
    1908     2181     2398     2566     2659     2601     2465     2419 
    2523     2673     2751     2752     2745     2758     2764     2776 
    2825     2857     2808     2706     2616     2567     2601     2717 
    2836     2901     2911     2863     2797     2774     2793     2852 
    2938     2982     2978     3011     3115     3208     3202     3114 
    3036     3025     3049     3069     3065     3001     2862     2678 
    2482     2344     2327     2354     2340     2313     2249     2066 
    1791     1459     1135      954      955     1089     1314     1528 
    1634     1668     1661     1609     1564     1556     1529     1528 
    1652     1858     1975     1929     1806     1672     1576     1602 
    1738     1885     2020     2151     2234     2249     2236     2249 
    2292     2340     2394     2444     2432     2355     2286     2263 
    2296     2388     2459     2463     2471     2515     2556     2608 
    2678     2733     2758     2749     2756     2853     3030     3169 
    3199     3140     3053     2978     2882     2733     2565     2401 
    2234     2069     1948     1875     1788     1672     1543     1345 
    1100      924      846      812      839      918      980      996 
     932      780      665      702      858     1069     1274     1441 
    1563     1630     1651     1684     1784     1927     2069     2196 
    2303     2371     2374     2343     2366     2434     2471     2489 
    2471     2369     2238     2137     2035     1952     1938     1998 
    2104     2231     2353     2435     2415     2243     1958     1695 
    1583     1676     1960     2331     2658     2875     2932     2776 
    2470     2178     2038     2093     2292     2497     2612     2605 
    2484     2309     2158     2057     2041     2110     2188     2218 
    2201     2158     2120     2169     2378     2691     2957     3071 
    3026     2887     2748     2690     2741     2862     2982     3040 
    2957     2720     2440     2226     2122     2161     2300     2403 
    2366     2149     1736     1242      891      780      868     1131 
    1466     1647     1606     1445     1229     1039     1019     1179 
    1352     1443     1474     1445     1408     1497     1752     2046 
    2214     2168     1938     1606     1273     1104     1232     1611 
    2043     2296     2280     2076     1796     1615     1675     1941 
    2326     2739     3051     3195     3172     3079     3088     3190 
    3223     3183     3125     2990     2758     2505     2357     2400 
    2547     2624     2589     2447     2199     1975     1900     1933 
    1976     1991     1938     1809     1653     1522     1443     1435 
    1505     1625     1736     1802     1836     1888     1985     2135 
    2309     2386     2276     1999     1669     1480     1491     1552 
    1599     1655     1678     1679     1738     1865     2070     2376 
    2743     3067     3219     3187     3053     2875     2722     2678 
    2774     3007     3308     3586     3819     3991     4071     4041 
    3931     3802     3719     3711     3755     3824     3858     3770 
    3551     3249     2894     2570     2393     2367     2425     2521 
    2570     2473     2258     1996     1730     1539     1490     1553 
    1622     1625     1611     1633     1651     1626     1583     1544 
    1528     1556     1632     1742     1857     1934     1975     1979 
    1907     1759     1606     1547     1590     1660     1745     1863 
    1946     1925     1811     1659     1563     1584     1687     1840 
    2003     2088     2061     1933     1729     1609     1696     1907 
    2134     2305     2338     2211     1980     1746     1653     1783 
    2080     2413     2647     2708     2592     2353     2142     2106 
    2235     2427     2558     2527     2319     2022     1786     1676 
    1594     1483     1377     1221     1009      855      841     1003 
    1339     1709     1958     2050     2037     1996     1991     2049 
    2166     2319     2500     2710     2911     3069     3199     3298 
    3314     3248     3169     3123     3083     3028     2963     2876 
    2754     2597     2439     2373     2448     2571     2648     2664 
    2589     2373     2033     1667     1402     1305     1362     1529 
    1753     1944     2039     2068     2058     2015     1984     1989 
    2011     2070     2188     2338     2478     2586     2643     2597 
    2415     2182     1964     1749     1611     1626     1710     1734 
    1642     1463     1274     1146     1117     1192     1323     1476 
    1624     1691     1652     1615     1664     1783     1972     2201 
    2378     2482     2547     2593     2673     2830     3032     3215 
    3329     3364     3407     3531     3689     3824     3944     4012 
    3967     3840     3689     3538     3395     3219     2974     2695 
    2412     2085     1759     1537     1425     1352     1275     1196 
    1136     1084     1063     1182     1426     1668     1850     1960 
    1972     1914     1834     1753     1687     1669     1696     1725 
    1756     1806     1827     1790     1749     1738     1722     1688 
    1633     1567     1568     1678     1854     2057     2223     2278 
    2214     2081     1914     1767     1723     1792     1898     1992 
    2047     2033     1983     1939     1892     1823     1732     1632 
    1578     1637     1865     2230     2575     2745     2727     2555 
    2245     1895     1661     1615     1750     1984     2154     2162 
    2030     1814     1564     1343     1200     1161     1227     1348 
    1451     1518     1591     1699     1794     1786     1690     1579 
    1478     1435     1512     1706     1962     2212     2371     2407 
    2371     2362     2446     2613     2802     2957     3040     3029 
    2953     2880     2837     2801     2799     2874     2988     3099 
    3175     3177     3113     3051     3025     2998     2965     2959 
    2929     2826     2708     2637     2632     2704     2828     2949 
    3052     3137     3159     3105     3028     2978     2971     3017 
    3117     3233     3295     3257     3138     2991     2847     2721 
    2621     2551     2504     2434     2311     2124     1865     1568 
    1329     1219     1242     1341     1435     1471     1474     1455 
    1416     1429     1537     1688     1825     1903     1872     1736 
    1557     1390     1271     1274     1444     1748     2073     2285 
    2331     2292     2250     2224     2263     2417     2624     2782 
    2801     2654     2450     2300     2230     2292     2516     2797 
    3011     3086     2978     2771     2640     2660     2797     2983 
    3100     3067     2925     2731     2509     2371     2384     2452 
    2475     2428     2295     2068     1840     1709     1692     1753 
    1811     1790     1660     1404     1058      745      567      562 
     700      861      955      942      810      631      523      530 
     665      916     1194     1437     1653     1794     1829     1831 
    1853     1903     2020     2193     2380     2590     2806     2978 
    3090     3119     3025     2832     2620     2428     2273     2193 
    2201     2239     2258     2238     2169     2072     1987     1931 
    1907     1887     1827     1749     1719     1734     1753     1769 
    1792     1804     1782     1745     1755     1837     1969     2110 
    2255     2384     2430     2388     2322     2259     2218     2226 
    2261     2296     2354     2440     2508     2551     2579     2578 
    2556     2521     2471     2405     2311     2208     2178     2247 
    2371     2505     2582     2559     2482     2396     2301     2257 
    2327     2478     2646     2789     2871     2856     2756     2612 
    2459     2351     2338     2415     2531     2614     2627     2569 
    2467     2339     2203     2107     2073     2068     2052     2016 
    1981     1991     2069     2192     2303     2376     2408     2382 
    2270     2081     1918     1867     1899     1965     2035     2073 
    2057     1973     1861     1799     1825     1906     2010     2116 
    2185     2187     2147     2116     2111     2118     2114     2091 
    2077     2089     2089     2068     2046     2023     2007     2011 
    2023     2056     2131     2219     2284     2324     2322     2277 
    2226     2201     2218     2280     2373     2447     2459     2415 
    2359     2353     2401     2440     2428     2361     2269     2196 
    2133     2062     1996     1926     1863     1865     1948     2080 
    2209     2259     2207     2106     1991     1900     1892     1972 
    2110     2261     2385     2458     2444     2315     2116     1931 
    1815     1782     1799     1841     1885     1861     1736     1595 
    1503     1447     1439     1490     1545     1559     1547     1521 
