Origin Time       2025/01/13 21:19:00
Lat.              31.8
Long.             131.6
Depth. (km)       30
Mag.              6.9
Station Code      HRSH09
Station Lat.      34.7016
Station Long.     132.9524
Station Height(m) 350
Record Time       2025/01/13 21:20:28
Sampling Freq(Hz) 100Hz
Duration Time(s)  144
Dir.              6
Scale Factor      7845(gal)/8223790
Max. Acc. (gal)   0.915
Last Correction   2025/01/13 21:20:29
Memo.             
[...]
     990     1030     1059     1089     1115     1105     1036      939 
     882      878      922      993     1030     1046     1090     1124 
    1125     1123     1116     1093     1046      988      926      842 
     762      715      685      689      704      710      746      789 
     811      816      777      754      801      849      878      904 
     911      924      928      889      857      849      830      811 
     784      738      723      746      777      831      885      888 
     868      854      845      854      876      884      885      911 
     957      977      973      967      967      981      993      980 
     966      977      980      962      942      904      855      828 
     814      787      741      688      672      700      747      800 
     854      915      951      927      888      865      818      788 
     822      861      889      924      951      974      993      985 
     973      970      947      885      818      789      783      783 
     791      762      722      720      712      683      688      689 
     662      668      672      657      681      724      764      815 
     832      819      816      804      781      773      769      769 
     780      773      729      657      598      569      550      540 
     537      534      546      573      615      665      692      702 
     700      692      700      712      711      711      704      702 
     723      747      764      773      772      773      769      765 
     765      754      761      797      845      913      966      961 
     932      908      889      897      939      999     1067     1128 
    1154     1161     1163     1155     1150     1143     1093     1042 
    1040     1026      985      977     1000     1023     1027     1012 
    1000     1008     1026     1030     1020      999      972      976 
    1012     1059     1100     1125     1144     1154     1151     1144 
    1113     1050     1000      985      970      950      928      900 
     903      934      945      949      955      934      923      961 
     997     1009     1020      996      938      900      857      820 
     835      851      842      858      878      865      865      899 
     924      934      961     1009     1053     1075     1065     1053 
    1077     1111     1140     1175     1196     1200     1209     1194 
    1147     1124     1144     1158     1156     1170     1189     1197 
    1194     1185     1173     1163     1170     1185     1200     1243 
    1286     1278     1243     1213     1192     1186     1170     1132 
    1097     1088     1120     1165     1175     1161     1127     1098 
    1115     1134     1135     1148     1132     1093     1098     1113 
    1124     1170     1212     1210     1206     1212     1212     1242 
    1283     1274     1248     1224     1175     1134     1115     1090 
    1067     1053     1042     1042     1044     1020      976      972 
    1000     1016     1032     1040     1005      966      962      958 
     942      947      972      990     1003      990      943      886 
     824      768      742      750      758      753      739      708 
     653      626      631      648      689      735      756      778 
     793      780      804      882      954     1023     1075     1071 
    1054     1061     1055     1036     1023     1004      980      965 
     958      951      959      986      988      974      993     1039 
    1104     1179     1221     1213     1197     1204     1220     1217 
    1200     1158     1108     1094     1107     1092     1055     1028 
    1004      992     1001      993      962      928      884      838 
     810      792      787      785      803      859      909      928 
     940      945      936      943      950      935      936      955 
     938      904      893      882      869      853      807      756 
     727      715      708      714      745      778      789      808 
     854      880      882      901      942      984      997      982 
     973      963      935      909      882      850      847      876 
     901      913      918      924      940      954      949      932 
     916      909      912      922      930      912      882      886 
     918      931      938      938      919      922      935      918 
     905      918      920      904      878      841      781      708 
     672      680      683      670      664      668      687      697 
     679      660      657      668      692      707      708      710 
     692      669      672      677      672      685      715      737 
     737      714      680      673      681      680      685      687 
     681      679      660      634      627      623      618      622 
     627      645      684      742      812      870      912      946 
     967      982      997     1008     1012      992      972      992 
    1015     1009     1009     1013      994      981      982      974 
     962      934      864      803      783      764      747      742 
     730      731      768      804      801      761      707      672 
     660      638      595      560      530      484      449      440 
     433      414      415      452      499      558      634      704 
     765      810      851      908      950      974      999     1001 
    1011     1050     1073     1088     1113     1121     1120     1124 
    1131     1158     1212     1275     1324     1337     1329     1329 
    1329     1321     1298     1263     1251     1243     1217     1217 
    1233     1223     1206     1182     1150     1136     1129     1123 
    1121     1120     1134     1175     1227     1263     1269     1255 
    1229     1186     1146     1115     1070     1012      957      905 
     866      830      780      741      742      772      803      820 
     847      896      950      999     1039     1074     1120     1171 
    1225     1283     1324     1343     1387     1453     1505     1560 
    1629     1684     1728     1765     1759     1713     1671     1636 
    1602     1586     1572     1539     1507     1482     1443     1401 
    1379     1359     1317     1250     1148     1034      939      868 
     820      804      783      750      724      706      699      689 
     669      684      741      801      855      896      926      955 
     989     1026     1053     1070     1098     1120     1128     1136 
    1139     1123     1096     1067     1030      974      911      853 
     803      749      683      630      606      591      580      576 
     576      602      654      703      745      797      842      857 
     872      889      880      859      839      810      799      818 
     834      823      785      734      688      664      649      621 
     591      585      606      630      634      618      588      561 
     541      513      486      472      469      488      523      549 
     564      585      623      665      715      776      816      841 
     878      913      916      896      858      831      830      808 
     762      741      730      707      687      652      600      572 
     550      517      481      461      457      461      469      498 
     541      577      589      577      564      560      554      549 
     545      530      526      556      599      641      687      726 
     760      823      912      977     1011     1046     1075     1094 
    1132     1177     1201     1220     1240     1256     1277     1301 
    1316     1332     1351     1366     1399     1445     1463     1458 
    1451     1437     1432     1433     1429     1436     1448     1452 
    1466     1480     1476     1470     1464     1458     1444     1426 
    1418     1424     1426     1424     1413     1383     1337     1289 
    1242     1190     1131     1058      990      949      909      870 
     847      823      799      780      745      704      676      646 
     629      635      653      680      719      749      768      797 
     842      886      942     1013     1066     1082     1096     1102 
    1080     1057     1048     1024      982      954      928      893 
     870      864      861      865      870      873      889      913 
     931      945      957      970      985      994      999     1003 
    1007     1012     1015     1015     1012      994      970      950 
     938      935      918      886      866      853      849      853 
     859      874      895      901      903      911      909      885 
     845      801      758      723      697      673      660      656 
     646      627      607      577      540      523      527      533 
     545      565      575      580      573      548      523      508 
     495      494      496      494      499      499      483      483 
     491      494      514      542      561      579      592      589 
     589      606      631      661      695      716      731      747 
     768      807      864      918      966     1008     1031     1040 
    1036     1026     1016      990      953      916      877      846 
     830      822      823      832      845      868      885      891 
     911      942      974     1017     1066     1107     1140     1158 
    1162     1161     1156     1163     1181     1197     1210     1229 
    1252     1269     1273     1266     1258     1273     1302     1314 
    1327     1352     1350     1328     1313     1287     1255     1232 
    1215     1200     1183     1166     1162     1156     1142     1125 
    1089     1043     1026     1017     1007     1009     1017     1020 
    1027     1036     1043     1059     1089     1128     1169     1200 
    1213     1223     1240     1255     1256     1252     1237     1213 
    1192     1165     1142     1146     1159     1169     1181     1179 
    1161     1139     1109     1065     1026     1005      981      947 
     919      881      845      822      807      796      780      753 
     723      699      685      692      711      733      757      783 
     808      822      816      810      805      792      797      827 
     837      830      832      861      915      972     1008     1038 
    1058     1055     1044     1036     1015      981      951      930 
     911      884      843      807      783      760      737      727 
     738      761      784      811      846      869      881      905 
     945      992     1039     1080     1121     1173     1213     1233 
    1252     1264     1263     1259     1252     1240     1220     1181 
    1129     1081     1034      973      909      850      780      711 
     665      637      614      604      612      631      652      665 
     673      687      714      756      789      801      818      835 
     841      857      888      916      945      965      970      973 
     974      980      997      999      985      981      974      953 
     938      935      931      919      891      859      841      824 
     808      797      787      784      792      807      826      838 
     854      889      913      924      934      938      936      936 
     950      967      970      963      959      953      954      962 
     967      986     1024     1066     1105     1147     1186     1220 
    1264     1316     1360     1394     1404     1398     1390     1372 
    1348     1321     1285     1237     1183     1124     1065      994 
     930      892      865      838      815      804      808      823 
     845      869      900      936      980     1027     1081     1127 
    1150     1167     1201     1244     1294     1337     1358     1359 
    1347     1329     1314     1293     1267     1237     1194     1152 
    1128     1104     1074     1053     1026      982      942      900 
     854      820      792      754      715      673      607      530 
     452      375      324      301      282      276      284      284 
     283      290      310      356      415      465      521      588 
     653      710      765      811      857      908      946      965 
     969      961      947      924      880      832      803      783 
     769      770      788      810      830      843      838      830 
     837      842      847      861      877      889      900      915 
     928      946      974     1009     1053     1089     1100     1104 
    1113     1127     1158     1198     1228     1233     1221     1208 
    1205     1202     1182     1150     1123     1101     1089     1090 
    1100     1101     1094     1081     1065     1057     1067     1084 
    1082     1054     1019      993      966      931      889      831 
     773      727      683      645      612      576      545      527 
     511      491      464      436      417      405      380      344 
     313      288      260      237      218      199      203      236 
     268      284      299      330      375      411      441      469 
     490      515      554      594      631      672      711      758 
     803      818      824      849      880      907      945      980 
    1003     1023     1043     1058     1067     1075     1077     1069 
    1061     1046     1024     1003      986      965      940      924 
     928      951      977     1005     1055     1120     1190     1266 
    1340     1406     1472     1539     1599     1656     1701     1738 
    1772     1795     1809     1825     1838     1852     1871     1887 
    1891     1875     1836     1784     1726     1664     1607     1559 
    1513     1463     1402     1327     1244     1158     1084     1027 
     972      926      903      880      858      839      811      788 
     772      762      773      793      804      819      834      835 
     832      845      859      864      864      864      851      828 
     803      772      743      719      685      643      599      552 
     503      460      426      402      383      373      367      357 
     353      357      371      403      436      468      525      600 
     691      804      915     1005     1074     1128     1178     1220 
    1246     1262     1264     1258     1240     1202     1165     1142 
    1124     1102     1077     1043     1003      972      957      947 
     946      963      980     1000     1034     1065     1086     1105 
    1127     1151     1174     1192     1202     1197     1186     1177 
    1171     1178     1192     1205     1220     1228     1231     1237 
    1237     1232     1227     1223     1224     1216     1194     1174 
    1158     1144     1131     1112     1086     1054     1013      976 
     942      908      882      861      837      816      797      780 
     766      757      753      753      750      754      768      795 
     830      857      886      930      970     1009     1047     1077 
    1107     1134     1158     1196     1228     1239     1240     1233 
    1232     1239     1228     1213     1215     1217     1229     1251 
    1259     1258     1263     1269     1269     1264     1251     1235 
    1223     1208     1202     1215     1225     1232     1235     1229 
    1232     1247     1255     1262     1263     1248     1235     1228 
    1213     1183     1144     1093     1048     1023      999      966 
     930      885      843      815      791      762      729      692 
     660      631      602      575      556      542      531      522 
     518      519      523      533      549      571      594      612 
     623      629      629      634      645      653      658      658 
     664      684      710      731      751      766      778      788 
     787      785      792      796      788      765      737      714 
     695      680      665      643      610      567      526      483 
     430      386      346      309      294      295      297      299 
     303      314      341      367      391      417      446      490 
     525      545      564      580      592      607      625      639 
     654      680      714      754      803      854      895      934 
     978     1017     1048     1081     1105     1125     1140     1128 
    1104     1088     1066     1039     1024     1020     1013     1011 
    1026     1050     1073     1098     1125     1154     1196     1236 
    1262     1282     1304     1328     1352     1362     1359     1356 
    1350     1337     1328     1310     1293     1293     1301     1308 
    1317     1316     1306     1300     1297     1304     1313     1321 
    1331     1337     1347     1351     1339     1325     1318     1310 
    1301     1290     1267     1237     1219     1209     1197     1183 
    1179     1183     1178     1170     1174     1174     1165     1159 
    1147     1123     1097     1069     1035     1009      989      957 
     927      907      878      849      828      800      758      716 
     672      622      575      525      479      426      365      311 
     267      225      186      145      110       79       51       44 
      54       67       91      121      141      162      175      172 
     168      168      167      178      209      241      271      303 
     336      361      382      407      437      467      502      537 
     561      599      646      685      724      773      822      870 
     919      967     1015     1054     1094     1147     1200     1244 
    1282     1317     1347     1362     1359     1350     1337     1316 
    1291     1277     1260     1246     1223     1182     1142     1113 
    1082     1047     1023     1016     1008      993      978      965 
     954      958      970      984     1008     1032     1046     1057 
    1069     1081     1088     1090     1098     1107     1120     1147 
    1170     1182     1197     1217     1232     1242     1251     1262 
    1260     1254     1243     1216     1179     1152     1125     1100 
    1078     1047     1009      980      949      916      893      876 
     862      854      841      824      810      795      789      781 
     770      772      778      783      789      791      792      799 
     812      835      853      870      899      928      955      976 
     988     1004     1024     1038     1053     1062     1063     1075 
    1084     1084     1089     1090     1082     1070     1067     1067 
    1067     1078     1102     1129     1161     1196     1225     1247 
    1263     1275     1270     1256     1244     1224     1204     1190 
    1169     1144     1129     1117     1109     1098     1078     1062 
    1046     1024     1004      988      973      978     1001     1023 
    1036     1053     1071     1088     1102     1113     1125     1138 
    1144     1152     1161     1162     1156     1146     1127     1098 
    1063     1030      999      962      912      864      827      799 
     778      758      742      741      742      742      753      764 
     764      765      774      792      822      843      846      849 
     864      881      893      896      901      912      918      924 
     927      920      909      893      881      870      851      842 
     845      845      850      862      869      878      884      891 
     907      916      920      926      922      903      874      845 
     823      805      791      780      765      741      712      684 
