Origin Time       2025/01/13 21:19:00
Lat.              31.8
Long.             131.6
Depth. (km)       30
Mag.              6.9
Station Code      HRSH04
Station Lat.      34.3785
Station Long.     133.3493
Station Height(m) 25
Record Time       2025/01/13 21:20:43
Sampling Freq(Hz) 100Hz
Duration Time(s)  129
Dir.              4
Scale Factor      7845(gal)/8223790
Max. Acc. (gal)   0.976
Last Correction   2025/01/13 21:20:43
Memo.             
[...]
   -2794    -2794    -2771    -2739    -2710    -2681    -2646    -2616 
   -2610    -2635    -2671    -2704    -2721    -2717    -2694    -2675 
   -2678    -2693    -2701    -2702    -2720    -2745    -2767    -2789 
   -2801    -2802    -2795    -2779    -2766    -2758    -2749    -2744 
   -2731    -2701    -2678    -2675    -2679    -2670    -2651    -2636 
   -2627    -2633    -2656    -2695    -2744    -2790    -2826    -2851 
   -2851    -2826    -2797    -2779    -2786    -2806    -2830    -2852 
   -2851    -2820    -2775    -2731    -2677    -2632    -2616    -2616 
   -2616    -2624    -2646    -2678    -2709    -2731    -2735    -2720 
   -2686    -2643    -2598    -2563    -2540    -2529    -2543    -2575 
   -2617    -2654    -2662    -2652    -2652    -2677    -2717    -2764 
   -2797    -2795    -2762    -2716    -2690    -2714    -2771    -2825 
   -2863    -2874    -2852    -2806    -2759    -2722    -2697    -2678 
   -2673    -2694    -2745    -2808    -2847    -2841    -2806    -2764 
   -2712    -2646    -2600    -2594    -2598    -2589    -2573    -2574 
   -2604    -2644    -2675    -2698    -2704    -2685    -2663    -2647 
   -2644    -2659    -2670    -2671    -2682    -2687    -2679    -2679 
   -2695    -2702    -2690    -2664    -2625    -2581    -2560    -2569 
   -2581    -2579    -2586    -2623    -2666    -2700    -2732    -2758 
   -2756    -2729    -2697    -2689    -2700    -2712    -2717    -2714 
   -2708    -2716    -2747    -2778    -2786    -2776    -2760    -2740 
   -2710    -2667    -2621    -2586    -2555    -2529    -2512    -2502 
   -2504    -2513    -2529    -2562    -2606    -2641    -2662    -2673 
   -2673    -2662    -2666    -2693    -2722    -2735    -2737    -2741 
   -2736    -2702    -2655    -2621    -2608    -2609    -2621    -2648 
   -2667    -2663    -2640    -2609    -2566    -2519    -2498    -2512 
   -2542    -2579    -2629    -2682    -2725    -2755    -2786    -2829 
   -2867    -2880    -2878    -2860    -2813    -2751    -2706    -2693 
   -2712    -2743    -2778    -2812    -2836    -2853    -2884    -2922 
   -2941    -2949    -2949    -2926    -2886    -2845    -2813    -2799 
   -2813    -2832    -2829    -2799    -2754    -2731    -2737    -2754 
   -2775    -2797    -2802    -2797    -2799    -2813    -2817    -2798 
   -2768    -2732    -2691    -2671    -2678    -2667    -2620    -2579 
   -2577    -2602    -2651    -2709    -2751    -2758    -2718    -2666 
   -2643    -2654    -2687    -2724    -2749    -2758    -2751    -2736 
   -2717    -2701    -2697    -2706    -2732    -2771    -2799    -2791 
   -2758    -2720    -2695    -2698    -2722    -2754    -2790    -2830 
   -2855    -2856    -2833    -2790    -2744    -2716    -2704    -2701 
   -2712    -2741    -2786    -2829    -2853    -2860    -2866    -2863 
   -2840    -2808    -2772    -2733    -2695    -2660    -2633    -2620 
   -2616    -2621    -2628    -2625    -2613    -2597    -2597    -2617 
   -2648    -2683    -2721    -2745    -2739    -2704    -2662    -2625 
   -2590    -2569    -2566    -2575    -2600    -2632    -2655    -2664 
   -2662    -2655    -2662    -2683    -2700    -2697    -2693    -2704 
   -2718    -2733    -2752    -2778    -2805    -2805    -2774    -2729 
   -2686    -2660    -2646    -2628    -2608    -2598    -2609    -2640 
   -2673    -2697    -2720    -2747    -2762    -2754    -2729    -2722 
   -2740    -2754    -2749    -2739    -2725    -2722    -2741    -2767 
   -2783    -2794    -2791    -2778    -2767    -2760    -2739    -2695 
   -2650    -2613    -2596    -2609    -2636    -2652    -2662    -2667 
   -2666    -2666    -2662    -2648    -2648    -2673    -2700    -2706 
   -2697    -2677    -2641    -2601    -2575    -2571    -2587    -2609 
   -2614    -2600    -2579    -2544    -2501    -2492    -2516    -2538 
   -2551    -2559    -2565    -2581    -2608    -2631    -2640    -2647 
   -2663    -2685    -2720    -2760    -2790    -2805    -2809    -2801 
   -2791    -2791    -2803    -2829    -2848    -2843    -2833    -2848 
   -2874    -2880    -2875    -2879    -2878    -2867    -2843    -2803 
   -2759    -2729    -2714    -2695    -2679    -2682    -2681    -2658 
   -2623    -2596    -2582    -2586    -2605    -2644    -2708    -2770 
   -2799    -2790    -2759    -2716    -2660    -2601    -2565    -2560 
   -2577    -2602    -2636    -2668    -2687    -2709    -2751    -2799 
   -2829    -2830    -2810    -2774    -2729    -2690    -2673    -2683 
   -2714    -2749    -2783    -2801    -2782    -2732    -2677    -2639 
   -2624    -2635    -2664    -2698    -2729    -2756    -2764    -2749 
   -2736    -2740    -2741    -2733    -2735    -2747    -2758    -2762 
   -2758    -2744    -2728    -2712    -2697    -2682    -2655    -2616 
   -2589    -2582    -2583    -2596    -2610    -2620    -2639    -2663 
   -2666    -2647    -2631    -2621    -2619    -2619    -2623    -2629 
   -2647    -2674    -2709    -2749    -2790    -2817    -2809    -2764 
   -2701    -2639    -2589    -2560    -2554    -2555    -2566    -2594 
   -2646    -2713    -2775    -2802    -2794    -2770    -2737    -2701 
   -2683    -2694    -2720    -2748    -2774    -2786    -2783    -2766 
   -2747    -2737    -2732    -2736    -2762    -2803    -2851    -2890 
   -2920    -2943    -2963    -2982    -2990    -2974    -2940    -2895 
   -2839    -2782    -2749    -2739    -2744    -2768    -2803    -2833 
   -2849    -2849    -2829    -2794    -2768    -2756    -2754    -2763 
   -2781    -2790    -2785    -2779    -2778    -2775    -2775    -2786 
   -2798    -2795    -2774    -2745    -2718    -2706    -2704    -2682 
   -2646    -2632    -2659    -2709    -2760    -2808    -2836    -2830 
   -2789    -2736    -2701    -2700    -2720    -2743    -2772    -2810 
   -2841    -2853    -2843    -2822    -2808    -2810    -2840    -2878 
   -2889    -2868    -2830    -2785    -2745    -2728    -2720    -2713 
   -2713    -2721    -2720    -2705    -2694    -2702    -2712    -2714 
   -2729    -2754    -2763    -2752    -2737    -2728    -2717    -2695 
   -2658    -2619    -2585    -2554    -2536    -2540    -2554    -2574 
   -2605    -2643    -2673    -2678    -2659    -2636    -2627    -2628 
   -2635    -2650    -2655    -2644    -2629    -2627    -2628    -2628 
   -2635    -2648    -2656    -2663    -2678    -2708    -2743    -2766 
   -2776    -2779    -2767    -2747    -2741    -2754    -2762    -2756 
   -2741    -2731    -2714    -2683    -2655    -2652    -2671    -2697 
   -2718    -2740    -2766    -2798    -2820    -2814    -2785    -2754 
   -2728    -2705    -2698    -2704    -2716    -2732    -2729    -2702 
   -2662    -2612    -2574    -2571    -2596    -2625    -2648    -2658 
   -2655    -2660    -2693    -2736    -2766    -2791    -2810    -2817 
   -2817    -2812    -2794    -2759    -2706    -2651    -2613    -2609 
   -2639    -2679    -2709    -2731    -2741    -2740    -2725    -2709 
   -2708    -2718    -2739    -2763    -2782    -2794    -2797    -2795 
   -2798    -2802    -2808    -2818    -2835    -2849    -2853    -2855 
   -2860    -2862    -2853    -2841    -2830    -2832    -2840    -2851 
   -2857    -2840    -2794    -2739    -2694    -2663    -2635    -2614 
   -2617    -2629    -2629    -2625    -2628    -2631    -2621    -2606 
   -2590    -2570    -2550    -2535    -2529    -2532    -2538    -2535 
   -2531    -2529    -2525    -2519    -2519    -2520    -2517    -2519 
   -2527    -2523    -2509    -2504    -2504    -2504    -2513    -2533 
   -2551    -2554    -2533    -2506    -2488    -2473    -2459    -2457 
   -2470    -2502    -2544    -2586    -2629    -2678    -2735    -2785 
   -2821    -2852    -2867    -2856    -2839    -2828    -2817    -2795 
   -2768    -2749    -2744    -2759    -2793    -2816    -2829    -2852 
   -2879    -2911    -2952    -2988    -3010    -3015    -3001    -2968 
   -2932    -2916    -2926    -2948    -2965    -2980    -2984    -2974 
   -2956    -2941    -2936    -2955    -2999    -3042    -3068    -3076 
   -3073    -3063    -3049    -3052    -3079    -3119    -3154    -3168 
   -3165    -3154    -3144    -3123    -3092    -3063    -3042    -3033 
   -3028    -3024    -3015    -3007    -2997    -2979    -2967    -2965 
   -2971    -2982    -3003    -3028    -3040    -3038    -3037    -3037 
   -3030    -3019    -3013    -3015    -3017    -3021    -3040    -3053 
   -3036    -2988    -2929    -2871    -2833    -2818    -2816    -2820 
   -2812    -2775    -2717    -2644    -2575    -2535    -2508    -2485 
   -2469    -2457    -2450    -2447    -2443    -2435    -2425    -2413 
   -2388    -2358    -2342    -2339    -2357    -2400    -2455    -2502 
   -2529    -2535    -2531    -2515    -2481    -2443    -2412    -2389 
   -2373    -2346    -2305    -2265    -2218    -2164    -2116    -2083 
   -2053    -2016    -1981    -1952    -1927    -1907    -1895    -1885 
   -1869    -1842    -1815    -1803    -1804    -1817    -1837    -1876 
   -1942    -2019    -2081    -2123    -2147    -2161    -2172    -2191 
   -2228    -2284    -2339    -2381    -2408    -2427    -2443    -2455 
   -2470    -2490    -2508    -2527    -2546    -2550    -2543    -2542 
   -2544    -2551    -2559    -2567    -2563    -2554    -2548    -2550 
   -2550    -2548    -2548    -2550    -2543    -2543    -2562    -2596 
   -2629    -2652    -2660    -2666    -2674    -2691    -2717    -2745 
   -2774    -2805    -2836    -2867    -2883    -2882    -2882    -2902 
   -2940    -2979    -3010    -3034    -3052    -3060    -3067    -3073 
   -3071    -3055    -3025    -2992    -2959    -2920    -2879    -2853 
   -2840    -2828    -2817    -2813    -2822    -2837    -2849    -2857 
   -2866    -2866    -2853    -2836    -2830    -2840    -2857    -2870 
   -2876    -2878    -2867    -2841    -2812    -2772    -2718    -2671 
   -2639    -2624    -2632    -2651    -2648    -2629    -2608    -2583 
   -2562    -2551    -2552    -2577    -2629    -2695    -2760    -2817 
   -2864    -2910    -2953    -2987    -3019    -3057    -3091    -3117 
   -3140    -3165    -3190    -3195    -3187    -3186    -3187    -3181 
   -3175    -3171    -3161    -3149    -3144    -3153    -3179    -3211 
   -3237    -3254    -3265    -3271    -3273    -3276    -3279    -3272 
   -3250    -3219    -3186    -3164    -3159    -3154    -3137    -3113 
   -3087    -3052    -2991    -2913    -2835    -2764    -2704    -2660 
   -2637    -2620    -2593    -2556    -2517    -2471    -2427    -2397 
   -2378    -2361    -2340    -2316    -2296    -2276    -2253    -2227 
   -2208    -2197    -2200    -2223    -2270    -2332    -2390    -2435 
   -2475    -2524    -2575    -2627    -2670    -2693    -2697    -2694 
   -2698    -2704    -2717    -2751    -2776    -2767    -2743    -2729 
   -2728    -2739    -2759    -2798    -2849    -2891    -2925    -2956 
   -2984    -3002    -3007    -3011    -3019    -3032    -3053    -3076 
   -3082    -3067    -3046    -3026    -2997    -2960    -2924    -2890 
   -2851    -2808    -2771    -2736    -2695    -2652    -2612    -2575 
   -2548    -2533    -2520    -2513    -2512    -2508    -2504    -2511 
   -2520    -2521    -2516    -2520    -2536    -2551    -2552    -2539 
   -2517    -2490    -2461    -2440    -2432    -2432    -2435    -2440 
   -2436    -2421    -2393    -2350    -2301    -2254    -2209    -2182 
   -2174    -2170    -2166    -2169    -2176    -2189    -2207    -2222 
   -2241    -2265    -2278    -2273    -2261    -2250    -2246    -2251 
   -2262    -2278    -2301    -2324    -2344    -2363    -2378    -2400 
   -2442    -2498    -2558    -2617    -2675    -2728    -2776    -2829 
   -2891    -2951    -3005    -3060    -3114    -3159    -3195    -3223 
   -3237    -3246    -3256    -3257    -3249    -3240    -3234    -3225 
   -3207    -3186    -3171    -3161    -3146    -3122    -3096    -3075 
   -3049    -3013    -2972    -2933    -2895    -2863    -2837    -2812 
   -2782    -2744    -2698    -2659    -2633    -2614    -2605    -2604 
   -2594    -2566    -2528    -2489    -2452    -2428    -2416    -2404 
   -2385    -2359    -2330    -2300    -2266    -2238    -2223    -2226 
   -2231    -2230    -2231    -2251    -2284    -2322    -2370    -2427 
   -2479    -2531    -2587    -2646    -2704    -2759    -2799    -2828 
   -2849    -2868    -2886    -2889    -2871    -2845    -2816    -2782 
   -2768    -2779    -2797    -2814    -2820    -2802    -2770    -2733 
   -2695    -2663    -2636    -2628    -2637    -2652    -2671    -2689 
   -2700    -2706    -2709    -2704    -2695    -2689    -2678    -2656 
   -2629    -2598    -2566    -2531    -2501    -2481    -2463    -2442 
   -2427    -2430    -2440    -2448    -2446    -2440    -2436    -2427 
   -2416    -2420    -2446    -2482    -2516    -2546    -2573    -2601 
   -2632    -2664    -2695    -2722    -2744    -2763    -2775    -2775 
   -2764    -2748    -2728    -2708    -2689    -2667    -2640    -2600 
   -2540    -2455    -2346    -2234    -2139    -2065    -2003    -1953 
   -1912    -1879    -1853    -1840    -1844    -1865    -1895    -1918 
   -1929    -1927    -1923    -1929    -1952    -1988    -2027    -2064 
   -2096    -2131    -2172    -2212    -2249    -2289    -2340    -2405 
   -2485    -2566    -2646    -2731    -2818    -2897    -2967    -3033 
   -3092    -3146    -3195    -3250    -3322    -3397    -3462    -3514 
   -3550    -3584    -3608    -3616    -3620    -3623    -3616    -3612 
   -3623    -3638    -3658    -3689    -3717    -3731    -3724    -3699 
   -3672    -3655    -3635    -3604    -3568    -3532    -3505    -3483 
   -3461    -3442    -3419    -3383    -3338    -3288    -3234    -3184 
   -3137    -3079    -3018    -2965    -2924    -2890    -2857    -2826 
   -2799    -2782    -2768    -2755    -2737    -2720    -2705    -2691 
   -2686    -2694    -2712    -2736    -2763    -2785    -2802    -2810 
   -2810    -2813    -2818    -2821    -2817    -2813    -2810    -2813 
   -2824    -2830    -2826    -2821    -2810    -2794    -2781    -2772 
   -2774    -2790    -2809    -2818    -2818    -2813    -2812    -2825 
   -2845    -2864    -2884    -2901    -2907    -2917    -2924    -2925 
   -2932    -2945    -2960    -2978    -2997    -3015    -3026    -3026 
   -3009    -2972    -2932    -2899    -2870    -2841    -2822    -2802 
   -2776    -2754    -2733    -2709    -2682    -2646    -2600    -2556 
   -2511    -2459    -2419    -2389    -2365    -2346    -2328    -2308 
   -2286    -2263    -2243    -2231    -2227    -2227    -2227    -2228 
   -2226    -2223    -2220    -2216    -2216    -2219    -2223    -2234 
   -2243    -2243    -2238    -2226    -2205    -2177    -2139    -2095 
   -2058    -2038    -2037    -2046    -2056    -2061    -2065    -2064 
   -2050    -2031    -2018    -2015    -2018    -2026    -2034    -2035 
   -2030    -2023    -2025    -2035    -2054    -2089    -2149    -2218 
   -2288    -2358    -2421    -2481    -2542    -2598    -2644    -2678 
   -2695    -2709    -2735    -2760    -2781    -2803    -2836    -2880 
   -2933    -2990    -3049    -3105    -3161    -3217    -3258    -3285 
   -3308    -3318    -3312    -3308    -3298    -3283    -3277    -3279 
   -3268    -3244    -3206    -3161    -3111    -3064    -3032    -3013 
   -3003    -3001    -2992    -2982    -2978    -2979    -2982    -2984 
   -2976    -2953    -2932    -2921    -2916    -2907    -2894    -2880 
   -2876    -2883    -2899    -2928    -2961    -2984    -2992    -2979 
   -2943    -2889    -2829    -2774    -2724    -2675    -2628    -2574 
   -2523    -2486    -2463    -2448    -2436    -2425    -2419    -2415 
   -2413    -2413    -2409    -2397    -2376    -2350    -2317    -2276 
   -2232    -2191    -2143    -2092    -2042    -1999    -1965    -1939 
   -1923    -1923    -1941    -1976    -2020    -2072    -2130    -2192 
   -2242    -2277    -2307    -2326    -2338    -2363    -2400    -2439 
   -2478    -2520    -2569    -2625    -2690    -2754    -2810    -2862 
   -2906    -2943    -2968    -2991    -3018    -3048    -3075    -3099 
   -3121    -3146    -3176    -3204    -3234    -3265    -3294    -3315 
   -3334    -3350    -3364    -3379    -3397    -3423    -3457    -3493 
   -3522    -3537    -3531    -3505    -3472    -3435    -3402    -3358 
   -3298    -3227    -3164    -3107    -3052    -3005    -2963    -2920 
   -2882    -2849    -2812    -2766    -2714    -2666    -2631    -2608 
   -2587    -2567    -2551    -2536    -2524    -2506    -2478    -2446 
   -2419    -2404    -2396    -2392    -2394    -2413    -2440    -2465 
   -2484    -2494    -2497    -2494    -2500    -2508    -2512    -2516 
   -2512    -2496    -2477    -2459    -2438    -2417    -2409    -2428 
   -2475    -2539    -2602    -2654    -2691    -2716    -2729    -2744 
   -2776    -2820    -2862    -2905    -2945    -2975    -2994    -3002 
   -3001    -2992    -2980    -2967    -2948    -2922    -2897    -2872 
   -2851    -2839    -2837    -2844    -2848    -2843    -2837    -2837 
   -2836    -2839    -2853    -2876    -2906    -2936    -2963    -2988 
   -3010    -3019    -3018    -3006    -2978    -2936    -2894    -2851 
   -2808    -2776    -2760    -2745    -2732    -2731    -2736    -2744 
   -2762    -2775    -2779    -2789    -2797    -2801    -2809    -2821 
   -2829    -2841    -2860    -2872    -2875    -2880    -2882    -2875 
   -2859    -2829    -2785    -2725    -2660    -2605    -2569    -2538 
   -2520    -2520    -2532    -2546    -2566    -2592    -2619    -2646 
   -2674    -2702    -2731    -2762    -2787    -2817    -2857    -2899 
   -2940    -2980    -3022    -3055    -3076    -3083    -3076    -3059 
   -3029    -2988    -2948    -2909    -2863    -2810    -2762    -2714 
   -2671    -2633    -2592    -2547    -2509    -2481    -2461    -2451 
   -2444    -2435    -2427    -2421    -2416    -2419    -2430    -2442 
   -2444    -2443    -2440    -2431    -2412    -2392    -2380    -2363 
   -2339    -2320    -2300    -2277    -2253    -2235    -2232    -2243 
   -2262    -2286    -2311    -2331    -2344    -2354    -2357    -2357 
   -2363    -2369    -2363    -2354    -2349    -2342    -2332    -2331 
   -2340    -2354    -2374    -2404    -2430    -2447    -2461    -2474 
   -2494    -2527    -2566    -2600    -2631    -2664    -2695    -2717 
   -2739    -2760    -2783    -2812    -2852    -2910    -2972    -3025 
   -3069    -3110    -3145    -3173    -3200    -3231    -3272    -3315 
   -3352    -3381    -3403    -3411    -3407    -3395    -3383    -3377 
   -3364    -3339    -3308    -3271    -3219    -3157    -3094    -3040 
   -2988    -2930    -2867    -2797    -2721    -2654    -2590    -2529 
   -2477    -2430    -2381    -2328    -2285    -2246    -2205    -2165 
   -2128    -2096    -2070    -2052    -2037    -2019    -2000    -1989 
   -1985    -1988    -2004    -2039    -2081    -2115    -2135    -2151 
   -2169    -2188    -2208    -2232    -2261    -2299    -2347    -2403 
   -2466    -2535    -2602    -2673    -2745    -2817    -2884    -2949 
   -3011    -3073    -3132    -3181    -3225    -3262    -3292    -3315 
   -3341    -3362    -3379    -3388    -3389    -3379    -3361    -3335 
   -3300    -3258    -3218    -3183    -3148    -3109    -3079    -3060 
   -3044    -3026    -2998    -2960    -2921    -2890    -2866    -2841 
