Origin Time       2025/01/13 21:19:00
Lat.              31.8
Long.             131.6
Depth. (km)       30
Mag.              6.9
Station Code      HRSH18
Station Lat.      34.4572
Station Long.     132.7923
Station Height(m) 135
Record Time       2025/01/13 21:20:26
Sampling Freq(Hz) 100Hz
Duration Time(s)  133
Dir.              3
Scale Factor      2942(gal)/8224139
Max. Acc. (gal)   0.988
Last Correction   2025/01/13 21:20:27
Memo.             
[...]
   92647    92691    92719    92747    92784    92816    92824    92776 
   92701    92651    92611    92566    92533    92515    92495    92452 
   92399    92362    92358    92369    92335    92259    92213    92198 
   92167    92133    92118    92111    92115    92140    92183    92227 
   92260    92292    92346    92388    92402    92433    92489    92518 
   92499    92477    92483    92499    92496    92485    92493    92492 
   92452    92368    92254    92179    92163    92134    92125    92226 
   92383    92476    92520    92592    92651    92647    92624    92608 
   92573    92522    92458    92404    92416    92465    92473    92446 
   92425    92408    92392    92357    92314    92319    92361    92385 
   92373    92321    92257    92218    92196    92183    92176    92194 
   92245    92306    92356    92388    92411    92442    92439    92356 
   92257    92229    92237    92219    92214    92257    92294    92291 
   92277    92249    92200    92169    92163    92148    92140    92188 
   92253    92295    92368    92475    92550    92597    92665    92761 
   92847    92904    92946    92978    92990    92998    92977    92917 
   92875    92870    92885    92912    92936    92973    93027    93054 
   93040    93050    93100    93116    93097    93114    93140    93108 
   93058    93035    93013    92981    92969    92986    93000    93001 
   93015    93037    93031    92996    92971    92928    92842    92758 
   92686    92611    92556    92539    92558    92574    92561    92535 
   92508    92495    92506    92489    92439    92412    92398    92360 
   92319    92290    92253    92227    92223    92217    92203    92202 
   92217    92215    92190    92180    92178    92151    92113    92084 
   92083    92105    92097    92055    92030    92028    92011    92009 
   92029    92024    92006    92020    92052    92091    92115    92098 
   92080    92092    92071    92024    92051    92129    92169    92172 
   92196    92265    92361    92443    92483    92491    92504    92518 
   92508    92504    92529    92576    92630    92665    92686    92730 
   92785    92817    92826    92853    92893    92907    92925    92974 
   92996    92983    92988    93019    93033    93001    92965    92973 
   93013    93062    93094    93077    93019    92951    92882    92809 
   92730    92645    92577    92516    92452    92406    92371    92326 
   92272    92249    92263    92259    92230    92246    92310    92338 
   92319    92303    92292    92284    92276    92290    92357    92418 
   92427    92448    92515    92568    92581    92578    92565    92522 
   92458    92398    92358    92357    92376    92368    92345    92346 
   92364    92371    92369    92388    92418    92434    92462    92511 
   92569    92646    92720    92753    92777    92803    92807    92830 
   92898    92950    92952    92952    92961    92938    92869    92763 
   92650    92591    92601    92612    92588    92576    92574    92558 
   92546    92534    92512    92491    92458    92415    92403    92448 
   92508    92524    92504    92508    92560    92576    92538    92545 
   92611    92657    92672    92715    92778    92813    92819    92834 
   92858    92848    92803    92762    92712    92614    92516    92457 
   92408    92357    92298    92217    92122    92018    91924    91866 
   91825    91783    91778    91844    91951    92044    92126    92209 
   92296    92394    92466    92502    92549    92607    92627    92597 
   92576    92596    92616    92646    92712    92755    92767    92807 
   92877    92925    92920    92890    92878    92907    92967    93005 
   93019    93037    93039    93033    93036    93035    93058    93077 
   93012    92915    92889    92921    92915    92843    92772    92731 
   92677    92612    92543    92446    92345    92252    92155    92087 
   92048    92014    91987    91963    91957    91984    92002    92002 
   92025    92084    92151    92192    92207    92209    92222    92260 
   92290    92306    92341    92383    92416    92458    92514    92570 
   92624    92696    92781    92839    92878    92928    92963    92983 
   93010    93033    93037    92997    92896    92786    92699    92595 
   92461    92352    92291    92232    92148    92090    92071    92056 
   92055    92072    92092    92121    92165    92227    92281    92292 
   92304    92368    92434    92448    92443    92488    92554    92573 
   92576    92616    92639    92622    92595    92561    92537    92541 
   92566    92589    92618    92666    92688    92697    92746    92808 
   92847    92871    92880    92870    92855    92853    92862    92882 
   92900    92911    92942    92985    93029    93064    93058    93028 
   93004    92974    92919    92828    92716    92618    92551    92518 
   92493    92479    92475    92472    92480    92514    92557    92572 
   92580    92615    92647    92681    92753    92853    92950    93010 
   93046    93124    93214    93239    93208    93162    93135    93145 
   93152    93120    93071    93033    93016    92992    92946    92924 
   92917    92870    92807    92770    92749    92732    92723    92703 
   92677    92664    92655    92642    92620    92592    92573    92570 
   92573    92558    92503    92443    92426    92426    92402    92389 
   92423    92427    92383    92373    92403    92423    92426    92445 
   92453    92415    92379    92337    92265    92218    92192    92175 
   92199    92254    92310    92357    92391    92419    92469    92514 
   92500    92495    92534    92542    92524    92554    92581    92550 
   92514    92516    92537    92569    92615    92654    92677    92688 
   92685    92691    92693    92659    92600    92535    92485    92481 
   92500    92485    92433    92399    92394    92368    92314    92286 
   92295    92299    92286    92273    92268    92250    92223    92222 
   92218    92188    92178    92186    92232    92338    92438    92484 
   92483    92473    92516    92565    92541    92473    92433    92439 
   92464    92496    92545    92570    92550    92520    92499    92477 
   92425    92337    92280    92307    92361    92389    92408    92443 
   92499    92554    92585    92583    92585    92631    92689    92719 
   92722    92728    92762    92793    92805    92819    92854    92911 
   92940    92913    92928    93009    93036    93035    93104    93166 
   93145    93127    93166    93177    93128    93089    93090    93102 
   93105    93091    93063    93019    92973    92936    92921    92934 
   92919    92863    92842    92865    92847    92780    92738    92727 
   92693    92651    92643    92649    92628    92583    92546    92529 
   92491    92438    92398    92345    92275    92226    92207    92171 
   92101    92029    91957    91894    91862    91822    91750    91677 
   91601    91550    91569    91613    91638    91648    91656    91679 
   91705    91719    91731    91736    91714    91677    91656    91651 
   91642    91636    91606    91546    91527    91535    91481    91400 
   91370    91355    91328    91336    91351    91324    91300    91305 
   91331    91366    91411    91481    91567    91638    91700    91755 
   91797    91804    91786    91791    91828    91863    91872    91844 
   91825    91845    91855    91844    91876    91943    91980    92014 
   92065    92080    92076    92105    92141    92157    92180    92222 
   92254    92257    92246    92256    92287    92291    92264    92257 
   92281    92314    92344    92384    92452    92506    92523    92549 
   92585    92615    92645    92645    92604    92573    92574    92589 
   92597    92573    92553    92558    92547    92556    92626    92708 
   92761    92812    92859    92884    92907    92931    92951    92985 
   93020    93037    93046    93051    93058    93086    93135    93183 
   93225    93252    93239    93190    93151    93136    93100    93037 
   93005    92996    92961    92921    92917    92924    92921    92915 
   92936    93001    93071    93123    93154    93171    93199    93228 
   93213    93168    93136    93104    93031    92947    92877    92800 
   92720    92645    92569    92506    92468    92475    92503    92518 
   92533    92560    92593    92661    92754    92807    92800    92803 
   92838    92848    92835    92859    92916    92947    92966    93000 
   93025    93032    93048    93070    93062    93052    93083    93124 
   93128    93108    93117    93150    93150    93117    93079    93042 
   93027    93023    92986    92929    92867    92788    92704    92642 
   92612    92578    92506    92456    92460    92458    92458    92503 
   92556    92577    92597    92623    92653    92704    92773    92819 
   92844    92885    92931    92962    93000    93028    93028    93048 
   93077    93051    92993    92966    92969    92966    92951    92909 
   92836    92785    92749    92678    92608    92578    92539    92477 
   92454    92466    92442    92415    92429    92443    92479    92546 
   92611    92688    92769    92823    92896    93006    93106    93193 
   93289    93356    93388    93438    93505    93550    93583    93618 
   93645    93648    93623    93606    93623    93649    93664    93683 
   93685    93683    93714    93750    93737    93708    93704    93696 
   93649    93573    93502    93451    93399    93307    93231    93218 
   93218    93195    93179    93198    93228    93222    93177    93123 
   93071    93001    92921    92867    92819    92742    92657    92577 
   92524    92503    92460    92410    92383    92321    92209    92101 
   92021    91952    91886    91822    91748    91671    91620    91593 
   91539    91467    91454    91480    91494    91527    91586    91644 
   91702    91754    91789    91814    91841    91887    91944    91974 
   91984    92025    92072    92098    92153    92248    92308    92327 
   92352    92388    92445    92511    92543    92553    92569    92597 
   92654    92716    92751    92776    92805    92821    92816    92803 
   92790    92767    92724    92664    92603    92583    92581    92554 
   92519    92503    92504    92514    92515    92508    92511    92524 
   92556    92601    92627    92616    92607    92630    92677    92712 
   92712    92691    92677    92673    92664    92638    92601    92568 
   92529    92462    92375    92292    92211    92098    91952    91814 
   91701    91581    91453    91358    91296    91226    91153    91099 
   91065    91041    91010    91000    91031    91046    91042    91079 
   91142    91191    91234    91282    91351    91442    91527    91623 
   91752    91878    91991    92132    92264    92367    92476    92587 
   92665    92709    92722    92689    92616    92522    92414    92308 
   92199    92095    92005    91920    91837    91754    91662    91594 
   91563    91532    91490    91466    91451    91426    91417    91451 
   91501    91532    91562    91605    91638    91662    91706    91748 
   91774    91812    91870    91929    91967    91983    92007    92049 
   92080    92056    92006    91995    91974    91898    91828    91800 
   91779    91750    91724    91689    91646    91627    91644    91683 
   91744    91812    91871    91944    92038    92134    92236    92325 
   92400    92489    92583    92680    92777    92842    92904    92967 
   92993    93006    93035    93070    93102    93131    93181    93263 
   93329    93356    93379    93414    93448    93467    93476    93503 
   93528    93511    93495    93518    93549    93580    93622    93648 
   93660    93676    93707    93757    93819    93908    94014    94111 
   94219    94340    94463    94598    94721    94803    94869    94940 
   95008    95046    95052    95057    95075    95073    95018    94923 
   94855    94797    94689    94582    94528    94473    94401    94332 
   94267    94235    94238    94238    94225    94217    94217    94231 
   94247    94244    94220    94186    94154    94099    94014    93958 
   93937    93887    93799    93719    93656    93569    93441    93301 
   93168    93051    92951    92835    92691    92564    92481    92403 
   92311    92236    92168    92091    92014    91929    91844    91759 
   91659    91584    91535    91477    91420    91373    91324    91282 
   91238    91181    91129    91085    91077    91100    91123    91154 
   91201    91268    91368    91455    91505    91563    91615    91611 
   91590    91588    91570    91523    91474    91432    91390    91363 
   91332    91274    91227    91215    91208    91207    91219    91227 
   91235    91272    91324    91365    91393    91413    91436    91474 
   91512    91530    91540    91562    91578    91592    91615    91616 
   91592    91559    91515    91477    91444    91380    91299    91237 
   91195    91158    91107    91054    91026    91026    91035    91033 
   91015    90995    90996    90999    90968    90931    90919    90896 
   90867    90873    90911    90965    91042    91135    91237    91362 
   91497    91636    91797    91959    92122    92300    92453    92581 
   92711    92808    92862    92905    92928    92920    92893    92848 
   92781    92709    92655    92608    92554    92497    92439    92394 
   92372    92345    92300    92283    92275    92240    92209    92225 
   92281    92348    92418    92520    92654    92803    92970    93137 
   93297    93482    93675    93834    93974    94127    94271    94385 
   94478    94548    94598    94637    94662    94693    94755    94824 
   94880    94934    94990    95048    95121    95206    95278    95301 
   95288    95276    95260    95200    95076    94925    94772    94608 
   94451    94298    94101    93896    93733    93568    93398    93268 
   93172    93077    92970    92870    92799    92753    92712    92678 
   92681    92705    92728    92763    92831    92901    92948    92979 
   92996    93015    93050    93069    93069    93070    93064    93036 
   93006    92977    92932    92866    92776    92681    92599    92492 
   92349    92207    92094    92002    91916    91825    91752    91696 
   91639    91593    91574    91575    91584    91589    91608    91658 
   91702    91710    91723    91755    91786    91810    91822    91841 
   91894    91941    91928    91893    91894    91922    91926    91901 
   91868    91835    91800    91764    91724    91666    91605    91552 
   91490    91401    91309    91238    91172    91100    91045    91011 
   90969    90923    90915    90927    90918    90909    90940    90991 
   91033    91068    91103    91137    91168    91201    91239    91257 
   91251    91251    91268    91276    91278    91280    91272    91250 
   91239    91254    91277    91288    91293    91307    91339    91386 
   91430    91478    91554    91635    91697    91778    91894    92013 
   92115    92215    92310    92394    92469    92539    92604    92641 
   92635    92607    92574    92522    92472    92439    92380    92295 
   92219    92149    92083    92016    91968    91970    91991    92017 
   92071    92153    92252    92362    92491    92631    92759    92874 
   92988    93086    93159    93229    93318    93399    93453    93506 
   93579    93668    93762    93870    94003    94135    94247    94366 
   94498    94622    94725    94807    94872    94921    94940    94917 
   94879    94844    94771    94662    94559    94462    94335    94193 
   94080    94000    93930    93858    93784    93715    93680    93668 
   93644    93609    93576    93540    93488    93429    93395    93376 
   93328    93252    93182    93110    93015    92890    92749    92607 
   92480    92371    92249    92106    91986    91885    91750    91617 
   91527    91449    91377    91323    91258    91206    91203    91222 
   91239    91269    91334    91416    91496    91589    91709    91833 
   91943    92057    92182    92284    92376    92480    92570    92646 
   92732    92803    92844    92890    92939    92969    92992    93002 
   92989    92962    92932    92919    92928    92938    92940    92946 
   92951    92958    92969    92975    92990    93032    93081    93101 
   93106    93144    93213    93259    93293    93339    93379    93397 
   93398    93390    93364    93313    93243    93166    93087    92994 
   92898    92830    92759    92664    92578    92515    92453    92380 
   92313    92276    92253    92209    92159    92124    92105    92113 
   92117    92113    92140    92176    92184    92195    92218    92233 
   92260    92298    92325    92360    92415    92465    92510    92569 
   92634    92699    92777    92873    92965    93051    93151    93260 
   93366    93464    93552    93629    93685    93702    93714    93750 
   93758    93734    93703    93660    93607    93544    93474    93403 
   93321    93232    93145    93055    92952    92842    92735    92643 
   92560    92469    92362    92253    92151    92044    91926    91794 
   91658    91543    91457    91380    91300    91243    91220    91211 
   91219    91254    91301    91351    91403    91461    91539    91633 
   91723    91787    91841    91908    91987    92061    92111    92142 
   92161    92168    92187    92217    92209    92180    92178    92182 
   92180    92178    92165    92144    92121    92103    92098    92099 
   92090    92070    92049    92034    92021    92022    92044    92067 
   92091    92114    92136    92159    92171    92180    92188    92182 
   92159    92128    92094    92084    92092    92094    92095    92105 
   92115    92136    92163    92184    92221    92276    92318    92358 
   92415    92468    92511    92564    92627    92685    92738    92797 
   92867    92935    92994    93054    93124    93198    93262    93303 
   93336    93359    93368    93371    93371    93371    93372    93360 
   93339    93325    93301    93266    93252    93248    93236    93231 
   93225    93218    93236    93253    93255    93247    93216    93167 
   93120    93064    93004    92938    92869    92803    92728    92651 
   92580    92500    92410    92337    92292    92259    92218    92173 
   92142    92128    92122    92115    92111    92122    92146    92173 
   92206    92245    92276    92298    92326    92362    92391    92391 
   92379    92381    92391    92389    92388    92394    92410    92429 
   92438    92445    92454    92466    92481    92481    92484    92504 
   92504    92476    92468    92481    92479    92457    92448    92456 
   92460    92452    92456    92481    92502    92512    92545    92597 
   92647    92693    92724    92745    92777    92805    92817    92832 
   92854    92867    92881    92898    92898    92893    92901    92897 
   92878    92869    92880    92889    92886    92881    92888    92897 
   92889    92858    92821    92774    92709    92639    92560    92454 
   92338    92244    92163    92080    92005    91939    91887    91862 
   91844    91831    91851    91895    91926    91949    91995    92057 
   92107    92167    92254    92333    92389    92448    92492    92529 
   92597    92672    92719    92767    92820    92859    92912    92988 
   93044    93073    93104    93127    93133    93141    93147    93137 
   93127    93120    93118    93109    93089    93064    93029    92985 
   92940    92882    92805    92720    92645    92584    92522    92452 
   92392    92337    92281    92252    92232    92210    92206    92209 
