Origin Time       2025/01/13 21:19:00
Lat.              31.8
Long.             131.6
Depth. (km)       30
Mag.              6.9
Station Code      HRSH03
Station Lat.      34.5183
Station Long.     133.1375
Station Height(m) -40
Record Time       2025/01/13 21:20:33
Sampling Freq(Hz) 100Hz
Duration Time(s)  142
Dir.              2
Scale Factor      3923(gal)/8224838
Max. Acc. (gal)   0.797
Last Correction   2025/01/13 21:20:34
Memo.             
[...]
   10531    10517    10498    10471    10454    10455    10458    10450 
   10446    10450    10436    10400    10366    10347    10335    10322 
   10303    10289    10281    10264    10233    10199    10180    10169 
   10146    10111    10095    10107    10123    10135    10165    10214 
   10251    10268    10278    10296    10308    10315    10332    10357 
   10373    10381    10388    10393    10405    10434    10463    10476 
   10490    10512    10520    10511    10497    10480    10455    10427 
   10407    10392    10373    10358    10355    10359    10368    10385 
   10409    10446    10489    10523    10534    10527    10515    10498 
   10482    10474    10466    10454    10434    10417    10413    10419 
   10438    10461    10469    10458    10444    10444    10458    10473 
   10478    10484    10498    10513    10532    10544    10543    10550 
   10571    10582    10574    10557    10542    10540    10543    10540 
   10536    10540    10551    10552    10540    10531    10547    10584 
   10619    10639    10627    10584    10539    10516    10517    10527 
   10527    10505    10480    10466    10469    10482    10505    10520 
   10505    10466    10419    10373    10345    10342    10350    10345 
   10326    10297    10272    10258    10253    10246    10247    10255 
   10264    10272    10281    10307    10358    10412    10438    10442 
   10451    10465    10461    10439    10423    10424    10434    10430 
   10408    10386    10366    10343    10324    10319    10342    10384 
   10413    10423    10428    10450    10473    10473    10463    10455 
   10449    10444    10447    10455    10467    10478    10482    10490 
   10520    10550    10558    10555    10547    10538    10535    10540 
   10546    10548    10547    10544    10552    10575    10596    10600 
   10602    10617    10642    10659    10651    10619    10574    10532 
   10493    10449    10416    10405    10385    10347    10305    10270 
   10245    10230    10224    10218    10195    10158    10125    10104 
   10099    10091    10066    10037    10017     9996     9965     9934 
    9922     9927     9934     9942     9948     9949     9960     9977 
   10000    10037    10075    10087    10071    10052    10052    10049 
   10025     9998     9975     9949     9944     9981    10042    10099 
   10157    10218    10265    10292    10323    10369    10415    10451 
   10474    10473    10454    10434    10417    10408    10400    10399 
   10409    10423    10435    10457    10490    10524    10540    10535 
   10505    10469    10446    10431    10423    10427    10428    10412 
   10407    10431    10476    10517    10531    10513    10486    10477 
   10497    10527    10551    10554    10530    10492    10455    10435 
   10443    10471    10494    10511    10527    10539    10551    10563 
   10570    10573    10569    10550    10519    10485    10447    10420 
   10409    10396    10378    10373    10378    10382    10386    10395 
   10405    10415    10426    10438    10440    10435    10435    10438 
   10420    10380    10341    10319    10316    10324    10330    10334 
   10347    10369    10385    10399    10423    10463    10492    10486 
   10446    10393    10359    10349    10336    10314    10291    10266 
   10241    10234    10247    10273    10297    10304    10297    10299 
   10311    10342    10382    10395    10389    10380    10359    10346 
   10357    10376    10384    10385    10388    10388    10395    10409 
   10423    10435    10454    10485    10531    10584    10621    10625 
   10594    10552    10525    10517    10521    10527    10534    10543 
   10551    10571    10600    10609    10602    10586    10569    10569 
   10575    10561    10525    10488    10455    10427    10409    10407 
   10409    10407    10396    10384    10374    10378    10409    10434 
   10409    10353    10296    10255    10250    10276    10296    10278 
   10216    10154    10127    10130    10143    10174    10220    10258 
   10273    10270    10281    10312    10323    10300    10276    10266 
   10277    10305    10327    10326    10323    10326    10324    10319 
   10322    10341    10373    10397    10401    10395    10382    10366 
   10345    10324    10311    10304    10305    10304    10299    10301 
   10316    10341    10368    10395    10422    10435    10430    10420 
   10407    10392    10374    10359    10347    10327    10316    10343 
   10397    10432    10440    10442    10446    10457    10471    10484 
   10489    10484    10459    10412    10358    10322    10308    10311 
   10319    10323    10326    10335    10365    10397    10397    10372 
   10353    10339    10318    10299    10291    10284    10273    10274 
   10285    10293    10297    10322    10372    10413    10434    10450 
   10484    10521    10542    10540    10530    10519    10504    10490 
   10478    10458    10436    10432    10455    10482    10494    10500 
   10509    10520    10527    10516    10485    10462    10459    10473 
   10493    10505    10497    10488    10492    10496    10503    10508 
   10512    10523    10527    10505    10493    10523    10575    10606 
   10597    10565    10527    10497    10474    10465    10469    10458 
   10419    10374    10350    10359    10401    10454    10477    10466 
   10453    10447    10438    10435    10443    10449    10447    10447 
   10461    10470    10450    10430    10453    10494    10511    10520 
   10538    10536    10509    10484    10476    10490    10498    10476 
   10427    10378    10353    10369    10400    10409    10409    10408 
   10397    10395    10405    10400    10378    10363    10366    10381 
   10385    10363    10349    10343    10326    10296    10261    10230 
   10227    10255    10284    10300    10314    10323    10314    10293 
   10284    10287    10295    10307    10331    10354    10357    10368 
   10397    10409    10401    10396    10390    10380    10373    10357 
   10316    10276    10268    10272    10264    10255    10270    10308 
   10346    10362    10366    10377    10393    10397    10393    10396 
   10413    10444    10473    10490    10505    10524    10544    10584 
   10633    10667    10674    10660    10629    10605    10619    10647 
   10646    10628    10606    10573    10546    10546    10559    10569 
   10570    10559    10536    10509    10496    10503    10505    10474 
   10426    10395    10374    10354    10355    10389    10435    10476 
   10503    10493    10442    10388    10363    10346    10314    10287 
   10274    10246    10189    10143    10142    10164    10169    10166 
   10192    10235    10254    10245    10224    10215    10227    10222 
   10188    10156    10139    10143    10164    10177    10185    10230 
   10319    10420    10503    10546    10547    10525    10509    10511 
   10531    10548    10539    10509    10485    10470    10471    10494 
   10501    10471    10438    10405    10372    10362    10381    10408 
   10426    10417    10400    10403    10416    10407    10381    10362 
   10350    10330    10316    10334    10372    10393    10388    10376 
   10365    10355    10361    10381    10393    10392    10407    10432 
   10431    10413    10427    10473    10513    10528    10507    10451 
   10389    10339    10314    10305    10297    10307    10358    10416 
   10449    10471    10486    10481    10457    10430    10399    10357 
   10322    10314    10326    10331    10319    10296    10278    10285 
   10303    10292    10255    10228    10216    10199    10177    10165 
   10153    10145    10143    10134    10115    10107    10131    10195 
   10266    10304    10319    10346    10365    10362    10358    10372 
   10409    10465    10524    10600    10687    10750    10768    10767 
   10775    10808    10856    10890    10902    10906    10889    10847 
   10789    10716    10643    10582    10523    10476    10450    10426 
   10408    10401    10389    10361    10323    10277    10238    10208 
   10168    10126    10115    10145    10196    10242    10270    10278 
   10284    10301    10324    10330    10326    10330    10345    10358 
   10363    10372    10386    10408    10431    10436    10430    10431 
   10436    10432    10417    10390    10350    10315    10307    10320 
   10350    10374    10370    10334    10297    10300    10332    10359 
   10392    10438    10461    10450    10450    10470    10467    10438 
   10428    10446    10455    10449    10432    10401    10374    10376 
   10388    10392    10397    10404    10409    10412    10427    10469 
   10519    10558    10594    10628    10654    10671    10682    10679 
   10663    10642    10621    10597    10577    10552    10505    10446 
   10386    10331    10281    10222    10160    10106    10068    10052 
   10053    10061    10072    10095    10116    10115    10118    10146 
   10161    10123    10053     9998     9971     9936     9898     9906 
    9958    10029    10107    10166    10168    10127    10104    10123 
   10149    10153    10138    10134    10153    10164    10142    10111 
   10098    10106    10116    10099    10071    10069    10096    10133 
   10169    10200    10218    10219    10207    10196    10200    10210 
   10211    10203    10181    10158    10153    10168    10193    10210 
   10203    10193    10200    10215    10239    10269    10295    10330 
   10370    10381    10357    10349    10369    10370    10353    10351 
   10381    10431    10477    10504    10516    10513    10505    10507 
   10513    10512    10501    10473    10427    10405    10409    10401 
   10373    10342    10324    10341    10380    10399    10376    10331 
   10297    10278    10247    10193    10146    10126    10110    10081 
   10050    10023     9984     9949     9953     9981    10002    10014 
   10012    10003    10006    10030    10056    10066    10069    10073 
   10087    10112    10135    10160    10184    10196    10191    10179 
   10177    10201    10246    10299    10346    10372    10370    10354 
   10345    10351    10358    10345    10326    10336    10368    10392 
   10416    10447    10461    10467    10492    10517    10523    10521 
   10530    10543    10570    10608    10639    10659    10660    10635 
   10613    10612    10608    10604    10617    10628    10624    10627 
   10632    10629    10627    10631    10644    10665    10660    10624 
   10575    10516    10443    10393    10392    10401    10396    10390 
   10384    10349    10289    10237    10212    10210    10204    10187 
   10162    10131    10106    10106    10107    10085    10072    10102 
   10165    10224    10250    10243    10228    10227    10258    10323 
   10385    10404    10397    10409    10438    10466    10505    10562 
   10621    10670    10693    10696    10704    10735    10793    10872 
   10957    11034    11092    11118    11125    11151    11198    11256 
   11303    11321    11345    11400    11448    11465    11473    11479 
   11480    11484    11492    11492    11489    11495    11495    11475 
   11449    11443    11445    11423    11388    11361    11338    11296 
   11227    11160    11129    11111    11082    11049    11011    10944 
   10868    10825    10814    10822    10841    10843    10825    10810 
   10804    10801    10793    10775    10762    10754    10724    10673 
   10625    10585    10531    10461    10400    10353    10323    10311 
   10295    10246    10189    10176    10208    10241    10238    10216 
   10206    10189    10170    10164    10152    10130    10138    10183 
   10235    10272    10285    10287    10288    10295    10314    10339 
   10349    10336    10316    10292    10273    10270    10285    10308 
   10322    10320    10335    10366    10397    10447    10527    10594 
   10625    10651    10697    10739    10764    10786    10805    10809 
   10800    10787    10800    10840    10874    10889    10899    10910 
   10906    10899    10905    10899    10866    10835    10833    10840 
   10839    10836    10839    10866    10909    10939    10947    10953 
   10967    10990    11018    11044    11063    11074    11084    11101 
   11126    11152    11182    11215    11246    11271    11291    11300 
   11298    11279    11229    11151    11063    10982    10920    10893 
   10883    10858    10818    10771    10713    10662    10638    10635 
   10639    10640    10633    10609    10571    10546    10521    10492 
   10485    10501    10504    10486    10474    10469    10454    10423 
   10392    10369    10353    10331    10299    10276    10270    10273 
   10284    10288    10282    10281    10285    10276    10254    10231 
   10203    10161    10099    10027     9960     9892     9822     9744 
    9656     9576     9520     9481     9444     9398     9346     9309 
    9301     9316     9347     9366     9355     9339     9339     9335 
    9323     9328     9339     9333     9335     9359     9401     9445 
    9474     9490     9517     9568     9624     9663     9693     9715 
    9736     9761     9790     9815     9838     9861     9877     9898 
    9952    10035    10107    10147    10187    10245    10309    10363 
   10415    10459    10481    10482    10482    10480    10463    10439 
   10413    10385    10368    10365    10358    10346    10328    10300 
   10272    10258    10246    10220    10187    10153    10120    10084 
   10027     9960     9911     9877     9836     9786     9738     9678 
    9598     9521     9460     9406     9346     9273     9186     9089 
    8993     8919     8876     8846     8810     8766     8727     8715 
    8738     8784     8838     8891     8937     8985     9049     9121 
    9197     9271     9337     9382     9402     9418     9447     9486 
    9539     9599     9660     9728     9792     9857     9938    10014 
   10079    10152    10235    10319    10399    10471    10538    10585 
   10620    10666    10721    10760    10775    10781    10783    10789 
   10801    10812    10817    10824    10836    10847    10849    10836 
   10804    10766    10733    10704    10682    10665    10640    10592 
   10532    10493    10471    10458    10453    10438    10408    10380 
   10369    10373    10388    10407    10411    10399    10393    10413 
   10457    10505    10538    10546    10548    10565    10579    10562 
   10525    10496    10462    10428    10420    10426    10426    10423 
   10415    10400    10395    10390    10378    10362    10358    10376 
   10392    10395    10407    10436    10481    10543    10611    10666 
   10713    10763    10817    10867    10910    10956    11013    11083 
   11159    11209    11227    11244    11277    11327    11376    11416 
   11449    11475    11499    11529    11554    11568    11589    11630 
   11670    11681    11659    11623    11588    11562    11537    11497 
   11437    11360    11294    11244    11194    11149    11119    11091 
   11049    11001    10952    10905    10862    10833    10829    10828 
   10800    10748    10701    10662    10629    10590    10552    10538 
   10535    10523    10517    10528    10538    10547    10555    10548 
   10531    10520    10524    10532    10521    10490    10462    10462 
   10482    10505    10530    10562    10602    10647    10681    10692 
   10693    10696    10687    10675    10655    10606    10536    10467 
   10401    10332    10258    10184    10133    10122    10120    10100 
   10079    10049     9991     9933     9898     9865     9825     9784 
    9734     9676     9634     9620     9620     9610     9594     9586 
    9590     9595     9599     9599     9593     9579     9560     9536 
    9517     9513     9514     9513     9506     9485     9460     9450 
    9458     9487     9533     9594     9667     9732     9769     9792 
    9818     9849     9891     9948    10018    10091    10160    10235 
   10322    10397    10465    10540    10605    10646    10686    10737 
   10774    10781    10764    10741    10710    10663    10608    10557 
   10523    10503    10484    10465    10442    10413    10393    10388 
   10386    10373    10345    10308    10276    10250    10234    10230 
   10239    10254    10260    10245    10222    10201    10181    10170 
   10165    10157    10143    10126    10111    10116    10138    10161 
   10192    10220    10242    10266    10293    10322    10346    10357 
   10350    10334    10326    10331    10349    10376    10399    10412 
   10424    10440    10461    10482    10492    10486    10476    10466 
   10453    10436    10416    10390    10357    10316    10284    10264 
   10251    10239    10220    10200    10191    10195    10199    10188 
   10154    10102    10042     9990     9946     9906     9857     9792 
    9717     9648     9602     9576     9553     9514     9462     9420 
    9397     9390     9394     9410     9433     9456     9481     9517 
    9564     9605     9637     9684     9757     9850     9941    10025 
   10106    10176    10235    10301    10369    10426    10489    10565 
   10638    10696    10728    10741    10755    10782    10817    10851 
   10885    10913    10929    10926    10926    10928    10908    10876 
   10851    10821    10783    10754    10733    10714    10683    10648 
   10631    10642    10663    10679    10686    10686    10679    10673 
   10659    10644    10644    10662    10685    10697    10686    10665 
   10646    10638    10647    10677    10709    10740    10773    10793 
   10808    10836    10870    10899    10928    10949    10962    10968 
   10975    10984    10995    10999    10991    10979    10959    10941 
   10948    10974    10986    10980    10970    10951    10921    10908 
   10909    10899    10881    10858    10824    10782    10739    10697 
   10659    10631    10593    10536    10471    10415    10362    10300 
   10226    10150    10076    10017     9975     9936     9890     9819 
    9747     9703     9676     9648     9625     9597     9562     9529 
    9494     9454     9423     9398     9378     9360     9343     9339 
    9352     9373     9390     9408     9431     9456     9483     9512 
    9539     9571     9607     9640     9667     9706     9760     9823 
    9896     9968    10023    10066    10106    10153    10218    10287 
   10350    10400    10444    10497    10557    10621    10683    10739 
   10787    10831    10872    10916    10952    10976    10987    10991 
   10991    10984    10966    10940    10920    10902    10875    10848 
   10824    10787    10735    10670    10601    10535    10463    10388 
   10330    10287    10253    10227    10197    10170    10156    10138 
   10127    10135    10156    10188    10222    10245    10276    10327 
   10384    10434    10478    10517    10561    10608    10644    10663 
   10675    10694    10724    10758    10790    10832    10890    10955 
   11007    11049    11080    11090    11075    11048    11017    10986 
   10957    10922    10886    10844    10798    10758    10723    10687 
   10655    10621    10585    10552    10519    10478    10449    10444 
   10446    10436    10422    10420    10423    10416    10399    10381 
   10368    10358    10349    10339    10322    10293    10276    10272 
   10258    10235    10204    10150    10079    10006     9938     9882 
    9825     9757     9702     9676     9660     9644     9637     9636 
    9634     9648     9674     9690     9694     9710     9748     9788 
