Origin Time       2025/01/13 21:19:00
Lat.              31.8
Long.             131.6
Depth. (km)       30
Mag.              6.9
Station Code      HRSH14
Station Lat.      34.2090
Station Long.     132.4063
Station Height(m) 40
Record Time       2025/01/13 21:20:27
Sampling Freq(Hz) 100Hz
Duration Time(s)  138
Dir.              4
Scale Factor      7845(gal)/8223790
Max. Acc. (gal)   1.963
Last Correction   2025/01/13 21:20:27
Memo.             
[...]
   -7825    -7854    -7885    -7939    -7955    -7890    -7784    -7697 
   -7649    -7636    -7655    -7632    -7514    -7365    -7294    -7295 
   -7302    -7291    -7290    -7315    -7396    -7538    -7669    -7716 
   -7689    -7657    -7693    -7820    -7965    -8010    -7909    -7734 
   -7596    -7528    -7497    -7466    -7402    -7307    -7225    -7223 
   -7341    -7503    -7595    -7605    -7612    -7659    -7727    -7804 
   -7886    -7924    -7865    -7731    -7592    -7504    -7487    -7493 
   -7465    -7375    -7265    -7225    -7304    -7477    -7643    -7720 
   -7717    -7720    -7801    -7952    -8116    -8241    -8274    -8201 
   -8101    -8024    -7927    -7762    -7537    -7312    -7159    -7106 
   -7105    -7060    -6914    -6733    -6646    -6705    -6863    -7030 
   -7133    -7180    -7226    -7321    -7497    -7716    -7844    -7821 
   -7717    -7614    -7545    -7551    -7638    -7743    -7788    -7732 
   -7612    -7523    -7522    -7553    -7534    -7461    -7402    -7402 
   -7447    -7516    -7578    -7619    -7674    -7804    -8005    -8186 
   -8239    -8160    -8039    -7985    -8064    -8270    -8532    -8735 
   -8796    -8714    -8540    -8328    -8128    -7994    -7981    -8098 
   -8263    -8318    -8170    -7850    -7503    -7315    -7360    -7493 
   -7546    -7514    -7469    -7452    -7453    -7456    -7445    -7415 
   -7392    -7423    -7499    -7560    -7599    -7676    -7816    -7977 
   -8077    -8098    -8102    -8124    -8118    -8078    -8033    -7978 
   -7890    -7785    -7661    -7520    -7376    -7244    -7172    -7214 
   -7338    -7443    -7462    -7410    -7365    -7415    -7570    -7761 
   -7900    -7958    -7969    -7981    -8024    -8083    -8105    -8033 
   -7890    -7785    -7781    -7830    -7881    -7946    -8043    -8164 
   -8252    -8266    -8247    -8271    -8357    -8433    -8428    -8343 
   -8214    -8106    -8106    -8225    -8341    -8305    -8113    -7900 
   -7754    -7670    -7658    -7749    -7882    -7933    -7866    -7747 
   -7651    -7609    -7614    -7645    -7672    -7654    -7574    -7489 
   -7462    -7493    -7565    -7635    -7639    -7576    -7514    -7479 
   -7453    -7426    -7419    -7466    -7550    -7628    -7680    -7663 
   -7557    -7458    -7481    -7591    -7674    -7673    -7582    -7435 
   -7272    -7128    -7038    -7030    -7113    -7272    -7418    -7460 
   -7457    -7527    -7677    -7859    -8037    -8174    -8228    -8217 
   -8225    -8275    -8298    -8252    -8141    -7933    -7639    -7403 
   -7339    -7398    -7431    -7364    -7248    -7184    -7240    -7411 
   -7597    -7682    -7649    -7600    -7662    -7873    -8131    -8298 
   -8307    -8181    -8013    -7889    -7786    -7659    -7500    -7314 
   -7111    -6952    -6889    -6887    -6878    -6848    -6821    -6839 
   -6909    -6961    -6928    -6845    -6785    -6799    -6926    -7106 
   -7214    -7203    -7134    -7084    -7084    -7142    -7248    -7345 
   -7385    -7380    -7365    -7391    -7476    -7549    -7541    -7492 
   -7476    -7479    -7466    -7433    -7369    -7281    -7234    -7277 
   -7375    -7477    -7574    -7663    -7761    -7900    -8056    -8159 
   -8179    -8148    -8109    -8112    -8178    -8284    -8399    -8503 
   -8573    -8599    -8600    -8594    -8594    -8607    -8615    -8610 
   -8608    -8602    -8567    -8523    -8511    -8549    -8626    -8676 
   -8652    -8596    -8565    -8568    -8587    -8586    -8586    -8637 
   -8725    -8785    -8753    -8587    -8325    -8067    -7913    -7884 
   -7863    -7743    -7549    -7375    -7264    -7207    -7164    -7114 
   -7064    -7013    -6982    -7030    -7145    -7217    -7213    -7215 
   -7248    -7238    -7171    -7092    -6976    -6795    -6648    -6617 
   -6628    -6582    -6500    -6448    -6448    -6500    -6609    -6770 
   -6949    -7122    -7284    -7441    -7584    -7736    -7920    -8108 
   -8249    -8316    -8305    -8225    -8091    -7946    -7844    -7785 
   -7749    -7754    -7784    -7769    -7742    -7797    -7932    -8095 
   -8245    -8348    -8413    -8482    -8584    -8716    -8847    -8915 
   -8883    -8792    -8702    -8606    -8482    -8349    -8237    -8149 
   -8075    -8008    -7946    -7884    -7794    -7677    -7604    -7627 
   -7707    -7755    -7740    -7676    -7565    -7437    -7360    -7339 
   -7308    -7215    -7086    -6949    -6804    -6666    -6594    -6631 
   -6752    -6898    -7006    -7042    -7011    -6956    -6953    -7069 
   -7263    -7414    -7442    -7337    -7157    -7014    -6991    -7061 
   -7130    -7138    -7086    -7017    -6988    -6994    -6980    -6953 
   -6983    -7092    -7219    -7296    -7296    -7219    -7142    -7172 
   -7308    -7454    -7531    -7519    -7481    -7507    -7607    -7708 
   -7753    -7740    -7711    -7700    -7751    -7866    -7985    -8052 
   -8050    -7982    -7912    -7875    -7819    -7711    -7593    -7506 
   -7464    -7476    -7539    -7634    -7704    -7735    -7762    -7817 
   -7909    -8012    -8081    -8101    -8063    -7954    -7812    -7696 
   -7620    -7568    -7541    -7569    -7638    -7643    -7545    -7407 
   -7284    -7192    -7132    -7082    -7042    -7033    -7047    -7092 
   -7164    -7183    -7084    -6918    -6798    -6798    -6907    -7042 
   -7114    -7098    -7067    -7110    -7252    -7425    -7524    -7504 
   -7429    -7407    -7481    -7588    -7634    -7595    -7539    -7541 
   -7600    -7670    -7695    -7636    -7534    -7479    -7537    -7724 
   -7989    -8240    -8438    -8577    -8627    -8613    -8602    -8627 
   -8635    -8532    -8309    -8081    -7950    -7909    -7901    -7869 
   -7785    -7685    -7636    -7688    -7817    -7946    -8024    -8081 
   -8163    -8298    -8487    -8669    -8761    -8730    -8615    -8484 
   -8376    -8274    -8132    -7927    -7693    -7511    -7446    -7461 
   -7446    -7348    -7231    -7177    -7192    -7263    -7376    -7464 
   -7480    -7450    -7410    -7396    -7433    -7479    -7441    -7288 
   -7082    -6905    -6826    -6875    -6986    -7063    -7096    -7114 
   -7123    -7156    -7254    -7389    -7514    -7642    -7803    -7959 
   -8054    -8074    -8020    -7892    -7774    -7754    -7796    -7813 
   -7782    -7701    -7591    -7511    -7515    -7576    -7622    -7654 
   -7754    -7965    -8217    -8403    -8442    -8340    -8195    -8113 
   -8125    -8205    -8284    -8291    -8233    -8151    -8046    -7928 
   -7842    -7803    -7823    -7929    -8083    -8186    -8185    -8128 
   -8108    -8175    -8287    -8340    -8263    -8101    -7983    -7982 
   -8047    -8078    -7959    -7662    -7345    -7159    -7087    -7052 
   -7022    -6987    -6912    -6779    -6617    -6448    -6295    -6203 
   -6214    -6311    -6453    -6593    -6691    -6733    -6759    -6831 
   -6959    -7111    -7261    -7407    -7539    -7634    -7703    -7785 
   -7874    -7942    -8001    -8046    -8037    -7985    -7928    -7858 
   -7723    -7501    -7230    -6984    -6837    -6812    -6897    -7034 
   -7152    -7242    -7373    -7569    -7786    -7952    -8021    -8016 
   -8012    -8075    -8202    -8311    -8325    -8240    -8106    -8000 
   -7990    -8075    -8178    -8233    -8214    -8127    -8039    -8013 
   -8066    -8197    -8371    -8533    -8672    -8804    -8912    -8955 
   -8926    -8850    -8760    -8649    -8502    -8347    -8213    -8086 
   -7967    -7877    -7796    -7697    -7576    -7452    -7358    -7307 
   -7276    -7240    -7207    -7236    -7348    -7499    -7628    -7707 
   -7747    -7803    -7906    -8032    -8089    -8008    -7831    -7672 
   -7580    -7524    -7447    -7321    -7172    -7074    -7055    -7083 
   -7092    -7018    -6887    -6821    -6891    -7080    -7327    -7541 
   -7670    -7782    -7974    -8245    -8496    -8638    -8664    -8626 
   -8548    -8442    -8371    -8367    -8382    -8368    -8295    -8148 
   -7948    -7757    -7628    -7593    -7620    -7659    -7700    -7770 
   -7884    -8027    -8160    -8249    -8287    -8279    -8249    -8252 
   -8303    -8322    -8247    -8132    -8044    -7975    -7915    -7863 
   -7788    -7670    -7580    -7591    -7680    -7769    -7807    -7786 
   -7713    -7603    -7473    -7314    -7130    -6999    -6945    -6897 
   -6802    -6704    -6660    -6685    -6739    -6781    -6809    -6860 
   -6956    -7103    -7304    -7524    -7712    -7878    -8068    -8302 
   -8549    -8735    -8810    -8812    -8775    -8684    -8559    -8430 
   -8293    -8158    -8078    -8058    -8059    -8040    -7943    -7747 
   -7519    -7337    -7209    -7079    -6925    -6805    -6760    -6754 
   -6737    -6686    -6578    -6463    -6434    -6507    -6617    -6671 
   -6635    -6579    -6593    -6702    -6868    -7025    -7117    -7123 
   -7071    -7007    -6967    -6947    -6939    -6955    -6991    -7015 
   -6999    -6960    -6959    -7038    -7148    -7214    -7245    -7280 
   -7350    -7483    -7655    -7804    -7924    -8040    -8141    -8240 
   -8349    -8399    -8305    -8104    -7915    -7815    -7793    -7778 
   -7719    -7624    -7550    -7535    -7578    -7684    -7839    -8004 
   -8179    -8374    -8544    -8646    -8673    -8638    -8577    -8533 
   -8525    -8530    -8505    -8421    -8282    -8108    -7962    -7897 
   -7861    -7784    -7676    -7577    -7527    -7560    -7654    -7747 
   -7788    -7771    -7732    -7692    -7655    -7605    -7520    -7427 
   -7373    -7345    -7323    -7312    -7331    -7389    -7473    -7547 
   -7605    -7657    -7699    -7717    -7701    -7643    -7555    -7454 
   -7354    -7273    -7218    -7168    -7111    -7044    -6967    -6903 
   -6882    -6905    -6975    -7067    -7122    -7136    -7149    -7196 
   -7272    -7339    -7369    -7358    -7310    -7253    -7231    -7249 
   -7271    -7261    -7223    -7206    -7245    -7335    -7446    -7535 
   -7595    -7642    -7686    -7716    -7735    -7744    -7738    -7746 
   -7838    -8023    -8210    -8330    -8418    -8526    -8648    -8761 
   -8868    -8953    -8989    -8980    -8981    -9036    -9082    -9049 
   -8961    -8845    -8676    -8496    -8374    -8280    -8170    -8027 
   -7831    -7577    -7302    -7037    -6790    -6563    -6374    -6223 
   -6087    -5971    -5902    -5898    -5958    -6093    -6297    -6515 
   -6708    -6886    -7071    -7280    -7487    -7646    -7747    -7805 
   -7812    -7758    -7653    -7507    -7342    -7186    -7051    -6957 
   -6917    -6929    -6990    -7111    -7318    -7585    -7861    -8120 
   -8330    -8475    -8584    -8704    -8849    -8999    -9104    -9130 
   -9072    -8945    -8796    -8665    -8529    -8387    -8275    -8194 
   -8166    -8202    -8283    -8386    -8496    -8595    -8683    -8765 
   -8820    -8830    -8799    -8737    -8633    -8494    -8359    -8225 
   -8054    -7854    -7681    -7558    -7489    -7472    -7465    -7433 
   -7407    -7427    -7469    -7492    -7488    -7476    -7464    -7452 
   -7453    -7473    -7464    -7380    -7246    -7118    -7034    -7002 
   -6998    -6995    -6979    -6949    -6960    -7065    -7221    -7335 
   -7387    -7406    -7416    -7435    -7460    -7452    -7406    -7350 
   -7304    -7240    -7130    -7003    -6906    -6833    -6768    -6723 
   -6708    -6717    -6751    -6826    -6955    -7113    -7236    -7281 
   -7276    -7288    -7350    -7433    -7474    -7445    -7365    -7294 
   -7277    -7285    -7261    -7194    -7114    -7071    -7079    -7095 
   -7086    -7080    -7121    -7218    -7356    -7501    -7632    -7754 
   -7886    -8013    -8113    -8183    -8221    -8243    -8301    -8430 
   -8626    -8839    -9008    -9116    -9184    -9246    -9316    -9366 
   -9344    -9242    -9082    -8919    -8772    -8595    -8379    -8154 
   -7925    -7703    -7524    -7410    -7335    -7271    -7233    -7257 
   -7331    -7419    -7516    -7620    -7708    -7769    -7800    -7796 
   -7761    -7705    -7596    -7411    -7217    -7090    -7025    -6990 
   -6961    -6922    -6886    -6920    -7069    -7292    -7520    -7726 
   -7915    -8097    -8267    -8413    -8538    -8634    -8667    -8642 
   -8600    -8548    -8463    -8334    -8185    -8046    -7935    -7844 
   -7773    -7708    -7645    -7591    -7560    -7565    -7596    -7619 
   -7630    -7642    -7668    -7713    -7767    -7824    -7877    -7912 
   -7929    -7958    -8024    -8106    -8160    -8166    -8137    -8102 
   -8067    -8025    -7960    -7846    -7690    -7526    -7365    -7215 
   -7091    -6979    -6851    -6731    -6666    -6660    -6670    -6659 
   -6617    -6554    -6500    -6505    -6594    -6709    -6774    -6771 
   -6754    -6764    -6821    -6930    -7060    -7160    -7199    -7187 
   -7171    -7184    -7236    -7318    -7407    -7479    -7560    -7684 
   -7861    -8074    -8282    -8449    -8580    -8676    -8726    -8738 
   -8716    -8657    -8557    -8414    -8251    -8095    -7965    -7873 
   -7838    -7823    -7801    -7825    -7916    -8055    -8240    -8440 
   -8598    -8706    -8769    -8795    -8808    -8820    -8819    -8772 
   -8627    -8399    -8156    -7962    -7851    -7781    -7693    -7607 
   -7566    -7582    -7654    -7771    -7896    -7994    -8060    -8108 
   -8135    -8132    -8102    -8048    -7965    -7858    -7731    -7585 
   -7441    -7325    -7233    -7149    -7074    -7034    -7042    -7087 
   -7171    -7290    -7422    -7541    -7630    -7690    -7728    -7708 
   -7585    -7393    -7199    -7006    -6794    -6558    -6297    -6018 
   -5779    -5657    -5644    -5655    -5637    -5616    -5661    -5815 
   -6031    -6218    -6340    -6447    -6598    -6804    -7029    -7231 
   -7383    -7493    -7597    -7708    -7817    -7915    -7997    -8082 
   -8190    -8303    -8383    -8428    -8483    -8587    -8733    -8873 
   -8961    -8970    -8895    -8770    -8680    -8650    -8630    -8579 
   -8507    -8426    -8352    -8287    -8193    -8062    -7921    -7804 
   -7751    -7762    -7778    -7777    -7774    -7765    -7750    -7747 
   -7765    -7812    -7901    -7989    -8008    -7958    -7900    -7881 
   -7920    -7986    -8025    -8023    -8000    -7982    -8008    -8073 
   -8122    -8118    -8079    -8054    -8055    -8062    -8068    -8062 
   -8012    -7932    -7874    -7847    -7838    -7825    -7777    -7716 
   -7711    -7767    -7846    -7901    -7908    -7874    -7813    -7742 
   -7682    -7634    -7561    -7465    -7391    -7368    -7372    -7353 
   -7285    -7175    -7045    -6937    -6885    -6885    -6918    -6960 
   -6974    -6963    -6978    -7052    -7149    -7210    -7227    -7223 
   -7207    -7192    -7200    -7204    -7175    -7119    -7065    -7028 
   -7005    -6983    -6956    -6937    -6955    -7038    -7177    -7325 
   -7469    -7611    -7724    -7819    -7928    -8060    -8182    -8266 
   -8336    -8417    -8498    -8565    -8626    -8684    -8746    -8812 
   -8868    -8892    -8873    -8839    -8833    -8858    -8878    -8854 
   -8761    -8613    -8453    -8313    -8172    -8001    -7835    -7715 
   -7636    -7573    -7504    -7422    -7341    -7294    -7307    -7365 
   -7415    -7422    -7406    -7400    -7435    -7533    -7663    -7782 
   -7869    -7925    -7970    -8004    -8000    -7940    -7857    -7789 
   -7747    -7712    -7665    -7604    -7551    -7541    -7580    -7624 
   -7643    -7650    -7666    -7720    -7816    -7920    -7987    -8017 
   -8048    -8100    -8151    -8176    -8152    -8071    -7977    -7921 
   -7902    -7885    -7852    -7789    -7695    -7614    -7589    -7612 
   -7657    -7699    -7723    -7727    -7728    -7731    -7738    -7743 
   -7735    -7719    -7708    -7709    -7730    -7762    -7790    -7789 
   -7753    -7708    -7684    -7674    -7668    -7641    -7582    -7512 
   -7449    -7379    -7279    -7153    -7033    -6932    -6851    -6802 
   -6791    -6785    -6759    -6737    -6758    -6832    -6939    -7059 
   -7180    -7294    -7385    -7447    -7492    -7543    -7595    -7622 
   -7631    -7646    -7666    -7670    -7653    -7628    -7609    -7595 
   -7582    -7568    -7539    -7500    -7472    -7458    -7460    -7485 
   -7530    -7581    -7623    -7646    -7658    -7681    -7734    -7811 
   -7890    -7960    -8037    -8136    -8266    -8407    -8518    -8583 
   -8613    -8627    -8642    -8669    -8708    -8748    -8756    -8706 
   -8604    -8461    -8293    -8143    -8028    -7921    -7803    -7663 
   -7519    -7403    -7330    -7300    -7317    -7371    -7447    -7537 
   -7628    -7715    -7778    -7813    -7827    -7824    -7803    -7771 
   -7734    -7673    -7589    -7501    -7430    -7381    -7352    -7329 
   -7300    -7269    -7245    -7245    -7268    -7295    -7310    -7308 
   -7281    -7242    -7223    -7229    -7230    -7211    -7184    -7168 
   -7165    -7190    -7254    -7337    -7416    -7510    -7624    -7754 
   -7890    -8031    -8168    -8287    -8368    -8390    -8343    -8251 
   -8155    -8060    -7943    -7798    -7642    -7496    -7389    -7330 
   -7288    -7246    -7209    -7188    -7207    -7271    -7348    -7414 
   -7454    -7474    -7507    -7568    -7628    -7661    -7655    -7628 
   -7614    -7622    -7632    -7630    -7609    -7580    -7582    -7634 
   -7697    -7719    -7701    -7695    -7722    -7770    -7827    -7861 
   -7843    -7790    -7738    -7676    -7591    -7499    -7423    -7368 
   -7350    -7362    -7379    -7392    -7435    -7530    -7674    -7840 
   -7989    -8087    -8135    -8170    -8226    -8294    -8363    -8419 
   -8438    -8410    -8359    -8278    -8148    -8001    -7882    -7785 
   -7681    -7560    -7430    -7315    -7234    -7188    -7164    -7148 
   -7129    -7109    -7111    -7165    -7260    -7350    -7408    -7425 
   -7412    -7381    -7342    -7322    -7326    -7322    -7303    -7271 
   -7207    -7109    -7003    -6920    -6874    -6860    -6853    -6845 
   -6840    -6847    -6867    -6902    -6949    -7007    -7071    -7132 
   -7199    -7277    -7357    -7425    -7477    -7524    -7577    -7630 
   -7665    -7665    -7634    -7585    -7543    -7531    -7557    -7595 
   -7616    -7612    -7593    -7569    -7550    -7561    -7603    -7657 
   -7697    -7707    -7686    -7654    -7624    -7605    -7596    -7592 
   -7587    -7585    -7585    -7584    -7591    -7630    -7709    -7813 
   -7919    -8020    -8109    -8175    -8216    -8241    -8263    -8291 
   -8320    -8329    -8311    -8270    -8228    -8197    -8163    -8110 
   -8047    -7994    -7969    -7969    -7974    -7966    -7943    -7928 
   -7952    -8012    -8073    -8116    -8148    -8187    -8230    -8270 
   -8294    -8297    -8278    -8248    -8229    -8217    -8203    -8183 
   -8145    -8094    -8043    -8001    -7978    -7970    -7954    -7920 
   -7878    -7827    -7778    -7763    -7790    -7843    -7908    -7958 
   -7983    -8009    -8050    -8091    -8127    -8129    -8078    -7997 
   -7928    -7879    -7831    -7765    -7678    -7568    -7454    -7357 
   -7265    -7183    -7132    -7099    -7079    -7076    -7082    -7084 
   -7092    -7118    -7176    -7252    -7325    -7391    -7441    -7470 
   -7489    -7487    -7460    -7425    -7396    -7380    -7373    -7356 
   -7319    -7287    -7281    -7304    -7339    -7365    -7372    -7380 
   -7412    -7477    -7569    -7674    -7765    -7815    -7838    -7859 
   -7886    -7906    -7912    -7897    -7874    -7852    -7830    -7801 
