Origin Time       2025/01/13 21:19:00
Lat.              31.8
Long.             131.6
Depth. (km)       30
Mag.              6.9
Station Code      HRSH17
Station Lat.      34.5716
Station Long.     132.2326
Station Height(m) 265
Record Time       2025/01/13 21:20:25
Sampling Freq(Hz) 100Hz
Duration Time(s)  138
Dir.              6
Scale Factor      7845(gal)/8223790
Max. Acc. (gal)   0.905
Last Correction   2025/01/13 21:20:26
Memo.             
[...]
  -17450   -17442   -17440   -17421   -17401   -17405   -17398   -17378 
  -17377   -17378   -17355   -17329   -17313   -17284   -17247   -17238 
  -17232   -17204   -17185   -17201   -17220   -17221   -17211   -17199 
  -17204   -17232   -17269   -17290   -17285   -17274   -17270   -17251 
  -17250   -17286   -17286   -17247   -17243   -17244   -17209   -17197 
  -17226   -17250   -17280   -17316   -17324   -17315   -17308   -17313 
  -17316   -17289   -17251   -17230   -17209   -17194   -17205   -17211 
  -17193   -17189   -17188   -17153   -17123   -17131   -17162   -17194 
  -17199   -17167   -17147   -17166   -17186   -17181   -17185   -17207 
  -17211   -17203   -17224   -17255   -17248   -17234   -17263   -17305 
  -17325   -17356   -17396   -17410   -17420   -17446   -17470   -17474 
  -17477   -17490   -17497   -17485   -17469   -17451   -17429   -17389 
  -17332   -17298   -17293   -17271   -17238   -17231   -17236   -17246 
  -17286   -17316   -17311   -17329   -17370   -17381   -17392   -17432 
  -17474   -17490   -17491   -17517   -17560   -17570   -17541   -17521 
  -17517   -17500   -17460   -17437   -17435   -17396   -17331   -17302 
  -17292   -17267   -17265   -17261   -17238   -17235   -17244   -17240 
  -17244   -17255   -17253   -17255   -17273   -17281   -17277   -17280 
  -17290   -17304   -17342   -17377   -17371   -17354   -17354   -17339 
  -17307   -17304   -17324   -17319   -17300   -17317   -17339   -17317 
  -17277   -17257   -17259   -17285   -17315   -17316   -17297   -17297 
  -17323   -17325   -17308   -17323   -17347   -17354   -17367   -17378 
  -17359   -17363   -17394   -17409   -17428   -17452   -17436   -17404 
  -17396   -17383   -17361   -17358   -17362   -17339   -17304   -17257 
  -17203   -17173   -17153   -17130   -17124   -17130   -17126   -17135 
  -17196   -17259   -17263   -17250   -17263   -17271   -17282   -17325 
  -17351   -17334   -17340   -17390   -17408   -17388   -17410   -17436 
  -17405   -17388   -17420   -17421   -17390   -17389   -17381   -17331 
  -17300   -17297   -17281   -17269   -17281   -17289   -17285   -17300 
  -17324   -17324   -17309   -17308   -17300   -17261   -17250   -17281 
  -17290   -17288   -17320   -17350   -17344   -17358   -17408   -17435 
  -17415   -17400   -17404   -17386   -17381   -17428   -17450   -17385 
  -17319   -17307   -17294   -17274   -17274   -17288   -17293   -17286 
  -17270   -17261   -17274   -17284   -17263   -17242   -17234   -17230 
  -17235   -17236   -17215   -17194   -17192   -17188   -17172   -17167 
  -17182   -17211   -17251   -17281   -17294   -17325   -17367   -17401 
  -17416   -17402   -17388   -17389   -17370   -17340   -17347   -17352 
  -17324   -17304   -17321   -17342   -17317   -17290   -17300   -17297 
  -17274   -17278   -17304   -17323   -17340   -17355   -17362   -17359 
  -17350   -17348   -17352   -17343   -17324   -17317   -17323   -17336 
  -17369   -17413   -17436   -17447   -17458   -17459   -17469   -17496 
  -17514   -17513   -17500   -17466   -17420   -17382   -17354   -17334 
  -17329   -17340   -17348   -17328   -17292   -17261   -17228   -17220 
  -17263   -17316   -17340   -17351   -17351   -17352   -17367   -17381 
  -17394   -17423   -17421   -17385   -17369   -17375   -17381   -17394 
  -17401   -17379   -17362   -17374   -17397   -17429   -17458   -17452 
  -17419   -17392   -17394   -17417   -17424   -17413   -17409   -17417 
  -17415   -17386   -17355   -17331   -17292   -17248   -17223   -17213 
  -17221   -17228   -17230   -17224   -17211   -17190   -17177   -17172 
  -17172   -17185   -17203   -17212   -17212   -17220   -17236   -17243 
  -17243   -17261   -17285   -17300   -17321   -17329   -17313   -17319 
  -17336   -17320   -17313   -17343   -17363   -17377   -17404   -17410 
  -17394   -17389   -17373   -17347   -17352   -17367   -17351   -17343 
  -17355   -17336   -17301   -17308   -17329   -17334   -17350   -17366 
  -17359   -17369   -17410   -17442   -17448   -17444   -17435   -17423 
  -17406   -17375   -17335   -17311   -17309   -17305   -17300   -17311 
  -17324   -17325   -17332   -17342   -17338   -17340   -17351   -17354 
  -17361   -17374   -17379   -17375   -17358   -17317   -17275   -17265 
  -17278   -17280   -17280   -17305   -17329   -17342   -17373   -17408 
  -17417   -17433   -17471   -17500   -17496   -17483   -17493   -17501 
  -17475   -17458   -17491   -17525   -17528   -17551   -17591   -17587 
  -17567   -17587   -17605   -17570   -17516   -17478   -17440   -17398 
  -17370   -17344   -17307   -17265   -17226   -17192   -17199   -17242 
  -17259   -17239   -17244   -17288   -17311   -17319   -17350   -17371 
  -17373   -17397   -17424   -17421   -17417   -17437   -17471   -17512 
  -17545   -17560   -17577   -17597   -17608   -17621   -17620   -17587 
  -17563   -17547   -17505   -17454   -17417   -17400   -17400   -17383 
  -17336   -17289   -17254   -17219   -17196   -17185   -17157   -17112 
  -17104   -17122   -17124   -17109   -17101   -17112   -17134   -17162 
  -17201   -17227   -17239   -17271   -17323   -17373   -17402   -17396 
  -17377   -17362   -17354   -17361   -17365   -17352   -17334   -17319 
  -17327   -17359   -17377   -17375   -17373   -17373   -17370   -17361 
  -17374   -17405   -17408   -17389   -17388   -17397   -17408   -17431 
  -17451   -17456   -17464   -17459   -17427   -17409   -17406   -17370 
  -17321   -17307   -17308   -17304   -17296   -17312   -17351   -17382 
  -17405   -17428   -17432   -17419   -17409   -17408   -17404   -17383 
  -17342   -17296   -17273   -17257   -17219   -17192   -17181   -17151 
  -17135   -17151   -17154   -17139   -17111   -17074   -17053   -17039 
  -17012   -16981   -16958   -16953   -16965   -16993   -17026   -17047 
  -17064   -17085   -17097   -17107   -17126   -17149   -17163   -17163 
  -17161   -17162   -17151   -17147   -17172   -17176   -17151   -17149 
  -17154   -17138   -17127   -17123   -17108   -17093   -17076   -17053 
  -17057   -17082   -17097   -17112   -17145   -17189   -17234   -17267 
  -17293   -17308   -17304   -17307   -17329   -17354   -17371   -17374 
  -17352   -17336   -17347   -17355   -17359   -17377   -17377   -17347 
  -17336   -17356   -17365   -17367   -17374   -17366   -17346   -17335 
  -17320   -17294   -17262   -17223   -17184   -17153   -17128   -17101 
  -17059   -17011   -16981   -16970   -16943   -16895   -16848   -16816 
  -16799   -16798   -16826   -16868   -16877   -16868   -16889   -16943 
  -16999   -17053   -17086   -17078   -17053   -17039   -17047   -17082 
  -17119   -17123   -17107   -17101   -17112   -17131   -17142   -17131 
  -17112   -17091   -17082   -17108   -17142   -17159   -17174   -17194 
  -17219   -17251   -17273   -17285   -17312   -17336   -17347   -17359 
  -17362   -17347   -17340   -17367   -17400   -17406   -17398   -17405 
  -17419   -17423   -17428   -17447   -17462   -17463   -17475   -17516 
  -17545   -17544   -17548   -17545   -17497   -17442   -17415   -17389 
  -17359   -17335   -17301   -17259   -17228   -17192   -17149   -17124 
  -17120   -17105   -17092   -17084   -17055   -17020   -17016   -17023 
  -17022   -17030   -17030   -17005   -16970   -16942   -16935   -16938 
  -16933   -16920   -16904   -16903   -16923   -16934   -16939   -16972 
  -17008   -17026   -17028   -17037   -17065   -17089   -17092   -17103 
  -17128   -17142   -17161   -17196   -17211   -17200   -17203   -17216 
  -17220   -17221   -17230   -17243   -17259   -17261   -17262   -17285 
  -17298   -17302   -17323   -17335   -17328   -17323   -17338   -17374 
  -17427   -17487   -17548   -17587   -17613   -17631   -17633   -17649 
  -17697   -17730   -17728   -17709   -17693   -17671   -17653   -17649 
  -17636   -17599   -17562   -17524   -17490   -17489   -17500   -17477 
  -17436   -17427   -17439   -17443   -17435   -17432   -17429   -17415 
  -17404   -17409   -17412   -17404   -17404   -17420   -17455   -17501 
  -17533   -17541   -17562   -17602   -17628   -17641   -17664   -17675 
  -17655   -17614   -17570   -17529   -17498   -17458   -17400   -17366 
  -17359   -17321   -17267   -17265   -17288   -17284   -17271   -17273 
  -17273   -17280   -17315   -17358   -17382   -17415   -17471   -17518 
  -17562   -17621   -17683   -17747   -17813   -17863   -17909   -17969 
  -18023   -18060   -18110   -18164   -18185   -18187   -18192   -18181 
  -18157   -18153   -18146   -18110   -18083   -18065   -18015   -17963 
  -17929   -17888   -17834   -17776   -17728   -17685   -17628   -17581 
  -17535   -17470   -17420   -17386   -17328   -17266   -17227   -17181 
  -17122   -17081   -17065   -17054   -17041   -17030   -17019   -16997 
  -16973   -16968   -16962   -16946   -16939   -16935   -16911   -16893 
  -16897   -16906   -16918   -16935   -16937   -16927   -16923   -16912 
  -16895   -16904   -16916   -16879   -16833   -16827   -16816   -16780 
  -16764   -16760   -16734   -16721   -16746   -16779   -16788   -16802 
  -16831   -16845   -16865   -16923   -16984   -17018   -17042   -17072 
  -17101   -17124   -17150   -17185   -17208   -17217   -17234   -17255 
  -17270   -17274   -17258   -17236   -17231   -17234   -17248   -17280 
  -17304   -17315   -17317   -17307   -17311   -17344   -17373   -17375 
  -17379   -17393   -17392   -17390   -17412   -17429   -17415   -17383 
  -17362   -17346   -17321   -17296   -17284   -17290   -17297   -17284 
  -17263   -17265   -17286   -17315   -17346   -17369   -17382   -17398 
  -17427   -17464   -17501   -17531   -17558   -17577   -17585   -17609 
  -17647   -17666   -17671   -17690   -17716   -17739   -17778   -17822 
  -17841   -17844   -17853   -17867   -17883   -17909   -17937   -17945 
  -17945   -17953   -17963   -17964   -17956   -17946   -17948   -17942 
  -17921   -17907   -17899   -17890   -17883   -17875   -17872   -17879 
  -17882   -17890   -17905   -17915   -17922   -17919   -17899   -17869 
  -17837   -17813   -17791   -17763   -17732   -17699   -17656   -17597 
  -17539   -17483   -17417   -17355   -17304   -17250   -17203   -17154 
  -17088   -17031   -16993   -16950   -16899   -16862   -16841   -16808 
  -16780   -16775   -16761   -16719   -16688   -16692   -16714   -16738 
  -16762   -16783   -16806   -16841   -16866   -16872   -16893   -16930 
  -16954   -16977   -16997   -16999   -17005   -17041   -17085   -17119 
  -17150   -17186   -17208   -17203   -17196   -17216   -17242   -17253 
  -17259   -17262   -17263   -17277   -17285   -17284   -17300   -17320 
  -17335   -17354   -17362   -17355   -17356   -17361   -17369   -17388 
  -17408   -17421   -17436   -17463   -17502   -17536   -17570   -17616 
  -17667   -17702   -17720   -17739   -17753   -17741   -17718   -17721 
  -17730   -17707   -17683   -17672   -17631   -17568   -17535   -17498 
  -17427   -17359   -17304   -17240   -17189   -17167   -17135   -17081 
  -17045   -17020   -16969   -16910   -16879   -16848   -16796   -16761 
  -16735   -16694   -16652   -16632   -16617   -16600   -16599   -16598 
  -16578   -16556   -16546   -16537   -16519   -16505   -16495   -16487 
  -16491   -16514   -16538   -16548   -16559   -16578   -16595   -16611 
  -16648   -16704   -16745   -16769   -16803   -16853   -16915   -16966 
  -16999   -17035   -17070   -17099   -17142   -17189   -17208   -17215 
  -17228   -17239   -17255   -17289   -17323   -17342   -17369   -17412 
  -17454   -17497   -17543   -17568   -17590   -17617   -17616   -17594 
  -17585   -17562   -17516   -17490   -17483   -17462   -17439   -17432 
  -17429   -17427   -17437   -17455   -17467   -17474   -17485   -17510 
  -17550   -17589   -17621   -17644   -17655   -17664   -17686   -17702 
  -17697   -17687   -17680   -17662   -17644   -17640   -17626   -17590 
  -17554   -17533   -17512   -17464   -17413   -17378   -17339   -17290 
  -17254   -17228   -17208   -17196   -17193   -17189   -17185   -17209 
  -17251   -17273   -17284   -17311   -17346   -17374   -17398   -17433 
  -17459   -17454   -17458   -17489   -17500   -17490   -17506   -17528 
  -17518   -17509   -17517   -17525   -17539   -17558   -17564   -17564 
  -17564   -17574   -17601   -17633   -17659   -17686   -17709   -17716 
  -17722   -17741   -17753   -17761   -17779   -17780   -17752   -17736 
  -17743   -17741   -17732   -17725   -17709   -17675   -17636   -17608 
  -17586   -17562   -17532   -17504   -17486   -17470   -17442   -17427 
  -17439   -17439   -17420   -17413   -17415   -17402   -17386   -17381 
  -17379   -17378   -17373   -17362   -17351   -17338   -17316   -17298 
  -17280   -17243   -17201   -17170   -17127   -17072   -17038   -17015 
  -16984   -16969   -16962   -16933   -16881   -16833   -16796   -16760 
  -16723   -16696   -16669   -16642   -16626   -16607   -16578   -16549 
  -16522   -16509   -16518   -16538   -16553   -16584   -16627   -16663 
  -16695   -16733   -16764   -16792   -16834   -16884   -16916   -16930 
  -16945   -16970   -16985   -16983   -16999   -17039   -17064   -17062 
  -17069   -17082   -17099   -17132   -17162   -17161   -17157   -17178 
  -17197   -17203   -17211   -17224   -17231   -17239   -17254   -17265 
  -17271   -17288   -17320   -17352   -17373   -17394   -17429   -17469 
  -17496   -17517   -17544   -17568   -17578   -17578   -17572   -17566 
  -17572   -17574   -17551   -17518   -17504   -17510   -17521   -17523 
  -17531   -17541   -17554   -17579   -17618   -17660   -17703   -17737 
  -17767   -17802   -17834   -17871   -17915   -17948   -17982   -18031 
  -18081   -18112   -18135   -18162   -18185   -18203   -18231   -18261 
  -18265   -18256   -18254   -18246   -18226   -18210   -18193   -18158 
  -18112   -18073   -18031   -17991   -17971   -17956   -17926   -17887 
  -17841   -17797   -17761   -17732   -17703   -17672   -17625   -17571 
  -17524   -17477   -17424   -17370   -17325   -17285   -17240   -17193 
  -17146   -17095   -17061   -17057   -17051   -17023   -16997   -16974 
  -16941   -16916   -16908   -16897   -16876   -16856   -16831   -16804 
  -16785   -16771   -16745   -16711   -16671   -16632   -16600   -16569 
  -16542   -16519   -16501   -16482   -16449   -16414   -16398   -16395 
  -16395   -16395   -16395   -16397   -16402   -16410   -16430   -16457 
  -16484   -16518   -16555   -16575   -16599   -16637   -16668   -16691 
  -16717   -16744   -16761   -16769   -16789   -16816   -16833   -16849 
  -16870   -16888   -16907   -16931   -16953   -16988   -17027   -17050 
  -17062   -17082   -17113   -17145   -17163   -17178   -17201   -17224 
  -17254   -17277   -17281   -17290   -17316   -17323   -17312   -17312 
  -17316   -17321   -17352   -17388   -17392   -17386   -17392   -17398 
  -17406   -17436   -17478   -17504   -17533   -17571   -17597   -17625 
  -17658   -17671   -17667   -17648   -17625   -17610   -17582   -17533 
  -17487   -17446   -17394   -17350   -17321   -17296   -17274   -17261 
  -17251   -17247   -17265   -17294   -17316   -17335   -17363   -17393 
  -17420   -17450   -17485   -17510   -17529   -17550   -17563   -17566 
  -17570   -17577   -17574   -17574   -17575   -17560   -17545   -17540 
  -17535   -17537   -17554   -17581   -17612   -17637   -17660   -17685 
  -17718   -17760   -17799   -17832   -17857   -17876   -17901   -17928 
  -17949   -17969   -17988   -17998   -18004   -18011   -18013   -18019 
  -18023   -18002   -17969   -17941   -17909   -17880   -17863   -17844 
  -17813   -17770   -17730   -17705   -17678   -17636   -17582   -17528 
  -17477   -17420   -17369   -17323   -17273   -17219   -17169   -17120 
  -17073   -17026   -16970   -16916   -16875   -16843   -16818   -16799 
  -16783   -16767   -16760   -16752   -16731   -16710   -16698   -16692 
  -16681   -16681   -16706   -16727   -16745   -16787   -16834   -16864 
  -16902   -16956   -17003   -17042   -17086   -17120   -17153   -17199 
  -17238   -17254   -17258   -17262   -17270   -17274   -17277   -17280 
  -17281   -17275   -17266   -17266   -17277   -17278   -17281   -17296 
  -17307   -17302   -17292   -17284   -17275   -17261   -17243   -17228 
  -17213   -17209   -17224   -17246   -17261   -17273   -17293   -17315 
  -17335   -17356   -17389   -17415   -17425   -17452   -17491   -17513 
  -17536   -17564   -17574   -17578   -17582   -17574   -17567   -17558 
  -17531   -17505   -17485   -17458   -17427   -17386   -17343   -17297 
  -17240   -17192   -17150   -17108   -17077   -17051   -17019   -16993 
  -16964   -16926   -16903   -16883   -16841   -16800   -16780   -16757 
  -16734   -16734   -16752   -16769   -16791   -16826   -16860   -16881 
  -16906   -16939   -16972   -17004   -17041   -17076   -17107   -17132 
  -17159   -17197   -17243   -17284   -17320   -17365   -17417   -17460 
  -17500   -17540   -17568   -17586   -17618   -17664   -17699   -17726 
  -17755   -17772   -17784   -17803   -17829   -17852   -17874   -17887 
  -17894   -17899   -17911   -17918   -17907   -17905   -17910   -17894 
  -17865   -17847   -17822   -17793   -17764   -17729   -17691   -17656 
  -17618   -17579   -17545   -17516   -17493   -17474   -17448   -17417 
  -17389   -17361   -17334   -17316   -17294   -17265   -17230   -17196 
  -17165   -17142   -17131   -17134   -17139   -17142   -17158   -17184 
  -17203   -17220   -17238   -17255   -17274   -17292   -17315   -17342 
  -17363   -17377   -17379   -17374   -17367   -17363   -17367   -17366 
  -17359   -17359   -17362   -17359   -17366   -17385   -17393   -17393 
  -17394   -17401   -17412   -17428   -17443   -17442   -17431   -17431 
  -17439   -17431   -17423   -17433   -17446   -17446   -17446   -17448 
  -17454   -17458   -17459   -17467   -17479   -17483   -17485   -17500 
  -17514   -17516   -17516   -17513   -17505   -17501   -17504   -17502 
  -17502   -17500   -17483   -17459   -17442   -17429   -17413   -17390 
  -17365   -17339   -17315   -17296   -17274   -17248   -17227   -17212 
  -17196   -17176   -17161   -17150   -17140   -17134   -17132   -17123 
  -17108   -17097   -17088   -17077   -17062   -17039   -17018   -17000 
  -16983   -16965   -16951   -16931   -16908   -16895   -16884   -16873 
  -16870   -16873   -16869   -16861   -16849   -16837   -16827   -16819 
  -16811   -16814   -16821   -16825   -16829   -16837   -16850   -16870 
  -16902   -16926   -16937   -16950   -16977   -17005   -17027   -17051 
  -17086   -17123   -17157   -17186   -17211   -17239   -17270   -17298 
  -17327   -17355   -17373   -17378   -17386   -17394   -17404   -17425 
  -17444   -17452   -17467   -17489   -17498   -17508   -17535   -17559 
  -17571   -17590   -17624   -17651   -17668   -17693   -17717   -17733 
  -17744   -17755   -17759   -17752   -17747   -17741   -17725   -17710 
  -17709   -17709   -17695   -17680   -17667   -17648   -17626   -17613 
  -17609   -17598   -17590   -17590   -17582   -17560   -17539   -17524 
  -17514   -17509   -17491   -17470   -17454   -17431   -17400   -17383 
  -17377   -17356   -17329   -17312   -17296   -17265   -17231   -17221 
  -17215   -17186   -17167   -17170   -17165   -17153   -17159   -17169 
  -17166   -17172   -17192   -17213   -17238   -17257   -17267   -17271 
  -17275   -17282   -17284   -17285   -17285   -17274   -17261   -17244 
  -17219   -17200   -17194   -17188   -17177   -17170   -17167   -17163 
  -17165   -17172   -17170   -17162   -17163   -17172   -17165   -17154 
  -17153   -17145   -17134   -17139   -17153   -17158   -17162   -17174 
  -17178   -17172   -17170   -17178   -17185   -17192   -17194   -17194 
