Origin Time       2025/01/13 21:19:00
Lat.              31.8
Long.             131.6
Depth. (km)       30
Mag.              6.9
Station Code      HRSH14
Station Lat.      34.2090
Station Long.     132.4063
Station Height(m) -60
Record Time       2025/01/13 21:20:27
Sampling Freq(Hz) 100Hz
Duration Time(s)  138
Dir.              1
Scale Factor      2942(gal)/8224139
Max. Acc. (gal)   1.107
Last Correction   2025/01/13 21:20:27
Memo.             
[...]
  147324   147236   147185   147123   147032   146915   146803   146731 
  146689   146681   146718   146767   146800   146834   146890   146950 
  146992   147020   147020   146969   146900   146869   146896   146961 
  147036   147100   147133   147137   147133   147144   147168   147205 
  147262   147341   147411   147436   147398   147312   147214   147135 
  147089   147078   147078   147059   147012   146961   146925   146893 
  146838   146777   146736   146723   146738   146788   146863   146943 
  146982   146961   146905   146854   146834   146839   146847   146836 
  146819   146823   146848   146893   146975   147079   147167   147233 
  147294   147357   147409   147428   147401   147332   147241   147163 
  147127   147132   147166   147222   147271   147289   147283   147263 
  147245   147252   147306   147391   147455   147464   147448   147430 
  147429   147456   147484   147483   147463   147433   147384   147334 
  147307   147299   147301   147297   147266   147208   147121   147019 
  146959   146962   146963   146936   146925   146944   146967   147000 
  147042   147044   146994   146924   146838   146747   146708   146732 
  146804   146911   147015   147096   147151   147171   147190   147262 
  147359   147438   147501   147548   147586   147615   147644   147687 
  147741   147780   147783   147773   147791   147835   147865   147838 
  147761   147681   147633   147607   147582   147564   147559   147525 
  147456   147415   147409   147395   147364   147317   147248   147154 
  147039   146942   146894   146875   146847   146799   146734   146673 
  146619   146562   146503   146475   146515   146597   146672   146731 
  146766   146770   146762   146739   146701   146693   146735   146817 
  146925   147036   147118   147156   147166   147150   147075   146967 
  146919   146956   147025   147101   147199   147306   147376   147410 
  147421   147409   147386   147364   147336   147306   147285   147290 
  147344   147410   147424   147371   147285   147208   147154   147128 
  147140   147170   147187   147206   147243   147274   147278   147266 
  147275   147318   147367   147383   147372   147359   147356   147336 
  147256   147124   147008   146923   146839   146749   146676   146657 
  146716   146827   146947   147058   147121   147145   147182   147221 
  147220   147193   147144   147054   146958   146902   146847   146743 
  146628   146566   146560   146566   146566   146592   146669   146758 
  146831   146928   147048   147137   147181   147182   147136   147096 
  147105   147143   147186   147240   147306   147401   147528   147665 
  147771   147823   147833   147792   147711   147654   147667   147719 
  147761   147754   147708   147669   147649   147631   147646   147684 
  147685   147649   147618   147614   147631   147658   147646   147564 
  147430   147274   147123   147002   146912   146830   146770   146763 
  146792   146801   146765   146689   146569   146408   146238   146129 
  146128   146190   146246   146261   146214   146094   145939   145813 
  145735   145694   145728   145866   146048   146198   146291   146348 
  146394   146434   146470   146550   146701   146882   147051   147179 
  147251   147274   147270   147252   147210   147133   147054   147020 
  147029   147058   147101   147143   147154   147144   147124   147108 
  147127   147181   147239   147289   147305   147264   147181   147098 
  147062   147090   147140   147174   147217   147272   147329   147401 
  147474   147513   147495   147428   147364   147334   147334   147360 
  147384   147363   147293   147181   147062   146970   146904   146853 
  146803   146739   146693   146692   146742   146835   146917   146942 
  146904   146826   146723   146612   146524   146508   146573   146664 
  146703   146654   146568   146522   146539   146585   146614   146619 
  146626   146664   146742   146851   146967   147063   147098   147060 
  147009   147006   147046   147094   147141   147194   147244   147272 
  147266   147222   147167   147158   147216   147290   147334   147339 
  147330   147320   147291   147248   147237   147305   147461   147645 
  147780   147850   147881   147879   147847   147796   147734   147661 
  147573   147484   147402   147324   147264   147237   147218   147189 
  147191   147276   147433   147613   147760   147843   147858   147820 
  147760   147719   147717   147695   147618   147521   147467   147478 
  147548   147669   147783   147804   147754   147721   147731   147772 
  147818   147843   147830   147806   147820   147861   147895   147911 
  147897   147874   147880   147916   147964   148022   148095   148184 
  148302   148459   148595   148639   148595   148520   148456   148439 
  148478   148521   148531   148531   148540   148560   148597   148625 
  148603   148536   148470   148428   148394   148351   148289   148200 
  148078   147931   147777   147657   147613   147619   147600   147541 
  147492   147455   147406   147363   147339   147330   147330   147321 
  147303   147260   147147   146974   146785   146603   146433   146288 
  146182   146115   146068   145983   145864   145785   145754   145709 
  145663   145635   145578   145476   145359   145246   145125   144971 
  144811   144711   144667   144624   144558   144466   144378   144351 
  144409   144520   144656   144801   144948   145103   145278   145454 
  145589   145692   145798   145916   146049   146210   146373   146506 
  146595   146654   146718   146811   146920   147027   147150   147325 
  147552   147772   147934   148076   148246   148405   148536   148668 
  148801   148915   149010   149052   149018   148938   148864   148805 
  148747   148698   148663   148639   148612   148562   148481   148387 
  148301   148239   148201   148166   148103   147996   147842   147646 
  147436   147228   147023   146823   146643   146488   146361   146268 
  146186   146072   145945   145868   145837   145808   145758   145687 
  145619   145585   145578   145542   145470   145422   145423   145450 
  145496   145562   145654   145767   145878   145983   146117   146275 
  146434   146596   146751   146880   146982   147060   147131   147233 
  147379   147550   147746   147937   148084   148186   148248   148278 
  148294   148301   148313   148354   148389   148383   148348   148312 
  148296   148323   148386   148458   148513   148531   148505   148467 
  148447   148450   148467   148486   148487   148443   148336   148198 
  148107   148088   148090   148080   148062   148045   148023   148009 
  148003   147982   147922   147818   147703   147606   147519   147447 
  147386   147314   147228   147129   147002   146826   146624   146476 
  146415   146416   146441   146487   146572   146681   146774   146832 
  146832   146770   146693   146645   146612   146558   146480   146422 
  146425   146456   146470   146520   146646   146812   146986   147150 
  147263   147320   147324   147293   147263   147235   147197   147172 
  147198   147306   147465   147609   147735   147881   148051   148227 
  148381   148510   148622   148695   148710   148672   148595   148493 
  148373   148243   148099   147942   147819   147771   147758   147744 
  147711   147657   147603   147563   147498   147402   147276   147089 
  146855   146655   146515   146410   146322   146250   146186   146128 
  146094   146079   146059   146038   146043   146059   146072   146115 
  146230   146380   146493   146556   146577   146580   146580   146564 
  146519   146452   146358   146256   146191   146167   146141   146086 
  146002   145899   145790   145696   145646   145625   145604   145605 
  145666   145781   145917   146018   146041   146011   145975   145957 
  145978   146025   146078   146137   146200   146281   146419   146595 
  146751   146882   147000   147106   147231   147403   147631   147887 
  148096   148203   148216   148180   148120   148063   148038   148043 
  148074   148123   148154   148134   148055   147953   147876   147849 
  147850   147880   147937   147968   147941   147896   147862   147820 
  147768   147725   147708   147717   147735   147758   147764   147696 
  147555   147415   147355   147372   147424   147483   147536   147565 
  147560   147502   147388   147280   147259   147321   147376   147379 
  147320   147175   146969   146782   146641   146512   146387   146287 
  146229   146221   146260   146304   146306   146268   146245   146279 
  146371   146495   146607   146670   146705   146747   146780   146782 
  146807   146925   147152   147429   147714   148011   148298   148541 
  148740   148890   148967   149014   149080   149142   149188   149211 
  149184   149119   149040   148940   148836   148741   148645   148575 
  148522   148428   148290   148163   148053   147934   147820   147768 
  147795   147850   147869   147842   147802   147741   147626   147465 
  147286   147114   146993   146936   146932   146955   146971   146985 
  147004   147033   147079   147123   147135   147105   147016   146877 
  146726   146577   146435   146325   146245   146169   146082   145971 
  145862   145779   145698   145588   145467   145368   145331   145377 
  145449   145497   145551   145633   145724   145818   145913   146003 
  146101   146218   146345   146473   146614   146767   146911   147020 
  147082   147098   147093   147090   147097   147108   147101   147075 
  147054   147067   147113   147172   147255   147376   147496   147568 
  147615   147696   147820   147919   147926   147876   147849   147864 
  147888   147879   147815   147734   147673   147613   147542   147483 
  147413   147291   147136   146997   146905   146877   146900   146920 
  146896   146834   146755   146678   146615   146576   146566   146574 
  146564   146523   146470   146430   146406   146384   146350   146326 
  146334   146362   146383   146396   146419   146441   146438   146435 
  146456   146466   146454   146449   146469   146515   146561   146577 
  146569   146557   146551   146558   146574   146599   146657   146766 
  146916   147066   147206   147352   147503   147658   147800   147906 
  147978   148034   148081   148132   148184   148212   148198   148153 
  148107   148080   148062   148023   147922   147757   147582   147433 
  147317   147221   147147   147118   147136   147156   147159   147155 
  147128   147062   146966   146866   146794   146782   146823   146888 
  146948   147010   147082   147168   147263   147349   147445   147576 
  147719   147835   147908   147953   147997   148053   148126   148213 
  148292   148323   148315   148279   148211   148127   148080   148095 
  148146   148186   148203   148215   148244   148297   148350   148367 
  148367   148385   148425   148486   148540   148549   148510   148437 
  148329   148204   148092   147973   147830   147677   147548   147459 
  147409   147383   147395   147447   147495   147498   147448   147356 
  147231   147079   146900   146695   146497   146335   146198   146079 
  145983   145929   145929   145968   146041   146136   146219   146283 
  146322   146325   146284   146198   146075   145933   145791   145683 
  145635   145655   145743   145879   146025   146159   146284   146411 
  146535   146664   146794   146889   146932   146958   146973   146959 
  146934   146913   146901   146902   146919   146970   147060   147147 
  147214   147290   147367   147420   147451   147479   147505   147501 
  147451   147380   147325   147306   147340   147418   147509   147583 
  147637   147708   147810   147906   147981   148039   148081   148126 
  148184   148254   148332   148390   148409   148404   148402   148416 
  148427   148428   148425   148392   148302   148203   148111   148009 
  147911   147839   147802   147796   147792   147742   147640   147490 
  147305   147131   146990   146863   146724   146580   146437   146308 
  146192   146088   145989   145874   145744   145628   145544   145501 
  145492   145496   145489   145459   145416   145390   145416   145515 
  145677   145882   146121   146392   146676   146940   147174   147391 
  147599   147793   147957   148072   148153   148216   148250   148250 
  148230   148209   148213   148246   148274   148290   148311   148342 
  148385   148433   148483   148529   148549   148536   148487   148386 
  148232   148039   147818   147596   147406   147245   147086   146952 
  146874   146824   146767   146713   146669   146614   146535   146446 
  146349   146241   146152   146102   146063   146017   145966   145893 
  145804   145729   145650   145539   145426   145339   145300   145311 
  145338   145347   145341   145350   145369   145372   145362   145376 
  145413   145466   145531   145601   145669   145746   145831   145912 
  145993   146094   146229   146392   146569   146743   146908   147077 
  147258   147442   147617   147771   147896   147992   148065   148130 
  148180   148213   148236   148251   148258   148251   148225   148194 
  148189   148223   148281   148344   148398   148446   148510   148601 
  148697   148782   148853   148911   148950   148968   148984   148992 
  148969   148921   148865   148824   148806   148810   148828   148857 
  148896   148938   148987   149037   149057   149038   148999   148960 
  148913   148842   148765   148707   148648   148571   148485   148389 
  148269   148139   148011   147877   147737   147592   147445   147299 
  147156   146996   146807   146601   146379   146146   145924   145700 
  145461   145212   144960   144718   144512   144333   144182   144090 
  144062   144076   144123   144198   144290   144383   144474   144568 
  144670   144778   144890   144996   145095   145189   145282   145397 
  145551   145729   145929   146151   146387   146632   146889   147159 
  147436   147695   147907   148069   148173   148212   148212   148207 
  148194   148158   148088   147996   147906   147827   147754   147679 
  147609   147564   147534   147486   147407   147303   147187   147078 
  146978   146873   146767   146677   146614   146573   146554   146562 
  146580   146585   146587   146603   146632   146665   146699   146736 
  146772   146778   146757   146738   146740   146757   146780   146812 
  146840   146843   146827   146813   146805   146794   146782   146784 
  146816   146890   147009   147131   147222   147303   147399   147517 
  147640   147744   147827   147893   147947   148014   148103   148200 
  148292   148398   148522   148649   148784   148936   149095   149235 
  149331   149380   149388   149355   149297   149234   149149   149041 
  148922   148787   148624   148463   148311   148139   147951   147760 
  147564   147372   147191   147023   146886   146793   146732   146689 
  146664   146635   146593   146551   146506   146441   146354   146256 
  146168   146092   146001   145878   145728   145561   145408   145297 
  145243   145242   145280   145347   145438   145547   145667   145786 
  145890   145968   146013   146026   146022   146009   145994   145970 
  145943   145920   145895   145891   145937   146024   146132   146246 
  146356   146461   146577   146699   146808   146901   146969   147009 
  147035   147043   147032   147027   147039   147042   147028   147017 
  147013   147009   147004   146996   147006   147075   147206   147359 
  147501   147634   147795   147987   148174   148342   148495   148632 
  148763   148918   149083   149219   149330   149438   149551   149661 
  149746   149794   149820   149816   149783   149735   149667   149562 
  149426   149283   149137   148964   148749   148502   148251   148018 
  147818   147633   147432   147206   146971   146730   146484   146250 
  146048   145886   145764   145670   145590   145527   145486   145469 
  145473   145501   145559   145648   145766   145910   146055   146175 
  146268   146348   146415   146479   146556   146646   146726   146778 
  146811   146843   146889   146936   146974   147001   147020   147028 
  147028   147017   146978   146901   146793   146657   146504   146364 
  146246   146138   146038   145963   145922   145913   145924   145948 
  145987   146037   146098   146172   146252   146325   146377   146411 
  146442   146485   146534   146577   146622   146686   146774   146862 
  146950   147054   147166   147262   147329   147375   147433   147510 
  147606   147711   147806   147866   147908   147960   148022   148089 
  148147   148181   148200   148232   148279   148333   148394   148464 
  148545   148630   148701   148752   148788   148819   148837   148832 
  148806   148776   148745   148699   148618   148506   148386   148259 
  148135   148035   147949   147860   147773   147675   147542   147380 
  147191   146967   146719   146476   146265   146083   145905   145725 
  145559   145411   145269   145134   145019   144937   144895   144894 
  144929   145007   145108   145216   145323   145415   145494   145589 
  145716   145859   145991   146105   146218   146345   146491   146655 
  146827   146981   147114   147228   147306   147336   147326   147298 
  147264   147233   147212   147204   147212   147229   147248   147253 
  147241   147222   147197   147156   147117   147090   147052   146986 
  146915   146853   146792   146734   146685   146643   146603   146572 
  146554   146546   146551   146566   146585   146610   146632   146651 
  146680   146722   146774   146834   146893   146935   146956   146979 
  147006   147037   147074   147108   147124   147124   147117   147113 
  147113   147106   147083   147044   147005   146979   146979   147009 
  147064   147131   147190   147240   147293   147348   147397   147436 
  147475   147529   147598   147664   147715   147746   147769   147796 
  147829   147866   147900   147924   147934   147930   147926   147928 
  147934   147938   147939   147939   147937   147942   147958   147958 
  147935   147906   147873   147847   147827   147798   147756   147721 
  147707   147714   147729   147745   147768   147793   147819   147841 
  147861   147883   147897   147889   147854   147791   147714   147629 
  147540   147433   147297   147135   146962   146790   146638   146507 
  146391   146288   146183   146059   145929   145828   145768   145733 
  145696   145648   145608   145596   145620   145666   145717   145770 
  145827   145889   145948   146001   146049   146099   146157   146223 
  146294   146371   146445   146519   146604   146708   146812   146897 
  146966   147021   147062   147087   147097   147100   147112   147128 
  147137   147136   147135   147147   147177   147224   147293   147374 
  147457   147546   147638   147714   147771   147820   147870   147908 
  147915   147887   147838   147788   147748   147712   147673   147621 
  147549   147479   147442   147442   147451   147449   147452   147471 
  147492   147506   147517   147521   147522   147525   147514   147483 
  147445   147415   147398   147383   147372   147376   147398   147429 
  147469   147519   147563   147599   147627   147627   147599   147555 
  147492   147411   147318   147217   147125   147046   146981   146942 
  146921   146907   146898   146886   146858   146823   146801   146788 
  146777   146769   146763   146766   146772   146781   146794   146805 
  146817   146830   146828   146815   146796   146773   146757   146751 
  146753   146763   146780   146789   146790   146781   146773   146781 
  146799   146828   146866   146898   146931   146963   146994   147040 
