Origin Time       2025/01/13 21:19:00
Lat.              31.8
Long.             131.6
Depth. (km)       30
Mag.              6.9
Station Code      HRSH11
Station Lat.      34.8225
Station Long.     133.1674
Station Height(m) 490
Record Time       2025/01/13 21:21:05
Sampling Freq(Hz) 100Hz
Duration Time(s)  120
Dir.              3
Scale Factor      2942(gal)/8224139
Max. Acc. (gal)   0.690
Last Correction   2025/01/13 21:21:06
Memo.             
[...]
   12037    12040    12048    12063    12066    12058    12047    12040 
   12039    12037    12020    12004    12001    11997    11998    12009 
   12017    12031    12054    12070    12086    12120    12156    12179 
   12190    12197    12195    12186    12168    12135    12091    12056 
   12024    11982    11944    11935    11940    11940    11936    11943 
   11961    11975    11981    11990    11996    11989    11974    11948 
   11912    11885    11871    11851    11823    11811    11824    11842 
   11848    11855    11874    11901    11920    11925    11929    11946 
   11955    11951    11944    11939    11938    11938    11934    11932 
   11932    11924    11916    11912    11901    11877    11834    11782 
   11728    11681    11639    11595    11556    11535    11526    11523 
   11527    11538    11551    11576    11601    11620    11637    11658 
   11682    11707    11728    11746    11766    11789    11809    11815 
   11796    11770    11751    11731    11692    11647    11616    11607 
   11619    11642    11676    11727    11773    11796    11801    11804 
   11817    11831    11826    11801    11773    11742    11711    11685 
   11659    11632    11599    11556    11518    11484    11443    11402 
   11381    11371    11344    11319    11315    11314    11306    11300 
   11300    11303    11302    11287    11272    11273    11290    11303 
   11310    11318    11329    11340    11346    11354    11362    11362 
   11365    11376    11387    11388    11388    11398    11419    11449 
   11477    11499    11522    11550    11593    11638    11673    11708 
   11739    11767    11800    11823    11832    11834    11830    11819 
   11799    11763    11723    11696    11691    11691    11684    11677 
   11672    11655    11642    11645    11638    11618    11593    11568 
   11553    11553    11556    11554    11554    11560    11558    11546 
   11547    11562    11564    11561    11574    11593    11612    11635 
   11650    11657    11664    11672    11678    11684    11695    11713 
   11731    11758    11809    11865    11905    11952    11997    12017 
   12023    12044    12074    12085    12078    12078    12082    12075 
   12073    12077    12073    12056    12044    12042    12035    12036 
   12042    12039    12033    12027    12021    12017    12010    12001 
   12001    11998    11983    11967    11950    11928    11904    11886 
   11875    11853    11828    11823    11811    11782    11763    11759 
   11761    11767    11774    11782    11800    11816    11830    11853 
   11871    11882    11893    11892    11893    11908    11915    11927 
   11952    11967    11970    11971    11961    11928    11886    11846 
   11809    11782    11758    11726    11688    11654    11627    11608 
   11592    11572    11556    11547    11537    11516    11497    11492 
   11495    11500    11514    11538    11566    11580    11578    11583 
   11593    11605    11614    11622    11638    11653    11662    11680 
   11712    11746    11774    11805    11848    11889    11929    11974 
   12012    12047    12086    12124    12155    12177    12199    12235 
   12271    12302    12334    12370    12407    12440    12461    12478 
   12502    12526    12529    12514    12499    12490    12464    12421 
   12386    12363    12339    12312    12285    12253    12221    12197 
   12172    12151    12135    12113    12089    12073    12060    12044 
   12024    12008    11998    11998    12002    12001    11985    11967 
   11955    11940    11920    11892    11850    11813    11789    11758 
   11724    11705    11685    11650    11612    11580    11543    11507 
   11472    11431    11392    11361    11340    11325    11317    11321 
   11341    11371    11395    11418    11461    11508    11537    11561 
   11597    11634    11666    11703    11742    11785    11832    11875 
   11921    11974    12029    12081    12131    12178    12221    12256 
   12290    12328    12356    12372    12386    12390    12380    12364 
   12337    12303    12270    12228    12182    12136    12083    12029 
   11993    11963    11927    11893    11865    11826    11786    11762 
   11735    11686    11637    11597    11554    11496    11437    11377 
   11319    11265    11222    11190    11155    11124    11107    11094 
   11071    11053    11051    11049    11044    11033    11018    11003 
   10984    10963    10953    10963    10967    10963    10967    10970 
   10964    10959    10951    10940    10937    10945    10970    11007 
   11033    11047    11063    11082    11095    11115    11144    11169 
   11207    11257    11302    11344    11392    11439    11479    11504 
   11526    11549    11572    11595    11618    11632    11649    11669 
   11681    11688    11705    11736    11769    11794    11820    11855 
   11885    11902    11920    11935    11938    11929    11925    11924 
   11915    11893    11867    11851    11844    11844    11843    11844 
   11855    11867    11877    11888    11886    11886    11900    11905 
   11894    11890    11894    11892    11877    11858    11842    11817 
   11797    11784    11762    11735    11713    11695    11682    11673 
   11665    11664    11676    11682    11674    11669    11668    11659 
   11664    11684    11696    11715    11754    11789    11813    11840 
   11873    11898    11920    11939    11956    11977    11988    11986 
   11992    12002    11994    11970    11952    11936    11913    11889 
   11877    11877    11888    11904    11915    11919    11924    11936 
   11951    11956    11956    11965    11971    11958    11927    11902 
   11880    11850    11821    11793    11763    11735    11700    11665 
   11635    11595    11553    11518    11483    11450    11414    11372 
   11341    11321    11295    11277    11279    11287    11302    11329 
   11360    11399    11446    11493    11546    11605    11664    11713 
   11757    11808    11871    11935    11993    12046    12081    12106 
   12135    12151    12152    12154    12158    12158    12159    12168 
   12171    12163    12166    12183    12199    12226    12256    12271 
   12291    12316    12333    12334    12328    12325    12321    12310 
   12299    12287    12276    12279    12282    12270    12245    12220 
   12194    12158    12108    12060    12008    11950    11902    11862 
   11809    11761    11726    11693    11659    11639    11637    11639 
   11651    11677    11712    11747    11778    11808    11836    11857 
   11886    11919    11935    11947    11969    11983    11988    11990 
   11994    11994    11990    11981    11974    11975    11982    11988 
   11994    12009    12035    12069    12114    12168    12220    12271 
   12328    12380    12417    12440    12448    12440    12428    12415 
   12397    12371    12353    12340    12313    12276    12243    12208 
   12164    12121    12091    12074    12062    12060    12066    12073 
   12082    12082    12073    12064    12040    11992    11944    11894 
   11824    11749    11682    11611    11530    11453    11377    11294 
   11215    11153    11097    11049    11014    10974    10932    10899 
   10868    10832    10801    10766    10729    10705    10685    10670 
   10673    10683    10700    10727    10756    10777    10800    10828 
   10848    10860    10862    10858    10858    10866    10870    10872 
   10882    10901    10924    10951    10980    11026    11090    11156 
   11219    11279    11330    11372    11410    11443    11469    11491 
   11511    11539    11574    11619    11670    11713    11754    11801 
   11851    11900    11954    12006    12054    12098    12135    12159 
   12186    12213    12228    12231    12229    12225    12212    12187 
   12158    12128    12096    12051    11994    11939    11892    11846 
   11797    11749    11704    11664    11627    11596    11572    11554 
   11535    11519    11511    11504    11499    11495    11491    11492 
   11515    11539    11553    11572    11596    11611    11624    11639 
   11655    11677    11701    11732    11778    11832    11888    11947 
   12006    12056    12101    12147    12186    12217    12252    12287 
   12320    12357    12394    12425    12455    12483    12507    12526 
   12541    12555    12567    12573    12583    12587    12584    12586 
   12584    12571    12550    12523    12490    12467    12449    12428 
   12409    12390    12357    12325    12302    12283    12267    12253 
   12245    12241    12231    12209    12182    12150    12110    12059 
   12004    11940    11870    11796    11723    11654    11591    11524 
   11465    11426    11394    11352    11307    11271    11244    11227 
   11211    11191    11183    11184    11190    11209    11244    11275 
   11299    11335    11389    11443    11500    11565    11632    11699 
   11750    11792    11839    11889    11935    11973    12006    12040 
   12067    12091    12116    12144    12172    12193    12210    12231 
   12253    12271    12287    12297    12301    12294    12276    12252 
   12224    12190    12154    12110    12063    12019    11974    11925 
   11884    11847    11808    11763    11722    11685    11647    11610 
   11581    11553    11518    11485    11458    11434    11416    11404 
   11389    11379    11371    11362    11352    11341    11323    11288 
   11249    11223    11200    11167    11129    11105    11098    11095 
   11090    11091    11103    11119    11132    11141    11153    11160 
   11153    11140    11121    11090    11055    11025    10991    10957 
   10932    10903    10872    10847    10832    10822    10810    10805 
   10805    10802    10805    10825    10840    10839    10841    10851 
   10864    10876    10882    10890    10897    10898    10913    10937 
   10955    10964    10964    10959    10962    10967    10966    10968 
   10975    10990    11017    11034    11045    11070    11095    11117 
   11141    11165    11191    11230    11280    11335    11400    11479 
   11568    11668    11776    11886    12004    12128    12245    12364 
   12483    12591    12688    12779    12858    12933    13004    13066 
   13109    13149    13192    13228    13254    13284    13309    13323 
   13329    13338    13346    13352    13348    13332    13309    13281 
   13244    13201    13157    13109    13059    13005    12950    12895 
   12838    12773    12706    12637    12556    12472    12382    12276 
   12175    12079    11977    11866    11763    11664    11568    11489 
   11422    11360    11306    11260    11221    11191    11172    11156 
   11138    11124    11119    11124    11132    11144    11153    11173 
   11219    11269    11313    11360    11414    11481    11558    11624 
   11695    11776    11855    11934    12016    12090    12152    12204 
   12240    12270    12305    12341    12366    12379    12388    12395 
   12394    12376    12345    12312    12274    12232    12187    12135 
   12082    12039    11998    11959    11917    11865    11812    11765 
   11705    11638    11574    11504    11426    11350    11276    11196 
   11114    11040    10968    10895    10821    10748    10677    10611 
   10540    10466    10404    10350    10301    10260    10222    10189 
   10169    10164    10164    10168    10188    10223    10264    10308 
   10361    10417    10477    10542    10617    10702    10794    10898 
   11016    11138    11267    11391    11508    11618    11726    11828 
   11927    12019    12105    12191    12271    12343    12407    12469 
   12528    12577    12615    12649    12681    12711    12733    12753 
   12780    12799    12807    12818    12839    12861    12880    12893 
   12904    12922    12945    12962    12973    12980    12985    12987 
   12985    12978    12969    12961    12955    12937    12906    12884 
   12861    12822    12780    12739    12695    12649    12603    12553 
   12494    12428    12366    12303    12244    12191    12148    12112 
   12075    12042    12023    12016    12006    11998    11994    11985 
   11970    11961    11955    11951    11944    11942    11947    11954 
   11962    11977    11988    11993    11989    11974    11961    11950 
   11925    11890    11846    11786    11718    11641    11562    11485 
   11403    11319    11242    11180    11130    11083    11041    11010 
   10986    10970    10966    10966    10963    10959    10952    10939 
   10932    10924    10901    10875    10862    10848    10829    10801 
   10770    10759    10760    10755    10754    10764    10786    10812 
   10840    10874    10913    10949    10984    11026    11075    11126 
   11171    11214    11261    11303    11333    11361    11387    11414 
   11445    11481    11527    11577    11623    11672    11716    11745 
   11770    11800    11816    11827    11838    11850    11867    11881 
   11894    11913    11924    11929    11942    11946    11936    11932 
   11931    11924    11919    11923    11932    11948    11966    11993 
   12031    12074    12123    12178    12240    12303    12372    12445 
   12519    12596    12676    12756    12841    12924    13003    13080 
   13151    13213    13270    13320    13359    13387    13412    13433 
   13448    13464    13481    13479    13463    13448    13429    13392 
   13344    13293    13232    13151    13051    12938    12808    12669 
   12519    12360    12199    12039    11878    11720    11562    11403 
   11246    11099    10957    10821    10689    10563    10446    10334 
   10237    10158    10081    10007     9950     9903     9859     9834 
    9830     9837     9849     9876     9915     9956    10003    10066 
   10137    10206    10273    10341    10409    10480    10547    10615 
   10682    10747    10809    10867    10928    10991    11044    11094 
   11145    11188    11229    11267    11303    11346    11392    11442 
   11495    11547    11608    11680    11745    11797    11853    11913 
   11969    12015    12060    12104    12140    12177    12214    12252 
   12286    12307    12318    12328    12326    12306    12283    12259 
   12229    12201    12175    12145    12108    12069    12033    12001 
   11962    11915    11877    11850    11823    11792    11759    11724 
   11689    11651    11615    11583    11553    11531    11518    11514 
   11516    11516    11518    11526    11538    11560    11591    11622 
   11654    11695    11738    11780    11820    11866    11909    11948 
   11990    12031    12067    12110    12160    12209    12259    12302 
   12337    12370    12401    12425    12440    12447    12452    12459 
   12460    12452    12442    12436    12430    12426    12424    12422 
   12421    12421    12418    12405    12390    12378    12360    12344 
   12330    12316    12305    12306    12316    12328    12344    12360 
   12376    12395    12415    12428    12428    12425    12420    12407 
   12383    12355    12329    12295    12252    12199    12140    12081 
   12016    11943    11877    11816    11754    11693    11638    11576 
   11507    11448    11398    11345    11292    11246    11200    11164 
   11137    11117    11105    11105    11110    11122    11148    11196 
   11250    11302    11364    11442    11526    11607    11693    11786 
   11878    11970    12062    12150    12236    12320    12388    12441 
   12483    12522    12556    12577    12588    12596    12602    12598 
   12588    12576    12563    12541    12507    12474    12438    12399 
   12355    12306    12255    12206    12147    12077    12005    11934 
   11857    11772    11689    11603    11507    11414    11322    11221 
   11126    11045    10962    10871    10783    10704    10632    10565 
   10501    10443    10393    10357    10331    10307    10291    10292 
   10296    10303    10322    10343    10374    10431    10497    10558 
   10627    10710    10795    10881    10972    11068    11164    11261 
   11356    11446    11541    11643    11746    11844    11944    12048 
   12152    12252    12351    12448    12544    12640    12731    12811 
   12880    12941    12992    13038    13076    13089    13092    13100 
   13100    13086    13069    13043    13009    12972    12927    12880 
   12833    12779    12721    12657    12584    12507    12428    12343 
   12258    12170    12085    12008    11938    11870    11808    11749 
   11692    11645    11600    11547    11493    11446    11402    11354 
   11307    11265    11227    11192    11165    11146    11129    11109 
   11088    11071    11051    11033    11013    10993    10972    10949 
   10924    10901    10882    10867    10856    10847    10832    10814 
   10804    10793    10777    10764    10760    10758    10756    10755 
   10758    10764    10775    10793    10810    10829    10849    10872 
   10902    10947    11006    11075    11149    11230    11314    11398 
   11480    11561    11638    11715    11789    11855    11920    11986 
   12047    12105    12160    12214    12264    12313    12361    12403 
   12442    12487    12523    12555    12590    12609    12615    12627 
   12631    12623    12607    12584    12561    12537    12507    12484 
   12467    12448    12428    12413    12405    12405    12410    12424 
   12447    12465    12475    12483    12488    12491    12494    12496 
   12495    12495    12501    12506    12501    12496    12494    12484 
   12469    12452    12426    12398    12368    12337    12299    12259 
   12216    12172    12131    12090    12056    12027    12000    11977 
   11959    11944    11932    11923    11911    11902    11896    11888 
   11881    11866    11848    11834    11816    11793    11765    11740 
   11719    11689    11653    11619    11588    11556    11527    11500 
   11476    11458    11445    11438    11430    11419    11412    11407 
   11399    11389    11379    11372    11367    11356    11344    11333 
   11325    11315    11299    11280    11257    11227    11195    11163 
   11132    11095    11053    11013    10975    10947    10917    10881 
   10851    10831    10816    10804    10794    10786    10782    10787 
   10797    10806    10817    10833    10849    10863    10881    10899 
   10918    10944    10972    10995    11018    11049    11090    11134 
   11186    11245    11304    11364    11435    11510    11581    11659 
   11740    11820    11902    11981    12054    12129    12202    12266 
   12329    12390    12442    12488    12528    12556    12584    12613 
   12627    12636    12645    12652    12656    12654    12644    12630 
   12615    12595    12569    12540    12499    12447    12387    12326 
   12267    12205    12133    12055    11979    11909    11836    11767 
   11700    11632    11570    11516    11465    11418    11384    11360 
   11335    11314    11300    11290    11281    11281    11290    11303 
   11323    11348    11375    11406    11445    11483    11514    11546 
   11581    11612    11649    11692    11727    11761    11803    11842 
   11881    11919    11954    11986    12016    12037    12058    12073 
   12086    12096    12104    12117    12135    12145    12156    12172 
   12190    12198    12208    12220    12231    12240    12244    12239 
   12235    12239    12240    12235    12231    12228    12224    12214 
   12198    12182    12158    12128    12101    12075    12040    12005 
   11979    11954    11928    11904    11889    11881    11867    11861 
   11862    11859    11854    11850    11843    11834    11823    11816 
