Origin Time       2025/01/13 21:19:00
Lat.              31.8
Long.             131.6
Depth. (km)       30
Mag.              6.9
Station Code      HRSH01
Station Lat.      34.3736
Station Long.     133.0236
Station Height(m) -170.3
Record Time       2025/01/13 21:20:32
Sampling Freq(Hz) 100Hz
Duration Time(s)  132
Dir.              1
Scale Factor      2942(gal)/8224139
Max. Acc. (gal)   1.274
Last Correction   2025/01/13 21:20:32
Memo.             
[...]
  156359   156327   156346   156321   156290   156319   156354   156375 
  156386   156361   156346   156392   156443   156452   156435   156440 
  156471   156477   156475   156509   156540   156546   156528   156490 
  156496   156567   156631   156672   156710   156716   156706   156730 
  156759   156752   156751   156821   156965   157092   157153   157169 
  157111   157036   157060   157107   157126   157206   157292   157291 
  157283   157295   157246   157177   157140   157068   156994   156992 
  157007   156999   157011   157033   157071   157157   157231   157235 
  157199   157148   157117   157127   157172   157246   157307   157334 
  157358   157392   157437   157465   157446   157378   157281   157218 
  157200   157165   157119   157104   157110   157130   157158   157184 
  157187   157168   157156   157122   157079   157086   157086   157071 
  157098   157108   157104   157102   157034   156965   156967   156949 
  156837   156706   156644   156614   156616   156654   156640   156606 
  156616   156605   156604   156656   156687   156689   156752   156863 
  156898   156899   156955   156963   156899   156857   156852   156898 
  156991   157037   157010   156956   156872   156810   156855   156963 
  157056   157094   157081   157069   157057   157011   156919   156829 
  156798   156790   156809   156922   157081   157167   157199   157238 
  157261   157256   157253   157272   157323   157373   157399   157426 
  157462   157450   157333   157165   157059   157013   156965   156946 
  157009   157086   157100   157079   157057   157042   157053   157079 
  157071   157029   156999   156979   156973   157006   157029   157022 
  157037   157059   157061   157098   157144   157131   157134   157191 
  157194   157158   157145   157075   156937   156826   156762   156712 
  156678   156691   156745   156774   156759   156760   156789   156805 
  156806   156790   156737   156685   156674   156705   156776   156832 
  156820   156794   156760   156687   156648   156641   156568   156496 
  156521   156563   156559   156604   156685   156695   156671   156686 
  156724   156787   156874   156940   157009   157099   157140   157119 
  157065   156944   156834   156795   156741   156733   156867   157029 
  157110   157133   157142   157156   157140   157071   156976   156917 
  156924   156917   156857   156830   156837   156806   156764   156789 
  156856   156857   156755   156633   156591   156659   156787   156919 
  157005   157005   156957   156915   156868   156817   156799   156802 
  156824   156884   156925   156915   156930   156976   156988   156964 
  156972   157044   157106   157096   157059   157025   156980   156965 
  156988   156986   156982   156994   156964   156984   157130   157270 
  157376   157511   157619   157685   157723   157673   157584   157512 
  157424   157331   157277   157252   157184   157114   157149   157216 
  157218   157202   157171   157115   157080   157107   157204   157297 
  157323   157300   157245   157169   157104   157056   157022   156975 
  156879   156843   156934   157023   157080   157149   157152   157094 
  157072   157071   157069   157114   157171   157165   157108   157057 
  157027   157025   157038   157050   157081   157086   157048   157072 
  157103   157036   156964   156929   156907   156919   156976   157075 
  157172   157231   157253   157262   157326   157360   157258   157146 
  157115   157126   157202   157272   157227   157185   157249   157250 
  157144   157106   157146   157157   157140   157134   157142   157121 
  157080   157076   157111   157181   157231   157206   157173   157154 
  157107   157068   157017   156938   156956   157056   157138   157198 
  157229   157252   157280   157311   157400   157476   157499   157600 
  157748   157819   157815   157767   157721   157686   157626   157559 
  157476   157324   157231   157288   157337   157318   157329   157310 
  157214   157138   157106   157067   157057   157099   157110   157122 
  157195   157229   157196   157169   157158   157138   157067   156984 
  156969   156975   156937   156871   156826   156776   156675   156616 
  156598   156520   156479   156540   156602   156637   156682   156712 
  156706   156708   156691   156604   156508   156454   156428   156467 
  156543   156563   156529   156456   156343   156243   156195   156145 
  156072   156024   156015   156006   156028   156139   156285   156384 
  156451   156539   156654   156732   156729   156768   156891   156946 
  156941   156986   157007   156976   157006   157046   156992   156926 
  156910   156890   156863   156845   156837   156852   156855   156829 
  156814   156836   156857   156822   156775   156778   156795   156802 
  156786   156737   156763   156887   156949   156945   156999   157076 
  157127   157172   157140   157007   156891   156817   156768   156805 
  156898   156960   156991   156980   156965   157021   157059   157017 
  157003   157032   157014   156998   157061   157130   157131   157146 
  157194   157162   157077   157045   157033   157010   157014   157077 
  157141   157130   157083   157029   156938   156871   156876   156844 
  156724   156655   156675   156662   156618   156608   156590   156574 
  156598   156627   156643   156670   156698   156702   156662   156609 
  156540   156470   156493   156539   156516   156556   156668   156725 
  156771   156794   156752   156733   156760   156762   156749   156783 
  156848   156913   157065   157279   157391   157457   157522   157520 
  157559   157677   157769   157862   157958   157968   157894   157809 
  157765   157719   157659   157631   157636   157667   157700   157675 
  157657   157702   157728   157712   157705   157684   157659   157707 
  157765   157742   157719   157720   157647   157582   157650   157727 
  157736   157759   157756   157673   157620   157640   157613   157562 
  157586   157577   157493   157485   157501   157447   157438   157454 
  157389   157310   157237   157157   157100   157017   156936   156937 
  156948   156934   156960   156990   156941   156863   156856   156890 
  156848   156751   156701   156685   156674   156689   156678   156631 
  156649   156720   156748   156794   156907   156988   157011   157041 
  157069   157071   157079   157110   157135   157171   157229   157262 
  157281   157262   157129   157038   157127   157246   157311   157349 
  157374   157443   157532   157588   157626   157662   157674   157631 
  157594   157647   157715   157743   157793   157813   157770   157775 
  157821   157789   157719   157678   157588   157449   157360   157302 
  157238   157218   157243   157275   157281   157252   157214   157177 
  157118   157059   157061   157106   157138   157158   157157   157118 
  157086   157086   157106   157098   157048   157034   157080   157094 
  157087   157108   157067   156940   156853   156822   156806   156822 
  156851   156884   156956   157023   157053   157081   157079   157041 
  157026   157034   157073   157119   157108   157077   157030   156938 
  156871   156848   156861   156929   157013   157073   157090   157067 
  157029   156994   156925   156784   156618   156465   156340   156297 
  156328   156350   156297   156213   156176   156145   156103   156116 
  156163   156207   156240   156222   156131   156030   155957   155869 
  155773   155757   155791   155777   155749   155769   155812   155845 
  155873   155907   155933   155926   155906   155889   155877   155920 
  156019   156136   156289   156354   156258   156199   156251   156280 
  156284   156303   156294   156284   156348   156465   156536   156575 
  156656   156747   156795   156814   156791   156705   156627   156622 
  156659   156709   156759   156744   156686   156647   156604   156566 
  156583   156636   156701   156774   156849   156928   156980   156990 
  156971   156937   156919   156929   156936   156919   156875   156790 
  156718   156712   156721   156732   156737   156716   156753   156853 
  156938   157075   157227   157293   157331   157361   157335   157347 
  157446   157508   157499   157515   157539   157496   157462   157508 
  157526   157481   157454   157403   157312   157264   157234   157191 
  157160   157096   156952   156772   156640   156605   156583   156492 
  156393   156311   156192   156085   156062   156066   156045   156020 
  155992   155922   155852   155821   155754   155642   155611   155657 
  155661   155682   155745   155756   155760   155795   155831   155929 
  156060   156146   156223   156319   156386   156388   156381   156415 
  156435   156423   156389   156331   156354   156469   156514   156510 
  156541   156546   156578   156724   156832   156838   156922   157052 
  157067   157076   157160   157191   157194   157212   157179   157168 
  157207   157175   157122   157157   157181   157104   157037   157054 
  157100   157162   157260   157330   157326   157316   157347   157381 
  157411   157445   157459   157508   157639   157785   157878   157927 
  157968   158005   158053   158143   158220   158237   158232   158247 
  158305   158392   158485   158630   158828   158971   159089   159267 
  159418   159472   159484   159448   159362   159308   159294   159228 
  159093   158966   158824   158631   158476   158382   158256   158089 
  157948   157808   157620   157477   157396   157308   157233   157148 
  157041   156957   156868   156786   156729   156664   156591   156516 
  156465   156436   156354   156238   156128   155979   155839   155764 
  155675   155521   155347   155186   155096   155131   155221   155291 
  155375   155493   155605   155676   155742   155852   155987   156100 
  156192   156298   156423   156558   156717   156884   157025   157150 
  157281   157405   157511   157593   157678   157797   157955   158186 
  158485   158738   158949   159163   159318   159445   159549   159518 
  159409   159358   159321   159248   159206   159186   159086   158939 
  158823   158708   158603   158514   158372   158195   158029   157878 
  157773   157705   157639   157572   157515   157442   157289   157114 
  156979   156814   156639   156514   156400   156286   156177   156057 
  155946   155830   155700   155567   155413   155289   155210   155147 
  155140   155174   155175   155154   155135   155142   155204   155306 
  155418   155507   155594   155715   155875   156047   156180   156242 
  156285   156365   156466   156536   156559   156590   156705   156879 
  156991   157037   157119   157215   157231   157229   157285   157338 
  157399   157547   157690   157775   157900   158014   158066   158130 
  158195   158232   158302   158406   158487   158557   158669   158782 
  158809   158805   158809   158778   158788   158834   158824   158828 
  158842   158777   158697   158683   158697   158676   158627   158556 
  158417   158295   158240   158122   157958   157821   157662   157513 
  157438   157368   157272   157199   157157   157106   157014   156907 
  156787   156636   156482   156361   156261   156141   155968   155790 
  155667   155582   155491   155422   155416   155440   155461   155498 
  155580   155707   155825   155929   156073   156232   156373   156500 
  156581   156640   156743   156867   156969   157067   157195   157330 
  157420   157458   157458   157449   157432   157410   157426   157476 
  157526   157608   157697   157732   157732   157732   157743   157770 
  157816   157854   157860   157851   157851   157856   157851   157823 
  157783   157773   157786   157746   157663   157632   157557   157387 
  157252   157125   156926   156720   156519   156319   156139   155962 
  155788   155652   155565   155490   155376   155251   155164   155125 
  155116   155088   155048   155071   155132   155208   155320   155424 
  155517   155625   155704   155802   155970   156131   156244   156338 
  156367   156397   156502   156591   156644   156724   156764   156728 
  156721   156745   156725   156755   156884   156984   157071   157212 
  157341   157415   157457   157458   157459   157500   157540   157559 
  157569   157559   157557   157604   157642   157621   157580   157500 
  157407   157383   157373   157330   157293   157295   157335   157397 
  157473   157511   157513   157563   157604   157615   157690   157744 
  157740   157805   157906   157936   157986   158094   158120   158118 
  158201   158242   158218   158193   158080   157906   157792   157715 
  157588   157442   157327   157189   157040   156929   156798   156643 
  156528   156402   156251   156128   155997   155823   155691   155645 
  155588   155478   155372   155254   155109   155019   154975   154930 
  154944   155024   155066   155098   155205   155336   155467   155634 
  155796   155925   156099   156323   156506   156674   156863   157037 
  157212   157395   157536   157632   157705   157747   157738   157696 
  157680   157694   157693   157696   157720   157677   157570   157518 
  157492   157446   157438   157407   157315   157276   157284   157256 
  157241   157260   157238   157188   157164   157108   157027   157015 
  157050   157036   156971   156902   156806   156662   156497   156355 
  156211   156038   155883   155765   155686   155653   155649   155684 
  155790   155930   156051   156170   156297   156402   156478   156517 
  156527   156531   156550   156614   156708   156825   157005   157241 
  157488   157708   157904   158124   158379   158633   158862   159092 
  159340   159574   159769   159942   160070   160134   160193   160292 
  160361   160425   160536   160574   160544   160540   160481   160315 
  160114   159877   159614   159382   159138   158838   158527   158224 
  157918   157613   157315   157048   156806   156555   156316   156134 
  155995   155864   155748   155679   155630   155606   155686   155830 
  155935   156022   156111   156174   156207   156197   156176   156184 
  156195   156182   156180   156181   156178   156203   156234   156254 
  156304   156370   156411   156432   156452   156483   156524   156551 
  156560   156562   156594   156644   156658   156664   156689   156667 
  156602   156555   156523   156483   156451   156425   156381   156334 
  156312   156303   156277   156238   156216   156188   156149   156157 
  156184   156188   156209   156257   156313   156359   156405   156481 
  156525   156525   156510   156438   156361   156365   156384   156386 
  156456   156564   156639   156737   156875   156968   157057   157211 
  157353   157461   157613   157773   157905   158085   158286   158421 
  158533   158635   158662   158649   158646   158592   158471   158334 
  158152   157913   157707   157551   157408   157268   157114   156971 
  156888   156820   156733   156709   156757   156774   156789   156868 
  156951   156992   157011   157023   157042   157034   156996   156975 
  156976   156983   156986   156968   156922   156875   156836   156794 
  156760   156728   156679   156655   156651   156610   156558   156509 
  156433   156358   156288   156205   156169   156177   156150   156138 
  156204   156271   156312   156384   156497   156651   156848   157048 
  157237   157447   157635   157782   157966   158157   158315   158485 
  158587   158604   158677   158784   158827   158866   158928   158928 
  158885   158863   158820   158743   158661   158552   158429   158323 
  158206   158053   157879   157686   157493   157273   157027   156790 
  156551   156331   156134   155939   155811   155718   155614   155569 
  155560   155522   155491   155463   155461   155530   155621   155703 
  155796   155889   155968   156028   156073   156099   156134   156189 
  156207   156193   156205   156211   156203   156222   156236   156244 
  156240   156195   156166   156200   156267   156369   156462   156517 
  156575   156625   156645   156651   156639   156618   156617   156631 
  156604   156544   156510   156489   156431   156335   156223   156126 
  156081   156081   156087   156084   156101   156159   156227   156258 
  156243   156201   156142   156061   155996   155961   155906   155837 
  155794   155741   155692   155688   155699   155740   155838   155956 
  156038   156101   156201   156297   156366   156486   156644   156799 
  156965   157110   157235   157387   157563   157743   157916   158063 
  158175   158282   158392   158481   158575   158676   158770   158861 
  158949   159061   159214   159378   159506   159580   159651   159746 
  159817   159837   159834   159806   159741   159668   159614   159553 
  159464   159363   159283   159217   159142   159065   158984   158873 
  158750   158622   158450   158260   158093   157928   157766   157613 
  157442   157258   157100   156984   156888   156775   156632   156494 
  156370   156226   156010   155733   155470   155259   155098   155015 
  154994   154957   154917   154958   155052   155144   155283   155507 
  155741   155949   156149   156309   156458   156674   156910   157083 
  157256   157465   157617   157704   157806   157901   157954   158028 
  158122   158174   158218   158288   158310   158296   158346   158399 
  158391   158361   158321   158283   158249   158202   158178   158183 
  158183   158195   158211   158178   158097   157987   157829   157635 
  157451   157289   157106   156879   156635   156392   156157   155927 
  155694   155487   155329   155193   155081   155008   154951   154909 
  154907   154923   154935   154965   154993   155005   155051   155144 
  155262   155398   155538   155653   155718   155740   155767   155810 
  155880   155953   155980   156010   156068   156119   156188   156259 
  156334   156436   156521   156605   156736   156843   156910   156994 
  157072   157118   157149   157175   157176   157114   157027   157013 
  157010   156956   156933   156937   156897   156824   156745   156649 
  156560   156523   156516   156529   156573   156625   156679   156749 
  156841   156952   157054   157154   157287   157423   157527   157612 
  157707   157813   157914   158008   158095   158153   158183   158194 
  158164   158114   158102   158107   158090   158079   158083   158064 
  158052   158083   158090   158062   158047   158028   158024   158035 
  157990   157925   157881   157798   157669   157523   157391   157253 
  157086   156955   156876   156797   156726   156701   156702   156708 
  156717   156749   156780   156775   156766   156774   156767   156755 
  156755   156753   156752   156747   156751   156787   156834   156876 
  156917   156955   156994   157048   157095   157118   157142   157161 
  157145   157113   157088   157067   157040   156990   156903   156828 
  156784   156733   156697   156676   156618   156590   156631   156633 
  156609   156644   156678   156671   156712   156794   156834   156861 
  156915   156964   157009   157088   157176   157226   157265   157310 
  157342   157389   157469   157522   157524   157523   157526   157535 
  157558   157572   157569   157553   157503   157427   157337   157223 
  157107   157002   156890   156786   156706   156648   156587   156509 
  156424   156347   156294   156266   156208   156154   156149   156141 
  156115   156107   156114   156111   156109   156138   156174   156197 
  156222   156238   156244   156271   156315   156357   156384   156420 
  156479   156536   156595   156675   156759   156824   156883   156987 
  157123   157239   157315   157368   157408   157435   157473   157540 
