Origin Time       2025/01/13 21:19:00
Lat.              31.8
Long.             131.6
Depth. (km)       30
Mag.              6.9
Station Code      HRSH03
Station Lat.      34.5183
Station Long.     133.1375
Station Height(m) 160
Record Time       2025/01/13 21:20:33
Sampling Freq(Hz) 100Hz
Duration Time(s)  142
Dir.              5
Scale Factor      7845(gal)/8223790
Max. Acc. (gal)   2.283
Last Correction   2025/01/13 21:20:34
Memo.             
[...]
   -2361    -2509    -3067    -3732    -4141    -4086    -3759    -3397 
   -3042    -2866    -3076    -3454    -3599    -3495    -3496    -3747 
   -3967    -4048    -4198    -4290    -3959    -3252    -2513    -1950 
   -1638    -1648    -1984    -2651    -3631    -4646    -5224    -5178 
   -4792    -4356    -3682    -2670    -1987    -2145    -2714    -3253 
   -3759    -4089    -3978    -3573    -3353    -3480    -3680    -3757 
   -3750    -3561    -2994    -2315    -2047    -2293    -2820    -3445 
   -4041    -4503    -4787    -4916    -4907    -4521    -3551    -2543 
   -2201    -2361    -2593    -2898    -3235    -3373    -3325    -3369 
   -3523    -3609    -3684    -3755    -3663    -3469    -3369    -3466 
   -3788    -4124    -4009    -3402    -2922    -2835    -2698    -2377 
   -2327    -2895    -3812    -4509    -4737    -4645    -4507    -4395 
   -4079    -3532    -3130    -3053    -3091    -3078    -3048    -3134 
   -3491    -4054    -4468    -4483    -4216    -3904    -3622    -3308 
   -2902    -2465    -2272    -2528    -2932    -3068    -3129    -3456 
   -3777    -3662    -3308    -3223    -3350    -3326    -3310    -3478 
   -3393    -2809    -2259    -2282    -2709    -3052    -3289    -3658 
   -3996    -4056    -3886    -3604    -3383    -3346    -3489    -3703 
   -3747    -3703    -3790    -3739    -3415    -3217    -3339    -3555 
   -3581    -3380    -3222    -3315    -3616    -3978    -4266    -4425 
   -4421    -4051    -3273    -2459    -2020    -2020    -2313    -2826 
   -3488    -4136    -4637    -4781    -4468    -4064    -3909    -3762 
   -3268    -2582    -2093    -1894    -1933    -2308    -3056    -3978 
   -4750    -5173    -5206    -4822    -4097    -3323    -2785    -2590 
   -2641    -2805    -2975    -2933    -2712    -2802    -3375    -3936 
   -4091    -4067    -4108    -3933    -3481    -3153    -2938    -2687 
   -2660    -2911    -3227    -3550    -3827    -3962    -3996    -3971 
   -3824    -3551    -3381    -3478    -3562    -3299    -2774    -2263 
   -1952    -1919    -2313    -3167    -4047    -4500    -4556    -4399 
   -4085    -3717    -3576    -3748    -3859    -3654    -3360    -3152 
   -3060    -3221    -3676    -4209    -4519    -4480    -4274    -4114 
   -3908    -3474    -3009    -2848    -2874    -2830    -2930    -3323 
   -3713    -3898    -3944    -4071    -4348    -4372    -3927    -3442 
   -3272    -3253    -3142    -3030    -3063    -3146    -3240    -3481 
   -3808    -3852    -3528    -3233    -3214    -3384    -3728    -4203 
   -4402    -4037    -3518    -3287    -3186    -3067    -3181    -3512 
   -3586    -3298    -3113    -3343    -3790    -4156    -4378    -4417 
   -4056    -3258    -2457    -2085    -2204    -2801    -3680    -4375 
   -4625    -4471    -4109    -3662    -3059    -2552    -2544    -2798 
   -2864    -2787    -2847    -3153    -3631    -4137    -4406    -4216 
   -3793    -3530    -3485    -3462    -3260    -2891    -2652    -2745 
   -3025    -3341    -3771    -4209    -4321    -4081    -3774    -3618 
   -3647    -3703    -3546    -3240    -3038    -3017    -3207    -3555 
   -3819    -4051    -4522    -5003    -4965    -4369    -3638    -3114 
   -2874    -2839    -2870    -2868    -2910    -3076    -3271    -3439 
   -3667    -3978    -4207    -4089    -3661    -3310    -3159    -3037 
   -2945    -3051    -3465    -4063    -4441    -4356    -3894    -3223 
   -2705    -2679    -2965    -3217    -3322    -3364    -3477    -3613 
   -3754    -3970    -4079    -3948    -3686    -3364    -3063    -2790 
   -2407    -2083    -2066    -2286    -2785    -3636    -4452    -4675 
   -4221    -3577    -3052    -2463    -1918    -1858    -2346    -3067 
   -3682    -4020    -4102    -4059    -4074    -4113    -3973    -3789 
   -3682    -3369    -2778    -2278    -2207    -2620    -3329    -4018 
   -4421    -4484    -4340    -4067    -3645    -3132    -2764    -2824 
   -3268    -3767    -4117    -4282    -4287    -4139    -3794    -3458 
   -3422    -3550    -3549    -3418    -3343    -3369    -3268    -2984 
   -2917    -3244    -3570    -3528    -3219    -3003    -3030    -3126 
   -3105    -3065    -3303    -3854    -4301    -4167    -3480    -2720 
   -2151    -1713    -1534    -1912    -2789    -3624    -3959    -3883 
   -3661    -3322    -2845    -2317    -1985    -2002    -2083    -2018 
   -2104    -2546    -3078    -3380    -3447    -3607    -3975    -4116 
   -3665    -2897    -2309    -2068    -2041    -2173    -2504    -2903 
   -3221    -3512    -3798    -3936    -3916    -3881    -3800    -3483 
   -3075    -2983    -3140    -3084    -2756    -2513    -2551    -2716 
   -2940    -3445    -4113    -4475    -4526    -4457    -4043    -3240 
   -2602    -2521    -2727    -2871    -3063    -3462    -3910    -4190 
   -4271    -4275    -4315    -4359    -4263    -3948    -3537    -3146 
   -2790    -2505    -2304    -2232    -2457    -3007    -3690    -4260 
   -4607    -4824    -4865    -4491    -3808    -3183    -2739    -2528 
   -2629    -2856    -2944    -3003    -3352    -3962    -4461    -4710 
   -4793    -4638    -4155    -3469    -2832    -2398    -2182    -2228 
   -2505    -2785    -3024    -3369    -3686    -3659    -3250    -2806 
   -2709    -2979    -3342    -3572    -3615    -3487    -3160    -2778 
   -2648    -2826    -3055    -3148    -3142    -3148    -3196    -3258 
   -3402    -3697    -3920    -3763    -3291    -2871    -2747    -2829 
   -2980    -3119    -3114    -2947    -2740    -2465    -2146    -2143 
   -2548    -2947    -3200    -3495    -3735    -3659    -3260    -2814 
   -2582    -2592    -2774    -2943    -2907    -2874    -3115    -3491 
   -3755    -3882    -4005    -4172    -4170    -3815    -3362    -3144 
   -3010    -2731    -2465    -2486    -2961    -3713    -4175    -4175 
   -4136    -4178    -4041    -3700    -3327    -3034    -2816    -2602 
   -2520    -2735    -3048    -3284    -3576    -3892    -4040    -4001 
   -3871    -3843    -3948    -3985    -3909    -3757    -3515    -3281 
   -3117    -3010    -3063    -3360    -3828    -4276    -4577    -4757 
   -4820    -4742    -4538    -4234    -3886    -3557    -3420    -3612 
   -3955    -4249    -4434    -4437    -4307    -4132    -3967    -3909 
   -3861    -3704    -3599    -3573    -3391    -3146    -3260    -3747 
   -4144    -4233    -4209    -4155    -4005    -3859    -3790    -3728 
   -3653    -3566    -3418    -3154    -2901    -2906    -3118    -3235 
   -3261    -3456    -3828    -4126    -4116    -3780    -3396    -3231 
   -3199    -3049    -2810    -2739    -2876    -3084    -3387    -3767 
   -4082    -4259    -4198    -3801    -3327    -3257    -3592    -3766 
   -3537    -3280    -3257    -3343    -3447    -3632    -3929    -4210 
   -4305    -4163    -3896    -3753    -3855    -4129    -4480    -4661 
   -4448    -4012    -3620    -3373    -3330    -3510    -3975    -4718 
   -5362    -5584    -5422    -4954    -4353    -3906    -3765    -3983 
   -4345    -4438    -4259    -4050    -3854    -3670    -3543    -3578 
   -3807    -4010    -4005    -3797    -3461    -3080    -2690    -2439 
   -2550    -2984    -3526    -4056    -4486    -4671    -4483    -3954 
   -3333    -2875    -2652    -2679    -2979    -3439    -3766    -3735 
   -3385    -2911    -2509    -2332    -2423    -2722    -3125    -3387 
   -3369    -3307    -3408    -3605    -3847    -4132    -4270    -3991 
   -3396    -2872    -2554    -2365    -2388    -2662    -3094    -3654 
   -4251    -4610    -4538    -4140    -3682    -3303    -2998    -2798 
   -2758    -2853    -2978    -3059    -3142    -3273    -3395    -3485 
   -3604    -3766    -3928    -3962    -3753    -3431    -3218    -3129 
   -3099    -3186    -3385    -3500    -3483    -3603    -3960    -4232 
   -4148    -3842    -3630    -3636    -3685    -3595    -3434    -3308 
   -3098    -2709    -2405    -2462    -2770    -3076    -3288    -3383 
   -3388    -3352    -3267    -3140    -3034    -2957    -2795    -2455 
   -2033    -1788    -1927    -2366    -2810    -3122    -3294    -3277 
   -3187    -3208    -3250    -3217    -3167    -2982    -2583    -2212 
   -2056    -2158    -2551    -3026    -3319    -3435    -3420    -3353 
   -3414    -3465    -3281    -3092    -3082    -3060    -2880    -2578 
   -2420    -2639    -2992    -3252    -3549    -3910    -4197    -4279 
   -4037    -3631    -3465    -3488    -3258    -2771    -2393    -2309 
   -2523    -2911    -3310    -3690    -4110    -4422    -4368    -3960 
   -3350    -2743    -2389    -2131    -1931    -2268    -3069    -3711 
   -3950    -3919    -3905    -4013    -3862    -3342    -3015    -3179 
   -3447    -3392    -3096    -2903    -2878    -2951    -3163    -3457 
   -3709    -3915    -4083    -4158    -4128    -4085    -4133    -4253 
   -4245    -3997    -3719    -3634    -3597    -3373    -3073    -3034 
   -3356    -3824    -4214    -4432    -4507    -4571    -4603    -4378 
   -3904    -3591    -3623    -3703    -3709    -3827    -4004    -4089 
   -4086    -4064    -4140    -4336    -4482    -4456    -4274    -4010 
   -3765    -3597    -3526    -3522    -3508    -3488    -3561    -3624 
   -3430    -3096    -2991    -3180    -3397    -3431    -3412    -3547 
   -3694    -3658    -3434    -3105    -2925    -3076    -3338    -3481 
   -3516    -3443    -3249    -2986    -2767    -2740    -2944    -3321 
   -3789    -4131    -4176    -4031    -3902    -3883    -3856    -3650 
   -3373    -3246    -3196    -2982    -2648    -2602    -3046    -3631 
   -3989    -4174    -4337    -4401    -4248    -3991    -3712    -3330 
   -2972    -2847    -2897    -3028    -3214    -3373    -3464    -3526 
   -3572    -3589    -3612    -3580    -3346    -3006    -2798    -2709 
   -2571    -2419    -2492    -2879    -3402    -3900    -4290    -4482 
   -4519    -4514    -4417    -4156    -3805    -3465    -3137    -2782 
   -2471    -2358    -2544    -2921    -3246    -3541    -4000    -4457 
   -4563    -4324    -4023    -3716    -3269    -2844    -2787    -3094 
   -3493    -3852    -4232    -4623    -4815    -4661    -4321    -3986 
   -3693    -3515    -3584    -3861    -4106    -4156    -4124    -4163 
   -4212    -4266    -4449    -4615    -4413    -3846    -3242    -2859 
   -2775    -2963    -3327    -3728    -3969    -3882    -3501    -3100 
   -2882    -2762    -2671    -2695    -2830    -2940    -2992    -3100 
   -3258    -3361    -3427    -3422    -3171    -2729    -2401    -2363 
   -2566    -2852    -3149    -3535    -3923    -4006    -3754    -3519 
   -3468    -3392    -3226    -3141    -3210    -3438    -3734    -3882 
   -3878    -3865    -3813    -3677    -3520    -3375    -3187    -2917 
   -2602    -2317    -2131    -2087    -2243    -2627    -3053    -3271 
   -3289    -3180    -2956    -2853    -3105    -3600    -4027    -4182 
   -4071    -3704    -3105    -2562    -2340    -2438    -2835    -3433 
   -3942    -4178    -4144    -3908    -3565    -3161    -2795    -2650 
   -2687    -2737    -2779    -2790    -2759    -2835    -3051    -3318 
   -3650    -4018    -4218    -4023    -3484    -2967    -2693    -2608 
   -2733    -3115    -3573    -3875    -4031    -4158    -4225    -4172 
   -4052    -3838    -3546    -3431    -3558    -3730    -3915    -4176 
   -4444    -4572    -4490    -4330    -4294    -4321    -4220    -3974 
   -3724    -3596    -3515    -3415    -3453    -3661    -3870    -4074 
   -4345    -4571    -4545    -4222    -3809    -3565    -3531    -3547 
   -3523    -3499    -3468    -3370    -3258    -3271    -3399    -3442 
   -3352    -3292    -3343    -3477    -3623    -3680    -3612    -3403 
   -3045    -2635    -2339    -2270    -2452    -2849    -3240    -3354 
   -3231    -3053    -2864    -2786    -2998    -3334    -3441    -3254 
   -2947    -2739    -2805    -3088    -3478    -3979    -4403    -4413 
   -4085    -3825    -3766    -3773    -3723    -3555    -3369    -3356 
   -3480    -3584    -3665    -3757    -3807    -3767    -3597    -3326 
   -3173    -3256    -3380    -3361    -3223    -3115    -3096    -3029 
   -2890    -2872    -3011    -3134    -3144    -3038    -2876    -2755 
   -2682    -2656    -2731    -2898    -3118    -3353    -3543    -3654 
   -3638    -3472    -3285    -3181    -3149    -3169    -3163    -3033 
   -2848    -2760    -2867    -3153    -3504    -3800    -4055    -4298 
   -4391    -4260    -4025    -3770    -3516    -3300    -3156    -3122 
   -3213    -3362    -3491    -3597    -3703    -3736    -3639    -3542 
   -3592    -3661    -3601    -3550    -3581    -3565    -3481    -3427 
   -3393    -3403    -3576    -3842    -4008    -4087    -4140    -4112 
   -4059    -4112    -4170    -4087    -3955    -3890    -3862    -3852 
   -3910    -4035    -4131    -4087    -3924    -3769    -3670    -3562 
   -3402    -3226    -3064    -2922    -2816    -2766    -2814    -2920 
   -3038    -3241    -3468    -3532    -3393    -3190    -3113    -3173 
   -3196    -3149    -3110    -3011    -2847    -2748    -2741    -2778 
   -2864    -3040    -3285    -3489    -3595    -3631    -3535    -3280 
   -2987    -2866    -2986    -3157    -3303    -3574    -3879    -3951 
   -3856    -3873    -4017    -4102    -4151    -4267    -4214    -3735 
   -3087    -2673    -2574    -2736    -3141    -3686    -4106    -4286 
   -4437    -4596    -4518    -4210    -3955    -3813    -3609    -3299 
   -2995    -2793    -2790    -3079    -3545    -3936    -4125    -4195 
   -4241    -4240    -4121    -3834    -3402    -2828    -2064    -1331 
   -1047    -1324    -1922    -2554    -3145    -3759    -4218    -4266 
   -4004    -3663    -3308    -2917    -2455    -1996    -1692    -1625 
   -1819    -2223    -2701    -3163    -3562    -3865    -4009    -3900 
   -3584    -3257    -3018    -2856    -2797    -2914    -3167    -3373 
   -3480    -3647    -3943    -4198    -4228    -4039    -3753    -3480 
   -3311    -3271    -3296    -3330    -3397    -3568    -3823    -4051 
   -4232    -4386    -4383    -4133    -3763    -3439    -3199    -3034 
   -2999    -3098    -3187    -3202    -3264    -3453    -3676    -3786 
   -3734    -3630    -3568    -3447    -3156    -2760    -2474    -2431 
   -2523    -2619    -2779    -3056    -3271    -3223    -2952    -2691 
   -2635    -2782    -2992    -3221    -3441    -3424    -3123    -2835 
   -2704    -2722    -2933    -3250    -3543    -3751    -3817    -3781 
   -3751    -3774    -3898    -4108    -4226    -4151    -3978    -3794 
   -3578    -3384    -3364    -3524    -3739    -3915    -3982    -3973 
   -3990    -4029    -4013    -3913    -3751    -3570    -3433    -3352 
   -3265    -3191    -3241    -3404    -3568    -3713    -3890    -4039 
   -4081    -4106    -4149    -4082    -3939    -3848    -3788    -3692 
   -3578    -3527    -3568    -3707    -3964    -4230    -4386    -4490 
   -4564    -4511    -4288    -3963    -3653    -3435    -3311    -3261 
   -3246    -3252    -3352    -3595    -3931    -4244    -4374    -4248 
   -3944    -3577    -3249    -3005    -2821    -2656    -2470    -2272 
   -2184    -2320    -2633    -2972    -3271    -3557    -3773    -3774 
   -3538    -3229    -2972    -2760    -2608    -2540    -2540    -2650 
   -2902    -3195    -3469    -3788    -4121    -4351    -4379    -4163 
   -3794    -3487    -3334    -3234    -3134    -3167    -3427    -3811 
   -4141    -4353    -4526    -4720    -4733    -4356    -3738    -3210 
   -2926    -2821    -2825    -2978    -3249    -3465    -3574    -3716 
   -3939    -4114    -4097    -3873    -3562    -3267    -3018    -2848 
   -2781    -2883    -3215    -3645    -3919    -3979    -4027    -4171 
   -4224    -4047    -3800    -3650    -3549    -3389    -3179    -2998 
   -2856    -2737    -2673    -2690    -2809    -3014    -3230    -3410 
   -3551    -3591    -3465    -3267    -3142    -3084    -2967    -2779 
   -2666    -2731    -2878    -2949    -2963    -3056    -3229    -3369 
   -3384    -3229    -2965    -2745    -2620    -2523    -2396    -2319 
   -2425    -2651    -2829    -2964    -3096    -3173    -3159    -3084 
   -2979    -2867    -2828    -2932    -3130    -3323    -3478    -3589 
   -3627    -3600    -3545    -3542    -3689    -3892    -3974    -3959 
   -3950    -3967    -4033    -4178    -4399    -4646    -4826    -4881 
   -4827    -4720    -4602    -4500    -4434    -4392    -4345    -4255 
   -4106    -3939    -3796    -3758    -3902    -4102    -4170    -4186 
   -4299    -4361    -4194    -3910    -3681    -3497    -3285    -3082 
   -3021    -3109    -3165    -3133    -3134    -3203    -3272    -3303 
   -3291    -3219    -3076    -2952    -2961    -3025    -2983    -2902 
   -3002    -3285    -3520    -3666    -3888    -4135    -4195    -4068 
   -3861    -3569    -3229    -2994    -2951    -3010    -3051    -3041 
   -2975    -2848    -2767    -2898    -3196    -3450    -3580    -3612 
   -3531    -3342    -3059    -2686    -2344    -2216    -2303    -2475 
   -2666    -2867    -3057    -3210    -3314    -3415    -3577    -3731 
   -3680    -3366    -2965    -2641    -2471    -2532    -2774    -2995 
   -3154    -3300    -3346    -3289    -3287    -3396    -3539    -3645 
   -3713    -3758    -3774    -3765    -3728    -3676    -3676    -3767 
   -3893    -3940    -3892    -3852    -3855    -3851    -3834    -3821 
   -3832    -3831    -3778    -3738    -3785    -3917    -4062    -4131 
   -4189    -4391    -4673    -4834    -4822    -4687    -4455    -4170 
   -3935    -3815    -3762    -3730    -3758    -3834    -3844    -3739 
   -3534    -3326    -3315    -3535    -3788    -3931    -3962    -3878 
   -3690    -3470    -3268    -3130    -3161    -3333    -3470    -3480 
   -3411    -3327    -3233    -3192    -3277    -3411    -3597    -3909 
   -4159    -4104    -3842    -3577    -3361    -3265    -3339    -3483 
   -3557    -3518    -3420    -3370    -3396    -3476    -3636    -3824 
   -3871    -3704    -3478    -3353    -3265    -3163    -3164    -3288 
   -3412    -3515    -3632    -3724    -3750    -3690    -3526    -3285 
   -3055    -2929    -2938    -3015    -3072    -3087    -3044    -2921 
   -2775    -2668    -2659    -2851    -3168    -3356    -3329    -3161 
   -2928    -2741    -2674    -2700    -2821    -3042    -3249    -3331 
   -3325    -3300    -3287    -3279    -3233    -3113    -2970    -2943 
   -3076    -3165    -3090    -3038    -3153    -3288    -3312    -3318 
   -3423    -3555    -3582    -3522    -3473    -3435    -3360    -3329 
   -3443    -3650    -3870    -4078    -4201    -4203    -4116    -3954 
   -3755    -3608    -3545    -3500    -3478    -3557    -3670    -3666 
   -3561    -3483    -3418    -3326    -3341    -3532    -3754    -3904 
   -4020    -4077    -3946    -3585    -3168    -2916    -2826    -2779 
   -2770    -2839    -2929    -2992    -3079    -3227    -3387    -3481 
   -3522    -3477    -3223    -2821    -2501    -2346    -2330    -2461 
   -2722    -3003    -3186    -3295    -3439    -3561    -3504    -3307 
   -3154    -3106    -3109    -3144    -3196    -3248    -3314    -3406 
   -3557    -3790    -3989    -4066    -4124    -4198    -4180    -4040 
   -3858    -3735    -3699    -3721    -3773    -3800    -3797    -3790 
   -3707    -3550    -3501    -3615    -3734    -3746    -3705    -3727 
   -3798    -3819    -3797    -3813    -3848    -3835    -3798    -3793 
   -3786    -3708    -3581    -3518    -3551    -3605    -3611    -3551 
