Origin Time       2025/01/13 21:19:00
Lat.              31.8
Long.             131.6
Depth. (km)       30
Mag.              6.9
Station Code      HRSH18
Station Lat.      34.4572
Station Long.     132.7923
Station Height(m) 135
Record Time       2025/01/13 21:20:26
Sampling Freq(Hz) 100Hz
Duration Time(s)  133
Dir.              2
Scale Factor      2942(gal)/8224139
Max. Acc. (gal)   1.297
Last Correction   2025/01/13 21:20:27
Memo.             
[...]
  163962   164058   164107   164149   164195   164199   164143   164100 
  164111   164138   164170   164193   164180   164128   164050   163989 
  163960   163939   163953   163977   163958   163907   163842   163790 
  163775   163759   163706   163652   163613   163601   163634   163691 
  163723   163721   163703   163664   163613   163599   163610   163593 
  163567   163588   163622   163607   163571   163533   163493   163466 
  163441   163439   163482   163518   163489   163413   163375   163409 
  163475   163556   163651   163737   163807   163865   163910   163953 
  163981   163985   163998   164029   164077   164137   164154   164118 
  164069   164022   163989   163996   164000   163989   164020   164053 
  164029   163999   164012   164060   164103   164108   164099   164088 
  164072   164062   164070   164081   164061   163999   163922   163880 
  163883   163857   163810   163830   163917   164026   164114   164153 
  164168   164153   164077   163996   163962   163949   163927   163904 
  163885   163850   163798   163759   163738   163728   163746   163776 
  163782   163776   163760   163705   163634   163626   163682   163753 
  163825   163869   163853   163806   163763   163726   163702   163687 
  163695   163733   163771   163772   163765   163800   163856   163904 
  163930   163890   163792   163713   163648   163574   163529   163505 
  163453   163439   163507   163568   163582   163593   163588   163566 
  163599   163690   163742   163725   163698   163694   163676   163645 
  163667   163718   163710   163663   163655   163691   163769   163879 
  163991   164095   164188   164246   164261   164266   164266   164249 
  164223   164189   164151   164131   164119   164085   164029   163926 
  163780   163676   163625   163602   163629   163672   163674   163678 
  163748   163821   163802   163717   163645   163624   163649   163671 
  163669   163698   163752   163775   163811   163896   163956   163971 
  164010   164072   164115   164170   164250   164281   164243   164204 
  164176   164137   164112   164116   164128   164142   164155   164165 
  164180   164187   164164   164137   164134   164149   164130   164038 
  163942   163912   163902   163888   163890   163852   163783   163759 
  163777   163817   163875   163904   163898   163884   163848   163783 
  163729   163706   163730   163786   163810   163791   163779   163818 
  163935   164053   164064   164008   163971   163957   163933   163875 
  163807   163769   163750   163714   163636   163563   163568   163598 
  163566   163512   163485   163482   163510   163547   163571   163601 
  163629   163634   163636   163678   163725   163732   163745   163791 
  163858   163938   163980   164000   164057   164083   164034   163992 
  163992   164002   164007   163996   163983   164015   164084   164141 
  164192   164232   164241   164249   164265   164269   164247   164161 
  164011   163880   163795   163718   163656   163610   163572   163555 
  163564   163598   163649   163695   163730   163775   163813   163809 
  163786   163764   163721   163642   163584   163617   163698   163744 
  163745   163725   163699   163695   163698   163690   163701   163723 
  163722   163737   163796   163827   163819   163846   163885   163858 
  163817   163815   163796   163736   163705   163732   163772   163780 
  163771   163783   163790   163757   163711   163703   163752   163787 
  163725   163622   163551   163493   163439   163422   163456   163514 
  163586   163669   163713   163726   163780   163856   163912   163931 
  163894   163858   163860   163846   163849   163898   163926   163926 
  163915   163883   163892   163946   163954   163945   163999   164065 
  164073   164060   164079   164123   164135   164099   164052   164031 
  164060   164107   164141   164155   164138   164110   164093   164064 
  164047   164056   164034   163979   163925   163903   163938   163981 
  163976   163958   163945   163895   163836   163825   163844   163861 
  163881   163888   163863   163854   163885   163912   163931   163937 
  163910   163875   163810   163696   163625   163629   163644   163676 
  163775   163871   163884   163881   163906   163935   163998   164069 
  164092   164114   164154   164160   164150   164158   164147   164137 
  164153   164162   164157   164154   164165   164165   164128   164062 
  163960   163845   163782   163729   163649   163633   163710   163791 
  163830   163826   163782   163733   163709   163703   163719   163730 
  163718   163736   163788   163830   163864   163871   163834   163823 
  163852   163856   163836   163826   163834   163853   163895   163957 
  163998   163985   163929   163837   163726   163675   163748   163856 
  163891   163873   163858   163857   163848   163830   163833   163804 
  163711   163645   163661   163705   163765   163829   163831   163780 
  163775   163854   163945   163964   163907   163864   163900   163987 
  164077   164142   164160   164150   164123   164081   164057   164057 
  164069   164083   164103   164122   164111   164066   164016   163950 
  163873   163823   163823   163881   163952   163954   163892   163850 
  163846   163831   163802   163772   163738   163717   163699   163674 
  163674   163711   163752   163769   163780   163777   163775   163842 
  163964   164047   164083   164110   164112   164104   164139   164201 
  164241   164250   164218   164135   164085   164147   164259   164336 
  164427   164546   164640   164729   164814   164824   164758   164681 
  164598   164535   164532   164498   164359   164234   164177   164126 
  164093   164095   164097   164112   164115   164061   164015   164033 
  164056   164022   163917   163813   163787   163809   163833   163852 
  163827   163745   163669   163641   163609   163566   163571   163601 
  163598   163582   163594   163622   163624   163602   163578   163539 
  163516   163563   163657   163737   163775   163773   163757   163763 
  163796   163821   163831   163863   163876   163830   163759   163695 
  163644   163599   163555   163517   163495   163490   163495   163505 
  163513   163498   163474   163476   163506   163547   163582   163570 
  163517   163489   163521   163591   163668   163718   163695   163614 
  163563   163560   163580   163655   163760   163819   163852   163903 
  163961   164007   164033   164072   164124   164146   164097   164020 
  164014   164062   164069   164052   164095   164214   164293   164250 
  164184   164177   164165   164138   164146   164182   164199   164139 
  163985   163814   163687   163618   163621   163614   163561   163576 
  163659   163684   163640   163561   163448   163341   163281   163250 
  163236   163223   163185   163135   163065   163011   163077   163244 
  163385   163435   163404   163336   163279   163264   163271   163250 
  163208   163179   163165   163175   163192   163165   163152   163231 
  163327   163378   163405   163418   163439   163459   163467   163467 
  163447   163433   163440   163436   163449   163513   163583   163570 
  163445   163323   163306   163370   163428   163426   163397   163378 
  163378   163412   163432   163414   163418   163444   163453   163444 
  163422   163385   163335   163273   163221   163229   163341   163509 
  163594   163539   163471   163502   163578   163647   163726   163790 
  163813   163817   163837   163853   163817   163775   163798   163860 
  163900   163957   164058   164128   164116   164057   163998   163961 
  163925   163887   163850   163806   163777   163738   163655   163574 
  163475   163352   163282   163240   163188   163148   163101   163043 
  163012   162958   162838   162702   162604   162591   162635   162654 
  162630   162599   162554   162490   162464   162535   162631   162702 
  162774   162816   162826   162874   162943   162951   162949   163019 
  163098   163135   163177   163227   163262   163297   163310   163302 
  163314   163312   163255   163231   163255   163221   163125   163066 
  163077   163107   163084   163023   162982   162958   162959   162996 
  163019   163012   162977   162908   162864   162918   163005   163030 
  163047   163112   163186   163283   163405   163495   163512   163459 
  163416   163456   163537   163588   163584   163522   163444   163375 
  163298   163259   163300   163372   163437   163470   163451   163440 
  163493   163537   163525   163525   163560   163607   163656   163710 
  163753   163742   163732   163794   163860   163902   163962   164035 
  164112   164203   164312   164413   164501   164621   164772   164902 
  165001   165106   165262   165422   165551   165690   165820   165950 
  166093   166176   166252   166394   166483   166504   166537   166571 
  166645   166742   166777   166807   166845   166807   166752   166733 
  166702   166661   166629   166590   166563   166534   166441   166326 
  166270   166257   166232   166180   166116   166024   165896   165758 
  165612   165424   165264   165202   165168   165100   164998   164860 
  164725   164655   164664   164705   164689   164629   164600   164578 
  164527   164448   164403   164434   164479   164498   164528   164543 
  164490   164408   164339   164272   164230   164222   164208   164154 
  164092   164039   163949   163875   163918   163991   163996   164031 
  164153   164253   164301   164389   164485   164504   164542   164640 
  164702   164766   164897   165017   165106   165221   165353   165489 
  165623   165716   165727   165701   165765   165904   165971   165986 
  166068   166180   166268   166359   166402   166367   166330   166287 
  166205   166178   166205   166199   166163   166091   166001   165950 
  165909   165827   165732   165682   165680   165665   165607   165522 
  165442   165384   165308   165196   165111   165084   165060   165002 
  164953   164911   164810   164687   164637   164647   164654   164619 
  164547   164488   164471   164471   164447   164389   164346   164349 
  164347   164312   164259   164193   164101   163975   163846   163733 
  163647   163602   163514   163339   163152   162999   162909   162861 
  162764   162658   162599   162500   162372   162310   162291   162252 
  162218   162203   162199   162222   162237   162207   162170   162155 
  162117   162043   161964   161873   161743   161620   161546   161482 
  161384   161271   161173   161104   161061   160971   160806   160705 
  160718   160697   160604   160540   160515   160482   160496   160583 
  160675   160748   160825   160895   160968   161042   161063   161059 
  161099   161185   161298   161391   161442   161523   161669   161793 
  161867   161946   162060   162251   162500   162722   162903   163077 
  163213   163308   163435   163605   163710   163734   163788   163887 
  163961   164023   164097   164180   164270   164339   164386   164427 
  164438   164452   164494   164512   164501   164515   164558   164586 
  164562   164478   164403   164374   164308   164197   164120   164080 
  164029   163949   163881   163858   163814   163703   163601   163539 
  163448   163344   163294   163277   163259   163223   163171   163154 
  163171   163200   163266   163347   163395   163431   163452   163449 
  163460   163490   163533   163561   163574   163647   163717   163682 
  163642   163664   163652   163618   163641   163648   163548   163381 
  163204   163028   162876   162762   162670   162580   162468   162336 
  162233   162170   162120   162091   162072   162074   162110   162132 
  162145   162197   162251   162317   162410   162448   162442   162504 
  162614   162689   162746   162805   162885   163003   163113   163175 
  163240   163350   163483   163607   163688   163711   163715   163745 
  163780   163809   163853   163922   164007   164043   164011   164035 
  164139   164173   164142   164158   164214   164247   164265   164278 
  164266   164263   164299   164326   164332   164323   164300   164299 
  164322   164351   164365   164346   164351   164417   164475   164506 
  164575   164639   164623   164565   164512   164482   164457   164423 
  164431   164443   164394   164361   164373   164381   164386   164380 
  164365   164419   164512   164538   164527   164531   164551   164587 
  164635   164675   164708   164721   164687   164629   164597   164555 
  164504   164513   164544   164538   164532   164525   164511   164523 
  164539   164513   164477   164481   164532   164596   164621   164593 
  164536   164486   164439   164367   164293   164259   164226   164143 
  164043   163981   163942   163848   163721   163614   163490   163374 
  163329   163294   163205   163125   163112   163092   162989   162865 
  162788   162723   162633   162565   162545   162550   162573   162581 
  162560   162573   162656   162769   162862   162903   162911   162946 
  163013   163055   163053   163017   162946   162847   162756   162697 
  162654   162602   162546   162461   162344   162255   162229   162260 
  162294   162287   162276   162283   162275   162303   162407   162506 
  162549   162565   162553   162541   162554   162560   162546   162533 
  162525   162511   162456   162376   162352   162396   162461   162535 
  162637   162769   162909   163043   163186   163352   163534   163690 
  163814   163971   164145   164293   164431   164554   164675   164836 
  165024   165172   165276   165364   165456   165585   165740   165883 
  166013   166101   166145   166214   166328   166480   166637   166730 
  166810   166939   167047   167123   167209   167292   167363   167424 
  167459   167455   167410   167320   167196   167049   166855   166639 
  166456   166298   166118   165916   165723   165557   165415   165329 
  165308   165312   165311   165294   165245   165191   165146   165076 
  165002   164938   164822   164674   164542   164397   164262   164146 
  163971   163728   163510   163378   163270   163120   162942   162757 
  162598   162506   162465   162398   162274   162144   162090   162093 
  162060   161998   161963   161912   161813   161730   161680   161631 
  161603   161589   161565   161584   161654   161730   161833   161941 
  162012   162082   162168   162234   162299   162387   162477   162571 
  162684   162803   162915   162996   163043   163096   163169   163252 
  163345   163440   163537   163671   163803   163863   163907   164042 
  164218   164351   164482   164641   164776   164853   164902   164968 
  165040   165087   165140   165176   165127   165038   164995   164994 
  164976   164903   164782   164673   164621   164571   164419   164177 
  163946   163771   163617   163440   163228   163013   162830   162658 
  162488   162341   162228   162137   162085   162093   162130   162176 
  162290   162459   162585   162675   162793   162934   163077   163229 
  163359   163449   163540   163642   163756   163883   163979   164058 
  164199   164371   164502   164613   164740   164887   165045   165173 
  165275   165370   165435   165472   165507   165523   165523   165519 
  165487   165430   165356   165260   165173   165095   164986   164871 
  164751   164579   164398   164251   164103   163957   163841   163726 
  163599   163491   163414   163343   163263   163206   163167   163116 
  163093   163115   163108   163080   163115   163192   163227   163252 
  163317   163402   163479   163549   163651   163784   163902   164007 
  164106   164185   164282   164377   164439   164517   164625   164710 
  164783   164882   164957   164988   165042   165132   165187   165180 
  165149   165130   165117   165086   165014   164876   164740   164620 
  164436   164226   164025   163769   163483   163232   163012   162760 
  162450   162178   162012   161897   161761   161626   161554   161528 
  161512   161496   161469   161478   161519   161522   161550   161655 
  161746   161793   161859   161960   162106   162268   162406   162554 
  162712   162819   162896   163009   163113   163140   163135   163169 
  163248   163339   163405   163453   163483   163490   163507   163522 
  163501   163476   163464   163474   163521   163578   163632   163715 
  163826   163935   164072   164261   164432   164579   164759   164936 
  165080   165226   165352   165424   165477   165527   165559   165557 
  165519   165492   165511   165555   165578   165550   165489   165441 
  165402   165342   165248   165136   165026   164903   164754   164598 
  164439   164263   164092   163933   163779   163637   163489   163313 
  163151   163039   162946   162831   162708   162594   162467   162321 
  162186   162055   161908   161773   161692   161646   161608   161603 
  161636   161674   161696   161694   161696   161738   161811   161905 
  162020   162132   162243   162368   162513   162673   162845   163027 
  163212   163387   163552   163729   163923   164087   164208   164335 
  164470   164581   164640   164681   164771   164922   165067   165179 
  165300   165434   165527   165568   165572   165562   165576   165578 
  165507   165411   165352   165306   165262   165223   165176   165142 
  165123   165099   165068   165021   164986   164979   164961   164936 
  164932   164940   164947   164947   164961   164984   164980   164975 
  164978   164949   164890   164805   164693   164587   164455   164288 
  164174   164106   163999   163875   163771   163661   163560   163479 
  163398   163340   163309   163281   163248   163181   163084   163031 
  163019   162985   162954   162967   163007   163050   163086   163113 
  163167   163248   163328   163404   163482   163561   163636   163710 
  163787   163849   163891   163939   163996   164054   164100   164111 
  164115   164130   164130   164107   164088   164062   164010   163979 
  163995   163981   163906   163831   163776   163714   163661   163622 
  163570   163495   163394   163287   163212   163159   163102   163051 
  163020   162978   162907   162834   162792   162777   162757   162741 
  162765   162808   162831   162847   162866   162893   162966   163058 
  163128   163220   163333   163440   163584   163767   163912   164043 
  164205   164369   164536   164729   164907   165061   165218   165354 
  165457   165545   165622   165700   165778   165825   165858   165894 
  165912   165913   165916   165892   165819   165743   165678   165574 
  165430   165294   165196   165138   165107   165088   165046   164975 
  164922   164901   164855   164794   164754   164706   164629   164548 
  164442   164278   164089   163915   163742   163572   163422   163289 
  163190   163109   162994   162880   162803   162737   162670   162608 
  162542   162469   162395   162330   162318   162333   162301   162238 
  162194   162163   162145   162149   162157   162153   162153   162167 
  162184   162220   162263   162276   162274   162301   162330   162346 
  162384   162437   162484   162548   162633   162712   162799   162904 
  163005   163085   163177   163316   163472   163609   163732   163845 
  163938   164016   164093   164178   164238   164274   164342   164415 
  164450   164465   164463   164459   164474   164469   164420   164377 
  164365   164353   164326   164293   164263   164250   164251   164245 
  164220   164176   164104   164030   163992   163971   163926   163879 
  163860   163875   163912   163960   164030   164106   164142   164170 
  164215   164245   164268   164266   164199   164101   164002   163908 
  163838   163773   163726   163717   163701   163682   163688   163690 
