Origin Time       2025/01/13 21:19:00
Lat.              31.8
Long.             131.6
Depth. (km)       30
Mag.              6.9
Station Code      HRSH16
Station Lat.      34.6629
Station Long.     132.6689
Station Height(m) 280
Record Time       2025/01/13 21:21:06
Sampling Freq(Hz) 100Hz
Duration Time(s)  120
Dir.              5
Scale Factor      7845(gal)/8223790
Max. Acc. (gal)   2.237
Last Correction   2025/01/13 21:21:07
Memo.             
[...]
    2668     2682     2701     2686     2643     2609     2647     2744 
    2802     2801     2828     2889     2922     2917     2886     2852 
    2848     2837     2771     2675     2613     2616     2682     2763 
    2801     2799     2798     2798     2786     2786     2845     2963 
    3059     3057     2980     2899     2867     2901     2956     2956 
    2909     2875     2853     2795     2710     2673     2731     2840 
    2909     2918     2918     2924     2907     2853     2774     2687 
    2635     2647     2660     2606     2531     2535     2633     2770 
    2874     2913     2920     2941     2968     2949     2883     2830 
    2817     2837     2843     2768     2629     2531     2520     2583 
    2701     2830     2934     3010     3030     2990     2959     2991 
    3068     3123     3109     3038     2963     2909     2879     2860 
    2848     2856     2895     2921     2887     2816     2748     2691 
    2660     2670     2716     2806     2916     2982     3002     3029 
    3060     3057     2983     2856     2740     2674     2616     2533 
    2485     2550     2709     2872     2967     2997     3022     3067 
    3103     3119     3125     3110     3029     2876     2727     2639 
    2602     2583     2571     2577     2602     2637     2698     2783 
    2849     2851     2802     2783     2830     2907     2982     3042 
    3053     2991     2894     2817     2775     2760     2787     2844 
    2874     2862     2852     2889     2952     2979     2952     2928 
    2933     2925     2884     2847     2847     2890     2948     2980 
    2961     2907     2862     2829     2797     2763     2729     2714 
    2710     2647     2515     2400     2365     2408     2494     2582 
    2663     2754     2840     2910     2972     3007     3011     3018 
    3001     2909     2782     2694     2674     2694     2690     2643 
    2620     2666     2760     2857     2929     2961     2976     2980 
    2955     2934     2982     3065     3099     3055     2940     2803 
    2755     2837     2956     3006     2982     2934     2905     2880 
    2832     2783     2762     2767     2801     2867     2952     3024 
    3065     3099     3130     3126     3049     2886     2695     2579 
    2589     2701     2856     3001     3099     3099     2988     2840 
    2731     2697     2727     2754     2739     2729     2798     2968 
    3217     3446     3547     3472     3230     2887     2551     2297 
    2139     2060     2022     2027     2123     2307     2548     2835 
    3126     3376     3547     3565     3399     3141     2891     2709 
    2640     2637     2601     2542     2512     2492     2494     2560 
    2647     2722     2794     2836     2867     2961     3090     3153 
    3146     3083     2957     2774     2543     2299     2128     2116 
    2261     2479     2671     2794     2903     3060     3246     3424 
    3511     3383     3046     2702     2566     2652     2802     2902 
    2964     3007     2995     2897     2755     2662     2668     2749 
    2810     2801     2772     2844     3061     3339     3523     3500 
    3276     2955     2655     2447     2334     2297     2353     2489 
    2619     2655     2636     2709     2952     3213     3298     3172 
    2934     2708     2571     2577     2702     2813     2835     2839 
    2839     2785     2706     2666     2674     2701     2704     2675 
    2659     2705     2830     2976     3032     2997     2976     2991 
    2979     2948     2944     2941     2874     2722     2567     2569 
    2779     3018     3061     2913     2754     2706     2748     2785 
    2775     2741     2693     2628     2586     2616     2687     2736 
    2755     2814     2960     3103     3126     3069     3010     2929 
    2794     2606     2404     2245     2154     2122     2172     2309 
    2521     2813     3172     3543     3819     3852     3586     3140 
    2708     2419     2290     2276     2347     2492     2639     2716 
    2705     2662     2660     2691     2709     2736     2774     2775 
    2768     2801     2872     2998     3167     3280     3284     3218 
    3114     3002     2932     2929     2941     2871     2673     2417 
    2246     2258     2455     2737     2994     3168     3262     3292 
    3277     3262     3283     3325     3333     3253     3041     2705 
    2354     2145     2161     2343     2583     2791     2920     2982 
    3010     3051     3154     3285     3325     3187     2887     2533 
    2308     2322     2493     2671     2762     2740     2660     2617 
    2647     2737     2862     2943     2905     2795     2749     2841 
    3028     3177     3168     2991     2720     2430     2173     2029 
    2045     2211     2521     2933     3287     3453     3435     3321 
    3176     3028     2909     2867     2882     2875     2770     2598 
    2501     2593     2803     2948     2948     2864     2764     2675 
    2598     2558     2612     2747     2909     3065     3164     3171 
    3096     2952     2797     2686     2594     2520     2517     2629 
    2857     3165     3457     3618     3569     3298     2899     2550 
    2351     2323     2446     2633     2797     2917     3001     3061 
    3138     3219     3248     3164     2941     2647     2405     2301 
    2366     2569     2775     2866     2816     2660     2481     2366 
    2347     2427     2544     2614     2644     2706     2832     2986 
    3126     3237     3318     3329     3200     2928     2612     2380 
    2296     2370     2573     2817     2991     3014     2916     2841 
    2889     3032     3177     3248     3271     3303     3312     3265 
    3198     3150     3134     3113     3022     2889     2797     2724 
    2582     2423     2338     2346     2466     2681     2887     3021 
    3083     3073     3044     3057     3130     3260     3391     3402 
    3246     2994     2695     2374     2068     1848     1779     1865 
    2118     2536     3018     3416     3627     3588     3388     3242 
    3238     3264     3196     2982     2648     2374     2331     2482 
    2724     2936     2963     2767     2461     2191     2115     2277 
    2512     2677     2806     2953     3083     3117     3019     2870 
    2818     2932     3110     3196     3100     2848     2594     2488 
    2538     2655     2736     2766     2808     2890     2964     2960 
    2910     2934     3060     3187     3184     3015     2766     2546 
    2452     2521     2732     3060     3410     3634     3642     3472 
    3250     3076     2979     2941     2886     2751     2585     2505 
    2565     2702     2852     3026     3208     3312     3253     3033 
    2744     2497     2374     2403     2540     2704     2813     2833 
    2782     2691     2596     2548     2586     2686     2778     2840 
    2953     3138     3285     3331     3299     3190     2992     2745 
    2489     2268     2166     2245     2473     2725     2867     2948 
    3109     3298     3353     3231     3014     2860     2875     2963 
    2916     2709     2525     2466     2490     2571     2704     2824 
    2866     2870     2947     3102     3195     3080     2794     2565 
    2600     2857     3092     3141     3072     3033     3067     3111 
    3115     3075     2995     2845     2597     2361     2300     2400 
    2560     2736     2891     3011     3069     3041     3003     3030 
    3072     3032     2887     2709     2566     2475     2465     2592 
    2853     3136     3310     3356     3338     3294     3163     2884 
    2527     2212     2019     1964     2022     2192     2489     2862 
    3245     3570     3720     3586     3241     2889     2625     2417 
    2266     2228     2380     2681     2957     3080     3019     2803 
    2563     2450     2478     2600     2764     2909     3009     3126 
    3241     3218     2991     2679     2496     2565     2764     2849 
    2741     2598     2594     2722     2835     2795     2582     2336 
    2219     2216     2241     2299     2479     2812     3180     3450 
    3558     3495     3294     2999     2702     2542     2590     2814 
    3087     3276     3350     3322     3181     2937     2677     2570 
    2667     2791     2754     2581     2469     2609     3011     3495 
    3862     3981     3800     3361     2814     2392     2282     2471 
    2743     2870     2795     2664     2664     2841     3103     3337 
    3445     3322     2961     2528     2249     2282     2602     2983 
    3199     3203     3086     2951     2872     2836     2786     2705 
    2592     2425     2255     2203     2338     2616     2918     3129 
    3233     3292     3327     3289     3156     2929     2654     2407 
    2208     2066     2046     2135     2201     2189     2195     2331 
    2632     3029     3368     3527     3510     3426     3348     3223 
    3010     2778     2606     2544     2548     2494     2378     2361 
    2519     2728     2795     2671     2535     2610     2875     3126 
    3235     3194     3049     2891     2813     2863     3046     3226 
    3165     2874     2643     2655     2801     2899     2905     2906 
    2979     3084     3149     3196     3279     3377     3406     3271 
    2972     2685     2604     2694     2789     2782     2662     2502 
    2416     2434     2538     2693     2837     2961     3061     3051 
    2920     2785     2704     2666     2637     2574     2540     2640 
    2805     2906     2937     2967     3003     3011     3006     3014 
    2995     2914     2760     2539     2331     2241     2268     2354 
    2485     2623     2716     2790     2867     2909     2916     2914 
    2898     2876     2843     2728     2567     2523     2656     2862 
    2971     2905     2744     2623     2614     2651     2585     2357 
    2083     1983     2172     2486     2700     2791     2830     2825 
    2795     2829     2978     3154     3202     3072     2855     2637 
    2523     2632     2916     3194     3334     3261     3011     2805 
    2812     2956     3064     3061     2986     2898     2789     2640 
    2550     2664     2968     3280     3487     3609     3673     3642 
    3477     3221     2963     2741     2508     2257     2101     2135 
    2316     2513     2654     2783     2956     3136     3276     3377 
    3424     3375     3210     2983     2787     2627     2442     2263 
    2181     2224     2362     2501     2551     2524     2489     2492 
    2509     2498     2493     2513     2512     2454     2334     2178 
    2084     2112     2228     2385     2575     2772     2940     3022 
    2980     2868     2766     2667     2519     2330     2193     2195 
    2323     2469     2586     2727     2840     2791     2579     2365 
    2303     2404     2511     2447     2238     2061     1972     1925 
    1961     2110     2304     2489     2635     2772     2979     3177 
    3164     2930     2646     2448     2389     2419     2430     2334 
    2146     1993     1987     2120     2366     2654     2824     2787 
    2594     2338     2107     1976     1971     2083     2297     2590 
    2916     3181     3327     3380     3312     3071     2759     2535 
    2427     2386     2363     2332     2320     2378     2509     2651 
    2756     2839     2926     3024     3111     3180     3234     3265 
    3241     3100     2825     2500     2250     2146     2162     2239 
    2365     2585     2878     3145     3285     3275     3165     3038 
    2956     2911     2868     2868     2971     3109     3159     3118 
    3064     3041     3072     3125     3103     2947     2702     2555 
    2673     3013     3377     3588     3586     3404     3152     2970 
    2929     2984     3061     3118     3119     3042     2965     2984 
    3091     3218     3325     3410     3500     3562     3505     3330 
    3164     3123     3183     3230     3206     3109     2953     2822 
    2839     3018     3245     3392     3423     3396     3396     3439 
    3483     3500     3491     3457     3431     3446     3489     3580 
    3742     3856     3771     3526     3302     3231     3312     3466 
    3622     3746     3836     3869     3832     3786     3770     3775 
    3744     3630     3491     3408     3384     3407     3507     3701 
    3929     4072     4097     4083     4101     4101     3990     3761 
    3499     3330     3310     3377     3472     3574     3667     3774 
    3919     4070     4187     4257     4256     4097     3770     3407 
    3169     3161     3365     3600     3667     3542     3368     3299 
    3395     3580     3709     3697     3573     3424     3315     3233 
    3138     3044     2998     3015     3105     3281     3474     3561 
    3501     3346     3144     2925     2709     2486     2259     2099 
    2053     2114     2290     2536     2741     2922     3133     3318 
    3406     3381     3242     3013     2766     2563     2416     2323 
    2312     2397     2525     2647     2772     2902     3009     3114 
    3241     3364     3447     3462     3381     3237     3119     3082 
    3117     3167     3150     3029     2856     2741     2731     2776 
    2794     2702     2550     2509     2652     2859     2970     2945 
    2871     2839     2864     2928     2983     2943     2744     2436 
    2111     1814     1572     1425     1382     1426     1513     1595 
    1660     1717     1786     1898     2052     2196     2259     2193 
    1980     1674     1401     1232     1144     1078      984      900 
     842      718      541      479      621      866     1059     1124 
    1104     1120     1227     1324     1325     1317     1417     1621 
    1809     1833     1676     1482     1390     1425     1517     1598 
    1686     1831     1998     2087     2084     2068     2101     2234 
    2496     2782     2889     2718     2382     2079     1962     2074 
    2303     2485     2551     2531     2532     2633     2802     2994 
    3214     3433     3566     3541     3377     3204     3154     3225 
    3285     3233     3082     2929     2871     2920     3024     3169 
    3352     3515     3611     3674     3773     3932     4097     4152 
    4043     3836     3615     3396     3210     3133     3168     3194 
    3095     2899     2758     2805     3005     3195     3281     3287 
    3299     3384     3511     3615     3634     3530     3362     3281 
    3302     3294     3183     3011     2845     2756     2764     2789 
    2732     2598     2478     2467     2529     2533     2448     2319 
    2224     2251     2338     2324     2201     2081     2012     2015 
    2123     2288     2413     2444     2400     2389     2504     2662 
    2751     2771     2776     2798     2817     2826     2859     2926 
    3026     3141     3227     3271     3283     3307     3372     3453 
    3510     3514     3491     3508     3573     3596     3516     3403 
    3381     3461     3572     3677     3739     3747     3723     3650 
    3527     3403     3318     3281     3296     3331     3314     3240 
    3213     3288     3395     3433     3366     3227     3098     3061 
    3105     3146     3144     3117     3111     3125     3111     3041 
    2948     2910     2953     2990     2936     2818     2708     2660 
    2690     2751     2816     2866     2849     2760     2673     2658 
    2728     2828     2876     2860     2809     2731     2662     2655 
    2693     2728     2727     2671     2625     2658     2762     2925 
    3105     3142     2952     2624     2295     2073     2054     2220 
    2462     2671     2774     2781     2801     2914     3090     3218 
    3204     3080     2941     2833     2766     2743     2756     2782 
    2783     2727     2627     2531     2494     2538     2616     2686 
    2759     2818     2812     2763     2748     2787     2853     2867 
    2714     2403     2069     1787     1582     1539     1679     1902 
    2119     2261     2249     2119     1993     1910     1836     1752 
    1665     1598     1530     1444     1428     1564     1782     1960 
    2074     2151     2176     2134     2064     2046     2166     2408 
    2627     2716     2660     2529     2436     2401     2351     2284 
    2249     2235     2197     2139     2128     2189     2235     2207 
    2187     2255     2377     2482     2555     2628     2759     2920 
    2984     2867     2663     2546     2598     2771     2943     3024 
    3049     3083     3114     3130     3168     3271     3433     3573 
    3601     3538     3472     3427     3376     3329     3306     3312 
    3331     3323     3311     3373     3515     3667     3780     3854 
    3898     3888     3786     3634     3516     3468     3404     3260 
    3091     3007     3036     3132     3244     3357     3472     3576 
    3653     3676     3628     3551     3507     3484     3429     3312 
    3145     2959     2798     2691     2644     2639     2639     2658 
    2772     2995     3234     3406     3465     3366     3152     2967 
    2876     2818     2735     2651     2628     2675     2732     2735 
    2698     2709     2808     2922     2952     2867     2741     2670 
    2664     2658     2587     2461     2340     2269     2247     2274 
    2362     2490     2592     2620     2567     2479     2436     2475 
    2551     2571     2497     2393     2328     2332     2397     2479 
    2523     2494     2440     2455     2585     2782     2930     2961 
    2894     2795     2744     2782     2890     3032     3183     3318 
    3406     3439     3484     3604     3777     3921     4016     4106 
    4209     4272     4247     4122     3959     3854     3824     3812 
    3802     3823     3866     3910     3935     3937     3939     3937 
    3905     3852     3815     3802     3794     3744     3623     3464 
    3319     3191     3046     2876     2732     2702     2778     2833 
    2789     2691     2624     2601     2596     2605     2628     2643 
    2641     2625     2596     2575     2570     2525     2400     2224 
    2042     1857     1659     1474     1362     1341     1371     1404 
    1433     1495     1636     1853     2108     2330     2419     2326 
    2112     1899     1757     1686     1633     1528     1368     1242 
    1254     1445     1745     2039     2285     2512     2714     2844 
    2889     2882     2837     2731     2533     2280     2033     1844 
    1738     1737     1837     2000     2182     2349     2496     2632 
    2747     2830     2875     2864     2810     2766     2756     2768 
    2802     2825     2783     2674     2550     2482     2504     2556 
    2569     2556     2592     2716     2886     2976     2924     2809 
    2722     2647     2566     2519     2533     2624     2772     2907 
    2997     3061     3114     3132     3071     2971     2926     2930 
    2914     2872     2821     2763     2725     2725     2752     2813 
    2895     2955     3006     3115     3283     3499     3747     3959 
    4104     4207     4257     4226     4112     3924     3716     3558 
    3474     3447     3458     3460     3423     3377     3346     3318 
    3319     3365     3393     3362     3277     3172     3092     3036 
    2938     2783     2601     2412     2226     2023     1794     1593 
    1494     1514     1610     1698     1741     1767     1807     1877 
    1972     2074     2145     2149     2096     2047     2037     2034 
