Origin Time       2025/01/13 21:19:00
Lat.              31.8
Long.             131.6
Depth. (km)       30
Mag.              6.9
Station Code      HRSH07
Station Lat.      34.2883
Station Long.     132.6411
Station Height(m) 230
Record Time       2025/01/13 21:20:20
Sampling Freq(Hz) 100Hz
Duration Time(s)  147
Dir.              6
Scale Factor      7845(gal)/8223790
Max. Acc. (gal)   3.100
Last Correction   2025/01/13 21:20:20
Memo.             
[...]
   25994    25740    25564    25552    25677    25836    25992    26130 
   26152    26041    25897    25759    25590    25425    25371    25509 
   25789    26025    26104    26094    26110    26163    26106    25847 
   25506    25203    24975    24880    24988    25315    25698    25897 
   25898    25866    25925    26088    26265    26380    26389    26292 
   26146    25999    25925    26005    26185    26362    26450    26416 
   26347    26356    26447    26522    26497    26408    26310    26223 
   26154    26084    26014    25979    25995    26021    25978    25840 
   25674    25537    25423    25315    25272    25353    25505    25670 
   25856    26086    26349    26588    26701    26665    26528    26326 
   26033    25695    25506    25577    25809    26046    26191    26287 
   26435    26580    26534    26245    25883    25652    25625    25741 
   25898    26019    26026    25870    25581    25277    25097    25095 
   25186    25236    25185    25080    24980    24970    25186    25645 
   26180    26640    26978    27164    27213    27199    27194    27160 
   27014    26808    26624    26485    26458    26615    26867    27048 
   27036    26832    26566    26372    26266    26179    26068    25932 
   25770    25654    25640    25624    25535    25447    25340    25159 
   25051    25197    25554    25948    26287    26588    26770    26705 
   26474    26242    26115    26181    26380    26518    26499    26358 
   26152    25845    25389    24960    24788    24894    25155    25459 
   25797    26172    26476    26653    26769    26920    27113    27256 
   27278    27135    26813    26443    26148    25879    25567    25189 
   24781    24457    24250    24162    24259    24552    24954    25370 
   25751    26069    26254    26295    26285    26319    26439    26550 
   26546    26458    26364    26337    26347    26307    26242    26190 
   26123    26080    26126    26238    26356    26414    26339    26138 
   25942    25899    26045    26295    26509    26543    26400    26280 
   26264    26233    26121    25999    25933    25897    25844    25830 
   25971    26260    26536    26623    26493    26298    26175    26114 
   25994    25740    25456    25280    25255    25398    25612    25749 
   25767    25660    25488    25388    25470    25758    26136    26404 
   26503    26481    26438    26504    26697    26873    26852    26596 
   26268    26037    25937    25922    25857    25618    25259    24911 
   24652    24537    24583    24781    25097    25458    25778    26015 
   26208    26434    26682    26878    27022    27205    27476    27716 
   27712    27373    26812    26273    26003    26019    26126    26149 
   26028    25809    25605    25481    25448    25516    25682    25903 
   26056    26106    26146    26119    25902    25604    25471    25616 
   25951    26325    26616    26779    26894    26986    26950    26797 
   26684    26686    26689    26595    26534    26639    26796    26774 
   26538    26244    25974    25682    25354    25066    24898    24825 
   24784    24799    24976    25315    25655    25866    26010    26225 
   26465    26586    26569    26419    26156    25928    25866    25982 
   26200    26341    26314    26192    26083    26026    25944    25794 
   25640    25496    25390    25371    25424    25587    25866    26158 
   26388    26505    26534    26576    26674    26789    26831    26763 
   26669    26620    26566    26437    26262    26150    26156    26257 
   26384    26434    26345    26168    25991    25882    25918    26107 
   26334    26472    26478    26376    26176    25940    25801    25844 
   26010    26148    26183    26188    26280    26487    26719    26901 
   27039    27130    27166    27108    26962    26742    26400    25987 
   25633    25385    25245    25209    25261    25323    25342    25380 
   25539    25866    26280    26586    26673    26634    26590    26505 
   26327    26109    25913    25759    25627    25502    25442    25479 
   25596    25677    25654    25597    25510    25343    25159    25053 
   25114    25328    25571    25782    25922    25995    26146    26397 
   26573    26603    26551    26478    26334    26067    25752    25454 
   25197    25033    24946    24884    24833    24852    25041    25355 
   25648    25829    25875    25871    25906    25928    25855    25735 
   25651    25571    25421    25203    24960    24741    24632    24683 
   24827    25014    25312    25743    26156    26431    26619    26769 
   26851    26921    27094    27346    27510    27473    27251    26859 
   26315    25663    25051    24687    24614    24776    25159    25737 
   26433    27097    27626    28003    28188    28129    27846    27429 
   26943    26357    25728    25227    24948    24857    24869    24950 
   25143    25420    25659    25791    25870    25987    26131    26254 
   26379    26509    26582    26563    26523    26528    26527    26403 
   26113    25736    25458    25385    25496    25724    25948    26073 
   26102    26084    26079    26088    26113    26214    26343    26393 
   26365    26279    26094    25779    25452    25286    25250    25263 
   25346    25423    25394    25281    25209    25308    25558    25871 
   26230    26626    27028    27345    27468    27386    27137    26817 
   26566    26423    26302    26142    25976    25866    25836    25861 
   25940    26107    26342    26590    26819    26946    26943    26885 
   26804    26739    26784    26870    26821    26612    26362    26169 
   26056    25976    25893    25785    25575    25192    24676    24173 
   23855    23781    23845    23988    24256    24657    25093    25448 
   25713    25934    26118    26253    26341    26383    26316    26057 
   25726    25512    25380    25212    24980    24734    24582    24574 
   24664    24790    24937    25151    25423    25641    25745    25797 
   25855    25918    25951    25910    25812    25722    25678    25635 
   25559    25475    25412    25340    25258    25255    25397    25600 
   25743    25805    25879    26009    26096    26138    26221    26334 
   26449    26562    26684    26831    26998    27171    27279    27244 
   27133    27078    27062    27017    26931    26859    26882    26990 
   27106    27225    27383    27608    27885    28151    28404    28652 
   28783    28694    28364    27838    27207    26547    25930    25473 
   25245    25176    25159    25207    25335    25459    25528    25582 
   25678    25844    26045    26181    26204    26227    26389    26603 
   26643    26438    26111    25801    25528    25265    25030    24867 
   24803    24808    24804    24794    24826    24919    25078    25243 
   25335    25357    25312    25200    25070    25016    25076    25222 
   25455    25737    25975    26158    26289    26299    26190    26029 
   25848    25672    25540    25477    25463    25461    25485    25586 
   25759    25960    26179    26410    26624    26820    27027    27252 
   27487    27731    27945    28067    28080    27988    27846    27700 
   27484    27147    26801    26551    26357    26154    25975    25820 
   25651    25540    25600    25849    26179    26428    26546    26600 
   26671    26771    26827    26752    26555    26299    25984    25594 
   25234    25046    25068    25209    25388    25639    25975    26343 
   26705    27024    27243    27314    27265    27159    27024    26923 
   26873    26827    26771    26659    26450    26179    25910    25702 
   25562    25524    25678    26009    26449    26962    27498    27959 
   28196    28185    28078    27959    27774    27444    27000    26589 
   26260    25930    25598    25362    25232    25128    25023    24912 
   24860    25002    25290    25497    25527    25482    25448    25388 
   25246    25053    24916    24906    24957    25004    25069    25155 
   25176    25061    24877    24718    24603    24549    24645    24916 
   25262    25577    25828    25986    26041    26090    26191    26249 
   26176    25983    25695    25407    25261    25281    25407    25601 
   25851    26119    26343    26476    26480    26368    26231    26114 
   25951    25712    25493    25351    25235    25116    25003    24912 
   24871    24915    25118    25516    26017    26473    26823    27090 
   27290    27387    27405    27414    27430    27414    27314    27110 
   26848    26559    26280    26091    26029    26017    25986    25987 
   26082    26223    26330    26385    26399    26362    26288    26199 
   26103    26050    26084    26127    26094    26057    26123    26258 
   26337    26314    26268    26250    26233    26222    26256    26376 
   26580    26786    26917    26954    26914    26824    26669    26464 
   26281    26136    25936    25687    25531    25505    25529    25544 
   25506    25432    25404    25474    25601    25682    25737    25839 
   25921    25920    25913    25961    26003    25940    25774    25581 
   25381    25135    24827    24452    24077    23838    23750    23746 
   23843    24082    24421    24784    25104    25327    25458    25548 
   25629    25690    25752    25847    25933    25972    25972    25914 
   25772    25632    25618    25720    25817    25840    25809    25743 
   25597    25342    25050    24852    24833    24972    25212    25521 
   25821    26023    26154    26318    26585    26925    27264    27546 
   27724    27805    27845    27827    27685    27429    27183    27051 
   27005    26991    26974    26954    26962    26960    26873    26698 
   26512    26441    26547    26704    26734    26612    26404    26192 
   25987    25739    25469    25258    25158    25143    25168    25247 
   25392    25555    25651    25612    25478    25312    25184    25168 
   25245    25386    25581    25747    25812    25768    25664    25578 
   25586    25710    25901    26088    26248    26411    26604    26788 
   26928    27017    27081    27139    27129    27013    26852    26678 
   26485    26295    26106    25906    25729    25655    25732    25876 
   25960    26022    26194    26457    26669    26752    26778    26855 
   27020    27210    27306    27319    27376    27477    27513    27441 
   27334    27255    27199    27189    27190    27128    27008    26900 
   26852    26816    26698    26528    26337    26092    25748    25250 
   24653    24096    23676    23421    23305    23356    23604    23958 
   24332    24706    25038    25277    25386    25363    25278    25259 
   25374    25578    25813    26028    26152    26169    26142    26161 
   26269    26431    26620    26808    26966    27097    27187    27247 
   27349    27495    27579    27544    27448    27341    27183    26954 
   26685    26416    26202    26007    25759    25493    25280    25130 
   25003    24864    24749    24705    24746    24879    25060    25203 
   25274    25307    25378    25567    25839    26069    26204    26291 
   26385    26501    26624    26704    26673    26526    26323    26059 
   25682    25262    24952    24811    24780    24788    24862    25066 
   25382    25729    25995    26150    26260    26327    26300    26196 
   26073    25986    25949    25907    25807    25679    25601    25589 
   25621    25694    25793    25898    25991    26041    26034    25978 
   25891    25841    25902    26044    26181    26211    26077    25834 
   25577    25375    25304    25371    25512    25685    25872    26037 
   26142    26218    26323    26469    26619    26740    26792    26738 
   26632    26553    26453    26269    26060    25934    25914    25948 
   26013    26095    26168    26258    26414    26624    26835    26974 
   27025    27016    26914    26693    26411    26146    25955    25798 
   25600    25412    25331    25351    25431    25578    25803    26050 
   26230    26333    26434    26596    26800    26997    27160    27309 
   27480    27646    27720    27665    27554    27468    27346    27106 
   26801    26503    26225    25980    25817    25736    25687    25650 
   25633    25629    25620    25596    25594    25662    25779    25913 
   26023    26036    25957    25859    25714    25475    25186    24915 
   24679    24476    24329    24314    24464    24705    24930    25101 
   25265    25463    25678    25903    26169    26441    26653    26805 
   26924    26977    26886    26654    26356    26042    25755    25535 
   25407    25343    25284    25230    25261    25474    25894    26447 
   27031    27530    27876    28066    28093    28000    27849    27625 
   27356    27093    26761    26315    25861    25509    25262    25108 
   25076    25150    25255    25365    25542    25818    26141    26427 
   26599    26589    26457    26316    26183    26060    26003    26001 
   25967    25843    25591    25255    24915    24603    24313    24044 
   23811    23657    23588    23562    23548    23558    23650    23855 
   24171    24559    24954    25353    25759    26117    26376    26547 
   26669    26766    26817    26811    26767    26717    26676    26632 
   26566    26550    26690    26935    27157    27333    27487    27621 
   27706    27719    27657    27530    27333    27045    26680    26296 
   25934    25593    25301    25135    25134    25231    25342    25475 
   25695    25992    26283    26503    26676    26854    27037    27195 
   27310    27405    27511    27598    27603    27553    27518    27511 
   27519    27508    27413    27190    26898    26609    26327    26038 
   25728    25374    24979    24544    24089    23656    23279    22993 
   22825    22785    22860    23004    23170    23356    23575    23818 
   24066    24320    24590    24881    25199    25525    25828    26095 
   26333    26519    26620    26651    26638    26554    26377    26129 
   25867    25654    25517    25443    25417    25446    25494    25539 
   25597    25645    25654    25675    25794    25978    26082    26055 
   25991    25957    25942    25924    25898    25893    25948    26115 
   26424    26854    27342    27793    28139    28410    28649    28829 
   28922    28937    28883    28737    28466    28088    27687    27361 
   27143    27014    26956    26946    26983    27091    27234    27367 
   27464    27506    27533    27583    27603    27529    27363    27143 
   26869    26522    26187    25948    25762    25574    25369    25158 
   24969    24796    24610    24420    24274    24227    24286    24433 
   24660    24968    25323    25675    25996    26245    26403    26493 
   26500    26408    26223    25928    25547    25139    24745    24394 
   24133    23978    23913    23957    24148    24445    24769    25138 
   25542    25893    26146    26323    26464    26580    26649    26703 
   26777    26852    26906    26921    26881    26811    26761    26751 
   26704    26572    26403    26188    25914    25636    25402    25243 
   25188    25246    25393    25598    25907    26369    26951    27562 
   28089    28463    28655    28661    28502    28185    27743    27267 
   26836    26469    26121    25789    25558    25485    25510    25571 
   25678    25848    26057    26269    26434    26519    26545    26557 
   26547    26468    26303    26090    25884    25739    25672    25658 
   25704    25802    25867    25848    25775    25724    25732    25766 
   25818    25897    25953    25957    25915    25872    25857    25848 
   25826    25825    25845    25841    25803    25751    25689    25632 
   25601    25601    25609    25556    25366    25045    24683    24336 
   23996    23700    23531    23498    23535    23619    23789    24043 
   24374    24791    25247    25698    26129    26478    26712    26871 
   26990    27075    27126    27170    27205    27171    27066    26991 
   26994    27059    27206    27438    27697    27924    28100    28210 
   28219    28093    27837    27503    27122    26689    26229    25783 
   25377    25041    24796    24645    24563    24549    24664    24902 
   25168    25436    25736    26071    26431    26762    27013    27203 
   27348    27403    27328    27168    26981    26711    26334    25959 
   25660    25415    25226    25139    25172    25319    25581    25949 
   26384    26812    27174    27440    27558    27479    27226    26873 
   26477    26055    25627    25242    24912    24619    24389    24241 
   24173    24183    24267    24382    24495    24611    24734    24854 
   24980    25131    25309    25500    25694    25880    26052    26204 
   26338    26461    26576    26716    26916    27141    27305    27357 
   27338    27301    27259    27193    27063    26865    26653    26496 
   26406    26338    26269    26207    26169    26153    26133    26107 
   26091    26084    26103    26136    26167    26215    26275    26325 
   26381    26478    26599    26704    26804    26932    27068    27148 
   27118    26998    26874    26815    26786    26693    26492    26222 
   25925    25632    25381    25192    25065    25014    25020    25037 
   25054    25119    25242    25382    25510    25631    25760    25864 
   25879    25786    25636    25496    25370    25226    25069    24941 
   24840    24759    24711    24718    24791    24937    25135    25370 
   25643    25933    26185    26381    26549    26682    26766    26838 
   26900    26917    26862    26721    26531    26299    25998    25662 
   25366    25162    25064    25068    25182    25378    25582    25776 
   25953    26092    26176    26195    26167    26121    26050    25952 
   25821    25672    25564    25550    25629    25755    25880    26001 
   26146    26335    26534    26680    26755    26796    26824    26829 
   26778    26688    26612    26554    26477    26374    26285    26233 
   26200    26146    26061    25999    26013    26077    26144    26184 
   26219    26293    26396    26457    26428    26333    26192    26005 
   25768    25517    25290    25114    24996    24938    24922    24931 
   24981    25088    25267    25483    25650    25731    25760    25778 
   25771    25712    25620    25544    25509    25516    25539    25567 
   25614    25697    25802    25909    26005    26110    26250    26414 
   26565    26692    26798    26904    27012    27110    27184    27222 
   27214    27174    27101    26987    26842    26684    26504    26272 
   26001    25725    25462    25266    25182    25145    25060    24927 
   24811    24764    24807    24923    25077    25259    25456    25620 
   25729    25826    25949    26065    26150    26227    26311    26395 
   26457    26476    26443    26377    26346    26364    26381    26383 
   26352    26280    26229    26237    26306    26418    26582    26828 
   27101    27319    27475    27607    27720    27776    27776    27768 
   27753    27707    27595    27411    27201    26983    26761    26526 
   26281    26055    25844    25606    25355    25119    24911    24757 
   24678    24661    24695    24777    24915    25060    25149    25186 
   25212    25253    25311    25371    25412    25423    25443    25500 
   25566    25601    25610    25606    25573    25479    25336    25204 
   25119    25066    25038    25029    25029    25065    25165    25323 
   25527    25753    25983    26191    26330    26388    26403    26393 
   26347    26239    26076    25913    25797    25741    25764    25853 
   25971    26121    26311    26515    26716    26921    27095    27201 
   27245    27252    27213    27109    26944    26752    26577    26458 
