Origin Time       2025/01/13 21:19:00
Lat.              31.8
Long.             131.6
Depth. (km)       30
Mag.              6.9
Station Code      HRSH04
Station Lat.      34.3785
Station Long.     133.3493
Station Height(m) -175
Record Time       2025/01/13 21:20:43
Sampling Freq(Hz) 100Hz
Duration Time(s)  129
Dir.              2
Scale Factor      3923(gal)/8224838
Max. Acc. (gal)   0.933
Last Correction   2025/01/13 21:20:43
Memo.             
[...]
  -18419   -18411   -18409   -18404   -18384   -18360   -18345   -18342 
  -18345   -18350   -18362   -18382   -18400   -18415   -18432   -18446 
  -18432   -18401   -18378   -18364   -18334   -18300   -18281   -18265 
  -18242   -18225   -18215   -18198   -18161   -18121   -18096   -18083 
  -18067   -18052   -18042   -18026   -17999   -17983   -17987   -18004 
  -18026   -18049   -18069   -18083   -18083   -18060   -18023   -17996 
  -17988   -17984   -17969   -17948   -17925   -17910   -17910   -17923 
  -17941   -17959   -17975   -17995   -18025   -18054   -18075   -18091 
  -18103   -18118   -18129   -18119   -18094   -18073   -18069   -18079 
  -18098   -18123   -18145   -18153   -18154   -18158   -18165   -18177 
  -18204   -18239   -18269   -18292   -18314   -18318   -18303   -18291 
  -18289   -18292   -18291   -18274   -18242   -18200   -18157   -18130 
  -18119   -18106   -18077   -18041   -18010   -17984   -17955   -17926 
  -17915   -17930   -17953   -17971   -17977   -17986   -18004   -18019 
  -18023   -18023   -18031   -18064   -18115   -18165   -18200   -18223 
  -18245   -18265   -18277   -18287   -18306   -18326   -18346   -18373 
  -18391   -18377   -18337   -18299   -18289   -18300   -18303   -18292 
  -18279   -18260   -18239   -18226   -18216   -18212   -18223   -18257 
  -18303   -18345   -18380   -18428   -18489   -18544   -18580   -18597 
  -18613   -18639   -18670   -18702   -18731   -18747   -18756   -18771 
  -18789   -18813   -18839   -18860   -18894   -18941   -18983   -19020 
  -19064   -19114   -19145   -19160   -19178   -19199   -19224   -19251 
  -19271   -19276   -19282   -19292   -19299   -19305   -19310   -19313 
  -19317   -19325   -19336   -19359   -19388   -19413   -19435   -19465 
  -19498   -19526   -19548   -19564   -19575   -19585   -19595   -19600 
  -19603   -19606   -19612   -19606   -19570   -19526   -19498   -19479 
  -19465   -19452   -19426   -19392   -19356   -19321   -19290   -19251 
  -19194   -19129   -19064   -18994   -18928   -18867   -18802   -18732 
  -18669   -18608   -18546   -18488   -18438   -18387   -18338   -18312 
  -18311   -18320   -18328   -18330   -18323   -18300   -18261   -18222 
  -18189   -18169   -18157   -18146   -18123   -18088   -18058   -18041 
  -18015   -17977   -17949   -17930   -17899   -17847   -17799   -17768 
  -17747   -17736   -17743   -17748   -17737   -17730   -17736   -17740 
  -17733   -17724   -17718   -17710   -17695   -17686   -17687   -17698 
  -17716   -17726   -17721   -17717   -17724   -17732   -17739   -17737 
  -17726   -17717   -17714   -17716   -17714   -17705   -17686   -17672 
  -17662   -17644   -17629   -17636   -17658   -17678   -17690   -17702 
  -17730   -17787   -17859   -17918   -17959   -17995   -18038   -18083 
  -18123   -18156   -18189   -18223   -18245   -18252   -18245   -18231 
  -18226   -18220   -18202   -18177   -18160   -18144   -18117   -18091 
  -18075   -18067   -18065   -18065   -18068   -18075   -18094   -18118 
  -18141   -18157   -18166   -18169   -18172   -18181   -18199   -18218 
  -18227   -18229   -18218   -18200   -18200   -18229   -18276   -18319 
  -18333   -18318   -18296   -18281   -18272   -18264   -18253   -18243 
  -18231   -18216   -18211   -18219   -18234   -18243   -18239   -18243 
  -18269   -18293   -18306   -18322   -18346   -18374   -18414   -18455 
  -18476   -18480   -18474   -18457   -18432   -18400   -18361   -18312 
  -18249   -18180   -18107   -18037   -17975   -17901   -17797   -17687 
  -17604   -17540   -17470   -17393   -17321   -17262   -17201   -17134 
  -17081   -17057   -17053   -17053   -17049   -17027   -16988   -16949 
  -16935   -16941   -16950   -16974   -17014   -17045   -17072   -17119 
  -17184   -17246   -17300   -17375   -17485   -17610   -17744   -17883 
  -18014   -18129   -18241   -18349   -18449   -18554   -18674   -18798 
  -18908   -19003   -19097   -19199   -19299   -19388   -19473   -19549 
  -19607   -19656   -19693   -19707   -19697   -19680   -19661   -19629 
  -19585   -19539   -19492   -19441   -19386   -19329   -19272   -19214 
  -19160   -19116   -19066   -18993   -18905   -18817   -18736   -18665 
  -18604   -18558   -18524   -18481   -18414   -18338   -18274   -18225 
  -18180   -18130   -18075   -18023   -17980   -17944   -17917   -17909 
  -17910   -17911   -17928   -17959   -17991   -18009   -18014   -18025 
  -18044   -18060   -18077   -18102   -18125   -18137   -18141   -18149 
  -18162   -18179   -18193   -18218   -18254   -18292   -18327   -18365 
  -18403   -18441   -18474   -18501   -18530   -18563   -18605   -18655 
  -18702   -18733   -18755   -18766   -18763   -18754   -18740   -18723 
  -18708   -18700   -18696   -18688   -18677   -18675   -18681   -18682 
  -18682   -18673   -18638   -18577   -18503   -18434   -18369   -18299 
  -18229   -18172   -18122   -18073   -18031   -17998   -17963   -17934 
  -17933   -17956   -17982   -18007   -18046   -18104   -18176   -18261 
  -18355   -18453   -18550   -18636   -18704   -18760   -18802   -18824 
  -18831   -18833   -18836   -18840   -18850   -18858   -18862   -18860 
  -18858   -18856   -18858   -18862   -18867   -18873   -18874   -18870 
  -18862   -18851   -18837   -18825   -18813   -18798   -18779   -18756 
  -18746   -18747   -18743   -18738   -18743   -18758   -18773   -18792 
  -18808   -18805   -18785   -18765   -18746   -18716   -18679   -18643 
  -18612   -18582   -18553   -18527   -18499   -18458   -18414   -18376 
  -18342   -18306   -18269   -18233   -18196   -18160   -18133   -18115 
  -18099   -18094   -18098   -18104   -18123   -18157   -18176   -18172 
  -18164   -18165   -18173   -18179   -18179   -18172   -18150   -18121 
  -18094   -18072   -18058   -18056   -18060   -18060   -18052   -18046 
  -18054   -18069   -18073   -18057   -18031   -18010   -17996   -17979 
  -17948   -17913   -17891   -17886   -17892   -17906   -17922   -17934 
  -17938   -17938   -17938   -17946   -17973   -18019   -18072   -18129 
  -18196   -18268   -18333   -18401   -18486   -18577   -18657   -18732 
  -18810   -18894   -18971   -19035   -19095   -19157   -19219   -19288 
  -19363   -19430   -19491   -19552   -19620   -19689   -19746   -19788 
  -19813   -19819   -19822   -19823   -19805   -19762   -19705   -19649 
  -19585   -19508   -19415   -19315   -19211   -19111   -19021   -18933 
  -18840   -18743   -18648   -18558   -18457   -18339   -18212   -18080 
  -17959   -17851   -17748   -17639   -17523   -17406   -17301   -17197 
  -17085   -16974   -16865   -16762   -16671   -16591   -16515   -16459 
  -16425   -16410   -16409   -16417   -16433   -16456   -16474   -16479 
  -16479   -16482   -16483   -16491   -16509   -16526   -16540   -16551 
  -16571   -16607   -16652   -16700   -16764   -16838   -16904   -16962 
  -17018   -17068   -17101   -17118   -17126   -17134   -17142   -17146 
  -17145   -17146   -17147   -17136   -17126   -17130   -17151   -17185 
  -17220   -17255   -17294   -17336   -17386   -17446   -17498   -17540 
  -17586   -17632   -17668   -17702   -17741   -17779   -17813   -17848 
  -17879   -17901   -17919   -17938   -17956   -17972   -17994   -18029 
  -18076   -18125   -18166   -18202   -18231   -18261   -18288   -18307 
  -18322   -18334   -18343   -18349   -18355   -18373   -18401   -18431 
  -18459   -18493   -18530   -18566   -18611   -18666   -18729   -18798 
  -18858   -18905   -18940   -18966   -18989   -19010   -19039   -19071 
  -19102   -19122   -19125   -19118   -19114   -19118   -19129   -19141 
  -19152   -19164   -19171   -19171   -19171   -19164   -19153   -19147 
  -19137   -19124   -19114   -19102   -19072   -19026   -18974   -18918 
  -18862   -18802   -18742   -18679   -18620   -18565   -18513   -18470 
  -18443   -18423   -18404   -18389   -18380   -18370   -18362   -18362 
  -18374   -18389   -18409   -18438   -18474   -18519   -18565   -18597 
  -18623   -18659   -18708   -18759   -18814   -18873   -18924   -18968 
  -19012   -19045   -19067   -19089   -19107   -19117   -19120   -19113 
  -19094   -19066   -19024   -18967   -18900   -18827   -18760   -18701 
  -18636   -18561   -18492   -18435   -18382   -18333   -18288   -18242 
  -18192   -18134   -18079   -18031   -17990   -17952   -17907   -17853 
  -17803   -17760   -17725   -17698   -17680   -17676   -17678   -17680 
  -17680   -17676   -17672   -17679   -17690   -17703   -17720   -17749 
  -17790   -17834   -17880   -17928   -17968   -18009   -18058   -18112 
  -18172   -18237   -18300   -18361   -18416   -18465   -18517   -18578 
  -18638   -18694   -18744   -18785   -18824   -18875   -18928   -18974 
  -19020   -19052   -19064   -19064   -19051   -19029   -19014   -18998 
  -18967   -18925   -18874   -18820   -18763   -18706   -18651   -18590 
  -18526   -18461   -18393   -18311   -18226   -18152   -18088   -18025 
  -17957   -17887   -17825   -17780   -17736   -17680   -17628   -17590 
  -17563   -17535   -17508   -17497   -17510   -17537   -17568   -17608 
  -17658   -17710   -17766   -17828   -17895   -17969   -18054   -18139 
  -18218   -18291   -18369   -18447   -18517   -18580   -18634   -18685 
  -18738   -18782   -18810   -18833   -18852   -18873   -18895   -18909 
  -18916   -18924   -18928   -18928   -18918   -18894   -18866   -18850 
  -18837   -18820   -18798   -18774   -18751   -18729   -18704   -18674 
  -18636   -18594   -18557   -18522   -18484   -18445   -18403   -18357 
  -18307   -18254   -18204   -18156   -18102   -18042   -17988   -17950 
  -17923   -17896   -17875   -17863   -17859   -17860   -17863   -17871 
  -17888   -17911   -17929   -17936   -17937   -17933   -17922   -17910 
  -17887   -17852   -17814   -17779   -17740   -17703   -17678   -17667 
  -17664   -17666   -17670   -17679   -17695   -17710   -17724   -17739 
  -17756   -17776   -17795   -17805   -17811   -17826   -17845   -17860 
  -17872   -17879   -17886   -17895   -17901   -17907   -17915   -17919 
  -17930   -17957   -17988   -18014   -18033   -18054   -18081   -18107 
  -18123   -18139   -18164   -18184   -18203   -18226   -18257   -18288 
  -18319   -18346   -18372   -18400   -18431   -18463   -18493   -18512 
  -18517   -18522   -18532   -18542   -18550   -18563   -18578   -18586 
  -18596   -18613   -18635   -18657   -18679   -18705   -18732   -18767 
  -18809   -18851   -18891   -18931   -18958   -18972   -18986   -19002 
  -19014   -19017   -19008   -18993   -18975   -18958   -18940   -18914 
  -18875   -18828   -18773   -18706   -18630   -18544   -18461   -18380 
  -18301   -18222   -18139   -18057   -17980   -17913   -17847   -17779 
  -17718   -17671   -17621   -17570   -17527   -17496   -17463   -17427 
  -17408   -17401   -17396   -17397   -17413   -17439   -17470   -17505 
  -17535   -17552   -17571   -17595   -17625   -17662   -17703   -17751 
  -17807   -17865   -17922   -17995   -18083   -18171   -18247   -18319 
  -18389   -18461   -18535   -18609   -18682   -18752   -18812   -18855 
  -18886   -18920   -18962   -19008   -19056   -19106   -19145   -19175 
  -19197   -19214   -19228   -19232   -19226   -19213   -19192   -19167 
  -19140   -19113   -19084   -19055   -19022   -18991   -18964   -18935 
  -18898   -18858   -18819   -18782   -18756   -18731   -18702   -18673 
  -18647   -18628   -18619   -18608   -18598   -18592   -18584   -18570 
  -18551   -18532   -18523   -18527   -18539   -18547   -18558   -18584 
  -18616   -18644   -18663   -18674   -18689   -18708   -18729   -18747 
  -18756   -18762   -18766   -18762   -18751   -18729   -18711   -18698 
  -18688   -18678   -18675   -18679   -18686   -18685   -18677   -18669 
  -18658   -18655   -18665   -18677   -18682   -18679   -18667   -18638 
  -18600   -18570   -18539   -18499   -18445   -18382   -18322   -18264 
  -18204   -18146   -18088   -18022   -17945   -17863   -17782   -17703 
  -17633   -17567   -17496   -17419   -17343   -17265   -17192   -17128 
  -17064   -17000   -16949   -16910   -16883   -16872   -16875   -16887 
  -16908   -16943   -16992   -17046   -17107   -17181   -17270   -17373 
  -17485   -17598   -17702   -17809   -17921   -18033   -18133   -18223 
  -18311   -18395   -18469   -18531   -18585   -18635   -18682   -18724 
  -18769   -18816   -18866   -18917   -18974   -19035   -19094   -19141 
  -19180   -19215   -19245   -19269   -19288   -19292   -19294   -19298 
  -19303   -19298   -19279   -19259   -19237   -19206   -19165   -19122 
  -19076   -19024   -18959   -18886   -18813   -18735   -18655   -18580 
  -18503   -18423   -18342   -18265   -18198   -18138   -18079   -18023 
  -17982   -17952   -17923   -17896   -17874   -17853   -17833   -17810 
  -17784   -17759   -17744   -17737   -17737   -17741   -17756   -17783 
  -17805   -17820   -17833   -17842   -17859   -17876   -17891   -17913 
  -17932   -17940   -17957   -17992   -18025   -18049   -18076   -18107 
  -18138   -18168   -18192   -18208   -18211   -18202   -18179   -18148 
  -18121   -18094   -18058   -18013   -17957   -17896   -17832   -17767 
  -17712   -17660   -17605   -17547   -17496   -17444   -17392   -17339 
  -17290   -17250   -17223   -17209   -17204   -17208   -17220   -17235 
  -17255   -17280   -17302   -17324   -17348   -17381   -17420   -17466 
  -17521   -17586   -17656   -17725   -17790   -17860   -17936   -18009 
  -18084   -18165   -18256   -18349   -18434   -18515   -18597   -18675 
  -18750   -18828   -18905   -18975   -19044   -19114   -19182   -19245 
  -19307   -19375   -19449   -19521   -19577   -19616   -19653   -19695 
  -19747   -19809   -19876   -19946   -20007   -20055   -20097   -20129 
  -20154   -20179   -20206   -20224   -20228   -20225   -20206   -20164 
  -20116   -20073   -20029   -19982   -19931   -19876   -19824   -19769 
  -19707   -19639   -19569   -19491   -19399   -19298   -19197   -19091 
  -18982   -18875   -18763   -18643   -18524   -18411   -18300   -18196 
  -18100   -18009   -17928   -17852   -17784   -17725   -17667   -17609 
  -17556   -17500   -17443   -17400   -17363   -17328   -17296   -17257 
  -17211   -17161   -17113   -17072   -17035   -17008   -16988   -16970 
  -16954   -16942   -16933   -16927   -16923   -16923   -16926   -16930 
  -16939   -16956   -16973   -16992   -17016   -17049   -17082   -17119 
  -17159   -17200   -17234   -17258   -17285   -17320   -17362   -17409 
  -17455   -17491   -17518   -17547   -17585   -17625   -17667   -17706 
  -17737   -17767   -17798   -17826   -17859   -17888   -17907   -17928 
  -17959   -17991   -18022   -18054   -18090   -18126   -18157   -18184 
  -18212   -18249   -18297   -18353   -18404   -18449   -18490   -18517 
  -18535   -18555   -18567   -18566   -18559   -18547   -18536   -18530 
  -18515   -18490   -18473   -18457   -18442   -18430   -18422   -18412 
  -18393   -18370   -18361   -18361   -18353   -18337   -18322   -18304 
  -18284   -18270   -18265   -18257   -18242   -18222   -18198   -18173 
  -18148   -18123   -18100   -18077   -18058   -18046   -18034   -18018 
  -17999   -17980   -17963   -17949   -17933   -17919   -17913   -17895 
  -17874   -17856   -17830   -17805   -17793   -17778   -17759   -17745 
  -17732   -17714   -17697   -17679   -17670   -17674   -17689   -17709 
  -17732   -17753   -17770   -17788   -17813   -17833   -17851   -17875 
  -17902   -17928   -17946   -17965   -17991   -18015   -18033   -18050 
  -18076   -18104   -18134   -18162   -18187   -18208   -18237   -18264 
  -18283   -18295   -18308   -18316   -18320   -18323   -18326   -18326 
  -18328   -18328   -18330   -18337   -18343   -18345   -18349   -18351 
  -18347   -18339   -18328   -18318   -18307   -18288   -18258   -18229 
  -18208   -18191   -18169   -18145   -18123   -18102   -18079   -18053 
  -18022   -17983   -17945   -17919   -17896   -17871   -17852   -17845 
  -17842   -17844   -17851   -17864   -17882   -17899   -17915   -17930 
  -17945   -17963   -17979   -17999   -18022   -18046   -18077   -18117 
  -18158   -18200   -18237   -18273   -18315   -18364   -18418   -18474 
  -18531   -18589   -18647   -18702   -18752   -18797   -18841   -18883 
  -18922   -18956   -18987   -19022   -19059   -19090   -19111   -19120 
  -19121   -19124   -19125   -19122   -19118   -19111   -19091   -19062 
  -19033   -19006   -18976   -18944   -18909   -18878   -18852   -18825 
  -18801   -18777   -18742   -18704   -18673   -18647   -18619   -18586 
  -18558   -18531   -18500   -18465   -18428   -18391   -18357   -18324 
  -18293   -18261   -18229   -18200   -18168   -18130   -18092   -18058 
  -18026   -17992   -17963   -17940   -17922   -17918   -17918   -17911 
  -17903   -17902   -17905   -17905   -17901   -17901   -17910   -17919 
  -17923   -17922   -17919   -17925   -17940   -17949   -17949   -17949 
  -17955   -17967   -17976   -17986   -18002   -18018   -18031   -18042 
  -18052   -18057   -18052   -18046   -18044   -18038   -18033   -18029 
  -18023   -18014   -18003   -17994   -17986   -17984   -17987   -17988 
  -17990   -17995   -17994   -17986   -17975   -17961   -17946   -17938 
  -17933   -17929   -17926   -17925   -17923   -17922   -17922   -17919 
  -17913   -17903   -17899   -17905   -17913   -17914   -17914   -17926 
  -17950   -17976   -17999   -18026   -18057   -18081   -18104   -18129 
  -18152   -18175   -18200   -18222   -18233   -18243   -18258   -18266 
  -18274   -18295   -18318   -18337   -18351   -18362   -18376   -18399 
  -18422   -18443   -18468   -18496   -18528   -18559   -18582   -18604 
  -18627   -18652   -18681   -18708   -18729   -18752   -18773   -18787 
  -18806   -18828   -18846   -18863   -18878   -18887   -18891   -18891 
  -18890   -18887   -18877   -18858   -18833   -18809   -18781   -18752 
  -18724   -18688   -18642   -18596   -18543   -18484   -18427   -18376 
  -18324   -18264   -18199   -18141   -18084   -18029   -17979   -17930 
  -17872   -17814   -17767   -17728   -17702   -17682   -17660   -17643 
  -17629   -17614   -17602   -17595   -17597   -17602   -17601   -17605 
  -17613   -17621   -17631   -17644   -17655   -17667   -17679   -17685 
  -17694   -17713   -17734   -17752   -17764   -17779   -17803   -17834 
  -17865   -17894   -17925   -17952   -17976   -18000   -18023   -18048 
  -18076   -18112   -18157   -18193   -18230   -18274   -18318   -18355 
  -18393   -18428   -18465   -18504   -18539   -18562   -18576   -18584 
  -18584   -18581   -18580   -18576   -18574   -18574   -18565   -18546 
  -18524   -18509   -18496   -18480   -18461   -18442   -18420   -18405 
  -18396   -18389   -18381   -18380   -18385   -18384   -18373   -18365 
  -18362   -18355   -18349   -18355   -18372   -18384   -18388   -18395 
  -18415   -18446   -18480   -18511   -18538   -18565   -18590   -18612 
  -18631   -18647   -18662   -18678   -18689   -18689   -18684   -18682 
  -18677   -18661   -18651   -18643   -18631   -18615   -18603   -18588 
  -18576   -18561   -18543   -18527   -18511   -18490   -18472   -18454 
  -18434   -18408   -18385   -18372   -18362   -18355   -18349   -18339 
  -18334   -18327   -18318   -18311   -18310   -18304   -18295   -18284 
  -18276   -18269   -18262   -18257   -18247   -18229   -18206   -18187 
  -18168   -18150   -18135   -18117   -18099   -18088   -18077   -18063 
  -18056   -18056   -18058   -18061   -18067   -18071   -18083   -18100 
  -18117   -18134   -18153   -18173   -18189   -18200   -18211   -18220 
  -18233   -18253   -18274   -18291   -18303   -18307   -18303   -18296 
  -18292   -18289   -18291   -18287   -18272   -18247   -18219   -18189 
