Origin Time       2025/01/13 21:19:00
Lat.              31.8
Long.             131.6
Depth. (km)       30
Mag.              6.9
Station Code      HRSH03
Station Lat.      34.5183
Station Long.     133.1375
Station Height(m) 160
Record Time       2025/01/13 21:20:33
Sampling Freq(Hz) 100Hz
Duration Time(s)  142
Dir.              4
Scale Factor      7845(gal)/8223790
Max. Acc. (gal)   2.160
Last Correction   2025/01/13 21:20:34
Memo.             
[...]
   -4229    -4195    -4133    -4171    -4314    -4356    -4191    -3997 
   -3875    -3807    -3865    -4063    -4236    -4257    -4145    -4028 
   -4021    -4082    -4137    -4174    -4160    -4145    -4207    -4237 
   -4122    -3989    -3921    -3902    -3981    -4116    -4155    -4117 
   -4145    -4259    -4313    -4185    -3928    -3703    -3643    -3742 
   -3863    -3942    -3974    -3998    -4143    -4338    -4353    -4252 
   -4225    -4171    -4023    -3978    -4078    -4145    -4128    -4081 
   -4090    -4195    -4278    -4220    -4086    -3994    -3933    -3888 
   -3935    -4032    -4054    -4051    -4062    -4000    -3890    -3885 
   -4016    -4122    -4129    -4078    -3951    -3785    -3704    -3761 
   -3931    -4086    -4105    -4093    -4090    -3981    -3838    -3774 
   -3751    -3748    -3801    -3902    -4017    -4121    -4248    -4392 
   -4440    -4333    -4156    -4066    -4112    -4143    -4068    -4010 
   -4074    -4166    -4174    -4170    -4234    -4306    -4324    -4284 
   -4236    -4240    -4230    -4135    -4037    -3994    -3933    -3855 
   -3828    -3873    -3966    -4062    -4118    -4101    -4029    -4024 
   -4098    -4087    -3974    -3905    -3871    -3796    -3748    -3816 
   -4013    -4315    -4553    -4542    -4382    -4291    -4239    -4066 
   -3831    -3759    -3897    -4040    -4120    -4284    -4479    -4484 
   -4329    -4213    -4198    -4226    -4189    -4048    -3991    -4090 
   -4124    -4051    -4094    -4291    -4422    -4332    -4144    -4083 
   -4136    -4136    -4070    -4041    -4104    -4199    -4261    -4351 
   -4510    -4581    -4492    -4382    -4241    -4033    -3897    -3875 
   -3861    -3819    -3802    -3877    -4031    -4174    -4286    -4388 
   -4415    -4290    -4045    -3790    -3645    -3607    -3581    -3642 
   -3836    -4009    -4132    -4249    -4297    -4267    -4153    -3966 
   -3839    -3763    -3677    -3716    -3913    -4077    -4131    -4178 
   -4212    -4168    -4185    -4314    -4394    -4382    -4321    -4225 
   -4162    -4133    -4102    -4070    -3996    -3863    -3773    -3848 
   -4091    -4303    -4332    -4307    -4378    -4425    -4329    -4185 
   -4102    -4078    -4040    -3948    -3905    -4012    -4158    -4245 
   -4328    -4405    -4398    -4274    -4066    -3866    -3777    -3807 
   -3875    -3909    -3900    -3975    -4221    -4436    -4394    -4151 
   -3921    -3839    -3858    -3827    -3751    -3797    -3982    -4148 
   -4245    -4344    -4444    -4464    -4365    -4203    -4082    -4085 
   -4195    -4334    -4449    -4488    -4380    -4186    -4013    -3923 
   -3951    -4064    -4141    -4151    -4217    -4357    -4415    -4355 
   -4251    -4129    -4032    -3958    -3836    -3716    -3696    -3727 
   -3753    -3834    -3964    -4041    -4094    -4186    -4212    -4139 
   -4056    -3994    -3991    -4006    -3935    -3869    -3917    -3993 
   -4044    -4091    -4079    -4039    -4028    -4008    -4013    -4062 
   -4010    -3831    -3709    -3794    -4058    -4287    -4348    -4363 
   -4422    -4440    -4425    -4437    -4406    -4243    -4020    -3881 
   -3882    -3977    -4079    -4141    -4145    -4090    -4040    -4005 
   -3906    -3812    -3852    -3964    -4047    -4093    -4054    -3913 
   -3738    -3608    -3650    -3893    -4121    -4232    -4340    -4387 
   -4272    -4093    -3940    -3851    -3834    -3823    -3824    -3882 
   -3923    -3927    -3981    -4082    -4174    -4232    -4234    -4199 
   -4143    -4013    -3897    -3959    -4124    -4217    -4176    -4001 
   -3757    -3584    -3591    -3798    -4118    -4355    -4437    -4522 
   -4627    -4583    -4380    -4101    -3847    -3771    -3812    -3821 
   -3888    -4063    -4194    -4224    -4275    -4379    -4459    -4510 
   -4522    -4380    -4079    -3819    -3757    -3823    -3861    -3817 
   -3761    -3815    -3964    -4040    -4006    -3958    -3921    -3936 
   -4051    -4174    -4183    -4143    -4174    -4247    -4234    -4141 
   -4081    -4051    -4029    -4036    -4048    -4091    -4222    -4382 
   -4473    -4414    -4245    -4171    -4236    -4282    -4283    -4279 
   -4222    -4109    -4014    -4002    -4066    -4099    -4062    -4072 
   -4160    -4203    -4185    -4141    -4045    -3916    -3824    -3800 
   -3819    -3821    -3784    -3781    -3909    -4131    -4270    -4241 
   -4185    -4166    -4097    -4006    -3971    -3955    -4009    -4216 
   -4430    -4448    -4274    -4072    -3979    -3978    -4005    -4055 
   -4108    -4122    -4116    -4139    -4248    -4402    -4440    -4279 
   -4020    -3798    -3720    -3820    -4033    -4275    -4441    -4480 
   -4504    -4558    -4518    -4356    -4209    -4182    -4266    -4371 
   -4445    -4538    -4619    -4533    -4349    -4294    -4291    -4158 
   -3986    -3936    -3982    -4013    -4021    -4029    -3970    -3861 
   -3827    -3863    -3901    -3959    -3991    -3900    -3758    -3723 
   -3778    -3828    -3811    -3701    -3599    -3666    -3928    -4214 
   -4334    -4267    -4126    -4013    -3921    -3843    -3877    -4056 
   -4217    -4221    -4102    -3971    -3913    -3917    -3902    -3882 
   -3931    -3969    -3912    -3915    -4051    -4120    -4045    -4021 
   -4124    -4190    -4117    -3924    -3667    -3520    -3628    -3873 
   -4101    -4338    -4557    -4614    -4432    -4135    -3916    -3763 
   -3580    -3451    -3485    -3704    -4087    -4476    -4673    -4658 
   -4561    -4483    -4388    -4183    -3900    -3639    -3464    -3435 
   -3564    -3813    -4171    -4541    -4738    -4675    -4441    -4201 
   -4006    -3877    -3888    -3943    -3904    -3893    -4021    -4210 
   -4417    -4612    -4692    -4621    -4459    -4236    -3975    -3780 
   -3696    -3593    -3480    -3586    -3886    -4147    -4310    -4336 
   -4148    -3877    -3777    -3964    -4305    -4514    -4426    -4140 
   -3898    -3808    -3782    -3761    -3742    -3688    -3696    -3912 
   -4193    -4363    -4465    -4487    -4394    -4271    -4195    -4190 
   -4180    -4098    -4086    -4191    -4199    -4147    -4321    -4646 
   -4826    -4808    -4631    -4320    -4001    -3844    -3927    -4162 
   -4330    -4324    -4290    -4351    -4364    -4248    -4139    -4129 
   -4170    -4126    -3944    -3793    -3754    -3719    -3739    -3943 
   -4274    -4577    -4716    -4661    -4476    -4229    -3985    -3808 
   -3694    -3580    -3515    -3547    -3578    -3640    -3937    -4419 
   -4791    -4907    -4803    -4527    -4175    -3809    -3420    -3122 
   -3072    -3279    -3678    -4153    -4499    -4564    -4430    -4317 
   -4257    -4105    -3844    -3578    -3372    -3334    -3618    -4175 
   -4711    -4930    -4779    -4461    -4233    -4106    -3929    -3712 
   -3626    -3697    -3780    -3825    -3924    -4105    -4278    -4290 
   -4176    -4199    -4379    -4453    -4243    -3796    -3327    -3051 
   -3096    -3501    -4097    -4598    -4854    -4847    -4629    -4313 
   -3966    -3581    -3299    -3303    -3549    -3867    -4147    -4337 
   -4530    -4791    -4954    -4878    -4614    -4245    -3885    -3703 
   -3780    -4067    -4384    -4527    -4471    -4280    -3993    -3731 
   -3672    -3794    -3933    -4074    -4283    -4419    -4334    -4140 
   -3996    -3838    -3581    -3383    -3461    -3774    -4106    -4365 
   -4602    -4768    -4711    -4374    -3939    -3667    -3546    -3495 
   -3646    -3997    -4344    -4569    -4537    -4197    -3865    -3809 
   -3919    -3998    -3897    -3646    -3537    -3685    -3923    -4162 
   -4399    -4571    -4544    -4155    -3507    -3079    -3133    -3431 
   -3786    -4199    -4573    -4750    -4689    -4419    -4023    -3666 
   -3487    -3499    -3650    -3855    -4048    -4240    -4450    -4577 
   -4500    -4263    -4044    -4001    -4047    -3942    -3704    -3574 
   -3624    -3778    -4078    -4529    -4855    -4846    -4669    -4554 
   -4467    -4320    -4159    -4141    -4403    -4718    -4615    -4097 
   -3647    -3557    -3716    -3977    -4301    -4581    -4621    -4455 
   -4306    -4167    -3952    -3809    -3863    -3993    -4062    -4159 
   -4403    -4679    -4803    -4699    -4391    -4025    -3753    -3566 
   -3451    -3531    -3793    -4032    -4180    -4340    -4495    -4518 
   -4399    -4245    -4116    -4036    -4054    -4179    -4286    -4249 
   -4135    -4002    -3843    -3759    -3893    -4167    -4320    -4297 
   -4297    -4390    -4479    -4479    -4378    -4280    -4213    -4027 
   -3762    -3657    -3732    -3844    -3937    -3991    -4043    -4197 
   -4433    -4594    -4572    -4390    -4141    -3897    -3688    -3545 
   -3514    -3662    -3935    -4140    -4218    -4259    -4314    -4419 
   -4533    -4517    -4357    -4167    -3958    -3684    -3450    -3385 
   -3407    -3457    -3778    -4450    -4955    -4866    -4395    -3874 
   -3461    -3284    -3377    -3618    -3842    -4009    -4230    -4511 
   -4638    -4472    -4159    -3920    -3847    -3966    -4156    -4155 
   -3944    -3759    -3721    -3879    -4264    -4725    -4996    -4909 
   -4521    -4006    -3574    -3476    -3712    -4056    -4399    -4653 
   -4675    -4438    -4106    -3924    -3955    -4047    -4112    -4104 
   -3958    -3813    -3896    -4194    -4473    -4518    -4318    -4023 
   -3709    -3424    -3296    -3410    -3700    -4059    -4332    -4371 
   -4298    -4332    -4383    -4311    -4202    -4136    -4037    -3821 
   -3601    -3631    -3917    -4197    -4317    -4374    -4434    -4472 
   -4580    -4765    -4738    -4347    -3801    -3458    -3555    -3908 
   -4118    -4124    -4141    -4279    -4463    -4596    -4665    -4614 
   -4386    -4079    -3831    -3635    -3446    -3376    -3591    -3996 
   -4272    -4280    -4217    -4302    -4491    -4588    -4464    -4117 
   -3685    -3370    -3249    -3230    -3268    -3454    -3921    -4672 
   -5482    -6045    -6110    -5520    -4446    -3395    -2743    -2566 
   -2766    -3164    -3661    -4225    -4733    -5000    -5008    -4899 
   -4720    -4380    -3874    -3349    -3003    -2965    -3203    -3595 
   -4091    -4644    -5043    -5150    -5089    -4968    -4657    -4039 
   -3321    -2929    -3015    -3346    -3719    -4109    -4440    -4502 
   -4278    -4180    -4525    -4942    -4955    -4669    -4307    -3879 
   -3541    -3469    -3628    -3858    -3981    -3936    -3821    -3825 
   -4086    -4482    -4793    -4907    -4765    -4410    -3955    -3461 
   -3114    -3140    -3410    -3630    -3811    -4155    -4591    -4789 
   -4644    -4371    -4224    -4314    -4432    -4293    -4035    -3950 
   -4040    -4067    -3870    -3661    -3697    -3874    -4070    -4294 
   -4418    -4310    -4120    -4185    -4554    -4853    -4857    -4646 
   -4276    -3861    -3569    -3435    -3497    -3754    -4075    -4415 
   -4672    -4612    -4315    -4089    -3987    -3904    -3905    -4118 
   -4441    -4604    -4459    -4183    -4058    -4102    -4136    -3986 
   -3613    -3250    -3206    -3568    -4178    -4719    -4949    -4899 
   -4785    -4766    -4711    -4290    -3499    -2751    -2359    -2397 
   -2871    -3638    -4450    -5120    -5503    -5493    -5132    -4621 
   -4056    -3507    -3161    -3055    -3037    -3113    -3362    -3793 
   -4330    -4734    -4773    -4567    -4421    -4329    -4000    -3493 
   -3227    -3304    -3487    -3682    -4021    -4577    -5143    -5381 
   -5117    -4402    -3555    -3024    -2926    -3068    -3254    -3434 
   -3794    -4459    -5062    -5173    -4849    -4428    -4121    -3831 
   -3410    -3049    -3029    -3265    -3570    -4010    -4599    -5054 
   -5198    -5086    -4669    -4002    -3557    -3603    -3831    -3885 
   -3801    -3867    -4125    -4322    -4407    -4477    -4438    -4203 
   -3893    -3716    -3736    -3828    -3969    -4249    -4522    -4506 
   -4237    -4086    -4251    -4456    -4342    -3956    -3588    -3407 
   -3477    -3811    -4210    -4411    -4442    -4522    -4770    -4993 
   -4853    -4432    -4159    -4110    -3915    -3388    -2870    -2801 
   -3180    -3667    -4090    -4475    -4737    -4796    -4770    -4773 
   -4673    -4278    -3727    -3393    -3352    -3335    -3204    -3159 
   -3488    -4090    -4507    -4617    -4741    -4911    -4769    -4195 
   -3462    -2947    -2883    -3229    -3780    -4337    -4683    -4714 
   -4637    -4634    -4600    -4422    -4102    -3713    -3454    -3530 
   -3919    -4428    -4869    -5089    -5071    -4988    -4814    -4421 
   -4052    -3813    -3357    -2764    -2567    -2901    -3631    -4611 
   -5443    -5715    -5470    -4973    -4415    -3937    -3562    -3237 
   -3032    -3057    -3291    -3593    -3986    -4579    -5175    -5445 
   -5309    -4839    -4251    -3842    -3581    -3148    -2512    -2155 
   -2535    -3487    -4488    -5258    -5703    -5652    -5001    -4005 
   -3146    -2701    -2667    -2917    -3244    -3569    -3986    -4533 
   -5158    -5702    -5821    -5242    -4136    -2983    -2263    -2251 
   -2785    -3451    -4149    -4995    -5755    -6075    -5988    -5526 
   -4542    -3345    -2613    -2617    -3138    -3847    -4430    -4687 
   -4623    -4410    -4311    -4399    -4337    -3952    -3582    -3341 
   -3024    -2847    -3150    -3844    -4712    -5471    -5699    -5287 
   -4571    -3997    -3728    -3588    -3418    -3194    -3025    -3138 
   -3562    -4116    -4673    -5143    -5433    -5543    -5513    -5254 
   -4617    -3723    -2920    -2369    -2110    -2274    -2936    -4035 
   -5320    -6243    -6353    -5773    -5059    -4565    -4099    -3315 
   -2380    -1887    -2074    -2714    -3673    -4869    -5867    -6199 
   -5953    -5533    -4951    -3950    -2822    -2324    -2581    -3113 
   -3823    -4828    -5756    -6110    -5784    -4982    -4098    -3483 
   -3196    -3195    -3414    -3631    -3808    -4136    -4525    -4765 
   -4870    -4779    -4488    -4310    -4341    -4290    -3981    -3555 
   -3242    -3109    -3221    -3850    -4927    -5752    -5825    -5406 
   -4812    -4006    -3157    -2671    -2604    -2808    -3327    -4077 
   -4758    -5332    -5833    -6016    -5738    -5069    -4095    -3087 
   -2450    -2342    -2501    -2659    -3028    -3861    -4877    -5602 
   -5799    -5471    -4826    -4067    -3343    -2979    -3171    -3657 
   -4117    -4429    -4550    -4556    -4500    -4272    -3836    -3410 
   -3272    -3414    -3634    -3819    -3940    -4116    -4510    -5005 
   -5294    -5017    -4047    -2987    -2563    -2751    -3238    -3873 
   -4445    -4791    -5009    -5224    -5317    -5143    -4707    -4017 
   -3186    -2624    -2647    -3056    -3569    -4172    -4761    -5124 
   -5289    -5454    -5668    -5613    -4972    -4001    -3153    -2555 
   -2323    -2697    -3585    -4437    -4758    -4618    -4490    -4683 
   -5000    -5027    -4622    -3955    -3349    -3111    -3215    -3341 
   -3415    -3640    -4018    -4348    -4591    -4783    -4730    -4298 
   -3719    -3269    -3072    -3099    -3218    -3519    -4067    -4444 
   -4372    -4198    -4251    -4406    -4411    -4205    -3952    -3784 
   -3663    -3600    -3624    -3723    -4009    -4507    -4870    -4806 
   -4504    -4297    -4120    -3811    -3592    -3681    -3859    -3944 
   -4085    -4384    -4612    -4531    -4328    -4294    -4309    -4108 
   -3692    -3198    -2848    -2921    -3438    -4062    -4463    -4499 
   -4214    -3927    -3877    -3927    -3924    -3943    -4039    -4120 
   -4050    -3800    -3612    -3813    -4280    -4522    -4398    -4156 
   -3952    -3834    -3780    -3701    -3720    -3993    -4336    -4540 
   -4635    -4658    -4617    -4522    -4274    -3836    -3339    -2986 
   -2982    -3326    -3805    -4284    -4722    -5043    -5139    -4941 
   -4484    -3881    -3261    -2852    -2817    -2975    -3149    -3588 
   -4422    -5190    -5417    -5109    -4488    -3773    -3227    -3007 
   -3068    -3318    -3716    -4125    -4401    -4596    -4770    -4830 
   -4733    -4440    -3898    -3335    -3065    -3075    -3199    -3356 
   -3528    -3789    -4205    -4684    -4980    -4784    -4090    -3379 
   -3076    -3177    -3470    -3672    -3545    -3226    -3171    -3611 
   -4249    -4635    -4626    -4336    -3979    -3801    -3828    -3900 
   -3838    -3539    -3246    -3373    -3963    -4689    -5120    -5061 
   -4685    -4232    -3824    -3493    -3223    -3207    -3527    -3754 
   -3705    -3775    -4099    -4360    -4376    -4297    -4294    -4280 
   -4067    -3730    -3569    -3703    -3958    -4255    -4654    -4932 
   -4780    -4340    -4016    -4001    -4140    -4126    -3975    -3951 
   -4023    -4024    -4052    -4125    -4032    -3867    -4000    -4452 
   -4846    -4877    -4635    -4468    -4421    -4249    -3986    -3848 
   -3933    -4275    -4714    -4965    -4931    -4679    -4374    -4234 
   -4405    -4895    -5448    -5575    -5043    -4279    -3915    -4067 
   -4407    -4691    -4882    -4955    -4845    -4519    -4074    -3740 
   -3649    -3700    -3917    -4456    -5084    -5348    -5198    -4884 
   -4517    -4090    -3742    -3705    -3971    -4286    -4521    -4645 
   -4585    -4394    -4243    -4259    -4434    -4464    -4093    -3653 
   -3534    -3561    -3535    -3647    -4006    -4398    -4608    -4676 
   -4587    -4148    -3450    -2918    -2748    -2866    -3217    -3635 
   -3898    -4081    -4392    -4754    -4882    -4638    -4155    -3659 
   -3229    -2914    -2876    -3126    -3500    -3928    -4391    -4838 
   -5217    -5368    -5178    -4793    -4401    -4036    -3684    -3387 
   -3264    -3423    -3786    -4078    -4187    -4332    -4781    -5464 
   -5842    -5530    -4800    -4018    -3372    -3123    -3291    -3557 
   -3766    -3955    -4239    -4733    -5167    -5117    -4711    -4356 
   -4198    -4247    -4430    -4590    -4695    -4787    -4876    -4962 
   -5011    -5027    -4984    -4711    -4175    -3688    -3578    -3906 
   -4494    -5015    -5235    -5250    -5174    -4970    -4696    -4477 
   -4261    -3996    -3886    -4066    -4305    -4415    -4438    -4403 
   -4361    -4344    -4266    -4141    -4009    -3858    -3792    -3774 
   -3670    -3616    -3713    -3829    -3910    -3966    -4045    -4244 
   -4506    -4661    -4626    -4396    -4072    -3838    -3704    -3519 
   -3281    -3137    -3223    -3623    -4174    -4500    -4428    -4137 
   -3960    -4075    -4332    -4383    -4058    -3626    -3554    -3873 
   -4093    -4044    -4099    -4272    -4158    -3789    -3609    -3781 
   -4025    -4129    -4280    -4603    -4872    -4880    -4633    -4226 
   -3801    -3424    -3148    -3084    -3257    -3569    -3883    -4147 
   -4388    -4552    -4467    -4070    -3538    -3168    -3053    -3033 
   -3049    -3192    -3384    -3492    -3672    -4055    -4333    -4191 
   -3790    -3481    -3430    -3518    -3549    -3537    -3500    -3345 
   -3176    -3188    -3365    -3624    -3919    -4158    -4280    -4340 
   -4356    -4225    -3904    -3578    -3466    -3519    -3551    -3570 
   -3654    -3746    -3862    -4141    -4519    -4739    -4695    -4544 
   -4428    -4226    -3800    -3322    -3125    -3348    -3885    -4545 
   -5074    -5260    -5134    -4807    -4396    -4056    -3780    -3585 
   -3677    -3942    -4070    -4233    -4675    -5062    -5031    -4715 
   -4325    -3882    -3527    -3528    -3878    -4180    -4205    -4178 
