Origin Time       2025/01/13 21:19:00
Lat.              31.8
Long.             131.6
Depth. (km)       30
Mag.              6.9
Station Code      HRSH15
Station Lat.      34.1161
Station Long.     132.5053
Station Height(m) 180
Record Time       2025/01/13 21:20:20
Sampling Freq(Hz) 100Hz
Duration Time(s)  145
Dir.              5
Scale Factor      7845(gal)/8223790
Max. Acc. (gal)   1.994
Last Correction   2025/01/13 21:20:20
Memo.             
[...]
     400      365      209       14     -121     -236     -422     -692 
    -930    -1000     -862     -564     -174      241      626      892 
     950      831      625      361       79     -139     -286     -423 
    -569     -650     -618     -537     -499     -495     -464     -406 
    -407     -535     -708     -761     -610     -336      -85       33 
     -22     -214     -407     -503     -514     -480     -437     -432 
    -465     -441     -298     -133      -66     -106     -157      -90 
     108      286      301      105     -243     -571     -737     -791 
    -850     -870     -727     -425     -113       81      152      139 
      44      -83     -136      -72       33       86       21     -114 
    -194     -179     -129     -103     -153     -244     -279     -232 
    -149      -79      -44      -41      -83     -190     -319     -407 
    -457     -472     -464     -460     -452     -440     -456     -479 
    -422     -222       52      234      257      210      178      153 
     109       31      -81     -202     -305     -380     -425     -425 
    -391     -353     -317     -321     -365     -309      -90      114 
     136       22     -124     -271     -395     -494     -587     -688 
    -778     -804     -720     -553     -325      -63      118      147 
     117      108      102       63      -55     -234     -398     -504 
    -572     -638     -722     -777     -754     -645     -459     -238 
     -39      112      180      163      102       18      -90     -174 
    -175     -109      -18       72      141      143       83       -2 
    -141     -373     -637     -820     -885     -839     -685     -471 
    -309     -230     -183     -157     -182     -232     -240     -174 
     -74       32      172      301      299      167        6     -135 
    -256     -282     -170        1      124      151      128      105 
      39      -76     -162     -176     -156     -135     -132     -160 
    -202     -216     -178     -145     -145      -86       58      124 
       8     -171     -305     -384     -349     -207     -105     -102 
     -95      -36      -13     -124     -344     -544     -591     -486 
    -328     -203     -155     -171     -190     -193     -168      -93 
     -39      -93     -221     -325     -336     -228      -24      171 
     230      176      133      147      148       44     -163     -349 
    -409     -382     -365     -372     -338     -274     -282     -365 
    -432     -422     -319     -201     -216     -356     -487     -587 
    -664     -670     -639     -650     -727     -834     -837     -652 
    -375     -101      133      305      437      529      487      321 
     160       58      -35     -130     -182     -156      -52       98 
     199      171      101      122      214      238       78     -236 
    -540     -746     -886     -954     -903     -730     -496     -282 
    -102       40       85        4     -133     -211     -151       17 
     187      299      349      332      282      270      306      329 
     292      206      144      191      318      402      387      352 
     348      302      168       18      -90     -148     -155     -175 
    -240     -259     -156        1       82       13     -202     -486 
    -727     -862     -892     -835     -685     -434     -151       58 
     151      118      -13     -156     -278     -410     -596     -822 
    -945     -859     -668     -523     -440     -386     -365     -306 
    -129       83      224      286      276      211      152      121 
      60      -66     -174     -172     -130     -144     -184     -190 
    -163     -113      -13      118      180       79     -149     -382 
    -521     -562     -552     -492     -310       43      442      696 
     777      722      476       66     -283     -388     -321     -274 
    -315     -361     -311     -136      129      379      527      560 
     511      468      504      538      429      206       16     -118 
    -280     -432     -459     -410     -396     -417     -437     -414 
    -315     -229     -216     -221     -234     -256     -213     -141 
    -172     -319     -494     -619     -652     -643     -695     -770 
    -688     -369        4      178      132       27      -64     -170 
    -309     -438     -480     -457     -452     -418     -291     -103 
      21      -32     -249     -484     -588     -500     -338     -328 
    -469     -465     -148      245      410      375      338      332 
     309      264      163        5     -141     -282     -415     -421 
    -283     -197     -233     -290     -341     -384     -367     -345 
    -380     -380     -299     -198     -103      -10       66       95 
      17     -160     -317     -384     -423     -500     -615     -673 
    -577     -388     -211      -72        8       35       27      -60 
    -194     -244     -191     -147     -201     -302     -337     -313 
    -332     -372     -322     -209     -168     -224     -280     -295 
    -275     -243     -195     -139      -78       36      168      163 
      31      -85     -190     -315     -403     -481     -584     -614 
    -561     -557     -645     -735     -724     -611     -488     -388 
    -271     -163      -82      -17      -20     -132     -272     -364 
    -419     -442     -388     -240      -55       45      -16     -197 
    -367     -477     -606     -777     -939    -1054    -1113    -1121 
   -1054     -866     -619     -426     -306     -213     -110       -9 
      36      -18     -136     -218     -243     -301     -445     -635 
    -797     -845     -742     -558     -372     -229     -197     -263 
    -294     -261     -283     -376     -427     -384     -317     -291 
    -275     -182      -37       27       28       85      184      288 
     341      210      -91     -359     -465     -491     -544     -656 
    -774     -764     -557     -278      -52       97      151       76 
     -83     -247     -388     -499     -550     -546     -502     -384 
    -168       79      195       72     -122     -160       -8      222 
     355      301      203      203      218      105     -171     -514 
    -747     -754     -600     -453     -352     -280     -317     -454 
    -515     -375     -129      -14     -152     -430     -689     -865 
    -959    -1057    -1270    -1510    -1540    -1320    -1026     -753 
    -483     -237     -145     -314     -602     -719     -585     -365 
    -228     -213     -280     -398     -525     -592     -567     -484 
    -398     -334     -278     -162        6       71      -56     -317 
    -604     -710     -541     -282     -108      -36      -17       28 
      63      -43     -249     -419     -550     -676     -702     -506 
    -145      184      314      220       83      147      379      502 
     387      234      229      278      257      225      201      124 
      48       86      229      427      645      837      950      955 
     857      729      708      812      847      712      525      400 
     288      152      135      348      661      880      966      984 
     972      893      693      402      110      -67     -102     -133 
    -244     -378     -522     -638     -657     -650     -680     -702 
    -673     -568     -419     -317     -224      -55      126      218 
     230      202      164      153      166      213      279      241 
      94      -16      -45      -31       32       97      109      130 
     168      129       39       52      224      441      580      635 
     666      664      557      276     -148     -526     -657     -567 
    -432     -346     -260     -126        6       68       58       39 
      32      -33     -128      -99       72      211      198       71 
     -70     -128      -52       75      148      170      197      240 
     298      434      660      785      703      589      548      442 
     240       79        1      -79     -202     -328     -394     -376 
    -337     -351     -384     -368     -353     -442     -588     -697 
    -768     -787     -724     -627     -538     -433     -290     -118 
      16       21      -93     -201     -205     -139     -113     -221 
    -437     -665     -855     -989    -1005     -931     -857     -783 
    -677     -567     -467     -421     -465     -553     -683     -947 
   -1312    -1580    -1647    -1588    -1520    -1476    -1413    -1254 
    -986     -670     -429     -378     -492     -610     -619     -556 
    -475     -379     -345     -452     -580     -589     -508     -413 
    -340     -279     -199     -140     -116      -64       -4       10 
      51      197      373      500      544      475      372      361 
     437      496      456      286       70      -72      -76       13 
      40      -81     -214     -166      135      592      972     1089 
    1027     1007     1046     1011      903      835      787      623 
     356      139       68      105      175      307      553      800 
     888      778      519      264      198      272      257       63 
    -182     -363     -511     -683     -854    -1017    -1136    -1111 
    -962     -859     -838     -789     -677     -562     -460     -317 
    -170     -156     -299     -450     -514     -560     -646     -697 
    -619     -467     -342     -255     -194     -171     -191     -237 
    -282     -297     -291     -305     -324     -282     -176     -122 
    -187     -249     -187      -72      -21      -13       17       58 
      56       -9     -140     -301     -410     -444     -438     -427 
    -422     -394     -286      -86      106      198      252      373 
     523      576      472      303      278      494      765      884 
     931     1040     1123     1062      878      648      445      306 
     180       54      -27      -99     -272     -560     -885    -1146 
   -1258    -1231    -1178    -1201    -1296    -1382    -1478    -1653 
   -1833    -1919    -1935    -1894    -1767    -1543    -1270    -1124 
   -1217    -1420    -1466    -1251    -1047    -1121    -1270    -1212 
   -1048     -974    -1027    -1215    -1470    -1606    -1547    -1375 
   -1136     -872     -670     -533     -353      -85      159      238 
     148       -5     -132     -195     -218     -307     -515     -685 
    -657     -552     -567     -653     -697     -743     -815     -876 
    -962    -1112    -1251    -1285    -1208    -1082     -923     -737 
    -583     -465     -326     -217     -205     -202     -151     -124 
    -163     -282     -510     -733     -796     -737     -660     -595 
    -510     -328      -62      118      105      -21     -162     -309 
    -446     -513     -456     -336     -280     -342     -433     -425 
    -334     -317     -457     -631     -616     -336       41      294 
     396      479      584      630      557      415      303      286 
     329      369      432      550      675      753      737      599 
     429      299      164        6     -141     -282     -411     -461 
    -388     -248      -94       63      186      203       89     -106 
    -336     -573     -777     -918    -1017    -1138    -1289    -1420 
   -1475    -1443    -1335    -1155     -920     -672     -438     -245 
    -144     -157     -283     -483     -681     -842     -982    -1080 
   -1107    -1100    -1024     -770     -361       28      238      253 
     207      264      438      592      602      486      392      391 
     360      207       16      -78      -51      -12      -28      -60 
     -85     -118     -125      -43      153      440      696      776 
     692      633      665      645      477      240       75       81 
     233      418      567      658      658      580      548      626 
     715      749      778      834      834      714      564      453 
     318      128      -29     -109     -135     -117      -24      112 
     170       87      -90     -310     -511     -627     -666     -714 
    -814     -896     -873     -760     -633     -507     -345     -175 
     -89     -133     -249     -307     -233      -75       76      193 
     322      465      523      490      479      481      375      170 
       0      -43       29      120      136       97       55       44 
      90      170      217      143      -89     -336     -391     -238 
     -68      -33      -99     -162     -168     -133     -128     -233 
    -438     -648     -800     -905     -973    -1023    -1139    -1382 
   -1611    -1597    -1304     -930     -719     -751     -868     -892 
    -849     -850     -886     -854     -762     -677     -599     -522 
    -494     -579     -774     -934     -927     -804     -657     -511 
    -372     -206       28      287      504      672      743      680 
     595      631      758      849      886      966     1143     1386 
    1571     1574     1433     1309     1254     1209     1175     1183 
    1243     1356     1460     1487     1441     1328     1166     1019 
     920      866      893     1007     1117     1179     1208     1142 
     935      691      534      469      441      390      263       58 
    -189     -413     -561     -689     -849     -935     -891     -780 
    -646     -538     -525     -562     -560     -542     -565     -575 
    -510     -415     -387     -450     -538     -594     -652     -781 
    -957    -1089    -1129    -1111    -1085    -1053    -1009     -992 
   -1036    -1150    -1300    -1431    -1502    -1529    -1583    -1715 
   -1896    -2066    -2168    -2192    -2200    -2231    -2273    -2284 
   -2214    -2057    -1867    -1699    -1579    -1502    -1440    -1386 
   -1367    -1381    -1379    -1314    -1158     -924     -656     -392 
    -186      -82      -68     -101     -147     -191     -257     -334 
    -342     -211       52      378      648      783      800      835 
     974     1142     1208     1113      881      639      531      556 
     607      635      634      611      587      585      581      531 
     446      379      330      280      253      291      391      531 
     704      818      749      541      386      390      504      648 
     803      982     1120     1128     1031      923      841      773 
     695      583      456      355      257       81     -222     -588 
    -908    -1135    -1289    -1389    -1428    -1409    -1394    -1460 
   -1587    -1701    -1780    -1845    -1907    -1989    -2100    -2168 
   -2089    -1842    -1545    -1348    -1269    -1213    -1107     -951 
    -807     -695     -556     -365     -190      -81      -13       40 
     130      301      481      600      652      610      484      363 
     280      220      187      152       45     -105     -245     -359 
    -441     -506     -598     -741     -897    -1024    -1101    -1109 
   -1065     -994     -901     -785     -672     -579     -486     -363 
    -210      -66       27       87      202      399      611      753 
     781      734      716      747      741      657      561      498 
     434      345      265      211      153       94       59       35 
      21       37       55       41        2      -74     -222     -406 
    -549     -612     -630     -656     -681     -653     -554     -432 
    -337     -301     -287     -203      -31      166      325      407 
     423      413      417      461      495      440      314      194 
     125      105       79       17      -32      -70     -121     -113 
     -18       49       39       49      175      364      510      550 
     492      387      251       32     -271     -540     -684     -757 
    -822     -853     -828     -769     -735     -765     -783     -685 
    -496     -280      -59      167      382      530      561      519 
     500      523      557      569      519      429      376      359 
     315      251      214      229      303      432      579      702 
     762      734      607      384       82     -265     -642    -1039 
   -1425    -1752    -2004    -2177    -2250    -2222    -2120    -1962 
   -1787    -1669    -1652    -1717    -1800    -1827    -1765    -1632 
   -1476    -1350    -1250    -1139     -997     -823     -648     -534 
    -487     -419     -233       60      351      538      638      722 
     793      789      689      513      268      -13     -252     -348 
    -317     -303     -427     -675     -934    -1084    -1108    -1100 
   -1120    -1111     -997     -795     -579     -445     -459     -564 
    -635     -599     -454     -284     -191     -183     -170      -48 
     197      487      707      774      720      668      691      791 
     909      953      928      932      990     1015      907      650 
     345      135       82      120      149      126       63        4 
     -17        6       22      -64     -255     -433     -523     -535 
    -517     -549     -643     -715     -662     -421      -99       66 
       1     -178     -346     -454     -529     -599     -633     -583 
    -422     -176       64      220      238      148       52        1 
     -71     -199     -315     -361     -375     -415     -496     -588 
    -642     -657     -631     -518     -346     -229     -226     -325 
    -459     -529     -503     -460     -487     -565     -621     -639 
    -650     -641     -594     -548     -540     -553     -560     -576 
    -611     -637     -631     -587     -476     -307     -116       74 
     256      422      550      638      724      804      834      832 
     850      851      777      639      477      325      217      141 
      51      -81     -243     -413     -537     -572     -535     -483 
    -453     -445     -399     -305     -274     -375     -540     -703 
    -865     -996    -1054    -1051    -1032    -1011     -961     -849 
    -676     -460     -220       -1      195      456      788     1084 
    1266     1351     1381     1386     1383     1321     1138      880 
     642      468      345      220       37     -184     -368     -419 
    -310     -112       59      147      171      152       62     -109 
    -297     -448     -585     -734     -865     -984    -1111    -1204 
   -1240    -1266    -1301    -1324    -1321    -1294    -1252    -1194 
   -1098     -974     -851     -746     -662     -577     -441     -257 
     -83       25       25      -79     -216     -306     -368     -465 
    -575     -604     -517     -363     -229     -157     -145     -175 
    -229     -288     -353     -456     -623     -801     -915     -953 
    -961     -961     -922     -846     -769     -697     -611     -481 
    -306     -125       43      206      364      499      595      660 
     687      649      550      400      209      -10     -213     -329 
    -352     -357     -382     -346     -174       98      337      427 
     372      282      244      252      248      179       48      -82 
    -178     -263     -329     -325     -253     -180     -171     -241 
    -346     -398     -357     -302     -315     -379     -414     -392 
    -378     -437     -537     -598     -603     -592     -608     -637 
    -631     -595     -564     -533     -491     -433     -353     -299 
    -330     -426     -498     -490     -427     -382     -405     -473 
    -526     -507     -400     -263     -166     -112      -67      -20 
      33       90      137      159      187      268      376      461 
