Origin Time       2025/01/13 21:19:00
Lat.              31.8
Long.             131.6
Depth. (km)       30
Mag.              6.9
Station Code      HRSH09
Station Lat.      34.7016
Station Long.     132.9524
Station Height(m) 235
Record Time       2025/01/13 21:20:28
Sampling Freq(Hz) 100Hz
Duration Time(s)  144
Dir.              2
Scale Factor      3923(gal)/8224838
Max. Acc. (gal)   0.768
Last Correction   2025/01/13 21:20:29
Memo.             
[...]
  -24552   -24563   -24588   -24602   -24579   -24544   -24555   -24607 
  -24641   -24610   -24532   -24463   -24433   -24428   -24433   -24460 
  -24483   -24471   -24452   -24451   -24456   -24474   -24489   -24490 
  -24503   -24503   -24463   -24435   -24453   -24472   -24457   -24435 
  -24440   -24476   -24520   -24540   -24533   -24534   -24563   -24605 
  -24637   -24648   -24652   -24649   -24615   -24574   -24555   -24549 
  -24551   -24541   -24506   -24467   -24455   -24463   -24435   -24368 
  -24341   -24358   -24382   -24429   -24476   -24493   -24489   -24455 
  -24401   -24375   -24399   -24453   -24498   -24514   -24510   -24493 
  -24507   -24583   -24651   -24687   -24709   -24691   -24641   -24602 
  -24572   -24551   -24541   -24553   -24582   -24598   -24613   -24630 
  -24630   -24633   -24649   -24690   -24754   -24826   -24892   -24927 
  -24927   -24925   -24910   -24888   -24880   -24842   -24788   -24744 
  -24664   -24557   -24451   -24329   -24220   -24139   -24078   -24062 
  -24089   -24123   -24159   -24202   -24225   -24201   -24162   -24183 
  -24270   -24337   -24325   -24267   -24224   -24206   -24181   -24156 
  -24158   -24171   -24181   -24186   -24204   -24246   -24286   -24294 
  -24264   -24223   -24210   -24225   -24237   -24241   -24225   -24197 
  -24186   -24173   -24136   -24093   -24048   -24016   -24017   -24030 
  -24038   -24052   -24071   -24082   -24079   -24069   -24063   -24059 
  -24040   -23984   -23923   -23893   -23859   -23816   -23791   -23755 
  -23706   -23699   -23724   -23727   -23712   -23715   -23727   -23739 
  -23737   -23703   -23653   -23615   -23608   -23620   -23635   -23662 
  -23670   -23643   -23635   -23672   -23704   -23683   -23634   -23581 
  -23495   -23388   -23325   -23303   -23292   -23275   -23234   -23194 
  -23166   -23157   -23171   -23193   -23236   -23278   -23269   -23233 
  -23213   -23220   -23255   -23288   -23298   -23276   -23232   -23203 
  -23187   -23156   -23145   -23172   -23190   -23171   -23133   -23109 
  -23099   -23075   -23047   -23032   -23008   -22982   -22971   -22970 
  -22982   -23013   -23032   -23021   -23001   -22968   -22939   -22927 
  -22908   -22886   -22881   -22879   -22885   -22893   -22874   -22856 
  -22882   -22916   -22906   -22863   -22820   -22789   -22786   -22810 
  -22827   -22823   -22813   -22805   -22793   -22773   -22759   -22779 
  -22828   -22873   -22898   -22923   -22951   -22977   -22997   -23013 
  -23021   -23018   -23025   -23056   -23093   -23137   -23197   -23251 
  -23294   -23326   -23344   -23376   -23430   -23467   -23480   -23480 
  -23475   -23484   -23496   -23479   -23463   -23481   -23545   -23637 
  -23718   -23792   -23888   -23982   -24046   -24109   -24201   -24313 
  -24417   -24491   -24549   -24629   -24713   -24777   -24841   -24907 
  -24949   -24976   -25011   -25064   -25112   -25118   -25101   -25108 
  -25114   -25100   -25088   -25065   -25016   -24953   -24898   -24872 
  -24853   -24827   -24829   -24868   -24922   -24950   -24957   -24976 
  -24976   -24929   -24902   -24926   -24941   -24938   -24968   -25015 
  -25045   -25069   -25096   -25103   -25078   -25056   -25060   -25080 
  -25122   -25172   -25178   -25143   -25145   -25204   -25265   -25297 
  -25300   -25278   -25240   -25185   -25122   -25073   -25022   -24945 
  -24871   -24829   -24826   -24844   -24852   -24835   -24814   -24818 
  -24844   -24862   -24862   -24857   -24853   -24837   -24811   -24787 
  -24763   -24748   -24748   -24746   -24730   -24711   -24703   -24700 
  -24711   -24727   -24711   -24678   -24664   -24659   -24668   -24684 
  -24680   -24667   -24668   -24698   -24737   -24771   -24829   -24915 
  -24983   -25018   -25023   -25010   -24996   -24979   -24933   -24865 
  -24803   -24746   -24686   -24645   -24638   -24638   -24628   -24598 
  -24536   -24460   -24397   -24362   -24345   -24324   -24298   -24273 
  -24239   -24210   -24216   -24256   -24304   -24335   -24356   -24375 
  -24395   -24424   -24444   -24437   -24417   -24417   -24460   -24530 
  -24594   -24642   -24680   -24706   -24718   -24711   -24698   -24675 
  -24646   -24640   -24644   -24660   -24691   -24695   -24668   -24655 
  -24656   -24661   -24667   -24655   -24624   -24610   -24626   -24624 
  -24598   -24590   -24614   -24656   -24672   -24672   -24688   -24688 
  -24649   -24605   -24576   -24564   -24560   -24551   -24548   -24574 
  -24619   -24672   -24723   -24757   -24777   -24802   -24842   -24902 
  -24965   -25002   -25012   -25024   -25049   -25065   -25074   -25084 
  -25064   -24999   -24938   -24918   -24918   -24904   -24861   -24803 
  -24753   -24706   -24660   -24610   -24543   -24471   -24421   -24371 
  -24314   -24271   -24244   -24208   -24147   -24084   -24021   -23942 
  -23853   -23792   -23773   -23757   -23723   -23700   -23685   -23658 
  -23626   -23589   -23568   -23577   -23588   -23579   -23565   -23561 
  -23564   -23560   -23531   -23471   -23400   -23348   -23306   -23278 
  -23276   -23269   -23241   -23217   -23195   -23157   -23116   -23085 
  -23066   -23062   -23063   -23049   -23037   -23056   -23093   -23117 
  -23125   -23107   -23058   -23013   -23010   -23024   -23036   -23059 
  -23091   -23129   -23166   -23193   -23241   -23313   -23365   -23395 
  -23437   -23507   -23585   -23650   -23715   -23765   -23808   -23872 
  -23936   -23985   -24023   -24048   -24075   -24101   -24112   -24139 
  -24194   -24260   -24341   -24437   -24537   -24625   -24695   -24745 
  -24776   -24795   -24819   -24823   -24798   -24773   -24754   -24718 
  -24678   -24652   -24649   -24657   -24649   -24609   -24529   -24435 
  -24375   -24349   -24316   -24258   -24175   -24084   -24007   -23963 
  -23950   -23940   -23930   -23922   -23908   -23901   -23908   -23935 
  -23980   -24003   -23986   -23984   -24024   -24093   -24171   -24235 
  -24266   -24275   -24282   -24291   -24297   -24298   -24295   -24275 
  -24239   -24209   -24187   -24167   -24140   -24090   -24027   -23971 
  -23916   -23853   -23800   -23770   -23761   -23784   -23822   -23846 
  -23873   -23920   -23984   -24040   -24070   -24090   -24116   -24140 
  -24170   -24204   -24248   -24316   -24382   -24460   -24567   -24653 
  -24719   -24834   -24979   -25088   -25178   -25278   -25370   -25429 
  -25446   -25429   -25407   -25385   -25374   -25380   -25382   -25375 
  -25369   -25361   -25350   -25327   -25288   -25246   -25203   -25170 
  -25170   -25180   -25166   -25145   -25145   -25170   -25196   -25204 
  -25209   -25219   -25220   -25215   -25203   -25180   -25146   -25091 
  -25031   -24995   -24977   -24973   -24988   -24989   -24969   -24939 
  -24887   -24810   -24727   -24659   -24618   -24588   -24540   -24478 
  -24408   -24321   -24237   -24166   -24094   -24021   -23944   -23861 
  -23796   -23773   -23776   -23777   -23766   -23761   -23795   -23865 
  -23940   -24008   -24043   -24054   -24075   -24102   -24121   -24136 
  -24132   -24115   -24104   -24104   -24120   -24152   -24167   -24142 
  -24101   -24070   -24035   -23993   -23955   -23926   -23903   -23880 
  -23850   -23800   -23747   -23720   -23720   -23726   -23711   -23684 
  -23673   -23683   -23712   -23742   -23754   -23760   -23774   -23812 
  -23868   -23911   -23932   -23946   -23970   -24012   -24044   -24048 
  -24023   -23965   -23922   -23917   -23917   -23900   -23870   -23828 
  -23784   -23735   -23674   -23608   -23541   -23476   -23429   -23411 
  -23413   -23410   -23409   -23417   -23426   -23438   -23458   -23484 
  -23511   -23542   -23585   -23650   -23735   -23815   -23874   -23913 
  -23969   -24070   -24190   -24297   -24405   -24499   -24549   -24564 
  -24557   -24533   -24510   -24507   -24514   -24506   -24476   -24435 
  -24394   -24367   -24349   -24333   -24312   -24274   -24209   -24128 
  -24059   -24011   -23963   -23903   -23826   -23762   -23730   -23703 
  -23664   -23623   -23602   -23592   -23581   -23577   -23596   -23635 
  -23679   -23718   -23754   -23800   -23849   -23878   -23884   -23886 
  -23905   -23939   -23957   -23959   -23962   -23962   -23966   -23990 
  -24025   -24057   -24089   -24124   -24154   -24162   -24150   -24125 
  -24106   -24106   -24117   -24128   -24138   -24146   -24160   -24186 
  -24228   -24287   -24354   -24410   -24457   -24506   -24567   -24649 
  -24738   -24823   -24910   -24995   -25056   -25091   -25108   -25120 
  -25142   -25174   -25193   -25188   -25191   -25224   -25261   -25286 
  -25308   -25309   -25296   -25274   -25247   -25226   -25191   -25131 
  -25076   -25030   -24989   -24962   -24941   -24912   -24884   -24869 
  -24854   -24821   -24764   -24686   -24605   -24549   -24509   -24467 
  -24437   -24436   -24449   -24457   -24462   -24474   -24479   -24462 
  -24432   -24405   -24372   -24333   -24308   -24297   -24283   -24279 
  -24285   -24295   -24318   -24336   -24340   -24354   -24368   -24370 
  -24367   -24352   -24325   -24306   -24297   -24275   -24244   -24223 
  -24212   -24196   -24175   -24156   -24143   -24133   -24138   -24169 
  -24221   -24283   -24354   -24428   -24494   -24548   -24588   -24614 
  -24634   -24671   -24721   -24767   -24808   -24854   -24888   -24923 
  -24984   -25050   -25097   -25143   -25178   -25193   -25213   -25236 
  -25243   -25231   -25213   -25203   -25196   -25182   -25168   -25146 
  -25115   -25073   -25008   -24935   -24880   -24823   -24752   -24684 
  -24628   -24580   -24538   -24498   -24464   -24444   -24440   -24429 
  -24399   -24366   -24324   -24268   -24202   -24121   -24028   -23936 
  -23866   -23816   -23770   -23724   -23684   -23650   -23620   -23589 
  -23542   -23483   -23423   -23373   -23325   -23274   -23224   -23171 
  -23122   -23099   -23093   -23079   -23064   -23058   -23055   -23053 
  -23052   -23053   -23052   -23047   -23022   -22989   -22968   -22960 
  -22966   -22983   -23001   -23032   -23083   -23145   -23221   -23301 
  -23363   -23417   -23477   -23545   -23615   -23691   -23772   -23851 
  -23928   -24004   -24075   -24135   -24189   -24254   -24331   -24405 
  -24472   -24521   -24528   -24502   -24470   -24422   -24348   -24264 
  -24179   -24089   -23996   -23916   -23862   -23826   -23789   -23749 
  -23711   -23688   -23677   -23674   -23681   -23689   -23683   -23677 
  -23692   -23715   -23734   -23743   -23743   -23750   -23782   -23830 
  -23878   -23912   -23922   -23916   -23923   -23940   -23953   -23950 
  -23946   -23967   -24005   -24038   -24070   -24100   -24097   -24074 
  -24059   -24039   -24011   -23998   -24001   -24003   -24021   -24046 
  -24054   -24061   -24071   -24071   -24063   -24052   -24050   -24066 
  -24096   -24128   -24148   -24152   -24148   -24140   -24129   -24108 
  -24077   -24054   -24042   -24025   -23989   -23938   -23890   -23850 
  -23815   -23789   -23774   -23768   -23774   -23788   -23791   -23782 
  -23776   -23772   -23769   -23773   -23792   -23815   -23835   -23854 
  -23872   -23886   -23908   -23935   -23963   -23994   -24036   -24104 
  -24192   -24290   -24389   -24483   -24583   -24678   -24738   -24763 
  -24773   -24780   -24775   -24750   -24715   -24683   -24652   -24619 
  -24586   -24525   -24444   -24366   -24285   -24219   -24173   -24133 
  -24120   -24116   -24092   -24077   -24066   -24054   -24067   -24104 
  -24131   -24144   -24186   -24264   -24328   -24363   -24391   -24405 
  -24412   -24424   -24440   -24467   -24494   -24520   -24557   -24599 
  -24644   -24687   -24715   -24745   -24781   -24795   -24776   -24742 
  -24721   -24707   -24680   -24642   -24603   -24560   -24517   -24476 
  -24441   -24420   -24405   -24390   -24371   -24341   -24306   -24289 
  -24308   -24356   -24413   -24475   -24547   -24609   -24663   -24737 
  -24817   -24887   -24950   -25006   -25057   -25104   -25147   -25191 
  -25216   -25220   -25219   -25223   -25219   -25208   -25193   -25174 
  -25151   -25131   -25101   -25051   -24993   -24931   -24857   -24786 
  -24736   -24695   -24661   -24614   -24547   -24478   -24424   -24379 
  -24327   -24263   -24194   -24127   -24075   -24044   -24021   -24017 
  -24040   -24067   -24078   -24084   -24104   -24140   -24200   -24264 
  -24310   -24352   -24395   -24432   -24474   -24511   -24538   -24570 
  -24587   -24575   -24552   -24532   -24536   -24570   -24613   -24649 
  -24680   -24730   -24811   -24895   -24968   -25031   -25081   -25110 
  -25116   -25122   -25132   -25135   -25130   -25118   -25093   -25064 
  -25046   -25033   -25011   -24977   -24937   -24885   -24823   -24765 
  -24717   -24660   -24584   -24495   -24395   -24285   -24162   -24043 
  -23936   -23828   -23708   -23575   -23433   -23311   -23215   -23134 
  -23068   -23014   -22963   -22910   -22870   -22850   -22832   -22808 
  -22793   -22779   -22769   -22769   -22773   -22778   -22796   -22816 
  -22837   -22867   -22901   -22941   -22995   -23051   -23091   -23118 
  -23155   -23205   -23249   -23292   -23334   -23361   -23383   -23414 
  -23437   -23453   -23465   -23473   -23480   -23481   -23458   -23423 
  -23398   -23377   -23353   -23310   -23259   -23221   -23183   -23130 
  -23075   -23025   -22999   -23013   -23033   -23051   -23076   -23116 
  -23180   -23271   -23373   -23476   -23576   -23677   -23777   -23888 
  -24015   -24133   -24248   -24354   -24453   -24571   -24694   -24808 
  -24931   -25065   -25186   -25293   -25390   -25465   -25517   -25562 
  -25616   -25668   -25706   -25733   -25762   -25785   -25795   -25805 
  -25816   -25821   -25807   -25782   -25762   -25743   -25726   -25720 
  -25702   -25668   -25640   -25620   -25600   -25577   -25547   -25502 
  -25450   -25402   -25366   -25330   -25277   -25201   -25100   -24988 
  -24892   -24819   -24742   -24646   -24536   -24425   -24318   -24198 
  -24078   -23990   -23924   -23855   -23784   -23728   -23700   -23689 
  -23688   -23689   -23695   -23707   -23723   -23739   -23746   -23737 
  -23727   -23728   -23724   -23700   -23669   -23639   -23602   -23556 
  -23514   -23471   -23419   -23357   -23295   -23249   -23214   -23180 
  -23152   -23130   -23112   -23095   -23083   -23091   -23106   -23110 
  -23121   -23149   -23193   -23241   -23292   -23344   -23399   -23457 
  -23530   -23615   -23701   -23780   -23850   -23916   -23992   -24074 
  -24159   -24247   -24328   -24394   -24448   -24486   -24507   -24510 
  -24501   -24487   -24466   -24426   -24366   -24283   -24208   -24146 
  -24075   -23997   -23935   -23901   -23888   -23889   -23892   -23899 
  -23923   -23965   -24011   -24070   -24143   -24210   -24273   -24333 
  -24399   -24480   -24556   -24609   -24655   -24707   -24761   -24813 
  -24849   -24862   -24864   -24871   -24880   -24891   -24923   -24973 
  -25026   -25070   -25100   -25108   -25099   -25070   -25027   -24975 
  -24906   -24827   -24759   -24700   -24636   -24557   -24475   -24395 
  -24309   -24214   -24128   -24057   -23986   -23924   -23888   -23866 
  -23850   -23843   -23842   -23850   -23866   -23880   -23896   -23924 
  -23962   -24008   -24066   -24138   -24205   -24259   -24302   -24337 
  -24368   -24397   -24424   -24449   -24470   -24476   -24484   -24516 
  -24557   -24588   -24621   -24660   -24702   -24750   -24819   -24900 
  -24975   -25042   -25103   -25154   -25193   -25220   -25240   -25259 
  -25255   -25227   -25193   -25153   -25095   -25018   -24925   -24826 
  -24725   -24622   -24521   -24416   -24314   -24227   -24160   -24119 
  -24092   -24069   -24046   -24019   -23998   -23994   -23994   -23981 
  -23951   -23916   -23884   -23859   -23839   -23824   -23818   -23811 
  -23793   -23774   -23761   -23738   -23714   -23706   -23711   -23714 
  -23712   -23720   -23735   -23758   -23796   -23857   -23917   -23950 
  -23965   -23986   -24015   -24038   -24047   -24042   -24027   -24011 
  -24001   -23996   -23989   -23984   -23984   -23997   -24016   -24027 
  -24044   -24069   -24081   -24088   -24094   -24093   -24090   -24096 
  -24105   -24105   -24086   -24059   -24055   -24062   -24063   -24063 
  -24057   -24039   -24031   -24025   -24023   -24036   -24063   -24096 
  -24135   -24175   -24210   -24241   -24277   -24317   -24367   -24421 
  -24474   -24520   -24555   -24597   -24659   -24721   -24771   -24806 
  -24822   -24829   -24837   -24845   -24850   -24860   -24864   -24842 
  -24802   -24763   -24730   -24699   -24664   -24624   -24583   -24547 
  -24516   -24491   -24472   -24455   -24439   -24420   -24398   -24374 
  -24352   -24339   -24325   -24312   -24309   -24310   -24312   -24320 
  -24321   -24312   -24308   -24305   -24293   -24277   -24266   -24254 
  -24232   -24212   -24200   -24196   -24201   -24206   -24212   -24214 
  -24198   -24175   -24165   -24156   -24155   -24159   -24148   -24138 
  -24143   -24162   -24189   -24209   -24212   -24206   -24201   -24196 
  -24192   -24182   -24181   -24201   -24241   -24283   -24313   -24336 
  -24354   -24362   -24374   -24399   -24433   -24462   -24479   -24483 
  -24480   -24471   -24453   -24440   -24436   -24443   -24447   -24443 
  -24444   -24457   -24479   -24506   -24537   -24564   -24580   -24586 
  -24594   -24607   -24614   -24611   -24592   -24553   -24509   -24476 
  -24451   -24424   -24394   -24359   -24314   -24268   -24224   -24187 
  -24163   -24139   -24106   -24074   -24036   -23993   -23955   -23928 
  -23907   -23889   -23880   -23877   -23882   -23905   -23932   -23951 
  -23967   -23989   -24005   -24008   -23997   -23980   -23966   -23954 
  -23935   -23912   -23895   -23881   -23866   -23853   -23845   -23832 
  -23816   -23799   -23778   -23758   -23734   -23715   -23715   -23720 
  -23726   -23737   -23742   -23745   -23755   -23768   -23780   -23797 
  -23808   -23819   -23839   -23862   -23888   -23919   -23959   -24009 
  -24059   -24113   -24169   -24216   -24260   -24304   -24343   -24385 
  -24430   -24480   -24530   -24575   -24609   -24625   -24632   -24651 
  -24675   -24688   -24690   -24680   -24665   -24659   -24656   -24641 
  -24624   -24603   -24578   -24555   -24528   -24482   -24432   -24389 
  -24345   -24293   -24239   -24186   -24131   -24089   -24069   -24046 
  -24016   -23984   -23944   -23908   -23880   -23853   -23830   -23811 
  -23792   -23778   -23773   -23774   -23789   -23811   -23828   -23847 
  -23863   -23873   -23882   -23889   -23896   -23908   -23919   -23932 
  -23963   -23996   -24031   -24081   -24136   -24186   -24232   -24267 
  -24285   -24298   -24316   -24335   -24345   -24343   -24327   -24313 
  -24304   -24293   -24283   -24277   -24264   -24252   -24237   -24233 
  -24240   -24248   -24268   -24305   -24331   -24355   -24391   -24428 
  -24455   -24474   -24484   -24480   -24460   -24433   -24405   -24375 
  -24336   -24281   -24223   -24166   -24096   -24017   -23957   -23909 
  -23873   -23843   -23823   -23812   -23809   -23816   -23834   -23858 
  -23878   -23897   -23926   -23955   -23984   -24017   -24046   -24066 
  -24079   -24084   -24086   -24089   -24082   -24070   -24054   -24032 
  -24017   -24005   -23985   -23963   -23944   -23923   -23903   -23880 
  -23851   -23830   -23811   -23797   -23793   -23797   -23807   -23816 
  -23820   -23815   -23804   -23814   -23841   -23854   -23858   -23872 
  -23899   -23924   -23943   -23953   -23953   -23950   -23951   -23958 
  -23966   -23970   -23958   -23930   -23899   -23873   -23851   -23839 
