Origin Time       2025/01/13 21:19:00
Lat.              31.8
Long.             131.6
Depth. (km)       30
Mag.              6.9
Station Code      HRSH11
Station Lat.      34.8225
Station Long.     133.1674
Station Height(m) 490
Record Time       2025/01/13 21:21:05
Sampling Freq(Hz) 100Hz
Duration Time(s)  120
Dir.              2
Scale Factor      2942(gal)/8224139
Max. Acc. (gal)   0.850
Last Correction   2025/01/13 21:21:06
Memo.             
[...]
  152838   152828   152820   152828   152845   152856   152841   152806 
  152776   152748   152721   152716   152726   152733   152734   152739 
  152751   152779   152822   152865   152895   152910   152918   152925 
  152922   152905   152888   152892   152914   152925   152925   152930 
  152950   152976   152982   152969   152956   152942   152933   152938 
  152956   152969   152971   152960   152942   152922   152895   152851 
  152798   152760   152745   152740   152736   152722   152689   152660 
  152659   152668   152687   152728   152772   152809   152832   152849 
  152864   152871   152863   152852   152851   152857   152865   152861 
  152833   152790   152751   152733   152748   152780   152809   152822 
  152826   152834   152860   152892   152929   152969   152992   152999 
  153017   153052   153069   153056   153034   153019   153006   152992 
  152975   152956   152945   152937   152914   152892   152887   152890 
  152886   152861   152818   152764   152713   152685   152676   152664 
  152647   152648   152672   152698   152709   152720   152729   152724 
  152705   152694   152706   152729   152748   152782   152826   152860 
  152888   152907   152913   152917   152932   152953   152964   152963 
  152965   152982   153006   153034   153056   153075   153100   153119 
  153125   153126   153138   153165   153181   153171   153149   153122 
  153088   153076   153090   153096   153090   153080   153075   153076 
  153076   153064   153054   153063   153079   153087   153072   153042 
  153021   153002   152983   152967   152946   152936   152946   152955 
  152934   152910   152903   152905   152906   152899   152872   152845 
  152830   152806   152776   152771   152788   152799   152795   152782 
  152774   152791   152820   152826   152815   152809   152817   152833 
  152844   152853   152864   152864   152857   152863   152871   152868 
  152865   152861   152838   152803   152770   152743   152725   152725 
  152743   152768   152802   152849   152891   152905   152903   152905 
  152913   152937   152975   153003   153011   153007   152998   152988 
  152992   153011   153034   153048   153050   153050   153040   153027 
  153017   153013   153036   153067   153058   153017   152980   152965 
  152955   152938   152921   152902   152883   152860   152829   152801 
  152790   152809   152849   152886   152895   152878   152864   152872 
  152884   152890   152883   152869   152872   152901   152934   152942 
  152923   152902   152890   152879   152864   152851   152851   152872 
  152894   152888   152865   152856   152864   152864   152840   152802 
  152763   152732   152705   152671   152620   152574   152551   152548 
  152554   152559   152554   152558   152587   152621   152633   152644 
  152672   152699   152713   152717   152720   152718   152702   152685 
  152676   152674   152680   152703   152726   152733   152739   152760 
  152797   152829   152845   152842   152844   152863   152884   152898 
  152906   152918   152937   152938   152907   152869   152857   152874 
  152891   152894   152887   152874   152844   152803   152775   152752 
  152725   152691   152655   152620   152590   152575   152581   152601 
  152616   152613   152585   152543   152506   152483   152479   152500 
  152521   152517   152493   152463   152447   152466   152509   152537 
  152525   152485   152455   152454   152456   152452   152455   152470 
  152490   152512   152523   152517   152502   152482   152474   152489 
  152513   152532   152552   152571   152574   152556   152537   152537 
  152560   152597   152629   152651   152667   152679   152683   152686 
  152686   152675   152662   152659   152658   152652   152655   152667 
  152693   152716   152721   152721   152734   152753   152772   152798 
  152824   152847   152882   152917   152950   153000   153038   153045 
  153037   153030   153025   153030   153040   153045   153038   153026 
  153017   153014   153017   153009   152982   152963   152959   152946 
  152933   152941   152961   152987   153023   153061   153083   153088 
  153100   153122   153125   153111   153100   153087   153077   153072 
  153063   153063   153072   153061   153034   153006   152979   152964 
  152961   152971   152984   152988   152979   152976   152980   152975 
  152961   152955   152955   152955   152950   152945   152941   152926 
  152898   152884   152898   152923   152952   152965   152964   152967 
  152976   152991   153013   153034   153060   153096   153131   153154 
  153168   153181   153200   153223   153239   153245   153258   153291 
  153316   153312   153306   153322   153349   153358   153361   153380 
  153414   153445   153462   153455   153439   153432   153423   153397 
  153365   153347   153334   153318   153300   153292   153295   153291 
  153273   153258   153239   153196   153153   153139   153139   153131 
  153117   153100   153094   153094   153099   153118   153144   153154 
  153157   153165   153162   153131   153092   153081   153091   153096 
  153095   153077   153037   152984   152950   152940   152923   152886 
  152828   152768   152720   152689   152663   152631   152597   152577 
  152571   152570   152574   152579   152590   152617   152648   152675 
  152726   152803   152865   152913   152960   153013   153073   153129 
  153172   153218   153258   153288   153328   153370   153403   153418 
  153420   153435   153465   153488   153501   153513   153524   153534 
  153544   153565   153578   153563   153539   153524   153508   153488 
  153485   153509   153535   153549   153559   153565   153565   153573 
  153586   153592   153590   153578   153544   153499   153480   153488 
  153497   153501   153504   153495   153482   153489   153497   153490 
  153470   153443   153419   153388   153335   153266   153203   153149 
  153106   153076   153045   153011   152994   152988   152971   152949 
  152940   152934   152928   152938   152957   152961   152960   152961 
  152948   152921   152911   152922   152918   152896   152879   152857 
  152826   152803   152802   152803   152788   152774   152771   152768 
  152772   152791   152811   152824   152828   152826   152818   152814 
  152815   152810   152806   152813   152833   152856   152853   152836 
  152840   152860   152875   152886   152896   152892   152871   152857 
  152871   152895   152915   152930   152936   152930   152922   152907 
  152878   152852   152844   152834   152818   152806   152798   152801 
  152815   152832   152840   152838   152832   152825   152818   152810 
  152805   152795   152768   152744   152732   152718   152706   152701 
  152701   152709   152729   152749   152766   152779   152788   152771 
  152722   152682   152667   152658   152647   152635   152613   152582 
  152545   152501   152451   152412   152389   152378   152378   152385 
  152390   152401   152421   152440   152454   152458   152452   152452 
  152471   152490   152501   152497   152477   152459   152467   152493 
  152513   152518   152521   152529   152536   152533   152533   152540 
  152558   152586   152621   152659   152693   152717   152734   152756 
  152768   152766   152770   152787   152797   152802   152836   152887 
  152934   152983   153031   153071   153112   153162   153207   153242 
  153276   153319   153366   153404   153445   153499   153557   153615 
  153658   153670   153684   153715   153735   153727   153704   153679 
  153655   153631   153598   153557   153511   153461   153393   153326 
  153269   153215   153146   153057   152961   152883   152818   152753 
  152683   152604   152513   152431   152358   152282   152201   152113 
  152018   151938   151883   151825   151762   151719   151688   151650 
  151606   151580   151582   151584   151584   151583   151576   151579 
  151603   151629   151641   151637   151622   151613   151619   151632 
  151634   151636   151648   151669   151707   151761   151816   151865 
  151911   151951   151997   152065   152145   152207   152262   152342 
  152443   152537   152632   152734   152840   152938   153030   153112 
  153196   153289   153378   153458   153531   153593   153640   153686 
  153736   153786   153823   153847   153866   153885   153916   153943 
  153952   153949   153936   153910   153882   153850   153824   153800 
  153770   153738   153706   153690   153690   153697   153694   153679 
  153661   153654   153679   153719   153731   153709   153679   153658 
  153652   153658   153657   153634   153598   153566   153542   153528 
  153519   153501   153473   153455   153453   153449   153441   153431 
  153409   153370   153327   153300   153291   153280   153253   153218 
  153187   153160   153133   153108   153090   153068   153038   152996 
  152953   152914   152865   152809   152748   152686   152617   152531 
  152435   152354   152284   152209   152140   152073   152003   151943 
  151903   151880   151872   151862   151845   151833   151829   151835 
  151850   151860   151875   151904   151937   151972   152011   152042 
  152061   152080   152104   152126   152142   152162   152189   152216 
  152248   152290   152334   152373   152423   152483   152536   152587 
  152648   152709   152766   152817   152867   152934   153013   153076 
  153134   153203   153269   153312   153337   153364   153401   153436 
  153462   153484   153500   153499   153481   153466   153454   153434 
  153409   153392   153372   153350   153328   153297   153250   153185 
  153123   153073   153031   152996   152967   152928   152874   152814 
  152755   152690   152614   152540   152482   152436   152388   152334 
  152274   152211   152154   152115   152091   152072   152047   152008 
  151958   151922   151920   151938   151947   151954   151957   151947 
  151947   151960   151978   151999   152008   152019   152043   152076 
  152112   152151   152189   152234   152293   152354   152417   152487 
  152562   152641   152725   152807   152882   152960   153046   153126 
  153180   153230   153288   153337   153362   153384   153409   153438 
  153465   153484   153486   153478   153463   153438   153403   153361 
  153323   153293   153264   153220   153171   153137   153127   153115 
  153083   153054   153038   153010   152973   152940   152886   152814 
  152755   152698   152632   152570   152524   152494   152481   152470 
  152450   152433   152425   152423   152424   152437   152448   152448 
  152451   152467   152489   152512   152531   152547   152570   152589 
  152616   152676   152751   152820   152888   152949   152988   153022 
  153054   153083   153106   153121   153133   153144   153157   153177 
  153200   153218   153230   153234   153234   153231   153226   153230 
  153233   153225   153206   153176   153138   153100   153064   153045 
  153033   152998   152950   152910   152875   152851   152840   152828 
  152818   152818   152834   152853   152863   152867   152876   152879 
  152880   152886   152887   152888   152901   152913   152925   152944 
  152969   152994   153019   153045   153071   153092   153107   153118 
  153134   153141   153131   153126   153134   153150   153171   153199 
  153230   153250   153254   153257   153262   153260   153243   153230 
  153215   153188   153168   153162   153161   153156   153145   153137 
  153146   153171   153191   153198   153206   153226   153257   153289 
  153310   153320   153338   153369   153395   153414   153445   153477 
  153507   153535   153550   153557   153570   153585   153590   153588 
  153582   153581   153584   153588   153596   153605   153607   153596 
  153576   153558   153547   153519   153461   153382   153303   153233 
  153171   153115   153067   153018   152959   152899   152844   152791 
  152741   152691   152629   152563   152500   152436   152379   152327 
  152278   152238   152207   152180   152157   152143   152135   152122 
  152099   152068   152035   151996   151939   151870   151804   151744 
  151673   151595   151514   151425   151335   151258   151197   151140 
  151077   151001   150927   150859   150799   150761   150753   150753 
  150758   150778   150817   150878   150962   151054   151146   151245 
  151356   151470   151587   151713   151845   151970   152085   152200 
  152317   152431   152531   152612   152675   152732   152786   152829 
  152853   152864   152882   152901   152905   152905   152906   152902 
  152891   152892   152903   152909   152906   152892   152872   152863 
  152863   152864   152874   152879   152868   152857   152852   152841 
  152829   152825   152818   152809   152809   152809   152807   152825 
  152852   152864   152860   152852   152842   152838   152844   152853 
  152867   152883   152895   152902   152913   152933   152956   152975 
  152984   152982   152969   152955   152938   152922   152906   152894 
  152878   152855   152832   152813   152798   152786   152776   152774 
  152780   152775   152739   152695   152659   152624   152594   152577 
  152560   152539   152514   152485   152450   152415   152386   152374 
  152378   152379   152388   152410   152433   152454   152491   152547 
  152612   152685   152761   152834   152918   153014   153110   153204 
  153299   153384   153472   153569   153657   153733   153813   153891 
  153963   154028   154074   154102   154125   154143   154156   154171 
  154190   154206   154222   154240   154263   154282   154290   154290 
  154292   154305   154322   154342   154376   154433   154503   154577 
  154649   154720   154792   154855   154926   155007   155075   155124 
  155163   155190   155210   155235   155252   155254   155237   155191 
  155119   155040   154963   154873   154768   154662   154553   154427 
  154290   154153   154022   153897   153774   153651   153526   153401 
  153283   153164   153038   152899   152743   152572   152401   152239 
  152081   151914   151740   151573   151416   151267   151139   151023 
  150909   150809   150734   150682   150651   150628   150618   150627 
  150655   150699   150751   150809   150876   150952   151042   151136 
  151237   151349   151465   151580   151702   151837   151969   152097 
  152227   152359   152482   152595   152709   152826   152933   153025 
  153117   153215   153310   153399   153489   153584   153671   153743 
  153808   153873   153932   153979   154013   154030   154037   154036 
  154014   153968   153913   153856   153793   153716   153623   153513 
  153393   153262   153118   152964   152807   152639   152463   152289 
  152109   151918   151731   151557   151393   151244   151104   150973 
  150861   150761   150673   150608   150569   150556   150558   150568 
  150588   150616   150657   150709   150763   150820   150896   150992 
  151098   151216   151343   151476   151622   151780   151949   152122 
  152293   152463   152635   152801   152961   153122   153274   153416 
  153554   153685   153814   153933   154032   154118   154202   154271 
  154330   154383   154417   154438   154465   154492   154511   154514 
  154503   154489   154480   154472   154469   154468   154460   154449 
  154440   154425   154404   154386   154363   154329   154286   154232 
  154167   154103   154041   153971   153891   153809   153729   153655 
  153584   153508   153427   153341   153245   153138   153023   152895 
  152753   152608   152460   152317   152180   152049   151929   151821 
  151722   151640   151584   151549   151517   151490   151475   151465 
  151461   151464   151467   151463   151459   151460   151471   151497 
  151530   151561   151590   151622   151657   151694   151734   151773 
  151800   151818   151842   151870   151900   151927   151953   151974 
  151991   152016   152055   152105   152157   152209   152271   152346 
  152423   152497   152574   152662   152759   152853   152942   153023 
  153092   153148   153188   153218   153253   153289   153307   153306 
  153296   153279   153256   153227   153191   153148   153099   153053 
  153021   153003   152991   152980   152976   152977   152980   152988 
  153000   153004   152999   152996   152995   152995   153002   153011 
  153018   153031   153048   153058   153067   153075   153079   153080 
  153087   153099   153123   153149   153176   153207   153246   153288 
  153333   153374   153415   153454   153499   153549   153600   153650 
  153696   153732   153766   153798   153821   153837   153843   153836 
  153820   153800   153770   153733   153705   153693   153689   153682 
  153671   153663   153666   153678   153688   153689   153675   153655 
  153646   153638   153619   153588   153554   153515   153462   153407 
  153361   153320   153277   153237   153200   153166   153131   153095 
  153063   153044   153033   153021   153015   153011   152995   152973 
  152963   152965   152976   152994   153004   153004   152998   152996 
  152998   152994   152980   152964   152952   152936   152913   152891 
  152868   152851   152838   152828   152820   152811   152805   152803 
  152802   152793   152779   152767   152748   152725   152694   152651 
  152602   152558   152514   152471   152433   152398   152359   152319 
  152292   152285   152277   152265   152258   152250   152238   152228 
  152221   152223   152230   152238   152243   152243   152240   152240 
  152244   152244   152235   152220   152208   152200   152192   152180 
  152174   152174   152173   152176   152189   152216   152251   152296 
  152342   152396   152459   152528   152604   152675   152741   152806 
  152860   152898   152933   152969   153002   153027   153048   153063 
  153065   153056   153030   152990   152942   152898   152852   152797 
  152733   152666   152598   152541   152487   152429   152378   152336 
  152304   152277   152248   152228   152227   152239   152257   152281 
  152321   152373   152423   152478   152545   152614   152685   152764 
  152840   152910   152980   153050   153112   153173   153238   153299 
  153351   153399   153442   153486   153531   153569   153601   153630 
  153654   153669   153678   153694   153724   153748   153762   153775 
  153789   153797   153800   153800   153790   153779   153771   153762 
  153747   153731   153723   153727   153736   153756   153786   153814 
  153836   153851   153862   153868   153874   153883   153895   153900 
  153890   153871   153852   153833   153814   153797   153782   153766 
  153746   153721   153701   153690   153684   153673   153654   153632 
  153619   153611   153601   153590   153574   153550   153523   153492 
  153451   153399   153339   153277   153212   153141   153067   152988 
  152906   152825   152741   152651   152564   152489   152419   152350 
  152288   152234   152194   152162   152128   152100   152078   152064 
  152051   152039   152020   151996   151977   151961   151946   151939 
  151933   151918   151911   151916   151923   151920   151923   151938 
  151958   151984   152019   152059   152108   152158   152203   152246 
  152294   152343   152390   152433   152470   152504   152537   152568 
  152595   152618   152631   152636   152643   152647   152643   152640 
  152641   152639   152625   152604   152583   152563   152544   152523 
  152497   152458   152401   152342   152285   152228   152177   152132 
  152093   152059   152035   152020   152010   151995   151984   151983 
  151977   151966   151957   151956   151958   151966   151981   151996 
  152016   152049   152093   152140   152197   152265   152332   152396 
