Origin Time       2025/01/13 21:19:00
Lat.              31.8
Long.             131.6
Depth. (km)       30
Mag.              6.9
Station Code      HRSH15
Station Lat.      34.1161
Station Long.     132.5053
Station Height(m) 180
Record Time       2025/01/13 21:20:20
Sampling Freq(Hz) 100Hz
Duration Time(s)  145
Dir.              6
Scale Factor      7845(gal)/8223790
Max. Acc. (gal)   1.488
Last Correction   2025/01/13 21:20:20
Memo.             
[...]
   17936    17928    17986    18010    17952    17946    18036    18084 
   18046    17992    17969    18006    18060    18041    18009    18079 
   18169    18142    18046    18002    17979    17888    17787    17784 
   17864    17949    18022    18090    18164    18215    18203    18165 
   18153    18119    18046    18030    18100    18154    18108    17969 
   17834    17830    17930    17967    17911    17888    17944    18025 
   18087    18091    18076    18133    18187    18134    18103    18184 
   18225    18123    18000    17961    17987    18031    18052    18011 
   17960    17983    18023    18002    17968    17961    17945    17960 
   18042    18100    18084    18057    18031    17964    17886    17859 
   17844    17821    17848    17903    17949    18029    18104    18095 
   18065    18096    18133    18090    17984    17892    17849    17829 
   17797    17783    17825    17859    17828    17779    17772    17818 
   17880    17915    17965    18091    18233    18303    18311    18306 
   18262    18173    18096    18058    18015    17988    18014    18021 
   17983    17953    17911    17828    17774    17828    17948    18003 
   17972    17986    18079    18158    18171    18129    18063    18030 
   18108    18279    18345    18235    18183    18243    18198    18063 
   18044    18137    18207    18188    18146    18203    18297    18270 
   18160    18085    18044    18029    18045    18023    17946    17892 
   17875    17824    17753    17732    17695    17577    17523    17648 
   17810    17859    17829    17836    17928    17984    17910    17849 
   17895    17907    17833    17805    17837    17837    17809    17818 
   17888    17998    18083    18083    18058    18106    18176    18210 
   18270    18334    18306    18223    18188    18195    18176    18152 
   18179    18230    18272    18289    18231    18114    18027    17982 
   17973    18036    18092    18040    17933    17888    17933    17992 
   17965    17884    17832    17772    17659    17550    17496    17487 
   17516    17587    17652    17664    17668    17726    17811    17879 
   17945    18045    18115    18081    18042    18115    18216    18245 
   18227    18211    18202    18191    18212    18269    18292    18262 
   18223    18206    18261    18385    18432    18312    18169    18114 
   18030    17883    17830    17874    17876    17852    17860    17895 
   17968    18064    18095    18072    18079    18069    17968    17905 
   17956    17980    17942    17929    17891    17833    17910    18073 
   18139    18130    18148    18133    18045    17977    17963    17964 
   18011    18080    18083    18068    18087    18048    17976    17999 
   18056    18071    18099    18092    18009    17995    18088    18099 
   17980    17915    17937    17878    17756    17761    17865    17892 
   17847    17824    17872    17991    18088    18112    18160    18245 
   18291    18308    18311    18291    18277    18280    18280    18274 
   18270    18252    18144    17956    17833    17840    17829    17717 
   17609    17593    17660    17743    17776    17797    17867    17930 
   17952    17988    18057    18106    18072    17938    17783    17710 
   17720    17745    17790    17871    17965    18058    18164    18266 
   18312    18287    18222    18162    18131    18077    17987    17963 
   18027    18079    18085    18106    18133    18098    17975    17844 
   17811    17802    17662    17478    17421    17440    17446    17448 
   17448    17481    17586    17705    17770    17806    17847    17867 
   17895    17998    18111    18119    18045    18000    18004    17979 
   17895    17824    17803    17790    17775    17807    17844    17805 
   17736    17725    17798    17906    17963    17987    18099    18285 
   18393    18395    18414    18496    18522    18424    18353    18409 
   18470    18405    18261    18150    18110    18108    18125    18123 
   18077    18065    18160    18296    18370    18391    18415    18414 
   18342    18273    18279    18283    18218    18119    18006    17884 
   17811    17776    17739    17753    17848    17933    17955    17979 
   18050    18114    18135    18158    18146    18063    17991    17957 
   17928    17977    18111    18184    18196    18246    18276    18220 
   18141    18085    18049    18045    18058    18052    18031    18027 
   18027    18026    18084    18187    18262    18277    18207    18094 
   18042    18017    17909    17776    17736    17783    17872    17976 
   18015    17975    17945    17945    17915    17887    17886    17867 
   17883    18014    18173    18250    18252    18223    18219    18226 
   18183    18135    18129    18102    18037    17975    17967    18037 
   18130    18193    18274    18380    18416    18373    18337    18281 
   18141    18018    18015    18040    18011    18019    18081    18084 
   18015    17988    18037    18075    18052    18042    18087    18103 
   18084    18123    18231    18382    18519    18536    18493    18505 
   18497    18389    18214    18040    17988    18056    18072    18021 
   18034    18087    18080    18050    18079    18138    18115    17991 
   17857    17770    17698    17633    17597    17618    17676    17631 
   17483    17459    17572    17609    17572    17639    17774    17821 
   17784    17784    17828    17847    17852    17887    17964    18099 
   18200    18168    18112    18137    18107    17980    17928    17977 
   17991    17964    17968    18014    18119    18222    18230    18249 
   18395    18535    18501    18300    18067    17963    17977    17963 
   17936    18050    18260    18370    18368    18366    18381    18369 
   18328    18276    18218    18142    18014    17910    17945    18045 
   18069    18079    18146    18180    18102    17940    17783    17721 
   17728    17721    17709    17712    17701    17709    17780    17894 
   17990    18029    18049    18088    18118    18146    18137    17957 
   17690    17585    17640    17703    17794    17928    18034    18123 
   18211    18254    18274    18291    18284    18264    18243    18222 
   18149    17995    17906    17964    18033    18085    18179    18200 
   18112    18023    17956    17914    17922    17926    17948    18056 
   18165    18171    18142    18144    18134    18141    18158    18069 
   17929    17888    17890    17851    17859    17911    17919    17917 
   17952    17952    17880    17821    17848    17887    17830    17755 
   17826    18019    18133    18084    18025    18075    18110    18045 
   17982    17914    17774    17660    17666    17698    17676    17667 
   17761    17968    18193    18320    18315    18265    18237    18203 
   18139    18103    18125    18117    18038    17963    17898    17811 
   17787    17833    17828    17775    17778    17832    17894    17956 
   18003    18023    18003    17949    17926    17955    17965    17946 
   17946    17922    17844    17806    17871    17986    18102    18177 
   18142    18030    18025    18179    18287    18242    18192    18191 
   18168    18204    18354    18473    18490    18503    18535    18493 
   18373    18254    18134    17992    17902    17894    17905    17898 
   17915    17994    18056    18018    17933    17906    17964    18049 
   18029    17865    17774    17869    17946    17899    17872    17925 
   17984    18036    18092    18118    18072    17996    17965    17996 
   18019    17965    17864    17815    17837    17855    17879    18003 
   18166    18204    18118    18040    18041    18100    18100    17950 
   17790    17787    17847    17855    17856    17909    17998    18029 
   17934    17799    17767    17828    17855    17861    17933    17964 
   17857    17732    17706    17775    17837    17741    17550    17510 
   17618    17706    17794    17938    18096    18229    18299    18339 
   18392    18353    18179    18002    17909    17892    17933    17987 
   18052    18171    18258    18175    18023    18030    18127    18153 
   18189    18279    18310    18270    18211    18161    18165    18192 
   18198    18196    18193    18165    18099    18007    17994    18130 
   18301    18357    18285    18179    18154    18185    18149    18042 
   17942    17832    17712    17697    17802    17875    17876    17913 
   18000    18034    17972    17872    17811    17852    17932    17911 
   17869    18003    18175    18152    18076    18102    18090    18015 
   18007    18072    18127    18104    17977    17848    17821    17852 
   17851    17832    17859    17871    17778    17645    17597    17670 
   17787    17798    17712    17710    17772    17717    17590    17559 
   17604    17679    17849    18037    18081    18072    18189    18351 
   18358    18245    18165    18114    18050    18004    17972    17933 
   17896    17864    17840    17815    17793    17803    17886    18045 
   18203    18245    18206    18211    18262    18301    18306    18208 
   18033    17980    18098    18169    18096    18068    18216    18381 
   18362    18229    18138    18103    18063    17986    17922    17946 
   18017    18056    18111    18227    18292    18189    18034    18027 
   18117    18096    17950    17849    17907    18007    17932    17744 
   17734    17898    17967    17949    18007    18085    18060    17937 
   17841    17911    18080    18125    17961    17728    17613    17614 
   17574    17560    17693    17740    17616    17618    17803    17902 
   17855    17860    18017    18118    17999    17886    17980    18076 
   17969    17793    17780    17968    18166    18207    18146    18130 
   18164    18179    18233    18350    18385    18331    18347    18382 
   18343    18301    18229    18114    18115    18198    18183    18129 
   18164    18246    18280    18243    18206    18196    18141    18071 
   18096    18156    18110    17999    17980    18094    18223    18289 
   18245    18067    17932    17960    17909    17695    17631    17783 
   17838    17724    17691    17820    17973    18099    18214    18289 
   18357    18432    18404    18212    17964    17749    17622    17666 
   17790    17807    17775    17813    17872    17949    18034    18031 
   18013    18087    18117    18046    18108    18380    18571    18536 
   18515    18596    18592    18515    18490    18449    18360    18361 
   18470    18542    18524    18458    18339    18211    18176    18235 
   18308    18374    18427    18403    18357    18404    18442    18349 
   18226    18154    18125    18203    18353    18368    18233    18111 
   18026    17976    18026    18110    18085    18010    18034    18118 
   18129    18099    18077    18019    17980    18045    18094    18046 
   17998    17956    17909    17965    18084    18090    18006    17996 
   18084    18095    17999    18029    18185    18219    18152    18122 
   18072    17991    18000    18126    18280    18414    18517    18513 
   18351    18156    18034    17977    18017    18100    18068    17923 
   17782    17674    17674    17863    18114    18235    18261    18315 
   18293    18068    17810    17744    17837    17969    18083    18184 
   18311    18395    18312    18156    18065    17950    17817    17864 
   18054    18158    18119    18010    17895    17838    17883    17983 
   18004    17930    17933    18023    18037    17988    17969    17980 
   18018    18046    18003    17952    18010    18145    18210    18119 
   17952    17849    17834    17847    17892    17988    18060    18010 
   17869    17813    17878    17884    17767    17652    17601    17566 
   17539    17547    17583    17608    17572    17548    17706    17930 
   17913    17752    17730    17775    17716    17608    17564    17620 
   17721    17772    17761    17784    17872    17921    17891    17872 
   17910    17988    18013    17834    17579    17508    17564    17552 
   17498    17518    17597    17629    17663    17798    17888    17807 
   17779    17942    18079    18013    17817    17678    17675    17651 
   17536    17577    17832    18017    17998    17847    17666    17597 
   17626    17599    17574    17691    17828    17809    17689    17637 
   17705    17740    17705    17759    17886    17888    17803    17801 
   17810    17739    17710    17798    17921    18010    17975    17783 
   17664    17747    17784    17662    17631    17840    18063    18022 
   17810    17732    17818    17815    17637    17498    17560    17631 
   17483    17315    17427    17689    17778    17722    17734    17829 
   17933    18013    17990    17895    17867    17871    17805    17741 
   17759    17798    17856    18011    18150    18077    17949    18071 
   18296    18303    18148    18076    18119    18134    18071    18072 
   18200    18303    18320    18364    18430    18450    18443    18447 
   18457    18453    18470    18516    18499    18362    18257    18327 
   18443    18451    18461    18522    18463    18262    18121    18121 
   18145    18145    18175    18180    18088    17957    17861    17795 
   17729    17676    17706    17821    17934    18011    18033    17984 
   17898    17801    17767    17849    17887    17786    17728    17806 
   17901    17944    17972    18022    18046    17991    17911    17909 
   18042    18246    18303    18157    18099    18234    18308    18266 
   18247    18218    18118    18022    17991    18004    18046    18160 
   18316    18439    18569    18702    18732    18725    18809    18881 
   18862    18850    18867    18873    18847    18814    18943    19298 
   19579    19541    19398    19398    19422    19292    19063    18867 
   18724    18577    18470    18489    18549    18478    18268    18126 
   18216    18418    18504    18384    18137    17948    17834    17672 
   17571    17701    17930    18050    17976    17766    17645    17697 
   17713    17707    17842    17972    17918    17791    17705    17641 
   17591    17545    17473    17428    17494    17605    17612    17521 
   17485    17554    17651    17685    17643    17632    17702    17718 
   17663    17702    17882    18096    18229    18265    18324    18380 
   18284    18180    18260    18320    18172    18017    18023    18083 
   18099    18087    18018    17911    17879    17928    17945    17884 
   17798    17717    17628    17532    17444    17402    17385    17319 
   17280    17350    17436    17504    17635    17776    17859    17972 
   18173    18426    18669    18793    18760    18634    18474    18339 
   18254    18208    18256    18355    18316    18123    17964    17963 
   18085    18222    18303    18314    18288    18279    18231    18084 
   17905    17791    17784    17828    17803    17697    17608    17601 
   17639    17633    17613    17705    17857    17898    17898    17998 
   18110    18137    18129    18168    18261    18319    18280    18149 
   18014    18021    18085    18003    17898    17960    18029    17922 
   17734    17594    17467    17305    17154    17112    17193    17253 
   17189    17130    17182    17220    17154    17147    17297    17421 
   17398    17347    17358    17408    17496    17610    17725    17871 
   18049    18171    18231    18360    18534    18577    18538    18593 
   18669    18605    18424    18193    18026    18100    18347    18469 
   18400    18326    18279    18158    18064    18133    18225    18246 
   18308    18370    18373    18407    18380    18207    18150    18310 
   18443    18512    18632    18693    18546    18323    18222    18177 
   18103    18157    18331    18368    18269    18231    18241    18225 
   18226    18287    18370    18418    18385    18326    18354    18449 
   18472    18415    18380    18370    18310    18180    18010    17861 
   17828    17905    18003    18138    18310    18372    18328    18358 
   18476    18551    18555    18505    18407    18330    18269    18181 
   18156    18234    18311    18382    18534    18677    18630    18420 
   18233    18137    18104    18092    18048    17941    17784    17655 
   17658    17766    17832    17794    17734    17718    17675    17560 
   17432    17323    17219    17147    17132    17163    17228    17311 
   17348    17300    17263    17339    17432    17454    17509    17640 
   17720    17757    17868    18007    18117    18243    18331    18300 
   18241    18277    18389    18442    18365    18283    18320    18366 
   18289    18154    18092    18102    18087    18010    17923    17861 
   17818    17799    17799    17788    17760    17770    17815    17806 
   17772    17801    17871    17937    17953    17888    17856    17928 
   17995    18026    18076    18129    18193    18311    18463    18603 
   18671    18650    18584    18473    18243    17969    17882    18034 
   18206    18210    18103    18041    18073    18130    18115    18049 
   18031    18021    17926    17797    17697    17659    17725    17757 
   17645    17628    17806    17918    17919    17969    17979    17868 
   17779    17751    17679    17578    17550    17614    17721    17820 
   17918    17988    17941    17817    17801    17936    18046    18025 
   17996    18060    18137    18179    18211    18198    18142    18161 
   18242    18223    18146    18158    18203    18203    18196    18187 
   18207    18297    18360    18341    18350    18420    18449    18438 
   18424    18331    18184    18162    18231    18196    18088    18060 
   18058    17992    17946    17967    17914    17748    17658    17761 
   17884    17857    17778    17791    17841    17817    17748    17757 
   17855    17891    17817    17768    17821    17833    17713    17624 
   17668    17694    17662    17691    17745    17709    17647    17666 
   17705    17685    17644    17556    17401    17344    17424    17467 
   17477    17544    17655    17832    18010    18045    17998    18009 
   18061    18072    18000    17918    17922    17949    17886    17813 
   17882    18038    18095    18030    18031    18199    18388    18445 
   18397    18373    18450    18554    18513    18377    18401    18582 
   18662    18586    18520    18517    18495    18384    18242    18212 
   18353    18496    18412    18202    18216    18446    18497    18284 
   18126    18175    18279    18315    18315    18293    18219    18122 
   18060    18000    17922    17879    17849    17775    17740    17763 
   17741    17703    17734    17794    17841    17825    17716    17647 
   17706    17749    17701    17663    17672    17652    17577    17496 
   17451    17458    17489    17490    17451    17409    17381    17379 
   17413    17463    17491    17493    17551    17699    17795    17787 
   17788    17822    17857    17928    17984    17957    17936    18037 
   18193    18242    18212    18262    18385    18453    18458    18482 
   18504    18442    18334    18279    18292    18335    18370    18365 
   18338    18368    18420    18364    18254    18247    18326    18418 
   18489    18495    18501    18555    18558    18500    18486    18499 
   18493    18511    18558    18573    18586    18658    18719    18702 
   18659    18616    18571    18562    18539    18432    18331    18308 
   18304    18293    18311    18315    18243    18111    17977    17890 
   17824    17767    17768    17814    17828    17820    17878    17995 
   18090    18144    18164    18118    18013    17907    17844    17803 
   17744    17726    17833    17952    17976    18014    18081    18054 
