Origin Time       2025/01/13 21:19:00
Lat.              31.8
Long.             131.6
Depth. (km)       30
Mag.              6.9
Station Code      HRSH01
Station Lat.      34.3736
Station Long.     133.0236
Station Height(m) -170.3
Record Time       2025/01/13 21:20:32
Sampling Freq(Hz) 100Hz
Duration Time(s)  132
Dir.              3
Scale Factor      2942(gal)/8224139
Max. Acc. (gal)   1.232
Last Correction   2025/01/13 21:20:32
Memo.             
[...]
   30757    30762    30851    30932    30951    30931    30925    30964 
   30996    30991    31024    31143    31284    31376    31419    31432 
   31430    31455    31480    31463    31418    31368    31313    31260 
   31234    31221    31213    31212    31189    31137    31097    31045 
   30955    30881    30855    30861    30866    30831    30775    30757 
   30759    30754    30757    30746    30708    30682    30663    30613 
   30543    30491    30457    30418    30364    30327    30329    30330 
   30289    30229    30211    30253    30314    30358    30388    30412 
   30433    30439    30458    30539    30657    30744    30792    30836 
   30894    30947    30989    31035    31060    31060    31071    31099 
   31129    31168    31197    31186    31186    31245    31306    31313 
   31299    31287    31272    31284    31303    31271    31236    31288 
   31374    31380    31297    31186    31116    31124    31185    31237 
   31275    31325    31392    31444    31446    31432    31438    31469 
   31495    31464    31383    31324    31284    31224    31160    31120 
   31064    30962    30854    30790    30784    30808    30820    30802 
   30771    30748    30730    30690    30667    30690    30713    30717 
   30716    30709    30712    30707    30682    30696    30739    30744 
   30740    30748    30712    30649    30649    30715    30785    30823 
   30848    30910    30990    31052    31131    31230    31290    31293 
   31291    31293    31255    31197    31167    31143    31087    31032 
   30996    30960    30937    30942    30939    30937    30978    31029 
   31032    31001    30964    30908    30844    30831    30871    30947 
   31050    31128    31129    31108    31126    31166    31195    31240 
   31313    31399    31486    31581    31645    31641    31634    31657 
   31660    31635    31588    31523    31498    31509    31496    31468 
   31445    31402    31347    31328    31311    31253    31179    31085 
   30973    30916    30909    30879    30836    30812    30778    30715 
   30635    30562    30503    30472    30499    30547    30553    30551 
   30581    30584    30554    30562    30604    30649    30692    30717 
   30751    30821    30879    30886    30893    30946    31024    31095 
   31159    31243    31349    31446    31533    31621    31692    31746 
   31789    31810    31812    31812    31795    31764    31764    31791 
   31757    31653    31554    31490    31446    31414    31402    31413 
   31421    31423    31410    31352    31291    31268    31233    31163 
   31097    31074    31085    31102    31121    31136    31106    31040 
   30987    30978    31018    31064    31071    31050    31014    30970 
   30924    30885    30896    30944    30971    31008    31086    31160 
   31225    31293    31336    31355    31382    31428    31450    31445 
   31456    31494    31553    31642    31712    31734    31752    31762 
   31735    31688    31622    31550    31483    31406    31340    31288 
   31213    31144    31113    31085    31032    30973    30936    30921 
   30890    30839    30792    30769    30781    30807    30813    30782 
   30738    30711    30681    30639    30638    30667    30694    30721 
   30732    30704    30649    30581    30531    30519    30550    30624 
   30711    30759    30781    30801    30808    30794    30782    30781 
   30774    30773    30790    30796    30742    30642    30559    30514 
   30461    30397    30354    30316    30246    30137    30019    29929 
   29863    29797    29725    29666    29629    29613    29605    29601 
   29597    29590    29583    29587    29578    29538    29492    29474 
   29497    29536    29565    29596    29628    29667    29748    29890 
   30053    30188    30316    30450    30573    30731    30915    31054 
   31172    31309    31448    31603    31795    31985    32161    32335 
   32487    32599    32698    32811    32918    32980    32991    32960 
   32883    32784    32702    32632    32570    32521    32478    32435 
   32402    32355    32281    32213    32142    32038    31930    31837 
   31750    31691    31652    31631    31635    31608    31546    31537 
   31591    31644    31692    31753    31807    31870    31947    31997 
   32013    32030    32063    32130    32221    32298    32335    32344 
   32354    32364    32351    32304    32273    32282    32282    32229 
   32157    32096    32036    31965    31892    31824    31762    31702 
   31615    31513    31456    31461    31476    31473    31459    31442 
   31436    31422    31403    31410    31403    31338    31260    31201 
   31158    31128    31098    31063    31044    31032    31014    30985 
   30947    30909    30859    30796    30742    30701    30665    30627 
   30586    30542    30488    30422    30358    30310    30275    30250 
   30219    30192    30173    30159    30157    30177    30208    30254 
   30321    30381    30433    30510    30605    30653    30650    30630 
   30609    30618    30655    30703    30755    30812    30861    30898 
   30931    30967    31010    31055    31089    31104    31120    31163 
   31224    31248    31244    31267    31324    31365    31374    31371 
   31361    31326    31282    31267    31276    31283    31248    31172 
   31095    30996    30863    30744    30638    30546    30487    30439 
   30380    30296    30181    30073    29980    29880    29770    29650 
   29539    29448    29336    29219    29155    29108    29049    29012 
   28981    28941    28929    28949    28976    29003    29057    29134 
   29201    29262    29317    29369    29452    29569    29668    29756 
   29856    29943    30007    30083    30163    30211    30250    30311 
   30370    30402    30407    30402    30414    30457    30500    30514 
   30515    30534    30546    30532    30524    30523    30503    30474 
   30447    30420    30408    30418    30447    30469    30464    30460 
   30488    30524    30550    30586    30643    30688    30705    30713 
   30719    30717    30723    30732    30735    30727    30713    30685 
   30632    30580    30547    30538    30546    30550    30539    30535 
   30550    30577    30615    30654    30688    30732    30800    30871 
   30924    30971    31021    31048    31052    31081    31141    31203 
   31263    31324    31369    31413    31469    31518    31538    31540 
   31534    31519    31509    31507    31496    31486    31491    31506 
   31538    31603    31673    31723    31792    31892    31981    32043 
   32093    32135    32186    32246    32289    32310    32323    32327 
   32301    32236    32171    32144    32132    32090    32035    31982 
   31923    31880    31862    31831    31803    31799    31784    31750 
   31729    31718    31698    31680    31684    31685    31654    31623 
   31631    31629    31587    31573    31596    31588    31561    31540 
   31515    31521    31560    31587    31612    31671    31738    31795 
   31835    31869    31916    31977    32057    32143    32217    32286 
   32340    32358    32360    32368    32383    32397    32391    32362 
   32329    32281    32217    32182    32182    32185    32190    32205 
   32238    32281    32308    32310    32300    32285    32293    32333 
   32364    32382    32422    32476    32506    32508    32494    32462 
   32417    32377    32350    32319    32274    32228    32184    32136 
   32082    32012    31923    31842    31768    31681    31603    31542 
   31471    31378    31299    31259    31239    31221    31193    31159 
   31124    31082    31033    30983    30940    30883    30812    30765 
   30735    30667    30593    30539    30458    30339    30226    30137 
   30073    30049    30049    30019    29960    29932    29932    29920 
   29909    29897    29857    29802    29756    29722    29689    29641 
   29592    29554    29517    29473    29415    29350    29297    29259 
   29228    29204    29182    29153    29137    29153    29188    29238 
   29286    29303    29299    29307    29328    29344    29361    29378 
   29419    29490    29554    29614    29710    29803    29864    29920 
   29955    29953    29968    30022    30082    30145    30198    30213 
   30240    30303    30364    30419    30481    30508    30485    30457 
   30429    30385    30341    30299    30253    30221    30206    30165 
   30084    30002    29932    29853    29766    29689    29621    29556 
   29513    29505    29521    29571    29666    29772    29875    29987 
   30091    30177    30276    30379    30473    30600    30761    30917 
   31059    31182    31278    31367    31465    31550    31607    31649 
   31685    31704    31707    31711    31726    31749    31785    31820 
   31837    31857    31903    31959    32003    32043    32101    32178 
   32269    32344    32387    32408    32414    32401    32385    32398 
   32422    32414    32370    32314    32256    32202    32138    32042 
   31930    31823    31749    31722    31707    31679    31652    31612 
   31557    31515    31482    31423    31356    31280    31166    31018 
   30885    30782    30690    30596    30516    30462    30435    30429 
   30426    30427    30430    30449    30499    30546    30565    30580 
   30608    30651    30707    30771    30855    30963    31072    31176 
   31294    31423    31548    31657    31749    31831    31912    31972 
   31982    31958    31938    31919    31865    31787    31722    31661 
   31581    31498    31436    31391    31367    31391    31448    31480 
   31488    31499    31495    31465    31418    31356    31294    31243 
   31185    31114    31043    30989    30975    30994    31028    31079 
   31126    31151    31201    31294    31391    31479    31563    31633 
   31679    31696    31706    31742    31787    31804    31812    31818 
   31803    31783    31753    31706    31644    31580    31513    31432 
   31333    31213    31072    30931    30808    30717    30646    30593 
   30577    30578    30582    30615    30670    30739    30827    30924 
   31032    31159    31284    31386    31460    31549    31680    31804 
   31887    31961    32035    32067    32058    32051    32058    32031 
   31955    31878    31801    31684    31541    31415    31284    31135 
   31014    30942    30878    30817    30777    30746    30701    30635 
   30554    30483    30451    30445    30439    30427    30399    30349 
   30300    30261    30234    30219    30214    30219    30237    30254 
   30262    30249    30206    30149    30105    30052    29976    29889 
   29798    29705    29606    29508    29434    29385    29350    29330 
   29319    29319    29335    29355    29384    29434    29492    29546 
   29613    29708    29822    29952    30095    30244    30384    30515 
   30651    30785    30900    30993    31070    31133    31189    31226 
   31230    31221    31228    31264    31309    31348    31402    31475 
   31560    31650    31727    31797    31891    31980    32026    32035 
   32030    31999    31930    31842    31756    31653    31529    31374 
   31183    30982    30781    30577    30391    30235    30090    29941 
   29812    29721    29678    29663    29663    29697    29785    29901 
   30006    30117    30240    30331    30384    30437    30505    30566 
   30591    30603    30638    30672    30676    30665    30645    30608 
   30569    30538    30515    30510    30522    30538    30545    30534 
   30516    30515    30523    30530    30564    30638    30731    30832 
   30940    31059    31186    31314    31438    31585    31760    31934 
   32116    32301    32459    32602    32738    32830    32887    32933 
   32952    32953    32954    32937    32898    32863    32829    32778 
   32718    32656    32583    32493    32401    32323    32235    32131 
   32024    31904    31757    31596    31444    31311    31186    31047 
   30897    30763    30640    30511    30388    30292    30223    30159 
   30086    30037    30024    30009    29972    29929    29872    29814 
   29797    29802    29782    29754    29741    29736    29739    29747 
   29740    29728    29735    29762    29803    29852    29911    29997 
   30102    30229    30384    30553    30728    30925    31129    31324 
   31521    31711    31892    32071    32227    32351    32454    32530 
   32590    32651    32715    32775    32836    32903    32960    33010 
   33069    33137    33203    33266    33316    33347    33370    33377 
   33339    33269    33208    33154    33084    33002    32906    32771 
   32597    32405    32206    32008    31814    31619    31432    31263 
   31106    30964    30821    30666    30553    30497    30454    30399 
   30345    30300    30264    30237    30227    30237    30246    30249 
   30242    30230    30235    30257    30283    30308    30342    30373 
   30402    30445    30512    30570    30603    30616    30643    30694 
   30735    30758    30786    30809    30809    30798    30794    30802 
   30819    30836    30836    30820    30817    30823    30801    30767 
   30751    30777    30835    30898    30963    31044    31131    31214 
   31298    31392    31510    31642    31769    31880    31977    32071 
   32171    32266    32337    32401    32468    32530    32589    32653 
   32722    32807    32922    33052    33154    33219    33258    33264 
   33249    33228    33174    33081    32967    32821    32648    32474 
   32301    32132    31961    31768    31564    31352    31133    30897 
   30630    30358    30099    29830    29556    29301    29066    28850 
   28645    28445    28270    28134    28023    27918    27819    27747 
   27700    27661    27637    27621    27599    27583    27577    27594 
   27641    27711    27800    27913    28055    28228    28418    28620 
   28823    29026    29231    29446    29664    29882    30094    30287 
   30485    30715    30963    31212    31456    31693    31912    32101 
   32274    32432    32566    32678    32782    32876    32950    32998 
   33015    33007    32975    32915    32829    32718    32603    32510 
   32424    32320    32217    32134    32042    31926    31796    31687 
   31600    31511    31430    31372    31307    31220    31124    31032 
   30956    30902    30856    30804    30738    30663    30585    30508 
   30433    30350    30280    30235    30199    30160    30137    30132 
   30122    30107    30105    30111    30123    30123    30095    30063 
   30060    30068    30073    30084    30111    30159    30233    30330 
   30450    30591    30750    30910    31050    31170    31305    31460 
   31602    31723    31846    31961    32047    32119    32188    32246 
   32286    32302    32305    32317    32347    32382    32409    32439 
   32486    32551    32606    32641    32665    32694    32710    32699 
   32675    32638    32580    32535    32491    32428    32352    32246 
   32100    31946    31793    31641    31488    31322    31149    30991 
   30840    30708    30604    30501    30393    30292    30202    30141 
   30107    30061    29997    29924    29856    29805    29749    29693 
   29659    29647    29656    29698    29781    29889    30013    30141 
   30272    30406    30542    30681    30813    30929    31035    31125 
   31198    31274    31356    31425    31469    31499    31534    31580 
   31599    31583    31563    31546    31513    31457    31394    31322 
   31244    31163    31071    30967    30863    30761    30661    30561 
   30462    30365    30273    30196    30154    30149    30136    30107 
   30096    30110    30140    30186    30245    30326    30422    30499 
   30555    30615    30680    30744    30796    30823    30832    30836 
   30838    30835    30824    30804    30780    30758    30746    30738 
   30724    30724    30742    30758    30762    30770    30789    30808 
   30811    30792    30762    30747    30734    30699    30640    30574 
   30516    30480    30443    30384    30318    30256    30191    30137 
   30110    30095    30073    30057    30053    30053    30067    30096 
   30125    30157    30203    30267    30346    30431    30511    30601 
   30711    30832    30950    31051    31148    31271    31405    31537 
   31679    31823    31957    32081    32190    32293    32393    32491 
   32599    32698    32759    32794    32817    32817    32784    32722 
   32652    32582    32495    32385    32278    32186    32084    31959 
   31845    31746    31648    31560    31486    31403    31322    31260 
   31201    31153    31118    31086    31075    31093    31118    31136 
   31141    31145    31143    31118    31095    31071    31024    30969 
   30917    30867    30821    30782    30757    30740    30724    30713 
   30704    30696    30697    30709    30731    30765    30813    30870 
   30933    30991    31041    31097    31156    31205    31241    31267 
   31286    31305    31329    31344    31340    31332    31329    31317 
   31287    31251    31205    31151    31099    31043    30990    30951 
   30893    30809    30732    30662    30592    30541    30519    30505 
   30495    30491    30481    30473    30483    30495    30508    30530 
   30538    30535    30538    30541    30559    30593    30612    30626 
   30627    30604    30576    30538    30480    30424    30377    30333 
   30284    30229    30163    30105    30059    30014    29968    29922 
   29884    29852    29822    29795    29766    29736    29713    29690 
   29678    29694    29720    29737    29754    29781    29826    29878 
   29921    29964    30018    30073    30123    30177    30227    30264 
   30294    30321    30348    30376    30402    30430    30461    30496 
   30539    30580    30613    30665    30734    30811    30890    30969 
   31045    31131    31225    31325    31417    31492    31567    31639 
   31693    31737    31787    31845    31899    31935    31961    31992 
   32027    32051    32057    32059    32069    32073    32062    32040 
   32011    31973    31928    31870    31793    31719    31654    31581 
   31510    31438    31357    31275    31199    31135    31085    31052 
   31035    31023    31021    31028    31045    31085    31156    31252 
   31334    31394    31464    31546    31604    31634    31656    31671 
   31676    31684    31696    31695    31677    31648    31604    31553 
   31492    31414    31320    31222    31131    31045    30967    30894 
   30832    30789    30751    30709    30663    30628    30615    30600 
   30586    30589    30601    30627    30662    30697    30750    30825 
   30908    30989    31068    31140    31207    31267    31314    31364 
   31419    31468    31492    31479    31433    31380    31337    31290 
   31233    31172    31114    31059    31001    30936    30875    30819 
   30761    30703    30655    30632    30618    30600    30600    30623 
   30657    30696    30740    30792    30839    30875    30905    30946 
   31008    31064    31098    31114    31137    31171    31195    31213 
   31232    31253    31282    31306    31321    31336    31359    31379 
   31399    31421    31433    31438    31450    31465    31482    31511 
   31542    31573    31614    31650    31680    31711    31742    31776 
   31792    31784    31769    31756    31730    31689    31648    31612 
   31576    31518    31441    31374    31309    31226    31143    31082 
   31032    30977    30928    30902    30893    30879    30858    30831 
   30808    30797    30793    30793    30798    30819    30843    30852 
   30855    30858    30855    30848    30842    30842    30852    30866 
