Origin Time       2025/01/13 21:19:00
Lat.              31.8
Long.             131.6
Depth. (km)       30
Mag.              6.9
Station Code      HRSH13
Station Lat.      34.4122
Station Long.     132.3907
Station Height(m) 150
Record Time       2025/01/13 21:20:27
Sampling Freq(Hz) 100Hz
Duration Time(s)  125
Dir.              4
Scale Factor      7845(gal)/8223790
Max. Acc. (gal)   4.165
Last Correction   2025/01/13 21:20:27
Memo.             
[...]
   -9552    -9332    -9259    -9328    -9466    -9641    -9809    -9936 
  -10033   -10081   -10062    -9954    -9725    -9466    -9337    -9346 
   -9439    -9630    -9828    -9879    -9814    -9733    -9648    -9603 
   -9633    -9687    -9765    -9886    -9977    -9983    -9913    -9813 
   -9756    -9788    -9882    -9961    -9948    -9860    -9801    -9751 
   -9641    -9522    -9410    -9300    -9271    -9385    -9639   -10004 
  -10373   -10570   -10597   -10625   -10683   -10656   -10474   -10149 
   -9769    -9471    -9343    -9358    -9432    -9510    -9529    -9439 
   -9356    -9498    -9883   -10291   -10543   -10624   -10569   -10381 
  -10052    -9676    -9414    -9337    -9418    -9532    -9510    -9354 
   -9235    -9300    -9506    -9701    -9801    -9788    -9660    -9541 
   -9576    -9752    -9972   -10115   -10076    -9882    -9686    -9626 
   -9725    -9906   -10087   -10187   -10134    -9958    -9803    -9809 
   -9930    -9936    -9761    -9616    -9640    -9761    -9865    -9941 
  -10037   -10176   -10312   -10366   -10303   -10189   -10103    -9985 
   -9720    -9300    -8845    -8515    -8483    -8811    -9381    -9973 
  -10395   -10554   -10493   -10308   -10084    -9945    -9963   -10068 
  -10139   -10041    -9715    -9351    -9200    -9243    -9263    -9177 
   -9081    -9096    -9262    -9470    -9617    -9724    -9845   -10012 
  -10137   -10114   -10029   -10015   -10079   -10138   -10100    -9945 
   -9745    -9593    -9501    -9400    -9317    -9340    -9447    -9599 
   -9845   -10156   -10426   -10608   -10687   -10654   -10516   -10249 
   -9887    -9595    -9433    -9333    -9324    -9459    -9699    -9957 
  -10168   -10292   -10293   -10192   -10065    -9972    -9892    -9741 
   -9544    -9467    -9564    -9695    -9741    -9755    -9805    -9892 
  -10042   -10228   -10319   -10233   -10021    -9786    -9597    -9482 
   -9441    -9436    -9459    -9579    -9830   -10161   -10461   -10555 
  -10336    -9917    -9494    -9232    -9198    -9296    -9363    -9369 
   -9342    -9290    -9282    -9459    -9807   -10108   -10207   -10161 
  -10116   -10125   -10095    -9936    -9718    -9531    -9315    -9061 
   -8911    -8930    -9097    -9401    -9734    -9941    -9942    -9798 
   -9640    -9547    -9553    -9694    -9911   -10054   -10048    -9954 
   -9822    -9664    -9567    -9560    -9580    -9599    -9583    -9508 
   -9474    -9595    -9799    -9937    -9953    -9940   -10072   -10390 
  -10697   -10809   -10706   -10454   -10114    -9748    -9452    -9265 
   -9116    -8995    -9042    -9325    -9728   -10134   -10485   -10704 
  -10725   -10536   -10223    -9941    -9759    -9649    -9548    -9440 
   -9381    -9429    -9609    -9849   -10004   -10035    -9998    -9852 
   -9602    -9389    -9292    -9279    -9313    -9325    -9286    -9296 
   -9482    -9844   -10274   -10638   -10775   -10638   -10345   -10015 
   -9686    -9410    -9186    -8934    -8734    -8758    -8996    -9371 
   -9778   -10039   -10153   -10245   -10322   -10377   -10455   -10505 
  -10405   -10152    -9904    -9832    -9911    -9945    -9807    -9609 
   -9517    -9540    -9618    -9767    -9937   -10034   -10021    -9938 
   -9872    -9846    -9791    -9714    -9709    -9794    -9873    -9833 
   -9656    -9459    -9342    -9258    -9165    -9108    -9115    -9234 
   -9501    -9821   -10085   -10295   -10450   -10547   -10558   -10455 
  -10307   -10179    -9994    -9693    -9382    -9150    -8927    -8694 
   -8563    -8614    -8815    -9074    -9304    -9482    -9659    -9882 
  -10118   -10297   -10361   -10258   -10019    -9749    -9552    -9528 
   -9666    -9856   -10031   -10153   -10173   -10072    -9903    -9728 
   -9539    -9325    -9135    -9016    -8997    -9067    -9182    -9332 
   -9533    -9747    -9921   -10052   -10180   -10278   -10235    -9987 
   -9626    -9363    -9333    -9485    -9721    -9967   -10143   -10234 
  -10231   -10158   -10115   -10126   -10106   -10002    -9850    -9726 
   -9653    -9656    -9775    -9936   -10019    -9971    -9840    -9757 
   -9828   -10017   -10187   -10219   -10089    -9837    -9535    -9309 
   -9296    -9506    -9809   -10050   -10191   -10265   -10296   -10312 
  -10289   -10161    -9931    -9640    -9382    -9261    -9262    -9339 
   -9436    -9516    -9585    -9620    -9645    -9738    -9894   -10044 
  -10152   -10184   -10118   -10019    -9987   -10010    -9999    -9913 
   -9826    -9855    -9953    -9921    -9699    -9458    -9347    -9347 
   -9391    -9506    -9722    -9941   -10015    -9902    -9741    -9639 
   -9558    -9504    -9510    -9570    -9688    -9837    -9967   -10071 
  -10079    -9937    -9760    -9690    -9707    -9772    -9890    -9991 
   -9994    -9890    -9668    -9305    -8907    -8718    -8866    -9190 
   -9436    -9544    -9629    -9807   -10103   -10438   -10675   -10681 
  -10365    -9784    -9178    -8785    -8725    -9023    -9524    -9952 
  -10199   -10326   -10403   -10536   -10748   -10837   -10650   -10262 
   -9784    -9374    -9225    -9261    -9310    -9421    -9553    -9568 
   -9574    -9757   -10050   -10246   -10196    -9867    -9440    -9220 
   -9281    -9472    -9679    -9801    -9759    -9659    -9713    -9995 
  -10377   -10677   -10750   -10527   -10029    -9452    -9077    -9013 
   -9189    -9472    -9709    -9836    -9953   -10207   -10671   -11294 
  -11838   -11955   -11456   -10555    -9707    -9212    -9076    -9124 
   -9173    -9173    -9215    -9404    -9760   -10134   -10372   -10430 
  -10237    -9763    -9223    -8970    -9194    -9753   -10273   -10501 
  -10473   -10354   -10314   -10420   -10528   -10400    -9968    -9346 
   -8695    -8260    -8251    -8584    -8961    -9219    -9432    -9688 
   -9994   -10334   -10666   -10966   -11141   -10947   -10331    -9613 
   -9078    -8741    -8553    -8491    -8495    -8527    -8598    -8823 
   -9359   -10130   -10837   -11230   -11279   -11126   -10921   -10704 
  -10350    -9732    -8997    -8476    -8397    -8785    -9421   -10004 
  -10365   -10399   -10110    -9697    -9375    -9212    -9229    -9460 
   -9845   -10242   -10532   -10700   -10843   -11003   -11051   -10840 
  -10419    -9963    -9586    -9320    -9147    -8985    -8819    -8766 
   -8907    -9244    -9805   -10497   -11016   -11067   -10723   -10309 
  -10031    -9884    -9856    -9994   -10262   -10470   -10430   -10073 
   -9367    -8394    -7539    -7187    -7341    -7811    -8502    -9339 
  -10169   -10832   -11200   -11186   -10836   -10366    -9983    -9765 
   -9725    -9815    -9902    -9910    -9819    -9603    -9316    -9063 
   -8918    -8934    -9066    -9113    -9019    -8964    -9072    -9279 
   -9495    -9664    -9745    -9818   -10022   -10330   -10586   -10659 
  -10424    -9876    -9278    -8943    -8954    -9229    -9637   -10029 
  -10287   -10355   -10251   -10038    -9782    -9574    -9562    -9805 
  -10162   -10500   -10766   -10795   -10436    -9833    -9310    -9053 
   -8993    -9043    -9234    -9531    -9776    -9832    -9675    -9504 
   -9543    -9698    -9759    -9738    -9790   -10008   -10382   -10714 
  -10793   -10636   -10312    -9876    -9563    -9472    -9366    -9093 
   -8779    -8613    -8741    -9136    -9601    -9987   -10207   -10261 
  -10311   -10463   -10631   -10665   -10494   -10212    -9977    -9890 
   -9991   -10210   -10334   -10214    -9846    -9301    -8749    -8433 
   -8448    -8694    -9040    -9414    -9787   -10218   -10708   -11061 
  -11157   -11078   -10882   -10601   -10270    -9865    -9441    -9113 
   -8816    -8577    -8668    -9092    -9549    -9882   -10104   -10246 
  -10327   -10318   -10238   -10218   -10266   -10296   -10307   -10287 
  -10177   -10061   -10003    -9911    -9765    -9637    -9536    -9474 
   -9436    -9293    -9001    -8779    -8892    -9317    -9842   -10336 
  -10781   -11168   -11421   -11443   -11221   -10832   -10405   -10012 
   -9656    -9283    -8830    -8407    -8282    -8533    -8893    -9028 
   -8891    -8731    -8808    -9124    -9490    -9791   -10017   -10130 
  -10146   -10130   -10084   -10022    -9998   -10010    -9954    -9707 
   -9304    -8986    -8931    -9030    -9100    -9116    -9153    -9347 
   -9751   -10204   -10558   -10773   -10833   -10817   -10795   -10710 
  -10458    -9984    -9336    -8792    -8685    -9015    -9471    -9756 
   -9724    -9462    -9194    -9088    -9256    -9679   -10165   -10563 
  -10840   -10983   -10972   -10806   -10546   -10330   -10261   -10241 
  -10039    -9634    -9215    -8968    -8946    -8984    -8903    -8753 
   -8694    -8904    -9432    -9984   -10192   -10012    -9780    -9834 
  -10197   -10682   -11119   -11400   -11426   -11126   -10573    -9926 
   -9320    -8824    -8441    -8271    -8502    -9066    -9602    -9801 
   -9687    -9547    -9597    -9868   -10338   -10922   -11414   -11614 
  -11439   -10887   -10031    -9089    -8353    -7979    -7890    -7969 
   -8155    -8376    -8646    -9054    -9641   -10355   -11014   -11449 
  -11647   -11607   -11333   -10893   -10405    -9952    -9466    -8916 
   -8511    -8475    -8856    -9526   -10192   -10558   -10488   -10003 
   -9296    -8706    -8517    -8741    -9155    -9518    -9691    -9714 
   -9764   -10023   -10585   -11321   -11878   -11936   -11431   -10507 
   -9416    -8503    -8021    -8021    -8413    -8901    -9198    -9271 
   -9306    -9555   -10037   -10453   -10710   -11007   -11385   -11700 
  -11746   -11319   -10476    -9564    -8830    -8364    -8283    -8537 
   -8814    -8926    -8955    -9008    -9115    -9286    -9560    -9996 
  -10589   -11183   -11560   -11642   -11533   -11419   -11380   -11252 
  -10782    -9895    -8826    -8014    -7638    -7487    -7373    -7290 
   -7369    -7805    -8645    -9791   -11134   -12438   -13369   -13718 
  -13464   -12672   -11475   -10058    -8607    -7366    -6678    -6737 
   -7465    -8584    -9668   -10345   -10488   -10192    -9744    -9570 
   -9876   -10407   -10754   -10697   -10299    -9791    -9375    -9205 
   -9417    -9979   -10640   -11099   -11194   -10974   -10494    -9764 
   -8953    -8321    -8000    -7979    -8226    -8711    -9352   -10007 
  -10559   -10945   -11117   -11024   -10642   -10085    -9625    -9416 
   -9331    -9185    -8905    -8491    -8073    -7857    -7974    -8472 
   -9283   -10255   -11151   -11645   -11589   -11115   -10444    -9771 
   -9306    -9234    -9571   -10218   -10929   -11232   -10828    -9948 
   -9038    -8399    -8145    -8167    -8239    -8264    -8326    -8564 
   -9080    -9834   -10575   -11128   -11651   -12286   -12748   -12607 
  -11705   -10218    -8615    -7431    -6933    -7009    -7408    -8008 
   -8762    -9593   -10386   -10993   -11372   -11665   -11900   -11865 
  -11379   -10508    -9555    -8903    -8699    -8746    -8833    -8989 
   -9328    -9742    -9980    -9945    -9693    -9385    -9288    -9459 
   -9703    -9910   -10048   -10017    -9873    -9914   -10272   -10767 
  -11195   -11418   -11315   -10848   -10122    -9400    -8976    -8923 
   -9015    -8969    -8754    -8532    -8349    -8158    -8198    -8899 
  -10238   -11664   -12633   -12915   -12595   -11935   -11186   -10539 
  -10118    -9907    -9726    -9367    -8815    -8309    -8140    -8266 
   -8306    -8159    -8295    -9035    -9987   -10685   -11146   -11572 
  -12015   -12314   -12174   -11507   -10590    -9711    -9009    -8627 
   -8638    -8916    -9182    -9196    -8988    -8830    -8961    -9391 
   -9914   -10309   -10524   -10651   -10871   -11317   -11924   -12405 
  -12363   -11659   -10579    -9502    -8722    -8330    -8031    -7543 
   -7028    -6860    -7364    -8549    -9965   -11067   -11514   -11213 
  -10453    -9803    -9672    -9954   -10196   -10045    -9463    -8718 
   -8248    -8363    -9032    -9873   -10438   -10531   -10200    -9656 
   -9086    -8568    -8199    -8091    -8268    -8677    -9244    -9914 
  -10585   -11110   -11308   -11003   -10249    -9410    -8850    -8679 
   -8793    -8951    -9007    -8992    -8918    -8861    -9034    -9432 
   -9792   -10021   -10253   -10542   -10773   -10808   -10678   -10569 
  -10457   -10112    -9502    -8808    -8280    -8145    -8388    -8707 
   -8927    -9182    -9537    -9860   -10166   -10689   -11503   -12256 
  -12407   -11848   -10962   -10120    -9517    -9273    -9421    -9832 
  -10125    -9991    -9629    -9477    -9637    -9926   -10123   -10118 
  -10089   -10305   -10617   -10698   -10640   -10763   -11106   -11407 
  -11408   -11036   -10349    -9585    -9123    -9085    -9223    -9151 
   -8788    -8594    -9020   -10008   -11121   -11846   -12017   -11816 
  -11240   -10107    -8604    -7315    -6725    -6897    -7601    -8598 
   -9778   -10964   -11732   -11773   -11114   -10091    -9306    -9154 
   -9416    -9563    -9225    -8440    -7545    -6870    -6639    -6957 
   -7773    -8997   -10488   -11807   -12403   -12121   -11240   -10077 
   -8868    -7781    -6926    -6574    -7122    -8541   -10222   -11411 
  -11716   -11329   -10681   -10004    -9400    -9059    -9177    -9621 
   -9861    -9509    -8796    -8253    -8186    -8622    -9354   -10026 
  -10504   -10920   -11269   -11423   -11406   -11186   -10492    -9346 
   -8287    -7782    -7896    -8437    -9181    -9953   -10453   -10366 
   -9786    -9231    -9181    -9599   -10095   -10471   -10791   -11102 
  -11292   -11167   -10700   -10138    -9756    -9637    -9616    -9408 
   -9004    -8695    -8649    -8719    -8748    -8920    -9609   -10885 
  -12395   -13624   -14152   -13810   -12769   -11453   -10166    -8959 
   -7923    -7249    -6943    -6843    -6959    -7415    -8156    -9089 
  -10127   -11025   -11547   -11561   -11033   -10330    -9985   -10022 
  -10049    -9817    -9352    -8888    -8629    -8556    -8706    -9177 
   -9736    -9944    -9661    -9165    -8910    -9250   -10064   -10805 
  -11055   -10786   -10210    -9637    -9327    -9316    -9532    -9945 
  -10411   -10685   -10735   -10665   -10396    -9844    -9115    -8386 
   -7931    -7989    -8411    -8819    -9035    -9188    -9583   -10370 
  -11354   -12221   -12762   -12808   -12194   -11024    -9775    -8970 
   -8752    -8864    -9158    -9661   -10087   -10006    -9470    -9004 
   -9043    -9567   -10181   -10520   -10585   -10573   -10585   -10581 
  -10493   -10412   -10366   -10119    -9585    -8961    -8438    -8225 
   -8448    -8862    -9170    -9343    -9437    -9583   -10000   -10698 
  -11400   -11793   -11746   -11323   -10670    -9871    -8982    -8202 
   -7817    -7971    -8522    -9194    -9848   -10430   -10804   -10905 
  -10872   -10876   -11014   -11249   -11385   -11230   -10758   -10116 
   -9502    -9003    -8665    -8646    -9051    -9713   -10343   -10737 
  -10764   -10500   -10247   -10149    -9931    -9265    -8311    -7717 
   -7843    -8317    -8626    -8799    -9084    -9409    -9614    -9790 
  -10056   -10393   -10721   -10953   -11033   -10994   -10914   -10746 
  -10285    -9508    -8784    -8576    -8918    -9454   -10003   -10611 
  -11168   -11452   -11368   -11011   -10590   -10254   -10027    -9957 
  -10049   -10080    -9840    -9425    -9128    -9128    -9390    -9741 
   -9990   -10095   -10143   -10119    -9976    -9837    -9814    -9892 
  -10022   -10072    -9899    -9582    -9324    -9248    -9429    -9791 
   -9983    -9792    -9447    -9283    -9445    -9837   -10204   -10389 
  -10350   -10038    -9553    -9084    -8681    -8452    -8600    -9119 
   -9826   -10507   -10929   -11010   -10871   -10640   -10357   -10077 
   -9876    -9760    -9702    -9606    -9282    -8707    -8206    -8182 
   -8618    -9111    -9423    -9655    -9973   -10419   -10844   -11084 
  -11237   -11462   -11545   -11125   -10255    -9286    -8554    -8284 
   -8406    -8604    -8699    -8729    -8803    -9003    -9285    -9586 
   -9980   -10435   -10741   -10824   -10681   -10273    -9714    -9282 
   -9113    -9119    -9216    -9385    -9512    -9443    -9146    -8795 
   -8591    -8523    -8519    -8745    -9351   -10054   -10431   -10407 
  -10185    -9975    -9815    -9614    -9267    -8676    -7904    -7337 
   -7327    -7858    -8699    -9582   -10228   -10570   -10818   -11032 
  -10994   -10642   -10083    -9396    -8792    -8580    -8797    -9309 
   -9996   -10639   -11090   -11361   -11302   -10859   -10427   -10216 
   -9958    -9541    -9128    -8895    -9008    -9477   -10120   -10797 
  -11402   -11788   -11797   -11385   -10731   -10214   -10048   -10062 
   -9971    -9544    -8784    -8108    -7943    -8326    -9042    -9707 
   -9946    -9790    -9618    -9742   -10228   -10928   -11522   -11784 
  -11754   -11496   -11033   -10520   -10166    -9981    -9742    -9252 
   -8660    -8310    -8257    -8295    -8382    -8627    -9016    -9396 
   -9698   -10031   -10420   -10652   -10558   -10228    -9848    -9485 
   -9174    -8981    -8901    -8860    -8789    -8618    -8434    -8526 
   -9024    -9680   -10083    -9976    -9439    -8843    -8557    -8635 
   -8930    -9331    -9733    -9904    -9688    -9231    -8799    -8514 
   -8371    -8305    -8287    -8345    -8424    -8478    -8583    -8758 
   -8910    -9022    -9279    -9887   -10793   -11757   -12491   -12648 
  -12148   -11354   -10505    -9628    -8991    -8853    -9055    -9273 
   -9360    -9329    -9278    -9301    -9418    -9715   -10305   -11099 
  -11843   -12263   -12224   -11865   -11473   -11272   -11299   -11387 
  -11234   -10640    -9748    -8918    -8367    -8017    -7686    -7400 
   -7348    -7638    -8221    -8959    -9769   -10667   -11553   -12155 
  -12361   -12309   -12154   -12009   -11862   -11556   -11048   -10417 
   -9732    -9097    -8689    -8540    -8521    -8695    -9171    -9764 
  -10289   -10674   -10872   -10999   -11090   -10928   -10540   -10219 
  -10022    -9823    -9676    -9703    -9795    -9709    -9281    -8586 
   -7956    -7593    -7395    -7337    -7608    -8275    -9088    -9709 
   -9925    -9759    -9563    -9741   -10254   -10729   -10984   -11038 
  -10860   -10466   -10025    -9628    -9174    -8658    -8321    -8347 
   -8715    -9250    -9643    -9778    -9868   -10023   -10179   -10413 
  -10764   -11122   -11491   -11745   -11583   -11078   -10490    -9884 
   -9328    -8856    -8465    -8243    -8152    -8073    -8090    -8355 
   -8811    -9332    -9852   -10278   -10608   -10972   -11284   -11317 
  -11038   -10430    -9486    -8460    -7685    -7387    -7624    -8140 
   -8550    -8869    -9328    -9848   -10277   -10697   -11176   -11584 
  -11686   -11404   -10957   -10602   -10361   -10170    -9952    -9624 
   -9321    -9294    -9578    -9917    -9954    -9593    -9019    -8457 
   -8108    -8148    -8731    -9779   -10836   -11433   -11398   -10889 
  -10301    -9923    -9715    -9467    -9101    -8808    -8803    -9085 
   -9444    -9583    -9436    -9205    -9093    -9234    -9668   -10264 
  -10808   -11138   -11172   -10899   -10444   -10026    -9815    -9840 
   -9987   -10080   -10026    -9861    -9674    -9499    -9296    -9111 
   -9072    -9127    -9213    -9440    -9902   -10584   -11254   -11507 
  -11265   -10866   -10605   -10546   -10504   -10199    -9637    -9082 
   -8660    -8363    -8239    -8251    -8317    -8514    -8926    -9501 
  -10185   -10909   -11587   -12175   -12609   -12776   -12603   -12055 
  -11175   -10120    -9132    -8413    -7962    -7658    -7429    -7314 
