Origin Time       2025/01/13 21:19:00
Lat.              31.8
Long.             131.6
Depth. (km)       30
Mag.              6.9
Station Code      HRSH09
Station Lat.      34.7016
Station Long.     132.9524
Station Height(m) 350
Record Time       2025/01/13 21:20:28
Sampling Freq(Hz) 100Hz
Duration Time(s)  144
Dir.              4
Scale Factor      7845(gal)/8223790
Max. Acc. (gal)   0.768
Last Correction   2025/01/13 21:20:29
Memo.             
[...]
    4545     4561     4510     4442     4417     4448     4484     4467 
    4407     4357     4337     4340     4369     4395     4364     4294 
    4275     4320     4344     4290     4190     4108     4060     4041 
    4054     4062     4024     3982     3985     3987     3979     4012 
    4068     4093     4101     4125     4152     4158     4144     4133 
    4149     4185     4217     4241     4260     4268     4266     4253 
    4245     4255     4257     4233     4216     4229     4232     4189 
    4131     4108     4116     4132     4164     4224     4266     4261 
    4248     4252     4251     4236     4234     4261     4302     4345 
    4382     4396     4425     4496     4581     4650     4699     4707 
    4681     4680     4714     4739     4730     4706     4710     4753 
    4785     4783     4765     4756     4757     4757     4745     4725 
    4712     4689     4649     4611     4577     4523     4441     4371 
    4371     4423     4457     4441     4411     4405     4398     4386 
    4376     4356     4321     4297     4306     4342     4372     4376 
    4374     4374     4375     4376     4372     4372     4399     4452 
    4509     4536     4504     4438     4407     4441     4487     4483 
    4438     4414     4415     4423     4450     4484     4495     4494 
    4490     4495     4536     4599     4652     4677     4688     4729 
    4810     4861     4833     4774     4747     4747     4766     4799 
    4810     4765     4691     4630     4594     4564     4534     4509 
    4490     4494     4527     4560     4564     4553     4540     4527 
    4529     4542     4553     4575     4612     4650     4657     4599 
    4490     4394     4356     4376     4434     4487     4509     4540 
    4592     4611     4596     4599     4625     4669     4750     4843 
    4892     4884     4851     4830     4842     4895     4951     4963 
    4927     4887     4876     4872     4849     4827     4819     4810 
    4796     4789     4784     4765     4725     4669     4626     4603 
    4572     4554     4580     4606     4590     4564     4563     4569 
    4579     4599     4617     4603     4565     4552     4585     4633 
    4654     4621     4533     4441     4384     4363     4345     4288 
    4199     4105     4039     4025     4051     4074     4081     4085 
    4109     4167     4232     4276     4309     4344     4387     4423 
    4426     4395     4369     4367     4355     4334     4324     4309 
    4280     4263     4278     4317     4345     4341     4355     4437 
    4530     4554     4509     4438     4371     4313     4274     4249 
    4217     4178     4152     4155     4159     4131     4101     4122 
    4170     4197     4213     4249     4288     4306     4315     4332 
    4341     4353     4402     4471     4488     4461     4464     4496 
    4509     4517     4540     4540     4521     4527     4560     4571 
    4561     4569     4581     4567     4552     4545     4502     4423 
    4375     4382     4391     4375     4361     4364     4372     4396 
    4437     4472     4499     4513     4492     4465     4464     4456 
    4415     4382     4387     4415     4436     4467     4534     4602 
    4625     4615     4612     4612     4590     4556     4542     4544 
    4536     4533     4557     4571     4523     4422     4333     4318 
    4360     4407     4438     4442     4403     4342     4328     4391 
    4467     4498     4507     4513     4514     4522     4529     4519 
    4506     4503     4513     4525     4533     4553     4583     4584 
    4538     4504     4517     4544     4575     4634     4696     4706 
    4639     4557     4527     4541     4552     4546     4541     4533 
    4515     4513     4537     4572     4603     4619     4611     4606 
    4617     4617     4591     4572     4580     4584     4544     4465 
    4398     4368     4349     4317     4290     4287     4295     4295 
    4275     4236     4189     4148     4133     4164     4232     4290 
    4311     4320     4347     4388     4425     4459     4499     4525 
    4533     4553     4584     4602     4588     4557     4529     4509 
    4486     4465     4463     4484     4502     4498     4494     4511 
    4529     4534     4544     4556     4538     4490     4452     4449 
    4457     4456     4459     4480     4503     4491     4450     4414 
    4387     4375     4396     4441     4479     4515     4565     4618 
    4658     4692     4735     4787     4843     4935     5067     5177 
    5229     5258     5274     5277     5282     5278     5247     5190 
    5112     5019     4932     4865     4823     4814     4826     4847 
    4878     4899     4882     4851     4830     4808     4789     4765 
    4727     4707     4718     4722     4699     4676     4669     4665 
    4642     4599     4553     4500     4444     4413     4411     4387 
    4297     4190     4140     4125     4090     4044     4009     3970 
    3933     3928     3962     3985     3956     3910     3902     3921 
    3931     3929     3929     3933     3946     3975     4016     4050 
    4068     4085     4112     4148     4187     4233     4271     4284 
    4299     4341     4388     4414     4430     4444     4448     4449 
    4465     4498     4541     4592     4635     4654     4646     4630 
    4617     4604     4588     4567     4530     4471     4417     4419 
    4456     4463     4448     4449     4456     4452     4452     4449 
    4437     4430     4437     4440     4438     4434     4428     4418 
    4396     4369     4347     4321     4297     4311     4386     4460 
    4463     4421     4405     4430     4484     4556     4604     4599 
    4569     4557     4564     4569     4579     4600     4621     4639 
    4676     4712     4727     4745     4785     4822     4847     4887 
    4943     4999     5028     5026     4993     4946     4905     4889 
    4877     4850     4812     4779     4753     4730     4720     4729 
    4729     4718     4715     4718     4720     4725     4729     4712 
    4665     4599     4525     4449     4384     4341     4298     4229 
    4153     4112     4098     4086     4070     4052     4029     4013 
    4023     4051     4074     4094     4128     4171     4203     4218 
    4239     4279     4322     4334     4307     4264     4218     4172 
    4143     4136     4128     4095     4064     4075     4110     4112 
    4083     4079     4104     4139     4193     4256     4288     4311 
    4374     4437     4457     4453     4448     4448     4460     4488 
    4498     4461     4413     4383     4364     4347     4333     4313 
    4282     4268     4295     4349     4394     4423     4464     4530 
    4588     4615     4625     4642     4681     4734     4780     4806 
    4815     4830     4845     4846     4849     4870     4880     4849 
    4808     4795     4789     4765     4741     4737     4722     4689 
    4661     4642     4622     4590     4544     4503     4483     4486 
    4498     4495     4483     4479     4492     4536     4622     4722 
    4788     4807     4816     4847     4887     4915     4931     4932 
    4916     4891     4864     4841     4804     4747     4683     4621 
    4565     4529     4498     4438     4367     4309     4263     4230 
    4230     4260     4302     4338     4368     4395     4421     4445 
    4449     4433     4425     4442     4446     4426     4406     4390 
    4363     4326     4298     4284     4274     4260     4252     4259 
    4268     4270     4272     4290     4320     4338     4348     4367 
    4402     4442     4480     4507     4534     4564     4584     4592 
    4603     4611     4614     4608     4596     4576     4537     4487 
    4449     4441     4445     4437     4429     4433     4449     4471 
    4502     4550     4602     4639     4672     4708     4733     4747 
    4753     4734     4683     4621     4568     4525     4494     4476 
    4467     4444     4386     4297     4203     4126     4060     4016 
    3998     3996     3998     4001     4004     4002     4006     4033 
    4085     4147     4206     4259     4307     4359     4419     4494 
    4557     4594     4622     4665     4712     4745     4753     4725 
    4669     4612     4567     4522     4477     4437     4406     4394 
    4396     4411     4441     4480     4510     4514     4486     4441 
    4411     4401     4402     4384     4329     4261     4213     4171 
    4133     4120     4108     4059     4004     4000     4039     4074 
    4082     4085     4097     4110     4137     4194     4259     4303 
    4320     4309     4301     4329     4386     4444     4490     4515 
    4529     4540     4540     4533     4538     4554     4568     4575 
    4592     4619     4653     4703     4757     4791     4819     4854 
    4895     4941     4988     5015     4990     4941     4911     4892 
    4853     4807     4785     4781     4762     4715     4666     4630 
    4588     4544     4519     4513     4504     4498     4491     4490 
    4504     4533     4545     4550     4581     4626     4644     4641 
    4652     4660     4642     4615     4614     4630     4614     4572 
    4556     4568     4588     4618     4649     4661     4662     4679 
    4693     4677     4649     4652     4675     4677     4666     4660 
    4637     4576     4503     4461     4455     4448     4419     4387 
    4368     4353     4338     4345     4376     4401     4405     4419 
    4449     4467     4465     4459     4452     4453     4480     4525 
    4572     4608     4619     4618     4619     4615     4610     4614 
    4614     4599     4584     4581     4565     4538     4526     4537 
    4549     4561     4571     4567     4553     4538     4525     4514 
    4498     4459     4406     4353     4309     4276     4248     4216 
    4193     4185     4194     4217     4251     4282     4295     4291 
    4297     4306     4298     4283     4276     4283     4305     4325 
    4324     4298     4256     4220     4206     4212     4222     4222 
    4209     4198     4209     4232     4237     4240     4264     4297 
    4326     4365     4394     4388     4376     4405     4464     4507 
    4527     4545     4561     4568     4573     4583     4580     4563 
    4553     4560     4567     4560     4541     4526     4529     4546 
    4556     4553     4553     4565     4584     4591     4579     4564 
    4567     4580     4579     4575     4598     4631     4642     4638 
    4638     4639     4625     4596     4580     4588     4594     4577 
    4564     4576     4598     4603     4603     4607     4596     4580 
    4588     4629     4677     4698     4673     4627     4592     4573 
    4560     4540     4518     4507     4504     4500     4494     4475 
    4445     4417     4399     4401     4406     4375     4302     4217 
    4148     4108     4095     4093     4077     4045     4025     4035 
    4055     4062     4066     4083     4117     4163     4210     4248 
    4272     4290     4306     4320     4333     4342     4338     4313 
    4279     4255     4224     4182     4152     4155     4166     4166 
    4168     4183     4202     4210     4206     4203     4225     4255 
    4257     4237     4240     4272     4314     4359     4405     4436 
    4438     4428     4422     4442     4469     4475     4472     4490 
    4529     4575     4625     4676     4726     4770     4804     4819 
    4822     4820     4807     4780     4758     4745     4727     4689 
    4641     4611     4602     4585     4560     4537     4506     4460 
    4421     4396     4378     4363     4356     4359     4374     4396 
    4413     4428     4441     4449     4465     4499     4533     4563 
    4592     4619     4641     4653     4639     4607     4584     4583 
    4595     4607     4614     4612     4621     4648     4695     4758 
    4819     4851     4874     4909     4939     4955     4973     4985 
    4976     4946     4912     4880     4841     4801     4785     4780 
    4749     4689     4637     4614     4600     4579     4556     4548 
    4546     4534     4513     4500     4502     4498     4483     4472 
    4476     4475     4446     4410     4392     4387     4369     4342 
    4315     4297     4291     4294     4283     4268     4271     4288 
    4302     4310     4332     4364     4382     4386     4401     4419 
    4415     4399     4401     4415     4410     4386     4364     4342 
    4314     4298     4288     4272     4259     4263     4290     4324 
    4336     4329     4336     4357     4382     4409     4434     4446 
    4448     4449     4456     4464     4469     4468     4460     4452 
    4442     4440     4448     4456     4456     4452     4442     4425 
    4407     4395     4383     4369     4352     4338     4328     4315 
    4297     4276     4261     4247     4234     4241     4263     4274 
    4268     4263     4275     4303     4337     4361     4375     4388 
    4423     4487     4564     4629     4671     4691     4714     4753 
    4800     4833     4841     4843     4858     4868     4861     4862 
    4882     4915     4957     5008     5050     5076     5086     5090 
    5097     5101     5082     5043     5019     5022     5020     5001 
    4982     4966     4950     4923     4881     4833     4787     4750 
    4722     4692     4645     4583     4519     4467     4429     4386 
    4317     4233     4166     4118     4079     4045     4017     3974 
    3915     3861     3816     3786     3775     3759     3726     3697 
    3684     3678     3684     3715     3750     3759     3767     3796 
    3821     3834     3855     3890     3932     3975     4013     4045 
    4075     4109     4153     4203     4247     4284     4325     4375 
    4432     4477     4509     4540     4579     4615     4646     4681 
    4711     4716     4704     4702     4706     4703     4695     4689 
    4691     4699     4714     4735     4760     4781     4793     4796 
    4803     4820     4837     4843     4847     4854     4861     4868 
    4876     4872     4853     4830     4820     4822     4822     4810 
    4783     4747     4718     4708     4720     4745     4768     4777 
    4774     4777     4788     4792     4789     4787     4781     4772 
    4762     4760     4760     4752     4743     4729     4687     4634 
    4594     4560     4519     4479     4445     4409     4378     4365 
    4360     4342     4317     4299     4294     4284     4268     4251 
    4237     4228     4218     4217     4221     4220     4218     4228 
    4241     4245     4233     4214     4212     4226     4234     4225 
    4214     4210     4214     4225     4234     4233     4232     4236 
    4232     4228     4229     4214     4180     4151     4145     4159 
    4170     4178     4193     4201     4201     4205     4217     4245 
    4294     4340     4357     4359     4368     4383     4386     4382 
    4383     4388     4386     4368     4360     4374     4402     4437 
    4477     4513     4530     4536     4556     4599     4641     4650 
    4631     4615     4610     4598     4577     4565     4557     4541 
    4529     4536     4546     4530     4499     4495     4515     4519 
    4506     4494     4490     4482     4472     4468     4475     4479 
    4464     4437     4422     4421     4419     4414     4411     4402 
    4382     4364     4348     4315     4276     4240     4210     4198 
    4201     4207     4233     4282     4328     4359     4386     4402 
    4401     4399     4419     4452     4471     4472     4461     4452 
    4449     4455     4467     4482     4496     4511     4518     4521 
    4526     4530     4530     4534     4549     4572     4592     4607 
    4611     4612     4626     4641     4642     4631     4630     4638 
    4634     4619     4619     4627     4618     4585     4550     4522 
    4487     4442     4419     4418     4401     4361     4317     4283 
    4282     4302     4311     4310     4309     4309     4321     4357 
    4405     4450     4494     4546     4608     4665     4707     4737 
    4769     4811     4853     4872     4873     4873     4880     4881 
    4872     4873     4889     4900     4892     4868     4838     4804 
    4765     4737     4731     4729     4714     4692     4666     4641 
    4617     4602     4596     4588     4568     4538     4517     4509 
    4498     4475     4442     4413     4391     4375     4361     4361 
    4364     4353     4334     4325     4330     4342     4345     4332 
    4317     4313     4311     4299     4283     4276     4275     4272 
    4279     4287     4284     4274     4264     4257     4256     4263 
    4264     4251     4233     4222     4212     4207     4214     4228 
    4240     4247     4249     4263     4284     4305     4325     4345 
    4372     4402     4421     4428     4438     4465     4498     4529 
    4560     4587     4603     4612     4622     4633     4635     4631 
    4622     4615     4610     4598     4576     4560     4561     4576 
    4592     4600     4606     4618     4633     4638     4634     4627 
    4630     4639     4653     4662     4658     4638     4614     4590 
    4560     4531     4509     4483     4449     4406     4367     4340 
    4322     4307     4299     4299     4294     4290     4305     4332 
    4345     4342     4342     4349     4353     4353     4361     4380 
    4405     4422     4438     4463     4486     4496     4502     4510 
    4517     4514     4509     4517     4533     4538     4537     4534 
    4527     4521     4525     4544     4561     4561     4542     4513 
    4482     4465     4465     4461     4448     4438     4436     4426 
    4401     4371     4349     4336     4334     4341     4347     4342 
    4332     4317     4302     4293     4295     4309     4326     4345 
    4363     4380     4399     4422     4440     4446     4438     4426 
    4422     4432     4441     4442     4442     4449     4460     4469 
    4479     4483     4486     4498     4523     4554     4577     4584 
    4588     4603     4621     4631     4637     4645     4652     4658 
    4668     4666     4660     4657     4665     4685     4722     4764 
    4788     4789     4788     4789     4788     4791     4804     4823 
    4830     4824     4816     4806     4797     4785     4770     4756 
    4750     4753     4762     4774     4785     4792     4800     4811 
    4818     4816     4810     4804     4792     4773     4757     4753 
    4749     4734     4726     4729     4729     4725     4726     4725 
    4707     4680     4648     4621     4617     4633     4645     4645 
    4646     4657     4668     4665     4650     4630     4612     4607 
    4618     4626     4615     4591     4571     4573     4595     4603 
    4583     4552     4536     4531     4507     4455     4390     4334 
    4294     4264     4241     4228     4214     4209     4225     4256 
    4276     4279     4284     4306     4330     4345     4363     4394 
    4422     4438     4460     4480     4475     4463     4469     4491 
    4502     4500     4507     4519     4529     4541     4557     4565 
    4568     4577     4591     4598     4596     4599     4614     4635 
    4652     4662     4676     4691     4700     4706     4706     4702 
    4699     4695     4689     4681     4662     4639     4622     4600 
    4569     4540     4514     4487     4459     4437     4419     4399 
