Origin Time       2025/01/13 21:19:00
Lat.              31.8
Long.             131.6
Depth. (km)       30
Mag.              6.9
Station Code      HRSH13
Station Lat.      34.4122
Station Long.     132.3907
Station Height(m) 150
Record Time       2025/01/13 21:20:27
Sampling Freq(Hz) 100Hz
Duration Time(s)  125
Dir.              5
Scale Factor      7845(gal)/8223790
Max. Acc. (gal)   3.536
Last Correction   2025/01/13 21:20:27
Memo.             
[...]
   -7958    -7634    -7441    -7507    -7761    -8033    -8186    -8144 
   -7866    -7371    -6897    -6724    -6833    -7064    -7360    -7646 
   -7823    -7832    -7666    -7481    -7427    -7414    -7349    -7318 
   -7420    -7655    -7992    -8359    -8623    -8700    -8600    -8383 
   -8095    -7716    -7283    -6974    -6889    -6953    -7028    -7076 
   -7179    -7314    -7342    -7240    -7161    -7285    -7662    -8224 
   -8816    -9171    -9090    -8607    -7969    -7499    -7276    -7126 
   -6939    -6660    -6332    -6172    -6265    -6478    -6744    -7040 
   -7315    -7666    -8193    -8707    -8920    -8757    -8316    -7771 
   -7298    -6976    -6783    -6637    -6434    -6177    -6015    -6037 
   -6173    -6411    -6795    -7344    -8016    -8646    -9046    -9157 
   -9005    -8669    -8216    -7578    -6754    -5999    -5667    -5925 
   -6538    -7061    -7298    -7280    -7106    -7057    -7377    -7905 
   -8253    -8210    -7831    -7352    -7063    -7134    -7500    -7994 
   -8429    -8618    -8529    -8322    -8091    -7751    -7183    -6428 
   -5737    -5404    -5508    -5950    -6615    -7315    -7938    -8573 
   -9196    -9567    -9508    -8958    -8044    -7055    -6197    -5590 
   -5373    -5560    -5977    -6431    -6868    -7358    -7852    -8160 
   -8243    -8201    -8024    -7715    -7483    -7565    -7924    -8271 
   -8359    -8160    -7801    -7446    -7230    -7198    -7252    -7215 
   -6948    -6473    -6041    -5964    -6330    -6963    -7555    -7885 
   -7977    -7978    -7998    -8095    -8307    -8583    -8749    -8637 
   -8220    -7547    -6771    -6166    -5949    -6150    -6694    -7412 
   -8127    -8749    -9204    -9389    -9282    -8923    -8368    -7697 
   -6963    -6350    -6210    -6590    -7113    -7396    -7344    -7082 
   -6789    -6608    -6655    -7028    -7731    -8527    -9023    -8991 
   -8506    -7786    -7055    -6559    -6500    -6810    -7175    -7334 
   -7354    -7480    -7753    -8046    -8221    -8108    -7731    -7352 
   -7069    -6828    -6666    -6633    -6733    -6943    -7190    -7443 
   -7699    -7858    -7902    -7939    -7967    -7915    -7789    -7628 
   -7487    -7393    -7244    -6991    -6825    -6914    -7164    -7404 
   -7626    -7906    -8176    -8220    -7960    -7596    -7292    -6917 
   -6343    -5803    -5644    -5962    -6600    -7280    -7804    -8117 
   -8185    -8014    -7758    -7555    -7415    -7303    -7148    -6918 
   -6702    -6540    -6469    -6547    -6747    -7155    -7900    -8737 
   -9189    -9045    -8506    -7954    -7591    -7442    -7399    -7204 
   -6724    -6185    -5961    -6211    -6818    -7561    -8217    -8625 
   -8773    -8715    -8437    -7955    -7368    -6843    -6615    -6762 
   -6991    -7018    -7061    -7514    -8298    -9001    -9320    -9105 
   -8388    -7427    -6627    -6257    -6205    -6141    -5894    -5668 
   -5911    -6847    -8248    -9644   -10567   -10727   -10189    -9290 
   -8298    -7277    -6174    -5030    -4187    -4149    -5098    -6654 
   -8118    -8945    -9072    -8846    -8649    -8657    -8742    -8519 
   -7769    -6786    -6151    -6145    -6507    -6791    -6812    -6729 
   -6889    -7477    -8272    -8845    -8926    -8517    -7807    -7048 
   -6508    -6347    -6455    -6635    -6906    -7414    -8141    -8872 
   -9367    -9494    -9246    -8654    -7782    -6793    -5837    -5050 
   -4685    -4955    -5738    -6709    -7581    -8218    -8708    -9217 
   -9686    -9867    -9641    -9094    -8364    -7555    -6741    -6061 
   -5706    -5753    -6133    -6802    -7677    -8391    -8537    -8159 
   -7685    -7385    -7146    -6804    -6455    -6331    -6544    -7037 
   -7609    -8048    -8370    -8752    -9286    -9803    -9861    -9092 
   -7593    -5911    -4675    -4236    -4591    -5494    -6605    -7657 
   -8541    -9265    -9732    -9703    -9112    -8170    -7302    -6914 
   -6949    -7025    -6894    -6524    -6153    -6068    -6326    -6797 
   -7229    -7416    -7474    -7597    -7777    -7894    -7790    -7456 
   -7168    -7175    -7454    -7858    -8259    -8592    -8795    -8735 
   -8309    -7578    -6793    -6218    -5950    -5941    -6064    -6216 
   -6347    -6494    -6897    -7761    -8887    -9757    -9898    -9282 
   -8425    -7816    -7488    -7175    -6610    -5875    -5408    -5391 
   -5629    -6026    -6566    -7146    -7678    -8085    -8361    -8599 
   -8743    -8634    -8268    -7801    -7450    -7383    -7574    -7882 
   -8151    -8162    -7875    -7515    -7198    -6932    -6789    -6714 
   -6548    -6328    -6301    -6619    -7187    -7835    -8417    -8742 
   -8696    -8383    -7944    -7506    -7280    -7353    -7542    -7659 
   -7739    -7862    -7893    -7653    -7164    -6570    -6099    -6022 
   -6500    -7542    -8837    -9818   -10245   -10222    -9822    -9171 
   -8455    -7677    -6783    -5819    -5082    -5028    -5765    -6901 
   -7923    -8527    -8706    -8590    -8376    -8382    -8833    -9459 
   -9544    -8745    -7580    -6706    -6355    -6509    -7036    -7618 
   -7896    -7805    -7670    -7767    -7990    -8059    -7803    -7225 
   -6546    -6199    -6588    -7670    -8934    -9796    -9902    -9225 
   -8156    -7236    -6737    -6583    -6532    -6382    -6174    -6176 
   -6628    -7526    -8537    -9136    -9043    -8322    -7145    -5925 
   -5251    -5358    -6075    -7140    -8276    -9205    -9679    -9556 
   -8955    -8095    -7110    -6224    -5755    -5748    -6002    -6382 
   -6885    -7564    -8363    -8907    -8808    -8106    -7268    -6822 
   -6880    -7069    -7044    -6870    -6798    -6909    -7165    -7526 
   -7931    -8382    -8885    -9221    -9186    -8905    -8464    -7843 
   -7285    -7036    -7098    -7416    -7873    -8316    -8668    -8861 
   -8722    -8208    -7657    -7337    -7087    -6733    -6359    -6242 
   -6627    -7415    -8371    -9364   -10174   -10459    -9977    -8856 
   -7681    -6995    -6828    -6937    -7064    -6997    -6791    -6735 
   -6960    -7310    -7542    -7622    -7765    -8117    -8580    -8964 
   -9015    -8480    -7468    -6498    -5969    -5821    -5867    -6000 
   -6135    -6334    -6747    -7368    -8082    -8692    -8833    -8289 
   -7350    -6508    -6008    -5968    -6447    -7204    -7808    -8089 
   -8129    -7993    -7723    -7412    -7138    -6899    -6590    -6114 
   -5582    -5319    -5530    -6007    -6450    -6863    -7337    -7840 
   -8376    -8918    -9225    -9107    -8640    -8006    -7318    -6542 
   -5652    -4812    -4260    -4248    -4962    -6334    -8027    -9445 
   -9964    -9481    -8479    -7511    -6910    -6728    -6860    -7183 
   -7545    -7803    -7989    -8190    -8309    -8159    -7711    -7087 
   -6500    -6176    -6266    -6777    -7526    -8252    -8696    -8734 
   -8560    -8446    -8449    -8505    -8460    -8133    -7564    -7007 
   -6732    -6748    -6752    -6511    -6162    -6014    -6223    -6755 
   -7454    -8128    -8637    -8935    -9051    -8974    -8637    -8056 
   -7292    -6424    -5787    -5783    -6330    -6932    -7226    -7190 
   -6893    -6457    -6160    -6151    -6297    -6535    -6925    -7477 
   -8187    -8897    -9271    -9119    -8453    -7481    -6729    -6550 
   -6718    -6859    -6847    -6763    -6790    -7025    -7408    -7780 
   -7871    -7495    -6874    -6500    -6674    -7333    -8021    -8182 
   -7732    -7020    -6301    -5779    -5692    -5995    -6394    -6706 
   -6891    -6987    -7084    -7223    -7407    -7647    -7888    -8056 
   -8098    -7933    -7622    -7372    -7300    -7341    -7419    -7553 
   -7712    -7805    -7811    -7658    -7292    -6887    -6639    -6554 
   -6589    -6739    -7065    -7550    -7862    -7789    -7693    -8004 
   -8603    -8903    -8459    -7435    -6336    -5566    -5356    -5688 
   -6288    -6903    -7477    -7997    -8351    -8425    -8298    -8112 
   -7804    -7329    -6893    -6663    -6493    -6205    -5903    -5807 
   -5967    -6246    -6513    -6771    -7029    -7188    -7288    -7493 
   -7742    -7790    -7526    -7038    -6621    -6555    -6837    -7303 
   -7786    -8105    -8108    -7812    -7479    -7304    -7192    -6957 
   -6492    -5860    -5433    -5539    -6108    -6945    -7892    -8721 
   -9240    -9342    -8962    -8278    -7533    -6804    -6219    -5881 
   -5780    -5977    -6427    -6809    -7002    -7246    -7728    -8365 
   -8968    -9417    -9659    -9537    -8866    -7838    -6933    -6423 
   -6343    -6632    -7020    -7312    -7580    -7817    -8029    -8348 
   -8733    -8931    -8721    -8097    -7323    -6793    -6814    -7408 
   -8175    -8654    -8764    -8676    -8561    -8525    -8526    -8329 
   -7677    -6590    -5516    -5080    -5545    -6512    -7388    -7997 
   -8464    -8887    -9247    -9375    -9049    -8324    -7557    -7051 
   -6876    -6864    -6777    -6656    -6723    -7040    -7596    -8325 
   -8953    -9161    -8889    -8348    -7800    -7385    -7069    -6795 
   -6577    -6393    -6304    -6543    -7122    -7740    -8241    -8650 
   -8919    -8901    -8444    -7611    -6723    -6087    -5903    -6327 
   -7307    -8459    -9346    -9846   -10085   -10123    -9868    -9186 
   -8048    -6756    -5844    -5521    -5618    -6016    -6566    -7068 
   -7634    -8472    -9445   -10180   -10380    -9958    -9100    -8212 
   -7635    -7407    -7315    -7225    -7230    -7376    -7504    -7534 
   -7504    -7468    -7558    -7840    -8108    -8118    -7832    -7366 
   -6961    -6822    -6939    -7246    -7658    -7936    -7952    -7865 
   -7875    -7996    -7956    -7560    -7033    -6597    -6196    -5883 
   -5849    -6208    -6953    -7858    -8642    -9189    -9416    -9247 
   -8847    -8572    -8573    -8653    -8606    -8432    -8163    -7819 
   -7578    -7615    -7824    -7983    -7990    -7884    -7763    -7672 
   -7630    -7690    -7780    -7713    -7487    -7280    -7229    -7368 
   -7684    -8068    -8314    -8309    -8039    -7546    -7060    -6758 
   -6548    -6361    -6278    -6288    -6431    -6944    -7767    -8425 
   -8595    -8395    -8176    -8176    -8394    -8633    -8583    -8136 
   -7557    -7088    -6790    -6696    -6759    -6848    -6894    -6878 
   -6837    -6937    -7280    -7732    -8118    -8351    -8374    -8187 
   -7875    -7595    -7510    -7631    -7782    -7785    -7619    -7388 
   -7175    -6963    -6697    -6426    -6241    -6114    -6150    -6575 
   -7329    -8116    -8550    -8357    -7819    -7527    -7700    -8046 
   -8235    -8256    -8159    -7897    -7588    -7426    -7468    -7614 
   -7573    -7169    -6629    -6227    -6018    -5958    -6031    -6242 
   -6531    -6937    -7605    -8406    -9012    -9282    -9165    -8640 
   -7912    -7288    -6885    -6596    -6338    -6261    -6555    -7107 
   -7565    -7771    -7865    -7943    -7959    -7942    -7973    -8087 
   -8222    -8209    -8035    -7894    -7886    -7950    -7948    -7796 
   -7564    -7322    -7075    -6891    -6839    -6910    -7115    -7402 
   -7604    -7680    -7771    -7955    -8171    -8398    -8631    -8742 
   -8591    -8247    -7931    -7765    -7666    -7501    -7249    -6978 
   -6794    -6752    -6818    -7011    -7391    -7844    -8159    -8199 
   -8039    -7885    -7793    -7740    -7780    -7813    -7701    -7476 
   -7192    -6936    -6859    -6976    -7168    -7358    -7456    -7430 
   -7492    -7766    -8110    -8459    -8750    -8837    -8772    -8698 
   -8610    -8503    -8337    -8083    -7879    -7746    -7496    -7029 
   -6404    -5853    -5660    -5836    -6210    -6670    -7155    -7611 
   -8010    -8421    -8862    -9162    -9081    -8492    -7601    -6945 
   -6831    -7088    -7375    -7403    -7121    -6805    -6747    -6968 
   -7280    -7481    -7453    -7229    -6983    -6826    -6696    -6585 
   -6621    -6862    -7236    -7554    -7578    -7242    -6704    -6187 
   -5857    -5744    -5728    -5738    -5852    -6100    -6442    -6903 
   -7462    -7938    -8170    -8166    -8068    -8070    -8193    -8199 
   -7890    -7304    -6620    -6050    -5690    -5464    -5358    -5429 
   -5721    -6323    -7223    -8176    -8818    -8958    -8789    -8680 
   -8812    -9084    -9238    -9055    -8505    -7770    -7187    -7013 
   -7295    -7877    -8480    -8861    -8911    -8669    -8263    -7815 
   -7372    -7006    -6866    -6920    -6983    -7060    -7291    -7668 
   -7942    -7774    -7195    -6602    -6200    -5946    -5791    -5667 
   -5514    -5301    -5077    -5082    -5548    -6357    -7106    -7534 
   -7746    -7959    -8248    -8496    -8490    -8218    -7851    -7426 
   -6943    -6527    -6390    -6589    -6829    -6816    -6658    -6617 
   -6751    -7009    -7317    -7615    -7924    -8253    -8455    -8355 
   -7978    -7585    -7438    -7566    -7916    -8429    -8885    -9084 
   -9072    -8938    -8679    -8255    -7723    -7198    -6663    -6088 
   -5632    -5483    -5721    -6326    -7172    -8105    -8941    -9424 
   -9358    -8772    -7993    -7322    -6705    -6052    -5481    -5090 
   -4951    -5182    -5794    -6617    -7419    -8031    -8451    -8729 
   -8783    -8495    -7885    -7111    -6475    -6168    -6019    -5832 
   -5751    -6002    -6477    -6849    -6940    -6794    -6508    -6174 
   -5929    -5813    -5736    -5621    -5510    -5675    -6365    -7456 
   -8607    -9483    -9841    -9672    -9166    -8552    -7978    -7335 
   -6512    -5738    -5343    -5405    -5822    -6490    -7296    -8059 
   -8758    -9563   -10434   -11060   -11187   -10737    -9899    -9043 
   -8332    -7754    -7344    -7128    -7136    -7360    -7692    -8090 
   -8588    -9019    -9150    -8970    -8586    -8089    -7630    -7371 
   -7372    -7636    -8110    -8653    -9142    -9443    -9433    -9165 
   -8765    -8179    -7285    -6254    -5510    -5273    -5394    -5751 
   -6372    -7188    -8043    -8901    -9859   -10775   -11138   -10644 
   -9535    -8324    -7429    -6899    -6513    -6173    -5995    -6057 
   -6363    -6920    -7704    -8573    -9290    -9636    -9516    -9004 
   -8245    -7383    -6652    -6299    -6409    -6986    -7861    -8611 
   -8903    -8729    -8299    -7850    -7414    -6918    -6419    -6015 
   -5765    -5728    -5915    -6258    -6625    -6968    -7449    -8168 
   -8897    -9289    -9181    -8648    -7902    -7177    -6604    -6216 
   -6010    -5891    -5840    -6056    -6650    -7398    -8019    -8449 
   -8730    -8868    -8892    -8899    -8927    -8888    -8652    -8245 
   -7897    -7754    -7697    -7632    -7589    -7562    -7449    -7119 
   -6606    -6154    -5956    -6034    -6312    -6624    -6832    -6921 
   -6957    -7072    -7422    -7989    -8529    -8827    -8826    -8572 
   -8189    -7809    -7465    -7111    -6750    -6443    -6309    -6420 
   -6735    -7202    -7731    -8078    -8132    -8097    -8109    -8083 
   -7901    -7473    -6878    -6331    -5944    -5740    -5748    -5950 
   -6266    -6619    -7020    -7568    -8185    -8594    -8618    -8302 
   -7874    -7587    -7501    -7616    -8005    -8561    -8918    -8881 
   -8646    -8424    -8181    -7824    -7384    -6887    -6332    -5852 
   -5687    -5923    -6397    -6912    -7418    -7939    -8418    -8734 
   -8773    -8492    -7902    -7096    -6304    -5701    -5259    -4973 
   -4945    -5167    -5516    -5926    -6369    -6775    -7099    -7288 
   -7299    -7196    -7137    -7211    -7389    -7641    -7939    -8209 
   -8371    -8422    -8442    -8503    -8564    -8467    -8098    -7523 
   -6909    -6455    -6315    -6428    -6640    -6885    -7134    -7462 
   -7981    -8588    -9084    -9333    -9178    -8610    -7904    -7349 
   -7025    -6864    -6770    -6731    -6795    -6944    -7142    -7446 
   -7871    -8299    -8603    -8752    -8727    -8506    -8120    -7653 
   -7250    -7030    -6943    -6909    -6933    -6960    -6897    -6802 
   -6798    -6933    -7164    -7431    -7704    -7844    -7697    -7395 
   -7186    -7113    -7128    -7217    -7380    -7603    -7769    -7789 
   -7736    -7688    -7638    -7533    -7372    -7267    -7242    -7183 
   -7091    -7133    -7325    -7519    -7692    -7898    -8062    -8109 
   -8114    -8139    -8110    -7906    -7518    -7082    -6739    -6543 
   -6513    -6577    -6555    -6376    -6168    -6142    -6448    -7057 
   -7724    -8164    -8309    -8330    -8375    -8468    -8611    -8683 
   -8476    -8074    -7789    -7680    -7588    -7499    -7504    -7562 
   -7585    -7596    -7672    -7815    -7911    -7823    -7596    -7434 
   -7488    -7788    -8253    -8735    -9115    -9337    -9385    -9250 
   -8942    -8522    -8109    -7784    -7570    -7485    -7543    -7751 
   -8081    -8413    -8638    -8738    -8676    -8472    -8320    -8360 
   -8496    -8518    -8303    -7958    -7765    -7871    -8121    -8272 
   -8225    -7975    -7514    -6922    -6400    -6065    -5890    -5822 
   -5915    -6270    -6879    -7584    -8201    -8550    -8468    -7983 
   -7321    -6697    -6239    -5999    -5954    -6087    -6376    -6729 
   -7030    -7195    -7173    -7001    -6786    -6636    -6583    -6594 
   -6631    -6702    -6875    -7129    -7331    -7429    -7461    -7383 
   -7122    -6750    -6392    -6102    -5877    -5755    -5834    -6147 
   -6656    -7254    -7757    -8098    -8405    -8757    -9099    -9344 
   -9371    -9109    -8714    -8455    -8391    -8334    -8102    -7705 
   -7303    -7086    -7199    -7655    -8260    -8727    -8926    -8942 
   -8928    -8945    -8914    -8749    -8437    -7979    -7472    -7111 
   -6959    -6925    -6902    -6778    -6573    -6399    -6273    -6177 
   -6172    -6307    -6507    -6656    -6721    -6774    -6872    -6995 
   -7107    -7217    -7326    -7381    -7314    -7140    -6971    -6809 
   -6531    -6142    -5794    -5621    -5733    -6197    -6937    -7736 
   -8394    -8823    -9032    -9038    -8837    -8422    -7865    -7304 
   -6781    -6243    -5733    -5421    -5440    -5778    -6346    -6966 
   -7441    -7742    -7889    -7924    -7998    -8164    -8310    -8360 
   -8333    -8297    -8324    -8418    -8537    -8631    -8649    -8527 
   -8236    -7831    -7383    -6963    -6696    -6574    -6500    -6554 
   -6798    -7057    -7234    -7435    -7743    -8133    -8482    -8598 
   -8405    -7960    -7318    -6575    -5879    -5328    -5004    -4942 
   -5150    -5630    -6285    -6948    -7516    -7971    -8280    -8384 
   -8268    -7954    -7466    -6966    -6669    -6602    -6693    -6887 
   -7129    -7387    -7657    -7951    -8314    -8661    -8820    -8799 
   -8741    -8681    -8575    -8410    -8237    -8160    -8225    -8359 
   -8492    -8622    -8681    -8577    -8365    -8166    -7977    -7749 
   -7472    -7176    -6975    -6997    -7257    -7632    -7959    -8145 
   -8239    -8336    -8419    -8382    -8159    -7774    -7294    -6839 
   -6559    -6521    -6640    -6743    -6763    -6805    -6980    -7292 
   -7665    -7965    -8059    -7933    -7678    -7408    -7180    -6959 
   -6731    -6582    -6635    -6925    -7366    -7828    -8193    -8428 
   -8611    -8757    -8752    -8568    -8316    -8120    -8068    -8122 
   -8197    -8280    -8306    -8178    -8004    -7973    -8062    -8054 
   -7773    -7299    -6885    -6723    -6845    -7134    -7439    -7716 
   -7958    -8166    -8376    -8530    -8464    -8118    -7624    -7159 
