Origin Time       2025/01/13 21:19:00
Lat.              31.8
Long.             131.6
Depth. (km)       30
Mag.              6.9
Station Code      HRSH13
Station Lat.      34.4122
Station Long.     132.3907
Station Height(m) -50
Record Time       2025/01/13 21:20:27
Sampling Freq(Hz) 100Hz
Duration Time(s)  125
Dir.              3
Scale Factor      2942(gal)/8224139
Max. Acc. (gal)   1.031
Last Correction   2025/01/13 21:20:27
Memo.             
[...]
   77197    77110    77048    77052    77089    77128    77179    77244 
   77292    77321    77337    77350    77376    77411    77429    77430 
   77437    77449    77463    77499    77546    77575    77593    77618 
   77642    77677    77707    77715    77719    77706    77665    77631 
   77614    77595    77562    77527    77521    77541    77553    77572 
   77612    77633    77616    77595    77576    77541    77502    77492 
   77512    77529    77537    77537    77514    77481    77433    77369 
   77349    77356    77340    77322    77314    77296    77257    77194 
   77153    77163    77195    77244    77294    77310    77286    77263 
   77295    77376    77457    77517    77556    77576    77588    77600 
   77602    77588    77573    77580    77616    77646    77657    77647 
   77595    77499    77415    77365    77334    77318    77286    77201 
   77106    77043    76972    76890    76839    76823    76819    76820 
   76804    76797    76824    76864    76914    76985    77072    77148 
   77186    77232    77298    77344    77392    77479    77579    77661 
   77734    77805    77850    77859    77872    77877    77849    77805 
   77777    77770    77780    77782    77773    77764    77728    77646 
   77579    77533    77463    77391    77325    77251    77183    77133 
   77103    77089    77071    77067    77112    77190    77261    77287 
   77252    77233    77280    77349    77431    77545    77672    77757 
   77784    77818    77899    77966    77970    77961    78001    78061 
   78089    78109    78151    78177    78160    78162    78217    78267 
   78267    78244    78214    78166    78106    78052    78003    77953 
   77904    77874    77855    77831    77804    77770    77723    77700 
   77703    77703    77707    77731    77766    77788    77772    77716 
   77658    77649    77708    77777    77787    77778    77793    77793 
   77746    77669    77607    77610    77660    77695    77665    77612 
   77602    77622    77650    77677    77658    77579    77491    77448 
   77445    77452    77473    77525    77566    77562    77535    77499 
   77441    77386    77349    77326    77311    77291    77265    77261 
   77257    77220    77148    77058    76971    76921    76924    76962 
   76978    76943    76898    76863    76816    76778    76767    76740 
   76669    76578    76497    76427    76395    76401    76422    76454 
   76499    76538    76561    76565    76566    76576    76555    76501 
   76499    76555    76608    76661    76716    76743    76754    76774 
   76789    76796    76813    76821    76796    76800    76862    76921 
   76966    77017    77063    77074    77047    77056    77137    77210 
   77255    77296    77314    77326    77349    77357    77352    77350 
   77392    77496    77572    77548    77496    77481    77495    77510 
   77512    77515    77539    77561    77572    77576    77580    77604 
   77634    77652    77676    77714    77760    77818    77876    77901 
   77882    77816    77718    77629    77580    77587    77638    77679 
   77687    77679    77662    77631    77580    77525    77494    77456 
   77394    77352    77344    77353    77400    77480    77527    77523 
   77511    77518    77539    77577    77614    77630    77641    77654 
   77625    77527    77409    77318    77247    77156    77060    76997 
   76963    76913    76856    76835    76820    76800    76813    76875 
   76936    76956    76939    76894    76856    76862    76883    76914 
   76966    77010    77029    77043    77070    77094    77102    77124 
   77171    77215    77261    77282    77222    77113    77018    76971 
   76977    77018    77062    77076    77051    77032    77044    77049 
   77048    77089    77176    77286    77398    77514    77614    77670 
   77689    77683    77665    77695    77773    77822    77823    77797 
   77719    77619    77571    77576    77571    77533    77492    77448 
   77396    77380    77387    77371    77356    77356    77371    77414 
   77421    77375    77359    77363    77367    77446    77614    77778 
   77880    77907    77916    77958    78028    78105    78156    78179 
   78219    78259    78251    78204    78123    78011    77926    77888 
   77886    77904    77886    77812    77751    77730    77708    77670 
   77604    77492    77360    77244    77152    77079    77006    76910 
   76820    76777    76769    76761    76732    76715    76751    76820 
   76846    76808    76766    76756    76752    76754    76786    76831 
   76856    76866    76851    76824    76815    76839    76897    76977 
   77049    77107    77137    77141    77167    77201    77187    77133 
   77091    77094    77117    77109    77076    77072    77109    77147 
   77143    77109    77078    77051    77026    77008    76997    77008 
   77044    77070    77071    77082    77120    77163    77180    77144 
   77082    77045    77022    76977    76916    76863    76829    76833 
   76890    76960    76982    76970    76987    77025    77048    77090 
   77160    77213    77218    77207    77242    77298    77313    77302 
   77318    77349    77355    77348    77363    77382    77384    77379 
   77367    77356    77361    77387    77417    77426    77430    77429 
   77398    77379    77391    77357    77295    77283    77301    77318 
   77322    77280    77247    77287    77363    77415    77444    77481 
   77529    77549    77550    77557    77566    77580    77602    77637 
   77681    77697    77652    77573    77507    77472    77492    77556 
   77607    77641    77685    77724    77727    77707    77735    77809 
   77841    77808    77788    77826    77903    77980    78055    78133 
   78197    78240    78287    78337    78359    78370    78387    78386 
   78390    78432    78475    78499    78526    78545    78540    78511 
   78440    78321    78220    78170    78150    78140    78138    78124 
   78097    78086    78113    78182    78250    78281    78312    78356 
   78390    78403    78382    78351    78349    78359    78368    78374 
   78335    78270    78247    78275    78306    78316    78316    78312 
   78306    78285    78216    78093    77976    77890    77807    77733 
   77669    77576    77488    77469    77468    77421    77357    77332 
   77323    77280    77206    77125    77021    76901    76808    76750 
   76711    76663    76586    76515    76484    76465    76443    76435 
   76430    76416    76419    76461    76534    76621    76705    76778 
   76847    76910    76970    77028    77080    77136    77203    77280 
   77383    77499    77589    77656    77723    77796    77863    77916 
   77950    77980    78015    78067    78132    78179    78219    78281 
   78331    78347    78345    78328    78308    78285    78219    78150 
   78142    78132    78071    78007    77981    77981    77963    77934 
   77913    77861    77789    77758    77751    77747    77757    77769 
   77781    77791    77778    77772    77812    77874    77915    77939 
   77954    77951    77939    77939    77939    77909    77859    77808 
   77776    77777    77787    77777    77742    77673    77591    77514 
   77423    77310    77191    77083    76997    76910    76816    76754 
   76709    76658    76636    76661    76709    76750    76762    76775 
   76789    76782    76793    76828    76859    76901    76948    76972 
   76998    77040    77099    77168    77222    77267    77323    77382 
   77414    77430    77440    77403    77333    77283    77276    77299 
   77336    77371    77376    77371    77403    77461    77510    77544 
   77550    77531    77504    77473    77458    77484    77498    77469 
   77441    77421    77404    77419    77422    77376    77355    77391 
   77429    77427    77377    77295    77201    77113    77076    77086 
   77070    77028    76995    76948    76894    76871    76855    76820 
   76798    76801    76802    76804    76828    76854    76850    76837 
   76859    76909    76966    77021    77058    77075    77105    77160 
   77236    77305    77348    77379    77417    77481    77560    77607 
   77638    77673    77695    77716    77757    77784    77785    77755 
   77680    77593    77523    77448    77344    77238    77175    77134 
   77097    77090    77113    77110    77107    77147    77217    77303 
   77398    77490    77598    77746    77877    77943    77981    78009 
   78028    78066    78125    78179    78221    78255    78259    78232 
   78216    78219    78208    78197    78208    78220    78224    78229 
   78198    78102    78011    77943    77851    77768    77722    77646 
   77521    77395    77299    77225    77147    77053    76959    76848 
   76738    76678    76627    76538    76451    76376    76319    76327 
   76384    76426    76438    76441    76430    76410    76441    76522 
   76581    76604    76636    76675    76690    76705    76740    76781 
   76827    76870    76918    76989    77056    77089    77090    77089 
   77126    77187    77240    77295    77333    77348    77367    77406 
   77434    77437    77423    77376    77288    77229    77240    77268 
   77255    77203    77149    77072    76968    76889    76827    76767 
   76735    76692    76613    76550    76508    76449    76347    76214 
   76076    75926    75778    75681    75612    75525    75428    75311 
   75178    75082    75010    74929    74858    74799    74760    74777 
   74821    74830    74837    74872    74891    74910    74974    75078 
   75190    75307    75442    75600    75763    75922    76061    76171 
   76285    76437    76596    76756    76935    77090    77199    77336 
   77534    77730    77876    78003    78144    78287    78395    78479 
   78579    78678    78786    78921    79058    79185    79293    79402 
   79563    79722    79810    79860    79901    79929    79941    79937 
   79929    79910    79860    79789    79720    79658    79594    79529 
   79465    79394    79324    79259    79204    79165    79130    79073 
   78989    78900    78833    78798    78784    78772    78738    78691 
   78640    78597    78571    78534    78483    78441    78405    78364 
   78316    78244    78140    78036    77965    77889    77778    77680 
   77616    77546    77449    77356    77290    77228    77171    77147 
   77159    77203    77257    77279    77314    77433    77592    77734 
   77857    77923    77955    78035    78128    78165    78166    78179 
   78201    78186    78123    78032    77930    77820    77731    77680 
   77612    77494    77390    77318    77211    77067    76935    76825 
   76758    76734    76720    76705    76686    76657    76635    76628 
   76651    76697    76738    76779    76825    76873    76923    76940 
   76917    76904    76894    76871    76858    76840    76775    76671 
   76597    76572    76542    76491    76466    76468    76472    76511 
   76577    76609    76608    76609    76611    76608    76634    76678 
   76702    76736    76794    76837    76844    76824    76804    76786 
   76767    76771    76794    76798    76786    76783    76790    76782 
   76771    76785    76810    76842    76913    77006    77093    77174 
   77259    77365    77476    77549    77615    77707    77792    77861 
   77913    77928    77916    77893    77846    77796    77765    77734 
   77697    77665    77625    77552    77454    77364    77282    77195 
   77103    77002    76897    76798    76705    76605    76499    76400 
   76327    76288    76279    76275    76268    76279    76316    76369 
   76438    76522    76617    76723    76824    76894    76939    76977 
   77010    77052    77121    77198    77251    77268    77268    77282 
   77305    77313    77323    77356    77388    77400    77394    77379 
   77379    77380    77364    77336    77314    77313    77311    77310 
   77334    77380    77423    77463    77534    77642    77739    77807 
   77866    77922    77974    78047    78150    78251    78335    78430 
   78551    78672    78792    78908    79016    79123    79199    79227 
   79265    79338    79400    79438    79485    79531    79527    79485 
   79446    79420    79386    79340    79305    79276    79230    79168 
   79099    79027    78945    78850    78769    78729    78702    78653 
   78592    78543    78489    78424    78349    78256    78154    78073 
   78020    77977    77922    77847    77766    77703    77652    77600 
   77545    77473    77394    77323    77265    77226    77199    77149 
   77095    77075    77071    77074    77076    77064    77067    77090 
   77112    77136    77161    77182    77199    77207    77224    77268 
   77306    77299    77265    77220    77147    77067    77008    76945 
   76863    76779    76700    76634    76578    76519    76441    76347 
   76262    76187    76118    76052    75976    75905    75848    75793 
   75756    75741    75702    75641    75610    75597    75566    75517 
   75471    75442    75443    75456    75459    75458    75471    75501 
   75535    75578    75654    75748    75841    75932    76006    76057 
   76111    76189    76272    76334    76376    76419    76480    76535 
   76576    76628    76674    76694    76719    76765    76809    76843 
   76877    76894    76898    76913    76947    76987    77039    77121 
   77233    77352    77473    77611    77776    77951    78128    78310 
   78483    78632    78764    78885    78988    79074    79177    79293 
   79389    79463    79536    79616    79705    79795    79856    79890 
   79937    80006    80068    80126    80190    80239    80261    80273 
   80285    80269    80230    80183    80111    80010    79906    79787 
   79640    79465    79261    79049    78850    78661    78476    78304 
   78136    77955    77770    77602    77449    77309    77187    77090 
   77002    76910    76835    76774    76712    76661    76638    76642 
   76659    76684    76738    76813    76877    76921    76955    76994 
   77063    77172    77290    77386    77454    77519    77588    77635 
   77674    77738    77815    77872    77904    77927    77939    77935 
   77931    77915    77858    77785    77724    77658    77603    77580 
   77556    77529    77529    77535    77538    77539    77523    77503 
   77495    77469    77422    77376    77333    77287    77237    77188 
   77140    77087    77029    76962    76886    76812    76736    76658 
   76597    76557    76512    76465    76432    76424    76412    76377 
   76369    76412    76459    76496    76531    76562    76601    76650 
   76694    76740    76793    76850    76916    76990    77048    77091 
   77153    77248    77344    77406    77448    77503    77572    77638 
   77718    77820    77917    77989    78036    78077    78104    78105 
   78105    78120    78129    78133    78132    78120    78123    78124 
   78088    78046    78042    78044    78038    78039    78040    78031 
   78019    78000    77963    77911    77854    77800    77728    77623 
   77488    77332    77160    76982    76798    76615    76446    76299 
   76175    76068    75956    75822    75678    75555    75469    75420 
   75389    75355    75323    75301    75286    75285    75308    75347 
   75377    75398    75427    75458    75497    75574    75675    75763 
   75843    75917    75992    76092    76204    76292    76338    76376 
   76442    76528    76628    76731    76815    76885    76962    77029 
   77075    77134    77224    77310    77386    77468    77550    77611 
   77657    77703    77749    77795    77855    77926    77984    78020 
   78054    78104    78152    78190    78232    78290    78345    78398 
   78449    78498    78565    78642    78698    78742    78784    78829 
   78895    78960    78999    79024    79033    79022    79019    79019 
   79006    78968    78915    78875    78846    78799    78736    78671 
   78610    78540    78455    78358    78254    78148    78042    77920 
   77808    77727    77661    77596    77549    77511    77475    77444 
   77421    77398    77380    77382    77398    77404    77411    77431 
   77463    77494    77538    77596    77657    77731    77805    77861 
   77920    77990    78044    78061    78048    78020    77976    77907 
   77832    77755    77666    77564    77463    77386    77306    77191 
   77083    77022    76968    76897    76813    76721    76644    76603 
   76594    76608    76646    76702    76767    76821    76856    76881 
   76905    76913    76912    76921    76933    76932    76932    76925 
   76912    76912    76929    76947    76967    76978    76972    76954 
   76931    76921    76935    76960    76999    77058    77113    77149 
   77184    77226    77279    77333    77391    77469    77537    77576 
   77627    77692    77728    77768    77831    77888    77930    77970 
   78003    78021    78030    78034    78027    78000    77977    77962 
   77916    77836    77743    77645    77545    77444    77338    77229 
   77113    76993    76881    76767    76642    76518    76392    76252 
   76115    76009    75940    75884    75820    75762    75729    75712 
   75706    75708    75714    75736    75789    75861    75942    76023 
   76114    76235    76372    76504    76634    76750    76852    76978 
   77122    77263    77402    77534    77650    77751    77847    77940 
   78023    78090    78147    78192    78233    78279    78304    78290 
   78264    78231    78169    78090    78015    77932    77828    77723 
   77633    77545    77456    77375    77301    77238    77182    77134 
   77099    77055    77001    76964    76956    76956    76959    76967 
   76982    76989    76990    77010    77051    77091    77126    77175 
   77228    77260    77286    77330    77384    77438    77492    77565 
   77645    77714    77791    77884    77978    78079    78193    78316 
   78421    78498    78568    78633    78686    78752    78826    78877 
   78908    78930    78949    78966    78975    78972    78961    78923 
   78869    78842    78833    78806    78769    78730    78695    78668 
   78636    78592    78555    78521    78466    78398    78341    78286 
   78221    78150    78081    78016    77946    77882    77836    77797 
   77758    77706    77633    77548    77453    77356    77272    77197 
   77125    77058    76987    76909    76828    76758    76692    76607 
   76512    76441    76374    76288    76206    76126    76038    75969 
   75934    75910    75894    75895    75895    75887    75888    75899 
   75911    75919    75921    75933    75957    75978    75999    76023 
   76027    76023    76032    76053    76073    76092    76118    76141 
   76142    76144    76167    76194    76218    76262    76318    76347 
   76366    76391    76396    76385    76391    76410    76435    76476 
   76531    76596    76657    76704    76736    76766    76809    76875 
   76948    77022    77105    77184    77256    77332    77417    77506 
   77596    77688    77781    77868    77953    78042    78135    78223 
   78298    78378    78464    78536    78607    78695    78768    78818 
   78864    78899    78914    78927    78931    78912    78879    78831 
   78779    78734    78699    78653    78594    78533    78472    78414 
   78367    78328    78286    78246    78213    78185    78163    78136 
   78098    78063    78028    77986    77954    77923    77861    77780 
   77683    77557    77421    77301    77199    77099    76977    76836 
   76707    76589    76478    76372    76268    76175    76098    76033 
