Origin Time       2025/01/13 21:19:00
Lat.              31.8
Long.             131.6
Depth. (km)       30
Mag.              6.9
Station Code      HRSH07
Station Lat.      34.2883
Station Long.     132.6411
Station Height(m) 128
Record Time       2025/01/13 21:20:20
Sampling Freq(Hz) 100Hz
Duration Time(s)  147
Dir.              1
Scale Factor      2942(gal)/8224139
Max. Acc. (gal)   2.061
Last Correction   2025/01/13 21:20:20
Memo.             
[...]
  -95994   -95999   -96006   -96059   -96159   -96252   -96296   -96322 
  -96364   -96385   -96380   -96452   -96676   -96970   -97182   -97228 
  -97129   -96957   -96757   -96570   -96427   -96313   -96198   -96098 
  -95995   -95870   -95748   -95623   -95457   -95258   -95080   -94957 
  -94906   -94940   -95015   -95057   -95064   -95056   -95011   -94975 
  -95053   -95272   -95553   -95790   -95941   -96018   -96029   -95970 
  -95870   -95747   -95577   -95350   -95110   -94891   -94710   -94601 
  -94593   -94693   -94887   -95108   -95269   -95388   -95534   -95706 
  -95883   -96025   -96079   -96078   -96070   -96055   -96067   -96120 
  -96156   -96151   -96128   -96105   -96076   -96026   -95925   -95735 
  -95474   -95242   -95112   -95068   -95085   -95146   -95197   -95189 
  -95137   -95103   -95137   -95226   -95310   -95354   -95361   -95330 
  -95260   -95175   -95111   -95123   -95229   -95389   -95563   -95681 
  -95706   -95697   -95697   -95715   -95779   -95889   -95972   -96018 
  -96078   -96156   -96217   -96230   -96218   -96219   -96217   -96182 
  -96152   -96163   -96186   -96171   -96083   -95955   -95866   -95839 
  -95866   -95976   -96130   -96219   -96211   -96145   -96048   -95971 
  -95936   -95897   -95863   -95850   -95806   -95723   -95644   -95581 
  -95548   -95558   -95565   -95520   -95465   -95458   -95465   -95446 
  -95467   -95581   -95708   -95774   -95814   -95839   -95808   -95716 
  -95604   -95535   -95563   -95696   -95898   -96114   -96303   -96425 
  -96445   -96394   -96342   -96341   -96399   -96493   -96587   -96660 
  -96704   -96730   -96763   -96815   -96866   -96897   -96870   -96716 
  -96426   -96090   -95785   -95520   -95288   -95129   -95073   -95092 
  -95142   -95199   -95239   -95253   -95231   -95218   -95296   -95488 
  -95728   -95963   -96198   -96412   -96549   -96618   -96692   -96777 
  -96831   -96871   -96912   -96913   -96844   -96689   -96429   -96138 
  -95936   -95828   -95751   -95681   -95623   -95642   -95814   -96102 
  -96372   -96570   -96718   -96807   -96849   -96904   -96940   -96851 
  -96647   -96452   -96319   -96194   -96048   -95909   -95710   -95391 
  -95014   -94656   -94335   -94100   -94012   -94030   -94078   -94136 
  -94200   -94248   -94282   -94332   -94450   -94643   -94851   -94983 
  -95017   -95015   -95029   -95044   -95034   -95021   -95004   -94933 
  -94825   -94757   -94743   -94764   -94832   -94896   -94927   -95000 
  -95153   -95326   -95461   -95567   -95701   -95885   -96061   -96217 
  -96426   -96665   -96808   -96867   -96985   -97209   -97457   -97656 
  -97787   -97849   -97826   -97691   -97440   -97152   -96908   -96707 
  -96520   -96326   -96106   -95881   -95740   -95717   -95729   -95709 
  -95671   -95590   -95423   -95224   -95083   -95042   -95077   -95108 
  -95114   -95160   -95253   -95361   -95490   -95631   -95724   -95728 
  -95658   -95538   -95384   -95207   -95018   -94849   -94741   -94699 
  -94716   -94822   -95015   -95212   -95361   -95507   -95694   -95922 
  -96196   -96481   -96692   -96820   -96907   -96962   -97006   -97055 
  -97096   -97116   -97098   -97039   -96932   -96747   -96472   -96142 
  -95766   -95338   -94892   -94500   -94231   -94109   -94088   -94130 
  -94213   -94294   -94359   -94454   -94614   -94849   -95123   -95366 
  -95544   -95690   -95831   -95975   -96105   -96176   -96161   -96067 
  -95933   -95775   -95578   -95341   -95084   -94869   -94734   -94628 
  -94505   -94396   -94312   -94263   -94293   -94417   -94617   -94865 
  -95131   -95369   -95553   -95717   -95885   -96030   -96134   -96194 
  -96186   -96083   -95877   -95634   -95418   -95226   -95094   -95044 
  -95004   -94900   -94751   -94610   -94525   -94478   -94423   -94358 
  -94354   -94528   -94861   -95164   -95355   -95532   -95731   -95913 
  -96059   -96145   -96176   -96187   -96187   -96145   -96043   -95947 
  -95963   -96076   -96213   -96349   -96448   -96437   -96329   -96233 
  -96217   -96255   -96346   -96530   -96772   -96982   -97117   -97178 
  -97225   -97332   -97464   -97569   -97634   -97614   -97498   -97351 
  -97252   -97221   -97195   -97114   -97001   -96909   -96884   -96952 
  -97060   -97129   -97164   -97160   -97077   -96907   -96691   -96515 
  -96450   -96491   -96556   -96546   -96458   -96379   -96336   -96283 
  -96187   -96072   -95987   -95968   -96061   -96268   -96456   -96506 
  -96460   -96422   -96439   -96507   -96599   -96680   -96709   -96685 
  -96642   -96606   -96618   -96719   -96850   -96890   -96834   -96751 
  -96643   -96484   -96313   -96152   -95959   -95724   -95489   -95270 
  -95069   -94880   -94651   -94321   -93964   -93702   -93561   -93513 
  -93513   -93486   -93430   -93405   -93393   -93351   -93340   -93410 
  -93533   -93649   -93719   -93788   -93949   -94181   -94378   -94493 
  -94513   -94440   -94324   -94234   -94205   -94232   -94300   -94414 
  -94571   -94725   -94860   -94994   -95123   -95229   -95280   -95293 
  -95337   -95405   -95472   -95534   -95546   -95457   -95303   -95214 
  -95241   -95293   -95301   -95254   -95146   -95006   -94861   -94716 
  -94593   -94536   -94572   -94702   -94887   -95054   -95154   -95212 
  -95254   -95274   -95289   -95351   -95476   -95648   -95859   -96051 
  -96129   -96110   -96091   -96125   -96218   -96349   -96469   -96552 
  -96599   -96626   -96655   -96703   -96751   -96780   -96757   -96630 
  -96403   -96178   -96049   -96024   -96066   -96137   -96195   -96214 
  -96171   -96045   -95879   -95727   -95573   -95412   -95287   -95212 
  -95165   -95127   -95098   -95089   -95104   -95118   -95119   -95152 
  -95251   -95373   -95443   -95453   -95428   -95413   -95465   -95615 
  -95833   -96094   -96387   -96666   -96901   -97098   -97239   -97279 
  -97210   -97060   -96863   -96696   -96642   -96715   -96853   -96979 
  -97052   -97105   -97193   -97272   -97268   -97210   -97152   -97082 
  -97011   -96965   -96955   -97001   -97058   -97040   -96966   -96928 
  -96985   -97078   -97102   -97051   -97000   -96936   -96828   -96701 
  -96592   -96545   -96573   -96630   -96709   -96866   -97083   -97272 
  -97391   -97432   -97383   -97268   -97105   -96888   -96657   -96469 
  -96322   -96175   -96012   -95797   -95504   -95191   -94911   -94668 
  -94495   -94406   -94355   -94278   -94149   -93951   -93711   -93474 
  -93247   -93024   -92821   -92670   -92593   -92549   -92466   -92333 
  -92179   -92051   -91990   -91987   -92022   -92074   -92114   -92157 
  -92237   -92335   -92421   -92497   -92595   -92723   -92877   -93035 
  -93185   -93337   -93457   -93484   -93429   -93372   -93388   -93494 
  -93653   -93839   -94041   -94252   -94495   -94755   -94975   -95157 
  -95351   -95551   -95733   -95939   -96215   -96537   -96847   -97108 
  -97294   -97409   -97484   -97549   -97621   -97729   -97880   -98039 
  -98173   -98300   -98483   -98713   -98926   -99148   -99430   -99739 
 -100005  -100221  -100450  -100708  -100903  -100986  -100971  -100859 
 -100674  -100515  -100434  -100342  -100128   -99816   -99463   -99048 
  -98575   -98145   -97768   -97336   -96835   -96369   -95990   -95693 
  -95476   -95328   -95214   -95098   -94979   -94840   -94659   -94498 
  -94414   -94362   -94289   -94200   -94095   -93968   -93825   -93648 
  -93429   -93239   -93163   -93190   -93237   -93279   -93387   -93627 
  -93941   -94224   -94481   -94764   -95052   -95288   -95478   -95635 
  -95777   -95966   -96214   -96460   -96651   -96768   -96813   -96800 
  -96697   -96510   -96319   -96182   -96061   -95939   -95814   -95719 
  -95696   -95729   -95782   -95866   -95967   -96024   -96051   -96114 
  -96195   -96214   -96176   -96159   -96176   -96218   -96286   -96354 
  -96412   -96499   -96634   -96805   -96957   -97029   -97025   -97008 
  -97015   -96996   -96898   -96758   -96591   -96385   -96205   -96113 
  -96082   -96067   -96082   -96111   -96095   -96056   -96055   -96090 
  -96141   -96195   -96256   -96388   -96628   -96890   -97040   -96998 
  -96782   -96503   -96265   -96097   -95955   -95789   -95647   -95588 
  -95582   -95607   -95675   -95773   -95889   -96060   -96311   -96607 
  -96896   -97159   -97406   -97690   -98018   -98329   -98566   -98714 
  -98795   -98817   -98767   -98643   -98464   -98270   -98031   -97688 
  -97299   -96969   -96654   -96292   -95914   -95550   -95215   -94963 
  -94806   -94678   -94525   -94362   -94212   -94049   -93843   -93604 
  -93367   -93163   -92988   -92805   -92589   -92352   -92163   -92055 
  -91998   -91998   -92087   -92229   -92344   -92403   -92439   -92519 
  -92680   -92900   -93163   -93487   -93861   -94227   -94549   -94813 
  -95004   -95143   -95274   -95386   -95455   -95536   -95651   -95725 
  -95706   -95608   -95463   -95327   -95226   -95145   -95057   -94941 
  -94830   -94786   -94813   -94863   -94882   -94849   -94791   -94734 
  -94652   -94559   -94505   -94459   -94347   -94146   -93873   -93567 
  -93283   -93105   -93052   -93064   -93102   -93178   -93289   -93426 
  -93594   -93777   -93991   -94288   -94686   -95139   -95593   -96022 
  -96425   -96781   -97059   -97274   -97486   -97714   -97907   -98045 
  -98197   -98379   -98525   -98633   -98761   -98919   -99075   -99195 
  -99270   -99288   -99206   -99025   -98829   -98706   -98628   -98497 
  -98253   -97899   -97478   -97055   -96649   -96236   -95806   -95349 
  -94859   -94385   -93968   -93576   -93193   -92863   -92593   -92345 
  -92140   -92026   -91989   -91967   -91912   -91832   -91797   -91833 
  -91928   -92098   -92341   -92604   -92871   -93155   -93407   -93603 
  -93784   -93938   -94047   -94194   -94398   -94568   -94709   -94945 
  -95324   -95733   -96086   -96439   -96811   -97125   -97367   -97553 
  -97698   -97860   -98072   -98282   -98462   -98631   -98745   -98778 
  -98760   -98690   -98537   -98309   -98016   -97665   -97276   -96874 
  -96485   -96138   -95832   -95543   -95254   -94926   -94533   -94146 
  -93860   -93683   -93576   -93546   -93595   -93675   -93753   -93853 
  -93981   -94119   -94266   -94425   -94591   -94795   -95044   -95291 
  -95496   -95685   -95899   -96138   -96373   -96568   -96714   -96894 
  -97154   -97384   -97519   -97623   -97730   -97806   -97816   -97741 
  -97580   -97386   -97205   -97051   -96947   -96892   -96831   -96727 
  -96591   -96435   -96292   -96221   -96229   -96237   -96209   -96178 
  -96164   -96126   -96036   -95922   -95827   -95733   -95643   -95586 
  -95584   -95643   -95760   -95926   -96110   -96280   -96421   -96545 
  -96685   -96835   -96927   -96931   -96888   -96850   -96843   -96866 
  -96877   -96863   -96851   -96857   -96862   -96822   -96734   -96646 
  -96572   -96508   -96450   -96363   -96272   -96226   -96172   -96057 
  -95933   -95827   -95715   -95604   -95521   -95493   -95501   -95481 
  -95411   -95318   -95222   -95130   -95049   -95008   -95018   -95072 
  -95195   -95409   -95681   -95963   -96210   -96380   -96496   -96601 
  -96680   -96736   -96823   -96943   -97054   -97119   -97100   -97024 
  -96975   -96961   -96912   -96808   -96678   -96492   -96191   -95812 
  -95423   -95034   -94655   -94316   -94014   -93742   -93541   -93441 
  -93425   -93465   -93555   -93715   -93927   -94122   -94292   -94459 
  -94593   -94682   -94761   -94869   -95018   -95185   -95354   -95536 
  -95737   -95917   -96026   -96072   -96118   -96186   -96230   -96246 
  -96269   -96322   -96395   -96487   -96622   -96811   -97028   -97244 
  -97430   -97557   -97618   -97595   -97478   -97310   -97129   -96919 
  -96674   -96407   -96110   -95760   -95378   -95019   -94694   -94377 
  -94093   -93868   -93680   -93521   -93382   -93245   -93147   -93124 
  -93127   -93108   -93131   -93218   -93333   -93482   -93675   -93881 
  -94100   -94327   -94521   -94682   -94845   -95017   -95187   -95349 
  -95484   -95584   -95651   -95678   -95666   -95623   -95567   -95535 
  -95546   -95570   -95563   -95513   -95458   -95416   -95389   -95401 
  -95462   -95536   -95600   -95654   -95692   -95706   -95688   -95605 
  -95454   -95289   -95169   -95110   -95054   -94918   -94718   -94568 
  -94491   -94441   -94433   -94460   -94490   -94555   -94699   -94929 
  -95220   -95528   -95770   -95887   -95887   -95856   -95862   -95872 
  -95859   -95863   -95885   -95860   -95782   -95692   -95609   -95524 
  -95428   -95350   -95337   -95345   -95318   -95299   -95342   -95424 
  -95527   -95659   -95824   -96037   -96299   -96552   -96745   -96880 
  -96947   -96950   -96936   -96974   -97059   -97187   -97397   -97663 
  -97933   -98223   -98550   -98890   -99239   -99555   -99775   -99897 
  -99921   -99825   -99643   -99427   -99216   -99041   -98871   -98643 
  -98336   -97965   -97515   -96994   -96465   -95976   -95538   -95148 
  -94798   -94468   -94158   -93911   -93793   -93792   -93847   -93949 
  -94108   -94301   -94491   -94640   -94714   -94733   -94738   -94733 
  -94748   -94841   -95018   -95250   -95488   -95682   -95855   -96059 
  -96314   -96606   -96928   -97267   -97591   -97906   -98230   -98545 
  -98847   -99139   -99392   -99574   -99677   -99685   -99603   -99455 
  -99237   -98929   -98528   -98035   -97501   -96984   -96462   -95916 
  -95366   -94817   -94302   -93872   -93533   -93294   -93159   -93087 
  -93055   -93066   -93098   -93125   -93162   -93209   -93209   -93101 
  -92909   -92672   -92385   -92059   -91729   -91431   -91185   -90969 
  -90734   -90487   -90282   -90143   -90040   -89974   -89999   -90148 
  -90428   -90821   -91278   -91739   -92196   -92673   -93144   -93590 
  -94030   -94467   -94861   -95169   -95401   -95589   -95754   -95931 
  -96157   -96422   -96691   -96970   -97270   -97573   -97858   -98109 
  -98317   -98454   -98513   -98533   -98545   -98574   -98643   -98730 
  -98794   -98856   -98971   -99114   -99227   -99273   -99230   -99110 
  -98949   -98791   -98644   -98481   -98293   -98099   -97893   -97692 
  -97530   -97410   -97303   -97198   -97117   -97093   -97123   -97179 
  -97251   -97310   -97343   -97368   -97402   -97444   -97495   -97551 
  -97573   -97522   -97405   -97247   -97038   -96755   -96421   -96060 
  -95719   -95457   -95296   -95176   -95035   -94879   -94745   -94649 
  -94598   -94625   -94729   -94860   -94969   -95027   -95023   -94950 
  -94821   -94674   -94512   -94286   -93982   -93646   -93299   -92924 
  -92531   -92179   -91906   -91717   -91609   -91577   -91602   -91670 
  -91766   -91898   -92067   -92252   -92418   -92556   -92708   -92908 
  -93129   -93360   -93614   -93874   -94127   -94400   -94690   -94952 
  -95189   -95428   -95635   -95778   -95875   -95948   -96009   -96071 
  -96168   -96306   -96438   -96519   -96558   -96589   -96626   -96669 
  -96742   -96871   -97054   -97251   -97459   -97726   -98069   -98454 
  -98853   -99235   -99565   -99808   -99959  -100044  -100059   -99989 
  -99837   -99619   -99341   -98994   -98559   -98069   -97579   -97089 
  -96547   -95944   -95330   -94744   -94220   -93781   -93418   -93113 
  -92880   -92732   -92659   -92619   -92604   -92641   -92727   -92827 
  -92909   -92966   -93008   -93036   -93047   -93042   -93006   -92923 
  -92804   -92674   -92573   -92519   -92492   -92500   -92574   -92697 
  -92840   -93042   -93344   -93721   -94150   -94606   -95044   -95443 
  -95827   -96201   -96534   -96782   -96947   -97043   -97075   -97066 
  -97046   -97031   -97039   -97083   -97137   -97164   -97164   -97163 
  -97164   -97162   -97185   -97256   -97363   -97471   -97579   -97717 
  -97912   -98154   -98396   -98613   -98840   -99081   -99287   -99430 
  -99527   -99569   -99544   -99499   -99478   -99488   -99501   -99496 
  -99469   -99401   -99283   -99122   -98926   -98703   -98482   -98296 
  -98158   -98026   -97838   -97594   -97329   -97075   -96844   -96643 
  -96473   -96330   -96191   -96007   -95758   -95489   -95235   -94988 
  -94757   -94558   -94374   -94171   -93950   -93729   -93536   -93397 
  -93313   -93253   -93202   -93150   -93101   -93085   -93100   -93143 
  -93251   -93461   -93737   -94023   -94294   -94544   -94782   -95033 
  -95293   -95515   -95661   -95747   -95786   -95751   -95644   -95501 
  -95327   -95125   -94914   -94726   -94563   -94390   -94211   -94062 
  -93937   -93815   -93733   -93714   -93742   -93820   -93972   -94188 
  -94450   -94741   -95029   -95316   -95635   -95943   -96176   -96345 
  -96481   -96556   -96529   -96430   -96313   -96184   -96026   -95836 
  -95634   -95440   -95262   -95107   -94986   -94880   -94770   -94691 
  -94689   -94730   -94752   -94721   -94643   -94533   -94412   -94316 
  -94285   -94311   -94360   -94421   -94494   -94576   -94644   -94671 
  -94680   -94684   -94666   -94625   -94590   -94587   -94643   -94755 
  -94902   -95098   -95362   -95697   -96083   -96485   -96867   -97227 
  -97573   -97916   -98251   -98581   -98902   -99211   -99495   -99735 
  -99922  -100062  -100128  -100107  -100020   -99875   -99686   -99496 
  -99296   -99069   -98825   -98555   -98246   -97939   -97657   -97371 
  -97082   -96811   -96561   -96338   -96174   -96057   -95956   -95868 
  -95804   -95735   -95638   -95493   -95285   -95037   -94771   -94505 
  -94263   -94070   -93953   -93922   -93935   -93958   -93982   -94014 
  -94081   -94192   -94306   -94409   -94514   -94639   -94779   -94917 
  -95054   -95185   -95293   -95389   -95473   -95512   -95489   -95415 
  -95311   -95181   -95019   -94846   -94703   -94617   -94599   -94633 
  -94683   -94729   -94768   -94791   -94795   -94791   -94786   -94771 
  -94753   -94748   -94748   -94751   -94774   -94811   -94833   -94837 
  -94859   -94918   -94999   -95094   -95195   -95293   -95395   -95516 
  -95666   -95835   -95998   -96175   -96392   -96633   -96854   -97036 
  -97185   -97302   -97370   -97372   -97326   -97256   -97167   -97051 
  -96896   -96707   -96511   -96336   -96195   -96083   -95998   -95947 
  -95937   -95958   -95995   -96057   -96141   -96196   -96202   -96196 
  -96199   -96207   -96209   -96174   -96115   -96051   -95960   -95845 
  -95739   -95667   -95646   -95669   -95704   -95744   -95812   -95920 
  -96047   -96149   -96237   -96345   -96466   -96585   -96700   -96805 
  -96896   -96962   -96990   -96988   -96978   -96965   -96947   -96924 
  -96901   -96857   -96769   -96662   -96569   -96472   -96358   -96246 
  -96138   -96032   -95926   -95804   -95648   -95474   -95307   -95165 
  -95048   -94945   -94867   -94828   -94819   -94845   -94934   -95081 
  -95241   -95404   -95582   -95754   -95898   -96022   -96122   -96176 
  -96176   -96130   -96034   -95891   -95704   -95478   -95241   -95018 
  -94819   -94663   -94578   -94571   -94608   -94659   -94722   -94817 
  -94971   -95181   -95415   -95647   -95879   -96124   -96398   -96692 
  -96966   -97178   -97305   -97363   -97384   -97366   -97283   -97129 
  -96903   -96614   -96287   -95943   -95594   -95260   -94934   -94606 
  -94288   -94009   -93793   -93625   -93498   -93420   -93383   -93379 
  -93409   -93471   -93557   -93675   -93841   -94030   -94209   -94381 
  -94536   -94680   -94845   -95017   -95172   -95324   -95492   -95667 
  -95847   -96018   -96187   -96377   -96599   -96844   -97098   -97352 
  -97591   -97818   -98050   -98263   -98433   -98577   -98710   -98829 
