Origin Time       2025/01/13 21:19:00
Lat.              31.8
Long.             131.6
Depth. (km)       30
Mag.              6.9
Station Code      HRSH14
Station Lat.      34.2090
Station Long.     132.4063
Station Height(m) 40
Record Time       2025/01/13 21:20:27
Sampling Freq(Hz) 100Hz
Duration Time(s)  138
Dir.              5
Scale Factor      7845(gal)/8223790
Max. Acc. (gal)   1.755
Last Correction   2025/01/13 21:20:27
Memo.             
[...]
    5444     5340     5300     5351     5437     5502     5528     5510 
    5482     5495     5557     5638     5707     5714     5640     5513 
    5390     5312     5278     5269     5277     5314     5391     5468 
    5493     5487     5476     5455     5425     5383     5337     5314 
    5320     5368     5420     5387     5285     5192     5146     5142 
    5161     5182     5204     5236     5283     5327     5352     5387 
    5439     5499     5563     5595     5583     5571     5593     5641 
    5665     5638     5611     5649     5738     5806     5786     5691 
    5575     5481     5417     5373     5337     5314     5309     5329 
    5375     5424     5436     5420     5402     5383     5350     5285 
    5194     5092     4995     4927     4904     4920     4936     4905 
    4811     4719     4722     4828     4973     5092     5175     5248 
    5328     5416     5486     5502     5475     5444     5441     5472 
    5495     5487     5482     5497     5490     5437     5383     5385 
    5421     5444     5432     5420     5472     5590     5686     5684 
    5597     5483     5398     5366     5401     5463     5495     5503 
    5524     5580     5663     5698     5643     5536     5416     5308 
    5247     5240     5305     5433     5536     5540     5478     5418 
    5416     5470     5533     5576     5601     5622     5656     5675 
    5660     5614     5545     5506     5530     5559     5560     5567 
    5589     5598     5586     5564     5536     5489     5443     5439 
    5458     5482     5525     5574     5610     5626     5601     5532 
    5467     5414     5344     5251     5192     5186     5205     5240 
    5274     5289     5321     5390     5459     5526     5606     5655 
    5648     5634     5655     5698     5737     5734     5660     5525 
    5368     5235     5132     5043     4950     4860     4826     4899 
    5050     5189     5259     5292     5320     5339     5360     5401 
    5467     5528     5521     5443     5370     5368     5418     5433 
    5385     5320     5285     5309     5406     5536     5637     5679 
    5667     5632     5597     5570     5551     5494     5374     5258 
    5190     5143     5108     5103     5115     5140     5175     5220 
    5292     5417     5574     5691     5724     5705     5691     5678 
    5645     5622     5624     5626     5583     5460     5305     5225 
    5274     5379     5418     5360     5277     5243     5271     5332 
    5387     5405     5387     5373     5383     5400     5389     5346 
    5319     5360     5452     5521     5526     5485     5428     5385 
    5358     5329     5323     5350     5354     5285     5166     5101 
    5132     5173     5150     5086     5053     5117     5282     5460 
    5568     5613     5628     5624     5614     5618     5625     5605 
    5567     5572     5643     5722     5729     5645     5551     5528 
    5574     5628     5636     5591     5526     5444     5370     5317 
    5236     5107     4963     4850     4835     4957     5135     5242 
    5227     5143     5112     5208     5385     5516     5516     5436 
    5398     5436     5495     5537     5555     5556     5560     5574 
    5595     5610     5617     5647     5702     5724     5695     5647 
    5613     5620     5647     5609     5471     5309     5182     5085 
    5028     5009     5007     5017     5047     5077     5097     5130 
    5179     5212     5216     5228     5258     5269     5244     5224 
    5255     5347     5455     5505     5485     5437     5381     5294 
    5198     5134     5140     5198     5250     5277     5306     5358 
    5433     5491     5495     5475     5463     5447     5412     5386 
    5427     5563     5740     5846     5803     5636     5462     5397 
    5454     5530     5533     5452     5367     5360     5386     5319 
    5125     4873     4652     4553     4618     4811     5031     5166 
    5175     5128     5144     5287     5493     5674     5792     5821 
    5755     5648     5572     5568     5609     5632     5620     5609 
    5610     5613     5593     5524     5412     5285     5177     5125 
    5112     5086     5063     5082     5138     5177     5173     5165 
    5196     5292     5416     5451     5344     5161     5003     4938 
    4962     4999     4997     4993     5028     5125     5278     5462 
    5665     5836     5913     5914     5871     5798     5706     5603 
    5532     5512     5533     5564     5518     5371     5227     5171 
    5197     5244     5263     5262     5274     5323     5393     5408 
    5329     5208     5105     5082     5162     5252     5250     5147 
    5012     4949     4993     5070     5090     5039     4986     5058 
    5289     5556     5714     5733     5663     5568     5514     5514 
    5522     5491     5390     5278     5269     5395     5591     5726 
    5697     5537     5383     5324     5323     5300     5259     5274 
    5373     5508     5617     5687     5729     5725     5653     5529 
    5409     5351     5336     5293     5178     5046     4978     5011 
    5115     5254     5412     5568     5695     5776     5794     5744 
    5638     5510     5379     5205     4962     4738     4638     4673 
    4797     4961     5136     5323     5502     5644     5748     5860 
    6006     6138     6172     6083     5918     5759     5672     5672 
    5707     5679     5557     5452     5487     5648     5778     5711 
    5443     5120     4912     4912     5074     5279     5429     5513 
    5578     5628     5649     5651     5602     5501     5395     5324 
    5263     5185     5124     5112     5123     5152     5182     5181 
    5193     5296     5481     5671     5778     5755     5655     5575 
    5559     5567     5535     5433     5293     5185     5186     5300 
    5431     5493     5463     5387     5354     5416     5501     5516 
    5475     5444     5474     5555     5617     5651     5715     5830 
    5896     5780     5529     5335     5294     5381     5475     5447 
    5302     5192     5205     5300     5406     5474     5463     5383 
    5312     5336     5443     5512     5458     5321     5239     5319 
    5470     5532     5479     5374     5279     5256     5341     5498 
    5633     5668     5606     5530     5518     5526     5447     5313 
    5243     5263     5337     5398     5397     5350     5277     5232 
    5252     5285     5310     5352     5395     5463     5572     5649 
    5660     5633     5562     5421     5200     4946     4777     4777 
    4928     5130     5279     5370     5429     5440     5385     5312 
    5306     5379     5476     5575     5660     5719     5740     5667 
    5499     5325     5224     5209     5239     5273     5313     5364 
    5429     5551     5714     5794     5722     5589     5525     5578 
    5690     5767     5782     5757     5706     5634     5533     5405 
    5287     5186     5089     5028     5017     5059     5148     5232 
    5274     5316     5382     5429     5390     5273     5177     5170 
    5263     5427     5583     5660     5668     5694     5756     5773 
    5676     5470     5246     5152     5220     5354     5449     5449 
    5363     5251     5175     5186     5274     5391     5509     5616 
    5688     5709     5678     5629     5606     5617     5601     5535 
    5471     5443     5414     5343     5248     5201     5266     5412 
    5582     5751     5892     5941     5833     5609     5397     5285 
    5281     5337     5375     5335     5250     5215     5244     5242 
    5142     4992     4909     5007     5254     5486     5614     5661 
    5674     5675     5655     5601     5521     5417     5305     5238 
    5238     5300     5397     5468     5482     5498     5591     5745 
    5833     5768     5629     5516     5424     5323     5228     5211 
    5293     5378     5394     5370     5327     5259     5196     5185 
    5217     5225     5185     5158     5211     5323     5398     5363 
    5238     5071     4919     4869     5012     5304     5556     5607 
    5513     5486     5591     5687     5660     5516     5305     5109 
    5058     5256     5616     5871     5875     5776     5805     5964 
    6048     5910     5611     5306     5092     5011     5044     5124 
    5200     5212     5157     5107     5073     5005     4903     4818 
    4826     4958     5179     5429     5629     5710     5690     5625 
    5543     5482     5443     5385     5302     5223     5162     5090 
    4942     4707     4525     4541     4698     4818     4841     4854 
    4958     5096     5085     4888     4699     4677     4807     4981 
    5124     5246     5362     5412     5351     5227     5108     5024 
    4954     4866     4792     4784     4845     4915     4962     5008 
    5008     4926     4865     4934     5117     5296     5377     5360 
    5296     5231     5198     5165     5076     5001     5028     5111 
    5142     5085     4986     4912     4899     4949     5051     5196 
    5327     5339     5225     5107     5070     5067     5032     5008 
    5058     5140     5157     5074     4995     5070     5309     5536 
    5597     5516     5405     5351     5371     5436     5506     5549 
    5551     5497     5405     5346     5364     5427     5466     5420 
    5267     5039     4842     4756     4764     4803     4854     4905 
    4938     4949     4934     4912     4972     5148     5355     5506 
    5605     5657     5610     5456     5305     5269     5332     5398 
    5416     5390     5344     5325     5371     5491     5661     5809 
    5890     5940     5979     5984     5953     5880     5730     5494 
    5243     5071     5043     5134     5278     5447     5603     5643 
    5512     5320     5242     5313     5424     5490     5524     5567 
    5633     5724     5803     5822     5784     5729     5676     5664 
    5740     5875     5973     5980     5915     5834     5767     5697 
    5636     5649     5786     5983     6104     6107     6034     5910 
    5813     5821     5887     5925     5921     5941     6048     6160 
    6141     5981     5823     5780     5809     5787     5687     5603 
    5571     5506     5381     5282     5256     5277     5301     5286 
    5283     5366     5491     5605     5728     5859     5919     5852 
    5701     5583     5560     5610     5687     5713     5609     5413 
    5243     5158     5144     5119     5040     5039     5233     5501 
    5644     5610     5490     5425     5447     5451     5416     5431 
    5502     5560     5562     5522     5495     5491     5482     5447 
    5390     5358     5402     5544     5782     6046     6207     6178 
    5998     5814     5803     6014     6300     6435     6342     6150 
    6016     5999     6039     6027     5940     5842     5792     5838 
    6021     6291     6527     6647     6639     6536     6405     6304 
    6222     6119     5941     5675     5428     5317     5393     5603 
    5760     5691     5443     5221     5182     5292     5348     5206 
    4945     4752     4719     4774     4784     4681     4519     4396 
    4398     4565     4830     5027     5086     5116     5252     5495 
    5718     5818     5799     5733     5698     5724     5740     5657 
    5495     5316     5147     5046     5055     5128     5188     5202 
    5178     5130     5090     5130     5270     5483     5701     5822 
    5830     5825     5857     5868     5782     5628     5518     5510 
    5529     5485     5381     5279     5238     5262     5305     5341 
    5382     5418     5435     5433     5454     5536     5640     5707 
    5746     5763     5744     5707     5645     5522     5343     5127 
    4915     4779     4749     4756     4687     4558     4531     4710 
    5004     5252     5408     5494     5495     5400     5278     5224 
    5233     5219     5086     4827     4563     4438     4444     4452 
    4425     4422     4448     4446     4417     4436     4561     4774 
    5017     5246     5456     5672     5875     5975     5927     5825 
    5769     5761     5751     5729     5741     5815     5908     5975 
    6035     6104     6123     6043     5860     5611     5394     5278 
    5259     5286     5317     5328     5298     5235     5163     5111 
    5138     5246     5346     5377     5360     5370     5439     5470 
    5354     5139     5001     5032     5147     5227     5283     5371 
    5494     5645     5798     5913     5987     6034     6070     6130 
    6222     6293     6269     6115     5863     5575     5313     5094 
    4895     4712     4594     4577     4617     4658     4737     4895 
    5111     5312     5387     5305     5174     5098     5088     5103 
    5101     5082     5084     5085     5019     4874     4731     4692 
    4779     4932     5086     5202     5277     5312     5324     5305 
    5247     5167     5074     4950     4831     4757     4702     4641 
    4591     4542     4456     4363     4351     4445     4563     4607 
    4576     4575     4676     4847     5042     5240     5417     5506 
    5459     5335     5250     5251     5314     5374     5391     5422 
    5475     5482     5458     5449     5447     5393     5227     4985 
    4834     4882     5088     5310     5435     5483     5551     5672 
    5837     6004     6111     6145     6116     6010     5883     5819 
    5800     5765     5674     5555     5505     5598     5798     5979 
    6046     5973     5769     5474     5220     5097     5020     4860 
    4554     4145     3775     3570     3541     3655     3839     3925 
    3831     3693     3680     3786     3878     3863     3812     3861 
    4048     4303     4492     4518     4405     4274     4264     4407 
    4581     4710     4842     5022     5212     5348     5350     5213 
    5055     5019     5171     5436     5695     5929     6156     6347 
    6457     6475     6409     6270     6111     5980     5867     5718 
    5513     5301     5155     5104     5124     5173     5186     5116 
    5011     4974     5038     5144     5197     5134     5000     4882 
    4811     4741     4645     4596     4662     4812     5004     5233 
    5474     5678     5807     5856     5887     5922     5892     5783 
    5663     5591     5584     5610     5632     5626     5532     5327 
    5135     5089     5198     5371     5482     5489     5502     5594 
    5682     5684     5622     5560     5540     5563     5656     5841 
    6060     6235     6340     6385     6397     6408     6439     6490 
    6544     6559     6469     6289     6130     6023     5921     5813 
    5744     5753     5818     5854     5807     5729     5725     5787 
    5809     5736     5610     5508     5476     5514     5568     5560 
    5501     5485     5560     5688     5795     5800     5688     5551 
    5502     5528     5529     5447     5293     5131     5023     4988 
    4974     4927     4851     4776     4729     4788     4985     5238 
    5441     5594     5751     5914     6025     6042     5991     5925 
    5892     5876     5833     5757     5661     5528     5374     5267 
    5227     5204     5134     4996     4878     4896     5027     5147 
    5184     5170     5148     5125     5121     5178     5282     5375 
    5424     5459     5512     5595     5694     5782     5842     5869 
    5857     5827     5867     5975     6019     5906     5678     5455 
    5332     5309     5340     5359     5336     5297     5259     5239 
    5263     5308     5312     5258     5181     5136     5127     5151 
    5259     5463     5679     5814     5849     5865     5933     5995 
    5960     5856     5817     5935     6145     6316     6419     6489 
    6535     6497     6309     6004     5714     5544     5464     5363 
    5200     5066     5054     5132     5165     5053     4868     4737 
    4657     4561     4468     4496     4698     4935     5047     5039 
    5024     5094     5212     5255     5228     5273     5416     5549 
    5634     5717     5826     5946     6031     6076     6142     6258 
    6362     6393     6373     6382     6431     6439     6376     6274 
    6122     5873     5556     5243     5003     4899     4909     4946 
    4969     5001     5063     5154     5265     5367     5402     5312 
    5140     5012     5013     5121     5247     5339     5445     5614 
    5799     5925     5954     5933     5937     5956     5948     5896 
    5813     5746     5680     5533     5320     5147     5069     5032 
    4946     4792     4625     4506     4475     4534     4637     4747 
    4862     5001     5167     5320     5408     5435     5447     5470 
    5479     5460     5464     5567     5769     5972     6076     6092 
    6130     6245     6355     6377     6332     6288     6245     6158 
    6008     5803     5555     5306     5112     4977     4860     4727 
    4588     4495     4467     4457     4419     4374     4369     4433 
    4518     4552     4536     4542     4604     4668     4646     4522 
    4401     4402     4504     4590     4595     4599     4729     4997 
    5283     5471     5597     5779     6034     6268     6431     6559 
    6666     6712     6683     6615     6521     6357     6070     5724 
    5459     5346     5302     5233     5147     5073     4999     4932 
    4914     4941     4959     4899     4757     4669     4764     4986 
    5189     5304     5350     5362     5355     5371     5427     5479 
    5481     5431     5356     5314     5337     5375     5368     5340 
    5351     5443     5586     5721     5822     5873     5867     5807 
    5663     5448     5246     5084     4931     4776     4617     4469 
    4352     4272     4207     4126     4040     4004     4048     4189 
    4418     4656     4812     4888     4926     4949     4947     4899 
    4826     4787     4810     4874     4919     4939     4981     5040 
    5074     5092     5120     5177     5247     5269     5224     5181 
    5177     5211     5270     5333     5393     5454     5522     5605 
    5676     5683     5633     5616     5676     5775     5857     5915 
    5969     6014     6057     6157     6328     6504     6623     6679 
    6701     6723     6733     6705     6647     6571     6459     6303 
    6120     5965     5863     5783     5680     5564     5467     5401 
    5362     5344     5324     5259     5108     4896     4699     4563 
    4477     4410     4317     4216     4187     4278     4419     4502 
    4475     4410     4402     4480     4595     4677     4716     4706 
    4618     4492     4421     4437     4484     4494     4465     4480 
    4604     4796     4985     5143     5263     5371     5505     5655 
    5790     5883     5941     6003     6100     6242     6399     6480 
    6444     6342     6250     6214     6218     6191     6091     5946 
    5803     5686     5589     5502     5431     5375     5319     5266 
    5246     5254     5252     5212     5151     5119     5139     5196 
    5275     5375     5464     5514     5513     5456     5371     5298 
    5243     5194     5163     5174     5231     5294     5335     5359 
    5383     5416     5449     5467     5474     5474     5449     5413 
    5428     5524     5648     5742     5790     5811     5833     5863 
    5887     5895     5875     5838     5825     5877     6008     6145 
    6188     6134     6075     6068     6091     6089     6043     5989 
