Origin Time       2025/01/13 21:19:00
Lat.              31.8
Long.             131.6
Depth. (km)       30
Mag.              6.9
Station Code      HRSH16
Station Lat.      34.6629
Station Long.     132.6689
Station Height(m) 180
Record Time       2025/01/13 21:21:06
Sampling Freq(Hz) 100Hz
Duration Time(s)  120
Dir.              3
Scale Factor      2942(gal)/8224139
Max. Acc. (gal)   1.092
Last Correction   2025/01/13 21:21:07
Memo.             
[...]
   51179    51148    51106    51050    51017    51025    51046    51069 
   51089    51100    51136    51210    51297    51378    51429    51448 
   51489    51567    51625    51652    51686    51737    51804    51892 
   51972    52012    52031    52050    52072    52112    52149    52127 
   52078    52076    52101    52103    52092    52084    52077    52089 
   52111    52115    52128    52165    52176    52149    52118    52097 
   52095    52104    52112    52128    52151    52143    52108    52061 
   52011    51983    51962    51930    51926    51952    51952    51907 
   51837    51752    51680    51617    51514    51391    51310    51233 
   51125    51062    51055    51027    50973    50949    50961    50989 
   51004    50980    50949    50947    50961    50976    50986    50982 
   50965    50944    50942    50976    51043    51106    51125    51097 
   51051    51030    51054    51104    51150    51189    51212    51236 
   51301    51367    51394    51408    51401    51371    51379    51426 
   51471    51513    51556    51591    51649    51752    51845    51879 
   51888    51910    51929    51927    51912    51923    51979    52050 
   52123    52182    52201    52207    52255    52351    52451    52510 
   52532    52536    52540    52562    52623    52708    52786    52834 
   52844    52843    52894    52996    53091    53177    53289    53399 
   53473    53550    53642    53704    53738    53767    53789    53781 
   53744    53700    53655    53617    53597    53582    53558    53532 
   53504    53468    53407    53291    53149    53057    53001    52921 
   52830    52748    52672    52587    52471    52344    52230    52116 
   52030    51977    51896    51790    51722    51700    51702    51722 
   51734    51727    51734    51754    51754    51738    51746    51779 
   51826    51895    51969    52026    52083    52142    52174    52196 
   52232    52273    52309    52326    52299    52254    52228    52232 
   52261    52285    52316    52373    52413    52438    52496    52562 
   52598    52610    52601    52610    52675    52751    52790    52806 
   52826    52871    52947    53022    53071    53114    53190    53269 
   53306    53310    53296    53269    53237    53191    53119    53046 
   52976    52891    52797    52710    52616    52510    52411    52313 
   52209    52083    51942    51827    51761    51726    51676    51584 
   51475    51368    51264    51183    51113    51046    50997    50931 
   50824    50730    50672    50637    50622    50619    50619    50614 
   50616    50637    50674    50719    50749    50776    50822    50876 
   50920    50965    51000    51040    51108    51169    51227    51314 
   51398    51463    51561    51691    51800    51903    52026    52147 
   52242    52335    52451    52555    52624    52681    52725    52775 
   52856    52941    53005    53063    53104    53125    53153    53187 
   53222    53246    53249    53271    53302    53284    53237    53202 
   53168    53134    53103    53059    53007    52960    52899    52841 
   52794    52735    52672    52624    52601    52591    52560    52498 
   52444    52400    52336    52259    52188    52119    52037    51915 
   51767    51637    51529    51428    51333    51219    51082    50961 
   50853    50758    50681    50616    50580    50549    50494    50433 
   50383    50323    50259    50209    50164    50109    50058    50037 
   50047    50053    50036    50024    50051    50089    50145    50259 
   50398    50521    50631    50754    50903    51059    51200    51305 
   51394    51514    51667    51802    51915    52045    52191    52315 
   52405    52494    52597    52695    52785    52863    52936    53014 
   53079    53114    53163    53230    53288    53335    53362    53356 
   53319    53260    53211    53188    53169    53157    53142    53087 
   53013    52963    52922    52866    52791    52705    52606    52492 
   52390    52321    52257    52180    52096    52006    51914    51827 
   51717    51579    51460    51382    51310    51232    51169    51119 
   51057    50982    50915    50859    50834    50831    50815    50795 
   50796    50799    50805    50841    50904    50982    51055    51104 
   51133    51175    51250    51345    51440    51530    51618    51687 
   51736    51818    51943    52037    52089    52174    52303    52442 
   52579    52701    52790    52860    52936    53021    53091    53156 
   53226    53273    53315    53380    53434    53462    53493    53535 
   53584    53623    53646    53663    53673    53661    53636    53605 
   53551    53482    53414    53325    53202    53072    52965    52884 
   52802    52694    52590    52520    52466    52413    52378    52353 
   52313    52261    52191    52100    52018    51954    51895    51838 
   51786    51744    51718    51682    51615    51544    51479    51410 
   51328    51250    51185    51102    50994    50899    50824    50739 
   50629    50507    50380    50251    50132    50026    49933    49852 
   49789    49740    49697    49650    49615    49603    49607    49596 
   49561    49530    49511    49512    49542    49578    49619    49681 
   49767    49873    49993    50130    50299    50495    50691    50892 
   51121    51364    51603    51872    52177    52467    52725    52967 
   53175    53342    53501    53647    53761    53851    53917    53951 
   53978    53998    54006    54002    53954    53850    53743    53650 
   53561    53474    53384    53266    53110    52942    52803    52686 
   52581    52498    52431    52344    52215    52072    51966    51902 
   51856    51835    51827    51786    51723    51686    51660    51636 
   51644    51665    51649    51618    51610    51601    51574    51532 
   51459    51366    51295    51247    51185    51101    51004    50919 
   50862    50828    50822    50824    50804    50796    50826    50847 
   50847    50869    50924    50981    51028    51077    51115    51131 
   51124    51104    51085    51067    51066    51102    51163    51221 
   51282    51364    51462    51563    51668    51765    51827    51861 
   51894    51922    51931    51931    51925    51895    51853    51825 
   51826    51830    51800    51741    51692    51673    51667    51661 
   51651    51628    51607    51615    51653    51713    51777    51838 
   51918    52019    52101    52173    52253    52330    52396    52450 
   52475    52479    52492    52506    52493    52465    52451    52432 
   52402    52411    52454    52483    52509    52554    52612    52709 
   52828    52905    52955    53005    53026    53009    52971    52924 
   52876    52836    52797    52745    52687    52647    52624    52581 
   52500    52413    52351    52321    52290    52218    52120    52057 
   52047    52058    52064    52064    52087    52151    52220    52263 
   52294    52338    52402    52471    52529    52605    52683    52720 
   52739    52774    52802    52785    52722    52670    52660    52662 
   52617    52521    52408    52296    52193    52099    52006    51919 
   51842    51780    51734    51703    51700    51700    51682    51683 
   51714    51734    51753    51780    51804    51830    51869    51919 
   51977    52039    52108    52172    52211    52246    52281    52297 
   52303    52300    52281    52284    52311    52308    52272    52251 
   52270    52307    52342    52390    52450    52490    52531    52586 
   52643    52699    52763    52816    52851    52871    52887    52913 
   52938    52937    52909    52880    52859    52829    52793    52744 
   52675    52589    52479    52359    52257    52154    52043    51939 
   51811    51661    51547    51484    51441    51410    51409    51456 
   51536    51626    51707    51775    51848    51915    51970    52030 
   52066    52053    52014    51956    51858    51726    51572    51398 
   51214    51032    50858    50674    50468    50264    50099    49977 
   49869    49756    49657    49596    49566    49534    49488    49459 
   49453    49441    49430    49449    49492    49555    49650    49773 
   49910    50058    50210    50372    50557    50760    50970    51174 
   51352    51503    51634    51744    51841    51923    51987    52054 
   52126    52180    52235    52307    52373    52413    52440    52474 
   52506    52527    52529    52520    52505    52478    52439    52407 
   52389    52367    52342    52328    52323    52319    52320    52319 
   52307    52304    52326    52355    52386    52429    52486    52540 
   52594    52667    52736    52770    52782    52798    52812    52799 
   52755    52695    52652    52629    52609    52578    52542    52504 
   52469    52446    52431    52408    52363    52311    52249    52168 
   52084    52012    51954    51915    51881    51844    51821    51823 
   51852    51903    51965    52049    52157    52254    52335    52427 
   52516    52582    52650    52710    52748    52778    52806    52830 
   52857    52888    52917    52936    52942    52934    52899    52834 
   52753    52648    52508    52343    52165    51981    51781    51574 
   51386    51213    51030    50857    50712    50573    50444    50344 
   50263    50172    50075    49981    49896    49832    49792    49763 
   49731    49682    49654    49659    49646    49607    49593    49597 
   49573    49530    49489    49454    49441    49458    49485    49530 
   49613    49713    49815    49947    50107    50271    50468    50715 
   50977    51241    51521    51796    52062    52324    52569    52771 
   52933    53067    53177    53261    53335    53407    53464    53509 
   53551    53590    53636    53694    53750    53785    53817    53855 
   53883    53893    53904    53928    53966    54005    54035    54062 
   54099    54144    54187    54224    54247    54268    54297    54318 
   54334    54346    54345    54324    54280    54229    54180    54128 
   54063    53993    53927    53863    53794    53730    53685    53644 
   53607    53574    53536    53493    53461    53422    53364    53302 
   53248    53185    53114    53050    52996    52944    52898    52857 
   52801    52728    52654    52581    52509    52431    52354    52297 
   52249    52196    52131    52046    51972    51919    51856    51772 
   51683    51598    51520    51435    51349    51279    51210    51133 
   51066    51023    51003    50985    50959    50946    50957    50978 
   50996    51021    51062    51100    51121    51133    51162    51206 
   51255    51320    51405    51486    51547    51598    51664    51750 
   51826    51877    51919    51948    51961    51970    51970    51960 
   51946    51925    51904    51891    51883    51888    51898    51873 
   51834    51813    51794    51772    51752    51719    51672    51619 
   51559    51498    51460    51440    51397    51327    51285    51275 
   51260    51246    51240    51232    51235    51273    51335    51408 
   51497    51584    51668    51760    51852    51925    51983    52029 
   52049    52054    52061    52062    52038    52007    51988    51968 
   51946    51933    51921    51904    51889    51876    51860    51838 
   51822    51814    51796    51759    51698    51621    51540    51456 
   51372    51285    51178    51073    50993    50935    50886    50851 
   50832    50832    50850    50886    50931    50981    51034    51089 
   51150    51209    51275    51356    51439    51511    51572    51614 
   51651    51698    51748    51792    51831    51872    51930    51993 
   52051    52112    52161    52200    52255    52320    52371    52415 
   52451    52458    52435    52409    52381    52330    52262    52186 
   52092    51992    51896    51806    51730    51653    51563    51471 
   51379    51289    51212    51151    51097    51054    51036    51044 
   51059    51078    51117    51179    51258    51341    51424    51511 
   51607    51707    51821    51942    52045    52138    52235    52321 
   52394    52466    52546    52633    52717    52789    52849    52902 
   52960    53009    53050    53094    53127    53146    53161    53157 
   53137    53113    53073    53021    52974    52926    52866    52798 
   52725    52647    52558    52463    52359    52247    52137    52024 
   51907    51803    51725    51660    51587    51516    51482    51482 
   51493    51503    51534    51583    51638    51706    51796    51888 
   51961    52016    52068    52123    52177    52222    52254    52278 
   52309    52351    52388    52423    52481    52548    52609    52668 
   52722    52776    52826    52867    52898    52930    52975    53019 
   53044    53065    53090    53095    53083    53071    53065    53055 
   53022    52963    52884    52791    52683    52569    52450    52324 
   52195    52047    51872    51690    51522    51367    51214    51065 
   50934    50828    50735    50652    50585    50534    50499    50487 
   50487    50504    50537    50571    50596    50623    50653    50685 
   50722    50760    50791    50815    50843    50874    50889    50884 
   50877    50882    50899    50913    50920    50927    50942    50965 
   50982    50988    50990    51000    51013    51023    51025    51013 
   51000    51000    51005    51005    51015    51035    51057    51078 
   51089    51090    51098    51113    51127    51148    51171    51185 
   51208    51255    51322    51406    51506    51633    51779    51927 
   52074    52228    52397    52575    52753    52929    53110    53287 
   53454    53605    53752    53910    54067    54210    54353    54502 
   54641    54758    54849    54920    54977    55003    54986    54942 
   54868    54762    54633    54481    54306    54118    53927    53725 
   53507    53284    53087    52910    52724    52529    52358    52212 
   52076    51941    51810    51699    51615    51551    51499    51472 
   51471    51491    51545    51622    51703    51794    51891    51979 
   52053    52126    52189    52239    52272    52278    52269    52263 
   52234    52170    52112    52068    52016    51960    51892    51815 
   51740    51675    51615    51567    51530    51497    51464    51425 
   51376    51336    51313    51278    51240    51227    51219    51197 
   51167    51132    51090    51051    51012    50970    50931    50893 
   50845    50788    50733    50677    50627    50583    50544    50529 
   50530    50530    50544    50565    50579    50588    50598    50616 
   50643    50676    50719    50769    50826    50890    50954    51017 
   51082    51133    51181    51246    51327    51406    51480    51556 
   51642    51741    51849    51970    52107    52249    52375    52489 
   52605    52717    52820    52921    53011    53079    53131    53169 
   53188    53200    53211    53218    53223    53227    53217    53191 
   53157    53122    53086    53048    53005    52961    52933    52913 
   52890    52868    52853    52848    52848    52840    52818    52791 
   52760    52721    52683    52652    52609    52542    52452    52348 
   52247    52146    52038    51933    51833    51736    51652    51578 
   51502    51445    51405    51359    51312    51273    51240    51224 
   51220    51213    51208    51216    51244    51278    51308    51336 
   51355    51363    51371    51387    51429    51480    51507    51528 
   51548    51557    51560    51557    51547    51538    51540    51553 
   51571    51580    51579    51588    51617    51657    51700    51746 
   51800    51864    51925    51970    52002    52038    52081    52112 
   52131    52151    52173    52189    52197    52203    52205    52204 
   52204    52200    52191    52177    52166    52153    52137    52114 
   52069    52007    51942    51876    51808    51741    51671    51601 
   51538    51494    51462    51430    51413    51417    51417    51401 
   51382    51374    51364    51349    51329    51301    51260    51219 
   51193    51178    51160    51138    51112    51079    51054    51035 
   51016    51004    51000    51009    51032    51061    51097    51131 
   51158    51194    51244    51290    51325    51356    51391    51420 
   51448    51484    51526    51568    51607    51637    51655    51672 
   51700    51729    51748    51765    51783    51800    51814    51810 
   51802    51808    51822    51834    51837    51831    51840    51867 
   51895    51919    51950    51992    52039    52088    52139    52186 
   52227    52274    52330    52381    52420    52455    52494    52542 
   52586    52621    52666    52722    52779    52829    52883    52937 
   52982    53013    53032    53038    53041    53045    53046    53045 
   53042    53026    53010    53003    52994    52975    52961    52947 
   52918    52893    52875    52851    52830    52824    52820    52812 
   52795    52779    52762    52732    52698    52678    52656    52627 
   52590    52548    52504    52454    52386    52299    52205    52111 
   52014    51912    51803    51684    51567    51459    51351    51241 
   51146    51073    51007    50946    50911    50904    50913    50938 
   50977    51032    51100    51174    51263    51370    51476    51584 
   51698    51815    51934    52061    52186    52297    52390    52473 
   52550    52617    52672    52713    52736    52736    52722    52699 
   52663    52621    52577    52532    52486    52451    52413    52354 
   52281    52216    52155    52097    52033    51960    51888    51826 
   51759    51672    51578    51495    51413    51333    51267    51202 
   51133    51069    51007    50959    50932    50905    50881    50874 
   50876    50888    50909    50927    50950    50977    51011    51057 
   51104    51148    51202    51274    51359    51444    51524    51607 
   51688    51748    51794    51849    51904    51935    51954    51972 
   51991    52007    52020    52031    52034    52029    52024    52016 
   51989    51946    51899    51846    51791    51737    51688    51644 
   51597    51545    51494    51445    51405    51376    51354    51336 
   51324    51317    51316    51324    51347    51386    51433    51476 
   51516    51552    51597    51646    51695    51740    51780    51811 
   51835    51850    51865    51887    51915    51949    51984    52020 
   52054    52080    52108    52145    52178    52207    52235    52272 
   52316    52362    52404    52444    52485    52521    52560    52602 
   52641    52678    52710    52722    52721    52718    52705    52674 
   52635    52583    52537    52501    52452    52393    52344    52304 
   52265    52224    52184    52150    52118    52087    52068    52049 
   52022    51996    51969    51930    51885    51837    51777    51703 
   51622    51540    51462    51397    51343    51287    51220    51144 
   51074    51008    50939    50872    50809    50750    50695    50635 
   50573    50522    50487    50456    50431    50413    50402    50404 
   50409    50418    50442    50480    50530    50588    50650    50730 
   50827    50920    51013    51116    51223    51333    51448    51565 
   51679    51796    51921    52047    52173    52304    52440    52583 
   52722    52845    52959    53061    53156    53249    53339    53419 
   53488    53550    53604    53650    53688    53704    53715    53735 
   53754    53757    53748    53734    53701    53653    53590    53523 
   53453    53369    53265    53153    53041    52922    52806    52693 
   52567    52436    52317    52207    52095    51992    51900    51815 
