Origin Time       2025/01/13 21:19:00
Lat.              31.8
Long.             131.6
Depth. (km)       30
Mag.              6.9
Station Code      HRSH04
Station Lat.      34.3785
Station Long.     133.3493
Station Height(m) 25
Record Time       2025/01/13 21:20:43
Sampling Freq(Hz) 100Hz
Duration Time(s)  129
Dir.              5
Scale Factor      7845(gal)/8223790
Max. Acc. (gal)   0.955
Last Correction   2025/01/13 21:20:43
Memo.             
[...]
   -3534    -3550    -3547    -3537    -3527    -3510    -3483    -3451 
   -3423    -3403    -3388    -3380    -3379    -3375    -3373    -3380 
   -3379    -3368    -3358    -3343    -3321    -3300    -3289    -3283 
   -3285    -3300    -3311    -3306    -3292    -3268    -3225    -3179 
   -3148    -3136    -3140    -3163    -3192    -3215    -3225    -3222 
   -3221    -3230    -3252    -3285    -3322    -3365    -3407    -3429 
   -3416    -3381    -3339    -3307    -3285    -3275    -3275    -3279 
   -3283    -3296    -3303    -3288    -3269    -3256    -3248    -3261 
   -3298    -3325    -3318    -3302    -3304    -3314    -3311    -3299 
   -3287    -3294    -3322    -3343    -3357    -3366    -3365    -3357 
   -3352    -3356    -3383    -3434    -3491    -3528    -3534    -3514 
   -3481    -3443    -3407    -3391    -3384    -3365    -3314    -3234 
   -3163    -3126    -3121    -3133    -3145    -3148    -3152    -3154 
   -3145    -3127    -3123    -3150    -3208    -3277    -3337    -3381 
   -3408    -3426    -3447    -3478    -3508    -3538    -3564    -3570 
   -3554    -3532    -3523    -3523    -3520    -3511    -3499    -3491 
   -3485    -3487    -3496    -3503    -3487    -3439    -3385    -3346 
   -3321    -3307    -3311    -3326    -3346    -3369    -3389    -3408 
   -3424    -3457    -3505    -3555    -3605    -3666    -3734    -3794 
   -3842    -3867    -3875    -3877    -3881    -3882    -3874    -3859 
   -3840    -3821    -3811    -3798    -3788    -3784    -3785    -3796 
   -3815    -3831    -3850    -3869    -3882    -3889    -3889    -3896 
   -3924    -3962    -3998    -4029    -4050    -4064    -4081    -4097 
   -4113    -4139    -4166    -4193    -4214    -4225    -4229    -4233 
   -4226    -4203    -4178    -4158    -4149    -4145    -4125    -4082 
   -4032    -3989    -3948    -3912    -3885    -3863    -3840    -3808 
   -3769    -3736    -3717    -3705    -3694    -3684    -3672    -3662 
   -3653    -3639    -3613    -3574    -3532    -3495    -3454    -3406 
   -3360    -3327    -3308    -3298    -3291    -3281    -3271    -3267 
   -3265    -3272    -3296    -3329    -3360    -3389    -3403    -3389 
   -3350    -3291    -3244    -3229    -3240    -3256    -3264    -3249 
   -3211    -3164    -3119    -3079    -3048    -3021    -2995    -2979 
   -2975    -2980    -2992    -3021    -3063    -3105    -3134    -3163 
   -3187    -3202    -3202    -3190    -3179    -3179    -3183    -3187 
   -3188    -3181    -3165    -3141    -3115    -3091    -3068    -3041 
   -3018    -3011    -3017    -3024    -3026    -3028    -3028    -3011 
   -2972    -2929    -2894    -2875    -2880    -2917    -2980    -3061 
   -3138    -3196    -3253    -3322    -3404    -3478    -3524    -3549 
   -3564    -3572    -3570    -3562    -3562    -3582    -3601    -3588 
   -3549    -3514    -3491    -3474    -3457    -3427    -3373    -3300 
   -3234    -3191    -3176    -3180    -3198    -3222    -3260    -3311 
   -3366    -3415    -3449    -3457    -3439    -3412    -3389    -3370 
   -3360    -3362    -3365    -3356    -3333    -3300    -3269    -3252 
   -3249    -3260    -3272    -3275    -3273    -3277    -3280    -3281 
   -3295    -3326    -3365    -3408    -3457    -3512    -3570    -3607 
   -3623    -3636    -3647    -3653    -3654    -3645    -3626    -3611 
   -3620    -3646    -3662    -3654    -3623    -3581    -3537    -3487 
   -3427    -3354    -3273    -3199    -3129    -3057    -2991    -2926 
   -2851    -2768    -2686    -2608    -2543    -2501    -2489    -2494 
   -2501    -2501    -2497    -2506    -2543    -2600    -2655    -2691 
   -2710    -2729    -2760    -2808    -2872    -2949    -3033    -3110 
   -3179    -3238    -3285    -3327    -3365    -3404    -3458    -3531 
   -3612    -3693    -3774    -3848    -3904    -3944    -3977    -4009 
   -4041    -4068    -4091    -4116    -4144    -4182    -4230    -4286 
   -4326    -4348    -4356    -4348    -4314    -4257    -4190    -4113 
   -4039    -3969    -3890    -3812    -3743    -3680    -3619    -3558 
   -3501    -3461    -3438    -3431    -3431    -3415    -3372    -3306 
   -3231    -3169    -3122    -3099    -3103    -3114    -3117    -3114 
   -3115    -3119    -3114    -3099    -3095    -3111    -3141    -3177 
   -3219    -3257    -3289    -3314    -3333    -3360    -3396    -3438 
   -3472    -3493    -3511    -3542    -3585    -3636    -3690    -3734 
   -3767    -3789    -3789    -3769    -3742    -3716    -3692    -3670 
   -3655    -3640    -3624    -3611    -3589    -3553    -3518    -3493 
   -3480    -3477    -3480    -3472    -3449    -3416    -3385    -3360 
   -3327    -3285    -3250    -3235    -3235    -3238    -3238    -3231 
   -3217    -3200    -3187    -3172    -3154    -3133    -3110    -3090 
   -3078    -3076    -3090    -3121    -3165    -3207    -3246    -3279 
   -3303    -3335    -3391    -3460    -3535    -3616    -3699    -3780 
   -3855    -3929    -4004    -4078    -4140    -4179    -4202    -4217 
   -4221    -4201    -4158    -4110    -4068    -4027    -3981    -3933 
   -3885    -3840    -3800    -3761    -3723    -3703    -3701    -3699 
   -3688    -3680    -3678    -3678    -3676    -3666    -3651    -3628 
   -3599    -3569    -3537    -3507    -3487    -3468    -3454    -3450 
   -3453    -3457    -3450    -3424    -3387    -3350    -3325    -3306 
   -3283    -3256    -3230    -3211    -3200    -3203    -3206    -3199 
   -3181    -3165    -3164    -3179    -3202    -3240    -3283    -3319 
   -3343    -3361    -3379    -3399    -3420    -3451    -3491    -3522 
   -3539    -3541    -3535    -3534    -3535    -3530    -3515    -3491 
   -3456    -3400    -3333    -3260    -3194    -3148    -3122    -3102 
   -3090    -3091    -3106    -3125    -3145    -3165    -3179    -3184 
   -3190    -3203    -3222    -3241    -3261    -3285    -3306    -3321 
   -3329    -3334    -3343    -3348    -3345    -3352    -3376    -3416 
   -3476    -3549    -3624    -3704    -3785    -3867    -3952    -4031 
   -4101    -4171    -4237    -4298    -4342    -4363    -4361    -4347 
   -4324    -4299    -4271    -4236    -4199    -4174    -4164    -4164 
   -4158    -4132    -4077    -3993    -3902    -3819    -3743    -3678 
   -3624    -3580    -3534    -3478    -3411    -3337    -3261    -3195 
   -3145    -3100    -3051    -3009    -2983    -2960    -2924    -2875 
   -2808    -2728    -2650    -2582    -2531    -2493    -2467    -2454 
   -2448    -2444    -2439    -2435    -2440    -2450    -2459    -2465 
   -2469    -2477    -2497    -2532    -2573    -2614    -2660    -2712 
   -2759    -2789    -2799    -2797    -2786    -2772    -2768    -2779 
   -2799    -2825    -2841    -2845    -2856    -2883    -2922    -2968 
   -3014    -3053    -3076    -3090    -3096    -3096    -3083    -3060 
   -3040    -3022    -3003    -2988    -2978    -2961    -2933    -2899 
   -2871    -2859    -2856    -2855    -2847    -2836    -2836    -2852 
   -2875    -2907    -2949    -2992    -3036    -3084    -3132    -3183 
   -3242    -3306    -3362    -3402    -3423    -3437    -3447    -3456 
   -3461    -3466    -3465    -3458    -3454    -3450    -3437    -3422 
   -3414    -3412    -3416    -3429    -3446    -3458    -3469    -3485 
   -3505    -3527    -3543    -3554    -3561    -3574    -3599    -3638 
   -3689    -3747    -3798    -3840    -3871    -3892    -3906    -3919 
   -3928    -3943    -3963    -3987    -4016    -4048    -4079    -4108 
   -4132    -4147    -4147    -4137    -4126    -4117    -4101    -4079 
   -4054    -4024    -3987    -3948    -3908    -3862    -3813    -3755 
   -3680    -3592    -3500    -3414    -3335    -3264    -3203    -3156 
   -3117    -3098    -3105    -3130    -3167    -3211    -3258    -3304 
   -3354    -3406    -3446    -3477    -3510    -3555    -3616    -3677 
   -3723    -3754    -3785    -3827    -3877    -3925    -3967    -4005 
   -4032    -4043    -4035    -4006    -3964    -3919    -3867    -3821 
   -3785    -3743    -3692    -3635    -3569    -3489    -3406    -3321 
   -3244    -3183    -3133    -3086    -3040    -3013    -3014    -3029 
   -3046    -3057    -3059    -3052    -3044    -3040    -3045    -3052 
   -3056    -3051    -3032    -3010    -2992    -2979    -2975    -2980 
   -2991    -3007    -3021    -3029    -3040    -3057    -3079    -3107 
   -3140    -3181    -3242    -3319    -3411    -3504    -3591    -3670 
   -3743    -3811    -3873    -3920    -3958    -3993    -4021    -4045 
   -4066    -4078    -4078    -4058    -4020    -3978    -3936    -3901 
   -3874    -3852    -3827    -3782    -3719    -3651    -3591    -3538 
   -3492    -3453    -3416    -3380    -3337    -3287    -3238    -3194 
   -3145    -3096    -3053    -3013    -2976    -2953    -2944    -2944 
   -2948    -2948    -2941    -2936    -2943    -2957    -2967    -2971 
   -2974    -2984    -3009    -3055    -3117    -3183    -3249    -3316 
   -3377    -3433    -3480    -3516    -3541    -3557    -3576    -3605 
   -3646    -3694    -3744    -3788    -3827    -3861    -3882    -3885 
   -3871    -3855    -3842    -3831    -3816    -3794    -3771    -3746 
   -3716    -3689    -3662    -3632    -3601    -3570    -3539    -3505 
   -3470    -3447    -3442    -3445    -3460    -3487    -3511    -3532 
   -3553    -3559    -3551    -3541    -3527    -3507    -3480    -3442 
   -3395    -3349    -3304    -3257    -3213    -3177    -3144    -3107 
   -3076    -3053    -3038    -3041    -3059    -3086    -3118    -3153 
   -3190    -3223    -3254    -3291    -3329    -3350    -3357    -3358 
   -3354    -3342    -3319    -3292    -3265    -3242    -3222    -3203 
   -3192    -3187    -3186    -3184    -3180    -3169    -3159    -3153 
   -3152    -3157    -3171    -3179    -3175    -3167    -3160    -3159 
   -3163    -3171    -3186    -3207    -3225    -3233    -3234    -3231 
   -3229    -3229    -3233    -3242    -3262    -3289    -3318    -3346 
   -3373    -3395    -3410    -3418    -3418    -3420    -3431    -3443 
   -3454    -3468    -3484    -3505    -3528    -3549    -3566    -3585 
   -3603    -3612    -3611    -3600    -3585    -3569    -3551    -3527 
   -3496    -3465    -3445    -3430    -3415    -3410    -3419    -3437 
   -3460    -3497    -3550    -3608    -3662    -3717    -3769    -3804 
   -3823    -3832    -3836    -3831    -3821    -3807    -3781    -3750 
   -3720    -3688    -3653    -3615    -3573    -3527    -3473    -3415 
   -3362    -3315    -3276    -3244    -3210    -3173    -3142    -3126 
   -3111    -3088    -3068    -3069    -3087    -3109    -3123    -3130 
   -3137    -3149    -3165    -3180    -3184    -3177    -3172    -3175 
   -3183    -3194    -3202    -3203    -3199    -3198    -3198    -3194 
   -3191    -3191    -3204    -3235    -3276    -3322    -3377    -3435 
   -3487    -3530    -3572    -3608    -3640    -3680    -3726    -3769 
   -3800    -3816    -3817    -3811    -3804    -3804    -3809    -3816 
   -3823    -3817    -3804    -3793    -3780    -3765    -3751    -3740 
   -3730    -3716    -3701    -3690    -3684    -3682    -3676    -3657 
   -3639    -3619    -3595    -3572    -3549    -3528    -3516    -3508 
   -3507    -3510    -3508    -3499    -3492    -3489    -3488    -3485 
   -3478    -3473    -3470    -3465    -3454    -3447    -3456    -3474 
   -3499    -3532    -3578    -3619    -3646    -3657    -3661    -3666 
   -3684    -3704    -3716    -3719    -3724    -3738    -3750    -3757 
   -3767    -3777    -3784    -3796    -3817    -3846    -3866    -3870 
   -3867    -3856    -3835    -3813    -3804    -3802    -3798    -3788 
   -3761    -3711    -3650    -3582    -3510    -3439    -3370    -3303 
   -3235    -3169    -3107    -3056    -3011    -2963    -2905    -2837 
   -2767    -2701    -2640    -2593    -2565    -2547    -2535    -2525 
   -2525    -2533    -2550    -2575    -2608    -2647    -2690    -2739 
   -2783    -2825    -2872    -2926    -2988    -3045    -3094    -3142 
   -3191    -3246    -3307    -3370    -3426    -3470    -3512    -3562 
   -3615    -3666    -3719    -3775    -3834    -3886    -3931    -3971 
   -4002    -4029    -4059    -4083    -4098    -4109    -4118    -4117 
   -4112    -4102    -4077    -4039    -3994    -3948    -3896    -3839 
   -3781    -3727    -3669    -3607    -3547    -3492    -3441    -3393 
   -3350    -3315    -3294    -3277    -3257    -3230    -3198    -3163 
   -3129    -3100    -3075    -3048    -3022    -3001    -2984    -2980 
   -2982    -2990    -3014    -3051    -3094    -3134    -3171    -3208 
   -3249    -3284    -3308    -3331    -3357    -3388    -3429    -3472 
   -3515    -3551    -3573    -3577    -3574    -3565    -3539    -3501 
   -3462    -3418    -3373    -3330    -3284    -3246    -3211    -3169 
   -3127    -3095    -3068    -3048    -3040    -3036    -3028    -3014 
   -2999    -2982    -2970    -2971    -2978    -2978    -2970    -2951 
   -2924    -2895    -2875    -2862    -2852    -2853    -2860    -2864 
   -2871    -2879    -2882    -2890    -2907    -2930    -2961    -2999 
   -3040    -3079    -3115    -3148    -3180    -3215    -3253    -3294 
   -3339    -3389    -3438    -3488    -3539    -3586    -3630    -3670 
   -3704    -3740    -3773    -3798    -3824    -3848    -3877    -3906 
   -3929    -3948    -3966    -3982    -3996    -4004    -4010    -4023 
   -4047    -4074    -4098    -4121    -4148    -4179    -4210    -4233 
   -4249    -4261    -4276    -4301    -4333    -4364    -4387    -4399 
   -4405    -4401    -4387    -4374    -4360    -4349    -4337    -4320 
   -4290    -4239    -4168    -4098    -4036    -3982    -3935    -3888 
   -3839    -3794    -3750    -3699    -3646    -3585    -3512    -3435 
   -3358    -3284    -3211    -3149    -3098    -3057    -3024    -2997 
   -2975    -2955    -2929    -2905    -2880    -2857    -2833    -2813 
   -2801    -2795    -2785    -2772    -2764    -2759    -2758    -2764 
   -2774    -2779    -2783    -2783    -2775    -2758    -2737    -2717 
   -2702    -2698    -2697    -2700    -2710    -2722    -2731    -2741 
   -2752    -2770    -2797    -2828    -2857    -2887    -2916    -2947 
   -2975    -2998    -3019    -3046    -3079    -3109    -3133    -3159 
   -3184    -3208    -3234    -3252    -3262    -3261    -3256    -3264 
   -3284    -3303    -3321    -3341    -3360    -3380    -3407    -3434 
   -3456    -3472    -3483    -3495    -3507    -3516    -3528    -3546 
   -3555    -3555    -3543    -3527    -3518    -3520    -3534    -3554 
   -3572    -3577    -3578    -3578    -3574    -3562    -3546    -3531 
   -3514    -3500    -3492    -3488    -3480    -3472    -3469    -3472 
   -3473    -3464    -3446    -3427    -3412    -3402    -3391    -3380 
   -3369    -3352    -3329    -3307    -3281    -3249    -3215    -3183 
   -3153    -3123    -3095    -3069    -3051    -3041    -3037    -3038 
   -3046    -3056    -3057    -3056    -3057    -3060    -3067    -3078 
   -3092    -3111    -3132    -3149    -3165    -3176    -3183    -3183 
   -3184    -3192    -3211    -3234    -3254    -3277    -3304    -3335 
   -3365    -3388    -3402    -3411    -3418    -3422    -3426    -3437 
   -3446    -3453    -3462    -3470    -3470    -3465    -3450    -3435 
   -3424    -3411    -3395    -3387    -3387    -3387    -3388    -3391 
   -3393    -3399    -3404    -3408    -3407    -3399    -3389    -3379 
   -3368    -3366    -3366    -3364    -3364    -3365    -3361    -3353 
   -3345    -3335    -3331    -3331    -3330    -3327    -3327    -3326 
   -3315    -3303    -3292    -3284    -3279    -3269    -3256    -3244 
   -3234    -3225    -3213    -3195    -3171    -3144    -3118    -3094 
   -3069    -3055    -3048    -3046    -3055    -3073    -3092    -3109 
   -3123    -3134    -3138    -3142    -3149    -3167    -3192    -3225 
   -3265    -3312    -3362    -3414    -3458    -3497    -3545    -3599 
   -3654    -3712    -3770    -3824    -3877    -3927    -3974    -4014 
   -4043    -4059    -4060    -4058    -4058    -4058    -4060    -4060 
   -4052    -4032    -3997    -3952    -3909    -3871    -3842    -3820 
   -3797    -3770    -3736    -3701    -3670    -3640    -3607    -3576 
   -3550    -3530    -3519    -3508    -3493    -3476    -3456    -3433 
   -3414    -3400    -3389    -3383    -3376    -3366    -3357    -3349 
   -3341    -3333    -3322    -3303    -3283    -3265    -3245    -3227 
   -3206    -3179    -3153    -3134    -3123    -3119    -3123    -3134 
   -3152    -3167    -3180    -3195    -3207    -3218    -3225    -3227 
   -3233    -3241    -3249    -3260    -3271    -3280    -3285    -3289 
   -3292    -3296    -3303    -3308    -3304    -3295    -3287    -3284 
   -3295    -3308    -3316    -3318    -3311    -3292    -3268    -3250 
   -3242    -3244    -3250    -3254    -3250    -3240    -3223    -3217 
   -3225    -3234    -3241    -3248    -3254    -3254    -3250    -3242 
   -3231    -3223    -3218    -3213    -3211    -3214    -3221    -3231 
   -3238    -3241    -3244    -3244    -3238    -3238    -3244    -3248 
   -3250    -3260    -3269    -3280    -3296    -3319    -3345    -3366 
   -3385    -3397    -3408    -3420    -3434    -3449    -3464    -3476 
   -3484    -3493    -3508    -3531    -3554    -3574    -3596    -3615 
   -3630    -3643    -3654    -3666    -3685    -3707    -3732    -3759 
   -3777    -3784    -3786    -3792    -3801    -3811    -3820    -3825 
   -3823    -3812    -3796    -3782    -3771    -3759    -3739    -3711 
   -3674    -3636    -3600    -3570    -3546    -3523    -3497    -3469 
   -3442    -3414    -3387    -3362    -3335    -3306    -3275    -3241 
   -3208    -3181    -3163    -3145    -3133    -3119    -3109    -3103 
   -3102    -3092    -3080    -3065    -3051    -3038    -3030    -3026 
   -3021    -3010    -3003    -3002    -2999    -2999    -2998    -2992 
   -2987    -2987    -2991    -2998    -3007    -3024    -3040    -3056 
   -3072    -3084    -3092    -3107    -3136    -3163    -3183    -3204 
   -3233    -3269    -3307    -3342    -3379    -3414    -3445    -3470 
   -3493    -3514    -3543    -3577    -3607    -3634    -3655    -3672 
   -3688    -3703    -3712    -3717    -3723    -3730    -3731    -3727 
   -3719    -3705    -3688    -3666    -3640    -3609    -3572    -3531 
   -3489    -3450    -3414    -3380    -3345    -3315    -3295    -3273 
   -3257    -3250    -3254    -3261    -3269    -3276    -3284    -3298 
   -3312    -3327    -3353    -3389    -3424    -3464    -3508    -3550 
   -3582    -3611    -3632    -3651    -3677    -3705    -3726    -3739 
   -3743    -3736    -3728    -3721    -3713    -3705    -3692    -3670 
   -3646    -3622    -3603    -3585    -3569    -3557    -3543    -3530 
   -3520    -3516    -3516    -3518    -3519    -3518    -3515    -3512 
   -3505    -3497    -3488    -3474    -3458    -3442    -3430    -3422 
   -3411    -3399    -3383    -3356    -3323    -3294    -3265    -3240 
   -3218    -3202    -3190    -3179    -3171    -3167    -3160    -3150 
   -3142    -3136    -3133    -3136    -3138    -3145    -3160    -3181 
   -3207    -3234    -3262    -3289    -3322    -3354    -3377    -3396 
   -3412    -3420    -3429    -3442    -3451    -3451    -3445    -3430 
   -3412    -3399    -3389    -3385    -3385    -3387    -3389    -3395 
   -3393    -3388    -3381    -3380    -3389    -3402    -3408    -3410 
