Origin Time       2025/01/13 21:19:00
Lat.              31.8
Long.             131.6
Depth. (km)       30
Mag.              6.9
Station Code      HRSH15
Station Lat.      34.1161
Station Long.     132.5053
Station Height(m) 80
Record Time       2025/01/13 21:20:20
Sampling Freq(Hz) 100Hz
Duration Time(s)  145
Dir.              1
Scale Factor      2942(gal)/8224139
Max. Acc. (gal)   1.049
Last Correction   2025/01/13 21:20:20
Memo.             
[...]
  190256   190240   190200   190132   190097   190113   190136   190116 
  190078   190070   190066   190058   190070   190105   190135   190121 
  190078   190073   190113   190159   190201   190239   190243   190189 
  190086   189957   189824   189706   189612   189546   189525   189554 
  189612   189669   189723   189781   189831   189834   189801   189796 
  189845   189951   190109   190274   190409   190512   190553   190549 
  190587   190688   190787   190846   190906   190988   191052   191060 
  191025   190972   190942   190953   190966   190961   190991   191069 
  191149   191195   191196   191178   191180   191200   191239   191265 
  191207   191084   190998   191002   191053   191068   191029   190996 
  191012   191049   191072   191060   191002   190934   190892   190858 
  190803   190723   190648   190602   190568   190516   190470   190462 
  190453   190401   190331   190271   190204   190134   190090   190058 
  190023   189993   189973   189981   189994   189955   189899   189907 
  189980   190070   190124   190116   190101   190108   190085   190023 
  189978   189966   189976   190020   190065   190067   190053   190063 
  190101   190154   190228   190298   190339   190364   190379   190367 
  190333   190318   190359   190445   190553   190668   190768   190849 
  190917   190934   190892   190830   190771   190763   190836   190926 
  190988   191014   190965   190863   190798   190749   190649   190545 
  190518   190559   190591   190557   190455   190328   190225   190167 
  190128   190109   190117   190128   190121   190112   190120   190150 
  190201   190287   190406   190517   190572   190572   190533   190479 
  190462   190498   190555   190622   190690   190726   190738   190757 
  190761   190752   190772   190800   190807   190809   190799   190783 
  190777   190800   190834   190841   190811   190784   190792   190817 
  190821   190796   190738   190660   190602   190579   190580   190605 
  190629   190625   190572   190460   190323   190217   190167   190170 
  190194   190206   190217   190240   190240   190202   190151   190107 
  190067   190043   190034   190030   190026   190031   190048   190036 
  189989   189965   189973   189972   189970   189992   190027   190032 
  189990   189949   189967   190040   190105   190129   190119   190098 
  190113   190166   190201   190201   190177   190148   190163   190243 
  190348   190474   190659   190861   190973   191004   191065   191166 
  191239   191281   191328   191357   191339   191307   191281   191253 
  191216   191170   191120   191081   191057   191043   191027   190968 
  190877   190804   190752   190706   190675   190659   190671   190713 
  190733   190723   190744   190798   190833   190845   190838   190811 
  190767   190690   190609   190578   190587   190590   190578   190567 
  190559   190525   190463   190383   190302   190252   190228   190166 
  190051   189961   189916   189878   189822   189730   189615   189534 
  189514   189544   189594   189648   189706   189792   189892   189959 
  189994   190031   190067   190086   190098   190113   190132   190170 
  190198   190192   190183   190224   190309   190375   190374   190356 
  190371   190393   190404   190416   190412   190379   190332   190262 
  190171   190119   190150   190260   190374   190408   190405   190445 
  190502   190524   190540   190605   190715   190818   190892   190944 
  190995   191034   191015   190954   190942   191015   191119   191161 
  191103   191014   190969   190950   190944   190956   190925   190780 
  190541   190290   190100   190015   190040   190100   190090   190003 
  189903   189820   189754   189742   189822   189946   190048   190131 
  190206   190258   190285   190287   190259   190233   190270   190379 
  190505   190586   190625   190657   190699   190741   190768   190777 
  190799   190844   190910   190988   191016   190962   190884   190857 
  190885   190954   191026   191052   191047   191035   190983   190917 
  190915   190964   190985   190950   190885   190825   190800   190825 
  190881   190971   191076   191147   191165   191157   191170   191222 
  191246   191214   191189   191234   191347   191469   191525   191482 
  191339   191165   191046   191020   191054   191054   190968   190836 
  190702   190587   190545   190602   190691   190744   190717   190606 
  190493   190440   190432   190466   190541   190584   190522   190372 
  190185   189997   189861   189803   189810   189851   189896   189899 
  189831   189730   189661   189646   189648   189648   189697   189828 
  189972   190061   190107   190167   190273   190391   190462   190490 
  190548   190633   190655   190593   190498   190399   190316   190247 
  190206   190246   190327   190372   190436   190539   190549   190453 
  190395   190422   190486   190597   190769   190934   191018   191002 
  190937   190942   191077   191245   191362   191440   191479   191475 
  191469   191440   191353   191250   191184   191153   191106   190972 
  190784   190683   190688   190655   190529   190422   190399   190424 
  190431   190395   190364   190374   190408   190441   190424   190332 
  190236   190136   189999   189870   189800   189804   189846   189820 
  189723   189645   189588   189510   189422   189363   189386   189514 
  189654   189724   189758   189811   189881   189928   189947   190001 
  190144   190327   190459   190510   190514   190516   190525   190533 
  190525   190536   190626   190773   190926   191077   191178   191197 
  191200   191218   191208   191169   191146   191168   191191   191145 
  191061   191022   191042   191081   191073   190987   190879   190804 
  190769   190746   190723   190744   190844   190987   191087   191076 
  190987   190934   190948   190971   190977   190942   190871   190830 
  190850   190894   190926   190925   190841   190701   190601   190543 
  190451   190332   190221   190105   189990   189907   189831   189747 
  189672   189621   189589   189567   189552   189533   189473   189378 
  189292   189217   189120   189017   188940   188877   188828   188827 
  188859   188869   188865   188859   188850   188889   188998   189112 
  189189   189253   189309   189356   189423   189544   189741   189984 
  190177   190264   190316   190429   190603   190749   190821   190856 
  190918   191010   191128   191284   191415   191490   191548   191573 
  191533   191461   191384   191297   191184   191050   190902   190701 
  190474   190316   190216   190108   190015   189954   189881   189818 
  189797   189773   189727   189669   189577   189483   189444   189429 
  189402   189390   189394   189380   189326   189315   189433   189588 
  189646   189656   189712   189780   189808   189832   189913   190023 
  190070   190066   190112   190205   190274   190310   190339   190394 
  190528   190737   190927   191026   191054   191079   191161   191315 
  191443   191447   191398   191408   191497   191648   191802   191925 
  192042   192146   192229   192306   192319   192279   192316   192431 
  192510   192572   192643   192642   192577   192515   192447   192377 
  192318   192238   192141   192038   191903   191764   191674   191614 
  191559   191524   191500   191463   191432   191434   191451   191474 
  191520   191567   191596   191632   191659   191608   191490   191377 
  191317   191301   191280   191231   191153   191061   190981   190896 
  190771   190648   190590   190563   190509   190417   190236   189988 
  189807   189700   189573   189422   189264   189125   189078   189136 
  189224   189265   189282   189333   189400   189453   189548   189693 
  189781   189753   189672   189625   189638   189689   189769   189880 
  189977   190023   190031   190004   189939   189886   189877   189895 
  189943   190023   190077   190089   190119   190166   190146   190093 
  190124   190228   190314   190363   190382   190363   190336   190329 
  190323   190316   190340   190393   190435   190458   190470   190462 
  190428   190406   190440   190525   190621   190717   190815   190879 
  190910   190944   190945   190908   190895   190923   190965   190999 
  190985   190922   190849   190760   190638   190532   190459   190371 
  190269   190163   190034   189904   189810   189761   189747   189719 
  189646   189542   189463   189477   189561   189633   189719   189853 
  190008   190177   190366   190557   190713   190784   190811   190850 
  190860   190858   190887   190852   190714   190548   190351   190096 
  189832   189631   189517   189441   189337   189217   189137   189071 
  188954   188792   188638   188534   188496   188543   188662   188748 
  188736   188686   188667   188686   188701   188682   188636   188599 
  188620   188720   188838   188882   188877   188925   189052   189195 
  189297   189356   189432   189562   189716   189876   190077   190301 
  190507   190707   190904   191104   191311   191463   191533   191596 
  191686   191760   191781   191771   191767   191770   191748   191695 
  191636   191579   191496   191389   191307   191273   191257   191235 
  191250   191361   191511   191602   191631   191651   191706   191793 
  191857   191880   191901   191945   192007   192072   192127   192152 
  192159   192199   192283   192356   192391   192370   192300   192264 
  192302   192362   192456   192577   192626   192572   192503   192480 
  192500   192505   192426   192284   192169   192096   191999   191864 
  191755   191727   191740   191710   191628   191548   191466   191331 
  191158   190996   190872   190779   190676   190530   190367   190233 
  190116   189957   189745   189553   189411   189298   189224   189179 
  189128   189078   189045   189010   188981   188998   189059   189116 
  189157   189187   189222   189322   189483   189611   189668   189688 
  189722   189800   189886   189936   190003   190125   190263   190399 
  190559   190713   190823   190918   191031   191137   191219   191284 
  191305   191272   191212   191161   191143   191165   191180   191173 
  191191   191214   191166   191068   191018   191066   191182   191285 
  191299   191253   191212   191174   191139   191120   191091   191046 
  191014   190976   190892   190763   190632   190556   190541   190524 
  190478   190472   190551   190663   190744   190767   190736   190692 
  190671   190642   190582   190540   190553   190553   190502   190458 
  190433   190390   190352   190355   190368   190382   190426   190503 
  190593   190682   190765   190840   190876   190840   190780   190757 
  190733   190664   190568   190459   190360   190282   190201   190134 
  190081   189986   189849   189715   189596   189479   189365   189278 
  189214   189148   189072   189008   188990   189025   189066   189087 
  189087   189032   188929   188835   188771   188761   188802   188843 
  188859   188892   188970   189055   189081   189072   189121   189224 
  189326   189436   189573   189746   189974   190244   190528   190837 
  191172   191484   191754   192002   192230   192418   192576   192728 
  192862   192959   193025   193063   193099   193155   193182   193118 
  192977   192846   192786   192732   192603   192438   192308   192196 
  192046   191852   191650   191482   191349   191232   191141   191069 
  190992   190890   190750   190580   190413   190244   190059   189884 
  189750   189658   189588   189529   189490   189461   189421   189360 
  189307   189291   189288   189237   189148   189089   189086   189130 
  189183   189202   189206   189244   189315   189403   189504   189616 
  189730   189846   189976   190096   190175   190223   190259   190294 
  190344   190421   190534   190674   190831   191003   191139   191214 
  191263   191286   191270   191247   191215   191128   191004   190890 
  190775   190638   190475   190286   190065   189815   189577   189396 
  189276   189170   189032   188873   188709   188549   188411   188302 
  188215   188185   188238   188349   188455   188530   188589   188636 
  188661   188690   188762   188852   188917   188959   189060   189255 
  189472   189662   189847   190036   190212   190356   190489   190645 
  190823   190999   191172   191353   191546   191741   191918   192042 
  192113   192163   192202   192221   192203   192136   192036   191940 
  191867   191776   191633   191463   191297   191157   191046   190925 
  190771   190628   190517   190431   190383   190378   190381   190386 
  190422   190509   190640   190759   190806   190807   190827   190879 
  190939   191011   191101   191181   191231   191263   191281   191300 
  191344   191388   191407   191411   191389   191361   191357   191353 
  191323   191284   191227   191134   191022   190915   190810   190703 
  190620   190571   190556   190560   190560   190566   190597   190659 
  190732   190792   190871   191006   191153   191243   191296   191340 
  191371   191411   191466   191486   191458   191427   191390   191312 
  191218   191133   191008   190833   190676   190579   190514   190466 
  190435   190417   190431   190482   190510   190463   190413   190448 
  190533   190617   190715   190806   190861   190914   190973   191015 
  191076   191184   191304   191398   191461   191496   191502   191477 
  191448   191469   191546   191632   191658   191624   191579   191521 
  191409   191274   191160   191041   190887   190715   190552   190399 
  190244   190054   189831   189623   189434   189214   188968   188734 
  188523   188345   188188   188048   187944   187878   187805   187712 
  187636   187600   187582   187570   187579   187633   187710   187748 
  187737   187732   187758   187798   187837   187871   187932   188037 
  188157   188287   188438   188599   188777   189010   189301   189639 
  190017   190394   190741   191065   191386   191705   191994   192235 
  192450   192651   192817   192939   193036   193105   193140   193168 
  193195   193197   193151   193059   192933   192798   192680   192569 
  192433   192273   192121   191991   191866   191721   191586   191511 
  191471   191448   191450   191455   191451   191469   191512   191556 
  191614   191670   191673   191639   191619   191613   191593   191548 
  191506   191454   191338   191169   190992   190806   190606   190386 
  190140   189893   189689   189523   189361   189221   189116   189004 
  188882   188804   188778   188778   188817   188914   189024   189086 
  189126   189199   189305   189411   189500   189580   189664   189731 
  189750   189735   189699   189653   189606   189549   189504   189507 
  189529   189545   189564   189571   189575   189587   189583   189573 
  189604   189669   189757   189901   190101   190294   190458   190614 
  190750   190838   190891   190938   191000   191070   191128   191204 
  191323   191444   191548   191655   191728   191732   191708   191690 
  191656   191597   191558   191558   191575   191601   191606   191581 
  191575   191606   191619   191585   191523   191459   191438   191481 
  191552   191616   191702   191829   191963   192064   192136   192190 
  192218   192231   192264   192312   192341   192319   192256   192188 
  192146   192134   192145   192148   192125   192084   192019   191910 
  191770   191624   191489   191378   191269   191131   190991   190880 
  190776   190648   190510   190375   190237   190090   189938   189801 
  189679   189545   189409   189313   189263   189207   189113   188991 
  188881   188813   188774   188724   188658   188592   188531   188481 
  188453   188449   188458   188470   188466   188450   188445   188464 
  188520   188608   188700   188770   188817   188851   188898   188985 
  189124   189288   189444   189580   189672   189702   189703   189712 
  189720   189735   189788   189880   189974   190048   190107   190152 
  190186   190202   190181   190121   190046   189984   189936   189884 
  189826   189784   189784   189815   189834   189823   189793   189750 
  189712   189695   189697   189714   189745   189804   189891   189997 
  190129   190259   190363   190475   190613   190756   190904   191052 
  191173   191277   191380   191484   191585   191664   191706   191741 
  191795   191859   191920   191964   191980   191972   191930   191853 
  191779   191727   191678   191609   191504   191373   191230   191064 
  190881   190718   190598   190507   190429   190356   190270   190163 
  190073   190007   189927   189837   189776   189746   189711   189657 
  189585   189514   189471   189452   189441   189436   189437   189471 
  189557   189681   189822   189977   190132   190258   190374   190528 
  190695   190831   190954   191088   191224   191338   191405   191442 
  191484   191560   191668   191767   191849   191951   192053   192098 
  192088   192078   192083   192071   192033   191997   191972   191933 
  191853   191735   191586   191432   191313   191204   191054   190896 
  190796   190745   190705   190672   190651   190632   190609   190582 
  190572   190595   190640   190691   190755   190825   190867   190869 
  190869   190902   190966   191027   191031   190985   190922   190841 
  190741   190642   190566   190497   190402   190266   190113   189950 
  189773   189600   189449   189311   189159   188991   188846   188757 
  188713   188685   188659   188654   188669   188676   188678   188712 
  188785   188870   188954   189037   189114   189174   189230   189322 
  189446   189571   189691   189804   189923   190070   190225   190362 
  190507   190663   190788   190890   190981   191052   191106   191147 
  191145   191089   191008   190923   190837   190736   190599   190444 
  190298   190162   190020   189866   189726   189656   189660   189693 
  189730   189764   189787   189822   189885   189958   190020   190078 
  190158   190259   190354   190439   190541   190652   190748   190833 
  190906   190945   190956   190962   190979   191006   191035   191062 
  191108   191173   191223   191241   191251   191285   191347   191411 
  191457   191479   191465   191404   191331   191282   191243   191166 
  191046   190926   190825   190718   190593   190471   190363   190267 
  190181   190093   190001   189928   189897   189895   189912   189946 
  189992   190057   190134   190188   190213   190243   190312   190412 
  190524   190640   190752   190867   191012   191185   191349   191501 
  191652   191808   191944   192044   192146   192276   192396   192485 
  192547   192565   192523   192456   192408   192372   192308   192198 
  192033   191821   191598   191384   191178   190983   190803   190637 
  190483   190335   190179   190020   189877   189768   189683   189614 
  189552   189490   189432   189376   189338   189341   189355   189349 
  189325   189295   189274   189249   189209   189167   189130   189076 
  189014   188940   188840   188732   188651   188601   188563   188522 
  188470   188423   188396   188399   188435   188491   188547   188597 
  188659   188751   188869   189004   189159   189305   189409   189484 
  189548   189589   189638   189729   189842   189953   190069   190190 
  190296   190378   190453   190543   190626   190680   190717   190749 
  190755   190740   190728   190710   190668   190606   190552   190514 
  190475   190439   190422   190409   190379   190339   190296   190275 
  190301   190347   190399   190468   190541   190597   190636   190664 
  190706   190776   190860   190942   191046   191184   191336   191482 
