Origin Time       2025/01/13 21:19:00
Lat.              31.8
Long.             131.6
Depth. (km)       30
Mag.              6.9
Station Code      HRSH05
Station Lat.      34.5566
Station Long.     133.4179
Station Height(m) -180
Record Time       2025/01/13 21:21:15
Sampling Freq(Hz) 100Hz
Duration Time(s)  120
Dir.              2
Scale Factor      2942(gal)/8224139
Max. Acc. (gal)   0.456
Last Correction   2025/01/13 21:21:16
Memo.             
[...]
  207065   207080   207108   207127   207149   207188   207206   207193 
  207175   207152   207139   207141   207129   207118   207108   207079 
  207057   207057   207054   207079   207137   207173   207180   207172 
  207144   207099   207069   207046   207010   206992   206988   206972 
  206990   207026   207014   207000   207030   207054   207048   207031 
  207021   207006   206976   206938   206917   206910   206905   206917 
  206934   206929   206934   206944   206915   206884   206860   206834 
  206844   206859   206825   206802   206794   206780   206828   206917 
  206961   206975   206996   207011   207025   207069   207110   207118 
  207107   207069   207034   207026   207013   206999   207006   207014 
  207014   206986   206928   206914   206957   206969   206945   206940 
  206942   206949   206982   206998   206980   206976   206971   206940 
  206926   206938   206934   206941   206990   207044   207084   207114 
  207075   207002   206999   207006   206967   206952   206961   206973 
  206991   207011   207023   207003   207011   207067   207064   207021 
  207021   207015   206999   207057   207149   207185   207189   207185 
  207158   207126   207102   207083   207083   207083   207060   207056 
  207084   207091   207065   207029   207004   207013   207025   207044 
  207084   207068   207003   206990   207002   206973   206928   206894 
  206851   206810   206814   206807   206753   206740   206779   206818 
  206841   206842   206830   206821   206809   206772   206734   206730 
  206743   206766   206776   206771   206778   206795   206818   206842 
  206867   206896   206918   206917   206913   206934   206971   206995 
  206996   206975   206944   206944   206955   206955   206979   207009 
  207027   207075   207123   207135   207139   207127   207080   207057 
  207084   207079   207038   207038   207046   207036   207046   207026 
  206976   206987   207015   206982   206948   206964   206960   206910 
  206860   206829   206813   206793   206772   206807   206857   206849 
  206830   206825   206793   206761   206740   206716   206734   206788 
  206814   206811   206809   206814   206844   206869   206872   206869 
  206840   206824   206878   206919   206913   206944   206999   206994 
  206948   206936   206917   206868   206856   206878   206902   206933 
  206959   206971   207000   207038   207031   207018   207033   207036 
  207040   207063   207085   207119   207150   207150   207119   207100 
  207121   207158   207214   207243   207202   207169   207183   207162 
  207122   207114   207103   207114   207157   207164   207146   207144 
  207134   207115   207103   207071   207015   207015   207077   207104 
  207085   207071   207053   207025   207010   207026   207027   207004 
  207010   207018   206996   207004   207026   207030   207052   207083 
  207085   207079   207081   207069   207040   207000   206941   206895 
  206898   206894   206875   206898   206910   206872   206833   206799 
  206771   206774   206809   206809   206737   206694   206729   206747 
  206743   206775   206790   206740   206705   206703   206656   206589 
  206572   206591   206644   206720   206759   206771   206829   206907 
  206919   206919   206941   206934   206925   206922   206901   206878 
  206840   206806   206814   206857   206921   206960   206963   206992 
  207038   207081   207123   207126   207096   207060   207019   207006 
  207033   207061   207071   207060   207050   207068   207071   207052 
  207040   207003   206975   206959   206911   206888   206910   206923 
  206925   206933   206960   207041   207125   207114   207067   207076 
  207100   207102   207092   207073   207057   207037   207000   206975 
  206983   207004   207009   206999   206973   206930   206930   206950 
  206938   206968   206994   206938   206941   207011   207022   207014 
  207022   206990   206945   206923   206892   206849   206845   206865 
  206859   206867   206929   206972   206972   206984   206994   206960 
  206942   206979   207004   206987   206960   206950   206963   206995 
  207017   207003   206999   206991   206969   206992   207034   207040 
  207036   207006   206949   206917   206921   206944   206972   206994 
  207006   207015   207014   206990   206949   206907   206882   206876 
  206878   206874   206860   206851   206876   206901   206882   206859 
  206841   206830   206845   206856   206869   206901   206894   206874 
  206894   206928   206944   206941   206914   206876   206874   206905 
  206907   206888   206888   206910   206953   206984   206961   206913 
  206880   206878   206878   206874   206875   206865   206868   206902 
  206914   206886   206851   206829   206824   206821   206829   206840 
  206841   206861   206913   206955   206949   206919   206884   206845 
  206813   206788   206776   206775   206778   206801   206814   206806 
  206830   206861   206865   206913   206979   206973   206973   207046 
  207071   206994   206944   206961   206953   206921   206915   206926 
  206918   206898   206895   206909   206914   206910   206907   206919 
  206934   206938   206950   206988   207031   207075   207121   207131 
  207114   207121   207139   207148   207156   207187   207212   207184 
  207157   207176   207172   207154   207188   207219   207214   207222 
  207235   207252   207269   207265   207268   207279   207268   207279 
  207316   207318   207296   207293   207274   207237   207208   207176 
  207158   207172   207180   207179   207171   207139   207126   207135 
  207123   207085   207048   207040   207060   207060   207041   207038 
  207030   206998   207013   207075   207091   207103   207138   207114 
  207085   207103   207100   207094   207118   207153   207202   207249 
  207281   207300   207293   207276   207253   207212   207200   207215 
  207191   207150   207152   207169   207171   207131   207049   206995 
  206983   206982   207013   207057   207060   207041   207041   207027 
  206992   206991   207007   206995   206980   206965   206936   206926 
  206918   206903   206909   206894   206867   206874   206886   206899 
  206929   206946   206968   207006   207029   207003   206971   207006 
  207076   207084   207056   207042   207022   206992   206976   206967 
  206956   206929   206896   206883   206863   206842   206830   206818 
  206833   206861   206876   206899   206936   206971   207002   207018 
  207022   207031   207042   207050   207050   207049   207061   207073 
  207076   207080   207076   207060   207056   207072   207106   207122 
  207103   207075   207056   207052   207064   207058   207022   206969 
  206926   206928   206936   206930   206979   207040   207045   207044 
  207038   207006   206994   207000   206991   206961   206922   206907 
  206921   206942   206957   206968   206983   206982   206956   206936 
  206930   206928   206925   206929   206949   206972   206969   206961 
  206998   207034   207034   207048   207048   206996   206944   206910 
  206882   206864   206836   206807   206794   206775   206779   206806 
  206793   206764   206768   206788   206833   206879   206863   206834 
  206851   206833   206780   206764   206751   206707   206683   206693 
  206728   206771   206803   206833   206886   206933   206937   206923 
  206918   206921   206944   206972   206983   206984   206994   206992 
  206972   206967   206992   207029   207044   207038   207037   207058 
  207115   207180   207208   207226   207249   207269   207283   207279 
  207289   207327   207354   207378   207397   207372   207316   207281 
  207266   207247   207216   207180   207149   207139   207156   207183 
  207200   207199   207183   207161   207171   207202   207183   207123 
  207069   207037   207029   207018   207007   207030   207057   207061 
  207056   207031   206987   206941   206906   206895   206899   206865 
  206832   206848   206834   206768   206725   206706   206690   206693 
  206716   206761   206803   206815   206806   206788   206790   206806 
  206811   206825   206830   206815   206814   206833   206845   206821 
  206766   206736   206732   206709   206687   206685   206683   206666 
  206644   206672   206713   206694   206695   206744   206736   206705 
  206729   206756   206760   206794   206840   206871   206934   206990 
  206984   207002   207026   207010   207007   207000   206983   206988 
  206992   207000   207010   206999   206996   207013   207026   207037 
  207045   207053   207071   207088   207108   207145   207168   207149 
  207129   207142   207150   207144   207176   207207   207179   207139 
  207134   207150   207173   207183   207179   207180   207188   207188 
  207181   207198   207220   207220   207234   207252   207246   207250 
  207250   207234   207231   207250   207258   207242   207235   207245 
  207234   207202   207173   207173   207185   207189   207206   207229 
  207239   207252   207288   207318   207319   207362   207426   207424 
  207407   207393   207368   207369   207380   207362   207345   207335 
  207303   207256   207230   207235   207241   207193   207146   207153 
  207153   207121   207085   207041   207006   207006   206999   206971 
  206944   206909   206868   206838   206797   206780   206797   206740 
  206652   206625   206618   206626   206649   206653   206670   206685 
  206652   206648   206698   206709   206694   206710   206729   206736 
  206760   206784   206771   206736   206714   206712   206710   206701 
  206689   206701   206726   206722   206701   206695   206679   206648 
  206629   206621   206610   206594   206583   206578   206570   206571 
  206567   206560   206572   206585   206585   206556   206500   206454 
  206442   206455   206490   206494   206448   206424   206402   206350 
  206334   206320   206284   206298   206334   206350   206393   206409 
  206354   206309   206313   206309   206286   206284   206290   206275 
  206257   206253   206269   206304   206332   206335   206328   206331 
  206347   206393   206429   206427   206429   206435   206424   206440 
  206467   206474   206482   206481   206456   206440   206439   206442 
  206470   206479   206437   206437   206479   206477   206469   206506 
  206571   206649   206691   206693   206707   206726   206767   206836 
  206876   206910   206955   206972   206992   207048   207091   207107 
  207133   207172   207199   207234   207283   207307   207315   207345 
  207389   207432   207476   207524   207577   207620   207651   207688 
  207724   207727   207715   207727   207762   207771   207744   207727 
  207728   207738   207752   207765   207774   207787   207774   207755 
  207748   207717   207697   207725   207729   207685   207651   207643 
  207631   207620   207586   207501   207458   207480   207455   207404 
  207376   207333   207293   207281   207260   207243   207227   207188 
  207157   207158   207156   207118   207072   207071   207100   207090 
  207040   207036   207056   207025   206982   206961   206955   206982 
  206999   206973   206965   206990   206995   206988   207017   207048 
  207046   207031   207018   207018   207042   207090   207125   207131 
  207148   207177   207202   207235   207258   207254   207253   207239 
  207211   207200   207180   207114   207071   207081   207069   207027 
  207011   207013   206999   206957   206909   206891   206901   206905 
  206899   206888   206863   206837   206828   206842   206851   206802 
  206760   206770   206775   206779   206786   206772   206763   206757 
  206740   206706   206678   206664   206656   206645   206622   206599 
  206595   206593   206601   206617   206620   206628   206636   206601 
  206550   206514   206479   206466   206475   206439   206370   206335 
  206334   206329   206308   206281   206267   206273   206274   206257 
  206246   206258   206273   206301   206347   206366   206381   206409 
  206413   206423   206455   206473   206504   206554   206587   206621 
  206645   206659   206691   206714   206709   206722   206760   206782 
  206787   206799   206815   206828   206809   206787   206802   206798 
  206767   206755   206744   206714   206706   206718   206695   206636 
  206581   206531   206490   206466   206443   206427   206408   206358 
  206307   206290   206305   206339   206373   206385   206415   206481 
  206497   206475   206512   206551   206550   206563   206598   206635 
  206645   206621   206631   206699   206751   206767   206793   206821 
  206817   206825   206872   206892   206888   206911   206959   206986 
  206986   207010   207050   207067   207099   207144   207157   207184 
  207233   207245   207257   207306   207338   207338   207350   207387 
  207418   207447   207495   207542   207557   207565   207616   207658 
  207682   207733   207747   207750   207821   207866   207846   207810 
  207792   207825   207874   207889   207905   207941   207967   207982 
  207998   208001   207975   207933   207893   207863   207832   207773 
  207715   207685   207647   207616   207592   207543   207507   207511 
  207519   207523   207503   207451   207430   207435   207419   207403 
  207400   207401   207438   207500   207519   207507   207532   207558 
  207561   207585   207601   207573   207555   207544   207501   207455 
  207409   207335   207254   207173   207075   207004   207004   206975 
  206878   206813   206790   206763   206724   206653   206566   206494 
  206437   206382   206315   206242   206174   206105   206043   206016 
  206003   205956   205888   205861   205868   205853   205815   205784 
  205772   205760   205721   205687   205688   205684   205668   205669 
  205684   205694   205710   205762   205806   205810   205829   205872 
  205911   205960   206011   206069   206132   206163   206172   206211 
  206278   206320   206340   206378   206425   206467   206513   206570 
  206626   206663   206689   206718   206740   206755   206772   206799 
  206815   206833   206865   206895   206941   206991   207029   207079 
  207119   207144   207169   207169   207184   207225   207218   207188 
  207181   207183   207200   207210   207220   207237   207220   207219 
  207254   207262   207266   207296   207307   207306   207339   207399 
  207446   207489   207555   207636   207711   207773   207824   207877 
  207929   207968   208001   208037   208063   208082   208116   208143 
  208133   208111   208098   208089   208089   208075   208049   208040 
  208043   208017   207968   207936   207921   207883   207821   207762 
  207724   207698   207661   207620   207596   207573   207542   207495 
  207424   207372   207326   207266   207238   207218   207158   207104 
  207058   207002   206971   206950   206940   206968   206964   206902 
  206875   206872   206844   206818   206790   206779   206810   206798 
  206729   206690   206679   206652   206624   206606   206566   206512 
  206486   206487   206501   206510   206509   206513   206548   206601 
  206601   206564   206556   206548   206547   206582   206591   206567 
  206536   206498   206483   206471   206420   206377   206365   206346 
  206300   206221   206157   206161   206199   206205   206193   206201 
  206203   206184   206172   206172   206170   206172   206169   206149 
  206119   206097   206092   206085   206069   206053   206027   206011 
  206015   206000   205978   205974   205977   206034   206120   206145 
  206143   206190   206258   206338   206424   206474   206493   206516 
  206543   206583   206632   206659   206679   206716   206761   206826 
  206891   206917   206950   207015   207061   207102   207137   207146 
  207183   207241   207274   207314   207345   207350   207404   207513 
  207584   207590   207565   207570   207596   207607   207634   207647 
  207623   207634   207671   207669   207634   207598   207584   207569 
  207528   207511   207536   207543   207554   207617   207665   207693 
  207752   207798   207816   207855   207920   207985   208025   208075 
  208144   208149   208144   208190   208201   208179   208176   208171 
  208184   208191   208159   208138   208137   208136   208125   208103 
  208089   208066   208006   207937   207882   207802   207692   207613 
  207550   207455   207365   207279   207185   207117   207041   206940 
  206867   206821   206760   206675   206587   206528   206491   206442 
  206386   206335   206286   206246   206205   206181   206176   206143 
  206112   206131   206140   206115   206103   206109   206130   206155 
  206162   206167   206190   206226   206278   206342   206389   206431 
  206498   206560   206599   206635   206658   206701   206768   206782 
  206761   206772   206794   206811   206842   206861   206861   206888 
  206919   206921   206906   206872   206834   206818   206813   206782 
  206726   206701   206701   206675   206639   206620   206597   206575 
  206568   206558   206537   206521   206505   206469   206428   206409 
  206404   206408   206420   206436   206456   206463   206466   206485 
  206514   206555   206591   206608   206629   206683   206745   206784 
  206799   206817   206861   206913   206961   207006   207034   207081 
  207135   207154   207150   207134   207125   207141   207137   207106 
  207085   207068   207058   207048   207026   207019   207004   206973 
  206952   206940   206932   206905   206859   206822   206784   206747 
  206732   206733   206725   206695   206670   206662   206652   206644 
  206649   206656   206639   206621   206655   206690   206652   206593 
  206577   206606   206651   206666   206668   206713   206763   206768 
  206790   206849   206883   206892   206932   206994   207040   207068 
  207112   207153   207162   207173   207189   207183   207181   207188 
  207185   207184   207185   207192   207202   207198   207188   207188 
  207211   207256   207268   207246   207269   207314   207319   207322 
  207328   207331   207347   207351   207333   207320   207341   207384 
  207420   207441   207455   207459   207458   207472   207488   207493 
  207496   207497   207507   207507   207477   207472   207480   207411 
  207338   207324   207289   207233   207199   207158   207098   207036 
  207006   207004   206957   206859   206802   206810   206834   206844 
  206821   206805   206818   206829   206841   206844   206826   206825 
  206845   206865   206888   206898   206901   206933   206965   206969 
  206973   206990   206991   206967   206969   207013   207018   206982 
  206983   206999   206991   206976   206977   206983   206980   206977 
  206983   206996   207023   207023   207007   207019   207034   207019 
  207019   207063   207098   207104   207107   207099   207106   207150 
  207175   207142   207099   207095   207118   207127   207112   207091 
  207071   207050   207027   206998   206969   206941   206910   206896 
  206887   206857   206820   206793   206774   206747   206707   206649 
  206590   206575   206577   206545   206524   206535   206541   206531 
  206498   206477   206494   206510   206517   206555   206574   206547 
  206555   206587   206612   206670   206720   206724   206740   206774 
  206793   206782   206759   206780   206824   206813   206791   206799 
  206801   206801   206805   206803   206818   206859   206907   206934 
  206905   206863   206872   206876   206837   206830   206845   206832 
  206817   206822   206824   206799   206775   206786   206805   206813 
  206837   206863   206872   206884   206914   206952   206995   207023 
