Origin Time       2025/01/13 21:19:00
Lat.              31.8
Long.             131.6
Depth. (km)       30
Mag.              6.9
Station Code      HRSH04
Station Lat.      34.3785
Station Long.     133.3493
Station Height(m) 25
Record Time       2025/01/13 21:20:43
Sampling Freq(Hz) 100Hz
Duration Time(s)  129
Dir.              6
Scale Factor      7845(gal)/8223790
Max. Acc. (gal)   1.172
Last Correction   2025/01/13 21:20:43
Memo.             
[...]
   12317    12317    12322    12320    12305    12285    12280    12299 
   12317    12317    12322    12341    12360    12375    12391    12413 
   12440    12468    12492    12506    12514    12532    12564    12603 
   12633    12648    12667    12690    12692    12668    12631    12598 
   12583    12588    12588    12571    12548    12529    12502    12469 
   12452    12451    12451    12447    12442    12436    12429    12425 
   12425    12425    12425    12421    12413    12409    12411    12415 
   12415    12405    12384    12367    12352    12343    12336    12328 
   12314    12299    12289    12271    12247    12220    12187    12158 
   12151    12163    12162    12141    12125    12117    12097    12074 
   12069    12075    12083    12097    12114    12127    12135    12131 
   12121    12113    12089    12062    12058    12067    12074    12077 
   12083    12096    12112    12144    12186    12213    12213    12216 
   12247    12279    12307    12339    12353    12351    12351    12367 
   12394    12414    12417    12426    12456    12491    12513    12528 
   12544    12549    12541    12515    12471    12425    12401    12386 
   12372    12355    12318    12262    12209    12174    12156    12148 
   12145    12140    12128    12112    12109    12123    12129    12129 
   12141    12164    12189    12212    12231    12249    12266    12274 
   12274    12268    12260    12249    12236    12228    12236    12244 
   12249    12255    12252    12248    12248    12237    12216    12206 
   12208    12210    12213    12229    12251    12256    12243    12243 
   12267    12286    12290    12290    12298    12314    12324    12334 
   12357    12366    12360    12367    12374    12368    12374    12378 
   12366    12352    12351    12348    12336    12324    12313    12306 
   12310    12316    12314    12317    12322    12317    12309    12305 
   12287    12255    12232    12228    12233    12243    12253    12263 
   12270    12274    12274    12268    12259    12253    12251    12252 
   12264    12278    12275    12259    12251    12256    12267    12279 
   12297    12326    12356    12374    12388    12401    12399    12401 
   12407    12413    12420    12426    12418    12403    12394    12388 
   12379    12367    12367    12378    12382    12384    12399    12418 
   12422    12413    12394    12375    12370    12366    12364    12382 
   12394    12386    12374    12357    12341    12334    12326    12325 
   12339    12347    12330    12317    12321    12329    12329    12325 
   12328    12343    12364    12378    12388    12409    12426    12438 
   12448    12457    12471    12486    12496    12502    12503    12499 
   12492    12486    12488    12498    12503    12511    12530    12542 
   12541    12530    12518    12509    12494    12480    12476    12469 
   12468    12483    12484    12459    12434    12432    12440    12441 
   12456    12483    12496    12498    12507    12514    12507    12495 
   12478    12453    12430    12414    12399    12382    12363    12340 
   12317    12291    12267    12260    12259    12258    12271    12289 
   12293    12303    12325    12333    12321    12297    12275    12262 
   12249    12237    12233    12224    12198    12168    12154    12152 
   12147    12132    12118    12112    12108    12105    12108    12117 
   12131    12151    12171    12187    12206    12217    12208    12191 
   12183    12179    12181    12190    12202    12212    12224    12235 
   12243    12249    12247    12243    12247    12249    12249    12248 
   12236    12212    12186    12167    12140    12101    12070    12056 
   12040    12029    12043    12060    12054    12025    12002    11983 
   11962    11947    11944    11940    11927    11912    11908    11916 
   11929    11951    11971    11970    11946    11934    11948    11971 
   11983    11983    11979    11979    11993    12019    12051    12086 
   12109    12117    12124    12136    12148    12155    12159    12160 
   12160    12159    12155    12150    12141    12124    12104    12097 
   12098    12104    12118    12139    12160    12190    12216    12225 
   12225    12232    12247    12264    12285    12310    12329    12340 
   12356    12366    12364    12370    12382    12388    12394    12405 
   12409    12406    12403    12394    12378    12367    12367    12374 
   12390    12407    12428    12444    12455    12461    12467    12474 
   12482    12492    12507    12522    12538    12565    12588    12586 
   12569    12560    12553    12549    12555    12564    12565    12555 
   12534    12517    12507    12501    12506    12528    12553    12583 
   12615    12645    12667    12695    12737    12773    12793    12807 
   12818    12825    12835    12841    12837    12823    12804    12788 
   12777    12764    12752    12752    12756    12749    12739    12735 
   12733    12729    12727    12742    12764    12766    12762    12762 
   12750    12726    12707    12698    12688    12668    12627    12582 
   12542    12496    12451    12417    12397    12382    12361    12336 
   12309    12272    12226    12186    12154    12120    12085    12056 
   12027    11989    11954    11934    11915    11882    11853    11836 
   11813    11781    11767    11770    11763    11751    11747    11747 
   11742    11732    11728    11728    11716    11691    11681    11692 
   11697    11707    11736    11777    11813    11847    11896    11947 
   11982    12013    12050    12090    12139    12194    12255    12310 
   12343    12359    12363    12363    12370    12386    12405    12430 
   12463    12491    12515    12532    12536    12533    12530    12534 
   12540    12532    12513    12505    12506    12510    12517    12518 
   12515    12518    12515    12502    12492    12480    12459    12437 
   12417    12391    12364    12336    12312    12286    12267    12259 
   12256    12258    12275    12293    12286    12256    12222    12194 
   12170    12148    12129    12110    12094    12075    12051    12031 
   12016    11996    11974    11967    11985    12013    12039    12069 
   12108    12143    12164    12186    12208    12221    12228    12240 
   12256    12275    12301    12328    12343    12351    12364    12386 
   12413    12448    12490    12528    12557    12588    12619    12648 
   12667    12665    12653    12648    12642    12630    12625    12629 
   12629    12625    12619    12604    12586    12584    12610    12638 
   12660    12688    12719    12734    12737    12744    12752    12753 
   12748    12742    12742    12745    12733    12702    12667    12634 
   12599    12567    12541    12511    12476    12434    12393    12348 
   12295    12248    12216    12186    12155    12129    12102    12069 
   12037    12019    12001    11982    11973    11971    11966    11962 
   11963    11965    11961    11955    11959    11978    12006    12044 
   12086    12116    12135    12154    12171    12195    12236    12289 
   12344    12409    12469    12506    12525    12541    12549    12545 
   12549    12569    12583    12573    12557    12550    12552    12556 
   12564    12573    12569    12549    12523    12506    12501    12487 
   12463    12441    12422    12394    12371    12356    12345    12334 
   12326    12310    12285    12251    12213    12178    12150    12128 
   12112    12098    12081    12062    12040    12010    11970    11932 
   11904    11881    11853    11824    11808    11794    11767    11738 
   11713    11681    11645    11627    11624    11624    11624    11631 
   11645    11665    11692    11727    11763    11807    11855    11902 
   11947    11981    12009    12048    12091    12125    12154    12186 
   12224    12267    12318    12378    12445    12513    12572    12627 
   12690    12748    12795    12839    12880    12906    12926    12946 
   12970    12988    12992    12992    12987    12968    12946    12941 
   12945    12941    12924    12911    12896    12876    12858    12845 
   12833    12825    12814    12792    12766    12739    12706    12667 
   12629    12594    12567    12541    12507    12472    12441    12420 
   12409    12398    12387    12382    12376    12359    12328    12297 
   12272    12251    12231    12208    12187    12175    12160    12132 
   12102    12085    12062    12031    12009    11990    11967    11950 
   11943    11942    11928    11894    11863    11840    11812    11780 
   11754    11736    11730    11728    11731    11739    11749    11759 
   11778    11804    11830    11861    11896    11927    11954    11977 
   12002    12042    12082    12116    12151    12193    12235    12270 
   12293    12307    12328    12357    12394    12425    12453    12482 
   12509    12534    12564    12592    12609    12611    12613    12622 
   12637    12648    12661    12677    12694    12708    12729    12758 
   12788    12806    12822    12839    12853    12865    12880    12895 
   12907    12924    12945    12954    12945    12920    12892    12861 
   12827    12802    12781    12757    12723    12680    12625    12560 
   12509    12471    12432    12388    12340    12294    12253    12214 
   12170    12127    12089    12046    11994    11946    11900    11853 
   11808    11770    11739    11704    11665    11639    11632    11635 
   11639    11650    11665    11681    11704    11728    11746    11761 
   11776    11793    11815    11836    11858    11885    11913    11934 
   11954    11979    12009    12044    12079    12108    12135    12164 
   12189    12205    12217    12232    12252    12272    12303    12347 
   12386    12418    12445    12457    12448    12425    12409    12409 
   12415    12430    12456    12476    12484    12491    12496    12492 
   12476    12452    12425    12399    12376    12361    12353    12352 
   12353    12347    12334    12324    12320    12317    12307    12289 
   12266    12241    12218    12204    12195    12186    12181    12193 
   12208    12212    12224    12245    12252    12258    12276    12294 
   12306    12326    12356    12390    12426    12456    12476    12490 
   12505    12525    12549    12576    12606    12638    12669    12699 
   12730    12754    12771    12780    12779    12771    12757    12741 
   12721    12691    12661    12634    12609    12586    12573    12565 
   12549    12537    12528    12507    12478    12456    12445    12432 
   12414    12402    12399    12401    12402    12409    12421    12432 
   12442    12447    12445    12449    12457    12468    12483    12498 
   12514    12532    12550    12568    12586    12603    12617    12622 
   12627    12638    12646    12644    12640    12640    12638    12630 
   12629    12637    12645    12644    12641    12645    12657    12660 
   12656    12658    12661    12648    12625    12609    12595    12579 
   12564    12552    12537    12513    12488    12469    12448    12428 
   12417    12406    12387    12361    12345    12337    12320    12293 
   12271    12248    12212    12168    12129    12094    12064    12048 
   12037    12023    12010    12002    11993    11983    11979    11981 
   11982    11973    11955    11936    11912    11888    11865    11836 
   11805    11782    11762    11746    11735    11727    11716    11711 
   11709    11699    11684    11678    11685    11700    11722    11743 
   11762    11777    11781    11780    11780    11780    11777    11778 
   11776    11763    11754    11747    11750    11762    11776    11789 
   11808    11834    11859    11885    11912    11943    11974    12001 
   12025    12055    12089    12123    12152    12181    12216    12251 
   12275    12293    12316    12340    12368    12411    12455    12490 
   12532    12582    12630    12672    12715    12764    12818    12864 
   12904    12949    12992    13026    13057    13082    13105    13130 
   13151    13178    13211    13236    13263    13293    13302    13294 
   13286    13273    13248    13219    13182    13149    13122    13089 
   13049    13004    12957    12915    12870    12818    12773    12738 
   12700    12658    12613    12559    12495    12424    12357    12301 
   12244    12190    12135    12067    11993    11924    11861    11799 
   11742    11692    11645    11595    11546    11512    11493    11477 
   11466    11464    11460    11448    11437    11426    11416    11411 
   11414    11419    11426    11431    11435    11448    11470    11502 
   11538    11577    11618    11661    11712    11767    11827    11893 
   11965    12037    12113    12189    12263    12330    12391    12448 
   12502    12549    12584    12613    12641    12668    12691    12712 
   12737    12760    12781    12799    12812    12827    12845    12857 
   12864    12869    12872    12869    12866    12865    12856    12839 
   12827    12819    12803    12781    12757    12738    12723    12712 
   12704    12706    12715    12723    12730    12745    12769    12795 
   12815    12829    12838    12849    12864    12879    12895    12912 
   12928    12949    12973    12989    12987    12966    12947    12933 
   12920    12907    12885    12864    12845    12820    12791    12761 
   12730    12695    12664    12644    12627    12609    12592    12580 
   12573    12560    12542    12529    12514    12490    12468    12455 
   12433    12402    12375    12345    12307    12267    12224    12177 
   12120    12055    11990    11925    11857    11777    11688    11601 
   11518    11437    11364    11303    11245    11198    11160    11132 
   11113    11098    11087    11087    11098    11113    11133    11168 
   11203    11236    11275    11310    11335    11360    11383    11407 
   11435    11464    11491    11515    11539    11565    11587    11604 
   11630    11659    11684    11713    11755    11805    11854    11907 
   11965    12025    12081    12135    12194    12248    12289    12320 
   12351    12383    12410    12433    12457    12476    12492    12509 
   12515    12518    12518    12507    12494    12480    12457    12432 
   12414    12399    12390    12380    12366    12345    12326    12309 
   12295    12287    12285    12285    12286    12291    12297    12299 
   12302    12302    12306    12320    12329    12332    12336    12340 
   12349    12368    12387    12403    12424    12447    12463    12476 
   12492    12507    12518    12532    12542    12546    12550    12560 
   12575    12590    12600    12609    12617    12621    12622    12626 
   12623    12614    12602    12590    12576    12564    12557    12542 
   12518    12496    12475    12449    12429    12414    12397    12380 
   12363    12334    12309    12290    12271    12259    12256    12251 
   12249    12262    12274    12279    12286    12294    12293    12282 
   12276    12272    12260    12245    12239    12240    12244    12240 
   12231    12229    12241    12262    12280    12299    12320    12337 
   12356    12376    12391    12398    12399    12402    12407    12409 
   12409    12420    12422    12417    12417    12421    12425    12430 
   12447    12474    12503    12533    12567    12598    12619    12644 
   12672    12695    12715    12735    12752    12760    12758    12754 
   12748    12742    12741    12731    12722    12722    12726    12721 
   12706    12694    12683    12672    12660    12649    12634    12617 
   12604    12600    12599    12603    12613    12622    12625    12629 
   12630    12629    12631    12633    12626    12615    12602    12583 
   12556    12528    12505    12479    12444    12407    12372    12330 
   12285    12244    12209    12178    12152    12131    12113    12097 
   12086    12081    12081    12086    12087    12082    12078    12073 
   12067    12066    12074    12086    12101    12104    12096    12083 
   12074    12064    12054    12050    12044    12037    12037    12043 
   12046    12043    12042    12040    12040    12042    12046    12048 
   12044    12040    12039    12032    12023    12021    12023    12020 
   12017    12017    12024    12035    12050    12064    12071    12079 
   12096    12120    12151    12187    12220    12245    12268    12290 
   12312    12330    12347    12368    12383    12393    12406    12415 
   12417    12418    12422    12417    12409    12397    12383    12378 
   12375    12372    12374    12374    12367    12356    12353    12366 
   12387    12409    12430    12453    12474    12486    12501    12525 
   12548    12557    12559    12568    12584    12596    12602    12602 
   12594    12579    12563    12545    12525    12503    12486    12471 
   12455    12437    12414    12390    12367    12339    12312    12291 
   12266    12233    12217    12209    12191    12171    12156    12148 
   12143    12143    12148    12152    12143    12128    12117    12106 
   12094    12086    12085    12089    12100    12110    12117    12121 
   12127    12132    12137    12145    12159    12177    12189    12193 
   12201    12208    12206    12208    12224    12240    12251    12266 
   12293    12325    12349    12371    12388    12405    12420    12429 
   12434    12436    12430    12422    12414    12403    12391    12379 
   12361    12344    12329    12312    12285    12259    12241    12226 
   12212    12202    12191    12172    12152    12137    12125    12116 
   12118    12131    12141    12156    12175    12186    12183    12182 
   12187    12199    12212    12222    12236    12252    12266    12272 
   12272    12272    12268    12263    12264    12268    12276    12293 
   12313    12333    12353    12372    12383    12387    12395    12401 
   12406    12417    12429    12438    12447    12457    12468    12474 
   12479    12484    12486    12479    12465    12449    12430    12410 
   12391    12366    12334    12305    12279    12253    12232    12217 
   12205    12187    12170    12159    12148    12135    12121    12112 
   12110    12113    12121    12137    12154    12166    12171    12174 
   12174    12178    12194    12213    12228    12243    12256    12272 
   12297    12322    12341    12356    12368    12384    12399    12405 
   12403    12406    12415    12422    12421    12417    12417    12415 
   12410    12403    12398    12398    12397    12397    12401    12407 
   12414    12420    12417    12414    12420    12425    12422    12415 
   12413    12409    12402    12393    12383    12366    12340    12318 
   12299    12275    12245    12221    12197    12168    12144    12129 
   12117    12104    12091    12085    12078    12074    12077    12079 
   12085    12096    12113    12133    12154    12177    12208    12240 
   12268    12301    12337    12368    12397    12425    12456    12486 
   12509    12529    12556    12577    12595    12609    12610    12604 
   12609    12614    12615    12617    12614    12607    12604    12604 
   12600    12595    12592    12591    12587    12583    12577    12568 
   12550    12532    12522    12517    12507    12498    12490    12482 
   12474    12461    12452    12447    12436    12424    12417    12411 
   12405    12401    12399    12394    12393    12394    12393    12384 
   12375    12366    12356    12344    12340    12337    12332    12328 
   12329    12332    12332    12328    12317    12303    12293    12280 
   12268    12260    12255    12245    12235    12225    12217    12208 
   12199    12197    12198    12195    12190    12185    12178    12167 
