Origin Time       2025/01/13 21:19:00
Lat.              31.8
Long.             131.6
Depth. (km)       30
Mag.              6.9
Station Code      HRSH01
Station Lat.      34.3736
Station Long.     133.0236
Station Height(m) 35
Record Time       2025/01/13 21:20:32
Sampling Freq(Hz) 100Hz
Duration Time(s)  132
Dir.              6
Scale Factor      7845(gal)/8223790
Max. Acc. (gal)   1.410
Last Correction   2025/01/13 21:20:32
Memo.             
[...]
   20154    20216    20255    20271    20299    20344    20394    20434 
   20441    20425    20429    20401    20283    20202    20262    20374 
   20424    20347    20171    20058    20081    20164    20225    20185 
   20021    19847    19789    19880    20070    20228    20229    20090 
   19957    19961    20115    20297    20379    20340    20228    20093 
   19997    19970    19988    20019    19986    19808    19597    19561 
   19701    19839    19859    19797    19732    19708    19742    19826 
   19931    20015    20042    20019    19973    19921    19909    19966 
   20032    20047    20043    20035    20028    20070    20148    20196 
   20193    20160    20136    20182    20313    20430    20425    20322 
   20223    20178    20198    20290    20412    20486    20476    20412 
   20340    20286    20243    20177    20086    20055    20167    20345 
   20406    20325    20250    20260    20328    20422    20515    20564 
   20526    20387    20231    20202    20329    20457    20451    20297 
   20050    19880    19936    20101    20189    20201    20177    20117 
   20046    20013    20083    20228    20271    20127    19923    19792 
   19778    19866    19977    20063    20105    20032    19855    19735 
   19776    19942    20152    20293    20259    20097    19974    19970 
   20035    20150    20293    20325    20148    19904    19830    19978 
   20205    20378    20445    20364    20187    20075    20097    20187 
   20251    20216    20120    20100    20187    20274    20259    20105 
   19908    19832    19938    20104    20193    20169    20062    19948 
   19951    20086    20250    20385    20479    20507    20491    20479 
   20464    20461    20476    20461    20430    20464    20555    20598 
   20521    20375    20282    20298    20413    20595    20740    20695 
   20452    20177    20059    20139    20277    20325    20244    20052 
   19842    19776    19888    20054    20169    20151    19990    19830 
   19797    19863    19940    19950    19870    19792    19822    19924 
   19967    19919    19872    19907    20015    20116    20159    20144 
   20061    19957    19948    20061    20202    20301    20321    20268 
   20208    20179    20182    20256    20394    20513    20601    20675 
   20683    20630    20595    20567    20474    20360    20318    20366 
   20451    20509    20524    20510    20484    20471    20468    20422 
   20318    20191    20094    20083    20177    20287    20306    20232 
   20140    20079    20079    20140    20227    20285    20247    20119 
   20007    20001    20102    20232    20264    20156    19982    19804 
   19668    19697    19966    20308    20456    20317    20058    19923 
   20005    20208    20371    20389    20258    20105    20097    20270 
   20482    20567    20503    20410    20358    20340    20383    20471 
   20541    20551    20460    20305    20214    20223    20239    20231 
   20231    20275    20349    20360    20243    20078    19977    19974 
   20044    20140    20224    20256    20198    20094    20009    19944 
   19930    19997    20075    20098    20083    20052    20050    20098 
   20105    20017    19957    19984    20034    20070    20059    19975 
   19890    19866    19877    19916    20004    20116    20190    20186 
   20105    19998    19966    20073    20243    20356    20382    20316 
   20173    20021    19915    19880    19955    20089    20120    20005 
   19858    19753    19689    19660    19643    19635    19641    19588 
   19433    19264    19186    19214    19292    19330    19286    19188 
   19120    19172    19327    19441    19445    19408    19421    19523 
   19707    19896    20001    19986    19874    19769    19819    20040 
   20289    20429    20433    20372    20353    20432    20596    20791 
   20916    20908    20825    20760    20752    20806    20879    20908 
   20900    20887    20852    20811    20845    20938    20976    20919 
   20814    20713    20671    20686    20696    20652    20572    20514 
   20526    20588    20621    20561    20426    20302    20271    20340 
   20475    20649    20791    20800    20668    20488    20359    20318 
   20379    20511    20649    20727    20700    20575    20444    20424 
   20536    20699    20780    20734    20640    20595    20607    20614 
   20594    20580    20568    20542    20510    20463    20443    20467 
   20476    20461    20463    20459    20449    20467    20459    20376 
   20272    20240    20313    20398    20394    20337    20271    20193 
   20175    20260    20363    20416    20402    20306    20156    20002 
   19866    19792    19786    19815    19863    19909    19899    19851 
   19797    19720    19642    19612    19650    19758    19909    20019 
   20005    19872    19737    19731    19855    19984    20007    19940 
   19894    19930    19994    20031    20028    19974    19851    19722 
   19714    19857    20050    20155    20085    19894    19784    19862 
   20042    20193    20264    20245    20170    20128    20193    20331 
   20449    20501    20488    20430    20364    20359    20430    20507 
   20536    20520    20482    20456    20470    20501    20507    20487 
   20459    20387    20251    20131    20121    20190    20206    20124 
   20004    19908    19855    19809    19735    19661    19614    19562 
   19494    19458    19511    19610    19627    19500    19307    19161 
   19116    19174    19291    19372    19349    19256    19176    19110 
   19056    19098    19252    19410    19492    19484    19387    19265 
   19226    19315    19489    19647    19701    19691    19704    19732 
   19731    19745    19819    19899    19944    19998    20088    20158 
   20146    20077    20036    20074    20143    20128    20015    19921 
   19915    19963    20023    20062    20058    20008    19950    19936 
   20008    20158    20308    20349    20289    20216    20137    20036 
   20009    20112    20235    20266    20198    20081    19980    19950 
   19996    20092    20170    20173    20106    20001    19881    19815 
   19873    20031    20173    20191    20110    20039    20052    20123 
   20201    20278    20344    20345    20270    20208    20231    20295 
   20328    20290    20174    20039    19967    19993    20083    20167 
   20187    20137    20039    19967    20025    20194    20345    20395 
   20343    20243    20205    20287    20439    20578    20668    20702 
   20679    20630    20601    20603    20621    20648    20684    20702 
   20682    20657    20656    20637    20586    20584    20638    20646 
   20594    20568    20579    20567    20515    20459    20434    20444 
   20452    20426    20402    20420    20448    20413    20322    20279 
   20322    20372    20364    20295    20194    20144    20193    20298 
   20385    20424    20451    20482    20491    20482    20517    20625 
   20768    20846    20795    20692    20659    20661    20626    20586 
   20569    20540    20483    20424    20379    20363    20387    20439 
   20483    20502    20506    20514    20515    20502    20495    20494 
   20486    20499    20560    20630    20668    20682    20684    20703 
   20795    20954    21045    20972    20834    20756    20745    20772 
   20812    20829    20775    20645    20502    20429    20448    20470 
   20425    20366    20352    20371    20405    20426    20393    20313 
   20270    20339    20495    20633    20671    20605    20490    20397 
   20370    20376    20345    20259    20152    20069    20050    20086 
   20106    20052    19944    19830    19755    19728    19726    19734 
   19730    19699    19687    19754    19867    19936    19943    19923 
   19894    19890    19921    19939    19901    19835    19809    19863 
   19946    19961    19847    19622    19380    19236    19221    19265 
   19287    19256    19161    19030    18955    18972    19043    19141 
   19218    19211    19186    19224    19295    19360    19434    19503 
   19553    19583    19576    19564    19615    19692    19704    19674 
   19708    19840    20017    20167    20232    20169    20009    19894 
   19928    20067    20190    20227    20179    20085    19998    19967 
   19982    19967    19886    19799    19754    19732    19716    19719 
   19704    19597    19429    19323    19360    19449    19462    19413 
   19391    19413    19448    19496    19577    19681    19772    19819 
   19824    19809    19831    19936    20094    20201    20177    20063 
   19975    19982    20071    20185    20255    20270    20264    20262 
   20281    20326    20382    20430    20452    20428    20393    20414 
   20501    20599    20656    20640    20595    20609    20694    20829 
   20984    21066    21041    20995    21012    21118    21267    21335 
   21251    21104    21015    20979    20929    20885    20865    20799 
   20663    20517    20422    20390    20391    20389    20376    20335 
   20271    20245    20260    20244    20173    20071    19967    19881 
   19818    19778    19770    19753    19666    19539    19468    19487 
   19553    19602    19604    19596    19656    19805    19978    20090 
   20119    20096    20063    20055    20102    20178    20233    20263 
   20275    20294    20374    20466    20475    20413    20347    20322 
   20367    20449    20503    20503    20468    20417    20335    20248 
   20240    20328    20421    20449    20417    20371    20376    20429 
   20449    20420    20393    20394    20439    20488    20460    20363 
   20274    20217    20189    20191    20204    20201    20173    20124 
   20090    20102    20163    20248    20294    20279    20256    20245 
   20241    20255    20278    20321    20393    20437    20437    20456 
   20536    20623    20621    20509    20386    20340    20363    20379 
   20313    20186    20097    20096    20181    20318    20466    20578 
   20602    20514    20364    20236    20189    20241    20349    20424 
   20413    20337    20258    20202    20147    20065    19993    19981 
   20027    20090    20136    20159    20185    20225    20259    20286 
   20359    20494    20615    20653    20642    20630    20613    20576 
   20507    20397    20293    20241    20250    20290    20324    20317 
   20224    20036    19850    19770    19777    19789    19757    19676 
   19591    19549    19533    19533    19543    19523    19449    19368 
   19354    19452    19604    19705    19708    19664    19642    19666 
   19703    19715    19701    19673    19660    19710    19808    19896 
   19919    19851    19734    19666    19685    19765    19892    20005 
   20013    19923    19805    19728    19750    19822    19842    19834 
   19873    19917    19903    19849    19809    19832    19942    20088 
   20196    20223    20147    20012    19958    20051    20209    20353 
   20470    20568    20630    20637    20629    20646    20661    20656 
   20640    20628    20637    20659    20640    20567    20472    20366 
   20247    20150    20092    20054    20008    19948    19872    19786 
   19726    19708    19705    19687    19672    19670    19676    19689 
   19699    19699    19739    19843    19944    20000    20012    19982 
   19944    19967    20050    20139    20208    20217    20143    20048 
   20007    20011    20007    19951    19870    19799    19723    19638 
   19580    19558    19572    19626    19677    19695    19723    19788 
   19853    19913    20019    20189    20371    20490    20510    20461 
   20421    20463    20580    20695    20773    20834    20877    20899 
   20907    20915    20938    20987    21026    21014    20964    20918 
   20902    20923    20953    20927    20831    20731    20683    20680 
   20688    20661    20591    20561    20623    20673    20618    20510 
   20432    20391    20355    20294    20232    20193    20156    20077 
   19962    19878    19835    19772    19680    19593    19510    19449 
   19453    19495    19503    19477    19453    19433    19423    19411 
   19392    19394    19417    19421    19410    19426    19495    19584 
   19653    19707    19774    19866    19967    20054    20123    20181 
   20223    20251    20283    20332    20397    20452    20483    20506 
   20536    20572    20634    20737    20853    20934    20997    21101 
   21235    21355    21460    21543    21550    21496    21459    21467 
   21490    21497    21460    21382    21282    21150    21010    20926 
   20915    20931    20889    20753    20590    20460    20360    20295 
   20262    20201    20101    20004    19909    19834    19827    19866 
   19901    19926    19915    19857    19781    19708    19641    19589 
   19542    19467    19379    19338    19354    19379    19381    19375 
   19388    19435    19527    19649    19774    19888    19978    20019 
   20009    19994    20016    20085    20182    20245    20221    20147 
   20108    20135    20202    20255    20251    20204    20129    20035 
   19958    19942    19975    20007    20004    19981    19997    20092 
   20225    20358    20483    20592    20679    20752    20837    20945 
   21054    21126    21143    21100    21024    20985    21008    21030 
   21010    20981    20964    20939    20919    20942    20996    21012 
   20976    20934    20904    20880    20850    20822    20830    20856 
   20819    20741    20695    20653    20557    20421    20283    20158 
   20061    19969    19836    19676    19542    19435    19322    19222 
   19170    19136    19071    18972    18898    18904    18972    19025 
   18993    18881    18777    18735    18723    18728    18771    18810 
   18805    18769    18713    18679    18723    18810    18887    18959 
   19045    19137    19217    19265    19306    19394    19548    19730 
   19885    20011    20152    20331    20517    20675    20798    20893 
   20964    21016    21058    21109    21176    21215    21176    21073 
   20984    20970    20988    20962    20898    20803    20694    20619 
   20582    20530    20437    20317    20225    20194    20167    20098 
   20032    20000    19973    19928    19885    19874    19905    19967 
   20046    20119    20155    20146    20115    20102    20124    20160 
   20193    20210    20214    20190    20131    20070    20048    20061 
   20052    20005    19962    19951    19950    19947    19928    19886 
   19869    19890    19904    19896    19892    19890    19896    19926 
   19975    20038    20101    20144    20175    20204    20218    20221 
   20216    20224    20279    20374    20484    20592    20652    20638 
   20602    20591    20619    20694    20791    20866    20906    20908 
   20854    20771    20734    20771    20812    20792    20727    20664 
   20613    20583    20576    20582    20602    20596    20520    20430 
   20416    20439    20430    20394    20372    20385    20401    20378 
   20309    20220    20132    20058    20001    19947    19890    19851 
   19847    19850    19819    19747    19660    19585    19535    19522 
   19565    19654    19724    19711    19631    19560    19539    19584 
   19680    19757    19746    19676    19631    19654    19723    19789 
   19815    19816    19840    19892    19973    20110    20264    20352 
   20360    20340    20347    20403    20493    20582    20636    20618 
   20556    20505    20472    20444    20424    20401    20362    20313 
   20258    20200    20151    20094    20031    19997    19969    19900 
   19815    19769    19788    19866    19966    20048    20094    20113 
   20112    20105    20125    20183    20243    20247    20189    20100 
   20027    20019    20067    20115    20124    20092    20025    19951 
   19890    19869    19894    19926    19920    19874    19799    19719 
   19662    19634    19637    19704    19818    19903    19932    19935 
   19951    20007    20063    20085    20090    20094    20092    20098 
   20115    20120    20110    20069    19981    19888    19834    19826 
   19857    19893    19890    19859    19822    19791    19780    19804 
   19846    19870    19886    19946    20029    20086    20140    20218 
   20286    20321    20352    20395    20461    20545    20629    20706 
   20783    20846    20876    20861    20830    20831    20861    20880 
   20889    20915    20953    20979    20965    20910    20879    20895 
   20873    20769    20637    20533    20471    20422    20360    20293 
   20225    20170    20148    20163    20177    20164    20135    20127 
   20160    20220    20260    20282    20283    20240    20167    20120 
   20110    20097    20048    19981    19904    19818    19746    19731 
   19772    19827    19838    19792    19743    19742    19780    19853 
   19955    20050    20113    20143    20139    20142    20193    20268 
   20328    20355    20348    20337    20359    20413    20457    20447 
   20385    20324    20278    20228    20178    20123    20048    19965 
   19890    19843    19836    19843    19826    19793    19780    19791 
   19815    19850    19872    19884    19913    19944    19950    19961 
   20000    20040    20063    20088    20144    20241    20337    20372 
   20335    20274    20252    20268    20270    20233    20181    20110 
   20017    19923    19855    19834    19845    19843    19812    19772 
   19742    19730    19728    19715    19684    19657    19642    19643 
   19680    19732    19770    19804    19849    19889    19900    19901 
   19934    19989    20028    20017    19961    19893    19826    19746 
   19693    19701    19714    19678    19615    19557    19522    19507 
   19510    19545    19607    19666    19718    19768    19830    19907 
   19978    20027    20066    20100    20142    20216    20309    20383 
   20424    20447    20466    20471    20470    20502    20568    20613 
   20621    20628    20633    20610    20565    20542    20575    20640 
   20675    20655    20603    20544    20495    20495    20540    20584 
   20598    20555    20467    20386    20339    20309    20287    20258 
   20216    20204    20241    20309    20379    20418    20413    20403 
   20424    20480    20549    20592    20596    20565    20510    20480 
   20506    20560    20603    20594    20518    20433    20374    20333 
   20309    20282    20231    20171    20116    20044    19955    19880 
   19830    19799    19784    19769    19735    19699    19668    19653 
   19669    19695    19695    19677    19678    19730    19832    19963 
   20081    20156    20191    20223    20287    20393    20495    20548 
   20538    20509    20497    20505    20510    20503    20493    20468 
   20410    20331    20264    20217    20173    20125    20082    20056 
   20058    20066    20052    20013    19963    19920    19913    19942 
   19984    20027    20058    20063    20054    20061    20101    20169 
   20239    20267    20245    20208    20183    20181    20204    20247 
   20294    20317    20321    20328    20328    20289    20227    20196 
   20232    20299    20336    20333    20313    20291    20278    20264 
   20244    20252    20299    20348    20374    20380    20383    20399 
   20417    20421    20424    20420    20405    20401    20407    20399 
   20368    20325    20281    20244    20237    20259    20267    20224 
   20159    20120    20133    20183    20227    20236    20214    20169 
   20132    20131    20143    20140    20117    20083    20062    20051 
   20017    19947    19884    19863    19866    19859    19863    19909 
   19989    20065    20090    20067    20054    20082    20131    20162 
