Origin Time       2025/01/13 21:19:00
Lat.              31.8
Long.             131.6
Depth. (km)       30
Mag.              6.9
Station Code      HRSH17
Station Lat.      34.5716
Station Long.     132.2326
Station Height(m) 163
Record Time       2025/01/13 21:20:25
Sampling Freq(Hz) 100Hz
Duration Time(s)  138
Dir.              3
Scale Factor      2942(gal)/8224139
Max. Acc. (gal)   0.874
Last Correction   2025/01/13 21:20:26
Memo.             
[...]
 -180775  -180746  -180716  -180698  -180679  -180661  -180650  -180632 
 -180592  -180539  -180493  -180451  -180409  -180361  -180300  -180250 
 -180225  -180212  -180210  -180199  -180164  -180145  -180171  -180210 
 -180245  -180269  -180280  -180288  -180296  -180300  -180306  -180308 
 -180289  -180264  -180257  -180254  -180231  -180206  -180206  -180231 
 -180257  -180265  -180268  -180285  -180323  -180360  -180364  -180335 
 -180293  -180258  -180229  -180199  -180169  -180135  -180111  -180108 
 -180107  -180084  -180053  -180040  -180058  -180077  -180064  -180045 
 -180054  -180073  -180080  -180076  -180077  -180091  -180104  -180114 
 -180134  -180161  -180183  -180199  -180227  -180272  -180333  -180403 
 -180474  -180546  -180619  -180688  -180747  -180800  -180850  -180898 
 -180929  -180922  -180900  -180881  -180843  -180773  -180696  -180628 
 -180561  -180488  -180419  -180368  -180335  -180324  -180330  -180335 
 -180347  -180387  -180445  -180500  -180555  -180619  -180678  -180727 
 -180782  -180851  -180922  -180970  -180991  -181010  -181024  -181006 
 -180958  -180897  -180828  -180739  -180652  -180588  -180539  -180495 
 -180441  -180374  -180315  -180265  -180220  -180183  -180160  -180158 
 -180172  -180198  -180249  -180295  -180315  -180334  -180364  -180404 
 -180449  -180478  -180490  -180513  -180540  -180535  -180500  -180478 
 -180478  -180469  -180447  -180430  -180418  -180392  -180354  -180335 
 -180365  -180414  -180423  -180391  -180369  -180389  -180428  -180446 
 -180445  -180451  -180478  -180512  -180534  -180540  -180558  -180598 
 -180643  -180674  -180696  -180708  -180705  -180694  -180685  -180678 
 -180667  -180644  -180596  -180516  -180422  -180338  -180266  -180193 
 -180112  -180034  -179979  -179952  -179945  -179969  -180023  -180076 
 -180112  -180146  -180181  -180219  -180261  -180295  -180314  -180331 
 -180369  -180419  -180453  -180477  -180516  -180569  -180613  -180647 
 -180666  -180658  -180632  -180608  -180585  -180555  -180519  -180482 
 -180445  -180415  -180399  -180378  -180360  -180360  -180380  -180399 
 -180414  -180427  -180435  -180432  -180432  -180436  -180428  -180422 
 -180443  -180488  -180534  -180582  -180635  -180670  -180682  -180700 
 -180720  -180724  -180729  -180742  -180719  -180655  -180604  -180586 
 -180565  -180509  -180446  -180401  -180370  -180337  -180315  -180333 
 -180377  -180395  -180370  -180333  -180306  -180291  -180274  -180257 
 -180247  -180234  -180211  -180176  -180130  -180104  -180118  -180156 
 -180195  -180238  -180303  -180397  -180492  -180544  -180565  -180576 
 -180585  -180588  -180578  -180567  -180561  -180546  -180513  -180482 
 -180470  -180457  -180420  -180392  -180395  -180407  -180409  -180405 
 -180401  -180396  -180380  -180366  -180366  -180364  -180361  -180372 
 -180395  -180405  -180407  -180412  -180418  -180423  -180443  -180488 
 -180555  -180630  -180697  -180748  -180783  -180810  -180827  -180836 
 -180840  -180832  -180823  -180812  -180779  -180725  -180663  -180604 
 -180558  -180527  -180499  -180457  -180412  -180385  -180377  -180369 
 -180357  -180351  -180381  -180447  -180507  -180531  -180538  -180540 
 -180539  -180544  -180562  -180577  -180584  -180576  -180562  -180567 
 -180600  -180640  -180674  -180701  -180727  -180752  -180765  -180774 
 -180794  -180804  -180774  -180725  -180709  -180716  -180704  -180675 
 -180651  -180620  -180574  -180513  -180451  -180395  -180333  -180264 
 -180199  -180154  -180139  -180141  -180134  -180119  -180102  -180091 
 -180088  -180099  -180119  -180150  -180191  -180220  -180238  -180260 
 -180292  -180327  -180349  -180358  -180376  -180407  -180439  -180465 
 -180486  -180517  -180558  -180585  -180592  -180601  -180634  -180666 
 -180662  -180640  -180625  -180600  -180547  -180501  -180488  -180490 
 -180495  -180490  -180484  -180484  -180489  -180497  -180517  -180557 
 -180612  -180652  -180671  -180681  -180685  -180674  -180642  -180592 
 -180551  -180530  -180515  -180492  -180457  -180418  -180387  -180373 
 -180378  -180404  -180439  -180476  -180507  -180534  -180550  -180546 
 -180527  -180503  -180481  -180455  -180430  -180412  -180397  -180381 
 -180377  -180389  -180412  -180450  -180499  -180546  -180597  -180663 
 -180750  -180824  -180847  -180841  -180841  -180840  -180839  -180859 
 -180887  -180897  -180898  -180933  -180993  -181039  -181074  -181120 
 -181145  -181120  -181067  -181017  -180968  -180900  -180813  -180724 
 -180630  -180532  -180438  -180355  -180296  -180257  -180215  -180187 
 -180208  -180257  -180285  -180295  -180312  -180345  -180395  -180457 
 -180519  -180577  -180638  -180713  -180802  -180874  -180917  -180947 
 -180979  -181024  -181079  -181111  -181098  -181067  -181057  -181049 
 -181010  -180935  -180859  -180804  -180751  -180674  -180582  -180497 
 -180432  -180372  -180301  -180218  -180122  -180036  -179967  -179910 
 -179871  -179853  -179856  -179880  -179922  -179971  -180017  -180064 
 -180133  -180234  -180353  -180461  -180539  -180592  -180635  -180675 
 -180701  -180696  -180673  -180640  -180619  -180624  -180642  -180652 
 -180648  -180634  -180621  -180619  -180612  -180608  -180627  -180648 
 -180650  -180650  -180663  -180671  -180667  -180673  -180694  -180719 
 -180729  -180713  -180693  -180682  -180650  -180586  -180520  -180481 
 -180462  -180442  -180419  -180414  -180428  -180442  -180449  -180468 
 -180511  -180559  -180596  -180611  -180593  -180539  -180468  -180409 
 -180365  -180295  -180212  -180160  -180135  -180114  -180087  -180052 
 -180010  -179961  -179907  -179867  -179837  -179784  -179703  -179631 
 -179591  -179575  -179568  -179570  -179585  -179608  -179636  -179676 
 -179725  -179782  -179841  -179902  -179957  -179998  -180031  -180057 
 -180068  -180077  -180087  -180087  -180087  -180087  -180080  -180063 
 -180031  -180003  -179983  -179957  -179917  -179879  -179859  -179855 
 -179868  -179917  -179994  -180077  -180161  -180250  -180334  -180396 
 -180451  -180520  -180581  -180623  -180644  -180642  -180627  -180609 
 -180589  -180573  -180570  -180563  -180544  -180524  -180512  -180497 
 -180480  -180466  -180455  -180436  -180414  -180391  -180361  -180316 
 -180252  -180176  -180102  -180019  -179926  -179830  -179725  -179625 
 -179547  -179474  -179383  -179290  -179216  -179169  -179126  -179069 
 -179034  -179032  -179050  -179088  -179154  -179227  -179290  -179352 
 -179423  -179494  -179550  -179595  -179649  -179710  -179757  -179791 
 -179825  -179863  -179907  -179948  -179973  -179991  -180002  -180004 
 -180019  -180044  -180067  -180095  -180135  -180187  -180258  -180337 
 -180407  -180469  -180524  -180574  -180617  -180657  -180690  -180709 
 -180717  -180729  -180735  -180738  -180760  -180800  -180831  -180852 
 -180873  -180893  -180906  -180916  -180939  -180976  -181008  -181025 
 -181033  -181025  -180987  -180924  -180844  -180751  -180652  -180551 
 -180453  -180368  -180277  -180168  -180064  -179980  -179905  -179830 
 -179763  -179701  -179644  -179597  -179558  -179525  -179505  -179486 
 -179462  -179437  -179404  -179363  -179324  -179289  -179267  -179255 
 -179254  -179284  -179321  -179340  -179359  -179401  -179463  -179521 
 -179562  -179606  -179670  -179725  -179767  -179818  -179886  -179955 
 -180013  -180054  -180083  -180111  -180154  -180208  -180250  -180273 
 -180299  -180343  -180380  -180388  -180389  -180407  -180432  -180442 
 -180442  -180449  -180470  -180500  -180538  -180589  -180659  -180744 
 -180835  -180927  -181017  -181099  -181179  -181257  -181325  -181373 
 -181398  -181406  -181396  -181372  -181341  -181300  -181249  -181192 
 -181137  -181089  -181055  -181021  -180978  -180933  -180897  -180883 
 -180879  -180862  -180843  -180841  -180847  -180844  -180841  -180835 
 -180825  -180827  -180833  -180844  -180875  -180917  -180959  -181020 
 -181107  -181199  -181268  -181314  -181353  -181380  -181383  -181364 
 -181337  -181298  -181225  -181116  -180986  -180859  -180742  -180617 
 -180505  -180434  -180384  -180320  -180245  -180193  -180179  -180187 
 -180198  -180214  -180258  -180345  -180455  -180578  -180704  -180824 
 -180956  -181124  -181294  -181448  -181600  -181751  -181894  -182040 
 -182190  -182321  -182403  -182453  -182507  -182561  -182587  -182582 
 -182556  -182521  -182484  -182433  -182359  -182270  -182173  -182066 
 -181946  -181819  -181700  -181577  -181440  -181300  -181159  -181025 
 -180906  -180781  -180646  -180519  -180408  -180306  -180200  -180090 
 -179990  -179921  -179883  -179863  -179847  -179818  -179776  -179741 
 -179706  -179666  -179635  -179617  -179609  -179602  -179597  -179599 
 -179594  -179581  -179581  -179595  -179602  -179586  -179570  -179568 
 -179552  -179502  -179451  -179410  -179351  -179265  -179196  -179157 
 -179128  -179115  -179118  -179126  -179150  -179200  -179261  -179325 
 -179402  -179489  -179578  -179660  -179740  -179824  -179902  -179971 
 -180027  -180069  -180110  -180157  -180199  -180219  -180225  -180218 
 -180203  -180193  -180195  -180204  -180214  -180218  -180222  -180237 
 -180249  -180261  -180284  -180316  -180341  -180360  -180382  -180405 
 -180419  -180423  -180424  -180419  -180392  -180350  -180311  -180281 
 -180249  -180200  -180152  -180119  -180092  -180060  -180033  -180029 
 -180052  -180094  -180145  -180212  -180289  -180360  -180431  -180509 
 -180585  -180658  -180733  -180820  -180917  -181017  -181107  -181170 
 -181218  -181284  -181365  -181437  -181510  -181592  -181678  -181759 
 -181835  -181900  -181953  -182000  -182047  -182086  -182116  -182144 
 -182171  -182186  -182186  -182186  -182186  -182162  -182112  -182065 
 -182039  -182029  -182024  -182025  -182038  -182052  -182070  -182097 
 -182125  -182152  -182181  -182197  -182193  -182175  -182154  -182123 
 -182069  -181986  -181889  -181782  -181664  -181539  -181410  -181268 
 -181120  -180958  -180781  -180605  -180438  -180279  -180123  -179975 
 -179834  -179701  -179566  -179439  -179323  -179220  -179134  -179065 
 -178992  -178908  -178841  -178804  -178788  -178781  -178783  -178792 
 -178822  -178876  -178930  -178988  -179059  -179138  -179209  -179281 
 -179355  -179429  -179510  -179595  -179672  -179747  -179829  -179925 
 -180018  -180080  -180130  -180181  -180226  -180257  -180283  -180312 
 -180351  -180384  -180399  -180408  -180424  -180441  -180461  -180480 
 -180499  -180522  -180547  -180570  -180598  -180636  -180667  -180689 
 -180732  -180804  -180870  -180925  -180993  -181079  -181168  -181245 
 -181307  -181367  -181419  -181452  -181475  -181492  -181495  -181477 
 -181446  -181398  -181325  -181241  -181153  -181041  -180901  -180758 
 -180619  -180480  -180345  -180215  -180080  -179945  -179820  -179702 
 -179577  -179450  -179324  -179204  -179100  -179014  -178933  -178848 
 -178761  -178679  -178605  -178546  -178510  -178476  -178436  -178399 
 -178370  -178335  -178297  -178267  -178254  -178252  -178255  -178262 
 -178274  -178303  -178356  -178416  -178468  -178526  -178606  -178699 
 -178791  -178880  -178981  -179096  -179215  -179321  -179424  -179535 
 -179647  -179753  -179852  -179936  -180003  -180064  -180125  -180188 
 -180256  -180322  -180384  -180457  -180543  -180634  -180727  -180821 
 -180913  -181009  -181106  -181184  -181222  -181233  -181237  -181224 
 -181190  -181147  -181091  -181030  -180972  -180927  -180900  -180887 
 -180881  -180881  -180890  -180904  -180931  -180975  -181030  -181098 
 -181172  -181228  -181267  -181315  -181371  -181406  -181414  -181417 
 -181417  -181407  -181392  -181360  -181305  -181249  -181198  -181136 
 -181051  -180949  -180850  -180751  -180654  -180549  -180441  -180342 
 -180254  -180185  -180137  -180100  -180079  -180079  -180092  -180112 
 -180145  -180198  -180265  -180326  -180384  -180453  -180516  -180567 
 -180615  -180659  -180696  -180721  -180747  -180777  -180809  -180835 
 -180863  -180891  -180914  -180939  -180972  -181006  -181036  -181075 
 -181128  -181182  -181237  -181296  -181353  -181407  -181453  -181488 
 -181526  -181572  -181606  -181615  -181614  -181615  -181622  -181612 
 -181577  -181538  -181503  -181461  -181408  -181346  -181271  -181182 
 -181089  -181009  -180951  -180901  -180847  -180793  -180743  -180692 
 -180647  -180617  -180603  -180589  -180567  -180557  -180566  -180577 
 -180574  -180571  -180570  -180563  -180555  -180542  -180516  -180469 
 -180407  -180343  -180269  -180181  -180092  -179998  -179909  -179834 
 -179766  -179689  -179595  -179497  -179404  -179315  -179221  -179126 
 -179038  -178962  -178891  -178815  -178737  -178657  -178591  -178548 
 -178515  -178486  -178467  -178478  -178519  -178572  -178622  -178680 
 -178749  -178830  -178924  -179011  -179077  -179140  -179212  -179275 
 -179321  -179361  -179412  -179463  -179502  -179531  -179567  -179616 
 -179666  -179707  -179747  -179790  -179845  -179907  -179964  -180003 
 -180033  -180065  -180103  -180137  -180171  -180210  -180249  -180295 
 -180353  -180411  -180463  -180528  -180609  -180693  -180777  -180862 
 -180940  -181005  -181059  -181093  -181113  -181134  -181144  -181130 
 -181110  -181091  -181082  -181075  -181047  -181014  -181005  -181006 
 -181021  -181052  -181094  -181149  -181225  -181309  -181392  -181473 
 -181549  -181627  -181712  -181801  -181903  -182019  -182128  -182223 
 -182317  -182418  -182514  -182599  -182677  -182744  -182792  -182838 
 -182872  -182879  -182862  -182844  -182823  -182781  -182709  -182625 
 -182536  -182452  -182380  -182306  -182220  -182124  -182025  -181939 
 -181865  -181788  -181697  -181589  -181476  -181372  -181271  -181164 
 -181049  -180924  -180786  -180643  -180500  -180357  -180218  -180098 
 -179995  -179898  -179806  -179721  -179645  -179581  -179520  -179466 
 -179419  -179371  -179324  -179281  -179239  -179194  -179142  -179076 
 -178999  -178920  -178841  -178757  -178672  -178586  -178501  -178424 
 -178355  -178282  -178198  -178121  -178071  -178047  -178027  -178015 
 -178012  -178023  -178050  -178082  -178117  -178162  -178220  -178282 
 -178345  -178416  -178490  -178561  -178629  -178694  -178758  -178821 
 -178875  -178929  -178985  -179043  -179097  -179147  -179197  -179253 
 -179316  -179385  -179460  -179540  -179625  -179712  -179797  -179892 
 -179991  -180075  -180139  -180187  -180233  -180279  -180323  -180360 
 -180385  -180419  -180453  -180463  -180468  -180477  -180480  -180482 
 -180493  -180507  -180522  -180540  -180569  -180601  -180632  -180671 
 -180719  -180774  -180850  -180940  -181032  -181116  -181184  -181236 
 -181260  -181253  -181238  -181210  -181155  -181075  -180981  -180868 
 -180743  -180617  -180501  -180395  -180304  -180227  -180162  -180122 
 -180110  -180117  -180127  -180160  -180226  -180307  -180388  -180463 
 -180535  -180607  -180678  -180744  -180801  -180850  -180891  -180924 
 -180940  -180941  -180931  -180920  -180918  -180928  -180940  -180954 
 -180971  -181005  -181056  -181117  -181186  -181272  -181377  -181492 
 -181612  -181726  -181826  -181916  -182009  -182100  -182181  -182260 
 -182336  -182394  -182437  -182464  -182483  -182494  -182487  -182455 
 -182416  -182372  -182320  -182255  -182191  -182124  -182039  -181942 
 -181858  -181784  -181699  -181592  -181477  -181365  -181244  -181101 
 -180948  -180796  -180640  -180478  -180312  -180142  -179975  -179810 
 -179653  -179513  -179386  -179262  -179147  -179049  -178965  -178902 
 -178861  -178825  -178777  -178729  -178704  -178700  -178706  -178722 
 -178746  -178776  -178816  -178870  -178941  -179031  -179134  -179235 
 -179340  -179451  -179562  -179660  -179751  -179838  -179921  -179990 
 -180049  -180107  -180160  -180202  -180230  -180253  -180270  -180284 
 -180297  -180322  -180351  -180377  -180396  -180415  -180428  -180430 
 -180431  -180436  -180439  -180426  -180400  -180372  -180349  -180337 
 -180331  -180328  -180334  -180353  -180391  -180438  -180477  -180516 
 -180566  -180635  -180717  -180797  -180864  -180932  -180998  -181059 
 -181114  -181157  -181182  -181192  -181197  -181183  -181148  -181098 
 -181033  -180955  -180862  -180758  -180646  -180531  -180411  -180281 
 -180148  -180018  -179894  -179774  -179667  -179568  -179460  -179355 
 -179263  -179174  -179082  -178995  -178922  -178861  -178810  -178779 
 -178769  -178776  -178806  -178861  -178926  -178996  -179080  -179172 
 -179266  -179363  -179463  -179563  -179663  -179764  -179871  -179984 
 -180102  -180218  -180337  -180468  -180605  -180733  -180852  -180966 
 -181066  -181161  -181256  -181341  -181415  -181483  -181548  -181615 
 -181684  -181746  -181800  -181846  -181893  -181934  -181965  -182001 
 -182038  -182059  -182075  -182094  -182108  -182109  -182092  -182058 
 -182016  -181962  -181893  -181815  -181730  -181642  -181554  -181464 
 -181376  -181290  -181201  -181114  -181029  -180949  -180878  -180804 
 -180721  -180640  -180561  -180482  -180400  -180318  -180242  -180171 
 -180103  -180046  -180003  -179977  -179969  -179979  -179999  -180025 
 -180061  -180112  -180164  -180208  -180252  -180301  -180347  -180377 
 -180403  -180424  -180438  -180449  -180450  -180442  -180435  -180432 
 -180427  -180420  -180416  -180416  -180419  -180424  -180436  -180449 
 -180466  -180492  -180509  -180513  -180519  -180530  -180535  -180531 
 -180528  -180536  -180551  -180561  -180565  -180574  -180594  -180619 
 -180648  -180686  -180731  -180774  -180816  -180862  -180914  -180964 
 -181005  -181041  -181075  -181109  -181138  -181156  -181161  -181155 
 -181134  -181105  -181074  -181037  -180983  -180922  -180866  -180814 
 -180763  -180702  -180628  -180554  -180488  -180424  -180357  -180292 
 -180237  -180189  -180152  -180119  -180077  -180029  -179984  -179948 
 -179917  -179879  -179832  -179784  -179737  -179687  -179639  -179586 
 -179531  -179477  -179417  -179361  -179309  -179261  -179221  -179189 
 -179151  -179113  -179078  -179051  -179024  -178992  -178965  -178949 
 -178945  -178949  -178956  -178974  -179010  -179053  -179097  -179142 
 -179192  -179255  -179328  -179396  -179460  -179537  -179629  -179722 
 -179813  -179903  -180002  -180103  -180200  -180291  -180372  -180447 
 -180523  -180590  -180652  -180711  -180765  -180814  -180854  -180889 
 -180931  -180974  -181017  -181062  -181109  -181151  -181188  -181238 
 -181302  -181359  -181404  -181452  -181504  -181561  -181611  -181645 
 -181666  -181685  -181700  -181707  -181705  -181695  -181674  -181642 
 -181596  -181550  -181507  -181458  -181406  -181357  -181306  -181248 
 -181191  -181140  -181086  -181017  -180951  -180905  -180864  -180812 
 -180747  -180686  -180636  -180586  -180531  -180486  -180449  -180401 
 -180346  -180299  -180260  -180215  -180166  -180122  -180080  -180038 
 -180006  -179990  -179980  -179973  -179976  -179995  -180026  -180061 
 -180106  -180160  -180219  -180283  -180345  -180404  -180458  -180504 
 -180538  -180557  -180565  -180562  -180547  -180523  -180492  -180453 
 -180409  -180361  -180306  -180252  -180210  -180180  -180154  -180123 
 -180094  -180067  -180046  -180029  -180003  -179969  -179948  -179934 
 -179918  -179910  -179907  -179896  -179888  -179888  -179887  -179887 
 -179895  -179905  -179909  -179913  -179923  -179936  -179946  -179949 
