Origin Time       2025/01/13 21:19:00
Lat.              31.8
Long.             131.6
Depth. (km)       30
Mag.              6.9
Station Code      HRSH07
Station Lat.      34.2883
Station Long.     132.6411
Station Height(m) 230
Record Time       2025/01/13 21:20:20
Sampling Freq(Hz) 100Hz
Duration Time(s)  147
Dir.              4
Scale Factor      7845(gal)/8223790
Max. Acc. (gal)   5.291
Last Correction   2025/01/13 21:20:20
Memo.             
[...]
    1776     1706     1418     1148      919      718      661      687 
     594      405      306      352      488      662      845     1000 
    1071     1070     1031      899      658      384      110     -137 
    -297     -346     -307     -191       -4      236      422      473 
     508      695      996     1301     1597     1815     1861     1782 
    1628     1394     1173     1090     1178     1309     1286     1089 
     819      491      113     -253     -511     -592     -614     -670 
    -626     -491     -454     -398     -124      194      400      695 
    1225     1748     1938     1869     1794     1667     1420     1247 
    1188     1065      853      576      249       22        9      149 
     240       90     -201     -422     -584     -700     -706     -662 
    -637     -635     -691     -776     -814     -716     -359      251 
     909     1456     1858     2115     2212     2162     2042     1965 
    1966     1984     1973     1954     1926     1814     1634     1561 
    1647     1725     1733     1732     1632     1285      726       78 
    -589    -1200    -1644    -1823    -1729    -1518    -1389    -1290 
   -1039     -676     -318      149      797     1439     1942     2303 
    2481     2425     2241     2134     2118     1999     1664     1147 
     612      259       81      -24      -47      -20      -49     -130 
    -144      -16      216      450      635      788      976     1247 
    1485     1557     1559     1579     1576     1588     1625     1584 
    1463     1302     1093      837      558      352      324      409 
     415      206     -163     -534     -853    -1092    -1105     -873 
    -589     -373     -213      -95       24      207      481      803 
    1096     1323     1424     1363     1217     1059      892      762 
     766      901     1078     1161     1062      858      614      351 
     217      268      365      445      549      685      808      892 
     966     1061     1150     1154     1062      989     1007     1061 
    1129     1166     1067      919      855      762      526      226 
     -94     -519     -972    -1236    -1206     -834     -168      487 
     868      950      753      359      -40     -291     -348     -275 
    -141       55      265      440      615      772      884      990 
     996      783      414       14     -237     -166      144      569 
    1152     1764     2147     2347     2569     2812     2914     2704 
    2145     1491     1036      750      472      133     -317     -859 
   -1360    -1750    -2058    -2219    -2104    -1761    -1394    -1144 
    -985     -724     -159      634     1348     1807     1995     1872 
    1605     1486     1501     1474     1397     1264      939      442 
      13     -199     -240     -167      -70      -27       29      160 
     338      639     1073     1451     1661     1772     1887     2079 
    2378     2751     3024     3051     2920     2710     2400     2089 
    1915     1829     1692     1460     1177      896      630      402 
     190     -175     -765    -1306    -1588    -1719    -1699    -1412 
    -990     -612     -324     -129       98      429      681      764 
     749      656      525      453      488      634      776      741 
     537      380      351      240      -98     -526     -909    -1255 
   -1489    -1449    -1070     -469      141      677     1116     1414 
    1679     2088     2601     2995     3190     3252     3160     2897 
    2617     2463     2416     2351     2076     1506      830      333 
     164      180       85     -136     -287     -432     -787    -1310 
   -1696    -1752    -1551    -1197     -776     -425     -195      -60 
      20      151      388      683      958     1081      943      615 
     307      163      197      368      595      738      720      652 
     757     1125     1566     1900     2192     2412     2521     2762 
    3164     3356     3199     2843     2340     1782     1362     1143 
    1055      962      661       75     -646    -1359    -1919    -2155 
   -2133    -2101    -2153    -2176    -1995    -1513     -814       25 
     949     1777     2392     2849     3194     3350     3233     2932 
    2741     2805     2965     2984     2727     2204     1555      935 
     429       68     -216     -612    -1146    -1630    -1883    -1719 
   -1074     -164      679     1204     1408     1490     1529     1541 
    1688     1938     2011     1899     1818     1753     1513     1121 
     797      657      618      504      228      -85     -334     -572 
    -739     -689     -483     -326     -337     -438     -475     -417 
    -322     -270     -322     -398     -346     -136      209      595 
     859      909      730      346     -157     -607     -770     -646 
    -449     -325     -403     -654     -687     -338       25      176 
     253      384      521      554      564      753     1102     1439 
    1764     2088     2227     2137     2031     1954     1691     1163 
     568       89     -251     -472     -614     -702     -677     -556 
    -519     -688     -985    -1279    -1490    -1552    -1439    -1150 
    -696     -230      105      375      621      897     1359     1876 
    2138     2124     1948     1679     1514     1539     1578     1533 
    1487     1533     1636     1694     1694     1757     2016     2394 
    2635     2662     2563     2388     2230     2185     2158     2027 
    1846     1669     1404     1007      546      132     -144     -270 
    -232      -31      209      426      629      685      531      241 
    -191     -618     -787     -727     -508      -97      407      868 
    1185     1293     1348     1533     1775     1999     2282     2542 
    2562     2312     1929     1568     1350     1298     1273     1111 
     909      846      839      760      619      469      396      352 
     125     -206     -332     -255     -145       85      494      828 
     939      905      770      529      126     -357     -581     -500 
    -411     -315      -71      176      271      244      187      182 
     198      125       74      270      637      972     1255     1493 
    1582     1494     1366     1296     1169      866      510      368 
     558      870     1084     1340     1706     1881     1763     1571 
    1383     1096      684      259       37      124      275      259 
     210      216      179      130      108       33     -157     -535 
   -1093    -1657    -2047    -2208    -2154    -1912    -1593    -1304 
    -901     -280      319      735     1061     1317     1458     1566 
    1764     1975     2007     1888     1757     1530     1082      572 
     248       62     -217     -544     -631     -525     -573     -792 
    -845     -630     -309       37      355      496      430      295 
     191      139       60     -159     -387     -432     -363     -259 
     -99      113      446      889     1224     1345     1344     1360 
    1505     1709     1830     1953     2207     2566     3032     3596 
    4005     4044     3879     3728     3545     3238     2841     2479 
    2258     2131     1993     1869     1817     1814     1811     1791 
    1755     1657     1418     1085      801      596      461      454 
     529      557      525      500      554      687      749      683 
     643      700      783      908     1125     1345     1425     1408 
    1439     1439     1306     1159     1036      843      548      132 
    -363     -834    -1264    -1649    -1977    -2277    -2484    -2512 
   -2346    -2006    -1648    -1474    -1472    -1520    -1543    -1576 
   -1717    -1898    -1971    -1965    -1962    -1903    -1694    -1393 
   -1175    -1020     -780     -517     -387     -359     -310     -272 
    -388     -583     -588     -280      319     1132     1977     2695 
    3183     3443     3689     4066     4330     4271     4060     3801 
    3439     3141     2991     2798     2439     1961     1462     1007 
     584      217      -29     -166     -255     -313     -267     -112 
     -32     -116     -180     -170     -311     -670    -1023    -1252 
   -1371    -1383    -1412    -1431    -1206     -788     -414      -87 
     244      513      687      853     1124     1561     2093     2566 
    2853     2957     2933     2822     2733     2704     2598     2388 
    2145     1826     1458     1146      850      454      -71     -650 
   -1112    -1416    -1723    -2083    -2370    -2524    -2575    -2556 
   -2431    -2142    -1742    -1337     -965     -626     -295       95 
     557     1065     1611     2123     2485     2616     2533     2381 
    2247     2101     1992     1993     2000     1867     1599     1264 
     928      630      371      132     -159     -537     -866    -1026 
   -1063    -1053     -972     -812     -607     -365      -83      202 
     369      336      180      -22     -336     -769    -1190    -1424 
   -1444    -1389    -1375    -1385    -1304    -1050     -616      -71 
     473      949     1370     1713     1918     2033     2145     2263 
    2340     2398     2543     2835     3167     3387     3512     3569 
    3493     3300     3030     2714     2478     2323     2114     1881 
    1678     1404     1070      819      756      878     1008      992 
     946      980     1059     1198     1363     1474     1525     1399 
     935      233     -492    -1090    -1435    -1539    -1513    -1383 
   -1190    -1000     -761     -394       89      614     1123     1572 
    1844     1938     2096     2361     2558     2733     2965     3127 
    3152     3057     2887     2772     2762     2778     2756     2664 
    2504     2324     2219     2241     2274     2266     2282     2207 
    1879     1397      908      436      -24     -495     -993    -1476 
   -1933    -2400    -2868    -3242    -3443    -3557    -3672    -3723 
   -3659    -3512    -3296    -2995    -2548    -1937    -1332     -873 
    -465      -72      198      345      468      718     1135     1533 
    1837     2169     2478     2606     2581     2513     2452     2363 
    2224     2143     2226     2459     2810     3221     3592     3894 
    4163     4361     4411     4406     4509     4612     4527     4280 
    3906     3404     2906     2469     2027     1548      950      179 
    -692    -1588    -2393    -3005    -3507    -3901    -3991    -3817 
   -3612    -3399    -3073    -2662    -2277    -1973    -1692    -1402 
   -1138     -851     -492     -129      275      780     1224     1453 
    1449     1273     1057      823      535      368      456      681 
     961     1372     1953     2581     3115     3537     3859     4029 
    3991     3790     3546     3360     3248     3188     3126     2970 
    2637     2149     1626     1170      762      383        8     -481 
   -1120    -1783    -2374    -2845    -3153    -3281    -3233    -3084 
   -2933    -2744    -2454    -2108    -1773    -1408     -982     -612 
    -333       20      487      895     1204     1560     1985     2277 
    2282     2091     1875     1706     1553     1409     1390     1575 
    1794     1875     1840     1726     1543     1350     1154      905 
     627      314      -74     -405     -492     -422     -402     -468 
    -545     -603     -648     -719     -866    -1020    -1077    -1102 
   -1193    -1316    -1377    -1285    -1034     -719     -414     -139 
     101      359      692     1109     1609     2153     2628     2961 
    3160     3279     3411     3554     3615     3604     3585     3473 
    3146     2623     2033     1441      831      232     -305     -801 
   -1237    -1584    -1903    -2178    -2349    -2444    -2459    -2378 
   -2326    -2381    -2482    -2512    -2424    -2280    -2073    -1725 
   -1246     -670      -67      468      980     1543     2076     2521 
    2924     3314     3703     4087     4426     4671     4822     4872 
    4800     4671     4575     4499     4374     4174     3890     3504 
    3046     2519     1871     1105      288     -584    -1510    -2320 
   -2895    -3345    -3800    -4220    -4473    -4491    -4344    -4113 
   -3746    -3198    -2559    -1946    -1359     -708      -12      594 
    1084     1528     1888     2101     2245     2431     2644     2825 
    2956     2997     2898     2724     2587     2536     2565     2628 
    2621     2486     2304     2189     2162     2107     1935     1742 
    1659     1664     1648     1552     1383     1216     1152     1165 
    1046      731      400      157      -98     -427     -789    -1204 
   -1671    -2016    -2096    -1973    -1777    -1548    -1247     -896 
    -546     -148      410     1121     1834     2389     2724     2907 
    3041     3176     3383     3663     3825     3742     3499     3150 
    2702     2200     1656     1104      591       87     -345     -607 
    -745     -832     -913    -1043    -1175    -1246    -1310    -1339 
   -1186     -903     -673     -506     -345     -232     -155      -43 
     160      500      940     1480     2153     2797     3238     3519 
    3662     3624     3456     3192     2826     2380     1868     1362 
     989      735      460      151      -98     -313     -569     -843 
   -1074    -1278    -1545    -1929    -2334    -2598    -2671    -2562 
   -2290    -1941    -1615    -1347    -1136    -1017    -1023    -1156 
   -1405    -1740    -2110    -2431    -2594    -2550    -2324    -1919 
   -1285     -467      422     1358     2299     3141     3888     4579 
    5166     5621     5962     6168     6153     5864     5360     4749 
    4063     3369     2717     2027     1205      225     -886    -1993 
   -2914    -3541    -3828    -3796    -3582    -3365    -3240    -3184 
   -3176    -3223    -3215    -2944    -2423    -1850    -1275     -631 
       8      503      862     1208     1559     1831     1993     2023 
    1898     1709     1574     1478     1318     1075      849      749 
     769      882     1158     1615     2104     2454     2616     2674 
    2747     2901     3136     3410     3577     3500     3256     2964 
    2598     2209     1931     1713     1483     1328     1231     1097 
     978      961     1084     1404     1872     2319     2717     3150 
    3568     3865     4016     3996     3807     3522     3141     2601 
    1939     1251      618       75     -400     -872    -1389    -1912 
   -2340    -2651    -2895    -3052    -3061    -2918    -2694    -2485 
   -2268    -1945    -1561    -1237     -939     -611     -371     -332 
    -444     -588     -695     -793     -935    -1053    -1015     -820 
    -541     -197      197      638     1119     1591     2047     2501 
    2851     2978     2902     2720     2431     1981     1441      911 
     338     -286     -864    -1354    -1764    -2106    -2389    -2583 
   -2651    -2583    -2393    -2141    -1898    -1651    -1417    -1204 
    -864     -313      306      930     1663     2502     3272     3829 
    4209     4518     4770     4876     4807     4637     4390     4017 
    3535     3011     2457     1883     1368     1009      810      654 
     461      245       63       -4       60      191      336      503 
     706      904     1047     1131     1240     1444     1721     2043 
    2415     2787     3115     3430     3701     3817     3708     3384 
    2910     2357     1796     1313      903      495       52     -396 
    -791    -1113    -1426    -1763    -2114    -2490    -2930    -3431 
   -3943    -4333    -4488    -4449    -4302    -4037    -3613    -3007 
   -2247    -1399     -513      321      996     1549     2064     2523 
    2901     3206     3450     3634     3646     3370     2911     2416 
    1883     1344      900      541      230       44       45      233 
     583     1009     1429     1814     2138     2397     2620     2770 
    2771     2658     2525     2373     2188     2049     1992     1965 
    1903     1773     1607     1441     1304     1246     1281     1356 
    1395     1333     1225     1201     1246     1212     1048      811 
     460      -95     -773    -1374    -1804    -2054    -2130    -2080 
   -1938    -1711    -1386     -955     -491      -64      345      695 
     886      904      789      604      494      523      602      695 
     832      926      886      753      545      261      -56     -422 
    -908    -1487    -2058    -2581    -3033    -3380    -3619    -3700 
   -3522    -3141    -2733    -2334    -1908    -1536    -1233     -873 
    -425       12      419      859     1296     1591     1711     1773 
    1899     2141     2461     2798     3161     3493     3670     3717 
    3759     3825     3869     3878     3838     3649     3277     2847 
    2424     1960     1471     1017      606      176     -346     -949 
   -1480    -1825    -2012    -2112    -2126    -2093    -2077    -2011 
   -1791    -1437    -1009     -553      -94      426      997     1475 
    1841     2236     2691     3099     3437     3757     4106     4491 
    4868     5185     5355     5285     5008     4606     4060     3364 
    2589     1773      908       16     -841    -1598    -2238    -2764 
   -3195    -3558    -3858    -4067    -4168    -4132    -3937    -3618 
   -3159    -2505    -1653     -653      378     1332     2242     3140 
    3908     4487     4941     5269     5445     5521     5526     5420 
    5151     4753     4348     3985     3593     3121     2533     1831 
    1084      326     -413    -1024    -1502    -1931    -2259    -2420 
   -2474    -2457    -2355    -2173    -1953    -1795    -1732    -1699 
   -1698    -1783    -1934    -2072    -2180    -2316    -2475    -2562 
   -2556    -2478    -2270    -1956    -1655    -1377    -1023     -544 
      33      677     1359     2002     2488     2737     2763     2658 
    2513     2374     2258     2147     1991     1759     1495     1274 
    1100      951      830      722      610      515      467      518 
     731     1093     1513     1915     2268     2539     2718     2810 
    2768     2506     2070     1633     1255      868      464      136 
     -97     -326     -580     -778     -865     -885     -900     -896 
    -811     -649     -498     -383     -191      144      576     1082 
    1641     2193     2697     3056     3157     3079     2960     2812 
    2659     2528     2336     2088     1871     1684     1509     1364 
    1213     1009      747      457      163     -149     -495     -857 
   -1263    -1722    -2133    -2407    -2546    -2542    -2400    -2207 
   -2033    -1868    -1660    -1351     -962     -573     -176      253 
     685     1148     1682     2218     2685     3029     3194     3219 
    3210     3181     3098     2957     2763     2463     2043     1613 
    1255      945      657      396      129     -151     -395     -573 
    -739     -938    -1121    -1244    -1312    -1325    -1287    -1194 
   -1046     -909     -838     -760     -603     -417     -257      -86 
     149      396      592      758      903      994     1051     1112 
    1173     1229     1269     1242     1150     1061     1047     1101 
    1148     1178     1196     1166     1104     1066     1066     1093 
    1121     1117     1078      963      745      504      301      130 
      14      -71     -186     -243     -163      -27      102      241 
     376      479      545      594      700      912     1185     1472 
