Origin Time       2025/01/13 21:19:00
Lat.              31.8
Long.             131.6
Depth. (km)       30
Mag.              6.9
Station Code      HRSH07
Station Lat.      34.2883
Station Long.     132.6411
Station Height(m) 230
Record Time       2025/01/13 21:20:20
Sampling Freq(Hz) 100Hz
Duration Time(s)  147
Dir.              5
Scale Factor      7845(gal)/8223790
Max. Acc. (gal)   4.880
Last Correction   2025/01/13 21:20:20
Memo.             
[...]
    -368      -21      368      611      722      803      804      654 
     438      243       43     -178     -440     -773    -1039    -1020 
    -753     -468     -263     -121      -75     -167     -314     -359 
    -274     -160     -121     -203     -384     -585     -707     -683 
    -499     -156      297      710      881      760      484      143 
    -270     -665     -918    -1012    -1046    -1140    -1283    -1344 
   -1258    -1081     -892     -753     -757     -985    -1339    -1568 
   -1534    -1321    -1075     -843     -656     -602     -699     -801 
    -742     -530     -317     -163      -21       72       98      228 
     499      669      710      849     1086     1291     1464     1532 
    1370     1027      645      332      171      174      278      338 
     236       22     -240     -538     -693     -598     -475     -523 
    -675     -835    -1004    -1132    -1090     -823     -483     -313 
    -337     -395     -422     -434     -405     -352     -298     -191 
      -8      197      299      225       20     -387    -1028    -1561 
   -1745    -1675    -1449    -1183     -949     -741     -684     -742 
    -623     -248      217      639      961     1134     1109     1001 
    1057     1281     1397     1273     1065      859      557      229 
      74       43      -51     -247     -479     -704     -909    -1127 
   -1433    -1837    -2255    -2594    -2718    -2452    -1767     -930 
    -322      -16      207      421      575      746      992     1200 
    1209      980      697      596      642      654      599      522 
     342      -20     -413     -634     -739     -832     -850     -792 
    -753     -745     -765     -827     -893     -909     -796     -468 
      39      577      985     1151     1092      965      912      874 
     673      252     -321     -896    -1294    -1432    -1250     -826 
    -533     -660    -1112    -1564    -1721    -1551    -1219     -888 
    -708     -677     -595     -369      -29      403      865     1225 
    1358     1228      940      664      483      353      213       90 
      39       75      136       31     -345     -837    -1255    -1489 
   -1501    -1451    -1536    -1732    -1958    -2203    -2320    -2127 
   -1638    -1016     -396      121      515      849     1102     1150 
    1047     1012     1044     1016      947      935      930      733 
     255     -325     -729     -854     -831     -764     -724     -892 
   -1278    -1593    -1605    -1301     -729       24      711     1053 
     958      553       90     -213     -359     -444     -480     -508 
    -619     -750     -792     -787     -830     -896     -934     -994 
   -1124    -1250    -1236    -1028     -776     -700     -799     -893 
    -958    -1071    -1067     -719     -222       54      102      105 
      95       91      195      473      757      764      591      496 
     375      141       -4       64      238      297      118     -164 
    -345     -303      -21      369      679      873     1054     1178 
    1148     1158     1394     1597     1447     1020      548      116 
    -325     -739     -953     -946     -909     -954     -990     -951 
    -912     -904     -874     -797     -689     -611     -611     -579 
    -373     -143      -98     -167     -253     -479     -963    -1628 
   -2227    -2573    -2698    -2732    -2700    -2559    -2415    -2408 
   -2400    -2195    -1931    -1841    -1926    -2014    -1917    -1571 
   -1051     -427      252      807     1026      907      691      569 
     490      415      502      741      810      464     -106     -579 
    -893    -1038     -930     -669     -417     -280     -328     -440 
    -500     -544     -514     -402     -344     -413     -621     -907 
   -1173    -1404    -1467    -1271    -1086    -1139    -1258    -1242 
   -1147    -1057     -927     -753     -602     -534     -581     -604 
    -392       17      430      737      963     1174     1302     1217 
     913      546      288      128       37      168      513      828 
    1015     1050      850      552      379      329      367      437 
     333       72     -175     -490     -897    -1205    -1331    -1391 
   -1557    -1907    -2367    -2794    -3087    -3198    -3037    -2616 
   -2180    -1926    -1809    -1728    -1671    -1551    -1224     -718 
    -199      151      290      396      558      614      611      804 
    1150     1402     1436     1200      773      394      144     -153 
    -513     -657     -602     -695    -1007    -1269    -1320    -1201 
    -950     -572     -175      114      291      423      544      619 
     607      437       41     -430     -769     -992    -1135    -1225 
   -1377    -1561    -1626    -1512    -1256     -953     -722     -621 
    -556     -432     -311     -267     -218     -125      -67      -41 
      55      199      224       55     -180     -321     -368     -403 
    -425     -371     -202       41      340      780     1286     1570 
    1539     1310      945      491       31     -429     -923    -1460 
   -1961    -2343    -2602    -2655    -2427    -2097    -1845    -1640 
   -1401    -1011     -429      172      712     1228     1611     1772 
    1817     1834     1831     1895     2120     2420     2596     2516 
    2162     1696     1298      918      437      -63     -437     -673 
    -845     -920     -831     -631     -418     -268     -172      -10 
     220      398      507      537      440      306      268      336 
     460      575      643      714      834     1026     1313     1618 
    1833     1894     1717     1332      896      396     -199     -670 
    -832     -724     -454     -135      106       86     -336    -1003 
   -1561    -1837    -1877    -1777    -1605    -1422    -1220     -981 
    -791     -595     -152      471      922     1123     1248     1332 
    1300     1202     1194     1250     1198     1066      919      700 
     448      176     -198     -683    -1186    -1544    -1663    -1674 
   -1620    -1428    -1228    -1162    -1054     -737     -333      -32 
      56      -75     -280     -457     -575     -534     -324     -106 
       5       76      163      141      -70     -338     -500     -542 
    -604     -801    -1035    -1125    -1053     -923     -788     -599 
    -330      -39      167      226      226      344      641      980 
    1223     1410     1597     1684     1644     1597     1561     1441 
    1254     1036      807      700      797      919      891      781 
     685      591      507      475      541      788     1155     1416 
    1506     1576     1644     1582     1393     1210     1073      919 
     715      452      205       66      -45     -220     -406     -592 
    -841    -1151    -1490    -1868    -2197    -2350    -2423    -2569 
   -2675    -2569    -2250    -1773    -1206     -692     -359     -255 
    -287     -270     -139       12       89      130      233      294 
     249      338      629      834      796      641      452      160 
    -261     -730    -1159    -1524    -1833    -2081    -2270    -2459 
   -2709    -2992    -3211    -3345    -3464    -3495    -3303    -3005 
   -2766    -2551    -2349    -2216    -2166    -2170    -2188    -2153 
   -2012    -1786    -1501    -1169     -868     -668     -460      -99 
     315      583      707      799      812      661      417      218 
     132      120       97        2     -162     -344     -430     -375 
    -260     -234     -405     -753    -1147    -1462    -1568    -1404 
   -1119     -943     -959    -1112    -1267    -1256    -1000     -584 
    -122      379      909     1328     1532     1633     1794     2046 
    2311     2473     2474     2299     1931     1426      897      410 
     -55     -542    -1003    -1352    -1618    -1846    -1958    -1911 
   -1765    -1539    -1260    -1019     -861     -830     -945    -1098 
   -1225    -1424    -1741    -2079    -2384    -2679    -2930    -3083 
   -3156    -3173    -3179    -3245    -3388    -3554    -3705    -3782 
   -3650    -3249    -2760    -2363    -2027    -1703    -1404    -1128 
    -869     -587     -232      120      341      475      660      907 
    1183     1537     1979     2404     2656     2617     2326     1980 
    1749     1591     1331      908      400     -157     -766    -1301 
   -1598    -1686    -1721    -1746    -1741    -1749    -1818    -1852 
   -1657    -1200     -665     -187      237      615      920     1148 
    1331     1428     1368     1206      984      598       89     -333 
    -675    -1096    -1543    -1837    -1961    -1935    -1715    -1395 
   -1120     -818     -421      -78      125      292      468      592 
     675      764      854      878      730      386       12     -240 
    -490     -858    -1213    -1428    -1603    -1821    -1946    -1817 
   -1472    -1148     -985     -891     -760     -619     -480     -252 
     125      518      718      764      834      918      951     1054 
    1263     1370     1285     1155     1046      869      549      147 
    -209     -541     -915    -1290    -1641    -1906    -1984    -1995 
   -2130    -2286    -2277    -2195    -2234    -2376    -2455    -2434 
   -2440    -2485    -2369    -2042    -1669    -1313     -969     -639 
    -245      211      619      961     1237     1449     1725     2096 
    2498     2936     3327     3537     3581     3493     3261     2961 
    2697     2488     2245     1887     1429      888      302     -203 
    -562     -832    -1096    -1387    -1688    -1969    -2147    -2162 
   -2097    -1968    -1656    -1236     -908     -684     -496     -279 
      25      371      673      947     1210     1410     1534     1647 
    1748     1757     1647     1489     1304     1039      768      616 
     507      321      117      -24      -87     -128     -155      -81 
      -8     -114     -287     -414     -618     -936    -1313    -1686 
   -1930    -2002    -1939    -1736    -1432    -1139     -820     -454 
    -241     -248     -299     -344     -456     -569     -568     -437 
    -213       49      282      476      619      658      631      622 
     577      441      279      125      -40     -132     -147     -278 
    -549     -799    -1078    -1517    -2043    -2506    -2841    -3132 
   -3456    -3735    -3929    -4109    -4259    -4328    -4318    -4203 
   -4014    -3856    -3685    -3346    -2879    -2432    -1949    -1335 
    -706     -193      283      835     1389     1784     1973     2042 
    2056     1976     1838     1794     1845     1830     1682     1460 
    1227     1031      909      870      947     1169     1466     1769 
    2106     2465     2801     3136     3485     3802     4063     4272 
    4356     4256     4025     3704     3289     2849     2411     1875 
    1155      268     -648    -1398    -1885    -2173    -2369    -2548 
   -2781    -3100    -3445    -3696    -3789    -3700    -3451    -3164 
   -2949    -2770    -2502    -2060    -1462     -812     -197      357 
     823     1194     1472     1610     1655     1718     1767     1699 
    1526     1331     1181     1047      864      635      414      253 
     191      218      278      317      311      264      209      213 
     276      291      236      207      220      206      174      156 
     128       40      -86     -171     -180     -194     -302     -492 
    -703     -904    -1119    -1375    -1625    -1746    -1725    -1674 
   -1632    -1591    -1594    -1659    -1788    -1969    -2112    -2180 
   -2196    -2166    -2161    -2317    -2671    -3061    -3310    -3391 
   -3348    -3183    -2913    -2571    -2184    -1798    -1425    -1081 
    -803     -544     -210      232      773     1294     1649     1876 
    2026     2038     1964     1914     1888     1877     1884     1848 
    1728     1534     1281      943      514       55     -402     -858 
   -1233    -1472    -1671    -1903    -2043    -1981    -1813    -1606 
   -1302     -908     -550     -352     -288     -251     -265     -457 
    -804    -1200    -1603    -1998    -2353    -2682    -2988    -3279 
   -3604    -3906    -4047    -4032    -3939    -3697    -3222    -2614 
   -1989    -1351     -723     -141      425      953     1354     1582 
    1605     1431     1200     1067     1008      923      845      830 
     815      720      614      612      689      766      891     1143 
    1431     1629     1767     1926     2135     2359     2532     2655 
    2740     2685     2439     2141     1865     1478      891      238 
    -360     -973    -1603    -2147    -2583    -2926    -3161    -3326 
   -3445    -3481    -3416    -3265    -3064    -2845    -2619    -2390 
   -2147    -1852    -1460     -972     -445       67      575     1094 
    1648     2239     2805     3299     3738     4109     4376     4522 
    4496     4264     3838     3210     2401     1528      723        9 
    -692    -1422    -2081    -2577    -2932    -3184    -3318    -3311 
   -3167    -2930    -2671    -2382    -2026    -1663    -1409    -1281 
   -1167     -947     -643     -378     -205      -99      -47      -85 
    -210     -315     -317     -274     -275     -326     -380     -371 
    -292     -182      -22      175      298      313      328      409 
     508      546      490      402      351      373      513      726 
     965     1243     1499     1660     1755     1786     1672     1320 
     691     -113     -990    -1879    -2655    -3268    -3807    -4325 
   -4774    -5108    -5339    -5413    -5206    -4733    -4117    -3418 
   -2678    -1956    -1217     -440      290      938     1528     1981 
    2249     2365     2304     2042     1653     1243      892      608 
     302      -37     -301     -427     -513     -656     -823     -940 
   -1026    -1162    -1379    -1552    -1582    -1557    -1557    -1524 
   -1421    -1313    -1294    -1335    -1289    -1125     -911     -612 
    -182      348      903     1397     1780     2073     2303     2442 
    2519     2596     2673     2698     2631     2482     2323     2222 
    2158     1993     1672     1313      974      595      197     -116 
    -298     -379     -445     -569     -720     -868    -1028    -1189 
   -1328    -1458    -1570    -1683    -1900    -2235    -2562    -2803 
   -2948    -2963    -2822    -2547    -2184    -1807    -1456    -1084 
    -631     -141      314      730     1067     1304     1487     1642 
    1756     1871     1993     2035     1914     1637     1262      839 
     399      -24     -391     -710     -993    -1170    -1185    -1100 
    -959     -745     -471     -199        0       55      -58     -291 
    -565     -835    -1069    -1220    -1271    -1273    -1273    -1302 
   -1356    -1406    -1443    -1470    -1464    -1441    -1412    -1332 
   -1192     -959     -581     -101      441     1023     1529     1898 
    2142     2236     2212     2150     2050     1899     1680     1362 
    1001      679      390      133      -86     -303     -538     -788 
   -1051    -1302    -1506    -1648    -1759    -1894    -2027    -2091 
   -2130    -2209    -2208    -1976    -1575    -1183     -837     -434 
      14      433      864     1316     1717     2065     2359     2573 
    2752     2913     2968     2863     2635     2316     1914     1478 
    1098      788      508      248      -14     -337     -737    -1185 
   -1647    -2043    -2316    -2492    -2609    -2690    -2747    -2731 
   -2627    -2493    -2331    -2108    -1842    -1582    -1345    -1115 
    -923     -859     -869     -819     -718     -635     -589     -604 
    -692     -834    -1008    -1150    -1167    -1092    -1027     -994 
    -934     -818     -643     -391      -86      170      303      342 
     353      372      405      438      434      338      140     -156 
    -554     -988    -1370    -1669    -1854    -1911    -1912    -1930 
   -1937    -1892    -1802    -1653    -1383     -996     -621     -378 
    -283     -294     -351     -386     -378     -328     -274     -306 
    -452     -602     -683     -723     -734     -704     -648     -591 
    -558     -518     -375     -114      160      365      529      720 
     942     1116     1212     1297     1412     1497     1520     1544 
    1609     1660     1647     1586     1539     1549     1613     1645 
    1541     1332     1128      892      522       93     -329     -824 
   -1397    -1898    -2249    -2516    -2770    -3042    -3364    -3750 
   -4162    -4471    -4571    -4503    -4384    -4226    -3962    -3607 
   -3250    -2917    -2587    -2284    -1999    -1679    -1317     -935 
    -523      -56      442      922     1359     1749     2054     2276 
    2442     2536     2551     2556     2636     2814     3063     3326 
    3572     3766     3858     3843     3755     3608     3353     2941 
    2416     1852     1224      508     -210     -858    -1441    -2018 
   -2627    -3218    -3726    -4141    -4477    -4706    -4749    -4607 
   -4374    -4047    -3566    -2932    -2180    -1341     -475      338 
    1077     1742     2274     2651     2905     3044     3064     2984 
    2808     2555     2258     1883     1398      858      302     -287 
    -911    -1540    -2103    -2535    -2840    -3052    -3168    -3163 
   -3007    -2677    -2193    -1651    -1108     -561      -31      437 
     822     1131     1410     1664     1826     1844     1746     1566 
    1296      963      630      313      -21     -399     -770    -1074 
   -1331    -1597    -1856    -2047    -2204    -2386    -2559    -2681 
   -2751    -2748    -2663    -2515    -2293    -1983    -1575    -1048 
    -422      241      886     1464     1965     2427     2841     3121 
    3218     3165     2994     2678     2228     1759     1371     1050 
     684      211     -306     -784    -1205    -1536    -1713    -1771 
   -1814    -1900    -2056    -2278    -2469    -2542    -2533    -2463 
   -2274    -2000    -1765    -1597    -1445    -1269    -1024     -750 
    -558     -472     -430     -427     -490     -568     -562     -429 
    -217      -18      117      194      224      224      213      207 
     226      251      238      201      187      218      268      346 
     511      720      854      930     1048     1181     1219     1196 
    1194     1163     1034      841      657      515      382      228 
      54     -153     -386     -607     -784     -861     -828     -751 
    -657     -540     -396     -228      -39      168      363      464 
     410      259      116       -9     -163     -338     -538     -796 
   -1129    -1513    -1876    -2168    -2404    -2639    -2899    -3156 
   -3353    -3438    -3360    -3114    -2789    -2463    -2110    -1664 
   -1101     -440      245      909     1553     2130     2606     3046 
    3450     3734     3889     3935     3844     3642     3365     2988 
    2535     2118     1771     1428     1043      606      125     -394 
    -935    -1425    -1815    -2137    -2419    -2660    -2837    -2910 
   -2855    -2702    -2540    -2411    -2288    -2187    -2106    -1958 
   -1682    -1341    -1032     -750     -442     -116      194      534 
     939     1320     1609     1838     1991     2003     1912     1838 
    1791     1672     1455     1185      859      475       90     -255 
    -560     -832    -1098    -1395    -1694    -1942    -2155    -2353 
