Origin Time       2025/01/13 21:19:00
Lat.              31.8
Long.             131.6
Depth. (km)       30
Mag.              6.9
Station Code      HRSH11
Station Lat.      34.8225
Station Long.     133.1674
Station Height(m) 590
Record Time       2025/01/13 21:21:05
Sampling Freq(Hz) 100Hz
Duration Time(s)  120
Dir.              5
Scale Factor      7845(gal)/8223790
Max. Acc. (gal)   1.124
Last Correction   2025/01/13 21:21:06
Memo.             
[...]
   24885    24710    24452    24327    24425    24611    24738    24764 
   24679    24521    24417    24464    24590    24663    24652    24576 
   24445    24343    24359    24476    24617    24688    24668    24626 
   24613    24665    24806    24930    24915    24808    24709    24629 
   24551    24499    24498    24511    24497    24468    24478    24574 
   24710    24803    24829    24802    24767    24783    24819    24825 
   24808    24748    24615    24456    24343    24325    24362    24366 
   24355    24391    24470    24564    24669    24757    24784    24749 
   24680    24615    24607    24665    24726    24741    24718    24679 
   24626    24533    24449    24430    24435    24451    24509    24576 
   24609    24598    24576    24575    24586    24587    24609    24660 
   24709    24769    24845    24858    24792    24702    24592    24489 
   24467    24551    24660    24729    24776    24769    24664    24556 
   24511    24480    24480    24544    24599    24614    24638    24669 
   24644    24557    24480    24428    24366    24336    24399    24494 
   24538    24551    24561    24578    24622    24686    24727    24745 
   24730    24664    24583    24547    24571    24634    24699    24729 
   24709    24634    24565    24579    24637    24671    24690    24705 
   24705    24690    24688    24726    24780    24810    24796    24776 
   24799    24823    24800    24784    24779    24709    24618    24591 
   24591    24626    24717    24767    24750    24737    24729    24709 
   24690    24671    24672    24696    24696    24665    24648    24653 
   24661    24653    24642    24655    24661    24634    24607    24599 
   24610    24641    24673    24668    24617    24552    24518    24521 
   24529    24516    24493    24509    24574    24638    24676    24717 
   24750    24722    24663    24629    24580    24509    24463    24463 
   24516    24602    24669    24706    24713    24675    24601    24534 
   24522    24545    24565    24583    24590    24591    24607    24628 
   24625    24614    24653    24761    24841    24831    24780    24694 
   24582    24526    24529    24557    24630    24703    24742    24780 
   24803    24794    24761    24688    24606    24594    24634    24646 
   24624    24632    24667    24642    24574    24582    24664    24709 
   24692    24667    24640    24583    24514    24482    24489    24513 
   24543    24565    24605    24684    24767    24794    24752    24680 
   24638    24594    24507    24468    24521    24591    24619    24582 
   24528    24543    24605    24634    24632    24618    24586    24530 
   24483    24489    24561    24663    24723    24710    24622    24489 
   24398    24390    24386    24341    24301    24294    24317    24364 
   24457    24576    24686    24799    24906    24923    24834    24722 
   24655    24601    24529    24460    24379    24297    24267    24290 
   24366    24507    24636    24714    24781    24822    24838    24875 
   24885    24808    24657    24495    24412    24432    24494    24547 
   24592    24664    24744    24763    24717    24684    24691    24672 
   24595    24536    24520    24491    24460    24464    24480    24478 
   24443    24406    24440    24522    24570    24583    24602    24598 
   24526    24403    24306    24289    24325    24371    24425    24482 
   24510    24510    24516    24530    24548    24583    24607    24553 
   24435    24345    24358    24453    24538    24528    24416    24305 
   24300    24368    24439    24528    24626    24665    24636    24576 
   24524    24497    24505    24525    24522    24486    24429    24375 
   24366    24401    24436    24462    24502    24565    24630    24667 
   24665    24655    24613    24509    24416    24418    24480    24538 
   24592    24622    24606    24602    24646    24698    24725    24736 
   24722    24705    24725    24740    24733    24767    24799    24749 
   24684    24676    24660    24617    24615    24637    24611    24556 
   24529    24540    24567    24601    24638    24707    24791    24819 
   24808    24822    24821    24779    24740    24715    24692    24678 
   24676    24695    24703    24659    24594    24541    24514    24526 
   24578    24669    24763    24768    24710    24721    24781    24780 
   24750    24749    24715    24634    24590    24621    24645    24607 
   24576    24586    24578    24576    24648    24732    24744    24698 
   24636    24588    24591    24644    24730    24819    24857    24822 
   24756    24714    24698    24672    24648    24661    24692    24710 
   24741    24806    24865    24850    24760    24691    24726    24818 
   24881    24918    24931    24906    24862    24838    24853    24907 
   24946    24930    24891    24844    24779    24703    24626    24563 
   24551    24601    24686    24776    24891    25011    25020    24891 
   24754    24678    24598    24511    24505    24571    24628    24645 
   24659    24688    24736    24783    24819    24856    24868    24814 
   24736    24692    24671    24629    24591    24578    24551    24517 
   24521    24552    24578    24592    24602    24595    24547    24478 
   24428    24405    24408    24430    24457    24464    24452    24470 
   24536    24599    24638    24671    24695    24705    24696    24675 
   24691    24754    24783    24792    24858    24930    24941    24907 
   24876    24869    24854    24868    24972    25065    25039    24961 
   24888    24814    24788    24829    24861    24850    24857    24915 
   24970    24985    24992    24996    24953    24864    24786    24767 
   24841    24966    25043    25037    24991    24922    24823    24742 
   24737    24777    24811    24822    24808    24804    24845    24900 
   24930    24946    24957    24938    24916    24923    24903    24813 
   24694    24591    24533    24525    24530    24538    24563    24594 
   24628    24660    24653    24638    24684    24733    24714    24679 
   24661    24619    24579    24583    24624    24661    24659    24636 
   24645    24660    24653    24660    24625    24524    24459    24443 
   24422    24443    24506    24529    24521    24570    24663    24732 
   24773    24796    24767    24679    24595    24538    24497    24495 
   24551    24602    24594    24563    24582    24648    24688    24705 
   24750    24790    24763    24694    24644    24609    24557    24544 
   24609    24684    24715    24705    24675    24651    24618    24568 
   24520    24480    24466    24464    24486    24560    24649    24705 
   24732    24736    24727    24713    24668    24601    24536    24466 
   24406    24389    24402    24424    24444    24464    24520    24603 
   24657    24686    24707    24702    24680    24649    24583    24480 
   24383    24343    24337    24321    24316    24344    24367    24381 
   24426    24479    24482    24451    24429    24426    24440    24475 
   24529    24574    24586    24579    24556    24490    24414    24375 
   24367    24383    24426    24456    24439    24428    24459    24486 
   24484    24499    24526    24530    24544    24613    24667    24644 
   24597    24568    24552    24561    24610    24663    24672    24644 
   24591    24532    24518    24549    24579    24630    24729    24821 
   24854    24883    24954    25019    25033    25019    24992    24931 
   24868    24861    24883    24888    24908    24956    24992    25006 
   24993    24966    24979    25018    25010    24948    24862    24760 
   24663    24615    24621    24641    24655    24637    24574    24544 
   24578    24582    24502    24376    24260    24219    24247    24282 
   24300    24283    24233    24197    24186    24156    24111    24097 
   24098    24086    24088    24098    24082    24057    24046    24025 
   24001    24019    24086    24162    24221    24279    24312    24297 
   24259    24208    24135    24075    24039    23992    23967    24015 
   24090    24158    24233    24314    24378    24429    24480    24520 
   24551    24567    24555    24548    24557    24545    24525    24564 
   24678    24810    24915    24987    25007    24958    24900    24895 
   24929    24970    25002    25033    25068    25076    25056    25069 
   25107    25111    25091    25081    25072    25050    25046    25054 
   25034    24992    24929    24833    24767    24780    24834    24898 
   24949    24956    24946    24976    25056    25141    25181    25145 
   25034    24937    24931    24965    24927    24819    24744    24732 
   24733    24759    24834    24895    24887    24869    24888    24918 
   24907    24834    24753    24707    24672    24676    24764    24821 
   24754    24665    24641    24652    24665    24700    24734    24736 
   24742    24781    24811    24788    24727    24655    24564    24455 
   24387    24385    24391    24374    24355    24324    24268    24217 
   24208    24240    24266    24248    24213    24173    24116    24086 
   24135    24227    24304    24349    24360    24333    24293    24283 
   24295    24285    24248    24202    24162    24181    24282    24408 
   24484    24480    24420    24348    24298    24304    24366    24414 
   24426    24463    24514    24545    24611    24705    24733    24717 
   24726    24725    24706    24734    24794    24849    24912    24958 
   24975    24993    24993    24950    24916    24911    24902    24884 
   24869    24861    24842    24779    24699    24663    24668    24694 
   24737    24783    24810    24804    24779    24759    24736    24682 
   24609    24544    24490    24451    24436    24436    24429    24413 
   24401    24383    24344    24305    24286    24290    24310    24308 
   24274    24236    24194    24159    24162    24167    24121    24065 
   24059    24109    24193    24264    24279    24252    24209    24178 
   24212    24318    24426    24479    24482    24486    24518    24533 
   24530    24552    24555    24509    24490    24532    24587    24651 
   24727    24788    24831    24871    24914    24984    25054    25072 
   25033    24979    24930    24888    24858    24854    24862    24854 
   24831    24800    24763    24733    24714    24684    24644    24609 
   24587    24590    24609    24614    24619    24661    24717    24729 
   24686    24628    24567    24499    24449    24412    24347    24263 
   24206    24182    24177    24200    24274    24371    24443    24487 
   24522    24552    24561    24525    24479    24451    24393    24320 
   24316    24385    24464    24516    24525    24538    24594    24644 
   24686    24802    24937    24968    24927    24880    24819    24768 
   24745    24718    24696    24702    24707    24721    24783    24869 
   24919    24923    24906    24864    24810    24784    24792    24810 
   24806    24761    24694    24632    24602    24614    24637    24649 
   24649    24615    24560    24541    24560    24583    24595    24580 
   24556    24571    24638    24710    24748    24761    24752    24692 
   24610    24580    24615    24659    24686    24725    24763    24753 
   24721    24711    24709    24688    24682    24698    24718    24753 
   24791    24786    24746    24736    24752    24750    24757    24798 
   24831    24826    24803    24783    24749    24690    24640    24628 
   24625    24619    24661    24749    24815    24834    24838    24852 
   24877    24915    24919    24872    24833    24822    24795    24759 
   24757    24784    24814    24838    24856    24895    24962    25011 
   25031    25054    25045    24969    24884    24840    24823    24826 
   24838    24850    24883    24935    24984    25020    25038    25004 
   24929    24862    24823    24775    24696    24605    24516    24422 
   24345    24340    24398    24449    24479    24517    24555    24571 
   24555    24507    24441    24359    24278    24216    24171    24142 
   24135    24146    24154    24166    24200    24247    24279    24256 
   24208    24167    24124    24075    24025    23955    23896    23853 
   23785    23733    23747    23773    23768    23761    23762    23755 
   23741    23711    23688    23695    23701    23695    23718    23781 
   23857    23958    24111    24271    24387    24460    24503    24507 
   24502    24521    24538    24536    24526    24511    24524    24576 
   24633    24680    24710    24711    24721    24750    24772    24768 
   24729    24668    24628    24597    24556    24540    24534    24495 
   24471    24516    24567    24574    24576    24592    24615    24655 
   24694    24705    24675    24601    24509    24453    24457    24491 
   24517    24522    24511    24498    24513    24580    24678    24761 
   24814    24821    24754    24655    24590    24576    24592    24617 
   24630    24641    24648    24648    24659    24692    24725    24730 
   24707    24669    24630    24613    24617    24610    24579    24536 
   24497    24490    24525    24574    24617    24630    24598    24543 
   24499    24474    24447    24416    24398    24382    24352    24345 
   24374    24386    24385    24406    24428    24420    24398    24389 
   24394    24408    24439    24486    24533    24568    24598    24653 
   24736    24825    24916    24995    25056    25108    25147    25155 
   25143    25132    25139    25157    25168    25180    25191    25193 
   25197    25209    25203    25176    25159    25154    25139    25158 
   25224    25273    25293    25324    25331    25293    25255    25232 
   25228    25254    25288    25320    25374    25456    25542    25621 
   25708    25783    25801    25753    25701    25677    25643    25578 
   25502    25435    25371    25324    25315    25347    25369    25339 
   25282    25226    25166    25089    24992    24898    24826    24754 
   24686    24644    24632    24624    24591    24540    24495    24467 
   24425    24358    24273    24150    23989    23845    23737    23658 
   23622    23599    23558    23538    23561    23606    23676    23743 
   23769    23778    23792    23791    23782    23788    23796    23809 
   23851    23912    23984    24079    24185    24282    24370    24435 
   24486    24543    24575    24574    24588    24633    24659    24663 
   24687    24740    24795    24842    24894    24941    24956    24941 
   24934    24961    25016    25083    25131    25159    25172    25162 
   25139    25123    25108    25077    25039    24997    24956    24922 
   24884    24821    24744    24672    24607    24537    24460    24387 
   24313    24214    24117    24042    23973    23905    23853    23818 
   23778    23715    23649    23592    23530    23485    23487    23507 
   23519    23549    23599    23641    23689    23755    23805    23830 
   23858    23904    23951    23988    24025    24066    24117    24200 
   24312    24425    24511    24584    24687    24814    24916    24987 
   25045    25084    25087    25080    25116    25177    25209    25222 
   25243    25259    25277    25316    25350    25369    25381    25370 
   25339    25307    25270    25242    25247    25280    25313    25328 
   25334    25347    25353    25348    25354    25351    25292    25212 
   25168    25137    25099    25095    25115    25108    25065    25022 
   24999    24980    24948    24912    24864    24765    24661    24609 
   24579    24536    24506    24490    24432    24327    24221    24131 
   24042    23965    23904    23868    23843    23819    23820    23859 
   23916    23993    24075    24121    24127    24139    24175    24186 
   24167    24151    24116    24047    24000    24001    24036    24089 
   24136    24177    24227    24282    24335    24386    24412    24376 
   24294    24228    24198    24182    24194    24236    24278    24314 
   24367    24440    24525    24598    24640    24668    24686    24668 
   24625    24622    24672    24719    24744    24783    24844    24894 
   24916    24922    24912    24879    24830    24773    24698    24630 
   24601    24576    24552    24552    24549    24524    24521    24557 
   24614    24690    24786    24860    24879    24872    24865    24849 
   24813    24760    24703    24659    24618    24588    24610    24665 
   24703    24729    24756    24768    24773    24803    24848    24887 
   24903    24896    24885    24869    24848    24844    24872    24914 
   24933    24927    24923    24956    25026    25100    25158    25196 
   25199    25164    25115    25077    25053    25030    24991    24929 
   24867    24838    24850    24892    24962    25031    25062    25053 
   25034    25022    25011    24988    24956    24922    24881    24842 
   24823    24813    24787    24745    24700    24642    24568    24536 
   24553    24561    24543    24532    24541    24551    24541    24528 
   24528    24529    24529    24545    24582    24603    24586    24559 
   24548    24552    24568    24587    24599    24611    24624    24625 
   24611    24590    24556    24518    24510    24540    24576    24603 
   24610    24595    24570    24544    24532    24533    24540    24557 
   24559    24530    24505    24487    24449    24397    24358    24331 
   24301    24278    24283    24321    24368    24399    24410    24410 
   24409    24412    24402    24383    24376    24383    24381    24366 
   24389    24457    24509    24520    24525    24524    24497    24460 
   24408    24337    24275    24228    24201    24216    24260    24318 
   24381    24420    24436    24474    24543    24611    24668    24705 
   24699    24669    24659    24675    24684    24680    24676    24668 
   24646    24626    24624    24641    24671    24684    24672    24661 
   24653    24619    24571    24529    24480    24416    24347    24294 
   24268    24271    24301    24344    24372    24382    24394    24418 
   24441    24468    24510    24560    24615    24667    24688    24678 
   24660    24660    24673    24702    24756    24815    24853    24876 
   24891    24902    24912    24918    24918    24914    24906    24892 
   24884    24880    24884    24907    24935    24950    24957    24957 
   24950    24946    24953    24977    24991    24958    24906    24875 
   24869    24879    24900    24915    24918    24916    24914    24907 
   24902    24899    24900    24910    24943    25000    25049    25077 
   25096    25096    25074    25045    25022    25003    24975    24942 
   24922    24912    24903    24894    24896    24910    24919    24918 
   24910    24906    24914    24926    24916    24889    24869    24854 
   24844    24856    24892    24926    24929    24894    24838    24784 
   24730    24661    24587    24534    24498    24464    24444    24440 
   24440    24414    24364    24327    24298    24266    24243    24239 
   24241    24247    24248    24233    24217    24223    24236    24236 
   24227    24217    24216    24219    24225    24237    24241    24229 
   24202    24186    24204    24233    24240    24233    24236    24244 
   24263    24308    24363    24405    24435    24463    24487    24501 
   24503    24493    24479    24476    24479    24482    24480    24471 
   24462    24451    24433    24418    24424    24441    24460    24489 
   24513    24526    24534    24537    24534    24536    24537    24532 
   24507    24449    24379    24329    24297    24273    24263    24267 
   24290    24341    24414    24476    24518    24548    24540    24493 
   24440    24395    24363    24344    24331    24316    24305    24308 
