Origin Time       2025/01/13 21:19:00
Lat.              31.8
Long.             131.6
Depth. (km)       30
Mag.              6.9
Station Code      HRSH18
Station Lat.      34.4572
Station Long.     132.7923
Station Height(m) 235
Record Time       2025/01/13 21:20:26
Sampling Freq(Hz) 100Hz
Duration Time(s)  133
Dir.              4
Scale Factor      7845(gal)/8223790
Max. Acc. (gal)   2.352
Last Correction   2025/01/13 21:20:27
Memo.             
[...]
   -5227    -5308    -5381    -5449    -5567    -5726    -5879    -5999 
   -6066    -6076    -6048    -5983    -5877    -5746    -5602    -5464 
   -5351    -5252    -5159    -5111    -5150    -5273    -5447    -5655 
   -5871    -6052    -6172    -6232    -6261    -6254    -6211    -6158 
   -6104    -6042    -5965    -5854    -5709    -5556    -5437    -5356 
   -5294    -5259    -5290    -5362    -5432    -5535    -5678    -5814 
   -5940    -6065    -6145    -6134    -6058    -5960    -5850    -5741 
   -5609    -5422    -5215    -5054    -4965    -4951    -5035    -5211 
   -5414    -5593    -5736    -5836    -5883    -5860    -5790    -5719 
   -5665    -5621    -5555    -5468    -5394    -5366    -5412    -5512 
   -5574    -5551    -5456    -5324    -5231    -5265    -5429    -5630 
   -5788    -5883    -5923    -5958    -6004    -6025    -6010    -5960 
   -5861    -5744    -5640    -5524    -5389    -5283    -5225    -5196 
   -5192    -5211    -5242    -5310    -5431    -5548    -5638    -5745 
   -5850    -5899    -5896    -5887    -5895    -5908    -5892    -5854 
   -5830    -5841    -5861    -5838    -5749    -5626    -5535    -5509 
   -5526    -5539    -5505    -5427    -5352    -5325    -5363    -5470 
   -5607    -5714    -5772    -5809    -5840    -5852    -5836    -5790 
   -5711    -5614    -5526    -5466    -5422    -5378    -5319    -5233 
   -5140    -5113    -5206    -5359    -5471    -5518    -5522    -5514 
   -5541    -5606    -5651    -5641    -5589    -5529    -5516    -5582 
   -5697    -5783    -5792    -5728    -5630    -5595    -5687    -5844 
   -5954    -5968    -5914    -5860    -5845    -5852    -5822    -5705 
   -5525    -5366    -5286    -5312    -5452    -5638    -5740    -5722 
   -5657    -5603    -5597    -5622    -5628    -5614    -5630    -5706 
   -5829    -5946    -6004    -5956    -5806    -5633    -5476    -5344 
   -5265    -5243    -5260    -5323    -5416    -5499    -5576    -5676 
   -5780    -5825    -5823    -5852    -5925    -6004    -6065    -6058 
   -6000    -6002    -6088    -6187    -6228    -6173    -6010    -5807 
   -5655    -5586    -5547    -5479    -5385    -5323    -5362    -5508 
   -5679    -5778    -5753    -5663    -5628    -5702    -5829    -5917 
   -5926    -5876    -5810    -5778    -5782    -5742    -5605    -5422 
   -5278    -5198    -5194    -5258    -5336    -5401    -5455    -5487 
   -5505    -5525    -5548    -5572    -5584    -5571    -5547    -5547 
   -5555    -5510    -5406    -5277    -5143    -5055    -5049    -5098 
   -5165    -5213    -5236    -5273    -5377    -5553    -5738    -5879 
   -5952    -5965    -5976    -6023    -6072    -6075    -6027    -5956 
   -5852    -5715    -5597    -5510    -5433    -5397    -5425    -5509 
   -5634    -5767    -5872    -5948    -5981    -5981    -5941    -5838 
   -5707    -5602    -5513    -5413    -5344    -5379    -5544    -5794 
   -6030    -6150    -6147    -6091    -6030    -5995    -5964    -5850 
   -5591    -5259    -5001    -4914    -5004    -5179    -5294    -5317 
   -5355    -5475    -5674    -5914    -6110    -6189    -6151    -6035 
   -5881    -5751    -5687    -5665    -5647    -5620    -5560    -5422 
   -5200    -4922    -4645    -4499    -4585    -4833    -5097    -5286 
   -5375    -5422    -5551    -5836    -6211    -6565    -6818    -6903 
   -6804    -6544    -6150    -5714    -5375    -5185    -5100    -5096 
   -5158    -5247    -5370    -5567    -5844    -6189    -6525    -6717 
   -6705    -6561    -6424    -6372    -6376    -6373    -6323    -6205 
   -6054    -5918    -5796    -5674    -5562    -5455    -5313    -5134 
   -4982    -4934    -5020    -5240    -5540    -5829    -6053    -6218 
   -6334    -6367    -6297    -6168    -6034    -5911    -5742    -5471 
   -5134    -4849    -4722    -4811    -5094    -5467    -5786    -5973 
   -6042    -6061    -6065    -6007    -5829    -5533    -5216    -4968 
   -4827    -4795    -4850    -4999    -5262    -5599    -5921    -6139 
   -6154    -5929    -5572    -5235    -5020    -4938    -4942    -4995 
   -5081    -5251    -5583    -6019    -6396    -6585    -6543    -6277 
   -5854    -5382    -4928    -4527    -4260    -4226    -4444    -4823 
   -5266    -5711    -6134    -6481    -6714    -6840    -6826    -6608 
   -6210    -5745    -5332    -5058    -4941    -4955    -5097    -5346 
   -5644    -5895    -5992    -5906    -5752    -5663    -5651    -5661 
   -5647    -5597    -5559    -5598    -5694    -5767    -5784    -5769 
   -5800    -5946    -6142    -6222    -6081    -5760    -5393    -5179 
   -5251    -5493    -5676    -5676    -5485    -5228    -5104    -5190 
   -5363    -5436    -5377    -5324    -5397    -5632    -5968    -6254 
   -6386    -6378    -6304    -6238    -6170    -6054    -5881    -5683 
   -5509    -5405    -5389    -5428    -5458    -5429    -5325    -5175 
   -5120    -5323    -5773    -6268    -6597    -6662    -6486    -6197 
   -5895    -5602    -5333    -5150    -5074    -5104    -5293    -5648 
   -6023    -6239    -6177    -5856    -5479    -5277    -5285    -5385 
   -5470    -5491    -5460    -5467    -5537    -5555    -5447    -5271 
   -5127    -5119    -5282    -5487    -5566    -5502    -5422    -5394 
   -5424    -5548    -5779    -6058    -6335    -6521    -6490    -6214 
   -5802    -5356    -4916    -4567    -4406    -4434    -4639    -4992 
   -5360    -5679    -5971    -6177    -6276    -6349    -6396    -6367 
   -6281    -6137    -5946    -5786    -5705    -5647    -5548    -5440 
   -5363    -5319    -5316    -5348    -5371    -5336    -5275    -5287 
   -5378    -5491    -5599    -5638    -5566    -5499    -5618    -5927 
   -6255    -6432    -6318    -5894    -5381    -5046    -4961    -5057 
   -5220    -5324    -5306    -5242    -5259    -5400    -5583    -5686 
   -5657    -5575    -5536    -5564    -5613    -5609    -5576    -5625 
   -5773    -5981    -6195    -6312    -6286    -6178    -6031    -5849 
   -5660    -5486    -5333    -5236    -5231    -5319    -5458    -5591 
   -5670    -5648    -5526    -5387    -5364    -5553    -5902    -6205 
   -6270    -6123    -5958    -5887    -5867    -5769    -5490    -5100 
   -4811    -4765    -4966    -5367    -5863    -6264    -6420    -6349 
   -6151    -5952    -5864    -5884    -5877    -5751    -5521    -5233 
   -4949    -4776    -4738    -4801    -4989    -5273    -5562    -5818 
   -6012    -6091    -6080    -6083    -6115    -6091    -5935    -5652 
   -5309    -5000    -4819    -4870    -5167    -5599    -5994    -6197 
   -6170    -6012    -5863    -5788    -5782    -5818    -5854    -5865 
   -5907    -6026    -6115    -6061    -5881    -5636    -5387    -5232 
   -5205    -5254    -5341    -5467    -5579    -5661    -5784    -5964 
   -6123    -6218    -6264    -6289    -6297    -6249    -6075    -5784 
   -5466    -5209    -5067    -5049    -5138    -5321    -5524    -5674 
   -5742    -5737    -5736    -5807    -5876    -5849    -5806    -5845 
   -5950    -6083    -6138    -5979    -5702    -5536    -5533    -5628 
   -5830    -6149    -6458    -6631    -6615    -6382    -6002    -5659 
   -5455    -5329    -5233    -5204    -5290    -5475    -5701    -5888 
   -5894    -5667    -5386    -5223    -5198    -5286    -5424    -5505 
   -5526    -5575    -5672    -5798    -5921    -5964    -5888    -5719 
   -5513    -5363    -5320    -5356    -5422    -5470    -5479    -5458 
   -5418    -5395    -5418    -5463    -5466    -5381    -5202    -4978 
   -4823    -4865    -5089    -5324    -5444    -5474    -5493    -5593 
   -5818    -6060    -6161    -6084    -5894    -5678    -5516    -5448 
   -5437    -5463    -5559    -5698    -5795    -5790    -5694    -5616 
   -5610    -5624    -5601    -5552    -5514    -5547    -5655    -5761 
   -5892    -6120    -6399    -6620    -6712    -6624    -6327    -5883 
   -5464    -5200    -5066    -4990    -4923    -4858    -4885    -5131 
   -5616    -6231    -6786    -7106    -7187    -7133    -7001    -6789 
   -6481    -6073    -5609    -5232    -5081    -5121    -5197    -5194 
   -5121    -5084    -5192    -5391    -5506    -5481    -5389    -5344 
   -5467    -5726    -5942    -6021    -5975    -5877    -5832    -5894 
   -6026    -6127    -6110    -5941    -5655    -5340    -5082    -4905 
   -4818    -4828    -4946    -5196    -5521    -5799    -5952    -5983 
   -5946    -5948    -6069    -6259    -6377    -6330    -6089    -5719 
   -5402    -5238    -5131    -4996    -4861    -4776    -4777    -4889 
   -5073    -5260    -5427    -5528    -5560    -5609    -5719    -5876 
   -6077    -6278    -6400    -6386    -6241    -6034    -5842    -5694 
   -5616    -5599    -5589    -5514    -5319    -5026    -4779    -4695 
   -4784    -5039    -5479    -6006    -6459    -6816    -7030    -7018 
   -6867    -6705    -6521    -6254    -5883    -5431    -4988    -4685 
   -4592    -4671    -4869    -5162    -5512    -5868    -6150    -6303 
   -6345    -6284    -6130    -5930    -5740    -5637    -5665    -5721 
   -5691    -5628    -5603    -5603    -5564    -5400    -5067    -4688 
   -4475    -4527    -4765    -5051    -5265    -5378    -5482    -5637 
   -5814    -5985    -6095    -6064    -5961    -5908    -5915    -5965 
   -6022    -5961    -5730    -5437    -5186    -5016    -4962    -5024 
   -5193    -5435    -5616    -5617    -5489    -5329    -5196    -5205 
   -5487    -5983    -6558    -7095    -7411    -7387    -7082    -6601 
   -6043    -5503    -4982    -4482    -4126    -4043    -4224    -4602 
   -5063    -5459    -5749    -5989    -6178    -6346    -6575    -6786 
   -6809    -6663    -6450    -6187    -5886    -5572    -5235    -4919 
   -4747    -4808    -5077    -5431    -5753    -6022    -6218    -6311 
   -6320    -6277    -6180    -6022    -5807    -5544    -5235    -4916 
   -4679    -4554    -4515    -4583    -4762    -4993    -5229    -5466 
   -5664    -5776    -5848    -5979    -6102    -6081    -5983    -5957 
   -5979    -5933    -5780    -5530    -5246    -5050    -4978    -4912 
   -4781    -4679    -4715    -4939    -5351    -5844    -6303    -6663 
   -6809    -6681    -6420    -6204    -6066    -5977    -5865    -5675 
   -5452    -5282    -5233    -5317    -5498    -5756    -6004    -6077 
   -5894    -5599    -5448    -5530    -5714    -5841    -5876    -5886 
   -5967    -6122    -6246    -6269    -6251    -6312    -6440    -6521 
   -6527    -6455    -6274    -6019    -5725    -5416    -5193    -5096 
   -5054    -5044    -5097    -5174    -5246    -5347    -5490    -5663 
   -5873    -6084    -6204    -6232    -6249    -6322    -6448    -6497 
   -6342    -6007    -5579    -5134    -4758    -4545    -4527    -4644 
   -4808    -4984    -5144    -5292    -5478    -5736    -6068    -6490 
   -6859    -6933    -6702    -6313    -5880    -5516    -5293    -5162 
   -5039    -4926    -4818    -4710    -4685    -4793    -5001    -5267 
   -5555    -5845    -6156    -6478    -6747    -6909    -6980    -6944 
   -6752    -6417    -6015    -5637    -5340    -5120    -4951    -4847 
   -4826    -4869    -5008    -5233    -5436    -5548    -5589    -5607 
   -5674    -5830    -6030    -6172    -6259    -6361    -6423    -6396 
   -6269    -5942    -5355    -4656    -4039    -3618    -3465    -3599 
   -3910    -4279    -4691    -5173    -5672    -6093    -6416    -6608 
   -6573    -6334    -6037    -5763    -5518    -5350    -5300    -5368 
   -5537    -5749    -5918    -5937    -5787    -5547    -5255    -5003 
   -4968    -5150    -5335    -5404    -5416    -5448    -5587    -5898 
   -6262    -6497    -6544    -6451    -6324    -6227    -6126    -5919 
   -5535    -5036    -4564    -4283    -4284    -4469    -4673    -4795 
   -4818    -4892    -5225    -5786    -6291    -6528    -6492    -6264 
   -5999    -5877    -5894    -5884    -5771    -5613    -5502    -5447 
   -5404    -5350    -5304    -5294    -5324    -5374    -5425    -5420 
   -5335    -5256    -5319    -5602    -6061    -6490    -6671    -6548 
   -6274    -6060    -5965    -5898    -5738    -5466    -5202    -5073 
   -5063    -5092    -5135    -5216    -5355    -5555    -5769    -5940 
   -6076    -6219    -6328    -6319    -6139    -5867    -5648    -5528 
   -5454    -5386    -5341    -5362    -5436    -5516    -5571    -5629 
   -5741    -5875    -5954    -5952    -5869    -5741    -5638    -5583 
   -5533    -5508    -5562    -5679    -5830    -6011    -6212    -6394 
   -6469    -6309    -5946    -5620    -5509    -5613    -5860    -6092 
   -6151    -6081    -6049    -6061    -5923    -5582    -5204    -4942 
   -4861    -5011    -5313    -5528    -5521    -5381    -5189    -4999 
   -4911    -4927    -4949    -4992    -5120    -5281    -5424    -5616 
   -5860    -6026    -6046    -6015    -5983    -5908    -5860    -5880 
   -5813    -5602    -5378    -5173    -4961    -4772    -4567    -4275 
   -3993    -3927    -4202    -4722    -5223    -5521    -5625    -5603 
   -5562    -5595    -5660    -5664    -5598    -5412    -5051    -4607 
   -4256    -4101    -4114    -4189    -4233    -4240    -4271    -4398 
   -4637    -4909    -5135    -5347    -5630    -6003    -6390    -6658 
   -6698    -6489    -6053    -5483    -4995    -4714    -4564    -4460 
   -4428    -4496    -4652    -4918    -5325    -5806    -6250    -6619 
   -6897    -7068    -7141    -7099    -6917    -6660    -6467    -6378 
   -6315    -6191    -5975    -5707    -5478    -5378    -5456    -5626 
   -5755    -5784    -5707    -5605    -5668    -5975    -6428    -6939 
   -7452    -7871    -8102    -8110    -7915    -7587    -7238    -6936 
   -6637    -6326    -6062    -5891    -5815    -5841    -5930    -6014 
   -6126    -6353    -6697    -7061    -7326    -7399    -7252    -6990 
   -6741    -6481    -6162    -5844    -5624    -5597    -5757    -5996 
   -6187    -6200    -6062    -5994    -6057    -6122    -6154    -6089 
   -5795    -5424    -5263    -5355    -5551    -5691    -5651    -5463 
   -5300    -5223    -5184    -5179    -5211    -5279    -5379    -5441 
   -5458    -5502    -5667    -5979    -6318    -6519    -6497    -6278 
   -5976    -5690    -5424    -5138    -4845    -4621    -4471    -4342 
   -4248    -4174    -4062    -3991    -4099    -4388    -4808    -5304 
   -5744    -6037    -6208    -6289    -6286    -6247    -6235    -6222 
   -6164    -6077    -5935    -5782    -5740    -5772    -5753    -5698 
   -5680    -5753    -5935    -6168    -6315    -6255    -6006    -5778 
   -5807    -6123    -6588    -7017    -7246    -7231    -7098    -7029 
   -7086    -7132    -6976    -6593    -6160    -5857    -5718    -5653 
   -5574    -5493    -5518    -5679    -5833    -5875    -5856    -5853 
   -5907    -6025    -6151    -6231    -6241    -6178    -6061    -5935 
   -5856    -5813    -5780    -5784    -5818    -5800    -5718    -5655 
   -5640    -5651    -5682    -5672    -5609    -5629    -5849    -6207 
   -6559    -6782    -6762    -6494    -6110    -5740    -5458    -5302 
   -5248    -5221    -5174    -5140    -5185    -5259    -5248    -5138 
   -4984    -4888    -5003    -5371    -5826    -6196    -6413    -6415 
   -6253    -6092    -5956    -5759    -5520    -5310    -5144    -5026 
   -4904    -4714    -4525    -4401    -4348    -4403    -4477    -4449 
   -4407    -4475    -4648    -4892    -5132    -5266    -5292    -5265 
   -5186    -5026    -4815    -4604    -4411    -4313    -4355    -4401 
   -4336    -4214    -4125    -4095    -4147    -4282    -4375    -4340 
   -4253    -4199    -4202    -4298    -4460    -4599    -4719    -4873 
   -5051    -5269    -5572    -5894    -6093    -6153    -6161    -6212 
   -6280    -6245    -6065    -5803    -5579    -5493    -5516    -5518 
   -5428    -5289    -5136    -4981    -4947    -5154    -5560    -6035 
   -6450    -6693    -6687    -6520    -6388    -6313    -6232    -6188 
   -6172    -6099    -6000    -5919    -5810    -5659    -5551    -5595 
   -5861    -6295    -6686    -6848    -6762    -6562    -6448    -6515 
   -6643    -6683    -6606    -6457    -6323    -6289    -6316    -6239 
   -5954    -5599    -5409    -5466    -5649    -5772    -5749    -5647 
   -5555    -5518    -5522    -5541    -5589    -5675    -5767    -5825 
   -5849    -5833    -5757    -5667    -5601    -5487    -5274    -5040 
   -4872    -4743    -4592    -4415    -4259    -4237    -4448    -4799 
   -5108    -5244    -5157    -4955    -4819    -4801    -4864    -4982 
   -5123    -5239    -5363    -5562    -5769    -5883    -5890    -5821 
   -5749    -5753    -5829    -5907    -5898    -5752    -5555    -5439 
   -5452    -5567    -5744    -5899    -5945    -5865    -5702    -5530 
   -5414    -5371    -5375    -5405    -5458    -5516    -5584    -5709 
   -5856    -5958    -6043    -6137    -6211    -6304    -6453    -6588 
   -6659    -6679    -6640    -6527    -6392    -6305    -6299    -6312 
   -6201    -5942    -5690    -5583    -5668    -5910    -6131    -6170 
   -6052    -5834    -5552    -5319    -5270    -5400    -5537    -5522 
   -5381    -5252    -5228    -5297    -5368    -5348    -5221    -5062 
   -4990    -5050    -5204    -5422    -5661    -5842    -5918    -5881 
   -5794    -5710    -5607    -5467    -5317    -5163    -5031    -4935 
   -4866    -4853    -4927    -5081    -5258    -5344    -5317    -5277 
   -5233    -5154    -5112    -5189    -5339    -5468    -5509    -5350 
   -5000    -4650    -4394    -4214    -4170    -4253    -4342    -4406 
   -4496    -4618    -4766    -4931    -5113    -5321    -5536    -5721 
   -5826    -5830    -5790    -5768    -5780    -5792    -5769    -5768 
   -5842    -5956    -6035    -6068    -6065    -6029    -5996    -6050 
   -6255    -6605    -6997    -7236    -7190    -6982    -6825    -6777 
   -6775    -6721    -6559    -6363    -6259    -6255    -6211    -5973 
   -5548    -5113    -4870    -4896    -5174    -5609    -6002    -6215 
   -6272    -6237    -6203    -6232    -6258    -6165    -5876    -5449 
   -5096    -4982    -5067    -5163    -5123    -4889    -4500    -4112 
   -3896    -3920    -4113    -4352    -4560    -4739    -4941    -5177 
   -5400    -5602    -5810    -6029    -6257    -6469    -6565    -6459 
   -6193    -5871    -5570    -5379    -5310    -5240    -5059    -4811 
   -4596    -4449    -4415    -4521    -4689    -4869    -5069    -5258 
   -5409    -5570    -5826    -6158    -6431    -6571    -6623    -6675 
   -6804    -6957    -6999    -6855    -6605    -6450    -6470    -6574 
   -6671    -6708    -6691    -6669    -6628    -6516    -6320    -6080 
   -5860    -5705    -5614    -5574    -5614    -5811    -6123    -6413 
   -6647    -6878    -7121    -7334    -7441    -7356    -7067    -6674 
   -6269    -5845    -5395    -5030    -4828    -4685    -4453    -4126 
   -3825    -3697    -3812    -4117    -4490    -4862    -5262    -5670 
   -6015    -6268    -6400    -6419    -6399    -6405    -6475    -6544 
   -6471    -6222    -5877    -5522    -5228    -5012    -4822    -4627 
   -4457    -4380    -4455    -4650    -4862    -5036    -5184    -5333 
   -5512    -5732    -5968    -6137    -6129    -5937    -5668    -5422 
   -5242    -5140    -5101    -5097    -5132    -5232    -5373    -5463 
   -5481    -5547    -5756    -6053    -6340    -6543    -6615    -6575 
   -6513    -6538    -6674    -6848    -6961    -6952    -6817    -6586 
   -6336    -6139    -5980    -5803    -5594    -5356    -5146    -5035 
