Origin Time       2025/01/13 21:19:00
Lat.              31.8
Long.             131.6
Depth. (km)       30
Mag.              6.9
Station Code      HRSH11
Station Lat.      34.8225
Station Long.     133.1674
Station Height(m) 490
Record Time       2025/01/13 21:21:05
Sampling Freq(Hz) 100Hz
Duration Time(s)  120
Dir.              1
Scale Factor      2942(gal)/8224139
Max. Acc. (gal)   0.634
Last Correction   2025/01/13 21:21:06
Memo.             
[...]
  -49369   -49354   -49341   -49329   -49324   -49333   -49343   -49350 
  -49361   -49362   -49357   -49361   -49374   -49387   -49404   -49427 
  -49451   -49464   -49461   -49443   -49419   -49387   -49350   -49324 
  -49331   -49362   -49384   -49373   -49346   -49331   -49331   -49339 
  -49343   -49347   -49364   -49385   -49405   -49426   -49447   -49461 
  -49457   -49431   -49403   -49385   -49374   -49356   -49329   -49307 
  -49280   -49243   -49222   -49223   -49227   -49234   -49257   -49292 
  -49318   -49318   -49299   -49283   -49266   -49246   -49238   -49245 
  -49249   -49242   -49237   -49237   -49252   -49284   -49306   -49308 
  -49314   -49326   -49326   -49312   -49304   -49308   -49302   -49257 
  -49185   -49125   -49080   -49033   -48982   -48936   -48898   -48875 
  -48871   -48865   -48853   -48849   -48857   -48867   -48865   -48864 
  -48872   -48890   -48911   -48938   -48968   -48982   -48971   -48960 
  -48972   -49003   -49044   -49088   -49126   -49152   -49165   -49169 
  -49173   -49192   -49227   -49260   -49269   -49272   -49284   -49287 
  -49262   -49235   -49239   -49257   -49275   -49306   -49343   -49370 
  -49383   -49384   -49373   -49361   -49349   -49343   -49360   -49380 
  -49388   -49395   -49401   -49403   -49411   -49422   -49422   -49415 
  -49405   -49395   -49385   -49374   -49370   -49370   -49368   -49360 
  -49349   -49339   -49331   -49312   -49287   -49256   -49230   -49218 
  -49218   -49226   -49226   -49221   -49221   -49222   -49214   -49203 
  -49187   -49165   -49137   -49094   -49049   -49022   -49009   -49003 
  -48998   -48984   -48972   -48967   -48973   -49003   -49042   -49063 
  -49067   -49075   -49086   -49091   -49095   -49096   -49086   -49073 
  -49069   -49081   -49115   -49154   -49164   -49140   -49110   -49088 
  -49071   -49046   -49023   -49017   -49014   -49000   -48972   -48934 
  -48891   -48848   -48810   -48794   -48803   -48803   -48783   -48764 
  -48751   -48733   -48721   -48726   -48736   -48728   -48714   -48720 
  -48739   -48744   -48744   -48752   -48771   -48797   -48828   -48863 
  -48895   -48929   -48975   -49015   -49030   -49037   -49053   -49075 
  -49100   -49117   -49114   -49119   -49154   -49194   -49207   -49204 
  -49218   -49250   -49277   -49276   -49256   -49250   -49264   -49276 
  -49284   -49293   -49288   -49266   -49245   -49243   -49245   -49227 
  -49207   -49208   -49230   -49266   -49311   -49337   -49341   -49346 
  -49362   -49383   -49400   -49414   -49437   -49459   -49462   -49465 
  -49473   -49477   -49486   -49491   -49470   -49451   -49451   -49453 
  -49443   -49428   -49416   -49415   -49423   -49428   -49427   -49434 
  -49443   -49445   -49443   -49451   -49458   -49470   -49491   -49499 
  -49486   -49476   -49480   -49489   -49495   -49491   -49476   -49455 
  -49437   -49423   -49422   -49427   -49428   -49431   -49441   -49454 
  -49468   -49477   -49478   -49473   -49451   -49418   -49395   -49392 
  -49391   -49385   -49381   -49392   -49404   -49399   -49387   -49383 
  -49389   -49404   -49428   -49446   -49447   -49447   -49464   -49489 
  -49513   -49531   -49540   -49551   -49562   -49558   -49546   -49528 
  -49500   -49473   -49443   -49411   -49376   -49341   -49304   -49279 
  -49262   -49239   -49212   -49181   -49145   -49119   -49115   -49115 
  -49100   -49075   -49049   -49026   -49002   -48982   -48959   -48926 
  -48892   -48864   -48841   -48840   -48864   -48883   -48895   -48913 
  -48926   -48928   -48925   -48928   -48941   -48972   -49014   -49056 
  -49087   -49117   -49148   -49185   -49222   -49231   -49219   -49219 
  -49249   -49295   -49331   -49368   -49411   -49455   -49504   -49553 
  -49589   -49619   -49651   -49680   -49708   -49738   -49759   -49777 
  -49800   -49835   -49877   -49901   -49905   -49901   -49893   -49873 
  -49850   -49840   -49842   -49844   -49844   -49836   -49823   -49824 
  -49836   -49844   -49839   -49819   -49805   -49810   -49813   -49793 
  -49771   -49769   -49775   -49779   -49773   -49762   -49755   -49751 
  -49751   -49756   -49765   -49777   -49797   -49806   -49804   -49792 
  -49770   -49740   -49712   -49686   -49654   -49608   -49565   -49527 
  -49485   -49441   -49396   -49354   -49308   -49256   -49212   -49189 
  -49185   -49173   -49140   -49106   -49090   -49079   -49072   -49069 
  -49065   -49060   -49061   -49060   -49056   -49040   -49013   -48992 
  -48984   -48982   -48991   -49002   -48996   -48994   -49000   -49009 
  -49015   -49022   -49019   -49010   -49014   -49034   -49069   -49117 
  -49164   -49215   -49285   -49349   -49387   -49411   -49438   -49470 
  -49501   -49534   -49567   -49589   -49596   -49599   -49589   -49572 
  -49562   -49555   -49543   -49520   -49500   -49488   -49470   -49445 
  -49426   -49418   -49407   -49387   -49360   -49330   -49300   -49272 
  -49242   -49204   -49172   -49148   -49113   -49054   -48988   -48938 
  -48905   -48868   -48818   -48760   -48709   -48668   -48643   -48635 
  -48641   -48662   -48695   -48733   -48766   -48791   -48820   -48848 
  -48879   -48919   -48971   -49017   -49049   -49068   -49083   -49108 
  -49145   -49175   -49195   -49219   -49258   -49295   -49311   -49311 
  -49314   -49329   -49347   -49360   -49365   -49369   -49380   -49399 
  -49426   -49458   -49489   -49507   -49511   -49512   -49516   -49522 
  -49520   -49509   -49485   -49451   -49423   -49418   -49415   -49384 
  -49333   -49289   -49260   -49243   -49233   -49210   -49173   -49131 
  -49090   -49063   -49065   -49081   -49094   -49106   -49119   -49130 
  -49142   -49164   -49181   -49194   -49210   -49231   -49268   -49310 
  -49333   -49349   -49368   -49380   -49383   -49373   -49349   -49326 
  -49314   -49289   -49246   -49207   -49173   -49140   -49103   -49065 
  -49023   -48975   -48932   -48905   -48883   -48856   -48834   -48832 
  -48841   -48848   -48852   -48852   -48851   -48857   -48865   -48867 
  -48879   -48895   -48910   -48933   -48963   -48988   -49010   -49037 
  -49068   -49088   -49090   -49087   -49083   -49084   -49103   -49126 
  -49148   -49175   -49200   -49225   -49253   -49269   -49276   -49287 
  -49296   -49295   -49284   -49277   -49281   -49281   -49269   -49256 
  -49239   -49219   -49204   -49191   -49172   -49153   -49135   -49121 
  -49107   -49094   -49079   -49061   -49040   -49011   -48978   -48948 
  -48934   -48930   -48929   -48926   -48929   -48945   -48965   -48973 
  -48973   -48979   -48994   -49022   -49057   -49083   -49106   -49131 
  -49160   -49200   -49250   -49300   -49346   -49399   -49466   -49532 
  -49588   -49638   -49681   -49713   -49746   -49786   -49840   -49893 
  -49920   -49923   -49924   -49929   -49928   -49918   -49910   -49900 
  -49882   -49860   -49843   -49825   -49810   -49793   -49767   -49734 
  -49701   -49669   -49638   -49607   -49574   -49550   -49534   -49511 
  -49477   -49441   -49410   -49391   -49374   -49353   -49334   -49318 
  -49300   -49285   -49279   -49289   -49308   -49324   -49331   -49327 
  -49312   -49299   -49300   -49306   -49307   -49311   -49318   -49330 
  -49341   -49343   -49335   -49323   -49310   -49300   -49295   -49285 
  -49270   -49268   -49280   -49293   -49308   -49323   -49339   -49365 
  -49393   -49397   -49380   -49365   -49354   -49331   -49296   -49249 
  -49199   -49154   -49113   -49069   -49034   -49019   -49022   -49018 
  -48999   -48976   -48955   -48934   -48921   -48911   -48894   -48878 
  -48868   -48853   -48833   -48813   -48797   -48797   -48809   -48814 
  -48822   -48838   -48855   -48880   -48921   -48972   -49022   -49057 
  -49086   -49126   -49179   -49222   -49243   -49258   -49277   -49296 
  -49312   -49320   -49315   -49302   -49292   -49280   -49268   -49257 
  -49243   -49230   -49216   -49207   -49212   -49230   -49250   -49266 
  -49280   -49295   -49310   -49324   -49343   -49358   -49360   -49345 
  -49319   -49285   -49239   -49185   -49127   -49073   -49022   -48971 
  -48907   -48833   -48772   -48728   -48693   -48664   -48632   -48598 
  -48573   -48559   -48567   -48586   -48602   -48625   -48660   -48702 
  -48756   -48816   -48874   -48930   -48996   -49064   -49125   -49176 
  -49225   -49269   -49304   -49333   -49364   -49391   -49418   -49449 
  -49476   -49496   -49519   -49555   -49590   -49605   -49616   -49626 
  -49612   -49588   -49572   -49558   -49543   -49524   -49499   -49465 
  -49424   -49374   -49316   -49258   -49199   -49129   -49045   -48951 
  -48861   -48782   -48698   -48601   -48506   -48425   -48348   -48270 
  -48208   -48165   -48130   -48108   -48091   -48065   -48043   -48030 
  -48018   -48014   -48028   -48064   -48103   -48147   -48207   -48277 
  -48342   -48408   -48478   -48541   -48605   -48697   -48806   -48894 
  -48964   -49041   -49130   -49219   -49297   -49368   -49435   -49497 
  -49551   -49609   -49670   -49724   -49771   -49815   -49867   -49924 
  -49972   -50016   -50058   -50103   -50156   -50209   -50252   -50286 
  -50309   -50329   -50350   -50367   -50375   -50369   -50344   -50299 
  -50249   -50199   -50141   -50086   -50036   -49986   -49933   -49882 
  -49823   -49754   -49680   -49607   -49536   -49469   -49411   -49362 
  -49316   -49272   -49227   -49188   -49157   -49135   -49125   -49118 
  -49107   -49096   -49102   -49117   -49140   -49175   -49211   -49234 
  -49256   -49292   -49341   -49380   -49404   -49420   -49427   -49427 
  -49420   -49408   -49391   -49373   -49354   -49342   -49350   -49376 
  -49400   -49427   -49464   -49501   -49543   -49597   -49659   -49715 
  -49751   -49779   -49820   -49867   -49905   -49928   -49948   -49971 
  -49993   -50013   -50032   -50043   -50041   -50035   -50033   -50039 
  -50036   -50029   -50028   -50026   -50021   -50014   -49999   -49974 
  -49943   -49918   -49891   -49851   -49815   -49788   -49756   -49724 
  -49693   -49659   -49630   -49607   -49578   -49546   -49513   -49476 
  -49431   -49383   -49329   -49269   -49203   -49125   -49034   -48944 
  -48863   -48795   -48730   -48667   -48612   -48570   -48543   -48539 
  -48544   -48541   -48535   -48531   -48528   -48523   -48523   -48524 
  -48517   -48508   -48496   -48474   -48448   -48412   -48363   -48316 
  -48278   -48240   -48204   -48181   -48172   -48168   -48169   -48181 
  -48197   -48216   -48243   -48271   -48298   -48325   -48346   -48357 
  -48365   -48385   -48417   -48448   -48467   -48475   -48487   -48508 
  -48535   -48568   -48604   -48636   -48667   -48703   -48744   -48782 
  -48817   -48844   -48857   -48872   -48888   -48906   -48930   -48945 
  -48942   -48928   -48913   -48902   -48906   -48915   -48919   -48918 
  -48915   -48911   -48913   -48914   -48918   -48929   -48946   -48965 
  -48984   -49007   -49022   -49036   -49064   -49095   -49118   -49144 
  -49172   -49198   -49222   -49245   -49261   -49283   -49316   -49346 
  -49357   -49358   -49365   -49377   -49388   -49389   -49387   -49391 
  -49401   -49411   -49419   -49434   -49447   -49465   -49484   -49495 
  -49496   -49497   -49492   -49477   -49461   -49453   -49439   -49412 
  -49391   -49377   -49368   -49364   -49358   -49341   -49315   -49288 
  -49258   -49229   -49196   -49158   -49122   -49091   -49057   -49023 
  -49006   -48999   -48995   -48998   -49010   -49022   -49033   -49045 
  -49061   -49076   -49090   -49111   -49130   -49149   -49172   -49192 
  -49206   -49222   -49248   -49279   -49304   -49324   -49357   -49408 
  -49468   -49536   -49605   -49670   -49738   -49808   -49869   -49925 
  -49989   -50063   -50130   -50183   -50230   -50268   -50295   -50309 
  -50314   -50319   -50330   -50342   -50344   -50330   -50317   -50315 
  -50322   -50328   -50328   -50330   -50336   -50332   -50317   -50306 
  -50302   -50295   -50282   -50268   -50257   -50241   -50215   -50186 
  -50147   -50091   -50025   -49958   -49897   -49847   -49792   -49725 
  -49651   -49569   -49491   -49432   -49391   -49353   -49322   -49295 
  -49272   -49264   -49269   -49270   -49270   -49276   -49281   -49287 
  -49289   -49283   -49266   -49243   -49216   -49189   -49158   -49121 
  -49084   -49049   -49011   -48972   -48928   -48882   -48844   -48814 
  -48787   -48764   -48743   -48716   -48687   -48660   -48635   -48612 
  -48594   -48583   -48579   -48587   -48613   -48649   -48683   -48717 
  -48759   -48801   -48840   -48887   -48940   -48995   -49050   -49099 
  -49146   -49192   -49231   -49261   -49287   -49306   -49308   -49303 
  -49297   -49297   -49312   -49329   -49338   -49353   -49372   -49378 
  -49372   -49362   -49356   -49349   -49345   -49341   -49337   -49333 
  -49327   -49326   -49335   -49346   -49362   -49381   -49391   -49392 
  -49389   -49383   -49373   -49362   -49345   -49323   -49300   -49269 
  -49234   -49198   -49156   -49106   -49060   -49007   -48946   -48886 
  -48832   -48776   -48709   -48636   -48563   -48490   -48413   -48328 
  -48249   -48169   -48076   -47972   -47877   -47795   -47723   -47661 
  -47610   -47565   -47528   -47506   -47507   -47526   -47557   -47607 
  -47682   -47776   -47876   -47979   -48089   -48203   -48307   -48404 
  -48501   -48597   -48686   -48770   -48853   -48933   -48999   -49050 
  -49090   -49123   -49154   -49189   -49231   -49275   -49311   -49349 
  -49392   -49439   -49492   -49557   -49634   -49719   -49805   -49894 
  -49987   -50083   -50184   -50284   -50380   -50475   -50568   -50657 
  -50741   -50815   -50881   -50938   -50976   -50996   -51013   -51027 
  -51030   -51016   -50990   -50958   -50916   -50869   -50812   -50742 
  -50669   -50599   -50521   -50430   -50325   -50207   -50090   -49968 
  -49833   -49688   -49540   -49397   -49258   -49119   -48979   -48848 
  -48732   -48625   -48532   -48456   -48389   -48332   -48289   -48251 
  -48219   -48199   -48190   -48197   -48211   -48230   -48263   -48313 
  -48367   -48421   -48477   -48540   -48610   -48682   -48752   -48822 
  -48886   -48941   -48990   -49033   -49073   -49104   -49121   -49129 
  -49134   -49135   -49134   -49138   -49149   -49153   -49152   -49152 
  -49150   -49146   -49145   -49145   -49157   -49181   -49206   -49227 
  -49256   -49293   -49335   -49381   -49430   -49477   -49519   -49563 
  -49613   -49665   -49701   -49721   -49744   -49774   -49806   -49831 
  -49844   -49843   -49831   -49816   -49800   -49777   -49759   -49755 
  -49758   -49758   -49759   -49765   -49774   -49783   -49794   -49809 
  -49825   -49833   -49833   -49835   -49843   -49860   -49882   -49906 
  -49931   -49950   -49960   -49975   -49994   -50010   -50026   -50048 
  -50067   -50074   -50076   -50082   -50090   -50087   -50079   -50072 
  -50075   -50082   -50087   -50098   -50118   -50137   -50149   -50164 
  -50184   -50199   -50207   -50214   -50213   -50193   -50166   -50133 
  -50091   -50035   -49967   -49891   -49816   -49735   -49644   -49553 
  -49459   -49365   -49273   -49179   -49081   -48991   -48903   -48813 
  -48724   -48636   -48551   -48469   -48389   -48315   -48243   -48174 
  -48116   -48078   -48055   -48039   -48023   -48001   -47981   -47970 
  -47964   -47965   -47983   -48014   -48051   -48095   -48141   -48186 
  -48240   -48301   -48363   -48423   -48473   -48510   -48541   -48575 
  -48612   -48643   -48667   -48685   -48691   -48689   -48686   -48685 
  -48672   -48656   -48643   -48625   -48600   -48570   -48539   -48509 
  -48490   -48477   -48462   -48448   -48439   -48435   -48443   -48460 
  -48487   -48527   -48573   -48621   -48681   -48753   -48834   -48913 
  -48991   -49067   -49138   -49211   -49285   -49356   -49422   -49477 
  -49519   -49550   -49570   -49581   -49593   -49605   -49612   -49617 
  -49617   -49607   -49590   -49576   -49554   -49527   -49505   -49481 
  -49447   -49411   -49368   -49314   -49258   -49204   -49148   -49087 
  -49019   -48956   -48905   -48867   -48836   -48817   -48809   -48805 
  -48810   -48847   -48913   -48988   -49065   -49152   -49254   -49369 
  -49489   -49612   -49735   -49860   -49983   -50098   -50215   -50336 
  -50450   -50557   -50653   -50733   -50795   -50843   -50877   -50892 
  -50889   -50876   -50854   -50812   -50751   -50685   -50610   -50517 
  -50404   -50291   -50175   -50044   -49901   -49763   -49635   -49507 
  -49378   -49250   -49131   -49027   -48925   -48828   -48747   -48681 
  -48614   -48547   -48486   -48435   -48389   -48348   -48319   -48300 
  -48289   -48289   -48303   -48325   -48358   -48401   -48450   -48497 
  -48550   -48614   -48687   -48762   -48836   -48909   -48986   -49068 
  -49146   -49222   -49289   -49343   -49391   -49438   -49486   -49538 
  -49590   -49643   -49689   -49727   -49762   -49794   -49820   -49847 
  -49875   -49891   -49897   -49898   -49890   -49871   -49846   -49808 
  -49763   -49721   -49675   -49623   -49574   -49531   -49482   -49435 
  -49392   -49345   -49297   -49258   -49218   -49183   -49164   -49150 
  -49134   -49121   -49111   -49099   -49086   -49068   -49053   -49041 
  -49027   -49010   -48984   -48959   -48940   -48921   -48892   -48860 
  -48825   -48793   -48763   -48737   -48713   -48682   -48644   -48604 
  -48562   -48521   -48489   -48459   -48421   -48377   -48332   -48282 
  -48228   -48182   -48149   -48126   -48104   -48087   -48082   -48084 
  -48093   -48122   -48165   -48216   -48288   -48373   -48459   -48551 
  -48651   -48756   -48864   -48969   -49076   -49185   -49297   -49408 
  -49516   -49621   -49723   -49820   -49913   -50005   -50095   -50182 
  -50264   -50337   -50395   -50445   -50488   -50521   -50550   -50575 
  -50585   -50587   -50585   -50577   -50561   -50539   -50515   -50487 
  -50454   -50414   -50371   -50328   -50287   -50240   -50188   -50141 
  -50093   -50037   -49974   -49901   -49816   -49727   -49634   -49538 
  -49435   -49327   -49216   -49104   -48994   -48886   -48784   -48693 
  -48598   -48498   -48401   -48315   -48239   -48170   -48105   -48053 
  -48008   -47970   -47939   -47918   -47908   -47910   -47915   -47929 
  -47961   -48007   -48066   -48127   -48188   -48258   -48335   -48412 
  -48489   -48566   -48641   -48717   -48791   -48863   -48929   -48992 
  -49049   -49095   -49131   -49167   -49200   -49230   -49257   -49284 
  -49312   -49338   -49364   -49391   -49423   -49459   -49499   -49542 
  -49594   -49642   -49684   -49731   -49782   -49827   -49858   -49878 
  -49894   -49909   -49914   -49906   -49893   -49885   -49885   -49879 
  -49877   -49881   -49886   -49894   -49909   -49918   -49921   -49928 
  -49944   -49955   -49964   -49970   -49970   -49966   -49958   -49947 
  -49929   -49897   -49852   -49805   -49759   -49711   -49661   -49612 
  -49558   -49505   -49459   -49411   -49364   -49324   -49287   -49252 
  -49231   -49227   -49230   -49235   -49242   -49253   -49273   -49297 
  -49322   -49356   -49397   -49438   -49477   -49519   -49559   -49600 
  -49644   -49685   -49716   -49742   -49758   -49761   -49761   -49763 
  -49767   -49767   -49765   -49761   -49751   -49736   -49713   -49682 
  -49648   -49617   -49584   -49545   -49500   -49454   -49408   -49362 
  -49310   -49254   -49199   -49148   -49104   -49061   -49015   -48965 
  -48910   -48852   -48798   -48749   -48701   -48654   -48612   -48570 
  -48525   -48482   -48440   -48400   -48366   -48334   -48303   -48274 
  -48247   -48220   -48195   -48170   -48147   -48128   -48111   -48095 
