Origin Time       2025/01/13 21:19:00
Lat.              31.8
Long.             131.6
Depth. (km)       30
Mag.              6.9
Station Code      HRSH18
Station Lat.      34.4572
Station Long.     132.7923
Station Height(m) 235
Record Time       2025/01/13 21:20:26
Sampling Freq(Hz) 100Hz
Duration Time(s)  133
Dir.              6
Scale Factor      7845(gal)/8223790
Max. Acc. (gal)   1.297
Last Correction   2025/01/13 21:20:27
Memo.             
[...]
  -25793   -25656   -25506   -25374   -25300   -25309   -25402   -25552 
  -25694   -25789   -25833   -25809   -25710   -25597   -25523   -25508 
  -25559   -25650   -25697   -25655   -25581   -25569   -25624   -25682 
  -25704   -25687   -25636   -25573   -25547   -25609   -25764   -25888 
  -25856   -25721   -25579   -25428   -25312   -25312   -25374   -25404 
  -25438   -25515   -25589   -25610   -25577   -25500   -25424   -25416 
  -25483   -25564   -25613   -25620   -25587   -25516   -25456   -25444 
  -25419   -25339   -25263   -25220   -25158   -25061   -24993   -25058 
  -25263   -25494   -25629   -25628   -25554   -25523   -25570   -25602 
  -25548   -25451   -25382   -25370   -25409   -25478   -25554   -25632 
  -25717   -25760   -25721   -25671   -25660   -25670   -25675   -25621 
  -25508   -25428   -25427   -25473   -25521   -25537   -25527   -25513 
  -25524   -25566   -25577   -25521   -25443   -25381   -25382   -25475 
  -25590   -25664   -25694   -25654   -25555   -25471   -25402   -25348 
  -25370   -25469   -25581   -25643   -25618   -25528   -25413   -25323 
  -25311   -25363   -25473   -25641   -25785   -25863   -25909   -25882 
  -25743   -25537   -25346   -25242   -25239   -25309   -25432   -25577 
  -25689   -25716   -25614   -25427   -25282   -25270   -25363   -25448 
  -25492   -25519   -25467   -25334   -25261   -25315   -25388   -25388 
  -25339   -25288   -25257   -25289   -25348   -25309   -25209   -25180 
  -25208   -25269   -25402   -25543   -25587   -25552   -25504   -25423 
  -25313   -25261   -25293   -25361   -25459   -25586   -25710   -25820 
  -25874   -25787   -25573   -25388   -25358   -25443   -25585   -25748 
  -25837   -25826   -25793   -25718   -25586   -25479   -25412   -25343 
  -25321   -25400   -25521   -25605   -25648   -25691   -25721   -25678 
  -25550   -25397   -25301   -25296   -25340   -25375   -25400   -25444 
  -25492   -25488   -25428   -25402   -25469   -25558   -25612   -25666 
  -25740   -25802   -25801   -25720   -25610   -25521   -25481   -25474 
  -25455   -25462   -25551   -25697   -25859   -25974   -25911   -25654 
  -25388   -25297   -25377   -25532   -25681   -25749   -25717   -25651 
  -25605   -25559   -25465   -25334   -25270   -25336   -25470   -25608 
  -25745   -25894   -26001   -25953   -25740   -25512   -25409   -25429 
  -25474   -25510   -25556   -25571   -25536   -25532   -25579   -25567 
  -25432   -25285   -25261   -25363   -25547   -25753   -25878   -25895 
  -25839   -25708   -25539   -25412   -25339   -25289   -25296   -25427 
  -25658   -25866   -25951   -25898   -25759   -25613   -25521   -25473 
  -25416   -25369   -25385   -25467   -25582   -25697   -25790   -25826 
  -25763   -25593   -25397   -25331   -25471   -25681   -25780   -25767 
  -25762   -25802   -25821   -25812   -25785   -25724   -25698   -25685 
  -25560   -25413   -25386   -25423   -25451   -25469   -25454   -25401 
  -25382   -25448   -25488   -25401   -25259   -25139   -25077   -25130 
  -25321   -25544   -25666   -25697   -25693   -25613   -25461   -25321 
  -25222   -25166   -25157   -25169   -25219   -25321   -25402   -25436 
  -25462   -25432   -25293   -25147   -25084   -25056   -25072   -25222 
  -25469   -25648   -25655   -25504   -25296   -25185   -25242   -25357 
  -25404   -25405   -25447   -25583   -25762   -25851   -25779   -25612 
  -25455   -25339   -25293   -25382   -25569   -25716   -25736   -25660 
  -25610   -25589   -25523   -25463   -25463   -25462   -25473   -25593 
  -25803   -25967   -26013   -25963   -25855   -25747   -25689   -25645 
  -25566   -25490   -25492   -25587   -25714   -25755   -25690   -25640 
  -25656   -25664   -25682   -25782   -25902   -25933   -25866   -25770 
  -25705   -25674   -25635   -25604   -25596   -25556   -25479   -25448 
  -25498   -25583   -25644   -25655   -25635   -25602   -25547   -25483 
  -25440   -25427   -25431   -25452   -25539   -25685   -25770   -25732 
  -25640   -25539   -25425   -25317   -25251   -25236   -25223   -25189 
  -25193   -25292   -25435   -25489   -25417   -25326   -25274   -25240 
  -25245   -25316   -25434   -25515   -25502   -25439   -25394   -25386 
  -25390   -25386   -25386   -25409   -25470   -25573   -25658   -25644 
  -25550   -25481   -25535   -25677   -25775   -25789   -25733   -25612 
  -25505   -25493   -25544   -25627   -25720   -25775   -25791   -25783 
  -25751   -25702   -25600   -25419   -25232   -25118   -25108   -25191 
  -25316   -25439   -25559   -25693   -25848   -25991   -26045   -25951 
  -25764   -25644   -25617   -25539   -25371   -25257   -25289   -25419 
  -25537   -25586   -25579   -25559   -25547   -25506   -25363   -25184 
  -25111   -25150   -25236   -25373   -25520   -25596   -25593   -25540 
  -25446   -25351   -25343   -25439   -25539   -25578   -25563   -25504 
  -25488   -25516   -25432   -25267   -25230   -25353   -25528   -25658 
  -25694   -25674   -25683   -25691   -25606   -25494   -25477   -25540 
  -25627   -25709   -25747   -25701   -25540   -25323   -25188   -25161 
  -25174   -25215   -25289   -25365   -25398   -25411   -25451   -25520 
  -25606   -25710   -25813   -25906   -25999   -26055   -26023   -25930 
  -25798   -25635   -25520   -25506   -25535   -25570   -25598   -25577 
  -25516   -25494   -25554   -25645   -25679   -25631   -25535   -25447 
  -25432   -25506   -25591   -25631   -25602   -25479   -25321   -25250 
  -25235   -25182   -25158   -25236   -25342   -25443   -25597   -25741 
  -25733   -25575   -25394   -25236   -25083   -24980   -24996   -25114 
  -25276   -25455   -25578   -25555   -25455   -25405   -25396   -25361 
  -25311   -25326   -25417   -25506   -25609   -25762   -25876   -25922 
  -25924   -25840   -25718   -25694   -25749   -25770   -25716   -25608 
  -25494   -25482   -25608   -25744   -25778   -25726   -25624   -25505 
  -25477   -25571   -25699   -25794   -25805   -25717   -25583   -25456 
  -25401   -25428   -25431   -25384   -25396   -25474   -25504   -25456 
  -25397   -25347   -25265   -25126   -24984   -24938   -25047   -25320 
  -25670   -25959   -26095   -26046   -25887   -25770   -25712   -25631 
  -25575   -25632   -25753   -25836   -25825   -25714   -25575   -25473 
  -25366   -25235   -25173   -25240   -25405   -25613   -25790   -25880 
  -25868   -25741   -25517   -25300   -25201   -25203   -25270   -25435 
  -25621   -25729   -25802   -25832   -25731   -25525   -25311   -25135 
  -25022   -25019   -25135   -25320   -25519   -25670   -25710   -25682 
  -25627   -25482   -25263   -25153   -25196   -25259   -25324   -25443 
  -25533   -25513   -25415   -25278   -25166   -25162   -25232   -25315 
  -25442   -25609   -25770   -25891   -25914   -25803   -25618   -25512 
  -25548   -25596   -25552   -25486   -25434   -25343   -25253   -25251 
  -25304   -25280   -25151   -25030   -25012   -25092   -25181   -25224 
  -25250   -25309   -25404   -25475   -25524   -25613   -25677   -25616 
  -25475   -25319   -25176   -25131   -25219   -25330   -25378   -25402 
  -25462   -25535   -25586   -25601   -25547   -25423   -25326   -25335 
  -25436   -25587   -25709   -25706   -25608   -25540   -25593   -25737 
  -25825   -25752   -25573   -25411   -25346   -25347   -25375   -25467 
  -25575   -25616   -25621   -25618   -25598   -25602   -25636   -25632 
  -25628   -25725   -25871   -25940   -25899   -25760   -25566   -25438 
  -25467   -25548   -25519   -25381   -25274   -25286   -25348   -25427 
  -25579   -25712   -25686   -25593   -25542   -25502   -25455   -25427 
  -25419   -25420   -25454   -25525   -25585   -25585   -25520   -25439 
  -25419   -25482   -25604   -25698   -25678   -25586   -25537   -25560 
  -25597   -25594   -25552   -25535   -25575   -25648   -25716   -25764 
  -25791   -25795   -25780   -25737   -25670   -25635   -25643   -25621 
  -25519   -25378   -25305   -25350   -25443   -25521   -25562   -25551 
  -25539   -25564   -25593   -25591   -25567   -25575   -25627   -25612 
  -25525   -25500   -25555   -25617   -25679   -25772   -25851   -25816 
  -25656   -25444   -25220   -25092   -25184   -25404   -25563   -25602 
  -25543   -25432   -25365   -25394   -25465   -25504   -25516   -25531 
  -25521   -25440   -25301   -25166   -25112   -25216   -25396   -25488 
  -25497   -25477   -25385   -25262   -25197   -25169   -25147   -25180 
  -25286   -25394   -25431   -25393   -25330   -25253   -25197   -25219 
  -25280   -25342   -25423   -25478   -25474   -25509   -25589   -25574 
  -25459   -25381   -25355   -25358   -25481   -25720   -25860   -25793 
  -25645   -25548   -25508   -25500   -25494   -25482   -25451   -25438 
  -25528   -25702   -25834   -25864   -25812   -25737   -25735   -25829 
  -25936   -25952   -25878   -25830   -25911   -26077   -26148   -26038 
  -25863   -25704   -25547   -25416   -25389   -25554   -25852   -26040 
  -26014   -25925   -25886   -25914   -26015   -26090   -26030   -25938 
  -25955   -26050   -26145   -26196   -26164   -26041   -25884   -25770 
  -25741   -25802   -25910   -25987   -25996   -25999   -25999   -25913 
  -25785   -25780   -25890   -25957   -25936   -25868   -25793   -25744 
  -25728   -25732   -25768   -25845   -25898   -25816   -25629   -25515 
  -25483   -25442   -25428   -25474   -25535   -25625   -25736   -25797 
  -25801   -25814   -25851   -25818   -25687   -25578   -25563   -25605 
  -25654   -25636   -25521   -25375   -25269   -25246   -25332   -25469 
  -25548   -25542   -25523   -25551   -25629   -25693   -25666   -25548 
  -25412   -25321   -25334   -25455   -25600   -25656   -25573   -25380 
  -25230   -25243   -25354   -25425   -25401   -25331   -25305   -25351 
  -25404   -25385   -25316   -25254   -25200   -25155   -25153   -25185 
  -25223   -25251   -25254   -25245   -25247   -25242   -25224   -25266 
  -25375   -25461   -25494   -25501   -25462   -25380   -25365   -25473 
  -25577   -25567   -25488   -25384   -25267   -25155   -25050   -24969 
  -24976   -25078   -25185   -25227   -25247   -25289   -25300   -25284 
  -25335   -25466   -25605   -25721   -25824   -25860   -25794   -25697 
  -25590   -25448   -25355   -25378   -25436   -25439   -25421   -25450 
  -25471   -25434   -25385   -25330   -25211   -25084   -25081   -25207 
  -25340   -25420   -25439   -25417   -25416   -25424   -25386   -25334 
  -25317   -25315   -25296   -25274   -25313   -25396   -25400   -25262 
  -25072   -25000   -25118   -25285   -25359   -25363   -25413   -25567 
  -25687   -25614   -25439   -25363   -25447   -25591   -25689   -25690 
  -25582   -25452   -25446   -25529   -25556   -25485   -25361   -25270 
  -25307   -25424   -25494   -25488   -25467   -25467   -25454   -25408 
  -25348   -25261   -25172   -25199   -25355   -25483   -25490   -25471 
  -25512   -25521   -25423   -25281   -25208   -25259   -25351   -25425 
  -25569   -25763   -25853   -25795   -25651   -25488   -25417   -25496 
  -25602   -25636   -25637   -25610   -25521   -25425   -25347   -25251 
  -25151   -25078   -25033   -25022   -25046   -25087   -25135   -25176 
  -25191   -25197   -25182   -25099   -24991   -24980   -25100   -25255 
  -25348   -25336   -25230   -25101   -25012   -24966   -24970   -25016 
  -25061   -25120   -25199   -25227   -25208   -25212   -25250   -25285 
  -25273   -25228   -25209   -25204   -25176   -25170   -25222   -25278 
  -25305   -25366   -25473   -25555   -25613   -25672   -25714   -25744 
  -25753   -25697   -25570   -25475   -25466   -25488   -25532   -25625 
  -25691   -25682   -25681   -25721   -25739   -25758   -25853   -25945 
  -25932   -25891   -25903   -25918   -25913   -25948   -26005   -26003 
  -25971   -25941   -25860   -25771   -25722   -25663   -25620   -25671 
  -25798   -25901   -25901   -25841   -25790   -25741   -25668   -25586 
  -25506   -25431   -25425   -25524   -25591   -25548   -25475   -25405 
  -25367   -25415   -25520   -25606   -25587   -25451   -25320   -25313 
  -25382   -25394   -25324   -25276   -25317   -25420   -25559   -25708 
  -25778   -25731   -25624   -25501   -25427   -25494   -25609   -25597 
  -25488   -25390   -25343   -25334   -25353   -25420   -25483   -25470 
  -25434   -25452   -25492   -25505   -25513   -25539   -25558   -25550 
  -25567   -25663   -25747   -25726   -25678   -25672   -25643   -25594 
  -25610   -25722   -25907   -26096   -26199   -26206   -26167   -26114 
  -26053   -26010   -26041   -26156   -26253   -26226   -26118   -26053 
  -26044   -25999   -25901   -25817   -25803   -25867   -25937   -25949 
  -25920   -25866   -25778   -25693   -25618   -25546   -25516   -25523 
  -25512   -25462   -25404   -25389   -25413   -25447   -25485   -25521 
  -25554   -25594   -25678   -25816   -25907   -25856   -25758   -25766 
  -25878   -25967   -25980   -25947   -25863   -25740   -25691   -25766 
  -25893   -26026   -26099   -26013   -25829   -25697   -25666   -25681 
  -25691   -25720   -25783   -25833   -25851   -25828   -25733   -25641 
  -25632   -25658   -25677   -25699   -25721   -25756   -25809   -25824 
  -25772   -25714   -25713   -25756   -25789   -25818   -25874   -25924 
  -25941   -25895   -25775   -25660   -25647   -25714   -25752   -25690 
  -25574   -25510   -25504   -25478   -25432   -25394   -25354   -25316 
  -25289   -25261   -25281   -25344   -25355   -25347   -25412   -25466 
  -25425   -25350   -25289   -25236   -25197   -25195   -25243   -25321 
  -25366   -25326   -25218   -25124   -25116   -25189   -25254   -25247 
  -25223   -25247   -25250   -25177   -25120   -25126   -25130   -25081 
  -24981   -24871   -24798   -24802   -24861   -24804   -24561   -24293 
  -24162   -24216   -24406   -24587   -24628   -24551   -24497   -24549 
  -24653   -24727   -24737   -24692   -24656   -24667   -24721   -24819 
  -24946   -25047   -25045   -24922   -24800   -24776   -24784   -24750 
  -24721   -24737   -24773   -24810   -24858   -24923   -24995   -25062 
  -25101   -25091   -25064   -25072   -25135   -25255   -25384   -25440 
  -25390   -25284   -25204   -25199   -25261   -25362   -25447   -25486 
  -25523   -25563   -25578   -25559   -25525   -25510   -25560   -25681 
  -25825   -25942   -26009   -26048   -26095   -26115   -26090   -26082 
  -26083   -26044   -25990   -25984   -26064   -26172   -26222   -26207 
  -26150   -26106   -26129   -26130   -26022   -25851   -25690   -25579 
  -25544   -25594   -25705   -25830   -25945   -26036   -26073   -26038 
  -25984   -26010   -26106   -26160   -26142   -26131   -26175   -26237 
  -26242   -26165   -26034   -25905   -25813   -25752   -25694   -25654 
  -25668   -25737   -25814   -25852   -25852   -25883   -25975   -26044 
  -26010   -25924   -25887   -25921   -25956   -25963   -25996   -26095 
  -26194   -26226   -26218   -26184   -26080   -25937   -25859   -25878 
  -25949   -26040   -26106   -26095   -26042   -26029   -26057   -26086 
  -26094   -26117   -26190   -26252   -26257   -26238   -26187   -26090 
  -25978   -25849   -25736   -25686   -25637   -25537   -25458   -25447 
  -25471   -25502   -25515   -25458   -25342   -25253   -25219   -25211 
  -25253   -25351   -25438   -25510   -25613   -25710   -25733   -25666 
  -25552   -25438   -25351   -25336   -25378   -25451   -25589   -25767 
  -25866   -25843   -25766   -25704   -25658   -25601   -25550   -25523 
  -25477   -25384   -25254   -25107   -24979   -24876   -24749   -24629 
  -24598   -24646   -24700   -24726   -24711   -24656   -24619   -24621 
  -24597   -24551   -24529   -24525   -24548   -24599   -24629   -24636 
  -24641   -24636   -24592   -24517   -24462   -24456   -24468   -24511 
  -24621   -24776   -24921   -24984   -24946   -24885   -24892   -24987 
  -25115   -25240   -25369   -25483   -25609   -25755   -25805   -25710 
  -25583   -25510   -25463   -25417   -25416   -25455   -25459   -25455 
  -25501   -25537   -25515   -25482   -25443   -25375   -25332   -25347 
  -25375   -25392   -25389   -25348   -25319   -25374   -25473   -25535 
  -25548   -25535   -25502   -25466   -25490   -25621   -25770   -25844 
  -25883   -25915   -25901   -25843   -25799   -25776   -25755   -25751 
  -25753   -25747   -25774   -25832   -25844   -25822   -25822   -25810 
  -25756   -25697   -25667   -25698   -25801   -25891   -25901   -25887 
  -25918   -25947   -25932   -25910   -25918   -25936   -25933   -25915 
  -25917   -25951   -25994   -25999   -25963   -25957   -26036   -26158 
  -26252   -26279   -26246   -26183   -26121   -26086   -26067   -26032 
  -26006   -26053   -26125   -26123   -26046   -25953   -25882   -25825 
  -25763   -25705   -25702   -25779   -25903   -26042   -26153   -26204 
  -26206   -26158   -26075   -26014   -25996   -25999   -26009   -25978 
  -25917   -25910   -25929   -25884   -25812   -25766   -25718   -25670 
  -25652   -25629   -25583   -25552   -25527   -25490   -25475   -25498 
  -25540   -25574   -25597   -25633   -25694   -25741   -25747   -25748 
  -25785   -25841   -25864   -25830   -25764   -25668   -25562   -25506 
  -25498   -25478   -25452   -25467   -25483   -25470   -25452   -25424 
  -25377   -25320   -25261   -25213   -25178   -25146   -25142   -25200 
  -25267   -25250   -25135   -25002   -24911   -24872   -24856   -24829 
  -24787   -24719   -24638   -24607   -24644   -24688   -24709   -24725 
  -24721   -24699   -24711   -24769   -24823   -24841   -24869   -24958 
  -25074   -25132   -25095   -25015   -24977   -25000   -25039   -25051 
  -25033   -25014   -25011   -25022   -25054   -25091   -25122   -25170 
  -25232   -25276   -25285   -25280   -25308   -25382   -25455   -25501 
  -25548   -25621   -25710   -25799   -25859   -25837   -25748   -25710 
  -25774   -25848   -25887   -25934   -25992   -26029   -26013   -25978 
  -25987   -26018   -26009   -25941   -25851   -25790   -25772   -25760 
  -25740   -25713   -25685   -25671   -25666   -25643   -25598   -25542 
  -25498   -25469   -25428   -25385   -25370   -25385   -25384   -25361 
  -25350   -25369   -25407   -25416   -25363   -25300   -25273   -25278 
  -25309   -25350   -25361   -25339   -25353   -25413   -25463   -25482 
  -25474   -25451   -25438   -25438   -25439   -25425   -25374   -25307 
  -25269   -25247   -25203   -25157   -25147   -25151   -25172   -25259 
  -25393   -25478   -25498   -25483   -25421   -25336   -25304   -25347 
  -25434   -25521   -25596   -25677   -25760   -25793   -25739   -25654 
  -25620   -25632   -25631   -25602   -25577   -25570   -25563   -25562 
  -25589   -25617   -25609   -25597   -25617   -25621   -25600   -25606 
  -25610   -25529   -25386   -25273   -25212   -25169   -25153   -25173 
  -25180   -25169   -25177   -25180   -25153   -25118   -25083   -25061 
  -25070   -25093   -25120   -25153   -25172   -25165   -25149   -25155 
  -25189   -25222   -25249   -25266   -25274   -25319   -25401   -25488 
  -25564   -25606   -25606   -25625   -25683   -25726   -25724   -25714 
  -25759   -25852   -25925   -25957   -26001   -26065   -26111   -26113 
  -26086   -26052   -25992   -25922   -25886   -25878   -25878   -25874 
  -25843   -25795   -25758   -25724   -25686   -25660   -25672   -25709 
  -25724   -25713   -25698   -25675   -25664   -25686   -25693   -25655 
  -25627   -25652   -25699   -25735   -25759   -25752   -25720   -25712 
  -25722   -25721   -25709   -25693   -25678   -25682   -25733   -25822 
  -25867   -25810   -25708   -25633   -25614   -25650   -25704   -25731 
  -25744   -25775   -25797   -25803   -25812   -25790   -25704   -25586 
  -25504   -25504   -25577   -25654   -25677   -25659   -25637   -25644 
