Origin Time       2025/01/13 21:19:00
Lat.              31.8
Long.             131.6
Depth. (km)       30
Mag.              6.9
Station Code      HRSH16
Station Lat.      34.6629
Station Long.     132.6689
Station Height(m) 180
Record Time       2025/01/13 21:21:06
Sampling Freq(Hz) 100Hz
Duration Time(s)  120
Dir.              2
Scale Factor      2942(gal)/8224139
Max. Acc. (gal)   1.694
Last Correction   2025/01/13 21:21:07
Memo.             
[...]
  232384   232398   232421   232449   232471   232501   232549   232596 
  232622   232623   232614   232611   232627   232649   232654   232642 
  232630   232617   232590   232567   232580   232622   232646   232646 
  232645   232652   232668   232687   232725   232785   232823   232818 
  232806   232800   232807   232841   232881   232889   232864   232827 
  232811   232822   232816   232779   232744   232713   232684   232677 
  232683   232673   232656   232634   232599   232571   232564   232559 
  232564   232582   232590   232591   232603   232623   232656   232688 
  232710   232727   232727   232706   232695   232696   232706   232740 
  232768   232765   232754   232749   232746   232760   232772   232773 
  232796   232842   232877   232900   232910   232904   232912   232934 
  232942   232922   232877   232834   232816   232798   232762   232746 
  232764   232788   232792   232781   232792   232818   232811   232787 
  232796   232822   232823   232783   232719   232668   232649   232653 
  232656   232669   232700   232721   232714   232704   232700   232710 
  232746   232781   232789   232794   232815   232846   232880   232899 
  232876   232821   232777   232748   232702   232650   232633   232638 
  232625   232595   232576   232571   232568   232564   232563   232573 
  232569   232555   232572   232613   232659   232715   232767   232779 
  232767   232762   232762   232762   232771   232796   232850   232899 
  232892   232860   232843   232831   232839   232887   232939   232961 
  232953   232931   232899   232856   232802   232758   232744   232742 
  232707   232633   232582   232572   232568   232561   232534   232467 
  232387   232332   232314   232320   232329   232349   232379   232399 
  232399   232397   232409   232440   232497   232553   232596   232645 
  232688   232714   232756   232800   232814   232831   232850   232816 
  232749   232717   232729   232760   232796   232843   232880   232889 
  232896   232908   232907   232904   232914   232906   232900   232950 
  233028   233065   233043   233004   232980   232962   232942   232912 
  232887   232876   232884   232919   232960   232973   232983   232995 
  232973   232929   232885   232843   232814   232785   232740   232708 
  232717   232758   232806   232811   232788   232775   232780   232823 
  232897   232980   233041   233034   232939   232812   232713   232661 
  232642   232619   232580   232552   232534   232507   232468   232436 
  232438   232471   232490   232497   232495   232467   232451   232491 
  232565   232649   232718   232741   232722   232694   232675   232669 
  232663   232650   232638   232640   232663   232668   232629   232602 
  232621   232645   232668   232679   232632   232552   232499   232490 
  232507   232511   232475   232451   232488   232571   232634   232629 
  232571   232542   232572   232629   232672   232669   232637   232638 
  232704   232804   232885   232918   232918   232938   232996   233030 
  233010   232974   232943   232933   232954   232951   232895   232842 
  232819   232811   232819   232857   232897   232914   232914   232889 
  232808   232696   232649   232688   232748   232771   232718   232621 
  232557   232549   232587   232625   232592   232549   232573   232591 
  232555   232524   232522   232529   232514   232488   232517   232590 
  232629   232652   232659   232588   232509   232515   232560   232605 
  232668   232731   232761   232738   232673   232633   232659   232707 
  232729   232758   232833   232879   232843   232780   232721   232659 
  232621   232599   232572   232555   232544   232522   232509   232552 
  232661   232765   232784   232727   232669   232638   232588   232515 
  232453   232401   232360   232376   232465   232556   232582   232567 
  232572   232596   232615   232630   232641   232609   232546   232525 
  232560   232622   232702   232781   232819   232803   232730   232618 
  232545   232559   232599   232626   232630   232596   232534   232491 
  232497   232542   232602   232671   232730   232754   232746   232706 
  232659   232672   232741   232798   232825   232845   232857   232865 
  232888   232937   232987   232997   232956   232906   232880   232868 
  232881   232920   232962   233015   233058   233028   232937   232861 
  232849   232884   232943   233027   233072   233019   232907   232775 
  232652   232600   232650   232737   232785   232769   232710   232676 
  232715   232780   232781   232714   232642   232602   232575   232567 
  232618   232710   232748   232703   232648   232619   232596   232568 
  232557   232586   232641   232668   232636   232559   232443   232308 
  232243   232306   232449   232591   232681   232729   232723   232625 
  232505   232457   232463   232494   232578   232679   232746   232796 
  232833   232831   232810   232772   232707   232656   232667   232717 
  232749   232760   232775   232781   232757   232700   232646   232632 
  232667   232733   232792   232814   232785   232730   232691   232667 
  232664   232703   232768   232829   232876   232902   232922   232968 
  233026   233076   233095   233046   232937   232829   232757   232742 
  232779   232829   232876   232907   232902   232862   232792   232725 
  232714   232711   232677   232648   232578   232452   232367   232360 
  232387   232430   232492   232552   232582   232573   232533   232483 
  232483   232517   232519   232503   232503   232506   232498   232484 
  232515   232619   232758   232880   232922   232850   232750   232707 
  232708   232731   232771   232818   232857   232884   232941   233037 
  233126   233165   233163   233154   233163   233176   233134   233037 
  232966   232958   232961   232946   232941   232953   232950   232935 
  232949   232961   232926   232885   232884   232888   232865   232827 
  232807   232788   232742   232679   232637   232634   232650   232671 
  232714   232775   232799   232733   232602   232497   232478   232559 
  232713   232850   232892   232812   232694   232661   232748   232873 
  232919   232823   232665   232557   232526   232544   232561   232548 
  232517   232528   232584   232623   232621   232578   232495   232417 
  232401   232457   232549   232602   232578   232529   232544   232636 
  232733   232808   232887   232929   232884   232779   232630   232497 
  232510   232669   232816   232887   232916   232914   232864   232814 
  232811   232834   232875   232946   233026   233100   233170   233190 
  233151   233089   233034   233004   233010   233058   233147   233216 
  233207   233139   233076   233049   233041   233024   233005   232974 
  232903   232830   232806   232802   232768   232700   232632   232596 
  232541   232451   232424   232505   232633   232729   232753   232719 
  232638   232540   232507   232560   232633   232698   232777   232833 
  232815   232738   232663   232649   232663   232642   232638   232707 
  232816   232910   232976   233003   232957   232858   232775   232740 
  232758   232792   232780   232738   232723   232717   232684   232626 
  232579   232567   232572   232582   232594   232591   232600   232673 
  232761   232784   232803   232858   232865   232815   232798   232829 
  232868   232912   232930   232902   232893   232903   232860   232808 
  232800   232807   232834   232865   232873   232865   232823   232730 
  232660   232669   232706   232711   232723   232785   232856   232876 
  232850   232831   232861   232900   232885   232842   232788   232700 
  232632   232642   232694   232734   232749   232729   232702   232721 
  232750   232703   232590   232528   232573   232642   232665   232660 
  232633   232590   232561   232538   232488   232413   232367   232422 
  232564   232696   232788   232868   232893   232823   232711   232614 
  232517   232411   232353   232394   232483   232525   232521   232522 
  232533   232532   232509   232510   232521   232486   232445   232437 
  232425   232398   232367   232355   232378   232413   232471   232551 
  232598   232607   232571   232503   232495   232571   232690   232834 
  232977   233065   233051   232962   232899   232934   233034   233131 
  233166   233122   233078   233080   233069   233069   233131   233178 
  233136   233034   232947   232922   232954   233024   233091   233111 
  233076   233012   232950   232915   232910   232916   232933   232972 
  233018   233004   232912   232826   232827   232888   232946   232974 
  232945   232848   232738   232663   232625   232645   232707   232762 
  232764   232696   232630   232610   232591   232573   232588   232636 
  232695   232731   232742   232741   232684   232569   232480   232460 
  232491   232533   232529   232452   232351   232293   232266   232240 
  232262   232332   232347   232313   232345   232436   232503   232557 
  232582   232533   232467   232480   232557   232636   232690   232703 
  232675   232621   232537   232438   232395   232437   232510   232578 
  232656   232734   232768   232748   232710   232700   232699   232665 
  232619   232611   232660   232741   232794   232812   232819   232839 
  232907   233008   233099   233178   233265   233286   233163   232984 
  232911   232969   233061   233103   233076   232985   232904   232902 
  232910   232860   232796   232762   232737   232663   232551   232476 
  232448   232421   232428   232476   232510   232536   232588   232634 
  232637   232622   232625   232653   232687   232715   232714   232654 
  232606   232625   232669   232719   232781   232807   232761   232667 
  232560   232491   232486   232461   232380   232335   232355   232387 
  232407   232436   232484   232521   232514   232514   232533   232510 
  232459   232421   232398   232409   232449   232457   232368   232229 
  232164   232198   232232   232221   232209   232191   232116   232036 
  232075   232208   232293   232294   232297   232310   232283   232299 
  232459   232696   232896   232997   232991   232941   232929   232949 
  232964   232983   233046   233135   233181   233161   233132   233140 
  233174   233176   233115   233073   233124   233234   233350   233415 
  233385   233325   233274   233170   233037   232970   232974   233010 
  233039   233030   232983   232923   232843   232777   232781   232819 
  232822   232798   232781   232776   232758   232704   232636   232575 
  232514   232465   232463   232511   232559   232538   232445   232310 
  232168   232050   231954   231873   231819   231765   231680   231630 
  231682   231747   231730   231664   231634   231650   231664   231684 
  231728   231781   231854   231898   231859   231826   231844   231836 
  231803   231807   231839   231859   231865   231855   231831   231816 
  231822   231815   231780   231747   231724   231691   231666   231672 
  231657   231610   231580   231583   231620   231692   231719   231658 
  231574   231534   231572   231684   231799   231881   231924   231919 
  231886   231835   231768   231739   231773   231808   231808   231763 
  231673   231601   231610   231665   231720   231757   231773   231789 
  231826   231892   231939   231921   231896   231938   232039   232144 
  232209   232231   232229   232222   232251   232321   232378   232411 
  232456   232499   232518   232532   232538   232506   232456   232443 
  232468   232502   232529   232567   232617   232645   232646   232657 
  232686   232707   232683   232607   232545   232541   232573   232588 
  232592   232652   232783   232910   232942   232857   232772   232795 
  232897   233010   233091   233115   233099   233086   233088   233111 
  233174   233254   233305   233328   233323   233304   233305   233327 
  233340   233361   233383   233356   233305   233325   233401   233435 
  233440   233494   233586   233637   233637   233626   233628   233625 
  233626   233671   233760   233847   233878   233832   233761   233721 
  233720   233743   233740   233713   233722   233772   233834   233910 
  233968   233973   233965   233982   234014   234061   234119   234160 
  234214   234307   234404   234507   234580   234594   234616   234654 
  234663   234658   234646   234652   234689   234723   234754   234789 
  234817   234862   234908   234897   234877   234927   235010   235037 
  235013   235001   235048   235132   235171   235136   235075   235057 
  235121   235210   235249   235271   235279   235253   235248   235284 
  235323   235376   235440   235449   235380   235305   235246   235180 
  235167   235255   235341   235338   235278   235175   235036   234921 
  234844   234770   234693   234627   234597   234616   234625   234573 
  234484   234381   234260   234168   234154   234157   234114   234060 
  233992   233860   233687   233540   233417   233313   233251   233235 
  233254   233274   233212   233047   232895   232811   232744   232703 
  232707   232706   232680   232646   232609   232573   232556   232573 
  232618   232642   232626   232594   232552   232537   232599   232710 
  232804   232902   233023   233112   233115   233099   233142   233201 
  233212   233223   233292   233375   233400   233356   233302   233226 
  233105   233027   233035   233069   233092   233103   233078   233004 
  232892   232776   232706   232694   232669   232572   232430   232256 
  232060   231930   231871   231784   231626   231449   231306   231187 
  231021   230798   230592   230476   230419   230353   230274   230184 
  230064   229932   229814   229744   229701   229616   229467   229285 
  229093   228904   228748   228640   228541   228433   228341   228280 
  228236   228167   228075   228002   227971   227975   228027   228123 
  228210   228256   228285   228336   228430   228541   228649   228800 
  229004   229173   229252   229324   229455   229613   229802   230037 
  230234   230327   230347   230362   230413   230534   230710   230889 
  231057   231199   231255   231286   231390   231534   231672   231830 
  232012   232190   232333   232437   232522   232621   232737   232822 
  232868   232947   233091   233239   233346   233435   233531   233622 
  233687   233736   233793   233853   233932   234042   234164   234268 
  234328   234328   234296   234280   234315   234368   234341   234249 
  234191   234198   234234   234262   234252   234187   234092   234021 
  234030   234102   234172   234193   234168   234130   234085   234015 
  233956   233915   233841   233744   233697   233698   233674   233601 
  233521   233432   233304   233169   233080   233005   232906   232794 
  232692   232580   232413   232210   232008   231824   231715   231682 
  231634   231537   231450   231403   231391   231390   231367   231361 
  231421   231527   231628   231699   231768   231847   231912   231978 
  232112   232299   232464   232594   232723   232850   232962   233066 
  233157   233273   233443   233606   233721   233842   233995   234127 
  234214   234295   234374   234416   234438   234499   234586   234639 
  234663   234715   234798   234854   234840   234766   234678   234639 
  234611   234563   234536   234492   234388   234295   234273   234287 
  234283   234258   234223   234150   234038   233914   233794   233707 
  233678   233662   233598   233504   233416   233324   233230   233142 
  233058   232978   232899   232814   232750   232714   232654   232545 
  232464   232448   232437   232413   232420   232459   232511   232544 
  232525   232459   232371   232317   232321   232357   232428   232484 
  232475   232447   232429   232383   232320   232255   232191   232167 
  232212   232286   232326   232352   232397   232428   232429   232452 
  232507   232519   232479   232467   232525   232622   232688   232665 
  232590   232555   232584   232638   232672   232673   232669   232684 
  232690   232642   232556   232459   232387   232382   232382   232316 
  232225   232147   232040   231903   231809   231786   231757   231666 
  231537   231394   231250   231140   231057   230979   230891   230786 
  230666   230534   230403   230304   230229   230152   230114   230152 
  230185   230145   230091   230094   230143   230208   230276   230351 
  230420   230459   230499   230590   230721   230831   230914   231009 
  231115   231191   231206   231202   231209   231203   231188   231198 
  231229   231260   231300   231356   231429   231512   231568   231583 
  231591   231608   231638   231723   231870   232020   232119   232189 
  232272   232364   232438   232534   232706   232891   233019   233127 
  233240   233346   233415   233433   233473   233585   233699   233779 
  233852   233919   233987   234061   234145   234243   234326   234370 
  234395   234438   234500   234531   234524   234503   234482   234490 
  234493   234461   234462   234493   234478   234447   234439   234418 
  234380   234353   234335   234327   234335   234331   234308   234277 
  234225   234165   234139   234123   234064   233960   233860   233798 
  233741   233660   233608   233594   233532   233420   233356   233342 
  233323   233298   233271   233235   233200   233153   233082   233020 
  232995   232977   232916   232834   232788   232762   232718   232681 
  232652   232578   232484   232418   232363   232313   232291   232305 
  232325   232298   232236   232179   232106   231998   231916   231882 
  231843   231776   231707   231676   231700   231723   231688   231633 
  231595   231587   231619   231677   231723   231755   231809   231876 
  231919   231965   232051   232167   232282   232383   232484   232596 
  232731   232914   233120   233292   233427   233579   233761   233948 
  234129   234331   234543   234719   234848   234963   235090   235236 
  235381   235496   235580   235669   235761   235822   235840   235830 
  235795   235753   235730   235723   235687   235606   235507   235394 
  235261   235118   234972   234844   234736   234605   234424   234211 
  234007   233810   233608   233454   233354   233234   233070   232893 
  232706   232524   232368   232233   232113   232006   231882   231727 
  231561   231399   231259   231145   231052   230960   230854   230735 
  230627   230528   230428   230350   230299   230237   230160   230098 
  230058   230029   230000   229967   229917   229872   229864   229894 
  229933   229964   229998   230067   230180   230316   230432   230509 
  230575   230650   230706   230758   230824   230894   230970   231057 
  231141   231218   231295   231353   231390   231414   231422   231429 
  231448   231485   231554   231642   231722   231774   231819   231898 
  232008   232082   232119   232179   232255   232293   232299   232298 
  232306   232343   232402   232455   232482   232488   232491   232484 
  232455   232428   232438   232467   232494   232524   232541   232533 
  232513   232479   232417   232343   232313   232330   232351   232374 
  232411   232434   232455   232499   232549   232592   232644   232710 
  232771   232837   232926   233020   233108   233205   233323   233478 
  233653   233821   233969   234099   234211   234314   234415   234524 
  234639   234746   234829   234882   234910   234918   234914   234916 
  234918   234897   234844   234767   234661   234522   234358   234166 
  233964   233779   233602   233400   233174   232951   232744   232537 
  232325   232104   231873   231645   231433   231245   231093   230974 
  230872   230763   230644   230546   230469   230388   230326   230318 
  230368   230454   230553   230634   230670   230685   230717   230767 
