Origin Time       2025/01/13 21:19:00
Lat.              31.8
Long.             131.6
Depth. (km)       30
Mag.              6.9
Station Code      HRSH04
Station Lat.      34.3785
Station Long.     133.3493
Station Height(m) -175
Record Time       2025/01/13 21:20:43
Sampling Freq(Hz) 100Hz
Duration Time(s)  129
Dir.              3
Scale Factor      3923(gal)/8224838
Max. Acc. (gal)   0.991
Last Correction   2025/01/13 21:20:43
Memo.             
[...]
  -37498   -37504   -37501   -37488   -37481   -37480   -37454   -37415 
  -37385   -37363   -37349   -37331   -37301   -37273   -37262   -37257 
  -37254   -37243   -37212   -37168   -37130   -37093   -37053   -37019 
  -36992   -36965   -36942   -36933   -36931   -36925   -36921   -36925 
  -36927   -36937   -36967   -37003   -37035   -37072   -37116   -37161 
  -37197   -37220   -37237   -37245   -37238   -37233   -37246   -37265 
  -37273   -37273   -37273   -37272   -37277   -37304   -37341   -37372 
  -37393   -37411   -37426   -37447   -37469   -37488   -37508   -37528 
  -37544   -37571   -37605   -37632   -37652   -37671   -37694   -37728 
  -37764   -37794   -37814   -37829   -37836   -37840   -37848   -37855 
  -37852   -37848   -37844   -37840   -37833   -37835   -37841   -37840 
  -37825   -37800   -37773   -37760   -37764   -37766   -37759   -37748 
  -37735   -37721   -37704   -37669   -37631   -37605   -37585   -37566 
  -37555   -37548   -37539   -37516   -37477   -37430   -37384   -37345 
  -37318   -37299   -37282   -37276   -37276   -37270   -37260   -37258 
  -37270   -37288   -37305   -37331   -37365   -37399   -37436   -37478 
  -37521   -37559   -37589   -37615   -37639   -37655   -37667   -37679 
  -37692   -37712   -37735   -37741   -37735   -37724   -37712   -37704 
  -37705   -37709   -37708   -37692   -37666   -37636   -37597   -37569 
  -37554   -37531   -37512   -37512   -37524   -37551   -37586   -37605 
  -37613   -37627   -37632   -37623   -37619   -37619   -37611   -37598 
  -37596   -37602   -37611   -37609   -37600   -37597   -37606   -37615 
  -37609   -37593   -37577   -37563   -37557   -37558   -37561   -37557 
  -37548   -37543   -37551   -37574   -37592   -37593   -37590   -37575 
  -37557   -37550   -37555   -37566   -37573   -37569   -37558   -37544 
  -37535   -37524   -37519   -37525   -37542   -37548   -37543   -37540 
  -37539   -37542   -37544   -37532   -37515   -37505   -37504   -37507 
  -37511   -37521   -37538   -37550   -37544   -37525   -37516   -37520 
  -37520   -37512   -37511   -37508   -37484   -37453   -37435   -37422 
  -37411   -37405   -37401   -37392   -37376   -37349   -37320   -37304 
  -37293   -37288   -37288   -37289   -37278   -37257   -37235   -37220 
  -37219   -37227   -37237   -37254   -37273   -37284   -37287   -37284 
  -37284   -37292   -37305   -37320   -37341   -37366   -37382   -37386 
  -37386   -37388   -37393   -37390   -37377   -37372   -37374   -37378 
  -37382   -37385   -37386   -37385   -37378   -37376   -37378   -37381 
  -37376   -37361   -37335   -37305   -37277   -37245   -37212   -37187 
  -37166   -37152   -37143   -37141   -37145   -37139   -37114   -37089 
  -37084   -37077   -37062   -37066   -37088   -37108   -37120   -37125 
  -37130   -37139   -37145   -37147   -37154   -37172   -37191   -37207 
  -37216   -37218   -37210   -37196   -37173   -37153   -37146   -37152 
  -37161   -37164   -37162   -37161   -37170   -37191   -37218   -37249 
  -37277   -37300   -37312   -37324   -37349   -37380   -37405   -37434 
  -37474   -37519   -37558   -37584   -37596   -37601   -37608   -37624 
  -37662   -37706   -37728   -37735   -37739   -37736   -37737   -37755 
  -37777   -37787   -37797   -37813   -37832   -37844   -37844   -37840 
  -37837   -37837   -37829   -37817   -37816   -37825   -37829   -37822 
  -37809   -37786   -37766   -37750   -37733   -37714   -37694   -37677 
  -37669   -37667   -37670   -37662   -37640   -37624   -37627   -37644 
  -37671   -37696   -37702   -37701   -37713   -37736   -37750   -37755 
  -37767   -37786   -37809   -37843   -37889   -37926   -37947   -37963 
  -37982   -38002   -38024   -38048   -38068   -38086   -38099   -38115 
  -38140   -38159   -38173   -38191   -38206   -38214   -38223   -38237 
  -38254   -38268   -38265   -38260   -38254   -38238   -38218   -38192 
  -38153   -38103   -38053   -38014   -37987   -37959   -37928   -37898 
  -37866   -37840   -37818   -37802   -37798   -37798   -37789   -37778 
  -37773   -37763   -37750   -37739   -37728   -37721   -37728   -37741 
  -37748   -37750   -37754   -37760   -37762   -37751   -37732   -37717 
  -37702   -37682   -37654   -37619   -37584   -37548   -37515   -37482 
  -37446   -37407   -37374   -37350   -37326   -37295   -37264   -37241 
  -37224   -37218   -37219   -37219   -37218   -37218   -37214   -37208 
  -37201   -37185   -37164   -37154   -37147   -37138   -37137   -37135 
  -37119   -37092   -37066   -37046   -37019   -36992   -36977   -36968 
  -36956   -36950   -36952   -36957   -36958   -36949   -36934   -36917 
  -36898   -36883   -36877   -36872   -36863   -36845   -36819   -36792 
  -36775   -36759   -36736   -36707   -36679   -36653   -36630   -36616 
  -36612   -36614   -36612   -36597   -36579   -36570   -36566   -36567 
  -36578   -36602   -36637   -36675   -36710   -36741   -36763   -36780 
  -36796   -36813   -36829   -36845   -36861   -36876   -36890   -36906 
  -36925   -36956   -36991   -37022   -37054   -37091   -37127   -37168 
  -37212   -37260   -37312   -37363   -37411   -37461   -37508   -37554 
  -37608   -37670   -37728   -37777   -37825   -37872   -37913   -37944 
  -37978   -38017   -38045   -38074   -38114   -38156   -38192   -38219 
  -38240   -38257   -38275   -38296   -38317   -38329   -38334   -38340 
  -38345   -38349   -38353   -38365   -38376   -38377   -38371   -38368 
  -38369   -38361   -38335   -38300   -38257   -38205   -38141   -38074 
  -38005   -37939   -37883   -37843   -37818   -37801   -37790   -37777 
  -37751   -37721   -37685   -37644   -37609   -37578   -37550   -37521 
  -37488   -37450   -37422   -37399   -37386   -37388   -37388   -37369 
  -37336   -37303   -37274   -37261   -37260   -37262   -37260   -37255 
  -37254   -37255   -37257   -37262   -37265   -37268   -37282   -37303 
  -37323   -37346   -37365   -37377   -37390   -37401   -37409   -37430 
  -37455   -37481   -37508   -37531   -37550   -37569   -37586   -37612 
  -37643   -37677   -37714   -37750   -37782   -37813   -37841   -37855 
  -37856   -37855   -37859   -37863   -37852   -37840   -37833   -37827 
  -37813   -37797   -37779   -37764   -37743   -37708   -37665   -37627 
  -37596   -37557   -37516   -37476   -37428   -37373   -37322   -37281 
  -37250   -37226   -37196   -37157   -37118   -37080   -37041   -37006 
  -36976   -36945   -36911   -36884   -36865   -36849   -36833   -36822 
  -36814   -36803   -36780   -36752   -36726   -36709   -36698   -36694 
  -36697   -36697   -36688   -36687   -36697   -36711   -36725   -36738 
  -36763   -36799   -36836   -36864   -36904   -36950   -36992   -37037 
  -37083   -37130   -37181   -37231   -37274   -37324   -37395   -37473 
  -37543   -37609   -37669   -37713   -37747   -37785   -37833   -37886 
  -37933   -37980   -38029   -38061   -38083   -38099   -38109   -38111 
  -38118   -38119   -38109   -38088   -38057   -38007   -37955   -37906 
  -37847   -37774   -37702   -37638   -37575   -37517   -37467   -37427 
  -37390   -37355   -37326   -37293   -37254   -37216   -37181   -37153 
  -37129   -37104   -37080   -37053   -37025   -37008   -37015   -37044 
  -37080   -37099   -37110   -37127   -37145   -37170   -37210   -37255 
  -37307   -37359   -37409   -37462   -37519   -37575   -37636   -37692 
  -37739   -37768   -37789   -37817   -37854   -37897   -37949   -37999 
  -38043   -38082   -38110   -38136   -38159   -38184   -38219   -38253 
  -38280   -38303   -38325   -38346   -38373   -38403   -38431   -38457 
  -38483   -38510   -38534   -38549   -38553   -38553   -38547   -38535 
  -38520   -38500   -38473   -38446   -38416   -38377   -38325   -38267 
  -38205   -38132   -38052   -37963   -37860   -37750   -37629   -37505 
  -37388   -37277   -37173   -37075   -36975   -36880   -36790   -36697 
  -36605   -36522   -36454   -36394   -36342   -36288   -36234   -36189 
  -36163   -36155   -36155   -36153   -36159   -36188   -36231   -36274 
  -36309   -36340   -36371   -36404   -36435   -36470   -36508   -36549 
  -36599   -36659   -36714   -36759   -36801   -36840   -36876   -36918 
  -36964   -37003   -37045   -37098   -37152   -37204   -37253   -37296 
  -37336   -37374   -37407   -37442   -37476   -37507   -37539   -37573 
  -37600   -37632   -37673   -37721   -37773   -37827   -37876   -37926 
  -37982   -38036   -38079   -38118   -38152   -38179   -38205   -38232 
  -38252   -38271   -38291   -38307   -38315   -38322   -38329   -38338 
  -38346   -38352   -38356   -38358   -38360   -38360   -38348   -38325 
  -38300   -38273   -38246   -38221   -38184   -38140   -38092   -38044 
  -38002   -37959   -37903   -37852   -37804   -37750   -37694   -37633 
  -37571   -37517   -37467   -37419   -37374   -37336   -37295   -37246 
  -37197   -37153   -37103   -37041   -36977   -36914   -36855   -36813 
  -36782   -36749   -36718   -36690   -36670   -36651   -36625   -36597 
  -36568   -36537   -36512   -36494   -36481   -36464   -36448   -36436 
  -36433   -36443   -36462   -36478   -36486   -36497   -36509   -36524 
  -36559   -36617   -36680   -36747   -36810   -36871   -36931   -37002 
  -37089   -37185   -37282   -37382   -37485   -37598   -37714   -37824 
  -37929   -38037   -38144   -38242   -38335   -38419   -38492   -38557 
  -38603   -38626   -38643   -38659   -38669   -38678   -38693   -38700 
  -38699   -38697   -38689   -38677   -38657   -38620   -38569   -38511 
  -38449   -38377   -38302   -38226   -38151   -38078   -38009   -37952 
  -37909   -37874   -37837   -37797   -37747   -37697   -37650   -37604 
  -37566   -37535   -37507   -37482   -37466   -37451   -37436   -37415 
  -37390   -37368   -37341   -37309   -37278   -37249   -37223   -37208 
  -37212   -37230   -37246   -37255   -37260   -37258   -37261   -37270 
  -37284   -37303   -37320   -37339   -37368   -37403   -37434   -37463 
  -37492   -37520   -37551   -37585   -37621   -37647   -37656   -37656 
  -37655   -37659   -37665   -37667   -37671   -37669   -37651   -37631 
  -37613   -37592   -37570   -37551   -37532   -37515   -37498   -37474 
  -37446   -37416   -37386   -37359   -37330   -37295   -37262   -37228 
  -37188   -37150   -37112   -37073   -37039   -37008   -36981   -36967 
  -36961   -36960   -36960   -36960   -36963   -36973   -36984   -36995 
  -37010   -37021   -37029   -37037   -37041   -37042   -37052   -37069 
  -37087   -37098   -37107   -37123   -37135   -37142   -37153   -37161 
  -37170   -37184   -37181   -37169   -37158   -37139   -37108   -37071 
  -37025   -36977   -36937   -36900   -36859   -36813   -36768   -36730 
  -36702   -36680   -36664   -36656   -36657   -36657   -36659   -36659 
  -36651   -36644   -36649   -36659   -36667   -36678   -36697   -36717 
  -36736   -36756   -36782   -36813   -36848   -36883   -36919   -36956 
  -36984   -37000   -37017   -37035   -37053   -37075   -37106   -37138 
  -37169   -37193   -37208   -37219   -37241   -37274   -37312   -37349 
  -37380   -37397   -37407   -37417   -37427   -37442   -37474   -37516 
  -37563   -37613   -37658   -37689   -37710   -37736   -37773   -37817 
  -37863   -37910   -37953   -37993   -38037   -38098   -38160   -38215 
  -38264   -38304   -38341   -38381   -38418   -38452   -38489   -38523 
  -38553   -38589   -38620   -38642   -38658   -38669   -38674   -38673 
  -38669   -38668   -38668   -38674   -38691   -38707   -38712   -38711 
  -38708   -38705   -38696   -38677   -38653   -38627   -38597   -38564 
  -38529   -38487   -38443   -38411   -38391   -38377   -38367   -38356 
  -38341   -38317   -38287   -38248   -38206   -38161   -38106   -38053 
  -38006   -37945   -37879   -37817   -37748   -37678   -37617   -37559 
  -37497   -37434   -37372   -37308   -37239   -37168   -37096   -37025 
  -36956   -36888   -36822   -36756   -36687   -36612   -36531   -36448 
  -36360   -36271   -36197   -36132   -36065   -35999   -35935   -35874 
  -35819   -35779   -35750   -35727   -35708   -35695   -35684   -35689 
  -35710   -35734   -35764   -35807   -35857   -35911   -35969   -36030 
  -36100   -36178   -36263   -36356   -36451   -36543   -36632   -36729 
  -36834   -36936   -37023   -37119   -37230   -37343   -37462   -37588 
  -37712   -37835   -37962   -38086   -38205   -38321   -38427   -38524 
  -38619   -38709   -38789   -38861   -38923   -38970   -39009   -39052 
  -39094   -39120   -39136   -39152   -39167   -39175   -39177   -39177 
  -39172   -39163   -39144   -39118   -39091   -39059   -39012   -38956 
  -38897   -38824   -38739   -38647   -38550   -38446   -38342   -38238 
  -38128   -38018   -37910   -37798   -37682   -37563   -37440   -37323 
  -37208   -37099   -36996   -36900   -36811   -36737   -36678   -36632 
  -36599   -36570   -36547   -36533   -36525   -36516   -36504   -36491 
  -36482   -36471   -36466   -36466   -36463   -36462   -36466   -36477 
  -36490   -36506   -36525   -36537   -36539   -36532   -36520   -36512 
  -36501   -36486   -36475   -36464   -36452   -36441   -36427   -36402 
  -36381   -36360   -36343   -36332   -36327   -36321   -36317   -36316 
  -36316   -36319   -36317   -36321   -36333   -36347   -36366   -36394 
  -36421   -36451   -36487   -36524   -36563   -36609   -36651   -36686 
  -36726   -36775   -36821   -36865   -36917   -36968   -37015   -37061 
  -37114   -37165   -37212   -37254   -37299   -37349   -37403   -37461 
  -37520   -37586   -37667   -37754   -37833   -37912   -37993   -38078 
  -38169   -38275   -38384   -38485   -38585   -38681   -38774   -38869 
  -38967   -39066   -39160   -39245   -39322   -39386   -39433   -39469 
  -39501   -39522   -39536   -39546   -39557   -39557   -39540   -39515 
  -39487   -39451   -39402   -39351   -39303   -39258   -39212   -39159 
  -39096   -39031   -38975   -38916   -38846   -38780   -38715   -38638 
  -38565   -38499   -38431   -38364   -38292   -38218   -38151   -38087 
  -38014   -37940   -37871   -37805   -37736   -37666   -37598   -37538 
  -37480   -37428   -37389   -37365   -37345   -37330   -37320   -37312 
  -37304   -37299   -37292   -37287   -37282   -37284   -37293   -37307 
  -37323   -37342   -37366   -37388   -37404   -37419   -37432   -37435 
  -37434   -37431   -37424   -37413   -37407   -37405   -37399   -37392 
  -37384   -37376   -37370   -37363   -37355   -37349   -37343   -37342 
  -37342   -37341   -37335   -37324   -37307   -37287   -37270   -37249 
  -37226   -37208   -37193   -37173   -37149   -37125   -37104   -37089 
  -37077   -37072   -37069   -37068   -37072   -37081   -37088   -37098 
  -37111   -37120   -37138   -37168   -37193   -37215   -37243   -37273 
  -37301   -37335   -37369   -37407   -37451   -37489   -37516   -37535 
  -37546   -37551   -37557   -37561   -37562   -37567   -37578   -37586 
  -37585   -37584   -37582   -37577   -37569   -37557   -37544   -37531 
  -37515   -37497   -37480   -37461   -37436   -37413   -37397   -37385 
  -37373   -37361   -37355   -37358   -37358   -37350   -37342   -37335 
  -37330   -37323   -37315   -37314   -37320   -37331   -37343   -37354 
  -37359   -37358   -37355   -37349   -37336   -37320   -37300   -37270 
  -37234   -37200   -37158   -37102   -37044   -36991   -36941   -36892 
  -36842   -36794   -36751   -36711   -36672   -36637   -36609   -36586 
  -36571   -36560   -36559   -36568   -36583   -36599   -36616   -36629 
  -36640   -36651   -36661   -36671   -36678   -36683   -36693   -36702 
  -36713   -36729   -36751   -36776   -36799   -36818   -36834   -36848 
  -36863   -36884   -36917   -36949   -36985   -37026   -37066   -37107 
  -37149   -37191   -37233   -37277   -37323   -37370   -37424   -37476 
  -37520   -37567   -37617   -37665   -37705   -37746   -37786   -37825 
  -37859   -37889   -37916   -37943   -37963   -37968   -37968   -37971 
  -37975   -37986   -37999   -38005   -38006   -38010   -38011   -38016 
  -38022   -38024   -38018   -38011   -38010   -38014   -38020   -38021 
  -38025   -38029   -38025   -38016   -38009   -37998   -37989   -37982 
  -37968   -37947   -37928   -37909   -37899   -37901   -37895   -37879 
  -37864   -37851   -37835   -37817   -37798   -37777   -37755   -37736 
  -37719   -37694   -37667   -37640   -37612   -37579   -37544   -37509 
  -37478   -37451   -37432   -37412   -37392   -37380   -37372   -37361 
  -37355   -37354   -37350   -37343   -37345   -37350   -37358   -37372 
  -37382   -37386   -37385   -37381   -37373   -37362   -37350   -37336 
  -37324   -37315   -37295   -37268   -37245   -37219   -37191   -37164 
  -37133   -37107   -37089   -37077   -37072   -37072   -37075   -37081 
  -37092   -37099   -37108   -37120   -37131   -37149   -37172   -37192 
  -37216   -37242   -37268   -37300   -37331   -37361   -37389   -37416 
  -37447   -37484   -37521   -37559   -37594   -37623   -37643   -37663 
  -37692   -37723   -37748   -37768   -37790   -37816   -37836   -37856 
  -37879   -37898   -37917   -37936   -37945   -37953   -37960   -37959 
  -37949   -37939   -37930   -37920   -37906   -37897   -37883   -37862 
  -37835   -37806   -37774   -37736   -37694   -37652   -37617   -37584 
  -37543   -37507   -37474   -37434   -37392   -37358   -37334   -37319 
  -37307   -37299   -37303   -37318   -37334   -37353   -37377   -37405 
  -37439   -37477   -37520   -37565   -37601   -37629   -37654   -37673 
  -37689   -37701   -37709   -37713   -37712   -37712   -37717   -37719 
  -37717   -37716   -37712   -37700   -37681   -37665   -37652   -37643 
  -37631   -37617   -37608   -37597   -37592   -37593   -37590   -37582 
  -37578   -37574   -37565   -37551   -37539   -37527   -37513   -37503 
  -37497   -37493   -37485   -37469   -37446   -37423   -37403   -37385 
  -37366   -37349   -37335   -37322   -37307   -37295   -37281   -37273 
  -37276   -37285   -37301   -37324   -37347   -37370   -37400   -37430 
  -37459   -37492   -37528   -37569   -37611   -37654   -37696   -37729 
  -37759   -37785   -37800   -37812   -37821   -37832   -37840   -37837 
  -37827   -37817   -37812   -37806   -37794   -37771   -37740   -37706 
  -37675   -37646   -37621   -37596   -37559   -37521   -37489   -37458 
  -37427   -37396   -37368   -37339   -37311   -37282   -37255   -37234 
  -37222   -37210   -37197   -37193   -37197   -37197   -37195   -37200 
  -37210   -37212   -37211   -37212   -37218   -37233   -37249   -37257 
  -37260   -37264   -37268   -37277   -37287   -37297   -37315   -37334 
  -37353   -37378   -37403   -37423   -37451   -37485   -37512   -37535 
  -37558   -37582   -37608   -37635   -37669   -37704   -37737   -37771 
  -37808   -37833   -37847   -37862   -37870   -37863   -37851   -37841 
  -37824   -37801   -37774   -37744   -37713   -37681   -37639   -37593 
  -37547   -37493   -37436   -37388   -37339   -37293   -37255   -37219 
  -37179   -37138   -37104   -37073   -37044   -37018   -36994   -36972 
  -36948   -36922   -36902   -36886   -36875   -36869   -36867   -36865 
  -36867   -36869   -36873   -36884   -36896   -36909   -36919   -36931 
  -36948   -36971   -36994   -37017   -37046   -37076   -37100   -37122 
  -37142   -37158   -37173   -37187   -37197   -37207   -37219   -37231 
  -37239   -37251   -37261   -37266   -37274   -37287   -37296   -37301 
  -37307   -37316   -37327   -37336   -37349   -37362   -37380   -37403 
  -37432   -37466   -37498   -37521   -37540   -37559   -37582   -37606 
  -37633   -37658   -37682   -37708   -37729   -37748   -37771   -37795 
  -37816   -37833   -37848   -37858   -37866   -37878   -37893   -37905 
