Origin Time       2025/01/13 21:19:00
Lat.              31.8
Long.             131.6
Depth. (km)       30
Mag.              6.9
Station Code      HRSH15
Station Lat.      34.1161
Station Long.     132.5053
Station Height(m) 80
Record Time       2025/01/13 21:20:20
Sampling Freq(Hz) 100Hz
Duration Time(s)  145
Dir.              3
Scale Factor      2942(gal)/8224139
Max. Acc. (gal)   1.125
Last Correction   2025/01/13 21:20:20
Memo.             
[...]
   74835    74804    74790    74764    74730    74711    74710    74740 
   74807    74880    74937    75003    75077    75118    75115    75107 
   75091    75035    74945    74858    74812    74794    74769    74744 
   74745    74761    74771    74783    74808    74831    74848    74880 
   74929    74966    74995    75018    75015    75008    75026    75037 
   75006    74954    74899    74844    74803    74775    74767    74818 
   74914    74997    75061    75136    75205    75231    75227    75190 
   75118    75058    75028    74979    74896    74822    74780    74764 
   74767    74771    74761    74752    74771    74811    74842    74854 
   74861    74865    74860    74854    74827    74767    74726    74721 
   74704    74684    74699    74744    74784    74807    74830    74862 
   74872    74852    74818    74781    74726    74641    74567    74526 
   74487    74451    74432    74416    74410    74445    74525    74646 
   74785    74912    75028    75139    75224    75269    75290    75298 
   75270    75208    75150    75091    75011    74941    74888    74837 
   74787    74737    74704    74695    74675    74645    74649    74677 
   74710    74764    74850    74926    74976    75058    75161    75200 
   75209    75263    75315    75315    75297    75284    75285    75307 
   75327    75339    75340    75316    75282    75271    75257    75211 
   75165    75120    75061    75015    74984    74931    74849    74758 
   74668    74564    74455    74376    74316    74243    74170    74133 
   74155    74189    74189    74205    74291    74380    74412    74432 
   74468    74480    74470    74466    74459    74449    74479    74530 
   74584    74653    74726    74810    74939    75089    75222    75332 
   75419    75494    75543    75535    75502    75477    75450    75419 
   75386    75344    75304    75266    75224    75199    75189    75153 
   75078    74996    74929    74871    74794    74698    74599    74505 
   74407    74320    74241    74147    74052    73988    73939    73884 
   73851    73888    73971    74048    74120    74231    74391    74548 
   74668    74787    74915    75022    75109    75211    75298    75336 
   75354    75386    75416    75440    75465    75475    75470    75467 
   75474    75466    75436    75423    75405    75328    75222    75114 
   74984    74852    74756    74695    74663    74669    74713    74764 
   74814    74857    74861    74846    74857    74848    74790    74756 
   74745    74700    74682    74740    74803    74833    74872    74922 
   74943    74930    74912    74884    74848    74849    74873    74879 
   74880    74887    74899    74937    74997    75042    75072    75078 
   75037    74983    74958    74949    74927    74900    74872    74835 
   74776    74703    74641    74598    74561    74545    74563    74617 
   74687    74768    74871    74972    75049    75142    75259    75332 
   75344    75340    75334    75301    75250    75232    75249    75242 
   75196    75145    75089    74999    74866    74727    74605    74484 
   74359    74266    74233    74232    74237    74271    74336    74412 
   74493    74561    74584    74576    74572    74582    74611    74655 
   74683    74699    74738    74815    74908    74985    75030    75070 
   75112    75135    75147    75181    75216    75211    75185    75169 
   75155    75135    75088    74995    74879    74745    74568    74366 
   74186    74038    73896    73762    73649    73577    73573    73624 
   73701    73811    73955    74094    74227    74385    74541    74653 
   74723    74754    74754    74737    74709    74676    74640    74584 
   74505    74432    74387    74355    74320    74287    74297    74374 
   74467    74538    74641    74800    74969    75111    75239    75390 
   75536    75618    75647    75674    75693    75687    75663    75633 
   75595    75555    75537    75536    75509    75459    75419    75413 
   75435    75467    75520    75598    75660    75667    75632    75573 
   75490    75384    75255    75115    74991    74884    74768    74650 
   74572    74552    74580    74644    74742    74841    74914    74991 
   75062    75096    75109    75112    75091    75070    75064    75037 
   74992    74973    74979    74972    74969    74985    75008    75035 
   75072    75105    75127    75145    75159    75176    75200    75222 
   75242    75258    75231    75146    75046    74960    74888    74827 
   74769    74713    74672    74664    74669    74663    74661    74679 
   74687    74691    74722    74756    74765    74781    74829    74893 
   74964    75028    75093    75158    75186    75190    75216    75242 
   75236    75219    75204    75185    75168    75153    75139    75143 
   75166    75203    75282    75393    75439    75421    75432    75431 
   75352    75271    75232    75162    75033    74912    74852    74825 
   74812    74861    74981    75104    75192    75288    75384    75429 
   75447    75466    75485    75521    75571    75595    75581    75519 
   75442    75400    75363    75315    75305    75330    75313    75236 
   75159    75101    75027    74942    74891    74839    74729    74578 
   74433    74318    74262    74233    74152    74035    73961    73919 
   73865    73822    73840    73923    74025    74121    74212    74281 
   74313    74331    74367    74418    74456    74470    74484    74540 
   74615    74682    74775    74907    75020    75084    75105    75095 
   75105    75178    75255    75289    75293    75282    75258    75220 
   75188    75195    75236    75276    75311    75362    75429    75496 
   75555    75606    75629    75608    75570    75537    75496    75432 
   75339    75240    75185    75158    75095    75000    74930    74883 
   74839    74812    74825    74868    74892    74853    74768    74687 
   74603    74505    74414    74360    74362    74394    74428    74471 
   74510    74542    74605    74667    74679    74690    74713    74696 
   74663    74653    74649    74650    74679    74740    74822    74885 
   74918    74984    75100    75208    75289    75338    75370    75398 
   75359    75250    75162    75096    75014    74945    74912    74906 
   74926    74954    74977    74993    74991    74972    74964    74972 
   74973    74965    74965    74960    74938    74912    74871    74800 
   74719    74646    74595    74572    74559    74549    74556    74580 
   74640    74748    74866    74949    74988    75003    75010    74970 
   74876    74780    74695    74598    74502    74444    74401    74348 
   74325    74355    74401    74434    74472    74544    74633    74695 
   74749    74835    74943    75034    75081    75099    75108    75096 
   75045    75015    75024    75003    74945    74900    74865    74819 
   74765    74711    74672    74633    74582    74542    74506    74463 
   74436    74418    74390    74386    74434    74509    74569    74602 
   74596    74576    74614    74718    74827    74922    75016    75105 
   75173    75211    75251    75296    75305    75327    75455    75628 
   75729    75775    75829    75860    75838    75820    75797    75679 
   75466    75255    75108    74999    74883    74785    74753    74758 
   74771    74792    74812    74823    74826    74814    74803    74817 
   74829    74803    74772    74769    74756    74723    74696    74667 
   74646    74641    74626    74618    74641    74668    74655    74621 
   74628    74673    74719    74769    74835    74904    74964    75007 
   75042    75082    75104    75065    74997    74950    74906    74842 
   74753    74641    74545    74503    74502    74497    74476    74468 
   74456    74420    74399    74401    74378    74336    74271    74178 
   74112    74097    74097    74119    74170    74220    74287    74407 
   74559    74718    74862    74960    75016    75053    75077    75109 
   75131    75135    75142    75131    75073    75003    74964    74935 
   74930    74995    75073    75085    75085    75130    75178    75211 
   75259    75316    75367    75408    75429    75456    75504    75536 
   75554    75555    75504    75439    75431    75439    75412    75375 
   75332    75262    75168    75058    74952    74846    74729    74610 
   74525    74464    74402    74347    74333    74368    74429    74487 
   74526    74575    74668    74750    74780    74821    74880    74889 
   74885    74949    75043    75108    75120    75066    74988    74943 
   74906    74857    74819    74767    74684    74610    74559    74501 
   74429    74366    74325    74298    74245    74150    74055    74017 
   74034    74061    74081    74101    74128    74185    74283    74406 
   74522    74601    74663    74758    74865    74950    75037    75103 
   75115    75093    75049    74996    74961    74927    74888    74850 
   74795    74719    74640    74615    74672    74730    74752    74781 
   74823    74854    74904    74992    75076    75123    75201    75334 
   75408    75396    75417    75496    75529    75485    75417    75361 
   75311    75262    75211    75150    75091    75051    75035    75035 
   75061    75096    75096    75076    75077    75068    75007    74923 
   74873    74862    74839    74795    74765    74721    74611    74510 
   74518    74603    74677    74707    74688    74660    74660    74657 
   74617    74551    74495    74451    74394    74333    74314    74314 
   74275    74235    74255    74289    74291    74297    74344    74412 
   74440    74434    74467    74524    74556    74582    74640    74710 
   74784    74860    74938    75039    75155    75230    75276    75358 
   75444    75475    75475    75459    75424    75432    75481    75510 
   75532    75551    75512    75402    75293    75263    75300    75293 
   75235    75223    75253    75249    75254    75316    75362    75361 
   75361    75359    75331    75292    75236    75130    74997    74902 
   74814    74702    74638    74649    74650    74613    74601    74636 
   74672    74714    74788    74856    74884    74896    74916    74929 
   74907    74842    74748    74642    74522    74414    74389    74434 
   74457    74461    74521    74601    74638    74686    74796    74931 
   75062    75226    75398    75509    75601    75748    75901    75994 
   76045    76065    76054    76050    76086    76133    76142    76095 
   76023    75963    75910    75857    75806    75766    75744    75740 
   75740    75756    75774    75741    75666    75608    75563    75513 
   75500    75504    75471    75436    75424    75401    75375    75373 
   75361    75298    75220    75181    75162    75105    75014    74895 
   74765    74713    74740    74769    74803    74833    74829    74830 
   74860    74900    74952    75001    75028    75010    74954    74938 
   74991    75050    75104    75165    75200    75219    75266    75339 
   75402    75443    75466    75459    75427    75406    75375    75298 
   75216    75154    75097    75030    74934    74819    74714    74667 
   74714    74783    74811    74866    74974    75034    75008    74980 
   75012    75097    75181    75216    75242    75288    75266    75147 
   75043    74981    74902    74831    74811    74811    74788    74748 
   74717    74702    74704    74760    74861    74927    74938    74962 
   75012    75020    74969    74920    74911    74923    74911    74846 
   74768    74727    74713    74677    74634    74650    74707    74748 
   74771    74781    74749    74672    74599    74586    74611    74588 
   74498    74425    74391    74340    74268    74223    74201    74171 
   74102    74005    73965    73992    73988    73943    73958    74032 
   74109    74173    74213    74218    74202    74185    74174    74186 
   74247    74337    74386    74372    74316    74272    74278    74281 
   74240    74181    74129    74108    74105    74071    74019    74001 
   74017    74046    74078    74090    74124    74228    74360    74426 
   74390    74317    74310    74347    74332    74270    74223    74182 
   74125    74081    74063    74031    73959    73904    73946    74042 
   74098    74148    74236    74314    74351    74332    74258    74194 
   74178    74135    74063    74067    74144    74224    74299    74371 
   74434    74502    74549    74533    74468    74425    74417    74412 
   74393    74352    74293    74232    74190    74173    74127    74004 
   73850    73743    73716    73759    73807    73816    73858    73959 
   74019    74032    74093    74190    74250    74286    74333    74363 
   74362    74362    74394    74434    74453    74455    74484    74568 
   74676    74760    74819    74904    75024    75126    75173    75186 
   75192    75168    75085    75003    74995    75027    75061    75124 
   75219    75323    75456    75629    75772    75834    75863    75922 
   76030    76152    76234    76279    76269    76168    76032    75953 
   75918    75847    75741    75641    75547    75432    75304    75207 
   75147    75097    75034    74966    74902    74837    74800    74780 
   74717    74640    74622    74636    74602    74529    74501    74517 
   74476    74380    74328    74349    74399    74425    74426    74461 
   74537    74623    74715    74803    74868    74919    74966    74983 
   74984    75010    75020    74980    74945    74964    74999    75019 
   75054    75103    75143    75222    75338    75420    75489    75644 
   75843    75992    76117    76257    76418    76582    76700    76770 
   76867    76998    77121    77255    77429    77588    77688    77778 
   77899    78004    78035    78005    77946    77820    77626    77434 
   77279    77116    76905    76685    76493    76275    76005    75739 
   75508    75301    75123    74973    74845    74742    74657    74586 
   74565    74584    74594    74592    74572    74506    74430    74390 
   74358    74312    74248    74146    74044    74021    74039    74015 
   73984    73998    74020    73996    73947    73908    73885    73892 
   73909    73909    73908    73915    73946    74027    74135    74254 
   74382    74491    74613    74779    74902    74976    75118    75289 
   75361    75348    75317    75290    75292    75317    75315    75235 
   75109    75003    74895    74737    74574    74413    74218    74017 
   73854    73751    73697    73623    73514    73431    73403    73433 
   73523    73626    73730    73913    74177    74451    74718    74949 
   75118    75281    75483    75682    75825    75898    75909    75882 
   75840    75787    75718    75636    75537    75439    75386    75389 
   75393    75362    75311    75265    75208    75091    74949    74848 
   74740    74576    74407    74275    74186    74119    74038    73988 
   74025    74112    74209    74358    74551    74721    74845    74954 
   75065    75178    75286    75346    75330    75301    75296    75255 
   75178    75122    75054    74929    74769    74609    74437    74239 
   74042    73861    73678    73483    73276    73084    72941    72831 
   72708    72582    72507    72478    72451    72435    72492    72638 
   72847    73089    73309    73515    73778    74093    74391    74677 
   74999    75308    75556    75782    75994    76138    76214    76215 
   76135    76041    75992    75945    75852    75767    75713    75637 
   75544    75494    75463    75415    75378    75354    75327    75357 
   75451    75523    75567    75652    75732    75753    75782    75841 
   75871    75880    75919    75952    75903    75837    75828    75803 
   75735    75710    75755    75798    75797    75764    75724    75699 
   75685    75648    75601    75582    75590    75587    75564    75555 
   75554    75516    75439    75367    75321    75298    75286    75312 
   75394    75481    75537    75624    75733    75801    75830    75843 
   75810    75744    75703    75712    75735    75732    75693    75641 
   75608    75567    75487    75424    75424    75438    75424    75390 
   75348    75311    75244    75119    74992    74914    74841    74723 
   74576    74439    74289    74115    73953    73819    73689    73542 
   73396    73271    73159    73070    73041    73066    73095    73147 
   73246    73337    73402    73511    73643    73750    73874    74021 
   74163    74345    74579    74810    75019    75190    75308    75393 
   75465    75517    75543    75543    75525    75492    75425    75336 
   75258    75188    75095    74972    74839    74709    74578    74447 
   74340    74285    74268    74236    74178    74144    74148    74185 
   74258    74348    74447    74557    74657    74741    74846    74996 
   75170    75348    75513    75651    75735    75766    75798    75841 
   75832    75772    75726    75694    75639    75570    75514    75452 
   75366    75263    75159    75066    74973    74873    74792    74741 
   74683    74592    74515    74471    74401    74317    74301    74331 
   74344    74352    74358    74339    74332    74364    74390    74372 
   74332    74291    74256    74232    74225    74229    74216    74196 
   74229    74328    74437    74528    74629    74730    74785    74811 
   74854    74899    74927    74987    75077    75141    75204    75294 
   75355    75390    75436    75451    75442    75487    75586    75670 
   75736    75803    75840    75836    75828    75814    75753    75656 
   75555    75456    75352    75255    75169    75053    74920    74846 
   74814    74756    74696    74671    74642    74579    74488    74413 
   74386    74372    74339    74310    74309    74326    74337    74318 
   74285    74258    74224    74187    74158    74105    74029    73993 
   74013    74035    74034    74038    74025    73974    73923    73881 
   73809    73742    73719    73703    73689    73718    73786    73892 
   74017    74137    74239    74325    74445    74606    74727    74792 
   74865    74957    75031    75051    75020    74997    74987    74937 
   74877    74864    74854    74825    74838    74910    75020    75180 
   75358    75509    75659    75830    75982    76099    76210    76303 
   76368    76416    76442    76435    76412    76383    76316    76188 
   76044    75952    75878    75764    75649    75571    75535    75541 
   75568    75579    75548    75485    75424    75346    75190    74989 
   74819    74675    74542    74432    74320    74210    74137    74081 
   74038    74027    74013    73992    73996    74020    74054    74090 
   74108    74093    74061    74017    73944    73863    73808    73747 
   73669    73608    73548    73452    73342    73287    73309    73353 
   73403    73487    73579    73650    73732    73834    73928    74019 
   74115    74209    74287    74371    74499    74650    74781    74911 
   75068    75223    75365    75521    75685    75833    75975    76117 
   76241    76319    76323    76266    76199    76145    76104    76054 
   76009    76003    76026    76060    76123    76210    76287    76339 
   76362    76356    76329    76284    76234    76191    76157    76117 
   76071    76053    76042    76002    75979    75996    76007    75998 
   75975    75934    75888    75844    75779    75705    75651    75605 
   75533    75425    75315    75251    75220    75178    75138    75081 
   74961    74814    74714    74665    74637    74623    74621    74632 
   74652    74650    74638    74649    74673    74702    74767    74841 
   74861    74846    74842    74841    74837    74846    74862    74875 
