Origin Time       2025/01/13 21:19:00
Lat.              31.8
Long.             131.6
Depth. (km)       30
Mag.              6.9
Station Code      HRSH05
Station Lat.      34.5566
Station Long.     133.4179
Station Height(m) 20
Record Time       2025/01/13 21:21:15
Sampling Freq(Hz) 100Hz
Duration Time(s)  120
Dir.              6
Scale Factor      7845(gal)/8223790
Max. Acc. (gal)   0.749
Last Correction   2025/01/13 21:21:16
Memo.             
[...]
   18713    18655    18616    18609    18590    18565    18566    18590 
   18642    18724    18790    18810    18800    18767    18739    18738 
   18746    18758    18782    18794    18801    18832    18860    18864 
   18890    18952    19014    19075    19109    19075    19014    18971 
   18928    18905    18924    18933    18927    18932    18920    18890 
   18867    18850    18867    18939    18998    19014    19039    19083 
   19102    19107    19099    19043    18974    18933    18900    18866 
   18846    18820    18792    18789    18797    18781    18758    18736 
   18701    18677    18677    18681    18688    18698    18697    18700 
   18733    18786    18839    18891    18948    19008    19067    19087 
   19053    19022    19021    19030    19071    19138    19182    19205 
   19215    19201    19197    19225    19242    19234    19199    19125 
   19040    18990    18960    18935    18940    18972    18999    19045 
   19103    19126    19134    19144    19140    19141    19144    19116 
   19086    19098    19129    19165    19214    19240    19217    19171 
   19120    19070    19026    18976    18936    18928    18918    18898 
   18912    18947    18956    18963    19002    19044    19066    19068 
   19051    19022    18998    18982    18959    18929    18914    18931 
   18963    18986    18994    19005    19013    19009    19018    19049 
   19071    19086    19107    19124    19138    19170    19202    19219 
   19215    19202    19198    19207    19206    19188    19178    19160 
   19109    19060    19048    19051    19064    19075    19052    19016 
   18987    18936    18871    18824    18797    18804    18847    18875 
   18882    18878    18851    18812    18781    18766    18771    18785 
   18790    18798    18824    18851    18856    18852    18847    18821 
   18801    18821    18835    18802    18766    18750    18739    18731 
   18717    18701    18708    18736    18765    18800    18841    18862 
   18858    18843    18823    18816    18841    18889    18936    18967 
   18963    18943    18952    18989    19024    19055    19075    19068 
   19057    19051    19030    19009    19003    19005    19009    19009 
   18993    18959    18925    18889    18846    18821    18814    18806 
   18820    18856    18900    18966    19045    19103    19130    19138 
   19129    19121    19136    19157    19176    19205    19221    19217 
   19219    19214    19199    19201    19205    19203    19225    19232 
   19206    19198    19201    19175    19157    19161    19148    19121 
   19109    19076    19016    18976    18945    18894    18860    18855 
   18856    18866    18867    18863    18883    18905    18894    18879 
   18881    18879    18897    18955    19001    19010    19005    18993 
   18983    18987    18976    18962    18976    18989    18964    18932 
   18889    18819    18766    18750    18742    18754    18781    18781 
   18770    18759    18720    18685    18698    18742    18802    18879 
   18937    18974    19024    19086    19132    19168    19203    19221 
   19234    19255    19245    19210    19155    19079    19036    19035 
   19024    19010    19013    18990    18943    18916    18910    18918 
   18955    19005    19047    19083    19113    19140    19172    19199 
   19198    19186    19184    19172    19148    19140    19134    19113 
   19101    19099    19086    19084    19093    19082    19062    19045 
   19016    18995    18997    18974    18929    18909    18901    18898 
   18922    18949    18971    19016    19067    19093    19109    19120 
   19129    19151    19159    19140    19138    19159    19172    19178 
   19171    19164    19172    19179    19171    19151    19132    19102 
   19056    19021    19013    19002    18989    18982    18976    18979 
   18989    19003    19036    19066    19084    19128    19172    19183 
   19198    19238    19255    19230    19194    19161    19140    19124 
   19082    19017    18956    18895    18837    18804    18783    18760 
   18751    18748    18729    18720    18738    18756    18785    18825 
   18844    18848    18864    18878    18873    18873    18895    18933 
   18974    18997    18981    18955    18937    18917    18916    18935 
   18932    18895    18839    18774    18742    18755    18779    18804 
   18844    18874    18889    18920    18952    18976    19016    19072 
   19117    19141    19140    19111    19098    19121    19140    19148 
   19149    19110    19037    18978    18932    18895    18891    18897 
   18882    18858    18841    18840    18874    18932    18982    19020 
   19035    19017    18998    19008    19021    19021    19032    19052 
   19059    19070    19083    19076    19060    19036    18995    18966 
   18944    18914    18917    18955    18982    19005    19045    19074 
   19082    19090    19084    19074    19083    19102    19126    19148 
   19130    19093    19078    19071    19068    19093    19125    19129 
   19103    19040    18948    18862    18802    18765    18755    18769 
   18771    18769    18770    18754    18724    18719    18742    18769 
   18783    18775    18743    18712    18688    18659    18661    18696 
   18728    18760    18801    18816    18813    18832    18866    18898 
   18944    18995    19029    19067    19113    19148    19184    19215 
   19224    19230    19248    19255    19251    19232    19188    19157 
   19149    19125    19079    19039    18994    18943    18891    18832 
   18765    18717    18702    18690    18681    18673    18650    18632 
   18639    18654    18665    18689    18721    18755    18782    18790 
   18794    18827    18859    18860    18855    18841    18801    18758 
   18717    18675    18638    18597    18549    18512    18482    18435 
   18391    18364    18341    18337    18370    18416    18461    18520 
   18571    18603    18644    18688    18717    18760    18808    18833 
   18864    18904    18918    18910    18914    18924    18925    18922 
   18902    18863    18829    18809    18805    18832    18867    18904 
   18956    19008    19047    19113    19195    19245    19278    19326 
   19379    19429    19477    19508    19534    19577    19618    19633 
   19635    19633    19630    19631    19623    19597    19564    19533 
   19507    19510    19542    19569    19592    19622    19631    19616 
   19610    19610    19599    19591    19577    19548    19525    19495 
   19444    19394    19348    19296    19260    19246    19229    19211 
   19199    19179    19170    19179    19167    19143    19133    19128 
   19133    19157    19163    19151    19151    19160    19170    19191 
   19213    19226    19241    19248    19237    19238    19252    19246 
   19229    19228    19229    19228    19226    19207    19170    19147 
   19133    19107    19090    19080    19057    19044    19048    19051 
   19045    19036    19014    18994    18998    19002    18989    18972 
   18948    18925    18936    18958    18975    19008    19029    19013 
   18991    18971    18941    18921    18900    18856    18808    18777 
   18748    18736    18743    18738    18713    18694    18663    18615 
   18573    18535    18507    18508    18519    18530    18569    18615 
   18632    18642    18651    18651    18678    18738    18782    18794 
   18792    18779    18759    18733    18696    18659    18636    18603 
   18555    18532    18511    18474    18463    18477    18484    18500 
   18527    18532    18530    18538    18536    18538    18557    18577 
   18611    18674    18744    18808    18873    18917    18929    18941 
   18963    18978    18990    19002    19002    19005    19013    19005 
   18990    18982    18956    18921    18898    18870    18832    18819 
   18813    18800    18789    18774    18754    18740    18732    18720 
   18723    18739    18750    18769    18792    18790    18783    18802 
   18821    18832    18856    18874    18887    18936    18990    19013 
   19039    19067    19071    19082    19101    19106    19121    19148 
   19165    19191    19232    19260    19283    19307    19315    19317 
   19350    19395    19425    19457    19491    19510    19535    19561 
   19557    19533    19498    19444    19386    19340    19291    19244 
   19191    19106    19009    18931    18858    18797    18767    18750 
   18739    18760    18797    18819    18851    18887    18902    18927 
   18971    19003    19044    19103    19133    19140    19155    19161 
   19157    19153    19133    19109    19098    19089    19072    19060 
   19041    19014    19014    19036    19044    19071    19129    19171 
   19191    19221    19238    19238    19242    19238    19224    19217 
   19213    19211    19213    19201    19168    19141    19114    19064 
   19005    18949    18874    18808    18781    18750    18711    18700 
   18700    18698    18717    18744    18775    18820    18864    18909 
   18970    19026    19051    19060    19072    19091    19122    19155 
   19165    19178    19201    19218    19238    19268    19269    19246 
   19234    19222    19195    19178    19172    19161    19151    19143 
   19133    19124    19118    19117    19133    19157    19157    19136 
   19111    19071    19029    19008    18975    18925    18898    18879 
   18833    18790    18765    18743    18727    18723    18715    18702 
   18696    18682    18658    18630    18592    18559    18544    18539 
   18555    18605    18646    18665    18689    18708    18702    18706 
   18717    18706    18696    18698    18692    18686    18693    18686 
   18681    18698    18712    18729    18767    18800    18833    18887 
   18922    18928    18939    18944    18941    18967    19005    19021 
   19039    19055    19047    19030    19036    19035    19021    19012 
   18976    18932    18922    18917    18893    18882    18878    18878 
   18914    18968    19008    19048    19095    19130    19161    19188 
   19190    19180    19188    19198    19197    19202    19198    19168 
   19136    19099    19064    19053    19052    19048    19064    19097 
   19113    19128    19145    19138    19137    19164    19180    19182 
   19192    19197    19192    19201    19203    19194    19182    19155 
   19122    19103    19079    19039    18991    18928    18844    18760 
   18684    18612    18570    18561    18566    18585    18608    18612 
   18620    18658    18711    18762    18823    18894    18962    19032 
   19103    19159    19209    19252    19260    19260    19267    19260 
   19256    19248    19205    19147    19099    19048    18998    18975 
   18959    18927    18893    18862    18829    18819    18829    18846 
   18881    18937    18976    18997    19013    19016    19021    19040 
   19053    19068    19093    19103    19099    19083    19041    18991 
   18967    18962    18951    18943    18937    18914    18893    18889 
   18874    18841    18813    18789    18785    18814    18837    18844 
   18867    18912    18964    19033    19105    19148    19179    19197 
   19192    19186    19194    19195    19192    19186    19164    19134 
   19113    19089    19070    19067    19051    19010    18978    18954 
   18940    18952    18964    18958    18954    18945    18916    18897 
   18900    18906    18928    18967    18994    19009    19030    19044 
   19055    19076    19099    19125    19164    19201    19225    19257 
   19295    19322    19346    19365    19365    19365    19369    19344 
   19296    19249    19186    19130    19111    19098    19075    19066 
   19047    19024    19024    19025    19017    19033    19076    19122 
   19175    19226    19260    19279    19287    19269    19246    19251 
   19265    19279    19295    19287    19255    19238    19225    19197 
   19180    19172    19155    19151    19165    19182    19210    19244 
   19253    19242    19229    19217    19209    19205    19190    19165 
   19143    19109    19063    19028    18987    18931    18890    18863 
   18823    18792    18771    18735    18711    18725    18755    18786 
   18824    18855    18886    18940    18987    19013    19039    19047 
   19036    19057    19084    19075    19062    19037    18976    18920 
   18891    18863    18839    18833    18825    18806    18789    18769 
   18750    18750    18747    18743    18763    18786    18792    18800 
   18804    18792    18786    18792    18786    18781    18779    18755 
   18728    18720    18708    18688    18684    18679    18666    18665 
   18674    18694    18720    18725    18715    18717    18725    18727 
   18744    18767    18769    18774    18797    18805    18802    18808 
   18812    18819    18839    18859    18875    18908    18944    18970 
   18997    19022    19040    19057    19079    19091    19111    19151 
   19178    19182    19187    19172    19138    19118    19090    19047 
   19021    18993    18947    18925    18914    18883    18858    18843 
   18820    18806    18805    18800    18800    18810    18802    18796 
   18808    18804    18787    18782    18763    18736    18731    18719 
   18670    18623    18590    18549    18519    18501    18466    18434 
   18416    18392    18368    18362    18364    18369    18388    18407 
   18418    18458    18515    18553    18590    18631    18652    18682 
   18709    18711    18728    18769    18781    18773    18783    18804 
   18806    18802    18801    18801    18823    18863    18909    18970 
   19035    19087    19145    19203    19244    19290    19342    19384 
   19434    19503    19570    19624    19656    19665    19684    19728 
   19762    19765    19768    19759    19726    19695    19664    19624 
   19597    19568    19516    19477    19454    19430    19422    19415 
   19379    19344    19330    19303    19252    19195    19126    19057 
   19024    19014    19009    19012    19012    18990    18964    18944 
   18927    18927    18941    18941    18928    18902    18843    18783 
   18767    18777    18809    18885    18970    19030    19071    19067 
   19016    18975    18964    18979    19021    19055    19048    19025 
   18993    18943    18891    18858    18832    18817    18813    18797 
   18779    18769    18732    18675    18646    18643    18640    18657 
   18682    18688    18694    18716    18733    18746    18766    18797 
   18840    18893    18924    18931    18925    18898    18867    18862 
   18859    18846    18850    18858    18847    18829    18814    18790 
   18770    18774    18785    18798    18828    18854    18859    18866 
   18878    18891    18924    18960    18976    18983    18995    19008 
   19029    19064    19084    19098    19128    19156    19184    19228 
   19260    19279    19309    19329    19338    19359    19375    19381 
   19392    19391    19373    19363    19341    19299    19264    19242 
   19217    19198    19180    19140    19103    19089    19072    19055 
   19051    19044    19025    18999    18960    18925    18913    18901 
   18874    18854    18844    18825    18809    18804    18798    18810 
   18835    18841    18839    18848    18852    18855    18863    18860 
   18852    18848    18836    18824    18832    18855    18886    18931 
   18967    18990    19017    19045    19060    19078    19102    19106 
   19107    19130    19151    19163    19190    19205    19192    19187 
   19194    19201    19224    19253    19259    19259    19275    19294 
   19313    19332    19338    19353    19386    19414    19433    19444 
   19434    19418    19410    19402    19388    19386    19369    19321 
   19268    19225    19179    19136    19099    19055    19014    18989 
   18962    18939    18927    18908    18887    18886    18883    18883 
   18909    18929    18936    18949    18963    18967    18979    18994 
   18997    18997    18998    18989    18978    18976    18966    18941 
   18920    18890    18852    18828    18802    18771    18751    18733 
   18700    18671    18651    18628    18620    18627    18621    18620 
   18632    18631    18615    18613    18615    18608    18620    18638 
   18648    18673    18708    18735    18771    18813    18852    18908 
   18971    19016    19053    19098    19132    19160    19187    19192 
   19182    19182    19176    19149    19129    19109    19076    19060 
   19060    19056    19055    19047    19018    18995    18979    18949 
   18929    18929    18935    18958    18986    18998    19016    19041 
   19043    19035    19032    19025    19005    18986    18964    18932 
   18909    18902    18879    18854    18844    18833    18828    18835 
   18831    18831    18843    18837    18817    18812    18813    18817 
   18836    18856    18863    18875    18891    18897    18898    18886 
   18859    18851    18863    18867    18863    18854    18835    18825 
   18840    18855    18870    18893    18905    18902    18916    18935 
   18937    18945    18960    18964    18981    19005    19014    19022 
   19030    19020    19009    19005    18990    18975    18975    18968 
   18958    18959    18952    18929    18912    18891    18878    18890 
   18914    18922    18918    18918    18916    18922    18944    18962 
   18978    19005    19017    19014    19026    19032    19026    19037 
   19051    19045    19048    19047    19028    19029    19051    19059 
   19080    19114    19122    19116    19110    19091    19066    19053 
   19044    19032    19033    19036    19033    19035    19032    19018 
   19014    19016    19013    19022    19028    19002    18985    18982 
   18964    18952    18955    18952    18949    18966    18976    18979 
   18990    19001    18999    19003    19002    18986    18974    18972 
   18966    18971    18987    18987    18979    18978    18956    18922 
   18906    18883    18848    18832    18813    18783    18770    18759 
   18735    18728    18728    18708    18693    18696    18689    18685 
   18701    18716    18729    18750    18763    18771    18787    18793 
   18785    18789    18794    18797    18819    18847    18868    18898 
   18920    18917    18914    18918    18913    18906    18905    18890 
   18866    18846    18820    18802    18808    18821    18833    18866 
   18895    18909    18925    18931    18918    18917    18928    18922 
   18918    18929    18936    18939    18956    18974    18990    19010 
   19021    19022    19030    19035    19025    19024    19024    19014 
   19008    19010    19017    19030    19053    19067    19083    19114 
   19133    19145    19170    19179    19171    19183    19195    19188 
   19188    19194    19187    19191    19207    19217    19224    19224 
   19195    19168    19151    19106    19056    19033    19010    18990 
   18990    18979    18956    18949    18941    18925    18924    18927 
   18921    18931    18941    18937    18943    18956    18962    18970 
   18979    18981    18993    19017    19033    19052    19079    19089 
   19091    19116    19140    19148    19164    19178    19172    19167 
   19178    19182    19183    19190    19186    19176    19175    19168 
   19159    19151    19134    19125    19134    19129    19107    19095 
   19090    19079    19074    19072    19056    19030    19008    18985 
   18968    18963    18945    18924    18913    18886    18851    18832 
   18817    18804    18813    18816    18794    18782    18781    18774 
   18778    18786    18779    18779    18794    18794    18800    18820 
   18825    18821    18827    18823    18813    18813    18809    18804 
