Origin Time       2025/01/13 21:19:00
Lat.              31.8
Long.             131.6
Depth. (km)       30
Mag.              6.9
Station Code      HRSH13
Station Lat.      34.4122
Station Long.     132.3907
Station Height(m) -50
Record Time       2025/01/13 21:20:27
Sampling Freq(Hz) 100Hz
Duration Time(s)  125
Dir.              2
Scale Factor      2942(gal)/8224139
Max. Acc. (gal)   0.857
Last Correction   2025/01/13 21:20:27
Memo.             
[...]
  226037   226065   226088   226088   226058   225999   225946   225907 
  225849   225776   225725   225713   225742   225787   225806   225801 
  225792   225799   225823   225848   225861   225859   225842   225860 
  225886   225869   225877   225934   225983   226027   226084   226130 
  226152   226170   226164   226116   226103   226156   226204   226220 
  226231   226230   226234   226301   226420   226527   226594   226648 
  226716   226775   226809   226829   226779   226632   226488   226409 
  226374   226373   226411   226455   226476   226485   226501   226524 
  226566   226624   226671   226697   226696   226647   226570   226517 
  226500   226474   226438   226447   226509   226546   226519   226474 
  226440   226384   226301   226258   226269   226253   226187   226149 
  226169   226212   226262   226299   226318   226336   226338   226319 
  226327   226341   226303   226227   226154   226099   226072   226068 
  226083   226122   226177   226249   226318   226347   226380   226462 
  226530   226531   226516   226527   226562   226605   226593   226493 
  226401   226363   226339   226380   226480   226525   226489   226426 
  226407   226466   226551   226592   226590   226565   226509   226449 
  226412   226368   226304   226230   226133   226060   226072   226137 
  226196   226239   226291   226349   226365   226331   226289   226274 
  226277   226272   226230   226154   226077   226003   225927   225886 
  225876   225864   225871   225914   225929   225895   225860   225828 
  225805   225823   225860   225876   225890   225899   225895   225888 
  225892   225937   226019   226077   226111   226177   226272   226355 
  226426   226446   226385   226303   226224   226145   226104   226104 
  226122   226166   226208   226227   226262   226316   226357   226385 
  226389   226373   226346   226276   226180   226145   226153   226153 
  226169   226206   226274   226377   226443   226482   226559   226648 
  226700   226696   226656   226592   226476   226345   226278   226227 
  226143   226110   226150   226206   226280   226377   226459   226494 
  226494   226508   226581   226705   226809   226824   226778   226746 
  226754   226764   226747   226716   226713   226766   226854   226937 
  226982   226957   226902   226875   226844   226774   226709   226659 
  226589   226511   226478   226505   226531   226493   226420   226382 
  226363   226293   226208   226161   226110   226087   226125   226145 
  226147   226197   226261   226281   226260   226226   226233   226247 
  226204   226149   226106   226042   226027   226111   226179   226138 
  226045   226000   226012   226007   225961   225925   225925   225941 
  225971   225998   226006   226031   226089   226138   226169   226210 
  226268   226315   226339   226353   226318   226222   226157   226154 
  226154   226145   226161   226197   226216   226212   226199   226174 
  226142   226127   226141   226141   226134   226160   226170   226161 
  226170   226176   226169   226181   226208   226223   226215   226179 
  226134   226125   226166   226222   226220   226154   226114   226129 
  226138   226146   226160   226152   226141   226134   226088   226011 
  225937   225900   225934   225977   225981   225988   225981   225965 
  226022   226131   226227   226297   226320   226300   226251   226172 
  226106   226089   226099   226107   226114   226147   226204   226226 
  226188   226139   226143   226206   226269   226278   226227   226137 
  226062   226071   226179   226309   226374   226374   226351   226322 
  226277   226233   226187   226135   226139   226204   226231   226210 
  226181   226165   226181   226219   226278   226353   226413   226471 
  226504   226497   226496   226507   226504   226497   226512   226555 
  226597   226606   226590   226558   226516   226511   226552   226578 
  226562   226559   226601   226656   226706   226724   226670   226584 
  226496   226390   226314   226303   226262   226149   226072   226057 
  226037   226052   226122   226174   226255   226404   226512   226544 
  226602   226689   226732   226720   226643   226516   226455   226482 
  226505   226500   226476   226436   226426   226454   226498   226562 
  226620   226640   226604   226534   226486   226474   226462   226443 
  226435   226442   226430   226358   226241   226112   226027   226022 
  226061   226111   226195   226318   226432   226477   226447   226385 
  226284   226160   226068   226017   225977   225938   225919   225942 
  225975   225990   225999   225995   225941   225837   225733   225661 
  225598   225535   225487   225463   225460   225474   225479   225479 
  225460   225405   225382   225445   225479   225425   225393   225414 
  225412   225391   225410   225425   225381   225328   225336   225400 
  225475   225535   225578   225601   225614   225647   225688   225679 
  225618   225587   225613   225594   225483   225381   225358   225397 
  225458   225524   225641   225829   226010   226098   226058   225922 
  225814   225806   225799   225737   225684   225680   225745   225884 
  226049   226203   226312   226361   226427   226484   226403   226250 
  226193   226239   226335   226407   226396   226363   226341   226316 
  226359   226463   226561   226652   226720   226741   226696   226573 
  226461   226459   226531   226573   226542   226515   226578   226666 
  226643   226517   226405   226331   226272   226235   226184   226087 
  225998   225944   225919   225914   225872   225784   225695   225641 
  225621   225610   225605   225597   225532   225414   225320   225211 
  225058   224957   224926   224901   224891   224881   224876   224893 
  224873   224850   224961   225135   225223   225242   225261   225282 
  225278   225261   225236   225185   225131   225090   225049   225038 
  225090   225155   225190   225243   225354   225504   225666   225822 
  225994   226184   226301   226336   226382   226440   226454   226411 
  226362   226380   226450   226496   226531   226627   226748   226828 
  226902   226983   227020   227017   226994   226979   227010   227034 
  227006   226990   227043   227144   227217   227221   227223   227245 
  227230   227187   227134   227095   227153   227259   227271   227257 
  227317   227356   227354   227396   227465   227508   227468   227306 
  227113   226968   226898   226940   227017   227037   227061   227099 
  227061   226974   226917   226881   226831   226773   226706   226613 
  226478   226351   226307   226281   226212   226160   226126   226026 
  225882   225779   225715   225668   225687   225755   225819   225860 
  225855   225828   225833   225863   225873   225830   225775   225765 
  225779   225814   225883   225931   225968   226062   226185   226264 
  226309   226328   226293   226224   226193   226258   226404   226565 
  226685   226725   226741   226849   227014   227144   227260   227341 
  227294   227168   227090   227053   227028   227048   227087   227088 
  227115   227184   227163   227044   226971   226975   226991   227005 
  227013   226974   226890   226812   226732   226655   226647   226702 
  226735   226748   226770   226760   226740   226804   226898   226922 
  226922   226940   226941   226941   226939   226891   226868   226963 
  227115   227209   227211   227200   227259   227333   227342   227277 
  227155   227024   226932   226881   226843   226787   226719   226697 
  226737   226766   226747   226732   226712   226620   226505   226474 
  226504   226519   226501   226473   226451   226447   226470   226525 
  226571   226567   226569   226605   226578   226494   226466   226481 
  226484   226508   226559   226608   226666   226782   226943   227030 
  227010   227010   227065   227091   227095   227121   227138   227121 
  227103   227155   227294   227446   227542   227618   227708   227772 
  227763   227684   227600   227578   227574   227539   227497   227479 
  227492   227522   227522   227468   227389   227311   227229   227121 
  226993   226875   226790   226747   226763   226782   226747   226701 
  226692   226697   226681   226686   226735   226762   226766   226773 
  226694   226540   226430   226350   226272   226265   226322   226342 
  226293   226210   226154   226183   226233   226241   226242   226203 
  226058   225898   225763   225562   225370   225332   225398   225451 
  225458   225451   225463   225472   225464   225437   225405   225405 
  225405   225352   225304   225306   225304   225270   225250   225325 
  225454   225471   225397   225379   225406   225408   225433   225535 
  225680   225813   225902   225941   225927   225877   225809   225691 
  225553   225502   225562   225621   225633   225679   225764   225809 
  225836   225875   225910   225981   226060   226035   225965   225913 
  225834   225784   225825   225876   225876   225873   225918   225937 
  225861   225780   225783   225819   225821   225745   225622   225541 
  225516   225460   225362   225321   225362   225386   225350   225275 
  225161   225038   224972   224958   224934   224883   224820   224753 
  224702   224685   224675   224668   224710   224779   224843   224922 
  225015   225128   225270   225385   225421   225414   225431   225468 
  225448   225374   225347   225385   225427   225483   225553   225601 
  225659   225765   225896   226007   226071   226107   226147   226204 
  226289   226399   226470   226449   226408   226450   226493   226422 
  226316   226270   226214   226110   226014   225961   225952   225914 
  225807   225707   225636   225567   225543   225556   225540   225436 
  225246   225090   225024   224946   224837   224754   224689   224644 
  224635   224661   224726   224799   224834   224874   224965   225072 
  225181   225283   225343   225389   225443   225499   225585   225676 
  225741   225796   225832   225837   225864   225910   225948   225996 
  226052   226112   226189   226212   226142   226042   225954   225895 
  225868   225842   225849   225913   225971   226006   226008   225950 
  225904   225952   226002   225963   225899   225883   225921   226018 
  226141   226238   226341   226444   226504   226546   226571   226535 
  226467   226420   226384   226345   226323   226324   226314   226316 
  226361   226411   226453   226493   226535   226604   226683   226740 
  226767   226786   226804   226797   226755   226714   226696   226670 
  226601   226520   226463   226426   226423   226438   226438   226471 
  226540   226569   226554   226516   226486   226516   226567   226605 
  226650   226659   226625   226632   226650   226613   226579   226550 
  226461   226393   226400   226361   226246   226130   226021   225940 
  225904   225883   225868   225845   225799   225772   225765   225713 
  225620   225568   225553   225528   225481   225425   225351   225231 
  225142   225165   225228   225266   225297   225346   225429   225477 
  225464   225494   225533   225540   225595   225679   225722   225733 
  225722   225724   225776   225818   225810   225833   225891   225940 
  226019   226135   226247   226335   226359   226320   226282   226235 
  226149   226100   226083   225985   225846   225772   225759   225771 
  225771   225715   225644   225590   225520   225456   225444   225432 
  225385   225336   225290   225258   225274   225302   225324   225370 
  225456   225597   225728   225780   225817   225877   225934   226019 
  226149   226273   226351   226395   226438   226473   226466   226444 
  226449   226462   226492   226539   226544   226492   226467   226498 
  226527   226555   226608   226635   226640   226675   226732   226813 
  226939   227072   227191   227304   227416   227511   227569   227641 
  227757   227847   227897   227958   228004   228005   228027   228062 
  228035   227983   227985   227997   227973   227923   227857   227804 
  227773   227707   227587   227449   227269   227061   226912   226801 
  226669   226558   226513   226492   226469   226461   226416   226323 
  226231   226139   226041   225957   225863   225730   225587   225508 
  225477   225364   225166   225011   224916   224833   224775   224766 
  224793   224816   224838   224928   225090   225267   225475   225726 
  225950   226130   226300   226471   226659   226847   227002   227146 
  227303   227439   227557   227686   227799   227848   227853   227862 
  227888   227890   227873   227870   227836   227742   227674   227661 
  227599   227479   227375   227280   227215   227222   227227   227167 
  227097   227030   226964   226948   226929   226822   226690   226594 
  226489   226380   226319   226268   226197   226164   226161   226161 
  226161   226141   226125   226118   226085   226056   226030   225944 
  225814   225732   225699   225694   225732   225790   225840   225909 
  226014   226137   226241   226326   226416   226507   226557   226563 
  226584   226651   226725   226805   226903   227001   227106   227219 
  227326   227452   227574   227661   227696   227689   227688   227695 
  227703   227732   227761   227784   227824   227874   227912   227951 
  228006   228060   228137   228264   228360   228363   228329   228278 
  228187   228121   228097   228050   227940   227789   227647   227511 
  227340   227157   226972   226763   226557   226388   226230   226053 
  225873   225718   225585   225459   225339   225208   225057   224873 
  224649   224452   224311   224202   224133   224068   223979   223927 
  223920   223936   223977   223987   223952   223936   223905   223839 
  223825   223861   223881   223898   223946   224047   224175   224256 
  224306   224375   224434   224483   224567   224656   224704   224753 
  224842   224955   225061   225109   225105   225105   225126   225151 
  225171   225167   225148   225140   225127   225109   225109   225123 
  225144   225150   225144   225174   225246   225300   225277   225225 
  225229   225236   225211   225231   225274   225279   225267   225256 
  225274   225348   225444   225510   225566   225628   225648   225640 
  225672   225720   225744   225783   225828   225855   225913   225990 
  226061   226161   226239   226262   226315   226411   226465   226473 
  226466   226412   226319   226245   226158   226029   225917   225845 
  225791   225757   225741   225749   225787   225818   225855   225909 
  225940   225963   226006   226035   226048   226060   226088   226168 
  226280   226370   226461   226557   226642   226741   226845   226895 
  226909   226932   226966   227011   227040   227018   226995   227010 
  227044   227071   227072   227060   227045   226994   226913   226839 
  226768   226713   226694   226689   226683   226709   226751   226793 
  226862   226925   226925   226879   226843   226844   226856   226828 
  226756   226701   226667   226619   226585   226593   226588   226555 
  226528   226505   226467   226413   226355   226297   226191   226035 
  225907   225811   225695   225585   225516   225439   225348   225312 
  225354   225440   225552   225711   225903   226079   226231   226373 
  226507   226650   226787   226890   226964   227052   227163   227261 
  227364   227479   227553   227607   227674   227713   227731   227755 
  227749   227716   227708   227696   227642   227570   227475   227334 
  227214   227121   227007   226902   226801   226675   226581   226516 
  226403   226269   226161   226057   225985   225948   225900   225865 
  225840   225771   225690   225672   225709   225732   225732   225736 
  225745   225751   225755   225748   225729   225720   225725   225737 
  225751   225769   225805   225836   225838   225836   225861   225892 
  225906   225922   225946   225945   225913   225879   225853   225855 
  225903   225964   226012   226084   226162   226216   226282   226346 
  226343   226338   226393   226439   226440   226443   226431   226384 
  226331   226270   226224   226224   226251   226281   226299   226318 
  226345   226368   226382   226377   226318   226239   226195   226172 
  226150   226150   226195   226272   226349   226428   226517   226593 
  226673   226747   226770   226773   226785   226771   226727   226679 
  226642   226608   226562   226498   226435   226361   226258   226150 
  226053   225968   225896   225799   225674   225590   225547   225471 
  225360   225254   225162   225105   225058   224964   224839   224739 
  224676   224623   224580   224542   224500   224464   224437   224410 
  224391   224387   224401   224421   224438   224464   224490   224513 
  224548   224584   224608   224614   224586   224554   224572   224614 
  224634   224665   224731   224827   224968   225111   225196   225239 
  225282   225355   225450   225537   225644   225765   225871   225995 
  226130   226241   226361   226497   226609   226719   226822   226891 
  226955   227022   227071   227137   227229   227298   227337   227383 
  227435   227470   227476   227461   227448   227410   227326   227272 
  227271   227275   227273   227290   227321   227367   227406   227422 
  227465   227537   227569   227577   227603   227623   227620   227574 
  227491   227443   227404   227299   227188   227103   226994   226882 
  226773   226636   226497   226357   226174   225980   225821   225660 
  225486   225347   225231   225093   224973   224893   224827   224797 
  224808   224820   224831   224860   224922   225022   225138   225267 
  225410   225553   225687   225803   225896   226002   226172   226374 
  226542   226677   226797   226903   227016   227122   227209   227283 
  227365   227460   227565   227662   227736   227782   227796   227788 
  227796   227804   227776   227743   227720   227672   227597   227512 
  227425   227358   227317   227290   227298   227300   227230   227137 
  227075   227020   226971   226948   226941   226932   226887   226813 
  226731   226652   226590   226554   226528   226488   226409   226314 
  226230   226131   226006   225895   225814   225759   225715   225668 
  225622   225564   225482   225404   225360   225348   225347   225340 
  225336   225352   225406   225494   225590   225695   225844   226021 
  226180   226332   226485   226596   226673   226736   226766   226764 
  226782   226835   226879   226891   226903   226936   226966   226966 
  226975   227013   227028   227006   226974   226926   226866   226800 
  226713   226624   226559   226492   226420   226369   226308   226223 
  226130   226019   225896   225778   225655   225517   225359   225212 
  225117   225032   224907   224812   224773   224730   224700   224691 
  224671   224662   224667   224641   224614   224638   224708   224796 
  224878   224924   224957   225004   225046   225103   225198   225301 
  225402   225510   225607   225672   225714   225769   225849   225929 
  226026   226158   226289   226400   226482   226500   226494   226498 
  226463   226423   226409   226368   226288   226183   226061   225980 
  225934   225888   225861   225844   225809   225776   225734   225660 
  225582   225495   225397   225329   225286   225227   225178   225153 
  225121   225112   225154   225196   225225   225279   225339   225387 
  225458   225545   225624   225707   225810   225900   225969   226054 
  226146   226230   226323   226388   226413   226459   226519   226562 
  226602   226640   226675   226729   226789   226835   226852   226821 
  226793   226828   226872   226903   226943   226982   227013   227053 
