Origin Time       2025/01/13 21:19:00
Lat.              31.8
Long.             131.6
Depth. (km)       30
Mag.              6.9
Station Code      HRSH14
Station Lat.      34.2090
Station Long.     132.4063
Station Height(m) -60
Record Time       2025/01/13 21:20:27
Sampling Freq(Hz) 100Hz
Duration Time(s)  138
Dir.              2
Scale Factor      2942(gal)/8224139
Max. Acc. (gal)   1.066
Last Correction   2025/01/13 21:20:27
Memo.             
[...]
   46380    46352    46352    46353    46337    46314    46303    46305 
   46323    46344    46337    46322    46323    46334    46349    46361 
   46349    46322    46292    46259    46214    46156    46091    46029 
   45963    45898    45860    45855    45862    45878    45904    45933 
   45962    45990    46022    46067    46128    46184    46217    46228 
   46241    46261    46296    46349    46395    46415    46415    46398 
   46375    46367    46376    46384    46381    46377    46384    46399 
   46421    46441    46444    46421    46376    46307    46210    46103 
   46012    45954    45935    45937    45932    45900    45846    45793 
   45775    45794    45827    45858    45874    45868    45859    45848 
   45827    45798    45778    45769    45775    45797    45825    45855 
   45890    45924    45936    45931    45931    45943    45970    46017 
   46074    46134    46209    46288    46367    46442    46498    46529 
   46541    46533    46512    46498    46484    46462    46444    46426 
   46396    46352    46303    46245    46175    46109    46071    46079 
   46124    46176    46199    46179    46137    46107    46110    46144 
   46194    46249    46298    46346    46394    46429    46444    46435 
   46411    46387    46379    46387    46396    46414    46437    46452 
   46468    46483    46465    46426    46390    46360    46344    46360 
   46394    46429    46468    46499    46504    46489    46457    46399 
   46329    46269    46237    46234    46252    46280    46315    46349 
   46387    46426    46464    46496    46512    46511    46499    46495 
   46503    46507    46492    46473    46453    46423    46373    46294 
   46188    46071    45959    45874    45839    45850    45881    45912 
   45954    45999    46017    46001    45975    45964    45956    45935 
   45901    45859    45820    45800    45809    45828    45831    45817 
   45805    45824    45883    45951    46010    46083    46165    46232 
   46283    46327    46342    46319    46284    46257    46222    46174 
   46128    46097    46087    46107    46149    46198    46238    46273 
   46317    46356    46379    46379    46350    46302    46255    46218 
   46197    46192    46182    46141    46079    46045    46067    46116 
   46143    46137    46114    46095    46105    46133    46160    46192 
   46236    46272    46282    46255    46203    46148    46111    46094 
   46082    46078    46083    46089    46078    46057    46039    46017 
   45986    45954    45914    45883    45887    45921    45962    46002 
   46033    46051    46076    46134    46211    46286    46345    46376 
   46386    46404    46433    46456    46473    46491    46516    46553 
   46588    46610    46595    46533    46452    46383    46327    46273 
   46219    46172    46151    46164    46195    46213    46197    46152 
   46110    46095    46103    46140    46205    46257    46252    46194 
   46136    46109    46103    46093    46067    46022    45966    45932 
   45933    45955    45987    46018    46040    46068    46103    46110 
   46094    46097    46122    46156    46194    46225    46257    46302 
   46352    46387    46388    46346    46279    46219    46192    46168 
   46121    46066    46036    46040    46080    46145    46202    46217 
   46192    46165    46149    46118    46057    45990    45948    45939 
   45944    45958    45981    45997    45986    45960    45936    45914 
   45904    45893    45866    45841    45868    45951    46041    46087 
   46076    46053    46056    46079    46114    46175    46282    46423 
   46554    46631    46627    46539    46422    46344    46296    46232 
   46147    46070    46008    45972    45960    45958    45948    45914 
   45856    45814    45820    45867    45924    45970    45995    45997 
   45994    46013    46070    46153    46214    46217    46168    46111 
   46086    46090    46109    46126    46130    46118    46102    46086 
   46083    46101    46114    46103    46086    46083    46098    46128 
   46171    46218    46244    46234    46202    46161    46116    46066 
   46006    45937    45868    45813    45777    45752    45744    45760 
   45798    45841    45870    45890    45916    45967    46067    46186 
   46255    46269    46256    46218    46171    46160    46197    46260 
   46322    46356    46353    46337    46322    46300    46278    46264 
   46251    46236    46225    46202    46167    46122    46059    46003 
   45990    46016    46053    46063    46026    45960    45877    45792 
   45727    45675    45625    45570    45526    45542    45647    45812 
   45982    46110    46175    46190    46182    46151    46087    45997 
   45908    45870    45898    45966    46039    46118    46210    46294 
   46363    46426    46468    46472    46467    46473    46473    46472 
   46488    46508    46514    46495    46441    46368    46288    46226 
   46205    46192    46144    46071    46008    45963    45952    45990 
   46057    46128    46174    46186    46184    46191    46213    46255 
   46282    46230    46113    45987    45890    45835    45832    45852 
   45859    45863    45898    45978    46111    46287    46469    46604 
   46658    46639    46566    46469    46392    46373    46391    46395 
   46388    46422    46480    46510    46506    46491    46477    46461 
   46427    46392    46398    46453    46543    46651    46737    46757 
   46732    46701    46662    46604    46546    46491    46418    46336 
   46279    46259    46249    46226    46187    46132    46078    46052 
   46053    46074    46098    46106    46105    46110    46106    46094 
   46093    46074    46013    45948    45935    45976    46037    46075 
   46075    46072    46091    46132    46170    46176    46175    46206 
   46248    46264    46273    46322    46403    46480    46504    46453 
   46361    46295    46272    46261    46245    46219    46197    46210 
   46252    46278    46291    46336    46404    46457    46500    46550 
   46596    46612    46585    46516    46438    46376    46329    46283 
   46232    46176    46132    46106    46094    46083    46076    46083 
   46093    46099    46109    46116    46109    46099    46106    46116 
   46117    46125    46137    46134    46117    46103    46101    46098 
   46076    46053    46056    46083    46114    46124    46117    46134 
   46179    46197    46171    46126    46087    46087    46130    46176 
   46201    46211    46194    46143    46087    46045    46035    46056 
   46093    46141    46205    46273    46338    46384    46387    46354 
   46299    46215    46129    46075    46062    46079    46134    46234 
   46330    46375    46369    46341    46325    46338    46360    46381 
   46431    46514    46593    46653    46699    46735    46727    46666 
   46583    46494    46415    46377    46373    46386    46429    46502 
   46548    46498    46342    46140    45974    45891    45895    45949 
   46001    46028    46059    46118    46190    46209    46134    46016 
   45927    45885    45878    45897    45925    45941    45936    45929 
   45951    46005    46090    46217    46367    46500    46584    46587 
   46518    46441    46404    46390    46369    46350    46348    46352 
   46336    46283    46226    46190    46179    46214    46303    46407 
   46480    46503    46483    46452    46441    46453    46462    46448 
   46414    46381    46375    46404    46442    46449    46418    46371 
   46325    46269    46194    46113    46062    46059    46072    46055 
   46017    45993    45970    45951    45956    45968    45979    46012 
   46059    46091    46117    46155    46210    46268    46300    46300 
   46299    46295    46251    46191    46184    46232    46298    46354 
   46371    46313    46175    46012    45878    45782    45712    45670 
   45666    45713    45804    45904    45983    46022    46005    45952 
   45908    45914    46001    46134    46260    46353    46415    46452 
   46453    46430    46404    46372    46306    46210    46124    46090 
   46117    46183    46273    46377    46473    46537    46561    46546 
   46495    46411    46319    46252    46214    46192    46184    46195 
   46219    46226    46199    46137    46056    45975    45917    45904 
   45932    45976    46026    46079    46111    46105    46070    46026 
   45999    45970    45883    45751    45632    45544    45459    45377 
   45322    45311    45323    45337    45357    45382    45381    45343 
   45283    45196    45096    45037    45054    45148    45283    45395 
   45439    45432    45401    45347    45266    45169    45063    44959 
   44888    44887    44948    45036    45122    45184    45212    45220 
   45216    45200    45187    45198    45242    45289    45308    45318 
   45337    45357    45393    45446    45478    45476    45468    45462 
   45420    45330    45231    45154    45108    45091    45085    45072 
   45054    45063    45096    45125    45150    45203    45274    45318 
   45310    45285    45289    45328    45392    45477    45557    45619 
   45669    45705    45728    45751    45787    45840    45894    45921 
   45916    45917    45974    46068    46144    46164    46124    46040 
   45937    45841    45779    45766    45812    45912    45995    45991 
   45931    45895    45917    45982    46059    46124    46168    46167 
   46125    46101    46120    46170    46245    46310    46283    46153 
   46001    45906    45891    45937    46008    46086    46167    46237 
   46295    46357    46433    46519    46602    46654    46653    46603 
   46533    46464    46427    46426    46441    46461    46462    46418 
   46367    46346    46360    46390    46406    46415    46444    46487 
   46519    46531    46541    46569    46610    46665    46753    46870 
   46993    47096    47152    47164    47159    47144    47132    47151 
   47213    47297    47356    47368    47348    47335    47370    47461 
   47574    47652    47677    47680    47691    47709    47715    47731 
   47784    47846    47871    47850    47784    47680    47556    47436 
   47343    47278    47216    47152    47100    47061    47040    47029 
   46988    46916    46863    46840    46812    46754    46685    46633 
   46606    46600    46603    46581    46514    46429    46346    46244 
   46124    46017    45958    45968    46039    46128    46218    46295 
   46341    46344    46313    46265    46206    46129    46047    45989 
   45981    46009    46047    46086    46122    46143    46167    46228 
   46314    46429    46572    46687    46728    46707    46651    46637 
   46719    46866    47005    47109    47169    47190    47205    47224 
   47243    47268    47312    47371    47453    47564    47699    47834 
   47935    48014    48093    48161    48197    48197    48178    48150 
   48092    47977    47822    47673    47564    47484    47390    47256 
   47112    46981    46851    46710    46553    46384    46219    46080 
   45962    45841    45701    45517    45318    45179    45111    45083 
   45087    45129    45191    45264    45364    45486    45586    45634 
   45647    45650    45648    45623    45557    45481    45415    45331 
   45233    45171    45172    45233    45326    45431    45538    45635 
   45719    45809    45924    46071    46240    46396    46512    46604 
   46687    46742    46753    46731    46705    46680    46622    46531 
   46446    46372    46314    46302    46329    46377    46434    46496 
   46564    46647    46757    46901    47066    47196    47255    47258 
   47221    47142    47038    46938    46819    46670    46533    46426 
   46336    46242    46148    46079    46076    46143    46232    46319 
   46407    46468    46468    46413    46322    46192    46029    45841 
   45639    45419    45196    45036    44953    44895    44842    44802 
   44744    44662    44618    44643    44699    44772    44880    45014 
   45144    45237    45269    45262    45247    45220    45184    45162 
   45158    45184    45261    45391    45576    45813    46056    46259 
   46417    46515    46548    46548    46556    46584    46623    46662 
   46692    46711    46715    46712    46684    46612    46515    46421 
   46329    46255    46215    46206    46214    46237    46259    46287 
   46348    46423    46479    46518    46561    46589    46597    46618 
   46669    46738    46808    46870    46917    46955    47000    47046 
   47070    47061    47011    46903    46735    46534    46348    46210 
   46103    46006    45933    45901    45909    45958    46018    46048 
   46039    45987    45885    45752    45619    45497    45408    45335 
   45241    45133    45023    44907    44806    44757    44756    44787 
   44844    44905    44948    44955    44917    44868    44845    44821 
   44756    44670    44589    44533    44539    44605    44680    44726 
   44732    44712    44686    44666    44656    44639    44589    44528 
   44500    44523    44599    44703    44784    44830    44863    44876 
   44849    44825    44845    44890    44928    44956    44991    45065 
   45195    45330    45419    45472    45517    45566    45643    45774 
   45936    46080    46195    46286    46359    46415    46448    46469 
   46508    46553    46568    46564    46573    46579    46573    46579 
   46589    46576    46529    46494    46508    46558    46596    46562 
   46430    46283    46207    46172    46113    46006    45824    45573 
   45304    45084    44949    44880    44805    44655    44436    44216 
   44032    43858    43659    43470    43356    43344    43394    43429 
   43395    43306    43217    43164    43159    43206    43291    43416 
   43607    43843    44072    44275    44439    44548    44647    44786 
   44977    45207    45451    45706    45967    46202    46386    46525 
   46610    46635    46646    46664    46662    46631    46602    46611 
   46661    46710    46718    46695    46661    46616    46569    46550 
   46542    46519    46510    46546    46604    46635    46600    46487 
   46326    46156    45997    45873    45804    45773    45743    45709 
   45688    45696    45729    45748    45708    45636    45592    45574 
   45553    45557    45600    45627    45600    45562    45563    45613 
   45697    45770    45809    45846    45914    46022    46136    46215 
   46272    46330    46376    46431    46531    46645    46747    46850 
   46950    47035    47120    47206    47283    47351    47409    47459 
   47515    47565    47588    47603    47640    47702    47765    47834 
   47912    47980    48041    48122    48220    48317    48396    48421 
   48388    48323    48228    48092    47930    47769    47641    47578 
   47576    47595    47591    47537    47447    47378    47352    47317 
   47197    47009    46816    46634    46446    46265    46106    45960 
   45835    45731    45640    45570    45544    45573    45627    45684 
   45743    45801    45839    45840    45814    45782    45759    45742 
   45713    45662    45597    45557    45553    45577    45617    45630 
   45594    45559    45563    45604    45674    45760    45846    45906 
   45924    45912    45910    45927    45939    45949    45966    45979 
   46006    46056    46105    46133    46155    46172    46182    46186 
   46202    46241    46286    46307    46321    46349    46396    46458 
   46529    46576    46587    46577    46553    46514    46502    46530 
   46553    46549    46543    46558    46607    46708    46863    47042 
   47197    47308    47363    47368    47337    47274    47197    47123 
   47067    47061    47106    47183    47282    47393    47497    47567 
   47576    47529    47472    47422    47353    47270    47206    47182 
   47189    47194    47158    47066    46931    46757    46542    46321 
   46125    45964    45836    45742    45694    45686    45671    45623 
   45561    45523    45527    45553    45578    45619    45700    45833 
   46010    46209    46407    46591    46759    46896    46955    46947 
   46931    46947    46977    46996    47016    47046    47050    47000 
   46924    46855    46804    46776    46784    46830    46893    46966 
   47044    47102    47112    47061    46962    46838    46712    46618 
   46566    46534    46508    46498    46514    46553    46587    46584 
   46565    46554    46549    46549    46576    46622    46631    46593 
   46538    46462    46354    46240    46143    46064    46001    45941 
   45887    45839    45789    45736    45682    45638    45615    45613 
   45632    45654    45662    45666    45693    45748    45797    45836 
   45902    46005    46106    46184    46238    46303    46422    46576 
   46719    46840    46940    47017    47083    47133    47144    47096 
   46989    46858    46735    46627    46525    46429    46337    46233 
   46109    45975    45844    45701    45528    45350    45189    45031 
   44855    44671    44493    44297    44072    43849    43661    43524 
   43417    43333    43295    43328    43420    43552    43698    43848 
   44027    44251    44485    44716    44980    45273    45549    45787 
   45995    46164    46300    46418    46504    46543    46549    46545 
   46531    46516    46508    46494    46471    46471    46496    46510 
   46485    46431    46379    46353    46361    46391    46430    46472 
   46504    46504    46468    46410    46352    46314    46292    46275 
   46253    46238    46264    46337    46422    46503    46596    46693 
   46773    46828    46863    46861    46819    46737    46615    46480 
   46348    46206    46056    45935    45851    45771    45671    45554 
   45426    45289    45152    45013    44876    44757    44666    44604 
   44577    44567    44550    44532    44516    44473    44406    44339 
   44290    44270    44265    44267    44289    44323    44373    44439 
   44505    44555    44591    44624    44666    44718    44795    44905 
   45034    45169    45303    45436    45571    45696    45798    45881 
   45967    46067    46165    46252    46346    46464    46576    46653 
   46722    46805    46886    46963    47044    47124    47185    47228 
   47290    47395    47529    47655    47753    47837    47915    47981 
   48020    48034    48031    48016    47984    47934    47875    47808 
   47736    47644    47511    47344    47164    46993    46830    46642 
   46414    46176    45968    45786    45600    45391    45177    44994 
   44837    44687    44543    44420    44311    44192    44070    43965 
   43883    43825    43792    43783    43799    43856    43950    44055 
   44165    44298    44450    44606    44768    44922    45049    45160 
   45274    45407    45566    45752    45936    46087    46205    46314 
   46444    46583    46700    46807    46919    47012    47075    47124 
   47174    47232    47275    47298    47320    47348    47367    47356 
   47324    47301    47290    47275    47263    47263    47272    47287 
   47283    47258    47213    47143    47059    46980    46896    46789 
   46678    46600    46548    46498    46462    46454    46464    46481 
   46495    46483    46433    46356    46280    46248    46278    46352 
   46448    46542    46618    46670    46718    46761    46788    46792 
   46785    46781    46785    46793    46799    46782    46742    46711 
   46700    46700    46705    46724    46758    46801    46840    46885 
   46943    47015    47088    47129    47121    47067    46984    46889 
   46803    46730    46658    46588    46518    46427    46307    46182 
