Origin Time       2025/01/13 21:19:00
Lat.              31.8
Long.             131.6
Depth. (km)       30
Mag.              6.9
Station Code      HRSH09
Station Lat.      34.7016
Station Long.     132.9524
Station Height(m) 235
Record Time       2025/01/13 21:20:28
Sampling Freq(Hz) 100Hz
Duration Time(s)  144
Dir.              3
Scale Factor      3923(gal)/8224838
Max. Acc. (gal)   0.932
Last Correction   2025/01/13 21:20:29
Memo.             
[...]
  -50762   -50745   -50723   -50706   -50701   -50699   -50691   -50692 
  -50703   -50704   -50707   -50711   -50707   -50714   -50733   -50772 
  -50831   -50869   -50888   -50926   -50986   -51066   -51132   -51151 
  -51144   -51139   -51133   -51129   -51117   -51092   -51067   -51032 
  -50980   -50942   -50938   -50949   -50950   -50938   -50919   -50903 
  -50899   -50911   -50938   -50977   -51017   -51039   -51036   -51035 
  -51055   -51075   -51090   -51115   -51133   -51127   -51113   -51111 
  -51092   -51034   -50976   -50971   -51003   -51021   -51013   -50996 
  -50985   -50980   -50973   -50963   -50958   -50959   -50955   -50950 
  -50957   -50961   -50954   -50961   -50988   -51019   -51038   -51047 
  -51051   -51055   -51065   -51070   -51065   -51067   -51075   -51067 
  -51063   -51062   -51023   -50977   -50976   -50997   -51015   -51035 
  -51057   -51081   -51125   -51178   -51221   -51259   -51294   -51339 
  -51395   -51453   -51499   -51525   -51532   -51524   -51499   -51467 
  -51447   -51440   -51441   -51445   -51444   -51425   -51383   -51337 
  -51317   -51324   -51344   -51383   -51436   -51482   -51517   -51540 
  -51541   -51526   -51526   -51555   -51588   -51607   -51618   -51626 
  -51629   -51626   -51619   -51611   -51605   -51576   -51514   -51447 
  -51397   -51358   -51309   -51244   -51166   -51090   -51025   -50974 
  -50927   -50882   -50851   -50838   -50815   -50791   -50789   -50789 
  -50766   -50751   -50780   -50845   -50916   -50962   -51001   -51066 
  -51132   -51173   -51200   -51240   -51302   -51356   -51383   -51416 
  -51472   -51529   -51567   -51610   -51660   -51692   -51710   -51734 
  -51768   -51808   -51845   -51877   -51894   -51883   -51864   -51841 
  -51795   -51726   -51668   -51633   -51594   -51520   -51443   -51378 
  -51302   -51216   -51131   -51051   -50986   -50920   -50849   -50782 
  -50730   -50697   -50676   -50654   -50639   -50618   -50572   -50522 
  -50484   -50440   -50376   -50306   -50242   -50206   -50194   -50179 
  -50161   -50167   -50195   -50228   -50263   -50296   -50313   -50325 
  -50361   -50403   -50427   -50438   -50450   -50475   -50508   -50538 
  -50565   -50598   -50629   -50654   -50676   -50688   -50693   -50706 
  -50731   -50765   -50799   -50828   -50865   -50909   -50963   -51020 
  -51065   -51089   -51097   -51094   -51082   -51062   -51036   -50994 
  -50930   -50853   -50773   -50693   -50630   -50583   -50530   -50464 
  -50382   -50276   -50159   -50049   -49950   -49860   -49790   -49727 
  -49667   -49624   -49596   -49580   -49581   -49599   -49632   -49671 
  -49716   -49767   -49809   -49843   -49896   -49975   -50072   -50170 
  -50260   -50352   -50436   -50503   -50572   -50662   -50780   -50912 
  -51030   -51131   -51231   -51310   -51359   -51391   -51408   -51403 
  -51383   -51349   -51312   -51270   -51210   -51133   -51052   -50977 
  -50901   -50820   -50754   -50722   -50706   -50670   -50627   -50612 
  -50626   -50657   -50701   -50750   -50797   -50845   -50893   -50953 
  -51015   -51071   -51113   -51133   -51152   -51193   -51235   -51251 
  -51241   -51221   -51201   -51185   -51179   -51189   -51220   -51260 
  -51283   -51289   -51290   -51313   -51360   -51408   -51448   -51491 
  -51548   -51615   -51675   -51718   -51749   -51776   -51806   -51834 
  -51861   -51894   -51943   -51996   -52011   -51975   -51921   -51868 
  -51821   -51777   -51732   -51675   -51613   -51564   -51529   -51493 
  -51441   -51383   -51335   -51302   -51271   -51228   -51194   -51182 
  -51170   -51162   -51173   -51197   -51240   -51291   -51328   -51366 
  -51421   -51484   -51541   -51575   -51598   -51641   -51699   -51748 
  -51773   -51765   -51740   -51729   -51729   -51717   -51688   -51657 
  -51637   -51625   -51614   -51609   -51609   -51599   -51587   -51580 
  -51571   -51560   -51543   -51513   -51475   -51426   -51362   -51281 
  -51196   -51119   -51061   -51017   -50977   -50922   -50850   -50781 
  -50727   -50684   -50635   -50580   -50533   -50494   -50453   -50404 
  -50346   -50284   -50228   -50182   -50134   -50076   -50022   -49978 
  -49929   -49891   -49871   -49858   -49850   -49856   -49860   -49847 
  -49836   -49846   -49873   -49906   -49943   -49977   -50006   -50040 
  -50076   -50118   -50179   -50244   -50302   -50367   -50438   -50512 
  -50599   -50685   -50757   -50827   -50904   -50971   -51040   -51111 
  -51166   -51217   -51266   -51290   -51298   -51301   -51300   -51300 
  -51306   -51305   -51286   -51256   -51213   -51156   -51106   -51059 
  -50998   -50934   -50878   -50836   -50809   -50791   -50776   -50769 
  -50769   -50774   -50792   -50818   -50835   -50845   -50853   -50857 
  -50865   -50886   -50904   -50903   -50903   -50922   -50946   -50959 
  -50967   -50977   -50984   -50985   -50981   -50973   -50965   -50955 
  -50954   -50970   -50994   -51027   -51063   -51092   -51112   -51139 
  -51162   -51166   -51159   -51152   -51156   -51174   -51196   -51208 
  -51214   -51225   -51231   -51224   -51212   -51198   -51192   -51187 
  -51185   -51189   -51205   -51225   -51248   -51274   -51301   -51333 
  -51368   -51399   -51430   -51466   -51505   -51552   -51617   -51686 
  -51748   -51803   -51845   -51875   -51899   -51911   -51906   -51914 
  -51946   -51969   -51975   -51979   -51983   -51970   -51935   -51888 
  -51852   -51819   -51784   -51740   -51673   -51603   -51563   -51553 
  -51544   -51517   -51470   -51398   -51313   -51229   -51150   -51074 
  -51011   -50954   -50907   -50869   -50842   -50831   -50843   -50874 
  -50917   -50963   -51016   -51073   -51123   -51169   -51216   -51252 
  -51268   -51277   -51282   -51266   -51227   -51173   -51119   -51070 
  -51023   -50973   -50926   -50877   -50823   -50776   -50734   -50679 
  -50610   -50538   -50468   -50407   -50357   -50317   -50280   -50257 
  -50253   -50253   -50233   -50194   -50168   -50167   -50174   -50184 
  -50215   -50256   -50294   -50330   -50365   -50400   -50436   -50465 
  -50495   -50530   -50562   -50596   -50626   -50647   -50673   -50699 
  -50716   -50741   -50769   -50780   -50772   -50764   -50749   -50708 
  -50657   -50607   -50557   -50517   -50473   -50419   -50367   -50321 
  -50280   -50252   -50241   -50249   -50260   -50274   -50305   -50342 
  -50375   -50403   -50440   -50480   -50519   -50562   -50611   -50652 
  -50679   -50699   -50722   -50758   -50818   -50893   -50970   -51040 
  -51106   -51165   -51210   -51247   -51279   -51316   -51360   -51387 
  -51395   -51402   -51403   -51406   -51425   -51448   -51462   -51471 
  -51466   -51448   -51436   -51428   -51413   -51398   -51385   -51366 
  -51336   -51285   -51225   -51169   -51104   -51027   -50967   -50934 
  -50915   -50919   -50942   -50971   -51008   -51052   -51088   -51104 
  -51108   -51105   -51089   -51073   -51075   -51073   -51043   -51008 
  -50996   -50989   -50959   -50907   -50857   -50812   -50754   -50680 
  -50604   -50541   -50491   -50448   -50406   -50364   -50328   -50306 
  -50307   -50334   -50380   -50444   -50518   -50587   -50645   -50706 
  -50789   -50893   -50998   -51101   -51192   -51262   -51321   -51391 
  -51479   -51555   -51601   -51628   -51644   -51646   -51633   -51603 
  -51555   -51491   -51421   -51345   -51266   -51193   -51131   -51074 
  -51020   -50978   -50949   -50916   -50886   -50861   -50838   -50828 
  -50843   -50872   -50899   -50928   -50965   -50998   -51034   -51062 
  -51073   -51079   -51092   -51098   -51098   -51094   -51088   -51086 
  -51109   -51143   -51159   -51154   -51148   -51151   -51155   -51148 
  -51132   -51125   -51116   -51101   -51098   -51098   -51092   -51089 
  -51079   -51061   -51047   -51028   -50994   -50961   -50924   -50878 
  -50830   -50780   -50715   -50633   -50546   -50472   -50415   -50369 
  -50329   -50296   -50283   -50284   -50288   -50299   -50323   -50355 
  -50387   -50427   -50485   -50548   -50607   -50676   -50749   -50807 
  -50857   -50900   -50926   -50942   -50954   -50954   -50939   -50911 
  -50874   -50843   -50818   -50789   -50758   -50708   -50634   -50557 
  -50477   -50399   -50345   -50314   -50291   -50275   -50271   -50267 
  -50260   -50265   -50291   -50338   -50395   -50442   -50485   -50542 
  -50607   -50669   -50728   -50796   -50866   -50927   -50976   -51023 
  -51089   -51173   -51267   -51370   -51471   -51571   -51664   -51744 
  -51826   -51908   -51980   -52050   -52105   -52130   -52132   -52118 
  -52088   -52053   -52010   -51946   -51877   -51811   -51722   -51624 
  -51536   -51443   -51348   -51264   -51183   -51116   -51075   -51058 
  -51057   -51073   -51098   -51120   -51143   -51177   -51221   -51277 
  -51333   -51378   -51406   -51418   -51408   -51381   -51349   -51314 
  -51268   -51216   -51167   -51127   -51086   -51040   -51004   -50997 
  -51007   -51016   -51013   -51003   -50988   -50969   -50946   -50926 
  -50913   -50901   -50877   -50847   -50827   -50811   -50789   -50758 
  -50708   -50643   -50585   -50542   -50507   -50477   -50454   -50440 
  -50425   -50407   -50402   -50415   -50425   -50423   -50427   -50440 
  -50453   -50475   -50518   -50579   -50646   -50715   -50787   -50865 
  -50954   -51040   -51124   -51212   -51309   -51416   -51521   -51618 
  -51718   -51815   -51904   -51993   -52080   -52161   -52236   -52304 
  -52355   -52390   -52421   -52454   -52479   -52485   -52477   -52461 
  -52427   -52373   -52315   -52259   -52189   -52111   -52038   -51968 
  -51889   -51802   -51707   -51621   -51548   -51478   -51408   -51345 
  -51282   -51223   -51190   -51179   -51165   -51140   -51105   -51059 
  -51015   -50980   -50951   -50924   -50899   -50881   -50869   -50858 
  -50855   -50869   -50899   -50928   -50951   -50966   -50967   -50953 
  -50927   -50888   -50827   -50745   -50654   -50560   -50457   -50352 
  -50241   -50121   -50001   -49885   -49783   -49692   -49596   -49497 
  -49404   -49322   -49264   -49225   -49198   -49187   -49192   -49215 
  -49257   -49303   -49345   -49389   -49451   -49531   -49626   -49724 
  -49809   -49883   -49951   -50008   -50071   -50147   -50221   -50296 
  -50376   -50458   -50549   -50645   -50724   -50787   -50843   -50899 
  -50946   -50986   -51036   -51088   -51117   -51138   -51166   -51206 
  -51247   -51282   -51317   -51362   -51406   -51443   -51483   -51528 
  -51580   -51646   -51723   -51792   -51837   -51860   -51887   -51915 
  -51946   -51987   -52023   -52047   -52062   -52078   -52103   -52114 
  -52096   -52061   -52008   -51931   -51838   -51732   -51605   -51474 
  -51345   -51212   -51079   -50958   -50839   -50724   -50627   -50550 
  -50490   -50437   -50411   -50414   -50427   -50442   -50463   -50496 
  -50538   -50581   -50625   -50666   -50697   -50715   -50726   -50734 
  -50727   -50704   -50662   -50600   -50538   -50484   -50440   -50414 
  -50407   -50400   -50380   -50357   -50352   -50365   -50384   -50407 
  -50441   -50487   -50541   -50585   -50618   -50634   -50654   -50692 
  -50724   -50742   -50758   -50768   -50773   -50788   -50803   -50818 
  -50838   -50861   -50882   -50900   -50911   -50916   -50911   -50909 
  -50923   -50939   -50958   -50989   -51020   -51050   -51084   -51108 
  -51131   -51162   -51177   -51170   -51158   -51139   -51116   -51098 
  -51074   -51034   -50986   -50950   -50919   -50877   -50823   -50758 
  -50700   -50661   -50629   -50593   -50558   -50521   -50479   -50438 
  -50403   -50359   -50313   -50291   -50279   -50268   -50265   -50265 
  -50261   -50259   -50268   -50287   -50303   -50310   -50319   -50336 
  -50349   -50357   -50371   -50387   -50400   -50413   -50418   -50414 
  -50413   -50402   -50371   -50349   -50352   -50360   -50371   -50387 
  -50410   -50445   -50498   -50562   -50631   -50693   -50746   -50800 
  -50862   -50926   -50984   -51042   -51104   -51169   -51236   -51302 
  -51364   -51421   -51474   -51528   -51586   -51638   -51678   -51705 
  -51726   -51748   -51772   -51799   -51829   -51860   -51887   -51915 
  -51937   -51937   -51922   -51900   -51873   -51848   -51823   -51781 
  -51723   -51675   -51637   -51599   -51568   -51544   -51518   -51498 
  -51484   -51482   -51491   -51502   -51516   -51536   -51560   -51586 
  -51603   -51613   -51628   -51646   -51669   -51702   -51738   -51780 
  -51819   -51842   -51861   -51892   -51922   -51952   -51983   -52003 
  -52014   -52015   -52002   -51980   -51950   -51910   -51871   -51846 
  -51817   -51768   -51721   -51683   -51641   -51601   -51570   -51530 
  -51475   -51416   -51362   -51309   -51258   -51198   -51125   -51052 
  -50989   -50931   -50870   -50808   -50762   -50735   -50726   -50723 
  -50716   -50715   -50720   -50726   -50734   -50747   -50758   -50765 
  -50772   -50773   -50757   -50716   -50658   -50592   -50530   -50473 
  -50406   -50333   -50272   -50218   -50174   -50147   -50121   -50093 
  -50079   -50074   -50072   -50082   -50094   -50101   -50110   -50113 
  -50097   -50071   -50053   -50045   -50043   -50043   -50043   -50039 
  -50031   -50029   -50039   -50058   -50076   -50105   -50134   -50157 
  -50175   -50195   -50225   -50260   -50299   -50337   -50368   -50392 
  -50410   -50418   -50423   -50434   -50452   -50473   -50495   -50511 
  -50531   -50560   -50591   -50625   -50665   -50714   -50766   -50822 
  -50890   -50973   -51055   -51142   -51244   -51348   -51456   -51572 
  -51692   -51811   -51930   -52049   -52174   -52304   -52420   -52523 
  -52621   -52712   -52793   -52860   -52905   -52928   -52937   -52934 
  -52920   -52902   -52880   -52845   -52807   -52772   -52736   -52686 
  -52628   -52579   -52536   -52498   -52462   -52413   -52350   -52281 
  -52204   -52132   -52069   -52000   -51922   -51845   -51768   -51692 
  -51622   -51549   -51476   -51403   -51317   -51220   -51128   -51038 
  -50947   -50855   -50760   -50670   -50596   -50531   -50475   -50429 
  -50392   -50359   -50317   -50274   -50241   -50215   -50205   -50209 
  -50210   -50202   -50207   -50232   -50259   -50280   -50292   -50301 
  -50318   -50349   -50384   -50422   -50450   -50471   -50491   -50514 
  -50538   -50556   -50562   -50560   -50564   -50580   -50589   -50589 
  -50581   -50568   -50561   -50560   -50556   -50552   -50546   -50545 
  -50548   -50542   -50531   -50518   -50504   -50502   -50514   -50531 
  -50553   -50571   -50592   -50635   -50689   -50741   -50801   -50870 
  -50942   -51012   -51079   -51142   -51197   -51248   -51294   -51339 
  -51382   -51410   -51428   -51445   -51468   -51490   -51507   -51514 
  -51507   -51491   -51475   -51449   -51413   -51371   -51321   -51267 
  -51219   -51170   -51109   -51054   -51012   -50969   -50917   -50861 
  -50807   -50761   -50719   -50674   -50635   -50607   -50592   -50584 
  -50575   -50566   -50558   -50552   -50545   -50533   -50522   -50514 
  -50503   -50494   -50477   -50454   -50441   -50433   -50422   -50410 
  -50404   -50406   -50415   -50429   -50442   -50461   -50481   -50506 
  -50539   -50577   -50608   -50641   -50673   -50697   -50712   -50719 
  -50724   -50724   -50720   -50715   -50710   -50712   -50718   -50715 
  -50712   -50710   -50693   -50665   -50633   -50606   -50591   -50580 
  -50575   -50568   -50558   -50556   -50562   -50584   -50635   -50695 
  -50742   -50788   -50846   -50915   -50980   -51032   -51081   -51127 
  -51165   -51197   -51232   -51254   -51263   -51266   -51258   -51237 
  -51217   -51194   -51165   -51142   -51131   -51113   -51085   -51057 
  -51046   -51039   -51023   -51008   -51009   -51025   -51047   -51069 
  -51086   -51102   -51119   -51136   -51154   -51165   -51169   -51174 
  -51185   -51197   -51204   -51198   -51192   -51194   -51209   -51228 
  -51246   -51260   -51271   -51271   -51273   -51289   -51313   -51332 
  -51356   -51390   -51424   -51462   -51501   -51530   -51559   -51595 
  -51632   -51657   -51669   -51671   -51671   -51665   -51648   -51621 
  -51594   -51565   -51525   -51472   -51416   -51360   -51305   -51255 
  -51209   -51177   -51162   -51155   -51155   -51160   -51171   -51183 
  -51194   -51201   -51205   -51208   -51213   -51214   -51212   -51202 
  -51177   -51146   -51125   -51116   -51112   -51109   -51098   -51085 
  -51079   -51081   -51084   -51086   -51097   -51111   -51119   -51119 
  -51116   -51117   -51128   -51143   -51159   -51174   -51179   -51175 
  -51167   -51152   -51133   -51119   -51104   -51084   -51059   -51036 
  -51017   -51000   -50981   -50961   -50942   -50923   -50908   -50890 
  -50880   -50881   -50899   -50927   -50963   -51000   -51036   -51078 
  -51125   -51165   -51201   -51235   -51266   -51298   -51318   -51327 
  -51336   -51337   -51328   -51321   -51310   -51295   -51281   -51262 
  -51236   -51208   -51181   -51154   -51124   -51092   -51059   -51024 
  -50988   -50953   -50917   -50880   -50843   -50814   -50785   -50750 
  -50711   -50672   -50634   -50598   -50557   -50514   -50467   -50422 
  -50384   -50348   -50315   -50288   -50265   -50242   -50215   -50195 
  -50193   -50199   -50205   -50211   -50225   -50241   -50252   -50261 
  -50267   -50276   -50296   -50317   -50322   -50326   -50342   -50365 
  -50388   -50415   -50446   -50476   -50498   -50518   -50538   -50560 
  -50575   -50579   -50579   -50589   -50600   -50600   -50606   -50625 
  -50646   -50672   -50704   -50733   -50755   -50784   -50823   -50872 
  -50924   -50985   -51042   -51092   -51143   -51193   -51232   -51271 
  -51313   -51352   -51398   -51448   -51489   -51522   -51551   -51574 
  -51595   -51610   -51626   -51646   -51667   -51683   -51699   -51714 
  -51722   -51733   -51750   -51763   -51773   -51794   -51818   -51845 
  -51872   -51891   -51907   -51921   -51925   -51922   -51914   -51900 
  -51887   -51876   -51858   -51831   -51796   -51764   -51737   -51706 
  -51667   -51628   -51584   -51533   -51476   -51416   -51354   -51291 
  -51233   -51178   -51119   -51051   -50981   -50905   -50828   -50751 
  -50673   -50600   -50535   -50476   -50418   -50364   -50318   -50272 
  -50229   -50201   -50186   -50172   -50159   -50151   -50151   -50163 
  -50186   -50206   -50228   -50268   -50317   -50361   -50407   -50446 
  -50481   -50523   -50566   -50610   -50654   -50701   -50751   -50804 
  -50857   -50904   -50944   -50982   -51031   -51086   -51128   -51159 
  -51185   -51210   -51239   -51271   -51308   -51348   -51378   -51397 
  -51428   -51468   -51503   -51532   -51560   -51582   -51597   -51609 
  -51619   -51624   -51619   -51607   -51594   -51571   -51537   -51510 
  -51487   -51468   -51457   -51440   -51412   -51383   -51343   -51294 
  -51252   -51212   -51167   -51125   -51088   -51039   -50978   -50920 
  -50865   -50808   -50755   -50707   -50660   -50612   -50569   -50530 
  -50496   -50469   -50452   -50442   -50437   -50437   -50441   -50446 
  -50457   -50476   -50491   -50508   -50535   -50573   -50615   -50665 
  -50719   -50765   -50811   -50861   -50913   -50969   -51024   -51075 
  -51117   -51151   -51182   -51212   -51237   -51250   -51250   -51251 
  -51250   -51246   -51239   -51229   -51217   -51205   -51193   -51192 
  -51194   -51197   -51212   -51233   -51248   -51266   -51287   -51309 
  -51333   -51359   -51383   -51406   -51428   -51443   -51449   -51447 
  -51430   -51401   -51363   -51321   -51281   -51231   -51169   -51109 
