Origin Time       2025/01/13 21:19:00
Lat.              31.8
Long.             131.6
Depth. (km)       30
Mag.              6.9
Station Code      HRSH16
Station Lat.      34.6629
Station Long.     132.6689
Station Height(m) 280
Record Time       2025/01/13 21:21:06
Sampling Freq(Hz) 100Hz
Duration Time(s)  120
Dir.              6
Scale Factor      7845(gal)/8223790
Max. Acc. (gal)   1.146
Last Correction   2025/01/13 21:21:07
Memo.             
[...]
  -18712   -18793   -18863   -18904   -18921   -18901   -18812   -18671 
  -18522   -18431   -18463   -18592   -18744   -18840   -18820   -18752 
  -18732   -18696   -18578   -18420   -18301   -18287   -18366   -18435 
  -18431   -18416   -18484   -18616   -18692   -18620   -18431   -18231 
  -18134   -18176   -18261   -18311   -18362   -18454   -18573   -18701 
  -18736   -18524   -18142   -17876   -17853   -17999   -18208   -18401 
  -18567   -18693   -18709   -18607   -18436   -18260   -18156   -18127 
  -18171   -18322   -18505   -18584   -18512   -18392   -18391   -18511 
  -18577   -18508   -18372   -18285   -18346   -18536   -18702   -18731 
  -18717   -18809   -18928   -18939   -18900   -18847   -18724   -18638 
  -18700   -18773   -18755   -18748   -18777   -18792   -18821   -18874 
  -18883   -18828   -18796   -18837   -18887   -18897   -18873   -18829 
  -18760   -18652   -18565   -18578   -18657   -18720   -18747   -18743 
  -18700   -18611   -18522   -18485   -18497   -18557   -18640   -18643 
  -18574   -18566   -18623   -18650   -18609   -18520   -18431   -18400 
  -18432   -18473   -18455   -18397   -18349   -18315   -18300   -18333 
  -18404   -18447   -18454   -18482   -18495   -18416   -18272   -18123 
  -18057   -18121   -18206   -18237   -18254   -18250   -18184   -18075 
  -17979   -17945   -17987   -18031   -17972   -17833   -17744   -17766 
  -17859   -17936   -17874   -17717   -17644   -17640   -17601   -17610 
  -17707   -17778   -17815   -17859   -17857   -17805   -17753   -17736 
  -17753   -17805   -17880   -17940   -17959   -17971   -17995   -18050 
  -18141   -18200   -18211   -18269   -18393   -18477   -18451   -18351 
  -18264   -18261   -18364   -18535   -18662   -18650   -18558   -18526 
  -18553   -18535   -18465   -18432   -18504   -18628   -18685   -18632 
  -18504   -18345   -18231   -18210   -18235   -18287   -18351   -18381 
  -18378   -18365   -18342   -18342   -18360   -18342   -18292   -18268 
  -18311   -18360   -18304   -18171   -18091   -18122   -18198   -18241 
  -18253   -18266   -18249   -18165   -18083   -18042   -17996   -17983 
  -18064   -18172   -18196   -18091   -17922   -17807   -17778   -17779 
  -17797   -17871   -17977   -18025   -18010   -17986   -17967   -17960 
  -17982   -18056   -18192   -18331   -18393   -18376   -18326   -18303 
  -18366   -18470   -18482   -18408   -18387   -18495   -18659   -18716 
  -18611   -18504   -18555   -18762   -18990   -19094   -19052   -18970 
  -18943   -18963   -18958   -18947   -18960   -18928   -18855   -18820 
  -18798   -18767   -18781   -18844   -18910   -18956   -18979   -18970 
  -18925   -18863   -18794   -18690   -18585   -18574   -18670   -18762 
  -18759   -18696   -18669   -18666   -18597   -18468   -18334   -18235 
  -18216   -18239   -18193   -18091   -18040   -18056   -18084   -18090 
  -18069   -18022   -17975   -17976   -17994   -17961   -17880   -17806 
  -17798   -17855   -17949   -18050   -18075   -17987   -17886   -17859 
  -17919   -18038   -18129   -18137   -18126   -18111   -18023   -17929 
  -17948   -18037   -18112   -18175   -18252   -18355   -18420   -18369 
  -18225   -18106   -18118   -18231   -18347   -18445   -18535   -18609 
  -18654   -18644   -18593   -18559   -18581   -18628   -18686   -18798 
  -18940   -19013   -18994   -18937   -18889   -18859   -18878   -19009 
  -19190   -19267   -19230   -19138   -19033   -18990   -19006   -19002 
  -18998   -19030   -19084   -19125   -19101   -19043   -19059   -19147 
  -19164   -19074   -18970   -18883   -18790   -18678   -18569   -18513 
  -18538   -18612   -18666   -18659   -18613   -18511   -18347   -18216 
  -18165   -18138   -18121   -18137   -18153   -18123   -18046   -17957 
  -17894   -17869   -17884   -17928   -17964   -17953   -17898   -17852 
  -17872   -17911   -17896   -17863   -17898   -18010   -18125   -18156 
  -18114   -18057   -18000   -17946   -17938   -18003   -18118   -18258 
  -18393   -18450   -18416   -18393   -18427   -18476   -18495   -18457 
  -18400   -18420   -18558   -18727   -18806   -18816   -18824   -18801 
  -18770   -18796   -18789   -18694   -18624   -18657   -18778   -18933 
  -19008   -18990   -18997   -19029   -18972   -18779   -18558   -18474 
  -18523   -18570   -18584   -18600   -18639   -18689   -18684   -18586 
  -18463   -18370   -18314   -18328   -18426   -18501   -18431   -18297 
  -18261   -18280   -18241   -18154   -18052   -17953   -17906   -17910 
  -17883   -17776   -17694   -17741   -17869   -17983   -18000   -17909 
  -17803   -17771   -17803   -17821   -17745   -17625   -17594   -17678 
  -17787   -17841   -17824   -17818   -17884   -17976   -18037   -18053 
  -18033   -18042   -18141   -18296   -18436   -18527   -18534   -18446 
  -18345   -18335   -18400   -18405   -18343   -18315   -18365   -18516 
  -18679   -18665   -18505   -18420   -18476   -18577   -18659   -18689 
  -18652   -18611   -18658   -18759   -18835   -18878   -18889   -18905 
  -18981   -19063   -19072   -19032   -19016   -19068   -19178   -19290 
  -19376   -19446   -19468   -19403   -19300   -19237   -19221   -19214 
  -19209   -19241   -19314   -19360   -19359   -19352   -19344   -19292 
  -19190   -19080   -19014   -18995   -18999   -18994   -18975   -18954 
  -18890   -18754   -18589   -18449   -18357   -18261   -18123   -17991 
  -17864   -17734   -17682   -17698   -17689   -17672   -17683   -17671 
  -17636   -17610   -17593   -17606   -17645   -17674   -17726   -17832 
  -17938   -18009   -18044   -18052   -18034   -17995   -17995   -18084 
  -18212   -18311   -18354   -18328   -18276   -18253   -18276   -18318 
  -18361   -18449   -18570   -18625   -18621   -18613   -18573   -18524 
  -18551   -18632   -18657   -18597   -18522   -18501   -18547   -18600 
  -18620   -18650   -18675   -18659   -18644   -18669   -18705   -18747 
  -18820   -18917   -18987   -19008   -18998   -18974   -18943   -18904 
  -18841   -18765   -18712   -18697   -18697   -18697   -18690   -18662 
  -18612   -18582   -18581   -18569   -18549   -18582   -18674   -18767 
  -18790   -18704   -18580   -18519   -18519   -18524   -18512   -18482 
  -18441   -18408   -18416   -18463   -18509   -18527   -18539   -18540 
  -18513   -18484   -18481   -18482   -18470   -18480   -18523   -18550 
  -18565   -18619   -18674   -18667   -18600   -18519   -18477   -18466 
  -18439   -18392   -18342   -18297   -18258   -18218   -18176   -18130 
  -18103   -18148   -18230   -18258   -18237   -18243   -18306   -18362 
  -18389   -18387   -18310   -18200   -18176   -18200   -18169   -18142 
  -18168   -18144   -18034   -17944   -17915   -17914   -17930   -17957 
  -17986   -18037   -18125   -18198   -18214   -18211   -18206   -18185 
  -18183   -18218   -18258   -18285   -18304   -18342   -18401   -18403 
  -18315   -18249   -18307   -18418   -18450   -18374   -18279   -18237 
  -18233   -18216   -18195   -18195   -18189   -18149   -18088   -18069 
  -18110   -18153   -18160   -18162   -18192   -18210   -18162   -18088 
  -18088   -18189   -18306   -18373   -18411   -18450   -18508   -18563 
  -18586   -18612   -18662   -18673   -18611   -18536   -18516   -18549 
  -18590   -18597   -18574   -18539   -18509   -18508   -18517   -18501 
  -18450   -18376   -18312   -18276   -18249   -18225   -18196   -18171 
  -18193   -18235   -18215   -18169   -18187   -18283   -18414   -18515 
  -18527   -18449   -18339   -18222   -18114   -18077   -18138   -18235 
  -18303   -18328   -18304   -18222   -18141   -18102   -18064   -18010 
  -17979   -17986   -18022   -18073   -18117   -18148   -18208   -18306 
  -18361   -18330   -18245   -18150   -18115   -18158   -18219   -18289 
  -18395   -18528   -18655   -18719   -18698   -18647   -18590   -18527 
  -18461   -18397   -18373   -18415   -18474   -18492   -18472   -18453 
  -18446   -18430   -18403   -18374   -18358   -18376   -18422   -18477 
  -18565   -18696   -18821   -18916   -18987   -19036   -19075   -19136 
  -19221   -19296   -19340   -19340   -19309   -19296   -19325   -19353 
  -19340   -19292   -19244   -19203   -19174   -19188   -19260   -19313 
  -19279   -19187   -19097   -19043   -19001   -18935   -18843   -18750 
  -18700   -18700   -18667   -18590   -18539   -18495   -18430   -18389 
  -18396   -18438   -18468   -18431   -18351   -18291   -18283   -18289 
  -18257   -18210   -18207   -18245   -18269   -18257   -18218   -18185 
  -18187   -18227   -18287   -18326   -18327   -18326   -18350   -18370 
  -18381   -18404   -18419   -18400   -18397   -18414   -18372   -18257 
  -18150   -18091   -18080   -18106   -18127   -18095   -18002   -17909 
  -17864   -17861   -17906   -17994   -18094   -18203   -18310   -18353 
  -18296   -18191   -18123   -18123   -18141   -18137   -18142   -18187 
  -18254   -18320   -18378   -18423   -18443   -18430   -18392   -18358 
  -18354   -18393   -18453   -18469   -18423   -18360   -18327   -18295 
  -18211   -18112   -18071   -18071   -18088   -18129   -18154   -18154 
  -18208   -18307   -18351   -18324   -18262   -18176   -18091   -18049 
  -18049   -18063   -18103   -18216   -18360   -18454   -18501   -18550 
  -18635   -18748   -18823   -18824   -18794   -18810   -18909   -19035 
  -19107   -19111   -19079   -19044   -19035   -19056   -19093   -19148 
  -19224   -19284   -19313   -19319   -19311   -19314   -19350   -19398 
  -19441   -19467   -19440   -19379   -19356   -19386   -19395   -19346 
  -19303   -19294   -19278   -19232   -19157   -19078   -19035   -18997 
  -18901   -18747   -18571   -18422   -18324   -18235   -18115   -17988 
  -17882   -17809   -17793   -17824   -17863   -17880   -17880   -17883 
  -17902   -17936   -17973   -17979   -17948   -17918   -17896   -17844 
  -17766   -17710   -17705   -17701   -17653   -17602   -17579   -17552 
  -17516   -17489   -17477   -17493   -17508   -17473   -17435   -17463 
  -17551   -17618   -17620   -17601   -17612   -17620   -17604   -17591 
  -17601   -17618   -17641   -17680   -17733   -17806   -17898   -17945 
  -17923   -17894   -17888   -17898   -17919   -17937   -17950   -17963 
  -17967   -17977   -18009   -18033   -18022   -18009   -18036   -18068 
  -18060   -18040   -18037   -18049   -18094   -18172   -18252   -18310 
  -18341   -18346   -18350   -18354   -18338   -18318   -18323   -18355 
  -18409   -18477   -18543   -18609   -18684   -18744   -18773   -18793 
  -18836   -18908   -18972   -18975   -18918   -18847   -18783   -18732 
  -18717   -18729   -18720   -18667   -18621   -18619   -18620   -18586 
  -18532   -18528   -18594   -18661   -18681   -18662   -18616   -18577 
  -18557   -18522   -18463   -18388   -18300   -18243   -18258   -18322 
  -18385   -18420   -18449   -18495   -18546   -18580   -18569   -18532 
  -18528   -18550   -18582   -18650   -18735   -18782   -18783   -18751 
  -18706   -18693   -18689   -18652   -18609   -18590   -18581   -18559 
  -18554   -18600   -18652   -18663   -18671   -18670   -18630   -18597 
  -18582   -18536   -18474   -18453   -18461   -18449   -18418   -18393 
  -18370   -18345   -18335   -18333   -18330   -18365   -18438   -18484 
  -18478   -18446   -18418   -18427   -18465   -18489   -18508   -18536 
  -18555   -18554   -18553   -18592   -18642   -18636   -18589   -18547 
  -18530   -18565   -18639   -18686   -18684   -18678   -18708   -18754 
  -18770   -18758   -18748   -18727   -18684   -18673   -18711   -18732 
  -18719   -18705   -18698   -18677   -18635   -18567   -18489   -18439 
  -18451   -18484   -18477   -18446   -18441   -18461   -18477   -18489 
  -18507   -18527   -18527   -18496   -18424   -18333   -18270   -18268 
  -18274   -18245   -18203   -18171   -18138   -18121   -18141   -18192 
  -18256   -18343   -18455   -18532   -18535   -18512   -18505   -18516 
  -18561   -18648   -18735   -18792   -18831   -18856   -18844   -18793 
  -18732   -18702   -18725   -18748   -18719   -18667   -18636   -18605 
  -18555   -18496   -18436   -18409   -18419   -18427   -18403   -18370 
  -18364   -18354   -18295   -18216   -18176   -18188   -18226   -18220 
  -18150   -18069   -18023   -17999   -17973   -17960   -17986   -18014 
  -18022   -18022   -18000   -17969   -17982   -18034   -18098   -18166 
  -18234   -18269   -18254   -18226   -18227   -18249   -18277   -18331 
  -18400   -18451   -18481   -18508   -18557   -18605   -18604   -18561 
  -18542   -18581   -18624   -18596   -18503   -18418   -18365   -18319 
  -18293   -18314   -18347   -18364   -18362   -18354   -18347   -18335 
  -18318   -18315   -18320   -18323   -18333   -18323   -18269   -18196 
  -18133   -18088   -18064   -18061   -18063   -18040   -18000   -17961 
  -17925   -17910   -17933   -17969   -17983   -17973   -17959   -17965 
  -18009   -18079   -18142   -18173   -18193   -18239   -18308   -18364 
  -18397   -18435   -18495   -18563   -18619   -18627   -18621   -18678 
  -18778   -18847   -18882   -18918   -18945   -18949   -18951   -18943 
  -18908   -18867   -18843   -18843   -18870   -18908   -18932   -18912 
  -18841   -18766   -18731   -18756   -18806   -18814   -18777   -18758 
  -18789   -18839   -18878   -18904   -18912   -18901   -18887   -18897 
  -18909   -18879   -18828   -18801   -18809   -18831   -18827   -18798 
  -18790   -18802   -18808   -18816   -18828   -18833   -18840   -18848 
  -18831   -18789   -18751   -18719   -18696   -18697   -18709   -18694 
  -18651   -18611   -18597   -18586   -18550   -18497   -18445   -18364 
  -18264   -18192   -18146   -18103   -18064   -18013   -17959   -17925 
  -17887   -17845   -17824   -17790   -17721   -17648   -17594   -17556 
  -17525   -17491   -17433   -17354   -17277   -17227   -17224   -17251 
  -17281   -17323   -17390   -17498   -17633   -17732   -17751   -17755 
  -17817   -17919   -18011   -18076   -18145   -18252   -18378   -18453 
  -18447   -18420   -18430   -18466   -18500   -18528   -18561   -18586 
  -18608   -18630   -18630   -18592   -18534   -18469   -18389   -18303 
  -18246   -18222   -18214   -18235   -18279   -18310   -18315   -18304 
  -18287   -18276   -18284   -18301   -18308   -18327   -18395   -18488 
  -18566   -18624   -18652   -18661   -18678   -18696   -18688   -18677 
  -18669   -18648   -18644   -18679   -18735   -18774   -18782   -18781 
  -18792   -18790   -18754   -18708   -18693   -18713   -18735   -18732 
  -18728   -18767   -18840   -18882   -18874   -18851   -18843   -18859 
  -18882   -18874   -18841   -18832   -18847   -18858   -18874   -18914 
  -18952   -18960   -18921   -18860   -18819   -18813   -18821   -18798 
  -18747   -18721   -18725   -18711   -18678   -18659   -18650   -18623 
  -18562   -18499   -18459   -18424   -18381   -18355   -18341   -18312 
  -18272   -18211   -18144   -18095   -18064   -18027   -18004   -18010 
  -18022   -18030   -18040   -18048   -18033   -18000   -17990   -18002 
  -18010   -18018   -18018   -18007   -18030   -18095   -18148   -18158 
  -18134   -18098   -18073   -18060   -18046   -18038   -18044   -18063 
  -18090   -18119   -18152   -18171   -18166   -18166   -18189   -18238 
  -18312   -18396   -18455   -18477   -18480   -18495   -18530   -18563 
  -18582   -18619   -18682   -18732   -18743   -18704   -18642   -18625 
  -18671   -18727   -18752   -18739   -18696   -18670   -18679   -18702 
  -18697   -18646   -18593   -18589   -18624   -18640   -18607   -18551 
  -18499   -18459   -18459   -18488   -18503   -18503   -18519   -18559 
  -18598   -18617   -18612   -18592   -18571   -18554   -18534   -18501 
  -18461   -18450   -18481   -18500   -18459   -18399   -18358   -18341 
  -18351   -18365   -18345   -18308   -18288   -18273   -18252   -18238 
  -18243   -18260   -18283   -18314   -18328   -18312   -18292   -18301 
  -18335   -18385   -18422   -18420   -18414   -18449   -18515   -18576 
  -18601   -18592   -18580   -18604   -18642   -18640   -18624   -18654 
  -18700   -18701   -18678   -18659   -18661   -18690   -18715   -18698 
  -18674   -18690   -18738   -18762   -18736   -18689   -18669   -18701 
  -18762   -18816   -18846   -18856   -18848   -18824   -18783   -18724 
  -18673   -18667   -18689   -18686   -18652   -18609   -18570   -18561 
  -18574   -18571   -18546   -18535   -18557   -18596   -18607   -18576 
  -18544   -18530   -18519   -18523   -18517   -18490   -18480   -18500 
  -18513   -18497   -18474   -18474   -18500   -18538   -18573   -18581 
  -18558   -18522   -18468   -18396   -18339   -18324   -18346   -18381 
  -18404   -18396   -18355   -18310   -18279   -18246   -18204   -18187 
  -18207   -18238   -18249   -18218   -18149   -18088   -18061   -18044 
  -18021   -18002   -17994   -17984   -17967   -17955   -17955   -17975 
  -18015   -18052   -18069   -18067   -18045   -18021   -18013   -18021 
  -18038   -18067   -18095   -18106   -18096   -18090   -18084   -18072 
  -18073   -18077   -18053   -18030   -18034   -18044   -18057   -18098 
  -18146   -18176   -18191   -18207   -18235   -18280   -18333   -18376 
  -18405   -18445   -18500   -18551   -18578   -18597   -18616   -18632 
  -18661   -18704   -18743   -18778   -18819   -18850   -18878   -18901 
  -18879   -18806   -18739   -18700   -18665   -18628   -18597   -18559 
  -18503   -18432   -18378   -18342   -18316   -18315   -18335   -18337 
  -18306   -18249   -18193   -18166   -18176   -18188   -18176   -18161 
  -18172   -18206   -18238   -18257   -18261   -18258   -18264   -18291 
  -18335   -18372   -18396   -18422   -18436   -18427   -18434   -18482 
  -18534   -18554   -18551   -18530   -18519   -18557   -18621   -18651 
  -18651   -18671   -18740   -18825   -18874   -18866   -18821   -18777 
  -18770   -18794   -18819   -18824   -18806   -18771   -18748   -18740 
  -18729   -18721   -18705   -18665   -18628   -18623   -18609   -18554 
  -18478   -18423   -18408   -18422   -18443   -18465   -18490   -18515 
  -18504   -18449   -18374   -18312   -18287   -18310   -18353   -18388 
  -18418   -18447   -18461   -18459   -18459   -18476   -18515   -18549 
  -18559   -18581   -18624   -18657   -18667   -18655   -18635   -18625 
  -18638   -18662   -18674   -18667   -18644   -18611   -18588   -18588 
  -18590   -18582   -18570   -18553   -18540   -18530   -18481   -18399 
  -18354   -18385   -18454   -18519   -18553   -18555   -18542   -18504 
  -18436   -18369   -18319   -18299   -18326   -18382   -18408   -18377 
  -18306   -18229   -18181   -18165   -18162   -18165   -18168   -18172 
  -18175   -18179   -18179   -18157   -18119   -18102   -18119   -18158 
  -18193   -18207   -18203   -18199   -18215   -18253   -18287   -18297 
  -18307   -18339   -18388   -18427   -18419   -18370   -18335   -18351 
  -18418   -18481   -18496   -18476   -18462   -18465   -18466   -18462 
  -18478   -18515   -18557   -18593   -18608   -18605   -18620   -18659 
  -18698   -18742   -18798   -18863   -18908   -18922   -18916   -18906 
  -18914   -18952   -18991   -19006   -18998   -18976   -18941   -18913 
  -18900   -18902   -18921   -18955   -18983   -18972   -18921   -18855 
  -18790   -18747   -18738   -18736   -18717   -18671   -18594   -18496 
  -18412   -18362   -18347   -18346   -18343   -18324   -18277   -18222 
  -18187   -18153   -18099   -18041   -17996   -17975   -17976   -17988 
  -17992   -17977   -17952   -17932   -17914   -17895   -17876   -17849 
  -17828   -17824   -17824   -17806   -17771   -17761   -17799   -17859 
  -17910   -17934   -17929   -17925   -17942   -17967   -18000   -18057 
  -18122   -18195   -18285   -18368   -18414   -18423   -18427   -18446 
