Origin Time       2025/01/13 21:19:00
Lat.              31.8
Long.             131.6
Depth. (km)       30
Mag.              6.9
Station Code      HRSH17
Station Lat.      34.5716
Station Long.     132.2326
Station Height(m) 163
Record Time       2025/01/13 21:20:25
Sampling Freq(Hz) 100Hz
Duration Time(s)  138
Dir.              1
Scale Factor      2942(gal)/8224139
Max. Acc. (gal)   1.019
Last Correction   2025/01/13 21:20:26
Memo.             
[...]
  -72916   -72960   -73006   -73052   -73093   -73130   -73165   -73179 
  -73174   -73178   -73184   -73186   -73184   -73180   -73170   -73160 
  -73151   -73140   -73133   -73133   -73132   -73134   -73145   -73157 
  -73182   -73225   -73275   -73326   -73372   -73391   -73380   -73356 
  -73333   -73306   -73269   -73236   -73219   -73202   -73176   -73147 
  -73113   -73067   -73024   -72991   -72970   -72960   -72954   -72937 
  -72916   -72902   -72890   -72877   -72870   -72871   -72873   -72868 
  -72859   -72854   -72852   -72837   -72813   -72797   -72792   -72789 
  -72787   -72775   -72756   -72746   -72751   -72759   -72766   -72773 
  -72770   -72743   -72694   -72636   -72574   -72513   -72455   -72404 
  -72358   -72316   -72281   -72250   -72229   -72216   -72215   -72223 
  -72242   -72270   -72303   -72333   -72355   -72381   -72403   -72408 
  -72419   -72446   -72473   -72500   -72534   -72569   -72605   -72654 
  -72711   -72759   -72797   -72819   -72832   -72851   -72868   -72875 
  -72889   -72916   -72928   -72914   -72900   -72889   -72877   -72868 
  -72873   -72875   -72875   -72874   -72858   -72829   -72801   -72785 
  -72781   -72783   -72790   -72804   -72817   -72832   -72851   -72871 
  -72895   -72925   -72954   -72968   -72974   -72974   -72968   -72959 
  -72945   -72925   -72898   -72867   -72831   -72793   -72763   -72733 
  -72697   -72665   -72632   -72601   -72582   -72574   -72581   -72613 
  -72669   -72738   -72816   -72891   -72951   -72998   -73035   -73059 
  -73078   -73089   -73082   -73047   -72981   -72918   -72890   -72883 
  -72864   -72835   -72812   -72793   -72769   -72748   -72729   -72701 
  -72681   -72684   -72701   -72720   -72731   -72744   -72774   -72816 
  -72856   -72902   -72948   -72982   -72998   -72998   -72974   -72935 
  -72900   -72878   -72864   -72850   -72835   -72833   -72856   -72901 
  -72952   -72997   -73032   -73052   -73053   -73040   -73020   -73001 
  -72982   -72975   -72998   -73040   -73089   -73143   -73187   -73211 
  -73203   -73159   -73095   -73032   -72964   -72905   -72878   -72866 
  -72843   -72812   -72763   -72671   -72549   -72428   -72331   -72260 
  -72226   -72230   -72246   -72253   -72250   -72242   -72235   -72233 
  -72245   -72283   -72339   -72400   -72484   -72600   -72708   -72786 
  -72847   -72878   -72881   -72873   -72855   -72828   -72801   -72778 
  -72762   -72762   -72769   -72763   -72738   -72698   -72652   -72604 
  -72566   -72543   -72534   -72528   -72517   -72500   -72477   -72463 
  -72474   -72505   -72553   -72617   -72700   -72773   -72814   -72824 
  -72819   -72804   -72790   -72785   -72773   -72747   -72716   -72693 
  -72689   -72682   -72661   -72651   -72666   -72684   -72700   -72711 
  -72704   -72688   -72681   -72690   -72716   -72758   -72812   -72858 
  -72875   -72874   -72878   -72897   -72933   -72982   -73035   -73089 
  -73143   -73176   -73184   -73186   -73188   -73172   -73147   -73134 
  -73137   -73152   -73179   -73209   -73234   -73248   -73236   -73201 
  -73165   -73138   -73099   -73041   -72991   -72959   -72941   -72935 
  -72929   -72921   -72922   -72927   -72925   -72927   -72925   -72914 
  -72914   -72940   -72993   -73052   -73105   -73147   -73164   -73152 
  -73126   -73101   -73080   -73068   -73060   -73057   -73068   -73089 
  -73120   -73151   -73164   -73157   -73136   -73094   -73039   -72968 
  -72890   -72823   -72762   -72702   -72657   -72627   -72607   -72585 
  -72566   -72555   -72536   -72499   -72441   -72381   -72339   -72323 
  -72328   -72345   -72361   -72382   -72418   -72462   -72499   -72515 
  -72512   -72501   -72493   -72503   -72543   -72590   -72631   -72675 
  -72712   -72735   -72766   -72805   -72837   -72868   -72900   -72913 
  -72917   -72929   -72954   -72997   -73049   -73087   -73109   -73122 
  -73138   -73161   -73182   -73194   -73198   -73195   -73184   -73168 
  -73153   -73145   -73133   -73118   -73126   -73153   -73180   -73201 
  -73215   -73225   -73228   -73203   -73151   -73110   -73097   -73103 
  -73132   -73183   -73240   -73276   -73287   -73283   -73268   -73241 
  -73203   -73164   -73136   -73125   -73121   -73124   -73132   -73134 
  -73124   -73093   -73043   -72971   -72886   -72804   -72724   -72636 
  -72547   -72477   -72434   -72405   -72381   -72361   -72342   -72322 
  -72300   -72291   -72287   -72287   -72308   -72353   -72400   -72435 
  -72449   -72453   -72459   -72462   -72455   -72451   -72461   -72477 
  -72495   -72519   -72555   -72600   -72646   -72702   -72759   -72802 
  -72833   -72858   -72867   -72851   -72816   -72771   -72725   -72692 
  -72685   -72689   -72686   -72674   -72657   -72631   -72600   -72563 
  -72527   -72507   -72507   -72513   -72531   -72567   -72609   -72655 
  -72701   -72733   -72750   -72747   -72723   -72685   -72657   -72639 
  -72630   -72621   -72615   -72609   -72598   -72570   -72527   -72499 
  -72495   -72495   -72496   -72505   -72524   -72557   -72601   -72638 
  -72667   -72701   -72732   -72759   -72786   -72817   -72854   -72894 
  -72943   -72993   -73039   -73075   -73101   -73116   -73118   -73105 
  -73083   -73056   -73018   -72970   -72918   -72881   -72851   -72823 
  -72801   -72783   -72765   -72758   -72771   -72808   -72862   -72902 
  -72909   -72885   -72846   -72810   -72792   -72792   -72805   -72835 
  -72873   -72912   -72944   -72970   -72991   -73008   -73017   -73018 
  -72999   -72983   -73005   -73070   -73160   -73252   -73318   -73364 
  -73396   -73394   -73352   -73295   -73234   -73168   -73111   -73076 
  -73066   -73078   -73089   -73083   -73063   -73026   -72979   -72933 
  -72887   -72840   -72812   -72810   -72837   -72887   -72945   -72998 
  -73035   -73057   -73087   -73126   -73155   -73165   -73176   -73201 
  -73244   -73300   -73342   -73365   -73377   -73361   -73311   -73244 
  -73174   -73107   -73052   -73006   -72976   -72976   -73005   -73049 
  -73102   -73147   -73175   -73186   -73175   -73132   -73071   -73020 
  -72981   -72949   -72928   -72912   -72902   -72914   -72941   -72966 
  -72975   -72958   -72928   -72912   -72908   -72902   -72904   -72921 
  -72936   -72936   -72932   -72925   -72914   -72908   -72898   -72875 
  -72839   -72804   -72783   -72770   -72755   -72744   -72743   -72738 
  -72729   -72725   -72716   -72698   -72670   -72643   -72642   -72665 
  -72694   -72720   -72735   -72720   -72667   -72590   -72515   -72454 
  -72419   -72409   -72412   -72411   -72404   -72397   -72397   -72400 
  -72404   -72411   -72420   -72426   -72426   -72416   -72404   -72411 
  -72449   -72507   -72570   -72627   -72666   -72694   -72721   -72732 
  -72724   -72720   -72715   -72704   -72694   -72681   -72661   -72646 
  -72652   -72673   -72682   -72678   -72673   -72670   -72689   -72738 
  -72802   -72868   -72932   -72989   -73047   -73107   -73157   -73195 
  -73232   -73267   -73299   -73336   -73386   -73462   -73560   -73649 
  -73719   -73762   -73776   -73773   -73758   -73739   -73734   -73747 
  -73780   -73822   -73853   -73866   -73865   -73859   -73847   -73828 
  -73816   -73804   -73778   -73745   -73718   -73695   -73657   -73600 
  -73541   -73494   -73462   -73450   -73454   -73464   -73475   -73491 
  -73500   -73491   -73475   -73457   -73434   -73400   -73365   -73337 
  -73309   -73282   -73251   -73191   -73114   -73033   -72944   -72837 
  -72720   -72601   -72495   -72408   -72343   -72306   -72291   -72274 
  -72239   -72193   -72150   -72107   -72065   -72027   -71998   -71986 
  -71990   -72000   -72015   -72018   -72002   -71992   -71982   -71949 
  -71925   -71928   -71948   -71971   -71988   -72002   -72021   -72041 
  -72058   -72057   -72031   -71983   -71929   -71898   -71899   -71907 
  -71899   -71884   -71875   -71878   -71898   -71934   -71979   -72023 
  -72068   -72117   -72162   -72191   -72208   -72225   -72252   -72300 
  -72374   -72455   -72526   -72588   -72646   -72701   -72763   -72835 
  -72902   -72959   -73022   -73097   -73171   -73221   -73238   -73232 
  -73210   -73187   -73179   -73183   -73183   -73170   -73138   -73101 
  -73067   -73045   -73063   -73133   -73221   -73286   -73319   -73327 
  -73321   -73303   -73280   -73268   -73269   -73275   -73269   -73253 
  -73238   -73224   -73201   -73145   -73057   -72967   -72894   -72839 
  -72786   -72750   -72744   -72752   -72762   -72785   -72813   -72833 
  -72854   -72877   -72898   -72920   -72958   -73008   -73044   -73067 
  -73091   -73111   -73124   -73130   -73122   -73093   -73039   -72967 
  -72885   -72810   -72751   -72717   -72702   -72681   -72636   -72559 
  -72459   -72360   -72270   -72184   -72114   -72081   -72090   -72126 
  -72169   -72203   -72243   -72285   -72300   -72299   -72315   -72330 
  -72315   -72273   -72231   -72206   -72176   -72129   -72095   -72092 
  -72103   -72107   -72099   -72075   -72038   -72003   -71982   -71979 
  -72009   -72080   -72173   -72269   -72377   -72499   -72615   -72706 
  -72767   -72790   -72786   -72785   -72810   -72862   -72920   -72971 
  -73016   -73049   -73066   -73074   -73084   -73103   -73134   -73175 
  -73222   -73290   -73377   -73448   -73469   -73448   -73404   -73353 
  -73298   -73240   -73191   -73175   -73191   -73229   -73278   -73319 
  -73337   -73327   -73298   -73249   -73183   -73122   -73090   -73086 
  -73082   -73071   -73072   -73093   -73109   -73110   -73111   -73116 
  -73114   -73098   -73066   -73033   -73010   -72990   -72966   -72947 
  -72951   -72981   -73041   -73121   -73194   -73245   -73278   -73290 
  -73287   -73279   -73264   -73253   -73249   -73241   -73237   -73241 
  -73251   -73264   -73269   -73265   -73273   -73295   -73315   -73341 
  -73360   -73356   -73337   -73315   -73290   -73260   -73229   -73203 
  -73180   -73151   -73130   -73140   -73160   -73170   -73174   -73171 
  -73168   -73163   -73141   -73097   -73048   -73022   -73030   -73048 
  -73055   -73047   -73024   -72987   -72945   -72902   -72851   -72789 
  -72727   -72671   -72609   -72527   -72412   -72283   -72160   -72053 
  -71967   -71884   -71801   -71741   -71721   -71716   -71699   -71690 
  -71712   -71768   -71845   -71936   -72031   -72129   -72229   -72312 
  -72361   -72384   -72408   -72447   -72496   -72546   -72592   -72632 
  -72665   -72685   -72698   -72716   -72735   -72746   -72752   -72758 
  -72748   -72735   -72735   -72748   -72774   -72814   -72866   -72922 
  -72982   -73047   -73114   -73176   -73229   -73271   -73305   -73342 
  -73369   -73384   -73414   -73468   -73525   -73580   -73635   -73685 
  -73735   -73788   -73828   -73847   -73861   -73892   -73924   -73923 
  -73893   -73870   -73840   -73788   -73726   -73653   -73562   -73456 
  -73334   -73207   -73080   -72936   -72766   -72609   -72492   -72399 
  -72308   -72222   -72144   -72081   -72029   -71967   -71892   -71821 
  -71763   -71718   -71680   -71644   -71608   -71567   -71512   -71440 
  -71369   -71317   -71285   -71258   -71217   -71159   -71103   -71062 
  -71042   -71051   -71091   -71149   -71208   -71253   -71274   -71277 
  -71273   -71277   -71289   -71313   -71346   -71379   -71420   -71477 
  -71543   -71624   -71736   -71872   -72013   -72160   -72303   -72438 
  -72578   -72716   -72844   -72974   -73118   -73268   -73414   -73558 
  -73718   -73873   -73994   -74075   -74137   -74204   -74286   -74382 
  -74493   -74607   -74702   -74776   -74837   -74873   -74872   -74850 
  -74839   -74853   -74885   -74930   -74966   -74981   -74984   -74983 
  -74977   -74952   -74895   -74807   -74699   -74579   -74452   -74328 
  -74198   -74042   -73873   -73730   -73623   -73529   -73422   -73300 
  -73164   -73012   -72851   -72679   -72507   -72362   -72247   -72134 
  -72011   -71892   -71786   -71683   -71583   -71494   -71413   -71343 
  -71297   -71277   -71270   -71255   -71232   -71207   -71180   -71178 
  -71212   -71262   -71319   -71374   -71420   -71462   -71508   -71562 
  -71625   -71693   -71756   -71822   -71884   -71936   -71983   -72050 
  -72142   -72239   -72328   -72420   -72517   -72608   -72693   -72785 
  -72886   -72990   -73095   -73186   -73255   -73307   -73337   -73350 
  -73361   -73379   -73418   -73464   -73495   -73514   -73525   -73518 
  -73494   -73452   -73394   -73313   -73222   -73143   -73089   -73062 
  -73047   -73036   -73018   -72990   -72968   -72964   -72962   -72948 
  -72928   -72918   -72940   -72979   -73013   -73045   -73090   -73153 
  -73222   -73273   -73307   -73340   -73367   -73386   -73400   -73417 
  -73446   -73485   -73529   -73577   -73635   -73703   -73774   -73857 
  -73971   -74100   -74208   -74283   -74337   -74389   -74449   -74506 
  -74547   -74580   -74599   -74605   -74591   -74545   -74459   -74347 
  -74231   -74112   -73993   -73886   -73772   -73637   -73485   -73319 
  -73143   -72952   -72748   -72543   -72355   -72176   -71992   -71791 
  -71581   -71388   -71221   -71066   -70906   -70742   -70587   -70451 
  -70333   -70236   -70163   -70109   -70063   -70038   -70043   -70065 
  -70098   -70146   -70197   -70239   -70283   -70341   -70410   -70495 
  -70594   -70708   -70830   -70929   -71010   -71099   -71200   -71308 
  -71419   -71540   -71676   -71826   -71988   -72157   -72326   -72500 
  -72679   -72858   -73037   -73214   -73387   -73560   -73738   -73916 
  -74090   -74251   -74390   -74510   -74626   -74748   -74865   -74970 
  -75076   -75188   -75309   -75429   -75533   -75610   -75655   -75674 
  -75675   -75666   -75663   -75675   -75683   -75670   -75625   -75546 
  -75440   -75320   -75190   -75058   -74935   -74822   -74723   -74648 
  -74569   -74479   -74382   -74277   -74159   -74028   -73893   -73768 
  -73646   -73531   -73431   -73352   -73294   -73255   -73221   -73183 
  -73132   -73056   -72974   -72910   -72875   -72862   -72859   -72859 
  -72852   -72837   -72804   -72751   -72684   -72608   -72532   -72449 
  -72345   -72233   -72126   -72011   -71886   -71759   -71631   -71518 
  -71431   -71352   -71280   -71209   -71145   -71105   -71097   -71099 
  -71096   -71085   -71073   -71062   -71051   -71049   -71051   -71042 
  -71012   -70965   -70915   -70862   -70796   -70726   -70659   -70594 
  -70541   -70497   -70463   -70452   -70465   -70491   -70524   -70571 
  -70653   -70768   -70896   -71028   -71150   -71261   -71369   -71483 
  -71610   -71756   -71932   -72131   -72335   -72535   -72731   -72902 
  -73051   -73194   -73333   -73452   -73566   -73691   -73816   -73923 
  -74016   -74106   -74181   -74228   -74262   -74299   -74332   -74349 
  -74364   -74372   -74360   -74335   -74309   -74290   -74268   -74250 
  -74245   -74256   -74281   -74308   -74314   -74305   -74299   -74287 
  -74267   -74244   -74209   -74159   -74117   -74089   -74048   -73993 
  -73927   -73849   -73769   -73691   -73607   -73527   -73456   -73388 
  -73327   -73278   -73248   -73242   -73253   -73276   -73303   -73325 
  -73338   -73344   -73345   -73341   -73329   -73313   -73300   -73295 
  -73292   -73288   -73268   -73240   -73219   -73206   -73198   -73192 
  -73170   -73130   -73098   -73083   -73078   -73057   -73029   -73017 
  -73012   -73005   -72995   -72978   -72952   -72921   -72875   -72823 
  -72779   -72751   -72720   -72666   -72597   -72535   -72489   -72439 
  -72366   -72266   -72146   -72025   -71914   -71806   -71705   -71618 
  -71536   -71446   -71348   -71246   -71142   -71051   -70976   -70903 
  -70838   -70787   -70746   -70717   -70708   -70730   -70789   -70892 
  -71028   -71169   -71293   -71402   -71504   -71601   -71695   -71799 
  -71917   -72052   -72200   -72347   -72492   -72630   -72758   -72879 
  -72991   -73084   -73153   -73203   -73252   -73309   -73377   -73453 
  -73531   -73619   -73722   -73827   -73921   -74004   -74073   -74128 
  -74164   -74177   -74181   -74185   -74185   -74177   -74156   -74119 
  -74074   -74039   -74007   -73958   -73904   -73859   -73826   -73789 
  -73742   -73691   -73651   -73627   -73614   -73607   -73608   -73611 
  -73603   -73581   -73550   -73510   -73462   -73419   -73376   -73319 
  -73244   -73165   -73082   -72989   -72894   -72800   -72705   -72615 
  -72527   -72441   -72366   -72300   -72237   -72183   -72142   -72110 
  -72080   -72061   -72067   -72095   -72131   -72166   -72215   -72279 
  -72355   -72443   -72524   -72597   -72669   -72731   -72779   -72817 
  -72844   -72866   -72890   -72908   -72905   -72887   -72866   -72843 
  -72810   -72750   -72661   -72558   -72446   -72333   -72219   -72107 
  -71994   -71878   -71767   -71672   -71593   -71524   -71459   -71394 
  -71339   -71297   -71265   -71243   -71232   -71223   -71208   -71185 
  -71161   -71126   -71077   -71020   -70954   -70873   -70791   -70714 
  -70636   -70557   -70492   -70445   -70406   -70378   -70383   -70434 
  -70505   -70590   -70694   -70807   -70926   -71059   -71219   -71390 
  -71563   -71745   -71932   -72104   -72268   -72432   -72586   -72723 
  -72858   -72993   -73128   -73264   -73400   -73537   -73658   -73749 
  -73818   -73886   -73959   -74029   -74100   -74162   -74209   -74247 
  -74285   -74320   -74343   -74352   -74352   -74339   -74313   -74283 
  -74251   -74213   -74169   -74124   -74096   -74086   -74092   -74110 
  -74128   -74152   -74191   -74233   -74274   -74322   -74380   -74436 
  -74480   -74513   -74525   -74511   -74483   -74466   -74461   -74463 
  -74468   -74471   -74449   -74406   -74359   -74306   -74240   -74173 
  -74113   -74066   -74031   -74001   -73969   -73942   -73911   -73861 
  -73797   -73734   -73669   -73606   -73548   -73487   -73426   -73357 
  -73279   -73192   -73099   -72999   -72904   -72808   -72711   -72611 
  -72511   -72411   -72310   -72202   -72096   -72003   -71914   -71818 
  -71725   -71644   -71578   -71521   -71473   -71427   -71383   -71347 
  -71323   -71311   -71305   -71316   -71352   -71401   -71454   -71512 
  -71577   -71655   -71745   -71840   -71937   -72038   -72145   -72247 
  -72337   -72409   -72476   -72530   -72571   -72609   -72642   -72681 
  -72731   -72786   -72848   -72908   -72954   -72982   -73006   -73029 
  -73041   -73040   -73039   -73043   -73049   -73053   -73049   -73045 
  -73040   -73032   -73026   -73018   -73017   -73026   -73037   -73032 
  -73003   -72964   -72927   -72901   -72893   -72898   -72904   -72904 
  -72905   -72912   -72924   -72947   -72974   -72998   -73021   -73045 
  -73075   -73102   -73128   -73157   -73201   -73251   -73295   -73329 
  -73354   -73365   -73352   -73321   -73290   -73269   -73244   -73202 
  -73147   -73075   -72982   -72871   -72750   -72617   -72466   -72303 
  -72141   -71986   -71842   -71712   -71581   -71451   -71336   -71239 
  -71150   -71072   -71018   -70997   -70999   -71024   -71078   -71153 
  -71244   -71346   -71451   -71566   -71695   -71833   -71977   -72131 
  -72296   -72469   -72643   -72812   -72978   -73145   -73309   -73461 
  -73599   -73726   -73839   -73938   -74032   -74133   -74244   -74358 
  -74471   -74584   -74691   -74781   -74845   -74880   -74900   -74919 
  -74927   -74911   -74884   -74861   -74844   -74823   -74802   -74779 
  -74752   -74718   -74683   -74645   -74607   -74572   -74549   -74532 
  -74515   -74502   -74488   -74471   -74449   -74420   -74385   -74335 
  -74263   -74173   -74075   -73984   -73892   -73786   -73664   -73535 
