Origin Time       2025/01/13 21:19:00
Lat.              31.8
Long.             131.6
Depth. (km)       30
Mag.              6.9
Station Code      HRSH04
Station Lat.      34.3785
Station Long.     133.3493
Station Height(m) -175
Record Time       2025/01/13 21:20:43
Sampling Freq(Hz) 100Hz
Duration Time(s)  129
Dir.              1
Scale Factor      3923(gal)/8224838
Max. Acc. (gal)   0.823
Last Correction   2025/01/13 21:20:43
Memo.             
[...]
   49912    49913    49921    49929    49935    49940    49937    49928 
   49916    49900    49883    49871    49871    49871    49848    49819 
   49802    49790    49783    49783    49782    49777    49778    49798 
   49837    49886    49935    49966    49972    49974    49981    49975 
   49947    49910    49889    49883    49883    49893    49917    49933 
   49920    49886    49860    49858    49875    49891    49898    49906 
   49921    49928    49902    49856    49812    49771    49751    49774 
   49820    49860    49886    49902    49906    49900    49897    49891 
   49863    49828    49820    49837    49851    49864    49901    49948 
   49977    49974    49960    49955    49947    49933    49924    49928 
   49950    49974    49978    49970    49956    49939    49928    49936 
   49959    49974    49955    49910    49874    49862    49871    49890 
   49916    49937    49948    49951    49948    49936    49904    49850 
   49796    49754    49735    49744    49779    49829    49889    49943 
   49974    49979    49966    49954    49941    49906    49856    49828 
   49839    49866    49885    49897    49912    49924    49929    49927 
   49910    49894    49893    49906    49918    49920    49923    49951 
   49999    50031    50039    50049    50062    50060    50055    50068 
   50089    50082    50037    49981    49945    49950    49975    49995 
   49993    49982    49983    49990    49986    49974    49956    49944 
   49940    49943    49940    49931    49929    49935    49947    49970 
   49998    50020    50039    50058    50078    50098    50117    50129 
   50144    50166    50194    50217    50213    50179    50129    50075 
   50022    49983    49963    49959    49967    49978    49995    50022 
   50041    50031    50002    49964    49925    49904    49916    49963 
   50022    50066    50089    50103    50110    50105    50095    50090 
   50082    50062    50039    50025    50008    49967    49912    49867 
   49851    49858    49871    49887    49900    49896    49871    49840 
   49817    49804    49797    49782    49755    49732    49729    49739 
   49734    49712    49693    49682    49671    49658    49657    49667 
   49682    49698    49713    49717    49717    49716    49705    49694 
   49693    49698    49701    49701    49705    49721    49751    49790 
   49817    49821    49825    49855    49894    49906    49885    49858 
   49844    49846    49852    49875    49914    49939    49941    49931 
   49909    49887    49882    49894    49917    49940    49954    49958 
   49952    49927    49882    49843    49825    49821    49817    49806 
   49789    49766    49748    49746    49756    49763    49763    49779 
   49823    49875    49897    49881    49867    49879    49897    49909 
   49914    49904    49879    49864    49859    49858    49851    49844 
   49836    49828    49837    49867    49890    49901    49909    49917 
   49932    49959    49978    49968    49933    49894    49854    49817 
   49805    49821    49847    49879    49908    49929    49962    50002 
   50026    50026    50016    50009    50012    50016    50010    49994 
   49972    49948    49936    49944    49972    50001    50004    49977 
   49937    49894    49864    49863    49878    49887    49890    49898 
   49908    49908    49891    49875    49875    49893    49909    49913 
   49913    49921    49935    49945    49937    49900    49851    49839 
   49871    49902    49910    49906    49898    49886    49890    49905 
   49912    49916    49928    49941    49939    49927    49921    49917 
   49908    49920    49958    49993    50008    50009    50010    50021 
   50029    50035    50040    50043    50039    50029    50016    50005 
   49998    49993    49991    49982    49964    49954    49941    49932 
   49939    49960    49981    49978    49963    49972    50009    50041 
   50059    50074    50082    50074    50059    50048    50040    50022 
   49998    49966    49928    49896    49889    49904    49927    49948 
   49964    49966    49943    49905    49875    49854    49836    49828 
   49829    49832    49831    49824    49809    49786    49765    49763 
   49781    49797    49810    49837    49877    49925    49970    49987 
   49968    49928    49887    49855    49828    49817    49829    49855 
   49877    49881    49882    49902    49933    49966    49995    50016 
   50020    50013    49994    49955    49905    49867    49854    49856 
   49864    49875    49886    49886    49882    49879    49874    49874 
   49882    49893    49906    49925    49950    49963    49956    49945 
   49935    49913    49886    49869    49870    49886    49901    49901 
   49882    49854    49831    49816    49816    49829    49840    49837 
   49836    49844    49856    49881    49923    49962    49977    49966 
   49947    49935    49935    49948    49974    50005    50032    50045 
   50044    50044    50045    50039    50026    50017    50005    49991 
   49981    49979    49987    50005    50033    50059    50064    50043 
   50018    50016    50036    50063    50072    50056    50022    49995 
   49989    49991    49993    49995    50002    50009    49998    49962 
   49918    49898    49900    49896    49889    49894    49900    49889 
   49864    49825    49774    49727    49693    49674    49658    49636 
   49626    49635    49647    49655    49661    49659    49657    49673 
   49702    49720    49711    49692    49686    49688    49680    49663 
   49654    49657    49655    49640    49627    49623    49627    49644 
   49674    49708    49743    49769    49782    49786    49786    49782 
   49778    49770    49758    49759    49783    49806    49819    49824 
   49815    49798    49798    49816    49833    49844    49848    49846 
   49833    49812    49788    49770    49759    49748    49746    49754 
   49769    49781    49789    49792    49788    49774    49758    49754 
   49763    49777    49786    49786    49782    49778    49779    49793 
   49817    49842    49850    49840    49837    49846    49858    49867 
   49870    49878    49902    49936    49966    49986    49997    50004 
   50009    50010    50013    50021    50025    50021    50020    50013 
   50008    50020    50049    50083    50107    50128    50144    50144 
   50140    50148    50151    50141    50136    50144    50160    50172 
   50171    50161    50144    50117    50089    50066    50043    50018 
   49998    49983    49970    49944    49909    49885    49879    49875 
   49855    49824    49794    49773    49766    49771    49777    49777 
   49783    49789    49775    49752    49743    49751    49762    49758 
   49750    49761    49778    49774    49763    49782    49832    49873 
   49878    49864    49859    49870    49889    49901    49916    49939 
   49966    49987    49995    49991    49983    49972    49966    49966 
   49974    49999    50033    50051    50045    50035    50033    50032 
   50020    50010    50012    50009    49998    49981    49954    49935 
   49940    49952    49958    49958    49956    49941    49906    49864 
   49827    49798    49777    49752    49727    49707    49685    49662 
   49639    49617    49603    49593    49592    49597    49600    49605 
   49627    49653    49666    49681    49700    49712    49713    49711 
   49712    49721    49729    49735    49752    49782    49821    49873 
   49935    49997    50044    50078    50116    50161    50190    50190 
   50190    50210    50232    50237    50236    50242    50260    50280 
   50301    50322    50344    50353    50352    50355    50365    50373 
   50382    50384    50377    50375    50376    50363    50341    50322 
   50303    50283    50251    50202    50156    50124    50102    50075 
   50045    50025    50010    49990    49975    49975    49967    49929 
   49881    49846    49810    49758    49693    49644    49616    49584 
   49546    49512    49485    49472    49476    49485    49492    49493 
   49485    49473    49458    49449    49451    49459    49465    49464 
   49450    49412    49345    49287    49284    49327    49369    49392 
   49395    49373    49335    49304    49289    49287    49288    49303 
   49326    49337    49335    49333    49327    49319    49315    49320 
   49326    49323    49312    49299    49280    49256    49245    49248 
   49243    49231    49225    49221    49208    49199    49216    49246 
   49252    49234    49231    49250    49269    49281    49306    49349 
   49380    49378    49365    49362    49369    49393    49430    49472 
   49523    49580    49634    49682    49725    49775    49837    49893 
   49927    49948    49968    49991    50010    50040    50095    50153 
   50197    50225    50248    50276    50307    50325    50333    50342 
   50349    50365    50402    50448    50488    50514    50539    50569 
   50598    50627    50664    50703    50739    50776    50823    50874 
   50912    50935    50950    50966    50997    51038    51078    51111 
   51128    51144    51160    51171    51171    51159    51139    51111 
   51079    51054    51035    51019    50994    50963    50944    50934 
   50912    50885    50861    50835    50795    50751    50728    50719 
   50701    50676    50650    50629    50610    50584    50553    50522 
   50491    50465    50456    50460    50465    50467    50464    50461 
   50461    50469    50471    50452    50417    50383    50360    50342 
   50314    50269    50210    50148    50094    50051    50024    50010 
   50004    50006    50010    50006    49983    49941    49893    49848 
   49801    49747    49693    49650    49616    49586    49566    49557 
   49554    49551    49551    49551    49543    49530    49516    49507 
   49507    49504    49488    49464    49442    49438    49457    49482 
   49495    49493    49485    49470    49453    49447    49466    49497 
   49528    49566    49613    49655    49684    49698    49709    49717 
   49724    49732    49742    49751    49766    49782    49798    49810 
   49819    49825    49821    49793    49752    49719    49696    49665 
   49619    49573    49538    49508    49476    49446    49428    49416 
   49404    49391    49376    49361    49349    49338    49323    49308 
   49296    49277    49254    49222    49180    49142    49107    49063 
   49015    48976    48941    48906    48878    48867    48876    48883 
   48871    48868    48890    48924    48961    49003    49052    49107 
   49168    49230    49288    49346    49404    49457    49504    49554 
   49613    49675    49727    49770    49823    49883    49933    49968 
   50009    50062    50122    50190    50260    50326    50380    50423 
   50463    50500    50515    50504    50492    50496    50512    50527 
   50533    50533    50534    50541    50548    50545    50539    50534 
   50529    50522    50515    50506    50494    50469    50430    50391 
   50357    50321    50267    50205    50156    50121    50078    50031 
   49986    49945    49897    49836    49767    49698    49634    49581 
   49535    49488    49438    49396    49369    49346    49330    49322 
   49319    49311    49303    49307    49330    49351    49358    49362 
   49370    49387    49424    49484    49540    49586    49630    49675 
   49720    49766    49809    49851    49906    49975    50039    50093 
   50143    50184    50205    50221    50253    50296    50342    50392 
   50445    50500    50550    50592    50634    50677    50714    50734 
   50745    50765    50791    50803    50793    50773    50746    50726 
   50724    50735    50747    50750    50747    50750    50758    50773 
   50791    50799    50799    50789    50765    50737    50707    50665 
   50610    50548    50476    50398    50317    50228    50139    50056 
   49971    49887    49809    49742    49682    49627    49570    49509 
   49450    49404    49369    49339    49312    49295    49287    49276 
   49260    49252    49248    49233    49215    49216    49241    49281 
   49315    49334    49350    49370    49403    49443    49480    49516 
   49547    49566    49573    49580    49588    49600    49626    49665 
   49709    49747    49779    49815    49855    49893    49932    49981 
   50029    50072    50107    50134    50157    50187    50222    50259 
   50302    50336    50350    50359    50377    50403    50418    50423 
   50422    50413    50400    50386    50367    50344    50322    50302 
   50284    50276    50282    50282    50260    50222    50180    50141 
   50112    50087    50066    50047    50024    50005    49994    49975 
   49944    49906    49874    49854    49840    49821    49796    49775 
   49769    49777    49786    49794    49808    49828    49856    49882 
   49904    49933    49966    49986    50004    50031    50060    50082 
   50095    50101    50110    50126    50149    50180    50214    50242 
   50263    50276    50292    50317    50337    50350    50357    50359 
   50356    50348    50334    50315    50291    50269    50260    50253 
   50240    50228    50225    50229    50237    50259    50303    50364 
   50419    50469    50522    50577    50626    50665    50707    50755 
   50800    50841    50884    50917    50942    50970    50997    51021 
   51051    51077    51088    51086    51077    51069    51059    51042 
   51015    50985    50957    50931    50900    50854    50792    50712 
   50618    50514    50407    50298    50184    50059    49923    49789 
   49662    49535    49400    49262    49138    49021    48898    48783 
   48691    48621    48566    48521    48478    48438    48394    48343 
   48284    48236    48205    48188    48182    48192    48213    48243 
   48281    48325    48369    48406    48443    48478    48516    48552 
   48597    48659    48725    48778    48826    48882    48933    48980 
   49034    49083    49126    49179    49242    49308    49376    49443 
   49519    49600    49677    49739    49790    49829    49852    49867 
   49869    49870    49883    49900    49913    49924    49933    49944 
   49959    49978    49997    50009    50006    49998    49987    49972 
   49960    49956    49947    49925    49900    49860    49808    49761 
   49713    49662    49620    49592    49569    49545    49516    49493 
   49485    49482    49476    49473    49481    49485    49472    49443 
   49418    49388    49353    49318    49288    49269    49258    49252 
   49243    49241    49248    49257    49264    49275    49296    49324 
   49353    49387    49426    49468    49507    49553    49608    49670 
   49736    49801    49866    49935    50006    50072    50132    50188 
   50242    50291    50337    50390    50448    50504    50554    50599 
   50637    50668    50696    50723    50750    50772    50791    50819 
   50858    50892    50924    50958    50990    51015    51032    51057 
   51086    51116    51150    51183    51210    51233    51258    51278 
   51293    51301    51308    51320    51335    51354    51387    51418 
   51429    51428    51417    51393    51354    51297    51236    51170 
   51086    50988    50885    50785    50688    50592    50502    50417 
   50332    50241    50153    50066    49970    49869    49770    49682 
   49605    49531    49461    49391    49320    49249    49185    49135 
   49094    49059    49029    49006    48996    49000    49013    49034 
   49064    49095    49131    49167    49192    49211    49226    49243 
   49262    49276    49284    49285    49287    49299    49320    49347 
   49377    49408    49439    49469    49493    49509    49519    49527 
   49535    49540    49549    49565    49584    49608    49635    49657 
   49675    49692    49702    49713    49728    49746    49762    49771 
   49769    49771    49783    49793    49797    49794    49783    49771 
   49765    49766    49782    49808    49843    49896    49958    50021 
   50091    50179    50279    50375    50467    50560    50646    50726 
   50785    50826    50861    50897    50934    50970    51003    51036 
   51074    51109    51129    51140    51147    51146    51119    51069 
   51013    50955    50881    50789    50688    50592    50503    50414 
   50323    50234    50148    50063    49983    49906    49829    49750 
   49667    49582    49501    49430    49358    49285    49222    49165 
   49103    49033    48953    48871    48787    48718    48672    48635 
   48594    48555    48517    48485    48466    48470    48492    48520 
   48563    48618    48678    48739    48802    48871    48949    49026 
   49103    49188    49283    49373    49445    49496    49546    49603 
   49663    49720    49783    49855    49921    49983    50049    50099 
   50132    50166    50197    50213    50221    50230    50249    50276 
   50299    50307    50303    50294    50290    50299    50323    50353 
   50379    50404    50434    50464    50480    50480    50467    50450 
   50434    50411    50386    50360    50334    50306    50269    50229 
   50187    50139    50083    50026    49968    49918    49882    49846 
   49809    49783    49769    49763    49763    49750    49732    49725 
   49720    49709    49690    49671    49655    49639    49623    49600 
   49570    49540    49516    49497    49474    49445    49426    49424 
   49431    49445    49466    49493    49519    49538    49547    49550 
   49550    49543    49526    49497    49468    49442    49418    49399 
   49388    49384    49380    49369    49349    49335    49334    49331 
   49334    49350    49370    49383    49395    49414    49442    49478 
   49520    49570    49620    49661    49692    49712    49729    49750 
   49766    49778    49794    49819    49844    49859    49870    49881 
   49887    49893    49897    49896    49886    49877    49874    49871 
   49869    49875    49890    49910    49940    49978    50021    50064 
   50105    50148    50198    50244    50280    50306    50329    50352 
   50369    50376    50377    50380    50379    50368    50355    50348 
   50344    50333    50319    50306    50296    50290    50282    50271 
   50268    50267    50264    50260    50251    50247    50257    50264 
   50263    50261    50260    50251    50233    50206    50178    50155 
   50133    50120    50117    50113    50114    50124    50137    50153 
   50176    50205    50228    50247    50259    50265    50269    50274 
   50274    50260    50247    50240    50226    50197    50166    50147 
   50136    50130    50133    50136    50134    50139    50144    50145 
   50137    50120    50098    50070    50032    49991    49951    49910 
   49862    49800    49727    49653    49586    49524    49459    49392 
   49324    49260    49203    49153    49107    49063    49022    48986 
   48964    48963    48969    48978    48998    49036    49080    49131 
   49200    49273    49337    49396    49461    49527    49594    49653 
   49707    49761    49817    49873    49925    49972    50024    50089 
   50156    50215    50280    50348    50415    50480    50539    50598 
   50658    50715    50769    50830    50897    50969    51042    51112 
   51175    51235    51282    51312    51332    51351    51358    51345 
   51316    51275    51220    51146    51058    50958    50850    50739 
   50625    50503    50376    50244    50113    49982    49852    49725 
   49605    49493    49392    49304    49221    49145    49081    49026 
   48973    48928    48895    48872    48851    48834    48820    48809 
   48810    48817    48818    48828    48851    48876    48901    48918 
