Origin Time       2025/01/13 21:19:00
Lat.              31.8
Long.             131.6
Depth. (km)       30
Mag.              6.9
Station Code      HRSH07
Station Lat.      34.2883
Station Long.     132.6411
Station Height(m) 128
Record Time       2025/01/13 21:20:20
Sampling Freq(Hz) 100Hz
Duration Time(s)  147
Dir.              2
Scale Factor      2942(gal)/8224139
Max. Acc. (gal)   2.198
Last Correction   2025/01/13 21:20:20
Memo.             
[...]
 -224803  -224864  -224895  -224880  -224811  -224683  -224490  -224243 
 -224012  -223863  -223825  -223898  -224054  -224201  -224280  -224329 
 -224398  -224484  -224561  -224640  -224753  -224883  -224993  -225049 
 -225022  -224911  -224739  -224552  -224364  -224163  -223944  -223712 
 -223504  -223406  -223431  -223499  -223551  -223630  -223788  -224021 
 -224303  -224588  -224764  -224776  -224681  -224559  -224430  -224318 
 -224235  -224144  -224023  -223908  -223817  -223726  -223627  -223524 
 -223430  -223383  -223410  -223488  -223562  -223595  -223596  -223631 
 -223755  -223965  -224209  -224414  -224532  -224580  -224606  -224652 
 -224692  -224671  -224592  -224502  -224452  -224494  -224631  -224800 
 -224914  -224951  -224958  -224945  -224893  -224826  -224780  -224785 
 -224833  -224847  -224768  -224599  -224405  -224255  -224166  -224141 
 -224185  -224257  -224290  -224255  -224178  -224082  -223979  -223889 
 -223789  -223663  -223550  -223496  -223499  -223516  -223520  -223528 
 -223557  -223624  -223758  -223915  -224009  -224041  -224083  -224147 
 -224164  -224121  -224073  -224077  -224170  -224338  -224546  -224756 
 -224908  -224953  -224891  -224742  -224553  -224402  -224322  -224313 
 -224403  -224572  -224769  -224969  -225136  -225243  -225298  -225310 
 -225286  -225243  -225169  -225054  -224919  -224766  -224575  -224343 
 -224091  -223859  -223684  -223566  -223522  -223554  -223600  -223638 
 -223711  -223803  -223861  -223873  -223843  -223774  -223744  -223834 
 -223981  -224071  -224071  -224014  -223924  -223782  -223608  -223458 
 -223338  -223246  -223219  -223242  -223271  -223288  -223312  -223384 
 -223538  -223785  -224101  -224419  -224710  -224982  -225212  -225371 
 -225479  -225567  -225616  -225568  -225401  -225173  -224961  -224791 
 -224645  -224494  -224324  -224133  -223951  -223824  -223771  -223801 
 -223879  -223931  -223927  -223904  -223892  -223912  -223938  -223904 
 -223798  -223653  -223507  -223399  -223331  -223294  -223281  -223264 
 -223241  -223231  -223215  -223202  -223244  -223348  -223464  -223553 
 -223614  -223693  -223836  -224046  -224297  -224533  -224672  -224703 
 -224691  -224684  -224698  -224715  -224696  -224653  -224606  -224559 
 -224581  -224748  -224984  -225167  -225293  -225405  -225486  -225512 
 -225491  -225444  -225373  -225281  -225165  -225000  -224797  -224599 
 -224425  -224283  -224183  -224113  -224055  -223998  -223942  -223881 
 -223832  -223828  -223859  -223886  -223882  -223832  -223732  -223604 
 -223458  -223273  -223063  -222882  -222754  -222689  -222698  -222763 
 -222832  -222872  -222914  -223003  -223156  -223373  -223628  -223858 
 -224010  -224064  -224046  -224051  -224122  -224208  -224272  -224353 
 -224432  -224424  -224320  -224220  -224199  -224247  -224289  -224253 
 -224152  -224078  -224109  -224245  -224438  -224665  -224908  -225120 
 -225238  -225221  -225121  -225039  -224970  -224838  -224660  -224506 
 -224380  -224249  -224141  -224095  -224067  -224023  -223998  -223979 
 -223875  -223700  -223562  -223476  -223391  -223348  -223431  -223650 
 -223946  -224248  -224500  -224649  -224664  -224634  -224669  -224738 
 -224770  -224753  -224698  -224626  -224571  -224583  -224664  -224768 
 -224862  -224922  -224939  -224919  -224842  -224707  -224538  -224367 
 -224249  -224245  -224376  -224602  -224818  -224993  -225144  -225213 
 -225189  -225151  -225105  -225004  -224860  -224683  -224444  -224193 
 -224009  -223894  -223846  -223832  -223776  -223669  -223561  -223473 
 -223419  -223403  -223402  -223404  -223393  -223353  -223329  -223360 
 -223433  -223507  -223539  -223526  -223491  -223433  -223329  -223182 
 -223064  -223041  -223045  -223024  -223015  -223022  -223061  -223199 
 -223393  -223545  -223678  -223863  -224089  -224376  -224770  -225207 
 -225553  -225709  -225676  -225564  -225435  -225258  -225050  -224872 
 -224746  -224676  -224622  -224526  -224372  -224172  -223925  -223680 
 -223497  -223369  -223279  -223250  -223294  -223383  -223476  -223531 
 -223562  -223628  -223765  -223950  -224145  -224291  -224329  -224291 
 -224251  -224230  -224216  -224190  -224148  -224051  -223873  -223663 
 -223492  -223385  -223362  -223407  -223462  -223516  -223599  -223700 
 -223798  -223893  -223975  -224028  -224036  -224013  -224014  -224056 
 -224108  -224171  -224257  -224341  -224379  -224326  -224225  -224158 
 -224086  -223985  -223928  -223915  -223879  -223843  -223834  -223827 
 -223803  -223788  -223820  -223900  -223993  -224047  -223993  -223835 
 -223686  -223635  -223689  -223809  -223927  -223947  -223813  -223554 
 -223292  -223200  -223353  -223615  -223800  -223842  -223804  -223840 
 -224039  -224299  -224479  -224536  -224502  -224456  -224449  -224453 
 -224426  -224340  -224202  -224074  -223992  -223929  -223884  -223847 
 -223777  -223668  -223595  -223624  -223732  -223877  -224040  -224216 
 -224403  -224608  -224812  -224955  -224995  -224974  -224965  -224980 
 -224976  -224910  -224766  -224606  -224498  -224392  -224233  -224052 
 -223906  -223824  -223804  -223792  -223761  -223739  -223767  -223840 
 -223920  -224040  -224266  -224515  -224645  -224641  -224584  -224568 
 -224652  -224822  -224986  -225042  -224943  -224721  -224436  -224160 
 -223919  -223743  -223693  -223743  -223792  -223820  -223875  -223983 
 -224109  -224132  -223993  -223812  -223715  -223722  -223805  -223935 
 -224120  -224353  -224550  -224664  -224741  -224866  -225062  -225256 
 -225359  -225356  -225269  -225123  -224985  -224907  -224865  -224834 
 -224822  -224816  -224760  -224608  -224394  -224206  -224113  -224136 
 -224235  -224325  -224391  -224432  -224397  -224275  -224120  -223996 
 -223932  -223881  -223762  -223569  -223385  -223264  -223172  -223076 
 -222968  -222845  -222729  -222642  -222552  -222450  -222369  -222340 
 -222351  -222359  -222365  -222442  -222650  -222953  -223215  -223317 
 -223294  -223273  -223294  -223304  -223269  -223200  -223145  -223132 
 -223149  -223157  -223153  -223175  -223250  -223412  -223676  -224017 
 -224426  -224885  -225346  -225782  -226183  -226496  -226671  -226727 
 -226683  -226585  -226515  -226508  -226546  -226574  -226508  -226350 
 -226162  -225957  -225725  -225482  -225277  -225213  -225374  -225687 
 -226041  -226393  -226714  -226997  -227218  -227315  -227284  -227142 
 -226864  -226467  -226056  -225701  -225352  -224974  -224652  -224452 
 -224392  -224465  -224559  -224549  -224461  -224386  -224367  -224391 
 -224442  -224569  -224769  -224934  -225023  -225085  -225150  -225243 
 -225350  -225378  -225283  -225138  -224985  -224814  -224658  -224527 
 -224371  -224189  -224016  -223908  -223896  -223939  -224046  -224232 
 -224426  -224561  -224623  -224592  -224487  -224364  -224247  -224122 
 -223997  -223896  -223820  -223736  -223638  -223535  -223422  -223334 
 -223337  -223391  -223427  -223410  -223294  -223117  -222952  -222821 
 -222767  -222883  -223175  -223546  -223923  -224294  -224644  -224957 
 -225234  -225464  -225663  -225838  -225960  -226017  -225998  -225848 
 -225613  -225450  -225418  -225463  -225520  -225547  -225537  -225516 
 -225481  -225413  -225333  -225300  -225325  -225339  -225286  -225227 
 -225252  -225364  -225495  -225595  -225651  -225655  -225558  -225288 
 -224887  -224479  -224127  -223830  -223591  -223406  -223261  -223188 
 -223236  -223381  -223558  -223750  -223943  -224101  -224239  -224361 
 -224409  -224333  -224183  -224027  -223896  -223824  -223852  -223982 
 -224164  -224337  -224473  -224561  -224587  -224550  -224478  -224432 
 -224442  -224488  -224571  -224727  -224939  -225108  -225182  -225174 
 -225085  -224928  -224738  -224517  -224257  -223956  -223635  -223357 
 -223169  -223099  -223163  -223311  -223491  -223686  -223909  -224187 
 -224471  -224650  -224715  -224729  -224716  -224687  -224664  -224672 
 -224711  -224708  -224590  -224391  -224172  -223948  -223757  -223618 
 -223501  -223414  -223361  -223298  -223176  -223020  -222918  -222944 
 -223091  -223281  -223416  -223460  -223439  -223385  -223325  -223267 
 -223161  -222970  -222723  -222446  -222156  -221906  -221721  -221567 
 -221435  -221394  -221503  -221732  -222021  -222316  -222527  -222598 
 -222590  -222573  -222528  -222428  -222284  -222116  -221994  -221977 
 -222052  -222119  -222104  -222037  -222010  -222043  -222085  -222122 
 -222156  -222172  -222172  -222177  -222214  -222299  -222430  -222629 
 -222912  -223186  -223373  -223503  -223604  -223657  -223634  -223572 
 -223537  -223542  -223526  -223423  -223253  -223092  -222994  -222982 
 -223061  -223192  -223295  -223352  -223403  -223454  -223476  -223469 
 -223443  -223408  -223403  -223473  -223608  -223766  -223942  -224139 
 -224282  -224284  -224216  -224185  -224166  -224091  -223959  -223823 
 -223762  -223778  -223823  -223892  -223974  -224017  -223989  -223916 
 -223879  -223931  -224039  -224151  -224287  -224496  -224746  -224985 
 -225208  -225396  -225485  -225429  -225251  -224999  -224695  -224387 
 -224122  -223890  -223684  -223560  -223515  -223462  -223339  -223169 
 -223033  -223006  -223082  -223133  -223080  -223006  -222997  -223033 
 -223078  -223136  -223190  -223183  -223118  -223051  -222988  -222885 
 -222683  -222363  -221981  -221626  -221391  -221278  -221179  -221046 
 -220936  -220870  -220820  -220806  -220861  -220984  -221151  -221304 
 -221395  -221463  -221530  -221572  -221611  -221668  -221710  -221756 
 -221881  -222081  -222286  -222475  -222633  -222752  -222876  -223053 
 -223252  -223395  -223433  -223427  -223503  -223681  -223885  -224098 
 -224334  -224540  -224685  -224815  -224976  -225124  -225185  -225180 
 -225181  -225194  -225202  -225204  -225192  -225170  -225165  -225174 
 -225186  -225192  -225194  -225205  -225243  -225304  -225327  -225269 
 -225198  -225232  -225370  -225539  -225744  -225994  -226237  -226471 
 -226681  -226832  -226983  -227169  -227350  -227526  -227661  -227682 
 -227623  -227576  -227557  -227520  -227450  -227399  -227389  -227348 
 -227242  -227133  -227065  -227061  -227126  -227214  -227287  -227330 
 -227329  -227273  -227134  -226899  -226665  -226515  -226415  -226301 
 -226162  -226035  -225964  -225934  -225903  -225850  -225737  -225524 
 -225224  -224895  -224611  -224428  -224332  -224260  -224148  -224021 
 -223939  -223921  -223925  -223888  -223825  -223792  -223758  -223674 
 -223547  -223411  -223271  -223115  -222978  -222929  -222998  -223138 
 -223287  -223372  -223368  -223345  -223368  -223402  -223410  -223406 
 -223407  -223395  -223371  -223339  -223325  -223368  -223495  -223708 
 -223978  -224271  -224580  -224877  -225119  -225347  -225633  -225965 
 -226274  -226538  -226813  -227138  -227470  -227750  -227938  -228032 
 -228085  -228079  -227978  -227851  -227759  -227669  -227585  -227547 
 -227531  -227531  -227546  -227569  -227624  -227709  -227774  -227800 
 -227781  -227681  -227483  -227200  -226878  -226563  -226296  -226073 
 -225842  -225543  -225192  -224850  -224549  -224282  -224037  -223811 
 -223635  -223574  -223639  -223785  -223998  -224249  -224455  -224577 
 -224631  -224592  -224453  -224225  -223939  -223624  -223307  -223017 
 -222781  -222619  -222546  -222566  -222660  -222828  -223107  -223461 
 -223796  -224105  -224398  -224650  -224854  -224986  -225004  -224926 
 -224793  -224600  -224372  -224154  -223965  -223835  -223767  -223696 
 -223574  -223418  -223267  -223194  -223265  -223481  -223758  -224013 
 -224235  -224433  -224587  -224687  -224753  -224820  -224896  -224918 
 -224787  -224490  -224125  -223774  -223481  -223307  -223241  -223215 
 -223241  -223352  -223533  -223766  -224035  -224289  -224487  -224630 
 -224739  -224816  -224866  -224900  -224893  -224820  -224721  -224646 
 -224591  -224546  -224510  -224472  -224432  -224394  -224347  -224311 
 -224347  -224452  -224546  -224599  -224665  -224789  -224962  -225131 
 -225270  -225377  -225424  -225404  -225364  -225313  -225246  -225194 
 -225151  -225108  -225097  -225121  -225178  -225265  -225304  -225225 
 -225051  -224830  -224580  -224310  -224036  -223778  -223534  -223290 
 -223041  -222782  -222500  -222234  -222049  -221965  -221953  -221977 
 -222022  -222041  -222006  -221937  -221873  -221844  -221854  -221899 
 -221972  -222022  -221999  -221919  -221811  -221713  -221660  -221644 
 -221659  -221734  -221877  -222045  -222205  -222340  -222430  -222490 
 -222573  -222704  -222891  -223109  -223294  -223418  -223483  -223503 
 -223504  -223481  -223418  -223335  -223256  -223184  -223123  -223045 
 -222930  -222787  -222642  -222536  -222485  -222500  -222617  -222820 
 -223037  -223233  -223400  -223524  -223609  -223677  -223728  -223751 
 -223770  -223803  -223813  -223781  -223724  -223670  -223657  -223705 
 -223773  -223794  -223784  -223804  -223863  -223927  -223989  -224078 
 -224218  -224425  -224703  -225035  -225405  -225752  -225998  -226119 
 -226108  -225975  -225811  -225701  -225648  -225617  -225590  -225575 
 -225607  -225680  -225765  -225848  -225917  -225992  -226102  -226238 
 -226413  -226651  -226926  -227219  -227511  -227746  -227892  -227954 
 -227931  -227875  -227853  -227834  -227785  -227731  -227674  -227630 
 -227600  -227549  -227468  -227368  -227225  -227029  -226785  -226497 
 -226191  -225869  -225529  -225201  -224883  -224514  -224064  -223558 
 -223025  -222485  -221941  -221397  -220855  -220321  -219825  -219424 
 -219117  -218848  -218601  -218413  -218296  -218200  -218106  -218056 
 -218093  -218247  -218531  -218879  -219188  -219403  -219545  -219681 
 -219865  -220089  -220303  -220482  -220642  -220853  -221155  -221540 
 -221981  -222454  -222912  -223312  -223645  -223906  -224101  -224239 
 -224364  -224523  -224727  -224980  -225256  -225478  -225614  -225703 
 -225745  -225722  -225640  -225520  -225386  -225273  -225196  -225134 
 -225072  -225012  -224949  -224839  -224667  -224456  -224209  -223902 
 -223534  -223121  -222727  -222426  -222230  -222107  -222030  -221996 
 -221987  -221968  -221954  -221994  -222083  -222187  -222295  -222428 
 -222573  -222686  -222751  -222797  -222867  -222970  -223076  -223183 
 -223304  -223469  -223711  -224024  -224386  -224783  -225185  -225563 
 -225891  -226181  -226477  -226791  -227095  -227350  -227538  -227646 
 -227681  -227699  -227732  -227743  -227707  -227647  -227600  -227588 
 -227616  -227666  -227716  -227727  -227654  -227493  -227281  -227056 
 -226845  -226669  -226535  -226417  -226264  -226048  -225794  -225524 
 -225239  -224927  -224592  -224291  -224063  -223884  -223726  -223573 
 -223423  -223302  -223213  -223138  -223083  -223010  -222872  -222702 
 -222554  -222427  -222316  -222266  -222296  -222384  -222525  -222737 
 -223033  -223423  -223874  -224333  -224808  -225328  -225895  -226493 
 -227084  -227627  -228085  -228447  -228695  -228791  -228727  -228542 
 -228274  -227963  -227658  -227379  -227124  -226893  -226706  -226573 
 -226496  -226504  -226604  -226737  -226860  -226974  -227079  -227133 
 -227082  -226906  -226629  -226276  -225861  -225410  -224916  -224363 
 -223788  -223230  -222700  -222218  -221796  -221440  -221170  -220985 
 -220864  -220797  -220784  -220812  -220880  -220989  -221134  -221283 
 -221409  -221514  -221611  -221707  -221814  -221926  -222034  -222141 
 -222241  -222350  -222497  -222682  -222921  -223258  -223649  -224005 
 -224333  -224672  -224970  -225155  -225217  -225169  -225031  -224865 
 -224699  -224488  -224205  -223912  -223669  -223483  -223342  -223250 
 -223210  -223226  -223304  -223419  -223519  -223572  -223581  -223528 
 -223427  -223345  -223300  -223256  -223211  -223179  -223163  -223176 
 -223217  -223260  -223298  -223338  -223391  -223446  -223469  -223464 
 -223452  -223391  -223260  -223125  -223041  -222998  -222978  -223006 
 -223095  -223219  -223368  -223547  -223762  -224017  -224299  -224575 
 -224810  -225009  -225198  -225386  -225579  -225742  -225846  -225918 
 -225975  -226014  -226019  -225968  -225853  -225649  -225339  -224949 
 -224502  -223997  -223479  -223021  -222651  -222381  -222251  -222292 
 -222505  -222855  -223246  -223604  -223904  -224156  -224403  -224692 
 -224986  -225229  -225433  -225607  -225720  -225756  -225724  -225634 
 -225521  -225406  -225294  -225215  -225211  -225283  -225390  -225498 
 -225643  -225849  -226072  -226299  -226571  -226867  -227111  -227260 
 -227315  -227296  -227217  -227090  -226925  -226731  -226517  -226276 
 -226002  -225740  -225521  -225323  -225116  -224885  -224652  -224464 
 -224332  -224245  -224229  -224299  -224446  -224657  -224877  -225031 
 -225085  -225018  -224837  -224610  -224387  -224162  -223933  -223715 
 -223516  -223360  -223250  -223167  -223103  -223065  -223025  -222943 
 -222814  -222637  -222420  -222196  -221979  -221756  -221536  -221344 
 -221194  -221069  -220954  -220857  -220793  -220783  -220823  -220900 
 -221027  -221209  -221428  -221688  -221998  -222349  -222735  -223129 
 -223474  -223761  -223997  -224171  -224284  -224375  -224459  -224514 
 -224538  -224564  -224592  -224606  -224633  -224698  -224765  -224818 
 -224887  -224981  -225070  -225138  -225185  -225209  -225209  -225196 
 -225186  -225165  -225093  -224970  -224800  -224581  -224347  -224114 
 -223873  -223619  -223365  -223130  -222930  -222786  -222723  -222755 
 -222875  -223064  -223292  -223527  -223751  -223933  -224055  -224151 
 -224245  -224344  -224463  -224598  -224725  -224834  -224924  -224969 
 -224935  -224812  -224631  -224459  -224321  -224168  -223994  -223854 
 -223774  -223749  -223767  -223813  -223884  -223965  -224032  -224086 
 -224110  -224101  -224087  -224074  -224040  -224012  -223998  -223977 
 -223960  -223963  -223944  -223881  -223793  -223689  -223570  -223449 
 -223331  -223226  -223160  -223153  -223200  -223295  -223441  -223619 
 -223780  -223905  -224000  -224062  -224093  -224104  -224100  -224071 
 -223997  -223884  -223763  -223658  -223576  -223520  -223479  -223443 
 -223419  -223391  -223339  -223249  -223111  -222937  -222763  -222637 
 -222582  -222550  -222515  -222493  -222497  -222528  -222578  -222620 
 -222674  -222794  -222990  -223240  -223514  -223770  -224017  -224293 
 -224603  -224937  -225265  -225566  -225849  -226106  -226334  -226543 
 -226724  -226858  -226956  -227020  -227026  -227003  -226971  -226909 
 -226817  -226709  -226570  -226386  -226177  -226000  -225873  -225769 
 -225679  -225597  -225490  -225332  -225148  -224977  -224835  -224746 
 -224716  -224723  -224746  -224780  -224804  -224814  -224815  -224800 
 -224752  -224684  -224626  -224573  -224518  -224465  -224407  -224361 
 -224370  -224442  -224561  -224723  -224932  -225173  -225409  -225639 
 -225868  -226071  -226222  -226346  -226443  -226501  -226536  -226544 
 -226503  -226395  -226220  -225992  -225740  -225490  -225248  -224981 
 -224691  -224417  -224179  -223985  -223832  -223700  -223558  -223398 
 -223219  -223026  -222824  -222616  -222407  -222211  -222041  -221876 
 -221711  -221571  -221468  -221406  -221383  -221416  -221544  -221780 
 -222095  -222451  -222814  -223153  -223469  -223769  -224047  -224297 
 -224522  -224742  -224969  -225185  -225383  -225571  -225759  -225960 
 -226184  -226422  -226675  -226921  -227126  -227284  -227392  -227461 
