Origin Time       2025/01/13 21:19:00
Lat.              31.8
Long.             131.6
Depth. (km)       30
Mag.              6.9
Station Code      HRSH15
Station Lat.      34.1161
Station Long.     132.5053
Station Height(m) 80
Record Time       2025/01/13 21:20:20
Sampling Freq(Hz) 100Hz
Duration Time(s)  145
Dir.              2
Scale Factor      2942(gal)/8224139
Max. Acc. (gal)   1.603
Last Correction   2025/01/13 21:20:20
Memo.             
[...]
  141939   142007   142055   142102   142161   142218   142281   142354 
  142406   142439   142474   142493   142477   142443   142422   142416 
  142402   142354   142291   142241   142183   142084   141971   141872 
  141783   141682   141577   141508   141490   141515   141550   141559 
  141539   141524   141535   141556   141570   141601   141669   141744 
  141775   141750   141705   141687   141689   141678   141677   141733 
  141837   141952   142064   142146   142171   142146   142099   142053 
  142010   141953   141887   141837   141804   141762   141717   141713 
  141768   141852   141906   141933   141971   142010   142026   142021 
  142009   142007   142018   142018   142005   142003   142020   142030 
  142044   142069   142080   142076   142060   141995   141899   141835 
  141782   141706   141651   141663   141717   141779   141833   141867 
  141883   141925   141993   142045   142086   142125   142121   142078 
  142056   142053   142047   142068   142133   142207   142257   142268 
  142256   142234   142202   142165   142130   142086   142038   141987 
  141924   141849   141768   141691   141643   141635   141652   141683 
  141733   141798   141852   141882   141902   141943   142013   142074 
  142098   142101   142078   142030   141984   141953   141920   141874 
  141822   141775   141743   141724   141689   141637   141613   141615 
  141616   141632   141683   141739   141766   141778   141794   141849 
  141984   142148   142267   142337   142365   142327   142231   142149 
  142136   142150   142144   142111   142055   141999   141982   141983 
  141983   141972   141945   141905   141851   141786   141736   141718 
  141729   141756   141778   141785   141778   141764   141759   141775 
  141817   141849   141871   141947   142092   142244   142361   142433 
  142438   142399   142379   142403   142447   142470   142460   142433 
  142410   142389   142372   142364   142345   142306   142279   142273 
  142250   142218   142213   142196   142167   142194   142271   142323 
  142338   142322   142275   142211   142142   142060   141976   141952 
  141995   142011   141956   141905   141913   141943   141976   142018 
  142038   142036   142048   142078   142096   142094   142099   142132 
  142169   142199   142242   142284   142306   142326   142349   142348 
  142322   142276   142196   142107   142065   142068   142060   142020 
  141960   141875   141768   141664   141581   141509   141463   141439 
  141390   141304   141230   141218   141268   141339   141415   141497 
  141589   141702   141810   141859   141870   141883   141895   141934 
  142030   142167   142311   142420   142468   142485   142519   142558 
  142566   142553   142549   142562   142576   142551   142466   142329 
  142173   142045   141959   141901   141880   141883   141867   141832 
  141799   141770   141741   141709   141693   141743   141837   141918 
  141995   142105   142225   142323   142419   142545   142695   142816 
  142873   142865   142816   142766   142771   142824   142871   142901 
  142948   143002   143004   142970   142952   142916   142859   142821 
  142781   142716   142643   142589   142557   142516   142464   142427 
  142391   142337   142284   142223   142134   142049   142017   142025 
  142014   141957   141870   141775   141694   141635   141596   141546 
  141471   141424   141421   141428   141446   141494   141569   141639 
  141670   141686   141729   141795   141852   141875   141876   141894 
  141933   141978   142052   142157   142246   142295   142331   142373 
  142395   142396   142412   142434   142430   142375   142265   142137 
  142036   141986   142002   142068   142125   142179   142273   142335 
  142314   142290   142284   142237   142182   142194   142271   142376 
  142469   142518   142511   142472   142438   142435   142460   142522 
  142636   142762   142828   142844   142840   142807   142770   142742 
  142695   142663   142703   142766   142785   142761   142713   142647 
  142561   142474   142400   142299   142146   142003   141929   141906 
  141880   141822   141743   141663   141606   141596   141606   141589 
  141561   141604   141744   141875   141897   141843   141772   141706 
  141671   141658   141669   141759   141882   141924   141887   141832 
  141759   141664   141602   141612   141658   141686   141697   141720 
  141768   141853   141994   142142   142237   142303   142376   142434 
  142466   142493   142503   142466   142403   142354   142330   142330 
  142345   142327   142258   142186   142130   142067   141986   141882 
  141760   141669   141624   141589   141575   141621   141731   141872 
  141983   142011   141978   141939   141929   141934   141907   141859 
  141867   141899   141871   141829   141825   141821   141781   141725 
  141723   141798   141890   141955   142002   142011   141982   141960 
  141952   141894   141798   141771   141808   141826   141849   141907 
  141959   141974   141979   142015   142087   142150   142168   142132 
  142044   141940   141833   141744   141739   141798   141825   141828 
  141856   141858   141783   141679   141613   141610   141631   141609 
  141554   141485   141374   141257   141223   141291   141408   141516 
  141566   141563   141540   141525   141534   141558   141588   141597 
  141565   141523   141497   141489   141501   141494   141426   141327 
  141254   141216   141199   141185   141180   141185   141177   141156 
  141146   141181   141223   141216   141241   141345   141431   141466 
  141471   141430   141376   141354   141347   141392   141528   141662 
  141708   141681   141619   141577   141593   141643   141706   141786 
  141870   141936   141991   142015   141971   141906   141906   141978 
  142110   142225   142211   142109   142020   141974   141959   141937 
  141874   141806   141793   141822   141840   141840   141860   141899 
  141898   141849   141809   141804   141814   141833   141829   141775 
  141720   141727   141781   141837   141891   141953   142028   142133 
  142276   142388   142420   142414   142402   142377   142331   142263 
  142199   142190   142227   142250   142213   142132   142034   141907 
  141756   141643   141619   141639   141654   141660   141637   141547 
  141432   141327   141203   141077   140999   140950   140896   140845 
  140825   140817   140779   140694   140617   140637   140763   140892 
  140968   141042   141146   141224   141223   141180   141177   141235 
  141326   141424   141494   141512   141517   141532   141513   141430 
  141313   141243   141257   141312   141386   141474   141536   141563 
  141613   141675   141708   141751   141840   141920   141967   141998 
  142020   142047   142094   142149   142210   142272   142337   142412 
  142484   142547   142608   142608   142560   142568   142650   142726 
  142743   142739   142754   142761   142774   142874   143043   143194 
  143310   143421   143534   143641   143723   143783   143851   143938 
  144000   144024   144043   144099   144201   144302   144343   144329 
  144296   144242   144174   144116   144036   143911   143772   143637 
  143530   143464   143361   143193   143048   142954   142843   142700 
  142557   142442   142354   142281   142233   142206   142182   142150 
  142113   142069   142055   142102   142183   142277   142410   142543 
  142607   142601   142581   142611   142705   142809   142875   142916 
  142948   142950   142913   142902   142954   143013   143046   143074 
  143097   143082   143044   143028   143002   142912   142805   142735 
  142681   142645   142642   142641   142624   142577   142484   142383 
  142335   142330   142303   142260   142272   142366   142497   142604 
  142646   142630   142649   142755   142851   142878   142901   142911 
  142885   142888   142974   143085   143117   143085   143071   143078 
  143071   143058   143046   143032   142986   142878   142767   142697 
  142585   142410   142236   142088   141961   141814   141644   141544 
  141508   141438   141367   141370   141412   141440   141451   141454 
  141447   141401   141316   141258   141242   141226   141216   141211 
  141176   141122   141096   141080   141042   141019   141016   140995 
  140969   140968   140984   140994   140950   140875   140825   140764 
  140651   140502   140351   140243   140177   140104   140022   139951 
  139882   139851   139901   139996   140078   140155   140243   140333 
  140397   140417   140451   140548   140644   140655   140620   140624 
  140687   140807   140989   141212   141436   141658   141847   141960 
  142030   142123   142233   142330   142414   142489   142562   142635 
  142717   142839   143000   143132   143193   143229   143278   143330 
  143361   143351   143311   143291   143318   143388   143478   143534 
  143545   143567   143596   143584   143560   143572   143646   143752 
  143783   143726   143673   143623   143549   143527   143586   143645 
  143691   143754   143783   143752   143725   143706   143603   143399 
  143174   143006   142911   142824   142716   142620   142531   142408 
  142254   142095   141952   141824   141706   141627   141561   141466 
  141365   141254   141104   140981   140942   140913   140868   140888 
  140965   141045   141154   141278   141350   141393   141470   141571 
  141674   141783   141879   141925   141948   142021   142164   142300 
  142353   142357   142356   142342   142338   142335   142263   142146 
  142051   141976   141916   141847   141748   141650   141600   141604 
  141624   141651   141712   141825   141971   142091   142149   142176 
  142227   142360   142574   142771   142897   143050   143253   143399 
  143480   143561   143653   143754   143839   143897   143981   144045 
  143996   143891   143815   143752   143650   143486   143283   143095 
  142909   142695   142447   142160   141845   141524   141184   140825 
  140498   140270   140142   140055   139935   139762   139592   139445 
  139306   139170   139068   139054   139078   139036   138978   139001 
  139028   138986   138932   138896   138848   138804   138793   138843 
  138964   139129   139284   139419   139564   139733   139897   140051 
  140185   140285   140381   140489   140605   140737   140840   140891 
  140954   141058   141150   141187   141168   141091   140957   140832 
  140769   140728   140638   140544   140490   140431   140354   140310 
  140283   140238   140220   140240   140239   140224   140250   140304 
  140377   140474   140543   140563   140614   140719   140833   140961 
  141133   141336   141520   141628   141662   141679   141710   141718 
  141667   141620   141662   141772   141887   141959   141948   141895 
  141875   141871   141844   141810   141802   141845   141939   142025 
  142056   142061   142095   142164   142248   142327   142414   142537 
  142697   142858   142994   143124   143245   143338   143415   143468 
  143480   143469   143446   143417   143418   143421   143343   143220 
  143122   143008   142859   142744   142682   142628   142543   142416 
  142253   142082   141925   141768   141604   141461   141338   141166 
  140942   140741   140595   140482   140413   140391   140401   140467 
  140591   140678   140672   140630   140593   140570   140566   140594 
  140686   140818   140906   140931   140962   141037   141127   141227 
  141357   141511   141669   141828   141966   142083   142211   142353 
  142496   142626   142716   142776   142830   142857   142838   142811 
  142784   142720   142658   142641   142612   142577   142616   142715 
  142784   142801   142821   142877   142939   142966   142977   143041 
  143201   143392   143544   143660   143743   143765   143754   143748 
  143735   143739   143789   143851   143899   143945   144001   144061 
  144066   143992   143907   143874   143880   143850   143760   143664 
  143579   143438   143237   143032   142854   142701   142577   142487 
  142418   142360   142334   142337   142323   142279   142238   142218 
  142177   142094   141997   141916   141862   141843   141828   141794 
  141783   141814   141845   141894   142007   142133   142211   142253 
  142276   142285   142284   142280   142279   142281   142284   142271 
  142248   142254   142302   142379   142437   142415   142352   142329 
  142339   142334   142307   142253   142172   142113   142083   142037 
  141956   141832   141663   141494   141361   141261   141185   141106 
  141000   140894   140829   140807   140783   140695   140551   140431 
  140368   140313   140252   140251   140316   140363   140351   140328 
  140347   140410   140485   140562   140661   140784   140917   141061 
  141222   141367   141486   141598   141727   141898   142107   142281 
  142402   142520   142661   142813   143000   143230   143468   143704 
  143945   144159   144337   144495   144645   144788   144942   145127 
  145334   145528   145685   145835   145986   146065   146055   146028 
  146021   146016   146003   145986   145960   145924   145879   145837 
  145813   145809   145805   145763   145655   145496   145285   144985 
  144591   144173   143792   143456   143155   142870   142587   142314 
  142092   141944   141828   141704   141586   141471   141346   141254 
  141207   141187   141191   141188   141145   141073   140976   140840 
  140676   140525   140448   140424   140367   140269   140178   140128 
  140097   140019   139885   139730   139560   139399   139261   139122 
  138962   138774   138584   138426   138284   138111   137918   137756 
  137662   137619   137581   137538   137528   137550   137573   137627 
  137729   137844   137965   138103   138268   138481   138708   138900 
  139082   139287   139504   139714   139891   140067   140294   140566 
  140850   141150   141477   141787   142030   142230   142419   142595 
  142763   142932   143140   143398   143615   143726   143802   143897 
  143989   144070   144140   144209   144286   144329   144292   144201 
  144111   144061   144058   144067   144053   144003   143915   143806 
  143714   143671   143649   143608   143563   143540   143544   143554 
  143586   143680   143826   143945   143993   143985   143953   143928 
  143910   143892   143878   143838   143750   143656   143564   143429 
  143236   143033   142843   142638   142395   142114   141812   141493 
  141174   140879   140593   140296   140000   139729   139446   139139 
  138881   138730   138654   138620   138634   138700   138790   138881 
  138982   139121   139325   139584   139846   140107   140397   140692 
  140960   141204   141453   141739   142056   142333   142524   142658 
  142773   142862   142904   142927   142962   142992   142990   142956 
  142906   142873   142836   142728   142549   142356   142172   141987 
  141806   141650   141531   141442   141374   141305   141212   141120 
  141069   141058   141064   141061   141065   141106   141161   141239 
  141361   141490   141613   141754   141898   142036   142190   142358 
  142514   142641   142742   142838   142927   143001   143077   143145 
  143164   143141   143113   143070   143005   142943   142878   142777 
  142630   142469   142323   142184   142049   141956   141932   141953 
  141983   141997   141980   141957   141964   142006   142061   142117 
  142192   142299   142393   142453   142514   142597   142681   142770 
  142867   142974   143073   143117   143128   143166   143213   143226 
  143229   143235   143214   143163   143078   142978   142888   142800 
  142700   142592   142492   142396   142295   142222   142182   142141 
  142091   142030   141959   141893   141835   141770   141693   141635 
  141640   141691   141752   141849   141990   142137   142281   142443 
  142616   142780   142919   143036   143132   143195   143233   143253 
  143259   143260   143282   143328   143375   143406   143422   143407 
  143334   143218   143082   142933   142774   142584   142333   142038 
  141764   141535   141322   141097   140853   140593   140331   140076 
  139822   139581   139368   139185   139014   138859   138750   138689 
  138663   138674   138707   138738   138770   138832   138947   139079 
  139175   139267   139430   139672   139931   140167   140387   140622 
  140875   141110   141308   141489   141662   141804   141903   141986 
  142072   142133   142133   142087   142021   141944   141870   141805 
  141717   141628   141613   141644   141640   141597   141527   141428 
  141340   141281   141249   141259   141308   141376   141465   141562 
  141660   141799   141972   142136   142276   142425   142603   142800 
  142987   143147   143276   143395   143540   143711   143869   143977 
  144049   144104   144154   144196   144209   144189   144154   144104 
  144036   143966   143908   143834   143710   143553   143394   143237 
  143071   142885   142689   142512   142356   142214   142101   142010 
  141934   141875   141822   141762   141706   141679   141683   141723 
  141791   141841   141858   141883   141920   141949   141975   142009 
  142049   142092   142126   142160   142198   142221   142198   142150 
  142130   142123   142082   142020   141952   141841   141697   141544 
  141376   141215   141102   141034   140989   140946   140896   140852 
  140805   140751   140719   140730   140764   140776   140748   140694 
  140637   140603   140630   140730   140869   141007   141126   141237 
  141370   141540   141724   141913   142132   142380   142616   142828 
  143046   143274   143495   143692   143838   143920   143961   143968 
  143926   143837   143719   143592   143456   143295   143117   142966 
  142838   142682   142511   142375   142248   142083   141889   141701 
  141536   141377   141214   141075   140972   140899   140849   140791 
  140728   140703   140715   140734   140771   140849   140989   141201 
  141453   141708   141955   142210   142483   142757   142974   143106 
  143201   143303   143387   143432   143436   143407   143356   143305 
  143263   143217   143156   143085   143000   142925   142866   142784 
  142682   142608   142557   142491   142391   142254   142075   141859 
  141627   141389   141153   140923   140714   140544   140418   140317 
  140235   140190   140201   140267   140359   140455   140560   140674 
  140771   140859   140937   140991   141035   141095   141166   141250 
  141353   141474   141608   141731   141820   141875   141907   141928 
  141948   141975   142013   142034   142022   142015   142006   141961 
  141898   141818   141704   141577   141448   141316   141211   141149 
  141122   141122   141138   141189   141299   141444   141600   141779 
  141967   142130   142283   142445   142592   142704   142792   142862 
  142925   142990   143039   143051   143043   143028   142996   142940 
  142862   142767   142684   142626   142591   142569   142553   142541 
  142531   142497   142420   142326   142244   142161   142056   141944 
  141833   141729   141659   141631   141608   141571   141543   141540 
  141543   141516   141453   141384   141335   141297   141254   141218 
  141199   141188   141187   141205   141241   141272   141305   141347 
  141389   141420   141448   141466   141451   141421   141396   141378 
  141372   141381   141400   141416   141430   141440   141465   141505 
  141552   141621   141727   141862   142005   142136   142283   142454 
  142603   142717   142835   142971   143120   143276   143418   143526 
