Origin Time       2025/01/13 21:19:00
Lat.              31.8
Long.             131.6
Depth. (km)       30
Mag.              6.9
Station Code      HRSH11
Station Lat.      34.8225
Station Long.     133.1674
Station Height(m) 590
Record Time       2025/01/13 21:21:05
Sampling Freq(Hz) 100Hz
Duration Time(s)  120
Dir.              6
Scale Factor      7845(gal)/8223790
Max. Acc. (gal)   0.761
Last Correction   2025/01/13 21:21:06
Memo.             
[...]
    3812     3817     3788     3732     3692     3709     3792     3886 
    3925     3889     3827     3778     3734     3699     3724     3798 
    3848     3831     3748     3681     3707     3785     3839     3866 
    3885     3885     3869     3854     3829     3778     3726     3721 
    3771     3835     3858     3804     3712     3659     3676     3719 
    3727     3712     3731     3773     3784     3766     3747     3731 
    3734     3748     3739     3705     3673     3657     3649     3642 
    3670     3744     3812     3815     3754     3699     3677     3659 
    3658     3697     3744     3770     3786     3786     3753     3712 
    3705     3734     3766     3763     3728     3703     3682     3639 
    3608     3612     3616     3627     3659     3654     3608     3582 
    3561     3528     3546     3592     3622     3661     3701     3694 
    3665     3643     3624     3615     3645     3689     3697     3681 
    3677     3701     3735     3727     3662     3592     3566     3585 
    3615     3654     3697     3694     3654     3650     3699     3735 
    3711     3676     3674     3686     3696     3703     3686     3632 
    3577     3558     3580     3624     3649     3623     3573     3520 
    3469     3453     3492     3547     3542     3499     3503     3538 
    3532     3491     3461     3460     3462     3446     3454     3507 
    3534     3512     3505     3516     3501     3483     3508     3557 
    3591     3592     3553     3495     3480     3514     3545     3546 
    3537     3562     3612     3620     3607     3623     3659     3667 
    3651     3665     3694     3678     3643     3650     3699     3734 
    3724     3681     3623     3568     3546     3582     3650     3682 
    3654     3599     3564     3561     3586     3628     3649     3632 
    3616     3613     3597     3557     3522     3520     3566     3638 
    3681     3654     3588     3566     3596     3623     3636     3645 
    3649     3662     3670     3649     3611     3591     3592     3600 
    3640     3717     3734     3680     3690     3770     3805     3804 
    3809     3800     3777     3774     3802     3829     3823     3792 
    3762     3732     3711     3731     3790     3835     3832     3816 
    3816     3819     3797     3765     3747     3738     3739     3766 
    3789     3781     3758     3748     3735     3709     3711     3728 
    3717     3701     3720     3734     3708     3692     3703     3693 
    3663     3655     3673     3685     3680     3673     3692     3717 
    3724     3728     3732     3732     3747     3742     3693     3663 
    3682     3723     3775     3805     3770     3699     3645     3634 
    3661     3686     3681     3677     3686     3682     3662     3623 
    3570     3557     3604     3654     3665     3630     3569     3504 
    3456     3464     3532     3608     3642     3646     3651     3639 
    3595     3557     3566     3618     3674     3692     3661     3624 
    3623     3646     3665     3676     3700     3751     3801     3801 
    3761     3740     3751     3769     3811     3871     3892     3854 
    3811     3825     3902     3973     3974     3933     3920     3955 
    3985     3981     3969     3947     3919     3923     3943     3936 
    3910     3890     3878     3879     3879     3861     3846     3836 
    3794     3748     3758     3793     3808     3793     3757     3726 
    3717     3734     3763     3777     3777     3782     3788     3786 
    3775     3750     3726     3707     3703     3744     3786     3746 
    3667     3628     3618     3620     3622     3596     3586     3613 
    3616     3582     3547     3522     3507     3511     3534     3558 
    3561     3539     3520     3526     3537     3542     3572     3615 
    3632     3638     3646     3631     3604     3612     3678     3751 
    3765     3753     3778     3817     3836     3856     3882     3889 
    3871     3852     3867     3904     3920     3909     3910     3921 
    3915     3905     3894     3874     3854     3832     3805     3786 
    3762     3735     3732     3747     3721     3661     3634     3638 
    3622     3599     3589     3576     3557     3549     3539     3508 
    3469     3441     3429     3435     3443     3442     3422     3383 
    3361     3392     3426     3420     3389     3356     3348     3376 
    3396     3383     3358     3331     3325     3372     3430     3429 
    3389     3368     3364     3377     3395     3385     3356     3335 
    3333     3353     3389     3438     3483     3511     3520     3505 
    3480     3468     3496     3565     3618     3618     3591     3573 
    3578     3593     3597     3599     3615     3647     3688     3715 
    3705     3658     3619     3622     3661     3721     3763     3755 
    3721     3703     3704     3713     3730     3739     3717     3685 
    3684     3703     3711     3703     3696     3700     3694     3677 
    3677     3696     3694     3676     3663     3665     3677     3709 
    3758     3782     3751     3694     3658     3651     3667     3684 
    3693     3703     3713     3716     3686     3636     3616     3631 
    3636     3620     3613     3639     3680     3686     3655     3630 
    3616     3608     3658     3750     3765     3699     3654     3665 
    3685     3686     3701     3739     3767     3771     3786     3812 
    3798     3724     3650     3646     3699     3757     3792     3780 
    3709     3643     3635     3674     3716     3740     3742     3719 
    3696     3700     3730     3770     3790     3780     3765     3748 
    3726     3704     3689     3673     3657     3655     3665     3670 
    3662     3649     3642     3628     3593     3566     3561     3557 
    3538     3508     3491     3493     3485     3476     3496     3539 
    3581     3604     3597     3580     3578     3593     3618     3647 
    3681     3721     3754     3757     3750     3763     3775     3767 
    3773     3796     3812     3821     3809     3790     3798     3813 
    3815     3834     3867     3865     3838     3836     3843     3834 
    3832     3859     3905     3929     3904     3862     3836     3834 
    3852     3877     3892     3894     3882     3871     3873     3866 
    3843     3820     3797     3777     3774     3789     3781     3723 
    3657     3631     3628     3624     3628     3632     3628     3622 
    3620     3628     3635     3638     3654     3688     3732     3762 
    3743     3692     3670     3700     3743     3770     3781     3778 
    3761     3753     3778     3819     3842     3838     3825     3811 
    3792     3796     3828     3836     3816     3817     3847     3882 
    3904     3913     3925     3927     3910     3916     3959     3983 
    3959     3924     3906     3888     3859     3850     3852     3838 
    3820     3819     3809     3775     3747     3739     3742     3759 
    3789     3794     3767     3736     3711     3693     3688     3674 
    3658     3653     3628     3576     3541     3541     3530     3481 
    3430     3400     3380     3365     3366     3377     3376     3356 
    3334     3319     3299     3276     3275     3299     3316     3302 
    3269     3262     3291     3315     3312     3298     3292     3300 
    3322     3354     3375     3365     3341     3333     3343     3358 
    3370     3368     3362     3380     3410     3423     3424     3433 
    3447     3462     3472     3484     3500     3515     3541     3578 
    3608     3613     3603     3608     3646     3685     3709     3730 
    3732     3734     3748     3753     3742     3740     3751     3770 
    3790     3807     3824     3850     3866     3863     3852     3835 
    3809     3800     3821     3834     3807     3755     3708     3689 
    3688     3669     3653     3646     3630     3624     3634     3631 
    3618     3595     3570     3569     3572     3565     3574     3599 
    3604     3588     3586     3604     3615     3613     3626     3653 
    3667     3669     3673     3685     3712     3746     3775     3786 
    3781     3794     3827     3842     3839     3848     3867     3865 
    3861     3892     3924     3927     3916     3919     3944     3977 
    3977     3956     3950     3946     3928     3924     3948     3977 
    3986     3969     3943     3924     3912     3920     3939     3940 
    3912     3882     3878     3885     3871     3843     3827     3821 
    3821     3834     3863     3883     3856     3807     3782     3786 
    3794     3786     3757     3713     3669     3638     3615     3592 
    3566     3535     3508     3496     3488     3484     3489     3485 
    3454     3419     3418     3438     3461     3487     3504     3512 
    3512     3501     3515     3572     3630     3646     3638     3650 
    3690     3732     3751     3750     3751     3759     3774     3808 
    3850     3865     3856     3848     3850     3866     3894     3896 
    3865     3832     3827     3850     3863     3839     3808     3798 
    3798     3808     3824     3816     3775     3735     3709     3693 
    3694     3708     3711     3693     3659     3630     3616     3597 
    3561     3535     3553     3585     3589     3562     3531     3503 
    3489     3511     3554     3585     3586     3545     3485     3457 
    3472     3487     3477     3456     3443     3453     3470     3466 
    3451     3446     3438     3419     3415     3439     3464     3476 
    3488     3477     3449     3423     3395     3370     3358     3349 
    3346     3339     3314     3283     3269     3271     3288     3319 
    3335     3323     3299     3268     3250     3272     3304     3311 
    3298     3288     3296     3306     3298     3288     3299     3333 
    3383     3415     3406     3381     3365     3357     3360     3366 
    3376     3385     3388     3393     3415     3426     3419     3415 
    3420     3450     3508     3557     3574     3572     3568     3582 
    3616     3654     3692     3746     3824     3888     3909     3921 
    3954     3996     4044     4099     4143     4166     4168     4167 
    4193     4240     4263     4267     4295     4325     4318     4287 
    4260     4249     4252     4263     4270     4264     4241     4217 
    4201     4175     4148     4121     4083     4064     4070     4052 
    4014     3989     3966     3936     3921     3920     3906     3862 
    3789     3720     3688     3672     3635     3597     3580     3561 
    3520     3478     3461     3453     3441     3437     3434     3426 
    3423     3424     3435     3439     3420     3403     3411     3439 
    3474     3495     3508     3538     3577     3616     3655     3697 
    3726     3720     3712     3736     3785     3831     3854     3852 
    3861     3894     3924     3935     3940     3943     3937     3929 
    3936     3946     3931     3886     3854     3851     3843     3820 
    3811     3802     3766     3717     3688     3685     3684     3659 
    3620     3593     3568     3530     3499     3474     3437     3396 
    3362     3337     3326     3326     3325     3303     3256     3217 
    3211     3208     3181     3152     3129     3100     3078     3075 
    3086     3087     3079     3088     3130     3167     3165     3150 
    3157     3181     3208     3234     3253     3262     3284     3327 
    3380     3429     3476     3520     3558     3603     3654     3713 
    3773     3817     3854     3894     3927     3943     3955     3970 
    3998     4029     4040     4032     4029     4040     4060     4078 
    4079     4064     4036     4016     4023     4045     4063     4062 
    4055     4058     4068     4078     4082     4082     4074     4062 
    4062     4078     4090     4081     4072     4091     4126     4148 
    4132     4090     4052     4025     4018     4033     4029     3996 
    3955     3928     3910     3898     3881     3865     3859     3855 
    3844     3828     3802     3777     3770     3778     3774     3754 
    3736     3727     3717     3717     3731     3736     3726     3720 
    3740     3767     3777     3766     3740     3721     3720     3713 
    3701     3697     3690     3677     3658     3630     3612     3608 
    3585     3558     3547     3526     3484     3454     3445     3441 
    3434     3427     3422     3414     3392     3370     3373     3381 
    3354     3314     3307     3335     3369     3380     3360     3319 
    3273     3242     3245     3258     3262     3260     3253     3250 
    3260     3268     3276     3306     3353     3392     3418     3453 
    3489     3489     3472     3485     3518     3532     3542     3559 
    3572     3568     3554     3561     3601     3647     3669     3676 
    3686     3694     3700     3715     3732     3728     3713     3713 
    3726     3739     3748     3757     3750     3726     3719     3750 
    3775     3773     3761     3747     3727     3715     3724     3754 
    3794     3820     3820     3825     3842     3851     3863     3897 
    3939     3974     4005     4032     4060     4093     4126     4168 
    4217     4255     4275     4290     4309     4325     4344     4356 
    4359     4367     4376     4371     4353     4328     4294     4274 
    4270     4251     4206     4158     4126     4104     4072     4029 
    3981     3920     3847     3785     3727     3657     3578     3503 
    3449     3410     3356     3292     3233     3172     3113     3071 
    3057     3056     3037     3003     2976     2955     2929     2902 
    2879     2875     2898     2940     2964     2961     2965     2984 
    3014     3075     3146     3192     3213     3229     3249     3275 
    3291     3292     3296     3314     3339     3365     3388     3415 
    3438     3439     3445     3476     3501     3507     3518     3546 
    3576     3588     3593     3609     3638     3670     3700     3713 
    3713     3726     3765     3797     3811     3819     3827     3846 
    3879     3913     3932     3931     3910     3894     3889     3881 
    3874     3871     3856     3828     3808     3807     3817     3820 
    3808     3786     3761     3731     3713     3715     3712     3690 
    3651     3603     3564     3546     3547     3557     3558     3547 
    3534     3526     3519     3515     3522     3535     3557     3586 
    3620     3642     3643     3642     3665     3701     3740     3786 
    3831     3848     3842     3840     3861     3897     3942     3981 
    4005     4009     3996     3981     3978     3989     4009     4023 
    4013     3986     3954     3923     3912     3921     3929     3928 
    3920     3915     3915     3909     3882     3851     3839     3840 
    3844     3851     3852     3842     3829     3827     3844     3878 
    3893     3882     3865     3847     3850     3875     3890     3879 
    3866     3855     3846     3843     3844     3834     3800     3750 
    3711     3693     3681     3659     3635     3624     3613     3589 
    3568     3554     3531     3497     3474     3474     3485     3491 
    3487     3480     3468     3447     3434     3445     3472     3485 
    3489     3504     3524     3546     3574     3605     3639     3672 
    3697     3731     3781     3829     3870     3901     3909     3915 
    3942     3973     3979     3966     3964     3983     4005     4020 
    4031     4028     4010     3985     3975     3977     3964     3935 
    3904     3870     3842     3829     3819     3794     3766     3740 
    3711     3685     3667     3638     3595     3553     3515     3489 
    3466     3420     3365     3333     3304     3262     3217     3179 
    3154     3146     3149     3144     3123     3099     3084     3096 
    3122     3129     3123     3132     3150     3169     3194     3229 
    3256     3268     3283     3319     3372     3420     3447     3473 
    3510     3550     3593     3640     3684     3726     3773     3829 
    3883     3910     3919     3932     3954     3991     4041     4082 
    4110     4133     4149     4164     4186     4210     4217     4206 
    4197     4202     4209     4207     4199     4174     4145     4131 
    4112     4085     4056     4017     3977     3942     3900     3855 
    3824     3804     3784     3751     3709     3676     3657     3646 
    3638     3631     3615     3580     3534     3507     3493     3480 
    3465     3454     3445     3430     3412     3407     3407     3414 
    3422     3419     3414     3412     3400     3370     3349     3345 
    3350     3354     3343     3322     3310     3306     3308     3322 
    3329     3311     3295     3308     3323     3323     3314     3298 
    3285     3294     3308     3312     3312     3318     3333     3350 
    3368     3384     3403     3422     3447     3491     3539     3570 
    3589     3607     3627     3646     3661     3685     3717     3750 
    3778     3798     3809     3824     3865     3915     3935     3932 
    3936     3940     3944     3958     3971     3979     3982     3978 
    3979     3987     3981     3966     3962     3960     3956     3952 
    3948     3952     3952     3932     3906     3890     3897     3931 
    3960     3964     3958     3951     3943     3937     3932     3937 
    3960     3977     3982     3974     3950     3921     3912     3923 
    3948     3969     3960     3932     3909     3898     3879     3855 
    3836     3829     3834     3831     3805     3769     3757     3770 
    3781     3777     3762     3743     3731     3735     3748     3754 
    3748     3740     3734     3728     3716     3701     3689     3681 
    3676     3676     3670     3647     3613     3591     3586     3588 
    3588     3591     3586     3557     3530     3523     3520     3511 
    3501     3503     3511     3514     3505     3497     3489     3474 
    3460     3460     3464     3461     3453     3441     3426     3404 
    3381     3365     3354     3345     3338     3330     3315     3299 
    3292     3296     3307     3318     3326     3329     3315     3296 
    3298     3318     3329     3333     3338     3343     3356     3372 
    3383     3377     3373     3384     3404     3418     3422     3423 
    3445     3492     3538     3562     3569     3577     3591     3612 
    3640     3676     3711     3748     3786     3821     3852     3875 
    3890     3905     3920     3937     3956     3970     3966     3962 
    3973     3993     4012     4023     4024     4014     3998     3994 
    4005     4012     4005     3993     3971     3944     3925     3909 
    3881     3847     3813     3784     3758     3734     3707     3681 
    3662     3649     3636     3619     3601     3585     3568     3543 
    3518     3504     3500     3500     3496     3489     3497     3515 
    3520     3519     3519     3528     3550     3580     3609     3627 
    3618     3608     3619     3643     3670     3693     3707     3709 
    3708     3713     3723     3734     3748     3771     3792     3804 
    3805     3793     3778     3777     3786     3801     3819     3824 
    3809     3808     3825     3829     3817     3811     3812     3821 
    3835     3834     3824     3824     3835     3852     3870     3861 
    3823     3788     3775     3784     3796     3790     3767     3742 
    3727     3727     3744     3751     3728     3703     3709     3736 
    3751     3740     3712     3686     3678     3692     3708     3707 
