Origin Time       2025/01/13 21:19:00
Lat.              31.8
Long.             131.6
Depth. (km)       30
Mag.              6.9
Station Code      HRSH13
Station Lat.      34.4122
Station Long.     132.3907
Station Height(m) 150
Record Time       2025/01/13 21:20:27
Sampling Freq(Hz) 100Hz
Duration Time(s)  125
Dir.              6
Scale Factor      7845(gal)/8223790
Max. Acc. (gal)   1.739
Last Correction   2025/01/13 21:20:27
Memo.             
[...]
   -8148    -8282    -8434    -8483    -8328    -8008    -7685    -7520 
   -7572    -7793    -8024    -8118    -8056    -7920    -7862    -7954 
   -8093    -8168    -8158    -8086    -7950    -7762    -7655    -7728 
   -7840    -7855    -7836    -7801    -7726    -7703    -7750    -7800 
   -7893    -8028    -8097    -8148    -8289    -8368    -8213    -7973 
   -7819    -7681    -7515    -7412    -7450    -7654    -7944    -8143 
   -8140    -8066    -8125    -8247    -8193    -8005    -7943    -8023 
   -8077    -8093    -8121    -8182    -8295    -8348    -8249    -8129 
   -8116    -8178    -8218    -8197    -8124    -7989    -7889    -7975 
   -8175    -8340    -8411    -8349    -8203    -8109    -8102    -8120 
   -8151    -8241    -8318    -8279    -8148    -7948    -7723    -7635 
   -7670    -7609    -7473    -7433    -7472    -7547    -7732    -7974 
   -8086    -8037    -7981    -8012    -8066    -8002    -7800    -7558 
   -7338    -7244    -7393    -7723    -8079    -8352    -8380    -8097 
   -7711    -7418    -7202    -7079    -7144    -7387    -7753    -8181 
   -8478    -8507    -8387    -8229    -7979    -7682    -7511    -7491 
   -7557    -7769    -8127    -8361    -8328    -8206    -8129    -8005 
   -7796    -7642    -7669    -7847    -8025    -8060    -7994    -7978 
   -8004    -7990    -7985    -7959    -7778    -7546    -7506    -7688 
   -7936    -8043    -7942    -7815    -7807    -7861    -7939    -8074 
   -8220    -8271    -8224    -8160    -8062    -7862    -7717    -7834 
   -8087    -8302    -8509    -8691    -8753    -8610    -8143    -7554 
   -7372    -7703    -8108    -8280    -8324    -8370    -8318    -8117 
   -7977    -8024    -8141    -8252    -8316    -8186    -7916    -7773 
   -7800    -7861    -7875    -7828    -7870    -8079    -8210    -8132 
   -7981    -7809    -7646    -7589    -7704    -8021    -8395    -8554 
   -8460    -8290    -8178    -8178    -8236    -8221    -8128    -8037 
   -7960    -7928    -7986    -8073    -8086    -8048    -8033    -8058 
   -8199    -8465    -8658    -8692    -8587    -8294    -7956    -7796 
   -7713    -7604    -7620    -7825    -8085    -8249    -8222    -8082 
   -7979    -7878    -7676    -7476    -7487    -7682    -7861    -7931 
   -7985    -8154    -8387    -8488    -8386    -8109    -7742    -7469 
   -7393    -7473    -7638    -7807    -7933    -8012    -7996    -7912 
   -7890    -7975    -8051    -8066    -8086    -8097    -7985    -7728 
   -7518    -7561    -7801    -8062    -8266    -8357    -8263    -7965 
   -7588    -7366    -7379    -7545    -7732    -7790    -7804    -7998 
   -8286    -8378    -8139    -7708    -7429    -7468    -7638    -7754 
   -7842    -7978    -8197    -8428    -8476    -8252    -7900    -7623 
   -7507    -7547    -7761    -8083    -8351    -8534    -8662    -8617 
   -8378    -8141    -8006    -7911    -7813    -7713    -7605    -7615 
   -7846    -8145    -8272    -8176    -8004    -7892    -7877    -8002 
   -8198    -8314    -8363    -8305    -8078    -7924    -8036    -8314 
   -8630    -8838    -8792    -8587    -8428    -8343    -8224    -8029 
   -7809    -7653    -7680    -7939    -8266    -8426    -8332    -8064 
   -7807    -7778    -8071    -8460    -8604    -8382    -7901    -7435 
   -7350    -7665    -7974    -8117    -8224    -8176    -7873    -7531 
   -7365    -7460    -7753    -8032    -8229    -8410    -8541    -8576 
   -8564    -8536    -8437    -8253    -8046    -7842    -7704    -7684 
   -7693    -7712    -7805    -7877    -7844    -7763    -7693    -7765 
   -8036    -8313    -8436    -8382    -8151    -7852    -7658    -7682 
   -8037    -8583    -8895    -8781    -8392    -7943    -7655    -7627 
   -7742    -7824    -7771    -7634    -7495    -7407    -7542    -7956 
   -8330    -8388    -8255    -8170    -8170    -8158    -8133    -8140 
   -8097    -7955    -7842    -7848    -7944    -8025    -7960    -7746 
   -7565    -7601    -7846    -8070    -8118    -8095    -8147    -8267 
   -8337    -8266    -8154    -8159    -8209    -8120    -7956    -7913 
   -7967    -8033    -8077    -8073    -8073    -8023    -7817    -7623 
   -7641    -7823    -8047    -8266    -8432    -8445    -8349    -8365 
   -8510    -8568    -8455    -8189    -7754    -7258    -6937    -6905 
   -7114    -7456    -7738    -7836    -7894    -8093    -8334    -8441 
   -8414    -8320    -8137    -7890    -7744    -7794    -7882    -7811 
   -7628    -7570    -7790    -8166    -8428    -8422    -8181    -7848 
   -7607    -7547    -7658    -7848    -7963    -7925    -7798    -7719 
   -7816    -8101    -8469    -8737    -8716    -8409    -7969    -7587 
   -7469    -7626    -7874    -8097    -8259    -8359    -8407    -8329 
   -8089    -7808    -7661    -7707    -7865    -8064    -8240    -8294 
   -8236    -8100    -7873    -7673    -7569    -7504    -7551    -7766 
   -7975    -8009    -7935    -7886    -7832    -7782    -7875    -8141 
   -8483    -8725    -8684    -8422    -8208    -8187    -8256    -8307 
   -8374    -8387    -8232    -8010    -7890    -7865    -7844    -7817 
   -7797    -7803    -7884    -8039    -8230    -8452    -8599    -8527 
   -8313    -8128    -7996    -7820    -7507    -7101    -6849    -6940 
   -7294    -7762    -8209    -8446    -8379    -8112    -7878    -7796 
   -7780    -7778    -7828    -7923    -8023    -8125    -8236    -8374 
   -8521    -8560    -8399    -8104    -7874    -7824    -7863    -7900 
   -7867    -7750    -7730    -7924    -8189    -8311    -8187    -7931 
   -7761    -7780    -7958    -8166    -8233    -8133    -8023    -7955 
   -7732    -7339    -7102    -7167    -7325    -7418    -7485    -7580 
   -7700    -7801    -7798    -7689    -7604    -7647    -7798    -8041 
   -8359    -8637    -8793    -8735    -8279    -7551    -6999    -6804 
   -6836    -7009    -7354    -7909    -8546    -8884    -8687    -8225 
   -7786    -7420    -7258    -7460    -7960    -8492    -8688    -8421 
   -7970    -7717    -7771    -7844    -7630    -7321    -7231    -7298 
   -7431    -7705    -8074    -8397    -8506    -8289    -7902    -7680 
   -7825    -8210    -8430    -8290    -8025    -7786    -7553    -7489 
   -7717    -8028    -8183    -8102    -7820    -7639    -7925    -8459 
   -8610    -8317    -7950    -7661    -7591    -7811    -8110    -8384 
   -8592    -8583    -8379    -8141    -8016    -8182    -8560    -8726 
   -8476    -8064    -7855    -7928    -8027    -8014    -8120    -8455 
   -8741    -8765    -8714    -8752    -8708    -8498    -8328    -8256 
   -8167    -8110    -8145    -8191    -8144    -7967    -7805    -7820 
   -7960    -8178    -8444    -8707    -9026    -9239    -9007    -8426 
   -7832    -7350    -7187    -7550    -8154    -8498    -8463    -8260 
   -8109    -8113    -8214    -8166    -7861    -7547    -7496    -7732 
   -8048    -8244    -8411    -8602    -8553    -8179    -7704    -7322 
   -7233    -7497    -7884    -8166    -8241    -8167    -8129    -8139 
   -8040    -7823    -7639    -7572    -7534    -7491    -7572    -7840 
   -8162    -8322    -8224    -7974    -7765    -7684    -7682    -7677 
   -7678    -7792    -8006    -8149    -8159    -8156    -8171    -8106 
   -8016    -8023    -8050    -7992    -7852    -7649    -7450    -7381 
   -7464    -7639    -7900    -8256    -8577    -8658    -8479    -8230 
   -8079    -7969    -7712    -7357    -7252    -7578    -8004    -8133 
   -8144    -8426    -8834    -8985    -8793    -8397    -7998    -7726 
   -7581    -7615    -7847    -8144    -8390    -8549    -8556    -8368 
   -8097    -7932    -8025    -8286    -8324    -8017    -7744    -7734 
   -7851    -7959    -8001    -8021    -8106    -8143    -7979    -7832 
   -8019    -8460    -8779    -8679    -8256    -7881    -7739    -7813 
   -8077    -8425    -8633    -8526    -8170    -7871    -7801    -7762 
   -7658    -7695    -7839    -7815    -7651    -7601    -7732    -7997 
   -8283    -8399    -8353    -8355    -8434    -8414    -8156    -7708 
   -7299    -7072    -7010    -7136    -7449    -7827    -8181    -8499 
   -8731    -8743    -8506    -8202    -8048    -8095    -8156    -8019 
   -7777    -7695    -7842    -7974    -7784    -7375    -7165    -7265 
   -7438    -7611    -7870    -8148    -8355    -8401    -8124    -7609 
   -7230    -7225    -7543    -7952    -8237    -8311    -8141    -7770 
   -7403    -7312    -7568    -7971    -8302    -8509    -8631    -8600 
   -8332    -7992    -7790    -7773    -7882    -7958    -7998    -8230 
   -8623    -8934    -9054    -8934    -8615    -8301    -8073    -7847 
   -7600    -7433    -7483    -7777    -8214    -8631    -8847    -8800 
   -8526    -8055    -7589    -7441    -7580    -7792    -8110    -8495 
   -8665    -8606    -8515    -8397    -8170    -7859    -7537    -7335 
   -7433    -7776    -8114    -8372    -8665    -8935    -8889    -8472 
   -8091    -8020    -8093    -8143    -8081    -7838    -7651    -7734 
   -7840    -7871    -8137    -8619    -8937    -8939    -8699    -8306 
   -7956    -7808    -7776    -7824    -8100    -8499    -8706    -8646 
   -8463    -8235    -7912    -7489    -7195    -7229    -7495    -7834 
   -8133    -8244    -8209    -8310    -8595    -8699    -8375    -7857 
   -7454    -7196    -7064    -7187    -7596    -8127    -8650    -9072 
   -9128    -8689    -8124    -7820    -7703    -7615    -7657    -7921 
   -8268    -8419    -8276    -8021    -7879    -7886    -7867    -7727 
   -7662    -7835    -8082    -8221    -8255    -8216    -8093    -7958 
   -7890    -7800    -7653    -7639    -7857    -8106    -8127    -7917 
   -7688    -7592    -7680    -7862    -7965    -8009    -8131    -8305 
   -8365    -8178    -7878    -7743    -7686    -7481    -7252    -7196 
   -7306    -7497    -7707    -7946    -8194    -8260    -8066    -7746 
   -7364    -6957    -6743    -6906    -7333    -7774    -8068    -8087 
   -7875    -7693    -7682    -7813    -7950    -7908    -7816    -7917 
   -8028    -7882    -7561    -7260    -7146    -7315    -7628    -7823 
   -7811    -7699    -7626    -7649    -7727    -7804    -7879    -7878 
   -7692    -7474    -7462    -7642    -7865    -7915    -7672    -7384 
   -7258    -7190    -7106    -7086    -7265    -7712    -8167    -8347 
   -8347    -8360    -8363    -8284    -8129    -7878    -7597    -7555 
   -7823    -8019    -7966    -7986    -8210    -8414    -8480    -8333 
   -7955    -7712    -7936    -8436    -8838    -8961    -8789    -8434 
   -8094    -7913    -7902    -8083    -8461    -8797    -8808    -8536 
   -8197    -7847    -7542    -7520    -7886    -8378    -8712    -8892 
   -8899    -8577    -8012    -7519    -7333    -7519    -7865    -7936 
   -7593    -7229    -7296    -7770    -8224    -8419    -8444    -8262 
   -7736    -7017    -6517    -6594    -7221    -7962    -8415    -8471 
   -8214    -7904    -7755    -7651    -7449    -7318    -7356    -7430 
   -7547    -7720    -7807    -7843    -7970    -8071    -7962    -7716 
   -7531    -7503    -7666    -7931    -8098    -8148    -8143    -8004 
   -7789    -7761    -7913    -7990    -7898    -7673    -7362    -7106 
   -7091    -7457    -8095    -8519    -8365    -7869    -7542    -7609 
   -7904    -8182    -8340    -8365    -8367    -8502    -8606    -8361 
   -7940    -7824    -8043    -8228    -8226    -8189    -8263    -8417 
   -8445    -8220    -7939    -7866    -7985    -8170    -8390    -8557 
   -8484    -8178    -7848    -7677    -7728    -7867    -7921    -7901 
   -7847    -7773    -7755    -7811    -7940    -8132    -8228    -8205 
   -8230    -8263    -8236    -8259    -8272    -8156    -8037    -8062 
   -8164    -8252    -8290    -8172    -7896    -7688    -7654    -7595 
   -7431    -7445    -7836    -8367    -8681    -8687    -8487    -8263 
   -8158    -8156    -8148    -8090    -8050    -8064    -8102    -8109 
   -8025    -7875    -7782    -7778    -7805    -7835    -7838    -7797 
   -7804    -8001    -8332    -8542    -8600    -8725    -8885    -8812 
   -8500    -8244    -8259    -8473    -8604    -8410    -7963    -7578 
   -7450    -7512    -7630    -7708    -7708    -7758    -7950    -8125 
   -8148    -8100    -8083    -8068    -7998    -7901    -7820    -7804 
   -7825    -7796    -7808    -7965    -8070    -7965    -7843    -7877 
   -7927    -7894    -7892    -7981    -8128    -8235    -8189    -8118 
   -8202    -8332    -8363    -8276    -8105    -7939    -7750    -7528 
   -7468    -7618    -7790    -7893    -7873    -7681    -7497    -7465 
   -7456    -7431    -7553    -7816    -8036    -8108    -8044    -7931 
   -7803    -7650    -7555    -7628    -7809    -7927    -7923    -7884 
   -7782    -7523    -7322    -7454    -7782    -8077    -8294    -8390 
   -8428    -8545    -8583    -8403    -8278    -8379    -8483    -8448 
   -8376    -8367    -8473    -8671    -8758    -8594    -8318    -8073 
   -7852    -7816    -8118    -8518    -8685    -8658    -8607    -8527 
   -8463    -8514    -8514    -8282    -7944    -7680    -7573    -7595 
   -7630    -7767    -8133    -8368    -8063    -7522    -7344    -7608 
   -7997    -8287    -8392    -8276    -8066    -7893    -7776    -7843 
   -8230    -8671    -8727    -8376    -7974    -7798    -7850    -7951 
   -7979    -8070    -8313    -8465    -8392    -8332    -8453    -8617 
   -8631    -8544    -8519    -8602    -8722    -8796    -8785    -8667 
   -8436    -8249    -8329    -8694    -9200    -9602    -9632    -9306 
   -8958    -8829    -8823    -8734    -8648    -8808    -9205    -9612 
   -9822    -9710    -9278    -8698    -8189    -7921    -7939    -8140 
   -8368    -8538    -8633    -8588    -8348    -8101    -8060    -8137 
   -8198    -8266    -8321    -8338    -8337    -8259    -8060    -7784 
   -7465    -7191    -7013    -6845    -6718    -6771    -6870    -6795 
   -6648    -6619    -6708    -6825    -6951    -7086    -7215    -7384 
   -7568    -7566    -7306    -6925    -6538    -6270    -6250    -6453 
   -6791    -7155    -7387    -7434    -7426    -7528    -7695    -7727 
   -7624    -7558    -7607    -7727    -7834    -7878    -7912    -7986 
   -7950    -7623    -7188    -7022    -7175    -7414    -7585    -7627 
   -7545    -7449    -7443    -7524    -7636    -7743    -7869    -8040 
   -8203    -8253    -8143    -7993    -7960    -8037    -8127    -8190 
   -8228    -8222    -8178    -8133    -8074    -7925    -7739    -7711 
   -7894    -8093    -8143    -8108    -8033    -7901    -7798    -7744 
   -7619    -7473    -7487    -7624    -7728    -7784    -7858    -7967 
   -8001    -7886    -7796    -7878    -8047    -8209    -8255    -8170 
   -8189    -8394    -8548    -8522    -8449    -8429    -8418    -8390 
   -8330    -8181    -8002    -7916    -7867    -7759    -7643    -7634 
   -7740    -7892    -8141    -8542    -8943    -9181    -9180    -8908 
   -8521    -8329    -8445    -8634    -8654    -8536    -8352    -8079 
   -7792    -7658    -7778    -8081    -8311    -8301    -8229    -8287 
   -8330    -8243    -8151    -8189    -8344    -8465    -8456    -8398 
   -8314    -8170    -8066    -8040    -8040    -8078    -8116    -8101 
   -8070    -8012    -7921    -7951    -8197    -8499    -8687    -8723 
   -8629    -8480    -8348    -8195    -8029    -7867    -7653    -7443 
   -7400    -7564    -7740    -7711    -7553    -7503    -7537    -7503 
   -7533    -7809    -8182    -8364    -8283    -8075    -7870    -7708 
   -7584    -7560    -7773    -8156    -8421    -8455    -8371    -8264 
   -8194    -8167    -8143    -8160    -8224    -8228    -8199    -8271 
   -8419    -8571    -8742    -8845    -8752    -8537    -8321    -8110 
   -7896    -7701    -7608    -7678    -7797    -7824    -7812    -7874 
   -8008    -8120    -8127    -8090    -8163    -8299    -8334    -8276 
   -8243    -8239    -8182    -8120    -8190    -8314    -8303    -8174 
   -8032    -7932    -7904    -7909    -7851    -7753    -7722    -7781 
   -7884    -8013    -8209    -8446    -8525    -8318    -7938    -7526 
   -7257    -7291    -7484    -7542    -7404    -7223    -7125    -7057 
   -6918    -6779    -6805    -7005    -7191    -7221    -7179    -7231 
   -7402    -7570    -7577    -7439    -7319    -7260    -7211    -7169 
   -7130    -7110    -7144    -7198    -7226    -7306    -7510    -7692 
   -7697    -7611    -7593    -7661    -7727    -7759    -7850    -8041 
   -8187    -8160    -8048    -7967    -7915    -7811    -7607    -7452 
   -7535    -7734    -7819    -7816    -7842    -7923    -7978    -7928 
   -7943    -8205    -8473    -8509    -8460    -8472    -8487    -8422 
   -8235    -7998    -7819    -7684    -7560    -7491    -7526    -7618 
   -7696    -7812    -8040    -8297    -8429    -8395    -8314    -8326 
   -8432    -8486    -8390    -8266    -8279    -8355    -8290    -8185 
   -8325    -8641    -8785    -8642    -8380    -8214    -8241    -8329 
   -8371    -8534    -8931    -9333    -9506    -9521    -9454    -9196 
   -8816    -8595    -8571    -8561    -8509    -8482    -8537    -8607 
   -8540    -8411    -8473    -8702    -8827    -8727    -8511    -8376 
   -8386    -8426    -8375    -8264    -8240    -8341    -8387    -8289 
   -8201    -8164    -8089    -8020    -8005    -8000    -8021    -8102 
   -8228    -8352    -8402    -8353    -8256    -8197    -8228    -8272 
   -8263    -8249    -8236    -8147    -7952    -7678    -7412    -7273 
   -7295    -7377    -7372    -7252    -7130    -7148    -7333    -7535 
   -7604    -7597    -7604    -7564    -7437    -7268    -7088    -6957 
   -6957    -7069    -7152    -7110    -6966    -6840    -6812    -6782 
   -6735    -6799    -6910    -6945    -6987    -7075    -7106    -7049 
   -6997    -7021    -7088    -7152    -7218    -7321    -7485    -7658 
   -7724    -7632    -7456    -7346    -7430    -7696    -8006    -8243 
   -8406    -8549    -8675    -8748    -8779    -8816    -8861    -8816 
   -8607    -8347    -8233    -8267    -8276    -8156    -7965    -7836 
   -7865    -7992    -8094    -8171    -8235    -8179    -7993    -7797 
   -7635    -7537    -7561    -7622    -7619    -7646    -7798    -7992 
   -8098    -8114    -8075    -7971    -7805    -7661    -7615    -7668 
   -7776    -7897    -8024    -8143    -8209    -8220    -8205    -8149 
   -8086    -8074    -8039    -7875    -7686    -7614    -7642    -7712 
   -7807    -7900    -7994    -8094    -8114    -8043    -8019    -8086 
   -8182    -8287    -8387    -8445    -8452    -8461    -8510    -8505 
   -8371    -8212    -8156    -8229    -8374    -8514    -8599    -8613 
   -8538    -8375    -8154    -7960    -7885    -7946    -8131    -8356 
   -8453    -8390    -8295    -8216    -8109    -7990    -7852    -7686 
   -7574    -7551    -7588    -7689    -7843    -7975    -8004    -7942 
   -7909    -7952    -8021    -8059    -7977    -7792    -7650    -7631 
   -7689    -7732    -7743    -7809    -7929    -7981    -7935    -7873 
   -7846    -7827    -7789    -7739    -7659    -7584    -7622    -7743 
   -7863    -8005    -8131    -8170    -8183    -8212    -8209    -8202 
   -8286    -8467    -8654    -8777    -8803    -8700    -8529    -8409 
   -8386    -8453    -8592    -8725    -8806    -8884    -8992    -9074 
   -9063    -8962    -8839    -8745    -8642    -8553    -8556    -8599 
   -8588    -8541    -8467    -8356    -8294    -8395    -8611    -8789 
   -8802    -8588    -8247    -7989    -7870    -7812    -7794    -7865 
