Origin Time       2025/01/13 21:19:00
Lat.              31.8
Long.             131.6
Depth. (km)       30
Mag.              6.9
Station Code      HRSH03
Station Lat.      34.5183
Station Long.     133.1375
Station Height(m) -40
Record Time       2025/01/13 21:20:33
Sampling Freq(Hz) 100Hz
Duration Time(s)  142
Dir.              3
Scale Factor      3923(gal)/8224838
Max. Acc. (gal)   0.743
Last Correction   2025/01/13 21:20:34
Memo.             
[...]
  -34780   -34715   -34674   -34651   -34639   -34646   -34668   -34684 
  -34707   -34742   -34780   -34819   -34869   -34920   -34969   -35023 
  -35083   -35140   -35194   -35239   -35268   -35278   -35279   -35282 
  -35280   -35271   -35264   -35266   -35268   -35275   -35271   -35255 
  -35228   -35195   -35163   -35132   -35094   -35064   -35054   -35048 
  -35043   -35041   -35047   -35062   -35085   -35108   -35128   -35144 
  -35158   -35171   -35198   -35240   -35271   -35289   -35303   -35314 
  -35314   -35306   -35289   -35264   -35247   -35233   -35216   -35197 
  -35178   -35148   -35116   -35079   -35033   -34983   -34939   -34901 
  -34877   -34863   -34858   -34855   -34839   -34809   -34770   -34720 
  -34670   -34638   -34615   -34597   -34593   -34597   -34588   -34572 
  -34569   -34569   -34572   -34591   -34608   -34611   -34623   -34649 
  -34669   -34678   -34685   -34684   -34669   -34645   -34614   -34569 
  -34512   -34456   -34415   -34392   -34377   -34372   -34369   -34368 
  -34375   -34398   -34425   -34439   -34450   -34472   -34497   -34518 
  -34520   -34507   -34492   -34484   -34468   -34433   -34389   -34348 
  -34315   -34281   -34244   -34214   -34184   -34152   -34134   -34137 
  -34152   -34169   -34179   -34198   -34240   -34287   -34330   -34369 
  -34407   -34446   -34491   -34528   -34566   -34614   -34659   -34704 
  -34755   -34805   -34838   -34859   -34881   -34900   -34919   -34943 
  -34969   -34998   -35040   -35094   -35147   -35187   -35220   -35260 
  -35322   -35387   -35440   -35483   -35514   -35530   -35542   -35565 
  -35591   -35610   -35622   -35635   -35649   -35650   -35642   -35621 
  -35594   -35571   -35544   -35514   -35490   -35465   -35444   -35433 
  -35418   -35398   -35378   -35356   -35337   -35329   -35324   -35317 
  -35310   -35299   -35289   -35275   -35255   -35232   -35224   -35232 
  -35240   -35237   -35235   -35236   -35243   -35251   -35257   -35266 
  -35279   -35286   -35268   -35240   -35218   -35199   -35174   -35143 
  -35112   -35087   -35070   -35050   -35016   -34970   -34924   -34893 
  -34894   -34919   -34936   -34935   -34929   -34933   -34948   -34958 
  -34955   -34958   -34970   -34970   -34962   -34963   -34962   -34947 
  -34925   -34901   -34874   -34843   -34808   -34773   -34751   -34747 
  -34750   -34751   -34747   -34728   -34705   -34689   -34670   -34642 
  -34603   -34555   -34506   -34453   -34395   -34337   -34280   -34225 
  -34179   -34136   -34091   -34049   -34014   -33975   -33928   -33883 
  -33852   -33831   -33812   -33795   -33785   -33786   -33806   -33843 
  -33894   -33944   -33988   -34034   -34083   -34140   -34207   -34284 
  -34375   -34476   -34572   -34668   -34767   -34859   -34947   -35037 
  -35122   -35206   -35293   -35378   -35456   -35521   -35572   -35615 
  -35648   -35664   -35679   -35702   -35726   -35749   -35766   -35783 
  -35811   -35847   -35878   -35905   -35939   -35973   -35992   -36004 
  -36022   -36035   -36031   -36012   -35977   -35924   -35858   -35792 
  -35731   -35664   -35583   -35495   -35386   -35251   -35110   -34982 
  -34870   -34770   -34678   -34600   -34527   -34454   -34391   -34341 
  -34292   -34252   -34233   -34227   -34223   -34225   -34248   -34295 
  -34348   -34389   -34422   -34452   -34485   -34527   -34568   -34603 
  -34635   -34672   -34715   -34753   -34784   -34821   -34858   -34886 
  -34917   -34955   -34994   -35035   -35062   -35081   -35112   -35148 
  -35186   -35241   -35303   -35356   -35414   -35479   -35527   -35563 
  -35613   -35665   -35699   -35718   -35729   -35731   -35727   -35715 
  -35692   -35650   -35592   -35522   -35437   -35330   -35221   -35114 
  -35012   -34897   -34766   -34638   -34522   -34412   -34311   -34221 
  -34144   -34079   -34022   -33974   -33941   -33934   -33953   -33993 
  -34049   -34115   -34182   -34258   -34349   -34438   -34535   -34642 
  -34751   -34861   -34975   -35091   -35205   -35299   -35375   -35445 
  -35509   -35557   -35586   -35595   -35591   -35575   -35549   -35525 
  -35499   -35457   -35398   -35336   -35286   -35243   -35206   -35183 
  -35164   -35143   -35121   -35102   -35085   -35066   -35046   -35028 
  -35009   -34985   -34955   -34929   -34920   -34921   -34921   -34924 
  -34932   -34938   -34942   -34948   -34958   -34982   -35020   -35056 
  -35085   -35109   -35125   -35127   -35120   -35105   -35083   -35059 
  -35029   -34996   -34960   -34916   -34858   -34790   -34711   -34623 
  -34530   -34437   -34346   -34249   -34150   -34063   -33982   -33913 
  -33863   -33814   -33762   -33718   -33701   -33701   -33702   -33712 
  -33735   -33770   -33810   -33849   -33899   -33957   -34010   -34064 
  -34126   -34194   -34265   -34325   -34371   -34410   -34446   -34489 
  -34538   -34582   -34627   -34681   -34742   -34800   -34850   -34892 
  -34928   -34970   -35017   -35062   -35106   -35158   -35213   -35262 
  -35301   -35333   -35363   -35379   -35384   -35395   -35406   -35405 
  -35401   -35399   -35403   -35403   -35390   -35380   -35386   -35392 
  -35395   -35392   -35387   -35374   -35353   -35345   -35359   -35378 
  -35390   -35403   -35417   -35424   -35434   -35449   -35460   -35467 
  -35473   -35472   -35456   -35446   -35449   -35449   -35448   -35449 
  -35448   -35438   -35424   -35411   -35399   -35370   -35324   -35274 
  -35217   -35158   -35106   -35059   -35004   -34951   -34917   -34894 
  -34869   -34848   -34836   -34823   -34807   -34796   -34789   -34773 
  -34746   -34723   -34709   -34693   -34676   -34659   -34638   -34615 
  -34597   -34572   -34535   -34501   -34483   -34465   -34441   -34427 
  -34429   -34426   -34420   -34418   -34407   -34399   -34395   -34387 
  -34384   -34395   -34414   -34431   -34442   -34454   -34474   -34501 
  -34533   -34560   -34578   -34597   -34618   -34628   -34631   -34628 
  -34616   -34592   -34561   -34533   -34504   -34464   -34414   -34368 
  -34321   -34277   -34245   -34215   -34194   -34186   -34182   -34192 
  -34229   -34284   -34352   -34418   -34483   -34549   -34616   -34690 
  -34777   -34867   -34952   -35031   -35094   -35148   -35197   -35240 
  -35284   -35325   -35353   -35364   -35372   -35390   -35410   -35419 
  -35411   -35399   -35394   -35387   -35372   -35356   -35329   -35294 
  -35259   -35224   -35176   -35124   -35071   -35020   -34975   -34946 
  -34919   -34898   -34894   -34897   -34904   -34916   -34927   -34938 
  -34947   -34947   -34938   -34928   -34931   -34939   -34944   -34944 
  -34950   -34959   -34966   -34971   -34971   -34969   -34960   -34952 
  -34952   -34950   -34943   -34947   -34955   -34960   -34978   -35004 
  -35025   -35055   -35091   -35120   -35145   -35174   -35198   -35205 
  -35198   -35193   -35203   -35216   -35214   -35210   -35202   -35187 
  -35182   -35198   -35220   -35237   -35256   -35276   -35307   -35337 
  -35353   -35357   -35359   -35361   -35364   -35363   -35351   -35328 
  -35299   -35268   -35240   -35220   -35193   -35145   -35095   -35047 
  -34989   -34929   -34871   -34813   -34755   -34705   -34665   -34630 
  -34597   -34572   -34557   -34551   -34547   -34543   -34541   -34537 
  -34537   -34549   -34578   -34614   -34646   -34678   -34715   -34747 
  -34778   -34811   -34840   -34863   -34889   -34911   -34929   -34955 
  -34987   -35008   -35017   -35021   -35016   -35006   -34993   -34967 
  -34939   -34912   -34878   -34836   -34796   -34762   -34734   -34712 
  -34703   -34693   -34677   -34657   -34641   -34630   -34630   -34645 
  -34662   -34680   -34701   -34717   -34720   -34722   -34722   -34711 
  -34696   -34689   -34688   -34685   -34672   -34655   -34647   -34649 
  -34649   -34643   -34645   -34645   -34639   -34635   -34635   -34639 
  -34650   -34653   -34649   -34653   -34661   -34662   -34663   -34674 
  -34696   -34722   -34744   -34761   -34776   -34794   -34821   -34858 
  -34912   -34970   -35029   -35112   -35206   -35294   -35370   -35432 
  -35490   -35544   -35595   -35649   -35692   -35715   -35731   -35746 
  -35749   -35745   -35734   -35710   -35675   -35630   -35571   -35506 
  -35436   -35353   -35257   -35159   -35071   -34992   -34908   -34824 
  -34740   -34655   -34572   -34496   -34425   -34356   -34298   -34245 
  -34191   -34148   -34123   -34107   -34096   -34090   -34083   -34080 
  -34087   -34102   -34123   -34148   -34173   -34199   -34226   -34253 
  -34281   -34306   -34331   -34365   -34399   -34427   -34453   -34472 
  -34495   -34530   -34568   -34601   -34638   -34682   -34730   -34777 
  -34827   -34877   -34929   -34985   -35037   -35094   -35160   -35220 
  -35275   -35337   -35399   -35455   -35514   -35575   -35626   -35667 
  -35699   -35722   -35734   -35743   -35753   -35753   -35750   -35753 
  -35753   -35750   -35752   -35756   -35756   -35754   -35753   -35753 
  -35754   -35757   -35766   -35780   -35788   -35792   -35791   -35787 
  -35780   -35765   -35745   -35727   -35721   -35726   -35733   -35735 
  -35733   -35733   -35735   -35738   -35741   -35748   -35754   -35761 
  -35764   -35765   -35765   -35758   -35749   -35735   -35718   -35695 
  -35657   -35614   -35577   -35537   -35494   -35453   -35407   -35356 
  -35311   -35268   -35226   -35186   -35149   -35114   -35077   -35041 
  -35006   -34960   -34921   -34886   -34844   -34804   -34763   -34717 
  -34678   -34650   -34622   -34595   -34564   -34533   -34501   -34469 
  -34443   -34422   -34398   -34375   -34360   -34348   -34339   -34334 
  -34327   -34318   -34310   -34308   -34310   -34302   -34292   -34288 
  -34281   -34271   -34269   -34277   -34290   -34299   -34311   -34334 
  -34364   -34392   -34415   -34433   -34449   -34476   -34514   -34551 
  -34587   -34627   -34653   -34661   -34676   -34692   -34700   -34711 
  -34713   -34708   -34712   -34723   -34723   -34715   -34713   -34720 
  -34726   -34723   -34715   -34704   -34699   -34699   -34697   -34690 
  -34690   -34700   -34711   -34719   -34731   -34740   -34742   -34742 
  -34743   -34743   -34753   -34773   -34793   -34807   -34825   -34850 
  -34874   -34901   -34928   -34951   -34963   -34966   -34973   -34985 
  -34987   -34985   -34982   -34969   -34950   -34939   -34927   -34909 
  -34894   -34881   -34865   -34850   -34839   -34831   -34830   -34836 
  -34846   -34855   -34866   -34873   -34882   -34898   -34917   -34942 
  -34971   -34998   -35025   -35056   -35087   -35110   -35132   -35154 
  -35162   -35154   -35133   -35105   -35073   -35035   -34987   -34938 
  -34888   -34838   -34801   -34774   -34746   -34722   -34704   -34699 
  -34705   -34720   -34743   -34774   -34813   -34861   -34911   -34965 
  -35021   -35082   -35135   -35178   -35217   -35256   -35287   -35305 
  -35313   -35322   -35325   -35320   -35310   -35290   -35259   -35222 
  -35189   -35156   -35129   -35110   -35097   -35089   -35086   -35078 
  -35063   -35046   -35035   -35028   -35019   -35012   -35009   -35002 
  -34987   -34970   -34948   -34928   -34912   -34897   -34879   -34869 
  -34858   -34832   -34803   -34777   -34749   -34713   -34677   -34639 
  -34596   -34554   -34522   -34487   -34443   -34399   -34360   -34326 
  -34299   -34273   -34248   -34219   -34188   -34157   -34134   -34114 
  -34090   -34072   -34065   -34060   -34060   -34068   -34078   -34087 
  -34099   -34114   -34134   -34165   -34215   -34275   -34327   -34379 
  -34430   -34477   -34528   -34589   -34649   -34707   -34774   -34843 
  -34902   -34959   -35019   -35071   -35110   -35139   -35167   -35193 
  -35212   -35232   -35247   -35247   -35240   -35228   -35203   -35179 
  -35149   -35114   -35085   -35058   -35024   -34982   -34943   -34905 
  -34869   -34838   -34808   -34782   -34769   -34763   -34765   -34771 
  -34786   -34809   -34831   -34850   -34875   -34906   -34940   -34977 
  -35021   -35071   -35117   -35162   -35212   -35263   -35314   -35364 
  -35407   -35444   -35473   -35496   -35517   -35534   -35545   -35550 
  -35552   -35556   -35556   -35556   -35549   -35530   -35510   -35491 
  -35473   -35459   -35448   -35436   -35428   -35425   -35421   -35415 
  -35411   -35413   -35415   -35421   -35429   -35434   -35440   -35452 
  -35468   -35490   -35515   -35541   -35556   -35563   -35567   -35565 
  -35560   -35556   -35554   -35554   -35552   -35540   -35522   -35511 
  -35509   -35506   -35494   -35476   -35459   -35445   -35432   -35422 
  -35417   -35415   -35407   -35399   -35391   -35379   -35361   -35340 
  -35309   -35280   -35251   -35213   -35176   -35149   -35124   -35091 
  -35060   -35024   -34981   -34944   -34916   -34882   -34846   -34809 
  -34777   -34758   -34743   -34727   -34713   -34700   -34680   -34654 
  -34628   -34604   -34582   -34555   -34526   -34500   -34476   -34452 
  -34429   -34402   -34365   -34331   -34300   -34267   -34242   -34226 
  -34209   -34194   -34182   -34171   -34161   -34153   -34145   -34134 
  -34123   -34109   -34083   -34055   -34032   -34020   -34013   -34006 
  -34003   -33998   -33986   -33978   -33976   -33983   -33997   -34009 
  -34020   -34034   -34057   -34079   -34095   -34113   -34130   -34150 
  -34176   -34200   -34227   -34264   -34299   -34331   -34368   -34402 
  -34431   -34462   -34497   -34534   -34573   -34616   -34666   -34726 
  -34790   -34850   -34912   -34986   -35064   -35135   -35199   -35262 
  -35324   -35387   -35459   -35542   -35623   -35698   -35773   -35851 
  -35919   -35982   -36046   -36101   -36154   -36208   -36255   -36297 
  -36343   -36386   -36421   -36451   -36468   -36475   -36474   -36466 
  -36459   -36454   -36440   -36418   -36393   -36364   -36332   -36301 
  -36273   -36244   -36212   -36174   -36136   -36111   -36081   -36040 
  -36003   -35972   -35938   -35911   -35889   -35865   -35839   -35816 
  -35789   -35758   -35729   -35696   -35660   -35622   -35579   -35529 
  -35475   -35421   -35368   -35310   -35241   -35174   -35106   -35033 
  -34962   -34900   -34836   -34763   -34689   -34620   -34547   -34472 
  -34399   -34327   -34252   -34183   -34114   -34041   -33971   -33907 
  -33843   -33785   -33736   -33691   -33654   -33628   -33608   -33597 
  -33592   -33588   -33592   -33604   -33625   -33658   -33694   -33736 
  -33785   -33832   -33875   -33918   -33964   -34018   -34075   -34128 
  -34176   -34223   -34272   -34326   -34381   -34434   -34485   -34534 
  -34578   -34618   -34658   -34700   -34749   -34808   -34867   -34924 
  -34982   -35039   -35097   -35159   -35220   -35279   -35340   -35388 
  -35426   -35465   -35492   -35510   -35527   -35542   -35549   -35553 
  -35557   -35553   -35538   -35521   -35505   -35483   -35455   -35426 
  -35403   -35376   -35337   -35297   -35256   -35208   -35148   -35090 
  -35037   -34986   -34931   -34877   -34819   -34758   -34689   -34620 
  -34560   -34501   -34439   -34381   -34333   -34290   -34250   -34221 
  -34195   -34175   -34171   -34177   -34186   -34198   -34214   -34234 
  -34260   -34285   -34314   -34348   -34372   -34387   -34402   -34420 
  -34431   -34431   -34426   -34412   -34395   -34376   -34357   -34335 
  -34318   -34310   -34302   -34290   -34280   -34283   -34292   -34310 
  -34337   -34366   -34399   -34438   -34484   -34541   -34608   -34681 
  -34755   -34830   -34906   -34986   -35071   -35158   -35245   -35326 
  -35402   -35482   -35560   -35634   -35707   -35773   -35837   -35897 
  -35951   -35993   -36022   -36040   -36049   -36042   -36024   -36001 
  -35972   -35931   -35884   -35830   -35768   -35699   -35629   -35545 
  -35456   -35375   -35295   -35213   -35133   -35060   -34990   -34925 
  -34874   -34836   -34800   -34765   -34742   -34730   -34720   -34715 
  -34720   -34730   -34743   -34762   -34782   -34797   -34813   -34831 
  -34847   -34862   -34869   -34873   -34886   -34902   -34919   -34936 
  -34948   -34948   -34944   -34939   -34931   -34928   -34933   -34940 
  -34944   -34939   -34931   -34931   -34935   -34936   -34942   -34950 
  -34955   -34955   -34955   -34962   -34971   -34979   -34990   -35004 
  -35014   -35025   -35031   -35035   -35039   -35041   -35044   -35039 
  -35021   -35005   -34998   -34992   -34975   -34955   -34935   -34911 
  -34885   -34858   -34824   -34790   -34762   -34736   -34711   -34689 
  -34669   -34661   -34661   -34659   -34659   -34666   -34677   -34693 
  -34713   -34734   -34761   -34793   -34825   -34857   -34884   -34905 
  -34927   -34947   -34956   -34955   -34950   -34944   -34943   -34944 
  -34946   -34938   -34919   -34897   -34874   -34850   -34834   -34824 
  -34812   -34796   -34781   -34770   -34762   -34758   -34757   -34757 
  -34753   -34749   -34743   -34730   -34720   -34726   -34731   -34730 
  -34726   -34724   -34730   -34738   -34746   -34754   -34765   -34776 
  -34790   -34811   -34832   -34852   -34875   -34894   -34917   -34942 
  -34963   -34986   -35006   -35024   -35051   -35079   -35104   -35125 
  -35143   -35159   -35175   -35195   -35220   -35236   -35244   -35257 
  -35274   -35286   -35293   -35298   -35301   -35307   -35313   -35318 
  -35328   -35336   -35343   -35355   -35359   -35359   -35367   -35379 
  -35386   -35394   -35399   -35401   -35395   -35388   -35374   -35349 
  -35321   -35290   -35247   -35193   -35139   -35083   -35027   -34970 
  -34915   -34863   -34819   -34776   -34734   -34693   -34654   -34619 
  -34588   -34564   -34554   -34558   -34565   -34576   -34584   -34588 
  -34596   -34611   -34626   -34641   -34658   -34676   -34690   -34708 
  -34722   -34732   -34744   -34753   -34759   -34767   -34778   -34792 
  -34804   -34817   -34836   -34855   -34869   -34878   -34886   -34890 
  -34890   -34893   -34894   -34890   -34889   -34890   -34890   -34888 
  -34879   -34867   -34861   -34858   -34855   -34852   -34847   -34848 
  -34854   -34852   -34852   -34859   -34867   -34875   -34888   -34900 
  -34909   -34919   -34929   -34939   -34946   -34951   -34955   -34954 
  -34948   -34947   -34943   -34932   -34924   -34925   -34921   -34909 
  -34897   -34890   -34882   -34873   -34863   -34855   -34848   -34846 
  -34846   -34844   -34838   -34831   -34827   -34823   -34820   -34820 
  -34819   -34819   -34816   -34812   -34808   -34804   -34804   -34805 
  -34804   -34797   -34793   -34790   -34792   -34794   -34803   -34812 
  -34821   -34832   -34850   -34867   -34885   -34908   -34931   -34950 
  -34970   -34997   -35023   -35046   -35073   -35101   -35132   -35170 
  -35206   -35233   -35256   -35279   -35302   -35329   -35357   -35380 
  -35397   -35406   -35410   -35414   -35413   -35407   -35397   -35378 
  -35349   -35317   -35284   -35243   -35194   -35144   -35087   -35020 
  -34951   -34874   -34794   -34720   -34643   -34565   -34485   -34404 
  -34326   -34249   -34168   -34090   -34018   -33948   -33878   -33814 
  -33760   -33714   -33677   -33647   -33619   -33589   -33569   -33558 
  -33546   -33538   -33531   -33521   -33517   -33524   -33529   -33540 
  -33559   -33581   -33606   -33632   -33656   -33687   -33724   -33760 
  -33806   -33860   -33918   -33979   -34042   -34114   -34186   -34254 
  -34329   -34410   -34488   -34565   -34646   -34719   -34796   -34879 
  -34960   -35036   -35110   -35178   -35244   -35306   -35357   -35405 
  -35455   -35506   -35550   -35595   -35642   -35687   -35725   -35765 
  -35807   -35841   -35870   -35899   -35920   -35941   -35955   -35958 
