Origin Time       2025/01/13 21:19:00
Lat.              31.8
Long.             131.6
Depth. (km)       30
Mag.              6.9
Station Code      HRSH11
Station Lat.      34.8225
Station Long.     133.1674
Station Height(m) 590
Record Time       2025/01/13 21:21:05
Sampling Freq(Hz) 100Hz
Duration Time(s)  120
Dir.              4
Scale Factor      7845(gal)/8223790
Max. Acc. (gal)   0.777
Last Correction   2025/01/13 21:21:06
Memo.             
[...]
   22048    22149    22210    22181    22096    22007    21952    21945 
   21986    22040    22057    22030    21990    21948    21915    21914 
   21919    21907    21917    21978    22065    22138    22180    22189 
   22168    22119    22063    22007    21955    21911    21861    21778 
   21713    21728    21806    21922    22054    22113    22061    21979 
   21928    21925    21949    21944    21897    21863    21860    21867 
   21913    22007    22088    22115    22084    22009    21964    22025 
   22144    22203    22165    22048    21884    21752    21714    21770 
   21884    21995    22046    22041    22010    21986    22010    22052 
   22040    22000    21996    22002    21971    21917    21872    21863 
   21891    21926    21945    21953    21971    22011    22071    22114 
   22103    22067    22073    22103    22106    22087    22059    22005 
   21938    21878    21820    21782    21806    21861    21875    21883 
   21983    22126    22207    22215    22175    22107    22072    22106 
   22169    22199    22146    22014    21868    21778    21775    21847 
   21940    22010    22053    22096    22156    22202    22192    22140 
   22110    22119    22118    22059    21953    21879    21878    21895 
   21883    21886    21946    22040    22100    22123    22173    22266 
   22331    22324    22293    22293    22303    22285    22257    22248 
   22235    22176    22073    21972    21915    21941    22029    22096 
   22108    22114    22129    22113    22071    22068    22114    22158 
   22154    22091    22006    21949    21925    21903    21890    21910 
   21944    21969    22019    22110    22188    22198    22137    22064 
   22030    22033    22049    22034    21942    21798    21690    21656 
   21687    21791    21951    22083    22113    22084    22086    22133 
   22188    22194    22126    22018    21903    21816    21786    21811 
   21890    22005    22086    22098    22096    22118    22138    22144 
   22142    22108    22050    22026    22050    22095    22130    22123 
   22054    21969    21942    21988    22068    22137    22161    22117 
   22038    22009    22076    22210    22335    22387    22351    22268 
   22175    22081    21990    21899    21826    21802    21841    21925 
   22013    22087    22175    22281    22347    22341    22295    22207 
   22060    21903    21807    21809    21917    22059    22129    22144 
   22177    22214    22223    22249    22322    22395    22420    22392 
   22329    22265    22221    22187    22162    22131    22077    22036 
   22054    22125    22171    22165    22161    22202    22270    22315 
   22316    22316    22307    22239    22168    22161    22158    22091 
   21990    21884    21791    21771    21841    21956    22086    22173 
   22181    22172    22184    22192    22215    22261    22241    22103 
   21915    21763    21708    21779    21917    22029    22096    22117 
   22090    22077    22133    22189    22181    22149    22123    22073 
   22002    21951    21905    21807    21695    21679    21762    21855 
   21936    22005    22026    22009    22000    22010    22042    22098 
   22141    22126    22037    21929    21865    21855    21878    21928 
   21975    21971    21955    21971    21992    22011    22032    22007 
   21930    21887    21899    21894    21879    21898    21926    21942 
   21982    22037    22053    22027    21978    21911    21884    21922 
   21987    22045    22061    22022    21973    21924    21843    21782 
   21775    21794    21843    21940    22052    22140    22184    22180 
   22142    22099    22061    22009    21938    21882    21874    21890 
   21882    21856    21845    21874    21938    21975    21945    21924 
   21957    21964    21906    21863    21887    21968    22076    22161 
   22188    22169    22130    22084    22044    22022    22029    22044 
   22050    22081    22146    22207    22242    22243    22191    22107 
   22063    22079    22121    22168    22207    22210    22196    22210 
   22241    22256    22245    22199    22127    22087    22075    22045 
   22029    22077    22137    22135    22079    22006    21952    21964 
   22030    22090    22106    22065    22015    22011    22017    21986 
   21934    21875    21840    21857    21901    21932    21915    21840 
   21762    21733    21725    21735    21799    21882    21915    21895 
   21859    21833    21833    21840    21829    21805    21794    21809 
   21841    21878    21903    21911    21910    21903    21874    21830 
   21809    21822    21833    21828    21828    21833    21855    21909 
   21946    21930    21894    21863    21852    21874    21884    21848 
   21795    21740    21678    21652    21712    21811    21882    21938 
   22005    22044    22040    22030    22046    22068    22071    22065 
   22076    22107    22142    22175    22206    22215    22175    22081 
   21979    21952    22033    22123    22141    22129    22129    22131 
   22144    22157    22131    22079    22073    22137    22214    22265 
   22289    22269    22171    22034    21961    21944    21929    21967 
   22065    22130    22146    22152    22106    22019    21969    21949 
   21905    21841    21778    21736    21755    21820    21870    21892 
   21925    21967    21995    22021    22042    22037    22027    22040 
   22042    22026    22010    21983    21942    21915    21925    21961 
   22007    22060    22100    22110    22115    22137    22160    22184 
   22231    22276    22265    22216    22192    22199    22231    22283 
   22300    22272    22268    22300    22308    22295    22296    22277 
   22221    22150    22080    22040    22059    22069    22014    21957 
   21960    21987    22022    22087    22129    22106    22060    22010 
   21961    21957    21992    21992    21932    21892    21911    21921 
   21895    21875    21872    21872    21855    21811    21779    21811 
   21899    21964    21969    21948    21940    21946    21940    21915 
   21894    21895    21926    21976    22025    22072    22131    22199 
   22250    22269    22252    22199    22110    22041    22042    22065 
   22059    22059    22065    22052    22067    22123    22167    22184 
   22185    22146    22073    22029    22018    21969    21891    21860 
   21876    21887    21905    21965    22041    22096    22161    22212 
   22199    22184    22227    22245    22195    22153    22154    22164 
   22179    22210    22223    22223    22222    22188    22133    22106 
   22100    22087    22077    22076    22069    22054    22050    22063 
   22076    22081    22091    22102    22102    22084    22052    21994 
   21937    21929    21934    21917    21930    21995    22046    22054 
   22026    21980    21960    21971    21967    21937    21924    21949 
   21996    22050    22106    22146    22156    22129    22092    22073 
   22075    22063    22019    21991    22006    22034    22054    22092 
   22148    22196    22242    22273    22253    22214    22207    22204 
   22177    22150    22141    22142    22142    22142    22122    22083 
   22076    22092    22080    22056    22040    22002    21965    21982 
   22018    22010    21968    21914    21843    21787    21767    21753 
   21740    21725    21703    21714    21772    21817    21817    21825 
   21874    21919    21929    21933    21948    21938    21879    21817 
   21786    21783    21813    21855    21857    21838    21864    21918 
   21960    22019    22084    22094    22071    22069    22081    22104 
   22135    22127    22077    22032    21999    21967    21957    22005 
   22077    22103    22059    22003    21986    21983    21982    22010 
   22032    21994    21948    21957    21994    22025    22041    22019 
   21961    21905    21894    21944    22010    22026    21991    21969 
   22002    22059    22090    22076    22025    21940    21857    21818 
   21829    21879    21941    21965    21971    22030    22152    22272 
   22334    22334    22302    22246    22168    22068    21961    21913 
   21953    22022    22095    22175    22223    22235    22248    22254 
   22243    22249    22275    22288    22281    22242    22177    22126 
   22087    22041    22032    22050    22027    21971    21930    21906 
   21914    21964    22010    22041    22102    22160    22154    22125 
   22103    22064    22027    22023    22025    22019    22034    22060 
   22065    22075    22130    22194    22202    22164    22113    22049 
   21980    21930    21914    21914    21918    21940    21995    22092 
   22203    22285    22334    22362    22373    22365    22346    22339 
   22342    22324    22283    22229    22164    22107    22094    22117 
   22135    22142    22145    22134    22125    22134    22149    22156 
   22144    22081    21987    21906    21836    21776    21756    21778 
   21809    21848    21909    21965    21983    21973    21971    21973 
   21963    21951    21934    21879    21820    21816    21843    21882 
   21946    22007    22042    22073    22111    22144    22179    22215 
   22230    22226    22233    22252    22264    22276    22307    22360 
   22405    22442    22503    22588    22644    22648    22620    22569 
   22507    22468    22468    22486    22515    22538    22526    22486 
   22449    22400    22330    22262    22204    22146    22099    22063 
   22037    22042    22065    22054    22015    21959    21863    21764 
   21739    21770    21802    21818    21813    21793    21780    21772 
   21768    21784    21790    21766    21732    21695    21654    21612 
   21568    21535    21521    21510    21502    21531    21581    21616 
   21628    21622    21598    21583    21602    21660    21760    21875 
   21949    21982    21999    22002    22006    22017    22023    22032 
   22042    22045    22060    22092    22127    22162    22180    22150 
   22106    22098    22121    22140    22158    22161    22122    22088 
   22087    22073    22042    22041    22048    22022    21994    21987 
   21961    21905    21876    21897    21924    21946    21978    22010 
   22038    22060    22065    22052    22033    21999    21940    21861 
   21786    21721    21678    21670    21697    21718    21713    21708 
   21709    21693    21674    21694    21749    21786    21779    21766 
   21768    21778    21795    21825    21838    21816    21760    21691 
   21652    21658    21689    21745    21811    21865    21913    21959 
   21987    21991    22005    22040    22053    22036    22029    22026 
   22005    21987    21980    21978    21991    22017    22034    22071 
   22138    22215    22296    22362    22389    22408    22446    22466 
   22451    22437    22424    22400    22374    22343    22302    22258 
   22230    22215    22216    22234    22269    22312    22331    22323 
   22331    22351    22357    22358    22377    22405    22430    22430 
   22407    22383    22354    22318    22285    22253    22231    22230 
   22238    22253    22254    22235    22218    22216    22227    22254 
   22283    22280    22249    22237    22254    22266    22258    22245 
   22225    22192    22162    22145    22127    22108    22092    22084 
   22091    22108    22119    22126    22133    22129    22130    22167 
   22234    22308    22353    22343    22281    22195    22117    22086 
   22095    22103    22083    22053    22030    22017    22025    22065 
   22106    22107    22077    22044    22025    22026    22034    22000 
   21915    21838    21814    21838    21888    21930    21949    21961 
   21968    21972    21988    22006    22011    22006    21984    21940 
   21895    21878    21875    21860    21847    21861    21879    21883 
   21886    21888    21895    21941    22015    22068    22098    22117 
   22110    22091    22075    22052    22021    21995    21980    21963 
   21944    21949    21995    22069    22144    22204    22257    22277 
   22234    22181    22152    22106    22045    22015    22003    21976 
   21964    21988    22023    22049    22069    22076    22054    22021 
   21996    21979    21957    21932    21907    21887    21863    21816 
   21730    21635    21570    21547    21560    21608    21671    21718 
   21726    21708    21703    21732    21760    21768    21760    21740 
   21713    21687    21667    21660    21687    21752    21803    21793 
   21766    21775    21799    21809    21820    21826    21798    21745 
   21717    21730    21756    21786    21830    21883    21926    21961 
   22005    22042    22053    22056    22067    22065    22059    22072 
   22102    22140    22162    22127    22050    21983    21941    21928 
   21944    21972    22003    22034    22050    22063    22081    22077 
   22064    22073    22091    22092    22091    22094    22096    22110 
   22121    22125    22150    22188    22218    22248    22281    22315 
   22331    22329    22322    22323    22326    22303    22253    22202 
   22156    22111    22077    22054    22044    22052    22076    22094 
   22080    22038    22003    21979    21963    21967    21978    21973 
   21975    21987    21991    22013    22054    22068    22032    21978 
   21952    21959    21963    21955    21951    21949    21929    21903 
   21906    21937    21963    21971    21969    21976    22007    22054 
   22088    22100    22096    22079    22042    22000    21969    21949 
   21926    21919    21945    21979    22013    22057    22096    22117 
   22130    22152    22173    22179    22185    22226    22275    22289 
   22293    22304    22304    22319    22387    22478    22549    22599 
   22646    22693    22750    22813    22846    22829    22794    22762 
   22735    22715    22684    22619    22526    22439    22381    22339 
   22302    22269    22235    22192    22157    22133    22106    22075 
   22040    22019    22030    22059    22086    22121    22160    22180 
   22184    22179    22142    22065    21983    21922    21880    21852 
   21826    21791    21751    21714    21683    21637    21567    21494 
   21443    21417    21415    21435    21446    21424    21401    21386 
   21352    21321    21323    21324    21328    21379    21444    21465 
   21479    21531    21579    21617    21675    21739    21776    21786 
   21783    21790    21822    21883    21956    22014    22054    22114 
   22210    22310    22384    22441    22491    22519    22522    22512 
   22496    22473    22432    22368    22303    22260    22234    22231 
   22242    22237    22214    22210    22235    22237    22203    22168 
   22133    22084    22033    21986    21933    21879    21847    21830 
   21825    21838    21880    21940    21995    22036    22052    22071 
   22106    22126    22118    22103    22088    22063    22033    22015 
   22010    22002    21992    21984    21951    21897    21888    21934 
   21975    21983    21968    21942    21918    21898    21876    21861 
   21852    21849    21857    21863    21857    21844    21825    21825 
   21878    21952    21994    22002    22003    21992    21960    21929 
   21919    21907    21879    21849    21813    21768    21747    21745 
   21743    21748    21771    21790    21801    21801    21789    21771 
   21757    21741    21716    21687    21676    21675    21666    21651 
   21652    21667    21685    21714    21762    21802    21824    21822 
   21801    21776    21763    21743    21712    21690    21689    21706 
   21736    21756    21757    21753    21772    21807    21847    21895 
   21965    22052    22131    22188    22219    22235    22234    22219 
   22216    22234    22245    22258    22296    22330    22347    22388 
   22439    22478    22518    22547    22549    22535    22516    22473 
   22414    22369    22326    22281    22268    22292    22326    22365 
   22418    22449    22422    22356    22302    22279    22268    22246 
   22212    22177    22157    22160    22180    22216    22264    22300 
   22330    22364    22392    22405    22408    22392    22366    22345 
   22324    22297    22276    22275    22293    22324    22346    22351 
   22356    22362    22362    22358    22358    22341    22292    22238 
   22199    22164    22126    22076    21999    21905    21830    21797 
   21801    21828    21853    21864    21861    21857    21876    21926 
   21990    22034    22037    21999    21944    21906    21895    21898 
   21917    21938    21953    21957    21965    21992    22036    22080 
   22129    22171    22198    22222    22239    22231    22212    22202 
   22195    22184    22171    22156    22142    22129    22102    22048 
   21965    21865    21778    21716    21667    21614    21567    21536 
   21512    21496    21494    21489    21474    21456    21416    21359 
   21334    21338    21347    21379    21436    21485    21523    21563 
   21600    21640    21694    21745    21774    21791    21814    21855 
   21925    22014    22102    22183    22256    22308    22343    22373 
   22397    22418    22437    22451    22453    22430    22389    22353 
   22341    22350    22378    22427    22473    22492    22489    22476 
   22449    22407    22350    22284    22223    22177    22149    22126 
   22104    22086    22071    22067    22068    22042    21991    21944 
   21917    21909    21911    21915    21911    21891    21847    21782 
   21717    21678    21670    21674    21682    21693    21697    21693 
   21695    21728    21791    21860    21909    21936    21952    21973 
   22005    22036    22060    22072    22065    22061    22080    22123 
   22177    22222    22238    22227    22207    22187    22160    22134 
   22121    22111    22103    22102    22104    22114    22127    22142 
   22162    22198    22238    22262    22281    22311    22327    22315 
   22289    22249    22206    22189    22208    22235    22262    22296 
   22330    22356    22373    22385    22392    22404    22426    22451 
   22478    22491    22478    22446    22415    22381    22330    22277 
   22233    22179    22130    22107    22091    22056    22007    21955 
   21910    21882    21870    21857    21825    21775    21729    21698 
   21674    21651    21621    21583    21556    21537    21497    21451 
   21436    21439    21443    21465    21505    21548    21574    21574 
   21570    21582    21590    21591    21605    21628    21648    21670 
   21689    21705    21720    21737    21774    21825    21857    21864 
   21874    21897    21934    21999    22081    22156    22215    22277 
   22347    22414    22462    22492    22512    22523    22523    22527 
   22549    22573    22590    22601    22604    22599    22585    22559 
   22536    22528    22519    22500    22468    22434    22427    22430 
   22397    22333    22270    22212    22154    22121    22107    22086 
   22042    21990    21949    21937    21959    21992    22006    21988 
   21961    21951    21960    21972    21982    21975    21941    21907 
   21892    21882    21868    21856    21838    21803    21752    21701 
   21663    21651    21659    21672    21675    21671    21689    21726 
   21757    21787    21822    21838    21845    21859    21857    21837 
   21821    21806    21780    21749    21721    21706    21709    21717 
   21721    21743    21794    21859    21921    21978    22026    22057 
   22064    22071    22091    22099    22086    22075    22067    22059 
   22073    22106    22123    22127    22130    22130    22122    22099 
   22059    22010    21967    21938    21928    21929    21934    21934 
