Origin Time       2025/01/13 21:19:00
Lat.              31.8
Long.             131.6
Depth. (km)       30
Mag.              6.9
Station Code      HRSH07
Station Lat.      34.2883
Station Long.     132.6411
Station Height(m) 128
Record Time       2025/01/13 21:20:20
Sampling Freq(Hz) 100Hz
Duration Time(s)  147
Dir.              3
Scale Factor      2942(gal)/8224139
Max. Acc. (gal)   2.089
Last Correction   2025/01/13 21:20:20
Memo.             
[...]
   18416    18369    18381    18439    18484    18468    18426    18446 
   18528    18598    18642    18670    18651    18577    18480    18380 
   18292    18223    18153    18073    18010    17960    17914    17903 
   17903    17863    17794    17740    17725    17753    17817    17886 
   17929    17941    17952    17969    17963    17941    17968    18045 
   18111    18126    18099    18071    18033    17953    17845    17748 
   17668    17605    17552    17505    17483    17508    17562    17629 
   17740    17861    17905    17865    17797    17713    17659    17701 
   17817    17917    17967    18013    18108    18292    18588    18948 
   19292    19580    19784    19923    20058    20151    20125    20007 
   19858    19691    19529    19396    19276    19120    18916    18675 
   18378    18067    17856    17761    17694    17614    17539    17491 
   17475    17464    17462    17489    17566    17724    17915    18067 
   18180    18269    18323    18328    18265    18154    18042    17952 
   17892    17878    17928    18034    18183    18357    18504    18582 
   18600    18571    18507    18423    18327    18247    18198    18135 
   18030    17890    17779    17768    17788    17745    17686    17652 
   17590    17490    17388    17294    17217    17178    17178    17235 
   17336    17410    17486    17647    17860    18073    18265    18381 
   18418    18436    18461    18462    18405    18296    18195    18152 
   18165    18211    18264    18326    18427    18561    18650    18624 
   18539    18504    18515    18517    18542    18612    18663    18652 
   18608    18585    18605    18631    18613    18566    18535    18538 
   18570    18630    18673    18655    18607    18543    18453    18364 
   18297    18287    18345    18355    18226    18048    17910    17803 
   17720    17664    17594    17485    17404    17404    17416    17373 
   17316    17300    17320    17378    17505    17668    17756    17726 
   17663    17655    17718    17830    17938    17982    17925    17813 
   17729    17721    17766    17838    17955    18134    18361    18581 
   18747    18855    18890    18851    18797    18783    18806    18848 
   18906    18954    18944    18920    18945    18990    19049    19147 
   19219    19210    19132    19022    18904    18752    18555    18351 
   18157    17963    17786    17667    17631    17698    17872    18076 
   18239    18362    18469    18550    18581    18630    18806    19071 
   19264    19336    19388    19473    19511    19435    19295    19157 
   19014    18816    18544    18227    17926    17686    17489    17292 
   17112    17015    17007    17026    17057    17115    17162    17180 
   17228    17348    17501    17645    17798    17973    18172    18403 
   18644    18854    18995    19020    18921    18758    18590    18472 
   18400    18318    18238    18191    18129    18048    17987    17921 
   17840    17818    17930    18164    18411    18567    18679    18825 
   18975    19082    19175    19267    19319    19329    19302    19229 
   19138    19084    19051    18952    18779    18604    18484    18481 
   18605    18756    18867    18964    19060    19126    19155    19113 
   18975    18833    18748    18686    18671    18705    18704    18661 
   18627    18634    18700    18812    18918    18995    19043    19041 
   18967    18816    18600    18358    18137    17949    17780    17648 
   17575    17548    17583    17683    17756    17747    17703    17668 
   17658    17699    17761    17748    17679    17632    17572    17473 
   17373    17284    17217    17204    17231    17255    17239    17204 
   17244    17374    17508    17586    17587    17568    17616    17694 
   17707    17616    17437    17234    17057    16922    16839    16839 
   16887    16900    16858    16785    16707    16663    16687    16762 
   16833    16868    16846    16754    16652    16621    16650    16688 
   16761    16879    16962    17010    17095    17186    17246    17339 
   17505    17672    17759    17784    17824    17880    17905    17945 
   18104    18330    18513    18650    18752    18806    18852    18924 
   18968    18983    19009    19030    19076    19179    19279    19341 
   19407    19530    19662    19723    19716    19635    19477    19286 
   19053    18806    18634    18504    18366    18281    18269    18269 
   18257    18249    18235    18207    18192    18199    18208    18195 
   18142    18088    18056    18017    17973    17946    17944    17948 
   17941    17918    17863    17784    17724    17698    17717    17760 
   17748    17679    17621    17609    17652    17767    17940    18111 
   18226    18299    18341    18318    18234    18115    17982    17864 
   17771    17725    17753    17841    17956    18079    18211    18350 
   18495    18670    18864    18991    19001    18933    18835    18740 
   18708    18759    18868    19005    19130    19268    19445    19576 
   19607    19587    19506    19337    19141    18941    18746    18636 
   18640    18677    18666    18580    18445    18297    18112    17890 
   17678    17450    17153    16822    16522    16303    16185    16131 
   16120    16128    16092    16002    15919    15870    15871    15939 
   15982    15931    15907    16000    16112    16154    16133    16110 
   16128    16185    16251    16310    16355    16374    16340    16282 
   16283    16379    16519    16668    16819    16983    17172    17363 
   17524    17667    17782    17815    17760    17635    17479    17369 
   17315    17282    17273    17304    17386    17505    17643    17841 
   18090    18270    18373    18499    18681    18877    19067    19272 
   19477    19645    19789    19920    20005    20058    20124    20250 
   20455    20682    20895    21128    21366    21539    21645    21744 
   21864    21987    22079    22140    22148    22084    21955    21744 
   21477    21220    20958    20641    20313    20031    19737    19413 
   19116    18837    18534    18254    18052    17888    17722    17594 
   17559    17572    17555    17513    17506    17547    17577    17543 
   17466    17386    17292    17177    17064    16969    16875    16779 
   16698    16618    16526    16425    16312    16178    16038    15928 
   15858    15808    15777    15742    15700    15746    15913    16123 
   16324    16519    16722    16929    17113    17282    17431    17506 
   17520    17567    17668    17766    17872    18054    18314    18611 
   18917    19194    19454    19728    19994    20247    20474    20622 
   20686    20722    20772    20825    20868    20895    20883    20825 
   20790    20794    20749    20660    20615    20587    20490    20328 
   20146    19939    19722    19558    19473    19419    19353    19260 
   19145    19026    18882    18657    18384    18164    18040    17986 
   17986    18048    18135    18198    18235    18281    18381    18536 
   18690    18840    18994    19125    19237    19340    19434    19508 
   19518    19441    19299    19116    18916    18721    18574    18528 
   18617    18823    19072    19329    19584    19799    19963    20090 
   20178    20241    20279    20254    20173    20067    19939    19778 
   19583    19329    19056    18814    18546    18222    17898    17602 
   17309    16978    16594    16202    15869    15615    15415    15269 
   15203    15223    15287    15373    15493    15631    15738    15812 
   15855    15828    15755    15716    15742    15816    15913    16044 
   16233    16470    16725    16961    17131    17278    17431    17554 
   17637    17679    17659    17608    17568    17548    17518    17459 
   17385    17313    17228    17130    17028    16920    16815    16727 
   16665    16652    16673    16722    16845    17049    17297    17577 
   17884    18216    18582    18964    19336    19681    19966    20150 
   20260    20358    20429    20429    20359    20241    20090    19953 
   19888    19889    19877    19811    19701    19589    19503    19437 
   19360    19249    19083    18883    18705    18561    18441    18373 
   18357    18330    18264    18166    18048    17930    17865    17884 
   17971    18083    18187    18293    18423    18549    18628    18669 
   18677    18647    18596    18534    18449    18368    18320    18268 
   18210    18172    18117    18038    17991    17977    17961    17921 
   17869    17832    17784    17717    17659    17608    17518    17382 
   17217    17057    16935    16825    16681    16510    16352    16247 
   16191    16124    16035    15969    15925    15884    15846    15781 
   15664    15535    15446    15395    15380    15411    15485    15587 
   15701    15855    16032    16162    16240    16332    16457    16579 
   16650    16659    16606    16519    16449    16445    16532    16691 
   16893    17123    17362    17597    17820    18011    18177    18365 
   18613    18917    19219    19484    19743    20001    20212    20335 
   20394    20459    20569    20723    20893    21034    21127    21200 
   21259    21257    21165    21031    20904    20779    20636    20470 
   20308    20170    20023    19824    19593    19365    19125    18825 
   18478    18156    17882    17605    17280    16931    16610    16317 
   16052    15832    15677    15615    15668    15800    15973    16179 
   16420    16680    16923    17132    17343    17554    17720    17847 
   17967    18071    18137    18191    18289    18422    18551    18693 
   18847    18971    19071    19187    19298    19363    19406    19475 
   19560    19646    19739    19826    19888    19936    19990    20048 
   20098    20133    20177    20264    20395    20542    20682    20791 
   20865    20920    20958    20969    20961    20941    20880    20775 
   20675    20605    20506    20313    20034    19722    19390    19049 
   18719    18384    18027    17649    17250    16838    16449    16105 
   15796    15529    15311    15122    14958    14839    14754    14702 
   14740    14864    15013    15165    15344    15558    15808    16102 
   16437    16776    17089    17393    17728    18075    18372    18598 
   18785    18949    19099    19257    19425    19581    19758    19961 
   20144    20326    20513    20638    20686    20656    20545    20402 
   20235    19965    19597    19209    18847    18517    18203    17886 
   17562    17261    17024    16864    16757    16679    16584    16467 
   16395    16386    16391    16429    16533    16645    16734    16839 
   16969    17064    17100    17143    17232    17315    17362    17409 
   17471    17525    17567    17597    17599    17560    17491    17394 
   17285    17189    17134    17122    17135    17146    17119    17061 
   17023    17018    17041    17116    17230    17317    17366    17402 
   17458    17524    17560    17579    17641    17749    17869    18009 
   18169    18338    18512    18663    18758    18821    18885    18959 
   19067    19184    19265    19315    19345    19344    19321    19294 
   19240    19129    18986    18858    18738    18611    18504    18439 
   18391    18346    18306    18250    18177    18139    18176    18266 
   18364    18434    18469    18493    18527    18561    18588    18615 
   18630    18612    18562    18512    18461    18393    18335    18322 
   18342    18368    18414    18511    18658    18864    19151    19477 
   19758    19992    20240    20499    20710    20850    20923    20929 
   20860    20730    20556    20333    20078    19799    19502    19214 
   18937    18674    18468    18328    18222    18135    18068    18002 
   17946    17921    17910    17874    17795    17679    17527    17354 
   17200    17077    16965    16852    16761    16741    16780    16795 
   16735    16600    16409    16198    16015    15863    15746    15693 
   15720    15819    15985    16193    16422    16699    17015    17319 
   17583    17813    18022    18220    18399    18523    18593    18659 
   18756    18881    19014    19153    19309    19479    19645    19804 
   19942    20020    20046    20038    19996    19958    19970    20031 
   20094    20117    20089    19985    19785    19545    19315    19072 
   18806    18550    18296    18054    17865    17717    17574    17454 
   17366    17282    17173    17020    16830    16626    16411    16158 
   15867    15591    15354    15156    14976    14786    14589    14419 
   14295    14220    14202    14233    14293    14385    14535    14728 
   14933    15184    15523    15946    16441    16997    17558    18076 
   18547    18963    19314    19630    19913    20127    20283    20421 
   20528    20609    20700    20808    20899    20968    21028    21080 
   21118    21130    21078    20958    20812    20656    20449    20160 
   19812    19450    19113    18812    18544    18315    18127    17995 
   17961    18053    18249    18523    18844    19179    19511    19823 
   20083    20272    20376    20399    20376    20328    20252    20140 
   19957    19681    19361    19043    18716    18349    17941    17514 
   17086    16661    16236    15795    15345    14918    14521    14121 
   13695    13284    12933    12691    12582    12590    12685    12852 
   13100    13446    13875    14332    14767    15198    15645    16110 
   16569    16953    17239    17496    17755    17972    18138    18261 
   18327    18327    18270    18158    17963    17698    17433    17193 
   16978    16835    16777    16777    16835    16957    17165    17485 
   17894    18368    18897    19454    20007    20549    21081    21606 
   22129    22626    23051    23392    23677    23893    24004    24013 
   23939    23803    23618    23391    23124    22829    22528    22223 
   21901    21575    21242    20885    20544    20251    20011    19832 
   19696    19570    19457    19371    19314    19273    19238    19215 
   19174    19080    18945    18787    18605    18408    18189    17921 
   17610    17288    16960    16642    16375    16177    16028    15908 
   15820    15777    15758    15753    15762    15772    15777    15772 
   15753    15741    15745    15745    15723    15681    15620    15550 
   15507    15504    15522    15583    15714    15905    16154    16436 
   16714    17010    17346    17712    18119    18566    19021    19462 
   19874    20216    20456    20622    20740    20787    20764    20687 
   20561    20406    20248    20098    19954    19812    19680    19562 
   19456    19359    19272    19207    19197    19255    19365    19483 
   19570    19633    19660    19638    19592    19554    19526    19511 
   19506    19499    19488    19464    19414    19345    19280    19236 
   19198    19141    19071    18987    18895    18820    18752    18663 
   18553    18450    18376    18311    18247    18188    18111    18009 
   17896    17810    17788    17803    17813    17809    17787    17756 
   17722    17664    17595    17532    17442    17305    17145    16957 
   16744    16540    16349    16147    15938    15727    15514    15318 
   15167    15064    14986    14926    14889    14852    14827    14850 
   14932    15056    15207    15380    15569    15800    16078    16360 
   16619    16861    17100    17363    17662    17965    18243    18493 
   18725    18958    19197    19433    19665    19889    20097    20309 
   20548    20783    20979    21142    21292    21433    21536    21551 
   21482    21357    21181    20953    20680    20363    20012    19657 
   19330    19035    18751    18485    18245    18041    17901    17825 
   17788    17810    17895    18004    18129    18289    18469    18648 
   18843    19048    19232    19373    19489    19597    19684    19737 
   19759    19734    19645    19508    19334    19113    18847    18558 
   18268    17964    17640    17334    17081    16864    16650    16455 
   16305    16195    16104    16027    15958    15874    15773    15700 
   15664    15637    15630    15637    15646    15688    15788    15934 
   16125    16353    16610    16889    17169    17429    17680    17936 
   18193    18445    18677    18878    19052    19219    19373    19481 
   19556    19633    19720    19805    19890    19974    20063    20163 
   20267    20347    20379    20362    20294    20191    20074    19935 
   19765    19584    19427    19310    19217    19147    19113    19107 
   19137    19207    19273    19307    19333    19364    19384    19387 
   19373    19334    19255    19126    18962    18787    18609    18434 
   18262    18095    17938    17802    17679    17572    17466    17336 
   17196    17061    16910    16733    16540    16324    16101    15901 
   15730    15606    15556    15565    15597    15645    15716    15801 
   15898    16036    16216    16410    16611    16819    17027    17232 
   17439    17653    17880    18114    18312    18447    18542    18609 
   18624    18577    18497    18384    18220    18023    17829    17648 
   17482    17351    17270    17240    17265    17331    17425    17541 
   17676    17834    18000    18154    18289    18392    18447    18473 
   18507    18563    18624    18670    18686    18662    18621    18593 
   18582    18574    18581    18625    18721    18856    19006    19148 
   19265    19363    19441    19496    19537    19557    19543    19496 
   19422    19318    19187    19049    18906    18746    18563    18365 
   18154    17941    17751    17586    17431    17292    17155    16993 
   16815    16641    16484    16356    16260    16201    16183    16197 
   16249    16355    16476    16584    16708    16862    17026    17186 
   17346    17504    17660    17814    17957    18087    18206    18312 
   18418    18526    18615    18688    18765    18850    18940    19030 
   19109    19172    19234    19296    19345    19359    19337    19292 
   19218    19117    18995    18841    18659    18462    18243    18002 
   17759    17545    17369    17216    17073    16939    16822    16729 
   16667    16641    16642    16667    16738    16852    16970    17086 
   17212    17373    17579    17801    18017    18243    18485    18715 
   18928    19134    19336    19549    19773    19981    20155    20306 
   20444    20556    20637    20700    20749    20780    20798    20784 
   20733    20661    20572    20472    20374    20279    20181    20065 
   19924    19785    19656    19521    19373    19205    19009    18783 
   18542    18297    18052    17805    17568    17342    17122    16915 
   16727    16564    16434    16332    16243    16171    16124    16100 
   16096    16096    16085    16071    16071    16089    16119    16152 
   16178    16209    16270    16351    16440    16548    16672    16795 
   16927    17076    17232    17388    17527    17633    17718    17793 
   17832    17818    17768    17697    17618    17544    17473    17420 
   17394    17398    17436    17505    17590    17682    17787    17925 
   18087    18257    18436    18632    18850    19089    19341    19573 
   19768    19951    20135    20290    20409    20506    20565    20576 
   20555    20521    20464    20374    20248    20096    19921    19734 
   19552    19380    19194    18978    18744    18508    18268    18011 
   17745    17470    17178    16887    16619    16386    16178    15981 
   15799    15647    15549    15499    15487    15520    15580    15633 
   15693    15789    15905    16033    16179    16333    16484    16656 
   16862    17097    17346    17602    17872    18157    18438    18705 
