Origin Time       2025/01/13 21:19:00
Lat.              31.8
Long.             131.6
Depth. (km)       30
Mag.              6.9
Station Code      HRSH05
Station Lat.      34.5566
Station Long.     133.4179
Station Height(m) 20
Record Time       2025/01/13 21:21:15
Sampling Freq(Hz) 100Hz
Duration Time(s)  120
Dir.              5
Scale Factor      7845(gal)/8223790
Max. Acc. (gal)   1.816
Last Correction   2025/01/13 21:21:16
Memo.             
[...]
  -17467   -17421   -17416   -17437   -17466   -17497   -17523   -17497 
  -17404   -17298   -17220   -17180   -17192   -17207   -17186   -17193 
  -17266   -17351   -17410   -17431   -17404   -17340   -17236   -17092 
  -16947   -16853   -16822   -16852   -16938   -17051   -17150   -17219 
  -17239   -17211   -17159   -17074   -16961   -16876   -16842   -16850 
  -16924   -17073   -17250   -17405   -17521   -17586   -17602   -17589 
  -17563   -17540   -17521   -17487   -17429   -17374   -17340   -17332 
  -17356   -17417   -17513   -17636   -17740   -17775   -17757   -17707 
  -17585   -17386   -17180   -17014   -16877   -16769   -16713   -16708 
  -16756   -16849   -16973   -17096   -17167   -17209   -17293   -17406 
  -17479   -17509   -17517   -17501   -17490   -17505   -17498   -17474 
  -17463   -17439   -17420   -17451   -17504   -17524   -17491   -17410 
  -17313   -17207   -17080   -16961   -16879   -16819   -16758   -16711 
  -16719   -16787   -16897   -17065   -17266   -17452   -17606   -17695 
  -17710   -17698   -17689   -17668   -17631   -17574   -17502   -17435 
  -17375   -17319   -17271   -17246   -17228   -17200   -17155   -17085 
  -17010   -16974   -16966   -16968   -16993   -17020   -17042   -17099 
  -17176   -17244   -17339   -17444   -17532   -17622   -17682   -17662 
  -17613   -17575   -17525   -17458   -17385   -17304   -17215   -17135 
  -17092   -17082   -17080   -17045   -16957   -16833   -16718   -16673 
  -16718   -16814   -16943   -17109   -17275   -17394   -17459   -17469 
  -17432   -17375   -17323   -17275   -17242   -17238   -17274   -17351 
  -17462   -17586   -17697   -17786   -17848   -17864   -17845   -17822 
  -17814   -17824   -17798   -17701   -17605   -17552   -17493   -17396 
  -17267   -17096   -16906   -16771   -16735   -16787   -16900   -17043 
  -17201   -17367   -17489   -17518   -17497   -17473   -17437   -17397 
  -17363   -17327   -17301   -17316   -17338   -17316   -17259   -17193 
  -17127   -17082   -17061   -17038   -17007   -16980   -16968   -16988 
  -17027   -17037   -17028   -17065   -17142   -17224   -17281   -17296 
  -17317   -17406   -17541   -17689   -17836   -17936   -17952   -17899 
  -17798   -17660   -17516   -17369   -17242   -17173   -17150   -17147 
  -17190   -17292   -17416   -17518   -17560   -17540   -17494   -17427 
  -17331   -17251   -17243   -17305   -17390   -17456   -17470   -17435 
  -17374   -17294   -17215   -17181   -17181   -17155   -17109   -17097 
  -17109   -17112   -17099   -17068   -17050   -17081   -17124   -17155 
  -17230   -17363   -17504   -17616   -17676   -17703   -17722   -17693 
  -17571   -17415   -17302   -17242   -17190   -17108   -16989   -16873 
  -16819   -16834   -16873   -16895   -16881   -16860   -16868   -16893 
  -16899   -16891   -16899   -16941   -17038   -17186   -17338   -17481 
  -17617   -17739   -17849   -17923   -17909   -17814   -17712   -17628 
  -17533   -17436   -17369   -17332   -17325   -17331   -17316   -17262 
  -17167   -17051   -16961   -16895   -16806   -16725   -16707   -16731 
  -16776   -16857   -16960   -17078   -17217   -17352   -17467   -17551 
  -17564   -17508   -17463   -17474   -17523   -17581   -17644   -17724 
  -17806   -17844   -17829   -17788   -17743   -17698   -17664   -17645 
  -17614   -17564   -17529   -17509   -17486   -17466   -17427   -17366 
  -17302   -17201   -17041   -16858   -16704   -16642   -16703   -16842 
  -17028   -17255   -17435   -17474   -17386   -17258   -17146   -17059 
  -17018   -17045   -17128   -17247   -17396   -17571   -17759   -17923 
  -18044   -18139   -18200   -18157   -17980   -17712   -17412   -17126 
  -16897   -16714   -16521   -16318   -16183   -16186   -16330   -16559 
  -16818   -17107   -17374   -17545   -17647   -17718   -17740   -17726 
  -17697   -17635   -17556   -17505   -17482   -17493   -17531   -17521 
  -17478   -17490   -17536   -17533   -17463   -17334   -17180   -17031 
  -16888   -16768   -16680   -16619   -16627   -16741   -16907   -17053 
  -17169   -17292   -17415   -17491   -17513   -17518   -17535   -17559 
  -17574   -17556   -17478   -17344   -17227   -17186   -17186   -17189 
  -17238   -17344   -17446   -17478   -17452   -17410   -17397   -17409 
  -17405   -17366   -17311   -17246   -17203   -17231   -17297   -17309 
  -17273   -17261   -17275   -17278   -17234   -17162   -17120   -17127 
  -17151   -17192   -17253   -17281   -17247   -17194   -17150   -17096 
  -17038   -17011   -17054   -17174   -17319   -17442   -17554   -17652 
  -17701   -17710   -17710   -17706   -17721   -17774   -17793   -17730 
  -17631   -17523   -17398   -17273   -17143   -17008   -16900   -16850 
  -16872   -16972   -17107   -17216   -17281   -17321   -17346   -17340 
  -17305   -17271   -17267   -17298   -17328   -17336   -17340   -17327 
  -17271   -17223   -17204   -17161   -17088   -17057   -17085   -17151 
  -17285   -17494   -17694   -17779   -17733   -17636   -17563   -17508 
  -17437   -17373   -17362   -17421   -17490   -17502   -17491   -17523 
  -17568   -17579   -17547   -17466   -17320   -17157   -17047   -16992 
  -16964   -16965   -17011   -17096   -17182   -17212   -17186   -17154 
  -17119   -17078   -17066   -17069   -17049   -17039   -17077   -17126 
  -17174   -17251   -17361   -17500   -17652   -17749   -17771   -17759 
  -17745   -17736   -17694   -17587   -17462   -17374   -17305   -17232 
  -17167   -17128   -17131   -17192   -17266   -17289   -17251   -17149 
  -17004   -16893   -16821   -16711   -16572   -16486   -16471   -16499 
  -16573   -16695   -16839   -16999   -17150   -17271   -17356   -17392 
  -17400   -17423   -17433   -17377   -17278   -17197   -17153   -17136 
  -17147   -17192   -17271   -17356   -17420   -17475   -17527   -17532 
  -17479   -17410   -17331   -17238   -17165   -17113   -17054   -17005 
  -16984   -17001   -17092   -17234   -17374   -17489   -17558   -17571 
  -17552   -17505   -17420   -17335   -17275   -17226   -17172   -17111 
  -17038   -16974   -16937   -16915   -16910   -16935   -16951   -16896 
  -16791   -16698   -16646   -16646   -16695   -16780   -16895   -17011 
  -17103   -17199   -17334   -17482   -17614   -17751   -17876   -17948 
  -17994   -18030   -18003   -17919   -17834   -17770   -17726   -17687 
  -17602   -17462   -17301   -17151   -17058   -17055   -17105   -17153 
  -17170   -17143   -17072   -16992   -16918   -16864   -16868   -16912 
  -16915   -16861   -16803   -16783   -16829   -16941   -17097   -17284 
  -17475   -17639   -17745   -17782   -17753   -17710   -17693   -17698 
  -17706   -17706   -17689   -17637   -17555   -17471   -17409   -17350 
  -17288   -17239   -17192   -17113   -17004   -16866   -16733   -16650 
  -16618   -16632   -16703   -16814   -16922   -17012   -17072   -17099 
  -17126   -17178   -17251   -17338   -17412   -17463   -17505   -17532 
  -17543   -17563   -17581   -17575   -17555   -17479   -17344   -17265 
  -17290   -17362   -17429   -17455   -17416   -17331   -17219   -17101 
  -17012   -16962   -16953   -17008   -17115   -17211   -17280   -17352 
  -17423   -17458   -17450   -17419   -17398   -17386   -17361   -17342 
  -17339   -17339   -17343   -17355   -17361   -17335   -17270   -17186 
  -17103   -17047   -17043   -17058   -17065   -17096   -17174   -17290 
  -17437   -17585   -17703   -17803   -17888   -17907   -17848   -17739 
  -17614   -17531   -17490   -17440   -17389   -17346   -17266   -17169 
  -17119   -17111   -17115   -17147   -17205   -17251   -17263   -17258 
  -17243   -17212   -17154   -17095   -17081   -17107   -17128   -17173 
  -17269   -17374   -17458   -17510   -17518   -17516   -17506   -17439 
  -17312   -17173   -17031   -16903   -16826   -16775   -16703   -16633 
  -16590   -16571   -16579   -16602   -16634   -16713   -16837   -16965 
  -17074   -17162   -17224   -17280   -17359   -17454   -17531   -17593 
  -17637   -17660   -17682   -17703   -17736   -17806   -17853   -17791 
  -17644   -17473   -17281   -17078   -16918   -16830   -16815   -16876 
  -16989   -17097   -17181   -17246   -17292   -17348   -17408   -17396 
  -17327   -17288   -17316   -17406   -17529   -17645   -17760   -17855 
  -17868   -17809   -17725   -17617   -17497   -17435   -17427   -17417 
  -17396   -17340   -17244   -17143   -17054   -16978   -16927   -16914 
  -16926   -16951   -16993   -17045   -17097   -17174   -17267   -17346 
  -17412   -17482   -17575   -17699   -17822   -17918   -18002   -18057 
  -18058   -18017   -17923   -17766   -17572   -17379   -17224   -17127 
  -17057   -16984   -16916   -16857   -16800   -16745   -16695   -16648 
  -16606   -16586   -16613   -16698   -16826   -16951   -17058   -17180 
  -17317   -17433   -17518   -17560   -17552   -17554   -17606   -17671 
  -17710   -17732   -17722   -17672   -17578   -17443   -17301   -17192 
  -17101   -17012   -16938   -16899   -16884   -16876   -16858   -16810 
  -16753   -16726   -16707   -16702   -16765   -16896   -17042   -17190 
  -17335   -17433   -17451   -17401   -17334   -17302   -17309   -17328 
  -17346   -17356   -17342   -17302   -17259   -17219   -17181   -17149 
  -17108   -17066   -17016   -16939   -16860   -16818   -16798   -16781 
  -16773   -16761   -16757   -16794   -16852   -16885   -16923   -16988 
  -17042   -17107   -17212   -17309   -17369   -17400   -17402   -17410 
  -17440   -17464   -17501   -17556   -17594   -17610   -17614   -17598 
  -17572   -17558   -17556   -17556   -17545   -17527   -17509   -17490 
  -17467   -17435   -17408   -17408   -17419   -17433   -17455   -17464 
  -17470   -17485   -17483   -17459   -17428   -17373   -17307   -17265 
  -17258   -17300   -17389   -17485   -17560   -17617   -17651   -17636 
  -17590   -17559   -17520   -17458   -17406   -17369   -17338   -17316 
  -17257   -17149   -17078   -17073   -17085   -17124   -17190   -17282 
  -17439   -17631   -17778   -17859   -17878   -17838   -17788   -17787 
  -17828   -17869   -17886   -17841   -17756   -17701   -17691   -17699 
  -17737   -17788   -17817   -17822   -17806   -17751   -17660   -17574 
  -17516   -17483   -17451   -17397   -17340   -17308   -17288   -17278 
  -17294   -17343   -17428   -17541   -17660   -17755   -17820   -17875 
  -17923   -17938   -17882   -17757   -17610   -17487   -17405   -17363 
  -17362   -17378   -17386   -17401   -17423   -17432   -17440   -17454 
  -17464   -17498   -17535   -17535   -17532   -17532   -17491   -17443 
  -17417   -17389   -17369   -17362   -17343   -17335   -17379   -17433 
  -17447   -17421   -17377   -17334   -17289   -17230   -17142   -17023 
  -16889   -16781   -16718   -16671   -16627   -16629   -16677   -16725 
  -16765   -16814   -16853   -16864   -16865   -16877   -16902   -16938 
  -16977   -17008   -17030   -17022   -16993   -16992   -17016   -16993 
  -16910   -16833   -16803   -16825   -16885   -16922   -16922   -16930 
  -16941   -16939   -16919   -16880   -16845   -16842   -16849   -16861 
  -16902   -16961   -17010   -17072   -17150   -17194   -17223   -17257 
  -17284   -17313   -17359   -17394   -17415   -17423   -17394   -17329 
  -17248   -17161   -17077   -17030   -17028   -17035   -17041   -17085 
  -17174   -17274   -17377   -17456   -17496   -17524   -17566   -17609 
  -17670   -17745   -17790   -17790   -17767   -17724   -17658   -17574 
  -17479   -17396   -17331   -17259   -17166   -17049   -16904   -16768 
  -16676   -16605   -16552   -16546   -16572   -16605   -16640   -16679 
  -16738   -16837   -16943   -17026   -17099   -17177   -17275   -17413 
  -17566   -17707   -17860   -18010   -18134   -18234   -18274   -18227 
  -18134   -18036   -17922   -17788   -17639   -17474   -17297   -17127 
  -16989   -16877   -16776   -16700   -16663   -16665   -16703   -16764 
  -16865   -17004   -17122   -17215   -17321   -17416   -17490   -17583 
  -17686   -17779   -17887   -18003   -18100   -18169   -18193   -18166 
  -18103   -18021   -17922   -17805   -17652   -17475   -17327   -17240 
  -17192   -17173   -17204   -17269   -17339   -17410   -17490   -17605 
  -17759   -17923   -18083   -18235   -18351   -18391   -18358   -18304 
  -18246   -18172   -18092   -18006   -17887   -17734   -17537   -17305 
  -17088   -16897   -16723   -16575   -16448   -16347   -16286   -16248 
  -16235   -16293   -16420   -16587   -16812   -17091   -17373   -17632 
  -17848   -18014   -18157   -18269   -18315   -18300   -18262   -18226 
  -18192   -18139   -18038   -17884   -17716   -17562   -17417   -17307 
  -17244   -17227   -17267   -17346   -17402   -17439   -17491   -17567 
  -17655   -17718   -17721   -17694   -17672   -17639   -17570   -17491 
  -17413   -17338   -17280   -17231   -17174   -17109   -17050   -16993 
  -16935   -16875   -16819   -16787   -16765   -16726   -16680   -16672 
  -16718   -16800   -16916   -17073   -17247   -17413   -17548   -17645 
  -17725   -17788   -17822   -17817   -17749   -17622   -17464   -17282 
  -17077   -16873   -16714   -16633   -16623   -16648   -16675   -16704 
  -16760   -16825   -16864   -16888   -16908   -16902   -16864   -16803 
  -16695   -16545   -16405   -16303   -16235   -16200   -16209   -16268 
  -16371   -16476   -16557   -16634   -16702   -16726   -16717   -16710 
  -16706   -16721   -16784   -16908   -17086   -17293   -17506   -17736 
  -17986   -18206   -18353   -18439   -18465   -18408   -18287   -18111 
  -17857   -17545   -17219   -16881   -16559   -16298   -16085   -15924 
  -15843   -15809   -15800   -15836   -15913   -16005   -16121   -16251 
  -16383   -16553   -16768   -17000   -17262   -17543   -17805   -18064 
  -18328   -18577   -18812   -19013   -19141   -19198   -19186   -19093 
  -18939   -18729   -18458   -18169   -17902   -17648   -17425   -17262 
  -17155   -17116   -17149   -17224   -17313   -17421   -17554   -17695 
  -17838   -17980   -18102   -18207   -18315   -18401   -18439   -18449 
  -18450   -18445   -18438   -18420   -18369   -18284   -18157   -17995 
  -17837   -17672   -17464   -17244   -17039   -16846   -16683   -16548 
  -16437   -16394   -16420   -16480   -16591   -16754   -16912   -17055 
  -17231   -17421   -17591   -17753   -17879   -17934   -17928   -17857 
  -17728   -17577   -17400   -17194   -17014   -16893   -16815   -16777 
  -16789   -16823   -16861   -16922   -16980   -17000   -16993   -16980 
  -16976   -16996   -17031   -17069   -17135   -17231   -17325   -17427 
  -17529   -17597   -17629   -17637   -17612   -17556   -17470   -17350 
  -17228   -17126   -17004   -16853   -16710   -16582   -16475   -16399 
  -16326   -16259   -16220   -16205   -16206   -16236   -16285   -16314 
  -16322   -16339   -16371   -16426   -16510   -16603   -16706   -16834 
  -16956   -17055   -17166   -17282   -17361   -17409   -17454   -17498 
  -17536   -17550   -17527   -17502   -17494   -17470   -17455   -17485 
  -17497   -17447   -17370   -17281   -17190   -17127   -17081   -17053 
  -17058   -17078   -17093   -17131   -17196   -17255   -17305   -17343 
  -17350   -17346   -17358   -17382   -17424   -17481   -17525   -17545 
  -17571   -17604   -17637   -17682   -17717   -17733   -17747   -17733 
  -17694   -17686   -17698   -17686   -17671   -17671   -17666   -17658 
  -17648   -17598   -17508   -17401   -17278   -17151   -17057   -17001 
  -16996   -17061   -17174   -17290   -17410   -17520   -17608   -17699 
  -17794   -17867   -17950   -18050   -18130   -18189   -18219   -18200 
  -18153   -18107   -18056   -17992   -17942   -17923   -17913   -17918 
  -17928   -17910   -17874   -17834   -17775   -17697   -17618   -17548 
  -17502   -17481   -17463   -17460   -17485   -17521   -17559   -17608 
  -17658   -17706   -17778   -17860   -17911   -17910   -17847   -17733 
  -17605   -17470   -17328   -17190   -17068   -16956   -16852   -16769 
  -16710   -16673   -16669   -16683   -16699   -16733   -16757   -16767 
  -16796   -16823   -16819   -16811   -16806   -16792   -16785   -16779 
  -16767   -16771   -16792   -16834   -16899   -16958   -16991   -17016 
  -17032   -17020   -16987   -16942   -16885   -16827   -16794   -16783 
  -16775   -16785   -16819   -16864   -16920   -16985   -17039   -17084 
  -17132   -17173   -17188   -17173   -17115   -17019   -16915   -16791 
  -16634   -16474   -16308   -16128   -15978   -15870   -15789   -15765 
  -15811   -15890   -16005   -16166   -16347   -16551   -16798   -17057 
  -17294   -17505   -17682   -17821   -17929   -17986   -17990   -17975 
  -17934   -17851   -17748   -17652   -17556   -17464   -17394   -17343 
  -17316   -17320   -17321   -17297   -17275   -17251   -17221   -17236 
  -17298   -17377   -17498   -17670   -17857   -18080   -18330   -18562 
  -18755   -18890   -18947   -18933   -18846   -18681   -18480   -18264 
  -18019   -17767   -17532   -17320   -17139   -17004   -16902   -16818 
  -16765   -16746   -16750   -16767   -16772   -16758   -16757   -16765 
  -16764   -16783   -16843   -16926   -17039   -17189   -17355   -17535 
  -17713   -17842   -17914   -17940   -17910   -17834   -17739   -17622 
  -17471   -17309   -17172   -17084   -17076   -17151   -17258   -17386 
  -17550   -17714   -17856   -17969   -18018   -18007   -17983   -17945 
  -17887   -17833   -17780   -17732   -17718   -17729   -17720   -17687 
  -17641   -17585   -17527   -17452   -17327   -17166   -17012   -16879 
  -16769   -16699   -16667   -16663   -16696   -16756   -16825   -16915 
  -17018   -17116   -17220   -17319   -17392   -17446   -17490   -17517 
  -17524   -17520   -17494   -17466   -17470   -17490   -17506   -17533 
  -17572   -17608   -17632   -17632   -17609   -17566   -17494   -17416 
  -17371   -17366   -17379   -17409   -17460   -17516   -17556   -17587 
  -17602   -17601   -17583   -17528   -17444   -17367   -17284   -17170 
  -17062   -16968   -16880   -16831   -16810   -16785   -16792   -16829 
  -16866   -16920   -16992   -17074   -17196   -17347   -17483   -17587 
  -17660   -17686   -17662   -17599   -17506   -17383   -17246   -17113 
  -16993   -16892   -16814   -16753   -16708   -16691   -16683   -16684 
  -16710   -16740   -16781   -16858   -16949   -17031   -17131   -17232 
  -17307   -17382   -17463   -17521   -17564   -17586   -17566   -17517 
  -17452   -17354   -17224   -17088   -16958   -16842   -16727   -16613 
  -16518   -16460   -16434   -16429   -16449   -16506   -16602   -16741 
  -16914   -17097   -17286   -17473   -17639   -17784   -17915   -18021 
  -18098   -18169   -18234   -18285   -18308   -18280   -18193   -18084 
  -17959   -17798   -17601   -17378   -17149   -16950   -16783   -16609 
  -16453   -16345   -16290   -16298   -16366   -16460   -16579   -16719 
  -16870   -17015   -17149   -17280   -17429   -17590   -17724   -17809 
  -17872   -17925   -17946   -17928   -17876   -17797   -17702   -17598 
  -17452   -17263   -17088   -16937   -16810   -16742   -16723   -16708 
  -16708   -16740   -16789   -16868   -16965   -17059   -17173   -17284 
  -17348   -17398   -17448   -17471   -17489   -17505   -17493   -17464 
  -17442   -17408   -17371   -17343   -17302   -17250   -17217   -17208 
  -17201   -17189   -17174   -17163   -17177   -17212   -17253   -17294 
  -17342   -17400   -17469   -17550   -17643   -17745   -17855   -17953 
  -18021   -18049   -18042   -17995   -17922   -17838   -17739   -17636 
  -17529   -17417   -17334   -17285   -17235   -17186   -17147   -17118 
  -17111   -17118   -17092   -17045   -17007   -16968   -16942   -16973 
  -17024   -17068   -17120   -17185   -17248   -17308   -17346   -17375 
