Origin Time       2025/01/13 21:19:00
Lat.              31.8
Long.             131.6
Depth. (km)       30
Mag.              6.9
Station Code      HRSH09
Station Lat.      34.7016
Station Long.     132.9524
Station Height(m) 235
Record Time       2025/01/13 21:20:28
Sampling Freq(Hz) 100Hz
Duration Time(s)  144
Dir.              1
Scale Factor      3923(gal)/8224838
Max. Acc. (gal)   0.664
Last Correction   2025/01/13 21:20:29
Memo.             
[...]
  -38770   -38790   -38859   -38940   -38994   -39035   -39078   -39116 
  -39143   -39154   -39150   -39156   -39194   -39252   -39309   -39361 
  -39425   -39490   -39544   -39600   -39660   -39714   -39768   -39829 
  -39870   -39873   -39860   -39854   -39850   -39846   -39854   -39874 
  -39892   -39899   -39885   -39846   -39793   -39746   -39699   -39656 
  -39633   -39622   -39592   -39544   -39521   -39545   -39587   -39613 
  -39627   -39633   -39633   -39650   -39675   -39684   -39671   -39649 
  -39642   -39649   -39650   -39656   -39649   -39610   -39564   -39536 
  -39522   -39511   -39484   -39424   -39339   -39248   -39163   -39093 
  -39033   -38988   -38947   -38897   -38843   -38792   -38743   -38692 
  -38628   -38564   -38520   -38492   -38450   -38410   -38403   -38414 
  -38411   -38407   -38423   -38446   -38473   -38539   -38653   -38770 
  -38869   -38952   -39009   -39039   -39070   -39106   -39131   -39141 
  -39159   -39199   -39252   -39298   -39344   -39379   -39391   -39405 
  -39434   -39455   -39459   -39459   -39453   -39441   -39429   -39415 
  -39379   -39325   -39291   -39276   -39255   -39224   -39198   -39187 
  -39175   -39160   -39154   -39144   -39116   -39085   -39070   -39070 
  -39074   -39082   -39075   -39047   -39010   -38983   -38969   -38948 
  -38900   -38813   -38701   -38601   -38535   -38499   -38462   -38418 
  -38371   -38341   -38345   -38364   -38371   -38387   -38431   -38479 
  -38529   -38597   -38680   -38758   -38843   -38948   -39050   -39110 
  -39141   -39191   -39256   -39294   -39286   -39244   -39191   -39143 
  -39114   -39112   -39117   -39117   -39116   -39105   -39070   -39028 
  -38996   -38959   -38920   -38908   -38919   -38907   -38866   -38836 
  -38812   -38753   -38669   -38592   -38518   -38423   -38326   -38256 
  -38207   -38167   -38137   -38124   -38117   -38103   -38099   -38124 
  -38160   -38190   -38217   -38248   -38284   -38330   -38394   -38476 
  -38566   -38645   -38700   -38745   -38780   -38792   -38790   -38796 
  -38807   -38817   -38821   -38815   -38797   -38774   -38749   -38732 
  -38712   -38685   -38666   -38665   -38672   -38692   -38724   -38758 
  -38801   -38871   -38969   -39077   -39189   -39290   -39378   -39474 
  -39569   -39633   -39660   -39684   -39719   -39739   -39727   -39687 
  -39630   -39569   -39510   -39451   -39390   -39339   -39305   -39286 
  -39278   -39285   -39297   -39298   -39298   -39307   -39306   -39279 
  -39236   -39197   -39174   -39155   -39145   -39164   -39206   -39245 
  -39268   -39283   -39301   -39324   -39360   -39415   -39463   -39495 
  -39536   -39602   -39676   -39725   -39739   -39730   -39692   -39626 
  -39556   -39506   -39460   -39402   -39344   -39302   -39270   -39225 
  -39166   -39116   -39077   -39023   -38963   -38929   -38917   -38904 
  -38896   -38905   -38924   -38928   -38919   -38925   -38946   -38965 
  -38993   -39037   -39079   -39112   -39150   -39204   -39259   -39299 
  -39320   -39322   -39309   -39290   -39291   -39317   -39345   -39371 
  -39406   -39429   -39422   -39391   -39351   -39310   -39264   -39206 
  -39152   -39114   -39078   -39037   -39009   -39002   -39009   -39023 
  -39024   -39002   -38975   -38961   -38959   -38969   -38996   -39036 
  -39082   -39116   -39132   -39140   -39151   -39178   -39217   -39245 
  -39236   -39201   -39160   -39117   -39078   -39055   -39029   -38986 
  -38947   -38912   -38871   -38824   -38773   -38727   -38696   -38673 
  -38662   -38661   -38668   -38685   -38708   -38722   -38719   -38715 
  -38735   -38781   -38823   -38847   -38880   -38919   -38936   -38944 
  -38966   -38983   -38983   -38977   -38978   -38975   -38961   -38961 
  -38981   -38989   -38979   -38958   -38932   -38919   -38916   -38908 
  -38893   -38874   -38854   -38853   -38881   -38927   -38967   -38994 
  -39021   -39063   -39127   -39206   -39295   -39380   -39445   -39494 
  -39538   -39559   -39552   -39532   -39506   -39469   -39426   -39384 
  -39355   -39325   -39278   -39217   -39156   -39097   -39033   -38973 
  -38939   -38931   -38934   -38942   -38961   -38981   -38994   -39004 
  -39000   -38967   -38921   -38884   -38850   -38813   -38782   -38766 
  -38765   -38774   -38794   -38819   -38843   -38862   -38881   -38920 
  -38978   -39028   -39058   -39085   -39120   -39141   -39127   -39087 
  -39048   -39004   -38954   -38898   -38840   -38782   -38713   -38628 
  -38545   -38479   -38429   -38373   -38304   -38236   -38180   -38134 
  -38087   -38041   -37995   -37959   -37944   -37933   -37910   -37889 
  -37891   -37925   -37983   -38057   -38140   -38226   -38317   -38402 
  -38470   -38522   -38553   -38568   -38576   -38580   -38583   -38583 
  -38583   -38593   -38618   -38643   -38673   -38715   -38763   -38801 
  -38827   -38859   -38912   -38975   -39050   -39136   -39229   -39328 
  -39429   -39514   -39580   -39646   -39712   -39779   -39850   -39914 
  -39958   -39980   -39996   -40024   -40062   -40089   -40100   -40107 
  -40119   -40128   -40130   -40130   -40128   -40107   -40055   -39991 
  -39923   -39839   -39749   -39669   -39607   -39542   -39463   -39387 
  -39324   -39259   -39191   -39141   -39100   -39043   -38985   -38946 
  -38913   -38878   -38853   -38844   -38839   -38835   -38851   -38881 
  -38912   -38950   -38998   -39051   -39105   -39160   -39213   -39259 
  -39291   -39314   -39324   -39320   -39305   -39283   -39256   -39222 
  -39189   -39163   -39151   -39159   -39174   -39168   -39135   -39094 
  -39064   -39043   -39019   -38998   -38977   -38947   -38917   -38894 
  -38873   -38850   -38838   -38851   -38869   -38865   -38855   -38857 
  -38855   -38836   -38817   -38803   -38770   -38720   -38680   -38650 
  -38620   -38584   -38545   -38516   -38491   -38453   -38415   -38376 
  -38325   -38280   -38254   -38240   -38236   -38241   -38263   -38302 
  -38348   -38389   -38426   -38453   -38473   -38480   -38481   -38497 
  -38535   -38581   -38623   -38666   -38716   -38777   -38847   -38928 
  -39021   -39112   -39190   -39268   -39353   -39437   -39523   -39630 
  -39745   -39835   -39900   -39961   -40009   -40023   -40018   -40004 
  -39957   -39879   -39799   -39718   -39617   -39506   -39422   -39361 
  -39302   -39255   -39239   -39241   -39248   -39270   -39305   -39332 
  -39356   -39397   -39438   -39474   -39511   -39532   -39518   -39492 
  -39471   -39455   -39449   -39453   -39452   -39438   -39430   -39438 
  -39444   -39441   -39440   -39436   -39421   -39397   -39375   -39364 
  -39359   -39360   -39364   -39359   -39341   -39324   -39307   -39285 
  -39266   -39256   -39237   -39204   -39162   -39113   -39064   -39004 
  -38934   -38877   -38824   -38754   -38684   -38632   -38588   -38543 
  -38516   -38507   -38499   -38489   -38491   -38500   -38510   -38522 
  -38530   -38537   -38545   -38565   -38612   -38680   -38753   -38827 
  -38888   -38932   -38977   -39031   -39079   -39098   -39089   -39059 
  -39020   -38969   -38905   -38842   -38781   -38708   -38623   -38529 
  -38433   -38349   -38280   -38215   -38153   -38122   -38129   -38153 
  -38188   -38241   -38315   -38402   -38496   -38601   -38722   -38850 
  -38969   -39064   -39143   -39202   -39231   -39232   -39228   -39220 
  -39191   -39154   -39131   -39125   -39116   -39089   -39052   -39025 
  -39000   -38979   -38979   -38986   -38989   -39006   -39047   -39096 
  -39148   -39206   -39262   -39293   -39309   -39334   -39370   -39391 
  -39388   -39370   -39343   -39307   -39268   -39231   -39185   -39124 
  -39067   -39029   -38996   -38962   -38940   -38935   -38932   -38934 
  -38952   -38977   -39000   -39025   -39043   -39046   -39050   -39067 
  -39087   -39100   -39100   -39096   -39102   -39106   -39081   -39043 
  -39013   -38982   -38946   -38923   -38916   -38901   -38865   -38834 
  -38817   -38800   -38789   -38808   -38857   -38925   -39001   -39087 
  -39185   -39276   -39359   -39440   -39518   -39603   -39691   -39765 
  -39822   -39868   -39903   -39918   -39903   -39872   -39831   -39764 
  -39668   -39567   -39463   -39353   -39249   -39152   -39055   -38971 
  -38911   -38867   -38836   -38817   -38819   -38836   -38855   -38874 
  -38897   -38919   -38931   -38923   -38909   -38913   -38940   -38973 
  -39002   -39025   -39046   -39066   -39079   -39087   -39108   -39139 
  -39160   -39172   -39201   -39248   -39293   -39339   -39391   -39440 
  -39482   -39515   -39545   -39582   -39619   -39638   -39646   -39657 
  -39673   -39694   -39714   -39721   -39695   -39645   -39600   -39550 
  -39482   -39415   -39363   -39317   -39275   -39244   -39220   -39193 
  -39167   -39155   -39151   -39133   -39089   -39040   -39004   -38966 
  -38916   -38863   -38809   -38743   -38668   -38593   -38522   -38454 
  -38388   -38327   -38277   -38233   -38196   -38179   -38183   -38199 
  -38236   -38290   -38354   -38438   -38541   -38646   -38749   -38850 
  -38939   -39006   -39066   -39120   -39160   -39191   -39217   -39228 
  -39218   -39191   -39156   -39123   -39083   -39024   -38970   -38948 
  -38936   -38897   -38842   -38800   -38774   -38746   -38718   -38700 
  -38680   -38649   -38628   -38619   -38597   -38562   -38522   -38481 
  -38443   -38422   -38426   -38446   -38465   -38479   -38493   -38518 
  -38558   -38618   -38686   -38753   -38812   -38863   -38907   -38946 
  -38986   -39024   -39052   -39083   -39135   -39181   -39191   -39179 
  -39162   -39125   -39071   -39028   -38998   -38961   -38915   -38880 
  -38859   -38842   -38839   -38863   -38897   -38927   -38966   -39013 
  -39056   -39085   -39108   -39135   -39158   -39163   -39160   -39160 
  -39168   -39174   -39179   -39191   -39201   -39206   -39222   -39256 
  -39289   -39312   -39337   -39370   -39393   -39406   -39426   -39452 
  -39468   -39480   -39486   -39465   -39421   -39382   -39353   -39317 
  -39276   -39243   -39217   -39212   -39225   -39244   -39266   -39293 
  -39318   -39347   -39388   -39434   -39467   -39486   -39506   -39528 
  -39526   -39511   -39506   -39503   -39486   -39456   -39425   -39387 
  -39345   -39310   -39279   -39245   -39213   -39189   -39159   -39118 
  -39082   -39050   -39013   -38973   -38927   -38882   -38844   -38817 
  -38801   -38793   -38782   -38770   -38758   -38755   -38769   -38785 
  -38801   -38827   -38859   -38892   -38916   -38924   -38923   -38921 
  -38924   -38927   -38934   -38946   -38955   -38965   -38978   -38990 
  -38997   -39006   -39008   -38989   -38970   -38965   -38969   -38974 
  -38974   -38967   -38951   -38923   -38889   -38867   -38857   -38840 
  -38826   -38836   -38862   -38878   -38884   -38892   -38907   -38916 
  -38923   -38936   -38948   -38956   -38965   -38977   -39000   -39033 
  -39077   -39128   -39178   -39222   -39275   -39339   -39402   -39449 
  -39480   -39521   -39577   -39623   -39650   -39672   -39698   -39707 
  -39687   -39652   -39607   -39541   -39468   -39407   -39352   -39301 
  -39264   -39251   -39252   -39260   -39282   -39317   -39349   -39371 
  -39388   -39399   -39407   -39421   -39433   -39438   -39447   -39468 
  -39510   -39549   -39575   -39600   -39618   -39607   -39569   -39523 
  -39484   -39447   -39398   -39351   -39313   -39275   -39245   -39240 
  -39243   -39222   -39182   -39135   -39079   -39005   -38924   -38853 
  -38786   -38723   -38669   -38626   -38592   -38562   -38530   -38503 
  -38493   -38496   -38504   -38514   -38530   -38560   -38608   -38678 
  -38761   -38843   -38921   -39000   -39078   -39145   -39190   -39220 
  -39240   -39241   -39222   -39198   -39183   -39172   -39160   -39140 
  -39112   -39086   -39059   -39033   -39020   -39016   -39013   -39009 
  -39002   -38997   -38992   -38983   -38971   -38947   -38912   -38871 
  -38830   -38786   -38740   -38689   -38632   -38569   -38507   -38450 
  -38392   -38338   -38303   -38279   -38257   -38248   -38250   -38264 
  -38291   -38334   -38384   -38427   -38470   -38535   -38615   -38681 
  -38735   -38784   -38820   -38847   -38873   -38902   -38935   -38962 
  -38988   -39020   -39043   -39056   -39067   -39075   -39079   -39090 
  -39110   -39139   -39164   -39182   -39202   -39228   -39245   -39259 
  -39279   -39303   -39318   -39322   -39314   -39297   -39278   -39267 
  -39259   -39245   -39224   -39197   -39159   -39124   -39106   -39105 
  -39116   -39124   -39132   -39155   -39182   -39205   -39231   -39253 
  -39270   -39286   -39301   -39302   -39287   -39266   -39245   -39231 
  -39218   -39212   -39208   -39194   -39172   -39158   -39141   -39113 
  -39082   -39058   -39039   -39020   -38997   -38969   -38940   -38925 
  -38927   -38939   -38954   -38967   -38988   -39017   -39050   -39073 
  -39093   -39123   -39155   -39185   -39216   -39244   -39271   -39299 
  -39326   -39352   -39379   -39402   -39421   -39437   -39448   -39459 
  -39468   -39459   -39433   -39405   -39374   -39330   -39275   -39221 
  -39166   -39100   -39031   -38973   -38916   -38851   -38788   -38730 
  -38668   -38605   -38549   -38489   -38425   -38358   -38294   -38230 
  -38167   -38113   -38092   -38095   -38095   -38087   -38074   -38056 
  -38037   -38026   -38018   -38007   -37999   -38006   -38032   -38070 
  -38113   -38175   -38256   -38338   -38416   -38506   -38601   -38693 
  -38781   -38870   -38970   -39071   -39158   -39240   -39322   -39393 
  -39465   -39552   -39646   -39738   -39829   -39920   -40009   -40096 
  -40178   -40243   -40297   -40344   -40382   -40406   -40419   -40423 
  -40427   -40432   -40433   -40424   -40402   -40367   -40319   -40270 
  -40219   -40150   -40063   -39968   -39876   -39791   -39712   -39638 
  -39563   -39486   -39414   -39351   -39285   -39218   -39159   -39100 
  -39037   -38977   -38931   -38890   -38847   -38816   -38799   -38785 
  -38769   -38757   -38753   -38749   -38734   -38724   -38718   -38705 
  -38691   -38681   -38672   -38661   -38645   -38622   -38603   -38588 
  -38568   -38546   -38533   -38519   -38500   -38487   -38481   -38475 
  -38469   -38475   -38484   -38481   -38473   -38475   -38477   -38477 
  -38479   -38479   -38469   -38453   -38437   -38431   -38429   -38418 
  -38402   -38383   -38362   -38342   -38327   -38329   -38348   -38376 
  -38412   -38454   -38504   -38572   -38649   -38718   -38780   -38843 
  -38902   -38946   -38981   -39020   -39063   -39105   -39147   -39183 
  -39220   -39253   -39279   -39299   -39316   -39332   -39349   -39359 
  -39368   -39386   -39411   -39436   -39460   -39492   -39525   -39545 
  -39564   -39586   -39604   -39625   -39640   -39648   -39654   -39660 
  -39663   -39669   -39679   -39690   -39696   -39698   -39699   -39700 
  -39698   -39692   -39681   -39667   -39656   -39641   -39619   -39603 
  -39579   -39542   -39503   -39471   -39449   -39428   -39407   -39397 
  -39390   -39379   -39367   -39359   -39356   -39355   -39348   -39328 
  -39297   -39259   -39217   -39174   -39125   -39063   -38994   -38929 
  -38873   -38828   -38789   -38750   -38718   -38686   -38661   -38645 
  -38643   -38653   -38668   -38693   -38722   -38746   -38773   -38811 
  -38851   -38890   -38928   -38971   -39016   -39056   -39091   -39120 
  -39144   -39160   -39166   -39160   -39147   -39128   -39108   -39090 
  -39075   -39070   -39077   -39093   -39114   -39150   -39195   -39247 
  -39298   -39343   -39376   -39395   -39402   -39406   -39413   -39425 
  -39442   -39457   -39461   -39459   -39444   -39418   -39395   -39371 
  -39336   -39293   -39243   -39195   -39158   -39118   -39079   -39051 
  -39037   -39029   -39012   -38989   -38981   -38982   -38982   -38979 
  -38978   -38979   -38975   -38962   -38950   -38942   -38932   -38915 
  -38884   -38850   -38827   -38807   -38782   -38762   -38757   -38757 
  -38757   -38765   -38782   -38807   -38832   -38865   -38907   -38951 
  -38989   -39031   -39081   -39132   -39181   -39226   -39260   -39283 
  -39298   -39305   -39309   -39305   -39286   -39259   -39226   -39178 
  -39110   -39040   -38970   -38896   -38817   -38736   -38666   -38604 
  -38541   -38489   -38456   -38415   -38369   -38346   -38342   -38345 
  -38368   -38411   -38458   -38497   -38534   -38578   -38630   -38668 
  -38699   -38734   -38762   -38784   -38815   -38843   -38862   -38873 
  -38881   -38886   -38890   -38900   -38917   -38932   -38943   -38951 
  -38961   -38979   -39000   -39028   -39062   -39093   -39127   -39159 
  -39189   -39218   -39243   -39271   -39306   -39328   -39343   -39359 
  -39367   -39366   -39367   -39370   -39370   -39371   -39384   -39395 
  -39390   -39379   -39384   -39394   -39394   -39390   -39393   -39395 
  -39388   -39384   -39393   -39395   -39386   -39379   -39374   -39361 
  -39351   -39339   -39325   -39310   -39291   -39276   -39263   -39237 
  -39202   -39163   -39123   -39081   -39037   -38993   -38952   -38916 
  -38882   -38854   -38835   -38821   -38809   -38801   -38799   -38793 
  -38793   -38804   -38809   -38811   -38812   -38819   -38824   -38824 
  -38820   -38813   -38805   -38804   -38809   -38817   -38828   -38835 
  -38838   -38848   -38866   -38880   -38894   -38916   -38942   -38959 
  -38981   -39019   -39060   -39104   -39147   -39187   -39220   -39245 
  -39270   -39301   -39333   -39353   -39368   -39386   -39394   -39391 
  -39383   -39370   -39348   -39317   -39276   -39233   -39187   -39145 
  -39120   -39106   -39087   -39066   -39040   -39006   -38977   -38956 
  -38938   -38921   -38915   -38905   -38892   -38882   -38882   -38893 
  -38905   -38909   -38916   -38928   -38940   -38954   -38974   -38989 
  -39000   -39020   -39052   -39086   -39113   -39139   -39171   -39201 
  -39220   -39247   -39279   -39303   -39332   -39368   -39391   -39401 
  -39411   -39424   -39424   -39407   -39384   -39371   -39363   -39352 
  -39337   -39324   -39306   -39282   -39263   -39251   -39233   -39216 
  -39206   -39199   -39187   -39174   -39164   -39154   -39135   -39110 
  -39085   -39055   -39029   -39009   -38988   -38954   -38915   -38888 
  -38867   -38838   -38801   -38773   -38750   -38722   -38684   -38639 
  -38591   -38543   -38506   -38477   -38452   -38422   -38398   -38381 
  -38372   -38369   -38371   -38367   -38358   -38354   -38356   -38360 
  -38368   -38379   -38385   -38388   -38387   -38379   -38371   -38362 
  -38357   -38360   -38369   -38379   -38391   -38403   -38414   -38429 
  -38439   -38441   -38449   -38456   -38452   -38453   -38461   -38468 
  -38483   -38507   -38537   -38568   -38595   -38624   -38655   -38678 
  -38696   -38715   -38735   -38753   -38769   -38792   -38823   -38848 
  -38871   -38894   -38909   -38917   -38921   -38921   -38912   -38897 
  -38886   -38881   -38874   -38869   -38869   -38874   -38893   -38924 
  -38958   -38996   -39039   -39086   -39128   -39163   -39198   -39240 
  -39275   -39302   -39332   -39357   -39375   -39390   -39401   -39402 
  -39395   -39380   -39359   -39333   -39310   -39297   -39283   -39266 
  -39245   -39221   -39191   -39162   -39133   -39108   -39079   -39047 
  -39024   -39009   -38996   -38983   -38974   -38965   -38950   -38932 
  -38919   -38904   -38884   -38861   -38843   -38830   -38809   -38790 
  -38776   -38761   -38739   -38715   -38693   -38678   -38664   -38655 
  -38661   -38669   -38681   -38704   -38736   -38777   -38820   -38866 
  -38920   -38989   -39063   -39133   -39205   -39283   -39348   -39393 
