Origin Time       2025/01/13 21:19:00
Lat.              31.8
Long.             131.6
Depth. (km)       30
Mag.              6.9
Station Code      HRSH15
Station Lat.      34.1161
Station Long.     132.5053
Station Height(m) 180
Record Time       2025/01/13 21:20:20
Sampling Freq(Hz) 100Hz
Duration Time(s)  145
Dir.              4
Scale Factor      7845(gal)/8223790
Max. Acc. (gal)   1.714
Last Correction   2025/01/13 21:20:20
Memo.             
[...]
    1894     2259     2673     3065     3321     3343     3176     2952 
    2725     2467     2234     2115     2068     1966     1798     1665 
    1690     1863     2046     2145     2176     2197     2234     2258 
    2258     2257     2269     2285     2296     2301     2332     2390 
    2434     2420     2346     2250     2199     2216     2247     2254 
    2289     2381     2490     2635     2833     2970     2922     2783 
    2727     2758     2786     2828     2929     3025     3038     2991 
    2918     2852     2828     2844     2874     2893     2874     2801 
    2708     2625     2565     2548     2556     2555     2569     2581 
    2535     2484     2490     2523     2544     2540     2506     2511 
    2602     2740     2880     2972     2934     2785     2617     2463 
    2289     2124     2037     2010     1989     2019     2154     2374 
    2602     2749     2731     2520     2238     2053     2018     2064 
    2111     2141     2176     2226     2251     2214     2155     2146 
    2199     2281     2331     2328     2369     2508     2666     2740 
    2681     2520     2353     2246     2185     2096     1946     1836 
    1903     2151     2403     2525     2612     2816     3105     3283 
    3208     2938     2654     2485     2436     2467     2587     2785 
    2948     2945     2789     2600     2463     2463     2664     2941 
    3092     3064     2898     2664     2440     2251     2138     2155 
    2272     2357     2319     2172     2010     1953     2047     2197 
    2295     2320     2299     2272     2285     2359     2478     2604 
    2675     2660     2610     2559     2528     2587     2721     2790 
    2731     2621     2589     2664     2743     2677     2482     2335 
    2301     2320     2377     2463     2520     2548     2620     2766 
    2940     3034     2970     2790     2582     2378     2185     2049 
    2038     2143     2247     2301     2367     2497     2650     2721 
    2652     2488     2313     2185     2068     1891     1694     1618 
    1748     2052     2425     2745     2929     2980     2949     2879 
    2778     2629     2446     2285     2193     2155     2124     2058 
    1948     1856     1842     1883     1938     2031     2164     2317 
    2542     2847     3092     3119     2963     2752     2512     2276 
    2131     2060     2000     1995     2083     2235     2451     2739 
    3029     3234     3314     3258     3117     2982     2883     2785 
    2700     2693     2766     2836     2847     2810     2741     2631 
    2501     2425     2455     2520     2501     2400     2342     2382 
    2452     2506     2565     2589     2540     2447     2373     2361 
    2435     2574     2722     2835     2883     2835     2685     2492 
    2327     2219     2146     2092     2065     2074     2153     2319 
    2498     2598     2633     2660     2647     2521     2268     1998 
    1894     1949     1979     1921     1873     1900     1953     1983 
    2023     2135     2300     2461     2647     2866     2997     2948 
    2748     2523     2404     2398     2400     2338     2230     2161 
    2236     2463     2698     2756     2600     2392     2303     2304 
    2234     2058     1927     1956     2103     2315     2592     2878 
    3051     3025     2848     2702     2700     2733     2616     2299 
    1972     1895     2088     2342     2509     2674     2968     3365 
    3667     3724     3580     3342     2988     2528     2099     1823 
    1764     1891     2047     2177     2320     2396     2320     2219 
    2215     2241     2211     2157     2157     2289     2552     2794 
    2828     2637     2401     2289     2285     2295     2308     2376 
    2494     2598     2592     2481     2376     2353     2431     2593 
    2782     2941     3060     3133     3088     2928     2793     2745 
    2704     2640     2629     2641     2556     2400     2305     2285 
    2247     2176     2146     2246     2520     2859     3078     3164 
    3203     3184     3092     2975     2860     2766     2710     2681 
    2686     2754     2803     2752     2682     2683     2670     2567 
    2492     2587     2852     3157     3369     3418     3279     2975 
    2612     2328     2212     2269     2415     2532     2637     2808 
    2932     2849     2632     2457     2392     2394     2403     2363 
    2262     2149     2130     2293     2627     2952     3019     2705 
    2119     1536     1170     1067     1202     1567     2089     2597 
    2909     2959     2820     2592     2343     2205     2338     2667 
    2917     2961     2862     2646     2389     2274     2347     2455 
    2497     2450     2304     2112     1965     1898     1922     2041 
    2230     2447     2675     2932     3217     3431     3431     3208 
    2920     2714     2623     2587     2574     2590     2650     2751 
    2853     2914     2956     3001     3010     2895     2623     2336 
    2174     2089     2018     2046     2278     2660     2975     3046 
    2898     2662     2443     2288     2214     2177     2111     2041 
    2062     2223     2470     2681     2803     2909     2990     2943 
    2728     2424     2126     1846     1570     1368     1360     1541 
    1771     1898     1922     1983     2178     2479     2798     3053 
    3169     3137     3006     2812     2569     2282     2012     1934 
    2143     2500     2835     3092     3221     3129     2822     2448 
    2174     2134     2393     2820     3156     3206     2990     2764 
    2786     3009     3180     3175     3094     3045     2956     2694 
    2290     1962     1946     2218     2496     2602     2579     2511 
    2382     2223     2187     2330     2512     2646     2755     2835 
    2859     2832     2781     2763     2774     2660     2363     2070 
    1941     1915     1861     1804     1904     2184     2454     2543 
    2470     2382     2367     2338     2172     1900     1667     1560 
    1548     1586     1638     1632     1539     1432     1422     1549 
    1771     1991     2095     2045     1923     1853     1935     2150 
    2357     2442     2415     2359     2328     2288     2162     1962 
    1837     1860     1922     1919     1908     2027     2324     2681 
    2997     3277     3480     3495     3323     3069     2822     2685 
    2735     2909     3084     3157     3041     2781     2540     2421 
    2396     2350     2234     2122     2077     2080     2070     2015 
    1929     1830     1718     1633     1665     1813     1981     2123 
    2241     2289     2236     2145     2092     2030     1881     1696 
    1587     1622     1814     2104     2388     2614     2778     2829 
    2720     2498     2254     2042     1912     1939     2095     2242 
    2330     2424     2535     2594     2624     2751     2999     3198 
    3167     2955     2776     2728     2770     2920     3179     3446 
    3636     3746     3766     3692     3626     3634     3580     3327 
    3015     2890     2953     2965     2789     2608     2671     2961 
    3318     3651     3905     4009     3879     3519     3091     2778 
    2592     2482     2505     2682     2843     2825     2675     2566 
    2639     2880     3142     3350     3530     3609     3478     3225 
    3021     2948     2986     3003     2878     2687     2565     2508 
    2511     2589     2700     2759     2718     2569     2354     2168 
    2058     2035     2135     2344     2538     2586     2439     2176 
    1946     1776     1578     1370     1259     1233     1212     1206 
    1287     1480     1749     2011     2241     2506     2813     3003 
    2944     2683     2371     2155     2097     2149     2227     2249 
    2150     2003     1950     1991     1985     1867     1729     1755 
    2045     2509     2940     3188     3219     3067     2785     2450 
    2176     2008     1894     1777     1675     1642     1713     1891 
    2203     2619     2987     3171     3175     3069     2887     2659 
    2524     2579     2735     2863     2938     2978     2987     2988 
    2998     2980     2871     2660     2459     2382     2409     2434 
    2415     2371     2342     2376     2474     2496     2334     2100 
    1935     1885     1992     2214     2408     2500     2481     2340 
    2112     1891     1763     1733     1773     1873     2056     2288 
    2470     2569     2670     2830     3005     3095     3095     3075 
    3003     2752     2284     1777     1486     1471     1580     1652 
    1636     1617     1679     1737     1718     1719     1788     1829 
    1777     1625     1366     1140     1166     1418     1647     1719 
    1671     1570     1512     1525     1516     1509     1661     1980 
    2315     2573     2695     2643     2506     2444     2509     2694 
    2986     3284     3446     3473     3461     3388     3191     2968 
    2889     2987     3153     3244     3203     3129     3165     3269 
    3285     3233     3240     3272     3238     3167     3123     3130 
    3150     3092     2917     2751     2745     2816     2747     2558 
    2473     2596     2833     3060     3258     3445     3551     3526 
    3487     3570     3732     3832     3773     3557     3271     2995 
    2830     2897     3176     3496     3699     3739     3669     3553 
    3427     3322     3240     3118     2898     2632     2443     2378 
    2419     2540     2725     2975     3230     3357     3300     3145 
    2976     2809     2695     2717     2809     2813     2663     2443 
    2305     2299     2299     2187     2012     1941     1999     2064 
    2066     2034     2019     2018     1983     1934     1926     1939 
    1910     1846     1819     1830     1822     1772     1715     1719 
    1804     1921     2035     2154     2276     2384     2430     2408 
    2392     2419     2421     2361     2313     2358     2524     2790 
    3055     3219     3295     3312     3271     3180     3086     2971 
    2806     2631     2511     2496     2610     2828     3079     3287 
    3365     3308     3165     2955     2697     2462     2350     2432 
    2678     2913     2957     2808     2646     2621     2694     2737 
    2693     2589     2452     2295     2149     2053     2034     2126 
    2303     2455     2540     2659     2860     3017     2982     2755 
    2457     2193     1980     1800     1709     1786     2038     2350 
    2512     2474     2435     2511     2605     2670     2774     2925 
    3045     3073     3029     2982     2936     2849     2736     2602 
    2416     2199     1999     1825     1653     1526     1526     1598 
    1613     1591     1636     1717     1723     1667     1638     1640 
    1626     1598     1579     1595     1680     1818     1954     2042 
    2027     1861     1595     1401     1368     1420     1467     1541 
    1728     2035     2376     2612     2652     2571     2533     2566 
    2617     2729     2928     3110     3183     3226     3354     3503 
    3542     3511     3527     3604     3655     3626     3553     3503 
    3503     3491     3396     3265     3194     3164     3113     3080 
    3136     3258     3362     3406     3411     3388     3273     3013 
    2671     2389     2226     2115     2000     1939     2000     2091 
    2058     1941     1942     2146     2386     2470     2401     2323 
    2296     2241     2138     2115     2258     2458     2538     2502 
    2479     2469     2331     1987     1556     1298     1359     1610 
    1844     1992     2110     2243     2403     2593     2794     2929 
    2913     2801     2767     2859     2911     2790     2559     2389 
    2369     2459     2579     2666     2710     2721     2667     2539 
    2385     2255     2192     2185     2134     1977     1796     1669 
    1590     1557     1544     1479     1340     1161     1020      990 
    1053     1146     1267     1421     1547     1568     1485     1350 
    1227     1185     1283     1475     1669     1853     2031     2150 
    2134     2034     2011     2092     2178     2270     2432     2637 
    2862     3111     3323     3439     3503     3546     3534     3431 
    3248     3053     2941     2960     3084     3268     3470     3655 
    3770     3759     3622     3412     3169     2930     2737     2601 
    2502     2435     2397     2390     2425     2496     2551     2570 
    2602     2685     2812     2980     3165     3304     3372     3368 
    3318     3276     3280     3280     3214     3083     2937     2835 
    2809     2839     2866     2856     2802     2698     2559     2434 
    2374     2400     2509     2683     2880     3051     3163     3238 
    3310     3329     3196     2901     2546     2199     1872     1632 
    1576     1705     1948     2231     2469     2616     2714     2785 
    2820     2876     2991     3084     3086     3034     2971     2843 
    2636     2473     2454     2516     2528     2423     2220     1993 
    1810     1668     1537     1460     1525     1733     2033     2386 
    2721     2955     3080     3107     3024     2821     2506     2155 
    1917     1875     1968     2088     2239     2467     2740     2984 
    3153     3267     3392     3541     3677     3774     3804     3777 
    3771     3844     3917     3878     3720     3518     3308     3090 
    2868     2655     2419     2164     1957     1818     1690     1560 
    1478     1476     1545     1622     1628     1582     1588     1626 
    1552     1356     1159     1055     1063     1093     1031      911 
     846      824      769      697      722      895     1123     1290 
    1383     1453     1518     1591     1713     1922     2199     2473 
    2679     2821     2928     2983     2972     2948     2968     3042 
    3136     3231     3370     3597     3855     4010     4013     3966 
    3947     3898     3748     3535     3353     3235     3163     3103 
    3018     2933     2895     2887     2871     2863     2860     2790 
    2612     2423     2351     2420     2555     2671     2756     2830 
    2893     2967     3069     3160     3191     3167     3136     3153 
    3248     3341     3314     3188     3071     2976     2841     2652 
    2482     2376     2257     2083     1899     1742     1625     1576 
    1611     1694     1733     1695     1645     1648     1695     1725 
    1713     1692     1691     1692     1672     1659     1702     1800 
    1910     2003     2118     2295     2498     2643     2652     2529 
    2371     2238     2108     1976     1903     1933     2029     2130 
    2201     2265     2376     2511     2556     2457     2290     2185 
    2161     2137     2120     2208     2400     2594     2760     2929 
    3075     3146     3119     2964     2739     2570     2496     2484 
    2529     2614     2721     2847     2967     3057     3133     3217 
    3292     3337     3327     3237     3079     2943     2913     3011 
    3206     3415     3559     3622     3624     3627     3663     3690 
    3677     3615     3496     3365     3312     3350     3402     3383 
    3285     3173     3119     3105     3048     2910     2741     2625 
    2619     2720     2848     2909     2887     2812     2710     2623 
    2570     2542     2505     2446     2408     2470     2610     2710 
    2693     2574     2419     2259     2092     1938     1842     1833 
    1872     1888     1868     1863     1863     1811     1710     1601 
    1517     1482     1472     1440     1370     1286     1246     1325 
    1498     1634     1661     1618     1602     1649     1679     1603 
    1491     1512     1694     1907     2064     2165     2243     2334 
    2444     2550     2605     2582     2502     2420     2369     2346 
    2347     2370     2407     2459     2506     2528     2493     2370 
    2181     2008     1910     1906     2000     2151     2274     2299 
    2211     2053     1900     1821     1798     1756     1680     1637 
    1698     1890     2133     2320     2466     2648     2856     3013 
    3078     3071     3044     3041     3046     3028     3029     3107 
    3207     3223     3161     3115     3127     3179     3265     3402 
    3543     3596     3523     3385     3258     3176     3129     3105 
    3088     3063     3010     2909     2748     2548     2335     2119 
    1925     1787     1698     1634     1586     1566     1587     1636 
    1698     1776     1849     1884     1891     1894     1894     1875 
    1840     1838     1895     1983     2084     2180     2236     2263 
    2308     2370     2463     2647     2909     3160     3352     3477 
    3541     3565     3601     3688     3777     3800     3759     3678 
    3528     3327     3159     3072     3044     3032     3013     2961 
    2860     2713     2540     2369     2239     2185     2169     2131 
    2077     2084     2199     2374     2527     2610     2640     2662 
    2678     2673     2656     2664     2706     2743     2745     2743 
    2763     2783     2770     2758     2812     2913     2972     2960 
    2933     2925     2903     2837     2754     2700     2675     2623 
    2523     2436     2376     2270     2119     1987     1894     1784 
    1628     1471     1378     1347     1306     1244     1251     1379 
    1560     1701     1788     1853     1900     1914     1914     1921 
    1923     1945     2038     2187     2322     2419     2524     2670 
    2820     2906     2920     2924     2980     3067     3091     3009 
    2883     2797     2751     2695     2592     2427     2241     2096 
    2018     1993     1993     1992     1996     2022     2053     2072 
    2099     2161     2234     2250     2165     2037     1998     2096 
    2257     2386     2447     2473     2521     2592     2640     2675 
    2732     2810     2855     2820     2712     2594     2577     2686 
    2828     2903     2903     2883     2895     2918     2909     2889 
    2911     2984     3057     3072     3028     2980     2961     2972 
    2998     2984     2898     2791     2713     2629     2470     2235 
    2018     1892     1834     1807     1819     1869     1942     2027 
    2130     2250     2366     2432     2428     2408     2438     2529 
    2656     2803     2937     3006     3007     2991     2988     2997 
    2980     2882     2722     2612     2616     2706     2824     2933 
    3046     3196     3379     3530     3604     3605     3564     3487 
    3357     3161     2911     2650     2432     2290     2207     2165 
    2168     2192     2205     2211     2227     2263     2319     2381 
    2425     2446     2473     2517     2547     2535     2492     2419 
    2326     2224     2114     1988     1873     1799     1760     1719 
    1665     1615     1593     1617     1703     1822     1891     1844 
    1707     1540     1383     1258     1177     1146     1159     1215 
    1309     1429     1545     1634     1694     1734     1777     1826 
    1881     1966     2092     2227     2331     2401     2462     2512 
    2520     2474     2417     2403     2454     2566     2708     2844 
    2938     2968     2941     2887     2833     2808     2826     2851 
    2810     2718     2650     2616     2565     2484     2416     2369 
    2316     2261     2246     2273     2317     2385     2492     2613 
    2721     2806     2852     2863     2866     2864     2837     2786 
    2740     2733     2766     2826     2917     3034     3144     3244 
