Origin Time       2025/01/13 21:19:00
Lat.              31.8
Long.             131.6
Depth. (km)       30
Mag.              6.9
Station Code      HRSH09
Station Lat.      34.7016
Station Long.     132.9524
Station Height(m) 350
Record Time       2025/01/13 21:20:28
Sampling Freq(Hz) 100Hz
Duration Time(s)  144
Dir.              5
Scale Factor      7845(gal)/8223790
Max. Acc. (gal)   0.887
Last Correction   2025/01/13 21:20:29
Memo.             
[...]
   -6596    -6561    -6588    -6686    -6772    -6795    -6745    -6598 
   -6419    -6362    -6504    -6675    -6633    -6426    -6293    -6378 
   -6628    -6825    -6820    -6713    -6669    -6706    -6756    -6785 
   -6750    -6620    -6504    -6550    -6710    -6809    -6768    -6655 
   -6592    -6637    -6723    -6764    -6824    -6970    -7140    -7215 
   -7155    -7033    -6953    -6952    -7022    -7091    -7056    -6947 
   -6898    -6988    -7157    -7240    -7133    -6905    -6708    -6673 
   -6756    -6798    -6758    -6714    -6759    -6926    -7111    -7159 
   -7065    -6960    -6936    -6955    -6948    -6901    -6814    -6760 
   -6841    -6968    -6951    -6793    -6681    -6721    -6878    -7055 
   -7129    -7032    -6863    -6768    -6805    -6910    -6967    -6934 
   -6866    -6799    -6783    -6836    -6890    -6898    -6891    -6910 
   -6952    -6961    -6879    -6718    -6600    -6655    -6856    -7018 
   -7007    -6852    -6700    -6698    -6870    -7069    -7119    -7021 
   -6889    -6779    -6724    -6723    -6716    -6686    -6720    -6855 
   -6975    -6990    -6961    -6979    -6993    -6913    -6795    -6801 
   -6925    -7014    -7033    -7055    -7055    -6957    -6826    -6832 
   -6953    -6982    -6866    -6736    -6710    -6794    -6909    -6971 
   -6951    -6875    -6799    -6741    -6709    -6729    -6785    -6822 
   -6822    -6817    -6859    -6941    -6974    -6921    -6840    -6810 
   -6864    -6949    -7015    -7064    -7045    -6926    -6802    -6785 
   -6867    -6922    -6875    -6801    -6787    -6794    -6783    -6816 
   -6905    -6971    -6990    -7029    -7129    -7233    -7248    -7168 
   -7059    -6961    -6922    -6975    -7083    -7152    -7099    -6956 
   -6845    -6836    -6868    -6856    -6802    -6763    -6733    -6682 
   -6619    -6559    -6512    -6489    -6480    -6498    -6605    -6777 
   -6894    -6912    -6883    -6824    -6685    -6552    -6613    -6844 
   -6990    -6936    -6814    -6752    -6720    -6663    -6652    -6745 
   -6836    -6808    -6708    -6640    -6623    -6621    -6627    -6656 
   -6687    -6704    -6729    -6774    -6791    -6758    -6720    -6733 
   -6767    -6756    -6693    -6617    -6555    -6512    -6505    -6556 
   -6632    -6642    -6567    -6502    -6490    -6501    -6534    -6556 
   -6517    -6458    -6458    -6507    -6524    -6480    -6436    -6421 
   -6396    -6397    -6461    -6509    -6492    -6470    -6477    -6444 
   -6338    -6247    -6257    -6330    -6390    -6408    -6403    -6388 
   -6369    -6390    -6455    -6473    -6405    -6295    -6203    -6145 
   -6077    -6008    -6026    -6145    -6247    -6224    -6114    -6023 
   -5965    -5930    -5994    -6188    -6380    -6403    -6270    -6142 
   -6115    -6161    -6230    -6288    -6312    -6303    -6273    -6223 
   -6161    -6124    -6141    -6183    -6200    -6180    -6146    -6096 
   -6011    -5949    -5977    -6035    -6031    -6003    -6031    -6097 
   -6133    -6122    -6087    -6066    -6064    -6033    -5980    -5961 
   -5961    -5941    -5925    -5962    -6022    -6021    -5958    -5910 
   -5900    -5887    -5857    -5884    -5985    -6064    -6066    -6060 
   -6107    -6150    -6122    -6043    -5976    -5944    -5962    -6037 
   -6129    -6215    -6265    -6223    -6149    -6176    -6285    -6345 
   -6323    -6297    -6308    -6309    -6280    -6277    -6316    -6313 
   -6238    -6149    -6112    -6157    -6257    -6334    -6345    -6342 
   -6372    -6381    -6369    -6404    -6505    -6623    -6729    -6829 
   -6886    -6875    -6836    -6824    -6876    -7011    -7167    -7254 
   -7253    -7218    -7221    -7283    -7353    -7357    -7294    -7219 
   -7163    -7138    -7165    -7204    -7202    -7145    -7060    -6998 
   -6980    -6991    -7010    -7010    -6994    -6987    -6984    -6982 
   -6998    -7051    -7148    -7244    -7269    -7222    -7163    -7136 
   -7114    -7087    -7091    -7096    -7041    -6978    -7003    -7086 
   -7149    -7229    -7335    -7365    -7287    -7209    -7222    -7322 
   -7411    -7404    -7335    -7298    -7321    -7345    -7319    -7254 
   -7160    -7040    -6941    -6921    -6960    -6961    -6876    -6782 
   -6791    -6916    -7042    -7092    -7098    -7101    -7118    -7149 
   -7183    -7191    -7149    -7061    -6948    -6845    -6794    -6797 
   -6833    -6887    -6916    -6902    -6882    -6880    -6901    -6949 
   -6998    -6995    -6952    -6951    -7045    -7159    -7168    -7090 
   -7032    -7034    -7059    -7068    -7059    -7063    -7113    -7200 
   -7264    -7237    -7119    -6960    -6833    -6806    -6864    -6922 
   -6909    -6839    -6801    -6833    -6879    -6876    -6825    -6755 
   -6700    -6678    -6700    -6737    -6740    -6694    -6652    -6642 
   -6650    -6685    -6774    -6897    -6986    -7005    -6987    -6976 
   -6972    -6944    -6863    -6771    -6763    -6862    -6986    -7056 
   -7082    -7088    -7068    -7037    -7026    -7036    -7020    -6960 
   -6913    -6934    -7001    -7020    -6944    -6843    -6825    -6883 
   -6913    -6894    -6880    -6872    -6856    -6863    -6901    -6921 
   -6889    -6859    -6883    -6910    -6921    -6953    -6970    -6924 
   -6876    -6889    -6926    -6939    -6945    -7006    -7094    -7115 
   -7119    -7200    -7290    -7281    -7221    -7223    -7298    -7350 
   -7323    -7249    -7156    -7072    -7056    -7110    -7149    -7075 
   -6894    -6747    -6772    -6920    -6998    -6925    -6817    -6790 
   -6806    -6805    -6798    -6754    -6624    -6509    -6509    -6589 
   -6655    -6644    -6567    -6505    -6509    -6515    -6427    -6269 
   -6188    -6234    -6312    -6376    -6432    -6435    -6345    -6227 
   -6166    -6197    -6286    -6374    -6436    -6473    -6466    -6420 
   -6372    -6326    -6270    -6214    -6173    -6161    -6172    -6165 
   -6115    -6048    -5994    -5964    -5960    -5984    -6003    -5987 
   -5980    -6026    -6093    -6143    -6172    -6187    -6192    -6166 
   -6100    -6030    -6004    -6048    -6134    -6211    -6261    -6300 
   -6330    -6339    -6357    -6434    -6529    -6554    -6513    -6502 
   -6573    -6664    -6697    -6677    -6662    -6678    -6708    -6737 
   -6771    -6825    -6885    -6898    -6870    -6880    -6951    -7018 
   -7068    -7119    -7155    -7144    -7114    -7105    -7088    -7036 
   -6968    -6913    -6867    -6836    -6831    -6837    -6802    -6727 
   -6675    -6687    -6744    -6797    -6787    -6698    -6555    -6432 
   -6404    -6446    -6463    -6407    -6316    -6300    -6399    -6515 
   -6563    -6573    -6593    -6613    -6624    -6647    -6709    -6762 
   -6747    -6702    -6700    -6756    -6848    -6943    -7003    -6995 
   -6917    -6849    -6833    -6810    -6768    -6727    -6658    -6552 
   -6470    -6469    -6507    -6500    -6442    -6400    -6415    -6462 
   -6494    -6520    -6565    -6627    -6673    -6687    -6689    -6704 
   -6740    -6779    -6801    -6802    -6789    -6786    -6814    -6851 
   -6862    -6868    -6926    -7041    -7148    -7186    -7171    -7159 
   -7210    -7339    -7481    -7561    -7577    -7560    -7528    -7493 
   -7438    -7357    -7276    -7217    -7195    -7200    -7200    -7191 
   -7214    -7276    -7334    -7346    -7299    -7237    -7236    -7303 
   -7369    -7357    -7269    -7183    -7163    -7184    -7190    -7190 
   -7207    -7198    -7150    -7146    -7186    -7167    -7067    -7010 
   -7057    -7092    -7033    -6970    -6964    -6945    -6852    -6721 
   -6616    -6556    -6534    -6529    -6565    -6647    -6706    -6664 
   -6585    -6581    -6635    -6667    -6679    -6686    -6666    -6609 
   -6577    -6593    -6608    -6597    -6589    -6606    -6637    -6670 
   -6696    -6675    -6602    -6554    -6578    -6633    -6662    -6637 
   -6573    -6496    -6465    -6507    -6578    -6627    -6621    -6550 
   -6467    -6421    -6396    -6372    -6359    -6390    -6451    -6471 
   -6421    -6366    -6380    -6448    -6528    -6597    -6632    -6637 
   -6654    -6690    -6721    -6731    -6717    -6696    -6704    -6750 
   -6771    -6706    -6593    -6527    -6536    -6547    -6500    -6434 
   -6408    -6415    -6428    -6440    -6447    -6435    -6394    -6335 
   -6286    -6262    -6239    -6199    -6158    -6162    -6227    -6304 
   -6351    -6372    -6366    -6327    -6295    -6335    -6444    -6547 
   -6594    -6625    -6683    -6748    -6791    -6802    -6790    -6787 
   -6831    -6902    -6974    -7042    -7088    -7053    -6944    -6844 
   -6798    -6772    -6752    -6752    -6756    -6725    -6667    -6623 
   -6610    -6623    -6639    -6633    -6586    -6489    -6370    -6278 
   -6239    -6242    -6251    -6237    -6226    -6246    -6270    -6282 
   -6307    -6361    -6427    -6489    -6556    -6632    -6702    -6747 
   -6758    -6751    -6760    -6768    -6725    -6654    -6628    -6667 
   -6716    -6700    -6628    -6579    -6566    -6554    -6558    -6617 
   -6702    -6744    -6732    -6712    -6691    -6651    -6600    -6596 
   -6663    -6754    -6813    -6833    -6839    -6856    -6875    -6875 
   -6901    -6991    -7086    -7111    -7103    -7136    -7196    -7250 
   -7310    -7383    -7441    -7452    -7408    -7334    -7261    -7219 
   -7211    -7211    -7215    -7230    -7257    -7273    -7269    -7256 
   -7240    -7213    -7184    -7168    -7153    -7118    -7059    -6988 
   -6933    -6910    -6929    -6975    -7003    -6999    -6979    -6943 
   -6887    -6814    -6735    -6660    -6608    -6596    -6642    -6727 
   -6814    -6867    -6890    -6916    -6952    -6959    -6928    -6880 
   -6836    -6797    -6762    -6751    -6774    -6790    -6775    -6758 
   -6771    -6795    -6793    -6772    -6764    -6767    -6767    -6762 
   -6754    -6727    -6654    -6563    -6519    -6532    -6561    -6585 
   -6623    -6662    -6683    -6716    -6768    -6828    -6894    -6960 
   -7018    -7074    -7117    -7129    -7095    -7042    -7013    -7010 
   -7032    -7068    -7092    -7096    -7118    -7163    -7200    -7252 
   -7341    -7408    -7407    -7380    -7352    -7295    -7223    -7182 
   -7175    -7176    -7168    -7140    -7090    -7029    -6983    -6964 
   -6943    -6899    -6859    -6856    -6874    -6866    -6840    -6832 
   -6829    -6804    -6764    -6755    -6777    -6772    -6727    -6701 
   -6714    -6696    -6609    -6497    -6412    -6354    -6297    -6249 
   -6226    -6215    -6207    -6207    -6215    -6235    -6245    -6224 
   -6192    -6177    -6170    -6145    -6092    -6037    -6006    -5987 
   -5961    -5934    -5941    -5981    -6023    -6065    -6120    -6168 
   -6187    -6192    -6191    -6185    -6174    -6170    -6183    -6205 
   -6226    -6237    -6245    -6276    -6349    -6431    -6486    -6517 
   -6546    -6588    -6650    -6735    -6820    -6891    -6943    -6960 
   -6947    -6914    -6871    -6832    -6817    -6824    -6817    -6783 
   -6737    -6678    -6601    -6527    -6467    -6420    -6376    -6331 
   -6299    -6289    -6308    -6347    -6394    -6428    -6440    -6448 
   -6474    -6519    -6565    -6604    -6628    -6632    -6620    -6609 
   -6606    -6600    -6558    -6492    -6467    -6532    -6643    -6720 
   -6741    -6716    -6642    -6567    -6551    -6571    -6573    -6567 
   -6600    -6662    -6708    -6727    -6739    -6732    -6696    -6652 
   -6629    -6612    -6590    -6571    -6556    -6548    -6546    -6546 
   -6540    -6546    -6578    -6600    -6582    -6577    -6636    -6727 
   -6783    -6804    -6817    -6797    -6708    -6602    -6556    -6544 
   -6504    -6457    -6443    -6444    -6416    -6369    -6346    -6365 
   -6408    -6444    -6473    -6494    -6490    -6458    -6436    -6462 
   -6519    -6569    -6601    -6637    -6687    -6727    -6735    -6739 
   -6763    -6817    -6867    -6874    -6855    -6858    -6876    -6912 
   -6978    -7056    -7113    -7150    -7176    -7157    -7067    -6939 
   -6840    -6791    -6767    -6750    -6714    -6623    -6500    -6419 
   -6415    -6448    -6473    -6482    -6502    -6556    -6647    -6733 
   -6766    -6763    -6768    -6783    -6787    -6794    -6810    -6812 
   -6801    -6832    -6917    -6997    -7010    -6983    -6979    -7007 
   -7037    -7049    -7045    -7036    -7015    -6991    -6982    -6984 
   -6994    -7006    -7025    -7056    -7067    -7011    -6902    -6801 
   -6760    -6751    -6721    -6690    -6687    -6690    -6690    -6718 
   -6777    -6824    -6852    -6874    -6883    -6870    -6845    -6860 
   -6933    -7014    -7071    -7110    -7144    -7188    -7268    -7369 
   -7449    -7489    -7496    -7479    -7447    -7411    -7369    -7306 
   -7215    -7122    -7060    -7026    -6994    -6943    -6891    -6862 
   -6849    -6847    -6851    -6849    -6836    -6813    -6794    -6795 
   -6817    -6848    -6878    -6883    -6855    -6810    -6764    -6700 
   -6633    -6605    -6606    -6601    -6593    -6604    -6633    -6686 
   -6758    -6806    -6804    -6783    -6793    -6833    -6862    -6853 
   -6829    -6812    -6805    -6817    -6856    -6917    -6972    -6982 
   -6940    -6886    -6874    -6918    -7003    -7099    -7169    -7196 
   -7207    -7237    -7292    -7357    -7415    -7438    -7404    -7335 
   -7277    -7237    -7188    -7125    -7060    -6994    -6932    -6895 
   -6878    -6848    -6814    -6801    -6802    -6793    -6772    -6748 
   -6704    -6624    -6515    -6393    -6289    -6220    -6168    -6107 
   -6037    -5969    -5903    -5834    -5791    -5786    -5787    -5788 
   -5807    -5834    -5848    -5854    -5869    -5887    -5904    -5940 
   -6000    -6041    -6029    -6011    -6050    -6119    -6156    -6161 
   -6185    -6247    -6319    -6380    -6417    -6417    -6399    -6412 
   -6463    -6515    -6538    -6525    -6489    -6458    -6459    -6465 
   -6423    -6345    -6285    -6269    -6274    -6274    -6249    -6207 
   -6181    -6187    -6196    -6195    -6197    -6200    -6185    -6154 
   -6126    -6116    -6131    -6169    -6205    -6231    -6265    -6320 
   -6400    -6502    -6609    -6702    -6785    -6863    -6944    -7025 
   -7103    -7186    -7264    -7323    -7371    -7415    -7442    -7449 
   -7465    -7499    -7527    -7528    -7515    -7497    -7474    -7454 
   -7457    -7473    -7483    -7470    -7447    -7437    -7466    -7518 
   -7547    -7542    -7531    -7527    -7516    -7499    -7483    -7443 
   -7372    -7306    -7277    -7263    -7223    -7165    -7121    -7090 
   -7051    -7010    -6978    -6924    -6833    -6731    -6650    -6610 
   -6609    -6605    -6556    -6474    -6408    -6376    -6362    -6363 
   -6386    -6421    -6443    -6443    -6457    -6509    -6569    -6579 
   -6562    -6579    -6636    -6682    -6686    -6651    -6586    -6508 
   -6435    -6381    -6339    -6292    -6226    -6141    -6072    -6054 
   -6075    -6091    -6080    -6072    -6100    -6149    -6192    -6222 
   -6245    -6266    -6282    -6300    -6319    -6316    -6296    -6296 
   -6330    -6386    -6448    -6509    -6569    -6619    -6651    -6687 
   -6750    -6821    -6872    -6898    -6917    -6933    -6936    -6941 
   -6953    -6941    -6897    -6836    -6766    -6686    -6600    -6520 
   -6471    -6447    -6438    -6435    -6412    -6366    -6339    -6351 
   -6386    -6438    -6511    -6593    -6655    -6690    -6720    -6747 
   -6766    -6783    -6817    -6882    -6964    -7014    -7015    -7018 
   -7053    -7088    -7109    -7146    -7191    -7222    -7246    -7263 
   -7238    -7176    -7118    -7095    -7107    -7153    -7214    -7246 
   -7240    -7213    -7171    -7105    -7015    -6929    -6852    -6777 
   -6702    -6637    -6593    -6570    -6556    -6540    -6511    -6466 
   -6420    -6404    -6415    -6421    -6417    -6430    -6470    -6519 
   -6563    -6610    -6648    -6656    -6651    -6663    -6704    -6763 
   -6813    -6847    -6878    -6901    -6907    -6886    -6843    -6808 
   -6805    -6839    -6897    -6944    -6956    -6953    -6976    -7033 
   -7103    -7150    -7182    -7218    -7263    -7314    -7361    -7387 
   -7396    -7399    -7392    -7375    -7338    -7284    -7213    -7129 
   -7053    -7010    -6990    -6960    -6899    -6801    -6686    -6597 
   -6559    -6551    -6535    -6500    -6461    -6447    -6478    -6540 
   -6593    -6610    -6608    -6608    -6608    -6609    -6600    -6561 
   -6508    -6474    -6466    -6475    -6484    -6471    -6446    -6424 
   -6419    -6426    -6438    -6444    -6448    -6455    -6465    -6488 
   -6516    -6520    -6504    -6517    -6566    -6604    -6605    -6582 
   -6561    -6565    -6586    -6597    -6586    -6555    -6515    -6497 
   -6531    -6586    -6612    -6609    -6606    -6621    -6640    -6647 
   -6644    -6646    -6650    -6656    -6656    -6648    -6650    -6662 
   -6662    -6640    -6629    -6644    -6662    -6678    -6710    -6743 
   -6744    -6725    -6729    -6775    -6839    -6893    -6928    -6948 
   -6967    -6976    -6960    -6937    -6932    -6952    -6986    -7010 
   -7010    -7002    -6998    -7014    -7069    -7137    -7173    -7169 
   -7136    -7103    -7088    -7083    -7076    -7055    -7003    -6939 
   -6876    -6816    -6756    -6718    -6704    -6696    -6694    -6710 
   -6732    -6748    -6772    -6804    -6820    -6812    -6787    -6774 
   -6782    -6787    -6759    -6713    -6693    -6691    -6677    -6643 
   -6615    -6601    -6593    -6583    -6571    -6573    -6575    -6563 
   -6554    -6567    -6605    -6651    -6678    -6689    -6694    -6689 
   -6656    -6609    -6589    -6604    -6625    -6628    -6613    -6616 
   -6652    -6698    -6725    -6737    -6747    -6754    -6756    -6755 
   -6763    -6789    -6831    -6893    -6956    -6987    -6984    -6964 
   -6937    -6928    -6951    -6994    -7025    -7028    -7003    -6964 
   -6920    -6876    -6855    -6880    -6939    -6975    -6979    -6970 
   -6963    -6966    -6980    -7009    -7037    -7053    -7042    -7009 
   -6982    -6967    -6944    -6905    -6852    -6795    -6739    -6689 
   -6666    -6675    -6678    -6654    -6621    -6598    -6594    -6608 
   -6625    -6637    -6633    -6601    -6563    -6539    -6523    -6500 
   -6471    -6451    -6450    -6462    -6481    -6498    -6498    -6486 
   -6478    -6474    -6475    -6466    -6434    -6400    -6382    -6380 
   -6393    -6407    -6404    -6397    -6396    -6390    -6385    -6385 
   -6394    -6397    -6382    -6372    -6382    -6401    -6428    -6467 
   -6498    -6508    -6513    -6532    -6562    -6594    -6620    -6619 
   -6597    -6585    -6605    -6640    -6673    -6702    -6729    -6756 
   -6797    -6845    -6887    -6916    -6943    -6976    -7007    -7025 
   -7040    -7063    -7088    -7106    -7105    -7079    -7042    -7022 
   -7010    -6990    -6949    -6890    -6840    -6810    -6789    -6771 
   -6760    -6754    -6747    -6725    -6689    -6659    -6650    -6650 
   -6654    -6654    -6631    -6594    -6585    -6608    -6633    -6647 
   -6652    -6646    -6624    -6598    -6588    -6583    -6571    -6555 
   -6544    -6535    -6524    -6512    -6519    -6552    -6582    -6585 
   -6573    -6570    -6581    -6586    -6588    -6608    -6652    -6700 
   -6737    -6771    -6799    -6818    -6831    -6825    -6804    -6766 
   -6720    -6687    -6673    -6667    -6660    -6648    -6637    -6642 
