Origin Time       2025/01/13 21:19:00
Lat.              31.8
Long.             131.6
Depth. (km)       30
Mag.              6.9
Station Code      HRSH05
Station Lat.      34.5566
Station Long.     133.4179
Station Height(m) -180
Record Time       2025/01/13 21:21:15
Sampling Freq(Hz) 100Hz
Duration Time(s)  120
Dir.              3
Scale Factor      2942(gal)/8224139
Max. Acc. (gal)   0.589
Last Correction   2025/01/13 21:21:16
Memo.             
[...]
   32873    32856    32864    32906    32961    33010    33039    33061 
   33089    33115    33112    33083    33062    33050    33025    32995 
   32973    32954    32946    32957    32967    32958    32948    32953 
   32957    32948    32931    32910    32894    32900    32914    32925 
   32935    32927    32913    32918    32941    32972    33006    33033 
   33053    33061    33057    33069    33107    33143    33172    33184 
   33188    33216    33239    33222    33211    33222    33208    33174 
   33168    33189    33205    33195    33168    33134    33102    33068 
   33034    33011    33006    33015    33030    33045    33057    33066 
   33076    33092    33106    33110    33120    33138    33138    33120 
   33115    33127    33119    33058    32996    32987    32999    32987 
   32942    32896    32877    32868    32860    32872    32899    32922 
   32934    32926    32906    32904    32938    32979    33018    33075 
   33138    33183    33197    33177    33143    33126    33129    33141 
   33153    33165    33178    33188    33184    33162    33142    33138 
   33145    33157    33188    33214    33205    33174    33153    33143 
   33135    33126    33115    33107    33115    33135    33126    33072 
   33021    32987    32958    32950    32967    32983    32996    33015 
   33019    32992    32954    32952    32994    33034    33034    32999 
   32945    32900    32887    32888    32867    32841    32841    32863 
   32873    32868    32856    32844    32837    32837    32845    32856 
   32850    32837    32830    32825    32822    32822    32809    32788 
   32768    32755    32764    32788    32799    32800    32818    32860 
   32900    32915    32915    32919    32949    33008    33065    33088 
   33106    33156    33228    33299    33340    33334    33276    33223 
   33218    33218    33205    33230    33281    33315    33324    33301 
   33274    33282    33309    33322    33316    33301    33276    33226 
   33185    33176    33161    33133    33116    33099    33072    33054 
   33042    33026    33021    33011    33004    33011    33012    33004 
   33000    32995    32988    32985    32984    32977    32961    32938 
   32919    32898    32873    32883    32938    32999    33021    33004 
   32984    32975    32972    32961    32941    32931    32941    32969 
   33008    33025    33002    32957    32908    32853    32796    32757 
   32741    32729    32703    32675    32659    32659    32657    32655 
   32680    32719    32722    32695    32684    32714    32773    32833 
   32869    32888    32921    32972    33007    33002    32977    32973 
   32996    33030    33058    33064    33060    33081    33123    33162 
   33168    33139    33112    33100    33091    33077    33052    33022 
   33002    32992    32992    32994    32991    33003    33037    33054 
   33046    33049    33081    33122    33153    33166    33170    33174 
   33162    33116    33068    33056    33070    33089    33091    33058 
   33004    32949    32898    32869    32861    32844    32825    32826 
   32821    32787    32757    32742    32726    32718    32717    32717 
   32721    32742    32776    32813    32841    32849    32850    32854 
   32860    32873    32887    32904    32941    32984    33016    33029 
   33006    32958    32926    32929    32950    32969    32984    32984 
   32973    32979    32996    32998    32984    32977    32987    33004 
   33021    33037    33057    33081    33114    33151    33164    33146 
   33119    33097    33096    33112    33120    33107    33075    33025 
   32979    32942    32918    32922    32941    32926    32873    32827 
   32810    32802    32773    32734    32714    32732    32767    32782 
   32776    32773    32796    32848    32890    32900    32900    32910 
   32935    32953    32954    32969    33003    33035    33056    33045 
   32989    32933    32903    32888    32881    32888    32899    32908 
   32914    32910    32890    32875    32880    32890    32886    32892 
   32902    32895    32899    32926    32949    32962    32988    33027 
   33065    33088    33069    33025    33007    33018    33016    33002 
   32998    33000    33014    33022    32987    32938    32913    32888 
   32857    32830    32821    32833    32838    32825    32817    32814 
   32806    32798    32806    32819    32826    32840    32879    32922 
   32937    32946    32987    33056    33115    33158    33195    33210 
   33207    33219    33230    33218    33195    33180    33185    33204 
   33203    33164    33096    33042    33035    33052    33058    33054 
   33045    33035    33031    33052    33088    33099    33079    33052 
   33027    33016    33021    33019    33012    33003    32987    32977 
   32981    32975    32952    32933    32922    32908    32884    32867 
   32875    32903    32933    32962    33002    33045    33075    33079 
   33092    33133    33172    33196    33223    33223    33207    33214 
   33216    33207    33220    33251    33270    33276    33273    33264 
   33247    33220    33185    33168    33177    33196    33203    33205 
   33224    33241    33241    33246    33257    33249    33232    33222 
   33219    33223    33223    33207    33187    33174    33189    33226 
   33242    33220    33187    33165    33151    33127    33088    33057 
   33062    33092    33107    33104    33122    33168    33199    33199 
   33204    33218    33215    33203    33207    33242    33289    33312 
   33299    33281    33291    33296    33266    33220    33178    33153 
   33158    33143    33081    33022    32973    32922    32895    32894 
   32911    32948    32980    32987    32976    32957    32945    32958 
   32988    33019    33054    33072    33064    33050    33043    33045 
   33043    33049    33072    33080    33070    33085    33097    33075 
   33058    33060    33060    33070    33099    33114    33104    33096 
   33083    33048    33008    32988    32989    33011    33034    33064 
   33108    33138    33138    33124    33122    33145    33172    33181 
   33205    33266    33323    33346    33340    33319    33292    33262 
   33224    33204    33211    33204    33176    33156    33151    33156 
   33162    33160    33147    33139    33143    33165    33189    33204 
   33210    33201    33200    33218    33238    33241    33238    33238 
   33224    33219    33243    33266    33269    33264    33255    33254 
   33264    33268    33270    33278    33288    33300    33303    33303 
   33318    33323    33311    33320    33349    33369    33378    33384 
   33385    33362    33315    33277    33259    33245    33237    33247 
   33266    33272    33243    33189    33150    33142    33143    33158 
   33183    33168    33114    33061    33012    32971    32948    32931 
   32935    32964    32989    33002    32994    32962    32934    32929 
   32949    32981    33008    33025    33042    33068    33087    33093 
   33102    33119    33142    33173    33195    33191    33180    33165 
   33133    33087    33034    32988    32968    32973    32980    32972 
   32938    32886    32844    32815    32779    32738    32709    32695 
   32695    32684    32648    32609    32583    32562    32545    32528 
   32510    32498    32474    32431    32382    32344    32314    32286 
   32274    32293    32321    32341    32362    32383    32390    32391 
   32398    32406    32400    32382    32378    32393    32406    32427 
   32462    32494    32518    32544    32570    32616    32682    32738 
   32792    32850    32881    32881    32876    32899    32964    33025 
   33048    33066    33103    33115    33087    33048    33022    33008 
   32981    32948    32948    32965    32953    32910    32854    32813 
   32787    32773    32764    32748    32724    32701    32675    32649 
   32626    32609    32605    32594    32567    32557    32559    32555 
   32560    32575    32595    32630    32663    32672    32680    32702 
   32730    32772    32822    32861    32898    32941    32988    33038 
   33099    33154    33193    33210    33208    33212    33254    33307 
   33330    33338    33338    33311    33285    33276    33259    33253 
   33266    33277    33264    33243    33241    33251    33266    33273 
   33270    33276    33288    33285    33285    33297    33297    33282 
   33266    33251    33231    33212    33208    33211    33200    33180 
   33164    33151    33130    33104    33073    33039    33011    32996 
   32996    32999    32987    32973    32984    33003    32996    32967 
   32948    32954    32960    32958    32964    32977    33000    33035 
   33073    33106    33134    33168    33214    33257    33296    33339 
   33376    33400    33417    33409    33389    33390    33401    33394 
   33372    33345    33326    33316    33303    33273    33253    33247 
   33227    33192    33157    33129    33106    33068    33018    32976 
   32942    32906    32869    32830    32776    32728    32706    32701 
   32694    32683    32678    32671    32652    32632    32628    32651 
   32683    32701    32702    32692    32676    32665    32667    32674 
   32680    32684    32676    32664    32651    32643    32637    32632 
   32641    32665    32680    32690    32709    32736    32760    32776 
   32798    32830    32854    32871    32887    32900    32925    32969 
   33016    33056    33083    33092    33084    33066    33058    33060 
   33054    33046    33034    33006    32968    32938    32926    32918 
   32896    32883    32883    32877    32873    32881    32896    32913 
   32931    32954    32967    32969    32984    33006    33033    33092 
   33165    33220    33261    33288    33301    33312    33332    33363 
   33399    33427    33432    33421    33421    33446    33461    33455 
   33457    33455    33438    33423    33407    33380    33353    33316 
   33259    33211    33180    33139    33079    33023    32981    32953 
   32935    32907    32869    32849    32845    32844    32856    32875 
   32869    32848    32841    32836    32810    32775    32753    32741 
   32741    32763    32775    32756    32730    32725    32728    32717 
   32703    32702    32709    32715    32724    32721    32691    32653 
   32633    32634    32640    32645    32659    32690    32734    32784 
   32836    32871    32894    32934    32995    33049    33084    33103 
   33116    33134    33150    33162    33162    33149    33134    33130 
   33141    33156    33169    33185    33211    33249    33284    33303 
   33316    33338    33366    33394    33420    33436    33435    33415 
   33397    33373    33328    33277    33230    33191    33164    33147 
   33138    33124    33112    33119    33135    33137    33131    33138 
   33145    33150    33183    33219    33235    33250    33272    33292 
   33318    33345    33361    33380    33397    33393    33382    33389 
   33397    33393    33385    33373    33361    33347    33326    33300 
   33289    33278    33249    33220    33211    33205    33192    33177 
   33172    33188    33208    33220    33239    33266    33288    33303 
   33318    33335    33357    33376    33389    33404    33412    33399 
   33377    33373    33372    33355    33335    33311    33265    33208 
   33151    33091    33031    32973    32923    32890    32867    32826 
   32760    32701    32668    32647    32628    32613    32597    32576 
   32552    32537    32528    32517    32522    32551    32587    32625 
   32664    32706    32748    32790    32822    32832    32837    32850 
   32865    32894    32940    32964    32968    32975    32973    32965 
   32962    32967    32977    32984    32980    32969    32953    32938 
   32923    32910    32904    32898    32876    32853    32840    32823 
   32800    32780    32760    32745    32748    32768    32798    32829 
   32864    32903    32933    32957    32976    32991    33004    33030 
   33072    33114    33147    33177    33204    33226    33238    33242 
   33253    33264    33266    33277    33299    33300    33278    33258 
   33250    33243    33238    33234    33222    33215    33223    33228 
   33226    33223    33222    33218    33210    33204    33199    33192 
   33176    33146    33122    33099    33057    32996    32931    32881 
   32838    32792    32756    32725    32692    32656    32598    32528 
   32468    32432    32412    32398    32385    32374    32371    32373 
   32386    32414    32445    32474    32508    32557    32620    32674 
   32707    32737    32778    32821    32846    32863    32886    32917 
   32956    32989    33004    33007    33022    33046    33070    33093 
   33119    33142    33157    33174    33192    33195    33185    33172 
   33149    33104    33054    33019    32991    32956    32915    32868 
   32825    32795    32768    32730    32674    32625    32602    32579 
   32556    32537    32506    32471    32441    32413    32385    32355 
   32327    32301    32263    32225    32211    32193    32155    32116 
   32081    32049    32019    31996    31981    31963    31943    31931 
   31926    31930    31935    31939    31954    31978    32004    32032 
   32066    32108    32161    32223    32287    32358    32424    32476 
   32535    32599    32661    32721    32782    32844    32904    32956 
   32991    33002    33004    33023    33054    33088    33135    33188 
   33241    33296    33347    33394    33457    33531    33600    33673 
   33768    33870    33959    34030    34084    34138    34211    34280 
   34323    34360    34407    34465    34522    34564    34592    34622 
   34647    34653    34642    34635    34628    34608    34568    34512 
   34456    34392    34318    34246    34182    34115    34053    33993 
   33925    33848    33764    33681    33605    33540    33496    33466 
   33432    33407    33405    33411    33417    33427    33444    33480 
   33516    33542    33559    33578    33600    33624    33655    33670 
   33659    33648    33655    33654    33631    33605    33600    33593 
   33573    33546    33520    33486    33447    33416    33397    33369 
   33342    33334    33327    33327    33343    33349    33339    33338 
   33332    33307    33286    33278    33257    33234    33226    33218 
   33205    33195    33173    33147    33130    33116    33085    33048 
   33008    32956    32899    32844    32778    32697    32611    32537 
   32475    32418    32360    32309    32274    32244    32213    32189 
   32185    32194    32196    32185    32171    32159    32155    32161 
   32171    32185    32193    32192    32188    32193    32201    32200 
   32198    32197    32197    32200    32190    32174    32159    32135 
   32112    32093    32070    32044    32024    32019    32022    32028 
   32036    32034    32034    32049    32066    32097    32151    32202 
   32250    32306    32360    32408    32451    32481    32503    32532 
   32556    32570    32594    32622    32638    32653    32664    32671 
   32676    32680    32688    32694    32688    32672    32653    32630 
   32605    32583    32552    32513    32471    32435    32409    32387 
   32363    32341    32317    32293    32275    32279    32302    32339 
   32385    32425    32449    32471    32506    32570    32651    32736 
   32819    32906    32995    33087    33176    33259    33354    33455 
   33552    33646    33739    33822    33893    33961    34030    34090 
   34134    34160    34168    34172    34176    34168    34159    34163 
   34152    34114    34063    34006    33943    33872    33798    33721 
   33632    33539    33453    33377    33307    33239    33172    33123 
   33099    33070    33042    33037    33049    33060    33072    33103 
   33135    33160    33192    33228    33246    33257    33291    33345 
   33389    33421    33448    33448    33443    33466    33492    33489 
   33478    33481    33494    33504    33488    33455    33423    33384 
   33339    33303    33266    33230    33203    33176    33142    33106 
   33066    33029    33006    32991    32972    32948    32931    32930 
   32926    32919    32922    32934    32950    32969    32981    32994 
   33008    33018    33016    33015    33021    33025    33034    33054 
   33077    33099    33133    33168    33193    33220    33251    33282 
   33312    33343    33373    33392    33397    33403    33413    33424 
   33435    33446    33457    33465    33450    33420    33407    33405 
   33389    33350    33300    33255    33214    33176    33145    33111 
   33072    33039    32999    32948    32900    32846    32795    32760 
   32718    32665    32606    32540    32495    32472    32439    32390 
   32333    32270    32217    32178    32139    32097    32054    32012 
   31985    31973    31963    31958    31958    31965    31976    31982 
   31996    32013    32038    32065    32089    32123    32167    32202 
   32232    32281    32341    32395    32451    32516    32580    32651 
   32738    32810    32871    32941    33000    33056    33118    33170 
   33219    33266    33292    33296    33295    33293    33281    33253 
   33215    33178    33158    33153    33139    33127    33119    33114 
   33118    33122    33126    33134    33137    33146    33164    33176 
   33191    33222    33262    33296    33315    33323    33326    33326 
   33340    33361    33384    33421    33458    33480    33494    33509 
   33529    33542    33538    33535    33544    33548    33540    33519 
   33489    33463    33440    33405    33370    33338    33301    33255 
   33188    33106    33033    32969    32908    32859    32811    32757 
   32702    32651    32599    32556    32533    32522    32509    32494 
   32489    32502    32520    32544    32582    32620    32653    32698 
   32738    32778    32822    32864    32902    32937    32968    32999 
   33023    33048    33087    33116    33130    33151    33176    33193 
   33201    33189    33166    33151    33141    33134    33122    33099 
   33079    33072    33066    33061    33053    33037    33019    33007 
   32989    32967    32950    32931    32911    32907    32913    32915 
   32931    32950    32960    32969    32979    32988    33007    33041 
   33075    33093    33111    33127    33133    33135    33154    33188 
   33215    33234    33253    33264    33272    33269    33262    33268 
   33265    33250    33246    33246    33243    33228    33200    33168 
   33133    33097    33069    33038    33003    32971    32940    32911 
   32886    32863    32842    32833    32841    32868    32899    32925 
   32956    33000    33050    33112    33184    33254    33328    33408 
   33486    33569    33652    33727    33783    33831    33860    33866 
   33858    33837    33805    33766    33723    33677    33635    33585 
   33529    33478    33431    33376    33316    33269    33230    33180 
   33135    33115    33120    33143    33160    33161    33174    33203 
   33226    33259    33313    33374    33450    33535    33609    33679 
   33751    33809    33867    33934    33990    34030    34060    34064 
   34048    34040    34028    34005    33978    33939    33893    33851 
   33802    33743    33674    33602    33531    33455    33377    33293 
   33204    33116    33033    32954    32892    32838    32782    32736 
   32699    32664    32636    32613    32602    32617    32649    32687 
   32721    32740    32768    32817    32869    32915    32956    32987 
   32995    32991    32989    32977    32954    32918    32865    32806 
