Origin Time       2025/01/13 21:19:00
Lat.              31.8
Long.             131.6
Depth. (km)       30
Mag.              6.9
Station Code      HYGH13
Station Lat.      35.6208
Station Long.     134.6566
Station Height(m) 129.8
Record Time       2025/01/13 21:21:54
Sampling Freq(Hz) 100Hz
Duration Time(s)  120
Dir.              3
Scale Factor      3923(gal)/8224838
Max. Acc. (gal)   0.351
Last Correction   2025/01/13 21:21:56
Memo.             
[...]
   -6592    -6586    -6585    -6583    -6579    -6577    -6573    -6566 
   -6562    -6558    -6552    -6548    -6543    -6540    -6539    -6540 
   -6540    -6539    -6539    -6542    -6542    -6546    -6551    -6555 
   -6559    -6563    -6569    -6577    -6585    -6593    -6600    -6609 
   -6620    -6629    -6639    -6652    -6662    -6673    -6687    -6696 
   -6701    -6712    -6721    -6729    -6737    -6745    -6751    -6760 
   -6768    -6770    -6772    -6778    -6779    -6779    -6781    -6781 
   -6779    -6779    -6777    -6768    -6763    -6760    -6755    -6748 
   -6743    -6737    -6728    -6721    -6717    -6712    -6706    -6704 
   -6696    -6689    -6686    -6685    -6683    -6681    -6679    -6677 
   -6671    -6671    -6673    -6670    -6667    -6666    -6666    -6669 
   -6670    -6671    -6670    -6669    -6667    -6671    -6673    -6671 
   -6674    -6677    -6675    -6675    -6679    -6681    -6678    -6681 
   -6683    -6679    -6677    -6675    -6673    -6670    -6664    -6656 
   -6654    -6652    -6647    -6642    -6636    -6628    -6625    -6625 
   -6621    -6617    -6616    -6613    -6610    -6612    -6615    -6612 
   -6612    -6613    -6610    -6609    -6613    -6612    -6609    -6609 
   -6609    -6610    -6613    -6619    -6621    -6619    -6620    -6624 
   -6624    -6624    -6627    -6629    -6628    -6628    -6631    -6631 
   -6628    -6627    -6624    -6620    -6617    -6610    -6606    -6605 
   -6601    -6594    -6589    -6583    -6579    -6575    -6573    -6573 
   -6573    -6571    -6569    -6569    -6570    -6570    -6574    -6579 
   -6579    -6579    -6585    -6592    -6596    -6601    -6606    -6613 
   -6619    -6621    -6625    -6633    -6637    -6643    -6648    -6651 
   -6655    -6659    -6663    -6669    -6671    -6673    -6677    -6679 
   -6678    -6679    -6682    -6682    -6682    -6685    -6685    -6686 
   -6690    -6689    -6690    -6693    -6690    -6690    -6693    -6690 
   -6687    -6691    -6694    -6693    -6691    -6693    -6691    -6691 
   -6690    -6686    -6683    -6685    -6685    -6681    -6678    -6674 
   -6669    -6666    -6663    -6659    -6655    -6651    -6644    -6639 
   -6632    -6623    -6616    -6612    -6604    -6594    -6586    -6577 
   -6567    -6558    -6546    -6539    -6531    -6523    -6517    -6515 
   -6511    -6507    -6505    -6507    -6507    -6508    -6509    -6513 
   -6520    -6524    -6527    -6532    -6540    -6544    -6550    -6555 
   -6559    -6562    -6563    -6567    -6571    -6570    -6570    -6574 
   -6577    -6575    -6575    -6577    -6577    -6578    -6577    -6577 
   -6581    -6583    -6583    -6586    -6593    -6596    -6600    -6605 
   -6610    -6615    -6624    -6631    -6635    -6639    -6644    -6648 
   -6652    -6660    -6663    -6664    -6669    -6670    -6673    -6677 
   -6678    -6682    -6686    -6689    -6693    -6698    -6700    -6704 
   -6708    -6709    -6709    -6708    -6706    -6706    -6708    -6709 
   -6706    -6705    -6708    -6709    -6708    -6708    -6709    -6708 
   -6709    -6712    -6713    -6712    -6709    -6710    -6712    -6710 
   -6710    -6713    -6710    -6706    -6706    -6701    -6694    -6691 
   -6691    -6687    -6683    -6683    -6683    -6681    -6681    -6682 
   -6678    -6678    -6682    -6682    -6679    -6686    -6690    -6689 
   -6693    -6696    -6697    -6700    -6701    -6704    -6705    -6706 
   -6706    -6706    -6706    -6705    -6706    -6706    -6701    -6698 
   -6696    -6691    -6687    -6683    -6678    -6671    -6663    -6658 
   -6654    -6646    -6637    -6628    -6619    -6610    -6605    -6600 
   -6594    -6586    -6579    -6574    -6569    -6565    -6561    -6558 
   -6555    -6554    -6550    -6551    -6554    -6554    -6554    -6556 
   -6561    -6566    -6569    -6574    -6582    -6589    -6594    -6598 
   -6602    -6610    -6616    -6621    -6627    -6629    -6633    -6642 
   -6646    -6648    -6651    -6652    -6656    -6659    -6656    -6659 
   -6666    -6669    -6670    -6674    -6675    -6679    -6686    -6691 
   -6693    -6697    -6705    -6712    -6716    -6724    -6727    -6729 
   -6735    -6736    -6733    -6736    -6743    -6745    -6744    -6748 
   -6750    -6744    -6747    -6752    -6750    -6748    -6748    -6748 
   -6745    -6744    -6743    -6739    -6731    -6721    -6713    -6704 
   -6693    -6679    -6669    -6658    -6647    -6636    -6623    -6609 
   -6602    -6594    -6585    -6578    -6573    -6567    -6563    -6558 
   -6555    -6555    -6552    -6548    -6550    -6552    -6554    -6552 
   -6555    -6559    -6559    -6562    -6567    -6570    -6573    -6577 
   -6581    -6585    -6586    -6596    -6604    -6604    -6606    -6613 
   -6617    -6620    -6624    -6624    -6627    -6629    -6628    -6628 
   -6635    -6635    -6631    -6632    -6633    -6633    -6635    -6633 
   -6632    -6633    -6633    -6632    -6628    -6631    -6635    -6633 
   -6636    -6643    -6643    -6646    -6651    -6652    -6655    -6660 
   -6664    -6669    -6675    -6681    -6689    -6698    -6706    -6713 
   -6721    -6727    -6732    -6739    -6745    -6750    -6758    -6766 
   -6772    -6781    -6786    -6791    -6798    -6806    -6816    -6826 
   -6836    -6843    -6852    -6863    -6871    -6878    -6887    -6895 
   -6898    -6901    -6906    -6913    -6914    -6912    -6913    -6914 
   -6912    -6910    -6906    -6897    -6893    -6890    -6883    -6874 
   -6867    -6859    -6848    -6836    -6825    -6812    -6797    -6783 
   -6767    -6747    -6725    -6709    -6693    -6670    -6646    -6628 
   -6609    -6589    -6573    -6558    -6539    -6521    -6511    -6500 
   -6489    -6485    -6481    -6474    -6473    -6471    -6467    -6470 
   -6477    -6480    -6484    -6490    -6496    -6500    -6508    -6517 
   -6523    -6524    -6527    -6534    -6538    -6535    -6539    -6543 
   -6546    -6548    -6547    -6548    -6554    -6554    -6552    -6556 
   -6556    -6556    -6558    -6556    -6556    -6559    -6559    -6559 
   -6562    -6563    -6565    -6565    -6562    -6562    -6565    -6565 
   -6567    -6570    -6569    -6566    -6563    -6565    -6565    -6558 
   -6554    -6552    -6547    -6540    -6536    -6528    -6523    -6519 
   -6508    -6502    -6497    -6486    -6480    -6473    -6465    -6458 
   -6448    -6439    -6434    -6426    -6417    -6411    -6401    -6393 
   -6388    -6381    -6376    -6369    -6359    -6357    -6358    -6355 
   -6355    -6358    -6358    -6359    -6363    -6370    -6380    -6386 
   -6396    -6409    -6423    -6434    -6448    -6469    -6484    -6497 
   -6516    -6536    -6554    -6571    -6590    -6606    -6625    -6647 
   -6666    -6686    -6706    -6725    -6745    -6768    -6790    -6806 
   -6824    -6841    -6858    -6872    -6887    -6902    -6914    -6930 
   -6947    -6957    -6968    -6982    -6993    -6999    -7006    -7013 
   -7020    -7024    -7024    -7025    -7025    -7022    -7021    -7020 
   -7015    -7011    -7007    -6999    -6991    -6986    -6979    -6972 
   -6964    -6955    -6949    -6944    -6936    -6926    -6920    -6910 
   -6902    -6897    -6890    -6883    -6876    -6868    -6863    -6860 
   -6856    -6853    -6848    -6845    -6845    -6845    -6843    -6841 
   -6840    -6836    -6835    -6835    -6831    -6826    -6824    -6821 
   -6816    -6812    -6806    -6801    -6797    -6793    -6787    -6785 
   -6779    -6774    -6771    -6767    -6762    -6756    -6751    -6743 
   -6741    -6736    -6727    -6725    -6724    -6717    -6712    -6712 
   -6706    -6702    -6700    -6696    -6693    -6694    -6690    -6685 
   -6686    -6687    -6685    -6685    -6686    -6683    -6682    -6683 
   -6681    -6679    -6682    -6678    -6674    -6677    -6678    -6675 
   -6673    -6671    -6669    -6667    -6664    -6659    -6656    -6656 
   -6654    -6650    -6643    -6639    -6636    -6631    -6627    -6619 
   -6610    -6605    -6596    -6588    -6579    -6569    -6561    -6554 
   -6543    -6532    -6523    -6512    -6504    -6493    -6478    -6467 
   -6458    -6442    -6430    -6419    -6403    -6386    -6372    -6357 
   -6342    -6327    -6309    -6293    -6277    -6261    -6246    -6231 
   -6216    -6204    -6192    -6180    -6166    -6156    -6147    -6134 
   -6127    -6122    -6111    -6106    -6104    -6100    -6097    -6095 
   -6096    -6099    -6103    -6107    -6112    -6120    -6130    -6135 
   -6142    -6153    -6162    -6174    -6188    -6200    -6214    -6228 
   -6243    -6259    -6273    -6288    -6304    -6319    -6332    -6346 
   -6362    -6380    -6392    -6407    -6426    -6439    -6454    -6470 
   -6482    -6496    -6512    -6528    -6543    -6556    -6571    -6589 
   -6605    -6621    -6636    -6652    -6669    -6686    -6705    -6724 
   -6740    -6760    -6779    -6795    -6817    -6841    -6856    -6871 
   -6895    -6916    -6930    -6948    -6966    -6980    -6995    -7009 
   -7020    -7033    -7044    -7052    -7060    -7069    -7076    -7079 
   -7082    -7087    -7090    -7086    -7086    -7086    -7080    -7076 
   -7071    -7063    -7056    -7047    -7036    -7028    -7018    -7002 
   -6987    -6975    -6961    -6947    -6933    -6920    -6903    -6887 
   -6874    -6859    -6845    -6833    -6824    -6812    -6801    -6790 
   -6781    -6772    -6764    -6756    -6750    -6744    -6739    -6733 
   -6733    -6733    -6731    -6729    -6729    -6732    -6735    -6735 
   -6733    -6735    -6735    -6735    -6737    -6736    -6735    -6737 
   -6741    -6741    -6741    -6741    -6744    -6750    -6752    -6754 
   -6756    -6763    -6770    -6771    -6772    -6778    -6782    -6786 
   -6793    -6797    -6801    -6806    -6812    -6816    -6818    -6822 
   -6826    -6832    -6836    -6837    -6841    -6847    -6849    -6852 
   -6858    -6859    -6856    -6858    -6860    -6860    -6858    -6855 
   -6853    -6851    -6844    -6840    -6837    -6829    -6821    -6814 
   -6808    -6799    -6793    -6786    -6778    -6770    -6764    -6755 
   -6744    -6737    -6733    -6727    -6720    -6717    -6714    -6708 
   -6701    -6696    -6694    -6690    -6686    -6683    -6682    -6679 
   -6675    -6675    -6675    -6675    -6677    -6681    -6682    -6683 
   -6686    -6689    -6691    -6698    -6700    -6697    -6700    -6704 
   -6705    -6705    -6704    -6700    -6698    -6698    -6696    -6691 
   -6685    -6679    -6674    -6667    -6660    -6654    -6644    -6636 
   -6629    -6621    -6615    -6605    -6593    -6585    -6581    -6574 
   -6563    -6558    -6555    -6546    -6536    -6531    -6523    -6512 
   -6505    -6498    -6488    -6477    -6466    -6458    -6446    -6431 
   -6420    -6408    -6393    -6378    -6363    -6349    -6332    -6316 
   -6301    -6286    -6270    -6251    -6239    -6228    -6212    -6199 
   -6188    -6177    -6166    -6158    -6149    -6142    -6137    -6133 
   -6133    -6133    -6134    -6137    -6141    -6145    -6153    -6161 
   -6166    -6174    -6185    -6196    -6207    -6218    -6228    -6237 
   -6243    -6250    -6258    -6265    -6272    -6276    -6278    -6282 
   -6288    -6295    -6303    -6308    -6313    -6323    -6335    -6347 
   -6359    -6374    -6392    -6409    -6427    -6447    -6470    -6494 
   -6521    -6548    -6574    -6601    -6631    -6664    -6691    -6720 
   -6754    -6782    -6808    -6836    -6864    -6889    -6913    -6936 
   -6957    -6978    -6995    -7011    -7026    -7041    -7051    -7059 
   -7069    -7075    -7078    -7087    -7091    -7090    -7090    -7087 
   -7082    -7080    -7079    -7072    -7067    -7059    -7053    -7049 
   -7041    -7032    -7021    -7013    -7009    -7001    -6987    -6975 
   -6967    -6960    -6948    -6940    -6934    -6924    -6912    -6906 
   -6902    -6893    -6882    -6875    -6867    -6858    -6849    -6840 
   -6832    -6825    -6816    -6805    -6795    -6786    -6777    -6767 
   -6759    -6747    -6739    -6732    -6723    -6714    -6709    -6700 
   -6693    -6691    -6685    -6681    -6681    -6678    -6674    -6675 
   -6679    -6681    -6682    -6686    -6690    -6694    -6704    -6713 
   -6720    -6732    -6739    -6745    -6759    -6770    -6778    -6790 
   -6799    -6808    -6821    -6832    -6841    -6852    -6862    -6870 
   -6876    -6883    -6889    -6891    -6894    -6895    -6897    -6895 
   -6891    -6887    -6882    -6870    -6858    -6848    -6831    -6812 
   -6799    -6783    -6763    -6740    -6717    -6691    -6670    -6646 
   -6617    -6589    -6558    -6525    -6496    -6466    -6432    -6401 
   -6372    -6339    -6309    -6282    -6254    -6226    -6199    -6173 
   -6145    -6120    -6099    -6077    -6057    -6041    -6025    -6008 
   -5998    -5991    -5980    -5973    -5973    -5975    -5975    -5976 
   -5977    -5985    -5996    -6002    -6008    -6023    -6035    -6048 
   -6062    -6080    -6095    -6108    -6127    -6146    -6164    -6187 
   -6208    -6228    -6251    -6274    -6295    -6316    -6340    -6363 
   -6388    -6408    -6430    -6454    -6475    -6496    -6515    -6534 
   -6554    -6575    -6594    -6612    -6631    -6648    -6663    -6681 
   -6696    -6709    -6723    -6739    -6750    -6764    -6782    -6795 
   -6810    -6826    -6839    -6856    -6875    -6890    -6905    -6926 
   -6948    -6966    -6987    -7011    -7034    -7061    -7086    -7107 
   -7134    -7160    -7180    -7203    -7225    -7245    -7267    -7285 
   -7303    -7319    -7331    -7344    -7356    -7364    -7373    -7380 
   -7381    -7385    -7387    -7383    -7375    -7368    -7356    -7338 
   -7323    -7311    -7288    -7264    -7245    -7222    -7192    -7165 
   -7141    -7113    -7082    -7056    -7028    -6994    -6964    -6941 
   -6917    -6889    -6862    -6840    -6820    -6797    -6775    -6758 
   -6737    -6720    -6702    -6685    -6669    -6650    -6633    -6620 
   -6604    -6588    -6577    -6561    -6543    -6528    -6513    -6497 
   -6478    -6459    -6443    -6427    -6409    -6392    -6376    -6357 
   -6338    -6323    -6304    -6284    -6266    -6250    -6231    -6214 
   -6195    -6176    -6160    -6145    -6127    -6114    -6099    -6083 
   -6070    -6061    -6050    -6042    -6037    -6033    -6029    -6026 
   -6025    -6030    -6035    -6038    -6046    -6056    -6070    -6087 
   -6099    -6118    -6139    -6161    -6184    -6210    -6237    -6265 
   -6295    -6327    -6359    -6390    -6423    -6458    -6496    -6531 
   -6563    -6597    -6629    -6658    -6687    -6717    -6744    -6771 
   -6798    -6825    -6849    -6868    -6889    -6910    -6926    -6940 
   -6957    -6974    -6983    -6993    -7002    -7009    -7017    -7025 
   -7032    -7034    -7038    -7040    -7042    -7047    -7047    -7048 
   -7051    -7047    -7044    -7045    -7042    -7038    -7034    -7032 
   -7025    -7018    -7015    -7007    -6993    -6983    -6975    -6963 
   -6952    -6939    -6926    -6913    -6901    -6886    -6870    -6853 
   -6840    -6822    -6805    -6789    -6771    -6752    -6735    -6714 
   -6694    -6674    -6656    -6637    -6615    -6594    -6575    -6552 
   -6534    -6517    -6498    -6482    -6466    -6455    -6446    -6434 
   -6423    -6417    -6409    -6405    -6408    -6405    -6404    -6407 
   -6411    -6413    -6419    -6424    -6430    -6436    -6446    -6457 
   -6466    -6477    -6490    -6501    -6515    -6528    -6543    -6558 
   -6571    -6586    -6605    -6624    -6642    -6658    -6674    -6689 
   -6706    -6723    -6735    -6751    -6768    -6778    -6789    -6802 
   -6813    -6824    -6836    -6840    -6845    -6858    -6866    -6868 
   -6875    -6883    -6885    -6887    -6895    -6898    -6897    -6901 
   -6905    -6906    -6907    -6910    -6912    -6909    -6907    -6907 
   -6901    -6897    -6894    -6887    -6882    -6878    -6866    -6855 
   -6851    -6840    -6826    -6816    -6802    -6786    -6774    -6760 
   -6745    -6731    -6717    -6698    -6683    -6674    -6660    -6644 
   -6631    -6621    -6609    -6600    -6593    -6581    -6567    -6561 
   -6551    -6539    -6529    -6519    -6509    -6501    -6490    -6480 
   -6469    -6458    -6450    -6442    -6432    -6426    -6419    -6409 
   -6405    -6407    -6404    -6397    -6394    -6394    -6390    -6392 
   -6393    -6392    -6390    -6394    -6393    -6392    -6393    -6392 
   -6390    -6396    -6400    -6400    -6401    -6407    -6412    -6417 
   -6420    -6424    -6430    -6436    -6442    -6448    -6457    -6462 
   -6465    -6471    -6480    -6482    -6486    -6492    -6496    -6494 
   -6494    -6497    -6497    -6497    -6497    -6496    -6492    -6489 
   -6490    -6489    -6484    -6481    -6478    -6473    -6470    -6470 
   -6469    -6467    -6466    -6467    -6467    -6469    -6474    -6478 
   -6478    -6481    -6484    -6488    -6492    -6500    -6505    -6507 
   -6512    -6517    -6520    -6528    -6535    -6539    -6547    -6552 
   -6558    -6565    -6573    -6582    -6592    -6597    -6606    -6619 
   -6629    -6633    -6642    -6655    -6669    -6679    -6689    -6700 
   -6714    -6729    -6739    -6754    -6770    -6783    -6799    -6820 
   -6839    -6858    -6878    -6895    -6916    -6937    -6956    -6976 
   -6995    -7017    -7038    -7057    -7076    -7092    -7106    -7122 
   -7134    -7142    -7155    -7167    -7171    -7175    -7180    -7182 
   -7179    -7175    -7168    -7161    -7149    -7136    -7122    -7106 
   -7087    -7071    -7048    -7020    -7001    -6980    -6953    -6928 
   -6905    -6879    -6853    -6826    -6804    -6786    -6767    -6747 
   -6729    -6714    -6700    -6687    -6675    -6664    -6659    -6652 
   -6646    -6644    -6642    -6639    -6643    -6644    -6644    -6648 
   -6651    -6655    -6662    -6669    -6675    -6681    -6691    -6701 
   -6706    -6716    -6725    -6733    -6743    -6748    -6755    -6763 
   -6770    -6775    -6782    -6787    -6791    -6793    -6797    -6801 
   -6802    -6805    -6804    -6802    -6802    -6801    -6798    -6795 
   -6787    -6781    -6777    -6768    -6758    -6751    -6740    -6723 
   -6710    -6696    -6675    -6660    -6644    -6623    -6602    -6579 
   -6556    -6538    -6516    -6489    -6466    -6446    -6421    -6400 
   -6381    -6358    -6335    -6319    -6300    -6281    -6269    -6258 
   -6242    -6228    -6222    -6214    -6207    -6203    -6203    -6203 
   -6204    -6207    -6212    -6216    -6222    -6231    -6238    -6246 
   -6258    -6270    -6281    -6291    -6303    -6315    -6324    -6334 
   -6345    -6353    -6359    -6367    -6373    -6376    -6380    -6380 
   -6380    -6382    -6381    -6378    -6377    -6374    -6370    -6366 
   -6361    -6358    -6355    -6353    -6350    -6349    -6349    -6349 
   -6351    -6355    -6361    -6367    -6377    -6385    -6396    -6411 
   -6427    -6440    -6457    -6477    -6498    -6517    -6538    -6559 
   -6578    -6600    -6627    -6648    -6667    -6689    -6710    -6732 
   -6755    -6777    -6797    -6814    -6832    -6848    -6866    -6880 
   -6891    -6903    -6916    -6924    -6928    -6933    -6934    -6933 
   -6933    -6932    -6922    -6913    -6907    -6898    -6885    -6870 
   -6856    -6841    -6824    -6805    -6789    -6770    -6752    -6736 
   -6717    -6697    -6678    -6659    -6642    -6627    -6610    -6597 
   -6583    -6569    -6556    -6546    -6538    -6529    -6525    -6520 
