Origin Time       2025/01/13 21:19:00
Lat.              31.8
Long.             131.6
Depth. (km)       30
Mag.              6.9
Station Code      HYGH09
Station Lat.      34.9082
Station Long.     135.0844
Station Height(m) 40
Record Time       2025/01/13 21:21:51
Sampling Freq(Hz) 100Hz
Duration Time(s)  120
Dir.              2
Scale Factor      3923(gal)/8224838
Max. Acc. (gal)   0.258
Last Correction   2025/01/13 21:21:51
Memo.             
[...]
  -22948   -22951   -22954   -22960   -22966   -22971   -22974   -22974 
  -22977   -22977   -22977   -22978   -22977   -22974   -22971   -22966 
  -22960   -22955   -22955   -22954   -22951   -22947   -22947   -22947 
  -22943   -22943   -22950   -22955   -22958   -22960   -22963   -22964 
  -22964   -22963   -22960   -22958   -22959   -22962   -22960   -22963 
  -22964   -22963   -22966   -22968   -22972   -22974   -22971   -22975 
  -22975   -22970   -22968   -22967   -22964   -22964   -22967   -22968 
  -22970   -22971   -22974   -22972   -22975   -22981   -22979   -22978 
  -22979   -22978   -22972   -22966   -22960   -22958   -22954   -22947 
  -22939   -22933   -22924   -22916   -22912   -22909   -22906   -22900 
  -22891   -22886   -22882   -22877   -22869   -22862   -22859   -22856 
  -22851   -22846   -22842   -22832   -22820   -22810   -22802   -22796 
  -22788   -22779   -22773   -22771   -22766   -22762   -22761   -22762 
  -22765   -22765   -22765   -22767   -22769   -22769   -22771   -22774 
  -22774   -22775   -22777   -22775   -22774   -22775   -22775   -22777 
  -22778   -22781   -22788   -22792   -22794   -22802   -22812   -22813 
  -22817   -22824   -22829   -22835   -22839   -22843   -22850   -22855 
  -22858   -22863   -22867   -22871   -22873   -22875   -22879   -22878 
  -22877   -22878   -22877   -22874   -22875   -22878   -22878   -22879 
  -22882   -22882   -22889   -22898   -22904   -22908   -22918   -22928 
  -22933   -22935   -22940   -22948   -22952   -22952   -22954   -22958 
  -22962   -22964   -22967   -22967   -22970   -22971   -22972   -22978 
  -22979   -22979   -22982   -22983   -22981   -22981   -22982   -22978 
  -22975   -22975   -22974   -22971   -22968   -22966   -22964   -22964 
  -22960   -22956   -22956   -22956   -22954   -22950   -22948   -22948 
  -22947   -22948   -22950   -22952   -22956   -22955   -22955   -22956 
  -22960   -22963   -22963   -22962   -22962   -22962   -22964   -22966 
  -22968   -22971   -22975   -22978   -22982   -22987   -22994   -23002 
  -23008   -23010   -23010   -23013   -23016   -23017   -23020   -23020 
  -23018   -23016   -23013   -23012   -23009   -23002   -22995   -22987 
  -22979   -22970   -22962   -22956   -22952   -22944   -22936   -22932 
  -22927   -22917   -22910   -22905   -22894   -22885   -22874   -22859 
  -22844   -22833   -22821   -22809   -22798   -22785   -22777   -22774 
  -22766   -22756   -22756   -22754   -22748   -22752   -22754   -22751 
  -22756   -22762   -22766   -22771   -22779   -22788   -22796   -22808 
  -22821   -22832   -22836   -22842   -22852   -22863   -22871   -22879 
  -22890   -22901   -22913   -22929   -22941   -22951   -22964   -22972 
  -22981   -22990   -22995   -22998   -23001   -23004   -23005   -23006 
  -23005   -23004   -23002   -23002   -23002   -23005   -23009   -23013 
  -23016   -23021   -23024   -23025   -23033   -23041   -23043   -23047 
  -23053   -23055   -23058   -23064   -23067   -23074   -23082   -23085 
  -23085   -23086   -23089   -23091   -23091   -23094   -23094   -23093 
  -23097   -23102   -23103   -23106   -23110   -23114   -23116   -23116 
  -23117   -23117   -23114   -23110   -23103   -23095   -23087   -23080 
  -23072   -23062   -23053   -23047   -23039   -23031   -23025   -23024 
  -23021   -23017   -23013   -23009   -23004   -22999   -22995   -22986 
  -22977   -22970   -22960   -22947   -22936   -22925   -22913   -22901 
  -22890   -22882   -22873   -22864   -22859   -22854   -22847   -22843 
  -22840   -22839   -22837   -22839   -22842   -22848   -22854   -22860 
  -22870   -22878   -22886   -22893   -22898   -22901   -22906   -22916 
  -22924   -22931   -22937   -22947   -22955   -22962   -22971   -22982 
  -22989   -22995   -23005   -23016   -23025   -23031   -23036   -23043 
  -23047   -23048   -23049   -23048   -23044   -23039   -23035   -23031 
  -23026   -23022   -23018   -23016   -23012   -23009   -23004   -22997 
  -22994   -22990   -22975   -22964   -22956   -22945   -22936   -22932 
  -22923   -22914   -22908   -22900   -22894   -22890   -22882   -22875 
  -22874   -22871   -22869   -22870   -22874   -22877   -22878   -22878 
  -22882   -22886   -22890   -22894   -22902   -22908   -22912   -22913 
  -22917   -22923   -22925   -22925   -22928   -22933   -22936   -22940 
  -22947   -22950   -22951   -22954   -22950   -22951   -22955   -22955 
  -22956   -22960   -22962   -22963   -22964   -22964   -22967   -22974 
  -22979   -22979   -22979   -22981   -22977   -22971   -22968   -22968 
  -22966   -22962   -22958   -22955   -22955   -22954   -22945   -22941 
  -22944   -22940   -22932   -22928   -22925   -22918   -22913   -22908 
  -22902   -22898   -22894   -22890   -22885   -22881   -22875   -22870 
  -22870   -22867   -22860   -22858   -22859   -22855   -22855   -22858 
  -22863   -22870   -22878   -22886   -22893   -22894   -22900   -22909 
  -22910   -22912   -22917   -22921   -22924   -22929   -22932   -22931 
  -22935   -22943   -22950   -22954   -22959   -22964   -22967   -22974 
  -22979   -22983   -22991   -22997   -22999   -23004   -23005   -23002 
  -22998   -22994   -22986   -22978   -22977   -22974   -22967   -22963 
  -22959   -22952   -22948   -22943   -22939   -22935   -22929   -22928 
  -22929   -22928   -22924   -22923   -22925   -22929   -22935   -22941 
  -22948   -22954   -22963   -22974   -22982   -22990   -22998   -23006 
  -23012   -23014   -23021   -23029   -23033   -23039   -23048   -23060 
  -23068   -23078   -23087   -23094   -23102   -23110   -23113   -23114 
  -23114   -23113   -23107   -23101   -23098   -23093   -23085   -23078 
  -23072   -23067   -23062   -23052   -23043   -23037   -23033   -23026 
  -23021   -23016   -23010   -23006   -23002   -22994   -22991   -22991 
  -22989   -22986   -22985   -22982   -22978   -22977   -22970   -22963 
  -22963   -22967   -22964   -22960   -22962   -22962   -22966   -22970 
  -22974   -22979   -22989   -22999   -23008   -23016   -23025   -23035 
  -23045   -23055   -23064   -23078   -23091   -23101   -23109   -23117 
  -23126   -23133   -23140   -23147   -23152   -23159   -23166   -23172 
  -23178   -23180   -23187   -23188   -23187   -23188   -23188   -23187 
  -23184   -23179   -23174   -23171   -23164   -23157   -23151   -23141 
  -23129   -23116   -23102   -23093   -23083   -23068   -23059   -23052 
  -23040   -23031   -23021   -23012   -23002   -22990   -22977   -22968 
  -22958   -22943   -22928   -22916   -22904   -22889   -22873   -22860 
  -22850   -22840   -22831   -22825   -22824   -22820   -22816   -22819 
  -22821   -22825   -22832   -22837   -22843   -22852   -22864   -22873 
  -22879   -22886   -22894   -22900   -22902   -22909   -22916   -22918 
  -22921   -22927   -22927   -22925   -22927   -22925   -22924   -22925 
  -22923   -22918   -22918   -22917   -22916   -22917   -22917   -22918 
  -22921   -22921   -22923   -22924   -22924   -22928   -22928   -22929 
  -22933   -22933   -22932   -22931   -22933   -22936   -22935   -22933 
  -22935   -22935   -22935   -22936   -22937   -22939   -22941   -22950 
  -22954   -22958   -22967   -22977   -22983   -22993   -23004   -23014 
  -23025   -23037   -23047   -23056   -23066   -23072   -23080   -23085 
  -23086   -23090   -23095   -23098   -23099   -23101   -23102   -23103 
  -23103   -23099   -23094   -23086   -23075   -23066   -23052   -23035 
  -23020   -23006   -22991   -22975   -22960   -22948   -22937   -22924 
  -22913   -22905   -22897   -22887   -22881   -22873   -22860   -22851 
  -22844   -22836   -22827   -22819   -22812   -22804   -22796   -22788 
  -22779   -22775   -22770   -22762   -22756   -22754   -22750   -22750 
  -22747   -22746   -22748   -22750   -22750   -22756   -22761   -22763 
  -22769   -22771   -22774   -22782   -22792   -22800   -22812   -22824 
  -22835   -22846   -22858   -22870   -22882   -22891   -22901   -22914 
  -22925   -22935   -22948   -22963   -22977   -22994   -23010   -23024 
  -23039   -23055   -23070   -23082   -23094   -23106   -23114   -23118 
  -23124   -23130   -23133   -23136   -23139   -23143   -23144   -23148 
  -23155   -23159   -23160   -23164   -23164   -23163   -23163   -23159 
  -23155   -23152   -23147   -23141   -23141   -23143   -23140   -23139 
  -23141   -23143   -23141   -23139   -23136   -23130   -23117   -23107 
  -23101   -23091   -23082   -23076   -23071   -23064   -23058   -23049 
  -23045   -23040   -23031   -23024   -23016   -23008   -23001   -22995 
  -22987   -22979   -22975   -22968   -22962   -22955   -22947   -22939 
  -22931   -22920   -22912   -22904   -22897   -22889   -22875   -22862 
  -22851   -22837   -22825   -22815   -22804   -22790   -22778   -22766 
  -22755   -22742   -22729   -22717   -22707   -22696   -22686   -22680 
  -22673   -22667   -22667   -22670   -22669   -22665   -22669   -22673 
  -22674   -22674   -22674   -22677   -22677   -22677   -22681   -22685 
  -22689   -22694   -22697   -22698   -22700   -22701   -22701   -22700 
  -22701   -22700   -22697   -22698   -22701   -22701   -22701   -22707 
  -22711   -22713   -22717   -22720   -22721   -22725   -22725   -22729 
  -22734   -22732   -22729   -22732   -22734   -22734   -22736   -22740 
  -22746   -22748   -22754   -22763   -22770   -22777   -22786   -22796 
  -22808   -22817   -22823   -22832   -22847   -22855   -22864   -22879 
  -22889   -22897   -22909   -22916   -22924   -22933   -22941   -22951 
  -22963   -22975   -22986   -22995   -23006   -23020   -23033   -23049 
  -23063   -23076   -23091   -23102   -23112   -23120   -23125   -23132 
  -23141   -23147   -23149   -23153   -23156   -23155   -23153   -23149 
  -23141   -23134   -23128   -23117   -23103   -23093   -23082   -23070 
  -23059   -23049   -23041   -23032   -23022   -23014   -23005   -22998 
  -22991   -22981   -22971   -22966   -22960   -22954   -22951   -22950 
  -22950   -22948   -22948   -22950   -22952   -22952   -22954   -22956 
  -22958   -22959   -22962   -22964   -22967   -22971   -22972   -22975 
  -22982   -22987   -22990   -22994   -22998   -23001   -23006   -23010 
  -23010   -23014   -23018   -23024   -23032   -23040   -23048   -23056 
  -23068   -23080   -23087   -23095   -23103   -23107   -23112   -23113 
  -23110   -23107   -23107   -23102   -23095   -23091   -23090   -23082 
  -23072   -23063   -23053   -23041   -23028   -23017   -23005   -22993 
  -22979   -22964   -22954   -22947   -22932   -22920   -22912   -22901 
  -22890   -22883   -22878   -22874   -22871   -22870   -22867   -22864 
  -22866   -22863   -22862   -22864   -22867   -22867   -22871   -22881 
  -22885   -22887   -22893   -22898   -22902   -22904   -22906   -22912 
  -22916   -22918   -22927   -22935   -22939   -22944   -22950   -22952 
  -22958   -22966   -22967   -22971   -22982   -22989   -22995   -23006 
  -23008   -23014   -23025   -23029   -23033   -23044   -23051   -23053 
  -23056   -23064   -23072   -23074   -23075   -23080   -23083   -23086 
  -23093   -23094   -23094   -23095   -23094   -23097   -23097   -23093 
  -23090   -23089   -23087   -23086   -23083   -23082   -23083   -23086 
  -23089   -23087   -23083   -23082   -23080   -23075   -23072   -23071 
  -23067   -23062   -23055   -23047   -23036   -23025   -23013   -22995 
  -22978   -22962   -22943   -22924   -22906   -22886   -22864   -22846 
  -22828   -22810   -22794   -22779   -22767   -22759   -22750   -22740 
  -22734   -22727   -22719   -22715   -22709   -22707   -22709   -22713 
  -22716   -22724   -22734   -22743   -22755   -22767   -22778   -22790 
  -22802   -22815   -22831   -22847   -22856   -22869   -22886   -22904 
  -22917   -22931   -22947   -22959   -22970   -22979   -22987   -22993 
  -22999   -23005   -23014   -23022   -23028   -23033   -23043   -23051 
  -23053   -23059   -23064   -23068   -23072   -23074   -23074   -23072 
  -23070   -23068   -23063   -23058   -23051   -23041   -23032   -23025 
  -23017   -23006   -22999   -22991   -22979   -22968   -22956   -22944 
  -22935   -22924   -22913   -22908   -22905   -22897   -22890   -22885 
  -22878   -22877   -22875   -22873   -22874   -22873   -22871   -22871 
  -22867   -22859   -22855   -22855   -22850   -22843   -22843   -22843 
  -22837   -22836   -22835   -22833   -22832   -22833   -22836   -22837 
  -22836   -22835   -22833   -22831   -22832   -22831   -22825   -22817 
  -22810   -22806   -22801   -22797   -22794   -22790   -22786   -22782 
  -22778   -22774   -22770   -22766   -22763   -22759   -22752   -22751 
  -22750   -22743   -22739   -22742   -22743   -22742   -22744   -22750 
  -22752   -22758   -22769   -22774   -22778   -22783   -22790   -22801 
  -22812   -22823   -22836   -22848   -22859   -22873   -22886   -22896 
  -22908   -22923   -22937   -22947   -22959   -22972   -22982   -22993 
  -23006   -23017   -23031   -23044   -23056   -23066   -23076   -23090 
  -23101   -23107   -23116   -23122   -23122   -23124   -23125   -23122 
  -23121   -23118   -23113   -23110   -23106   -23097   -23091   -23089 
  -23075   -23062   -23051   -23039   -23024   -23009   -22995   -22979 
  -22964   -22952   -22936   -22918   -22905   -22891   -22875   -22859 
  -22846   -22836   -22827   -22817   -22808   -22804   -22804   -22802 
  -22801   -22805   -22810   -22815   -22820   -22829   -22844   -22858 
  -22871   -22890   -22909   -22925   -22945   -22967   -22989   -23013 
  -23037   -23060   -23080   -23101   -23124   -23151   -23172   -23193 
  -23218   -23244   -23263   -23283   -23309   -23332   -23350   -23371 
  -23392   -23410   -23423   -23436   -23449   -23457   -23464   -23472 
  -23475   -23475   -23473   -23469   -23465   -23460   -23450   -23442 
  -23431   -23415   -23398   -23383   -23364   -23342   -23319   -23296 
  -23272   -23248   -23220   -23188   -23157   -23130   -23102   -23068 
  -23037   -23012   -22985   -22958   -22936   -22913   -22887   -22867 
  -22846   -22820   -22798   -22779   -22761   -22743   -22728   -22712 
  -22700   -22692   -22684   -22670   -22659   -22653   -22642   -22631 
  -22623   -22612   -22605   -22601   -22593   -22585   -22582   -22580 
  -22576   -22572   -22572   -22573   -22573   -22573   -22570   -22567 
  -22569   -22570   -22572   -22574   -22574   -22576   -22580   -22581 
  -22585   -22588   -22589   -22592   -22599   -22604   -22607   -22611 
  -22620   -22630   -22636   -22643   -22650   -22658   -22666   -22673 
  -22680   -22685   -22688   -22692   -22690   -22685   -22686   -22686 
  -22682   -22678   -22675   -22670   -22666   -22662   -22655   -22646 
  -22636   -22630   -22623   -22612   -22601   -22593   -22584   -22574 
  -22569   -22565   -22558   -22553   -22554   -22554   -22554   -22557 
  -22561   -22565   -22573   -22585   -22596   -22608   -22623   -22643 
  -22658   -22675   -22698   -22723   -22746   -22770   -22796   -22825 
  -22856   -22886   -22916   -22950   -22981   -23006   -23033   -23059 
  -23080   -23102   -23124   -23143   -23163   -23182   -23195   -23207 
  -23218   -23229   -23238   -23248   -23256   -23257   -23259   -23261 
  -23261   -23261   -23260   -23255   -23249   -23244   -23236   -23226 
  -23213   -23199   -23188   -23175   -23160   -23147   -23128   -23109 
  -23089   -23071   -23051   -23031   -23014   -22998   -22982   -22967 
  -22952   -22940   -22928   -22917   -22910   -22902   -22896   -22890 
  -22883   -22875   -22869   -22862   -22859   -22854   -22844   -22840 
  -22836   -22829   -22824   -22817   -22813   -22810   -22806   -22802 
  -22802   -22801   -22801   -22802   -22804   -22802   -22802   -22804 
  -22805   -22812   -22815   -22815   -22819   -22821   -22823   -22824 
  -22820   -22819   -22817   -22809   -22802   -22801   -22797   -22788 
  -22783   -22779   -22773   -22766   -22761   -22756   -22754   -22750 
  -22742   -22735   -22736   -22732   -22725   -22723   -22721   -22720 
  -22720   -22719   -22717   -22720   -22721   -22723   -22725   -22728 
  -22734   -22744   -22752   -22756   -22766   -22775   -22785   -22798 
  -22812   -22825   -22840   -22854   -22870   -22889   -22906   -22925 
  -22945   -22964   -22985   -23006   -23029   -23049   -23068   -23087 
  -23106   -23124   -23144   -23163   -23180   -23195   -23209   -23222 
  -23236   -23241   -23249   -23259   -23261   -23264   -23265   -23265 
  -23263   -23257   -23248   -23240   -23229   -23217   -23209   -23201 
  -23191   -23182   -23176   -23171   -23166   -23159   -23148   -23141 
  -23137   -23128   -23117   -23107   -23097   -23087   -23075   -23063 
  -23053   -23043   -23029   -23021   -23012   -22995   -22982   -22970 
  -22956   -22945   -22935   -22921   -22908   -22896   -22885   -22877 
  -22867   -22858   -22847   -22836   -22824   -22813   -22798   -22781 
  -22766   -22751   -22734   -22716   -22700   -22685   -22673   -22659 
  -22644   -22634   -22627   -22617   -22611   -22607   -22603   -22600 
  -22599   -22601   -22604   -22607   -22612   -22617   -22621   -22630 
  -22638   -22644   -22651   -22658   -22662   -22670   -22682   -22694 
  -22702   -22712   -22725   -22738   -22748   -22756   -22769   -22781 
  -22792   -22800   -22809   -22821   -22835   -22848   -22862   -22877 
  -22894   -22912   -22928   -22945   -22963   -22982   -23001   -23018 
  -23039   -23063   -23086   -23107   -23130   -23153   -23179   -23205 
  -23229   -23253   -23276   -23294   -23313   -23334   -23348   -23359 
  -23372   -23386   -23395   -23398   -23404   -23413   -23417   -23417 
  -23418   -23422   -23419   -23413   -23411   -23407   -23399   -23396 
  -23390   -23377   -23367   -23357   -23345   -23330   -23314   -23301 
  -23284   -23267   -23251   -23232   -23209   -23190   -23168   -23143 
  -23117   -23097   -23075   -23051   -23031   -23012   -22990   -22968 
  -22950   -22932   -22913   -22894   -22878   -22863   -22851   -22837 
  -22823   -22810   -22801   -22794   -22788   -22779   -22773   -22773 
  -22771   -22770   -22774   -22782   -22788   -22792   -22801   -22816 
  -22825   -22833   -22847   -22859   -22866   -22874   -22879   -22883 
  -22891   -22897   -22896   -22894   -22896   -22891   -22886   -22879 
  -22873   -22863   -22854   -22843   -22833   -22821   -22809   -22801 
  -22792   -22779   -22766   -22754   -22743   -22732   -22719   -22705 
  -22692   -22677   -22666   -22654   -22639   -22626   -22615   -22601 
  -22588   -22577   -22566   -22551   -22538   -22526   -22515   -22507 
  -22495   -22484   -22476   -22465   -22455   -22451   -22445   -22437 
  -22428   -22420   -22416   -22412   -22412   -22416   -22418   -22420 
  -22427   -22435   -22437   -22442   -22450   -22457   -22462   -22469 
  -22480   -22491   -22501   -22508   -22513   -22523   -22534   -22543 
  -22555   -22572   -22585   -22599   -22619   -22640   -22662   -22682 
  -22702   -22724   -22746   -22767   -22789   -22815   -22842   -22864 
  -22889   -22914   -22940   -22964   -22985   -23005   -23028   -23045 
  -23062   -23082   -23098   -23112   -23124   -23136   -23141   -23144 
  -23148   -23149   -23149   -23152   -23151   -23151   -23147   -23144 
  -23143   -23137   -23129   -23126   -23120   -23109   -23099   -23083 
  -23067   -23059   -23045   -23031   -23022   -23014   -23006   -22998 
  -22991   -22987   -22985   -22982   -22985   -22991   -22995   -23002 
  -23013   -23025   -23035   -23047   -23059   -23072   -23083   -23091 
  -23099   -23107   -23116   -23124   -23132   -23136   -23144   -23153 
  -23159   -23166   -23174   -23178   -23180   -23184   -23187   -23188 
