Origin Time       2025/01/13 21:19:00
Lat.              31.8
Long.             131.6
Depth. (km)       30
Mag.              6.9
Station Code      HYGH13
Station Lat.      35.6208
Station Long.     134.6566
Station Height(m) 230
Record Time       2025/01/13 21:21:54
Sampling Freq(Hz) 100Hz
Duration Time(s)  120
Dir.              5
Scale Factor      7845(gal)/8223790
Max. Acc. (gal)   0.374
Last Correction   2025/01/13 21:21:56
Memo.             
[...]
    8965     8968     8969     8968     8969     8968     8962     8958 
    8957     8955     8954     8954     8954     8953     8950     8949 
    8945     8939     8932     8928     8924     8919     8910     8901 
    8893     8883     8872     8864     8856     8850     8849     8847 
    8846     8850     8857     8858     8858     8860     8862     8864 
    8866     8870     8877     8887     8896     8903     8914     8924 
    8931     8942     8954     8964     8973     8981     8986     8991 
    8996     9000     9008     9016     9024     9038     9054     9072 
    9089     9107     9120     9130     9136     9142     9143     9140 
    9138     9127     9111     9094     9077     9062     9049     9036 
    9023     9011     9004     9003     9003     9005     9012     9019 
    9026     9031     9036     9040     9039     9032     9024     9011 
    8996     8980     8964     8946     8927     8911     8899     8885 
    8877     8876     8876     8881     8889     8900     8915     8928 
    8942     8951     8961     8968     8973     8980     8986     8992 
    8995     8997     9004     9008     9009     9012     9016     9022 
    9026     9031     9039     9046     9053     9063     9076     9088 
    9094     9094     9096     9096     9089     9077     9065     9055 
    9042     9031     9026     9020     9013     9009     9009     9008 
    9008     9015     9020     9024     9035     9045     9050     9059 
    9063     9061     9057     9050     9036     9023     9009     8997 
    8986     8980     8970     8964     8961     8958     8958     8959 
    8962     8969     8980     8993     9009     9023     9036     9050 
    9061     9063     9067     9069     9065     9058     9050     9039 
    9027     9019     9016     9013     9013     9018     9026     9035 
    9049     9066     9089     9112     9135     9154     9173     9190 
    9204     9212     9216     9215     9208     9196     9178     9155 
    9131     9104     9077     9049     9022     8997     8972     8947 
    8928     8912     8903     8897     8895     8893     8896     8899 
    8903     8904     8905     8905     8903     8897     8892     8883 
    8870     8860     8847     8833     8818     8800     8779     8760 
    8741     8722     8708     8698     8689     8681     8683     8694 
    8702     8715     8741     8766     8792     8822     8851     8881 
    8908     8934     8955     8974     8989     8997     8999     8993 
    8984     8972     8955     8937     8916     8897     8885     8878 
    8873     8870     8873     8881     8892     8901     8914     8928 
    8939     8951     8964     8974     8984     8993     9003     9008 
    9011     9012     9009     9008     9005     9001     8999     8996 
    8995     8997     9003     9004     9003     9003     9000     8997 
    8995     8992     8989     8989     8985     8985     8986     8986 
    8985     8986     8992     8999     9007     9018     9032     9051 
    9069     9089     9111     9130     9147     9165     9180     9189 
    9196     9198     9196     9190     9181     9165     9144     9120 
    9094     9066     9038     9009     8986     8969     8955     8946 
    8942     8946     8951     8959     8969     8980     8988     8995 
    9004     9016     9023     9024     9027     9026     9018     9008 
    9001     8993     8978     8964     8950     8934     8920     8904 
    8888     8873     8856     8834     8814     8796     8779     8761 
    8742     8725     8711     8698     8689     8688     8691     8698 
    8707     8722     8742     8768     8799     8829     8854     8883 
    8911     8937     8962     8982     9000     9019     9036     9051 
    9066     9078     9090     9105     9119     9126     9134     9142 
    9150     9155     9158     9157     9155     9155     9154     9154 
    9155     9155     9157     9161     9166     9171     9177     9184 
    9190     9194     9193     9193     9196     9197     9196     9192 
    9185     9178     9170     9155     9140     9123     9104     9086 
    9065     9045     9031     9020     9008     9004     9004     9008 
    9015     9024     9036     9049     9057     9066     9074     9076 
    9074     9076     9074     9072     9072     9070     9067     9072 
    9081     9088     9094     9101     9112     9123     9134     9147 
    9162     9173     9188     9204     9212     9223     9236     9244 
    9251     9258     9261     9261     9259     9255     9248     9240 
    9232     9221     9207     9196     9185     9173     9163     9157 
    9146     9135     9128     9119     9105     9092     9076     9057 
    9038     9019     8995     8972     8957     8943     8928     8923 
    8922     8926     8937     8949     8962     8977     8992     9005 
    9015     9024     9032     9035     9035     9034     9031     9026 
    9019     9008     8995     8981     8966     8949     8930     8912 
    8895     8878     8868     8858     8853     8857     8864     8872 
    8881     8893     8908     8926     8943     8961     8978     8992 
    9007     9023     9035     9049     9059     9065     9073     9084 
    9089     9090     9092     9089     9081     9073     9066     9053 
    9036     9026     9018     9008     9001     9000     9001     9000 
    8999     8997     8997     9004     9009     9012     9020     9034 
    9045     9057     9073     9089     9108     9130     9154     9180 
    9204     9225     9248     9269     9286     9301     9309     9316 
    9324     9327     9325     9324     9320     9315     9305     9293 
    9279     9266     9247     9229     9211     9189     9165     9140 
    9115     9084     9051     9022     8995     8966     8938     8914 
    8888     8861     8837     8814     8791     8772     8757     8742 
    8729     8716     8706     8698     8689     8679     8669     8661 
    8654     8645     8638     8637     8638     8640     8640     8641 
    8646     8656     8667     8680     8696     8715     8738     8760 
    8783     8807     8831     8853     8872     8889     8904     8922 
    8941     8957     8973     8988     9003     9020     9038     9053 
    9067     9078     9086     9094     9103     9109     9111     9112 
    9109     9107     9101     9097     9094     9090     9085     9081 
    9080     9077     9074     9073     9074     9074     9074     9077 
    9080     9084     9089     9090     9089     9089     9088     9084 
    9077     9069     9061     9051     9043     9043     9043     9042 
    9045     9050     9054     9058     9062     9066     9070     9070 
    9066     9067     9066     9058     9053     9050     9045     9038 
    9031     9027     9028     9030     9031     9036     9046     9058 
    9070     9086     9108     9131     9154     9180     9211     9242 
    9265     9286     9309     9328     9344     9358     9366     9373 
    9379     9385     9389     9390     9390     9394     9393     9390 
    9389     9386     9377     9367     9360     9348     9333     9321 
    9304     9286     9271     9255     9240     9224     9208     9193 
    9178     9159     9142     9127     9109     9092     9074     9055 
    9036     9019     9003     8984     8966     8950     8934     8916 
    8901     8883     8862     8841     8823     8807     8789     8773 
    8761     8750     8742     8737     8731     8726     8725     8722 
    8721     8718     8711     8706     8703     8702     8699     8699 
    8702     8706     8710     8715     8721     8722     8722     8726 
    8730     8730     8727     8726     8723     8723     8719     8714 
    8710     8703     8698     8695     8689     8687     8685     8684 
    8685     8687     8688     8688     8685     8687     8688     8689 
    8692     8698     8706     8716     8726     8738     8750     8762 
    8775     8788     8800     8812     8826     8838     8851     8865 
    8880     8896     8912     8927     8945     8964     8980     8996 
    9016     9032     9049     9065     9078     9092     9104     9111 
    9121     9134     9140     9150     9159     9162     9162     9165 
    9165     9162     9157     9146     9135     9126     9115     9105 
    9097     9086     9076     9066     9057     9049     9045     9042 
    9034     9028     9030     9032     9031     9030     9031     9032 
    9030     9026     9020     9019     9018     9016     9016     9018 
    9019     9022     9023     9022     9019     9016     9009     9004 
    8997     8989     8984     8976     8968     8964     8962     8965 
    8969     8974     8982     8989     8999     9011     9018     9023 
    9031     9036     9038     9039     9042     9046     9051     9059 
    9072     9082     9096     9111     9128     9150     9167     9178 
    9193     9208     9216     9224     9231     9231     9232     9231 
    9223     9211     9201     9192     9180     9166     9154     9139 
    9128     9121     9113     9107     9103     9100     9103     9105 
    9108     9112     9113     9109     9108     9107     9103     9097 
    9093     9097     9104     9109     9123     9142     9158     9175 
    9194     9209     9224     9238     9248     9252     9254     9251 
    9243     9231     9217     9204     9190     9175     9162     9148 
    9131     9119     9108     9097     9088     9081     9077     9076 
    9077     9081     9085     9092     9100     9105     9112     9120 
    9124     9127     9127     9121     9119     9113     9104     9093 
    9081     9067     9053     9039     9027     9015     9001     8993 
    8985     8976     8966     8959     8954     8949     8945     8946 
    8947     8946     8945     8945     8942     8937     8934     8930 
    8922     8914     8907     8896     8883     8873     8864     8851 
    8841     8834     8826     8820     8819     8822     8830     8841 
    8850     8861     8874     8885     8895     8904     8911     8915 
    8918     8918     8918     8919     8920     8920     8924     8932 
    8941     8947     8958     8969     8976     8984     8992     8997 
    8999     8999     8993     8988     8980     8973     8968     8959 
    8945     8934     8926     8915     8903     8891     8878     8870 
    8862     8856     8853     8850     8853     8862     8872     8884 
    8900     8916     8931     8951     8970     8980     8995     9011 
    9019     9031     9046     9055     9063     9074     9086     9099 
    9109     9123     9134     9139     9146     9153     9155     9157 
    9159     9162     9163     9166     9169     9170     9171     9171 
    9171     9175     9181     9184     9182     9182     9184     9181 
    9175     9171     9166     9158     9148     9139     9131     9121 
    9111     9101     9099     9094     9089     9088     9089     9093 
    9099     9104     9113     9126     9135     9142     9148     9151 
    9153     9153     9150     9147     9140     9132     9126     9119 
    9112     9107     9105     9108     9108     9109     9116     9124 
    9130     9138     9147     9154     9158     9163     9167     9170 
    9171     9171     9171     9174     9177     9178     9181     9185 
    9185     9186     9188     9188     9189     9189     9190     9188 
    9185     9186     9185     9180     9174     9169     9163     9158 
    9157     9155     9154     9157     9159     9161     9165     9170 
    9173     9175     9178     9178     9178     9175     9170     9163 
    9155     9140     9124     9109     9092     9072     9053     9035 
    9016     8996     8978     8962     8951     8939     8924     8916 
    8910     8900     8892     8885     8876     8868     8861     8851 
    8837     8823     8810     8800     8788     8772     8756     8743 
    8731     8721     8711     8707     8704     8704     8711     8723 
    8735     8753     8781     8807     8831     8860     8887     8911 
    8932     8950     8964     8969     8970     8968     8959     8947 
    8935     8922     8908     8895     8883     8874     8869     8868 
    8869     8874     8881     8891     8901     8919     8935     8953 
    8972     8989     9005     9024     9038     9049     9059     9069 
    9076     9082     9081     9080     9085     9082     9074     9072 
    9069     9067     9069     9070     9072     9076     9081     9086 
    9093     9097     9104     9111     9115     9115     9115     9115 
    9113     9104     9096     9086     9074     9062     9049     9034 
    9018     9001     8984     8966     8951     8941     8931     8926 
    8923     8923     8924     8928     8932     8934     8934     8930 
    8923     8914     8896     8874     8850     8826     8799     8769 
    8741     8714     8691     8673     8658     8648     8642     8642 
    8644     8649     8664     8679     8695     8714     8734     8748 
    8761     8779     8796     8810     8823     8834     8845     8854 
    8862     8868     8869     8872     8877     8877     8873     8872 
    8874     8877     8883     8887     8891     8896     8899     8900 
    8905     8910     8914     8918     8922     8928     8935     8945 
    8957     8966     8978     8993     9007     9020     9036     9049 
    9058     9067     9077     9085     9094     9104     9113     9126 
    9136     9146     9158     9169     9180     9194     9207     9216 
    9228     9243     9252     9262     9274     9289     9301     9312 
    9327     9337     9350     9366     9378     9387     9397     9401 
    9404     9406     9405     9400     9394     9391     9390     9387 
    9383     9381     9381     9381     9379     9378     9375     9373 
    9374     9375     9374     9375     9377     9377     9373     9369 
    9363     9352     9339     9319     9296     9275     9251     9223 
    9196     9169     9144     9126     9108     9090     9078     9073 
    9070     9072     9077     9082     9086     9092     9094     9094 
    9089     9082     9073     9058     9040     9022     9001     8981 
    8959     8938     8915     8895     8878     8861     8849     8841 
    8835     8835     8843     8850     8858     8865     8870     8880 
    8889     8896     8901     8904     8907     8910     8912     8918 
    8923     8928     8934     8939     8946     8954     8964     8972 
    8981     8993     9004     9011     9016     9022     9024     9024 
    9027     9031     9030     9032     9039     9040     9040     9046 
    9047     9047     9053     9053     9054     9059     9061     9063 
    9073     9081     9088     9097     9111     9120     9130     9146 
    9161     9171     9184     9196     9204     9211     9217     9220 
    9219     9219     9217     9216     9215     9211     9205     9204 
    9207     9205     9202     9204     9208     9209     9213     9219 
    9223     9228     9229     9229     9229     9229     9223     9215 
    9205     9193     9175     9162     9146     9128     9113     9100 
    9084     9073     9063     9049     9036     9026     9013     9000 
    8985     8969     8951     8934     8915     8895     8878     8860 
    8842     8830     8818     8808     8804     8799     8795     8797 
    8799     8796     8797     8796     8792     8789     8784     8777 
    8777     8772     8762     8758     8754     8749     8746     8746 
    8746     8746     8753     8761     8765     8770     8783     8789 
    8796     8807     8816     8824     8833     8845     8858     8872 
    8884     8897     8912     8926     8939     8957     8970     8982 
    8999     9012     9024     9039     9053     9063     9077     9089 
    9099     9107     9115     9121     9127     9128     9128     9127 
    9126     9121     9113     9101     9090     9081     9073     9063 
    9051     9042     9035     9027     9016     9009     9005     9001 
    9000     9000     9001     9005     9009     9011     9015     9022 
    9026     9030     9036     9042     9043     9047     9050     9053 
    9054     9057     9055     9058     9061     9059     9058     9058 
    9058     9063     9069     9072     9078     9088     9094     9101 
    9105     9111     9117     9123     9127     9132     9136     9139 
    9140     9143     9146     9146     9144     9142     9136     9134 
    9130     9123     9119     9113     9108     9105     9104     9103 
    9103     9105     9109     9107     9107     9105     9096     9088 
    9080     9063     9047     9034     9016     8995     8973     8950 
    8931     8914     8895     8877     8864     8853     8845     8837 
    8833     8831     8830     8830     8834     8838     8845     8851 
    8857     8865     8873     8878     8883     8887     8892     8895 
    8897     8901     8901     8903     8904     8907     8912     8918 
    8923     8932     8942     8951     8959     8966     8972     8973 
    8970     8972     8970     8966     8964     8962     8959     8954 
    8950     8945     8941     8937     8934     8935     8938     8935 
    8932     8934     8928     8918     8911     8905     8896     8885 
    8872     8860     8847     8834     8819     8808     8796     8781 
    8770     8760     8749     8745     8743     8742     8746     8750 
    8753     8760     8768     8776     8787     8799     8811     8823 
    8837     8854     8870     8885     8904     8927     8951     8974 
    8996     9015     9035     9053     9065     9074     9081     9085 
    9088     9090     9090     9092     9093     9096     9103     9111 
    9120     9134     9147     9163     9181     9198     9216     9232 
    9246     9262     9274     9286     9294     9302     9306     9308 
    9304     9298     9289     9277     9262     9246     9229     9213 
    9198     9182     9167     9157     9148     9140     9135     9132 
    9130     9127     9126     9126     9119     9115     9111     9103 
    9097     9090     9078     9067     9058     9047     9036     9030 
    9022     9011     9001     8996     8989     8982     8977     8972 
    8966     8964     8961     8957     8949     8946     8947     8941 
    8932     8928     8920     8910     8899     8884     8868     8853 
    8838     8823     8808     8795     8784     8776     8768     8762 
    8762     8761     8760     8761     8765     8770     8776     8781 
    8788     8795     8803     8814     8823     8834     8845     8856 
    8868     8881     8893     8905     8918     8926     8937     8950 
    8957     8964     8974     8982     8991     9001     9011     9018 
    9027     9039     9049     9055     9066     9077     9085     9094 
    9100     9105     9113     9117     9123     9128     9132     9138 
    9142     9142     9142     9143     9140     9136     9132     9131 
    9132     9131     9130     9132     9135     9135     9138     9143 
    9146     9150     9154     9154     9151     9147     9140     9131 
    9119     9107     9090     9073     9051     9028     9005     8986 
    8969     8950     8932     8920     8911     8905     8903     8904 
    8908     8914     8920     8931     8942     8953     8966     8980 
    8989     9000     9011     9016     9022     9028     9030     9035 
    9042     9047     9053     9061     9069     9081     9096     9108 
    9123     9139     9153     9165     9180     9192     9200     9211 
    9220     9225     9228     9231     9229     9224     9220     9212 
