Origin Time       2025/01/13 21:19:00
Lat.              31.8
Long.             131.6
Depth. (km)       30
Mag.              6.9
Station Code      HYGH08
Station Lat.      35.1010
Station Long.     134.9036
Station Height(m) 160
Record Time       2025/01/13 21:21:53
Sampling Freq(Hz) 100Hz
Duration Time(s)  120
Dir.              5
Scale Factor      7845(gal)/8223790
Max. Acc. (gal)   0.295
Last Correction   2025/01/13 21:21:55
Memo.             
[...]
   -5524    -5517    -5516    -5514    -5517    -5529    -5548    -5572 
   -5603    -5628    -5640    -5655    -5672    -5691    -5724    -5751 
   -5746    -5736    -5736    -5732    -5728    -5726    -5714    -5690 
   -5663    -5649    -5647    -5641    -5629    -5636    -5653    -5652 
   -5644    -5643    -5633    -5624    -5632    -5644    -5645    -5641 
   -5643    -5649    -5659    -5668    -5675    -5686    -5702    -5718 
   -5734    -5745    -5744    -5738    -5742    -5763    -5780    -5784 
   -5779    -5767    -5755    -5752    -5755    -5745    -5728    -5718 
   -5718    -5715    -5705    -5694    -5694    -5705    -5717    -5721 
   -5714    -5706    -5706    -5715    -5728    -5730    -5726    -5719 
   -5713    -5717    -5732    -5741    -5740    -5734    -5737    -5746 
   -5738    -5725    -5725    -5721    -5717    -5719    -5724    -5721 
   -5713    -5710    -5721    -5729    -5721    -5711    -5719    -5740 
   -5742    -5725    -5714    -5715    -5711    -5711    -5717    -5721 
   -5717    -5706    -5701    -5709    -5709    -5697    -5686    -5679 
   -5664    -5648    -5643    -5636    -5621    -5624    -5632    -5618 
   -5607    -5606    -5593    -5586    -5593    -5595    -5598    -5607 
   -5622    -5634    -5630    -5624    -5633    -5641    -5643    -5644 
   -5643    -5634    -5630    -5632    -5630    -5629    -5632    -5626 
   -5624    -5628    -5630    -5640    -5641    -5630    -5640    -5660 
   -5663    -5676    -5709    -5728    -5751    -5780    -5791    -5803 
   -5814    -5810    -5810    -5803    -5772    -5757    -5756    -5741 
   -5732    -5721    -5701    -5701    -5710    -5698    -5688    -5691 
   -5686    -5676    -5667    -5657    -5653    -5644    -5630    -5629 
   -5629    -5621    -5620    -5616    -5610    -5610    -5610    -5605 
   -5605    -5605    -5607    -5620    -5618    -5611    -5624    -5634 
   -5630    -5630    -5628    -5620    -5618    -5622    -5617    -5607 
   -5606    -5609    -5605    -5595    -5597    -5618    -5628    -5617 
   -5613    -5624    -5629    -5633    -5636    -5634    -5644    -5657 
   -5665    -5661    -5661    -5680    -5683    -5672    -5690    -5707 
   -5698    -5701    -5713    -5718    -5729    -5726    -5707    -5698 
   -5690    -5667    -5651    -5644    -5626    -5611    -5611    -5598 
   -5576    -5574    -5566    -5556    -5564    -5562    -5552    -5567 
   -5594    -5603    -5610    -5636    -5659    -5670    -5688    -5702 
   -5707    -5722    -5736    -5742    -5751    -5740    -5718    -5714 
   -5713    -5699    -5679    -5668    -5668    -5663    -5652    -5632 
   -5603    -5591    -5578    -5544    -5539    -5553    -5548    -5536 
   -5526    -5528    -5543    -5535    -5524    -5540    -5555    -5555 
   -5566    -5593    -5610    -5614    -5636    -5652    -5643    -5651 
   -5671    -5670    -5675    -5686    -5678    -5667    -5661    -5647 
   -5630    -5622    -5610    -5605    -5617    -5622    -5622    -5624 
   -5614    -5626    -5655    -5626    -5595    -5632    -5653    -5626 
   -5620    -5636    -5633    -5618    -5633    -5661    -5648    -5618 
   -5634    -5660    -5657    -5660    -5668    -5667    -5667    -5660 
   -5655    -5656    -5649    -5656    -5665    -5656    -5652    -5656 
   -5667    -5679    -5661    -5648    -5680    -5698    -5678    -5688 
   -5715    -5705    -5684    -5690    -5698    -5665    -5625    -5629 
   -5628    -5591    -5579    -5589    -5567    -5539    -5548    -5556 
   -5549    -5559    -5570    -5564    -5568    -5590    -5587    -5560 
   -5560    -5576    -5570    -5557    -5549    -5547    -5571    -5586 
   -5574    -5582    -5613    -5644    -5656    -5648    -5661    -5682 
   -5683    -5698    -5714    -5710    -5715    -5724    -5724    -5728 
   -5732    -5721    -5703    -5717    -5729    -5671    -5633    -5687 
   -5698    -5630    -5611    -5648    -5649    -5614    -5583    -5580 
   -5591    -5579    -5556    -5537    -5536    -5563    -5566    -5541 
   -5551    -5563    -5566    -5586    -5599    -5601    -5609    -5625 
   -5651    -5676    -5691    -5697    -5715    -5741    -5746    -5728 
   -5715    -5728    -5734    -5725    -5710    -5714    -5730    -5707 
   -5671    -5668    -5682    -5690    -5667    -5630    -5634    -5657 
   -5647    -5629    -5645    -5645    -5617    -5629    -5665    -5649 
   -5611    -5616    -5629    -5622    -5611    -5589    -5572    -5591 
   -5591    -5563    -5567    -5589    -5589    -5570    -5562    -5572 
   -5599    -5601    -5545    -5552    -5620    -5583    -5514    -5545 
   -5556    -5517    -5549    -5579    -5520    -5503    -5557    -5564 
   -5548    -5572    -5590    -5572    -5601    -5648    -5620    -5603 
   -5638    -5649    -5621    -5597    -5610    -5611    -5609    -5595 
   -5553    -5602    -5637    -5574    -5586    -5603    -5560    -5595 
   -5632    -5587    -5590    -5630    -5626    -5633    -5656    -5649 
   -5651    -5672    -5664    -5675    -5738    -5746    -5714    -5719 
   -5725    -5752    -5778    -5753    -5752    -5761    -5752    -5764 
   -5790    -5788    -5752    -5755    -5778    -5768    -5783    -5782 
   -5736    -5764    -5805    -5757    -5713    -5714    -5722    -5724 
   -5692    -5674    -5672    -5638    -5628    -5672    -5698    -5645 
   -5599    -5661    -5699    -5633    -5602    -5653    -5678    -5625 
   -5591    -5626    -5634    -5601    -5591    -5587    -5586    -5616 
   -5620    -5568    -5570    -5648    -5652    -5601    -5634    -5659 
   -5625    -5656    -5714    -5715    -5670    -5660    -5765    -5805 
   -5668    -5630    -5757    -5757    -5643    -5625    -5682    -5703 
   -5645    -5580    -5640    -5706    -5651    -5652    -5715    -5653 
   -5641    -5751    -5699    -5624    -5711    -5691    -5621    -5692 
   -5680    -5607    -5632    -5637    -5609    -5647    -5683    -5628 
   -5566    -5587    -5661    -5686    -5618    -5616    -5672    -5663 
   -5702    -5732    -5686    -5746    -5771    -5717    -5796    -5792 
   -5663    -5765    -5902    -5730    -5628    -5832    -5914    -5740 
   -5694    -5803    -5792    -5776    -5792    -5688    -5644    -5745 
   -5825    -5734    -5607    -5714    -5779    -5659    -5734    -5786 
   -5626    -5680    -5787    -5692    -5701    -5728    -5643    -5724 
   -5813    -5698    -5598    -5632    -5757    -5715    -5586    -5678 
   -5682    -5628    -5655    -5582    -5610    -5643    -5599    -5628 
   -5575    -5570    -5622    -5549    -5578    -5641    -5530    -5539 
   -5688    -5587    -5390    -5555    -5749    -5544    -5443    -5591 
   -5567    -5516    -5528    -5491    -5539    -5567    -5501    -5508 
   -5529    -5463    -5472    -5517    -5428    -5389    -5456    -5433 
   -5395    -5425    -5429    -5448    -5463    -5417    -5435    -5516 
   -5506    -5394    -5408    -5556    -5516    -5416    -5494    -5502 
   -5489    -5525    -5444    -5487    -5593    -5506    -5505    -5607 
   -5586    -5552    -5614    -5638    -5610    -5628    -5636    -5632 
   -5645    -5607    -5626    -5705    -5622    -5575    -5688    -5679 
   -5651    -5733    -5672    -5611    -5759    -5768    -5659    -5748 
   -5806    -5730    -5749    -5822    -5803    -5748    -5782    -5856 
   -5837    -5809    -5815    -5784    -5799    -5867    -5829    -5768 
   -5792    -5769    -5714    -5726    -5719    -5687    -5691    -5674 
   -5626    -5607    -5624    -5659    -5647    -5620    -5657    -5657 
   -5620    -5682    -5738    -5687    -5667    -5718    -5692    -5644 
   -5783    -5935    -5845    -5707    -5734    -5818    -5868    -5927 
   -5914    -5825    -5853    -5883    -5811    -5840    -5898    -5860 
   -5838    -5844    -5806    -5778    -5803    -5827    -5815    -5799 
   -5779    -5746    -5765    -5790    -5776    -5772    -5717    -5632 
   -5601    -5616    -5691    -5695    -5571    -5503    -5471    -5440 
   -5540    -5613    -5525    -5449    -5437    -5436    -5478    -5522 
   -5491    -5456    -5498    -5529    -5483    -5448    -5475    -5508 
   -5537    -5570    -5518    -5452    -5501    -5557    -5557    -5589 
   -5606    -5559    -5552    -5603    -5618    -5602    -5640    -5714 
   -5710    -5628    -5606    -5620    -5633    -5740    -5759    -5587 
   -5586    -5756    -5679    -5537    -5678    -5751    -5579    -5555 
   -5659    -5638    -5599    -5617    -5630    -5620    -5599    -5582 
   -5582    -5590    -5575    -5552    -5532    -5503    -5505    -5526 
   -5481    -5409    -5398    -5440    -5483    -5483    -5420    -5340 
   -5367    -5510    -5551    -5439    -5420    -5528    -5535    -5459 
   -5502    -5591    -5589    -5570    -5548    -5543    -5594    -5613 
   -5610    -5628    -5602    -5566    -5601    -5663    -5663    -5609 
   -5566    -5583    -5644    -5659    -5597    -5545    -5559    -5583 
   -5584    -5575    -5560    -5552    -5568    -5593    -5595    -5580 
   -5575    -5564    -5557    -5578    -5576    -5537    -5536    -5567 
   -5563    -5525    -5510    -5517    -5514    -5526    -5543    -5535 
   -5543    -5566    -5572    -5590    -5610    -5605    -5611    -5641 
   -5655    -5648    -5640    -5637    -5636    -5622    -5621    -5643 
   -5620    -5537    -5533    -5647    -5702    -5602    -5482    -5509 
   -5660    -5709    -5589    -5549    -5660    -5697    -5641    -5640 
   -5671    -5671    -5670    -5684    -5687    -5676    -5678    -5699 
   -5719    -5719    -5709    -5721    -5744    -5740    -5718    -5719 
   -5737    -5760    -5778    -5768    -5756    -5792    -5833    -5822 
   -5802    -5825    -5860    -5872    -5871    -5871    -5867    -5852 
   -5848    -5853    -5842    -5823    -5798    -5761    -5749    -5742 
   -5687    -5638    -5641    -5637    -5609    -5591    -5579    -5562 
   -5555    -5556    -5552    -5552    -5572    -5582    -5568    -5584 
   -5611    -5598    -5591    -5617    -5628    -5628    -5632    -5637 
   -5648    -5649    -5636    -5632    -5640    -5634    -5617    -5613 
   -5610    -5598    -5590    -5589    -5591    -5601    -5598    -5576 
   -5562    -5567    -5587    -5591    -5566    -5549    -5576    -5624 
   -5624    -5586    -5609    -5676    -5671    -5632    -5657    -5697 
   -5690    -5687    -5695    -5686    -5684    -5692    -5688    -5691 
   -5691    -5675    -5668    -5663    -5647    -5634    -5622    -5601 
   -5579    -5560    -5548    -5539    -5521    -5514    -5520    -5512 
   -5499    -5506    -5526    -5543    -5543    -5544    -5564    -5590 
   -5605    -5616    -5637    -5670    -5690    -5697    -5710    -5725 
   -5725    -5724    -5726    -5726    -5717    -5703    -5698    -5701 
   -5698    -5692    -5694    -5690    -5675    -5670    -5680    -5678 
   -5657    -5638    -5632    -5629    -5624    -5614    -5613    -5614 
   -5614    -5609    -5602    -5598    -5589    -5578    -5570    -5563 
   -5551    -5539    -5535    -5543    -5545    -5536    -5537    -5556 
   -5564    -5559    -5571    -5597    -5614    -5626    -5643    -5663 
   -5679    -5692    -5701    -5705    -5709    -5714    -5713    -5705 
   -5701    -5701    -5691    -5678    -5670    -5668    -5661    -5645 
   -5632    -5622    -5611    -5599    -5587    -5578    -5576    -5572 
   -5566    -5563    -5563    -5564    -5568    -5576    -5582    -5589 
   -5601    -5610    -5613    -5617    -5617    -5613    -5616    -5618 
   -5611    -5601    -5599    -5597    -5589    -5587    -5590    -5586 
   -5582    -5587    -5594    -5597    -5603    -5614    -5622    -5622 
   -5616    -5611    -5609    -5602    -5595    -5589    -5579    -5576 
   -5583    -5587    -5590    -5591    -5593    -5599    -5614    -5629 
   -5644    -5661    -5686    -5714    -5730    -5742    -5768    -5794 
   -5800    -5799    -5809    -5833    -5856    -5865    -5868    -5872 
   -5876    -5877    -5876    -5871    -5864    -5863    -5856    -5840 
   -5825    -5810    -5795    -5787    -5780    -5767    -5753    -5745 
   -5741    -5737    -5725    -5707    -5703    -5709    -5703    -5701 
   -5701    -5690    -5683    -5690    -5698    -5701    -5698    -5697 
   -5698    -5694    -5688    -5687    -5687    -5683    -5672    -5663 
   -5651    -5628    -5607    -5591    -5575    -5560    -5547    -5536 
   -5532    -5530    -5535    -5545    -5553    -5562    -5574    -5583 
   -5593    -5606    -5618    -5630    -5644    -5653    -5660    -5670 
   -5675    -5672    -5672    -5671    -5665    -5661    -5655    -5643 
   -5628    -5613    -5594    -5567    -5548    -5539    -5529    -5521 
   -5521    -5520    -5514    -5512    -5509    -5506    -5508    -5509 
   -5514    -5520    -5525    -5536    -5547    -5556    -5570    -5586 
   -5597    -5605    -5613    -5622    -5632    -5634    -5634    -5637 
   -5638    -5633    -5626    -5621    -5613    -5607    -5601    -5589 
   -5582    -5584    -5578    -5564    -5555    -5545    -5536    -5529 
   -5525    -5521    -5524    -5524    -5517    -5513    -5514    -5514 
   -5514    -5517    -5524    -5530    -5536    -5540    -5548    -5559 
   -5563    -5568    -5578    -5583    -5586    -5594    -5602    -5607 
   -5613    -5618    -5622    -5629    -5630    -5630    -5634    -5634 
   -5632    -5628    -5625    -5621    -5620    -5620    -5614    -5609 
   -5610    -5609    -5605    -5602    -5601    -5597    -5591    -5586 
   -5579    -5574    -5567    -5556    -5540    -5518    -5494    -5471 
   -5448    -5428    -5410    -5389    -5371    -5358    -5348    -5344 
   -5344    -5341    -5339    -5336    -5333    -5332    -5332    -5333 
   -5339    -5347    -5356    -5368    -5386    -5402    -5416    -5429 
   -5440    -5449    -5462    -5475    -5489    -5501    -5514    -5525 
   -5536    -5552    -5571    -5582    -5584    -5595    -5618    -5636 
   -5641    -5644    -5649    -5652    -5652    -5651    -5645    -5638 
   -5637    -5640    -5644    -5643    -5641    -5648    -5660    -5675 
   -5690    -5706    -5725    -5738    -5744    -5752    -5765    -5771 
   -5768    -5763    -5760    -5760    -5760    -5751    -5740    -5737 
   -5732    -5719    -5717    -5721    -5719    -5709    -5698    -5691 
   -5690    -5686    -5679    -5670    -5655    -5645    -5641    -5633 
   -5622    -5614    -5607    -5607    -5609    -5610    -5617    -5626 
   -5636    -5649    -5657    -5663    -5665    -5670    -5679    -5688 
   -5692    -5691    -5692    -5699    -5711    -5721    -5725    -5730 
   -5738    -5746    -5748    -5749    -5752    -5756    -5759    -5760 
   -5760    -5760    -5756    -5752    -5756    -5760    -5760    -5760 
   -5763    -5768    -5772    -5778    -5784    -5787    -5788    -5795 
   -5800    -5798    -5798    -5805    -5805    -5794    -5783    -5768 
   -5756    -5751    -5738    -5726    -5722    -5719    -5711    -5702 
   -5697    -5695    -5695    -5694    -5694    -5692    -5695    -5698 
   -5688    -5679    -5674    -5667    -5665    -5670    -5668    -5663 
   -5660    -5660    -5664    -5671    -5674    -5664    -5653    -5648 
   -5645    -5640    -5636    -5625    -5613    -5607    -5599    -5586 
   -5583    -5590    -5593    -5589    -5582    -5582    -5583    -5586 
   -5590    -5584    -5571    -5568    -5568    -5570    -5578    -5582 
   -5575    -5572    -5583    -5597    -5607    -5621    -5633    -5638 
   -5645    -5651    -5651    -5652    -5660    -5664    -5665    -5664 
   -5657    -5655    -5656    -5656    -5657    -5663    -5671    -5679 
   -5690    -5699    -5706    -5713    -5718    -5717    -5717    -5717 
   -5718    -5713    -5699    -5687    -5675    -5664    -5661    -5660 
   -5655    -5647    -5636    -5632    -5634    -5636    -5634    -5634 
   -5633    -5632    -5632    -5634    -5637    -5638    -5634    -5625 
   -5614    -5603    -5589    -5579    -5571    -5557    -5540    -5526 
   -5516    -5508    -5502    -5498    -5493    -5490    -5491    -5494 
   -5501    -5512    -5520    -5528    -5541    -5556    -5567    -5578 
   -5595    -5607    -5613    -5618    -5626    -5630    -5628    -5629 
   -5632    -5629    -5630    -5634    -5630    -5626    -5628    -5628 
   -5628    -5630    -5632    -5632    -5630    -5629    -5632    -5633 
   -5629    -5626    -5626    -5629    -5624    -5613    -5607    -5605 
   -5595    -5584    -5580    -5582    -5579    -5576    -5578    -5583 
   -5587    -5589    -5593    -5601    -5606    -5610    -5616    -5621 
   -5626    -5634    -5644    -5655    -5665    -5679    -5692    -5703 
   -5713    -5724    -5732    -5737    -5742    -5746    -5745    -5744 
   -5742    -5740    -5733    -5722    -5711    -5702    -5691    -5680 
   -5675    -5664    -5652    -5644    -5637    -5630    -5625    -5620 
   -5617    -5620    -5622    -5625    -5636    -5651    -5659    -5665 
   -5679    -5690    -5697    -5703    -5705    -5701    -5692    -5684 
   -5678    -5665    -5655    -5644    -5630    -5621    -5614    -5607 
   -5603    -5603    -5601    -5595    -5591    -5590    -5591    -5591 
   -5589    -5583    -5580    -5583    -5584    -5589    -5597    -5605 
   -5610    -5614    -5622    -5633    -5641    -5648    -5653    -5653 
   -5655    -5657    -5659    -5653    -5648    -5648    -5644    -5641 
   -5641    -5640    -5637    -5634    -5636    -5638    -5640    -5638 
   -5637    -5633    -5629    -5628    -5622    -5618    -5617    -5611 
   -5606    -5601    -5595    -5589    -5583    -5583    -5583    -5579 
   -5575    -5571    -5566    -5564    -5567    -5563    -5562    -5564 
   -5566    -5568    -5575    -5584    -5597    -5609    -5620    -5629 
   -5636    -5643    -5645    -5648    -5651    -5652    -5647    -5637 
   -5629    -5618    -5609    -5601    -5586    -5567    -5552    -5541 
   -5529    -5526    -5526    -5522    -5525    -5533    -5536    -5541 
   -5547    -5551    -5559    -5571    -5580    -5589    -5599    -5607 
   -5614    -5617    -5621    -5625    -5628    -5629    -5632    -5634 
   -5638    -5643    -5645    -5648    -5648    -5649    -5652    -5653 
   -5653    -5657    -5660    -5657    -5657    -5661    -5668    -5672 
   -5680    -5694    -5709    -5718    -5724    -5728    -5728    -5725 
   -5725    -5724    -5721    -5717    -5711    -5705    -5697    -5688 
   -5680    -5672    -5665    -5659    -5655    -5653    -5647    -5641 
   -5638    -5634    -5628    -5622    -5621    -5618    -5611    -5607 
   -5606    -5602    -5597    -5595    -5595    -5598    -5602    -5605 
   -5607    -5610    -5611    -5614    -5616    -5618    -5618    -5617 
   -5617    -5618    -5618    -5621    -5622    -5622    -5625    -5630 
   -5637    -5645    -5653    -5663    -5674    -5684    -5692    -5702 
   -5707    -5707    -5714    -5718    -5717    -5719    -5719    -5711 
   -5707    -5702    -5697    -5691    -5687    -5683    -5676    -5667 
   -5656    -5647    -5636    -5625    -5614    -5605    -5597    -5591 
   -5590    -5589    -5586    -5582    -5578    -5579    -5579    -5575 
   -5572    -5578    -5576    -5568    -5570    -5576    -5574    -5567 
   -5567    -5571    -5576    -5582    -5582    -5579    -5587    -5595 
   -5601    -5610    -5624    -5633    -5641    -5648    -5655    -5663 
   -5671    -5679    -5683    -5686    -5686    -5684    -5682    -5680 
   -5675    -5671    -5670    -5668    -5667    -5668    -5671    -5674 
   -5678    -5686    -5695    -5706    -5717    -5724    -5728    -5736 
