Origin Time       2025/01/13 21:19:00
Lat.              31.8
Long.             131.6
Depth. (km)       30
Mag.              6.9
Station Code      HYGH10
Station Lat.      34.8164
Station Long.     134.8078
Station Height(m) -82
Record Time       2025/01/13 21:21:40
Sampling Freq(Hz) 100Hz
Duration Time(s)  120
Dir.              3
Scale Factor      2942(gal)/8224139
Max. Acc. (gal)   0.264
Last Correction   2025/01/13 21:21:41
Memo.             
[...]
  218038   218038   218037   218031   218027   218027   218023   218016 
  218020   218026   218025   218030   218038   218038   218033   218027 
  218025   218027   218031   218031   218033   218038   218049   218060 
  218069   218077   218081   218084   218085   218085   218085   218089 
  218097   218107   218115   218123   218130   218131   218122   218103 
  218081   218060   218041   218023   218007   217992   217983   217972 
  217958   217948   217935   217923   217910   217898   217888   217881 
  217875   217875   217879   217880   217880   217884   217891   217898 
  217904   217912   217918   217926   217937   217944   217956   217975 
  217991   218007   218023   218031   218041   218053   218062   218068 
  218076   218084   218088   218089   218089   218091   218095   218099 
  218104   218107   218107   218106   218100   218088   218085   218085 
  218084   218092   218106   218118   218128   218133   218137   218139 
  218135   218130   218127   218127   218128   218126   218122   218123 
  218124   218120   218112   218104   218095   218088   218084   218077 
  218068   218061   218054   218050   218050   218052   218056   218060 
  218065   218069   218070   218070   218069   218064   218056   218049 
  218041   218033   218026   218022   218016   218010   218006   218003 
  217996   217991   217988   217992   218000   218010   218015   218018 
  218019   218016   218011   218006   218000   217993   217987   217979 
  217969   217961   217956   217950   217949   217948   217939   217931 
  217922   217911   217903   217896   217891   217890   217894   217906 
  217921   217934   217945   217960   217977   217989   218002   218016 
  218025   218030   218041   218053   218061   218073   218087   218095 
  218101   218108   218114   218119   218122   218119   218120   218122 
  218119   218120   218122   218119   218116   218111   218101   218095 
  218087   218072   218053   218039   218029   218020   218016   218015 
  218010   218007   218008   218008   218010   218010   218008   218006 
  218000   217995   217993   217996   218002   218006   218007   218004 
  218002   218002   218000   217999   218000   217999   217999   217996 
  217988   217981   217977   217976   217980   217987   217988   217989 
  217988   217983   217979   217973   217966   217956   217946   217939 
  217938   217944   217949   217950   217952   217953   217953   217961 
  217969   217966   217962   217961   217957   217962   217976   217988 
  217998   218010   218022   218030   218034   218039   218045   218050 
  218053   218057   218064   218072   218077   218087   218096   218101 
  218112   218127   218138   218145   218145   218138   218134   218130 
  218126   218126   218127   218124   218123   218122   218116   218110 
  218107   218103   218096   218092   218093   218099   218107   218120 
  218128   218134   218141   218145   218146   218151   218154   218149 
  218147   218147   218139   218128   218120   218114   218107   218110 
  218118   218126   218130   218135   218142   218147   218150   218153 
  218154   218150   218150   218151   218147   218146   218149   218142 
  218137   218127   218107   218089   218074   218057   218042   218030 
  218023   218026   218025   218018   218008   218006   218006   218006 
  218003   218002   218002   217993   217984   217979   217972   217960 
  217952   217949   217945   217945   217946   217948   217950   217953 
  217957   217960   217961   217958   217958   217960   217958   217958 
  217960   217958   217961   217966   217965   217962   217966   217968 
  217962   217961   217956   217948   217949   217949   217945   217942 
  217939   217934   217929   217925   217918   217910   217903   217903 
  217903   217903   217907   217904   217898   217900   217907   217908 
  217914   217923   217934   217945   217957   217968   217977   217988 
  218002   218019   218035   218046   218054   218061   218066   218072 
  218077   218083   218088   218096   218101   218104   218107   218107 
  218103   218099   218095   218092   218091   218087   218081   218079 
  218072   218066   218058   218047   218035   218022   218011   218003 
  217989   217976   217971   217965   217960   217962   217965   217969 
  217981   217993   218002   218012   218026   218037   218049   218068 
  218083   218092   218101   218111   218116   218118   218114   218110 
  218104   218100   218096   218091   218081   218068   218052   218035 
  218022   218010   218000   217995   217989   217984   217979   217975 
  217973   217972   217972   217973   217975   217977   217975   217972 
  217973   217973   217976   217984   217988   217991   217993   217995 
  217996   218000   218008   218018   218026   218037   218046   218057 
  218073   218087   218097   218111   218120   218126   218128   218127 
  218124   218120   218114   218106   218096   218093   218097   218095 
  218092   218092   218087   218080   218079   218074   218074   218080 
  218084   218091   218101   218114   218127   218141   218155   218170 
  218181   218193   218203   218215   218228   218238   218249   218266 
  218280   218290   218300   218305   218307   218308   218307   218295 
  218281   218276   218268   218253   218239   218226   218211   218201 
  218197   218192   218185   218177   218173   218165   218155   218151 
  218154   218154   218155   218157   218157   218155   218151   218146 
  218142   218141   218138   218135   218128   218119   218110   218103 
  218097   218087   218074   218069   218068   218064   218062   218058 
  218052   218046   218039   218033   218031   218029   218020   218011 
  218006   218007   218010   218004   218002   218006   218006   218002 
  218000   217999   217998   217995   217988   217981   217977   217975 
  217972   217966   217965   217971   217976   217981   217989   217993 
  217998   218007   218016   218020   218027   218035   218042   218052 
  218061   218069   218077   218081   218084   218089   218093   218097 
  218103   218104   218111   218122   218126   218124   218130   218137 
  218138   218139   218143   218142   218138   218142   218150   218154 
  218158   218165   218172   218180   218189   218192   218189   218191 
  218191   218182   218169   218157   218146   218134   218123   218115 
  218104   218093   218079   218061   218052   218045   218034   218027 
  218026   218020   218015   218008   218002   217996   217988   217981 
  217981   217983   217988   217996   218004   218016   218034   218049 
  218064   218077   218089   218104   218116   218128   218143   218155 
  218169   218185   218201   218211   218218   218226   218234   218242 
  218249   218249   218249   218249   218239   218227   218212   218195 
  218178   218166   218146   218126   218111   218093   218070   218049 
  218030   218012   217996   217985   217976   217966   217957   217949 
  217945   217941   217937   217931   217923   217918   217914   217907 
  217899   217899   217902   217900   217899   217903   217907   217910 
  217915   217915   217912   217911   217912   217911   217908   217907 
  217908   217910   217911   217910   217903   217900   217900   217899 
  217904   217908   217907   217908   217915   217925   217931   217934 
  217941   217946   217946   217949   217958   217964   217965   217968 
  217973   217980   217984   217984   217984   217987   217993   217998 
  217996   217995   218000   218004   218002   218004   218004   217995 
  217987   217979   217972   217975   217977   217977   217988   218000 
  218012   218029   218042   218049   218058   218069   218080   218096 
  218108   218119   218135   218146   218151   218157   218166   218176 
  218182   218191   218200   218205   218218   218230   218236   218251 
  218266   218278   218293   218309   218322   218330   218334   218334 
  218335   218334   218332   218332   218327   218315   218305   218293 
  218277   218262   218242   218220   218205   218193   218180   218172 
  218165   218161   218158   218155   218157   218155   218150   218142 
  218133   218124   218119   218112   218107   218106   218106   218107 
  218110   218110   218110   218116   218123   218118   218116   218123 
  218123   218115   218110   218103   218093   218083   218072   218058 
  218045   218031   218012   217995   217985   217977   217968   217961 
  217960   217961   217964   217968   217973   217976   217985   217995 
  218000   218004   218002   217996   217993   217985   217973   217962 
  217949   217933   217918   217903   217888   217872   217850   217830 
  217814   217800   217790   217786   217787   217787   217786   217784 
  217782   217784   217787   217783   217773   217768   217767   217763 
  217759   217753   217748   217741   217732   217728   217723   217713 
  217702   217701   217696   217691   217690   217688   217688   217691 
  217694   217706   217722   217737   217757   217780   217800   217825 
  217853   217881   217908   217935   217962   217981   217998   218015 
  218029   218038   218046   218057   218065   218069   218073   218073 
  218072   218073   218073   218069   218070   218072   218076   218083 
  218084   218087   218087   218084   218087   218089   218087   218085 
  218088   218093   218106   218123   218141   218158   218176   218192 
  218211   218227   218242   218257   218270   218286   218300   218311 
  218317   218317   218317   218317   218316   218312   218312   218315 
  218313   218313   218317   218317   218315   218316   218312   218305 
  218301   218299   218295   218288   218278   218265   218255   218249 
  218231   218209   218193   218172   218147   218122   218091   218062 
  218037   218010   217988   217973   217960   217950   217946   217946 
  217950   217954   217965   217980   217991   218004   218023   218035 
  218041   218049   218056   218060   218058   218053   218052   218047 
  218039   218034   218033   218030   218026   218022   218022   218023 
  218020   218020   218023   218027   218033   218034   218034   218037 
  218041   218047   218056   218062   218066   218070   218073   218073 
  218074   218077   218077   218080   218083   218083   218085   218091 
  218093   218097   218101   218107   218118   218124   218127   218134 
  218139   218142   218153   218166   218177   218187   218199   218208 
  218218   218224   218227   218224   218222   218216   218205   218195 
  218189   218181   218173   218168   218162   218155   218143   218127 
  218110   218088   218066   218047   218027   218007   217989   217972 
  217960   217950   217934   217921   217914   217906   217904   217904 
  217899   217900   217906   217906   217914   217922   217925   217931 
  217941   217946   217950   217956   217960   217969   217984   217998 
  218008   218020   218029   218035   218042   218049   218053   218056 
  218062   218070   218076   218079   218083   218091   218100   218106 
  218114   218120   218128   218141   218150   218157   218169   218180 
  218185   218187   218182   218177   218166   218149   218128   218108 
  218085   218066   218049   218027   218003   217987   217973   217956 
  217941   217930   217919   217914   217907   217899   217895   217896 
  217896   217899   217904   217904   217902   217904   217908   217912 
  217917   217919   217922   217919   217914   217912   217910   217903 
  217894   217880   217867   217856   217842   217829   217813   217800 
  217790   217776   217759   217746   217734   217717   217701   217694 
  217688   217683   217680   217680   217680   217682   217683   217683 
  217683   217687   217690   217694   217699   217702   217703   217705 
  217705   217705   217705   217706   217706   217707   217710   217715 
  217722   217734   217746   217757   217772   217794   217818   217846 
  217873   217900   217929   217954   217972   217989   218010   218031 
  218056   218077   218093   218110   218128   218146   218158   218170 
  218182   218197   218216   218234   218247   218261   218276   218286 
  218295   218305   218313   218317   218323   218326   218324   218322 
  218319   218313   218304   218293   218282   218269   218257   218249 
  218241   218231   218227   218227   218227   218227   218232   218238 
  218242   218245   218246   218246   218249   218250   218249   218251 
  218253   218247   218238   218223   218208   218196   218182   218164 
  218145   218124   218106   218083   218054   218030   218012   217993 
  217975   217962   217954   217939   217931   217931   217923   217919 
  217926   217927   217930   217942   217956   217969   217984   217998 
  218012   218030   218047   218065   218083   218100   218118   218134 
  218146   218155   218169   218178   218187   218199   218211   218220 
  218227   218236   218247   218254   218258   218263   218270   218276 
  218284   218290   218295   218295   218292   218288   218282   218277 
  218272   218263   218257   218251   218242   218235   218228   218218 
  218205   218195   218184   218170   218160   218149   218138   218130 
  218120   218111   218103   218092   218077   218061   218047   218037 
  218025   218010   217996   217985   217975   217962   217953   217945 
  217935   217927   217923   217917   217910   217904   217900   217899 
  217900   217902   217903   217904   217911   217919   217925   217929 
  217935   217946   217954   217960   217964   217968   217973   217976 
  217971   217964   217953   217937   217921   217904   217883   217858 
  217836   217811   217780   217746   217718   217688   217655   217620 
  217586   217553   217520   217489   217463   217437   217414   217390 
  217364   217343   217328   217316   217306   217305   217310   217318 
  217332   217355   217379   217406   217436   217471   217510   217553 
  217603   217653   217705   217759   217813   217864   217915   217964 
  218012   218062   218107   218149   218193   218236   218276   218311 
  218343   218374   218405   218435   218465   218489   218512   218533 
  218551   218563   218567   218570   218573   218570   218562   218559 
  218552   218544   218542   218538   218532   218531   218531   218525 
  218517   218516   218515   218509   218504   218501   218501   218501 
  218501   218500   218501   218501   218501   218504   218506   218504 
  218500   218498   218493   218485   218475   218462   218444   218428 
  218411   218393   218376   218359   218346   218332   218317   218308 
  218296   218285   218277   218269   218259   218251   218238   218226 
  218212   218189   218160   218133   218104   218070   218030   217991 
  217958   217927   217894   217863   217834   217811   217788   217765 
  217746   217725   217701   217679   217657   217634   217611   217584 
  217561   217545   217526   217509   217495   217486   217478   217472 
  217470   217472   217480   217494   217516   217539   217561   217586 
  217614   217638   217659   217686   217717   217742   217763   217788 
  217814   217834   217854   217876   217895   217911   217927   217942 
  217956   217969   217979   217985   217988   217987   217985   217983 
  217977   217976   217976   217972   217968   217965   217964   217965 
  217971   217977   217988   218000   218010   218022   218039   218056 
  218072   218089   218107   218123   218138   218143   218149   218154 
  218155   218153   218149   218143   218135   218123   218108   218095 
  218077   218058   218042   218025   218004   217985   217972   217956 
  217939   217933   217926   217918   217910   217906   217904   217902 
  217896   217892   217888   217884   217877   217872   217868   217863 
  217856   217844   217830   217817   217804   217795   217784   217771 
  217763   217763   217759   217752   217749   217750   217750   217752 
  217756   217763   217772   217783   217792   217806   217819   217826 
  217834   217848   217864   217880   217894   217907   217926   217946 
  217964   217980   217998   218020   218042   218065   218091   218120 
  218153   218185   218220   218254   218289   218326   218355   218386 
  218427   218462   218488   218515   218543   218569   218593   218614 
  218632   218644   218655   218663   218668   218671   218671   218671 
  218673   218674   218673   218670   218662   218655   218652   218646 
  218639   218637   218635   218631   218625   218616   218606   218596 
  218583   218570   218554   218539   218519   218496   218471   218447 
  218416   218381   218349   218315   218280   218245   218207   218168 
  218127   218087   218050   218016   217985   217961   217937   217912 
  217898   217887   217872   217860   217853   217852   217848   217840 
  217831   217826   217819   217815   217813   217807   217800   217798 
  217790   217783   217780   217780   217775   217775   217775   217771 
  217768   217772   217780   217791   217807   217817   217825   217840 
  217858   217872   217884   217898   217917   217935   217952   217969 
  217988   218003   218018   218037   218050   218058   218066   218072 
  218073   218074   218076   218077   218077   218079   218079   218079 
  218077   218077   218081   218084   218085   218089   218095   218101 
  218104   218104   218106   218108   218110   218111   218114   218116 
  218116   218111   218110   218111   218107   218101   218097   218092 
  218085   218080   218073   218066   218060   218050   218038   218022 
  218003   217985   217969   217950   217930   217907   217876   217848 
  217823   217796   217769   217742   217718   217699   217683   217667 
  217655   217642   217636   217632   217629   217630   217637   217647 
  217653   217667   217691   217713   217729   217749   217776   217799 
  217814   217829   217841   217850   217860   217864   217864   217863 
  217860   217857   217850   217845   217842   217838   217841   217845 
  217845   217852   217863   217867   217875   217888   217899   217912 
  217929   217939   217950   217961   217969   217976   217988   218000 
  218004   218006   218010   218019   218030   218039   218050   218065 
  218083   218096   218110   218124   218139   218153   218164   218176 
  218188   218196   218201   218208   218212   218218   218222   218223 
  218231   218241   218246   218247   218250   218254   218257   218259 
  218262   218268   218273   218278   218286   218293   218296   218300 
  218303   218301   218301   218305   218305   218300   218295   218297 
  218299   218293   218290   218288   218289   218289   218286   218290 
  218295   218293   218296   218303   218308   218316   218324   218328 
  218331   218328   218320   218313   218308   218300   218284   218268 
  218243   218215   218185   218153   218114   218077   218041   218002 
  217962   217923   217884   217846   217811   217773   217738   217709 
  217676   217648   217622   217595   217574   217553   217533   217518 
  217505   217494   217491   217490   217494   217501   217507   217514 
  217521   217524   217530   217540   217551   217557   217561   217570 
  217578   217580   217583   217586   217584   217588   217591   217590 
  217595   217605   217611   217624   217640   217653   217668   217683 
  217696   217713   217730   217748   217772   217796   217822   217850 
  217875   217902   217935   217965   217991   218020   218052   218079 
  218103   218127   218155   218181   218201   218218   218234   218247 
  218257   218268   218280   218288   218293   218305   218317   218326 
  218336   218354   218370   218382   218398   218417   218431   218444 
  218458   218466   218475   218492   218504   218515   218525   218533 
