Origin Time       2025/01/13 21:19:00
Lat.              31.8
Long.             131.6
Depth. (km)       30
Mag.              6.9
Station Code      HYGH07
Station Lat.      35.0322
Station Long.     134.6701
Station Height(m) 60
Record Time       2025/01/13 21:21:46
Sampling Freq(Hz) 100Hz
Duration Time(s)  120
Dir.              2
Scale Factor      2942(gal)/8224139
Max. Acc. (gal)   0.303
Last Correction   2025/01/13 21:21:46
Memo.             
[...]
  107854   107867   107881   107889   107896   107901   107904   107902 
  107902   107904   107904   107909   107921   107924   107924   107929 
  107935   107937   107940   107939   107932   107931   107933   107932 
  107927   107925   107923   107916   107912   107912   107909   107906 
  107909   107916   107923   107927   107931   107937   107944   107948 
  107952   107954   107956   107966   107975   107979   107982   107985 
  107989   107995   108001   108005   108004   107998   107997   107995 
  107987   107978   107967   107956   107950   107940   107929   107919 
  107913   107905   107896   107889   107893   107904   107908   107908 
  107908   107906   107908   107910   107909   107908   107905   107904 
  107904   107906   107910   107913   107914   107913   107912   107908 
  107904   107900   107894   107886   107881   107873   107869   107869 
  107870   107866   107860   107854   107844   107835   107831   107828 
  107821   107819   107817   107812   107806   107800   107793   107789 
  107785   107784   107782   107781   107778   107778   107781   107784 
  107784   107782   107781   107781   107784   107786   107792   107797 
  107802   107808   107816   107823   107829   107840   107854   107862 
  107863   107863   107862   107859   107855   107852   107851   107851 
  107852   107854   107850   107844   107842   107840   107836   107833 
  107827   107823   107824   107824   107820   107816   107812   107804 
  107794   107782   107773   107769   107765   107758   107754   107751 
  107748   107750   107755   107757   107761   107770   107777   107782 
  107790   107798   107805   107808   107811   107816   107827   107839 
  107848   107855   107869   107881   107892   107908   107920   107932 
  107952   107970   107985   107997   108006   108017   108029   108035 
  108039   108045   108051   108052   108055   108055   108052   108047 
  108044   108043   108040   108037   108035   108031   108028   108024 
  108020   108021   108028   108037   108045   108049   108054   108056 
  108052   108041   108035   108032   108027   108020   108018   108013 
  108004   107997   107993   107993   107993   107990   107990   107990 
  107986   107985   107978   107970   107968   107963   107955   107948 
  107939   107928   107921   107916   107908   107904   107900   107892 
  107883   107878   107873   107866   107862   107860   107858   107860 
  107867   107874   107878   107882   107882   107878   107878   107877 
  107873   107870   107866   107858   107850   107848   107848   107847 
  107847   107850   107854   107859   107866   107873   107881   107893 
  107910   107925   107940   107954   107966   107978   107989   108000 
  108013   108022   108028   108039   108051   108060   108066   108068 
  108070   108071   108072   108072   108067   108059   108056   108054 
  108051   108047   108041   108033   108027   108025   108021   108018 
  108020   108025   108028   108025   108018   108014   108010   108008 
  108004   107994   107981   107971   107968   107964   107964   107960 
  107946   107933   107924   107910   107893   107878   107869   107862 
  107854   107848   107844   107843   107843   107846   107852   107862 
  107870   107879   107890   107902   107913   107920   107925   107936 
  107944   107947   107954   107959   107960   107962   107963   107963 
  107960   107959   107954   107943   107933   107929   107921   107913 
  107912   107912   107909   107904   107898   107890   107883   107879 
  107874   107865   107856   107851   107852   107852   107847   107839 
  107832   107824   107819   107816   107817   107817   107817   107820 
  107825   107825   107828   107831   107838   107846   107852   107865 
  107882   107898   107916   107941   107963   107982   107998   108008 
  108016   108028   108037   108039   108040   108043   108043   108039 
  108035   108028   108018   108012   108002   107989   107982   107977 
  107963   107954   107946   107935   107925   107923   107923   107916 
  107908   107902   107898   107892   107886   107882   107875   107869 
  107865   107860   107852   107847   107844   107843   107847   107850 
  107847   107846   107850   107848   107843   107842   107842   107842 
  107846   107847   107846   107851   107858   107860   107863   107870 
  107879   107883   107885   107886   107889   107885   107878   107873 
  107867   107866   107862   107851   107842   107836   107824   107812 
  107802   107792   107777   107762   107746   107730   107717   107713 
  107709   107701   107698   107700   107696   107690   107682   107678 
  107676   107671   107671   107671   107667   107663   107662   107653 
  107643   107638   107632   107624   107620   107622   107622   107619 
  107616   107619   107622   107627   107638   107651   107663   107673 
  107685   107703   107721   107738   107748   107757   107766   107774 
  107782   107786   107792   107797   107800   107805   107815   107825 
  107836   107844   107850   107855   107859   107865   107870   107874 
  107879   107889   107897   107902   107905   107908   107910   107913 
  107912   107906   107901   107894   107885   107873   107862   107852 
  107838   107824   107815   107806   107798   107792   107785   107778 
  107775   107774   107773   107769   107769   107773   107773   107775 
  107778   107774   107773   107777   107779   107781   107782   107781 
  107782   107784   107782   107781   107781   107778   107775   107773 
  107771   107773   107774   107779   107789   107796   107802   107815 
  107823   107828   107832   107838   107844   107851   107855   107856 
  107856   107858   107859   107855   107851   107847   107844   107836 
  107828   107821   107815   107805   107796   107786   107774   107759 
  107743   107728   107711   107693   107680   107666   107647   107630 
  107620   107616   107611   107609   107609   107609   107609   107612 
  107613   107616   107623   107634   107646   107657   107665   107676 
  107690   107704   107713   107723   107735   107748   107759   107769 
  107777   107785   107792   107797   107802   107808   107811   107816 
  107821   107824   107827   107824   107819   107813   107809   107808 
  107800   107788   107778   107769   107758   107747   107736   107724 
  107713   107707   107701   107700   107704   107707   107709   107712 
  107717   107728   107743   107758   107777   107800   107821   107840 
  107862   107882   107898   107913   107928   107936   107939   107946 
  107952   107951   107952   107956   107958   107959   107963   107963 
  107964   107968   107968   107963   107956   107951   107950   107944 
  107937   107931   107921   107906   107892   107881   107866   107851 
  107839   107828   107816   107804   107789   107775   107763   107748 
  107735   107724   107712   107701   107692   107682   107673   107665 
  107658   107650   107643   107635   107630   107622   107612   107603 
  107596   107589   107588   107588   107588   107589   107590   107588 
  107585   107585   107585   107584   107584   107584   107589   107597 
  107604   107608   107612   107619   107624   107626   107626   107626 
  107627   107627   107622   107617   107617   107617   107619   107626 
  107635   107644   107655   107669   107678   107686   107694   107703 
  107717   107734   107746   107755   107769   107782   107793   107805 
  107819   107833   107847   107863   107882   107896   107908   107923 
  107935   107940   107947   107954   107956   107958   107964   107973 
  107982   107994   108008   108016   108022   108033   108043   108051 
  108059   108070   108081   108093   108108   108121   108135   108147 
  108160   108180   108197   108211   108226   108237   108244   108252 
  108259   108260   108257   108252   108243   108230   108216   108197 
  108174   108152   108132   108110   108091   108075   108058   108039 
  108020   108000   107981   107962   107946   107929   107912   107896 
  107885   107874   107862   107852   107844   107838   107831   107823 
  107813   107806   107802   107800   107797   107797   107798   107801 
  107809   107821   107836   107854   107875   107898   107916   107933 
  107954   107973   107987   108001   108010   108016   108016   108017 
  108017   108013   108002   107989   107973   107954   107933   107916 
  107897   107883   107874   107866   107858   107852   107847   107842 
  107840   107846   107847   107846   107847   107844   107840   107835 
  107828   107817   107805   107794   107782   107767   107748   107732 
  107719   107705   107693   107684   107676   107670   107663   107658 
  107655   107653   107649   107647   107647   107649   107653   107659 
  107667   107673   107678   107688   107698   107703   107711   107723 
  107731   107740   107751   107758   107767   107778   107785   107793 
  107804   107812   107816   107819   107825   107836   107846   107858 
  107873   107886   107900   107916   107932   107948   107964   107981 
  107997   108010   108020   108031   108037   108039   108036   108032 
  108027   108017   108005   107986   107966   107944   107923   107904 
  107883   107862   107842   107819   107796   107775   107758   107742 
  107727   107719   107712   107707   107704   107704   107700   107703 
  107709   107716   107720   107725   107732   107740   107748   107759 
  107769   107779   107793   107801   107805   107812   107819   107823 
  107827   107829   107833   107838   107843   107854   107863   107870 
  107882   107893   107898   107901   107904   107906   107910   107912 
  107910   107912   107917   107923   107929   107936   107946   107956 
  107970   107982   107995   108013   108029   108043   108059   108075 
  108089   108103   108117   108130   108143   108155   108164   108172 
  108174   108175   108175   108172   108171   108170   108167   108163 
  108157   108147   108139   108130   108118   108110   108106   108097 
  108089   108083   108076   108068   108059   108049   108045   108041 
  108036   108032   108022   108009   108001   107991   107981   107971 
  107959   107944   107929   107916   107898   107883   107870   107852 
  107829   107808   107797   107786   107771   107762   107754   107742 
  107738   107742   107743   107747   107757   107763   107769   107775 
  107784   107794   107806   107816   107825   107835   107846   107859 
  107871   107885   107901   107917   107933   107950   107967   107985 
  107997   108010   108027   108043   108054   108063   108075   108090 
  108105   108120   108135   108149   108159   108170   108179   108184 
  108186   108182   108174   108166   108152   108133   108110   108079 
  108049   108017   107982   107947   107906   107865   107823   107782 
  107746   107709   107673   107643   107616   107588   107565   107543 
  107520   107501   107482   107464   107451   107441   107427   107418 
  107416   107415   107411   107414   107420   107424   107428   107434 
  107442   107454   107466   107478   107492   107509   107526   107539 
  107546   107551   107557   107558   107557   107557   107553   107550 
  107550   107549   107542   107532   107524   107515   107505   107492 
  107476   107462   107457   107450   107442   107442   107449   107451 
  107457   107470   107482   107499   107520   107542   107563   107585 
  107607   107627   107647   107669   107692   107715   107742   107769 
  107796   107820   107844   107873   107898   107920   107943   107962 
  107979   108000   108020   108040   108060   108083   108109   108139 
  108167   108195   108222   108247   108271   108294   108313   108328 
  108342   108355   108367   108379   108388   108396   108405   108409 
  108411   108414   108413   108413   108414   108410   108403   108396 
  108383   108369   108356   108340   108324   108309   108287   108263 
  108237   108207   108176   108148   108121   108095   108067   108039 
  108016   107991   107970   107952   107933   107920   107913   107908 
  107904   107902   107904   107910   107921   107933   107946   107960 
  107978   107994   108012   108029   108047   108058   108067   108074 
  108081   108089   108098   108108   108117   108126   108132   108139 
  108145   108149   108151   108149   108140   108128   108116   108099 
  108082   108064   108044   108020   107998   107977   107952   107927 
  107901   107877   107854   107833   107813   107796   107779   107763 
  107750   107735   107721   107711   107698   107686   107678   107673 
  107667   107659   107658   107662   107666   107671   107680   107692 
  107704   107716   107732   107748   107763   107777   107789   107800 
  107811   107819   107820   107820   107821   107823   107825   107825 
  107820   107816   107813   107811   107805   107800   107794   107789 
  107786   107778   107770   107767   107761   107750   107742   107735 
  107725   107721   107723   107721   107717   107715   107713   107711 
  107704   107700   107697   107690   107680   107669   107658   107646 
  107628   107612   107600   107588   107568   107550   107539   107524 
  107512   107503   107489   107476   107465   107462   107461   107458 
  107454   107460   107465   107469   107473   107480   107487   107496 
  107509   107526   107542   107558   107570   107582   107596   107609 
  107624   107639   107657   107673   107692   107713   107740   107767 
  107794   107827   107860   107894   107936   107983   108029   108075 
  108125   108172   108218   108264   108311   108359   108407   108453 
  108495   108531   108569   108607   108635   108657   108677   108695 
  108710   108720   108723   108726   108727   108723   108715   108706 
  108692   108675   108653   108627   108599   108571   108542   108513 
  108481   108450   108421   108390   108356   108319   108287   108255 
  108221   108194   108170   108151   108130   108110   108095   108085 
  108075   108070   108063   108059   108056   108052   108047   108048 
  108047   108043   108045   108051   108054   108056   108064   108070 
  108074   108079   108086   108090   108094   108094   108091   108089 
  108086   108083   108075   108066   108055   108037   108018   108002 
  107985   107963   107937   107914   107890   107866   107843   107820 
  107794   107769   107746   107720   107694   107667   107642   107616 
  107592   107570   107549   107526   107501   107480   107460   107439 
  107420   107400   107383   107364   107347   107331   107315   107303 
  107287   107268   107253   107239   107229   107225   107219   107214 
  107215   107219   107226   107237   107250   107265   107284   107306 
  107327   107356   107384   107414   107443   107478   107511   107539 
  107572   107605   107636   107666   107694   107721   107746   107765 
  107782   107797   107809   107820   107831   107838   107846   107850 
  107851   107851   107854   107856   107859   107859   107862   107865 
  107863   107865   107867   107869   107870   107873   107875   107878 
  107883   107893   107904   107909   107917   107927   107933   107940 
  107948   107954   107959   107962   107963   107964   107967   107973 
  107979   107985   107990   108001   108012   108022   108036   108052 
  108064   108078   108093   108101   108105   108110   108114   108116 
  108117   108117   108117   108113   108108   108103   108101   108098 
  108101   108106   108108   108110   108117   108125   108135   108140 
  108147   108152   108153   108155   108157   108155   108148   108136 
  108118   108099   108074   108045   108018   107989   107954   107917 
  107878   107838   107797   107757   107717   107681   107640   107600 
  107562   107522   107484   107450   107419   107391   107360   107331 
  107312   107293   107273   107256   107239   107229   107221   107215 
  107212   107207   107202   107202   107204   107214   107229   107241 
  107254   107273   107293   107310   107327   107349   107372   107392 
  107415   107437   107460   107484   107505   107528   107550   107566 
  107584   107603   107626   107650   107670   107688   107705   107721 
  107740   107762   107782   107802   107823   107836   107847   107862 
  107874   107881   107889   107900   107909   107914   107919   107925 
  107932   107937   107941   107950   107959   107968   107983   108000 
  108013   108027   108041   108054   108067   108081   108093   108101 
  108110   108120   108128   108135   108143   108153   108164   108178 
  108193   108203   108217   108237   108259   108279   108298   108319 
  108341   108363   108384   108402   108418   108433   108453   108469 
  108481   108492   108502   108504   108503   108500   108498   108491 
  108484   108483   108483   108479   108476   108479   108479   108476 
  108473   108472   108468   108460   108452   108445   108437   108422 
  108407   108394   108376   108357   108340   108322   108302   108280 
  108261   108244   108228   108209   108190   108172   108156   108139 
  108122   108108   108093   108076   108062   108048   108035   108017 
  108002   107989   107974   107952   107933   107920   107904   107883 
  107865   107846   107827   107809   107790   107774   107759   107743 
  107731   107723   107713   107705   107700   107696   107693   107690 
  107686   107682   107680   107676   107673   107666   107659   107657 
  107650   107640   107634   107628   107623   107620   107616   107611 
  107604   107595   107586   107580   107569   107565   107562   107558 
  107551   107547   107547   107546   107547   107551   107558   107566 
  107574   107585   107596   107609   107627   107643   107662   107682 
  107703   107724   107748   107773   107794   107819   107842   107860 
  107879   107901   107924   107944   107963   107982   108004   108024 
  108039   108052   108071   108087   108099   108112   108124   108133 
  108145   108159   108172   108182   108190   108197   108202   108206 
  108210   108209   108203   108198   108190   108182   108168   108152 
  108139   108120   108095   108075   108055   108032   108010   107987 
  107964   107946   107925   107904   107885   107869   107855   107839 
  107825   107816   107805   107797   107792   107789   107789   107789 
  107786   107785   107788   107794   107800   107805   107813   107819 
  107823   107829   107839   107847   107852   107862   107874   107889 
  107905   107920   107935   107950   107966   107982   108001   108018 
  108033   108049   108067   108086   108101   108118   108135   108151 
  108168   108186   108203   108221   108237   108255   108271   108282 
  108292   108306   108319   108329   108338   108348   108357   108364 
  108365   108363   108359   108352   108346   108340   108325   108310 
  108295   108276   108256   108234   108213   108190   108163   108137 
  108116   108093   108068   108045   108024   108002   107978   107958 
  107939   107920   107902   107887   107870   107858   107844   107828 
  107815   107805   107794   107785   107781   107775   107767   107765 
  107766   107765   107762   107765   107769   107770   107773   107778 
  107782   107790   107802   107817   107831   107848   107865   107879 
  107900   107927   107952   107975   107998   108018   108036   108058 
  108078   108095   108113   108129   108143   108153   108160   108170 
  108176   108180   108180   108182   108179   108172   108163   108153 
  108143   108130   108113   108095   108078   108056   108035   108012 
  107987   107956   107925   107897   107871   107846   107817   107786 
