Origin Time       2025/01/13 21:19:00
Lat.              31.8
Long.             131.6
Depth. (km)       30
Mag.              6.9
Station Code      HYGH01
Station Lat.      34.2937
Station Long.     134.7941
Station Height(m) -37
Record Time       2025/01/13 21:20:54
Sampling Freq(Hz) 100Hz
Duration Time(s)  154
Dir.              1
Scale Factor      2942(gal)/8224139
Max. Acc. (gal)   0.912
Last Correction   2025/01/13 21:20:55
Memo.             
[...]
 -109699  -109676  -109660  -109651  -109644  -109634  -109626  -109625 
 -109624  -109628  -109638  -109651  -109664  -109678  -109690  -109695 
 -109699  -109707  -109719  -109736  -109748  -109757  -109768  -109782 
 -109798  -109813  -109829  -109849  -109865  -109880  -109898  -109911 
 -109919  -109935  -109949  -109954  -109966  -109983  -109993  -110008 
 -110026  -110038  -110049  -110065  -110084  -110103  -110123  -110141 
 -110153  -110165  -110184  -110203  -110215  -110222  -110231  -110242 
 -110249  -110254  -110265  -110280  -110285  -110288  -110296  -110300 
 -110297  -110290  -110286  -110282  -110278  -110276  -110273  -110270 
 -110269  -110273  -110278  -110280  -110277  -110274  -110270  -110258 
 -110246  -110241  -110235  -110234  -110234  -110236  -110236  -110231 
 -110231  -110236  -110235  -110242  -110259  -110273  -110290  -110316 
 -110338  -110353  -110369  -110378  -110378  -110374  -110362  -110353 
 -110347  -110332  -110320  -110309  -110295  -110288  -110286  -110286 
 -110282  -110282  -110290  -110301  -110316  -110332  -110343  -110353 
 -110362  -110370  -110377  -110384  -110393  -110405  -110413  -110427 
 -110439  -110442  -110451  -110462  -110467  -110477  -110489  -110496 
 -110502  -110501  -110488  -110475  -110469  -110459  -110454  -110457 
 -110459  -110454  -110450  -110454  -110462  -110466  -110467  -110473 
 -110467  -110452  -110442  -110427  -110408  -110388  -110369  -110355 
 -110338  -110323  -110317  -110313  -110309  -110307  -110301  -110297 
 -110293  -110289  -110284  -110288  -110293  -110296  -110300  -110309 
 -110320  -110335  -110351  -110361  -110367  -110374  -110381  -110385 
 -110388  -110389  -110388  -110378  -110370  -110357  -110338  -110319 
 -110304  -110293  -110280  -110258  -110226  -110188  -110151  -110119 
 -110087  -110056  -110022  -109983  -109937  -109884  -109831  -109786 
 -109742  -109695  -109647  -109599  -109553  -109518  -109485  -109444 
 -109409  -109382  -109358  -109336  -109314  -109297  -109279  -109266 
 -109262  -109259  -109252  -109251  -109254  -109254  -109252  -109256 
 -109267  -109282  -109302  -109324  -109341  -109355  -109366  -109377 
 -109389  -109391  -109387  -109387  -109385  -109379  -109375  -109372 
 -109372  -109375  -109381  -109395  -109409  -109420  -109432  -109448 
 -109474  -109503  -109540  -109583  -109621  -109660  -109699  -109740 
 -109779  -109817  -109861  -109906  -109948  -109987  -110026  -110066 
 -110099  -110128  -110168  -110205  -110235  -110262  -110293  -110324 
 -110354  -110386  -110416  -110440  -110473  -110504  -110527  -110551 
 -110575  -110597  -110613  -110621  -110629  -110636  -110635  -110635 
 -110635  -110633  -110639  -110646  -110648  -110650  -110651  -110662 
 -110668  -110674  -110685  -110693  -110700  -110708  -110708  -110698 
 -110682  -110667  -110648  -110627  -110613  -110596  -110579  -110569 
 -110551  -110528  -110502  -110475  -110451  -110430  -110408  -110389 
 -110377  -110362  -110343  -110328  -110311  -110292  -110277  -110266 
 -110255  -110242  -110228  -110211  -110193  -110180  -110158  -110133 
 -110108  -110077  -110038  -110000  -109961  -109919  -109884  -109853 
 -109823  -109796  -109769  -109746  -109730  -109710  -109695  -109687 
 -109674  -109661  -109652  -109647  -109647  -109647  -109641  -109641 
 -109645  -109651  -109657  -109660  -109661  -109668  -109675  -109682 
 -109690  -109696  -109695  -109690  -109691  -109694  -109694  -109698 
 -109705  -109703  -109702  -109703  -109702  -109705  -109706  -109707 
 -109711  -109713  -109721  -109736  -109749  -109769  -109794  -109814 
 -109836  -109860  -109885  -109919  -109952  -109980  -110006  -110034 
 -110062  -110089  -110126  -110165  -110201  -110247  -110296  -110343 
 -110397  -110450  -110501  -110554  -110597  -110633  -110668  -110697 
 -110717  -110732  -110740  -110740  -110735  -110728  -110718  -110709 
 -110698  -110689  -110679  -110670  -110659  -110650  -110640  -110627 
 -110606  -110586  -110565  -110547  -110533  -110521  -110511  -110505 
 -110496  -110484  -110477  -110469  -110462  -110459  -110451  -110432 
 -110421  -110419  -110407  -110389  -110371  -110350  -110324  -110292 
 -110254  -110214  -110176  -110135  -110092  -110049  -110004  -109953 
 -109896  -109845  -109795  -109744  -109694  -109651  -109606  -109564 
 -109521  -109472  -109422  -109377  -109331  -109289  -109246  -109198 
 -109159  -109125  -109092  -109071  -109063  -109050  -109043  -109051 
 -109057  -109063  -109081  -109101  -109123  -109156  -109201  -109244 
 -109282  -109318  -109356  -109390  -109425  -109463  -109505  -109549 
 -109601  -109655  -109707  -109756  -109800  -109849  -109896  -109931 
 -109965  -110006  -110041  -110076  -110116  -110151  -110184  -110216 
 -110255  -110299  -110339  -110378  -110424  -110470  -110505  -110542 
 -110581  -110612  -110646  -110679  -110704  -110725  -110741  -110752 
 -110758  -110751  -110731  -110712  -110689  -110666  -110652  -110643 
 -110629  -110614  -110601  -110582  -110560  -110539  -110521  -110504 
 -110484  -110465  -110447  -110424  -110396  -110373  -110347  -110317 
 -110288  -110258  -110227  -110195  -110157  -110122  -110095  -110072 
 -110053  -110045  -110038  -110033  -110034  -110035  -110037  -110038 
 -110039  -110037  -110027  -110019  -110015  -110011  -110011  -110015 
 -110015  -110012  -110008  -110007  -110008  -110012  -110012  -110011 
 -110011  -110006  -110008  -110012  -110008  -110006  -110014  -110022 
 -110033  -110043  -110053  -110058  -110066  -110074  -110081  -110092 
 -110103  -110112  -110126  -110141  -110155  -110174  -110197  -110230 
 -110269  -110308  -110342  -110376  -110411  -110444  -110482  -110520 
 -110563  -110608  -110648  -110691  -110736  -110772  -110803  -110826 
 -110845  -110863  -110875  -110880  -110879  -110870  -110852  -110835 
 -110809  -110772  -110733  -110689  -110636  -110585  -110539  -110482 
 -110415  -110347  -110278  -110208  -110135  -110066  -110010  -109953 
 -109898  -109854  -109810  -109767  -109730  -109701  -109674  -109649 
 -109621  -109593  -109574  -109551  -109526  -109516  -109501  -109480 
 -109466  -109444  -109424  -109409  -109394  -109383  -109375  -109367 
 -109360  -109352  -109343  -109333  -109325  -109318  -109312  -109302 
 -109290  -109277  -109263  -109256  -109247  -109232  -109221  -109208 
 -109194  -109185  -109178  -109173  -109173  -109181  -109194  -109213 
 -109239  -109273  -109313  -109354  -109397  -109447  -109495  -109543 
 -109591  -109645  -109699  -109753  -109815  -109883  -109944  -110004 
 -110068  -110130  -110195  -110262  -110332  -110403  -110470  -110532 
 -110587  -110639  -110690  -110739  -110785  -110832  -110876  -110920 
 -110965  -111006  -111042  -111079  -111111  -111142  -111172  -111199 
 -111222  -111241  -111253  -111257  -111256  -111250  -111238  -111223 
 -111207  -111194  -111184  -111168  -111146  -111129  -111113  -111090 
 -111063  -111034  -111005  -110979  -110956  -110932  -110909  -110884 
 -110866  -110852  -110830  -110810  -110798  -110781  -110760  -110739 
 -110712  -110674  -110628  -110587  -110542  -110489  -110439  -110393 
 -110343  -110293  -110246  -110193  -110135  -110080  -110027  -109973 
 -109921  -109875  -109830  -109779  -109732  -109690  -109649  -109609 
 -109571  -109532  -109497  -109460  -109421  -109387  -109364  -109339 
 -109317  -109305  -109291  -109275  -109264  -109256  -109247  -109237 
 -109233  -109227  -109212  -109196  -109178  -109161  -109146  -109139 
 -109139  -109138  -109138  -109138  -109134  -109134  -109140  -109144 
 -109147  -109150  -109154  -109158  -109165  -109181  -109200  -109219 
 -109240  -109266  -109304  -109344  -109374  -109414  -109467  -109512 
 -109556  -109601  -109640  -109678  -109717  -109757  -109798  -109837 
 -109883  -109926  -109964  -110006  -110046  -110079  -110104  -110131 
 -110154  -110173  -110188  -110197  -110207  -110218  -110227  -110242 
 -110259  -110276  -110296  -110313  -110328  -110346  -110363  -110378 
 -110388  -110398  -110411  -110421  -110434  -110447  -110465  -110486 
 -110511  -110535  -110556  -110582  -110608  -110624  -110635  -110644 
 -110648  -110651  -110660  -110666  -110670  -110682  -110700  -110716 
 -110735  -110758  -110779  -110798  -110822  -110841  -110857  -110882 
 -110905  -110921  -110934  -110943  -110951  -110959  -110963  -110968 
 -110979  -110988  -110997  -111006  -111010  -111009  -111007  -110998 
 -110974  -110947  -110920  -110893  -110866  -110839  -110814  -110791 
 -110771  -110755  -110740  -110724  -110708  -110693  -110674  -110648 
 -110620  -110589  -110558  -110523  -110481  -110443  -110408  -110366 
 -110326  -110289  -110247  -110205  -110172  -110142  -110111  -110077 
 -110054  -110035  -110014  -109996  -109979  -109960  -109945  -109930 
 -109915  -109904  -109898  -109902  -109912  -109919  -109929  -109944 
 -109964  -109987  -110011  -110045  -110083  -110120  -110160  -110197 
 -110227  -110258  -110281  -110297  -110316  -110331  -110340  -110354 
 -110361  -110358  -110357  -110346  -110322  -110296  -110263  -110223 
 -110180  -110133  -110083  -110035  -109991  -109948  -109906  -109858 
 -109810  -109765  -109721  -109678  -109638  -109602  -109567  -109532 
 -109498  -109459  -109420  -109385  -109356  -109329  -109297  -109269 
 -109247  -109223  -109205  -109193  -109182  -109171  -109166  -109166 
 -109162  -109159  -109165  -109173  -109179  -109194  -109216  -109240 
 -109263  -109296  -109340  -109383  -109426  -109479  -109537  -109594 
 -109652  -109717  -109784  -109856  -109931  -110008  -110088  -110170 
 -110249  -110323  -110397  -110477  -110556  -110633  -110717  -110805 
 -110886  -110964  -111044  -111117  -111187  -111252  -111314  -111372 
 -111427  -111476  -111516  -111554  -111586  -111612  -111635  -111646 
 -111646  -111642  -111630  -111611  -111586  -111555  -111524  -111485 
 -111434  -111377  -111316  -111248  -111172  -111098  -111021  -110940 
 -110862  -110785  -110705  -110631  -110555  -110471  -110392  -110315 
 -110242  -110173  -110107  -110039  -109980  -109930  -109884  -109842 
 -109803  -109771  -109744  -109719  -109701  -109680  -109660  -109645 
 -109638  -109636  -109640  -109649  -109657  -109672  -109701  -109729 
 -109756  -109787  -109821  -109854  -109891  -109926  -109960  -109991 
 -110019  -110046  -110074  -110096  -110116  -110137  -110153  -110166 
 -110177  -110178  -110176  -110169  -110157  -110147  -110142  -110135 
 -110131  -110128  -110122  -110107  -110091  -110073  -110050  -110020 
 -109992  -109960  -109921  -109877  -109834  -109786  -109733  -109682 
 -109632  -109580  -109532  -109480  -109431  -109378  -109321  -109271 
 -109225  -109182  -109147  -109116  -109093  -109082  -109078  -109080 
 -109089  -109104  -109127  -109161  -109205  -109254  -109304  -109358 
 -109417  -109478  -109537  -109597  -109659  -109721  -109782  -109841 
 -109900  -109962  -110022  -110081  -110143  -110209  -110270  -110328 
 -110385  -110434  -110475  -110516  -110546  -110565  -110583  -110600 
 -110605  -110606  -110608  -110604  -110602  -110597  -110589  -110578 
 -110565  -110550  -110539  -110533  -110525  -110519  -110520  -110523 
 -110525  -110533  -110540  -110548  -110560  -110573  -110586  -110598 
 -110609  -110623  -110632  -110643  -110660  -110678  -110694  -110712 
 -110722  -110728  -110735  -110740  -110740  -110736  -110729  -110718 
 -110705  -110687  -110668  -110648  -110632  -110620  -110606  -110590 
 -110579  -110571  -110559  -110550  -110543  -110535  -110529  -110524 
 -110515  -110508  -110508  -110509  -110508  -110511  -110512  -110508 
 -110502  -110494  -110485  -110475  -110461  -110438  -110415  -110393 
 -110373  -110350  -110328  -110311  -110292  -110270  -110250  -110224 
 -110199  -110178  -110155  -110137  -110122  -110101  -110080  -110061 
 -110042  -110025  -110006  -109985  -109964  -109944  -109926  -109911 
 -109899  -109888  -109880  -109871  -109865  -109863  -109857  -109853 
 -109856  -109854  -109856  -109865  -109871  -109868  -109871  -109875 
 -109873  -109875  -109881  -109887  -109890  -109894  -109895  -109894 
 -109892  -109894  -109896  -109894  -109890  -109887  -109880  -109869 
 -109860  -109849  -109837  -109827  -109818  -109814  -109807  -109795 
 -109786  -109776  -109767  -109760  -109753  -109742  -109732  -109723 
 -109713  -109701  -109690  -109676  -109665  -109656  -109644  -109640 
 -109633  -109630  -109636  -109642  -109644  -109648  -109651  -109652 
 -109655  -109656  -109656  -109655  -109651  -109651  -109655  -109653 
 -109649  -109651  -109652  -109655  -109664  -109675  -109684  -109694 
 -109702  -109713  -109722  -109729  -109737  -109744  -109752  -109757 
 -109761  -109767  -109776  -109783  -109791  -109798  -109800  -109803 
 -109810  -109813  -109811  -109814  -109817  -109814  -109813  -109810 
 -109803  -109796  -109787  -109776  -109768  -109761  -109756  -109753 
 -109755  -109759  -109764  -109773  -109788  -109809  -109830  -109860 
 -109898  -109933  -109969  -110007  -110047  -110088  -110128  -110170 
 -110219  -110269  -110316  -110363  -110412  -110463  -110516  -110567 
 -110616  -110664  -110714  -110760  -110812  -110863  -110913  -110963 
 -111021  -111079  -111137  -111202  -111268  -111333  -111402  -111476 
 -111555  -111634  -111713  -111800  -111882  -111960  -112041  -112117 
 -112185  -112256  -112329  -112395  -112452  -112504  -112554  -112599 
 -112633  -112662  -112684  -112692  -112689  -112677  -112652  -112618 
 -112573  -112515  -112455  -112387  -112311  -112229  -112141  -112050 
 -111956  -111863  -111767  -111674  -111582  -111487  -111399  -111315 
 -111226  -111141  -111064  -110988  -110910  -110832  -110752  -110678 
 -110606  -110531  -110452  -110377  -110301  -110222  -110139  -110064 
 -109993  -109927  -109861  -109794  -109726  -109667  -109613  -109559 
 -109507  -109462  -109420  -109379  -109348  -109323  -109300  -109283 
 -109271  -109262  -109256  -109256  -109256  -109259  -109264  -109270 
 -109275  -109274  -109271  -109269  -109252  -109231  -109212  -109183 
 -109150  -109116  -109077  -109031  -108982  -108936  -108892  -108847 
 -108804  -108768  -108734  -108703  -108677  -108653  -108631  -108616 
 -108603  -108588  -108575  -108564  -108554  -108552  -108549  -108542 
 -108541  -108541  -108538  -108541  -108549  -108557  -108562  -108572 
 -108588  -108606  -108623  -108643  -108666  -108691  -108718  -108753 
 -108789  -108826  -108869  -108911  -108949  -108990  -109031  -109066 
 -109107  -109150  -109189  -109228  -109270  -109310  -109355  -109402 
 -109452  -109506  -109564  -109625  -109687  -109750  -109817  -109883 
 -109952  -110019  -110084  -110149  -110214  -110270  -110327  -110386 
 -110444  -110502  -110563  -110621  -110671  -110724  -110776  -110826 
 -110872  -110914  -110953  -110990  -111028  -111067  -111106  -111144 
 -111181  -111219  -111254  -111284  -111310  -111331  -111345  -111357 
 -111368  -111370  -111362  -111352  -111335  -111311  -111281  -111253 
 -111221  -111181  -111142  -111102  -111059  -111021  -110987  -110949 
 -110913  -110879  -110849  -110821  -110794  -110770  -110747  -110729 
 -110713  -110698  -110683  -110674  -110668  -110662  -110663  -110668 
 -110668  -110671  -110679  -110683  -110686  -110690  -110693  -110701 
 -110710  -110720  -110728  -110739  -110749  -110759  -110770  -110775 
 -110776  -110776  -110774  -110768  -110763  -110760  -110754  -110745 
 -110741  -110743  -110744  -110739  -110735  -110728  -110716  -110709 
 -110701  -110691  -110686  -110683  -110678  -110668  -110658  -110646 
 -110631  -110616  -110596  -110573  -110548  -110523  -110493  -110455 
 -110416  -110378  -110331  -110282  -110236  -110185  -110134  -110091 
 -110050  -110012  -109973  -109934  -109896  -109860  -109822  -109784 
 -109752  -109725  -109702  -109679  -109659  -109642  -109625  -109611 
 -109599  -109582  -109566  -109552  -109533  -109513  -109494  -109467 
 -109441  -109421  -109398  -109375  -109352  -109329  -109308  -109283 
 -109262  -109243  -109223  -109200  -109181  -109163  -109146  -109131 
 -109120  -109109  -109101  -109093  -109090  -109096  -109102  -109109 
 -109124  -109140  -109158  -109175  -109193  -109209  -109228  -109248 
 -109270  -109291  -109314  -109336  -109359  -109383  -109409  -109433 
 -109456  -109476  -109501  -109524  -109549  -109579  -109605  -109629 
 -109659  -109686  -109713  -109742  -109771  -109802  -109836  -109873 
 -109914  -109953  -109993  -110034  -110069  -110101  -110139  -110178 
 -110216  -110254  -110288  -110317  -110351  -110381  -110405  -110434 
 -110459  -110482  -110504  -110524  -110538  -110546  -110560  -110573 
 -110581  -110594  -110608  -110616  -110627  -110641  -110652  -110662 
 -110678  -110695  -110709  -110720  -110735  -110744  -110751  -110758 
 -110762  -110767  -110775  -110775  -110770  -110770  -110764  -110748 
 -110733  -110718  -110694  -110666  -110641  -110610  -110570  -110532 
 -110497  -110459  -110420  -110388  -110361  -110339  -110326  -110316 
 -110312  -110307  -110301  -110303  -110303  -110304  -110309  -110316 
 -110327  -110338  -110344  -110355  -110359  -110362  -110365  -110363 
 -110363  -110366  -110363  -110353  -110338  -110324  -110307  -110285 
 -110265  -110246  -110224  -110201  -110178  -110158  -110138  -110114 
 -110097  -110088  -110072  -110054  -110037  -110015  -109991  -109971 
 -109950  -109931  -109915  -109899  -109884  -109877  -109871  -109864 
 -109865  -109867  -109869  -109879  -109888  -109900  -109918  -109933 
 -109952  -109977  -109998  -110012  -110031  -110052  -110068  -110087 
 -110108  -110128  -110147  -110165  -110187  -110211  -110232  -110258 
 -110284  -110309  -110346  -110388  -110428  -110475  -110531  -110586 
 -110646  -110709  -110770  -110833  -110894  -110956  -111022  -111087 
 -111145  -111203  -111261  -111315  -111365  -111406  -111442  -111481 
 -111505  -111516  -111527  -111526  -111507  -111483  -111450  -111411 
 -111365  -111315  -111261  -111204  -111144  -111076  -111013  -110951 
 -110884  -110825  -110774  -110722  -110675  -110636  -110598  -110560 
 -110521  -110486  -110452  -110416  -110385  -110362  -110340  -110319 
 -110303  -110288  -110270  -110254  -110236  -110215  -110197  -110180 
 -110165  -110151  -110135  -110122  -110120  -110116  -110111  -110112 
 -110114  -110116  -110124  -110135  -110145  -110153  -110160  -110164 
 -110165  -110158  -110141  -110123  -110101  -110068  -110035  -110000 
 -109966  -109935  -109900  -109865  -109830  -109794  -109761  -109732 
 -109703  -109679  -109657  -109634  -109615  -109598  -109578  -109559 
 -109544  -109525  -109506  -109487  -109471  -109458  -109441  -109429 
 -109428  -109424  -109418  -109424  -109433  -109439  -109447  -109462 
 -109482  -109503  -109529  -109559  -109587  -109621  -109655  -109686 
 -109714  -109742  -109773  -109804  -109833  -109861  -109888  -109915 
 -109945  -109976  -110004  -110027  -110049  -110074  -110097  -110118 
 -110137  -110154  -110173  -110192  -110209  -110230  -110246  -110259 
 -110277  -110295  -110309  -110320  -110334  -110350  -110366  -110385 
 -110404  -110420  -110439  -110457  -110467  -110475  -110479  -110481 
 -110478  -110466  -110452  -110440  -110420  -110394  -110369  -110339 
