Origin Time       2025/01/13 21:19:00
Lat.              31.8
Long.             131.6
Depth. (km)       30
Mag.              6.9
Station Code      HYGH08
Station Lat.      35.1010
Station Long.     134.9036
Station Height(m) 50
Record Time       2025/01/13 21:21:53
Sampling Freq(Hz) 100Hz
Duration Time(s)  120
Dir.              3
Scale Factor      2942(gal)/8224139
Max. Acc. (gal)   0.232
Last Correction   2025/01/13 21:21:55
Memo.             
[...]
   84769    84786    84789    84788    84800    84809    84811    84815 
   84824    84839    84844    84844    84852    84858    84856    84863 
   84871    84869    84875    84883    84870    84858    84867    84869 
   84856    84850    84847    84843    84846    84846    84840    84836 
   84829    84817    84812    84805    84788    84777    84770    84758 
   84742    84728    84716    84705    84703    84696    84682    84677 
   84677    84678    84686    84696    84699    84703    84703    84708 
   84717    84721    84726    84735    84738    84742    84744    84735 
   84727    84720    84712    84704    84696    84692    84688    84684 
   84688    84688    84688    84697    84700    84700    84709    84719 
   84723    84728    84739    84751    84759    84765    84775    84789 
   84794    84800    84807    84805    84811    84821    84824    84828 
   84835    84838    84840    84844    84842    84835    84829    84821 
   84807    84804    84808    84798    84784    84775    84769    84763 
   84750    84734    84732    84730    84719    84709    84707    84703 
   84696    84701    84712    84712    84716    84727    84727    84723 
   84724    84728    84735    84735    84730    84736    84743    84743 
   84742    84738    84730    84723    84712    84700    84696    84692 
   84688    84684    84672    84659    84663    84670    84665    84658 
   84661    84665    84663    84662    84663    84669    84676    84674 
   84672    84690    84708    84711    84713    84719    84720    84730 
   84740    84743    84744    84751    84754    84755    84761    84761 
   84762    84773    84785    84786    84790    84793    84793    84807 
   84824    84831    84838    84850    84863    84874    84883    84889 
   84894    84900    84900    84901    84908    84897    84874    84863 
   84866    84862    84847    84840    84846    84846    84838    84835 
   84832    84821    84813    84808    84797    84793    84786    84766 
   84743    84730    84716    84701    84692    84676    84651    84640 
   84638    84631    84620    84611    84604    84601    84595    84589 
   84589    84591    84591    84586    84591    84607    84615    84623 
   84647    84659    84663    84684    84703    84705    84715    84734 
   84743    84743    84750    84754    84757    84767    84773    84771 
   84773    84775    84781    84786    84789    84792    84792    84786 
   84793    84804    84800    84793    84798    84802    84793    84784 
   84777    84767    84763    84763    84754    84751    84757    84757 
   84765    84771    84773    84778    84786    84794    84800    84802 
   84813    84827    84832    84836    84840    84839    84842    84854 
   84858    84856    84863    84873    84879    84889    84894    84894 
   84906    84920    84923    84925    84927    84921    84925    84932 
   84939    84946    84943    84944    84954    84955    84951    84950 
   84950    84955    84960    84956    84959    84963    84958    84952 
   84950    84943    84937    84933    84925    84917    84906    84897 
   84893    84888    84874    84866    84861    84851    84844    84842 
   84831    84816    84804    84789    84773    84755    84739    84728 
   84712    84696    84693    84686    84667    84665    84670    84662 
   84661    84667    84658    84655    84669    84674    84672    84680 
   84682    84667    84662    84669    84659    84654    84662    84653 
   84642    84640    84636    84630    84624    84624    84632    84643 
   84646    84642    84645    84654    84651    84651    84663    84669 
   84674    84681    84680    84685    84697    84701    84712    84730 
   84740    84746    84757    84761    84766    84778    84780    84775 
   84780    84785    84789    84788    84781    84774    84765    84762 
   84769    84767    84771    84784    84774    84767    84789    84801 
   84796    84798    84805    84802    84800    84797    84786    84771 
   84769    84767    84757    84750    84754    84757    84753    84755 
   84761    84748    84744    84754    84758    84751    84750    84757 
   84755    84757    84767    84765    84762    84775    84785    84784 
   84775    84775    84785    84794    84801    84812    84821    84829 
   84839    84848    84861    84870    84877    84885    84893    84897 
   84900    84904    84906    84912    84916    84917    84916    84915 
   84920    84923    84919    84920    84919    84910    84905    84901 
   84896    84886    84871    84855    84848    84847    84834    84815 
   84804    84792    84774    84762    84751    84739    84730    84719 
   84704    84692    84684    84670    84661    84663    84665    84661 
   84661    84665    84666    84669    84678    84681    84680    84686 
   84688    84685    84700    84713    84708    84707    84724    84735 
   84736    84746    84747    84750    84755    84757    84759    84762 
   84761    84759    84757    84747    84743    84744    84738    84731 
   84731    84723    84712    84712    84712    84709    84712    84709 
   84708    84721    84730    84732    84732    84732    84740    84747 
   84746    84753    84762    84759    84755    84758    84754    84755 
   84767    84767    84765    84780    84789    84792    84802    84809 
   84811    84816    84823    84827    84831    84840    84842    84836 
   84840    84847    84843    84839    84847    84855    84847    84827 
   84817    84812    84801    84790    84780    84769    84762    84753 
   84740    84727    84711    84705    84708    84700    84693    84692 
   84692    84694    84697    84701    84711    84715    84720    84723 
   84724    84732    84735    84734    84728    84720    84721    84716 
   84701    84689    84677    84667    84657    84649    84643    84630 
   84620    84630    84628    84616    84618    84623    84615    84613 
   84623    84628    84631    84640    84654    84663    84669    84676 
   84674    84677    84686    84690    84693    84697    84689    84682 
   84685    84678    84663    84662    84670    84669    84663    84676 
   84690    84693    84703    84720    84735    84750    84762    84773 
   84788    84801    84808    84812    84815    84825    84835    84829 
   84836    84847    84846    84854    84856    84846    84850    84856 
   84852    84851    84847    84848    84859    84861    84856    84858 
   84856    84861    84865    84863    84865    84866    84861    84861 
   84862    84861    84862    84865    84862    84861    84865    84862 
   84854    84854    84862    84862    84862    84859    84847    84838 
   84835    84840    84847    84834    84813    84808    84801    84793 
   84792    84784    84773    84771    84774    84767    84763    84766 
   84763    84762    84766    84774    84784    84788    84788    84792 
   84797    84801    84808    84819    84819    84820    84829    84838 
   84835    84825    84817    84816    84812    84807    84802    84796 
   84786    84775    84762    84754    84748    84739    84728    84719 
   84705    84688    84672    84661    84653    84636    84613    84592 
   84581    84573    84554    84530    84520    84519    84512    84503 
   84500    84504    84511    84511    84505    84504    84508    84514 
   84515    84519    84527    84532    84532    84537    84538    84530 
   84526    84537    84553    84561    84566    84572    84576    84582 
   84593    84599    84603    84613    84619    84623    84638    84649 
   84662    84690    84704    84704    84723    84743    84759    84789 
   84817    84832    84851    84882    84906    84920    84935    84947 
   84952    84966    84987    84993    84991    84998    84997    84985 
   84977    84971    84959    84942    84929    84920    84904    84885 
   84866    84843    84820    84804    84793    84777    84763    84755 
   84738    84731    84735    84735    84738    84736    84734    84742 
   84740    84738    84750    84754    84744    84739    84735    84724 
   84713    84709    84704    84689    84678    84667    84654    84651 
   84639    84619    84604    84589    84573    84565    84559    84547 
   84532    84531    84537    84541    84541    84535    84534    84542 
   84541    84532    84535    84539    84538    84541    84546    84550 
   84557    84568    84572    84577    84589    84588    84585    84596 
   84609    84616    84615    84611    84622    84626    84618    84622 
   84635    84657    84681    84684    84684    84703    84719    84732 
   84746    84751    84757    84774    84790    84801    84817    84835 
   84844    84859    84881    84894    84905    84931    84956    84969 
   84983    85000    85008    85017    85020    85012    85006    85005 
   84994    84979    84969    84950    84935    84929    84916    84898 
   84890    84893    84886    84875    84874    84875    84881    84894 
   84894    84889    84893    84898    84892    84882    84886    84889 
   84877    84863    84854    84846    84832    84811    84796    84790 
   84782    84777    84778    84775    84767    84765    84767    84765 
   84755    84750    84755    84761    84754    84753    84758    84759 
   84759    84761    84758    84761    84767    84781    84794    84797 
   84802    84817    84825    84827    84838    84854    84865    84871 
   84877    84877    84874    84866    84852    84842    84846    84839 
   84813    84809    84808    84786    84774    84766    84751    84751 
   84751    84738    84735    84731    84717    84712    84704    84690 
   84692    84696    84694    84692    84688    84692    84692    84688 
   84694    84707    84717    84723    84719    84713    84711    84704 
   84696    84692    84688    84681    84680    84685    84690    84697 
   84704    84708    84717    84730    84739    84750    84766    84774 
   84777    84790    84805    84813    84823    84831    84836    84836 
   84836    84847    84854    84850    84851    84866    84869    84854 
   84851    84865    84863    84848    84847    84842    84827    84817 
   84804    84788    84771    84759    84754    84740    84727    84721 
   84716    84696    84676    84680    84688    84681    84684    84685 
   84676    84674    84677    84663    84651    84645    84628    84615 
   84603    84584    84570    84564    84555    84551    84547    84543 
   84543    84542    84545    84550    84555    84566    84574    84577 
   84576    84581    84596    84601    84607    84627    84635    84632 
   84647    84669    84667    84659    84669    84681    84678    84682 
   84688    84688    84685    84685    84690    84697    84697    84693 
   84690    84689    84681    84676    84678    84666    84646    84636 
   84626    84618    84618    84616    84615    84613    84612    84615 
   84623    84626    84628    84635    84645    84654    84661    84662 
   84661    84662    84670    84677    84670    84666    84670    84659 
   84640    84634    84627    84608    84599    84600    84589    84582 
   84588    84584    84582    84597    84607    84608    84615    84628 
   84639    84649    84665    84685    84697    84709    84724    84736 
   84744    84757    84775    84794    84807    84813    84821    84839 
   84855    84859    84870    84886    84890    84893    84901    84901 
   84893    84892    84892    84882    84867    84859    84854    84844 
   84832    84823    84816    84805    84790    84782    84775    84769 
   84761    84753    84748    84734    84719    84717    84712    84701 
   84694    84684    84676    84666    84654    84654    84647    84630 
   84616    84607    84595    84588    84578    84566    84561    84558 
   84554    84550    84547    84543    84541    84543    84546    84543 
   84546    84559    84569    84576    84592    84607    84619    84647 
   84685    84708    84734    84773    84813    84848    84877    84915 
   84962    85001    85028    85051    85078    85099    85118    85143 
   85163    85178    85189    85194    85202    85213    85224    85230 
   85226    85221    85226    85228    85221    85214    85201    85186 
   85174    85159    85141    85124    85110    85098    85081    85068 
   85060    85048    85039    85033    85024    85013    85005    84993 
   84975    84964    84959    84940    84923    84916    84898    84866 
   84844    84828    84798    84761    84735    84708    84685    84672 
   84643    84605    84584    84568    84553    84542    84527    84504 
   84484    84477    84466    84450    84451    84456    84451    84464 
   84476    84483    84496    84508    84516    84530    84553    84574 
   84584    84595    84619    84631    84642    84665    84678    84686 
   84703    84713    84724    84743    84755    84759    84763    84766 
   84766    84767    84775    84778    84774    84774    84775    84774 
   84774    84775    84777    84774    84773    84781    84786    84782 
   84786    84792    84792    84794    84792    84781    84781    84781 
   84771    84759    84757    84750    84730    84719    84715    84701 
   84694    84694    84680    84669    84681    84682    84676    84673 
   84669    84665    84670    84674    84673    84667    84666    84666 
   84661    84653    84654    84655    84647    84643    84646    84646 
   84639    84638    84642    84638    84635    84635    84635    84643 
   84655    84651    84645    84646    84647    84647    84640    84628 
   84623    84622    84613    84601    84588    84585    84585    84568 
   84546    84530    84512    84500    84483    84450    84423    84399 
   84368    84342    84311    84273    84257    84240    84208    84184 
   84168    84149    84134    84119    84106    84100    84100    84096 
   84099    84107    84113    84117    84121    84129    84146    84156 
   84157    84171    84180    84187    84207    84226    84238    84257 
   84277    84285    84298    84318    84331    84343    84360    84373 
   84389    84404    84415    84423    84437    84458    84474    84487 
   84508    84538    84574    84607    84630    84658    84696    84730 
   84763    84801    84838    84873    84904    84932    84958    84986 
   85012    85024    85036    85055    85071    85086    85095    85098 
   85108    85122    85124    85121    85124    85132    85139    85137 
   85131    85133    85145    85153    85155    85164    85172    85170 
   85172    85182    85185    85187    85191    85190    85187    85191 
   85191    85183    85174    85168    85168    85166    85158    85149 
   85139    85126    85117    85109    85101    85083    85064    85055 
   85041    85025    85017    85001    84978    84963    84954    84937 
   84919    84901    84881    84862    84848    84824    84793    84774 
   84771    84759    84731    84711    84700    84681    84661    84659 
   84657    84647    84647    84643    84638    84649    84659    84658 
   84654    84651    84655    84658    84650    84649    84650    84642 
   84636    84638    84631    84622    84618    84622    84627    84623 
   84615    84612    84607    84605    84612    84616    84622    84628 
   84626    84631    84654    84674    84686    84701    84721    84743 
   84766    84782    84804    84829    84848    84867    84888    84902 
   84919    84936    84944    84955    84978    84990    84993    85010 
   85031    85041    85055    85068    85081    85091    85105    85121 
   85133    85140    85153    85166    85168    85170    85180    85190 
   85195    85202    85207    85207    85202    85195    85195    85194 
   85189    85183    85172    85159    85144    85135    85126    85114 
   85105    85093    85083    85075    85056    85045    85033    85013 
   85014    85017    85005    84998    84996    84994    84996    84996 
   84994    84997    85005    85012    85010    85012    85014    85016 
   85017    85016    85009    84990    84967    84951    84919    84879 
   84854    84824    84784    84747    84715    84666    84616    84586 
   84558    84518    84488    84466    84439    84418    84397    84375 
   84362    84356    84339    84331    84326    84312    84302    84292 
   84276    84267    84254    84237    84230    84215    84195    84186 
   84168    84146    84148    84145    84127    84129    84144    84150 
   84163    84180    84204    84231    84258    84296    84341    84366 
   84399    84445    84474    84505    84549    84584    84615    84645 
   84676    84715    84750    84771    84796    84819    84846    84878 
   84898    84913    84933    84959    84975    84981    84989    85000 
   85001    85000    84997    84991    84987    84981    84964    84956 
   84955    84940    84921    84913    84898    84881    84874    84870 
   84854    84839    84840    84839    84825    84824    84834    84831 
   84832    84843    84848    84852    84851    84854    84858    84856 
   84851    84848    84846    84829    84807    84790    84773    84748 
   84727    84704    84682    84658    84638    84615    84589    84572 
   84559    84542    84524    84518    84514    84504    84500    84501 
   84504    84504    84499    84499    84503    84504    84504    84507 
   84501    84493    84487    84487    84485    84484    84484    84472 
   84454    84438    84424    84429    84454    84460    84456    84468 
   84478    84492    84512    84519    84535    84570    84588    84600 
   84624    84636    84646    84665    84680    84696    84705    84712 
   84719    84719    84713    84712    84707    84704    84699    84685 
   84677    84673    84657    84642    84634    84619    84599    84582 
   84570    84557    84546    84542    84530    84512    84512    84515 
   84507    84510    84519    84519    84528    84545    84545    84550 
   84573    84596    84607    84618    84636    84647    84655    84677 
   84692    84696    84715    84734    84743    84751    84765    84782 
   84798    84817    84835    84843    84847    84861    84878    84892 
   84904    84919    84931    84943    84951    84956    84974    84987 
   84994    85005    85018    85028    85037    85050    85062    85075 
   85090    85097    85098    85102    85108    85105    85099    85102 
   85105    85098    85089    85082    85079    85071    85058    85045 
   85032    85014    85000    84991    84978    84955    84932    84912 
   84886    84861    84839    84816    84792    84771    84753    84735 
   84712    84692    84681    84662    84638    84623    84613    84599 
   84580    84564    84547    84530    84514    84497    84483    84465 
   84450    84439    84434    84427    84414    84404    84403    84397 
   84392    84396    84399    84396    84395    84396    84392    84396 
   84406    84399    84395    84406    84402    84392    84397    84395 
   84383    84375    84379    84379    84369    84362    84361    84362 
   84361    84361    84366    84376    84387    84396    84407    84429 
   84442    84438    84450    84469    84477    84491    84511    84523 
   84537    84550    84565    84593    84618    84639    84666    84684 
   84707    84747    84777    84793    84820    84850    84873    84906 
   84942    84958    84974    84998    85014    85021    85028    85039 
   85050    85051    85051    85058    85062    85055    85051    85051 
   85041    85029    85021    85005    84994    84996    84985    84966 
   84950    84929    84915    84905    84886    84866    84850    84829 
   84817    84811    84796    84767    84748    84743    84734    84716 
   84696    84685    84678    84662    84647    84642    84635    84623 
