Origin Time       2025/01/13 21:19:00
Lat.              31.8
Long.             131.6
Depth. (km)       30
Mag.              6.9
Station Code      HYGH10
Station Lat.      34.8164
Station Long.     134.8078
Station Height(m) 18
Record Time       2025/01/13 21:21:40
Sampling Freq(Hz) 100Hz
Duration Time(s)  120
Dir.              5
Scale Factor      7845(gal)/8223790
Max. Acc. (gal)   1.460
Last Correction   2025/01/13 21:21:41
Memo.             
[...]
   -2141    -2177    -2212    -2250    -2289    -2328    -2370    -2416 
   -2459    -2504    -2550    -2594    -2639    -2690    -2736    -2781 
   -2828    -2872    -2911    -2951    -2987    -3015    -3045    -3073 
   -3092    -3100    -3103    -3094    -3068    -3033    -2990    -2934 
   -2875    -2812    -2743    -2668    -2592    -2513    -2436    -2361 
   -2282    -2208    -2142    -2077    -2014    -1948    -1881    -1817 
   -1753    -1694    -1640    -1587    -1539    -1498    -1464    -1433 
   -1404    -1375    -1347    -1320    -1296    -1279    -1269    -1262 
   -1258    -1263    -1283    -1313    -1345    -1389    -1443    -1494 
   -1549    -1620    -1695    -1771    -1848    -1925    -2000    -2079 
   -2160    -2236    -2312    -2388    -2458    -2523    -2587    -2648 
   -2702    -2751    -2797    -2837    -2875    -2913    -2944    -2964 
   -2970    -2961    -2938    -2901    -2852    -2797    -2735    -2671 
   -2609    -2550    -2490    -2430    -2373    -2312    -2247    -2185 
   -2120    -2050    -1984    -1919    -1858    -1809    -1761    -1722 
   -1695    -1672    -1651    -1637    -1633    -1630    -1628    -1633 
   -1647    -1660    -1680    -1706    -1732    -1759    -1783    -1813 
   -1844    -1872    -1900    -1930    -1956    -1984    -2019    -2058 
   -2100    -2153    -2216    -2282    -2349    -2423    -2494    -2556 
   -2619    -2675    -2721    -2764    -2798    -2825    -2848    -2867 
   -2880    -2890    -2890    -2884    -2875    -2860    -2845    -2835 
   -2825    -2817    -2812    -2802    -2797    -2794    -2785    -2771 
   -2758    -2735    -2708    -2681    -2648    -2609    -2570    -2524 
   -2471    -2416    -2362    -2308    -2253    -2199    -2150    -2101 
   -2050    -2004    -1962    -1921    -1879    -1841    -1813    -1792 
   -1776    -1765    -1763    -1764    -1765    -1768    -1775    -1780 
   -1788    -1804    -1823    -1840    -1858    -1880    -1904    -1930 
   -1957    -1985    -2018    -2049    -2084    -2120    -2157    -2192 
   -2228    -2268    -2305    -2346    -2388    -2430    -2475    -2519 
   -2560    -2598    -2633    -2664    -2685    -2697    -2702    -2700 
   -2687    -2673    -2656    -2636    -2613    -2589    -2560    -2529 
   -2500    -2470    -2440    -2413    -2389    -2366    -2346    -2328 
   -2309    -2285    -2259    -2232    -2201    -2172    -2146    -2119 
   -2099    -2085    -2079    -2073    -2073    -2083    -2095    -2110 
   -2130    -2150    -2170    -2192    -2212    -2230    -2246    -2261 
   -2277    -2292    -2307    -2322    -2336    -2357    -2380    -2401 
   -2427    -2454    -2477    -2497    -2520    -2540    -2554    -2562 
   -2563    -2558    -2547    -2528    -2508    -2485    -2461    -2439 
   -2419    -2398    -2381    -2365    -2343    -2316    -2288    -2255 
   -2224    -2189    -2151    -2116    -2081    -2043    -2008    -1975 
   -1938    -1902    -1872    -1846    -1821    -1795    -1773    -1756 
   -1741    -1730    -1721    -1714    -1713    -1713    -1709    -1709 
   -1710    -1715    -1726    -1736    -1745    -1757    -1769    -1786 
   -1811    -1836    -1858    -1888    -1922    -1956    -1995    -2033 
   -2064    -2091    -2112    -2128    -2145    -2161    -2173    -2187 
   -2204    -2223    -2239    -2257    -2277    -2300    -2320    -2334 
   -2347    -2363    -2378    -2390    -2403    -2413    -2423    -2434 
   -2446    -2457    -2462    -2463    -2459    -2447    -2432    -2416 
   -2401    -2389    -2374    -2358    -2338    -2317    -2301    -2286 
   -2274    -2269    -2270    -2273    -2277    -2285    -2299    -2315 
   -2336    -2359    -2381    -2405    -2434    -2459    -2478    -2497 
   -2519    -2535    -2548    -2560    -2570    -2575    -2582    -2590 
   -2596    -2601    -2609    -2619    -2625    -2628    -2629    -2629 
   -2624    -2613    -2604    -2597    -2592    -2589    -2587    -2589 
   -2592    -2592    -2593    -2597    -2596    -2589    -2578    -2562 
   -2536    -2502    -2459    -2408    -2355    -2299    -2241    -2185 
   -2134    -2084    -2033    -1984    -1937    -1891    -1846    -1804 
   -1769    -1742    -1721    -1705    -1696    -1695    -1701    -1710 
   -1725    -1744    -1761    -1775    -1791    -1813    -1837    -1865 
   -1896    -1934    -1976    -2019    -2061    -2101    -2142    -2181 
   -2218    -2253    -2285    -2316    -2350    -2389    -2431    -2474 
   -2516    -2555    -2593    -2631    -2662    -2686    -2709    -2728 
   -2741    -2752    -2764    -2770    -2764    -2754    -2736    -2709 
   -2668    -2619    -2565    -2505    -2436    -2359    -2284    -2211 
   -2133    -2052    -1979    -1908    -1837    -1769    -1711    -1659 
   -1613    -1571    -1537    -1514    -1498    -1485    -1475    -1470 
   -1467    -1466    -1463    -1464    -1468    -1474    -1482    -1497 
   -1518    -1543    -1574    -1617    -1668    -1719    -1767    -1815 
   -1863    -1907    -1952    -1998    -2046    -2096    -2142    -2189 
   -2242    -2296    -2347    -2401    -2451    -2498    -2539    -2571 
   -2601    -2629    -2647    -2658    -2662    -2658    -2644    -2624 
   -2600    -2571    -2539    -2502    -2466    -2432    -2401    -2377 
   -2357    -2338    -2323    -2312    -2304    -2300    -2300    -2300 
   -2300    -2300    -2295    -2286    -2277    -2265    -2253    -2241 
   -2226    -2209    -2195    -2176    -2150    -2123    -2095    -2068 
   -2041    -2014    -1998    -1987    -1976    -1971    -1975    -1981 
   -1996    -2015    -2038    -2072    -2115    -2162    -2214    -2272 
   -2330    -2382    -2431    -2478    -2517    -2550    -2578    -2598 
   -2612    -2616    -2609    -2597    -2577    -2550    -2520    -2490 
   -2459    -2425    -2393    -2361    -2332    -2307    -2286    -2274 
   -2265    -2262    -2259    -2251    -2246    -2247    -2249    -2247 
   -2250    -2258    -2262    -2269    -2276    -2277    -2274    -2272 
   -2266    -2262    -2261    -2261    -2261    -2255    -2250    -2242 
   -2228    -2215    -2204    -2193    -2188    -2192    -2199    -2205 
   -2216    -2230    -2242    -2255    -2269    -2281    -2295    -2304 
   -2309    -2313    -2315    -2309    -2301    -2295    -2289    -2281 
   -2273    -2265    -2255    -2235    -2209    -2178    -2142    -2103 
   -2064    -2025    -1991    -1960    -1930    -1910    -1898    -1890 
   -1885    -1890    -1894    -1898    -1906    -1917    -1922    -1926 
   -1926    -1922    -1911    -1895    -1880    -1867    -1849    -1834 
   -1825    -1818    -1817    -1819    -1826    -1833    -1841    -1857 
   -1876    -1895    -1915    -1937    -1962    -1985    -2007    -2034 
   -2064    -2092    -2120    -2154    -2191    -2223    -2258    -2292 
   -2323    -2350    -2369    -2384    -2397    -2403    -2401    -2401 
   -2398    -2393    -2389    -2382    -2377    -2380    -2384    -2394 
   -2415    -2436    -2463    -2494    -2523    -2548    -2573    -2594 
   -2610    -2620    -2624    -2623    -2610    -2590    -2562    -2529 
   -2488    -2440    -2386    -2328    -2270    -2218    -2164    -2115 
   -2074    -2043    -2019    -2002    -1991    -1985    -1987    -1992 
   -2002    -2012    -2026    -2043    -2057    -2069    -2083    -2101 
   -2119    -2134    -2146    -2153    -2155    -2160    -2157    -2150 
   -2145    -2134    -2116    -2099    -2080    -2054    -2029    -2007 
   -1991    -1979    -1975    -1979    -1995    -2019    -2052    -2093 
   -2143    -2203    -2270    -2344    -2415    -2478    -2539    -2596 
   -2639    -2675    -2704    -2721    -2736    -2748    -2754    -2758 
   -2759    -2756    -2752    -2751    -2744    -2735    -2722    -2705 
   -2683    -2658    -2625    -2592    -2560    -2524    -2488    -2454 
   -2413    -2367    -2323    -2276    -2226    -2177    -2133    -2091 
   -2049    -2010    -1972    -1934    -1895    -1858    -1825    -1795 
   -1772    -1759    -1750    -1749    -1756    -1769    -1779    -1794 
   -1815    -1837    -1861    -1888    -1918    -1954    -1995    -2031 
   -2066    -2100    -2127    -2150    -2170    -2185    -2199    -2214 
   -2224    -2235    -2250    -2265    -2276    -2286    -2301    -2315 
   -2323    -2328    -2330    -2328    -2326    -2322    -2309    -2295 
   -2280    -2265    -2246    -2226    -2204    -2178    -2153    -2127 
   -2100    -2073    -2049    -2026    -2004    -1988    -1973    -1961 
   -1954    -1950    -1946    -1942    -1939    -1938    -1941    -1948 
   -1956    -1969    -1996    -2030    -2065    -2111    -2164    -2215 
   -2269    -2320    -2363    -2405    -2439    -2465    -2484    -2498 
   -2508    -2520    -2532    -2546    -2559    -2577    -2594    -2613 
   -2635    -2658    -2682    -2708    -2733    -2758    -2775    -2791 
   -2808    -2818    -2821    -2821    -2818    -2810    -2793    -2771 
   -2745    -2712    -2671    -2628    -2579    -2528    -2470    -2407 
   -2340    -2268    -2192    -2114    -2031    -1950    -1872    -1796 
   -1725    -1659    -1602    -1551    -1507    -1472    -1448    -1435 
   -1435    -1444    -1464    -1494    -1525    -1559    -1595    -1630 
   -1663    -1691    -1715    -1740    -1761    -1776    -1791    -1810 
   -1827    -1838    -1850    -1864    -1875    -1887    -1906    -1923 
   -1944    -1968    -1996    -2025    -2062    -2106    -2149    -2199 
   -2254    -2309    -2367    -2428    -2488    -2546    -2597    -2639 
   -2675    -2704    -2724    -2739    -2748    -2748    -2745    -2737 
   -2722    -2701    -2674    -2646    -2613    -2575    -2536    -2494 
   -2451    -2408    -2373    -2344    -2317    -2296    -2286    -2285 
   -2286    -2296    -2311    -2327    -2340    -2354    -2369    -2381 
   -2389    -2398    -2408    -2412    -2411    -2407    -2398    -2384 
   -2362    -2335    -2301    -2265    -2228    -2188    -2145    -2104 
   -2066    -2029    -1992    -1957    -1922    -1890    -1860    -1829 
   -1795    -1765    -1741    -1715    -1692    -1674    -1657    -1649 
   -1648    -1652    -1660    -1674    -1692    -1714    -1737    -1760 
   -1782    -1802    -1825    -1849    -1873    -1903    -1939    -1983 
   -2026    -2072    -2127    -2185    -2242    -2304    -2370    -2431 
   -2492    -2546    -2593    -2637    -2679    -2712    -2739    -2759 
   -2775    -2786    -2794    -2797    -2794    -2790    -2782    -2768 
   -2752    -2733    -2712    -2687    -2659    -2631    -2604    -2578 
   -2550    -2523    -2497    -2469    -2440    -2412    -2380    -2349 
   -2319    -2293    -2270    -2250    -2228    -2209    -2196    -2180 
   -2161    -2147    -2134    -2122    -2115    -2108    -2106    -2106 
   -2104    -2100    -2097    -2093    -2085    -2072    -2058    -2045 
   -2026    -1999    -1969    -1938    -1903    -1863    -1822    -1786 
   -1752    -1719    -1694    -1674    -1653    -1636    -1625    -1620 
   -1617    -1620    -1630    -1648    -1669    -1694    -1721    -1750 
   -1782    -1815    -1853    -1898    -1948    -2003    -2061    -2120 
   -2180    -2239    -2297    -2353    -2405    -2454    -2500    -2538 
   -2574    -2608    -2632    -2655    -2677    -2695    -2713    -2731 
   -2744    -2754    -2763    -2768    -2767    -2763    -2756    -2743 
   -2722    -2700    -2675    -2646    -2609    -2570    -2527    -2478 
   -2425    -2370    -2313    -2255    -2197    -2146    -2096    -2045 
   -1991    -1938    -1894    -1854    -1815    -1783    -1761    -1742 
   -1730    -1728    -1733    -1745    -1764    -1790    -1823    -1861 
   -1907    -1958    -2014    -2072    -2127    -2180    -2231    -2276 
   -2312    -2340    -2361    -2378    -2396    -2409    -2420    -2428 
   -2432    -2435    -2432    -2427    -2423    -2416    -2411    -2407 
   -2407    -2412    -2419    -2428    -2442    -2451    -2459    -2467 
   -2470    -2466    -2465    -2466    -2462    -2457    -2451    -2444 
   -2436    -2423    -2409    -2396    -2380    -2361    -2339    -2317 
   -2296    -2273    -2249    -2223    -2199    -2177    -2157    -2137 
   -2118    -2101    -2087    -2066    -2043    -2019    -1995    -1968 
   -1934    -1898    -1863    -1829    -1792    -1757    -1723    -1691 
   -1657    -1630    -1610    -1594    -1587    -1594    -1606    -1625 
   -1657    -1698    -1742    -1795    -1852    -1911    -1973    -2035 
   -2096    -2153    -2208    -2262    -2312    -2363    -2417    -2471 
   -2527    -2589    -2647    -2700    -2756    -2812    -2862    -2911 
   -2960    -3002    -3041    -3079    -3111    -3134    -3149    -3154 
   -3148    -3133    -3111    -3079    -3041    -2997    -2945    -2890 
   -2828    -2756    -2681    -2602    -2519    -2434    -2346    -2255 
   -2168    -2080    -1988    -1895    -1803    -1711    -1621    -1534 
   -1452    -1375    -1309    -1251    -1201    -1161    -1127    -1100 
   -1084    -1077    -1081    -1092    -1115    -1150    -1190    -1242 
   -1306    -1378    -1455    -1540    -1632    -1723    -1818    -1919 
   -2020    -2120    -2227    -2332    -2434    -2532    -2627    -2717 
   -2806    -2889    -2968    -3048    -3122    -3192    -3265    -3331 
   -3389    -3442    -3488    -3524    -3553    -3572    -3577    -3573 
   -3559    -3532    -3492    -3439    -3375    -3300    -3218    -3125 
   -3024    -2916    -2801    -2683    -2565    -2440    -2315    -2193 
   -2070    -1945    -1823    -1709    -1595    -1485    -1379    -1278 
   -1186    -1100    -1013     -938     -874     -815     -762     -723 
    -696     -684     -688     -702     -724     -758     -799     -842 
    -893     -947    -1005    -1067    -1134    -1205    -1278    -1358 
   -1447    -1539    -1633    -1730    -1829    -1926    -2027    -2131 
   -2241    -2347    -2455    -2560    -2660    -2758    -2849    -2934 
   -3011    -3082    -3148    -3204    -3252    -3292    -3327    -3349 
   -3357    -3358    -3352    -3333    -3302    -3262    -3218    -3164 
   -3102    -3036    -2967    -2894    -2817    -2739    -2662    -2583 
   -2504    -2428    -2353    -2274    -2201    -2134    -2066    -2004 
   -1946    -1891    -1840    -1791    -1744    -1702    -1659    -1615 
   -1575    -1537    -1501    -1467    -1437    -1412    -1390    -1377 
   -1367    -1359    -1358    -1366    -1379    -1405    -1436    -1470 
   -1507    -1552    -1598    -1648    -1696    -1749    -1800    -1852 
   -1903    -1954    -2003    -2054    -2107    -2166    -2227    -2285 
   -2344    -2405    -2465    -2523    -2579    -2633    -2683    -2729 
   -2771    -2809    -2839    -2862    -2880    -2890    -2893    -2894 
   -2889    -2876    -2863    -2840    -2812    -2778    -2736    -2689 
   -2633    -2567    -2500    -2428    -2353    -2276    -2201    -2128 
   -2062    -2004    -1950    -1899    -1857    -1817    -1779    -1746 
   -1715    -1686    -1657    -1633    -1609    -1584    -1567    -1553 
   -1539    -1525    -1517    -1513    -1510    -1514    -1525    -1536 
   -1551    -1572    -1599    -1630    -1665    -1705    -1749    -1796 
   -1845    -1899    -1958    -2015    -2077    -2145    -2208    -2273 
   -2344    -2415    -2488    -2565    -2641    -2722    -2801    -2871 
   -2937    -2995    -3040    -3076    -3100    -3111    -3111    -3096 
   -3069    -3040    -3002    -2956    -2909    -2857    -2801    -2741 
   -2679    -2614    -2550    -2485    -2421    -2361    -2304    -2249 
   -2193    -2145    -2100    -2054    -2008    -1964    -1921    -1879 
   -1833    -1784    -1741    -1696    -1653    -1617    -1586    -1555 
   -1533    -1521    -1514    -1516    -1528    -1547    -1570    -1597 
   -1629    -1664    -1698    -1734    -1779    -1827    -1880    -1941 
   -2003    -2069    -2143    -2216    -2288    -2362    -2434    -2502 
   -2570    -2635    -2698    -2759    -2817    -2872    -2921    -2964 
   -3007    -3045    -3076    -3102    -3122    -3133    -3134    -3126 
   -3109    -3079    -3045    -3007    -2961    -2911    -2863    -2806 
   -2740    -2674    -2608    -2535    -2459    -2389    -2326    -2258 
   -2189    -2124    -2061    -2000    -1944    -1888    -1838    -1792 
   -1750    -1710    -1668    -1630    -1595    -1559    -1521    -1490 
   -1460    -1431    -1405    -1386    -1367    -1350    -1336    -1325 
   -1321    -1324    -1332    -1347    -1371    -1405    -1447    -1499 
   -1557    -1626    -1703    -1786    -1875    -1969    -2064    -2161 
   -2257    -2353    -2447    -2540    -2629    -2714    -2794    -2866 
   -2929    -2988    -3038    -3075    -3106    -3140    -3164    -3181 
   -3199    -3217    -3225    -3227    -3230    -3227    -3222    -3219 
   -3214    -3199    -3177    -3153    -3123    -3079    -3030    -2975 
   -2910    -2836    -2752    -2662    -2566    -2462    -2351    -2241 
   -2127    -2010    -1894    -1783    -1675    -1568    -1467    -1375 
   -1290    -1210    -1143    -1085    -1043    -1011     -984     -969 
    -967     -976     -990    -1013    -1048    -1096    -1151    -1213 
   -1287    -1372    -1460    -1548    -1641    -1737    -1825    -1910 
   -1998    -2079    -2157    -2235    -2309    -2380    -2452    -2527 
   -2597    -2666    -2737    -2806    -2872    -2938    -2997    -3046 
   -3092    -3134    -3173    -3208    -3235    -3261    -3280    -3287 
   -3283    -3269    -3245    -3210    -3165    -3117    -3063    -3006 
   -2943    -2871    -2794    -2710    -2625    -2533    -2432    -2327 
   -2223    -2116    -2008    -1903    -1799    -1699    -1607    -1525 
   -1453    -1389    -1332    -1289    -1254    -1223    -1198    -1183 
   -1175    -1174    -1186    -1206    -1228    -1258    -1294    -1332 
   -1374    -1426    -1479    -1532    -1591    -1655    -1718    -1786 
   -1853    -1922    -1992    -2061    -2131    -2204    -2274    -2339 
   -2401    -2461    -2515    -2567    -2617    -2667    -2717    -2767 
   -2817    -2866    -2914    -2959    -3003    -3042    -3078    -3111 
   -3137    -3150    -3161    -3164    -3150    -3133    -3111    -3080 
   -3041    -2998    -2945    -2886    -2821    -2751    -2671    -2587 
   -2504    -2417    -2328    -2239    -2153    -2069    -1988    -1908 
   -1837    -1764    -1692    -1629    -1571    -1517    -1467    -1422 
   -1385    -1352    -1324    -1305    -1294    -1285    -1282    -1285 
   -1291    -1302    -1318    -1337    -1359    -1383    -1412    -1441 
   -1474    -1514    -1555    -1597    -1642    -1694    -1745    -1796 
   -1852    -1912    -1976    -2035    -2096    -2155    -2212    -2269 
   -2322    -2370    -2419    -2466    -2506    -2542    -2574    -2608 
   -2636    -2658    -2678    -2698    -2720    -2739    -2756    -2775 
   -2787    -2795    -2799    -2798    -2789    -2775    -2754    -2725 
   -2693    -2654    -2608    -2562    -2519    -2471    -2424    -2377 
   -2331    -2284    -2232    -2180    -2127    -2074    -2018    -1962 
   -1912    -1860    -1810    -1768    -1726    -1687    -1655    -1630 
   -1611    -1599    -1597    -1601    -1609    -1625    -1653    -1686 
   -1725    -1769    -1822    -1877    -1930    -1987    -2047    -2104 
   -2157    -2208    -2262    -2317    -2376    -2430    -2484    -2539 
   -2592    -2639    -2685    -2733    -2782    -2826    -2867    -2905 
   -2937    -2964    -2984    -3002    -3014    -3017    -3014    -3005 
   -2986    -2960    -2929    -2894    -2852    -2803    -2749    -2691 
