Origin Time       2025/01/13 21:19:00
Lat.              31.8
Long.             131.6
Depth. (km)       30
Mag.              6.9
Station Code      HYGH04
Station Lat.      35.0708
Station Long.     135.2811
Station Height(m) 217.85
Record Time       2025/01/13 21:21:58
Sampling Freq(Hz) 100Hz
Duration Time(s)  120
Dir.              5
Scale Factor      7845(gal)/8223790
Max. Acc. (gal)   0.162
Last Correction   2025/01/13 21:21:59
Memo.             
[...]
    3721     3736     3750     3731     3719     3734     3743     3736 
    3735     3747     3754     3753     3751     3747     3740     3738 
    3735     3731     3731     3732     3727     3721     3730     3735 
    3728     3732     3746     3740     3723     3727     3743     3731 
    3704     3709     3731     3719     3707     3720     3730     3728 
    3720     3719     3732     3731     3726     3732     3734     3738 
    3743     3736     3740     3748     3740     3734     3739     3738 
    3723     3717     3723     3715     3700     3696     3704     3699 
    3684     3688     3694     3684     3688     3696     3689     3690 
    3696     3701     3711     3708     3713     3728     3728     3720 
    3719     3728     3730     3721     3720     3726     3736     3753 
    3757     3759     3767     3773     3778     3767     3755     3762 
    3762     3747     3747     3759     3761     3763     3773     3777 
    3774     3774     3771     3763     3766     3769     3763     3770 
    3777     3774     3777     3782     3780     3773     3774     3778 
    3781     3781     3778     3785     3798     3800     3794     3796 
    3792     3782     3782     3775     3765     3773     3773     3761 
    3767     3777     3773     3775     3784     3785     3784     3786 
    3785     3781     3780     3770     3769     3780     3762     3742 
    3761     3767     3747     3746     3761     3770     3769     3763 
    3763     3767     3765     3755     3739     3738     3744     3739 
    3734     3736     3744     3750     3748     3748     3751     3744 
    3742     3734     3716     3716     3716     3700     3689     3692 
    3693     3686     3688     3690     3690     3696     3700     3693 
    3692     3690     3677     3670     3673     3674     3678     3676 
    3677     3700     3704     3685     3692     3708     3699     3686 
    3690     3701     3703     3697     3707     3712     3707     3708 
    3707     3694     3689     3684     3681     3682     3677     3674 
    3685     3686     3681     3686     3690     3692     3694     3690 
    3689     3705     3707     3690     3696     3715     3713     3707 
    3713     3726     3726     3717     3723     3739     3746     3747 
    3757     3759     3767     3786     3784     3784     3807     3812 
    3802     3808     3823     3836     3831     3817     3831     3844 
    3821     3809     3829     3838     3829     3835     3846     3854 
    3854     3847     3848     3854     3848     3846     3846     3847 
    3850     3846     3834     3834     3838     3824     3809     3809 
    3808     3794     3781     3780     3774     3769     3767     3759 
    3757     3759     3750     3739     3738     3735     3731     3731 
    3735     3739     3746     3746     3744     3750     3754     3759 
    3761     3758     3770     3778     3774     3780     3798     3804 
    3790     3794     3805     3793     3778     3780     3777     3775 
    3775     3769     3761     3758     3763     3758     3740     3743 
    3750     3744     3742     3736     3739     3747     3739     3734 
    3751     3750     3730     3734     3747     3744     3730     3724 
    3738     3743     3731     3728     3735     3738     3739     3732 
    3724     3723     3727     3724     3708     3699     3704     3712 
    3705     3677     3669     3680     3659     3640     3649     3651 
    3653     3659     3662     3665     3676     3685     3684     3670 
    3667     3670     3658     3653     3658     3650     3649     3655 
    3653     3650     3645     3642     3649     3650     3643     3640 
    3647     3653     3647     3645     3650     3645     3643     3647 
    3645     3639     3640     3647     3649     3645     3645     3642 
    3647     3651     3640     3640     3645     3638     3634     3639 
    3643     3647     3659     3676     3673     3667     3676     3672 
    3659     3657     3657     3659     3663     3667     3662     3658 
    3662     3661     3649     3640     3640     3639     3634     3628 
    3624     3623     3622     3619     3612     3607     3609     3613 
    3608     3608     3624     3638     3634     3631     3640     3647 
    3645     3643     3649     3653     3654     3650     3651     3654 
    3655     3659     3658     3655     3655     3655     3653     3657 
    3657     3658     3673     3681     3672     3673     3677     3667 
    3665     3673     3665     3662     3669     3670     3676     3689 
    3697     3707     3719     3726     3728     3732     3740     3740 
    3732     3735     3751     3755     3751     3761     3775     3789 
    3792     3782     3790     3817     3815     3800     3808     3820 
    3821     3816     3807     3808     3813     3809     3802     3800 
    3804     3809     3802     3794     3790     3784     3774     3770 
    3762     3753     3759     3769     3767     3769     3775     3775 
    3775     3778     3771     3762     3761     3767     3770     3755 
    3755     3780     3784     3769     3774     3786     3788     3784 
    3775     3771     3773     3774     3771     3763     3765     3777 
    3777     3778     3781     3784     3784     3767     3759     3773 
    3767     3742     3736     3753     3744     3715     3712     3723 
    3719     3707     3693     3692     3700     3700     3692     3680 
    3680     3696     3693     3670     3662     3676     3682     3666 
    3647     3650     3669     3672     3657     3657     3672     3677 
    3673     3667     3661     3666     3672     3661     3663     3682 
    3685     3686     3700     3705     3707     3719     3726     3719 
    3724     3740     3753     3758     3762     3777     3789     3782 
    3785     3792     3792     3793     3798     3807     3816     3824 
    3840     3847     3842     3847     3854     3852     3846     3838 
    3839     3851     3851     3844     3850     3852     3847     3848 
    3846     3834     3829     3831     3827     3820     3820     3821 
    3816     3812     3807     3801     3800     3794     3792     3788 
    3782     3788     3784     3765     3762     3770     3765     3747 
    3743     3755     3761     3746     3734     3736     3735     3713 
    3697     3697     3688     3676     3678     3674     3667     3676 
    3678     3659     3643     3651     3650     3626     3618     3630 
    3634     3631     3628     3640     3666     3667     3661     3677 
    3678     3667     3680     3686     3673     3676     3694     3703 
    3697     3699     3709     3723     3728     3721     3724     3742 
    3753     3748     3747     3761     3773     3773     3774     3782 
    3789     3793     3796     3788     3784     3796     3789     3774 
    3780     3782     3766     3759     3761     3751     3740     3735 
    3731     3730     3723     3713     3713     3719     3713     3701 
    3701     3708     3699     3682     3681     3684     3677     3669 
    3667     3662     3661     3677     3677     3663     3673     3686 
    3688     3680     3672     3680     3688     3676     3672     3684 
    3694     3693     3694     3711     3717     3707     3712     3724 
    3719     3717     3731     3744     3742     3735     3747     3757 
    3750     3751     3754     3753     3754     3759     3766     3773 
    3782     3792     3790     3786     3785     3777     3775     3781 
    3781     3775     3785     3800     3800     3804     3815     3819 
    3816     3809     3811     3817     3815     3812     3817     3823 
    3825     3827     3824     3823     3820     3816     3812     3811 
    3813     3813     3813     3813     3812     3815     3817     3809 
    3804     3812     3812     3798     3798     3815     3821     3825 
    3829     3829     3836     3838     3823     3816     3820     3821 
    3813     3815     3824     3820     3819     3829     3829     3820 
    3823     3821     3805     3801     3789     3767     3766     3761 
    3748     3736     3724     3730     3739     3727     3715     3726 
    3734     3717     3709     3715     3712     3715     3720     3719 
    3726     3736     3744     3743     3734     3730     3734     3738 
    3724     3717     3732     3744     3743     3744     3748     3751 
    3757     3765     3761     3751     3769     3778     3763     3762 
    3765     3759     3762     3757     3747     3757     3761     3750 
    3757     3761     3744     3736     3727     3711     3708     3699 
    3681     3692     3701     3685     3688     3708     3708     3700 
    3699     3701     3703     3704     3704     3703     3705     3708 
    3705     3707     3705     3696     3694     3693     3694     3699 
    3692     3693     3696     3689     3688     3684     3670     3672 
    3682     3673     3669     3689     3694     3680     3678     3690 
    3692     3682     3678     3680     3688     3692     3690     3697 
    3704     3707     3713     3713     3713     3716     3717     3721 
    3728     3736     3740     3748     3762     3766     3766     3773 
    3775     3773     3769     3761     3758     3759     3763     3761 
    3757     3766     3777     3769     3762     3770     3777     3773 
    3766     3759     3767     3780     3777     3778     3790     3797 
    3793     3794     3804     3798     3793     3798     3800     3800 
    3797     3798     3813     3815     3801     3804     3812     3820 
    3816     3798     3808     3829     3816     3805     3823     3834 
    3834     3823     3816     3828     3828     3807     3800     3801 
    3793     3788     3796     3796     3785     3792     3793     3774 
    3765     3769     3769     3755     3744     3753     3757     3748 
    3738     3730     3728     3731     3728     3721     3717     3726 
    3736     3732     3730     3739     3747     3743     3739     3744 
    3748     3743     3735     3728     3726     3723     3711     3699 
    3700     3699     3686     3677     3682     3692     3688     3684 
    3692     3689     3678     3680     3685     3688     3694     3700 
    3704     3712     3709     3709     3719     3715     3709     3713 
    3713     3721     3730     3715     3707     3720     3724     3716 
    3715     3713     3726     3740     3730     3719     3739     3754 
    3746     3735     3731     3740     3751     3739     3726     3734 
    3748     3748     3738     3742     3755     3748     3739     3746 
    3739     3731     3747     3755     3751     3755     3765     3773 
    3771     3761     3763     3769     3761     3754     3751     3751 
    3747     3738     3742     3757     3757     3744     3744     3748 
    3740     3728     3724     3724     3728     3731     3723     3717 
    3730     3734     3717     3712     3719     3721     3723     3723 
    3732     3742     3739     3744     3748     3736     3734     3744 
    3744     3734     3734     3754     3765     3754     3748     3757 
    3754     3742     3738     3739     3739     3742     3747     3748 
    3761     3773     3759     3750     3763     3759     3744     3757 
    3766     3757     3762     3778     3781     3782     3789     3796 
    3800     3801     3800     3811     3827     3823     3820     3832 
    3836     3829     3820     3817     3816     3808     3801     3802 
    3797     3781     3774     3769     3751     3738     3736     3724 
    3699     3682     3676     3666     3651     3635     3632     3643 
    3640     3623     3620     3632     3640     3631     3622     3635 
    3651     3650     3650     3657     3676     3693     3686     3688 
    3709     3717     3716     3724     3735     3742     3746     3758 
    3771     3775     3784     3794     3797     3801     3800     3798 
    3808     3812     3809     3819     3829     3829     3831     3839 
    3836     3831     3842     3846     3835     3846     3861     3855 
    3850     3852     3856     3852     3842     3840     3844     3842 
    3831     3828     3831     3832     3821     3808     3805     3796 
    3784     3777     3762     3748     3744     3739     3734     3721 
    3712     3711     3707     3699     3689     3685     3689     3681 
    3654     3649     3666     3659     3645     3643     3645     3657 
    3655     3635     3634     3646     3645     3634     3622     3624 
    3631     3630     3615     3604     3618     3624     3607     3603 
    3611     3612     3612     3608     3599     3607     3612     3599 
    3592     3600     3604     3605     3612     3620     3616     3626 
    3645     3640     3634     3649     3667     3673     3666     3673 
    3692     3700     3700     3705     3716     3731     3738     3734 
    3739     3754     3751     3740     3755     3763     3746     3751 
    3773     3773     3770     3777     3786     3784     3780     3782 
    3781     3790     3802     3789     3789     3819     3823     3801 
    3797     3815     3823     3811     3808     3824     3819     3802 
    3808     3811     3805     3808     3811     3807     3805     3815 
    3823     3816     3811     3817     3836     3838     3811     3804 
    3819     3802     3785     3792     3801     3798     3784     3778 
    3782     3775     3770     3761     3748     3746     3739     3724 
    3711     3705     3707     3697     3684     3688     3689     3677 
    3662     3653     3647     3639     3630     3618     3609     3612 
    3611     3595     3586     3588     3581     3580     3581     3569 
    3562     3572     3577     3573     3570     3572     3584     3593 
    3576     3564     3589     3605     3601     3607     3626     3650 
    3663     3661     3663     3680     3690     3686     3694     3712 
    3719     3728     3744     3748     3750     3765     3780     3781 
    3775     3782     3801     3812     3805     3802     3816     3835 
    3834     3828     3834     3836     3838     3842     3839     3842 
    3851     3848     3844     3854     3855     3850     3859     3861 
    3848     3848     3856     3846     3829     3836     3842     3821 
    3812     3813     3798     3788     3790     3782     3777     3774 
    3763     3767     3770     3753     3743     3753     3751     3742 
    3740     3738     3732     3742     3746     3744     3754     3762 
    3773     3781     3773     3771     3788     3798     3786     3780 
    3793     3807     3807     3801     3800     3805     3813     3811 
    3794     3797     3821     3817     3798     3808     3815     3811 
    3809     3802     3798     3801     3794     3780     3786     3797 
    3777     3771     3789     3789     3781     3778     3769     3769 
    3775     3759     3740     3754     3767     3755     3740     3746 
    3763     3762     3739     3739     3763     3761     3736     3731 
    3742     3743     3728     3713     3724     3740     3723     3712 
    3724     3720     3709     3716     3721     3721     3724     3723 
    3719     3715     3711     3705     3705     3712     3712     3707 
    3703     3700     3693     3688     3689     3690     3692     3692 
    3682     3674     3677     3678     3669     3666     3680     3685 
    3672     3649     3647     3663     3657     3643     3653     3670 
    3673     3662     3657     3661     3665     3669     3665     3659 
    3670     3677     3672     3672     3682     3700     3699     3686 
    3701     3719     3711     3712     3726     3728     3730     3734 
    3727     3727     3735     3732     3727     3738     3751     3754 
    3758     3769     3778     3781     3771     3769     3780     3775 
    3770     3781     3789     3782     3785     3790     3786     3781 
    3782     3782     3782     3781     3775     3774     3778     3773 
    3759     3765     3769     3748     3746     3761     3757     3740 
    3743     3751     3740     3736     3743     3742     3740     3739 
    3731     3730     3728     3723     3715     3711     3717     3724 
    3717     3712     3716     3724     3720     3708     3715     3728 
    3723     3705     3705     3724     3731     3719     3715     3723 
    3736     3735     3721     3723     3739     3747     3739     3734 
    3747     3757     3744     3743     3758     3762     3757     3758 
    3771     3777     3773     3786     3794     3785     3790     3798 
    3793     3790     3797     3805     3800     3800     3815     3804 
    3792     3804     3801     3792     3796     3790     3786     3792 
    3790     3790     3794     3796     3792     3789     3789     3781 
    3777     3792     3792     3777     3788     3807     3805     3798 
    3801     3805     3798     3793     3794     3792     3782     3775 
    3778     3773     3754     3748     3751     3742     3728     3717 
    3719     3720     3713     3705     3700     3707     3705     3689 
    3689     3699     3694     3686     3684     3684     3685     3682 
    3684     3685     3678     3678     3684     3673     3666     3677 
    3678     3669     3669     3680     3685     3685     3689     3694 
    3700     3709     3711     3707     3715     3716     3712     3713 
    3713     3716     3724     3726     3721     3728     3732     3727 
    3738     3747     3730     3726     3747     3751     3740     3742 
    3747     3743     3739     3732     3736     3753     3757     3742 
    3731     3730     3740     3742     3726     3720     3726     3723 
    3713     3709     3719     3732     3731     3717     3705     3705 
    3704     3693     3696     3704     3694     3680     3674     3676 
    3680     3680     3681     3686     3673     3661     3670     3680 
    3681     3681     3682     3678     3667     3662     3667     3674 
    3674     3674     3680     3669     3651     3655     3669     3674 
    3674     3673     3661     3649     3647     3643     3642     3654 
    3659     3631     3608     3627     3638     3622     3618     3627 
    3619     3599     3597     3603     3601     3613     3628     3630 
    3631     3628     3619     3622     3636     3651     3651     3650 
    3658     3659     3651     3658     3667     3666     3680     3697 
    3690     3682     3690     3707     3719     3720     3726     3736 
    3735     3726     3731     3743     3740     3747     3758     3755 
    3763     3782     3780     3773     3777     3785     3781     3773 
    3775     3781     3780     3788     3794     3789     3793     3800 
    3798     3800     3804     3809     3816     3821     3828     3831 
    3831     3836     3847     3848     3844     3855     3863     3856 
    3848     3844     3859     3859     3840     3835     3836     3832 
    3816     3793     3790     3796     3780     3761     3758     3757 
    3751     3738     3715     3713     3726     3708     3684     3688 
    3692     3676     3661     3658     3651     3639     3635     3628 
    3619     3620     3613     3605     3608     3605     3607     3616 
    3609     3611     3624     3613     3604     3619     3626     3618 
    3624     3636     3642     3649     3647     3643     3657     3670 
    3672     3666     3674     3688     3690     3688     3684     3693 
    3712     3712     3712     3728     3736     3735     3738     3751 
    3755     3763     3785     3789     3789     3805     3815     3815 
    3817     3821     3824     3828     3828     3823     3824     3838 
