Origin Time       2025/01/13 21:19:00
Lat.              31.8
Long.             131.6
Depth. (km)       30
Mag.              6.9
Station Code      HYGH07
Station Lat.      35.0322
Station Long.     134.6701
Station Height(m) 60
Record Time       2025/01/13 21:21:46
Sampling Freq(Hz) 100Hz
Duration Time(s)  120
Dir.              3
Scale Factor      2942(gal)/8224139
Max. Acc. (gal)   0.252
Last Correction   2025/01/13 21:21:46
Memo.             
[...]
   18647    18643    18648    18651    18647    18644    18646    18642 
   18643    18650    18650    18651    18663    18671    18674    18684 
   18696    18704    18706    18708    18720    18735    18739    18746 
   18756    18760    18770    18777    18760    18748    18746    18735 
   18731    18732    18720    18709    18702    18696    18688    18681 
   18678    18679    18675    18674    18681    18682    18681    18684 
   18681    18678    18679    18673    18662    18652    18644    18639 
   18635    18631    18627    18631    18635    18632    18638    18648 
   18650    18655    18666    18677    18686    18690    18694    18701 
   18709    18711    18711    18713    18702    18692    18689    18681 
   18674    18671    18666    18655    18652    18662    18669    18675 
   18684    18692    18705    18720    18724    18729    18740    18744 
   18744    18747    18751    18751    18747    18746    18748    18751 
   18751    18750    18743    18742    18754    18763    18765    18770 
   18774    18779    18789    18790    18787    18787    18790    18787 
   18779    18771    18770    18769    18760    18754    18747    18738 
   18729    18724    18715    18700    18685    18675    18667    18661 
   18652    18642    18636    18634    18631    18636    18642    18642 
   18644    18655    18657    18657    18669    18678    18678    18685 
   18701    18713    18721    18727    18727    18727    18736    18747 
   18751    18754    18756    18754    18758    18774    18782    18777 
   18783    18792    18787    18789    18790    18787    18787    18783 
   18777    18773    18763    18758    18759    18751    18739    18733 
   18724    18711    18693    18673    18663    18658    18644    18625 
   18611    18593    18576    18563    18554    18551    18549    18546 
   18551    18561    18566    18578    18592    18597    18603    18612 
   18624    18635    18643    18652    18666    18677    18682    18689 
   18701    18717    18727    18733    18744    18752    18755    18755 
   18751    18750    18751    18748    18740    18733    18732    18728 
   18721    18721    18723    18719    18719    18727    18733    18736 
   18746    18759    18762    18762    18767    18779    18800    18813 
   18819    18832    18846    18851    18848    18848    18852    18847 
   18837    18836    18833    18827    18820    18808    18800    18789 
   18769    18758    18755    18743    18733    18725    18721    18719 
   18708    18698    18700    18701    18690    18685    18688    18686 
   18685    18685    18682    18681    18675    18674    18682    18681 
   18678    18682    18678    18667    18663    18657    18650    18643 
   18631    18617    18607    18594    18589    18589    18586    18585 
   18596    18605    18613    18632    18646    18654    18669    18677 
   18685    18701    18705    18705    18716    18717    18713    18721 
   18735    18740    18742    18742    18740    18743    18748    18750 
   18744    18739    18732    18721    18719    18727    18731    18735 
   18738    18736    18740    18742    18736    18735    18738    18743 
   18752    18759    18759    18767    18785    18786    18782    18787 
   18785    18782    18786    18781    18777    18781    18775    18765 
   18765    18774    18774    18771    18778    18781    18778    18781 
   18785    18792    18794    18792    18792    18793    18786    18773 
   18759    18747    18739    18731    18721    18711    18701    18697 
   18690    18681    18677    18671    18663    18662    18666    18667 
   18675    18693    18708    18717    18733    18751    18765    18777 
   18786    18798    18813    18823    18835    18851    18858    18866 
   18877    18879    18877    18879    18878    18874    18878    18875 
   18866    18866    18868    18863    18859    18850    18840    18840 
   18837    18840    18850    18854    18862    18877    18883    18889 
   18900    18908    18909    18914    18916    18912    18912    18909 
   18897    18887    18875    18866    18860    18846    18829    18819 
   18804    18792    18782    18769    18755    18743    18729    18716 
   18705    18700    18694    18689    18692    18692    18690    18690 
   18686    18686    18686    18685    18693    18702    18705    18719 
   18739    18746    18750    18767    18782    18789    18804    18813 
   18810    18813    18812    18804    18794    18781    18765    18751 
   18732    18719    18708    18692    18678    18675    18666    18647 
   18632    18620    18607    18594    18585    18571    18562    18557 
   18553    18549    18547    18550    18555    18566    18581    18588 
   18598    18613    18620    18630    18640    18646    18658    18669 
   18674    18684    18694    18704    18706    18706    18719    18729 
   18733    18744    18751    18748    18759    18771    18769    18763 
   18771    18785    18786    18785    18781    18783    18792    18787 
   18775    18770    18765    18758    18754    18746    18739    18736 
   18733    18728    18727    18724    18724    18725    18727    18731 
   18735    18736    18739    18743    18740    18744    18751    18751 
   18756    18765    18766    18770    18777    18781    18778    18774 
   18777    18777    18765    18756    18760    18767    18767    18763 
   18765    18770    18773    18775    18779    18786    18789    18787 
   18789    18794    18794    18794    18794    18800    18804    18800 
   18800    18802    18801    18797    18792    18786    18782    18771 
   18763    18756    18748    18740    18731    18720    18716    18716 
   18713    18712    18709    18698    18694    18694    18685    18677 
   18673    18671    18675    18673    18669    18673    18677    18684 
   18688    18692    18698    18701    18705    18712    18711    18711 
   18716    18715    18712    18713    18713    18709    18708    18701 
   18689    18684    18685    18682    18675    18674    18675    18674 
   18674    18679    18681    18679    18681    18679    18679    18682 
   18679    18679    18682    18681    18686    18696    18698    18709 
   18727    18739    18755    18775    18790    18802    18817    18831 
   18839    18846    18851    18852    18851    18854    18852    18848 
   18851    18852    18848    18847    18846    18843    18846    18848 
   18844    18839    18835    18827    18817    18804    18782    18763 
   18746    18723    18704    18689    18666    18646    18636    18624 
   18612    18604    18598    18596    18593    18584    18578    18574 
   18565    18558    18550    18539    18534    18530    18527    18523 
   18523    18527    18526    18526    18531    18536    18539    18540 
   18534    18526    18519    18511    18499    18486    18474    18463 
   18455    18441    18431    18428    18424    18424    18428    18432 
   18439    18450    18461    18468    18474    18490    18499    18501 
   18516    18528    18534    18544    18562    18577    18594    18617 
   18640    18659    18684    18712    18736    18756    18777    18798 
   18814    18829    18841    18846    18848    18854    18855    18858 
   18856    18852    18851    18847    18837    18831    18824    18808 
   18787    18781    18781    18763    18743    18732    18720    18705 
   18698    18689    18674    18662    18655    18651    18648    18642 
   18636    18634    18632    18640    18652    18665    18679    18696 
   18711    18725    18742    18758    18770    18787    18805    18817 
   18827    18840    18856    18863    18868    18875    18875    18874 
   18875    18870    18863    18863    18860    18851    18844    18837 
   18829    18817    18802    18792    18779    18766    18759    18750 
   18740    18735    18725    18719    18719    18709    18702    18705 
   18701    18694    18694    18694    18692    18692    18690    18692 
   18694    18696    18698    18697    18692    18694    18697    18696 
   18693    18696    18702    18702    18702    18706    18705    18705 
   18708    18702    18693    18686    18685    18679    18673    18670 
   18662    18662    18666    18657    18657    18671    18673    18667 
   18674    18682    18681    18677    18675    18673    18675    18681 
   18682    18685    18693    18704    18715    18727    18739    18751 
   18766    18779    18787    18798    18819    18836    18844    18858 
   18879    18891    18900    18917    18931    18945    18968    18979 
   18981    18994    19003    18997    18997    18999    18993    18985 
   18982    18981    18978    18979    18982    18981    18972    18968 
   18974    18971    18960    18959    18952    18933    18920    18912 
   18891    18864    18848    18839    18828    18814    18808    18804 
   18798    18802    18806    18804    18805    18814    18821    18829 
   18843    18848    18846    18847    18846    18841    18835    18825 
   18812    18798    18781    18760    18744    18724    18697    18671 
   18647    18621    18594    18566    18542    18519    18495    18474 
   18457    18435    18420    18412    18397    18385    18378    18370 
   18360    18354    18351    18346    18343    18343    18343    18338 
   18333    18331    18323    18314    18314    18319    18314    18308 
   18319    18334    18342    18354    18374    18391    18407    18431 
   18455    18478    18507    18534    18565    18597    18628    18657 
   18688    18717    18744    18771    18797    18825    18854    18877 
   18895    18918    18941    18956    18974    18991    18997    19002 
   19008    19008    19006    19009    19009    19003    18998    18991 
   18983    18971    18959    18943    18925    18910    18893    18867 
   18835    18802    18773    18736    18694    18661    18624    18584 
   18546    18512    18481    18455    18438    18418    18389    18373 
   18365    18349    18342    18341    18338    18341    18347    18351 
   18357    18364    18372    18382    18393    18405    18419    18430 
   18443    18458    18473    18490    18505    18523    18547    18567 
   18585    18603    18619    18630    18638    18644    18650    18655 
   18655    18657    18662    18665    18666    18667    18666    18667 
   18666    18657    18652    18652    18648    18644    18642    18638 
   18634    18635    18643    18646    18643    18650    18661    18674 
   18686    18696    18716    18733    18747    18766    18782    18787 
   18797    18810    18819    18821    18835    18850    18851    18856 
   18870    18879    18889    18900    18904    18906    18916    18921 
   18916    18918    18928    18936    18943    18945    18958    18975 
   18983    18997    19016    19028    19048    19071    19089    19106 
   19126    19144    19155    19164    19171    19178    19182    19183 
   19179    19174    19164    19153    19138    19118    19102    19083 
   19059    19041    19022    18997    18975    18958    18936    18912 
   18894    18879    18859    18846    18839    18828    18819    18816 
   18814    18808    18801    18796    18790    18783    18778    18775 
   18773    18767    18760    18752    18742    18733    18723    18708 
   18697    18689    18682    18675    18665    18655    18651    18643 
   18635    18627    18617    18611    18605    18600    18600    18596 
   18590    18584    18578    18584    18582    18569    18561    18561 
   18558    18553    18553    18555    18557    18563    18566    18570 
   18578    18582    18586    18598    18612    18627    18646    18665 
   18679    18696    18716    18732    18748    18767    18782    18792 
   18800    18805    18813    18823    18828    18828    18829    18835 
   18839    18841    18839    18841    18851    18854    18859    18870 
   18875    18879    18879    18873    18870    18863    18846    18841 
   18840    18827    18817    18812    18802    18793    18782    18770 
   18766    18756    18739    18721    18709    18697    18681    18665 
   18651    18635    18615    18596    18578    18562    18543    18519 
   18499    18484    18468    18449    18432    18426    18414    18389 
   18377    18372    18354    18334    18322    18307    18288    18274 
   18258    18241    18226    18214    18202    18193    18185    18180 
   18177    18180    18189    18200    18210    18226    18239    18250 
   18268    18283    18292    18304    18315    18326    18333    18335 
   18345    18355    18366    18378    18384    18391    18400    18403 
   18400    18404    18404    18399    18395    18388    18378    18380 
   18384    18381    18380    18385    18391    18407    18431    18447 
   18468    18499    18523    18544    18567    18585    18598    18616 
   18631    18635    18635    18632    18628    18623    18605    18590 
   18576    18551    18532    18517    18500    18482    18470    18458 
   18443    18436    18435    18428    18420    18416    18419    18423 
   18430    18446    18457    18466    18485    18500    18517    18539 
   18553    18571    18598    18615    18624    18636    18654    18667 
   18673    18682    18690    18689    18688    18685    18679    18679 
   18679    18675    18678    18686    18688    18689    18706    18720 
   18727    18735    18750    18770    18789    18802    18823    18844 
   18859    18873    18886    18897    18917    18935    18947    18967 
   18985    18999    19020    19039    19056    19079    19095    19109 
   19136    19156    19167    19188    19215    19234    19248    19269 
   19291    19306    19322    19344    19357    19368    19386    19395 
   19398    19406    19410    19414    19418    19411    19404    19400 
   19388    19369    19346    19325    19307    19279    19246    19225 
   19203    19183    19168    19148    19128    19109    19093    19083 
   19075    19057    19044    19040    19029    19020    19020    19017 
   19016    19022    19024    19026    19037    19047    19052    19063 
   19074    19079    19083    19084    19080    19076    19079    19075 
   19056    19044    19040    19026    19009    18999    18986    18966 
   18949    18935    18920    18897    18870    18852    18836    18810 
   18792    18774    18751    18735    18719    18702    18690    18675 
   18659    18647    18635    18617    18603    18593    18577    18558 
   18544    18528    18509    18490    18472    18453    18432    18418 
   18401    18380    18368    18360    18347    18337    18324    18312 
   18307    18301    18289    18283    18273    18266    18273    18280 
   18277    18288    18303    18312    18327    18343    18357    18377 
   18391    18399    18411    18419    18420    18426    18432    18434 
   18434    18439    18441    18442    18445    18436    18432    18442 
   18443    18441    18450    18463    18465    18463    18477    18493 
   18493    18501    18516    18519    18524    18530    18527    18530 
   18527    18522    18522    18516    18507    18505    18504    18504 
   18511    18517    18522    18528    18542    18561    18571    18576 
   18589    18609    18624    18636    18651    18667    18689    18713 
   18728    18746    18778    18802    18821    18850    18881    18908 
   18931    18952    18976    19002    19022    19041    19060    19074 
   19087    19105    19120    19132    19145    19157    19164    19167 
   19171    19175    19176    19171    19161    19152    19141    19122 
   19101    19079    19053    19030    19001    18971    18955    18931 
   18900    18878    18859    18836    18810    18793    18781    18763 
   18747    18731    18708    18692    18682    18661    18642    18630 
   18612    18600    18589    18570    18559    18553    18544    18540 
   18540    18544    18543    18542    18555    18570    18574    18581 
   18594    18600    18603    18615    18620    18621    18628    18625 
   18620    18620    18616    18611    18607    18601    18601    18596 
   18578    18567    18574    18582    18584    18585    18581    18574 
   18580    18585    18585    18590    18597    18594    18594    18605 
   18613    18608    18609    18615    18608    18603    18601    18593 
   18588    18578    18567    18566    18565    18555    18549    18551 
   18550    18536    18532    18536    18532    18531    18543    18554 
   18558    18571    18585    18594    18605    18613    18621    18631 
   18638    18643    18643    18643    18643    18643    18643    18640 
   18638    18636    18634    18632    18625    18619    18616    18615 
   18608    18600    18593    18588    18581    18574    18571    18571 
   18571    18573    18580    18582    18585    18586    18589    18594 
   18597    18603    18611    18612    18623    18638    18646    18661 
   18677    18690    18702    18719    18733    18750    18770    18786 
   18804    18827    18846    18858    18870    18882    18893    18906 
   18917    18921    18921    18920    18916    18906    18893    18882 
   18867    18851    18836    18821    18805    18793    18782    18770 
   18756    18746    18736    18727    18721    18724    18719    18709 
   18712    18723    18727    18729    18738    18742    18742    18756 
   18769    18769    18766    18766    18767    18759    18743    18732 
   18720    18701    18688    18669    18643    18621    18601    18584 
   18569    18557    18539    18522    18509    18499    18485    18476 
   18470    18463    18457    18449    18442    18447    18454    18455 
   18458    18466    18474    18481    18496    18504    18508    18524 
   18538    18544    18558    18570    18586    18605    18619    18635 
   18659    18681    18693    18709    18733    18751    18760    18773 
   18781    18789    18794    18800    18802    18802    18809    18806 
   18801    18806    18806    18804    18804    18798    18793    18798 
   18801    18800    18806    18817    18824    18835    18847    18859 
   18870    18874    18882    18893    18897    18900    18905    18905 
   18901    18897    18890    18883    18877    18864    18858    18856 
   18844    18831    18825    18821    18819    18816    18814    18812 
   18810    18810    18812    18814    18813    18810    18813    18810 
   18805    18808    18810    18809    18809    18806    18808    18816 
   18821    18824    18828    18828    18825    18825    18825    18820 
   18820    18820    18819    18817    18813    18808    18806    18809 
   18809    18810    18813    18813    18813    18817    18817    18814 
   18813    18823    18831    18825    18827    18836    18836    18832 
   18835    18840    18843    18837    18832    18827    18820    18813 
   18802    18786    18771    18759    18742    18720    18704    18690 
   18673    18654    18636    18619    18604    18589    18574    18561 
   18550    18546    18538    18527    18527    18528    18523    18520 
   18520    18519    18516    18516    18519    18519    18524    18538 
   18543    18544    18553    18559    18570    18580    18578    18586 
   18601    18598    18603    18613    18613    18615    18619    18617 
   18615    18616    18615    18607    18601    18596    18586    18581 
   18578    18571    18567    18563    18555    18549    18543    18536 
   18534    18531    18520    18509    18503    18499    18492    18482 
   18474    18470    18463    18451    18446    18447    18445    18439 
   18441    18443    18447    18449    18450    18457    18466    18473 
   18485    18497    18509    18523    18544    18563    18577    18596 
