Origin Time       2025/01/13 21:19:00
Lat.              31.8
Long.             131.6
Depth. (km)       30
Mag.              6.9
Station Code      HYGH08
Station Lat.      35.1010
Station Long.     134.9036
Station Height(m) 160
Record Time       2025/01/13 21:21:53
Sampling Freq(Hz) 100Hz
Duration Time(s)  120
Dir.              4
Scale Factor      7845(gal)/8223790
Max. Acc. (gal)   0.493
Last Correction   2025/01/13 21:21:55
Memo.             
[...]
     877      873      869      861      854      855      861      864 
     866      868      866      868      874      874      857      835 
     823      814      793      773      760      750      743      747 
     753      756      764      773      774      777      792      811 
     828      839      845      843      837      830      824      816 
     807      797      787      777      772      766      768      773 
     772      766      760      746      734      733      733      734 
     742      753      756      761      776      789      800      822 
     851      877      900      918      924      924      920      912 
     900      885      873      864      855      842      820      803 
     796      784      773      773      774      778      789      800 
     804      810      807      796      784      772      757      742 
     730      718      707      699      695      687      684      691 
     693      692      692      699      707      708      710      716 
     720      727      739      754      773      793      814      837 
     857      869      872      870      869      862      850      832 
     824      820      808      803      811      818      819      816 
     815      822      842      862      874      889      905      908 
     901      889      872      847      819      797      788      778 
     780      785      784      784      788      791      799      804 
     804      814      826      828      826      819      810      793 
     774      766      760      742      718      693      680      677 
     673      669      676      689      692      687      689      693 
     697      707      722      739      758      778      799      815 
     831      847      858      855      850      850      842      826 
     815      801      787      784      789      796      801      808 
     819      832      839      838      832      820      805      799 
     789      772      762      761      751      741      745      754 
     762      765      766      770      772      768      769      770 
     765      761      768      778      789      803      799      791 
     788      783      776      769      758      753      753      749 
     749      754      761      768      774      778      783      788 
     787      788      799      814      827      839      845      846 
     843      830      820      815      800      783      773      768 
     762      757      751      753      761      769      777      787 
     797      807      812      819      828      832      831      831 
     823      812      808      807      807      812      815      814 
     808      797      780      766      765      766      768      780 
     799      814      827      843      853      855      850      846 
     845      837      824      814      800      784      772      766 
     766      765      766      772      776      778      781      784 
     781      772      768      761      747      741      741      746 
     753      760      769      783      788      796      814      832 
     847      861      880      897      908      915      922      930 
     935      938      942      945      947      943      935      920 
     905      900      893      876      855      845      835      823 
     820      828      830      826      826      832      842      851 
     853      853      853      851      847      845      846      854 
     859      857      862      869      868      865      865      870 
     876      874      869      866      862      850      834      810 
     784      772      762      746      738      733      720      718 
     716      708      708      716      715      711      718      726 
     726      719      714      710      700      687      676      670 
     664      652      639      631      633      631      631      638 
     646      653      664      677      695      716      735      760 
     789      814      830      846      857      861      859      853 
     850      851      851      851      858      868      872      874 
     878      882      884      882      874      862      859      862 
     857      846      845      846      846      853      855      857 
     864      869      877      884      882      884      882      870 
     851      841      837      834      830      827      827      831 
     831      824      822      812      799      795      796      793 
     791      796      797      799      808      823      845      862 
     864      869      885      893      886      877      869      857 
     841      826      811      789      765      745      730      723 
     712      696      693      692      684      680      676      675 
     675      668      661      654      648      649      650      654 
     668      683      699      719      742      764      781      795 
     797      800      808      811      811      811      799      778 
     770      772      773      769      768      770      768      762 
     757      749      735      730      729      719      716      734 
     760      788      820      850      878      907      924      935 
     946      946      936      928      923      912      900      886 
     870      854      837      818      803      796      800      804 
     803      804      818      828      824      832      851      853 
     859      884      897      908      922      920      926      938 
     935      936      942      930      911      905      899      889 
     882      877      878      882      880      882      889      888 
     891      900      895      885      882      872      862      865 
     853      826      819      811      791      785      776      754 
     747      743      734      734      743      761      784      805 
     832      857      874      885      905      931      942      947 
     953      954      963      974      967      959      955      949 
     949      950      938      924      908      886      873      862 
     838      815      811      810      796      783      783      781 
     777      776      781      791      799      800      807      818 
     820      819      822      824      827      834      841      837 
     834      842      849      846      850      850      837      830 
     828      814      799      800      803      797      796      801 
     800      795      797      796      788      792      800      793 
     792      801      800      789      781      774      762      757 
     756      749      753      760      754      754      762      765 
     766      769      772      774      780      789      800      801 
     804      820      831      838      853      857      858      872 
     873      861      858      858      859      861      865      877 
     888      900      920      943      962      981      994     1007 
    1026     1046     1063     1084     1094     1086     1081     1073 
    1040     1007      988      959      922      895      873      843 
     818      801      781      756      746      760      770      774 
     788      807      812      814      830      843      839      835 
     832      820      810      800      784      757      738      729 
     702      676      676      665      648      646      642      641 
     650      645      638      657      668      669      681      689 
     676      669      684      685      680      700      720      734 
     749      760      773      791      801      819      838      847 
     845      842      842      835      824      819      810      800 
     796      788      780      777      777      777      768      770 
     787      791      804      835      850      866      900      927 
     942      953      973      993      985      988     1009      993 
     965      959      949      913      869      830      780      729 
     699      660      625      629      625      615      635      657 
     665      679      702      731      751      768      795      816 
     822      828      843      858      866      876      873      862 
     874      888      884      884      881      873      869      866 
     868      861      847      842      838      828      814      800 
     788      764      739      730      706      666      650      638 
     611      607      611      606      610      606      603      633 
     654      662      692      715      723      742      758      768 
     787      796      789      792      791      770      764      774 
     758      735      742      726      691      683      668      646 
     661      666      653      654      660      670      684      681 
     697      731      738      727      742      761      743      741 
     765      756      754      784      785      776      781      792 
     804      801      797      801      800      792      776      783 
     800      776      777      804      787      777      805      810 
     814      839      832      846      895      880      874      919 
     918      904      897      862      846      835      824      824 
     799      789      792      778      783      776      766      776 
     760      760      776      750      733      757      764      754 
     777      801      801      816      838      835      841      855 
     851      858      888      900      896      904      915      907 
     919      951      938      924      955      961      940      957 
     963      932      923      920      895      884      872      843 
     832      812      789      784      768      756      737      722 
     753      760      743      770      795      799      814      823 
     830      842      850      855      854      832      820      827 
     815      805      807      788      766      776      781      769 
     797      812      783      812      830      808      841      838 
     826      870      868      838      835      823      810      814 
     822      812      812      842      851      858      889      903 
     904      915      918      935      966      966      945      947 
     972      957      942      959      931      892      905      907 
     869      826      822      822      788      781      781      747 
     756      760      715      734      756      711      712      750 
     758      734      722      757      750      726      742      754 
     762      746      749      778      761      746      758      754 
     757      765      749      727      739      741      696      683 
     695      660      642      638      622      627      568      535 
     604      567      492      518      554      546      490      502 
     592      553      510      603      585      562      681      631 
     577      722      710      652      762      765      729      800 
     792      769      861      834      735      838      877      741 
     770      837      719      692      808      778      666      699 
     753      684      699      805      737      691      808      805 
     747      820      804      746      858      849      758      882 
     918      807      862      924      869      900      922      842 
     865      920      924      913      818      874      999      864 
     874     1043      912      870     1035      961      945     1047 
     903      904     1102      989      874     1075     1105      935 
    1011     1094      985     1038     1081      973     1015     1023 
     990     1027      936      957     1048      905      854     1004 
     931      758      846      900      823      823      702      643 
     811      723      526      575      595      523      446      422 
     468      398      349      402      403      345      302      403 
     441      340      391      442      429      477      503      533 
     541      556      633      615      630      687      635      727 
     839      738      724      843      912      868      819      940 
     938      814      931      974      893      923      878      912 
     984      864      845      924      882      843      876      886 
     846      861      903      859      865      931      919      934 
    1013      962      892     1016     1059      978     1020     1023 
     981     1023     1039      997      980     1012     1061     1059 
     992      993     1074     1071     1043     1067     1101     1075 
    1009     1051     1098     1019     1011     1046      966      912 
     943      961      908      814      818      870      845      793 
     776      846      857      773      837      907      841      845 
     912      912      835      796      868      903      859      835 
     799      747      784      828      754      750      838      774 
     724      800      804      797      838      805      756      769 
     811      830      788      738      754      773      719      727 
     796      784      783      765      702      789      901      859 
     818      847      861      830      847      881      854      839 
     827      819      854      851      808      811      845      828 
     799      815      816      804      822      810      780      796 
     795      754      769      812      778      715      714      724 
     677      660      691      631      533      572      618      541 
     519      479      332      448      653      444      283      499 
     569      449      479      531      507      541      592      591 
     604      638      662      675      685      726      743      704 
     704      784      831      791      760      781      783      765 
     791      824      804      772      781      742      683      797 
     876      697      630      774      787      714      714      702 
     695      727      704      672      702      718      719      731 
     729      761      793      772      781      812      807      803 
     816      818      804      785      770      754      734      739 
     749      706      666      666      650      638      661      656 
     612      602      626      627      615      625      618      608 
     629      634      627      641      661      669      676      688 
     702      719      735      731      737      774      796      795 
     808      828      843      854      842      849      908      907 
     838      831      872      903      901      842      832      870 
     858      861      868      823      828      866      849      835 
     843      826      828      846      816      791      811      819 
     796      781      783      801      819      810      793      801 
     824      838      839      828      832      857      873      881 
     893      892      889      899      896      892      899      884 
     854      850      857      843      815      805      808      797 
     792      799      788      787      816      828      820      843 
     859      864      897      908      893      911      927      928 
     943      947      938      943      946      943      943      936 
     924      926      931      922      905      895      893      899 
     893      864      850      868      880      874      864      846 
     822      808      837      842      766      723      768      787 
     760      751      756      766      797      822      823      828 
     853      880      889      886      895      905      901      904 
     904      885      872      868      861      861      854      835 
     819      810      807      814      804      774      762      774 
     776      754      738      743      747      735      724      729 
     724      715      714      708      695      691      696      696 
     700      716      733      742      751      764      776      781 
     787      792      795      795      796      799      799      793 
     784      774      773      772      769      766      765      772 
     783      787      789      799      810      816      816      816 
     812      804      803      801      796      796      804      810 
     812      820      831      834      838      838      822      800 
     783      761      737      718      700      683      668      661 
     657      649      648      650      652      650      648      643 
     638      635      635      638      639      642      648      654 
     661      670      685      702      715      730      743      760 
     774      788      801      814      827      842      854      857 
     853      850      849      846      839      831      824      820 
     818      811      801      796      792      791      792      791 
     788      789      795      805      815      820      828      843 
     858      864      868      874      874      873      880      886 
     893      901      908      911      916      926      938      946 
     946      947      957      963      966      974      974      970 
     972      972      967      961      959      963      962      957 
     957      959      955      947      945      950      957      957 
     949      943      947      955      958      961      963      965 
     963      962      965      969      963      959      959      958 
     957      953      947      946      942      934      927      916 
     901      885      865      849      837      819      800      784 
     766      751      741      730      722      714      708      700 
     695      692      683      669      661      657      653      650 
     649      649      652      658      664      669      676      680 
     683      685      691      697      704      715      734      754 
     769      784      800      812      820      831      842      849 
     853      857      858      857      857      853      849      850 
     845      838      838      838      837      841      846      849 
     853      855      857      857      853      850      853      855 
     854      857      862      862      859      859      857      846 
     834      822      812      797      781      764      741      716 
     693      670      649      627      607      587      568      553 
     537      519      500      483      467      449      433      419 
     407      396      388      382      376      376      378      378 
     384      391      392      396      402      407      419      434 
     453      476      500      522      540      558      577      595 
     610      629      648      666      684      700      715      727 
     741      754      770      787      800      810      823      831 
     828      828      830      826      822      822      816      811 
     805      793      783      784      784      781      776      770 
     766      768      766      766      769      773      774      783 
     795      800      804      814      824      832      841      846 
     847      846      842      837      828      814      796      784 
     776      766      761      758      756      757      758      757 
     765      777      787      803      820      832      846      862 
     878      896      904      909      918      923      922      924 
