Origin Time       2025/01/13 21:19:00
Lat.              31.8
Long.             131.6
Depth. (km)       30
Mag.              6.9
Station Code      HYGH04
Station Lat.      35.0708
Station Long.     135.2811
Station Height(m) 117.85
Record Time       2025/01/13 21:21:58
Sampling Freq(Hz) 100Hz
Duration Time(s)  120
Dir.              3
Scale Factor      3923(gal)/8224838
Max. Acc. (gal)   0.242
Last Correction   2025/01/13 21:21:59
Memo.             
[...]
  -33430   -33431   -33432   -33434   -33436   -33435   -33434   -33438 
  -33440   -33438   -33434   -33431   -33430   -33426   -33419   -33415 
  -33411   -33404   -33397   -33390   -33386   -33377   -33369   -33366 
  -33358   -33349   -33343   -33336   -33331   -33331   -33327   -33320 
  -33322   -33326   -33328   -33330   -33331   -33340   -33349   -33349 
  -33354   -33365   -33367   -33373   -33381   -33384   -33385   -33390 
  -33394   -33399   -33397   -33396   -33400   -33400   -33397   -33393 
  -33389   -33385   -33378   -33373   -33373   -33367   -33361   -33357 
  -33350   -33340   -33332   -33327   -33324   -33320   -33313   -33308 
  -33308   -33305   -33303   -33303   -33304   -33304   -33305   -33308 
  -33309   -33312   -33318   -33324   -33330   -33335   -33342   -33350 
  -33361   -33369   -33374   -33385   -33396   -33404   -33416   -33430 
  -33440   -33454   -33469   -33481   -33490   -33501   -33513   -33524 
  -33534   -33544   -33554   -33559   -33566   -33573   -33575   -33577 
  -33581   -33585   -33585   -33581   -33579   -33581   -33579   -33575 
  -33571   -33569   -33567   -33565   -33559   -33555   -33556   -33556 
  -33554   -33552   -33550   -33546   -33546   -33546   -33542   -33540 
  -33540   -33538   -33538   -33536   -33532   -33531   -33527   -33521 
  -33523   -33519   -33513   -33513   -33508   -33502   -33502   -33498 
  -33490   -33486   -33482   -33478   -33474   -33469   -33461   -33457 
  -33455   -33448   -33438   -33432   -33427   -33419   -33412   -33408 
  -33401   -33392   -33386   -33378   -33367   -33359   -33350   -33340 
  -33335   -33330   -33320   -33312   -33305   -33300   -33292   -33288 
  -33285   -33281   -33277   -33272   -33270   -33269   -33264   -33258 
  -33258   -33258   -33258   -33258   -33261   -33264   -33268   -33272 
  -33276   -33284   -33292   -33296   -33304   -33316   -33324   -33335 
  -33346   -33357   -33367   -33377   -33384   -33390   -33397   -33403 
  -33408   -33412   -33413   -33413   -33412   -33409   -33409   -33407 
  -33403   -33400   -33396   -33392   -33389   -33386   -33382   -33377 
  -33376   -33373   -33372   -33372   -33369   -33366   -33363   -33366 
  -33367   -33367   -33369   -33372   -33369   -33370   -33378   -33382 
  -33385   -33389   -33396   -33401   -33405   -33411   -33419   -33427 
  -33434   -33436   -33442   -33451   -33461   -33467   -33474   -33481 
  -33489   -33497   -33505   -33513   -33520   -33527   -33534   -33540 
  -33546   -33548   -33554   -33559   -33561   -33559   -33562   -33562 
  -33556   -33552   -33551   -33546   -33540   -33536   -33529   -33525 
  -33520   -33513   -33504   -33501   -33497   -33489   -33481   -33474 
  -33467   -33461   -33451   -33439   -33434   -33428   -33419   -33411 
  -33404   -33399   -33399   -33393   -33386   -33385   -33388   -33389 
  -33390   -33397   -33404   -33409   -33415   -33423   -33430   -33438 
  -33446   -33455   -33461   -33465   -33470   -33473   -33474   -33478 
  -33480   -33475   -33471   -33467   -33462   -33458   -33451   -33438 
  -33427   -33419   -33405   -33390   -33378   -33367   -33354   -33338 
  -33324   -33312   -33297   -33286   -33274   -33261   -33250   -33238 
  -33226   -33216   -33210   -33203   -33195   -33191   -33189   -33183 
  -33177   -33181   -33180   -33177   -33181   -33188   -33193   -33197 
  -33201   -33204   -33208   -33214   -33219   -33226   -33235   -33241 
  -33242   -33247   -33255   -33261   -33269   -33277   -33282   -33289 
  -33296   -33304   -33313   -33316   -33323   -33332   -33338   -33340 
  -33350   -33359   -33365   -33369   -33374   -33385   -33394   -33401 
  -33409   -33419   -33430   -33439   -33446   -33454   -33465   -33475 
  -33486   -33497   -33507   -33519   -33529   -33539   -33551   -33561 
  -33567   -33577   -33583   -33588   -33596   -33602   -33605   -33608 
  -33608   -33605   -33605   -33602   -33600   -33597   -33592   -33586 
  -33582   -33574   -33565   -33559   -33552   -33543   -33538   -33534 
  -33524   -33513   -33507   -33500   -33493   -33488   -33480   -33471 
  -33465   -33457   -33450   -33443   -33439   -33435   -33430   -33423 
  -33421   -33420   -33417   -33415   -33408   -33405   -33405   -33400 
  -33396   -33396   -33393   -33392   -33390   -33389   -33389   -33389 
  -33386   -33388   -33390   -33390   -33392   -33392   -33392   -33392 
  -33392   -33389   -33389   -33386   -33380   -33376   -33372   -33366 
  -33363   -33359   -33353   -33347   -33340   -33332   -33326   -33319 
  -33312   -33303   -33293   -33286   -33280   -33273   -33266   -33259 
  -33251   -33246   -33238   -33231   -33227   -33226   -33224   -33224 
  -33219   -33215   -33215   -33214   -33214   -33215   -33215   -33216 
  -33216   -33218   -33220   -33224   -33228   -33237   -33242   -33246 
  -33249   -33257   -33266   -33270   -33274   -33277   -33280   -33284 
  -33285   -33289   -33293   -33295   -33297   -33300   -33303   -33304 
  -33308   -33313   -33320   -33326   -33332   -33340   -33347   -33354 
  -33361   -33372   -33382   -33390   -33399   -33407   -33416   -33427 
  -33435   -33444   -33455   -33462   -33469   -33475   -33481   -33488 
  -33494   -33500   -33505   -33512   -33519   -33524   -33529   -33535 
  -33538   -33544   -33550   -33554   -33559   -33565   -33565   -33569 
  -33571   -33570   -33570   -33569   -33569   -33569   -33565   -33562 
  -33559   -33556   -33555   -33548   -33540   -33538   -33534   -33524 
  -33516   -33509   -33498   -33489   -33484   -33477   -33470   -33465 
  -33455   -33448   -33443   -33438   -33431   -33424   -33419   -33415 
  -33408   -33400   -33396   -33392   -33388   -33380   -33373   -33370 
  -33367   -33361   -33355   -33354   -33350   -33345   -33345   -33343 
  -33339   -33335   -33334   -33331   -33326   -33323   -33320   -33318 
  -33316   -33316   -33318   -33318   -33319   -33319   -33322   -33326 
  -33332   -33338   -33342   -33349   -33357   -33366   -33374   -33381 
  -33390   -33401   -33412   -33423   -33432   -33440   -33450   -33457 
  -33462   -33473   -33481   -33486   -33494   -33501   -33505   -33509 
  -33512   -33513   -33513   -33515   -33513   -33511   -33509   -33508 
  -33504   -33500   -33496   -33493   -33492   -33486   -33481   -33478 
  -33474   -33471   -33467   -33462   -33462   -33462   -33461   -33462 
  -33465   -33467   -33473   -33478   -33482   -33488   -33492   -33498 
  -33502   -33507   -33512   -33517   -33525   -33532   -33534   -33536 
  -33542   -33544   -33544   -33546   -33548   -33547   -33546   -33547 
  -33551   -33548   -33544   -33544   -33542   -33536   -33531   -33524 
  -33519   -33511   -33500   -33490   -33478   -33466   -33457   -33446 
  -33431   -33415   -33401   -33386   -33372   -33359   -33345   -33327 
  -33312   -33295   -33278   -33261   -33246   -33232   -33218   -33205 
  -33192   -33180   -33170   -33160   -33151   -33145   -33138   -33135 
  -33134   -33133   -33129   -33129   -33130   -33131   -33134   -33141 
  -33149   -33153   -33161   -33172   -33181   -33191   -33200   -33212 
  -33227   -33238   -33245   -33259   -33276   -33285   -33291   -33304 
  -33316   -33326   -33335   -33340   -33346   -33354   -33359   -33366 
  -33372   -33374   -33380   -33388   -33389   -33393   -33400   -33407 
  -33409   -33415   -33423   -33431   -33438   -33447   -33458   -33469 
  -33478   -33490   -33501   -33508   -33517   -33524   -33532   -33539 
  -33544   -33547   -33551   -33554   -33556   -33556   -33554   -33552 
  -33551   -33543   -33539   -33536   -33531   -33523   -33515   -33505 
  -33497   -33486   -33475   -33463   -33450   -33442   -33430   -33413 
  -33401   -33389   -33372   -33355   -33342   -33327   -33309   -33291 
  -33272   -33254   -33239   -33224   -33207   -33192   -33180   -33166 
  -33154   -33143   -33133   -33123   -33114   -33108   -33107   -33103 
  -33099   -33096   -33096   -33099   -33103   -33108   -33111   -33118 
  -33131   -33145   -33154   -33168   -33184   -33200   -33218   -33235 
  -33251   -33270   -33286   -33301   -33320   -33339   -33354   -33369 
  -33386   -33401   -33412   -33426   -33438   -33444   -33451   -33459 
  -33463   -33470   -33475   -33474   -33473   -33471   -33470   -33467 
  -33466   -33463   -33461   -33459   -33457   -33454   -33451   -33450 
  -33448   -33451   -33451   -33451   -33454   -33462   -33466   -33471 
  -33480   -33488   -33496   -33504   -33513   -33524   -33535   -33546 
  -33558   -33570   -33579   -33592   -33602   -33613   -33625   -33637 
  -33643   -33654   -33666   -33671   -33679   -33693   -33700   -33701 
  -33702   -33706   -33709   -33712   -33710   -33710   -33709   -33705 
  -33702   -33700   -33691   -33685   -33679   -33671   -33663   -33654 
  -33643   -33629   -33615   -33600   -33586   -33571   -33552   -33534 
  -33517   -33498   -33480   -33461   -33440   -33424   -33407   -33388 
  -33373   -33358   -33346   -33334   -33326   -33318   -33309   -33305 
  -33307   -33307   -33305   -33309   -33312   -33313   -33316   -33322 
  -33332   -33342   -33346   -33351   -33355   -33361   -33366   -33370 
  -33372   -33373   -33374   -33376   -33376   -33378   -33376   -33374 
  -33376   -33372   -33366   -33366   -33365   -33362   -33359   -33354 
  -33349   -33346   -33343   -33336   -33330   -33324   -33322   -33315 
  -33308   -33304   -33301   -33296   -33293   -33293   -33292   -33286 
  -33285   -33284   -33282   -33288   -33293   -33292   -33297   -33305 
  -33313   -33323   -33334   -33345   -33357   -33370   -33381   -33396 
  -33413   -33430   -33444   -33459   -33474   -33493   -33509   -33524 
  -33536   -33546   -33555   -33565   -33573   -33582   -33586   -33588 
  -33588   -33590   -33589   -33582   -33575   -33569   -33559   -33548 
  -33539   -33531   -33520   -33505   -33490   -33477   -33462   -33444 
  -33427   -33411   -33393   -33376   -33362   -33347   -33332   -33319 
  -33305   -33291   -33276   -33262   -33251   -33239   -33227   -33216 
  -33205   -33197   -33192   -33187   -33178   -33172   -33170   -33168 
  -33164   -33161   -33160   -33158   -33161   -33162   -33164   -33166 
  -33168   -33170   -33174   -33178   -33183   -33189   -33193   -33197 
  -33205   -33214   -33220   -33226   -33235   -33243   -33249   -33255 
  -33262   -33269   -33276   -33285   -33292   -33297   -33304   -33311 
  -33319   -33327   -33334   -33340   -33346   -33351   -33358   -33365 
  -33367   -33369   -33373   -33376   -33378   -33381   -33382   -33388 
  -33393   -33392   -33393   -33400   -33404   -33405   -33409   -33415 
  -33419   -33428   -33434   -33439   -33447   -33457   -33463   -33473 
  -33485   -33494   -33505   -33513   -33523   -33531   -33539   -33551 
  -33561   -33569   -33581   -33589   -33596   -33606   -33615   -33620 
  -33631   -33640   -33646   -33652   -33660   -33666   -33673   -33678 
  -33686   -33693   -33697   -33701   -33705   -33708   -33710   -33712 
  -33712   -33714   -33716   -33714   -33709   -33705   -33701   -33693 
  -33686   -33682   -33673   -33659   -33648   -33635   -33619   -33604 
  -33588   -33567   -33546   -33527   -33509   -33489   -33469   -33453 
  -33435   -33416   -33400   -33388   -33378   -33367   -33358   -33351 
  -33347   -33343   -33339   -33338   -33336   -33335   -33339   -33342 
  -33340   -33340   -33343   -33346   -33351   -33354   -33354   -33357 
  -33357   -33357   -33361   -33361   -33355   -33353   -33355   -33358 
  -33357   -33353   -33354   -33355   -33353   -33354   -33355   -33355 
  -33355   -33354   -33353   -33354   -33355   -33357   -33355   -33355 
  -33357   -33357   -33358   -33359   -33355   -33354   -33354   -33350 
  -33351   -33349   -33342   -33336   -33331   -33324   -33318   -33308 
  -33300   -33293   -33282   -33272   -33264   -33254   -33247   -33241 
  -33237   -33235   -33237   -33237   -33238   -33241   -33245   -33250 
  -33258   -33265   -33273   -33280   -33286   -33299   -33309   -33318 
  -33328   -33338   -33345   -33353   -33359   -33366   -33370   -33373 
  -33376   -33377   -33376   -33374   -33370   -33367   -33365   -33358 
  -33349   -33340   -33334   -33324   -33311   -33299   -33292   -33286 
  -33280   -33272   -33265   -33259   -33254   -33249   -33245   -33243 
  -33242   -33239   -33241   -33242   -33243   -33243   -33243   -33245 
  -33247   -33249   -33246   -33246   -33246   -33239   -33238   -33238 
  -33232   -33227   -33227   -33223   -33218   -33218   -33216   -33214 
  -33215   -33215   -33216   -33222   -33226   -33232   -33239   -33245 
  -33251   -33264   -33274   -33284   -33296   -33308   -33323   -33339 
  -33354   -33372   -33390   -33408   -33427   -33448   -33465   -33482 
  -33500   -33516   -33531   -33548   -33565   -33574   -33583   -33596 
  -33604   -33609   -33615   -33617   -33619   -33621   -33621   -33619 
  -33616   -33612   -33608   -33601   -33594   -33592   -33588   -33579 
  -33577   -33574   -33567   -33563   -33563   -33563   -33565   -33565 
  -33565   -33566   -33569   -33573   -33577   -33581   -33586   -33592 
  -33593   -33598   -33606   -33613   -33621   -33628   -33632   -33640 
  -33648   -33652   -33656   -33662   -33663   -33666   -33670   -33670 
  -33669   -33664   -33659   -33652   -33643   -33631   -33617   -33604 
  -33589   -33571   -33550   -33528   -33507   -33482   -33457   -33431 
  -33401   -33372   -33345   -33316   -33284   -33255   -33227   -33196 
  -33169   -33143   -33114   -33088   -33066   -33045   -33022   -33002 
  -32984   -32969   -32956   -32944   -32930   -32919   -32913   -32908 
  -32903   -32898   -32894   -32892   -32892   -32888   -32888   -32891 
  -32892   -32896   -32904   -32907   -32913   -32922   -32930   -32942 
  -32954   -32967   -32983   -32999   -33015   -33035   -33054   -33072 
  -33096   -33123   -33146   -33173   -33201   -33226   -33251   -33282 
  -33311   -33336   -33365   -33392   -33417   -33443   -33467   -33490 
  -33512   -33534   -33554   -33571   -33586   -33601   -33616   -33625 
  -33636   -33648   -33658   -33666   -33671   -33677   -33681   -33685 
  -33687   -33687   -33689   -33687   -33685   -33682   -33677   -33671 
  -33663   -33655   -33647   -33633   -33623   -33613   -33600   -33582 
  -33567   -33552   -33538   -33519   -33505   -33492   -33474   -33457 
  -33444   -33430   -33417   -33407   -33390   -33377   -33370   -33361 
  -33351   -33346   -33342   -33336   -33332   -33332   -33330   -33326 
  -33330   -33335   -33336   -33342   -33347   -33350   -33354   -33358 
  -33363   -33372   -33376   -33378   -33386   -33392   -33389   -33389 
  -33394   -33394   -33393   -33396   -33396   -33392   -33390   -33388 
  -33385   -33385   -33382   -33374   -33372   -33370   -33365   -33357 
  -33351   -33347   -33340   -33334   -33326   -33322   -33316   -33308 
  -33303   -33295   -33291   -33288   -33281   -33278   -33278   -33281 
  -33285   -33288   -33292   -33297   -33307   -33319   -33328   -33335 
  -33347   -33359   -33367   -33378   -33392   -33401   -33412   -33423 
  -33432   -33442   -33451   -33458   -33461   -33465   -33473   -33478 
  -33478   -33480   -33481   -33480   -33480   -33478   -33473   -33469 
  -33466   -33463   -33455   -33446   -33439   -33434   -33427   -33421 
  -33415   -33408   -33404   -33401   -33399   -33397   -33396   -33393 
  -33393   -33396   -33399   -33404   -33413   -33420   -33431   -33443 
  -33454   -33465   -33475   -33484   -33497   -33513   -33527   -33538 
  -33550   -33562   -33573   -33582   -33589   -33598   -33608   -33610 
  -33615   -33620   -33623   -33627   -33632   -33635   -33633   -33633 
  -33632   -33632   -33632   -33633   -33635   -33635   -33636   -33637 
  -33640   -33643   -33647   -33648   -33654   -33660   -33663   -33667 
  -33673   -33678   -33682   -33683   -33682   -33685   -33686   -33682 
  -33679   -33677   -33670   -33662   -33654   -33644   -33632   -33620 
  -33609   -33596   -33578   -33561   -33548   -33531   -33511   -33492 
  -33470   -33450   -33431   -33405   -33384   -33366   -33346   -33326 
  -33307   -33280   -33259   -33246   -33224   -33203   -33191   -33176 
  -33157   -33145   -33134   -33119   -33108   -33102   -33092   -33088 
  -33084   -33077   -33075   -33075   -33077   -33079   -33083   -33089 
  -33093   -33100   -33112   -33124   -33133   -33147   -33165   -33180 
  -33196   -33216   -33234   -33251   -33268   -33286   -33305   -33322 
  -33340   -33359   -33374   -33386   -33400   -33415   -33428   -33438 
  -33446   -33457   -33461   -33465   -33473   -33478   -33477   -33480 
  -33484   -33484   -33477   -33474   -33473   -33465   -33458   -33454 
  -33446   -33438   -33430   -33420   -33411   -33401   -33393   -33388 
  -33380   -33372   -33369   -33362   -33354   -33351   -33350   -33347 
  -33346   -33346   -33346   -33345   -33343   -33346   -33346   -33347 
  -33350   -33351   -33354   -33361   -33363   -33365   -33369   -33370 
  -33374   -33376   -33374   -33378   -33384   -33385   -33385   -33386 
  -33389   -33388   -33384   -33384   -33384   -33381   -33380   -33376 
  -33373   -33372   -33367   -33363   -33362   -33361   -33358   -33354 
  -33350   -33347   -33345   -33342   -33339   -33336   -33332   -33330 
  -33331   -33331   -33326   -33323   -33324   -33323   -33322   -33322 
  -33318   -33318   -33318   -33316   -33315   -33315   -33313   -33312 
  -33311   -33309   -33309   -33305   -33301   -33300   -33300   -33296 
  -33295   -33296   -33296   -33297   -33301   -33301   -33301   -33307 
  -33313   -33316   -33320   -33328   -33339   -33346   -33353   -33362 
  -33373   -33385   -33394   -33401   -33408   -33415   -33423   -33434 
  -33444   -33448   -33451   -33458   -33465   -33469   -33473   -33477 
  -33480   -33481   -33482   -33488   -33488   -33486   -33489   -33488 
  -33484   -33482   -33481   -33477   -33474   -33470   -33467   -33465 
  -33462   -33462   -33459   -33455   -33455   -33457   -33457   -33457 
  -33455   -33455   -33458   -33463   -33467   -33466   -33466   -33467 
  -33471   -33474   -33473   -33474   -33477   -33475   -33477   -33475 
  -33471   -33470   -33469   -33463   -33462   -33458   -33448   -33439 
  -33438   -33428   -33416   -33411   -33403   -33392   -33382   -33370 
  -33361   -33354   -33347   -33336   -33324   -33312   -33307   -33301 
  -33295   -33289   -33284   -33278   -33274   -33272   -33270   -33269 
  -33262   -33255   -33255   -33254   -33250   -33247   -33246   -33245 
  -33241   -33238   -33238   -33237   -33235   -33234   -33235   -33237 
  -33237   -33235   -33237   -33237   -33238   -33241   -33242   -33243 
  -33247   -33247   -33253   -33258   -33264   -33273   -33280   -33282 
  -33291   -33301   -33307   -33315   -33326   -33331   -33343   -33355 
  -33359   -33367   -33380   -33385   -33392   -33403   -33413   -33423 
  -33432   -33440   -33453   -33462   -33471   -33482   -33489   -33496 
  -33508   -33515   -33520   -33527   -33534   -33543   -33551   -33556 
  -33562   -33567   -33570   -33574   -33581   -33585   -33586   -33590 
  -33592   -33590   -33590   -33593   -33593   -33589   -33588   -33586 
  -33581   -33574   -33570   -33566   -33559   -33548   -33539   -33532 
  -33524   -33515   -33504   -33493   -33484   -33475   -33465   -33454 
  -33446   -33438   -33427   -33415   -33403   -33393   -33384   -33373 
  -33362   -33351   -33342   -33331   -33320   -33309   -33301   -33291 
  -33281   -33270   -33262   -33255   -33249   -33243   -33237   -33228 
