Origin Time       2025/01/13 21:19:00
Lat.              31.8
Long.             131.6
Depth. (km)       30
Mag.              6.9
Station Code      HYGH01
Station Lat.      34.2937
Station Long.     134.7941
Station Height(m) -37
Record Time       2025/01/13 21:20:54
Sampling Freq(Hz) 100Hz
Duration Time(s)  154
Dir.              3
Scale Factor      2942(gal)/8224139
Max. Acc. (gal)   0.566
Last Correction   2025/01/13 21:20:55
Memo.             
[...]
   -8527    -8534    -8545    -8550    -8552    -8554    -8564    -8579 
   -8588    -8591    -8594    -8598    -8606    -8619    -8634    -8650 
   -8669    -8688    -8711    -8738    -8760    -8776    -8793    -8808 
   -8816    -8826    -8834    -8842    -8847    -8849    -8854    -8864 
   -8872    -8877    -8884    -8888    -8889    -8892    -8895    -8895 
   -8887    -8876    -8869    -8862    -8851    -8845    -8834    -8815 
   -8793    -8779    -8765    -8746    -8730    -8714    -8696    -8680 
   -8664    -8650    -8640    -8621    -8606    -8596    -8580    -8568 
   -8563    -8552    -8542    -8534    -8522    -8514    -8517    -8518 
   -8518    -8522    -8530    -8537    -8540    -8542    -8548    -8553 
   -8560    -8576    -8591    -8599    -8613    -8626    -8637    -8645 
   -8653    -8660    -8667    -8669    -8671    -8673    -8684    -8698 
   -8706    -8711    -8719    -8726    -8742    -8764    -8779    -8793 
   -8811    -8824    -8837    -8850    -8858    -8857    -8851    -8846 
   -8842    -8835    -8829    -8824    -8819    -8816    -8816    -8815 
   -8808    -8803    -8799    -8797    -8795    -8797    -8804    -8800 
   -8789    -8784    -8788    -8792    -8788    -8781    -8781    -8780 
   -8775    -8772    -8772    -8773    -8775    -8775    -8777    -8781 
   -8784    -8789    -8799    -8814    -8830    -8841    -8851    -8860 
   -8862    -8866    -8872    -8872    -8869    -8872    -8876    -8880 
   -8881    -8880    -8873    -8864    -8856    -8847    -8842    -8837 
   -8830    -8822    -8814    -8804    -8792    -8781    -8776    -8773 
   -8770    -8765    -8760    -8757    -8750    -8738    -8727    -8723 
   -8722    -8723    -8726    -8730    -8733    -8739    -8753    -8764 
   -8770    -8775    -8772    -8766    -8764    -8761    -8756    -8743 
   -8730    -8716    -8702    -8687    -8671    -8654    -8642    -8630 
   -8622    -8618    -8613    -8607    -8598    -8584    -8569    -8554 
   -8541    -8525    -8513    -8507    -8499    -8488    -8484    -8483 
   -8480    -8475    -8467    -8464    -8469    -8475    -8483    -8496 
   -8509    -8526    -8546    -8560    -8575    -8596    -8617    -8638 
   -8658    -8676    -8688    -8699    -8712    -8718    -8719    -8726 
   -8731    -8731    -8738    -8748    -8756    -8768    -8783    -8799 
   -8810    -8819    -8824    -8829    -8834    -8837    -8837    -8835 
   -8834    -8829    -8818    -8803    -8785    -8761    -8734    -8708 
   -8681    -8646    -8610    -8576    -8542    -8511    -8478    -8445 
   -8417    -8390    -8365    -8345    -8326    -8316    -8309    -8301 
   -8297    -8298    -8301    -8309    -8317    -8328    -8344    -8363 
   -8387    -8419    -8452    -8487    -8529    -8575    -8619    -8657 
   -8698    -8743    -8780    -8810    -8839    -8864    -8884    -8899 
   -8905    -8907    -8905    -8899    -8892    -8881    -8861    -8837 
   -8807    -8776    -8745    -8715    -8689    -8662    -8633    -8611 
   -8592    -8573    -8559    -8546    -8530    -8514    -8499    -8483 
   -8471    -8465    -8460    -8456    -8460    -8465    -8465    -8469 
   -8479    -8488    -8498    -8509    -8519    -8525    -8530    -8534 
   -8533    -8532    -8536    -8540    -8541    -8541    -8540    -8537 
   -8538    -8548    -8554    -8554    -8561    -8569    -8573    -8586 
   -8604    -8625    -8652    -8676    -8694    -8721    -8752    -8779 
   -8812    -8846    -8873    -8904    -8938    -8968    -8995    -9020 
   -9038    -9054    -9067    -9078    -9088    -9092    -9096    -9104 
   -9103    -9088    -9080    -9070    -9057    -9045    -9028    -9007 
   -8985    -8962    -8939    -8910    -8874    -8841    -8807    -8772 
   -8738    -8708    -8680    -8657    -8635    -8613    -8587    -8564 
   -8546    -8533    -8521    -8513    -8511    -8518    -8530    -8545 
   -8561    -8580    -8599    -8621    -8645    -8671    -8694    -8716 
   -8739    -8766    -8795    -8820    -8843    -8866    -8889    -8905 
   -8915    -8926    -8934    -8932    -8930    -8926    -8919    -8911 
   -8900    -8888    -8870    -8847    -8823    -8797    -8770    -8738 
   -8707    -8677    -8646    -8608    -8575    -8540    -8499    -8461 
   -8433    -8403    -8374    -8353    -8333    -8314    -8301    -8290 
   -8275    -8268    -8274    -8276    -8280    -8293    -8314    -8333 
   -8345    -8357    -8370    -8379    -8383    -8383    -8380    -8374 
   -8357    -8337    -8318    -8298    -8276    -8255    -8236    -8216 
   -8186    -8162    -8145    -8128    -8108    -8095    -8087    -8081 
   -8075    -8081    -8090    -8098    -8108    -8121    -8139    -8158 
   -8174    -8186    -8203    -8218    -8230    -8245    -8262    -8278 
   -8297    -8321    -8348    -8370    -8390    -8410    -8426    -8442 
   -8460    -8476    -8495    -8517    -8530    -8545    -8564    -8584 
   -8604    -8619    -8635    -8657    -8679    -8704    -8733    -8758 
   -8781    -8797    -8814    -8833    -8853    -8862    -8865    -8873 
   -8885    -8892    -8893    -8893    -8891    -8888    -8881    -8872 
   -8861    -8847    -8829    -8808    -8787    -8760    -8729    -8696 
   -8662    -8634    -8599    -8564    -8536    -8505    -8473    -8452 
   -8438    -8429    -8421    -8414    -8414    -8419    -8429    -8445 
   -8463    -8480    -8506    -8533    -8556    -8581    -8615    -8652 
   -8685    -8715    -8742    -8766    -8789    -8814    -8837    -8854 
   -8868    -8884    -8900    -8915    -8924    -8932    -8945    -8955 
   -8962    -8970    -8973    -8976    -8978    -8984    -8989    -8993 
   -8996    -8995    -8992    -8996    -9001    -9007    -9009    -9012 
   -9013    -9018    -9027    -9039    -9051    -9067    -9081    -9094 
   -9115    -9140    -9166    -9193    -9220    -9250    -9282    -9316 
   -9347    -9377    -9400    -9417    -9436    -9456    -9472    -9489 
   -9502    -9514    -9526    -9541    -9552    -9558    -9564    -9567 
   -9563    -9558    -9552    -9543    -9531    -9514    -9494    -9479 
   -9464    -9443    -9424    -9408    -9387    -9362    -9329    -9286 
   -9242    -9198    -9150    -9103    -9057    -9012    -8970    -8931 
   -8892    -8851    -8815    -8779    -8742    -8706    -8672    -8638 
   -8599    -8557    -8519    -8475    -8429    -8386    -8340    -8293 
   -8247    -8203    -8156    -8106    -8060    -8017    -7973    -7932 
   -7897    -7865    -7830    -7793    -7763    -7739    -7722    -7708 
   -7690    -7677    -7674    -7674    -7680    -7689    -7699    -7711 
   -7731    -7751    -7773    -7798    -7825    -7854    -7884    -7915 
   -7944    -7974    -8005    -8037    -8064    -8095    -8128    -8154 
   -8178    -8198    -8206    -8214    -8226    -8232    -8235    -8237 
   -8232    -8225    -8226    -8229    -8226    -8228    -8230    -8235 
   -8240    -8245    -8249    -8256    -8267    -8280    -8297    -8314 
   -8330    -8349    -8371    -8395    -8422    -8452    -8482    -8511 
   -8540    -8569    -8596    -8619    -8646    -8673    -8702    -8730 
   -8756    -8776    -8793    -8808    -8816    -8822    -8834    -8846 
   -8853    -8858    -8861    -8865    -8868    -8870    -8877    -8884 
   -8889    -8897    -8904    -8914    -8926    -8938    -8957    -8986 
   -9012    -9035    -9066    -9099    -9134    -9177    -9219    -9258 
   -9300    -9342    -9382    -9423    -9460    -9498    -9536    -9574 
   -9607    -9640    -9671    -9699    -9724    -9744    -9757    -9768 
   -9778    -9776    -9765    -9755    -9729    -9691    -9655    -9616 
   -9568    -9517    -9468    -9418    -9369    -9321    -9274    -9227 
   -9184    -9138    -9090    -9047    -9001    -8951    -8905    -8865 
   -8826    -8785    -8748    -8710    -8669    -8625    -8586    -8554 
   -8525    -8494    -8467    -8442    -8421    -8401    -8383    -8368 
   -8352    -8337    -8328    -8326    -8329    -8338    -8353    -8372 
   -8392    -8409    -8426    -8448    -8469    -8487    -8509    -8529 
   -8538    -8545    -8552    -8556    -8556    -8556    -8556    -8552 
   -8545    -8536    -8522    -8510    -8495    -8471    -8445    -8418 
   -8391    -8363    -8337    -8313    -8286    -8257    -8236    -8213 
   -8186    -8163    -8141    -8117    -8091    -8070    -8051    -8033 
   -8019    -8008    -8000    -7986    -7973    -7963    -7956    -7955 
   -7954    -7951    -7948    -7951    -7955    -7962    -7969    -7973 
   -7979    -7993    -8010    -8031    -8056    -8082    -8109    -8135 
   -8160    -8189    -8217    -8244    -8268    -8297    -8330    -8364 
   -8398    -8437    -8483    -8530    -8580    -8630    -8680    -8730 
   -8780    -8835    -8891    -8946    -9000    -9055    -9112    -9165 
   -9217    -9269    -9312    -9346    -9378    -9410    -9440    -9468 
   -9495    -9521    -9544    -9567    -9587    -9603    -9616    -9624 
   -9629    -9630    -9630    -9629    -9622    -9612    -9602    -9594 
   -9583    -9574    -9563    -9548    -9535    -9522    -9506    -9486 
   -9467    -9447    -9427    -9405    -9379    -9350    -9319    -9292 
   -9256    -9216    -9177    -9138    -9100    -9067    -9034    -9003 
   -8970    -8937    -8907    -8874    -8839    -8806    -8769    -8733 
   -8700    -8668    -8638    -8611    -8586    -8564    -8546    -8526 
   -8510    -8505    -8509    -8511    -8517    -8523    -8532    -8538 
   -8542    -8544    -8545    -8544    -8544    -8548    -8552    -8552 
   -8549    -8549    -8546    -8540    -8533    -8529    -8522    -8515 
   -8511    -8505    -8496    -8487    -8471    -8451    -8429    -8405 
   -8379    -8347    -8313    -8284    -8248    -8209    -8174    -8143 
   -8114    -8085    -8055    -8033    -8012    -7992    -7978    -7966 
   -7956    -7955    -7958    -7960    -7966    -7973    -7978    -7992 
   -8012    -8032    -8054    -8078    -8102    -8124    -8145    -8167 
   -8186    -8202    -8218    -8235    -8249    -8263    -8275    -8283 
   -8295    -8307    -8314    -8322    -8333    -8344    -8353    -8364 
   -8371    -8378    -8392    -8407    -8418    -8428    -8442    -8461 
   -8479    -8496    -8522    -8549    -8573    -8600    -8633    -8664 
   -8696    -8731    -8768    -8800    -8834    -8866    -8895    -8926 
   -8954    -8976    -8996    -9018    -9045    -9070    -9090    -9107 
   -9119    -9130    -9143    -9155    -9161    -9162    -9165    -9161 
   -9150    -9136    -9121    -9105    -9088    -9070    -9050    -9031 
   -9015    -9000    -8985    -8973    -8968    -8959    -8954    -8955 
   -8964    -8974    -8985    -9001    -9027    -9055    -9085    -9120 
   -9155    -9196    -9236    -9270    -9304    -9337    -9369    -9396 
   -9421    -9447    -9464    -9477    -9487    -9497    -9508    -9513 
   -9513    -9510    -9506    -9499    -9487    -9477    -9459    -9433 
   -9405    -9374    -9332    -9288    -9250    -9209    -9165    -9117 
   -9069    -9023    -8974    -8919    -8865    -8811    -8758    -8710 
   -8662    -8618    -8576    -8534    -8502    -8472    -8442    -8418 
   -8399    -8382    -8368    -8361    -8357    -8356    -8359    -8367 
   -8380    -8397    -8414    -8429    -8436    -8444    -8456    -8463 
   -8465    -8471    -8472    -8472    -8471    -8464    -8452    -8437 
   -8418    -8395    -8374    -8344    -8311    -8283    -8253    -8220 
   -8185    -8149    -8113    -8081    -8048    -8016    -7982    -7948 
   -7925    -7913    -7904    -7892    -7886    -7886    -7886    -7888 
   -7896    -7904    -7915    -7928    -7942    -7960    -7975    -7983 
   -7996    -8004    -8008    -8016    -8019    -8016    -8017    -8025 
   -8027    -8024    -8025    -8031    -8040    -8050    -8056    -8064 
   -8073    -8075    -8079    -8078    -8070    -8063    -8056    -8050 
   -8040    -8028    -8016    -8001    -7987    -7977    -7963    -7948 
   -7938    -7929    -7923    -7916    -7913    -7917    -7917    -7919 
   -7925    -7933    -7939    -7947    -7967    -7990    -8013    -8040 
   -8074    -8110    -8151    -8190    -8230    -8278    -8329    -8382 
   -8438    -8495    -8550    -8608    -8671    -8731    -8789    -8847 
   -8903    -8955    -9005    -9053    -9097    -9138    -9178    -9216 
   -9251    -9289    -9323    -9350    -9375    -9401    -9421    -9444 
   -9471    -9498    -9528    -9558    -9582    -9607    -9636    -9663 
   -9686    -9703    -9714    -9729    -9745    -9755    -9761    -9767 
   -9765    -9761    -9757    -9752    -9742    -9729    -9715    -9702 
   -9686    -9667    -9641    -9618    -9593    -9562    -9525    -9487 
   -9447    -9408    -9369    -9328    -9290    -9255    -9220    -9188 
   -9159    -9134    -9105    -9076    -9049    -9026    -9004    -8985 
   -8976    -8968    -8959    -8957    -8953    -8949    -8950    -8951 
   -8954    -8954    -8957    -8955    -8951    -8953    -8958    -8959 
   -8962    -8965    -8974    -8986    -8995    -9003    -9015    -9023 
   -9030    -9035    -9045    -9049    -9055    -9067    -9073    -9077 
   -9082    -9082    -9082    -9081    -9080    -9078    -9074    -9066 
   -9058    -9045    -9028    -9011    -8989    -8961    -8930    -8895 
   -8862    -8829    -8793    -8762    -8730    -8691    -8653    -8617 
   -8575    -8529    -8487    -8441    -8395    -8351    -8303    -8260 
   -8220    -8172    -8124    -8074    -8024    -7970    -7912    -7854 
   -7798    -7742    -7685    -7627    -7572    -7523    -7470    -7420 
   -7380    -7338    -7295    -7256    -7219    -7187    -7160    -7134 
   -7113    -7099    -7088    -7080    -7079    -7083    -7091    -7105 
   -7121    -7144    -7171    -7196    -7225    -7257    -7291    -7330 
   -7371    -7415    -7466    -7523    -7580    -7638    -7701    -7766 
   -7830    -7896    -7963    -8036    -8108    -8172    -8240    -8307 
   -8371    -8429    -8487    -8546    -8604    -8658    -8714    -8773 
   -8829    -8874    -8919    -8965    -9004    -9035    -9062    -9090 
   -9109    -9121    -9136    -9147    -9151    -9157    -9163    -9163 
   -9162    -9162    -9161    -9159    -9154    -9151    -9153    -9153 
   -9147    -9144    -9143    -9144    -9148    -9148    -9150    -9154 
   -9157    -9163    -9170    -9174    -9186    -9200    -9208    -9217 
   -9235    -9251    -9266    -9281    -9298    -9316    -9332    -9354 
   -9375    -9393    -9406    -9418    -9435    -9444    -9445    -9451 
   -9451    -9445    -9439    -9432    -9428    -9420    -9409    -9408 
   -9404    -9387    -9371    -9360    -9346    -9328    -9308    -9288 
   -9265    -9239    -9217    -9194    -9162    -9128    -9090    -9049 
   -9008    -8968    -8922    -8873    -8826    -8780    -8733    -8685 
   -8642    -8603    -8564    -8530    -8505    -8482    -8456    -8434 
   -8417    -8406    -8398    -8390    -8384    -8386    -8392    -8403 
   -8422    -8441    -8460    -8484    -8511    -8538    -8567    -8594 
   -8629    -8664    -8689    -8716    -8746    -8770    -8796    -8824 
   -8853    -8874    -8893    -8915    -8934    -8950    -8968    -8984 
   -8995    -9004    -9008    -9008    -9008    -8999    -8980    -8962 
   -8946    -8927    -8907    -8889    -8865    -8835    -8806    -8769 
   -8725    -8680    -8635    -8588    -8541    -8492    -8444    -8395 
   -8344    -8294    -8247    -8201    -8156    -8112    -8063    -8019 
   -7983    -7946    -7904    -7867    -7836    -7808    -7785    -7766 
   -7750    -7739    -7735    -7736    -7744    -7755    -7769    -7789 
   -7811    -7836    -7869    -7901    -7942    -7989    -8033    -8081 
   -8128    -8174    -8216    -8256    -8301    -8347    -8384    -8425 
   -8471    -8511    -8548    -8591    -8631    -8668    -8706    -8746 
   -8788    -8831    -8872    -8912    -8953    -8993    -9028    -9061 
   -9096    -9126    -9150    -9175    -9201    -9221    -9234    -9243 
   -9252    -9258    -9258    -9255    -9251    -9238    -9221    -9207 
   -9186    -9162    -9135    -9105    -9072    -9038    -9004    -8966 
   -8926    -8881    -8839    -8799    -8758    -8721    -8688    -8658 
   -8629    -8602    -8577    -8554    -8536    -8519    -8507    -8502 
   -8495    -8488    -8490    -8494    -8495    -8498    -8503    -8503 
   -8503    -8505    -8507    -8514    -8523    -8527    -8530    -8537 
   -8546    -8549    -8552    -8557    -8563    -8565    -8569    -8575 
   -8577    -8577    -8579    -8579    -8577    -8577    -8577    -8572 
   -8568    -8567    -8561    -8556    -8552    -8548    -8545    -8548 
   -8546    -8541    -8536    -8530    -8525    -8521    -8519    -8519 
   -8518    -8518    -8525    -8534    -8546    -8563    -8579    -8596 
   -8617    -8637    -8661    -8691    -8716    -8738    -8765    -8793 
   -8815    -8835    -8860    -8873    -8884    -8897    -8908    -8912 
   -8915    -8920    -8924    -8922    -8918    -8912    -8907    -8901 
   -8887    -8870    -8856    -8841    -8823    -8810    -8797    -8787 
   -8779    -8765    -8748    -8735    -8722    -8708    -8696    -8684 
   -8671    -8660    -8652    -8641    -8627    -8613    -8600    -8588 
   -8571    -8553    -8537    -8517    -8500    -8483    -8467    -8455 
   -8441    -8426    -8419    -8417    -8413    -8409    -8405    -8402 
   -8399    -8401    -8403    -8407    -8418    -8426    -8438    -8453 
   -8463    -8469    -8482    -8498    -8513    -8525    -8536    -8548 
   -8564    -8576    -8586    -8595    -8604    -8610    -8614    -8618 
   -8621    -8626    -8631    -8635    -8638    -8644    -8652    -8656 
   -8662    -8675    -8684    -8689    -8695    -8704    -8715    -8721 
   -8725    -8730    -8731    -8734    -8735    -8734    -8726    -8715 
   -8704    -8692    -8676    -8658    -8640    -8622    -8600    -8580 
   -8559    -8527    -8498    -8475    -8451    -8426    -8405    -8382 
   -8356    -8334    -8311    -8284    -8259    -8233    -8208    -8182 
   -8162    -8145    -8136    -8129    -8122    -8122    -8128    -8133 
   -8139    -8148    -8160    -8179    -8198    -8214    -8232    -8253 
   -8276    -8297    -8318    -8343    -8361    -8380    -8405    -8430 
   -8456    -8480    -8502    -8525    -8546    -8565    -8587    -8608 
   -8629    -8649    -8672    -8702    -8727    -8754    -8783    -8807 
   -8829    -8849    -8870    -8888    -8905    -8926    -8947    -8964 
   -8982    -9001    -9018    -9030    -9036    -9042    -9045    -9046 
   -9045    -9039    -9032    -9028    -9015    -9003    -8989    -8969 
   -8947    -8926    -8905    -8883    -8860    -8835    -8810    -8783 
   -8756    -8725    -8695    -8667    -8638    -8610    -8587    -8563 
   -8536    -8509    -8484    -8463    -8440    -8413    -8391    -8371 
   -8351    -8334    -8317    -8303    -8295    -8282    -8268    -8257 
   -8243    -8226    -8213    -8206    -8197    -8185    -8175    -8164 
   -8155    -8149    -8145    -8144    -8148    -8151    -8156    -8168 
   -8179    -8189    -8203    -8220    -8236    -8252    -8268    -8289 
   -8310    -8329    -8351    -8371    -8390    -8410    -8430    -8451 
   -8471    -8496    -8521    -8538    -8560    -8583    -8602    -8622 
   -8642    -8661    -8679    -8694    -8711    -8727    -8745    -8762 
   -8775    -8788    -8810    -8829    -8839    -8853    -8872    -8889 
   -8905    -8923    -8942    -8961    -8976    -8989    -9005    -9020 
   -9032    -9045    -9055    -9065    -9074    -9080    -9084    -9086 
