Origin Time       2025/01/13 21:19:00
Lat.              31.8
Long.             131.6
Depth. (km)       30
Mag.              6.9
Station Code      HYGH09
Station Lat.      34.9082
Station Long.     135.0844
Station Height(m) 40
Record Time       2025/01/13 21:21:51
Sampling Freq(Hz) 100Hz
Duration Time(s)  120
Dir.              3
Scale Factor      3923(gal)/8224838
Max. Acc. (gal)   0.198
Last Correction   2025/01/13 21:21:51
Memo.             
[...]
    6797     6794     6789     6782     6775     6764     6752     6743 
    6735     6727     6718     6709     6701     6691     6682     6674 
    6669     6663     6666     6670     6669     6670     6674     6677 
    6678     6681     6685     6690     6697     6702     6708     6712 
    6716     6718     6718     6723     6724     6725     6725     6718 
    6709     6706     6708     6704     6701     6701     6698     6694 
    6689     6681     6674     6671     6670     6664     6659     6655 
    6651     6646     6637     6635     6632     6625     6623     6624 
    6621     6621     6627     6632     6636     6643     6652     6663 
    6671     6679     6689     6694     6702     6714     6723     6727 
    6732     6740     6747     6750     6751     6754     6751     6748 
    6750     6747     6739     6735     6731     6727     6721     6720 
    6721     6720     6720     6720     6718     6718     6721     6725 
    6727     6729     6731     6735     6740     6741     6743     6750 
    6755     6760     6764     6768     6775     6783     6791     6798 
    6801     6806     6813     6816     6816     6820     6822     6825 
    6826     6826     6825     6821     6821     6818     6810     6808 
    6806     6799     6794     6791     6786     6783     6783     6782 
    6782     6783     6783     6778     6775     6774     6771     6771 
    6770     6767     6770     6770     6768     6768     6768     6764 
    6764     6766     6763     6760     6760     6763     6762     6762 
    6763     6763     6763     6766     6770     6777     6782     6787 
    6795     6799     6802     6806     6810     6816     6821     6825 
    6833     6837     6840     6845     6848     6848     6847     6844 
    6847     6843     6833     6828     6824     6816     6808     6801 
    6794     6786     6778     6772     6766     6758     6750     6745 
    6743     6739     6735     6735     6736     6736     6737     6741 
    6748     6751     6748     6748     6752     6754     6752     6754 
    6752     6751     6750     6750     6748     6743     6741     6741 
    6737     6732     6735     6736     6732     6731     6735     6733 
    6729     6731     6735     6739     6741     6743     6745     6747 
    6750     6752     6754     6752     6751     6751     6752     6754 
    6755     6755     6754     6755     6756     6755     6755     6754 
    6751     6745     6740     6737     6736     6731     6724     6720 
    6718     6716     6712     6710     6706     6701     6701     6702 
    6701     6704     6709     6712     6716     6724     6731     6737 
    6751     6759     6766     6775     6786     6795     6805     6809 
    6817     6828     6833     6840     6847     6848     6852     6858 
    6860     6866     6870     6868     6867     6866     6859     6852 
    6848     6847     6843     6835     6829     6822     6816     6806 
    6795     6787     6783     6778     6770     6766     6764     6759 
    6755     6755     6755     6754     6751     6750     6754     6756 
    6754     6751     6750     6747     6747     6748     6743     6737 
    6733     6728     6723     6721     6714     6704     6701     6697 
    6683     6675     6675     6674     6670     6664     6663     6662 
    6660     6660     6656     6656     6660     6660     6662     6664 
    6663     6662     6666     6667     6663     6659     6656     6656 
    6656     6656     6656     6654     6655     6662     6658     6655 
    6660     6660     6658     6660     6663     6664     6666     6664 
    6664     6664     6662     6658     6656     6656     6658     6656 
    6654     6654     6651     6650     6650     6647     6646     6648 
    6652     6655     6658     6658     6660     6666     6669     6671 
    6675     6679     6681     6683     6683     6685     6683     6682 
    6685     6687     6689     6690     6694     6698     6702     6708 
    6710     6716     6724     6725     6725     6731     6733     6735 
    6732     6727     6727     6731     6729     6725     6724     6721 
    6714     6710     6710     6710     6710     6709     6713     6717 
    6718     6723     6727     6731     6739     6745     6748     6754 
    6759     6763     6766     6770     6772     6771     6770     6774 
    6777     6774     6772     6777     6778     6772     6768     6767 
    6764     6766     6766     6763     6762     6762     6762     6758 
    6754     6754     6751     6750     6750     6750     6752     6754 
    6755     6754     6752     6751     6748     6747     6748     6744 
    6743     6744     6741     6737     6733     6729     6729     6729 
    6727     6728     6731     6729     6725     6725     6727     6725 
    6725     6728     6731     6733     6733     6731     6733     6733 
    6735     6739     6741     6748     6754     6755     6760     6766 
    6767     6771     6779     6785     6786     6791     6798     6795 
    6793     6791     6790     6790     6787     6782     6781     6781 
    6775     6770     6768     6768     6766     6759     6755     6754 
    6750     6744     6743     6744     6743     6737     6735     6735 
    6731     6727     6727     6728     6729     6729     6729     6735 
    6736     6735     6737     6741     6743     6747     6750     6755 
    6762     6764     6763     6767     6771     6774     6778     6783 
    6787     6786     6786     6789     6793     6794     6794     6795 
    6797     6799     6801     6805     6805     6804     6806     6806 
    6801     6801     6799     6795     6794     6791     6789     6791 
    6790     6782     6777     6777     6775     6771     6768     6764 
    6760     6755     6750     6748     6741     6735     6733     6731 
    6727     6728     6729     6728     6732     6736     6739     6747 
    6759     6767     6775     6786     6797     6805     6813     6821 
    6828     6832     6836     6837     6837     6837     6835     6831 
    6825     6824     6818     6813     6809     6804     6798     6793 
    6790     6789     6791     6790     6789     6794     6794     6791 
    6791     6791     6790     6786     6781     6774     6771     6766 
    6756     6745     6735     6728     6721     6710     6701     6694 
    6685     6673     6666     6659     6650     6644     6640     6633 
    6628     6624     6617     6612     6612     6610     6606     6606 
    6608     6608     6610     6615     6616     6623     6625     6625 
    6631     6640     6646     6646     6648     6648     6652     6659 
    6659     6656     6656     6655     6651     6646     6637     6633 
    6627     6617     6612     6606     6598     6594     6593     6593 
    6592     6592     6597     6606     6612     6616     6624     6632 
    6642     6648     6655     6660     6666     6673     6677     6678 
    6682     6683     6685     6689     6693     6693     6696     6698 
    6701     6708     6716     6718     6720     6725     6731     6733 
    6736     6741     6744     6744     6744     6743     6740     6739 
    6737     6735     6733     6731     6729     6727     6725     6728 
    6728     6727     6729     6733     6735     6743     6748     6751 
    6759     6768     6774     6779     6789     6797     6804     6810 
    6816     6821     6826     6829     6833     6837     6840     6843 
    6841     6840     6841     6840     6836     6831     6825     6820 
    6813     6809     6805     6799     6797     6794     6790     6786 
    6783     6781     6779     6778     6777     6777     6774     6772 
    6775     6774     6771     6772     6775     6775     6777     6779 
    6781     6781     6781     6782     6781     6781     6783     6782 
    6778     6774     6770     6770     6767     6762     6760     6758 
    6751     6743     6736     6729     6723     6714     6708     6705 
    6701     6696     6693     6687     6685     6686     6685     6683 
    6685     6685     6682     6679     6678     6675     6670     6666 
    6664     6659     6651     6646     6640     6629     6621     6616 
    6612     6606     6598     6592     6593     6593     6586     6583 
    6585     6581     6577     6577     6581     6582     6581     6583 
    6590     6594     6597     6604     6613     6620     6621     6627 
    6640     6646     6651     6662     6669     6673     6678     6677 
    6677     6683     6689     6689     6693     6698     6702     6708 
    6708     6709     6716     6720     6723     6731     6737     6740 
    6744     6750     6756     6762     6767     6772     6781     6786 
    6790     6798     6804     6808     6814     6820     6821     6820 
    6818     6816     6814     6812     6806     6804     6801     6795 
    6793     6787     6782     6778     6775     6772     6770     6768 
    6763     6756     6756     6759     6759     6758     6759     6762 
    6766     6766     6767     6772     6774     6775     6777     6778 
    6781     6783     6778     6774     6775     6778     6777     6771 
    6766     6764     6758     6747     6740     6733     6724     6714 
    6704     6697     6691     6681     6670     6662     6654     6648 
    6644     6636     6629     6624     6621     6617     6615     6616 
    6617     6616     6617     6621     6621     6623     6627     6631 
    6632     6635     6633     6633     6637     6639     6637     6636 
    6639     6643     6644     6642     6647     6652     6655     6659 
    6667     6674     6678     6681     6683     6685     6687     6691 
    6697     6704     6709     6712     6714     6717     6718     6724 
    6727     6729     6732     6732     6729     6729     6727     6723 
    6716     6708     6700     6687     6675     6666     6654     6639 
    6627     6616     6605     6596     6586     6578     6571     6565 
    6562     6558     6559     6569     6574     6573     6582     6593 
    6598     6609     6624     6633     6643     6656     6671     6687 
    6705     6721     6740     6760     6777     6791     6813     6833 
    6849     6864     6882     6898     6913     6929     6943     6955 
    6963     6970     6979     6986     6991     6998     6998     6998 
    7006     7010     7006     7006     7009     7005     7001     7001 
    6998     6995     6988     6982     6978     6970     6961     6955 
    6947     6933     6925     6917     6899     6886     6876     6863 
    6847     6835     6822     6809     6797     6783     6770     6759 
    6751     6741     6731     6720     6712     6704     6698     6693 
    6687     6683     6679     6678     6678     6678     6675     6674 
    6671     6674     6679     6679     6679     6682     6683     6683 
    6686     6683     6678     6677     6673     6669     6666     6664 
    6662     6658     6658     6660     6662     6666     6666     6666 
    6669     6671     6674     6679     6682     6687     6691     6694 
    6700     6704     6706     6710     6712     6712     6712     6710 
    6712     6712     6712     6709     6708     6709     6705     6704 
    6705     6702     6702     6704     6700     6701     6706     6708 
    6708     6712     6712     6712     6717     6717     6717     6723 
    6724     6724     6727     6727     6725     6724     6721     6716 
    6712     6708     6702     6694     6685     6677     6671     6660 
    6646     6635     6631     6623     6608     6594     6586     6574 
    6563     6556     6548     6538     6534     6531     6524     6520 
    6519     6515     6516     6519     6517     6520     6524     6525 
    6529     6534     6539     6546     6550     6555     6559     6566 
    6571     6574     6579     6585     6585     6586     6590     6596 
    6598     6602     6610     6619     6625     6636     6646     6656 
    6666     6679     6694     6704     6717     6733     6743     6754 
    6763     6772     6782     6787     6791     6799     6805     6809 
    6812     6813     6817     6820     6822     6831     6836     6839 
    6845     6853     6859     6866     6874     6882     6890     6899 
    6905     6914     6921     6926     6939     6948     6951     6959 
    6967     6971     6979     6986     6986     6986     6990     6987 
    6980     6975     6970     6959     6948     6939     6924     6910 
    6894     6874     6858     6841     6821     6806     6794     6775 
    6760     6747     6732     6720     6710     6700     6687     6675 
    6667     6660     6651     6639     6632     6625     6616     6608 
    6601     6592     6583     6575     6566     6559     6552     6543 
    6535     6529     6520     6511     6507     6501     6496     6490 
    6490     6493     6494     6496     6501     6512     6520     6529 
    6543     6558     6573     6585     6598     6613     6627     6639 
    6652     6667     6681     6687     6694     6705     6710     6712 
    6716     6718     6717     6717     6716     6712     6708     6702 
    6696     6686     6674     6666     6656     6644     6633     6623 
    6606     6593     6583     6571     6559     6550     6539     6528 
    6519     6513     6513     6513     6509     6512     6520     6524 
    6532     6543     6554     6571     6589     6606     6625     6644 
    6666     6689     6710     6735     6762     6785     6808     6832 
    6852     6872     6894     6912     6929     6949     6967     6983 
    7001     7014     7024     7037     7049     7057     7069     7079 
    7084     7090     7099     7107     7111     7114     7121     7128 
    7133     7133     7134     7138     7142     7141     7142     7146 
    7146     7141     7137     7133     7128     7125     7117     7103 
    7092     7083     7063     7041     7024     7002     6975     6949 
    6924     6894     6863     6840     6816     6786     6759     6737 
    6713     6689     6671     6651     6632     6617     6602     6590 
    6582     6574     6566     6561     6551     6548     6548     6542 
    6536     6536     6532     6531     6529     6525     6527     6528 
    6524     6523     6524     6528     6528     6525     6528     6538 
    6543     6543     6544     6550     6552     6554     6555     6558 
    6559     6562     6566     6565     6565     6569     6571     6571 
    6574     6578     6583     6590     6597     6600     6605     6616 
    6628     6639     6651     6664     6678     6691     6701     6712 
    6725     6737     6747     6755     6763     6767     6768     6770 
    6771     6770     6763     6759     6754     6745     6737     6729 
    6717     6706     6696     6685     6674     6664     6656     6646 
    6636     6629     6623     6619     6613     6608     6609     6605 
    6600     6600     6600     6600     6602     6602     6606     6612 
    6616     6623     6632     6642     6651     6662     6673     6686 
    6697     6704     6714     6728     6735     6741     6751     6755 
    6759     6766     6768     6770     6777     6779     6779     6782 
    6786     6787     6789     6793     6793     6794     6801     6804 
    6804     6806     6809     6812     6812     6813     6816     6816 
    6818     6820     6817     6816     6814     6816     6814     6812 
    6808     6805     6804     6805     6806     6805     6806     6808 
    6804     6801     6801     6801     6799     6793     6789     6786 
    6783     6777     6770     6760     6752     6747     6737     6727 
    6714     6701     6690     6682     6670     6659     6652     6647 
    6639     6629     6623     6615     6610     6610     6609     6609 
    6612     6616     6619     6624     6628     6633     6642     6650 
    6660     6671     6679     6685     6691     6702     6710     6718 
    6727     6735     6741     6750     6758     6763     6768     6775 
    6779     6786     6793     6798     6804     6809     6810     6812 
    6817     6820     6816     6814     6812     6809     6805     6797 
    6790     6783     6771     6760     6752     6741     6729     6720 
    6709     6697     6685     6671     6660     6648     6631     6619 
    6609     6593     6582     6577     6567     6555     6547     6538 
    6528     6520     6512     6507     6501     6496     6492     6490 
    6490     6486     6484     6485     6486     6485     6484     6488 
    6492     6493     6496     6498     6504     6513     6523     6531 
    6542     6554     6571     6586     6597     6613     6633     6651 
    6670     6694     6716     6737     6759     6777     6795     6816 
    6835     6853     6872     6891     6907     6924     6937     6948 
    6956     6963     6970     6974     6972     6968     6966     6961 
    6951     6939     6926     6912     6897     6882     6863     6841 
    6821     6801     6781     6762     6743     6725     6709     6691 
    6678     6664     6652     6640     6629     6621     6613     6602 
    6600     6600     6598     6601     6606     6612     6617     6624 
    6639     6651     6664     6682     6700     6713     6732     6754 
    6771     6785     6801     6817     6835     6851     6862     6872 
    6886     6894     6898     6902     6906     6907     6907     6906 
    6899     6887     6876     6868     6856     6837     6822     6806 
    6789     6772     6752     6732     6712     6691     6674     6656 
    6639     6627     6615     6598     6586     6577     6569     6561 
    6554     6550     6547     6544     6546     6552     6555     6559 
    6571     6579     6586     6600     6612     6627     6644     6659 
    6675     6694     6713     6733     6754     6774     6793     6814 
    6839     6855     6867     6886     6905     6918     6929     6939 
    6945     6952     6959     6961     6963     6963     6960     6956 
    6951     6944     6939     6933     6928     6922     6916     6910 
    6902     6894     6890     6885     6882     6879     6874     6870 
    6867     6866     6864     6860     6860     6864     6864     6863 
    6863     6860     6858     6858     6855     6852     6848     6839 
    6828     6818     6806     6791     6775     6756     6739     6721 
    6700     6681     6663     6642     6623     6606     6588     6570 
    6556     6546     6535     6524     6517     6515     6511     6511 
    6512     6513     6520     6528     6535     6547     6559     6570 
    6583     6596     6608     6623     6633     6642     6650     6658 
    6662     6664     6666     6664     6659     6654     6648     6640 
    6631     6623     6613     6606     6601     6592     6583     6577 
    6573     6573     6571     6569     6567     6571     6578     6582 
    6582     6589     6598     6606     6615     6627     6636     6642 
    6652     6664     6673     6683     6696     6709     6718     6728 
    6735     6741     6750     6760     6770     6781     6790     6797 
    6802     6810     6814     6817     6818     6822     6825     6822 
    6821     6821     6814     6808     6805     6801     6794     6790 
    6787     6779     6770     6771     6772     6770     6770     6775 
    6777     6779     6786     6794     6804     6813     6821     6831 
    6843     6855     6864     6874     6886     6898     6906     6912 
    6918     6928     6933     6932     6933     6936     6933     6926 
    6922     6920     6916     6906     6898     6894     6886     6876 
    6870     6867     6863     6859     6859     6860     6860     6860 
