Origin Time       2025/01/13 21:19:00
Lat.              31.8
Long.             131.6
Depth. (km)       30
Mag.              6.9
Station Code      HYGH13
Station Lat.      35.6208
Station Long.     134.6566
Station Height(m) 230
Record Time       2025/01/13 21:21:54
Sampling Freq(Hz) 100Hz
Duration Time(s)  120
Dir.              4
Scale Factor      7845(gal)/8223790
Max. Acc. (gal)   0.398
Last Correction   2025/01/13 21:21:56
Memo.             
[...]
    8499     8496     8498     8503     8513     8518     8522     8529 
    8532     8526     8519     8509     8496     8487     8478     8468 
    8461     8460     8463     8465     8471     8476     8483     8492 
    8500     8509     8513     8514     8515     8511     8500     8486 
    8468     8448     8426     8402     8380     8363     8345     8332 
    8321     8314     8310     8311     8318     8326     8334     8345 
    8363     8380     8395     8413     8428     8438     8449     8461 
    8471     8476     8479     8480     8480     8480     8484     8488 
    8496     8506     8517     8529     8537     8545     8559     8571 
    8580     8592     8600     8604     8610     8614     8611     8608 
    8606     8602     8596     8594     8592     8590     8587     8588 
    8588     8591     8598     8606     8618     8630     8641     8652 
    8658     8667     8675     8679     8680     8681     8681     8679 
    8676     8669     8662     8657     8653     8648     8645     8644 
    8641     8638     8635     8635     8634     8631     8631     8633 
    8631     8633     8634     8635     8638     8645     8652     8656 
    8657     8662     8667     8671     8675     8681     8687     8691 
    8698     8698     8691     8687     8683     8675     8671     8671 
    8669     8669     8673     8680     8687     8694     8702     8710 
    8718     8729     8739     8752     8768     8781     8788     8793 
    8797     8795     8785     8772     8760     8743     8723     8707 
    8689     8672     8658     8645     8631     8622     8613     8602 
    8596     8591     8586     8580     8572     8567     8561     8554 
    8545     8537     8529     8519     8507     8492     8480     8471 
    8459     8451     8445     8442     8442     8446     8451     8457 
    8467     8479     8494     8507     8519     8534     8550     8561 
    8569     8573     8571     8564     8556     8545     8532     8515 
    8500     8490     8482     8478     8479     8486     8492     8502 
    8514     8527     8544     8561     8579     8598     8619     8638 
    8658     8679     8694     8703     8711     8716     8716     8716 
    8715     8710     8699     8691     8680     8668     8654     8642 
    8630     8622     8617     8607     8599     8595     8590     8586 
    8584     8584     8583     8584     8584     8580     8573     8565 
    8553     8538     8519     8503     8490     8475     8460     8446 
    8436     8426     8419     8414     8411     8410     8414     8424 
    8432     8441     8453     8464     8472     8478     8484     8488 
    8488     8488     8488     8487     8484     8480     8478     8475 
    8475     8476     8480     8484     8492     8505     8517     8525 
    8532     8538     8541     8542     8544     8542     8542     8540 
    8529     8517     8510     8505     8498     8492     8491     8494 
    8499     8503     8510     8515     8525     8536     8548     8563 
    8580     8595     8611     8629     8641     8650     8661     8668 
    8671     8680     8688     8691     8691     8692     8692     8689 
    8684     8679     8676     8677     8675     8669     8668     8668 
    8667     8662     8662     8664     8664     8668     8672     8675 
    8679     8681     8684     8685     8687     8688     8689     8691 
    8691     8689     8684     8681     8679     8676     8671     8665 
    8662     8656     8646     8638     8629     8614     8600     8590 
    8577     8565     8556     8548     8540     8533     8523     8511 
    8498     8484     8469     8457     8445     8430     8415     8399 
    8383     8370     8353     8340     8332     8322     8316     8316 
    8314     8313     8318     8325     8329     8338     8349     8364 
    8379     8397     8421     8446     8472     8498     8522     8548 
    8569     8586     8598     8606     8610     8611     8613     8613 
    8614     8617     8619     8626     8633     8638     8648     8657 
    8662     8669     8675     8676     8683     8692     8695     8699 
    8708     8712     8711     8712     8715     8714     8712     8714 
    8712     8711     8714     8716     8715     8711     8710     8706 
    8696     8685     8676     8662     8648     8631     8615     8599 
    8583     8567     8550     8537     8525     8511     8499     8488 
    8476     8464     8452     8437     8422     8407     8391     8378 
    8364     8349     8338     8334     8333     8332     8336     8344 
    8357     8370     8382     8397     8411     8424     8436     8442 
    8448     8455     8457     8455     8453     8452     8448     8446 
    8451     8453     8459     8471     8484     8498     8518     8540 
    8559     8577     8600     8626     8653     8679     8706     8729 
    8748     8762     8773     8779     8780     8776     8770     8761 
    8745     8731     8716     8699     8683     8669     8656     8645 
    8631     8621     8614     8606     8599     8595     8592     8588 
    8588     8587     8581     8577     8572     8563     8552     8540 
    8526     8509     8487     8468     8452     8434     8424     8414 
    8406     8401     8399     8398     8398     8403     8410     8417 
    8426     8436     8444     8456     8467     8476     8487     8500 
    8511     8521     8525     8526     8529     8529     8526     8525 
    8523     8523     8527     8532     8540     8550     8559     8572 
    8590     8607     8626     8646     8665     8683     8703     8721 
    8734     8743     8753     8761     8762     8764     8768     8765 
    8758     8761     8764     8766     8772     8780     8791     8803 
    8815     8827     8839     8853     8862     8873     8880     8883 
    8885     8885     8880     8873     8864     8850     8837     8819 
    8796     8779     8761     8742     8727     8718     8707     8702 
    8700     8696     8696     8699     8699     8699     8700     8702 
    8698     8692     8688     8681     8669     8654     8637     8619 
    8598     8575     8552     8527     8506     8488     8469     8449 
    8434     8425     8415     8409     8406     8403     8398     8394 
    8391     8386     8376     8368     8359     8347     8333     8321 
    8310     8302     8295     8290     8286     8283     8284     8289 
    8294     8303     8313     8321     8328     8336     8338     8338 
    8338     8332     8320     8310     8297     8279     8267     8259 
    8245     8235     8228     8224     8222     8224     8230     8239 
    8249     8266     8287     8307     8326     8349     8372     8394 
    8413     8433     8451     8463     8472     8480     8487     8492 
    8496     8503     8510     8514     8519     8527     8538     8549 
    8560     8569     8580     8591     8596     8600     8607     8613 
    8613     8614     8621     8625     8623     8625     8630     8633 
    8635     8638     8638     8638     8637     8634     8629     8619 
    8607     8595     8584     8573     8563     8553     8545     8540 
    8536     8532     8527     8525     8525     8526     8532     8538 
    8544     8550     8560     8567     8573     8584     8591     8594 
    8595     8591     8583     8575     8565     8553     8544     8536 
    8529     8525     8519     8518     8519     8523     8534     8546 
    8559     8576     8594     8608     8625     8637     8644     8650 
    8653     8649     8644     8633     8622     8613     8598     8579 
    8563     8546     8527     8510     8498     8490     8482     8475 
    8472     8471     8465     8460     8457     8452     8445     8436 
    8419     8402     8382     8357     8334     8311     8290     8274 
    8267     8266     8267     8276     8297     8324     8349     8379 
    8409     8438     8467     8492     8515     8537     8550     8560 
    8571     8577     8577     8579     8581     8583     8581     8583 
    8586     8592     8602     8614     8627     8644     8665     8685 
    8703     8719     8734     8745     8753     8756     8756     8753 
    8748     8739     8730     8719     8708     8699     8692     8688 
    8687     8689     8694     8698     8706     8718     8727     8739 
    8749     8753     8760     8768     8770     8769     8769     8766 
    8761     8754     8743     8730     8715     8696     8677     8656 
    8633     8610     8591     8577     8567     8561     8563     8569 
    8581     8595     8608     8626     8646     8664     8680     8696 
    8708     8719     8726     8726     8721     8716     8706     8689 
    8673     8657     8640     8621     8602     8587     8575     8560 
    8549     8544     8541     8540     8538     8537     8534     8530 
    8522     8510     8494     8472     8449     8425     8394     8363 
    8333     8306     8280     8253     8235     8225     8217     8210 
    8210     8212     8213     8220     8228     8233     8240     8249 
    8257     8267     8280     8291     8299     8310     8324     8336 
    8345     8351     8359     8364     8368     8376     8384     8392 
    8405     8415     8426     8438     8455     8471     8486     8496 
    8510     8523     8536     8545     8559     8571     8583     8596 
    8611     8625     8640     8650     8664     8676     8685     8696 
    8707     8715     8730     8742     8750     8765     8784     8802 
    8819     8837     8854     8872     8884     8892     8901     8904 
    8900     8895     8888     8877     8866     8854     8842     8827 
    8815     8803     8789     8780     8773     8765     8761     8758 
    8753     8746     8739     8731     8721     8710     8699     8688 
    8673     8657     8644     8631     8621     8611     8604     8602 
    8603     8603     8607     8614     8621     8626     8630     8634 
    8637     8634     8627     8618     8604     8587     8567     8544 
    8519     8496     8472     8448     8426     8409     8392     8382 
    8371     8361     8357     8353     8349     8351     8355     8359 
    8364     8372     8378     8383     8390     8395     8399     8406 
    8414     8422     8430     8438     8446     8456     8467     8479 
    8494     8509     8523     8540     8554     8569     8583     8596 
    8608     8619     8631     8642     8650     8656     8661     8664 
    8664     8657     8653     8653     8652     8644     8638     8633 
    8630     8627     8621     8613     8607     8600     8592     8587 
    8577     8567     8559     8549     8537     8527     8514     8498 
    8482     8464     8446     8430     8414     8399     8383     8370 
    8359     8348     8336     8328     8324     8320     8316     8314 
    8314     8317     8322     8325     8326     8328     8326     8324 
    8320     8316     8311     8303     8294     8286     8280     8275 
    8272     8271     8271     8276     8284     8297     8310     8326 
    8344     8363     8378     8390     8398     8402     8402     8399 
    8391     8388     8384     8379     8379     8380     8382     8386 
    8394     8402     8409     8418     8430     8445     8463     8479 
    8494     8514     8537     8557     8576     8595     8608     8621 
    8635     8642     8646     8650     8650     8648     8645     8642 
    8638     8634     8633     8633     8635     8641     8648     8658 
    8672     8685     8699     8714     8729     8746     8761     8773 
    8785     8793     8803     8812     8819     8826     8831     8837 
    8841     8842     8841     8842     8842     8843     8846     8847 
    8853     8862     8874     8885     8891     8896     8903     8903 
    8897     8888     8876     8861     8841     8820     8799     8777 
    8758     8742     8726     8714     8707     8706     8710     8714 
    8719     8730     8739     8748     8757     8762     8765     8766 
    8765     8760     8752     8739     8726     8714     8700     8685 
    8673     8664     8654     8648     8645     8641     8637     8635 
    8633     8631     8627     8619     8611     8604     8592     8576 
    8559     8542     8527     8513     8498     8482     8464     8455 
    8446     8438     8433     8432     8426     8425     8429     8433 
    8437     8441     8446     8452     8456     8457     8457     8455 
    8448     8436     8422     8411     8403     8395     8391     8384 
    8380     8382     8378     8371     8370     8368     8364     8361 
    8361     8357     8353     8351     8347     8341     8333     8324 
    8311     8298     8283     8268     8251     8232     8214     8197 
    8183     8171     8162     8156     8155     8155     8156     8158 
    8163     8170     8178     8183     8190     8195     8203     8213 
    8221     8232     8244     8257     8275     8291     8303     8320 
    8337     8348     8361     8376     8382     8388     8397     8399 
    8399     8398     8392     8386     8382     8378     8374     8371 
    8368     8367     8367     8370     8371     8372     8374     8375 
    8371     8365     8357     8348     8340     8332     8322     8313 
    8305     8301     8301     8301     8309     8321     8334     8353 
    8376     8401     8429     8457     8488     8517     8540     8569 
    8598     8622     8645     8662     8676     8689     8700     8710 
    8723     8733     8742     8756     8770     8784     8799     8814 
    8830     8846     8860     8870     8881     8892     8896     8900 
    8908     8911     8912     8916     8919     8922     8928     8934 
    8939     8946     8954     8962     8965     8968     8972     8973 
    8972     8970     8965     8957     8947     8935     8923     8911 
    8899     8887     8876     8865     8856     8846     8838     8827 
    8812     8800     8788     8772     8754     8734     8711     8685 
    8657     8629     8594     8561     8529     8496     8467     8442 
    8421     8405     8391     8380     8378     8380     8382     8386 
    8394     8401     8407     8414     8421     8426     8433     8438 
    8440     8440     8442     8442     8440     8434     8428     8422 
    8417     8413     8410     8411     8411     8411     8414     8415 
    8413     8410     8405     8397     8386     8372     8356     8341 
    8326     8314     8301     8289     8283     8278     8276     8282 
    8290     8298     8314     8334     8353     8375     8401     8422 
    8442     8464     8488     8509     8530     8550     8568     8588 
    8608     8630     8652     8672     8691     8710     8727     8743 
    8758     8769     8779     8788     8797     8803     8804     8800 
    8796     8792     8784     8772     8758     8748     8737     8723 
    8712     8704     8699     8694     8692     8695     8698     8703 
    8710     8712     8712     8715     8718     8719     8719     8721 
    8721     8721     8719     8715     8708     8706     8703     8698 
    8695     8695     8694     8692     8692     8689     8685     8681 
    8672     8658     8645     8635     8622     8603     8590     8575 
    8556     8541     8526     8514     8505     8495     8484     8482 
    8482     8479     8482     8491     8505     8519     8541     8563 
    8584     8606     8630     8650     8667     8680     8692     8699 
    8703     8703     8699     8692     8683     8668     8654     8641 
    8622     8606     8594     8581     8568     8560     8553     8546 
    8540     8532     8525     8521     8510     8496     8488     8476 
    8461     8451     8436     8417     8401     8387     8370     8351 
    8338     8328     8316     8309     8310     8313     8320     8333 
    8347     8361     8380     8399     8418     8436     8451     8464 
    8473     8478     8480     8479     8473     8468     8461     8456 
    8451     8446     8446     8451     8451     8453     8461     8471 
    8479     8487     8496     8506     8514     8519     8525     8526 
    8526     8525     8522     8518     8513     8510     8509     8507 
    8509     8515     8527     8544     8560     8579     8604     8631 
    8653     8677     8702     8726     8745     8760     8773     8783 
    8787     8789     8789     8783     8773     8766     8760     8746 
    8734     8725     8714     8706     8698     8687     8675     8667 
    8657     8641     8625     8610     8591     8569     8550     8530 
    8505     8482     8460     8438     8419     8401     8380     8360 
    8344     8330     8318     8305     8295     8291     8286     8278 
    8276     8278     8278     8275     8275     8275     8275     8275 
    8276     8278     8280     8283     8286     8291     8295     8301 
    8306     8311     8317     8321     8326     8332     8337     8341 
    8348     8359     8367     8371     8380     8388     8391     8398 
    8405     8409     8411     8413     8411     8413     8414     8413 
    8414     8413     8413     8418     8422     8425     8432     8441 
    8446     8452     8459     8463     8467     8471     8473     8473 
    8473     8475     8475     8476     8478     8480     8484     8490 
    8494     8498     8503     8507     8509     8514     8518     8519 
    8522     8529     8534     8540     8546     8553     8560     8572 
    8584     8595     8606     8621     8635     8649     8664     8679 
    8694     8708     8723     8739     8749     8750     8756     8758 
    8757     8754     8753     8750     8745     8738     8731     8722 
    8712     8703     8692     8685     8680     8673     8668     8664 
    8662     8662     8662     8662     8664     8667     8668     8667 
    8669     8671     8667     8667     8671     8671     8665     8665 
    8667     8661     8656     8653     8653     8653     8650     8649 
    8645     8638     8631     8629     8623     8615     8610     8606 
    8602     8596     8592     8590     8587     8583     8577     8576 
    8573     8567     8563     8557     8553     8550     8546     8544 
    8540     8534     8530     8525     8515     8505     8494     8484 
    8475     8464     8453     8444     8433     8426     8418     8410 
    8406     8399     8392     8387     8379     8371     8365     8360 
    8355     8352     8349     8349     8349     8348     8352     8359 
    8364     8371     8382     8395     8409     8426     8446     8467 
    8486     8506     8527     8549     8571     8594     8615     8635 
    8657     8680     8702     8723     8746     8764     8780     8797 
    8808     8819     8830     8837     8843     8847     8849     8847 
    8845     8842     8837     8824     8815     8802     8785     8773 
    8760     8745     8735     8726     8714     8704     8699     8692 
    8684     8677     8673     8667     8660     8656     8650     8641 
    8631     8625     8615     8603     8594     8584     8571     8561 
    8552     8541     8529     8522     8518     8514     8511     8514 
    8519     8523     8529     8540     8550     8557     8568     8577 
    8590     8603     8613     8619     8629     8634     8638     8640 
    8642     8646     8649     8650     8653     8657     8660     8662 
    8667     8669     8673     8675     8675     8676     8673     8668 
    8665     8660     8650     8641     8634     8629     8621     8613 
    8607     8599     8591     8587     8583     8576     8575     8575 
    8572     8571     8569     8567     8564     8563     8559     8552 
