Origin Time       2025/01/13 21:19:00
Lat.              31.8
Long.             131.6
Depth. (km)       30
Mag.              6.9
Station Code      HYGH08
Station Lat.      35.1010
Station Long.     134.9036
Station Height(m) 160
Record Time       2025/01/13 21:21:53
Sampling Freq(Hz) 100Hz
Duration Time(s)  120
Dir.              6
Scale Factor      7845(gal)/8223790
Max. Acc. (gal)   0.327
Last Correction   2025/01/13 21:21:55
Memo.             
[...]
   17232    17242    17247    17248    17251    17258    17266    17271 
   17271    17273    17275    17278    17280    17285    17290    17294 
   17293    17289    17286    17282    17277    17275    17277    17273 
   17269    17266    17263    17262    17263    17263    17265    17267 
   17266    17267    17266    17258    17253    17247    17238    17228 
   17217    17207    17196    17188    17184    17186    17188    17185 
   17184    17180    17177    17177    17182    17188    17193    17200 
   17208    17213    17216    17221    17230    17235    17238    17235 
   17228    17221    17215    17211    17207    17208    17213    17220 
   17224    17227    17231    17234    17231    17231    17234    17234 
   17234    17234    17235    17236    17236    17242    17248    17250 
   17247    17246    17243    17244    17247    17247    17248    17251 
   17253    17253    17253    17255    17258    17257    17254    17250 
   17244    17244    17243    17240    17243    17246    17247    17243 
   17232    17227    17223    17217    17211    17205    17200    17200 
   17199    17199    17199    17201    17207    17213    17221    17227 
   17236    17246    17247    17246    17246    17240    17239    17238 
   17231    17223    17217    17213    17209    17208    17208    17209 
   17213    17212    17209    17207    17207    17208    17209    17205 
   17199    17194    17190    17182    17178    17177    17174    17176 
   17181    17188    17196    17204    17216    17227    17230    17232 
   17236    17234    17230    17224    17216    17213    17215    17212 
   17212    17216    17216    17215    17215    17216    17223    17235 
   17250    17262    17275    17286    17293    17300    17307    17308 
   17311    17315    17316    17313    17307    17300    17297    17293 
   17286    17281    17278    17275    17270    17265    17258    17251 
   17248    17254    17255    17247    17239    17234    17228    17226 
   17221    17216    17211    17207    17204    17200    17194    17190 
   17185    17177    17172    17167    17161    17157    17154    17150 
   17147    17149    17151    17155    17159    17166    17173    17178 
   17185    17193    17199    17207    17219    17221    17223    17227 
   17227    17228    17228    17227    17227    17231    17236    17244 
   17251    17255    17255    17251    17250    17250    17247    17246 
   17244    17238    17235    17235    17238    17242    17247    17254 
   17259    17259    17261    17259    17257    17253    17247    17246 
   17246    17240    17238    17239    17236    17232    17232    17240 
   17248    17257    17262    17263    17267    17275    17280    17282 
   17289    17294    17296    17296    17294    17294    17292    17286 
   17280    17277    17277    17281    17285    17289    17293    17298 
   17305    17311    17313    17313    17315    17313    17312    17313 
   17313    17312    17313    17316    17316    17317    17317    17315 
   17312    17312    17312    17312    17308    17298    17293    17293 
   17285    17280    17281    17274    17269    17270    17265    17258 
   17257    17255    17253    17246    17242    17236    17228    17221 
   17216    17208    17201    17200    17199    17196    17193    17190 
   17189    17189    17189    17196    17200    17199    17197    17197 
   17201    17201    17194    17184    17182    17189    17189    17185 
   17184    17184    17182    17180    17180    17186    17194    17197 
   17201    17204    17201    17199    17201    17203    17200    17199 
   17203    17211    17212    17209    17212    17211    17208    17212 
   17219    17228    17234    17235    17235    17238    17240    17243 
   17244    17247    17251    17253    17253    17251    17250    17251 
   17254    17253    17251    17251    17250    17244    17243    17242 
   17239    17239    17244    17244    17240    17239    17240    17238 
   17234    17231    17231    17234    17235    17235    17238    17240 
   17239    17235    17231    17228    17226    17223    17223    17223 
   17223    17226    17226    17231    17239    17240    17236    17236 
   17238    17240    17244    17250    17255    17262    17263    17261 
   17262    17266    17269    17273    17278    17282    17288    17294 
   17297    17292    17289    17290    17292    17290    17292    17294 
   17298    17304    17305    17304    17305    17307    17304    17301 
   17298    17293    17289    17285    17280    17275    17273    17269 
   17262    17254    17248    17243    17242    17236    17228    17223 
   17215    17208    17205    17200    17192    17189    17189    17196 
   17200    17199    17204    17213    17215    17215    17216    17215 
   17213    17213    17211    17207    17201    17196    17196    17204 
   17212    17216    17220    17230    17240    17253    17262    17261 
   17257    17258    17257    17250    17242    17238    17238    17230 
   17220    17220    17219    17216    17215    17212    17211    17215 
   17215    17213    17215    17215    17216    17220    17221    17223 
   17221    17221    17226    17226    17226    17228    17226    17219 
   17220    17226    17231    17236    17243    17247    17251    17258 
   17262    17267    17274    17278    17281    17281    17278    17270 
   17266    17266    17266    17263    17259    17261    17262    17258 
   17250    17246    17248    17250    17247    17247    17248    17246 
   17242    17239    17235    17228    17221    17213    17204    17199 
   17194    17190    17192    17196    17201    17209    17219    17226 
   17230    17231    17232    17231    17234    17234    17226    17220 
   17217    17212    17205    17201    17200    17196    17188    17180 
   17172    17165    17165    17166    17167    17169    17174    17180 
   17185    17193    17203    17207    17209    17211    17209    17207 
   17204    17201    17200    17197    17193    17193    17196    17197 
   17193    17192    17193    17196    17196    17199    17204    17208 
   17211    17217    17224    17228    17231    17234    17240    17243 
   17240    17242    17251    17259    17263    17270    17277    17282 
   17288    17288    17285    17286    17285    17281    17275    17271 
   17267    17265    17263    17261    17262    17262    17265    17271 
   17275    17280    17286    17289    17288    17285    17284    17282 
   17273    17266    17263    17257    17253    17257    17255    17257 
   17261    17257    17254    17261    17266    17265    17263    17265 
   17263    17263    17267    17269    17266    17263    17267    17269 
   17263    17261    17262    17263    17265    17265    17262    17258 
   17254    17248    17246    17243    17236    17235    17240    17242 
   17242    17246    17246    17243    17246    17254    17258    17255 
   17255    17259    17255    17255    17261    17263    17262    17261 
   17259    17254    17247    17243    17240    17236    17232    17227 
   17223    17221    17215    17205    17203    17200    17189    17182 
   17180    17177    17174    17172    17167    17162    17157    17153 
   17143    17130    17126    17123    17116    17116    17123    17122 
   17118    17123    17130    17128    17131    17138    17138    17139 
   17147    17150    17154    17161    17161    17163    17165    17162 
   17162    17163    17161    17161    17166    17169    17172    17180 
   17190    17199    17213    17226    17231    17236    17246    17255 
   17265    17267    17273    17282    17282    17278    17284    17290 
   17293    17297    17301    17305    17316    17325    17328    17332 
   17338    17340    17336    17331    17327    17317    17304    17296 
   17290    17278    17262    17254    17251    17246    17238    17232 
   17230    17231    17234    17231    17227    17227    17223    17215 
   17213    17215    17213    17212    17212    17215    17217    17217 
   17213    17216    17219    17215    17209    17207    17201    17194 
   17196    17199    17192    17178    17169    17165    17162    17155 
   17145    17136    17134    17132    17134    17142    17147    17147 
   17153    17158    17161    17163    17167    17170    17173    17174 
   17176    17170    17165    17167    17167    17162    17159    17161 
   17161    17165    17174    17178    17176    17178    17184    17186 
   17192    17197    17200    17204    17211    17211    17213    17224 
   17230    17234    17244    17250    17254    17263    17271    17275 
   17280    17288    17296    17298    17301    17305    17304    17302 
   17312    17317    17316    17324    17334    17332    17332    17338 
   17339    17336    17338    17338    17332    17325    17321    17319 
   17309    17300    17298    17297    17288    17280    17278    17277 
   17275    17273    17274    17277    17274    17270    17273    17271 
   17266    17265    17262    17253    17244    17240    17238    17232 
   17227    17221    17215    17215    17217    17217    17217    17220 
   17227    17232    17235    17247    17259    17257    17253    17261 
   17266    17261    17257    17255    17250    17246    17247    17250 
   17253    17262    17271    17269    17271    17284    17289    17290 
   17297    17302    17301    17298    17301    17300    17293    17285 
   17280    17275    17269    17263    17259    17254    17246    17239 
   17232    17231    17227    17223    17221    17217    17213    17212 
   17208    17208    17213    17213    17207    17211    17221    17219 
   17211    17212    17216    17212    17209    17209    17207    17207 
   17207    17204    17208    17211    17207    17208    17219    17226 
   17223    17219    17220    17223    17223    17223    17226    17227 
   17227    17230    17236    17238    17239    17247    17257    17262 
   17266    17266    17270    17277    17280    17280    17282    17288 
   17294    17294    17292    17289    17284    17280    17280    17273 
   17259    17251    17248    17243    17231    17221    17223    17221 
   17208    17203    17213    17212    17199    17194    17199    17199 
   17194    17193    17190    17185    17185    17184    17176    17178 
   17180    17167    17165    17169    17159    17151    17147    17142 
   17142    17146    17139    17135    17142    17151    17158    17161 
   17163    17181    17194    17197    17204    17212    17209    17215 
   17230    17228    17219    17223    17223    17212    17211    17211 
   17196    17201    17220    17220    17216    17224    17230    17235 
   17239    17238    17234    17232    17235    17232    17213    17200 
   17196    17181    17167    17169    17167    17158    17158    17165 
   17161    17155    17163    17163    17158    17165    17174    17174 
   17169    17173    17173    17172    17189    17196    17181    17185 
   17204    17204    17193    17196    17204    17199    17190    17188 
   17180    17177    17182    17181    17178    17184    17199    17199 
   17188    17197    17211    17205    17208    17227    17230    17213 
   17216    17230    17236    17239    17234    17239    17262    17262 
   17257    17270    17270    17267    17282    17285    17278    17293 
   17309    17298    17290    17298    17298    17294    17289    17285 
   17294    17294    17278    17267    17269    17262    17250    17250 
   17255    17250    17238    17235    17236    17227    17213    17208 
   17216    17216    17199    17192    17201    17199    17189    17190 
   17194    17194    17194    17186    17180    17174    17163    17158 
   17161    17157    17143    17146    17154    17136    17140    17165 
   17151    17140    17153    17153    17153    17167    17174    17176 
   17196    17213    17211    17211    17235    17266    17271    17280 
   17301    17308    17313    17332    17352    17366    17377    17396 
   17412    17417    17417    17423    17439    17442    17431    17428 
   17423    17416    17412    17401    17393    17389    17381    17373 
   17382    17385    17369    17367    17369    17354    17361    17370 
   17361    17363    17367    17359    17358    17351    17343    17338 
   17319    17317    17334    17317    17298    17304    17298    17289 
   17280    17263    17257    17257    17258    17248    17224    17216 
   17215    17188    17166    17174    17163    17132    17124    17132 
   17126    17108    17108    17119    17109    17100    17112    17120 
   17118    17120    17130    17142    17151    17140    17150    17172 
   17174    17190    17204    17192    17199    17216    17205    17209 
   17238    17227    17216    17251    17269    17232    17224    17269 
   17263    17234    17255    17251    17240    17273    17262    17242 
   17281    17296    17263    17275    17311    17280    17238    17275 
   17307    17258    17234    17265    17261    17240    17235    17232 
   17242    17223    17190    17226    17246    17192    17169    17199 
   17204    17196    17211    17196    17170    17209    17215    17167 
   17201    17207    17162    17204    17186    17139    17193    17192 
   17165    17185    17158    17162    17217    17186    17131    17157 
   17207    17209    17170    17146    17181    17212    17185    17182 
   17207    17193    17201    17203    17169    17227    17254    17149 
   17180    17263    17176    17142    17220    17207    17157    17163 
   17162    17131    17142    17178    17138    17068    17089    17143 
   17099    17034    17068    17076    17018    17027    17032    16996 
   17010    16988    16937    17012    17057    16910    16889    17070 
   17038    16892    17001    17072    16949    16985    17055    16968 
   16987    17064    17050    17062    17015    16968    17097    17111 
   16981    17047    17124    17050    17072    17126    17095    17116 
   17140    17109    17135    17162    17128    17103    17150    17209 
   17130    17070    17180    17192    17130    17162    17167    17180 
   17197    17182    17244    17263    17208    17246    17296    17285 
   17286    17312    17321    17324    17338    17335    17339    17351 
   17334    17350    17375    17329    17359    17446    17386    17339 
   17408    17388    17343    17428    17437    17370    17405    17425 
   17389    17406    17427    17396    17388    17424    17419    17381 
   17383    17404    17406    17429    17435    17382    17393    17447 
   17398    17354    17410    17425    17362    17351    17390    17367 
   17334    17370    17366    17305    17317    17340    17302    17301 
   17315    17285    17262    17267    17297    17294    17243    17263 
   17286    17193    17158    17246    17275    17221    17203    17205 
   17190    17199    17181    17158    17209    17217    17166    17177 
   17204    17196    17205    17223    17215    17215    17221    17221 
   17230    17236    17239    17236    17215    17189    17204    17247 
   17258    17207    17153    17162    17203    17211    17193    17226 
   17240    17174    17184    17238    17227    17239    17255    17240 
   17244    17251    17253    17262    17266    17273    17277    17271 
   17271    17269    17273    17297    17309    17301    17300    17304 
   17315    17331    17329    17325    17340    17356    17351    17332 
   17327    17348    17377    17373    17347    17351    17371    17381 
   17394    17388    17370    17389    17406    17390    17381    17409 
   17433    17406    17394    17423    17417    17398    17398    17388 
   17385    17397    17393    17377    17362    17356    17367    17373 
   17361    17348    17351    17351    17336    17327    17339    17332 
   17320    17334    17329    17313    17327    17324    17309    17321 
   17325    17316    17309    17305    17323    17325    17294    17284 
   17286    17280    17266    17240    17219    17211    17197    17177 
   17167    17158    17132    17116    17109    17097    17093    17093 
   17081    17077    17068    17054    17066    17074    17053    17047 
   17051    17041    17034    17031    17027    17027    17016    17003 
   16999    16991    16987    16989    16988    16991    17000    17001 
   17003    17022    17032    17038    17051    17057    17065    17082 
   17092    17099    17111    17119    17131    17146    17157    17173 
   17188    17197    17219    17235    17238    17255    17274    17290 
   17321    17319    17300    17332    17354    17325    17328    17348 
   17336    17328    17335    17329    17323    17316    17307    17311 
   17309    17296    17292    17289    17280    17273    17269    17265 
   17262    17254    17247    17247    17250    17253    17258    17255 
   17258    17267    17273    17274    17285    17293    17293    17293 
   17300    17305    17307    17298    17286    17280    17278    17271 
   17253    17238    17232    17220    17207    17207    17200    17178 
   17172    17169    17158    17151    17142    17128    17132    17138 
   17127    17123    17130    17131    17128    17124    17123    17127 
   17126    17119    17120    17118    17109    17103    17101    17104 
   17105    17097    17092    17101    17109    17107    17107    17116 
   17130    17138    17139    17143    17158    17176    17193    17200 
   17193    17204    17231    17234    17224    17230    17234    17232 
   17236    17235    17231    17232    17226    17224    17227    17219 
   17212    17211    17208    17207    17203    17193    17188    17184 
   17177    17172    17165    17157    17154    17151    17140    17134 
   17139    17146    17143    17139    17142    17149    17154    17155 
   17162    17178    17190    17192    17200    17205    17204    17209 
   17220    17227    17231    17239    17250    17255    17262    17270 
   17277    17284    17292    17294    17302    17312    17317    17313 
   17313    17321    17328    17329    17336    17344    17348    17350 
   17354    17361    17366    17373    17377    17383    17388    17385 
   17385    17392    17397    17396    17392    17394    17398    17394 
   17383    17375    17375    17371    17361    17351    17344    17340 
   17334    17328    17324    17317    17308    17300    17296    17296 
   17290    17281    17275    17269    17265    17261    17251    17246 
   17244    17240    17232    17224    17217    17211    17205    17196 
   17190    17185    17180    17177    17172    17162    17159    17157 
   17150    17140    17130    17126    17126    17123    17119    17113 
   17109    17107    17107    17107    17107    17108    17111    17113 
   17113    17112    17108    17103    17101    17097    17093    17091 
   17085    17082    17086    17085    17084    17086    17086    17086 
   17086    17086    17085    17084    17091    17099    17101    17105 
   17116    17126    17128    17130    17135    17147    17155    17154 
   17151    17159    17170    17178    17185    17193    17204    17219 
   17232    17244    17257    17270    17282    17297    17309    17317 
   17328    17338    17346    17354    17358    17361    17367    17370 
   17369    17367    17366    17363    17361    17361    17359    17354 
   17347    17346    17343    17336    17331    17329    17325    17319 
   17311    17304    17296    17290    17286    17277    17266    17258 
   17251    17243    17239    17235    17230    17227    17226    17224 
   17224    17227    17227    17224    17224    17224    17219    17216 
