Origin Time       2025/01/13 21:19:00
Lat.              31.8
Long.             131.6
Depth. (km)       30
Mag.              6.9
Station Code      HYGH09
Station Lat.      34.9082
Station Long.     135.0844
Station Height(m) 140
Record Time       2025/01/13 21:21:51
Sampling Freq(Hz) 100Hz
Duration Time(s)  120
Dir.              4
Scale Factor      7845(gal)/8223790
Max. Acc. (gal)   0.425
Last Correction   2025/01/13 21:21:51
Memo.             
[...]
    2814     2798     2786     2775     2768     2767     2768     2771 
    2779     2794     2806     2817     2826     2837     2844     2847 
    2852     2852     2847     2843     2837     2826     2816     2805 
    2795     2785     2774     2763     2749     2736     2721     2705 
    2690     2681     2674     2670     2671     2677     2683     2694 
    2712     2733     2758     2786     2813     2841     2872     2905 
    2934     2961     2987     3013     3033     3046     3060     3071 
    3076     3082     3087     3095     3106     3117     3122     3129 
    3136     3141     3144     3146     3149     3149     3146     3142 
    3137     3129     3117     3100     3080     3061     3042     3019 
    2997     2976     2955     2932     2910     2890     2870     2849 
    2828     2805     2785     2768     2752     2737     2725     2714 
    2701     2687     2671     2654     2639     2623     2606     2590 
    2575     2562     2550     2543     2540     2543     2550     2562 
    2581     2604     2628     2655     2685     2714     2744     2774 
    2797     2813     2822     2825     2822     2816     2805     2793 
    2776     2762     2748     2733     2718     2708     2700     2695 
    2695     2698     2706     2718     2732     2748     2762     2774 
    2787     2801     2810     2820     2825     2829     2828     2818 
    2805     2787     2762     2731     2697     2662     2623     2581 
    2543     2511     2478     2451     2432     2416     2403     2396 
    2397     2401     2408     2419     2431     2446     2461     2474 
    2489     2502     2509     2515     2517     2512     2505     2504 
    2500     2500     2506     2519     2533     2554     2575     2601 
    2631     2660     2690     2718     2745     2772     2801     2824 
    2841     2855     2863     2866     2864     2860     2851     2835 
    2817     2802     2787     2771     2759     2747     2733     2724 
    2718     2717     2714     2713     2716     2722     2729     2740 
    2752     2767     2787     2808     2824     2840     2853     2863 
    2870     2871     2870     2866     2862     2855     2847     2840 
    2840     2843     2849     2860     2874     2893     2910     2930 
    2952     2974     2995     3018     3040     3057     3071     3083 
    3088     3087     3080     3069     3053     3032     3005     2974 
    2943     2911     2882     2855     2835     2814     2795     2779 
    2767     2754     2743     2735     2728     2721     2716     2717 
    2717     2716     2713     2710     2713     2714     2713     2714 
    2716     2716     2718     2722     2725     2727     2731     2736 
    2736     2736     2737     2741     2747     2749     2755     2763 
    2774     2786     2799     2812     2829     2847     2860     2871 
    2884     2895     2897     2894     2891     2882     2871     2860 
    2845     2833     2822     2810     2802     2797     2786     2775 
    2766     2752     2737     2727     2716     2705     2700     2697 
    2697     2697     2698     2702     2709     2716     2721     2727 
    2732     2732     2731     2727     2721     2717     2709     2705 
    2709     2712     2712     2717     2725     2735     2744     2752 
    2763     2772     2778     2781     2783     2786     2783     2783 
    2785     2783     2787     2793     2799     2812     2826     2844 
    2864     2883     2905     2929     2948     2961     2974     2983 
    2984     2986     2988     2983     2974     2964     2951     2938 
    2924     2907     2895     2886     2876     2868     2863     2853 
    2840     2829     2818     2805     2791     2778     2763     2751 
    2741     2733     2728     2721     2716     2712     2708     2706 
    2709     2712     2713     2716     2720     2724     2728     2736 
    2744     2754     2766     2775     2783     2795     2806     2814 
    2825     2837     2848     2866     2884     2905     2925     2943 
    2961     2980     2998     3014     3029     3038     3046     3051 
    3048     3044     3037     3025     3010     2997     2986     2976 
    2972     2968     2968     2972     2972     2971     2971     2967 
    2965     2967     2957     2948     2940     2930     2918     2907 
    2898     2887     2878     2870     2863     2855     2847     2841 
    2839     2837     2839     2843     2851     2857     2864     2872 
    2880     2890     2898     2907     2920     2933     2948     2964 
    2978     2991     3003     3013     3015     3013     3005     2991 
    2971     2948     2920     2889     2857     2825     2799     2776 
    2752     2729     2712     2695     2681     2670     2662     2650 
    2644     2641     2637     2633     2632     2631     2629     2631 
    2637     2646     2652     2660     2666     2671     2678     2683 
    2689     2697     2704     2709     2718     2729     2735     2740 
    2751     2760     2766     2768     2772     2775     2774     2768 
    2758     2747     2737     2727     2714     2702     2694     2689 
    2683     2679     2677     2675     2678     2681     2679     2678 
    2678     2678     2675     2673     2668     2664     2660     2658 
    2658     2659     2659     2663     2667     2667     2668     2667 
    2663     2658     2652     2646     2640     2636     2629     2621 
    2613     2604     2594     2586     2579     2571     2562     2552 
    2548     2543     2536     2528     2523     2520     2517     2515 
    2519     2525     2529     2539     2550     2560     2574     2592 
    2612     2633     2655     2678     2704     2728     2752     2775 
    2798     2820     2833     2845     2859     2872     2886     2897 
    2905     2916     2924     2929     2937     2938     2933     2932 
    2929     2918     2913     2910     2903     2898     2894     2886 
    2882     2882     2879     2874     2868     2866     2860     2855 
    2851     2841     2832     2824     2816     2808     2802     2797 
    2793     2793     2794     2795     2799     2803     2806     2803 
    2802     2801     2795     2793     2793     2791     2793     2798 
    2803     2809     2818     2828     2839     2852     2868     2884 
    2901     2914     2926     2937     2948     2957     2965     2971 
    2978     2983     2986     2988     2990     2987     2984     2979 
    2974     2967     2960     2953     2947     2937     2925     2911 
    2899     2886     2871     2859     2844     2829     2817     2808 
    2797     2783     2770     2759     2751     2745     2737     2729 
    2725     2721     2717     2713     2708     2702     2698     2693 
    2686     2681     2671     2662     2658     2652     2646     2641 
    2640     2646     2648     2654     2664     2674     2682     2691 
    2702     2713     2722     2733     2741     2748     2754     2759 
    2763     2767     2770     2768     2768     2768     2764     2760 
    2759     2755     2743     2731     2721     2705     2687     2674 
    2663     2652     2643     2637     2633     2625     2619     2614 
    2612     2614     2619     2621     2628     2639     2647     2652 
    2660     2668     2675     2682     2690     2701     2710     2721 
    2736     2752     2771     2789     2808     2832     2855     2876 
    2902     2925     2943     2961     2979     2991     3002     3011 
    3018     3026     3032     3037     3041     3042     3042     3042 
    3044     3044     3040     3033     3028     3022     3017     3006 
    2997     2988     2978     2970     2964     2959     2953     2952 
    2953     2956     2957     2959     2964     2968     2968     2970 
    2971     2971     2971     2972     2976     2978     2978     2980 
    2976     2967     2957     2948     2932     2914     2893     2870 
    2847     2824     2798     2772     2749     2728     2708     2685 
    2662     2640     2619     2600     2582     2566     2551     2538 
    2527     2517     2508     2502     2498     2492     2486     2481 
    2474     2465     2455     2446     2436     2428     2424     2419 
    2415     2417     2421     2425     2432     2442     2452     2465 
    2481     2496     2512     2531     2550     2570     2590     2609 
    2631     2655     2679     2706     2736     2767     2799     2832 
    2862     2890     2917     2941     2960     2978     2995     3013 
    3025     3037     3048     3059     3075     3090     3100     3110 
    3115     3119     3122     3117     3110     3103     3092     3080 
    3067     3048     3028     3010     2992     2972     2952     2933 
    2911     2890     2870     2851     2829     2806     2786     2764 
    2743     2721     2702     2683     2664     2650     2640     2632 
    2621     2613     2612     2610     2610     2614     2619     2625 
    2635     2643     2652     2663     2674     2686     2701     2717 
    2735     2751     2766     2783     2803     2817     2830     2845 
    2859     2871     2880     2890     2899     2905     2909     2909 
    2907     2905     2895     2889     2886     2879     2870     2864 
    2857     2851     2843     2835     2828     2820     2812     2808 
    2808     2803     2803     2805     2809     2814     2822     2828 
    2835     2845     2855     2863     2872     2886     2898     2911 
    2925     2941     2955     2967     2982     2991     2997     2999 
    2997     2988     2978     2961     2940     2913     2886     2859 
    2832     2803     2778     2754     2736     2727     2717     2709 
    2709     2710     2708     2704     2705     2706     2705     2702 
    2698     2694     2689     2682     2675     2667     2656     2644 
    2635     2625     2613     2600     2587     2579     2569     2559 
    2556     2550     2544     2547     2550     2550     2555     2563 
    2570     2577     2585     2597     2610     2621     2629     2637 
    2646     2650     2652     2656     2659     2659     2662     2666 
    2670     2673     2677     2683     2693     2702     2710     2721 
    2731     2737     2745     2754     2763     2772     2779     2786 
    2795     2806     2817     2826     2836     2844     2851     2855 
    2857     2859     2860     2856     2849     2851     2853     2855 
    2857     2860     2862     2864     2870     2876     2882     2884 
    2889     2895     2901     2905     2909     2911     2917     2924 
    2929     2937     2941     2947     2955     2960     2964     2970 
    2972     2974     2974     2972     2971     2967     2961     2959 
    2956     2952     2948     2944     2937     2930     2924     2914 
    2901     2889     2874     2863     2855     2844     2837     2832 
    2826     2822     2821     2821     2824     2826     2829     2833 
    2840     2844     2851     2857     2867     2876     2886     2895 
    2909     2918     2926     2937     2945     2949     2951     2956 
    2960     2963     2970     2979     2986     2994     3001     3009 
    3017     3017     3011     3006     2998     2983     2970     2957 
    2938     2921     2910     2899     2886     2874     2863     2853 
    2845     2830     2817     2806     2795     2783     2772     2762 
    2749     2737     2728     2721     2713     2706     2708     2709 
    2709     2708     2714     2728     2736     2741     2751     2762 
    2774     2782     2791     2801     2809     2818     2825     2828 
    2828     2832     2832     2830     2832     2832     2833     2839 
    2847     2852     2862     2871     2879     2890     2898     2906 
    2916     2925     2932     2938     2941     2943     2943     2940 
    2937     2928     2914     2898     2879     2859     2840     2821 
    2799     2778     2758     2743     2727     2710     2691     2675 
    2664     2654     2637     2623     2609     2597     2585     2574 
    2563     2552     2547     2540     2532     2529     2525     2517 
    2516     2515     2512     2511     2506     2506     2513     2520 
    2528     2542     2555     2570     2587     2605     2625     2646 
    2664     2682     2702     2721     2741     2762     2779     2795 
    2810     2824     2839     2853     2864     2874     2884     2893 
    2901     2906     2911     2914     2917     2918     2920     2920 
    2918     2920     2920     2920     2921     2924     2925     2928 
    2932     2936     2944     2952     2957     2965     2975     2979 
    2979     2982     2984     2986     2984     2980     2976     2974 
    2972     2968     2960     2953     2948     2943     2934     2925 
    2918     2909     2897     2884     2871     2851     2833     2820 
    2805     2787     2774     2764     2756     2748     2744     2747 
    2748     2752     2759     2764     2764     2768     2774     2778 
    2779     2783     2787     2791     2794     2798     2805     2809 
    2816     2822     2826     2830     2836     2844     2849     2856 
    2864     2871     2876     2886     2899     2911     2918     2928 
    2937     2943     2949     2960     2970     2975     2979     2984 
    2987     2986     2982     2978     2974     2964     2953     2940 
    2925     2910     2893     2871     2851     2833     2814     2794 
    2774     2755     2739     2720     2700     2683     2668     2655 
    2646     2636     2627     2617     2609     2598     2586     2574 
    2562     2547     2532     2516     2500     2481     2463     2447 
    2431     2416     2398     2382     2370     2359     2351     2351 
    2354     2355     2365     2377     2386     2403     2421     2443 
    2469     2497     2524     2555     2590     2627     2660     2690 
    2721     2754     2781     2806     2832     2856     2876     2894 
    2911     2928     2938     2945     2953     2959     2963     2964 
    2965     2965     2967     2968     2968     2967     2968     2971 
    2972     2975     2979     2984     2991     2997     3003     3014 
    3028     3041     3056     3075     3090     3103     3119     3133 
    3145     3156     3163     3169     3175     3173     3169     3168 
    3163     3152     3141     3126     3111     3096     3080     3065 
    3051     3034     3021     3009     2995     2984     2978     2970 
    2963     2960     2959     2955     2953     2953     2952     2951 
    2945     2938     2936     2929     2922     2917     2909     2901 
    2894     2887     2879     2874     2872     2868     2866     2867 
    2866     2859     2856     2857     2853     2849     2845     2841 
    2840     2844     2844     2845     2849     2859     2870     2874 
    2872     2871     2867     2862     2860     2856     2847     2836 
    2825     2809     2794     2783     2772     2763     2755     2747 
    2739     2731     2718     2706     2698     2689     2681     2677 
    2670     2664     2663     2660     2655     2647     2640     2631 
    2617     2601     2585     2570     2556     2544     2539     2536 
    2535     2533     2536     2540     2546     2556     2570     2581 
    2590     2600     2606     2613     2621     2628     2637     2648 
    2656     2666     2675     2682     2689     2697     2704     2709 
    2712     2713     2714     2714     2713     2713     2709     2701 
    2697     2693     2686     2681     2679     2678     2677     2678 
    2681     2685     2690     2700     2709     2722     2740     2756 
    2771     2787     2803     2818     2833     2845     2857     2867 
    2875     2886     2897     2907     2917     2922     2926     2932 
    2937     2943     2944     2943     2941     2936     2929     2920 
    2911     2906     2905     2903     2903     2902     2901     2903 
    2906     2907     2913     2917     2918     2920     2920     2916 
    2909     2899     2889     2874     2857     2841     2824     2808 
    2793     2774     2755     2740     2722     2706     2693     2681 
    2670     2663     2656     2652     2655     2658     2660     2664 
    2670     2674     2678     2679     2685     2689     2694     2701 
    2705     2709     2720     2735     2751     2768     2786     2810 
    2840     2859     2874     2897     2924     2947     2967     2990 
    3015     3034     3051     3067     3080     3091     3103     3118 
    3129     3130     3123     3115     3109     3103     3096     3086 
    3063     3030     2999     2975     2957     2943     2930     2916 
    2897     2882     2874     2876     2882     2882     2886     2890 
    2889     2883     2879     2876     2874     2876     2879     2868 
    2855     2856     2872     2884     2889     2887     2883     2875 
    2872     2878     2887     2891     2890     2884     2874     2859 
    2847     2840     2840     2839     2828     2809     2791     2776 
    2760     2751     2751     2751     2743     2733     2732     2729 
    2720     2718     2725     2729     2729     2728     2729     2733 
    2732     2727     2727     2733     2739     2741     2744     2745 
    2737     2731     2733     2737     2733     2728     2724     2720 
    2713     2709     2705     2700     2695     2697     2702     2712 
    2716     2717     2722     2727     2731     2744     2759     2771 
    2781     2783     2781     2778     2785     2801     2818     2829 
    2837     2843     2843     2848     2863     2878     2890     2905 
    2916     2921     2924     2925     2929     2937     2945     2953 
    2955     2945     2932     2922     2918     2914     2906     2891 
    2878     2866     2851     2837     2828     2818     2809     2801 
    2793     2781     2764     2744     2727     2713     2697     2675 
    2656     2640     2621     2598     2577     2556     2539     2525 
    2517     2505     2486     2465     2454     2454     2454     2447 
    2442     2443     2448     2446     2442     2439     2442     2450 
    2462     2477     2489     2490     2490     2500     2512     2513 
    2512     2516     2523     2531     2533     2535     2539     2547 
    2559     2578     2597     2606     2612     2621     2635     2647 
    2658     2668     2679     2690     2701     2712     2721     2728 
    2732     2737     2745     2754     2762     2770     2774     2776 
    2783     2790     2802     2817     2825     2832     2849     2867 
    2874     2886     2905     2920     2934     2951     2967     2980 
    2991     3001     3014     3024     3022     3024     3026     3026 
    3024     3022     3025     3026     3028     3033     3032     3022 
    3014     3006     2995     2980     2957     2936     2916     2893 
    2866     2840     2814     2785     2759     2745     2740     2729 
    2714     2701     2691     2681     2678     2689     2708     2721 
    2725     2729     2739     2740     2736     2747     2772     2801 
    2820     2829     2835     2832     2818     2818     2829     2829 
    2826     2825     2816     2803     2794     2781     2770     2768 
    2771     2775     2774     2763     2739     2718     2716     2714 
    2706     2712     2717     2704     2691     2691     2690     2681 
    2671     2671     2683     2691     2683     2668     2660     2652 
    2636     2632     2650     2659     2643     2616     2610     2624 
    2635     2631     2627     2625     2620     2620     2650     2693 
