Origin Time       2025/01/13 21:19:00
Lat.              31.8
Long.             131.6
Depth. (km)       30
Mag.              6.9
Station Code      HYGH04
Station Lat.      35.0708
Station Long.     135.2811
Station Height(m) 117.85
Record Time       2025/01/13 21:21:58
Sampling Freq(Hz) 100Hz
Duration Time(s)  120
Dir.              2
Scale Factor      3923(gal)/8224838
Max. Acc. (gal)   0.140
Last Correction   2025/01/13 21:21:59
Memo.             
[...]
     283      291      298      303      306      307      310      311 
     315      315      314      311      311      311      310      310 
     311      311      310      311      313      315      315      314 
     313      313      314      314      313      311      313      314 
     317      321      322      324      326      329      333      337 
     340      344      348      348      352      353      355      357 
     356      353      356      353      349      346      346      340 
     330      326      324      314      307      303      299      292 
     288      284      282      279      280      279      278      280 
     282      279      280      283      283      287      294      301 
     306      310      317      325      332      334      338      344 
     348      353      359      364      368      372      376      384 
     391      392      395      399      400      400      405      407 
     410      411      414      418      423      427      433      437 
     438      440      445      448      449      453      454      456 
     456      453      453      456      454      450      448      444 
     442      441      436      433      434      434      429      427 
     427      426      421      419      415      414      414      413 
     411      407      405      405      402      399      399      396 
     395      395      391      387      384      383      386      386 
     382      380      382      380      376      372      369      363 
     357      353      345      340      334      325      315      307 
     301      294      286      279      271      264      257      249 
     244      241      233      225      224      218      210      207 
     206      202      201      202      205      206      207      209 
     211      217      221      222      228      233      238      241 
     244      247      249      252      255      256      256      256 
     257      256      255      259      259      257      259      257 
     260      265      265      265      270      271      275      278 
     283      290      295      295      298      305      313      319 
     324      330      342      355      364      375      384      395 
     409      422      434      445      456      467      479      488 
     496      503      511      518      523      531      538      544 
     548      548      550      553      554      557      558      557 
     558      560      558      558      557      553      548      540 
     534      529      522      511      502      492      483      473 
     464      454      444      430      418      409      398      391 
     384      376      372      367      361      359      359      359 
     359      363      365      365      369      378      383      387 
     394      399      405      410      414      418      421      422 
     425      425      426      427      425      419      415      411 
     405      399      395      387      382      379      371      364 
     360      352      348      349      346      341      340      337 
     334      330      326      326      325      321      319      318 
     315      314      314      311      310      306      301      298 
     294      286      280      272      263      259      253      247 
     238      232      226      224      220      217      214      210 
     209      207      203      201      199      198      195      193 
     191      190      190      189      186      184      183      180 
     179      179      179      178      176      178      178      176 
     176      176      178      182      184      183      182      184 
     186      186      186      184      182      180      179      178 
     179      182      183      183      186      190      191      190 
     189      191      191      191      191      191      191      190 
     187      182      179      178      174      167      163      159 
     152      143      135      128      124      118      110      106 
     105      102       99       97       95       98       98       98 
     101      102      105      113      118      121      124      126 
     132      139      143      144      149      153      156      156 
     159      162      164      168      172      174      175      176 
     176      179      179      180      187      191      191      195 
     202      209      216      224      232      240      248      257 
     265      275      287      299      311      324      333      345 
     361      372      380      391      403      415      425      436 
     448      456      463      471      476      480      484      488 
     491      492      492      491      490      487      483      481 
     477      472      468      465      460      456      449      444 
     441      436      430      426      422      421      419      413 
     407      407      407      406      406      407      409      409 
     409      407      407      409      410      407      410      415 
     413      410      414      413      410      411      410      406 
     405      399      392      388      383      375      368      359 
     348      342      333      321      311      303      294      282 
     271      265      255      244      238      230      221      216 
     211      205      199      197      194      190      189      187 
     186      186      182      178      180      184      186      190 
     197      201      205      210      217      228      236      243 
     255      268      282      295      309      322      337      353 
     367      379      394      409      423      437      449      463 
     476      488      496      504      515      522      529      537 
     544      549      553      556      558      561      565      567 
     567      567      567      565      564      560      556      552 
     548      542      535      531      523      517      511      502 
     491      483      479      468      453      444      436      426 
     419      410      400      391      383      371      360      348 
     336      324      311      299      286      272      260      248 
     233      220      205      191      179      168      157      147 
     139      135      130      128      126      126      122      121 
     126      130      132      139      147      152      160      175 
     184      191      206      217      224      238      252      260 
     275      291      301      309      324      338      348      361 
     378      387      394      407      418      425      434      442 
     446      452      456      452      449      449      442      437 
     436      426      419      414      403      394      387      376 
     364      357      345      332      325      317      305      294 
     290      282      272      267      261      253      252      251 
     248      245      244      240      238      240      238      238 
     241      244      248      253      255      257      263      267 
     270      278      286      291      298      305      311      322 
     330      336      344      353      360      365      372      379 
     383      388      394      399      403      407      413      413 
     411      417      422      423      426      430      434      437 
     440      444      446      449      456      461      468      476 
     480      481      488      496      496      496      500      504 
     507      508      508      511      511      510      513      511 
     507      508      508      506      506      508      510      507 
     504      506      507      504      504      504      502      500 
     500      499      498      495      499      499      496      500 
     504      500      498      495      490      483      476      469 
     463      454      445      434      426      418      410      399 
     388      380      372      361      357      353      349      346 
     342      344      346      346      348      348      346      348 
     352      351      351      355      359      360      361      364 
     368      368      367      369      372      369      369      373 
     373      372      372      373      375      373      372      369 
     365      359      353      346      342      334      325      317 
     311      303      292      283      274      267      260      253 
     245      240      233      229      226      226      225      224 
     224      222      222      222      222      225      226      228 
     230      230      229      229      229      229      229      228 
     229      230      230      230      234      238      238      240 
     244      248      251      256      259      260      263      265 
     270      275      279      280      288      295      297      299 
     305      310      318      326      332      338      344      351 
     356      359      364      371      373      379      384      390 
     396      400      403      407      413      413      414      417 
     421      421      423      426      426      427      433      432 
     430      437      442      440      441      445      444      444 
     444      446      448      449      453      459      460      461 
     465      468      471      473      479      486      490      492 
     496      500      500      502      504      506      503      503 
     506      506      502      498      494      488      481      477 
     471      461      454      449      440      429      421      414 
     405      395      387      378      372      367      361      357 
     353      348      346      345      344      346      346      344 
     344      344      342      340      337      337      333      329 
     326      319      313      310      303      295      290      283 
     272      265      263      255      248      244      243      240 
     238      241      245      244      244      249      253      256 
     261      265      268      271      274      276      278      282 
     283      284      288      292      294      297      299      299 
     302      307      313      315      318      324      325      325 
     330      338      340      341      344      346      348      346 
     348      351      351      355      360      361      364      368 
     369      372      376      376      375      378      378      373 
     372      371      371      369      365      363      360      356 
     353      348      344      340      337      337      336      329 
     325      321      318      317      314      311      310      309 
     310      310      309      311      311      310      313      315 
     315      319      322      321      324      326      329      333 
     334      338      341      340      344      349      349      352 
     357      359      361      365      365      368      373      378 
     379      384      390      392      399      406      411      418 
     427      436      445      456      461      472      487      494 
     500      510      514      518      522      527      531      530 
     525      521      515      503      495      484      468      452 
     437      417      396      376      355      332      311      291 
     267      249      233      214      198      186      172      163 
     156      149      145      144      144      147      153      163 
     172      179      190      205      217      232      247      261 
     278      295      310      326      341      353      365      380 
     392      406      418      427      440      450      456      460 
     468      475      481      491      494      494      500      506 
     507      508      511      514      517      515      514      514 
     511      508      504      503      500      495      487      480 
     472      463      452      441      427      418      406      387 
     373      363      348      330      317      306      291      275 
     264      255      247      236      225      220      209      199 
     197      197      191      186      182      180      179      176 
     174      171      167      166      166      159      155      153 
     148      144      143      137      132      132      129      122 
     118      117      118      117      118      120      121      125 
     128      130      137      144      153      160      166      175 
     184      194      206      218      228      237      251      260 
     271      283      294      303      314      324      332      337 
     345      352      357      363      369      376      382      384 
     387      392      400      405      409      414      415      421 
     430      436      438      444      446      450      456      457 
     461      467      471      475      476      479      483      486 
     488      491      494      495      496      498      499      500 
     503      502      498      499      498      495      494      490 
     486      480      473      467      459      450      440      427 
     417      405      392      379      367      353      340      326 
     311      295      280      264      249      234      221      203 
     186      174      163      151      139      128      114      101 
      90       83       75       67       58       52       49       45 
      37       35       36       36       39       45       55       64 
      71       81       94      106      116      132      148      160 
     175      193      207      225      243      256      271      291 
     307      319      336      353      367      383      400      413 
     425      440      456      468      481      494      506      518 
     527      537      549      557      562      573      581      584 
     588      594      599      600      598      599      598      591 
     585      580      572      564      557      549      535      522 
     513      503      490      479      468      454      442      434 
     422      415      411      400      392      394      390      383 
     382      384      384      386      386      388      392      396 
     398      402      409      411      415      421      425      427 
     430      430      429      432      433      433      433      432 
     429      425      423      423      419      413      409      407 
     402      396      398      396      391      388      384      378 
     373      369      365      365      365      363      359      357 
     357      357      359      359      357      356      356      357 
     356      355      356      355      352      352      353      352 
     351      351      351      351      351      349      351      352 
     352      351      351      351      351      352      353      352 
     349      348      345      340      334      329      328      324 
     318      313      307      298      292      287      278      271 
     265      255      245      241      234      225      220      216 
     210      203      199      193      186      182      182      180 
     178      176      179      182      183      184      189      191 
     197      205      210      216      220      226      236      245 
     248      253      264      275      279      286      295      302 
     310      321      329      333      337      345      353      356 
     361      371      375      379      386      392      398      403 
     405      407      410      413      415      415      414      414 
     413      411      410      407      405      403      402      396 
     391      388      383      376      373      371      363      359 
     356      353      351      345      340      338      336      330 
     328      325      321      319      317      313      314      313 
     309      309      310      305      303      307      307      307 
     307      309      310      310      311      315      319      322 
     324      325      329      336      342      346      351      356 
     361      367      375      379      383      391      399      405 
     407      411      417      423      430      436      438      440 
     444      448      446      449      453      453      453      454 
     456      457      456      452      450      453      450      446 
     445      445      446      449      449      448      452      454 
     456      454      452      454      459      457      456      456 
     453      448      441      438      433      423      415      407 
     398      388      376      364      355      346      337      328 
     321      314      303      295      292      287      280      275 
     271      267      263      259      256      255      252      252 
     252      245      243      245      247      245      248      253 
     253      255      259      261      263      268      275      278 
     282      286      288      291      295      299      302      306 
     311      313      313      315      315      317      319      322 
     324      325      326      329      332      334      338      338 
     337      340      342      344      342      342      342      342 
     340      336      336      336      333      330      326      322 
     317      311      309      302      292      287      282      275 
     267      257      249      245      241      236      228      218 
     214      214      205      199      199      195      189      187 
     187      183      182      182      179      176      176      176 
     175      174      175      176      172      168      166      166 
     164      163      159      153      152      148      141      136 
     132      128      122      118      112      108      109      108 
     105      105      106      106      108      112      120      121 
     122      130      137      141      147      152      163      171 
     172      182      198      207      214      224      232      241 
     251      260      268      276      288      302      310      317 
     328      340      348      355      364      372      378      383 
     390      396      403      407      410      414      422      426 
     427      432      438      444      446      452      457      460 
     469      477      483      491      500      506      513      521 
     527      535      544      548      552      553      554      556 
     553      550      549      544      535      530      522      508 
     498      488      475      460      449      434      415      403 
     391      375      356      341      326      306      288      274 
     256      238      222      206      191      178      166      153 
     143      133      124      116      109      103       99       95 
      91       91       93       93       95       99      102      108 
     110      117      125      132      137      147      155      159 
     167      175      183      193      203      213      221      232 
     245      259      272      286      299      314      328      344 
     360      375      392      409      421      436      452      465 
     477      491      499      508      521      530      534      540 
