Origin Time       2025/01/13 21:19:00
Lat.              31.8
Long.             131.6
Depth. (km)       30
Mag.              6.9
Station Code      HYGH09
Station Lat.      34.9082
Station Long.     135.0844
Station Height(m) 140
Record Time       2025/01/13 21:21:51
Sampling Freq(Hz) 100Hz
Duration Time(s)  120
Dir.              6
Scale Factor      7845(gal)/8223790
Max. Acc. (gal)   0.361
Last Correction   2025/01/13 21:21:51
Memo.             
[...]
    9236     9235     9235     9242     9244     9244     9248     9251 
    9256     9263     9269     9274     9283     9292     9294     9300 
    9306     9309     9312     9317     9321     9323     9327     9331 
    9333     9335     9337     9343     9346     9348     9351     9351 
    9352     9354     9355     9356     9358     9360     9366     9370 
    9370     9371     9375     9379     9381     9381     9379     9377 
    9374     9373     9369     9364     9360     9355     9351     9348 
    9342     9333     9328     9321     9313     9305     9297     9290 
    9285     9277     9267     9262     9254     9247     9240     9234 
    9229     9228     9224     9220     9219     9216     9216     9217 
    9217     9217     9217     9219     9220     9219     9220     9223 
    9224     9225     9228     9229     9229     9231     9234     9236 
    9235     9234     9235     9236     9232     9232     9232     9231 
    9231     9232     9234     9236     9240     9244     9250     9256 
    9261     9265     9271     9277     9282     9290     9297     9301 
    9301     9304     9305     9305     9305     9308     9309     9309 
    9308     9305     9306     9306     9304     9305     9305     9301 
    9297     9296     9293     9290     9289     9285     9278     9273 
    9267     9263     9259     9254     9250     9250     9248     9247 
    9244     9242     9242     9242     9244     9248     9251     9248 
    9247     9248     9248     9250     9255     9261     9265     9265 
    9267     9277     9289     9297     9305     9312     9315     9320 
    9327     9329     9332     9336     9336     9336     9337     9335 
    9332     9331     9329     9329     9325     9321     9320     9320 
    9317     9316     9312     9308     9304     9301     9301     9297 
    9292     9292     9292     9288     9285     9288     9286     9283 
    9283     9285     9285     9281     9277     9273     9271     9271 
    9269     9262     9261     9258     9254     9254     9255     9254 
    9252     9254     9255     9256     9255     9255     9258     9258 
    9255     9256     9261     9261     9262     9265     9265     9263 
    9265     9270     9271     9270     9267     9269     9273     9273 
    9270     9274     9277     9277     9277     9277     9281     9286 
    9285     9285     9288     9289     9288     9288     9288     9286 
    9283     9283     9281     9277     9274     9275     9275     9273 
    9270     9269     9269     9266     9263     9263     9265     9263 
    9262     9265     9271     9273     9273     9277     9282     9283 
    9288     9292     9296     9302     9308     9310     9317     9324 
    9329     9336     9336     9333     9337     9339     9335     9335 
    9336     9331     9327     9325     9321     9320     9321     9320 
    9317     9319     9321     9321     9323     9323     9324     9324 
    9323     9324     9327     9327     9328     9332     9335     9335 
    9336     9340     9343     9342     9342     9339     9335     9335 
    9333     9331     9329     9327     9320     9315     9310     9305 
    9300     9297     9294     9292     9289     9286     9285     9285 
    9285     9282     9279     9278     9278     9277     9274     9273 
    9274     9273     9270     9271     9271     9271     9274     9278 
    9281     9283     9283     9283     9286     9283     9281     9281 
    9275     9271     9267     9263     9262     9259     9254     9252 
    9252     9250     9248     9248     9251     9250     9247     9244 
    9246     9244     9246     9248     9246     9240     9240     9243 
    9246     9248     9250     9251     9252     9255     9261     9262 
    9259     9258     9258     9254     9248     9243     9235     9228 
    9225     9221     9215     9213     9211     9207     9205     9207 
    9208     9208     9209     9213     9215     9216     9220     9225 
    9227     9228     9235     9243     9250     9252     9258     9265 
    9269     9275     9283     9289     9296     9304     9310     9317 
    9320     9327     9335     9342     9348     9354     9356     9363 
    9373     9377     9383     9390     9393     9398     9401     9402 
    9405     9405     9404     9405     9402     9400     9400     9400 
    9398     9397     9397     9396     9391     9390     9386     9383 
    9382     9382     9379     9377     9374     9371     9374     9375 
    9373     9370     9373     9374     9373     9370     9366     9362 
    9360     9359     9355     9351     9348     9342     9337     9333 
    9327     9319     9317     9317     9309     9300     9294     9292 
    9283     9273     9266     9258     9247     9239     9229     9220 
    9212     9204     9197     9192     9185     9178     9174     9167 
    9165     9161     9157     9155     9155     9153     9151     9150 
    9147     9146     9142     9142     9142     9139     9139     9142 
    9142     9146     9148     9147     9150     9157     9162     9163 
    9165     9166     9170     9174     9174     9173     9174     9180 
    9180     9184     9189     9190     9192     9197     9205     9213 
    9219     9221     9229     9235     9238     9246     9254     9259 
    9263     9270     9281     9289     9290     9293     9304     9315 
    9317     9321     9328     9331     9332     9333     9333     9333 
    9333     9336     9336     9335     9333     9333     9332     9331 
    9331     9328     9325     9324     9319     9312     9313     9312 
    9305     9302     9304     9302     9298     9296     9296     9296 
    9292     9292     9293     9292     9290     9292     9293     9293 
    9292     9292     9293     9292     9289     9288     9289     9288 
    9282     9281     9282     9275     9271     9269     9263     9261 
    9259     9254     9252     9251     9247     9246     9244     9243 
    9240     9240     9243     9243     9240     9240     9243     9248 
    9252     9256     9261     9265     9269     9274     9279     9286 
    9293     9298     9306     9312     9316     9324     9331     9336 
    9342     9347     9354     9362     9367     9374     9379     9383 
    9389     9390     9394     9400     9400     9401     9406     9409 
    9410     9416     9421     9424     9428     9432     9433     9433 
    9433     9435     9439     9440     9437     9436     9435     9432 
    9431     9428     9424     9418     9414     9413     9409     9404 
    9394     9385     9377     9371     9362     9348     9336     9328 
    9320     9309     9300     9288     9278     9273     9263     9252 
    9247     9240     9229     9224     9223     9219     9209     9201 
    9200     9202     9202     9196     9192     9192     9194     9197 
    9194     9193     9196     9197     9200     9202     9202     9197 
    9194     9197     9205     9208     9202     9196     9197     9204 
    9208     9207     9202     9200     9202     9205     9202     9205 
    9207     9205     9209     9215     9216     9220     9228     9232 
    9238     9248     9255     9258     9265     9277     9288     9296 
    9297     9294     9293     9297     9301     9305     9308     9308 
    9302     9298     9296     9296     9297     9297     9300     9300 
    9293     9286     9281     9279     9282     9286     9283     9281 
    9281     9282     9278     9274     9279     9286     9290     9292 
    9292     9292     9294     9300     9305     9309     9315     9319 
    9321     9328     9332     9328     9324     9325     9328     9329 
    9332     9336     9333     9328     9327     9329     9328     9325 
    9324     9325     9325     9323     9320     9320     9319     9319 
    9325     9331     9329     9329     9331     9333     9339     9346 
    9350     9352     9356     9363     9367     9373     9381     9385 
    9385     9386     9387     9389     9389     9387     9386     9382 
    9378     9377     9374     9369     9364     9359     9355     9358 
    9362     9356     9348     9344     9346     9346     9342     9337 
    9336     9336     9333     9331     9329     9325     9319     9319 
    9323     9321     9315     9312     9315     9315     9313     9308 
    9305     9305     9304     9301     9297     9288     9278     9278 
    9282     9282     9279     9275     9274     9274     9275     9277 
    9277     9271     9267     9270     9277     9274     9267     9262 
    9266     9271     9270     9265     9259     9256     9255     9255 
    9255     9252     9248     9248     9254     9254     9244     9239 
    9243     9246     9244     9242     9243     9246     9247     9250 
    9252     9255     9262     9263     9265     9269     9271     9274 
    9279     9282     9278     9279     9288     9294     9298     9301 
    9304     9309     9317     9320     9321     9324     9327     9332 
    9340     9344     9343     9343     9348     9355     9359     9362 
    9367     9371     9375     9378     9382     9383     9383     9383 
    9387     9387     9381     9378     9378     9379     9375     9363 
    9355     9356     9356     9351     9346     9337     9327     9316 
    9310     9312     9308     9292     9277     9269     9262     9255 
    9248     9244     9239     9234     9231     9227     9221     9219 
    9216     9215     9216     9217     9217     9219     9220     9221 
    9217     9208     9211     9221     9223     9220     9220     9217 
    9215     9215     9211     9207     9205     9208     9213     9213 
    9207     9190     9184     9193     9200     9196     9197     9200 
    9194     9190     9196     9200     9188     9175     9186     9213 
    9232     9228     9200     9180     9192     9227     9250     9247 
    9228     9217     9221     9235     9254     9262     9247     9231 
    9229     9247     9271     9281     9267     9240     9234     9258 
    9279     9285     9277     9259     9263     9286     9279     9243 
    9231     9266     9309     9306     9265     9229     9228     9261 
    9282     9288     9288     9255     9243     9285     9292     9240 
    9209     9243     9300     9308     9265     9212     9185     9223 
    9281     9300     9281     9221     9188     9229     9266     9265 
    9263     9250     9178     9146     9274     9360     9243     9112 
    9109     9240     9346     9250     9147     9182     9188     9167 
    9221     9292     9285     9155     9078     9227     9347     9238 
    9101     9126     9254     9308     9262     9213     9185     9181 
    9192     9207     9275     9337     9263     9147     9162     9262 
    9302     9273     9211     9162     9247     9387     9294     9111 
    9166     9275     9261     9261     9297     9283     9221     9182 
    9209     9269     9306     9283     9209     9205     9306     9319 
    9243     9248     9262     9258     9283     9281     9285     9323 
    9321     9275     9266     9316     9350     9336     9301     9285 
    9325     9379     9390     9360     9321     9302     9342     9397 
    9390     9352     9336     9363     9412     9397     9342     9346 
    9381     9383     9371     9394     9427     9381     9310     9351 
    9441     9432     9356     9350     9387     9393     9427     9467 
    9350     9290     9470     9441     9278     9429     9494     9358 
    9402     9421     9352     9389     9402     9387     9401     9404 
    9440     9402     9304     9386     9444     9346     9396     9433 
    9300     9333     9421     9348     9342     9385     9355     9339 
    9309     9259     9294     9394     9386     9231     9204     9329 
    9324     9246     9234     9238     9240     9243     9270     9261 
    9202     9196     9177     9148     9225     9297     9190     9053 
    9162     9340     9198     9015     9151     9236     9140     9190 
    9200     9088     9146     9207     9163     9190     9177     9107 
    9109     9162     9234     9209     9088     9115     9204     9180 
    9194     9185     9069     9105     9228     9192     9177     9228 
    9109     8985     9143     9362     9271     9054     9092     9170 
    9104     9207     9297     9104     9054     9220     9279     9221 
    9163     9175     9154     9120     9279     9423     9282     9126 
    9207     9304     9283     9275     9274     9294     9364     9377 
    9327     9265     9282     9405     9420     9323     9335     9420 
    9448     9408     9320     9319     9412     9443     9440     9423 
    9370     9386     9409     9355     9332     9398     9428     9364 
    9351     9382     9386     9344     9181     9213     9516     9471 
    9212     9227     9256     9227     9313     9348     9269     9207 
    9177     9229     9337     9285     9167     9174     9201     9254 
    9254     9132     9182     9313     9204     9066     9151     9267 
    9254     9224     9250     9213     9046     9065     9375     9428 
    9209     9163     9188     9200     9317     9412     9275     9074 
    9262     9572     9396     9109     9181     9351     9370     9332 
    9413     9416     9198     9205     9441     9441     9327     9346 
    9306     9274     9468     9548     9328     9128     9167     9482 
    9616     9374     9327     9319     9121     9265     9537     9431 
    9217     9211     9355     9420     9224     9096     9382     9514 
    9158     9059     9327     9381     9288     9153     9072     9265 
    9329     9165     9190     9255     9220     9159     8989     9070 
    9497     9427     8905     8927     9278     9275     9188     9192 
    9143     9094     9070     9180     9335     9255     9054     9007 
    9120     9213     9221     9196     9127     9109     9147     9134 
    9146     9205     9181     9046     8969     9170     9423     9285 
    8981     8951     9096     9236     9312     9240     9136     9103 
    9108     9181     9254     9248     9193     9111     9161     9328 
    9282     9121     9153     9231     9263     9308     9288     9246 
    9235     9224     9254     9283     9296     9327     9327     9343 
    9373     9296     9209     9262     9377     9433     9429     9377 
    9305     9301     9347     9350     9352     9409     9432     9390 
    9369     9336     9296     9371     9443     9391     9347     9323 
    9356     9409     9343     9317     9348     9321     9360     9397 
    9312     9293     9346     9313     9321     9374     9351     9333 
    9306     9289     9337     9336     9346     9393     9348     9292 
    9302     9312     9355     9404     9348     9282     9301     9348 
    9377     9350     9279     9266     9302     9340     9378     9342 
    9239     9219     9281     9329     9331     9275     9236     9271 
    9305     9292     9238     9184     9217     9296     9316     9286 
    9209     9139     9182     9259     9278     9270     9228     9186 
    9194     9216     9232     9235     9205     9188     9202     9211 
    9212     9215     9205     9190     9180     9184     9194     9192 
    9188     9190     9189     9196     9193     9162     9148     9171 
    9194     9215     9239     9216     9154     9135     9165     9196 
    9216     9221     9209     9193     9175     9155     9169     9228 
    9243     9198     9177     9184     9184     9178     9185     9216 
    9231     9209     9190     9188     9184     9185     9200     9228 
    9235     9201     9190     9209     9211     9209     9215     9235 
    9256     9252     9232     9224     9238     9256     9271     9277 
    9270     9267     9285     9298     9301     9293     9286     9294 
    9308     9323     9339     9329     9313     9328     9347     9347 
    9354     9366     9352     9343     9355     9364     9375     9369 
    9343     9350     9381     9378     9359     9358     9370     9363 
    9332     9340     9378     9366     9362     9359     9285     9300 
    9417     9386     9278     9328     9393     9306     9270     9375 
    9398     9320     9332     9358     9328     9332     9312     9294 
    9385     9406     9302     9306     9389     9348     9270     9308 
    9375     9367     9348     9344     9315     9304     9324     9328 
    9332     9336     9331     9335     9329     9312     9310     9305 
    9294     9313     9336     9313     9279     9282     9294     9285 
    9278     9294     9290     9251     9239     9266     9275     9262 
    9254     9254     9243     9228     9235     9252     9251     9243 
    9252     9262     9243     9211     9217     9254     9261     9236 
    9235     9247     9238     9221     9228     9246     9238     9220 
    9235     9252     9236     9229     9235     9232     9232     9229 
    9227     9235     9248     9252     9229     9219     9242     9251 
    9240     9242     9256     9262     9244     9246     9269     9256 
    9238     9255     9277     9279     9266     9262     9285     9296 
    9275     9269     9292     9302     9289     9293     9304     9293 
    9290     9304     9310     9308     9300     9301     9315     9315 
    9312     9317     9319     9320     9325     9324     9319     9323 
    9335     9339     9333     9329     9332     9335     9333     9335 
    9337     9335     9333     9335     9333     9329     9325     9325 
    9325     9321     9317     9317     9320     9317     9305     9308 
    9315     9309     9306     9313     9313     9308     9308     9312 
    9308     9308     9315     9315     9315     9315     9312     9313 
    9316     9316     9319     9321     9321     9321     9317     9317 
    9320     9317     9312     9310     9310     9306     9305     9306 
    9304     9301     9301     9298     9297     9300     9302     9304 
    9305     9304     9301     9302     9312     9317     9315     9316 
    9319     9319     9320     9321     9321     9325     9331     9329 
    9332     9332     9331     9332     9332     9333     9336     9336 
    9337     9340     9340     9336     9336     9342     9342     9339 
    9342     9344     9342     9339     9339     9333     9329     9332 
    9335     9331     9327     9323     9320     9317     9313     9310 
    9308     9306     9302     9298     9298     9298     9292     9289 
    9296     9296     9293     9300     9300     9294     9298     9304 
    9302     9309     9315     9313     9312     9313     9312     9313 
    9316     9316     9316     9316     9313     9310     9305     9304 
    9305     9302     9298     9300     9302     9297     9289     9292 
    9298     9296     9292     9297     9301     9297     9294     9297 
    9300     9305     9308     9306     9309     9312     9308     9306 
    9316     9319     9312     9310     9312     9313     9315     9312 
    9309     9313     9312     9306     9305     9305     9304     9305 
    9306     9305     9302     9302     9306     9308     9308     9308 
    9305     9305     9306     9312     9316     9316     9315     9319 
    9323     9324     9324     9327     9325     9327     9328     9328 
    9325     9319     9315     9315     9312     9308     9304     9297 
    9290     9286     9285     9283     9279     9274     9269     9266 
    9267     9266     9262     9263     9265     9266     9267     9270 
    9273     9273     9277     9283     9288     9289     9293     9300 
    9302     9306     9313     9316     9320     9329     9336     9336 
