Origin Time       2025/01/13 21:19:00
Lat.              31.8
Long.             131.6
Depth. (km)       30
Mag.              6.9
Station Code      HYGH12
Station Lat.      34.9313
Station Long.     134.5423
Station Height(m) -30
Record Time       2025/01/13 21:21:36
Sampling Freq(Hz) 100Hz
Duration Time(s)  120
Dir.              1
Scale Factor      3923(gal)/8224838
Max. Acc. (gal)   0.362
Last Correction   2025/01/13 21:21:37
Memo.             
[...]
  -20950   -20954   -20961   -20970   -20976   -20989   -21000   -21001 
  -21006   -21010   -21007   -21000   -20995   -20992   -20987   -20983 
  -20984   -20987   -20995   -21006   -21010   -21015   -21030   -21041 
  -21049   -21061   -21072   -21076   -21081   -21096   -21111   -21123 
  -21134   -21145   -21151   -21158   -21162   -21165   -21174   -21181 
  -21177   -21173   -21166   -21153   -21145   -21135   -21124   -21119 
  -21112   -21096   -21082   -21078   -21080   -21077   -21078   -21081 
  -21081   -21080   -21076   -21064   -21053   -21047   -21038   -21023 
  -21010   -20995   -20980   -20966   -20954   -20945   -20946   -20949 
  -20945   -20943   -20939   -20923   -20907   -20902   -20893   -20885 
  -20877   -20868   -20857   -20853   -20850   -20844   -20842   -20849 
  -20850   -20848   -20848   -20849   -20858   -20872   -20877   -20876 
  -20876   -20872   -20866   -20868   -20864   -20860   -20858   -20854 
  -20849   -20835   -20819   -20807   -20794   -20783   -20781   -20783 
  -20781   -20781   -20783   -20783   -20779   -20776   -20776   -20776 
  -20773   -20767   -20761   -20757   -20753   -20749   -20750   -20753 
  -20752   -20752   -20753   -20753   -20757   -20765   -20775   -20785 
  -20796   -20806   -20821   -20838   -20854   -20876   -20900   -20919 
  -20937   -20961   -20980   -20989   -20996   -20996   -20991   -20985 
  -20977   -20966   -20957   -20946   -20933   -20934   -20947   -20961 
  -20977   -20992   -21003   -21018   -21027   -21033   -21042   -21051 
  -21060   -21066   -21072   -21074   -21077   -21084   -21088   -21087 
  -21089   -21093   -21095   -21096   -21100   -21104   -21105   -21109 
  -21114   -21112   -21105   -21099   -21091   -21082   -21072   -21060 
  -21049   -21037   -21027   -21027   -21026   -21023   -21020   -21015 
  -21007   -21004   -21003   -20997   -20993   -20989   -20980   -20972 
  -20966   -20960   -20958   -20953   -20946   -20943   -20943   -20939 
  -20937   -20938   -20942   -20947   -20950   -20949   -20952   -20954 
  -20956   -20957   -20957   -20956   -20953   -20945   -20937   -20933 
  -20929   -20923   -20915   -20902   -20892   -20884   -20872   -20866 
  -20866   -20864   -20861   -20860   -20857   -20857   -20853   -20842 
  -20841   -20846   -20845   -20841   -20838   -20833   -20834   -20837 
  -20841   -20846   -20853   -20861   -20875   -20889   -20900   -20908 
  -20912   -20919   -20926   -20926   -20931   -20939   -20942   -20942 
  -20947   -20954   -20960   -20970   -20981   -20989   -21000   -21010 
  -21015   -21019   -21026   -21033   -21042   -21053   -21060   -21057 
  -21055   -21055   -21049   -21043   -21039   -21031   -21019   -21011 
  -21004   -20992   -20983   -20974   -20964   -20949   -20933   -20914 
  -20898   -20885   -20868   -20852   -20842   -20834   -20823   -20818 
  -20814   -20807   -20806   -20804   -20799   -20799   -20804   -20810 
  -20818   -20830   -20842   -20856   -20865   -20876   -20885   -20889 
  -20892   -20893   -20892   -20892   -20891   -20887   -20883   -20884 
  -20888   -20891   -20895   -20903   -20911   -20916   -20923   -20930 
  -20930   -20931   -20937   -20943   -20942   -20941   -20938   -20934 
  -20934   -20934   -20934   -20934   -20927   -20923   -20926   -20918 
  -20916   -20929   -20933   -20930   -20937   -20949   -20960   -20970 
  -20985   -21007   -21026   -21046   -21066   -21082   -21095   -21112 
  -21128   -21145   -21162   -21176   -21188   -21203   -21217   -21234 
  -21251   -21269   -21292   -21315   -21324   -21325   -21328   -21323 
  -21315   -21305   -21294   -21282   -21265   -21246   -21234   -21219 
  -21197   -21184   -21178   -21169   -21159   -21150   -21142   -21134 
  -21123   -21109   -21100   -21092   -21082   -21068   -21054   -21045 
  -21035   -21019   -21001   -20985   -20973   -20961   -20949   -20938 
  -20933   -20923   -20912   -20906   -20899   -20892   -20888   -20873 
  -20860   -20852   -20833   -20814   -20803   -20795   -20791   -20787 
  -20783   -20775   -20767   -20761   -20752   -20742   -20737   -20731 
  -20727   -20731   -20736   -20741   -20754   -20768   -20779   -20794 
  -20806   -20815   -20831   -20844   -20854   -20869   -20883   -20892 
  -20903   -20914   -20922   -20933   -20946   -20950   -20954   -20966 
  -20973   -20973   -20980   -20988   -20984   -20976   -20973   -20974 
  -20977   -20977   -20976   -20973   -20970   -20969   -20972   -20972 
  -20968   -20962   -20958   -20949   -20935   -20926   -20919   -20911 
  -20906   -20900   -20898   -20902   -20904   -20907   -20911   -20912 
  -20914   -20915   -20925   -20934   -20941   -20953   -20968   -20976 
  -20983   -20992   -20999   -20997   -20991   -20987   -20984   -20977 
  -20972   -20972   -20969   -20962   -20956   -20950   -20939   -20929 
  -20920   -20914   -20904   -20895   -20887   -20877   -20871   -20864 
  -20854   -20846   -20837   -20818   -20802   -20791   -20773   -20752 
  -20733   -20709   -20683   -20665   -20648   -20626   -20609   -20591 
  -20574   -20563   -20551   -20541   -20542   -20542   -20537   -20542 
  -20557   -20572   -20595   -20618   -20638   -20664   -20694   -20719 
  -20746   -20772   -20792   -20807   -20821   -20829   -20833   -20838 
  -20844   -20841   -20833   -20825   -20814   -20804   -20796   -20785 
  -20775   -20765   -20754   -20737   -20719   -20706   -20691   -20677 
  -20669   -20665   -20660   -20657   -20661   -20668   -20680   -20699 
  -20717   -20736   -20763   -20788   -20811   -20833   -20852   -20873 
  -20898   -20915   -20933   -20952   -20977   -21007   -21030   -21054 
  -21087   -21120   -21155   -21193   -21230   -21269   -21305   -21336 
  -21369   -21401   -21432   -21460   -21487   -21508   -21519   -21524 
  -21525   -21519   -21505   -21489   -21471   -21450   -21424   -21394 
  -21358   -21321   -21285   -21243   -21203   -21161   -21115   -21073 
  -21034   -20989   -20950   -20919   -20888   -20857   -20831   -20803 
  -20776   -20754   -20738   -20719   -20699   -20679   -20661   -20646 
  -20632   -20621   -20613   -20606   -20598   -20586   -20576   -20565 
  -20551   -20541   -20538   -20532   -20525   -20522   -20518   -20518 
  -20521   -20525   -20533   -20542   -20553   -20560   -20565   -20575 
  -20586   -20594   -20603   -20617   -20637   -20660   -20683   -20710 
  -20738   -20765   -20787   -20804   -20825   -20848   -20871   -20888 
  -20902   -20912   -20916   -20918   -20920   -20910   -20892   -20876 
  -20858   -20834   -20808   -20781   -20750   -20714   -20680   -20655 
  -20628   -20596   -20568   -20544   -20525   -20509   -20495   -20488 
  -20487   -20488   -20494   -20503   -20514   -20526   -20541   -20556 
  -20568   -20584   -20603   -20621   -20642   -20672   -20702   -20734 
  -20771   -20804   -20833   -20857   -20876   -20889   -20903   -20912 
  -20919   -20925   -20929   -20930   -20931   -20933   -20941   -20950 
  -20953   -20952   -20952   -20947   -20939   -20930   -20926   -20926 
  -20927   -20929   -20929   -20926   -20927   -20931   -20937   -20949 
  -20961   -20970   -20987   -21001   -21012   -21024   -21043   -21060 
  -21072   -21087   -21100   -21101   -21101   -21103   -21100   -21095 
  -21088   -21078   -21070   -21064   -21050   -21034   -21019   -20999 
  -20972   -20947   -20929   -20906   -20884   -20865   -20845   -20825 
  -20807   -20794   -20780   -20768   -20758   -20750   -20741   -20733 
  -20730   -20730   -20726   -20722   -20723   -20722   -20722   -20729 
  -20737   -20744   -20756   -20768   -20781   -20806   -20831   -20856 
  -20884   -20911   -20930   -20945   -20964   -20980   -20993   -21007 
  -21026   -21041   -21050   -21058   -21068   -21077   -21080   -21082 
  -21091   -21096   -21096   -21091   -21091   -21099   -21101   -21100 
  -21104   -21108   -21112   -21119   -21128   -21134   -21131   -21128 
  -21134   -21134   -21131   -21138   -21142   -21141   -21151   -21161 
  -21162   -21169   -21174   -21181   -21193   -21205   -21217   -21232 
  -21238   -21239   -21242   -21242   -21239   -21238   -21234   -21228 
  -21217   -21209   -21207   -21204   -21195   -21185   -21173   -21154 
  -21131   -21109   -21082   -21055   -21026   -20988   -20956   -20931 
  -20906   -20877   -20860   -20846   -20833   -20823   -20817   -20810 
  -20807   -20810   -20817   -20825   -20839   -20853   -20864   -20877 
  -20892   -20902   -20916   -20933   -20946   -20962   -20980   -20999 
  -21015   -21030   -21050   -21074   -21099   -21127   -21151   -21168 
  -21186   -21205   -21217   -21231   -21244   -21254   -21261   -21265 
  -21270   -21278   -21285   -21289   -21293   -21294   -21294   -21294 
  -21294   -21296   -21296   -21293   -21289   -21286   -21284   -21281 
  -21278   -21274   -21274   -21276   -21281   -21292   -21309   -21328 
  -21344   -21369   -21392   -21405   -21419   -21436   -21448   -21455 
  -21462   -21462   -21451   -21439   -21424   -21401   -21369   -21338 
  -21305   -21265   -21223   -21186   -21151   -21114   -21073   -21043 
  -21014   -20983   -20954   -20926   -20898   -20871   -20844   -20818 
  -20794   -20775   -20757   -20738   -20723   -20711   -20696   -20679 
  -20663   -20652   -20640   -20622   -20602   -20580   -20561   -20541 
  -20522   -20505   -20486   -20463   -20445   -20429   -20409   -20391 
  -20380   -20367   -20355   -20352   -20349   -20348   -20356   -20367 
  -20375   -20394   -20416   -20437   -20463   -20487   -20507   -20529 
  -20542   -20557   -20576   -20592   -20609   -20632   -20652   -20672 
  -20695   -20715   -20738   -20765   -20788   -20808   -20827   -20842 
  -20850   -20856   -20860   -20856   -20846   -20842   -20834   -20821 
  -20803   -20787   -20772   -20756   -20738   -20722   -20707   -20694 
  -20672   -20652   -20641   -20632   -20621   -20615   -20617   -20619 
  -20621   -20623   -20629   -20634   -20640   -20644   -20649   -20653 
  -20656   -20657   -20663   -20667   -20667   -20671   -20679   -20686 
  -20696   -20713   -20737   -20761   -20783   -20808   -20841   -20872 
  -20900   -20934   -20972   -21007   -21041   -21074   -21103   -21126 
  -21151   -21173   -21189   -21205   -21219   -21228   -21235   -21242 
  -21247   -21249   -21250   -21251   -21250   -21240   -21226   -21209 
  -21193   -21173   -21149   -21127   -21104   -21084   -21066   -21046 
  -21024   -21006   -20991   -20979   -20966   -20956   -20954   -20958 
  -20960   -20961   -20970   -20980   -20983   -20992   -21001   -21008 
  -21019   -21030   -21035   -21043   -21046   -21046   -21051   -21054 
  -21051   -21046   -21041   -21034   -21026   -21020   -21015   -21007 
  -21000   -20987   -20970   -20964   -20956   -20941   -20927   -20915 
  -20896   -20877   -20858   -20842   -20827   -20812   -20804   -20800 
  -20798   -20800   -20804   -20808   -20822   -20834   -20846   -20866 
  -20885   -20900   -20919   -20942   -20962   -20981   -21001   -21024 
  -21043   -21062   -21080   -21092   -21105   -21126   -21142   -21159 
  -21178   -21196   -21211   -21226   -21240   -21250   -21258   -21261 
  -21258   -21253   -21242   -21224   -21204   -21181   -21155   -21122 
  -21088   -21058   -21024   -20995   -20976   -20960   -20942   -20929 
  -20922   -20919   -20916   -20915   -20919   -20927   -20937   -20952 
  -20968   -20983   -21000   -21016   -21035   -21057   -21073   -21091 
  -21112   -21127   -21142   -21154   -21163   -21174   -21185   -21192 
  -21197   -21199   -21192   -21180   -21172   -21163   -21150   -21132 
  -21111   -21095   -21082   -21070   -21055   -21041   -21027   -21015 
  -21004   -20995   -20988   -20980   -20970   -20961   -20950   -20943 
  -20935   -20925   -20920   -20918   -20916   -20920   -20927   -20929 
  -20931   -20934   -20933   -20934   -20937   -20938   -20942   -20950 
  -20960   -20966   -20977   -20996   -21012   -21030   -21047   -21062 
  -21081   -21101   -21118   -21136   -21153   -21159   -21168   -21178 
  -21185   -21188   -21185   -21180   -21181   -21178   -21166   -21154 
  -21139   -21116   -21099   -21085   -21066   -21049   -21031   -21011 
  -20991   -20979   -20965   -20945   -20927   -20915   -20896   -20871 
  -20848   -20826   -20798   -20769   -20741   -20711   -20682   -20660 
  -20642   -20625   -20607   -20591   -20576   -20567   -20563   -20561 
  -20561   -20564   -20567   -20572   -20583   -20590   -20596   -20610 
  -20626   -20642   -20660   -20677   -20696   -20713   -20726   -20742 
  -20764   -20784   -20799   -20817   -20839   -20862   -20885   -20907 
  -20931   -20960   -20985   -21010   -21038   -21065   -21092   -21116 
  -21132   -21143   -21151   -21154   -21150   -21142   -21130   -21114 
  -21092   -21064   -21027   -20988   -20950   -20911   -20869   -20827 
  -20785   -20737   -20691   -20645   -20595   -20551   -20511   -20470 
  -20426   -20391   -20356   -20321   -20293   -20272   -20259   -20252 
  -20248   -20248   -20255   -20262   -20272   -20291   -20316   -20343 
  -20375   -20409   -20439   -20471   -20506   -20536   -20564   -20594 
  -20621   -20652   -20687   -20718   -20744   -20769   -20796   -20821 
  -20844   -20869   -20887   -20899   -20910   -20920   -20934   -20945 
  -20953   -20965   -20974   -20984   -20997   -21015   -21038   -21061 
  -21080   -21107   -21138   -21166   -21199   -21234   -21266   -21304 
  -21346   -21384   -21420   -21459   -21493   -21521   -21548   -21573 
  -21594   -21610   -21622   -21635   -21644   -21651   -21656   -21660 
  -21667   -21672   -21675   -21676   -21681   -21686   -21690   -21695 
  -21701   -21699   -21699   -21697   -21690   -21683   -21682   -21675 
  -21658   -21641   -21627   -21609   -21587   -21564   -21543   -21525 
  -21510   -21497   -21483   -21475   -21473   -21470   -21466   -21466 
  -21466   -21460   -21452   -21446   -21438   -21432   -21421   -21408 
  -21394   -21381   -21367   -21351   -21334   -21317   -21296   -21269 
  -21247   -21217   -21181   -21154   -21123   -21084   -21055   -21033 
  -21007   -20987   -20964   -20939   -20920   -20903   -20883   -20857 
  -20830   -20800   -20771   -20742   -20711   -20680   -20655   -20630 
  -20605   -20583   -20561   -20540   -20525   -20513   -20502   -20494 
  -20487   -20480   -20474   -20466   -20456   -20448   -20439   -20424 
  -20413   -20403   -20395   -20390   -20389   -20390   -20387   -20386 
  -20390   -20395   -20399   -20406   -20421   -20439   -20453   -20474 
  -20497   -20513   -20534   -20560   -20572   -20586   -20606   -20621 
  -20636   -20657   -20677   -20698   -20719   -20737   -20753   -20767 
  -20777   -20794   -20808   -20826   -20848   -20861   -20872   -20893 
  -20914   -20927   -20946   -20966   -20985   -21003   -21020   -21035 
  -21049   -21061   -21074   -21089   -21097   -21100   -21105   -21109 
  -21107   -21101   -21097   -21088   -21077   -21072   -21061   -21046 
  -21031   -21018   -21007   -20997   -20992   -20984   -20970   -20961 
  -20952   -20939   -20927   -20914   -20899   -20887   -20872   -20858 
  -20849   -20837   -20826   -20812   -20795   -20773   -20749   -20725 
  -20700   -20676   -20653   -20628   -20602   -20583   -20563   -20540 
  -20525   -20511   -20502   -20497   -20491   -20484   -20486   -20490 
  -20494   -20503   -20518   -20533   -20551   -20572   -20594   -20614 
  -20637   -20659   -20680   -20702   -20717   -20736   -20754   -20772 
  -20794   -20812   -20830   -20853   -20869   -20883   -20902   -20914 
  -20922   -20935   -20945   -20952   -20962   -20966   -20968   -20970 
  -20970   -20972   -20970   -20965   -20962   -20957   -20943   -20930 
  -20920   -20910   -20899   -20887   -20875   -20869   -20868   -20860 
  -20849   -20842   -20835   -20826   -20821   -20819   -20814   -20807 
  -20804   -20806   -20804   -20798   -20794   -20794   -20788   -20787 
  -20791   -20791   -20790   -20791   -20796   -20803   -20808   -20817 
  -20826   -20834   -20850   -20868   -20885   -20911   -20943   -20974 
  -21003   -21038   -21080   -21118   -21154   -21195   -21235   -21274 
  -21312   -21348   -21382   -21411   -21436   -21462   -21483   -21505 
  -21525   -21540   -21551   -21566   -21578   -21590   -21604   -21609 
  -21614   -21627   -21633   -21637   -21643   -21643   -21640   -21639 
  -21635   -21624   -21616   -21608   -21593   -21573   -21552   -21529 
  -21500   -21469   -21436   -21398   -21355   -21307   -21263   -21223 
  -21178   -21135   -21100   -21068   -21034   -21006   -20983   -20958 
  -20937   -20929   -20916   -20900   -20893   -20889   -20880   -20877 
  -20875   -20864   -20858   -20853   -20844   -20839   -20839   -20839 
  -20839   -20842   -20849   -20862   -20873   -20887   -20903   -20916 
  -20933   -20954   -20970   -20981   -20996   -21010   -21020   -21030 
  -21033   -21033   -21037   -21039   -21038   -21035   -21033   -21030 
  -21028   -21027   -21023   -21019   -21015   -21012   -21011   -21006 
  -20999   -20997   -20995   -20993   -20995   -20997   -21004   -21006 
  -21007   -21011   -21012   -21007   -21006   -21004   -20999   -20993 
  -20985   -20977   -20969   -20958   -20953   -20953   -20947   -20945 
  -20947   -20946   -20943   -20946   -20953   -20961   -20968   -20974 
  -20979   -20979   -20980   -20984   -20988   -20988   -20988   -20987 
  -20983   -20979   -20970   -20962   -20956   -20946   -20929   -20911 
  -20898   -20879   -20849   -20823   -20800   -20771   -20742   -20721 
  -20699   -20673   -20652   -20630   -20605   -20586   -20572   -20555 
  -20538   -20528   -20514   -20495   -20480   -20476   -20471   -20460 
  -20452   -20449   -20449   -20453   -20464   -20476   -20486   -20498 
  -20511   -20532   -20556   -20578   -20603   -20640   -20673   -20702 
  -20736   -20768   -20799   -20834   -20865   -20891   -20920   -20950 
  -20969   -20983   -20996   -21007   -21012   -21015   -21012   -21008 
  -21007   -20997   -20985   -20980   -20972   -20961   -20953   -20947 
  -20946   -20945   -20943   -20949   -20954   -20958   -20970   -20979 
  -20987   -21001   -21014   -21026   -21046   -21065   -21080   -21100 
  -21124   -21146   -21162   -21182   -21208   -21232   -21259   -21286 
  -21308   -21334   -21357   -21375   -21398   -21419   -21435   -21454 
  -21469   -21482   -21498   -21514   -21527   -21539   -21550   -21556 
  -21558   -21560   -21563   -21556   -21548   -21541   -21528   -21516 
  -21508   -21490   -21467   -21448   -21429   -21408   -21384   -21361 
  -21340   -21315   -21282   -21254   -21228   -21201   -21174   -21145 
  -21114   -21085   -21053   -21019   -20989   -20957   -20920   -20887 
  -20856   -20822   -20791   -20760   -20727   -20698   -20669   -20644 
  -20621   -20599   -20582   -20567   -20552   -20541   -20532   -20525 
  -20525   -20528   -20529   -20533   -20542   -20557   -20575   -20592 
  -20611   -20634   -20656   -20680   -20709   -20736   -20763   -20790 
  -20817   -20846   -20875   -20899   -20918   -20937   -20958   -20974 
  -20988   -21006   -21022   -21034   -21045   -21054   -21065   -21076 
  -21088   -21092   -21099   -21103   -21101   -21103   -21104   -21101 
  -21097   -21096   -21095   -21092   -21087   -21084   -21084   -21081 
  -21080   -21082   -21085   -21082   -21081   -21084   -21085   -21082 
  -21080   -21073   -21065   -21062   -21057   -21050   -21043   -21034 
  -21023   -21014   -21007   -21001   -20997   -20996   -20992   -20989 
  -20996   -21001   -21000   -21007   -21020   -21030   -21038   -21051 
