Origin Time       2025/01/13 21:19:00
Lat.              31.8
Long.             131.6
Depth. (km)       30
Mag.              6.9
Station Code      HYGH09
Station Lat.      34.9082
Station Long.     135.0844
Station Height(m) 140
Record Time       2025/01/13 21:21:51
Sampling Freq(Hz) 100Hz
Duration Time(s)  120
Dir.              5
Scale Factor      7845(gal)/8223790
Max. Acc. (gal)   0.384
Last Correction   2025/01/13 21:21:51
Memo.             
[...]
    2901     2922     2943     2968     2991     3007     3013     3015 
    3017     3017     3009     3003     3002     2999     2997     2998 
    2998     2998     2997     2997     3001     3001     3003     3005 
    3005     3010     3019     3028     3034     3044     3059     3069 
    3079     3091     3103     3111     3118     3122     3119     3113 
    3102     3088     3071     3051     3030     3013     2999     2988 
    2978     2970     2963     2960     2957     2953     2952     2957 
    2961     2967     2975     2984     2994     2998     2999     2998 
    2995     2992     2987     2978     2970     2965     2961     2957 
    2957     2961     2965     2971     2979     2986     2988     2991 
    2997     3003     3009     3013     3017     3024     3029     3032 
    3029     3025     3021     3017     3013     3006     3003     3001 
    2998     2998     2999     3003     3007     3015     3030     3045 
    3059     3071     3083     3091     3096     3103     3106     3107 
    3109     3110     3106     3103     3102     3091     3078     3063 
    3041     3015     2991     2965     2941     2921     2903     2895 
    2893     2894     2902     2913     2926     2941     2959     2972 
    2982     2988     2992     2991     2991     2992     2995     2998 
    2998     2999     2999     2999     3003     3009     3013     3019 
    3030     3038     3045     3049     3053     3057     3059     3061 
    3067     3068     3064     3060     3051     3036     3019     3005 
    2987     2967     2952     2944     2937     2928     2925     2928 
    2926     2921     2918     2913     2903     2894     2886     2875 
    2872     2870     2868     2874     2880     2887     2895     2903 
    2913     2921     2924     2926     2930     2930     2934     2940 
    2945     2956     2974     2988     3001     3010     3018     3022 
    3021     3019     3015     3010     3006     3001     2994     2991 
    2991     2994     2997     3001     3006     3009     3010     3007 
    3005     3001     2995     2991     2987     2979     2970     2960 
    2949     2940     2932     2925     2922     2924     2921     2920 
    2924     2925     2928     2926     2918     2910     2901     2891 
    2882     2871     2857     2847     2839     2832     2826     2826 
    2826     2832     2839     2844     2848     2855     2860     2863 
    2866     2866     2867     2870     2872     2876     2880     2889 
    2901     2910     2922     2937     2949     2961     2982     3006 
    3024     3038     3053     3067     3079     3088     3095     3106 
    3119     3130     3141     3150     3159     3157     3150     3144 
    3137     3125     3113     3102     3094     3088     3086     3087 
    3088     3083     3076     3068     3052     3034     3017     2995 
    2974     2953     2934     2918     2909     2903     2903     2910 
    2922     2937     2957     2979     2999     3018     3036     3051 
    3057     3063     3065     3063     3057     3051     3042     3033 
    3026     3025     3025     3029     3037     3044     3051     3057 
    3061     3060     3055     3048     3040     3028     3014     2999 
    2987     2978     2972     2975     2983     2990     2997     3001 
    3002     3001     2995     2987     2976     2960     2940     2921 
    2905     2889     2875     2867     2863     2863     2863     2862 
    2860     2862     2866     2866     2870     2879     2890     2901 
    2907     2914     2925     2933     2943     2956     2967     2980 
    2994     3006     3025     3040     3055     3075     3095     3110 
    3125     3134     3140     3145     3148     3149     3148     3137 
    3126     3117     3102     3083     3068     3057     3046     3041 
    3042     3052     3067     3084     3105     3126     3145     3163 
    3176     3180     3176     3165     3149     3127     3109     3090 
    3069     3049     3032     3019     3013     3007     3003     3001 
    2999     2999     2998     2997     2994     2988     2984     2983 
    2974     2960     2948     2933     2914     2899     2890     2883 
    2883     2887     2897     2907     2917     2925     2930     2928 
    2922     2914     2901     2886     2870     2853     2841     2837 
    2836     2837     2847     2866     2883     2898     2911     2924 
    2930     2930     2929     2928     2921     2916     2916     2916 
    2917     2920     2924     2929     2930     2932     2933     2932 
    2930     2930     2930     2933     2937     2943     2952     2959 
    2965     2972     2975     2979     2983     2983     2983     2990 
    2998     3005     3014     3025     3034     3048     3059     3069 
    3076     3084     3091     3095     3098     3103     3105     3106 
    3109     3114     3117     3117     3113     3111     3113     3111 
    3111     3114     3114     3114     3115     3122     3134     3146 
    3160     3179     3198     3215     3227     3231     3231     3225 
    3206     3180     3156     3130     3105     3082     3065     3053 
    3052     3059     3065     3076     3091     3102     3113     3118 
    3117     3111     3102     3092     3084     3079     3082     3087 
    3094     3106     3115     3122     3127     3132     3133     3130 
    3127     3126     3123     3122     3122     3127     3133     3136 
    3140     3145     3144     3140     3130     3118     3107     3092 
    3073     3059     3044     3025     3011     3001     2990     2979 
    2965     2952     2940     2925     2909     2897     2884     2868 
    2856     2852     2851     2851     2856     2864     2874     2887 
    2903     2917     2928     2936     2940     2941     2941     2941 
    2934     2925     2922     2922     2920     2918     2921     2924 
    2926     2933     2943     2951     2960     2971     2980     2986 
    2991     2994     2997     3001     3010     3019     3028     3037 
    3046     3052     3057     3061     3063     3061     3059     3057 
    3056     3052     3049     3049     3046     3041     3037     3033 
    3022     3011     2999     2987     2975     2960     2947     2936 
    2925     2917     2911     2907     2903     2899     2895     2889 
    2882     2878     2876     2878     2879     2880     2887     2897 
    2902     2906     2911     2911     2910     2906     2899     2894 
    2890     2889     2890     2891     2894     2902     2910     2922 
    2938     2957     2976     2995     3014     3029     3041     3052 
    3057     3061     3067     3071     3073     3078     3083     3087 
    3090     3092     3092     3094     3099     3100     3099     3098 
    3095     3092     3086     3076     3065     3051     3033     3018 
    3003     2983     2965     2953     2940     2929     2922     2920 
    2920     2925     2937     2952     2968     2983     2994     3002 
    3007     3007     3003     2997     2988     2983     2980     2979 
    2979     2984     2991     2995     3001     3003     2999     2990 
    2975     2956     2937     2917     2898     2882     2872     2863 
    2853     2847     2844     2843     2837     2830     2828     2826 
    2822     2821     2824     2825     2829     2839     2849     2863 
    2883     2902     2918     2934     2951     2968     2984     2999 
    3013     3026     3040     3049     3061     3072     3079     3079 
    3080     3084     3087     3090     3098     3106     3117     3132 
    3146     3163     3177     3190     3200     3210     3215     3222 
    3226     3222     3221     3218     3211     3202     3195     3187 
    3177     3169     3159     3146     3133     3115     3094     3073 
    3052     3024     2998     2972     2948     2926     2909     2893 
    2880     2872     2867     2866     2868     2872     2876     2883 
    2894     2905     2917     2930     2944     2957     2972     2986 
    2998     3005     3007     3007     3006     2999     2990     2978 
    2968     2961     2953     2947     2944     2943     2943     2944 
    2947     2952     2960     2971     2983     2995     3006     3014 
    3022     3033     3041     3048     3057     3069     3078     3084 
    3092     3092     3088     3084     3078     3069     3061     3053 
    3046     3038     3028     3015     3005     2998     2995     2994 
    2992     2995     2999     3003     3009     3014     3019     3029 
    3041     3049     3060     3072     3083     3090     3096     3100 
    3100     3098     3094     3090     3084     3079     3079     3083 
    3091     3107     3122     3137     3152     3165     3176     3183 
    3184     3181     3173     3161     3148     3134     3121     3109 
    3100     3098     3094     3086     3079     3069     3056     3037 
    3019     2999     2976     2955     2933     2911     2894     2882 
    2870     2863     2864     2870     2878     2887     2899     2910 
    2920     2926     2934     2941     2941     2943     2941     2936 
    2933     2932     2928     2925     2924     2921     2917     2920 
    2920     2918     2924     2930     2938     2948     2959     2970 
    2980     2990     3001     3013     3019     3028     3040     3055 
    3065     3078     3094     3107     3119     3132     3141     3150 
    3159     3164     3172     3177     3177     3176     3181     3179 
    3168     3157     3145     3132     3113     3091     3067     3040 
    3011     2982     2952     2922     2897     2875     2853     2836 
    2821     2810     2801     2791     2778     2763     2747     2728 
    2709     2690     2671     2655     2639     2623     2612     2610 
    2609     2612     2620     2629     2639     2652     2667     2678 
    2689     2701     2712     2721     2732     2747     2762     2774 
    2787     2802     2817     2829     2844     2860     2872     2887 
    2909     2930     2951     2972     2990     3007     3029     3048 
    3067     3084     3106     3127     3148     3165     3184     3199 
    3208     3217     3225     3229     3227     3223     3213     3200 
    3191     3183     3173     3168     3165     3163     3163     3165 
    3171     3180     3192     3203     3217     3233     3248     3262 
    3276     3285     3291     3295     3299     3298     3291     3280 
    3268     3253     3231     3206     3186     3163     3136     3114 
    3096     3079     3067     3063     3065     3072     3076     3083 
    3095     3106     3114     3121     3126     3132     3136     3134 
    3133     3132     3127     3125     3122     3117     3113     3109 
    3106     3107     3110     3118     3132     3149     3167     3186 
    3203     3219     3233     3242     3248     3253     3260     3268 
    3277     3287     3298     3304     3308     3310     3310     3302 
    3287     3268     3246     3222     3196     3167     3136     3106 
    3078     3046     3014     2983     2956     2930     2907     2886 
    2868     2853     2840     2830     2822     2814     2809     2801 
    2797     2791     2782     2772     2768     2763     2754     2745 
    2739     2735     2732     2732     2736     2743     2756     2774 
    2794     2813     2830     2849     2868     2884     2895     2902 
    2909     2916     2925     2936     2945     2957     2974     2992 
    3014     3032     3046     3061     3073     3080     3087     3095 
    3100     3102     3103     3105     3105     3105     3103     3103 
    3103     3100     3098     3095     3094     3092     3088     3084 
    3083     3080     3073     3068     3064     3061     3060     3057 
    3059     3059     3059     3063     3072     3076     3079     3083 
    3087     3087     3084     3082     3078     3072     3067     3063 
    3060     3056     3055     3056     3057     3059     3065     3073 
    3079     3080     3084     3090     3098     3109     3121     3130 
    3141     3154     3167     3173     3176     3180     3181     3176 
    3171     3167     3161     3154     3150     3149     3146     3144 
    3138     3133     3129     3122     3111     3095     3071     3044 
    3015     2984     2956     2932     2909     2891     2882     2875 
    2872     2874     2876     2879     2886     2889     2884     2880 
    2878     2872     2860     2847     2835     2820     2802     2787 
    2776     2770     2766     2764     2767     2775     2787     2798 
    2809     2822     2835     2847     2853     2860     2871     2878 
    2884     2897     2907     2917     2928     2938     2944     2945 
    2945     2945     2944     2941     2937     2933     2934     2938 
    2943     2948     2959     2970     2982     2999     3015     3033 
    3051     3065     3079     3091     3102     3114     3123     3130 
    3140     3149     3153     3157     3168     3181     3191     3200 
    3208     3214     3218     3221     3221     3219     3215     3211 
    3210     3208     3204     3203     3207     3206     3203     3202 
    3198     3191     3186     3173     3157     3142     3126     3110 
    3095     3082     3071     3063     3060     3060     3060     3063 
    3068     3076     3083     3088     3096     3103     3106     3106 
    3105     3100     3092     3083     3069     3055     3042     3032 
    3019     3009     2995     2982     2974     2963     2948     2934 
    2921     2903     2887     2868     2844     2822     2805     2781 
    2759     2745     2729     2713     2698     2681     2663     2650 
    2635     2621     2613     2606     2606     2612     2623     2637 
    2659     2682     2706     2732     2760     2786     2809     2828 
    2844     2859     2868     2876     2883     2889     2890     2894 
    2902     2910     2917     2928     2941     2955     2970     2984 
    2998     3007     3021     3037     3051     3064     3082     3096 
    3109     3121     3132     3137     3142     3145     3144     3142 
    3140     3136     3130     3123     3115     3107     3100     3094 
    3088     3084     3079     3073     3071     3068     3063     3053 
    3046     3040     3030     3021     3015     3011     3003     2994 
    2988     2984     2978     2971     2967     2965     2965     2968 
    2975     2983     2991     3002     3015     3030     3045     3059 
    3072     3087     3102     3118     3136     3152     3169     3190 
    3208     3227     3245     3262     3279     3288     3295     3299 
    3303     3306     3308     3306     3302     3299     3295     3289 
    3284     3281     3283     3284     3283     3285     3288     3292 
    3296     3295     3291     3291     3288     3284     3280     3279 
    3279     3275     3267     3260     3254     3242     3229     3215 
    3202     3190     3181     3173     3167     3165     3163     3161 
    3163     3168     3173     3177     3181     3186     3184     3176 
    3167     3152     3126     3096     3064     3028     2991     2956 
    2921     2884     2853     2826     2799     2778     2762     2748 
    2740     2735     2729     2729     2735     2740     2749     2763 
    2776     2794     2813     2830     2853     2876     2898     2920 
    2944     2971     2995     3013     3034     3059     3072     3080 
    3087     3088     3083     3080     3078     3072     3064     3061 
    3059     3055     3051     3045     3038     3030     3019     3002 
    2980     2956     2929     2899     2870     2843     2816     2793 
    2771     2752     2740     2731     2727     2731     2740     2752 
    2771     2790     2810     2835     2857     2878     2897     2911 
    2928     2944     2957     2967     2978     2987     2992     2997 
    3001     3002     3003     3006     3009     3013     3015     3014 
    3011     3007     3001     2991     2976     2961     2948     2932 
    2917     2901     2884     2868     2855     2844     2837     2830 
    2830     2836     2847     2862     2883     2903     2925     2948 
    2970     2992     3013     3033     3053     3071     3088     3106 
    3123     3142     3165     3187     3208     3230     3252     3271 
    3287     3299     3310     3315     3316     3318     3318     3319 
    3321     3321     3318     3312     3307     3295     3279     3258 
    3237     3211     3181     3153     3123     3091     3065     3041 
    3018     2995     2975     2960     2951     2945     2941     2938 
    2941     2945     2951     2959     2964     2967     2968     2970 
    2970     2964     2957     2955     2951     2947     2943     2941 
    2941     2943     2940     2937     2937     2934     2933     2933 
    2930     2930     2932     2933     2932     2930     2928     2921 
    2911     2902     2891     2880     2871     2864     2859     2856 
    2851     2845     2847     2848     2848     2851     2852     2852 
    2855     2862     2866     2870     2876     2886     2898     2911 
    2925     2938     2953     2965     2971     2976     2975     2971 
    2968     2965     2957     2951     2949     2945     2943     2943 
    2941     2940     2943     2944     2938     2934     2930     2925 
    2921     2918     2916     2918     2924     2930     2936     2944 
    2955     2964     2978     2991     3003     3015     3028     3037 
    3051     3064     3075     3084     3095     3106     3114     3122 
    3127     3136     3148     3153     3161     3173     3181     3188 
    3195     3202     3208     3214     3217     3219     3219     3218 
    3214     3210     3204     3195     3188     3186     3179     3171 
    3165     3163     3160     3157     3152     3145     3137     3127 
    3119     3113     3102     3094     3088     3082     3075     3068 
    3061     3060     3059     3052     3044     3036     3030     3021 
    3011     3003     2997     2992     2990     2990     2988     2990 
    2992     2995     2997     2997     2998     3002     3005     3003 
    3003     3003     3002     2999     2997     2997     2998     2997 
    3001     3011     3021     3030     3044     3056     3068     3082 
    3090     3096     3102     3106     3109     3107     3106     3105 
    3102     3100     3103     3107     3109     3107     3111     3117 
    3119     3122     3126     3126     3126     3127     3125     3121 
    3117     3110     3102     3096     3092     3086     3082     3078 
    3076     3073     3067     3057     3045     3030     3014     3002 
    2992     2980     2968     2959     2948     2937     2930     2922 
    2916     2910     2903     2897     2889     2886     2883     2878 
    2872     2870     2868     2867     2867     2868     2870     2875 
    2880     2890     2898     2907     2918     2929     2941     2952 
    2964     2972     2982     2994     3009     3022     3041     3064 
    3086     3106     3129     3150     3167     3177     3187     3192 
    3192     3190     3180     3168     3159     3145     3127     3114 
    3102     3091     3079     3064     3049     3037     3028     3021 
    3013     3009     3007     3006     3006     3007     3007     3005 
    3005     3006     3009     3011     3015     3022     3026     3026 
    3029     3029     3026     3019     3011     3006     3002     2995 
    2988     2987     2990     2991     2995     2998     2999     3001 
    3001     3002     2999     2990     2984     2976     2964     2953 
