Origin Time       2025/01/13 21:19:00
Lat.              31.8
Long.             131.6
Depth. (km)       30
Mag.              6.9
Station Code      HYGH04
Station Lat.      35.0708
Station Long.     135.2811
Station Height(m) 217.85
Record Time       2025/01/13 21:21:58
Sampling Freq(Hz) 100Hz
Duration Time(s)  120
Dir.              4
Scale Factor      7845(gal)/8223790
Max. Acc. (gal)   0.197
Last Correction   2025/01/13 21:21:59
Memo.             
[...]
     102      101       90       97       93       76       75       81 
      81       76       75       87       91       85       99      109 
      99      106      108       95       99      102       99      108 
     120      116      118      128      124      121      116      101 
     102      110      108      109      114      124      124      109 
     105      116      108       93       98      112      110      109 
     114      116      117      116      103      102      113      117 
     113      114      124      125      113      116      124      124 
     120      118      120      114      108      108      103       97 
      99       99       98      105      102      103      109       95 
      94       98       86       94      101       86       94       98 
      83       91       99       97      103      106      102      116 
     128      125      121      129      140      136      124      118 
     114      108       87       75       98      105       91      106 
     121      121      126      117      106      108      101       99 
      99       86       93      101       89       87       87       83 
      82       66       58       63       55       52       67       67 
      74       87       90       90       85       89       94       90 
      94       95      106      128      129      122      129      137 
     133      122      129      144      143      141      148      151 
     147      149      155      141      139      149      141      129 
     129      129      125      117      108      110      109       99 
      97       90       82       82       76       70       74       85 
      91       86       87       97       98       91       86       91 
      94       85       85       93       99      101       98      103 
     108      101      102      109      108      112      117      113 
     118      132      130      126      132      129      120      114 
     108      101       98      102      106       98       97      113 
     109       94      102      108       98       91       87       87 
      90       81       87      103       94       99      117      103 
      99      105      101      106      105      113      129      122 
     120      124      121      116      106      110      114      109 
     116      121      124      132      124      120      129      121 
     105      103      105       97       94       95       94      101 
      97       89       97      101       95       91       97      106 
     105      109      114      118      126      128      126      126 
     125      136      140      129      143      160      157      159 
     163      163      159      152      153      155      147      148 
     136      116      120      116       99      103      110      109 
     118      124      121      118      108      101      103       87 
      75       85       81       70       66       64       68       66 
      55       55       52       47       47       36       35       47 
      44       45       58       63       74       81       79       82 
      83       82       72       66       68       68       67       66 
      67       75       82       81       79       90       95       86 
      82       79       75       67       51       51       56       43 
      35       39       36       37       39       32       37       41 
      31       32       41       41       48       52       56       62 
      66       74       78       67       72       90       90       90 
     102      118      128      121      122      135      128      122 
     128      124      133      137      128      139      149      135 
     128      128      124      117      105      106      120      113 
     114      128      126      128      132      126      132      139 
     132      139      144      143      155      155      149      160 
     160      162      171      164      170      186      178      179 
     184      178      180      182      175      179      182      171 
     170      172      162      152      145      140      130      116 
     108      114      106       87       86       89       85       76 
      78       83       82       83       83       90       91       79 
      81       79       60       62       66       55       62       70 
      75       89       89       89      101      102       97       93 
      89       97      106      101      108      118      121      126 
     130      132      137      143      137      132      129      135 
     139      135      139      148      152      155      152      148 
     149      151      148      141      149      168      167      157 
     171      182      179      182      198      210      207      216 
     225      218      218      224      221      210      209      217 
     211      210      207      203      210      199      193      209 
     207      206      220      222      229      229      209      206 
     216      207      199      203      213      213      195      190 
     193      179      160      152      149      135      124      124 
     113      103      101       91       79       74       68       58 
      48       44       32       21       22       28       18        8 
      18       28        8       -9       -1       -1      -17      -21 
     -12       -4       -4       -4        5       14        9        4 
       6        5        6       13       17       21       20       14 
      13       16       14       10       16       31       29       24 
      43       58       51       54       68       68       64       74 
      76       79       86       90       99      105      102      118 
     133      125      124      126      118      114      106       98 
      94       93      103       98       87       97       95       86 
      89       91       87       87       86       79       81       71 
      58       59       51       36       36       35       24       17 
      17        8        1        1       -2       -1       -2       -5 
      -4       -1        5        5       -2        4        8        6 
       8        4        2       10       12        2        1       14 
      13       13       33       36       39       62       62       60 
      74       62       58       72       63       56       64       75 
      86       85       86      103      108      101      103      116 
     121      120      128      140      143      147      155      159 
     160      166      164      157      162      162      156      163 
     164      166      178      179      179      182      178      178 
     172      163      164      164      160      162      164      168 
     175      170      163      162      160      152      144      145 
     144      133      136      149      151      144      141      140 
     140      133      124      122      124      122      120      117 
     117      112      103      103      102       89       85       95 
      90       87      101       98       91       91       79       71 
      71       62       56       66       67       59       54       60 
      60       40       28       29       28       16        9       12 
       1       -6       -4      -16      -24      -13      -13      -14 
      -6       -1       -4      -17      -27      -13      -20      -41 
     -25       -6      -16      -14       -8       -9       -1      -14 
     -21       -5      -13      -24      -12       -9       -5       -1 
      -6        0        1      -14      -18      -20      -31      -24 
     -22      -27       -4        6       12       27       37       43 
      41       44       41       37       48       47       44       62 
      66       67       81       85       91      101      102      108 
     110      116      118      110      112      125      122      116 
     124      129      122      120      120      121      126      121 
     116      122      120      113      112      110      113      117 
     118      116      114      121      122      122      129      139 
     137      137      151      151      139      140      139      135 
     132      120      120      132      128      122      128      125 
     121      118      113      114      114      114      121      113 
     103      114      110       90       93       97       99      105 
      99      103      117      112      110      116      106      109 
     112      106      106       99       98      103       93       97 
     102       95      105      110       98       98      102       98 
      93       90       90       94       94       89       89       93 
      90       86       91       97       95       98      103      105 
     101       97      102      106      109      117      121      129 
     133      135      140      136      133      139      139      143 
     147      155      168      168      166      174      174      168 
     172      174      172      182      194      193      191      205 
     209      202      209      216      214      217      222      217 
     214      221      220      213      216      216      210      203 
     197      195      195      183      176      175      157      149 
     145      135      135      135      128      129      126      110 
     102       98       89       82       82       90       95       95 
     103      109      102       94       97       95       87       94 
     106      106      109      114      109      102       93       78 
      75       74       60       54       59       60       54       45 
      41       41       35       18       16       22       20       16 
       4       -1        1      -12      -21      -20      -25      -20 
     -14      -21      -21      -21      -24      -21      -27      -35 
     -27      -14       -9        0        6       18       28       27 
      31       35       32       36       49       54       58       75 
      89       94       99      106      120      117      102      112 
     125      122      133      143      151      168      172      178 
     184      182      190      187      171      182      190      168 
     168      175      171      159      140      144      148      124 
     116      118      118      118      106      108      118      117 
     122      124      114      116      120      113      106      105 
     116      122      116      120      130      136      139      133 
     132      140      139      132      125      121      118      109 
      98       98       99       93       86       89       79       62 
      52       44       24       10       16        8       -6       -4 
      -5      -14      -27      -32      -31      -37      -41      -37 
     -37      -32      -28      -29      -28      -29      -37      -32 
     -24      -31      -27       -5       -2       -1        8       13 
      18       22       31       37       32       40       55       54 
      59       67       75       82       90      108      116      121 
     140      148      148      166      179      183      190      202 
     216      218      218      229      245      255      248      252 
     268      264      256      263      264      265      264      260 
     264      264      265      270      265      264      268      263 
     257      256      257      259      244      234      243      240 
     229      226      229      229      220      221      222      202 
     189      189      172      153      140      128      125      112 
      91       87       81       70       59       43       44       40 
      13        6        4      -16      -29      -36      -47      -52 
     -56      -64      -71      -71      -75      -85      -90      -89 
     -86      -87      -85      -75      -72      -72      -58      -41 
     -35      -27      -22      -17       -5       -4       -8        4 
      18       22       31       43       55       58       64       72 
      68       70       83       82       79       89       95       94 
      87       85       85       70       60       59       48       44 
      45       39       37       28       14       21       21        5 
       2        4        1       -1       -8       -6       -2       -8 
     -12      -14      -14      -17      -27      -25      -21      -29 
     -31      -22      -25      -32      -28      -27      -31      -31 
     -21      -13      -17      -16       -1        2       -1        4 
      10       13       14       21       24       17       21       28 
      22       21       31       33       28       27       24       16 
      10        9       -5      -10        0      -12      -20      -14 
     -22      -21      -24      -43      -45      -41      -47      -52 
     -49      -48      -48      -47      -47      -39      -35      -40 
     -33      -21      -22      -22       -9      -13      -20      -10 
     -14      -10        8        5        2       17       32       43 
      49       62       71       78       87       91       99      112 
     120      128      136      141      145      156      156      147 
     155      162      152      152      151      152      157      153 
     155      157      153      159      152      144      151      152 
     157      166      166      180      197      195      201      214 
     220      222      229      238      248      257      261      271 
     280      283      288      288      290      298      288      275 
     282      282      268      268      267      251      244      233 
     217      206      193      184      178      166      157      148 
     137      126      113       99       91       79       68       63 
      51       43       37       28       21       17       16        6 
      -4      -10      -16      -13      -14      -24       -9        1 
      -5        0        8        8       12       17       18       22 
      29       35       40       47       51       55       62       64 
      64       60       63       67       63       60       63       67 
      67       72       81       81       89       97       94       98 
     108      116      116      109      117      120      109      105 
     105      102      102       98       90       89       82       67 
      67       66       49       36       33       27       17        6 
       0        2       -5      -21      -16      -12      -13      -13 
     -28      -31      -27      -48      -52      -44      -49      -44 
     -43      -40      -27      -29      -35      -28      -25      -22 
     -17       -9        4        8       22       39       35       32 
      44       45       43       48       56       66       76       90 
     101      112      130      140      137      147      166      167 
     163      171      174      171      175      172      167      171 
     163      155      160      162      160      160      157      160 
     163      160      157      156      157      157      149      155 
     163      152      155      170      157      153      164      157 
     145      136      125      120      112       97       86       72 
      68       70       56       43       41       43       35       27 
      25       27       31       33       29       33       40       40 
      33       29       43       52       45       48       63       68 
      74       83       89       91       93       99      112      110 
     110      125      128      124      125      125      126      117 
     110      124      122      109      120      132      133      135 
     129      132      130      122      122      120      125      136 
     137      144      151      156      166      162      160      180 
     182      176      191      195      189      193      194      189 
     186      179      176      174      159      162      171      157 
     143      148      151      141      140      143      130      120 
     120      113      106      108       99       87       86       81 
      71       67       64       63       54       47       59       59 
      43       43       47       36       27       27       28       29 
      32       27       28       39       37       32       41       40 
      32       41       47       43       47       47       48       54 
      55       66       75       72       79       99      103      105 
     117      124      133      153      149      147      174      179 
     170      179      183      193      195      189      202      207 
     198      198      197      201      203      194      195      203 
     194      194      198      191      182      172      164      162 
     149      139      137      124      103       95       91       86 
      79       70       63       66       66       52       49       51 
      39       44       47       29       32       37       27       32 
      37       35       45       40       39       51       44       51 
      66       64       76       79       81      105      110      110 
     128      130      126      132      137      141      140      126 
     133      143      130      128      133      140      143      129 
     128      143      136      129      137      139      143      145 
     143      149      156      162      164      157      164      174 
     170      172      176      182      195      193      195      210 
     211      217      221      213      213      216      209      205 
     199      186      182      184      170      153      156      144 
     121      112      101       90       81       62       47       47 
      43       24       13       13        4       -5      -10      -10 
     -10      -20      -17       -5      -12      -18      -12      -10 
     -13      -18      -18      -13      -13      -13       -6       -1 
      10       18       10       12       18       12       -1        2 
       8       -5      -10       -2       -6      -20      -20      -24 
     -35      -32      -32      -39      -45      -54      -47      -36 
     -41      -45      -41      -32      -35      -48      -39      -35 
     -49      -44      -28      -17      -10       -4        4       10 
      21       29       31       44       60       67       79       91 
      95      106      113      109      116      132      143      145 
     144      155      166      166      172      176      175      189 
     190      184      191      183      171      175      168      152 
     153      151      141      136      129      128      124      103 
      94       93       86       70       51       44       33       17 
       6       -1      -10      -21      -32      -33      -41      -62 
     -63      -63      -79      -91      -95      -95      -97     -109 
    -106      -95      -98     -103     -103      -99      -91      -93 
     -95      -83      -76      -76      -72      -66      -60      -55 
     -54      -47      -32      -31      -28       -8       -8      -14 
       2        8        0        5       12       16       18       29 
      47       47       49       68       72       75       87       93 
      99      117      126      130      149      159      156      174 
     182      180      195      209      216      224      226      234 
