Origin Time       2025/01/13 21:19:00
Lat.              31.8
Long.             131.6
Depth. (km)       30
Mag.              6.9
Station Code      HYGH06
Station Lat.      34.7935
Station Long.     134.4792
Station Height(m) -135
Record Time       2025/01/13 21:21:31
Sampling Freq(Hz) 100Hz
Duration Time(s)  120
Dir.              2
Scale Factor      2942(gal)/8224139
Max. Acc. (gal)   0.329
Last Correction   2025/01/13 21:21:32
Memo.             
[...]
  125425   125429   125429   125427   125425   125428   125432   125443 
  125451   125436   125413   125409   125410   125408   125409   125409 
  125415   125429   125446   125458   125466   125471   125475   125481 
  125489   125496   125497   125498   125502   125498   125497   125500 
  125493   125474   125454   125435   125420   125404   125389   125379 
  125371   125365   125361   125351   125339   125327   125315   125309 
  125305   125302   125305   125308   125304   125297   125286   125274 
  125270   125274   125278   125274   125263   125262   125273   125285 
  125294   125296   125290   125280   125273   125277   125280   125281 
  125292   125307   125319   125335   125354   125367   125371   125371 
  125382   125400   125417   125435   125450   125464   125475   125477 
  125479   125485   125489   125487   125482   125477   125478   125473 
  125452   125428   125412   125406   125409   125413   125416   125417 
  125415   125408   125394   125381   125374   125366   125348   125336 
  125328   125319   125315   125309   125301   125301   125305   125301 
  125296   125301   125300   125285   125273   125266   125257   125250 
  125255   125269   125275   125273   125263   125262   125274   125282 
  125284   125286   125289   125290   125298   125305   125301   125293 
  125293   125298   125304   125308   125307   125304   125301   125294 
  125288   125282   125275   125275   125280   125284   125289   125298 
  125308   125311   125309   125316   125335   125351   125359   125363 
  125367   125374   125385   125397   125415   125431   125448   125471 
  125483   125487   125491   125491   125482   125478   125482   125496 
  125513   125524   125532   125545   125562   125572   125574   125570 
  125563   125563   125571   125586   125604   125618   125625   125631 
  125640   125643   125635   125621   125609   125594   125568   125541 
  125527   125514   125497   125479   125464   125447   125431   125424 
  125423   125421   125421   125419   125410   125406   125402   125394 
  125389   125388   125386   125383   125381   125379   125386   125400 
  125404   125400   125397   125398   125397   125390   125381   125377 
  125378   125378   125370   125359   125356   125355   125350   125344 
  125335   125323   125311   125297   125284   125274   125267   125261 
  125254   125248   125243   125243   125242   125230   125211   125196 
  125188   125182   125180   125182   125188   125190   125188   125181 
  125174   125165   125157   125154   125149   125139   125131   125131 
  125139   125139   125132   125127   125120   125112   125109   125113 
  125124   125135   125138   125135   125132   125132   125135   125140 
  125146   125149   125155   125158   125150   125139   125128   125122 
  125120   125131   125151   125170   125192   125215   125235   125254 
  125274   125292   125305   125320   125343   125367   125396   125421 
  125437   125451   125473   125501   125523   125537   125550   125554 
  125551   125554   125559   125566   125575   125578   125578   125590 
  125612   125632   125651   125670   125690   125712   125736   125761 
  125779   125786   125787   125784   125780   125779   125775   125760 
  125747   125748   125751   125744   125729   125714   125710   125713 
  125707   125702   125703   125699   125691   125687   125686   125689 
  125690   125687   125676   125658   125635   125620   125614   125602 
  125586   125575   125568   125555   125544   125543   125537   125531 
  125527   125516   125501   125486   125470   125455   125447   125436 
  125421   125413   125404   125383   125365   125348   125325   125302 
  125280   125253   125232   125219   125207   125192   125178   125163 
  125157   125154   125147   125142   125140   125135   125130   125130 
  125131   125132   125136   125142   125149   125158   125163   125165 
  125174   125193   125209   125220   125226   125227   125230   125236 
  125244   125255   125265   125271   125286   125313   125342   125365 
  125386   125396   125396   125397   125400   125400   125394   125388 
  125383   125383   125385   125382   125370   125355   125343   125329 
  125316   125309   125304   125296   125288   125281   125273   125262 
  125251   125232   125209   125194   125181   125165   125154   125150 
  125143   125132   125124   125116   125105   125093   125082   125072 
  125072   125077   125081   125081   125081   125086   125088   125084 
  125081   125084   125088   125099   125115   125127   125136   125153 
  125166   125173   125180   125190   125200   125211   125226   125235 
  125239   125247   125255   125265   125281   125298   125315   125334 
  125354   125374   125393   125416   125440   125464   125487   125502 
  125510   125520   125533   125555   125582   125599   125614   125636 
  125655   125672   125691   125703   125707   125717   125729   125740 
  125752   125771   125791   125806   125821   125832   125842   125856 
  125874   125892   125910   125923   125933   125940   125950   125965 
  125980   125992   126009   126022   126030   126037   126049   126057 
  126058   126053   126048   126050   126048   126037   126029   126023 
  126019   126013   126000   125984   125969   125956   125942   125926 
  125913   125896   125874   125853   125834   125817   125799   125775 
  125748   125725   125706   125687   125672   125655   125637   125618 
  125595   125567   125532   125497   125467   125442   125419   125397 
  125371   125344   125315   125282   125250   125217   125186   125155 
  125118   125085   125059   125032   125001   124972   124951   124935 
  124926   124924   124920   124912   124914   124915   124914   124918 
  124927   124941   124960   124977   124993   125016   125045   125076 
  125103   125124   125145   125157   125162   125163   125162   125163 
  125170   125176   125181   125185   125182   125172   125158   125139 
  125116   125093   125076   125064   125053   125043   125045   125047 
  125050   125053   125050   125045   125038   125024   125005   124993 
  124984   124977   124973   124965   124958   124962   124968   124969 
  124977   124987   124995   125000   125010   125028   125051   125074 
  125096   125115   125134   125157   125182   125205   125226   125243 
  125262   125280   125296   125302   125300   125297   125298   125298 
  125301   125307   125309   125311   125313   125317   125323   125320 
  125313   125311   125308   125302   125307   125315   125321   125328 
  125339   125348   125352   125351   125344   125338   125338   125338 
  125346   125369   125396   125417   125437   125458   125482   125510 
  125540   125571   125597   125612   125629   125645   125655   125662 
  125666   125662   125652   125647   125633   125614   125604   125595 
  125587   125579   125567   125551   125533   125520   125508   125498 
  125486   125467   125444   125420   125398   125375   125346   125313 
  125277   125235   125193   125155   125123   125096   125066   125037 
  125011   124980   124951   124937   124923   124906   124899   124899 
  124899   124903   124911   124918   124929   124945   124958   124970 
  124985   125005   125026   125046   125070   125097   125124   125147 
  125172   125203   125239   125278   125320   125359   125383   125398 
  125413   125419   125417   125419   125420   125420   125416   125409 
  125404   125394   125381   125359   125329   125298   125275   125250 
  125216   125180   125150   125123   125096   125068   125041   125012 
  124985   124965   124949   124933   124919   124914   124912   124907 
  124902   124897   124896   124897   124902   124907   124920   124943 
  124972   124999   125024   125047   125074   125101   125122   125143 
  125166   125180   125188   125197   125205   125208   125204   125196 
  125190   125193   125199   125204   125209   125219   125228   125234 
  125238   125248   125258   125265   125278   125294   125309   125320 
  125331   125343   125350   125352   125355   125361   125373   125390 
  125405   125419   125433   125444   125454   125466   125477   125481 
  125485   125490   125490   125486   125478   125469   125462   125452 
  125436   125419   125401   125389   125378   125362   125339   125313 
  125293   125278   125261   125238   125212   125184   125151   125118 
  125081   125043   125010   124978   124949   124920   124897   124877 
  124861   124846   124833   124821   124811   124812   124822   124834 
  124848   124872   124897   124916   124934   124961   124992   125016 
  125045   125081   125120   125165   125208   125250   125293   125334 
  125371   125415   125455   125494   125536   125578   125616   125651 
  125689   125729   125763   125797   125834   125860   125879   125902 
  125919   125930   125941   125944   125937   125932   125928   125915 
  125901   125894   125887   125875   125861   125845   125824   125798 
  125764   125728   125693   125659   125622   125590   125555   125518 
  125482   125444   125400   125361   125325   125285   125248   125216 
  125186   125161   125139   125116   125093   125070   125050   125035 
  125019   125001   124981   124958   124934   124915   124899   124881 
  124869   124865   124864   124872   124884   124896   124914   124939 
  124970   125000   125024   125051   125086   125122   125155   125188 
  125223   125259   125292   125316   125335   125348   125359   125373 
  125382   125393   125412   125432   125455   125482   125501   125518 
  125543   125564   125587   125610   125629   125647   125664   125685 
  125710   125726   125733   125740   125740   125734   125734   125734 
  125732   125730   125729   125726   125724   125725   125734   125741 
  125745   125752   125760   125767   125767   125764   125766   125767 
  125766   125770   125778   125782   125780   125776   125775   125778 
  125782   125780   125779   125778   125768   125756   125740   125721 
  125702   125675   125643   125605   125564   125525   125489   125451 
  125412   125381   125355   125334   125320   125309   125298   125298 
  125300   125301   125313   125327   125344   125366   125385   125404 
  125425   125444   125464   125491   125516   125539   125562   125585 
  125605   125624   125641   125655   125668   125685   125699   125710 
  125721   125730   125741   125753   125761   125766   125764   125764 
  125764   125768   125778   125780   125771   125759   125749   125741 
  125726   125703   125678   125647   125614   125587   125563   125539 
  125517   125494   125467   125436   125402   125369   125339   125309 
  125277   125244   125211   125178   125149   125120   125089   125064 
  125043   125018   124989   124969   124950   124941   124942   124945 
  124949   124954   124957   124964   124970   124977   124989   125003 
  125015   125030   125051   125072   125092   125112   125131   125147 
  125161   125170   125178   125177   125167   125162   125158   125153 
  125153   125158   125163   125170   125181   125182   125174   125167 
  125161   125155   125150   125145   125142   125146   125151   125157 
  125162   125169   125172   125172   125177   125182   125193   125209 
  125230   125257   125285   125313   125350   125385   125410   125433 
  125454   125469   125479   125481   125479   125478   125470   125462 
  125454   125446   125437   125427   125419   125413   125404   125394 
  125389   125381   125371   125361   125348   125336   125317   125298 
  125289   125285   125280   125278   125280   125280   125282   125288 
  125297   125311   125323   125331   125338   125342   125344   125346 
  125344   125342   125334   125324   125319   125308   125294   125286 
  125280   125270   125263   125259   125257   125259   125266   125267 
  125270   125282   125297   125315   125334   125348   125363   125379 
  125394   125404   125415   125428   125439   125450   125460   125469 
  125481   125505   125535   125564   125590   125616   125644   125670 
  125690   125714   125744   125770   125788   125806   125826   125845 
  125859   125869   125871   125857   125848   125841   125822   125797 
  125774   125744   125707   125671   125637   125599   125559   125520 
  125481   125431   125385   125347   125308   125273   125251   125231 
  125215   125203   125189   125169   125153   125139   125126   125122 
  125120   125116   125111   125108   125105   125104   125103   125108 
  125113   125119   125124   125126   125126   125127   125127   125120 
  125111   125101   125082   125057   125031   125005   124978   124954 
  124930   124904   124881   124858   124833   124812   124798   124780 
  124761   124745   124730   124722   124721   124723   124727   124731 
  124744   124764   124788   124822   124864   124903   124943   124988 
  125031   125077   125126   125177   125227   125278   125328   125371 
  125412   125452   125489   125524   125558   125586   125608   125628 
  125645   125656   125664   125678   125695   125710   125717   125718 
  125718   125716   125707   125701   125701   125703   125707   125716 
  125729   125743   125756   125778   125801   125815   125833   125851 
  125863   125875   125894   125907   125914   125919   125926   125930 
  125932   125932   125936   125942   125948   125952   125952   125944 
  125928   125910   125888   125864   125837   125813   125790   125770 
  125753   125743   125733   125724   125714   125705   125698   125698 
  125702   125707   125721   125744   125770   125793   125826   125864 
  125901   125941   125977   126013   126053   126091   126127   126164 
  126195   126222   126247   126269   126287   126299   126299   126287 
  126270   126250   126226   126199   126166   126127   126085   126041 
  125992   125944   125890   125834   125783   125732   125679   125633 
  125590   125548   125512   125479   125447   125416   125389   125362 
  125332   125298   125266   125238   125208   125185   125167   125150 
  125135   125124   125109   125093   125077   125061   125050   125039 
  125024   125016   125010   125000   124992   124978   124958   124951 
  124950   124943   124939   124938   124929   124923   124920   124915 
  124908   124910   124918   124926   124930   124935   124942   124943 
  124946   124958   124972   124985   125005   125026   125034   125042 
  125055   125065   125073   125080   125089   125105   125124   125140 
  125161   125178   125188   125196   125208   125220   125228   125232 
  125239   125247   125250   125250   125254   125253   125242   125232 
  125224   125215   125211   125203   125185   125172   125159   125146 
  125134   125126   125118   125109   125099   125091   125085   125082 
  125084   125082   125077   125068   125059   125058   125061   125064 
  125069   125077   125088   125105   125127   125150   125177   125211 
  125247   125280   125312   125350   125390   125429   125467   125502 
  125535   125568   125599   125625   125651   125680   125702   125720 
  125747   125772   125798   125825   125848   125865   125884   125899 
  125905   125909   125918   125932   125945   125953   125959   125964 
  125967   125969   125979   125990   125996   126003   126006   126003 
  125998   125990   125976   125961   125940   125913   125886   125851 
  125805   125759   125712   125655   125598   125541   125485   125427 
  125369   125313   125261   125208   125149   125089   125037   124988 
  124938   124892   124852   124811   124779   124753   124730   124708 
  124687   124667   124649   124632   124614   124606   124598   124588 
  124587   124588   124587   124584   124580   124573   124567   124565 
  124560   124553   124552   124551   124552   124553   124553   124555 
  124556   124561   124573   124586   124599   124618   124636   124653 
  124671   124688   124707   124729   124756   124781   124812   124850 
  124887   124923   124965   125005   125045   125086   125130   125170 
  125208   125247   125284   125315   125346   125375   125397   125419 
  125440   125462   125477   125489   125504   125514   125524   125529 
  125529   125531   125536   125541   125543   125536   125528   125523 
  125512   125502   125500   125496   125491   125491   125493   125491 
  125491   125496   125505   125514   125525   125540   125552   125564 
  125579   125595   125613   125633   125659   125686   125712   125736 
  125753   125767   125783   125795   125806   125817   125821   125820 
  125818   125817   125817   125818   125817   125810   125802   125793 
  125776   125760   125740   125712   125686   125656   125625   125595 
  125566   125537   125514   125490   125466   125442   125421   125402 
  125389   125377   125365   125351   125344   125344   125342   125339 
  125338   125339   125342   125342   125342   125343   125344   125342 
  125339   125339   125339   125336   125332   125328   125323   125312 
  125298   125278   125258   125243   125223   125203   125189   125174 
  125155   125139   125124   125107   125093   125081   125065   125053 
  125050   125049   125050   125061   125074   125088   125108   125128 
  125145   125170   125203   125234   125266   125300   125329   125359 
  125389   125412   125436   125463   125482   125500   125521   125537 
  125547   125556   125567   125575   125581   125582   125575   125571 
  125567   125555   125541   125528   125514   125498   125478   125454 
  125431   125408   125389   125374   125356   125339   125328   125320 
  125312   125304   125297   125292   125286   125285   125286   125284 
  125284   125294   125311   125324   125336   125350   125363   125374 
  125385   125402   125417   125429   125443   125455   125473   125491 
  125508   125521   125531   125537   125551   125560   125566   125574 
  125582   125591   125597   125602   125610   125613   125616   125624 
  125629   125632   125635   125632   125629   125635   125641   125647 
  125658   125666   125668   125670   125670   125667   125666   125662 
  125651   125636   125626   125617   125604   125589   125571   125558 
  125547   125539   125535   125535   125535   125531   125529   125532 
  125539   125545   125551   125566   125586   125605   125628   125653 
  125676   125698   125717   125736   125752   125766   125779   125788 
  125791   125794   125791   125786   125782   125778   125768   125757 
  125744   125724   125706   125693   125676   125659   125647   125633 
  125618   125602   125587   125575   125563   125548   125535   125524 
  125517   125510   125501   125494   125487   125482   125475   125466 
  125463   125460   125454   125450   125447   125440   125433   125421 
  125406   125388   125366   125347   125331   125316   125302   125292 
  125280   125262   125244   125228   125207   125184   125169   125154 
  125139   125128   125124   125122   125123   125128   125138   125146 
  125155   125172   125186   125199   125215   125232   125247   125261 
  125271   125281   125289   125294   125298   125301   125304   125308 
  125315   125317   125317   125316   125311   125307   125302   125288 
  125269   125254   125235   125216   125201   125181   125161   125145 
  125130   125111   125095   125082   125066   125051   125041   125035 
  125041   125055   125069   125085   125105   125128   125153   125176 
  125199   125224   125250   125275   125300   125325   125354   125382 
  125409   125433   125456   125479   125501   125521   125537   125552 
  125568   125586   125602   125620   125633   125644   125655   125662 
