Origin Time       2025/01/13 21:19:00
Lat.              31.8
Long.             131.6
Depth. (km)       30
Mag.              6.9
Station Code      HYGH03
Station Lat.      35.2193
Station Long.     134.5237
Station Height(m) 265
Record Time       2025/01/13 21:21:43
Sampling Freq(Hz) 100Hz
Duration Time(s)  120
Dir.              3
Scale Factor      2942(gal)/8224139
Max. Acc. (gal)   0.264
Last Correction   2025/01/13 21:21:44
Memo.             
[...]
   47640    47649    47660    47677    47688    47695    47709    47723 
   47734    47734    47730    47736    47742    47754    47771    47767 
   47757    47756    47748    47734    47726    47718    47706    47698 
   47692    47683    47676    47676    47675    47672    47680    47690 
   47694    47699    47703    47699    47694    47691    47688    47682 
   47675    47671    47665    47661    47659    47648    47649    47667 
   47675    47675    47684    47694    47695    47699    47704    47700 
   47690    47682    47676    47676    47677    47676    47671    47663 
   47657    47655    47650    47642    47637    47637    47641    47645 
   47650    47656    47661    47669    47677    47679    47679    47684 
   47688    47691    47695    47699    47704    47710    47706    47702 
   47700    47694    47688    47684    47673    47667    47671    47675 
   47679    47684    47686    47686    47690    47690    47684    47677 
   47671    47669    47669    47661    47653    47650    47641    47632 
   47625    47621    47622    47619    47614    47613    47609    47610 
   47615    47621    47628    47641    47657    47667    47668    47676 
   47687    47686    47687    47696    47699    47702    47709    47709 
   47703    47706    47711    47711    47713    47717    47714    47707 
   47702    47696    47688    47683    47671    47657    47648    47632 
   47615    47602    47587    47578    47571    47557    47548    47537 
   47522    47510    47503    47497    47493    47488    47488    47487 
   47483    47480    47483    47486    47487    47487    47487    47484 
   47486    47497    47506    47513    47520    47524    47528    47541 
   47549    47557    47572    47587    47606    47626    47644    47669 
   47696    47718    47742    47764    47785    47803    47812    47821 
   47826    47821    47821    47823    47825    47829    47831    47830 
   47827    47823    47818    47810    47803    47800    47800    47796 
   47790    47781    47775    47768    47752    47737    47726    47717 
   47699    47679    47664    47655    47640    47626    47622    47614 
   47599    47594    47591    47586    47580    47583    47591    47595 
   47599    47607    47614    47618    47619    47618    47618    47618 
   47615    47611    47609    47609    47609    47609    47610    47619 
   47626    47628    47629    47637    47642    47644    47650    47657 
   47656    47661    47667    47672    47673    47663    47655    47655 
   47650    47648    47646    47646    47650    47663    47675    47682 
   47688    47698    47704    47710    47722    47738    47744    47749 
   47761    47764    47764    47769    47768    47765    47767    47764 
   47754    47750    47756    47761    47752    47742    47740    47726 
   47718    47717    47704    47694    47694    47695    47696    47699 
   47700    47702    47702    47695    47691    47688    47680    47679 
   47675    47669    47675    47675    47672    47675    47675    47676 
   47684    47680    47671    47672    47677    47677    47677    47682 
   47682    47676    47675    47676    47671    47667    47663    47656 
   47660    47667    47665    47672    47684    47686    47683    47683 
   47683    47680    47677    47677    47673    47669    47668    47668 
   47669    47672    47671    47668    47665    47661    47655    47650 
   47644    47637    47636    47630    47623    47629    47633    47626 
   47632    47646    47648    47648    47657    47664    47672    47676 
   47676    47679    47684    47688    47694    47698    47700    47703 
   47704    47707    47707    47704    47709    47715    47718    47717 
   47718    47721    47723    47723    47727    47729    47726    47725 
   47721    47714    47713    47711    47704    47706    47709    47706 
   47703    47702    47694    47686    47679    47669    47660    47656 
   47650    47650    47652    47650    47656    47661    47663    47667 
   47668    47665    47668    47668    47661    47660    47659    47659 
   47661    47664    47667    47668    47663    47661    47656    47644 
   47640    47637    47621    47611    47607    47599    47595    47592 
   47587    47584    47575    47564    47556    47549    47544    47534 
   47528    47526    47522    47518    47520    47520    47515    47515 
   47515    47518    47525    47534    47542    47549    47559    47568 
   47576    47588    47598    47602    47609    47615    47618    47626 
   47634    47637    47642    47648    47652    47663    47668    47667 
   47672    47684    47691    47694    47695    47696    47702    47710 
   47713    47721    47734    47742    47744    47746    47749    47749 
   47748    47748    47745    47744    47742    47740    47738    47740 
   47740    47741    47749    47757    47767    47779    47788    47795 
   47806    47815    47821    47829    47829    47827    47833    47835 
   47837    47844    47850    47852    47853    47852    47846    47835 
   47822    47806    47790    47779    47761    47742    47734    47729 
   47718    47707    47700    47694    47682    47675    47671    47660 
   47650    47648    47646    47646    47649    47648    47646    47642 
   47638    47637    47640    47645    47656    47668    47676    47686 
   47699    47709    47721    47738    47752    47763    47780    47799 
   47811    47829    47852    47869    47881    47902    47923    47938 
   47949    47958    47966    47973    47977    47984    47984    47981 
   47981    47972    47964    47954    47941    47929    47916    47904 
   47899    47892    47881    47869    47865    47866    47868    47865 
   47857    47848    47842    47834    47815    47800    47788    47775 
   47761    47753    47746    47736    47722    47710    47698    47688 
   47679    47669    47664    47659    47648    47641    47641    47636 
   47625    47617    47602    47584    47572    47559    47545    47534 
   47524    47517    47513    47510    47513    47514    47507    47503 
   47499    47493    47497    47499    47495    47502    47509    47509 
   47517    47533    47545    47557    47583    47606    47618    47633 
   47653    47671    47688    47707    47721    47727    47734    47738 
   47744    47754    47765    47767    47767    47771    47772    47771 
   47771    47775    47779    47776    47776    47784    47790    47794 
   47799    47796    47799    47803    47795    47792    47792    47787 
   47787    47791    47792    47790    47794    47791    47777    47768 
   47764    47756    47745    47737    47729    47723    47718    47709 
   47703    47702    47702    47699    47688    47680    47679    47671 
   47664    47661    47655    47650    47649    47648    47646    47648 
   47655    47664    47673    47683    47691    47699    47707    47711 
   47709    47704    47706    47706    47704    47713    47718    47711 
   47711    47714    47709    47707    47707    47702    47696    47694 
   47692    47691    47688    47687    47684    47682    47676    47672 
   47673    47673    47665    47659    47652    47641    47637    47634 
   47626    47619    47613    47607    47602    47591    47579    47574 
   47571    47560    47551    47549    47545    47541    47545    47541 
   47532    47529    47525    47517    47518    47520    47517    47517 
   47513    47503    47494    47487    47486    47488    47490    47491 
   47497    47505    47511    47515    47525    47540    47549    47555 
   47563    47572    47579    47586    47596    47611    47622    47633 
   47649    47664    47677    47692    47704    47721    47740    47752 
   47764    47779    47792    47803    47817    47833    47850    47868 
   47880    47884    47895    47911    47918    47923    47933    47939 
   47947    47953    47954    47954    47954    47949    47942    47938 
   47938    47931    47920    47914    47902    47883    47876    47869 
   47852    47841    47833    47819    47812    47806    47791    47780 
   47775    47771    47771    47771    47771    47772    47777    47790 
   47800    47804    47818    47837    47849    47857    47872    47889 
   47902    47916    47938    47953    47961    47970    47981    47997 
   48010    48015    48020    48028    48030    48030    48030    48033 
   48030    48022    48020    48022    48018    48008    47989    47968 
   47950    47918    47883    47856    47817    47772    47737    47702 
   47663    47623    47587    47551    47515    47483    47452    47416 
   47383    47362    47339    47312    47289    47263    47232    47210 
   47197    47175    47156    47147    47139    47128    47128    47133 
   47137    47144    47158    47174    47189    47208    47225    47245 
   47274    47298    47321    47351    47378    47399    47424    47443 
   47459    47475    47487    47497    47505    47515    47524    47525 
   47521    47520    47518    47518    47518    47515    47502    47484 
   47466    47449    47437    47422    47406    47385    47366    47352 
   47332    47313    47297    47279    47266    47256    47240    47221 
   47209    47201    47187    47178    47175    47169    47164    47166 
   47162    47160    47163    47164    47173    47183    47189    47198 
   47212    47220    47229    47247    47263    47271    47283    47308 
   47331    47340    47351    47383    47414    47434    47463    47495 
   47517    47542    47568    47584    47598    47613    47629    47644 
   47660    47676    47684    47692    47711    47731    47754    47776 
   47794    47815    47835    47853    47873    47891    47902    47912 
   47925    47935    47941    47942    47945    47950    47956    47961 
   47966    47974    47979    47983    47988    47993    48003    48015 
   48027    48034    48037    48043    48047    48053    48068    48064 
   48053    48058    48057    48049    48054    48049    48039    48049 
   48047    48034    48035    48035    48024    48020    48018    48008 
   48004    48003    48000    48001    48001    47995    47997    48006 
   48004    48001    47997    47991    47992    47996    47991    47989 
   47996    47999    48000    48001    48000    48001    48000    47993 
   47991    47992    47993    47989    47984    47980    47977    47977 
   47974    47969    47966    47964    47957    47945    47941    47941 
   47934    47927    47929    47923    47914    47907    47900    47888 
   47877    47875    47871    47864    47861    47861    47861    47866 
   47866    47858    47860    47865    47860    47854    47856    47853 
   47850    47848    47845    47839    47834    47826    47814    47803 
   47792    47780    47764    47753    47745    47727    47706    47679 
   47655    47632    47602    47571    47544    47514    47486    47461 
   47441    47414    47383    47358    47339    47320    47302    47290 
   47287    47286    47285    47279    47272    47274    47275    47270 
   47264    47266    47268    47270    47277    47287    47298    47308 
   47322    47343    47359    47374    47397    47421    47439    47459 
   47480    47491    47502    47515    47525    47541    47557    47563 
   47569    47576    47574    47575    47579    47579    47579    47575 
   47565    47557    47548    47537    47533    47533    47520    47506 
   47502    47490    47474    47470    47460    47440    47425    47414 
   47395    47375    47359    47343    47326    47316    47309    47299 
   47291    47291    47291    47291    47295    47301    47308    47317 
   47332    47352    47371    47387    47406    47430    47451    47476 
   47510    47537    47564    47602    47642    47676    47707    47745 
   47788    47823    47853    47888    47920    47950    47984    48018 
   48042    48061    48072    48081    48088    48081    48069    48061 
   48046    48027    48012    47995    47969    47949    47937    47920 
   47898    47883    47880    47872    47860    47854    47853    47853 
   47853    47853    47853    47856    47860    47860    47860    47862 
   47862    47866    47873    47881    47887    47887    47888    47893 
   47896    47903    47910    47904    47900    47896    47891    47881 
   47868    47856    47842    47829    47815    47799    47783    47765 
   47748    47741    47734    47719    47714    47714    47709    47703 
   47703    47700    47700    47707    47709    47709    47714    47714 
   47715    47726    47733    47737    47750    47758    47763    47773 
   47777    47780    47788    47794    47798    47806    47811    47818 
   47825    47827    47835    47850    47858    47866    47873    47875 
   47877    47887    47892    47893    47896    47902    47903    47898 
   47896    47896    47900    47904    47900    47902    47907    47906 
   47910    47910    47900    47893    47891    47880    47864    47852 
   47841    47825    47807    47790    47776    47763    47745    47727 
   47715    47704    47690    47676    47665    47656    47645    47636 
   47622    47610    47595    47584    47584    47583    47575    47569 
   47568    47565    47560    47555    47547    47540    47537    47534 
   47532    47530    47526    47526    47533    47534    47536    47545 
   47553    47557    47565    47576    47583    47594    47603    47607 
   47615    47623    47626    47634    47649    47650    47648    47656 
   47657    47656    47661    47660    47659    47656    47646    47637 
   47626    47610    47588    47568    47552    47530    47507    47487 
   47464    47439    47417    47391    47358    47328    47298    47266 
   47239    47212    47182    47152    47125    47100    47069    47043 
   47020    46994    46977    46966    46954    46947    46943    46936 
   46938    46950    46962    46967    46980    47000    47017    47039 
   47065    47092    47121    47150    47171    47196    47229    47254 
   47275    47306    47333    47360    47386    47401    47420    47439 
   47451    47466    47482    47487    47497    47511    47518    47522 
   47534    47544    47548    47553    47557    47561    47563    47563 
   47564    47564    47560    47557    47551    47541    47536    47529 
   47520    47511    47505    47503    47503    47497    47493    47494 
   47495    47499    47501    47511    47524    47530    47542    47563 
   47576    47591    47610    47628    47646    47663    47676    47688 
   47699    47710    47722    47736    47748    47758    47769    47777 
   47790    47807    47819    47829    47845    47860    47866    47876 
   47887    47888    47887    47891    47892    47888    47881    47872 
   47857    47837    47822    47815    47806    47795    47785    47772 
   47761    47749    47734    47725    47715    47699    47687    47679 
   47671    47667    47660    47653    47657    47667    47675    47695 
   47715    47731    47749    47768    47790    47812    47831    47853 
   47879    47900    47920    47947    47974    48001    48031    48060 
   48085    48112    48135    48153    48177    48204    48224    48247 
   48267    48285    48305    48324    48335    48347    48359    48369 
   48375    48381    48377    48375    48378    48370    48361    48354 
   48338    48319    48303    48277    48249    48227    48201    48170 
   48138    48101    48068    48038    48006    47972    47941    47912 
   47884    47857    47829    47800    47777    47756    47734    47717 
   47706    47692    47675    47655    47638    47632    47623    47614 
   47609    47603    47601    47607    47614    47617    47626    47640 
   47655    47675    47695    47713    47727    47740    47758    47781 
   47792    47803    47819    47831    47841    47849    47853    47856 
   47861    47868    47868    47864    47857    47848    47839    47839 
   47838    47831    47829    47826    47819    47810    47802    47794 
   47784    47777    47772    47763    47752    47737    47717    47702 
   47691    47669    47644    47625    47603    47579    47559    47538 
   47515    47498    47476    47455    47433    47407    47380    47363 
   47343    47316    47293    47274    47252    47233    47212    47190 
   47178    47167    47155    47144    47135    47129    47131    47135 
   47137    47143    47154    47171    47185    47197    47217    47235 
   47247    47267    47290    47312    47336    47360    47382    47409 
   47439    47464    47491    47517    47542    47569    47591    47611 
   47638    47655    47668    47692    47706    47713    47723    47722 
   47713    47713    47706    47686    47672    47659    47636    47618 
   47599    47567    47537    47517    47495    47466    47439    47414 
   47390    47370    47351    47335    47322    47316    47312    47309 
   47310    47312    47318    47328    47337    47352    47371    47386 
   47403    47430    47451    47467    47491    47514    47529    47551 
   47571    47586    47601    47615    47636    47660    47672    47683 
   47704    47719    47727    47742    47760    47773    47791    47811 
   47825    47842    47864    47880    47903    47929    47950    47979 
   48010    48034    48053    48073    48097    48123    48143    48161 
   48178    48190    48199    48203    48205    48212    48217    48215 
   48213    48212    48201    48189    48176    48157    48136    48115 
   48088    48062    48038    48004    47966    47937    47910    47883 
   47852    47821    47796    47769    47738    47709    47682    47660 
   47638    47613    47591    47572    47551    47530    47510    47493 
   47483    47475    47466    47459    47453    47445    47436    47434 
   47437    47434    47436    47447    47459    47464    47468    47480 
   47495    47506    47515    47533    47551    47559    47565    47578 
   47592    47610    47625    47637    47649    47663    47675    47682 
   47692    47706    47717    47729    47741    47746    47754    47761 
   47760    47761    47763    47758    47757    47756    47753    47756 
   47750    47742    47741    47736    47725    47719    47711    47699 
   47690    47684    47683    47680    47673    47675    47679    47679 
   47677    47673    47675    47679    47677    47676    47675    47667 
   47659    47657    47655    47648    47652    47660    47664    47675 
   47688    47694    47706    47719    47733    47750    47760    47765 
   47779    47792    47802    47810    47815    47823    47833    47835 
   47844    47849    47846    47850    47853    47852    47854    47848 
   47838    47830    47815    47803    47794    47775    47756    47740 
   47717    47688    47664    47640    47610    47583    47557    47526 
   47494    47468    47443    47418    47399    47385    47372    47366 
   47355    47349    47352    47353    47358    47370    47378    47386 
   47399    47413    47429    47447    47461    47484    47513    47536 
   47561    47591    47617    47645    47680    47711    47741    47773 
   47803    47830    47861    47880    47898    47927    47946    47957 
   47972    47976    47970    47973    47966    47950    47937    47922 
   47907    47891    47872    47845    47818    47799    47777    47748 
   47725    47704    47676    47645    47625    47606    47584    47565 
   47549    47530    47513    47498    47479    47463    47449    47426 
   47409    47402    47394    47379    47371    47366    47360    47359 
   47360    47360    47360    47358    47359    47362    47364    47370 
   47379    47389    47405    47421    47434    47453    47482    47514 
   47548    47582    47617    47652    47684    47719    47758    47795 
