Origin Time       2025/01/13 21:19:00
Lat.              31.8
Long.             131.6
Depth. (km)       30
Mag.              6.9
Station Code      HYGH10
Station Lat.      34.8164
Station Long.     134.8078
Station Height(m) -82
Record Time       2025/01/13 21:21:40
Sampling Freq(Hz) 100Hz
Duration Time(s)  120
Dir.              1
Scale Factor      2942(gal)/8224139
Max. Acc. (gal)   0.342
Last Correction   2025/01/13 21:21:41
Memo.             
[...]
   53234    53225    53218    53211    53204    53203    53206    53212 
   53219    53227    53234    53237    53244    53252    53254    53256 
   53260    53268    53283    53295    53312    53331    53343    53360 
   53376    53384    53387    53383    53374    53369    53357    53345 
   53333    53323    53320    53318    53314    53315    53316    53318 
   53316    53315    53318    53320    53327    53337    53345    53347 
   53347    53347    53347    53349    53353    53357    53357    53350 
   53345    53347    53354    53358    53361    53366    53369    53361 
   53354    53347    53327    53310    53303    53293    53284    53283 
   53276    53268    53265    53260    53254    53254    53254    53257 
   53258    53260    53260    53254    53246    53239    53238    53237 
   53234    53234    53246    53261    53273    53285    53295    53304 
   53314    53322    53330    53338    53335    53327    53325    53330 
   53330    53320    53311    53303    53292    53281    53269    53256 
   53249    53248    53246    53244    53241    53235    53233    53230 
   53227    53227    53227    53223    53219    53219    53219    53218 
   53225    53244    53261    53271    53287    53314    53329    53334 
   53346    53357    53361    53366    53374    53379    53377    53379 
   53381    53380    53385    53392    53392    53404    53418    53423 
   53430    53433    53433    53438    53437    53428    53423    53411 
   53404    53406    53404    53399    53399    53399    53399    53396 
   53393    53395    53395    53385    53376    53362    53352    53350 
   53339    53319    53314    53311    53307    53308    53304    53300 
   53303    53300    53295    53293    53289    53276    53262    53256 
   53244    53234    53230    53226    53227    53231    53231    53237 
   53244    53249    53260    53275    53289    53300    53311    53319 
   53325    53331    53338    53342    53346    53350    53349    53343 
   53345    53352    53356    53358    53364    53373    53383    53384 
   53383    53383    53376    53370    53369    53364    53356    53349 
   53349    53346    53337    53330    53320    53306    53298    53291 
   53280    53277    53276    53275    53281    53287    53288    53292 
   53299    53304    53306    53307    53308    53310    53316    53326 
   53331    53337    53337    53331    53326    53315    53300    53283 
   53268    53257    53248    53238    53230    53225    53219    53215 
   53210    53200    53194    53185    53171    53156    53149    53140 
   53130    53126    53125    53119    53109    53096    53092    53091 
   53090    53087    53090    53098    53103    53107    53117    53125 
   53127    53134    53140    53142    53145    53148    53152    53158 
   53163    53167    53171    53175    53177    53175    53171    53171 
   53169    53171    53173    53180    53192    53204    53215    53230 
   53250    53271    53291    53311    53329    53347    53368    53388 
   53408    53427    53447    53466    53487    53508    53523    53530 
   53538    53545    53542    53538    53538    53536    53534    53534 
   53536    53536    53538    53542    53541    53538    53536    53531 
   53526    53527    53524    53514    53503    53492    53478    53462 
   53443    53423    53406    53388    53369    53352    53337    53320 
   53304    53293    53287    53280    53276    53269    53258    53249 
   53237    53219    53204    53194    53184    53169    53152    53141 
   53142    53141    53133    53131    53137    53138    53133    53137 
   53142    53142    53149    53163    53177    53191    53200    53210 
   53221    53234    53252    53266    53284    53308    53333    53357 
   53381    53401    53419    53428    53437    53455    53472    53480 
   53495    53512    53526    53545    53568    53578    53593    53623 
   53639    53644    53659    53674    53686    53705    53724    53739 
   53751    53762    53774    53778    53784    53793    53802    53817 
   53838    53850    53858    53873    53885    53889    53900    53916 
   53924    53931    53941    53947    53940    53939    53946    53944 
   53936    53935    53929    53912    53886    53851    53819    53792 
   53754    53716    53685    53646    53601    53561    53522    53480 
   53441    53403    53368    53338    53306    53273    53249    53227 
   53207    53192    53183    53175    53168    53157    53136    53113 
   53088    53059    53029    53002    52976    52953    52928    52905 
   52884    52863    52845    52830    52820    52812    52805    52798 
   52790    52778    52764    52752    52741    52725    52709    52698 
   52695    52694    52695    52704    52716    52733    52755    52775 
   52794    52812    52830    52851    52874    52901    52925    52948 
   52978    53014    53050    53086    53118    53145    53167    53181 
   53192    53196    53192    53191    53183    53173    53171    53165 
   53164    53169    53179    53190    53203    53221    53244    53268 
   53287    53306    53322    53331    53339    53346    53347    53350 
   53360    53368    53376    53395    53415    53430    53450    53477 
   53497    53511    53524    53538    53545    53551    53555    53553 
   53550    53546    53536    53530    53528    53523    53518    53511 
   53501    53491    53478    53470    53464    53445    53430    53424 
   53414    53397    53389    53383    53373    53370    53373    53372 
   53368    53361    53357    53352    53341    53333    53329    53320 
   53312    53314    53320    53329    53345    53356    53365    53383 
   53400    53416    53431    53445    53465    53478    53491    53504 
   53512    53523    53530    53527    53532    53538    53539    53545 
   53551    53558    53562    53569    53574    53576    53577    53578 
   53576    53572    53569    53565    53562    53562    53563    53566 
   53566    53562    53554    53545    53538    53527    53509    53495 
   53482    53462    53441    53422    53403    53388    53373    53354 
   53339    53331    53319    53306    53293    53279    53268    53262 
   53252    53244    53245    53249    53257    53271    53289    53308 
   53329    53353    53383    53418    53447    53474    53503    53531 
   53550    53562    53577    53592    53604    53611    53620    53634 
   53639    53640    53647    53654    53662    53674    53682    53684 
   53682    53680    53673    53667    53662    53649    53630    53617 
   53608    53603    53599    53595    53595    53596    53597    53601 
   53608    53617    53628    53636    53644    53649    53649    53646 
   53636    53626    53615    53601    53592    53589    53580    53569 
   53561    53550    53535    53514    53489    53464    53438    53412 
   53381    53350    53322    53296    53269    53248    53223    53196 
   53177    53165    53146    53129    53118    53109    53102    53103 
   53102    53098    53102    53100    53090    53076    53060    53046 
   53033    53021    53017    53013    53005    53003    53003    53003 
   53002    52996    52990    52987    52983    52971    52957    52951 
   52944    52938    52937    52933    52938    52948    52952    52957 
   52974    52996    53018    53049    53083    53113    53148    53183 
   53204    53227    53261    53287    53312    53352    53391    53423 
   53460    53496    53528    53559    53586    53615    53644    53667 
   53692    53715    53730    53742    53755    53761    53763    53765 
   53767    53769    53761    53751    53746    53736    53717    53697 
   53678    53659    53638    53619    53604    53593    53586    53578 
   53576    53581    53586    53599    53624    53647    53670    53698 
   53725    53748    53771    53788    53805    53817    53820    53824 
   53833    53838    53836    53839    53838    53829    53825    53820 
   53815    53813    53802    53785    53779    53777    53763    53746 
   53724    53701    53674    53640    53608    53576    53539    53507 
   53477    53446    53416    53393    53380    53365    53350    53346 
   53347    53339    53339    53345    53342    53341    53345    53345 
   53346    53350    53352    53353    53353    53349    53342    53331 
   53323    53318    53311    53303    53298    53291    53276    53260 
   53244    53223    53198    53176    53157    53138    53119    53099 
   53080    53060    53042    53028    53011    53005    52999    52990 
   52984    52979    52978    52980    52982    52986    52988    52994 
   53003    53009    53013    53021    53025    53028    53028    53023 
   53015    53005    52990    52972    52953    52932    52911    52898 
   52884    52872    52868    52870    52876    52883    52890    52902 
   52913    52924    52940    52961    52979    52995    53015    53033 
   53045    53057    53076    53094    53104    53117    53133    53144 
   53154    53167    53177    53185    53190    53194    53196    53195 
   53194    53191    53183    53175    53172    53168    53161    53156 
   53149    53141    53131    53119    53109    53095    53082    53072 
   53061    53052    53045    53040    53040    53049    53060    53072 
   53090    53106    53121    53140    53164    53181    53198    53221 
   53242    53256    53272    53289    53302    53315    53337    53354 
   53369    53395    53420    53439    53455    53473    53489    53493 
   53495    53504    53509    53509    53512    53516    53511    53507 
   53511    53509    53504    53507    53505    53496    53489    53485 
   53485    53488    53485    53477    53472    53472    53464    53458 
   53457    53457    53462    53473    53482    53493    53508    53522 
   53538    53553    53565    53580    53593    53605    53622    53635 
   53642    53657    53677    53694    53713    53731    53744    53758 
   53770    53779    53782    53786    53793    53798    53802    53804 
   53800    53798    53798    53793    53784    53774    53765    53744 
   53715    53688    53659    53624    53592    53559    53524    53487 
   53447    53408    53365    53322    53285    53246    53207    53180 
   53157    53127    53102    53083    53063    53044    53033    53017 
   53001    52988    52979    52965    52953    52945    52938    52930 
   52925    52917    52906    52898    52888    52879    52879    52879 
   52875    52876    52880    52884    52886    52884    52884    52887 
   52888    52887    52890    52895    52899    52906    52917    52932 
   52944    52956    52971    52986    53001    53014    53030    53048 
   53063    53076    53092    53106    53118    53130    53137    53136 
   53140    53144    53145    53149    53149    53149    53154    53156 
   53154    53156    53157    53160    53167    53173    53183    53194 
   53207    53223    53239    53257    53277    53299    53325    53350 
   53370    53395    53424    53449    53472    53493    53511    53527 
   53546    53563    53580    53592    53597    53604    53612    53612 
   53613    53619    53617    53611    53612    53615    53607    53590 
   53577    53566    53551    53535    53515    53492    53470    53453 
   53433    53416    53407    53395    53381    53380    53385    53384 
   53383    53388    53391    53392    53400    53406    53407    53411 
   53418    53424    53426    53426    53428    53426    53422    53420 
   53418    53415    53414    53414    53415    53414    53412    53416 
   53420    53420    53420    53422    53426    53428    53430    53433 
   53441    53450    53460    53466    53472    53477    53484    53492 
   53496    53499    53500    53501    53505    53508    53507    53509 
   53515    53515    53512    53509    53501    53493    53485    53473 
   53461    53453    53442    53428    53418    53410    53397    53389 
   53385    53377    53372    53379    53385    53387    53389    53392 
   53396    53404    53406    53399    53397    53397    53388    53374 
   53366    53356    53349    53347    53346    53347    53350    53350 
   53349    53349    53345    53334    53319    53311    53303    53289 
   53283    53285    53283    53276    53277    53284    53287    53283 
   53279    53277    53271    53260    53253    53242    53229    53222 
   53215    53203    53191    53184    53179    53175    53171    53168 
   53168    53171    53171    53175    53179    53183    53194    53208 
   53217    53225    53245    53265    53279    53295    53312    53326 
   53343    53360    53379    53396    53408    53423    53442    53455 
   53469    53484    53492    53500    53509    53516    53524    53531 
   53532    53531    53530    53528    53524    53514    53497    53480 
   53461    53442    53420    53395    53369    53343    53315    53283 
   53248    53215    53184    53149    53115    53091    53068    53045 
   53022    53001    52983    52968    52955    52940    52925    52913 
   52899    52879    52857    52836    52813    52791    52768    52747 
   52728    52710    52694    52679    52666    52656    52652    52656 
   52660    52664    52677    52695    52714    52737    52770    52802 
   52837    52879    52920    52959    53005    53052    53098    53145 
   53190    53231    53273    53314    53350    53389    53426    53458 
   53491    53522    53551    53580    53607    53634    53658    53681 
   53709    53731    53750    53771    53793    53815    53838    53858 
   53878    53898    53920    53946    53966    53983    54008    54035 
   54059    54081    54103    54126    54151    54174    54197    54220 
   54237    54249    54264    54275    54279    54276    54265    54243 
   54217    54186    54147    54098    54040    53979    53917    53850 
   53784    53723    53663    53601    53541    53485    53430    53372 
   53320    53273    53226    53181    53142    53102    53061    53026 
   52995    52965    52938    52911    52884    52861    52841    52820 
   52797    52778    52763    52748    52735    52722    52710    52694 
   52677    52662    52651    52640    52631    52618    52604    52590 
   52577    52559    52543    52528    52515    52508    52508    52512 
   52515    52520    52532    52544    52559    52577    52594    52613 
   52637    52662    52683    52709    52739    52770    52803    52841 
   52879    52915    52953    52990    53026    53059    53086    53113 
   53141    53169    53194    53217    53241    53269    53293    53315 
   53338    53358    53374    53383    53389    53400    53406    53403 
   53400    53393    53385    53383    53377    53372    53368    53365 
   53361    53356    53352    53345    53335    53326    53318    53308 
   53298    53289    53279    53265    53252    53238    53223    53210 
   53203    53191    53177    53167    53158    53152    53145    53140 
   53142    53145    53141    53138    53134    53125    53117    53106 
   53088    53082    53084    53071    53056    53053    53052    53050 
   53050    53049    53048    53050    53056    53061    53069    53076 
   53084    53102    53122    53134    53152    53167    53175    53190 
   53204    53208    53210    53215    53226    53227    53223    53230 
   53233    53229    53235    53242    53242    53246    53253    53256 
   53264    53275    53285    53298    53307    53315    53325    53331 
   53338    53346    53352    53358    53366    53374    53384    53400 
   53424    53442    53461    53484    53504    53526    53547    53562 
   53577    53599    53616    53623    53628    53638    53647    53657 
   53659    53655    53654    53653    53646    53630    53615    53613 
   53613    53599    53588    53589    53585    53574    53569    53565 
   53558    53554    53550    53543    53543    53547    53547    53551 
   53555    53561    53576    53588    53597    53613    53624    53634 
   53655    53676    53686    53707    53732    53752    53767    53785 
   53798    53804    53813    53820    53816    53813    53812    53804 
   53797    53790    53782    53775    53765    53751    53740    53727 
   53712    53697    53680    53661    53640    53616    53596    53580 
   53553    53523    53501    53481    53453    53427    53410    53395 
   53377    53364    53356    53346    53334    53330    53334    53326 
   53314    53308    53298    53281    53271    53260    53241    53223 
   53206    53185    53164    53140    53107    53075    53044    53014 
   52987    52956    52918    52886    52857    52828    52798    52770 
   52740    52709    52681    52658    52636    52618    52602    52589 
   52582    52578    52573    52574    52581    52590    52605    52627 
   52650    52678    52713    52752    52793    52839    52887    52936 
   52992    53052    53111    53171    53234    53299    53360    53415 
   53473    53527    53572    53615    53658    53690    53719    53744 
   53770    53792    53808    53823    53839    53852    53866    53879 
   53892    53904    53919    53932    53943    53954    53966    53978 
   53989    54001    54014    54022    54025    54025    54025    54024 
   54016    54000    53982    53964    53937    53910    53879    53840 
   53801    53757    53707    53657    53603    53542    53480    53418 
   53353    53287    53226    53173    53113    53048    52995    52949 
   52899    52855    52817    52780    52747    52717    52689    52664 
   52648    52637    52627    52621    52621    52624    52631    52640 
   52651    52663    52677    52691    52706    52718    52731    52740 
   52749    52763    52775    52785    52793    52801    52813    52826 
   52837    52849    52868    52891    52914    52942    52974    53009 
   53045    53088    53134    53183    53234    53287    53341    53393 
   53439    53487    53539    53585    53624    53661    53693    53723 
   53752    53775    53793    53808    53820    53824    53828    53829 
   53824    53817    53812    53802    53790    53774    53757    53744 
   53727    53704    53688    53671    53647    53622    53599    53574 
   53554    53532    53511    53497    53481    53458    53439    53424 
   53406    53381    53360    53339    53312    53287    53262    53230 
   53203    53177    53142    53111    53083    53049    53017    52987 
   52957    52933    52914    52897    52886    52879    52875    52876 
   52876    52878    52880    52886    52893    52901    52910    52922 
   52933    52941    52956    52974    52990    53003    53015    53032 
   53044    53052    53061    53073    53077    53086    53095    53096 
   53100    53111    53123    53130    53137    53148    53165    53181 
   53195    53215    53231    53246    53264    53283    53300    53318 
   53337    53356    53377    53400    53422    53442    53469    53496 
   53515    53536    53559    53574    53588    53601    53607    53609 
   53607    53601    53592    53578    53559    53542    53523    53500 
   53476    53451    53427    53403    53379    53356    53333    53310 
   53293    53279    53262    53249    53244    53242    53238    53237 
   53239    53241    53242    53244    53244    53244    53242    53237 
   53231    53226    53226    53225    53218    53215    53215    53215 
   53211    53206    53206    53206    53198    53190    53180    53168 
   53158    53148    53131    53118    53100    53084    53073    53061 
   53052    53046    53038    53034    53040    53045    53053    53064 
   53079    53095    53110    53122    53137    53154    53164    53169 
