Origin Time       2025/01/13 21:19:00
Lat.              31.8
Long.             131.6
Depth. (km)       30
Mag.              6.9
Station Code      HYGH06
Station Lat.      34.7935
Station Long.     134.4792
Station Height(m) 65
Record Time       2025/01/13 21:21:31
Sampling Freq(Hz) 100Hz
Duration Time(s)  120
Dir.              4
Scale Factor      7845(gal)/8223790
Max. Acc. (gal)   0.449
Last Correction   2025/01/13 21:21:32
Memo.             
[...]
    4909     4904     4908     4918     4924     4939     4949     4939 
    4934     4916     4885     4870     4850     4811     4793     4796 
    4797     4810     4819     4804     4789     4773     4739     4718 
    4706     4683     4673     4689     4702     4703     4702     4687 
    4666     4644     4615     4612     4637     4648     4646     4648 
    4648     4657     4654     4629     4615     4617     4612     4631 
    4649     4637     4639     4662     4664     4662     4687     4718 
    4757     4799     4820     4837     4853     4845     4827     4834 
    4851     4864     4888     4909     4920     4939     4961     4974 
    4990     5005     5015     5030     5043     5047     5057     5071 
    5082     5100     5117     5119     5116     5121     5135     5143 
    5138     5131     5146     5171     5179     5174     5165     5151 
    5147     5148     5150     5166     5175     5162     5159     5161 
    5148     5148     5158     5151     5140     5138     5115     5078 
    5069     5073     5070     5070     5061     5039     5017     4999 
    4982     4972     4966     4973     4989     4999     4995     4981 
    4966     4959     4961     4962     4974     4989     4981     4974 
    4981     4989     5016     5061     5093     5109     5108     5080 
    5046     5028     5019     5019     5038     5062     5073     5076 
    5067     5055     5063     5088     5084     5059     5062     5066 
    5049     5030     5022     5034     5057     5062     5057     5055 
    5046     5022     4997     4985     4980     4977     4993     5007 
    5005     5009     5001     4977     4969     4963     4951     4955 
    4977     4997     5009     5015     5031     5059     5074     5070 
    5066     5073     5078     5065     5036     5008     4985     4980 
    4999     5019     5028     5040     5038     5008     4986     4972 
    4942     4920     4927     4934     4926     4919     4912     4882 
    4853     4833     4804     4779     4770     4772     4774     4772 
    4772     4781     4797     4811     4815     4819     4834     4854 
    4873     4893     4919     4936     4943     4963     4989     5013 
    5053     5100     5138     5162     5171     5178     5188     5188 
    5189     5201     5208     5197     5192     5206     5221     5227 
    5229     5213     5190     5184     5171     5147     5127     5104 
    5080     5076     5071     5047     5028     5009     4978     4957 
    4941     4922     4904     4892     4885     4881     4882     4884 
    4861     4833     4824     4827     4831     4846     4855     4864 
    4888     4904     4905     4916     4928     4934     4941     4951 
    4966     4982     5009     5036     5065     5116     5173     5201 
    5211     5217     5208     5196     5211     5223     5227     5244 
    5265     5274     5262     5247     5247     5243     5229     5228 
    5229     5223     5223     5227     5227     5223     5215     5211 
    5198     5178     5163     5157     5148     5131     5121     5131 
    5138     5140     5140     5144     5159     5169     5166     5169 
    5177     5167     5143     5127     5125     5138     5159     5178 
    5189     5181     5167     5162     5143     5123     5115     5105 
    5093     5088     5092     5092     5088     5081     5065     5038 
    4992     4961     4969     4969     4949     4939     4939     4946 
    4959     4955     4943     4947     4947     4941     4953     4962 
    4954     4955     4965     4969     4969     4976     4989     5001 
    5003     4990     4992     5013     5040     5070     5103     5135 
    5158     5163     5154     5148     5151     5143     5132     5125 
    5111     5104     5112     5115     5104     5082     5066     5066 
    5063     5044     5036     5022     4978     4943     4918     4874 
    4839     4816     4783     4750     4734     4718     4700     4689 
    4671     4646     4629     4608     4583     4568     4569     4571 
    4576     4584     4579     4568     4564     4563     4573     4587 
    4604     4646     4684     4696     4714     4737     4756     4781 
    4801     4816     4843     4874     4899     4918     4938     4970 
    5004     5034     5054     5057     5046     5035     5039     5051 
    5067     5090     5113     5125     5138     5155     5163     5177 
    5209     5238     5258     5269     5265     5265     5255     5225 
    5212     5208     5206     5233     5260     5267     5283     5289 
    5285     5285     5266     5232     5206     5175     5152     5154 
    5158     5157     5159     5140     5113     5105     5088     5051 
    5027     5017     5005     4989     4980     4978     4981     4986 
    4978     4972     4977     4970     4961     4963     4963     4958 
    4954     4943     4923     4899     4873     4855     4855     4855 
    4846     4827     4793     4760     4731     4696     4673     4681 
    4691     4696     4712     4716     4706     4696     4684     4668 
    4650     4641     4648     4653     4649     4649     4656     4666 
    4685     4704     4725     4741     4742     4737     4737     4739 
    4749     4765     4787     4807     4815     4827     4838     4839 
    4854     4885     4911     4941     4982     5015     5031     5049 
    5063     5069     5067     5069     5069     5055     5049     5040 
    5019     5011     5013     5016     5022     5016     4989     4957 
    4926     4903     4888     4870     4853     4843     4833     4808 
    4780     4762     4754     4742     4733     4731     4738     4754 
    4762     4762     4770     4776     4761     4742     4742     4743 
    4746     4750     4757     4779     4801     4820     4841     4849 
    4858     4872     4884     4900     4907     4905     4911     4919 
    4935     4957     4974     4992     5011     5030     5043     5062 
    5081     5097     5104     5109     5120     5125     5139     5161 
    5179     5206     5232     5239     5242     5262     5281     5282 
    5283     5285     5286     5296     5306     5314     5314     5312 
    5304     5285     5270     5251     5228     5221     5213     5200 
    5196     5193     5174     5143     5124     5121     5131     5143 
    5138     5127     5128     5121     5096     5076     5065     5051 
    5044     5047     5044     5036     5016     4984     4959     4955 
    4961     4955     4939     4930     4908     4870     4860     4876 
    4876     4885     4904     4876     4849     4853     4843     4845 
    4877     4909     4950     5003     5034     5036     5049     5054 
    5047     5073     5101     5100     5107     5124     5125     5134 
    5159     5166     5165     5182     5181     5169     5166     5138 
    5100     5092     5078     5039     5016     4999     4958     4935 
    4920     4889     4878     4877     4861     4857     4862     4862 
    4858     4853     4850     4855     4857     4853     4851     4843 
    4833     4846     4862     4865     4884     4911     4928     4950 
    4976     4985     4988     5001     5020     5026     5020     5015 
    5003     4985     4978     4985     4992     4990     4986     4985 
    4974     4968     4972     4954     4934     4941     4941     4927 
    4919     4900     4884     4897     4923     4931     4915     4892 
    4870     4855     4846     4841     4849     4872     4897     4911 
    4920     4931     4923     4903     4891     4882     4870     4873 
    4889     4899     4907     4915     4916     4923     4936     4932 
    4920     4909     4885     4860     4853     4864     4876     4885 
    4893     4892     4884     4884     4892     4899     4904     4922 
    4946     4969     4982     4997     5022     5038     5044     5058 
    5080     5094     5104     5131     5159     5167     5177     5198 
    5211     5221     5240     5262     5260     5240     5235     5254 
    5269     5271     5278     5287     5285     5278     5285     5298 
    5296     5278     5255     5225     5197     5179     5163     5135 
    5105     5085     5070     5051     5027     5027     5035     5013 
    4985     4972     4962     4953     4935     4914     4907     4911 
    4918     4919     4907     4887     4885     4903     4908     4905 
    4919     4943     4955     4950     4941     4942     4943     4953 
    4973     4973     4942     4916     4911     4903     4891     4895 
    4901     4896     4881     4866     4862     4843     4806     4780 
    4766     4747     4733     4720     4707     4695     4688     4691 
    4706     4726     4742     4738     4723     4720     4730     4741 
    4756     4777     4795     4797     4804     4804     4789     4789 
    4801     4806     4822     4846     4855     4865     4892     4915 
    4924     4936     4946     4947     4945     4935     4932     4932 
    4938     4951     4962     4962     4958     4945     4920     4915 
    4931     4938     4942     4958     4969     4969     4976     4990 
    4989     4966     4951     4954     4950     4939     4947     4950 
    4931     4915     4912     4904     4892     4892     4896     4895 
    4901     4895     4877     4874     4868     4842     4826     4827 
    4841     4858     4865     4861     4860     4857     4853     4866 
    4893     4907     4903     4892     4889     4893     4891     4889 
    4901     4916     4922     4932     4946     4957     4974     5001 
    5026     5043     5069     5098     5115     5112     5100     5111 
    5146     5171     5185     5197     5196     5177     5167     5162 
    5146     5150     5179     5190     5182     5179     5175     5171 
    5177     5186     5194     5198     5190     5169     5144     5117 
    5090     5096     5120     5121     5120     5131     5136     5130 
    5115     5105     5104     5098     5092     5097     5101     5100 
    5112     5136     5142     5134     5127     5113     5094     5081 
    5073     5062     5058     5059     5059     5061     5061     5049 
    5022     5003     4996     4984     4959     4930     4897     4866 
    4850     4841     4827     4810     4796     4783     4766     4747 
    4733     4725     4710     4689     4683     4681     4673     4672 
    4673     4666     4671     4684     4687     4687     4688     4681 
    4675     4688     4711     4726     4752     4785     4797     4793 
    4793     4792     4800     4815     4823     4838     4861     4878 
    4900     4926     4947     4981     5023     5047     5054     5053 
    5039     5035     5047     5055     5070     5105     5139     5151 
    5161     5181     5189     5185     5178     5177     5185     5185 
    5181     5188     5181     5169     5167     5166     5152     5120 
    5096     5096     5105     5101     5089     5096     5107     5111 
    5119     5127     5134     5142     5150     5167     5189     5202 
    5212     5219     5213     5201     5198     5208     5223     5246 
    5265     5266     5265     5269     5266     5260     5255     5260 
    5278     5278     5262     5259     5250     5221     5200     5186 
    5167     5130     5089     5069     5058     5042     5022     5012 
    5017     5011     5000     4997     4989     4966     4935     4911 
    4896     4895     4901     4903     4911     4919     4918     4922 
    4930     4930     4923     4920     4928     4920     4903     4893 
    4881     4866     4858     4850     4854     4869     4878     4876 
    4864     4851     4845     4834     4837     4845     4835     4831 
    4827     4811     4810     4808     4792     4785     4783     4766 
    4745     4737     4737     4737     4739     4750     4761     4766 
    4772     4772     4757     4756     4761     4756     4762     4785 
    4797     4799     4808     4819     4814     4820     4843     4858 
    4869     4889     4915     4939     4953     4958     4963     4976 
    4986     4995     5007     5023     5030     5027     5034     5046 
    5058     5078     5097     5120     5142     5148     5154     5167 
    5171     5179     5194     5200     5194     5185     5175     5171 
    5171     5174     5189     5189     5170     5158     5143     5117 
    5093     5071     5050     5024     4995     4966     4941     4920 
    4912     4911     4903     4889     4869     4847     4820     4787 
    4766     4756     4743     4735     4722     4706     4696     4692 
    4679     4657     4645     4639     4634     4635     4644     4646 
    4652     4673     4692     4704     4726     4745     4746     4754 
    4788     4823     4850     4882     4915     4946     4974     5001 
    5027     5038     5053     5082     5098     5104     5124     5152 
    5175     5196     5209     5219     5229     5231     5227     5228 
    5227     5217     5223     5235     5228     5213     5208     5205 
    5198     5192     5188     5192     5192     5184     5184     5189 
    5173     5147     5143     5139     5120     5111     5107     5094 
    5085     5084     5085     5086     5084     5085     5088     5089 
    5092     5103     5111     5109     5117     5132     5135     5125 
    5115     5107     5096     5080     5071     5066     5057     5047 
    5032     5024     5019     4999     4973     4961     4954     4927 
    4896     4868     4831     4800     4785     4781     4779     4772 
    4758     4743     4733     4715     4698     4693     4684     4662 
    4649     4646     4633     4611     4595     4577     4561     4552 
    4545     4534     4519     4509     4510     4510     4506     4506 
    4511     4519     4531     4541     4544     4553     4568     4572 
    4571     4568     4567     4576     4581     4590     4619     4652 
    4679     4708     4727     4737     4752     4772     4780     4783 
    4796     4812     4843     4887     4911     4924     4949     4959 
    4966     4988     5012     5030     5044     5058     5074     5098 
    5128     5155     5178     5198     5211     5217     5227     5239 
    5247     5254     5262     5271     5283     5289     5278     5270 
    5271     5273     5277     5282     5282     5275     5255     5233 
    5220     5211     5200     5190     5186     5186     5178     5165 
    5154     5140     5131     5127     5123     5117     5115     5115 
    5103     5092     5100     5105     5100     5096     5093     5081 
    5070     5059     5049     5040     5030     5016     5003     4985 
    4966     4947     4930     4912     4893     4878     4864     4834 
    4807     4793     4780     4765     4760     4753     4741     4737 
    4735     4730     4727     4731     4733     4726     4729     4746 
    4750     4746     4756     4764     4761     4774     4791     4791 
    4799     4812     4815     4823     4843     4857     4865     4881 
    4904     4920     4928     4942     4957     4962     4965     4974 
    4989     4997     5007     5024     5032     5030     5034     5039 
    5049     5055     5061     5070     5071     5063     5043     5016 
    5011     5020     5022     5022     5024     5012     4989     4970 
    4950     4926     4918     4928     4927     4927     4941     4936 
    4916     4903     4891     4878     4880     4885     4888     4891 
    4885     4884     4891     4897     4912     4924     4928     4934 
    4934     4927     4928     4939     4945     4958     4984     5000 
    5009     5026     5049     5065     5073     5080     5093     5115 
    5131     5134     5136     5146     5143     5139     5139     5131 
    5125     5121     5104     5088     5080     5070     5070     5080 
    5089     5089     5092     5089     5065     5040     5034     5022 
    5003     5001     5004     5003     5016     5028     5024     5019 
    5017     5015     5016     5019     5012     5004     5005     5008 
    5005     4997     4999     5007     5007     5001     5003     5004 
    4993     4974     4966     4961     4959     4958     4953     4955 
    4962     4966     4968     4958     4946     4941     4935     4927 
    4919     4918     4918     4918     4922     4924     4928     4934 
    4935     4926     4915     4915     4918     4909     4895     4889 
    4899     4912     4919     4920     4920     4918     4909     4896 
    4888     4892     4897     4905     4907     4901     4889     4874 
    4861     4849     4838     4835     4828     4811     4808     4814 
    4806     4799     4803     4806     4808     4804     4789     4781 
    4776     4774     4785     4797     4808     4820     4828     4828 
    4815     4806     4811     4811     4812     4827     4833     4833 
    4843     4853     4861     4866     4870     4884     4889     4876 
    4872     4882     4896     4909     4926     4947     4968     4982 
    4993     5004     5012     5017     5013     5013     5022     5030 
    5043     5059     5069     5069     5066     5061     5051     5050 
    5058     5063     5071     5092     5109     5112     5121     5135 
    5131     5128     5134     5128     5120     5120     5121     5119 
    5123     5131     5131     5132     5134     5119     5101     5092 
    5084     5084     5078     5066     5069     5076     5069     5057 
    5049     5042     5032     5030     5035     5032     5028     5035 
    5038     5034     5043     5062     5077     5086     5092     5090 
    5081     5078     5082     5088     5107     5130     5144     5155 
    5157     5152     5158     5171     5174     5169     5178     5185 
    5182     5189     5200     5201     5204     5219     5225     5212 
    5202     5196     5177     5166     5163     5159     5158     5146 
    5132     5135     5127     5107     5096     5084     5067     5049 
    5031     5020     5008     4996     4997     5001     5001     5001 
    4993     4972     4946     4927     4916     4908     4903     4899 
    4893     4881     4864     4853     4842     4830     4828     4833 
    4822     4807     4800     4793     4779     4766     4761     4754 
    4745     4743     4735     4719     4712     4703     4693     4696 
    4696     4693     4692     4687     4680     4669     4661     4661 
    4668     4679     4680     4679     4680     4679     4679     4684 
    4696     4707     4718     4735     4757     4769     4776     4779 
    4780     4784     4797     4815     4830     4842     4854     4868 
    4884     4897     4907     4918     4926     4935     4935     4923 
    4927     4946     4962     4982     5003     5007     5004     5000 
    4996     4999     5003     4999     5004     5027     5053     5063 
    5076     5093     5104     5111     5120     5121     5123     5124 
    5123     5125     5136     5154     5166     5170     5179     5193 
    5202     5212     5217     5215     5213     5213     5206     5205 
    5217     5220     5221     5235     5240     5228     5221     5217 
    5202     5192     5189     5181     5177     5173     5159     5161 
    5170     5161     5151     5148     5140     5136     5131     5131 
    5138     5136     5134     5132     5123     5117     5115     5108 
    5115     5120     5111     5103     5101     5101     5096     5088 
    5082     5070     5051     5034     5020     5013     5008     4995 
    4986     4984     4968     4947     4941     4942     4945     4947 
    4955     4973     4980     4969     4968     4974     4970     4968 
