Origin Time       2025/01/13 21:19:00
Lat.              31.8
Long.             131.6
Depth. (km)       30
Mag.              6.9
Station Code      HYGH04
Station Lat.      35.0708
Station Long.     135.2811
Station Height(m) 117.85
Record Time       2025/01/13 21:21:58
Sampling Freq(Hz) 100Hz
Duration Time(s)  120
Dir.              1
Scale Factor      3923(gal)/8224838
Max. Acc. (gal)   0.159
Last Correction   2025/01/13 21:21:59
Memo.             
[...]
   -9953    -9953    -9950    -9946    -9944    -9944    -9942    -9937 
   -9933    -9931    -9927    -9922    -9918    -9914    -9910    -9904 
   -9899    -9895    -9891    -9886    -9880    -9876    -9872    -9865 
   -9860    -9857    -9848    -9840    -9834    -9828    -9818    -9809 
   -9802    -9795    -9790    -9786    -9780    -9778    -9775    -9774 
   -9772    -9769    -9768    -9768    -9768    -9768    -9769    -9769 
   -9772    -9774    -9772    -9772    -9776    -9778    -9782    -9788 
   -9794    -9799    -9805    -9810    -9813    -9819    -9826    -9832 
   -9838    -9845    -9849    -9856    -9863    -9869    -9875    -9880 
   -9884    -9890    -9894    -9894    -9898    -9906    -9909    -9911 
   -9918    -9921    -9921    -9922    -9926    -9927    -9929    -9931 
   -9931    -9930    -9930    -9930    -9929    -9926    -9923    -9918 
   -9913    -9909    -9903    -9898    -9892    -9884    -9877    -9873 
   -9865    -9857    -9850    -9842    -9833    -9823    -9815    -9806 
   -9795    -9782    -9771    -9761    -9755    -9747    -9734    -9720 
   -9709    -9702    -9694    -9686    -9679    -9674    -9667    -9659 
   -9651    -9647    -9645    -9641    -9637    -9633    -9633    -9636 
   -9636    -9639    -9644    -9644    -9648    -9653    -9656    -9656 
   -9657    -9660    -9663    -9666    -9667    -9668    -9674    -9676 
   -9679    -9684    -9688    -9690    -9694    -9699    -9699    -9702 
   -9705    -9703    -9706    -9707    -9707    -9709    -9711    -9717 
   -9720    -9721    -9725    -9729    -9730    -9734    -9736    -9737 
   -9741    -9742    -9744    -9751    -9753    -9756    -9761    -9768 
   -9771    -9775    -9780    -9780    -9782    -9787    -9792    -9796 
   -9802    -9807    -9811    -9818    -9825    -9830    -9840    -9852 
   -9863    -9872    -9879    -9888    -9899    -9909    -9914    -9921 
   -9929    -9938    -9942    -9948    -9956    -9958    -9960    -9963 
   -9964    -9965    -9967    -9967    -9967    -9968    -9965    -9965 
   -9967    -9967    -9967    -9967    -9967    -9965    -9964    -9964 
   -9964    -9965    -9964    -9965    -9968    -9971    -9975    -9976 
   -9975    -9975    -9973    -9971    -9967    -9967    -9967    -9958 
   -9950    -9948    -9942    -9936    -9931    -9925    -9917    -9909 
   -9903    -9895    -9883    -9872    -9865    -9856    -9845    -9837 
   -9829    -9819    -9811    -9806    -9801    -9791    -9783    -9779 
   -9774    -9765    -9756    -9748    -9740    -9736    -9733    -9729 
   -9726    -9725    -9724    -9722    -9721    -9718    -9718    -9721 
   -9722    -9722    -9725    -9726    -9725    -9726    -9728    -9728 
   -9728    -9726    -9726    -9724    -9722    -9721    -9718    -9715 
   -9717    -9717    -9715    -9717    -9720    -9722    -9722    -9724 
   -9726    -9726    -9725    -9728    -9730    -9732    -9733    -9734 
   -9736    -9740    -9742    -9741    -9744    -9748    -9748    -9749 
   -9752    -9751    -9751    -9752    -9752    -9751    -9749    -9751 
   -9749    -9747    -9747    -9751    -9749    -9747    -9748    -9747 
   -9742    -9742    -9741    -9740    -9741    -9744    -9745    -9747 
   -9747    -9749    -9753    -9756    -9757    -9757    -9759    -9763 
   -9764    -9765    -9769    -9769    -9771    -9772    -9774    -9775 
   -9778    -9779    -9778    -9778    -9776    -9774    -9769    -9768 
   -9768    -9765    -9760    -9755    -9752    -9749    -9741    -9736 
   -9732    -9726    -9720    -9711    -9705    -9699    -9695    -9688 
   -9683    -9676    -9672    -9667    -9663    -9659    -9652    -9645 
   -9641    -9634    -9626    -9621    -9617    -9610    -9603    -9598 
   -9594    -9590    -9585    -9579    -9576    -9575    -9575    -9576 
   -9575    -9574    -9575    -9578    -9580    -9586    -9593    -9598 
   -9605    -9616    -9624    -9630    -9641    -9653    -9666    -9678 
   -9688    -9703    -9717    -9725    -9732    -9741    -9751    -9756 
   -9764    -9772    -9774    -9778    -9783    -9784    -9783    -9783 
   -9783    -9782    -9780    -9779    -9776    -9775    -9775    -9771 
   -9769    -9768    -9768    -9771    -9774    -9775    -9778    -9783 
   -9790    -9794    -9801    -9810    -9815    -9823    -9832    -9841 
   -9852    -9863    -9872    -9882    -9892    -9902    -9910    -9917 
   -9925    -9931    -9940    -9952    -9960    -9965    -9975    -9981 
   -9984    -9990    -9992    -9990    -9988    -9987    -9985    -9983 
   -9979    -9975    -9967    -9958    -9952    -9941    -9929    -9917 
   -9903    -9890    -9876    -9861    -9846    -9834    -9823    -9813 
   -9803    -9791    -9776    -9761    -9748    -9734    -9722    -9709 
   -9697    -9686    -9674    -9664    -9655    -9645    -9640    -9636 
   -9630    -9626    -9626    -9628    -9628    -9633    -9639    -9644 
   -9652    -9663    -9672    -9680    -9690    -9698    -9707    -9714 
   -9720    -9729    -9737    -9742    -9748    -9756    -9761    -9763 
   -9765    -9769    -9771    -9771    -9768    -9767    -9767    -9760 
   -9756    -9756    -9755    -9752    -9751    -9749    -9747    -9747 
   -9747    -9741    -9740    -9742    -9744    -9747    -9751    -9756 
   -9763    -9768    -9775    -9783    -9790    -9799    -9811    -9822 
   -9834    -9844    -9852    -9864    -9877    -9890    -9900    -9909 
   -9919    -9931    -9940    -9946    -9957    -9964    -9968    -9972 
   -9977    -9980    -9981    -9983    -9985    -9984    -9981    -9977 
   -9972    -9965    -9958    -9952    -9944    -9937    -9927    -9914 
   -9904    -9895    -9883    -9869    -9857    -9844    -9832    -9819 
   -9805    -9791    -9778    -9761    -9747    -9730    -9718    -9705 
   -9688    -9672    -9659    -9641    -9626    -9613    -9597    -9583 
   -9574    -9564    -9552    -9543    -9536    -9528    -9522    -9517 
   -9512    -9506    -9502    -9501    -9497    -9493    -9495    -9499 
   -9499    -9501    -9502    -9502    -9506    -9510    -9513    -9516 
   -9520    -9521    -9520    -9525    -9529    -9531    -9533    -9537 
   -9543    -9549    -9560    -9567    -9568    -9579    -9591    -9599 
   -9612    -9626    -9641    -9655    -9667    -9682    -9699    -9715 
   -9732    -9749    -9765    -9783    -9801    -9817    -9836    -9853 
   -9872    -9888    -9907    -9929    -9948    -9964    -9983    -9998 
  -10012   -10029   -10042   -10054   -10064   -10071   -10076   -10080 
  -10084   -10084   -10084   -10081   -10075   -10069   -10064   -10056 
  -10044   -10031   -10021   -10007    -9992    -9980    -9964    -9949 
   -9936    -9921    -9907    -9896    -9883    -9869    -9857    -9846 
   -9838    -9833    -9828    -9823    -9818    -9814    -9813    -9813 
   -9815    -9817    -9821    -9828    -9836    -9841    -9849    -9859 
   -9867    -9876    -9884    -9892    -9902    -9909    -9918    -9926 
   -9936    -9945    -9953    -9960    -9965    -9973    -9980    -9984 
   -9992    -9998   -10002   -10008   -10012   -10014   -10019   -10023 
  -10023   -10025   -10027   -10029   -10030   -10027   -10022   -10015 
  -10007    -9999    -9990    -9980    -9971    -9963    -9953    -9942 
   -9936    -9929    -9922    -9915    -9911    -9909    -9904    -9902 
   -9900    -9900    -9902    -9902    -9904    -9911    -9917    -9922 
   -9930    -9936    -9945    -9954    -9964    -9973    -9981    -9987 
   -9992   -10000   -10007   -10011   -10015   -10018   -10019   -10022 
  -10023   -10022   -10022   -10021   -10018   -10014   -10014   -10011 
  -10006   -10000    -9995    -9990    -9981    -9976    -9969    -9961 
   -9949    -9938    -9930    -9919    -9903    -9887    -9875    -9860 
   -9842    -9826    -9811    -9792    -9775    -9756    -9737    -9722 
   -9707    -9691    -9679    -9671    -9657    -9647    -9643    -9636 
   -9630    -9630    -9629    -9628    -9629    -9629    -9629    -9630 
   -9632    -9634    -9636    -9636    -9636    -9639    -9639    -9636 
   -9634    -9632    -9626    -9625    -9622    -9613    -9606    -9601 
   -9591    -9583    -9574    -9563    -9555    -9547    -9541    -9537 
   -9528    -9518    -9513    -9509    -9505    -9504    -9504    -9504 
   -9506    -9508    -9512    -9518    -9524    -9531    -9541    -9553 
   -9567    -9579    -9591    -9609    -9628    -9640    -9652    -9670 
   -9687    -9702    -9720    -9736    -9751    -9764    -9779    -9794 
   -9809    -9821    -9834    -9849    -9860    -9867    -9875    -9884 
   -9892    -9896    -9900    -9903    -9904    -9904    -9906    -9907 
   -9904    -9899    -9895    -9894    -9891    -9884    -9877    -9869 
   -9864    -9863    -9860    -9855    -9850    -9849    -9846    -9844 
   -9844    -9842    -9840    -9838    -9833    -9829    -9826    -9822 
   -9819    -9815    -9811    -9807    -9801    -9794    -9787    -9780 
   -9774    -9768    -9765    -9763    -9761    -9761    -9763    -9764 
   -9769    -9778    -9782    -9788    -9803    -9817    -9826    -9838 
   -9853    -9867    -9877    -9888    -9903    -9914    -9923    -9937 
   -9946    -9954    -9967    -9975    -9983    -9994   -10000   -10003 
  -10008   -10012   -10017   -10018   -10018   -10019   -10021   -10021 
  -10019   -10017   -10011   -10010   -10006    -9998    -9991    -9985 
   -9977    -9969    -9961    -9949    -9938    -9930    -9917    -9900 
   -9887    -9872    -9855    -9838    -9822    -9805    -9787    -9768 
   -9751    -9736    -9721    -9707    -9695    -9682    -9674    -9666 
   -9656    -9652    -9649    -9643    -9641    -9641    -9639    -9640 
   -9645    -9649    -9651    -9653    -9655    -9656    -9660    -9663 
   -9663    -9664    -9666    -9664    -9664    -9667    -9666    -9666 
   -9670    -9668    -9671    -9678    -9682    -9686    -9694    -9699 
   -9707    -9718    -9729    -9741    -9753    -9764    -9776    -9787 
   -9798    -9811    -9822    -9830    -9842    -9852    -9859    -9865 
   -9871    -9876    -9879    -9879    -9879    -9877    -9876    -9872 
   -9869    -9867    -9860    -9852    -9845    -9837    -9825    -9815 
   -9805    -9794    -9786    -9778    -9769    -9761    -9755    -9748 
   -9741    -9736    -9732    -9726    -9722    -9717    -9714    -9715 
   -9717    -9718    -9720    -9720    -9720    -9718    -9717    -9718 
   -9718    -9720    -9715    -9710    -9706    -9702    -9698    -9694 
   -9690    -9684    -9676    -9670    -9666    -9661    -9652    -9647 
   -9647    -9644    -9641    -9640    -9640    -9637    -9637    -9639 
   -9640    -9641    -9647    -9652    -9655    -9660    -9666    -9674 
   -9682    -9686    -9690    -9702    -9714    -9721    -9725    -9732 
   -9740    -9749    -9757    -9764    -9771    -9779    -9783    -9790 
   -9798    -9803    -9809    -9818    -9822    -9825    -9832    -9834 
   -9833    -9837    -9838    -9838    -9836    -9833    -9833    -9833 
   -9833    -9830    -9829    -9828    -9828    -9829    -9829    -9828 
   -9829    -9830    -9832    -9830    -9826    -9823    -9825    -9822 
   -9817    -9813    -9805    -9796    -9788    -9780    -9771    -9760 
   -9749    -9741    -9726    -9711    -9698    -9686    -9671    -9657 
   -9648    -9636    -9621    -9610    -9606    -9598    -9589    -9585 
   -9580    -9576    -9576    -9576    -9578    -9582    -9586    -9590 
   -9597    -9605    -9614    -9629    -9644    -9656    -9670    -9683 
   -9702    -9718    -9733    -9749    -9764    -9782    -9799    -9815 
   -9832    -9846    -9859    -9869    -9882    -9892    -9899    -9904 
   -9910    -9911    -9910    -9909    -9910    -9909    -9906    -9900 
   -9894    -9888    -9883    -9875    -9867    -9859    -9848    -9836 
   -9825    -9814    -9803    -9792    -9784    -9775    -9767    -9760 
   -9751    -9742    -9737    -9729    -9724    -9720    -9715    -9711 
   -9707    -9702    -9699    -9697    -9695    -9693    -9687    -9680 
   -9676    -9671    -9664    -9660    -9656    -9649    -9643    -9636 
   -9628    -9622    -9617    -9610    -9605    -9599    -9594    -9587 
   -9582    -9578    -9574    -9570    -9567    -9566    -9564    -9564 
   -9566    -9566    -9568    -9572    -9574    -9580    -9589    -9599 
   -9613    -9624    -9634    -9653    -9670    -9683    -9702    -9722 
   -9738    -9760    -9783    -9802    -9821    -9841    -9857    -9875 
   -9892    -9907    -9921    -9931    -9941    -9952    -9963    -9969 
   -9975    -9983    -9990    -9991    -9994    -9994    -9992    -9992 
   -9992    -9990    -9987    -9984    -9979    -9976    -9973    -9969 
   -9969    -9971    -9965    -9960    -9958    -9961    -9961    -9960 
   -9961    -9964    -9969    -9975    -9977    -9985    -9988    -9992 
   -9998    -9999   -10002   -10008   -10012   -10015   -10018   -10019 
  -10022   -10025   -10023   -10023   -10023   -10021   -10018   -10017 
  -10012   -10004    -9996    -9987    -9976    -9968    -9957    -9945 
   -9934    -9918    -9899    -9886    -9869    -9855    -9841    -9826 
   -9809    -9791    -9775    -9760    -9742    -9728    -9714    -9698 
   -9687    -9678    -9664    -9655    -9647    -9639    -9634    -9633 
   -9632    -9632    -9633    -9637    -9637    -9641    -9648    -9655 
   -9663    -9675    -9687    -9699    -9715    -9730    -9748    -9764 
   -9782    -9802    -9822    -9838    -9856    -9876    -9894    -9913 
   -9934    -9953    -9969    -9990   -10011   -10025   -10037   -10054 
  -10069   -10079   -10087   -10096   -10102   -10108   -10112   -10114 
  -10116   -10116   -10111   -10108   -10106   -10099   -10092   -10085 
  -10077   -10069   -10062   -10057   -10049   -10038   -10030   -10023 
  -10014   -10007   -10000    -9991    -9981    -9975    -9967    -9958 
   -9948    -9937    -9927    -9919    -9907    -9894    -9884    -9873 
   -9857    -9844    -9829    -9811    -9798    -9782    -9763    -9749 
   -9732    -9711    -9695    -9679    -9663    -9649    -9633    -9617 
   -9609    -9601    -9589    -9580    -9572    -9566    -9563    -9558 
   -9555    -9558    -9558    -9556    -9558    -9560    -9563    -9567 
   -9574    -9578    -9578    -9585    -9594    -9599    -9602    -9607 
   -9614    -9622    -9630    -9637    -9641    -9648    -9657    -9663 
   -9671    -9679    -9683    -9688    -9695    -9701    -9706    -9714 
   -9721    -9724    -9729    -9738    -9744    -9748    -9753    -9757 
   -9760    -9765    -9772    -9779    -9786    -9790    -9792    -9799 
   -9811    -9818    -9819    -9826    -9833    -9838    -9842    -9850 
   -9856    -9860    -9865    -9872    -9876    -9882    -9887    -9891 
   -9895    -9900    -9909    -9914    -9918    -9923    -9929    -9934 
   -9938    -9944    -9946    -9949    -9952    -9953    -9952    -9952 
   -9949    -9945    -9944    -9944    -9938    -9930    -9925    -9919 
   -9911    -9900    -9891    -9879    -9865    -9853    -9840    -9826 
   -9813    -9799    -9786    -9771    -9755    -9738    -9720    -9705 
   -9693    -9678    -9661    -9647    -9634    -9625    -9616    -9607 
   -9599    -9591    -9587    -9582    -9575    -9572    -9574    -9570 
   -9567    -9568    -9572    -9575    -9578    -9579    -9583    -9587 
   -9590    -9595    -9603    -9609    -9617    -9625    -9632    -9644 
   -9656    -9663    -9672    -9683    -9693    -9703    -9715    -9726 
   -9737    -9751    -9764    -9775    -9787    -9799    -9811    -9819 
   -9829    -9840    -9846    -9850    -9857    -9860    -9859    -9863 
   -9865    -9861    -9861    -9861    -9855    -9849    -9845    -9841 
   -9833    -9826    -9822    -9813    -9806    -9802    -9792    -9783 
   -9776    -9769    -9764    -9760    -9751    -9745    -9742    -9738 
   -9734    -9729    -9726    -9725    -9722    -9720    -9718    -9717 
   -9715    -9714    -9711    -9707    -9710    -9714    -9714    -9713 
   -9714    -9714    -9714    -9717    -9717    -9715    -9718    -9720 
   -9717    -9717    -9715    -9713    -9714    -9718    -9717    -9717 
   -9720    -9722    -9722    -9728    -9733    -9737    -9745    -9755 
   -9760    -9767    -9776    -9787    -9794    -9803    -9815    -9823 
   -9833    -9845    -9856    -9864    -9871    -9880    -9887    -9894 
   -9903    -9909    -9915    -9927    -9933    -9942    -9953    -9961 
   -9968    -9975    -9981    -9987    -9991    -9994    -9998   -10003 
  -10007   -10006   -10004   -10006   -10006   -10003    -9999    -9996 
   -9992    -9985    -9980    -9976    -9971    -9963    -9958    -9958 
   -9953    -9946    -9945    -9944    -9942    -9940    -9938    -9941 
   -9942    -9944    -9946    -9948    -9948    -9950    -9952    -9949 
   -9948    -9945    -9941    -9937    -9931    -9925    -9915    -9906 
   -9896    -9887    -9873    -9861    -9848    -9830    -9815    -9803 
   -9786    -9768    -9753    -9736    -9718    -9703    -9690    -9675 
   -9661    -9647    -9632    -9620    -9610    -9601    -9594    -9585 
   -9575    -9571    -9566    -9562    -9562    -9559    -9559    -9558 
   -9558    -9560    -9563    -9564    -9564    -9563    -9563    -9568 
   -9568    -9566    -9567    -9567    -9566    -9566    -9564    -9563 
   -9562    -9560    -9559    -9559    -9558    -9556    -9556    -9558 
   -9558    -9559    -9562    -9562    -9560    -9564    -9571    -9571 
   -9572    -9578    -9582    -9585    -9589    -9591    -9594    -9599 
   -9606    -9610    -9613    -9618    -9624    -9629    -9632    -9632 
   -9636    -9641    -9647    -9652    -9655    -9657    -9663    -9666 
   -9668    -9674    -9679    -9679    -9684    -9690    -9691    -9694 
   -9697    -9695    -9697    -9701    -9702    -9702    -9705    -9706 
   -9705    -9706    -9709    -9709    -9711    -9714    -9714    -9717 
   -9720    -9722    -9724    -9726    -9734    -9741    -9742    -9748 
   -9755    -9760    -9764    -9771    -9779    -9786    -9794    -9802 
   -9810    -9818    -9823    -9832    -9842    -9849    -9856    -9863 
   -9871    -9879    -9887    -9896    -9903    -9910    -9917    -9921 
   -9926    -9934    -9937    -9938    -9942    -9945    -9945    -9946 
   -9948    -9950    -9952    -9950    -9948    -9944    -9940    -9938 
   -9934    -9929    -9923    -9918    -9911    -9907    -9903    -9895 
   -9887    -9877    -9869    -9864    -9855    -9845    -9836    -9828 
   -9818    -9810    -9799    -9790    -9782    -9772    -9761    -9751 
   -9741    -9733    -9725    -9715    -9709    -9703    -9695    -9688 
   -9687    -9683    -9676    -9674    -9668    -9664    -9666    -9664 
   -9660    -9657    -9655    -9652    -9653    -9652    -9649    -9649 
   -9651    -9651    -9651    -9651    -9651    -9649    -9651    -9649 
   -9649    -9652    -9656    -9656    -9661    -9667    -9670    -9676 
   -9684    -9688    -9694    -9701    -9705    -9710    -9718    -9724 
   -9730    -9737    -9741    -9747    -9753    -9759    -9765    -9769 
   -9769    -9772    -9776    -9778    -9778    -9779    -9779    -9780 
   -9780    -9779    -9778    -9776    -9774    -9772    -9772    -9769 
   -9771    -9772    -9769    -9769    -9771    -9769    -9769    -9772 
   -9772    -9772    -9774    -9774    -9775    -9780    -9783    -9787 
   -9792    -9795    -9801    -9806    -9807    -9810    -9813    -9815 
   -9818    -9822    -9821    -9821    -9825    -9825    -9825    -9826 
   -9823    -9822    -9819    -9814    -9810    -9806    -9802    -9798 
