Origin Time       2025/01/13 21:19:00
Lat.              31.8
Long.             131.6
Depth. (km)       30
Mag.              6.9
Station Code      HYGH01
Station Lat.      34.2937
Station Long.     134.7941
Station Height(m) 65
Record Time       2025/01/13 21:20:54
Sampling Freq(Hz) 100Hz
Duration Time(s)  154
Dir.              6
Scale Factor      7845(gal)/8223790
Max. Acc. (gal)   0.580
Last Correction   2025/01/13 21:20:55
Memo.             
[...]
    8688     8687     8673     8664     8660     8649     8627     8618 
    8615     8588     8561     8557     8544     8522     8513     8500 
    8487     8479     8479     8479     8479     8480     8480     8473 
    8468     8471     8478     8473     8480     8491     8484     8487 
    8505     8507     8502     8511     8522     8532     8549     8568 
    8588     8614     8626     8631     8653     8665     8668     8679 
    8677     8673     8688     8689     8680     8687     8699     8700 
    8703     8719     8739     8735     8735     8758     8773     8772 
    8781     8803     8812     8806     8800     8797     8796     8787 
    8766     8764     8764     8756     8758     8762     8757     8748 
    8743     8750     8748     8734     8733     8737     8730     8716 
    8715     8710     8695     8685     8675     8664     8667     8664 
    8654     8656     8652     8637     8626     8607     8581     8568 
    8553     8530     8517     8519     8522     8503     8494     8507 
    8496     8472     8475     8475     8456     8444     8449     8449 
    8448     8455     8464     8480     8496     8511     8533     8550 
    8569     8586     8598     8623     8641     8634     8631     8646 
    8641     8618     8606     8594     8575     8569     8564     8564 
    8569     8560     8550     8559     8563     8560     8568     8576 
    8573     8581     8590     8584     8577     8583     8590     8586 
    8594     8610     8602     8587     8592     8599     8586     8577 
    8584     8581     8586     8611     8633     8645     8667     8702 
    8730     8743     8764     8791     8814     8827     8831     8842 
    8856     8857     8846     8845     8849     8824     8789     8780 
    8769     8746     8726     8704     8687     8667     8638     8623 
    8619     8604     8587     8588     8595     8581     8568     8576 
    8583     8581     8602     8634     8650     8660     8680     8696 
    8702     8704     8703     8698     8696     8687     8662     8645 
    8635     8621     8591     8569     8565     8554     8538     8542 
    8552     8549     8546     8560     8569     8577     8591     8594 
    8604     8618     8610     8615     8627     8619     8617     8621 
    8613     8595     8584     8571     8557     8554     8548     8541 
    8545     8556     8567     8561     8567     8595     8603     8592 
    8608     8633     8634     8650     8688     8711     8730     8760 
    8789     8818     8850     8885     8912     8947     8986     9005 
    9020     9038     9034     9016     9011     9001     8973     8947 
    8930     8892     8849     8811     8758     8699     8645     8594 
    8541     8492     8451     8414     8387     8370     8356     8344 
    8336     8338     8338     8349     8372     8386     8414     8453 
    8475     8510     8564     8594     8621     8677     8730     8762 
    8804     8843     8869     8897     8926     8935     8943     8961 
    8965     8958     8962     8968     8959     8939     8935     8932 
    8896     8864     8847     8811     8777     8749     8716     8696 
    8673     8645     8633     8622     8598     8583     8587     8579 
    8553     8545     8549     8545     8541     8550     8567     8572 
    8579     8600     8607     8607     8621     8621     8606     8610 
    8600     8568     8553     8542     8518     8499     8491     8487 
    8479     8475     8475     8473     8490     8506     8499     8498 
    8507     8502     8483     8479     8490     8491     8491     8514 
    8541     8550     8561     8586     8614     8634     8644     8658 
    8681     8684     8683     8691     8696     8699     8694     8691 
    8694     8673     8664     8662     8641     8630     8626     8603 
    8592     8591     8577     8565     8561     8568     8575     8577 
    8590     8603     8617     8637     8645     8650     8668     8679 
    8677     8675     8685     8694     8673     8665     8677     8664 
    8641     8629     8619     8613     8594     8573     8575     8576 
    8575     8581     8594     8602     8617     8631     8648     8669 
    8689     8719     8746     8773     8815     8845     8860     8889 
    8922     8937     8941     8951     8962     8949     8935     8937 
    8923     8903     8893     8870     8847     8831     8802     8781 
    8772     8758     8749     8742     8742     8746     8745     8750 
    8753     8752     8761     8762     8762     8772     8779     8785 
    8787     8781     8781     8781     8768     8753     8754     8750 
    8748     8749     8741     8745     8741     8716     8711     8706 
    8683     8673     8667     8660     8667     8668     8658     8654 
    8664     8668     8657     8661     8681     8688     8698     8715 
    8729     8746     8765     8783     8799     8808     8831     8846 
    8835     8837     8843     8826     8804     8792     8781     8765 
    8746     8727     8719     8719     8710     8699     8692     8683 
    8683     8676     8661     8653     8649     8656     8652     8640 
    8654     8664     8654     8661     8673     8677     8681     8677 
    8671     8673     8672     8664     8654     8645     8638     8625 
    8602     8583     8569     8552     8533     8518     8500     8488 
    8488     8473     8457     8463     8464     8453     8449     8451 
    8451     8442     8437     8437     8440     8441     8436     8442 
    8459     8464     8469     8482     8492     8503     8511     8526 
    8546     8565     8584     8603     8621     8641     8661     8684 
    8706     8723     8733     8746     8758     8753     8745     8750 
    8741     8719     8710     8698     8683     8667     8649     8644 
    8625     8595     8587     8571     8540     8519     8495     8469 
    8446     8415     8386     8363     8336     8307     8293     8276 
    8251     8235     8221     8201     8187     8179     8170     8159 
    8149     8151     8152     8155     8162     8171     8187     8208 
    8216     8225     8252     8282     8297     8314     8349     8374 
    8380     8405     8438     8453     8475     8511     8541     8569 
    8606     8649     8680     8707     8748     8781     8814     8850 
    8881     8914     8947     8974     8996     9019     9046     9061 
    9077     9100     9111     9117     9123     9127     9142     9147 
    9155     9173     9182     9186     9185     9181     9181     9171 
    9154     9143     9132     9108     9081     9059     9028     8993 
    8972     8945     8912     8889     8861     8834     8818     8793 
    8770     8761     8752     8737     8714     8710     8721     8702 
    8685     8692     8687     8671     8662     8664     8668     8664 
    8664     8671     8679     8679     8687     8704     8704     8706 
    8716     8718     8716     8710     8699     8700     8695     8687 
    8684     8677     8672     8662     8654     8662     8671     8662 
    8656     8664     8672     8669     8669     8680     8689     8695 
    8703     8719     8739     8743     8738     8750     8757     8750 
    8745     8734     8721     8698     8664     8637     8613     8579 
    8542     8518     8491     8455     8428     8402     8380     8371 
    8353     8345     8347     8333     8328     8333     8330     8320 
    8310     8309     8309     8295     8280     8274     8267     8262 
    8255     8240     8226     8225     8214     8191     8186     8194 
    8189     8191     8210     8226     8239     8251     8275     8299 
    8310     8338     8382     8405     8433     8475     8518     8556 
    8588     8630     8676     8707     8734     8775     8811     8827 
    8849     8874     8887     8899     8908     8903     8897     8885 
    8869     8851     8826     8799     8775     8752     8738     8730 
    8722     8716     8716     8716     8716     8715     8718     8721 
    8730     8742     8749     8756     8760     8761     8766     8769 
    8769     8765     8753     8748     8739     8723     8716     8714 
    8703     8696     8710     8726     8726     8739     8766     8792 
    8811     8822     8845     8876     8880     8887     8911     8924 
    8930     8932     8941     8950     8950     8946     8950     8953 
    8949     8942     8937     8932     8923     8901     8885     8885 
    8869     8846     8845     8841     8824     8818     8815     8811 
    8808     8796     8787     8779     8765     8764     8757     8743 
    8746     8739     8725     8715     8704     8685     8662     8645 
    8630     8607     8575     8545     8536     8518     8483     8469 
    8459     8430     8405     8392     8386     8375     8367     8367 
    8361     8355     8349     8344     8343     8338     8326     8316 
    8306     8299     8291     8284     8287     8286     8271     8267 
    8271     8268     8272     8283     8294     8301     8302     8314 
    8333     8337     8337     8348     8360     8361     8363     8363 
    8365     8371     8360     8360     8378     8378     8383     8399 
    8407     8415     8424     8440     8464     8479     8492     8518 
    8544     8565     8591     8627     8664     8691     8716     8753 
    8785     8800     8819     8845     8865     8884     8904     8916 
    8928     8943     8951     8961     8973     8985     9000     9000 
    8992     8997     8986     8949     8920     8903     8870     8829 
    8806     8788     8756     8731     8714     8702     8691     8677 
    8688     8698     8691     8704     8726     8739     8750     8765 
    8781     8789     8800     8811     8819     8833     8839     8838 
    8843     8856     8862     8856     8847     8853     8847     8829 
    8824     8824     8815     8808     8811     8815     8814     8803 
    8796     8799     8795     8787     8784     8779     8773     8773 
    8770     8766     8768     8765     8768     8775     8765     8764 
    8769     8766     8770     8765     8752     8753     8754     8746 
    8738     8735     8738     8735     8733     8737     8738     8729 
    8722     8722     8723     8723     8718     8708     8712     8710 
    8688     8681     8680     8654     8623     8603     8580     8549 
    8517     8488     8461     8418     8376     8357     8334     8297 
    8276     8274     8264     8256     8267     8283     8294     8311 
    8333     8357     8370     8376     8390     8392     8395     8403 
    8399     8392     8395     8395     8379     8365     8372     8375 
    8363     8360     8372     8380     8374     8375     8395     8399 
    8391     8401     8407     8406     8414     8415     8411     8425 
    8432     8432     8451     8472     8487     8507     8533     8560 
    8579     8594     8618     8648     8667     8687     8718     8742 
    8764     8779     8797     8827     8838     8841     8854     8860 
    8856     8851     8849     8851     8845     8830     8823     8822 
    8818     8806     8795     8793     8791     8777     8766     8768 
    8757     8731     8722     8712     8687     8667     8652     8623 
    8594     8576     8554     8530     8509     8488     8469     8459 
    8449     8442     8436     8440     8456     8467     8472     8498 
    8536     8560     8587     8626     8661     8691     8722     8756 
    8796     8829     8857     8895     8931     8950     8964     8978 
    8988     8999     9009     9012     9022     9031     9032     9035 
    9043     9053     9058     9057     9066     9080     9073     9067 
    9082     9078     9061     9065     9066     9051     9039     9031 
    9022     9009     8992     8982     8978     8973     8962     8949 
    8941     8949     8953     8950     8962     8977     8985     8996 
    9008     9026     9032     9027     9035     9043     9038     9034 
    9027     9018     9009     9000     8980     8965     8949     8922 
    8904     8885     8861     8843     8816     8784     8758     8721 
    8684     8664     8637     8592     8557     8537     8499     8452 
    8429     8411     8376     8337     8313     8294     8268     8243 
    8235     8235     8226     8224     8232     8240     8249     8257 
    8267     8283     8295     8309     8329     8336     8341     8356 
    8359     8348     8356     8361     8349     8351     8359     8351 
    8340     8333     8326     8309     8289     8286     8279     8264 
    8264     8271     8271     8275     8282     8289     8302     8317 
    8326     8349     8375     8388     8398     8414     8436     8448 
    8448     8456     8460     8452     8455     8464     8461     8467 
    8479     8480     8490     8509     8515     8526     8541     8545 
    8550     8561     8573     8581     8588     8592     8602     8611 
    8607     8610     8623     8621     8613     8607     8607     8603 
    8583     8565     8564     8552     8518     8500     8502     8478 
    8446     8440     8425     8407     8397     8382     8370     8365 
    8363     8359     8355     8363     8375     8379     8387     8409 
    8428     8445     8472     8506     8540     8569     8603     8644 
    8681     8714     8753     8807     8849     8880     8931     8989 
    9031     9069     9109     9148     9174     9188     9198     9208 
    9219     9217     9205     9207     9211     9204     9186     9185 
    9190     9173     9157     9166     9171     9169     9169     9180 
    9197     9200     9204     9223     9232     9236     9247     9254 
    9261     9265     9256     9254     9250     9227     9204     9190 
    9163     9130     9103     9069     9035     9008     8972     8930 
    8893     8856     8822     8789     8754     8730     8706     8672 
    8649     8630     8610     8591     8573     8563     8550     8536 
    8521     8518     8517     8494     8483     8490     8475     8461 
    8465     8461     8452     8452     8461     8468     8464     8469 
    8487     8498     8511     8534     8556     8573     8591     8606 
    8626     8644     8649     8650     8653     8650     8645     8637 
    8618     8602     8584     8544     8509     8486     8460     8430 
    8398     8382     8371     8343     8329     8333     8325     8314 
    8317     8324     8318     8318     8325     8324     8333     8345 
    8347     8353     8357     8364     8372     8376     8387     8399 
    8399     8403     8413     8410     8398     8395     8397     8387 
    8378     8379     8387     8392     8397     8405     8426     8446 
    8453     8472     8500     8518     8530     8546     8569     8577 
    8577     8594     8606     8613     8617     8619     8633     8645 
    8646     8653     8667     8672     8672     8688     8703     8695 
    8703     8715     8708     8712     8719     8711     8704     8704 
    8698     8691     8687     8687     8687     8676     8672     8681 
    8677     8662     8661     8667     8660     8652     8652     8648 
    8638     8626     8615     8613     8603     8588     8579     8576 
    8581     8579     8580     8598     8608     8619     8638     8656 
    8676     8694     8708     8721     8739     8756     8768     8797 
    8829     8841     8864     8895     8919     8935     8950     8974 
    8995     9000     9009     9020     9027     9026     9018     9013 
    9011     8992     8976     8969     8955     8930     8900     8877 
    8854     8823     8789     8762     8743     8714     8684     8676 
    8654     8623     8619     8610     8588     8583     8586     8580 
    8569     8577     8587     8577     8577     8588     8592     8587 
    8588     8606     8604     8592     8615     8627     8618     8629 
    8648     8652     8654     8664     8677     8685     8688     8691 
    8696     8699     8692     8681     8679     8675     8661     8646 
    8637     8630     8618     8611     8610     8602     8602     8602 
    8592     8598     8604     8602     8607     8611     8615     8614 
    8607     8615     8615     8606     8607     8607     8599     8595 
    8600     8599     8595     8602     8595     8586     8598     8599 
    8594     8603     8611     8617     8614     8613     8626     8629 
    8621     8627     8634     8634     8634     8635     8642     8648 
    8638     8638     8652     8658     8654     8661     8672     8669 
    8668     8680     8681     8677     8679     8684     8691     8689 
    8689     8699     8707     8708     8710     8716     8715     8710 
    8706     8702     8704     8695     8677     8680     8669     8652 
    8652     8640     8629     8626     8617     8613     8608     8607 
    8618     8615     8613     8631     8642     8640     8654     8671 
    8672     8675     8688     8699     8699     8700     8712     8721 
    8712     8711     8722     8715     8706     8712     8714     8708 
    8706     8708     8714     8704     8703     8707     8694     8699 
    8715     8707     8700     8710     8712     8691     8680     8689 
    8677     8653     8645     8641     8633     8618     8610     8613 
    8603     8592     8592     8588     8577     8575     8572     8572 
    8573     8568     8572     8590     8596     8602     8622     8641 
    8646     8661     8680     8685     8692     8707     8716     8719 
    8726     8741     8738     8727     8741     8752     8742     8735 
    8741     8750     8738     8723     8730     8729     8714     8700 
    8703     8704     8684     8677     8688     8684     8677     8676 
    8677     8676     8676     8684     8694     8699     8706     8714 
    8718     8726     8733     8727     8730     8741     8738     8733 
    8742     8750     8746     8754     8766     8773     8788     8808 
    8826     8850     8870     8887     8901     8922     8943     8954 
    8959     8966     8966     8958     8946     8941     8922     8893 
    8876     8851     8823     8797     8765     8739     8721     8692 
    8671     8654     8630     8603     8581     8571     8559     8537 
    8525     8525     8522     8510     8502     8505     8509     8500 
    8492     8499     8510     8507     8499     8511     8521     8510 
    8507     8509     8502     8499     8499     8505     8517     8525 
    8526     8533     8548     8556     8563     8576     8586     8594 
    8595     8613     8637     8640     8654     8675     8680     8695 
    8707     8707     8721     8731     8735     8745     8752     8757 
    8762     8762     8762     8765     8766     8764     8770     8776 
    8766     8761     8769     8772     8766     8762     8764     8769 
    8765     8768     8784     8787     8787     8796     8804     8810 
    8819     8831     8835     8833     8837     8838     8835     8837 
    8835     8830     8818     8816     8816     8793     8787     8796 
    8777     8761     8768     8762     8749     8743     8742     8742 
    8741     8737     8738     8743     8741     8733     8726     8721 
    8716     8704     8695     8695     8688     8679     8679     8671 
    8661     8662     8653     8640     8637     8629     8618     8611 
    8603     8596     8591     8588     8584     8576     8575     8572 
    8571     8561     8549     8548     8538     8525     8518     8507 
    8506     8502     8484     8487     8488     8472     8469     8473 
    8467     8461     8465     8471     8465     8457     8459     8463 
