Origin Time       2025/01/13 21:19:00
Lat.              31.8
Long.             131.6
Depth. (km)       30
Mag.              6.9
Station Code      HYGH10
Station Lat.      34.8164
Station Long.     134.8078
Station Height(m) 18
Record Time       2025/01/13 21:21:40
Sampling Freq(Hz) 100Hz
Duration Time(s)  120
Dir.              6
Scale Factor      7845(gal)/8223790
Max. Acc. (gal)   0.390
Last Correction   2025/01/13 21:21:41
Memo.             
[...]
   44305    44311    44315    44321    44325    44332    44338    44343 
   44351    44356    44356    44356    44356    44352    44347    44346 
   44344    44339    44338    44340    44340    44339    44339    44332 
   44321    44316    44312    44308    44304    44304    44301    44292 
   44285    44281    44281    44285    44292    44297    44304    44309 
   44312    44312    44309    44302    44296    44285    44274    44267 
   44265    44266    44269    44266    44266    44271    44275    44280 
   44286    44296    44305    44312    44324    44339    44352    44366 
   44374    44377    44375    44373    44371    44367    44356    44342 
   44323    44309    44302    44293    44280    44262    44246    44238 
   44232    44227    44228    44228    44223    44219    44209    44199 
   44188    44177    44169    44166    44166    44173    44184    44194 
   44207    44220    44232    44240    44247    44247    44246    44243 
   44234    44232    44238    44235    44230    44230    44226    44221 
   44223    44223    44220    44217    44220    44224    44226    44227 
   44228    44231    44240    44254    44270    44284    44300    44320 
   44343    44363    44379    44394    44408    44419    44424    44425 
   44421    44410    44394    44373    44348    44324    44297    44267 
   44243    44217    44192    44176    44162    44149    44136    44128 
   44123    44122    44122    44128    44139    44151    44165    44182 
   44204    44224    44244    44266    44285    44300    44316    44332 
   44348    44369    44392    44412    44431    44442    44452    44463 
   44464    44463    44460    44455    44447    44439    44433    44428 
   44419    44402    44385    44363    44339    44315    44294    44278 
   44262    44246    44228    44209    44192    44178    44165    44153 
   44143    44135    44128    44120    44120    44126    44131    44136 
   44143    44149    44154    44151    44150    44157    44166    44178 
   44193    44207    44221    44242    44265    44289    44312    44335 
   44354    44373    44392    44408    44416    44424    44428    44428 
   44429    44435    44429    44423    44417    44412    44402    44390 
   44377    44365    44356    44351    44347    44343    44336    44325 
   44317    44312    44308    44305    44301    44298    44301    44308 
   44317    44335    44352    44367    44378    44383    44389    44394 
   44393    44383    44370    44355    44344    44335    44327    44323 
   44316    44308    44305    44308    44311    44311    44312    44313 
   44313    44312    44312    44313    44317    44317    44317    44319 
   44321    44323    44327    44335    44343    44348    44352    44354 
   44358    44359    44358    44352    44347    44336    44324    44313 
   44305    44292    44280    44275    44270    44263    44258    44254 
   44248    44247    44247    44247    44247    44248    44248    44251 
   44258    44262    44262    44267    44270    44274    44284    44294 
   44305    44317    44328    44338    44347    44352    44356    44361 
   44361    44359    44356    44350    44342    44336    44329    44319 
   44305    44293    44280    44270    44266    44263    44255    44250 
   44244    44240    44244    44250    44253    44258    44263    44265 
   44267    44278    44292    44305    44317    44331    44340    44343 
   44347    44348    44350    44351    44351    44347    44344    44346 
   44344    44340    44339    44338    44334    44334    44335    44335 
   44338    44336    44328    44317    44307    44298    44290    44282 
   44275    44269    44267    44273    44281    44288    44292    44294 
   44300    44305    44305    44308    44311    44316    44327    44338 
   44344    44347    44344    44338    44335    44332    44325    44316 
   44301    44282    44267    44259    44248    44240    44235    44230 
   44227    44226    44226    44231    44238    44244    44251    44254 
   44261    44273    44286    44300    44313    44324    44331    44340 
   44350    44356    44363    44369    44370    44373    44382    44393 
   44400    44402    44404    44400    44394    44390    44386    44378 
   44370    44366    44363    44359    44359    44358    44351    44347 
   44342    44331    44320    44308    44296    44286    44278    44269 
   44261    44253    44243    44235    44228    44220    44207    44193 
   44181    44169    44162    44155    44143    44132    44126    44116 
   44111    44108    44104    44103    44103    44099    44095    44095 
   44097    44103    44107    44112    44120    44130    44140    44155 
   44169    44181    44196    44211    44223    44236    44250    44261 
   44275    44289    44301    44315    44331    44346    44358    44373 
   44386    44401    44415    44423    44431    44436    44436    44436 
   44439    44432    44423    44419    44413    44406    44397    44386 
   44373    44359    44347    44335    44323    44308    44292    44277 
   44263    44248    44236    44228    44219    44211    44208    44212 
   44223    44236    44247    44263    44284    44305    44327    44344 
   44361    44371    44379    44385    44390    44392    44393    44398 
   44405    44409    44415    44419    44419    44420    44421    44421 
   44419    44415    44406    44397    44388    44377    44367    44363 
   44362    44359    44355    44354    44348    44344    44342    44336 
   44328    44325    44323    44323    44323    44320    44317    44319 
   44321    44319    44315    44315    44312    44305    44298    44294 
   44290    44289    44281    44270    44259    44247    44234    44221 
   44208    44194    44182    44173    44166    44161    44158    44162 
   44166    44173    44189    44205    44220    44238    44257    44274 
   44289    44302    44313    44321    44329    44338    44343    44344 
   44343    44339    44334    44329    44323    44309    44294    44278 
   44262    44246    44227    44207    44188    44167    44150    44131 
   44113    44099    44085    44074    44065    44055    44050    44050 
   44051    44054    44058    44065    44072    44080    44092    44108 
   44128    44153    44173    44194    44219    44239    44258    44274 
   44288    44296    44301    44305    44308    44308    44311    44309 
   44302    44293    44284    44270    44257    44247    44240    44235 
   44232    44234    44232    44232    44236    44242    44244    44248 
   44254    44257    44263    44275    44288    44300    44312    44323 
   44336    44351    44362    44374    44389    44402    44412    44421 
   44437    44452    44459    44464    44469    44467    44463    44456 
   44451    44447    44443    44439    44429    44420    44409    44400 
   44389    44377    44365    44358    44351    44347    44350    44356 
   44365    44370    44373    44377    44381    44379    44379    44377 
   44369    44355    44344    44335    44321    44308    44296    44289 
   44285    44280    44270    44262    44261    44259    44257    44257 
   44258    44259    44261    44265    44273    44278    44284    44286 
   44282    44277    44269    44258    44244    44227    44209    44194 
   44180    44166    44162    44158    44151    44151    44154    44155 
   44165    44180    44194    44212    44227    44240    44261    44284 
   44302    44321    44340    44356    44373    44392    44408    44417 
   44427    44437    44440    44442    44443    44442    44436    44428 
   44420    44412    44401    44392    44385    44382    44381    44378 
   44379    44378    44374    44369    44362    44354    44344    44334 
   44323    44315    44311    44309    44309    44309    44305    44296 
   44289    44284    44273    44261    44246    44232    44223    44215 
   44209    44208    44203    44199    44200    44197    44196    44203 
   44205    44207    44213    44219    44221    44228    44235    44242 
   44250    44261    44271    44281    44292    44300    44304    44308 
   44309    44312    44317    44321    44328    44335    44339    44343 
   44350    44354    44355    44362    44366    44369    44374    44374 
   44367    44362    44361    44355    44348    44339    44328    44320 
   44311    44301    44296    44286    44277    44270    44259    44247 
   44236    44227    44223    44221    44221    44220    44219    44216 
   44209    44204    44201    44199    44196    44196    44199    44207 
   44216    44224    44235    44246    44259    44275    44293    44309 
   44328    44350    44365    44373    44382    44393    44394    44394 
   44396    44392    44382    44373    44361    44342    44320    44298 
   44271    44243    44219    44193    44165    44140    44120    44097 
   44074    44053    44034    44015    43996    43984    43977    43970 
   43968    43969    43973    43981    43996    44015    44038    44062 
   44086    44111    44135    44159    44178    44194    44211    44226 
   44240    44254    44262    44267    44270    44271    44269    44267 
   44267    44265    44259    44255    44251    44244    44240    44238 
   44232    44231    44236    44242    44247    44255    44263    44270 
   44277    44284    44289    44298    44308    44319    44334    44348 
   44362    44375    44388    44400    44409    44419    44427    44428 
   44427    44419    44405    44393    44382    44367    44351    44335 
   44319    44305    44294    44286    44274    44263    44261    44259 
   44257    44259    44266    44271    44282    44293    44305    44320 
   44335    44351    44365    44377    44389    44397    44402    44409 
   44416    44421    44428    44433    44439    44440    44442    44440 
   44431    44417    44409    44400    44386    44371    44356    44342 
   44324    44307    44290    44275    44257    44242    44231    44223 
   44217    44215    44212    44213    44212    44212    44217    44223 
   44228    44239    44253    44265    44278    44296    44312    44327 
   44347    44366    44379    44393    44402    44409    44417    44425 
   44428    44432    44435    44432    44428    44424    44416    44405 
   44394    44382    44370    44361    44351    44342    44334    44325 
   44317    44311    44304    44297    44292    44285    44284    44285 
   44285    44288    44294    44298    44302    44305    44308    44308 
   44304    44302    44304    44307    44305    44302    44304    44302 
   44294    44289    44286    44282    44277    44273    44266    44258 
   44248    44243    44238    44231    44226    44224    44224    44224 
   44223    44226    44228    44230    44232    44231    44227    44227 
   44230    44230    44226    44226    44228    44232    44236    44239 
   44243    44246    44247    44250    44248    44247    44247    44244 
   44232    44219    44207    44190    44170    44149    44124    44101 
   44080    44058    44037    44019    44007    43997    43989    43992 
   44000    44008    44016    44031    44049    44069    44092    44113 
   44135    44155    44173    44188    44200    44212    44223    44230 
   44234    44242    44251    44259    44267    44277    44281    44280 
   44284    44285    44284    44281    44281    44284    44292    44298 
   44305    44316    44324    44329    44339    44348    44359    44370 
   44379    44389    44396    44400    44408    44415    44417    44421 
   44424    44425    44425    44424    44420    44416    44410    44405 
   44404    44401    44400    44400    44404    44409    44416    44424 
   44435    44448    44462    44477    44493    44509    44524    44541 
   44558    44568    44578    44591    44601    44608    44609    44610 
   44610    44610    44606    44597    44583    44570    44558    44543 
   44524    44506    44486    44464    44442    44413    44383    44355 
   44325    44293    44261    44231    44201    44170    44139    44111 
   44086    44069    44053    44041    44032    44030    44032    44037 
   44046    44058    44073    44086    44104    44122    44135    44147 
   44158    44159    44161    44161    44153    44145    44138    44132 
   44124    44113    44104    44095    44085    44076    44070    44069 
   44070    44077    44088    44097    44107    44120    44134    44150 
   44169    44186    44205    44224    44243    44259    44278    44298 
   44315    44321    44331    44343    44352    44358    44365    44365 
   44363    44362    44359    44354    44347    44338    44329    44324 
   44313    44301    44290    44284    44274    44262    44251    44242 
   44236    44232    44227    44223    44220    44217    44215    44215 
   44217    44221    44224    44224    44226    44228    44228    44230 
   44232    44236    44243    44254    44262    44270    44278    44285 
   44288    44289    44288    44282    44278    44271    44265    44258 
   44253    44248    44244    44236    44228    44221    44213    44207 
   44199    44192    44188    44188    44188    44186    44185    44186 
   44185    44188    44192    44193    44199    44205    44207    44205 
   44207    44208    44205    44204    44203    44200    44201    44207 
   44208    44208    44209    44209    44212    44215    44215    44217 
   44220    44226    44238    44255    44273    44298    44324    44348 
   44375    44400    44417    44437    44458    44471    44482    44490 
   44496    44498    44493    44483    44475    44471    44466    44462 
   44455    44448    44439    44431    44427    44421    44417    44413 
   44412    44415    44417    44421    44431    44447    44466    44486 
   44510    44536    44562    44586    44609    44632    44655    44672 
   44685    44694    44697    44694    44686    44676    44662    44643 
   44617    44589    44555    44516    44475    44433    44390    44351 
   44313    44278    44246    44217    44194    44177    44162    44151 
   44145    44140    44139    44145    44150    44151    44161    44176 
   44185    44196    44208    44213    44217    44221    44224    44224 
   44221    44217    44209    44200    44189    44176    44158    44135 
   44108    44086    44068    44045    44027    44014    44000    43989 
   43984    43983    43987    43995    44007    44027    44049    44073 
   44101    44127    44155    44193    44231    44265    44300    44335 
   44366    44396    44423    44446    44464    44477    44485    44490 
   44490    44489    44487    44475    44456    44437    44419    44397 
   44377    44356    44339    44324    44307    44290    44281    44270 
   44258    44251    44251    44248    44248    44254    44261    44270 
   44281    44293    44304    44311    44319    44327    44329    44331 
   44331    44327    44321    44315    44307    44300    44296    44292 
   44288    44280    44270    44261    44251    44242    44231    44220 
   44209    44200    44193    44182    44169    44157    44150    44142 
   44131    44122    44115    44107    44099    44091    44080    44069 
   44061    44057    44055    44051    44050    44055    44062    44069 
   44078    44089    44101    44116    44124    44135    44153    44166 
   44178    44196    44212    44227    44243    44258    44266    44275 
   44288    44296    44301    44308    44313    44316    44323    44328 
   44334    44342    44351    44356    44362    44373    44381    44390 
   44401    44413    44423    44432    44442    44451    44459    44462 
   44462    44463    44462    44455    44444    44428    44415    44401 
   44389    44375    44358    44342    44327    44309    44298    44292 
   44285    44280    44277    44273    44270    44271    44273    44271 
   44271    44271    44273    44278    44281    44285    44293    44301 
   44308    44316    44324    44331    44339    44350    44362    44373 
   44383    44397    44410    44423    44431    44437    44446    44452 
   44455    44458    44460    44462    44460    44458    44451    44442 
   44429    44412    44392    44371    44350    44325    44304    44281 
   44257    44238    44219    44197    44176    44161    44150    44142 
   44132    44126    44123    44122    44122    44124    44128    44130 
   44132    44139    44145    44146    44150    44153    44158    44166 
   44174    44178    44184    44188    44190    44192    44189    44184 
   44178    44172    44159    44146    44128    44109    44089    44072 
   44050    44023    43996    43970    43947    43929    43911    43899 
   43892    43888    43888    43892    43899    43916    43935    43954 
   43980    44010    44043    44082    44123    44165    44211    44251 
   44292    44335    44375    44416    44451    44482    44510    44537 
   44560    44582    44595    44605    44612    44616    44614    44612 
   44609    44599    44587    44578    44570    44556    44544    44536 
   44528    44517    44509    44502    44493    44479    44467    44460 
   44456    44450    44442    44437    44431    44423    44417    44409 
   44401    44397    44389    44378    44366    44355    44344    44335 
   44323    44308    44297    44289    44281    44271    44263    44258 
   44253    44247    44243    44239    44232    44231    44234    44232 
   44232    44235    44236    44242    44248    44254    44259    44263 
   44270    44278    44282    44285    44286    44292    44300    44307 
   44316    44325    44335    44348    44363    44378    44393    44402 
   44413    44428    44440    44447    44454    44460    44467    44471 
   44469    44462    44456    44446    44432    44417    44405    44388 
   44370    44355    44339    44324    44309    44292    44277    44262 
   44242    44224    44205    44186    44170    44154    44136    44123 
   44112    44103    44093    44086    44081    44080    44077    44073 
   44069    44068    44069    44070    44072    44078    44088    44095 
   44104    44118    44132    44151    44170    44188    44211    44232 
   44248    44265    44285    44300    44309    44317    44328    44335 
   44338    44340    44340    44338    44336    44332    44325    44316 
   44302    44292    44286    44281    44270    44261    44254    44251 
   44247    44244    44244    44244    44246    44250    44254    44259 
   44265    44273    44282    44285    44284    44284    44281    44273 
   44266    44257    44243    44231    44215    44194    44176    44159 
   44145    44132    44124    44118    44116    44115    44113    44116 
   44124    44135    44154    44176    44196    44217    44246    44274 
   44302    44336    44373    44409    44446    44479    44510    44539 
   44567    44591    44613    44632    44647    44658    44663    44664 
   44664    44660    44653    44648    44637    44624    44612    44595 
   44578    44562    44540    44517    44496    44473    44450    44425 
   44405    44389    44374    44363    44348    44332    44320    44309 
   44294    44285    44278    44271    44266    44259    44255    44253 
   44248    44242    44235    44232    44232    44230    44227    44221 
   44213    44205    44204    44200    44189    44177    44165    44150 
   44135    44116    44095    44074    44058    44045    44031    44018 
   44008    44004    44000    43997    43995    43999    44007    44015 
   44024    44034    44046    44064    44082    44095    44107    44127 
   44149    44169    44188    44208    44230    44248    44265    44285 
   44301    44315    44332    44348    44356    44369    44383    44393 
   44397    44402    44406    44406    44405    44400    44393    44385 
   44375    44363    44351    44338    44323    44308    44294    44280 
