Origin Time       2025/01/13 21:19:00
Lat.              31.8
Long.             131.6
Depth. (km)       30
Mag.              6.9
Station Code      HYGH13
Station Lat.      35.6208
Station Long.     134.6566
Station Height(m) 129.8
Record Time       2025/01/13 21:21:54
Sampling Freq(Hz) 100Hz
Duration Time(s)  120
Dir.              2
Scale Factor      3923(gal)/8224838
Max. Acc. (gal)   0.332
Last Correction   2025/01/13 21:21:56
Memo.             
[...]
  -33408   -33415   -33421   -33434   -33444   -33453   -33461   -33471 
  -33477   -33484   -33496   -33507   -33516   -33525   -33534   -33542 
  -33548   -33552   -33558   -33563   -33566   -33569   -33571   -33570 
  -33569   -33569   -33565   -33561   -33556   -33550   -33543   -33535 
  -33524   -33517   -33507   -33492   -33481   -33466   -33453   -33436 
  -33419   -33404   -33388   -33370   -33355   -33342   -33326   -33311 
  -33301   -33291   -33278   -33270   -33262   -33251   -33243   -33241 
  -33237   -33231   -33227   -33226   -33223   -33219   -33220   -33222 
  -33222   -33224   -33227   -33228   -33235   -33241   -33243   -33250 
  -33261   -33269   -33276   -33281   -33292   -33303   -33309   -33319 
  -33328   -33335   -33346   -33354   -33362   -33369   -33374   -33380 
  -33386   -33390   -33396   -33399   -33399   -33400   -33400   -33399 
  -33397   -33396   -33396   -33390   -33386   -33384   -33378   -33370 
  -33365   -33361   -33358   -33351   -33340   -33335   -33332   -33323 
  -33313   -33309   -33304   -33299   -33293   -33289   -33284   -33281 
  -33281   -33278   -33274   -33270   -33270   -33272   -33270   -33268 
  -33266   -33265   -33265   -33264   -33261   -33264   -33265   -33265 
  -33266   -33270   -33274   -33277   -33282   -33289   -33291   -33295 
  -33301   -33305   -33308   -33312   -33313   -33313   -33318   -33319 
  -33319   -33320   -33320   -33320   -33322   -33323   -33320   -33318 
  -33315   -33313   -33313   -33311   -33308   -33307   -33303   -33300 
  -33296   -33293   -33292   -33289   -33285   -33282   -33281   -33276 
  -33273   -33272   -33268   -33262   -33259   -33254   -33245   -33237 
  -33231   -33224   -33215   -33207   -33201   -33193   -33185   -33178 
  -33170   -33164   -33162   -33158   -33151   -33150   -33153   -33154 
  -33153   -33154   -33161   -33166   -33172   -33181   -33192   -33204 
  -33214   -33226   -33243   -33258   -33274   -33295   -33312   -33328 
  -33349   -33369   -33388   -33407   -33424   -33444   -33466   -33488 
  -33509   -33528   -33547   -33570   -33590   -33609   -33627   -33643 
  -33660   -33675   -33685   -33697   -33706   -33710   -33714   -33718 
  -33720   -33720   -33718   -33717   -33713   -33708   -33702   -33696 
  -33687   -33679   -33670   -33660   -33651   -33642   -33628   -33619 
  -33610   -33598   -33588   -33578   -33563   -33552   -33544   -33535 
  -33524   -33517   -33509   -33498   -33490   -33484   -33477   -33470 
  -33463   -33455   -33447   -33440   -33435   -33431   -33426   -33417 
  -33411   -33405   -33397   -33390   -33385   -33380   -33374   -33369 
  -33366   -33363   -33359   -33355   -33353   -33350   -33346   -33339 
  -33338   -33338   -33332   -33328   -33328   -33327   -33319   -33315 
  -33312   -33303   -33291   -33284   -33276   -33264   -33254   -33245 
  -33234   -33222   -33214   -33207   -33197   -33192   -33185   -33177 
  -33173   -33170   -33165   -33162   -33164   -33160   -33157   -33160 
  -33161   -33161   -33162   -33162   -33166   -33174   -33181   -33188 
  -33200   -33207   -33216   -33226   -33235   -33246   -33261   -33270 
  -33281   -33293   -33303   -33313   -33326   -33336   -33347   -33359 
  -33372   -33385   -33394   -33407   -33423   -33438   -33451   -33466 
  -33480   -33496   -33516   -33532   -33546   -33565   -33582   -33596 
  -33610   -33628   -33639   -33650   -33664   -33675   -33682   -33690 
  -33696   -33700   -33702   -33701   -33698   -33693   -33686   -33675 
  -33660   -33646   -33631   -33612   -33590   -33570   -33550   -33525 
  -33501   -33480   -33457   -33430   -33404   -33380   -33358   -33338 
  -33315   -33293   -33276   -33258   -33238   -33220   -33205   -33189 
  -33173   -33158   -33147   -33135   -33124   -33116   -33111   -33103 
  -33096   -33093   -33088   -33084   -33083   -33084   -33084   -33084 
  -33085   -33088   -33091   -33092   -33099   -33104   -33107   -33111 
  -33118   -33122   -33124   -33131   -33139   -33143   -33149   -33157 
  -33161   -33162   -33166   -33170   -33170   -33173   -33174   -33174 
  -33176   -33176   -33173   -33166   -33161   -33158   -33154   -33147 
  -33139   -33133   -33124   -33119   -33112   -33103   -33095   -33088 
  -33079   -33069   -33060   -33050   -33041   -33031   -33021   -33010 
  -33002   -32996   -32989   -32983   -32975   -32968   -32962   -32961 
  -32957   -32954   -32953   -32953   -32950   -32950   -32953   -32961 
  -32971   -32977   -32984   -32996   -33008   -33019   -33031   -33046 
  -33062   -33076   -33088   -33102   -33114   -33122   -33133   -33147 
  -33158   -33168   -33178   -33188   -33196   -33205   -33212   -33216 
  -33224   -33231   -33234   -33238   -33245   -33251   -33258   -33264 
  -33269   -33277   -33285   -33295   -33307   -33313   -33324   -33336 
  -33346   -33358   -33369   -33378   -33390   -33400   -33407   -33417 
  -33427   -33431   -33434   -33436   -33439   -33443   -33442   -33439 
  -33436   -33435   -33432   -33430   -33426   -33420   -33413   -33411 
  -33404   -33397   -33393   -33386   -33377   -33373   -33367   -33358 
  -33350   -33345   -33342   -33335   -33327   -33324   -33320   -33312 
  -33308   -33303   -33295   -33289   -33281   -33268   -33257   -33246 
  -33231   -33216   -33203   -33185   -33169   -33156   -33135   -33114 
  -33095   -33077   -33054   -33034   -33016   -32994   -32973   -32957 
  -32938   -32922   -32910   -32896   -32884   -32877   -32871   -32869 
  -32872   -32875   -32879   -32887   -32898   -32911   -32927   -32945 
  -32967   -32988   -33012   -33038   -33066   -33097   -33131   -33165 
  -33197   -33232   -33272   -33309   -33347   -33385   -33420   -33453 
  -33488   -33525   -33559   -33592   -33625   -33656   -33682   -33710 
  -33736   -33758   -33779   -33797   -33813   -33825   -33839   -33848 
  -33852   -33858   -33862   -33860   -33858   -33856   -33851   -33841 
  -33828   -33813   -33798   -33782   -33762   -33740   -33718   -33694 
  -33671   -33648   -33624   -33601   -33575   -33551   -33529   -33507 
  -33486   -33467   -33448   -33430   -33415   -33400   -33386   -33373 
  -33361   -33350   -33339   -33332   -33328   -33322   -33313   -33307 
  -33300   -33295   -33288   -33284   -33284   -33278   -33270   -33268 
  -33264   -33262   -33257   -33253   -33250   -33249   -33245   -33241 
  -33234   -33230   -33228   -33223   -33216   -33211   -33208   -33203 
  -33197   -33196   -33193   -33188   -33183   -33181   -33178   -33174 
  -33173   -33172   -33172   -33172   -33172   -33173   -33174   -33174 
  -33177   -33180   -33177   -33174   -33173   -33170   -33168   -33165 
  -33162   -33154   -33143   -33135   -33124   -33111   -33097   -33081 
  -33062   -33048   -33029   -33007   -32987   -32967   -32942   -32919 
  -32900   -32881   -32859   -32838   -32818   -32799   -32784   -32771 
  -32755   -32741   -32730   -32721   -32715   -32711   -32705   -32703 
  -32707   -32709   -32713   -32724   -32733   -32741   -32753   -32769 
  -32786   -32807   -32827   -32848   -32871   -32898   -32925   -32952 
  -32977   -33004   -33035   -33066   -33095   -33124   -33154   -33188 
  -33222   -33251   -33282   -33316   -33349   -33382   -33416   -33447 
  -33480   -33511   -33539   -33567   -33596   -33625   -33652   -33677 
  -33700   -33721   -33743   -33764   -33783   -33799   -33816   -33828 
  -33836   -33849   -33864   -33868   -33871   -33882   -33886   -33887 
  -33895   -33901   -33901   -33906   -33912   -33910   -33912   -33916 
  -33920   -33921   -33921   -33920   -33920   -33918   -33914   -33913 
  -33912   -33909   -33905   -33903   -33901   -33897   -33893   -33893 
  -33893   -33889   -33883   -33880   -33876   -33870   -33866   -33859 
  -33849   -33841   -33833   -33824   -33814   -33802   -33786   -33770 
  -33756   -33737   -33714   -33694   -33673   -33648   -33624   -33596 
  -33567   -33543   -33517   -33488   -33457   -33427   -33400   -33370 
  -33342   -33316   -33295   -33269   -33245   -33224   -33207   -33189 
  -33170   -33156   -33143   -33135   -33126   -33116   -33108   -33106 
  -33106   -33104   -33106   -33110   -33110   -33114   -33119   -33120 
  -33127   -33138   -33143   -33150   -33160   -33168   -33173   -33180 
  -33189   -33200   -33205   -33212   -33224   -33234   -33242   -33254 
  -33262   -33269   -33280   -33292   -33301   -33309   -33320   -33328 
  -33334   -33340   -33350   -33357   -33362   -33367   -33370   -33374 
  -33380   -33381   -33380   -33381   -33382   -33382   -33380   -33372 
  -33361   -33354   -33345   -33330   -33318   -33305   -33289   -33274 
  -33259   -33242   -33227   -33208   -33188   -33172   -33157   -33141 
  -33127   -33107   -33088   -33073   -33058   -33042   -33029   -33018 
  -33004   -32994   -32983   -32973   -32972   -32968   -32962   -32964 
  -32964   -32960   -32962   -32967   -32967   -32967   -32969   -32973 
  -32980   -32983   -32985   -32989   -32991   -32995   -33000   -33000 
  -33002   -33004   -33004   -33003   -33002   -33000   -32999   -32998 
  -32995   -32991   -32989   -32988   -32983   -32980   -32980   -32980 
  -32981   -32977   -32975   -32975   -32975   -32977   -32980   -32980 
  -32984   -32988   -32989   -32995   -33003   -33007   -33012   -33023 
  -33035   -33042   -33049   -33060   -33070   -33080   -33091   -33099 
  -33110   -33126   -33138   -33146   -33161   -33174   -33188   -33203 
  -33214   -33227   -33241   -33250   -33262   -33278   -33291   -33300 
  -33311   -33324   -33336   -33345   -33353   -33366   -33381   -33394 
  -33404   -33415   -33427   -33439   -33448   -33458   -33471   -33485 
  -33493   -33502   -33515   -33524   -33529   -33538   -33547   -33552 
  -33558   -33565   -33570   -33571   -33574   -33577   -33578   -33579 
  -33581   -33581   -33579   -33578   -33577   -33575   -33574   -33573 
  -33570   -33565   -33558   -33558   -33556   -33550   -33543   -33542 
  -33538   -33529   -33527   -33525   -33521   -33513   -33508   -33507 
  -33504   -33500   -33496   -33493   -33490   -33490   -33493   -33494 
  -33492   -33490   -33493   -33496   -33497   -33498   -33500   -33500 
  -33498   -33496   -33496   -33492   -33485   -33478   -33467   -33458 
  -33451   -33443   -33431   -33416   -33399   -33384   -33367   -33350 
  -33334   -33316   -33296   -33277   -33257   -33239   -33223   -33200 
  -33181   -33165   -33146   -33124   -33107   -33091   -33076   -33062 
  -33052   -33039   -33029   -33019   -33011   -33003   -32994   -32987 
  -32981   -32977   -32976   -32979   -32979   -32976   -32977   -32983 
  -32985   -32988   -32996   -33003   -33007   -33011   -33016   -33019 
  -33021   -33025   -33029   -33030   -33030   -33033   -33034   -33034 
  -33038   -33041   -33042   -33042   -33043   -33046   -33046   -33045 
  -33046   -33046   -33043   -33045   -33046   -33045   -33046   -33045 
  -33042   -33043   -33045   -33045   -33042   -33041   -33041   -33043 
  -33043   -33041   -33041   -33041   -33041   -33042   -33042   -33039 
  -33041   -33043   -33042   -33042   -33045   -33045   -33048   -33054 
  -33058   -33058   -33058   -33061   -33064   -33065   -33065   -33066 
  -33068   -33068   -33066   -33066   -33066   -33065   -33062   -33062 
  -33057   -33050   -33052   -33050   -33046   -33043   -33041   -33039 
  -33039   -33037   -33037   -33037   -33037   -33037   -33039   -33045 
  -33049   -33056   -33062   -33068   -33075   -33088   -33100   -33112 
  -33130   -33146   -33161   -33176   -33193   -33212   -33232   -33255 
  -33280   -33305   -33326   -33349   -33377   -33404   -33428   -33455 
  -33485   -33512   -33540   -33569   -33593   -33619   -33642   -33660 
  -33681   -33698   -33712   -33727   -33736   -33741   -33751   -33755 
  -33752   -33750   -33748   -33743   -33739   -33731   -33721   -33712 
  -33702   -33691   -33679   -33669   -33658   -33643   -33631   -33624 
  -33612   -33601   -33594   -33586   -33578   -33567   -33558   -33548 
  -33540   -33531   -33521   -33513   -33505   -33494   -33485   -33480 
  -33471   -33461   -33453   -33446   -33434   -33424   -33412   -33401 
  -33390   -33377   -33363   -33353   -33339   -33326   -33313   -33300 
  -33285   -33272   -33261   -33251   -33242   -33230   -33218   -33208 
  -33203   -33193   -33187   -33183   -33177   -33177   -33180   -33178 
  -33178   -33181   -33183   -33189   -33200   -33207   -33211   -33222 
  -33234   -33245   -33254   -33266   -33281   -33293   -33304   -33318 
  -33332   -33347   -33366   -33382   -33397   -33416   -33436   -33454 
  -33469   -33485   -33508   -33528   -33547   -33565   -33583   -33602 
  -33621   -33637   -33655   -33674   -33687   -33700   -33714   -33727 
  -33733   -33741   -33752   -33759   -33760   -33767   -33770   -33767 
  -33766   -33767   -33764   -33760   -33754   -33748   -33743   -33733 
  -33725   -33718   -33710   -33701   -33690   -33682   -33674   -33663 
  -33654   -33644   -33632   -33623   -33615   -33602   -33593   -33585 
  -33575   -33563   -33554   -33546   -33534   -33523   -33513   -33502 
  -33492   -33481   -33469   -33457   -33442   -33426   -33412   -33394 
  -33373   -33358   -33343   -33320   -33301   -33285   -33264   -33242 
  -33224   -33204   -33181   -33160   -33141   -33119   -33096   -33077 
  -33054   -33031   -33012   -32992   -32968   -32946   -32927   -32906 
  -32887   -32871   -32852   -32834   -32817   -32798   -32784   -32772 
  -32755   -32740   -32729   -32714   -32701   -32690   -32678   -32670 
  -32663   -32655   -32643   -32634   -32629   -32624   -32617   -32611 
  -32610   -32609   -32609   -32610   -32616   -32621   -32622   -32630 
  -32641   -32652   -32664   -32675   -32687   -32702   -32718   -32733 
  -32751   -32772   -32790   -32806   -32826   -32846   -32865   -32886 
  -32906   -32925   -32946   -32968   -32987   -33007   -33026   -33048 
  -33068   -33088   -33111   -33134   -33154   -33173   -33193   -33218 
  -33238   -33254   -33276   -33296   -33315   -33334   -33350   -33367 
  -33385   -33401   -33415   -33427   -33439   -33451   -33463   -33473 
  -33478   -33485   -33492   -33496   -33498   -33497   -33496   -33498 
  -33500   -33494   -33490   -33489   -33484   -33477   -33473   -33463 
  -33454   -33448   -33442   -33430   -33420   -33413   -33404   -33392 
  -33384   -33377   -33367   -33359   -33349   -33340   -33335   -33327 
  -33316   -33308   -33301   -33295   -33288   -33278   -33269   -33259 
  -33251   -33241   -33228   -33218   -33208   -33197   -33183   -33170 
  -33160   -33150   -33139   -33122   -33111   -33100   -33087   -33077 
  -33065   -33048   -33035   -33023   -33008   -32995   -32981   -32971 
  -32960   -32944   -32933   -32925   -32914   -32903   -32895   -32888 
  -32883   -32876   -32871   -32867   -32867   -32867   -32865   -32868 
  -32873   -32880   -32886   -32892   -32904   -32917   -32930   -32946 
  -32965   -32980   -32999   -33023   -33046   -33069   -33095   -33119 
  -33145   -33173   -33201   -33228   -33254   -33284   -33313   -33339 
  -33367   -33396   -33423   -33448   -33474   -33501   -33525   -33547 
  -33570   -33592   -33610   -33629   -33646   -33660   -33675   -33690 
  -33701   -33714   -33727   -33732   -33737   -33745   -33750   -33751 
  -33754   -33754   -33750   -33751   -33750   -33747   -33744   -33737 
  -33731   -33725   -33718   -33708   -33697   -33689   -33678   -33663 
  -33652   -33637   -33623   -33610   -33594   -33579   -33565   -33548 
  -33532   -33516   -33500   -33486   -33470   -33451   -33432   -33419 
  -33404   -33386   -33372   -33359   -33346   -33335   -33326   -33316 
  -33307   -33299   -33291   -33284   -33278   -33276   -33272   -33266 
  -33266   -33266   -33262   -33261   -33262   -33259   -33261   -33262 
  -33259   -33258   -33257   -33253   -33250   -33249   -33249   -33247 
  -33242   -33235   -33232   -33231   -33226   -33219   -33214   -33205 
  -33200   -33193   -33187   -33181   -33176   -33169   -33162   -33157 
  -33151   -33147   -33141   -33138   -33137   -33129   -33120   -33119 
  -33119   -33114   -33110   -33110   -33104   -33104   -33104   -33103 
  -33102   -33106   -33108   -33107   -33104   -33107   -33110   -33110 
  -33112   -33115   -33115   -33118   -33122   -33124   -33126   -33130 
  -33134   -33138   -33146   -33156   -33162   -33170   -33181   -33195 
  -33207   -33219   -33231   -33245   -33261   -33277   -33292   -33309 
  -33327   -33340   -33355   -33370   -33386   -33404   -33417   -33431 
  -33444   -33455   -33467   -33481   -33490   -33498   -33508   -33516 
  -33523   -33531   -33536   -33538   -33542   -33547   -33551   -33552 
  -33552   -33558   -33561   -33556   -33556   -33558   -33554   -33551 
  -33552   -33554   -33554   -33552   -33550   -33548   -33547   -33543 
  -33542   -33536   -33532   -33532   -33531   -33527   -33523   -33520 
  -33519   -33517   -33516   -33513   -33512   -33509   -33509   -33511 
  -33512   -33512   -33513   -33516   -33520   -33524   -33528   -33534 
  -33539   -33544   -33551   -33559   -33567   -33573   -33581   -33589 
  -33593   -33600   -33612   -33619   -33620   -33625   -33631   -33632 
  -33633   -33639   -33639   -33633   -33628   -33625   -33620   -33613 
  -33604   -33594   -33586   -33577   -33563   -33550   -33538   -33524 
  -33509   -33493   -33475   -33461   -33444   -33426   -33408   -33393 
  -33374   -33354   -33335   -33315   -33296   -33278   -33261   -33241 
  -33219   -33199   -33181   -33162   -33142   -33122   -33103   -33087 
  -33070   -33053   -33035   -33022   -33007   -32996   -32987   -32976 
  -32964   -32954   -32945   -32940   -32935   -32930   -32927   -32930 
  -32929   -32929   -32931   -32934   -32938   -32941   -32946   -32953 
  -32962   -32972   -32984   -32994   -33004   -33016   -33029   -33043 
  -33054   -33066   -33083   -33096   -33108   -33122   -33138   -33151 
  -33166   -33181   -33195   -33208   -33222   -33235   -33249   -33266 
  -33282   -33296   -33311   -33327   -33340   -33351   -33363   -33380 
  -33394   -33408   -33423   -33440   -33453   -33466   -33485   -33500 
  -33509   -33524   -33542   -33552   -33563   -33578   -33592   -33602 
  -33612   -33620   -33631   -33640   -33644   -33647   -33650   -33651 
  -33652   -33651   -33651   -33651   -33644   -33637   -33632   -33624 
  -33612   -33602   -33592   -33577   -33562   -33548   -33536   -33521 
  -33504   -33485   -33469   -33454   -33436   -33419   -33403   -33384 
  -33367   -33353   -33334   -33319   -33305   -33291   -33276   -33259 
  -33246   -33237   -33226   -33218   -33207   -33197   -33189   -33183 
  -33173   -33168   -33162   -33157   -33154   -33149   -33145   -33142 
  -33137   -33134   -33135   -33133   -33129   -33130   -33130   -33131 
  -33134   -33138   -33141   -33143   -33149   -33156   -33162   -33169 
  -33180   -33188   -33196   -33207   -33218   -33228   -33241   -33251 
  -33261   -33274   -33286   -33296   -33307   -33318   -33327   -33336 
  -33349   -33358   -33363   -33367   -33373   -33376   -33380   -33384 
  -33384   -33381   -33377   -33374   -33370   -33363   -33357   -33349 
  -33336   -33326   -33313   -33301   -33286   -33272   -33257   -33243 
  -33227   -33211   -33195   -33177   -33161   -33147   -33133   -33118 
  -33104   -33091   -33077   -33065   -33053   -33042   -33029   -33019 
  -33011   -33003   -32995   -32989   -32984   -32979   -32975   -32972 
  -32973   -32973   -32971   -32975   -32983   -32988   -32995   -33003 
