Origin Time       2025/01/13 21:19:00
Lat.              31.8
Long.             131.6
Depth. (km)       30
Mag.              6.9
Station Code      HYGH13
Station Lat.      35.6208
Station Long.     134.6566
Station Height(m) 129.8
Record Time       2025/01/13 21:21:54
Sampling Freq(Hz) 100Hz
Duration Time(s)  120
Dir.              1
Scale Factor      3923(gal)/8224838
Max. Acc. (gal)   0.343
Last Correction   2025/01/13 21:21:56
Memo.             
[...]
   10127    10126    10122    10122    10120    10115    10112    10115 
   10111    10107    10104    10100    10098    10095    10089    10087 
   10083    10077    10073    10069    10060    10050    10044    10037 
   10027    10018    10011    10004     9999     9990     9984     9981 
    9975     9968     9967     9964     9963     9957     9954     9954 
    9952     9950     9952     9952     9956     9961     9964     9969 
    9976     9983     9992    10002    10011    10022    10030    10039 
   10052    10064    10075    10083    10089    10102    10116    10127 
   10137    10146    10157    10169    10177    10184    10192    10203 
   10210    10214    10220    10227    10234    10242    10249    10255 
   10264    10273    10280    10285    10292    10300    10305    10312 
   10320    10327    10330    10332    10338    10343    10346    10350 
   10358    10362    10365    10369    10374    10374    10374    10376 
   10376    10377    10381    10382    10385    10384    10381    10382 
   10385    10386    10386    10388    10388    10388    10389    10390 
   10390    10393    10396    10397    10399    10399    10400    10403 
   10404    10408    10415    10417    10419    10420    10428    10438 
   10443    10446    10454    10462    10469    10477    10485    10490 
   10497    10504    10509    10512    10516    10519    10517    10517 
   10517    10515    10513    10509    10504    10498    10496    10490 
   10482    10476    10466    10454    10444    10436    10423    10411 
   10399    10385    10372    10359    10343    10327    10314    10297 
   10282    10270    10260    10249    10237    10226    10215    10207 
   10199    10191    10184    10180    10174    10173    10173    10170 
   10168    10168    10169    10168    10168    10170    10169    10165 
   10168    10168    10164    10161    10162    10162    10164    10164 
   10164    10166    10168    10170    10172    10174    10180    10184 
   10189    10199    10210    10219    10226    10234    10243    10253 
   10258    10264    10274    10280    10282    10289    10297    10303 
   10309    10316    10320    10326    10332    10336    10338    10341 
   10343    10346    10347    10343    10341    10339    10334    10327 
   10323    10318    10308    10297    10287    10277    10266    10254 
   10242    10228    10216    10207    10196    10179    10166    10160 
   10149    10137    10131    10123    10112    10104    10099    10095 
   10091    10085    10081    10077    10075    10071    10066    10064 
   10064    10065    10066    10068    10068    10071    10073    10079 
   10083    10085    10089    10092    10093    10099    10104    10104 
   10106    10110    10111    10114    10115    10115    10116    10120 
   10123    10123    10125    10125    10126    10127    10130    10134 
   10138    10145    10150    10153    10160    10168    10179    10188 
   10196    10206    10219    10230    10238    10249    10262    10273 
   10280    10291    10304    10311    10315    10326    10335    10339 
   10347    10357    10365    10370    10378    10390    10401    10409 
   10417    10424    10431    10439    10446    10449    10454    10462 
   10467    10471    10474    10478    10480    10481    10485    10486 
   10481    10480    10480    10474    10466    10462    10454    10446 
   10439    10430    10422    10416    10405    10392    10384    10372 
   10357    10345    10332    10318    10299    10282    10266    10245 
   10223    10203    10183    10160    10137    10115    10092    10069 
   10048    10026    10007     9988     9969     9953     9938     9927 
    9918     9906     9899     9895     9890     9888     9894     9898 
    9902     9910     9923     9938     9950     9964     9981     9999 
   10017    10038    10060    10080    10100    10119    10139    10160 
   10177    10201    10222    10239    10264    10282    10296    10312 
   10330    10346    10361    10376    10390    10403    10412    10422 
   10432    10444    10450    10453    10455    10459    10461    10458 
   10458    10459    10457    10453    10449    10440    10432    10427 
   10419    10412    10400    10386    10376    10363    10349    10334 
   10316    10299    10282    10262    10242    10226    10207    10184 
   10161    10141    10123    10106    10087    10072    10054    10037 
   10023    10014    10000     9988     9980     9972     9968     9964 
    9956     9952     9950     9949     9950     9952     9954     9958 
    9958     9961     9968     9972     9977     9987     9999    10011 
   10022    10033    10048    10064    10080    10096    10112    10133 
   10153    10172    10193    10215    10234    10251    10270    10289 
   10308    10323    10336    10351    10366    10378    10388    10399 
   10405    10413    10420    10424    10427    10430    10431    10430 
   10428    10428    10424    10416    10411    10405    10397    10388 
   10377    10363    10350    10336    10320    10305    10291    10273 
   10257    10243    10230    10214    10199    10189    10174    10161 
   10153    10143    10131    10122    10116    10108    10102    10098 
   10091    10087    10081    10075    10073    10069    10062    10064 
   10066    10068    10068    10069    10073    10079    10085    10093 
   10103    10112    10126    10135    10142    10157    10174    10184 
   10197    10218    10231    10243    10261    10277    10291    10307 
   10322    10336    10353    10366    10380    10396    10409    10423 
   10438    10450    10465    10484    10497    10511    10525    10538 
   10551    10566    10582    10596    10608    10619    10631    10642 
   10648    10656    10666    10673    10675    10678    10683    10686 
   10686    10690    10692    10686    10679    10678    10678    10670 
   10662    10654    10644    10632    10620    10609    10597    10582 
   10565    10550    10536    10517    10498    10484    10466    10447 
   10428    10408    10386    10366    10347    10326    10301    10277 
   10255    10233    10207    10183    10160    10134    10108    10083 
   10056    10030    10007     9984     9961     9941     9919     9900 
    9882     9864     9850     9837     9823     9813     9802     9791 
    9784     9775     9769     9764     9757     9753     9749     9747 
    9747     9742     9740     9744     9744     9744     9745     9747 
    9748     9751     9756     9761     9761     9764     9774     9778 
    9782     9788     9798     9806     9814     9822     9828     9837 
    9850     9864     9875     9887     9903     9919     9934     9952 
    9971     9988    10007    10027    10048    10065    10083    10106 
   10127    10145    10164    10183    10197    10212    10226    10242 
   10257    10266    10274    10284    10295    10303    10305    10308 
   10312    10314    10309    10308    10308    10307    10304    10299 
   10295    10288    10281    10277    10274    10269    10261    10257 
   10254    10250    10245    10241    10238    10233    10228    10227 
   10226    10223    10222    10218    10216    10216    10214    10208 
   10207    10206    10206    10206    10203    10200    10203    10206 
   10207    10211    10215    10218    10223    10227    10230    10234 
   10238    10239    10241    10243    10246    10249    10249    10249 
   10249    10250    10249    10245    10242    10241    10238    10234 
   10233    10230    10224    10222    10219    10211    10203    10195 
   10185    10176    10161    10146    10134    10122    10107    10091 
   10077    10065    10050    10037    10026    10012     9998     9990 
    9980     9969     9964     9957     9949     9946     9948     9948 
    9946     9949     9958     9965     9972     9980     9991    10003 
   10014    10029    10044    10058    10079    10099    10116    10135 
   10154    10173    10191    10210    10227    10245    10262    10278 
   10292    10305    10323    10335    10342    10353    10363    10372 
   10380    10386    10395    10404    10408    10413    10426    10432 
   10438    10447    10454    10463    10470    10477    10490    10503 
   10508    10515    10521    10528    10535    10539    10542    10543 
   10544    10543    10539    10536    10532    10523    10515    10511 
   10504    10496    10489    10485    10477    10467    10462    10455 
   10449    10443    10438    10434    10430    10423    10416    10415 
   10415    10409    10404    10401    10399    10393    10388    10384 
   10376    10372    10368    10358    10351    10342    10330    10319 
   10307    10291    10278    10265    10246    10228    10212    10192 
   10169    10147    10130    10111    10085    10061    10042    10022 
    9996     9973     9953     9933     9910     9890     9875     9859 
    9844     9832     9818     9807     9801     9794     9786     9782 
    9779     9778     9779     9779     9782     9787     9794     9799 
    9811     9822     9829     9841     9855     9867     9884     9900 
    9913     9927     9944     9958     9976     9992    10007    10023 
   10039    10054    10072    10089    10103    10119    10139    10157 
   10173    10192    10212    10234    10254    10273    10296    10320 
   10343    10366    10389    10413    10440    10463    10486    10507 
   10527    10547    10565    10582    10601    10616    10629    10643 
   10655    10666    10678    10685    10690    10697    10705    10708 
   10705    10702    10701    10698    10690    10681    10671    10660 
   10651    10638    10621    10606    10592    10575    10562    10546 
   10530    10517    10501    10484    10470    10454    10436    10426 
   10412    10395    10381    10372    10358    10343    10327    10311 
   10299    10285    10269    10255    10242    10224    10207    10192 
   10174    10160    10145    10131    10118    10100    10087    10075 
   10060    10048    10038    10029    10023    10015    10008    10003 
    9996     9991     9991     9990     9987     9985     9988     9988 
    9990     9992     9995    10002    10011    10017    10026    10039 
   10050    10060    10071    10083    10099    10112    10123    10137 
   10149    10161    10173    10185    10196    10207    10219    10230 
   10239    10246    10253    10260    10262    10265    10269    10269 
   10268    10270    10266    10261    10260    10258    10251    10247 
   10242    10234    10227    10220    10208    10197    10189    10179 
   10165    10150    10138    10123    10106    10092    10079    10064 
   10048    10030    10015    10002     9985     9968     9953     9938 
    9923     9906     9891     9879     9865     9852     9840     9829 
    9818     9806     9801     9795     9790     9787     9783     9779 
    9780     9779     9779     9782     9784     9786     9791     9796 
    9799     9803     9811     9818     9821     9826     9836     9844 
    9852     9860     9868     9873     9880     9887     9895     9903 
    9914     9926     9936     9946     9961     9977     9992    10007 
   10026    10044    10060    10079    10095    10110    10127    10143 
   10162    10181    10197    10215    10235    10255    10274    10292 
   10308    10330    10351    10368    10384    10405    10424    10443 
   10462    10480    10497    10513    10534    10552    10566    10581 
   10597    10611    10621    10636    10648    10662    10677    10692 
   10701    10712    10724    10733    10743    10754    10760    10767 
   10774    10777    10777    10775    10773    10771    10767    10760 
   10755    10748    10739    10729    10719    10706    10696    10686 
   10674    10665    10655    10640    10627    10619    10606    10596 
   10586    10573    10561    10551    10542    10534    10524    10515 
   10508    10498    10493    10489    10484    10477    10471    10466 
   10461    10454    10449    10443    10436    10431    10423    10413 
   10407    10399    10386    10377    10366    10353    10341    10327 
   10312    10296    10282    10268    10250    10231    10214    10195 
   10177    10161    10146    10129    10110    10095    10080    10065 
   10050    10038    10023    10010    10002     9994     9987     9980 
    9976     9971     9965     9963     9960     9954     9953     9950 
    9946     9944     9942     9938     9934     9931     9926     9919 
    9915     9915     9911     9900     9894     9888     9879     9869 
    9859     9846     9836     9826     9815     9803     9788     9775 
    9764     9752     9738     9724     9711     9699     9688     9679 
    9667     9656     9649     9644     9640     9639     9637     9637 
    9639     9640     9645     9649     9656     9664     9672     9680 
    9690     9697     9703     9713     9725     9737     9751     9759 
    9768     9779     9787     9796     9807     9815     9819     9825 
    9833     9837     9837     9838     9838     9840     9841     9840 
    9838     9834     9832     9833     9830     9832     9833     9830 
    9830     9836     9840     9845     9852     9859     9869     9884 
    9899     9914     9931     9950     9973     9998    10019    10045 
   10072    10099    10125    10152    10179    10203    10231    10262 
   10289    10312    10341    10369    10392    10416    10440    10465 
   10493    10517    10540    10566    10590    10615    10638    10662 
   10683    10705    10729    10751    10768    10787    10808    10825 
   10844    10859    10874    10887    10897    10906    10917    10921 
   10926    10930    10932    10936    10937    10935    10933    10928 
   10922    10916    10906    10895    10883    10866    10849    10831 
   10810    10789    10764    10735    10706    10677    10644    10612 
   10581    10546    10512    10478    10446    10413    10380    10347 
   10315    10285    10255    10227    10199    10174    10152    10129 
   10108    10088    10069    10054    10039    10027    10018    10006 
    9995     9987     9980     9976     9971     9963     9956     9953 
    9950     9942     9933     9930     9925     9919     9914     9907 
    9902     9900     9894     9888     9883     9877     9873     9869 
    9868     9867     9863     9861     9863     9864     9863     9865 
    9873     9877     9882     9887     9892     9900     9913     9926 
    9940     9958     9975     9990    10011    10037    10060    10083 
   10106    10131    10160    10184    10210    10241    10268    10291 
   10318    10343    10368    10390    10411    10430    10449    10465 
   10481    10493    10501    10509    10516    10520    10524    10531 
   10532    10530    10527    10524    10520    10517    10512    10504 
   10498    10494    10489    10482    10473    10466    10461    10454 
   10446    10443    10438    10430    10426    10424    10422    10420 
   10419    10416    10412    10409    10408    10407    10401    10397 
   10393    10390    10385    10378    10370    10362    10355    10351 
   10342    10332    10327    10322    10314    10307    10301    10300 
   10301    10299    10297    10301    10304    10307    10312    10316 
   10319    10326    10335    10339    10343    10351    10355    10358 
   10363    10365    10366    10373    10376    10374    10377    10378 
   10374    10373    10369    10362    10358    10351    10338    10327 
   10316    10300    10285    10272    10255    10235    10216    10199 
   10176    10154    10135    10115    10095    10077    10060    10044 
   10029    10014    10003     9994     9984     9975     9971     9964 
    9957     9957     9958     9956     9957     9958     9960     9963 
    9969     9973     9979     9984     9991     9998    10004    10010 
   10019    10027    10033    10039    10048    10054    10058    10061 
   10065    10071    10076    10079    10080    10084    10085    10088 
   10093    10098    10106    10114    10119    10127    10134    10142 
   10154    10166    10177    10192    10206    10218    10233    10249 
   10265    10280    10297    10316    10334    10350    10362    10377 
   10393    10405    10416    10426    10432    10442    10447    10447 
   10451    10451    10447    10443    10438    10430    10419    10407 
   10395    10380    10362    10345    10324    10304    10284    10261 
   10238    10214    10193    10174    10149    10125    10102    10079 
   10056    10037    10019    10000     9979     9961     9945     9929 
    9913     9898     9884     9869     9857     9848     9840     9826 
    9815     9813     9807     9798     9795     9794     9791     9790 
    9790     9792     9794     9794     9792     9801     9807     9809 
    9813     9818     9823     9832     9837     9842     9849     9856 
    9864     9868     9875     9887     9895     9900     9907     9917 
    9925     9930     9941     9952     9960     9968     9976     9983 
    9994    10003    10012    10021    10030    10038    10046    10054 
   10060    10064    10072    10077    10083    10087    10089    10092 
   10098    10100    10103    10106    10107    10112    10118    10122 
   10129    10133    10137    10145    10153    10160    10170    10180 
   10191    10203    10214    10224    10238    10253    10268    10280 
   10293    10308    10322    10331    10342    10357    10369    10376 
   10384    10395    10405    10412    10417    10422    10424    10431 
   10434    10438    10440    10438    10438    10443    10443    10440 
   10440    10440    10436    10435    10435    10434    10431    10428 
   10427    10424    10420    10419    10419    10416    10413    10412 
   10413    10411    10408    10404    10400    10400    10397    10392 
   10389    10389    10386    10382    10380    10377    10374    10369 
   10363    10359    10353    10347    10341    10332    10326    10319 
   10309    10304    10299    10289    10280    10272    10264    10254 
   10245    10239    10230    10218    10208    10200    10189    10179 
   10166    10157    10147    10137    10126    10114    10102    10092 
   10083    10072    10058    10052    10045    10037    10029    10021 
   10014    10008    10004    10004    10000     9998    10000    10003 
   10002    10002    10007    10015    10022    10030    10039    10052 
   10064    10079    10096    10114    10133    10153    10170    10193 
   10220    10243    10264    10288    10314    10338    10359    10381 
   10404    10424    10444    10462    10478    10494    10507    10517 
   10532    10543    10544    10548    10555    10557    10559    10562 
   10559    10554    10550    10548    10543    10534    10527    10520 
   10511    10500    10488    10480    10470    10455    10440    10431 
   10417    10404    10392    10377    10363    10353    10343    10331 
   10316    10304    10296    10287    10277    10269    10261    10251 
   10245    10241    10238    10235    10234    10231    10228    10231 
   10231    10231    10235    10239    10243    10246    10250    10257 
   10262    10265    10272    10278    10282    10288    10293    10299 
   10304    10308    10312    10318    10320    10322    10324    10326 
   10326    10326    10326    10326    10322    10316    10318    10319 
   10315    10311    10311    10309    10307    10305    10300    10297 
   10295    10292    10289    10284    10277    10277    10274    10266 
   10260    10257    10255    10253    10250    10247    10247    10245 
