Origin Time       2025/01/13 21:19:00
Lat.              31.8
Long.             131.6
Depth. (km)       30
Mag.              6.9
Station Code      HYGH03
Station Lat.      35.2193
Station Long.     134.5237
Station Height(m) 265
Record Time       2025/01/13 21:21:43
Sampling Freq(Hz) 100Hz
Duration Time(s)  120
Dir.              1
Scale Factor      2942(gal)/8224139
Max. Acc. (gal)   0.259
Last Correction   2025/01/13 21:21:44
Memo.             
[...]
 -104762  -104768  -104777  -104789  -104796  -104804  -104815  -104823 
 -104832  -104846  -104855  -104861  -104868  -104872  -104872  -104874 
 -104878  -104884  -104889  -104892  -104895  -104896  -104893  -104893 
 -104897  -104899  -104903  -104908  -104908  -104903  -104893  -104882 
 -104873  -104865  -104861  -104857  -104847  -104839  -104831  -104820 
 -104812  -104811  -104811  -104815  -104826  -104831  -104835  -104846 
 -104854  -104858  -104865  -104870  -104874  -104880  -104881  -104881 
 -104885  -104892  -104897  -104903  -104909  -104912  -104913  -104919 
 -104923  -104923  -104920  -104915  -104909  -104905  -104897  -104889 
 -104881  -104872  -104865  -104863  -104861  -104863  -104866  -104868 
 -104870  -104878  -104885  -104892  -104899  -104899  -104900  -104907 
 -104909  -104909  -104909  -104907  -104900  -104895  -104893  -104888 
 -104880  -104869  -104853  -104841  -104834  -104824  -104812  -104799 
 -104787  -104776  -104762  -104751  -104741  -104726  -104718  -104706 
 -104692  -104684  -104679  -104672  -104664  -104656  -104646  -104635 
 -104627  -104619  -104610  -104604  -104604  -104600  -104593  -104588 
 -104581  -104577  -104579  -104585  -104592  -104598  -104599  -104604 
 -104615  -104623  -104629  -104633  -104633  -104634  -104641  -104649 
 -104657  -104665  -104672  -104683  -104697  -104711  -104724  -104739 
 -104750  -104760  -104769  -104778  -104785  -104796  -104808  -104818 
 -104822  -104823  -104824  -104820  -104812  -104808  -104809  -104809 
 -104811  -104808  -104804  -104800  -104797  -104795  -104793  -104796 
 -104797  -104796  -104799  -104807  -104815  -104826  -104835  -104842 
 -104853  -104862  -104866  -104869  -104874  -104882  -104886  -104895 
 -104907  -104913  -104915  -104915  -104916  -104917  -104917  -104913 
 -104911  -104908  -104905  -104900  -104897  -104890  -104878  -104869 
 -104859  -104850  -104847  -104850  -104846  -104836  -104835  -104839 
 -104842  -104850  -104857  -104861  -104868  -104870  -104868  -104877 
 -104888  -104895  -104901  -104909  -104916  -104922  -104926  -104930 
 -104932  -104935  -104936  -104936  -104936  -104939  -104940  -104940 
 -104940  -104943  -104942  -104934  -104928  -104920  -104909  -104901 
 -104897  -104892  -104886  -104885  -104881  -104876  -104869  -104861 
 -104851  -104842  -104836  -104832  -104826  -104823  -104826  -104826 
 -104824  -104824  -104824  -104823  -104827  -104828  -104823  -104816 
 -104815  -104812  -104808  -104809  -104812  -104807  -104801  -104799 
 -104796  -104792  -104785  -104781  -104773  -104761  -104749  -104735 
 -104722  -104710  -104696  -104687  -104680  -104665  -104652  -104639 
 -104626  -104615  -104599  -104585  -104576  -104561  -104544  -104525 
 -104504  -104487  -104472  -104456  -104441  -104433  -104422  -104411 
 -104402  -104394  -104384  -104376  -104376  -104380  -104380  -104376 
 -104377  -104387  -104398  -104410  -104418  -104422  -104427  -104431 
 -104431  -104434  -104444  -104453  -104460  -104472  -104487  -104500 
 -104511  -104519  -104531  -104550  -104568  -104584  -104604  -104625 
 -104641  -104657  -104673  -104687  -104701  -104719  -104737  -104754 
 -104773  -104791  -104809  -104828  -104846  -104869  -104890  -104903 
 -104915  -104930  -104940  -104950  -104965  -104981  -104990  -105003 
 -105024  -105044  -105059  -105077  -105094  -105111  -105127  -105143 
 -105158  -105170  -105179  -105185  -105186  -105190  -105196  -105200 
 -105198  -105197  -105197  -105197  -105198  -105197  -105193  -105192 
 -105190  -105190  -105190  -105189  -105189  -105183  -105178  -105175 
 -105170  -105159  -105150  -105142  -105131  -105116  -105101  -105092 
 -105084  -105078  -105069  -105054  -105039  -105024  -105007  -104992 
 -104980  -104969  -104957  -104946  -104934  -104922  -104909  -104896 
 -104884  -104874  -104863  -104847  -104835  -104831  -104831  -104831 
 -104836  -104842  -104841  -104839  -104838  -104834  -104830  -104827 
 -104822  -104815  -104812  -104811  -104809  -104803  -104793  -104784 
 -104772  -104762  -104758  -104760  -104761  -104762  -104760  -104754 
 -104749  -104746  -104741  -104735  -104737  -104737  -104735  -104735 
 -104734  -104733  -104734  -104735  -104734  -104734  -104738  -104738 
 -104735  -104734  -104739  -104746  -104750  -104754  -104764  -104772 
 -104776  -104782  -104791  -104793  -104797  -104803  -104807  -104812 
 -104819  -104823  -104826  -104828  -104827  -104826  -104830  -104831 
 -104828  -104824  -104822  -104820  -104820  -104819  -104815  -104807 
 -104795  -104782  -104774  -104764  -104755  -104750  -104743  -104738 
 -104738  -104735  -104733  -104737  -104741  -104741  -104743  -104749 
 -104751  -104757  -104758  -104758  -104761  -104761  -104760  -104762 
 -104765  -104766  -104766  -104768  -104769  -104770  -104773  -104774 
 -104777  -104782  -104787  -104792  -104795  -104796  -104801  -104808 
 -104815  -104823  -104826  -104828  -104830  -104831  -104831  -104831 
 -104831  -104832  -104835  -104841  -104849  -104855  -104859  -104862 
 -104861  -104855  -104851  -104850  -104850  -104853  -104854  -104855 
 -104861  -104863  -104863  -104863  -104862  -104859  -104853  -104849 
 -104845  -104841  -104843  -104845  -104841  -104836  -104838  -104836 
 -104834  -104838  -104841  -104839  -104842  -104850  -104853  -104853 
 -104859  -104869  -104868  -104863  -104862  -104857  -104851  -104847 
 -104843  -104839  -104828  -104814  -104803  -104792  -104781  -104772 
 -104765  -104760  -104755  -104749  -104739  -104733  -104728  -104723 
 -104716  -104710  -104706  -104701  -104693  -104689  -104684  -104677 
 -104672  -104669  -104669  -104670  -104673  -104680  -104688  -104693 
 -104707  -104724  -104735  -104747  -104762  -104769  -104776  -104784 
 -104793  -104801  -104808  -104811  -104816  -104820  -104823  -104820 
 -104809  -104799  -104788  -104770  -104754  -104741  -104723  -104706 
 -104689  -104679  -104668  -104650  -104638  -104629  -104615  -104603 
 -104598  -104589  -104580  -104571  -104562  -104554  -104546  -104541 
 -104535  -104526  -104517  -104507  -104496  -104488  -104485  -104484 
 -104477  -104471  -104471  -104469  -104468  -104471  -104473  -104477 
 -104485  -104491  -104498  -104506  -104511  -104517  -104519  -104521 
 -104523  -104523  -104526  -104533  -104542  -104548  -104549  -104553 
 -104560  -104561  -104561  -104566  -104573  -104576  -104576  -104576 
 -104573  -104572  -104576  -104577  -104577  -104581  -104588  -104589 
 -104585  -104584  -104588  -104593  -104602  -104610  -104618  -104626 
 -104634  -104642  -104652  -104664  -104674  -104688  -104701  -104714 
 -104724  -104739  -104757  -104776  -104792  -104809  -104831  -104851 
 -104870  -104893  -104916  -104931  -104944  -104962  -104980  -104993 
 -105004  -105013  -105024  -105036  -105047  -105057  -105065  -105067 
 -105071  -105077  -105078  -105079  -105079  -105073  -105061  -105050 
 -105036  -105024  -105015  -105004  -104988  -104973  -104959  -104942 
 -104916  -104892  -104866  -104841  -104818  -104797  -104777  -104757 
 -104741  -104727  -104710  -104696  -104685  -104677  -104674  -104673 
 -104665  -104661  -104662  -104665  -104673  -104685  -104699  -104714 
 -104724  -104739  -104755  -104768  -104777  -104787  -104795  -104803 
 -104803  -104800  -104801  -104797  -104788  -104780  -104776  -104768 
 -104758  -104747  -104737  -104726  -104714  -104700  -104688  -104673 
 -104656  -104637  -104619  -104602  -104585  -104571  -104557  -104546 
 -104537  -104526  -104521  -104515  -104504  -104494  -104484  -104473 
 -104465  -104456  -104442  -104427  -104411  -104398  -104390  -104382 
 -104369  -104357  -104352  -104349  -104349  -104349  -104348  -104352 
 -104356  -104360  -104365  -104372  -104377  -104382  -104386  -104390 
 -104395  -104404  -104411  -104418  -104429  -104444  -104458  -104473 
 -104490  -104504  -104515  -104531  -104553  -104572  -104588  -104606 
 -104622  -104635  -104653  -104668  -104683  -104697  -104712  -104723 
 -104737  -104751  -104766  -104781  -104795  -104808  -104822  -104841 
 -104863  -104886  -104913  -104939  -104967  -104996  -105021  -105048 
 -105077  -105100  -105121  -105140  -105156  -105175  -105192  -105205 
 -105219  -105231  -105244  -105255  -105264  -105274  -105282  -105294 
 -105308  -105317  -105325  -105336  -105348  -105358  -105368  -105381 
 -105387  -105393  -105397  -105398  -105399  -105397  -105389  -105379 
 -105370  -105355  -105337  -105320  -105302  -105287  -105274  -105251 
 -105231  -105216  -105200  -105183  -105167  -105150  -105135  -105117 
 -105097  -105082  -105071  -105057  -105043  -105031  -105023  -105019 
 -105013  -105003  -104992  -104981  -104973  -104963  -104951  -104939 
 -104930  -104920  -104915  -104915  -104912  -104905  -104903  -104904 
 -104900  -104893  -104888  -104880  -104873  -104865  -104854  -104842 
 -104828  -104809  -104787  -104762  -104741  -104722  -104700  -104680 
 -104661  -104639  -104616  -104592  -104572  -104553  -104537  -104526 
 -104518  -104508  -104503  -104500  -104498  -104498  -104498  -104499 
 -104498  -104500  -104504  -104504  -104503  -104504  -104507  -104514 
 -104526  -104531  -104538  -104548  -104557  -104571  -104588  -104602 
 -104615  -104630  -104641  -104645  -104647  -104649  -104652  -104649 
 -104645  -104642  -104639  -104635  -104635  -104633  -104626  -104619 
 -104614  -104606  -104598  -104588  -104576  -104565  -104553  -104538 
 -104527  -104512  -104492  -104477  -104467  -104456  -104446  -104441 
 -104438  -104437  -104438  -104440  -104445  -104452  -104458  -104464 
 -104467  -104465  -104467  -104471  -104475  -104475  -104479  -104484 
 -104485  -104485  -104494  -104504  -104514  -104519  -104527  -104541 
 -104556  -104573  -104595  -104610  -104620  -104634  -104647  -104660 
 -104677  -104692  -104703  -104714  -104726  -104735  -104742  -104751 
 -104764  -104776  -104788  -104801  -104815  -104826  -104834  -104841 
 -104851  -104858  -104865  -104873  -104877  -104880  -104882  -104884 
 -104884  -104885  -104886  -104890  -104892  -104892  -104896  -104904 
 -104909  -104916  -104926  -104932  -104942  -104951  -104961  -104976 
 -104988  -104996  -105011  -105025  -105039  -105055  -105071  -105085 
 -105096  -105108  -105120  -105133  -105148  -105162  -105173  -105182 
 -105192  -105205  -105216  -105223  -105229  -105240  -105244  -105241 
 -105240  -105232  -105223  -105213  -105200  -105189  -105179  -105169 
 -105162  -105155  -105144  -105138  -105136  -105132  -105128  -105127 
 -105125  -105123  -105121  -105119  -105113  -105108  -105101  -105092 
 -105079  -105066  -105052  -105036  -105025  -105015  -105004  -104994 
 -104985  -104971  -104962  -104951  -104936  -104922  -104907  -104892 
 -104877  -104861  -104843  -104826  -104814  -104805  -104793  -104782 
 -104776  -104768  -104758  -104751  -104745  -104739  -104735  -104731 
 -104727  -104728  -104730  -104731  -104735  -104739  -104742  -104745 
 -104747  -104749  -104751  -104755  -104755  -104757  -104762  -104772 
 -104781  -104785  -104789  -104796  -104805  -104816  -104827  -104835 
 -104842  -104849  -104855  -104861  -104858  -104851  -104846  -104839 
 -104828  -104822  -104814  -104799  -104785  -104773  -104761  -104750 
 -104738  -104723  -104711  -104699  -104688  -104677  -104666  -104660 
 -104650  -104642  -104637  -104627  -104616  -104608  -104600  -104595 
 -104593  -104591  -104587  -104584  -104580  -104572  -104564  -104556 
 -104549  -104542  -104537  -104531  -104526  -104521  -104517  -104517 
 -104517  -104522  -104527  -104537  -104549  -104562  -104573  -104585 
 -104600  -104616  -104633  -104646  -104658  -104670  -104683  -104696 
 -104708  -104719  -104728  -104742  -104754  -104765  -104774  -104782 
 -104792  -104803  -104816  -104831  -104843  -104857  -104869  -104881 
 -104897  -104916  -104932  -104947  -104963  -104981  -104996  -105005 
 -105017  -105030  -105043  -105057  -105063  -105069  -105075  -105075 
 -105074  -105075  -105074  -105071  -105067  -105063  -105058  -105052 
 -105043  -105032  -105024  -105020  -105016  -105012  -105005  -104996 
 -104985  -104974  -104965  -104955  -104943  -104924  -104903  -104881 
 -104861  -104841  -104820  -104803  -104781  -104758  -104743  -104731 
 -104716  -104701  -104691  -104684  -104680  -104677  -104672  -104668 
 -104666  -104665  -104661  -104658  -104661  -104662  -104664  -104665 
 -104668  -104674  -104684  -104689  -104697  -104704  -104707  -104714 
 -104723  -104731  -104738  -104745  -104753  -104762  -104773  -104787 
 -104800  -104812  -104826  -104839  -104847  -104859  -104873  -104882 
 -104889  -104897  -104903  -104907  -104905  -104900  -104897  -104890 
 -104877  -104863  -104851  -104834  -104814  -104797  -104781  -104761 
 -104741  -104720  -104701  -104680  -104656  -104630  -104606  -104584 
 -104561  -104537  -104512  -104492  -104472  -104449  -104431  -104417 
 -104402  -104388  -104377  -104365  -104356  -104349  -104342  -104340 
 -104337  -104336  -104336  -104337  -104337  -104338  -104344  -104349 
 -104355  -104364  -104373  -104380  -104390  -104409  -104426  -104444 
 -104467  -104495  -104522  -104548  -104577  -104610  -104642  -104674 
 -104707  -104739  -104770  -104805  -104839  -104870  -104904  -104942 
 -104982  -105023  -105059  -105100  -105146  -105183  -105220  -105258 
 -105290  -105321  -105348  -105372  -105402  -105429  -105449  -105467 
 -105484  -105499  -105510  -105520  -105526  -105529  -105525  -105522 
 -105517  -105505  -105491  -105479  -105464  -105444  -105420  -105398 
 -105375  -105349  -105327  -105300  -105267  -105235  -105206  -105174 
 -105148  -105127  -105104  -105084  -105069  -105050  -105031  -105017 
 -105007  -104994  -104981  -104970  -104962  -104950  -104935  -104923 
 -104907  -104885  -104865  -104842  -104820  -104801  -104776  -104751 
 -104728  -104706  -104683  -104668  -104656  -104643  -104634  -104629 
 -104626  -104626  -104629  -104633  -104639  -104649  -104661  -104676 
 -104685  -104693  -104708  -104723  -104735  -104753  -104769  -104782 
 -104792  -104805  -104820  -104835  -104849  -104865  -104882  -104904 
 -104922  -104939  -104958  -104978  -104997  -105013  -105032  -105054 
 -105069  -105084  -105098  -105108  -105117  -105124  -105127  -105131 
 -105136  -105136  -105129  -105121  -105113  -105102  -105089  -105074 
 -105058  -105039  -105019  -104996  -104974  -104951  -104923  -104895 
 -104865  -104838  -104808  -104780  -104757  -104731  -104704  -104680 
 -104657  -104633  -104610  -104587  -104564  -104539  -104515  -104488 
 -104465  -104440  -104413  -104394  -104372  -104346  -104322  -104303 
 -104280  -104260  -104242  -104222  -104202  -104183  -104170  -104159 
 -104153  -104149  -104148  -104149  -104153  -104160  -104167  -104179 
 -104194  -104209  -104224  -104240  -104257  -104275  -104294  -104318 
 -104344  -104371  -104400  -104431  -104463  -104492  -104521  -104552 
 -104579  -104604  -104631  -104657  -104680  -104704  -104723  -104741 
 -104760  -104773  -104784  -104795  -104800  -104804  -104814  -104820 
 -104827  -104835  -104842  -104847  -104857  -104868  -104880  -104889 
 -104899  -104913  -104930  -104943  -104957  -104976  -104989  -105001 
 -105019  -105032  -105047  -105069  -105089  -105108  -105125  -105146 
 -105167  -105190  -105210  -105231  -105254  -105274  -105291  -105314 
 -105335  -105352  -105371  -105391  -105409  -105426  -105441  -105455 
 -105470  -105482  -105493  -105501  -105507  -105513  -105511  -105507 
 -105505  -105501  -105495  -105486  -105470  -105453  -105437  -105416 
 -105395  -105371  -105344  -105321  -105295  -105268  -105241  -105213 
 -105185  -105158  -105129  -105104  -105079  -105051  -105021  -104994 
 -104961  -104926  -104895  -104866  -104839  -104812  -104784  -104758 
 -104731  -104703  -104674  -104643  -104614  -104587  -104553  -104522 
 -104495  -104465  -104437  -104414  -104392  -104373  -104360  -104344 
 -104322  -104306  -104294  -104282  -104272  -104263  -104253  -104249 
 -104249  -104247  -104248  -104255  -104257  -104265  -104279  -104288 
 -104301  -104319  -104333  -104344  -104357  -104373  -104391  -104411 
 -104426  -104440  -104457  -104475  -104491  -104507  -104525  -104544 
 -104560  -104573  -104587  -104602  -104616  -104631  -104647  -104658 
 -104669  -104683  -104696  -104707  -104722  -104735  -104746  -104762 
 -104782  -104797  -104814  -104836  -104858  -104880  -104901  -104919 
 -104935  -104955  -104974  -104989  -105001  -105008  -105017  -105028 
 -105034  -105039  -105043  -105040  -105034  -105027  -105024  -105021 
 -105019  -105016  -105011  -105004  -104998  -104994  -104992  -104988 
 -104984  -104984  -104985  -104986  -104986  -104984  -104984  -104985 
 -104989  -104989  -104986  -104982  -104977  -104969  -104963  -104957 
 -104953  -104950  -104943  -104934  -104924  -104912  -104899  -104882 
 -104865  -104843  -104822  -104803  -104784  -104764  -104741  -104718 
 -104692  -104670  -104653  -104633  -104616  -104606  -104592  -104584 
 -104584  -104583  -104587  -104593  -104595  -104599  -104610  -104619 
 -104630  -104645  -104661  -104679  -104697  -104718  -104741  -104766 
 -104792  -104819  -104846  -104870  -104897  -104926  -104951  -104976 
 -105005  -105034  -105057  -105082  -105111  -105136  -105163  -105193 
 -105217  -105232  -105248  -105266  -105282  -105293  -105305  -105314 
 -105324  -105332  -105339  -105341  -105344  -105345  -105344  -105340 
 -105335  -105327  -105313  -105297  -105277  -105255  -105231  -105205 
 -105178  -105152  -105121  -105089  -105059  -105028  -104997  -104966 
 -104934  -104897  -104862  -104830  -104792  -104753  -104720  -104685 
 -104647  -104612  -104577  -104545  -104517  -104490  -104464  -104441 
 -104419  -104403  -104387  -104375  -104367  -104352  -104338  -104333 
 -104325  -104314  -104307  -104302  -104298  -104298  -104299  -104301 
 -104299  -104301  -104303  -104303  -104307  -104314  -104319  -104322 
 -104329  -104336  -104342  -104348  -104355  -104365  -104376  -104384 
 -104394  -104400  -104407  -104418  -104427  -104440  -104456  -104465 
 -104477  -104494  -104510  -104525  -104537  -104550  -104576  -104596 
 -104611  -104633  -104652  -104666  -104684  -104703  -104719  -104738 
 -104757  -104773  -104785  -104801  -104815  -104820  -104828  -104836 
 -104839  -104843  -104847  -104849  -104849  -104854  -104861  -104862 
 -104866  -104874  -104881  -104888  -104897  -104908  -104916  -104927 
 -104936  -104944  -104958  -104967  -104973  -104984  -104993  -104997 
 -105001  -105005  -105007  -105007  -105005  -105000  -105000  -105001 
 -105001  -104998  -104996  -104997  -105000  -105001  -105001  -105003 
 -105005  -105005  -105008  -105015  -105016  -105017  -105020  -105020 
 -105017  -105019  -105020  -105020  -105020  -105016  -105013  -105012 
 -105012  -105012  -105011  -105012  -105015  -105012  -105012  -105015 
 -105016  -105017  -105019  -105020  -105021  -105027  -105028  -105028 
 -105032  -105039  -105042  -105046  -105051  -105057  -105062  -105070 
 -105081  -105090  -105101  -105113  -105125  -105135  -105144  -105154 
 -105165  -105170  -105178  -105187  -105194  -105202  -105210  -105216 
 -105219  -105224  -105231  -105235  -105236  -105237  -105235  -105229 
