Origin Time       2025/01/13 21:19:00
Lat.              31.8
Long.             131.6
Depth. (km)       30
Mag.              6.9
Station Code      HYGH06
Station Lat.      34.7935
Station Long.     134.4792
Station Height(m) 65
Record Time       2025/01/13 21:21:31
Sampling Freq(Hz) 100Hz
Duration Time(s)  120
Dir.              6
Scale Factor      7845(gal)/8223790
Max. Acc. (gal)   0.337
Last Correction   2025/01/13 21:21:32
Memo.             
[...]
    3824     3831     3854     3870     3866     3843     3808     3790 
    3808     3819     3809     3809     3821     3834     3843     3844 
    3836     3836     3848     3856     3852     3838     3828     3838 
    3848     3851     3858     3863     3856     3846     3840     3838 
    3834     3827     3823     3824     3827     3838     3850     3846 
    3839     3835     3836     3848     3858     3854     3862     3885 
    3886     3866     3852     3852     3863     3877     3886     3883 
    3885     3893     3890     3881     3883     3892     3898     3896 
    3882     3870     3858     3850     3851     3850     3843     3851 
    3866     3865     3852     3843     3839     3850     3861     3855 
    3850     3859     3870     3871     3870     3865     3865     3867 
    3861     3848     3844     3854     3855     3839     3823     3819 
    3815     3804     3796     3775     3761     3778     3793     3782 
    3773     3766     3754     3746     3744     3744     3746     3744 
    3747     3761     3777     3792     3802     3807     3809     3816 
    3827     3834     3838     3846     3851     3855     3865     3881 
    3900     3908     3901     3896     3885     3867     3865     3874 
    3881     3883     3879     3870     3871     3881     3878     3867 
    3863     3859     3852     3854     3851     3843     3854     3870 
    3878     3886     3893     3902     3916     3925     3923     3928 
    3948     3962     3966     3963     3960     3967     3981     3986 
    3981     3978     3991     4018     4031     4033     4045     4059 
    4062     4066     4064     4059     4079     4106     4106     4087 
    4062     4041     4044     4060     4067     4072     4068     4048 
    4033     4039     4052     4059     4050     4036     4027     4023 
    4018     4014     4014     4018     4020     4010     4001     3994 
    4000     4013     4013     4000     3986     3970     3951     3942 
    3933     3927     3925     3924     3917     3905     3898     3900 
    3898     3893     3889     3886     3892     3896     3893     3892 
    3881     3863     3855     3859     3866     3871     3870     3856 
    3834     3820     3821     3824     3821     3820     3824     3828 
    3827     3823     3820     3834     3854     3862     3854     3846 
    3840     3844     3862     3881     3889     3900     3905     3901 
    3904     3906     3892     3873     3861     3856     3861     3867 
    3869     3856     3844     3842     3832     3816     3815     3817 
    3809     3794     3778     3770     3778     3794     3800     3793 
    3788     3793     3798     3805     3813     3816     3812     3808 
    3815     3824     3828     3829     3840     3847     3836     3824 
    3828     3843     3858     3863     3867     3878     3893     3904 
    3906     3900     3886     3879     3883     3886     3893     3908 
    3915     3902     3896     3909     3928     3939     3942     3939 
    3931     3924     3928     3937     3955     3960     3944     3931 
    3929     3923     3908     3906     3913     3906     3888     3873 
    3863     3856     3848     3840     3840     3848     3850     3836 
    3811     3790     3793     3808     3819     3813     3788     3762 
    3758     3762     3761     3765     3775     3780     3767     3738 
    3707     3694     3699     3703     3701     3692     3673     3655 
    3653     3649     3643     3649     3647     3634     3627     3639 
    3658     3666     3669     3674     3681     3689     3699     3709 
    3721     3735     3755     3780     3798     3804     3805     3808 
    3815     3835     3863     3878     3878     3882     3889     3889 
    3897     3913     3923     3929     3939     3932     3921     3925 
    3935     3936     3939     3935     3921     3910     3901     3885 
    3877     3885     3893     3886     3870     3844     3831     3838 
    3850     3848     3843     3847     3859     3867     3871     3869 
    3866     3871     3886     3897     3897     3905     3917     3924 
    3931     3933     3921     3908     3906     3909     3904     3898 
    3893     3883     3869     3856     3854     3859     3861     3850 
    3839     3846     3862     3870     3865     3859     3863     3873 
    3889     3912     3935     3951     3951     3947     3956     3973 
    3997     4018     4020     4008     4012     4025     4033     4044 
    4048     4048     4055     4051     4027     4012     4017     4028 
    4032     4020     3993     3986     3989     3974     3956     3946 
    3936     3933     3932     3913     3885     3866     3850     3839 
    3839     3828     3804     3789     3781     3766     3747     3739 
    3743     3740     3726     3712     3711     3711     3707     3711 
    3711     3709     3709     3704     3707     3717     3726     3738 
    3750     3751     3751     3757     3765     3777     3786     3785 
    3785     3793     3797     3800     3804     3812     3824     3827 
    3820     3813     3813     3815     3815     3820     3819     3819 
    3832     3838     3834     3835     3842     3850     3856     3859 
    3867     3881     3898     3920     3936     3940     3951     3973 
    3996     4020     4039     4050     4060     4079     4108     4131 
    4141     4143     4141     4153     4175     4185     4180     4179 
    4182     4182     4172     4163     4164     4171     4179     4182 
    4160     4131     4122     4129     4132     4118     4087     4058 
    4043     4029     4009     3989     3982     3979     3973     3962 
    3950     3940     3935     3927     3909     3897     3893     3888 
    3878     3877     3878     3881     3882     3883     3878     3874 
    3871     3862     3843     3834     3843     3852     3854     3855 
    3850     3855     3875     3889     3898     3912     3919     3921 
    3919     3915     3913     3913     3916     3917     3910     3901 
    3904     3898     3874     3852     3838     3834     3832     3819 
    3797     3781     3777     3785     3796     3797     3788     3773 
    3761     3755     3755     3754     3761     3771     3775     3775 
    3777     3774     3773     3780     3788     3786     3785     3785 
    3778     3766     3759     3751     3747     3751     3753     3750 
    3750     3746     3736     3738     3747     3757     3762     3767 
    3775     3781     3785     3789     3784     3780     3788     3793 
    3789     3785     3786     3782     3773     3769     3766     3766 
    3773     3767     3746     3726     3716     3716     3727     3734 
    3731     3726     3724     3721     3715     3707     3712     3728 
    3739     3734     3728     3734     3743     3746     3739     3735 
    3743     3747     3739     3730     3731     3743     3759     3762 
    3748     3734     3728     3728     3732     3738     3744     3755 
    3755     3743     3739     3746     3758     3765     3757     3740 
    3736     3743     3748     3751     3757     3762     3763     3762 
    3759     3759     3767     3781     3790     3790     3788     3784 
    3778     3784     3801     3812     3807     3797     3797     3801 
    3801     3798     3801     3812     3828     3846     3850     3843 
    3840     3855     3879     3898     3904     3898     3901     3921 
    3936     3947     3977     4004     4002     3990     3991     4005 
    4025     4037     4039     4047     4056     4062     4075     4097 
    4110     4104     4090     4089     4101     4113     4114     4120 
    4126     4126     4131     4136     4140     4149     4153     4151 
    4144     4131     4116     4113     4124     4131     4136     4135 
    4118     4097     4086     4086     4087     4085     4077     4066 
    4056     4048     4043     4052     4060     4051     4032     4009 
    3993     3994     4000     3994     3990     3985     3960     3942 
    3935     3920     3916     3931     3931     3910     3896     3886 
    3878     3886     3898     3900     3901     3898     3883     3873 
    3871     3871     3873     3878     3883     3879     3871     3869 
    3871     3877     3888     3902     3897     3883     3886     3885 
    3877     3879     3889     3888     3875     3871     3874     3874 
    3879     3889     3893     3885     3871     3856     3842     3835 
    3835     3838     3836     3829     3817     3801     3792     3794 
    3793     3774     3747     3720     3693     3674     3669     3666 
    3665     3662     3653     3643     3635     3619     3604     3599 
    3600     3605     3609     3616     3627     3635     3638     3635 
    3640     3653     3658     3658     3651     3634     3620     3624 
    3631     3639     3647     3649     3643     3635     3626     3631 
    3646     3650     3654     3669     3684     3688     3692     3701 
    3720     3747     3757     3761     3775     3784     3789     3805 
    3827     3840     3850     3865     3878     3890     3906     3916 
    3919     3925     3940     3955     3967     3978     3986     3991 
    3996     4002     4008     4009     4016     4018     4006     3993 
    3987     3987     3989     3981     3966     3959     3958     3951 
    3939     3928     3923     3919     3906     3889     3870     3851 
    3843     3840     3832     3824     3820     3812     3801     3790 
    3782     3781     3784     3781     3781     3793     3802     3802 
    3804     3807     3819     3839     3846     3836     3819     3805 
    3805     3815     3823     3824     3820     3811     3802     3798 
    3797     3798     3801     3802     3798     3800     3816     3829 
    3831     3834     3840     3840     3832     3834     3842     3848 
    3854     3861     3861     3859     3861     3856     3850     3854 
    3854     3842     3831     3824     3819     3827     3838     3839 
    3834     3827     3823     3827     3824     3812     3809     3816 
    3817     3817     3809     3802     3812     3820     3805     3793 
    3798     3805     3801     3805     3823     3842     3858     3869 
    3878     3890     3905     3928     3944     3946     3951     3973 
    3998     4017     4031     4040     4052     4064     4078     4091 
    4094     4090     4097     4116     4129     4128     4129     4133 
    4136     4139     4136     4125     4113     4110     4105     4089 
    4075     4068     4064     4056     4050     4032     4010     4005 
    4001     3991     3987     3987     3996     4008     4012     4008 
    4006     4005     4001     4002     4012     4027     4037     4035 
    4024     4017     4020     4025     4028     4033     4043     4043 
    4031     4013     4006     4012     4014     4016     4021     4033 
    4039     4028     4018     4029     4043     4044     4045     4048 
    4039     4032     4039     4048     4058     4068     4070     4063 
    4050     4031     4018     4023     4028     4024     4017     4006 
    3993     3981     3967     3955     3955     3954     3942     3919 
    3889     3863     3852     3844     3836     3831     3816     3796 
    3785     3765     3742     3734     3731     3726     3717     3700 
    3678     3665     3653     3643     3646     3645     3636     3622 
    3600     3588     3589     3582     3572     3565     3555     3545 
    3543     3538     3530     3535     3539     3539     3545     3549 
    3553     3559     3564     3568     3580     3591     3600     3619 
    3639     3645     3647     3650     3643     3640     3654     3673 
    3677     3673     3674     3680     3680     3672     3672     3684 
    3692     3690     3678     3657     3647     3649     3649     3653 
    3665     3670     3665     3661     3653     3640     3647     3665 
    3678     3692     3703     3708     3715     3731     3762     3786 
    3797     3804     3811     3819     3832     3854     3873     3888 
    3902     3915     3929     3951     3969     3977     3981     3987 
    3993     4004     4024     4045     4063     4075     4082     4086 
    4087     4098     4124     4151     4162     4158     4156     4166 
    4178     4183     4185     4195     4207     4212     4202     4186 
    4186     4195     4194     4183     4170     4155     4132     4116 
    4118     4120     4116     4110     4101     4090     4086     4083 
    4077     4075     4078     4071     4063     4058     4058     4059 
    4056     4062     4062     4055     4045     4032     4024     4023 
    4021     4013     4001     3990     3979     3983     4001     4006 
    4001     3994     3985     3969     3954     3946     3947     3951 
    3942     3923     3916     3909     3893     3879     3879     3883 
    3878     3855     3824     3798     3789     3786     3784     3773 
    3759     3740     3717     3703     3690     3674     3669     3670 
    3663     3650     3640     3643     3651     3654     3657     3667 
    3677     3677     3677     3677     3684     3697     3705     3711 
    3711     3700     3703     3713     3719     3721     3724     3731 
    3740     3751     3753     3750     3761     3778     3792     3798 
    3805     3817     3828     3834     3838     3847     3866     3883 
    3890     3890     3892     3900     3902     3904     3910     3910 
    3901     3890     3878     3866     3865     3867     3859     3843 
    3829     3817     3805     3793     3789     3781     3766     3750 
    3728     3708     3697     3686     3670     3655     3640     3624 
    3613     3601     3581     3564     3554     3547     3532     3516 
    3516     3524     3527     3523     3520     3526     3528     3531 
    3538     3545     3557     3577     3596     3613     3627     3635 
    3651     3674     3694     3713     3724     3732     3747     3766 
    3777     3790     3811     3828     3840     3846     3850     3862 
    3873     3881     3894     3910     3925     3942     3958     3970 
    3982     3997     4010     4027     4052     4068     4068     4078 
    4105     4120     4118     4122     4132     4143     4152     4160 
    4175     4187     4191     4195     4199     4199     4199     4197 
    4195     4197     4193     4183     4185     4190     4187     4174 
    4162     4162     4159     4152     4145     4131     4112     4099 
    4087     4068     4051     4039     4029     4025     4008     3979 
    3960     3951     3940     3932     3923     3904     3886     3881 
    3873     3863     3859     3850     3839     3827     3809     3796 
    3786     3771     3758     3742     3717     3693     3681     3673 
    3659     3643     3631     3628     3623     3611     3596     3589 
    3600     3608     3604     3601     3605     3616     3630     3638 
    3642     3655     3674     3690     3703     3713     3728     3750 
    3771     3788     3796     3809     3828     3844     3852     3863 
    3878     3892     3901     3901     3898     3913     3942     3952 
    3948     3946     3944     3947     3954     3958     3958     3960 
    3962     3963     3963     3964     3970     3974     3971     3963 
    3966     3978     3983     3979     3981     3989     3994     3993 
    3990     3979     3966     3962     3962     3956     3947     3931 
    3910     3900     3902     3900     3883     3863     3847     3840 
    3832     3823     3819     3815     3802     3792     3785     3780 
    3782     3788     3789     3794     3807     3817     3831     3844 
    3852     3856     3865     3882     3897     3901     3912     3933 
    3951     3960     3974     3994     4012     4025     4037     4044 
    4052     4064     4072     4072     4077     4090     4098     4095 
    4087     4078     4070     4060     4051     4035     4013     3994 
    3977     3951     3933     3929     3916     3892     3866     3840 
    3823     3811     3793     3777     3770     3765     3759     3754 
    3747     3743     3747     3751     3748     3746     3750     3755 
    3759     3767     3775     3777     3785     3798     3805     3808 
    3816     3819     3813     3811     3807     3807     3816     3824 
    3824     3819     3809     3798     3801     3821     3838     3839 
    3828     3816     3813     3812     3809     3811     3809     3807 
    3812     3811     3793     3777     3778     3784     3780     3778 
    3780     3771     3763     3763     3762     3748     3740     3739 
    3739     3734     3720     3704     3692     3697     3711     3716 
    3711     3704     3707     3707     3704     3711     3723     3735 
    3739     3736     3734     3743     3757     3763     3767     3770 
    3770     3777     3784     3777     3773     3782     3789     3790 
    3790     3788     3793     3808     3820     3825     3825     3825 
    3828     3835     3843     3847     3855     3867     3877     3882 
    3885     3883     3883     3885     3892     3906     3912     3900 
    3894     3904     3912     3917     3919     3916     3920     3933 
    3946     3944     3937     3932     3932     3939     3947     3954 
    3960     3966     3963     3963     3973     3986     3996     3996 
    3987     3986     3989     3983     3979     3985     3991     3996 
    3994     3990     3986     3981     3978     3979     3979     3971 
    3964     3963     3964     3967     3973     3979     3983     3983 
    3978     3973     3970     3967     3970     3977     3983     3982 
    3975     3973     3971     3971     3969     3960     3954     3952 
    3948     3944     3943     3943     3942     3944     3950     3951 
    3954     3956     3956     3958     3963     3974     3986     3993 
    3994     3996     3997     3994     3987     3981     3979     3982 
    3981     3975     3969     3960     3955     3954     3950     3939 
    3927     3920     3913     3909     3905     3901     3900     3901 
    3896     3885     3885     3888     3886     3886     3889     3885 
    3875     3869     3869     3870     3869     3866     3861     3855 
    3844     3835     3832     3835     3839     3844     3847     3846 
    3840     3836     3842     3843     3843     3846     3846     3847 
    3854     3856     3856     3858     3863     3865     3858     3852 
    3851     3851     3848     3847     3844     3840     3832     3828 
    3828     3831     3835     3827     3813     3807     3804     3804 
    3798     3794     3798     3801     3793     3786     3780     3770 
    3767     3769     3763     3754     3739     3731     3728     3721 
    3713     3712     3712     3709     3704     3697     3693     3694 
    3694     3690     3693     3703     3716     3730     3735     3743 
    3762     3782     3793     3800     3804     3812     3827     3839 
    3843     3850     3859     3867     3877     3881     3886     3896 
    3897     3893     3894     3897     3900     3908     3912     3912 
    3912     3915     3916     3912     3906     3905     3902     3896 
    3892     3893     3893     3894     3890     3878     3873     3878 
    3877     3866     3861     3859     3854     3850     3847     3840 
    3831     3819     3805     3800     3798     3790     3782     3775 
    3767     3761     3757     3748     3743     3742     3735     3721 
    3713     3711     3709     3708     3713     3720     3717     3709 
    3713     3719     3720     3727     3736     3743     3755     3770 
