Origin Time       2025/01/13 21:19:00
Lat.              31.8
Long.             131.6
Depth. (km)       30
Mag.              6.9
Station Code      HYGH07
Station Lat.      35.0322
Station Long.     134.6701
Station Height(m) 160
Record Time       2025/01/13 21:21:46
Sampling Freq(Hz) 100Hz
Duration Time(s)  120
Dir.              5
Scale Factor      7845(gal)/8223790
Max. Acc. (gal)   0.322
Last Correction   2025/01/13 21:21:46
Memo.             
[...]
    1121     1124     1132     1144     1150     1148     1146     1142 
    1138     1134     1135     1143     1151     1147     1138     1135 
    1144     1151     1155     1158     1156     1154     1151     1148 
    1144     1143     1144     1143     1136     1131     1129     1132 
    1136     1142     1146     1144     1139     1143     1151     1151 
    1148     1156     1167     1171     1171     1170     1169     1171 
    1178     1181     1179     1178     1178     1177     1179     1185 
    1188     1186     1179     1167     1155     1147     1139     1135 
    1138     1139     1132     1125     1123     1120     1121     1124 
    1131     1140     1148     1147     1136     1123     1115     1119 
    1134     1144     1147     1146     1142     1138     1139     1136 
    1135     1140     1146     1143     1138     1131     1123     1119 
    1113     1107     1102     1104     1109     1116     1124     1129 
    1125     1113     1098     1089     1088     1093     1104     1107 
    1096     1088     1082     1080     1082     1089     1098     1104 
    1100     1090     1074     1071     1084     1093     1098     1102 
    1101     1097     1098     1109     1125     1138     1139     1131 
    1121     1115     1117     1127     1138     1144     1136     1121 
    1113     1108     1107     1116     1129     1136     1135     1127 
    1116     1107     1104     1102     1101     1105     1109     1108 
    1104     1098     1090     1082     1073     1062     1058     1059 
    1061     1066     1069     1069     1071     1075     1081     1086 
    1092     1097     1104     1111     1111     1108     1107     1108 
    1108     1115     1128     1140     1146     1151     1151     1147 
    1144     1151     1169     1185     1194     1196     1198     1201 
    1197     1190     1190     1192     1192     1194     1196     1192 
    1185     1179     1178     1174     1171     1178     1186     1190 
    1193     1193     1189     1186     1189     1192     1197     1208 
    1216     1216     1212     1202     1190     1179     1169     1163 
    1166     1171     1177     1177     1166     1151     1144     1152 
    1170     1188     1198     1196     1179     1161     1148     1147 
    1151     1154     1154     1150     1146     1138     1132     1129 
    1127     1125     1127     1125     1117     1108     1105     1113 
    1123     1127     1127     1127     1129     1136     1144     1146 
    1135     1123     1112     1108     1108     1109     1109     1107 
    1100     1094     1097     1104     1111     1121     1134     1142 
    1143     1138     1135     1139     1151     1171     1192     1198 
    1196     1188     1182     1186     1197     1209     1219     1221 
    1221     1221     1216     1209     1201     1194     1194     1198 
    1200     1198     1193     1192     1189     1185     1181     1177 
    1174     1173     1171     1173     1174     1178     1183     1182 
    1171     1163     1161     1162     1169     1171     1162     1143 
    1131     1132     1142     1148     1146     1134     1120     1105 
    1092     1086     1092     1101     1112     1121     1125     1119 
    1109     1112     1125     1140     1154     1159     1158     1155 
    1155     1158     1162     1165     1162     1165     1166     1166 
    1165     1162     1159     1158     1156     1155     1154     1148 
    1142     1135     1125     1123     1127     1135     1144     1148 
    1146     1136     1123     1111     1104     1102     1102     1100 
    1098     1096     1093     1093     1092     1089     1088     1090 
    1093     1093     1092     1089     1089     1096     1102     1111 
    1127     1143     1154     1166     1174     1177     1179     1181 
    1182     1188     1197     1208     1212     1215     1217     1215 
    1208     1201     1193     1185     1181     1179     1175     1167 
    1158     1148     1143     1140     1142     1147     1150     1147 
    1140     1136     1134     1132     1127     1120     1119     1117 
    1115     1116     1120     1121     1121     1112     1105     1105 
    1102     1101     1111     1121     1124     1120     1117     1117 
    1117     1117     1119     1121     1123     1123     1124     1129 
    1135     1138     1142     1143     1140     1135     1136     1142 
    1140     1134     1125     1116     1109     1111     1112     1112 
    1111     1104     1090     1082     1082     1081     1077     1067 
    1053     1039     1035     1040     1054     1066     1069     1062 
    1057     1048     1039     1035     1038     1038     1039     1040 
    1035     1028     1024     1023     1021     1019     1015     1011 
    1011     1005     1000     1004     1013     1021     1031     1043 
    1053     1059     1066     1067     1069     1073     1082     1094 
    1101     1101     1098     1096     1097     1100     1098     1096 
    1098     1107     1116     1124     1125     1124     1128     1136 
    1142     1146     1151     1156     1161     1162     1159     1156 
    1150     1146     1143     1140     1143     1139     1129     1125 
    1119     1108     1101     1100     1102     1101     1096     1092 
    1086     1075     1073     1077     1081     1086     1096     1105 
    1109     1107     1102     1098     1094     1093     1094     1094 
    1097     1102     1105     1105     1100     1092     1085     1080 
    1078     1084     1089     1094     1101     1102     1098     1096 
    1096     1098     1102     1111     1119     1120     1117     1113 
    1109     1107     1108     1112     1113     1113     1111     1109 
    1108     1107     1101     1094     1089     1085     1086     1089 
    1086     1080     1075     1067     1053     1040     1034     1031 
    1026     1021     1021     1020     1016     1013     1017     1021 
    1026     1031     1035     1038     1042     1046     1050     1053 
    1059     1065     1070     1077     1085     1092     1098     1101 
    1101     1104     1107     1108     1113     1123     1124     1123 
    1123     1121     1116     1112     1113     1117     1117     1112 
    1107     1101     1092     1084     1082     1081     1077     1070 
    1061     1051     1048     1050     1053     1051     1051     1053 
    1055     1063     1073     1080     1085     1092     1101     1113 
    1128     1139     1143     1143     1146     1148     1150     1151 
    1154     1155     1154     1152     1152     1155     1162     1166 
    1171     1175     1179     1181     1183     1181     1173     1166 
    1159     1151     1143     1143     1144     1142     1134     1119 
    1105     1101     1101     1100     1097     1092     1082     1074 
    1066     1057     1051     1053     1055     1055     1055     1053 
    1047     1040     1036     1034     1031     1035     1036     1034 
    1027     1020     1016     1017     1016     1015     1017     1019 
    1023     1027     1023     1015     1007     1000      999     1005 
    1015     1026     1032     1035     1031     1023     1016     1013 
    1019     1027     1031     1028     1020     1008     1000      997 
    1001     1013     1030     1043     1057     1069     1074     1071 
    1071     1075     1080     1089     1101     1109     1115     1116 
    1116     1119     1123     1128     1134     1142     1151     1158 
    1165     1169     1166     1159     1155     1159     1169     1178 
    1185     1188     1186     1182     1181     1185     1197     1209 
    1215     1220     1224     1217     1212     1213     1216     1224 
    1235     1242     1252     1267     1275     1279     1285     1286 
    1285     1285     1286     1283     1279     1271     1260     1248 
    1233     1221     1217     1215     1205     1194     1182     1169 
    1158     1150     1146     1147     1146     1140     1134     1124 
    1115     1113     1112     1109     1108     1105     1098     1093 
    1085     1077     1074     1074     1073     1070     1073     1078 
    1086     1094     1101     1105     1112     1120     1132     1147 
    1163     1175     1182     1186     1189     1192     1194     1196 
    1200     1198     1192     1182     1173     1162     1152     1147 
    1142     1129     1117     1109     1101     1097     1101     1109 
    1116     1120     1119     1115     1111     1109     1117     1125 
    1124     1119     1116     1108     1101     1098     1093     1085 
    1075     1065     1061     1058     1053     1050     1048     1053 
    1054     1047     1044     1050     1058     1062     1062     1058 
    1050     1046     1047     1053     1054     1057     1065     1073 
    1075     1075     1074     1074     1075     1081     1092     1102 
    1104     1102     1105     1102     1100     1101     1105     1109 
    1119     1128     1134     1136     1139     1148     1156     1167 
    1181     1190     1192     1192     1193     1194     1198     1198 
    1197     1193     1188     1178     1166     1154     1144     1136 
    1128     1120     1109     1097     1090     1085     1075     1063 
    1057     1053     1051     1054     1053     1053     1058     1065 
    1069     1071     1071     1071     1073     1077     1084     1088 
    1085     1084     1086     1089     1094     1107     1119     1127 
    1128     1123     1117     1116     1121     1127     1131     1132 
    1134     1135     1142     1151     1155     1156     1155     1147 
    1144     1143     1139     1139     1144     1147     1147     1148 
    1151     1156     1166     1175     1188     1201     1212     1215 
    1220     1224     1231     1242     1254     1259     1256     1256 
    1259     1260     1263     1264     1266     1263     1258     1252 
    1251     1248     1247     1251     1247     1236     1220     1209 
    1205     1200     1193     1194     1193     1185     1177     1169 
    1161     1155     1152     1150     1151     1152     1147     1136 
    1127     1123     1117     1111     1111     1108     1100     1092 
    1084     1075     1069     1063     1063     1066     1067     1070 
    1077     1077     1073     1069     1067     1070     1082     1096 
    1107     1112     1111     1105     1101     1105     1112     1121 
    1131     1139     1142     1143     1146     1147     1152     1161 
    1171     1181     1188     1192     1193     1194     1198     1208 
    1219     1227     1232     1235     1239     1247     1252     1256 
    1256     1252     1251     1250     1246     1239     1228     1217 
    1205     1194     1183     1165     1140     1121     1107     1090 
    1075     1059     1043     1027     1012     1003     1000      994 
     988      978      967      955      951      957      959      959 
     957      954      950      946      942      938      940      950 
     958      962      969      974      978      984      992      999 
    1003     1007     1011     1011     1008     1004      997      990 
     989      989      989      990      985      977      969      959 
     953      951      954      954      946      934      926      920 
     922      934      953      970      984      996     1008     1017 
    1026     1038     1050     1058     1063     1077     1089     1098 
    1111     1123     1139     1159     1174     1183     1190     1193 
    1196     1201     1204     1205     1213     1223     1229     1237 
    1247     1259     1270     1282     1297     1306     1312     1313 
    1313     1317     1325     1327     1325     1328     1331     1331 
    1335     1339     1339     1339     1340     1340     1339     1339 
    1339     1341     1344     1341     1333     1321     1309     1297 
    1286     1279     1274     1259     1236     1215     1197     1179 
    1167     1161     1155     1143     1128     1117     1113     1111 
    1109     1116     1128     1136     1140     1142     1143     1148 
    1158     1173     1185     1193     1198     1201     1202     1208 
    1219     1228     1232     1233     1233     1235     1242     1255 
    1263     1263     1256     1248     1236     1227     1223     1220 
    1212     1200     1188     1175     1163     1156     1147     1135 
    1125     1119     1112     1108     1104     1098     1092     1084 
    1075     1073     1071     1066     1058     1055     1051     1044 
    1036     1036     1038     1036     1039     1047     1053     1051 
    1055     1063     1067     1077     1090     1101     1113     1121 
    1125     1128     1127     1124     1121     1119     1116     1113 
    1112     1112     1112     1109     1107     1105     1101     1097 
    1096     1094     1088     1084     1077     1065     1053     1043 
    1038     1035     1032     1031     1031     1034     1036     1036 
    1035     1036     1038     1036     1036     1035     1030     1024 
    1021     1013     1001      994      990      988      985      985 
     982      977      972      965      957      951      953      955 
     958      963      967      967      969      973      976      981 
     986      990      996     1001     1005     1015     1021     1021 
    1024     1030     1035     1044     1057     1069     1081     1092 
    1102     1109     1117     1131     1147     1161     1175     1194 
    1216     1237     1258     1277     1297     1317     1336     1354 
    1370     1387     1402     1414     1422     1429     1440     1451 
    1456     1460     1466     1466     1462     1456     1455     1452 
    1448     1441     1435     1428     1418     1405     1389     1374 
    1359     1344     1331     1316     1298     1282     1270     1262 
    1250     1233     1220     1209     1202     1198     1194     1192 
    1192     1192     1186     1181     1183     1186     1186     1190 
    1192     1192     1192     1193     1197     1200     1205     1210 
    1216     1221     1225     1225     1224     1220     1213     1205 
    1205     1210     1213     1212     1206     1201     1194     1182 
    1170     1162     1152     1143     1139     1132     1120     1107 
    1094     1080     1066     1059     1054     1043     1030     1020 
    1009      994      984      981      974      967      963      955 
     942      928      915      909      909      908      900      892 
     881      870      864      862      862      861      859      859 
     861      864      870      876      878      884      891      897 
     912      926      938      953      969      982      996     1008 
    1021     1038     1055     1071     1086     1097     1102     1107 
    1111     1112     1115     1119     1119     1120     1125     1127 
    1127     1127     1125     1128     1132     1132     1131     1132 
    1131     1129     1131     1128     1124     1124     1127     1132 
    1135     1135     1134     1134     1134     1136     1147     1155 
    1154     1148     1144     1142     1143     1150     1151     1148 
    1148     1147     1148     1155     1166     1179     1193     1201 
    1201     1204     1213     1217     1220     1227     1232     1235 
    1235     1229     1227     1227     1227     1227     1224     1215 
    1208     1205     1208     1215     1225     1239     1248     1251 
    1255     1259     1259     1258     1256     1258     1255     1246 
    1236     1227     1213     1196     1182     1169     1151     1135 
    1120     1102     1081     1058     1039     1023     1007      996 
     988      976      962      947      928      913      904      901 
     899      896      892      886      876      866      865      869 
     870      870      870      869      870      873      880      884 
     886      893      907      920      932      945      951      957 
     965      974      982      992      999     1005     1013     1020 
    1023     1026     1027     1032     1043     1055     1067     1077 
    1084     1090     1094     1096     1097     1107     1117     1128 
    1134     1132     1132     1129     1131     1135     1138     1140 
    1148     1156     1161     1163     1166     1171     1177     1179 
    1183     1194     1208     1219     1228     1232     1228     1224 
    1223     1224     1228     1233     1237     1239     1231     1223 
    1225     1232     1242     1254     1263     1267     1271     1274 
    1281     1294     1306     1318     1327     1332     1335     1340 
    1347     1354     1359     1364     1366     1363     1362     1360 
    1358     1356     1355     1354     1352     1358     1370     1379 
    1382     1382     1383     1382     1382     1379     1375     1368 
    1359     1348     1341     1335     1329     1320     1309     1300 
    1289     1278     1271     1262     1251     1246     1240     1231 
    1225     1220     1212     1208     1205     1200     1196     1192 
    1185     1178     1169     1154     1144     1136     1131     1124 
    1116     1104     1093     1086     1080     1070     1065     1062 
    1057     1050     1046     1042     1040     1043     1047     1047 
    1042     1038     1032     1032     1038     1043     1044     1043 
    1035     1024     1019     1015     1013     1009     1004      997 
     996      999     1001     1003     1000      993      989      985 
     982      986      989      988      988      985      981      982 
     992     1003     1013     1024     1032     1035     1038     1046 
    1061     1078     1096     1111     1116     1116     1120     1129 
    1142     1156     1170     1179     1183     1181     1182     1185 
    1189     1200     1212     1219     1219     1220     1220     1223 
    1231     1237     1242     1243     1240     1240     1244     1252 
    1258     1260     1262     1258     1254     1252     1246     1237 
    1231     1224     1212     1202     1192     1182     1175     1169 
    1158     1150     1142     1132     1123     1112     1111     1108 
    1101     1096     1092     1086     1081     1075     1074     1075 
    1077     1080     1084     1086     1085     1086     1092     1097 
    1102     1107     1105     1108     1113     1117     1125     1134 
    1142     1150     1158     1167     1173     1177     1183     1190 
    1197     1206     1213     1217     1223     1231     1239     1248 
    1259     1264     1267     1270     1275     1282     1293     1302 
    1308     1309     1312     1316     1321     1327     1331     1332 
    1332     1335     1337     1336     1329     1324     1316     1305 
    1296     1289     1283     1274     1262     1251     1240     1227 
    1215     1206     1197     1185     1177     1167     1156     1150 
    1139     1128     1123     1116     1109     1108     1105     1098 
    1094     1094     1090     1085     1082     1078     1075     1074 
    1077     1077     1073     1070     1071     1074     1077     1078 
    1077     1075     1078     1082     1088     1096     1108     1120 
    1129     1136     1146     1155     1163     1175     1188     1197 
    1205     1210     1215     1223     1231     1237     1244     1246 
    1246     1247     1248     1252     1252     1248     1246     1239 
    1228     1221     1217     1210     1205     1201     1194     1183 
    1173     1159     1140     1125     1112     1098     1086     1078 
