Origin Time       2025/01/13 21:19:00
Lat.              31.8
Long.             131.6
Depth. (km)       30
Mag.              6.9
Station Code      HYGH02
Station Lat.      35.0671
Station Long.     134.4234
Station Height(m) 205
Record Time       2025/01/13 21:21:08
Sampling Freq(Hz) 100Hz
Duration Time(s)  120
Dir.              6
Scale Factor      7845(gal)/8223790
Max. Acc. (gal)   0.681
Last Correction   2025/01/13 21:21:08
Memo.             
[...]
   -6751    -6752    -6758    -6764    -6771    -6777    -6781    -6783 
   -6786    -6793    -6799    -6805    -6813    -6821    -6825    -6829 
   -6832    -6832    -6831    -6826    -6818    -6812    -6805    -6802 
   -6804    -6805    -6805    -6806    -6808    -6809    -6813    -6818 
   -6821    -6824    -6829    -6832    -6832    -6835    -6843    -6847 
   -6845    -6844    -6840    -6832    -6825    -6820    -6813    -6806 
   -6802    -6799    -6795    -6790    -6789    -6790    -6793    -6794 
   -6789    -6786    -6787    -6786    -6782    -6783    -6782    -6774 
   -6770    -6766    -6760    -6754    -6750    -6744    -6739    -6740 
   -6740    -6737    -6739    -6740    -6743    -6747    -6751    -6755 
   -6758    -6758    -6758    -6760    -6763    -6763    -6763    -6760 
   -6755    -6752    -6752    -6754    -6754    -6754    -6751    -6751 
   -6754    -6755    -6754    -6755    -6756    -6754    -6755    -6758 
   -6756    -6756    -6759    -6760    -6762    -6767    -6768    -6767 
   -6772    -6777    -6774    -6774    -6771    -6760    -6755    -6755 
   -6745    -6737    -6736    -6735    -6732    -6733    -6733    -6733 
   -6733    -6733    -6732    -6731    -6728    -6727    -6728    -6729 
   -6729    -6732    -6737    -6744    -6750    -6754    -6758    -6766 
   -6777    -6786    -6793    -6801    -6810    -6817    -6824    -6825 
   -6826    -6829    -6826    -6825    -6826    -6824    -6820    -6821 
   -6821    -6818    -6817    -6820    -6821    -6822    -6824    -6825 
   -6831    -6836    -6840    -6844    -6852    -6855    -6856    -6860 
   -6859    -6852    -6848    -6845    -6839    -6832    -6826    -6820 
   -6812    -6806    -6799    -6794    -6790    -6787    -6790    -6794 
   -6790    -6787    -6789    -6789    -6787    -6785    -6779    -6777 
   -6772    -6770    -6770    -6767    -6756    -6748    -6743    -6735 
   -6725    -6720    -6717    -6716    -6714    -6718    -6721    -6724 
   -6729    -6736    -6743    -6748    -6751    -6758    -6763    -6762 
   -6760    -6762    -6763    -6760    -6758    -6754    -6747    -6737 
   -6729    -6718    -6710    -6705    -6696    -6686    -6681    -6678 
   -6677    -6675    -6675    -6677    -6679    -6682    -6686    -6694 
   -6704    -6713    -6727    -6744    -6756    -6763    -6768    -6778 
   -6782    -6779    -6783    -6793    -6794    -6795    -6805    -6812 
   -6818    -6828    -6836    -6841    -6845    -6845    -6845    -6844 
   -6840    -6836    -6835    -6831    -6825    -6818    -6809    -6798 
   -6787    -6775    -6763    -6754    -6743    -6731    -6723    -6716 
   -6708    -6704    -6706    -6712    -6713    -6716    -6723    -6728 
   -6735    -6741    -6744    -6745    -6748    -6751    -6756    -6760 
   -6760    -6759    -6760    -6756    -6754    -6752    -6747    -6743 
   -6743    -6745    -6750    -6751    -6752    -6756    -6763    -6772 
   -6781    -6790    -6795    -6797    -6799    -6801    -6799    -6799 
   -6798    -6797    -6798    -6798    -6797    -6797    -6801    -6805 
   -6808    -6809    -6809    -6813    -6817    -6824    -6829    -6832 
   -6832    -6829    -6825    -6821    -6817    -6808    -6798    -6786 
   -6772    -6762    -6747    -6731    -6718    -6708    -6700    -6693 
   -6689    -6686    -6679    -6675    -6673    -6667    -6660    -6658 
   -6654    -6650    -6647    -6644    -6640    -6637    -6636    -6635 
   -6635    -6636    -6637    -6639    -6640    -6646    -6654    -6660 
   -6666    -6675    -6682    -6687    -6696    -6704    -6712    -6720 
   -6727    -6732    -6737    -6740    -6743    -6743    -6740    -6740 
   -6740    -6736    -6735    -6737    -6744    -6748    -6752    -6759 
   -6766    -6770    -6774    -6781    -6787    -6793    -6799    -6806 
   -6813    -6818    -6825    -6833    -6841    -6848    -6855    -6862 
   -6870    -6874    -6875    -6876    -6879    -6879    -6875    -6874 
   -6875    -6872    -6868    -6863    -6853    -6844    -6835    -6824 
   -6812    -6798    -6785    -6779    -6771    -6760    -6755    -6750 
   -6745    -6744    -6744    -6743    -6743    -6743    -6739    -6736 
   -6737    -6739    -6737    -6736    -6737    -6739    -6735    -6733 
   -6735    -6735    -6732    -6731    -6732    -6736    -6737    -6740 
   -6743    -6748    -6755    -6758    -6762    -6766    -6770    -6774 
   -6779    -6782    -6783    -6786    -6787    -6787    -6789    -6793 
   -6793    -6795    -6797    -6794    -6795    -6801    -6801    -6801 
   -6804    -6804    -6804    -6806    -6809    -6812    -6814    -6818 
   -6820    -6820    -6817    -6816    -6816    -6816    -6813    -6806 
   -6804    -6799    -6793    -6787    -6783    -6779    -6772    -6768 
   -6763    -6751    -6741    -6735    -6724    -6717    -6713    -6706 
   -6704    -6706    -6709    -6710    -6716    -6724    -6733    -6743 
   -6750    -6758    -6764    -6772    -6779    -6785    -6790    -6793 
   -6793    -6791    -6789    -6786    -6783    -6778    -6771    -6767 
   -6760    -6752    -6750    -6745    -6743    -6740    -6737    -6735 
   -6731    -6721    -6714    -6709    -6705    -6701    -6701    -6704 
   -6701    -6696    -6696    -6697    -6697    -6698    -6700    -6700 
   -6702    -6708    -6712    -6717    -6725    -6732    -6736    -6739 
   -6740    -6744    -6752    -6755    -6756    -6759    -6759    -6762 
   -6767    -6768    -6770    -6775    -6779    -6781    -6783    -6783 
   -6782    -6785    -6785    -6785    -6786    -6789    -6789    -6790 
   -6790    -6787    -6785    -6781    -6777    -6771    -6768    -6763 
   -6755    -6748    -6740    -6731    -6718    -6705    -6693    -6682 
   -6669    -6656    -6644    -6633    -6619    -6606    -6594    -6583 
   -6573    -6565    -6562    -6559    -6559    -6559    -6556    -6554 
   -6562    -6567    -6573    -6583    -6593    -6602    -6615    -6627 
   -6642    -6652    -6662    -6674    -6686    -6698    -6713    -6727 
   -6740    -6750    -6760    -6770    -6778    -6783    -6789    -6791 
   -6794    -6801    -6808    -6813    -6817    -6822    -6829    -6835 
   -6840    -6848    -6856    -6867    -6878    -6887    -6901    -6909 
   -6912    -6918    -6928    -6932    -6934    -6934    -6932    -6926 
   -6921    -6912    -6901    -6893    -6880    -6867    -6855    -6840 
   -6826    -6812    -6794    -6781    -6770    -6758    -6744    -6736 
   -6727    -6718    -6714    -6709    -6701    -6691    -6682    -6671 
   -6662    -6655    -6647    -6637    -6633    -6627    -6615    -6605 
   -6597    -6592    -6586    -6582    -6579    -6575    -6574    -6577 
   -6581    -6585    -6590    -6594    -6598    -6604    -6608    -6615 
   -6623    -6629    -6639    -6652    -6666    -6678    -6694    -6713 
   -6732    -6748    -6766    -6782    -6798    -6813    -6829    -6844 
   -6860    -6874    -6886    -6899    -6912    -6922    -6936    -6945 
   -6949    -6956    -6964    -6968    -6970    -6970    -6968    -6968 
   -6970    -6968    -6964    -6961    -6959    -6955    -6948    -6939 
   -6928    -6913    -6894    -6875    -6862    -6847    -6826    -6808 
   -6793    -6778    -6763    -6750    -6737    -6727    -6714    -6701 
   -6693    -6687    -6678    -6670    -6671    -6675    -6678    -6683 
   -6687    -6694    -6708    -6721    -6736    -6751    -6766    -6783 
   -6801    -6817    -6835    -6855    -6872    -6886    -6898    -6912 
   -6920    -6925    -6933    -6940    -6943    -6949    -6957    -6963 
   -6970    -6979    -6986    -6991    -7001    -7011    -7022    -7033 
   -7041    -7048    -7059    -7068    -7078    -7087    -7094    -7099 
   -7105    -7107    -7107    -7106    -7105    -7102    -7098    -7095 
   -7086    -7074    -7063    -7051    -7037    -7025    -7014    -7003 
   -6987    -6972    -6960    -6945    -6929    -6917    -6903    -6885 
   -6868    -6853    -6839    -6825    -6809    -6793    -6777    -6763 
   -6751    -6736    -6721    -6710    -6698    -6685    -6679    -6675 
   -6669    -6664    -6659    -6656    -6656    -6656    -6656    -6659 
   -6662    -6662    -6662    -6666    -6666    -6664    -6663    -6662 
   -6660    -6660    -6660    -6660    -6662    -6663    -6666    -6670 
   -6675    -6681    -6689    -6694    -6700    -6706    -6710    -6714 
   -6718    -6718    -6713    -6706    -6700    -6689    -6675    -6660 
   -6643    -6628    -6612    -6593    -6574    -6559    -6544    -6529 
   -6513    -6497    -6485    -6473    -6457    -6444    -6435    -6424 
   -6417    -6411    -6400    -6394    -6392    -6386    -6384    -6378 
   -6372    -6366    -6359    -6358    -6357    -6354    -6355    -6358 
   -6363    -6372    -6380    -6392    -6407    -6419    -6432    -6447 
   -6467    -6488    -6509    -6529    -6551    -6574    -6594    -6613 
   -6635    -6655    -6670    -6686    -6706    -6723    -6739    -6758 
   -6775    -6794    -6817    -6840    -6860    -6878    -6894    -6912 
   -6932    -6948    -6960    -6975    -6987    -6994    -7003    -7013 
   -7021    -7026    -7032    -7034    -7034    -7029    -7022    -7015 
   -7003    -6990    -6978    -6966    -6956    -6945    -6933    -6925 
   -6916    -6905    -6894    -6883    -6872    -6864    -6855    -6844 
   -6836    -6825    -6813    -6804    -6795    -6786    -6779    -6775 
   -6771    -6768    -6768    -6771    -6775    -6783    -6793    -6799 
   -6812    -6825    -6837    -6851    -6862    -6872    -6887    -6901 
   -6909    -6921    -6934    -6945    -6953    -6966    -6979    -6990 
   -6994    -6998    -7005    -7006    -7005    -7006    -7006    -6998 
   -6988    -6980    -6970    -6960    -6951    -6934    -6921    -6910 
   -6897    -6880    -6867    -6852    -6837    -6822    -6808    -6791 
   -6774    -6759    -6744    -6723    -6701    -6681    -6660    -6639 
   -6616    -6593    -6571    -6556    -6543    -6531    -6524    -6523 
   -6524    -6529    -6539    -6550    -6567    -6588    -6606    -6628 
   -6652    -6677    -6700    -6720    -6741    -6764    -6783    -6802 
   -6822    -6843    -6859    -6872    -6886    -6901    -6912    -6921 
   -6933    -6943    -6948    -6957    -6967    -6974    -6980    -6986 
   -6988    -6987    -6983    -6978    -6968    -6956    -6941    -6926 
   -6912    -6895    -6878    -6860    -6841    -6822    -6805    -6787 
   -6772    -6756    -6737    -6720    -6705    -6686    -6669    -6651 
   -6635    -6621    -6610    -6598    -6589    -6583    -6579    -6574 
   -6571    -6570    -6565    -6561    -6561    -6561    -6558    -6559 
   -6559    -6556    -6556    -6559    -6558    -6558    -6562    -6565 
   -6567    -6573    -6577    -6582    -6588    -6590    -6594    -6604 
   -6613    -6619    -6628    -6639    -6647    -6652    -6656    -6662 
   -6670    -6675    -6678    -6686    -6694    -6698    -6702    -6708 
   -6709    -6710    -6710    -6712    -6713    -6717    -6718    -6721 
   -6724    -6724    -6721    -6718    -6712    -6701    -6690    -6678 
   -6669    -6660    -6646    -6631    -6619    -6605    -6594    -6583 
   -6573    -6565    -6558    -6550    -6544    -6539    -6535    -6535 
   -6534    -6535    -6542    -6547    -6552    -6556    -6559    -6565 
   -6573    -6581    -6590    -6597    -6605    -6617    -6627    -6633 
   -6639    -6648    -6659    -6670    -6678    -6686    -6696    -6704 
   -6712    -6718    -6725    -6733    -6743    -6751    -6763    -6778 
   -6791    -6805    -6818    -6832    -6847    -6862    -6876    -6891 
   -6905    -6918    -6936    -6951    -6963    -6976    -6990    -7001 
   -7009    -7017    -7022    -7029    -7038    -7045    -7051    -7057 
   -7060    -7061    -7063    -7064    -7067    -7068    -7068    -7072 
   -7075    -7076    -7082    -7086    -7084    -7084    -7084    -7083 
   -7083    -7083    -7078    -7076    -7076    -7074    -7071    -7067 
   -7064    -7061    -7060    -7056    -7053    -7052    -7049    -7047 
   -7045    -7042    -7042    -7040    -7032    -7024    -7018    -7010 
   -7001    -6988    -6975    -6963    -6951    -6934    -6917    -6901 
   -6886    -6872    -6859    -6847    -6837    -6828    -6822    -6820 
   -6814    -6810    -6809    -6810    -6812    -6812    -6813    -6817 
   -6821    -6828    -6836    -6841    -6845    -6851    -6858    -6862 
   -6867    -6871    -6875    -6878    -6880    -6879    -6878    -6876 
   -6874    -6871    -6866    -6858    -6849    -6844    -6833    -6825 
   -6818    -6809    -6801    -6797    -6793    -6789    -6789    -6789 
   -6790    -6790    -6791    -6794    -6798    -6802    -6806    -6814 
   -6820    -6821    -6824    -6826    -6824    -6821    -6818    -6814 
   -6808    -6797    -6785    -6775    -6763    -6750    -6737    -6728 
   -6716    -6705    -6697    -6689    -6678    -6673    -6667    -6660 
   -6659    -6662    -6666    -6673    -6683    -6700    -6717    -6736 
   -6755    -6774    -6795    -6818    -6844    -6871    -6898    -6920 
   -6943    -6968    -6990    -7010    -7029    -7044    -7053    -7061 
   -7065    -7061    -7060    -7059    -7051    -7040    -7029    -7020 
   -7010    -6997    -6984    -6972    -6959    -6945    -6933    -6920 
   -6907    -6897    -6879    -6859    -6840    -6822    -6805    -6786 
   -6763    -6737    -6713    -6689    -6664    -6639    -6612    -6588 
   -6562    -6534    -6508    -6486    -6462    -6435    -6409    -6388 
   -6367    -6345    -6322    -6300    -6276    -6253    -6230    -6204 
   -6177    -6154    -6133    -6111    -6092    -6076    -6064    -6057 
   -6056    -6054    -6054    -6064    -6073    -6085    -6104    -6126 
   -6145    -6168    -6192    -6219    -6245    -6266    -6293    -6322 
   -6347    -6376    -6404    -6431    -6457    -6482    -6508    -6532 
   -6555    -6575    -6601    -6624    -6644    -6666    -6686    -6704 
   -6714    -6724    -6739    -6748    -6752    -6762    -6768    -6770 
   -6772    -6772    -6771    -6770    -6766    -6760    -6756    -6745 
   -6739    -6732    -6717    -6706    -6701    -6694    -6689    -6687 
   -6686    -6682    -6679    -6679    -6678    -6682    -6690    -6697 
   -6704    -6713    -6727    -6741    -6759    -6777    -6794    -6810 
   -6822    -6836    -6848    -6858    -6866    -6876    -6880    -6883 
   -6889    -6891    -6893    -6894    -6893    -6890    -6891    -6895 
   -6901    -6906    -6914    -6921    -6925    -6932    -6934    -6936 
   -6939    -6943    -6944    -6947    -6951    -6952    -6953    -6955 
   -6955    -6953    -6953    -6952    -6948    -6947    -6944    -6940 
   -6936    -6936    -6936    -6934    -6934    -6937    -6939    -6940 
   -6943    -6945    -6948    -6953    -6961    -6970    -6979    -6990 
   -6998    -7003    -7014    -7024    -7029    -7034    -7041    -7047 
   -7049    -7048    -7045    -7042    -7038    -7033    -7025    -7018 
   -7011    -7003    -6997    -6987    -6975    -6966    -6959    -6948 
   -6941    -6937    -6934    -6930    -6928    -6929    -6928    -6930 
   -6933    -6934    -6939    -6940    -6937    -6939    -6939    -6937 
   -6940    -6939    -6937    -6937    -6936    -6933    -6936    -6939 
   -6936    -6933    -6934    -6937    -6934    -6929    -6926    -6921 
   -6913    -6902    -6891    -6885    -6874    -6864    -6852    -6836 
   -6821    -6809    -6794    -6778    -6763    -6748    -6731    -6713 
   -6696    -6681    -6667    -6655    -6643    -6633    -6625    -6617 
   -6610    -6601    -6593    -6588    -6582    -6577    -6575    -6573 
   -6571    -6575    -6579    -6582    -6586    -6590    -6594    -6598 
   -6601    -6606    -6608    -6608    -6610    -6612    -6610    -6609 
   -6606    -6605    -6600    -6592    -6585    -6578    -6567    -6555 
   -6547    -6539    -6529    -6523    -6516    -6509    -6502    -6500 
   -6501    -6500    -6500    -6502    -6504    -6508    -6513    -6519 
   -6527    -6534    -6540    -6547    -6552    -6561    -6573    -6585 
   -6594    -6605    -6617    -6627    -6636    -6646    -6651    -6656 
   -6664    -6669    -6670    -6674    -6677    -6678    -6681    -6682 
   -6681    -6679    -6679    -6678    -6677    -6674    -6671    -6675 
   -6677    -6675    -6674    -6675    -6675    -6675    -6673    -6664 
   -6656    -6651    -6647    -6639    -6633    -6628    -6624    -6621 
   -6620    -6621    -6628    -6633    -6637    -6647    -6659    -6670 
   -6685    -6704    -6721    -6744    -6771    -6795    -6822    -6851 
   -6879    -6910    -6941    -6967    -6995    -7026    -7051    -7076 
   -7101    -7122    -7142    -7159    -7173    -7187    -7192    -7195 
   -7198    -7196    -7192    -7190    -7184    -7169    -7155    -7142 
   -7125    -7105    -7086    -7064    -7041    -7017    -6990    -6966 
   -6940    -6910    -6882    -6856    -6829    -6802    -6778    -6754 
   -6735    -6723    -6709    -6696    -6686    -6677    -6673    -6673 
   -6675    -6677    -6681    -6685    -6691    -6700    -6706    -6712 
   -6721    -6732    -6740    -6750    -6759    -6766    -6768    -6774 
   -6783    -6791    -6799    -6809    -6820    -6828    -6836    -6847 
   -6859    -6867    -6875    -6886    -6891    -6894    -6899    -6903 
   -6905    -6906    -6903    -6899    -6897    -6894    -6887    -6879 
   -6871    -6863    -6852    -6837    -6821    -6812    -6801    -6789 
   -6779    -6768    -6762    -6755    -6750    -6745    -6740    -6735 
   -6732    -6728    -6721    -6717    -6714    -6710    -6708    -6705 
   -6702    -6700    -6697    -6691    -6690    -6690    -6687    -6682 
   -6677    -6671    -6666    -6660    -6656    -6652    -6651    -6648 
   -6646    -6647    -6648    -6651    -6655    -6660    -6667    -6677 
   -6683    -6691    -6705    -6717    -6728    -6745    -6764    -6778 
   -6794    -6812    -6826    -6844    -6862    -6876    -6891    -6906 
   -6922    -6940    -6953    -6967    -6978    -6990    -7001    -7006 
   -7009    -7011    -7014    -7015    -7014    -7013    -7009    -6999 
   -6990    -6983    -6974    -6963    -6952    -6943    -6932    -6920 
   -6912    -6903    -6895    -6890    -6883    -6874    -6867    -6862 
   -6851    -6839    -6829    -6817    -6801    -6786    -6770    -6750 
   -6732    -6716    -6700    -6683    -6670    -6654    -6637    -6625 
   -6617    -6609    -6600    -6593    -6589    -6589    -6589    -6589 
   -6589    -6593    -6597    -6602    -6606    -6610    -6619    -6625 
   -6632    -6640    -6648    -6658    -6667    -6675    -6685    -6696 
   -6704    -6712    -6721    -6729    -6739    -6751    -6760    -6764 
   -6772    -6779    -6781    -6785    -6789    -6789    -6791    -6791 
   -6791    -6790    -6790    -6787    -6785    -6782    -6781    -6775 
   -6774    -6775    -6772    -6770    -6771    -6772    -6775    -6781 
   -6783    -6786    -6794    -6798    -6799    -6801    -6804    -6808 
   -6812    -6814    -6818    -6822    -6824    -6828    -6831    -6832 
   -6832    -6833    -6832    -6831    -6826    -6822    -6818    -6812 
   -6806    -6802    -6794    -6785    -6777    -6770    -6766    -6759 
   -6751    -6745    -6740    -6733    -6727    -6723    -6718    -6714 
   -6712    -6705    -6702    -6700    -6693    -6689    -6687    -6681 
   -6674    -6673    -6666    -6658    -6656    -6656    -6655    -6658 
   -6660    -6660    -6664    -6670    -6671    -6675    -6682    -6685 
   -6683    -6685    -6686    -6689    -6696    -6694    -6693    -6696 
