Origin Time       2025/01/13 21:19:00
Lat.              31.8
Long.             131.6
Depth. (km)       30
Mag.              6.9
Station Code      HYGH02
Station Lat.      35.0671
Station Long.     134.4234
Station Height(m) 102
Record Time       2025/01/13 21:21:08
Sampling Freq(Hz) 100Hz
Duration Time(s)  120
Dir.              3
Scale Factor      2942(gal)/8224139
Max. Acc. (gal)   0.666
Last Correction   2025/01/13 21:21:08
Memo.             
[...]
    7464     7452     7445     7439     7431     7420     7410     7403 
    7392     7384     7385     7380     7362     7350     7345     7337 
    7331     7333     7338     7341     7349     7360     7364     7368 
    7372     7369     7365     7365     7362     7361     7350     7339 
    7338     7335     7323     7310     7298     7291     7281     7272 
    7277     7280     7277     7295     7312     7317     7334     7358 
    7365     7369     7380     7388     7393     7396     7400     7408 
    7414     7416     7422     7422     7425     7435     7447     7457 
    7472     7492     7506     7510     7512     7518     7523     7531 
    7537     7539     7543     7547     7558     7568     7565     7562 
    7558     7549     7546     7547     7541     7534     7530     7524 
    7515     7508     7503     7499     7500     7501     7501     7499 
    7500     7506     7507     7504     7507     7501     7489     7485 
    7483     7468     7456     7454     7450     7443     7443     7442 
    7439     7447     7462     7470     7480     7492     7503     7516 
    7531     7543     7557     7565     7565     7565     7562     7557 
    7558     7558     7549     7547     7553     7546     7539     7541 
    7535     7526     7520     7515     7507     7497     7491     7484 
    7466     7449     7439     7431     7412     7391     7379     7360 
    7339     7329     7318     7308     7308     7308     7307     7307 
    7312     7322     7331     7338     7338     7338     7333     7315 
    7303     7300     7285     7265     7256     7242     7231     7236 
    7238     7237     7248     7263     7276     7298     7318     7333 
    7349     7364     7380     7392     7400     7408     7418     7423 
    7423     7418     7422     7433     7441     7446     7458     7472 
    7480     7487     7503     7520     7534     7553     7569     7580 
    7588     7589     7588     7591     7589     7585     7580     7566 
    7549     7542     7533     7514     7508     7514     7504     7496 
    7501     7503     7500     7506     7511     7514     7527     7543 
    7551     7564     7585     7600     7612     7632     7650     7663 
    7678     7684     7685     7689     7693     7686     7670     7651 
    7630     7607     7581     7553     7527     7512     7489     7461 
    7447     7441     7422     7403     7395     7381     7364     7349 
    7335     7319     7308     7302     7294     7291     7292     7288 
    7284     7292     7299     7308     7331     7353     7371     7399 
    7426     7446     7476     7503     7526     7549     7562     7574 
    7589     7595     7604     7620     7618     7611     7618     7612 
    7600     7592     7581     7570     7557     7538     7531     7523 
    7507     7499     7491     7480     7479     7481     7480     7476 
    7470     7469     7477     7476     7469     7465     7460     7450 
    7453     7457     7447     7435     7433     7425     7414     7410 
    7404     7399     7399     7398     7393     7388     7381     7377 
    7373     7366     7354     7348     7345     7341     7341     7349 
    7354     7356     7362     7375     7388     7406     7427     7452 
    7472     7491     7514     7534     7546     7569     7593     7608 
    7631     7654     7669     7693     7719     7732     7751     7766 
    7773     7790     7805     7808     7813     7817     7813     7808 
    7812     7812     7803     7797     7797     7790     7780     7770 
    7754     7734     7715     7700     7682     7663     7647     7632 
    7615     7597     7587     7574     7561     7557     7553     7550 
    7554     7551     7541     7542     7542     7531     7518     7504 
    7495     7483     7458     7437     7423     7400     7375     7354 
    7331     7310     7292     7272     7258     7254     7248     7237 
    7231     7227     7221     7214     7210     7213     7217     7218 
    7222     7227     7237     7250     7264     7279     7304     7337 
    7361     7377     7404     7439     7461     7474     7493     7511 
    7520     7528     7535     7534     7534     7539     7535     7527 
    7530     7527     7522     7524     7530     7531     7528     7531 
    7539     7537     7528     7530     7531     7527     7524     7519 
    7512     7508     7501     7489     7483     7485     7481     7473 
    7476     7483     7481     7479     7480     7484     7481     7473 
    7465     7453     7441     7426     7414     7403     7389     7375 
    7361     7345     7326     7311     7300     7294     7290     7287 
    7283     7283     7292     7300     7304     7311     7321     7331 
    7345     7364     7387     7404     7422     7446     7473     7503 
    7526     7546     7574     7597     7615     7632     7646     7654 
    7659     7661     7659     7646     7627     7616     7599     7574 
    7553     7530     7503     7476     7449     7431     7414     7395 
    7388     7389     7385     7389     7399     7408     7429     7452 
    7462     7470     7489     7508     7522     7533     7539     7549 
    7560     7570     7578     7580     7582     7592     7597     7599 
    7609     7619     7615     7616     7618     7615     7618     7616 
    7604     7599     7597     7584     7568     7561     7549     7533 
    7528     7524     7514     7506     7496     7488     7481     7472 
    7464     7464     7461     7452     7443     7433     7429     7434 
    7435     7434     7437     7439     7438     7439     7443     7447 
    7452     7460     7466     7470     7480     7493     7510     7527 
    7539     7560     7591     7618     7645     7678     7713     7749 
    7778     7808     7840     7871     7894     7915     7942     7958 
    7969     7982     7992     7994     7992     7989     7981     7967 
    7959     7944     7924     7911     7890     7867     7850     7823 
    7788     7763     7734     7697     7666     7636     7609     7585 
    7560     7535     7511     7492     7481     7469     7454     7439 
    7426     7416     7403     7385     7368     7349     7327     7308 
    7287     7264     7237     7206     7186     7165     7137     7119 
    7107     7096     7090     7083     7084     7091     7099     7114 
    7133     7150     7173     7207     7240     7269     7302     7341 
    7376     7408     7439     7472     7506     7531     7555     7588 
    7611     7627     7653     7674     7690     7713     7731     7744 
    7763     7785     7805     7820     7839     7867     7888     7902 
    7925     7940     7950     7962     7966     7965     7967     7959 
    7947     7942     7931     7908     7889     7871     7843     7817 
    7794     7762     7734     7704     7662     7620     7585     7549 
    7512     7481     7447     7407     7365     7326     7288     7252 
    7217     7182     7148     7114     7082     7055     7028     7003 
    6993     6980     6964     6961     6967     6961     6956     6968 
    6983     6988     6998     7015     7036     7059     7086     7117 
    7150     7183     7215     7256     7290     7327     7373     7407 
    7435     7476     7508     7535     7565     7589     7607     7624 
    7638     7650     7659     7661     7653     7651     7647     7623 
    7600     7580     7551     7520     7488     7452     7412     7376 
    7344     7312     7276     7238     7198     7163     7138     7113 
    7088     7069     7049     7032     7011     6988     6968     6948 
    6921     6897     6876     6852     6832     6813     6786     6767 
    6758     6739     6714     6700     6683     6663     6652     6644 
    6629     6625     6625     6629     6636     6640     6646     6660 
    6678     6691     6712     6743     6768     6789     6821     6856 
    6885     6917     6955     6995     7036     7075     7110     7149 
    7186     7213     7248     7295     7331     7365     7406     7443 
    7474     7506     7537     7564     7582     7600     7623     7645 
    7658     7670     7684     7704     7717     7730     7747     7755 
    7758     7761     7766     7767     7766     7771     7780     7780 
    7780     7785     7781     7778     7782     7778     7773     7769 
    7765     7754     7736     7722     7715     7705     7692     7684 
    7681     7678     7678     7689     7707     7726     7743     7765 
    7793     7817     7851     7894     7925     7960     8004     8047 
    8097     8144     8183     8230     8278     8314     8351     8382 
    8411     8442     8464     8482     8496     8511     8532     8545 
    8552     8563     8567     8557     8553     8546     8533     8525 
    8506     8476     8452     8421     8390     8364     8328     8286 
    8248     8203     8155     8113     8070     8021     7970     7919 
    7874     7827     7769     7713     7662     7609     7561     7514 
    7461     7412     7366     7323     7284     7237     7187     7146 
    7106     7065     7029     6994     6957     6922     6893     6867 
    6849     6833     6816     6805     6794     6798     6814     6828 
    6845     6872     6903     6934     6960     6987     7020     7057 
    7092     7121     7149     7177     7200     7223     7249     7269 
    7291     7314     7330     7349     7371     7385     7395     7412 
    7425     7423     7419     7414     7400     7389     7373     7345 
    7314     7280     7249     7219     7184     7142     7110     7082 
    7049     7020     6997     6971     6951     6933     6907     6889 
    6876     6858     6845     6847     6844     6845     6858     6866 
    6878     6902     6922     6945     6978     7007     7038     7074 
    7111     7152     7190     7230     7273     7311     7345     7391 
    7439     7483     7528     7581     7638     7690     7739     7792 
    7842     7886     7931     7969     7997     8016     8025     8031 
    8033     8023     8001     7978     7948     7912     7874     7830 
    7778     7723     7669     7620     7570     7518     7464     7412 
    7358     7308     7273     7238     7194     7157     7130     7096 
    7064     7042     7020     6997     6978     6960     6945     6936 
    6933     6939     6947     6964     6984     7007     7038     7074 
    7103     7136     7182     7230     7271     7315     7366     7414 
    7465     7522     7572     7619     7665     7711     7755     7796 
    7832     7870     7904     7924     7939     7965     7985     7989 
    7996     8009     8016     8016     8017     8019     8025     8028 
    8025     8025     8025     8027     8029     8029     8024     8017 
    8016     8013     8001     7986     7971     7948     7928     7908 
    7886     7866     7844     7821     7803     7782     7773     7759 
    7736     7732     7734     7719     7703     7695     7688     7676 
    7663     7657     7655     7653     7647     7647     7650     7650 
    7657     7665     7669     7684     7705     7724     7746     7773 
    7804     7834     7858     7881     7902     7932     7959     7975 
    8001     8027     8037     8050     8066     8074     8079     8083 
    8081     8074     8063     8048     8035     8023     8004     7983 
    7969     7947     7920     7900     7882     7857     7828     7805 
    7781     7751     7724     7701     7678     7651     7626     7605 
    7582     7560     7537     7510     7483     7461     7439     7412 
    7381     7356     7329     7291     7258     7227     7191     7156 
    7122     7086     7052     7017     6980     6951     6924     6894 
    6862     6833     6810     6786     6764     6750     6732     6717 
    6709     6700     6691     6691     6689     6686     6687     6686 
    6685     6686     6685     6685     6686     6682     6682     6685 
    6686     6681     6669     6666     6666     6656     6646     6643 
    6643     6640     6636     6635     6644     6648     6648     6659 
    6670     6675     6685     6698     6713     6728     6748     6772 
    6789     6812     6845     6880     6922     6968     7011     7060 
    7109     7152     7202     7250     7288     7322     7356     7385 
    7407     7426     7439     7437     7429     7422     7404     7379 
    7357     7331     7310     7290     7261     7236     7219     7198 
    7176     7165     7149     7136     7140     7134     7128     7136 
    7145     7149     7165     7190     7207     7218     7236     7254 
    7273     7288     7292     7304     7322     7329     7334     7342 
    7345     7344     7346     7348     7341     7334     7333     7330 
    7330     7334     7338     7348     7361     7375     7389     7410 
    7434     7450     7466     7499     7530     7557     7589     7616 
    7638     7663     7688     7707     7722     7732     7739     7739 
    7735     7726     7708     7686     7662     7630     7588     7538 
    7483     7430     7375     7318     7257     7199     7148     7094 
    7038     6990     6945     6901     6860     6829     6808     6790 
    6774     6762     6756     6754     6752     6758     6771     6789 
    6808     6833     6858     6886     6921     6955     6993     7038 
    7074     7117     7173     7214     7257     7321     7373     7418 
    7476     7535     7593     7662     7734     7798     7870     7948 
    8024     8101     8178     8252     8333     8414     8487     8557 
    8627     8689     8752     8814     8874     8926     8972     9023 
    9076     9117     9163     9208     9239     9270     9302     9317 
    9327     9335     9325     9302     9282     9251     9208     9161 
    9105     9040     8978     8914     8843     8775     8703     8627 
    8552     8480     8407     8337     8274     8213     8149     8091 
    8036     7973     7913     7858     7801     7749     7703     7666 
    7631     7592     7560     7542     7522     7504     7496     7488 
    7485     7488     7492     7504     7520     7530     7546     7564 
    7577     7593     7612     7626     7639     7658     7670     7676 
    7682     7688     7685     7681     7677     7668     7654     7636 
    7608     7580     7553     7514     7477     7449     7418     7385 
    7356     7327     7300     7281     7269     7250     7238     7231 
    7217     7204     7204     7202     7191     7184     7183     7177 
    7163     7146     7129     7117     7103     7082     7063     7049 
    7032     7015     7002     6984     6970     6964     6964     6959 
    6955     6959     6964     6971     6980     6987     6995     7006 
    7009     7007     7005     7001     7001     6997     6986     6979 
    6974     6961     6947     6929     6910     6897     6885     6862 
    6836     6817     6797     6779     6759     6731     6714     6709 
    6704     6696     6685     6690     6708     6721     6735     6755 
    6781     6804     6826     6848     6868     6893     6920     6940 
    6959     6976     6986     6993     7005     7010     7009     7010 
    7018     7024     7022     7024     7024     7025     7029     7028 
    7034     7040     7034     7038     7051     7055     7052     7051 
    7053     7052     7049     7051     7051     7047     7048     7057 
    7068     7080     7098     7121     7146     7177     7210     7242 
    7281     7327     7379     7425     7465     7514     7564     7600 
    7643     7696     7735     7766     7803     7834     7855     7877 
    7896     7913     7923     7928     7936     7943     7939     7929 
    7923     7920     7916     7908     7905     7908     7906     7906 
    7911     7921     7929     7933     7944     7963     7977     7989 
    8009     8029     8054     8083     8110     8136     8163     8189 
    8210     8232     8257     8280     8293     8302     8306     8305 
    8307     8306     8294     8275     8260     8247     8226     8201 
    8174     8144     8116     8085     8048     8019     7986     7942 
    7901     7867     7835     7807     7778     7751     7728     7703 
    7681     7669     7655     7646     7639     7632     7634     7641 
    7639     7638     7642     7645     7650     7666     7672     7668 
    7678     7692     7699     7711     7724     7739     7758     7774 
    7792     7807     7819     7832     7843     7847     7850     7854 
    7851     7839     7825     7812     7792     7763     7728     7697 
    7659     7608     7554     7500     7434     7366     7302     7229 
    7153     7079     7003     6930     6859     6786     6717     6650 
    6590     6540     6492     6446     6411     6392     6378     6366 
    6362     6366     6374     6394     6426     6455     6494     6543 
    6589     6636     6694     6755     6814     6875     6934     6997 
    7057     7117     7182     7244     7298     7354     7402     7442 
    7489     7530     7554     7580     7605     7619     7627     7634 
    7635     7635     7632     7623     7609     7601     7585     7565 
    7553     7538     7518     7497     7479     7460     7435     7415 
    7400     7372     7342     7329     7310     7287     7267     7244 
    7227     7223     7210     7194     7190     7184     7177     7175 
    7171     7169     7172     7173     7176     7184     7195     7210 
    7226     7244     7264     7280     7299     7323     7346     7369 
    7392     7416     7441     7462     7481     7499     7515     7527 
    7541     7554     7566     7578     7592     7600     7608     7619 
    7631     7646     7665     7680     7695     7711     7732     7751 
    7763     7784     7803     7812     7825     7835     7839     7848 
    7854     7851     7850     7847     7834     7817     7807     7785 
    7751     7726     7693     7647     7605     7562     7515     7472 
    7414     7356     7312     7263     7204     7156     7106     7056 
    7011     6972     6932     6885     6844     6813     6783     6759 
    6741     6727     6720     6723     6725     6732     6747     6766 
    6790     6817     6844     6878     6910     6937     6971     7007 
    7036     7064     7092     7115     7145     7183     7213     7241 
    7281     7311     7338     7384     7429     7468     7514     7557 
    7599     7645     7684     7723     7773     7811     7839     7878 
    7912     7932     7955     7975     7990     8000     8002     8006 
    8008     7997     7986     7979     7963     7940     7927     7911 
    7886     7861     7832     7805     7780     7746     7711     7682 
    7657     7627     7591     7560     7541     7520     7499     7481 
    7458     7439     7431     7423     7410     7407     7406     7398 
    7395     7399     7407     7410     7415     7429     7437     7435 
    7438     7447     7450     7441     7431     7433     7426     7418 
    7408     7389     7373     7362     7350     7344     7334     7319 
    7312     7304     7295     7290     7280     7271     7269     7267 
    7260     7256     7250     7253     7260     7263     7267     7279 
    7292     7304     7321     7344     7365     7389     7415     7442 
    7469     7496     7523     7549     7574     7601     7624     7643 
    7662     7684     7704     7716     7726     7738     7747     7753 
    7759     7766     7773     7771     7765     7758     7753     7747 
    7742     7734     7726     7717     7709     7707     7704     7700 
    7696     7689     7685     7678     7670     7672     7673     7673 
