Origin Time       2025/01/13 21:19:00
Lat.              31.8
Long.             131.6
Depth. (km)       30
Mag.              6.9
Station Code      HYGH07
Station Lat.      35.0322
Station Long.     134.6701
Station Height(m) 160
Record Time       2025/01/13 21:21:46
Sampling Freq(Hz) 100Hz
Duration Time(s)  120
Dir.              4
Scale Factor      7845(gal)/8223790
Max. Acc. (gal)   0.291
Last Correction   2025/01/13 21:21:46
Memo.             
[...]
   -5296    -5294    -5289    -5281    -5278    -5277    -5273    -5270 
   -5271    -5275    -5275    -5275    -5275    -5274    -5279    -5285 
   -5286    -5283    -5277    -5266    -5258    -5255    -5255    -5258 
   -5262    -5263    -5260    -5251    -5240    -5238    -5243    -5251 
   -5267    -5278    -5269    -5256    -5259    -5273    -5283    -5287 
   -5286    -5281    -5273    -5269    -5273    -5282    -5290    -5297 
   -5298    -5296    -5300    -5312    -5320    -5325    -5323    -5313 
   -5305    -5304    -5304    -5308    -5310    -5308    -5304    -5305 
   -5312    -5320    -5332    -5343    -5344    -5335    -5321    -5309 
   -5306    -5317    -5324    -5319    -5309    -5301    -5298    -5305 
   -5313    -5314    -5308    -5294    -5287    -5287    -5290    -5292 
   -5294    -5293    -5287    -5281    -5278    -5275    -5270    -5260 
   -5251    -5246    -5243    -5238    -5238    -5246    -5250    -5242 
   -5236    -5238    -5242    -5247    -5252    -5252    -5248    -5246 
   -5247    -5248    -5250    -5256    -5269    -5277    -5275    -5271 
   -5267    -5263    -5263    -5270    -5281    -5283    -5279    -5274 
   -5269    -5266    -5275    -5287    -5297    -5302    -5298    -5287 
   -5282    -5278    -5278    -5281    -5279    -5273    -5273    -5277 
   -5277    -5279    -5285    -5286    -5283    -5279    -5278    -5275 
   -5271    -5270    -5270    -5273    -5281    -5287    -5286    -5287 
   -5293    -5296    -5293    -5287    -5289    -5290    -5287    -5286 
   -5283    -5283    -5290    -5294    -5296    -5298    -5300    -5302 
   -5310    -5317    -5320    -5319    -5314    -5310    -5301    -5286 
   -5277    -5273    -5273    -5275    -5277    -5278    -5279    -5282 
   -5283    -5283    -5282    -5282    -5278    -5275    -5277    -5281 
   -5277    -5269    -5260    -5256    -5258    -5267    -5274    -5278 
   -5281    -5277    -5270    -5271    -5275    -5279    -5286    -5290 
   -5289    -5282    -5271    -5266    -5270    -5278    -5286    -5294 
   -5293    -5283    -5281    -5285    -5294    -5305    -5316    -5319 
   -5316    -5308    -5300    -5296    -5301    -5310    -5314    -5312 
   -5305    -5298    -5287    -5274    -5270    -5277    -5281    -5275 
   -5267    -5259    -5248    -5246    -5256    -5263    -5263    -5259 
   -5252    -5248    -5244    -5246    -5252    -5258    -5262    -5269 
   -5275    -5277    -5275    -5274    -5273    -5273    -5273    -5270 
   -5267    -5266    -5265    -5265    -5265    -5265    -5266    -5265 
   -5267    -5278    -5287    -5287    -5285    -5281    -5277    -5275 
   -5271    -5270    -5270    -5267    -5266    -5271    -5275    -5277 
   -5275    -5270    -5265    -5262    -5262    -5266    -5271    -5277 
   -5283    -5283    -5279    -5277    -5274    -5271    -5267    -5262 
   -5254    -5244    -5239    -5240    -5246    -5247    -5251    -5262 
   -5271    -5275    -5271    -5260    -5251    -5246    -5242    -5239 
   -5238    -5235    -5229    -5221    -5219    -5220    -5221    -5224 
   -5227    -5231    -5235    -5233    -5224    -5220    -5223    -5228 
   -5232    -5235    -5236    -5239    -5246    -5255    -5260    -5260 
   -5259    -5259    -5265    -5275    -5286    -5292    -5292    -5290 
   -5286    -5286    -5296    -5308    -5317    -5321    -5316    -5302 
   -5293    -5296    -5306    -5319    -5328    -5329    -5319    -5306 
   -5304    -5308    -5310    -5313    -5312    -5308    -5305    -5308 
   -5309    -5312    -5317    -5321    -5325    -5327    -5324    -5324 
   -5327    -5331    -5331    -5328    -5324    -5319    -5316    -5317 
   -5325    -5329    -5325    -5324    -5327    -5327    -5320    -5314 
   -5313    -5310    -5304    -5302    -5304    -5309    -5321    -5335 
   -5339    -5332    -5316    -5301    -5289    -5277    -5270    -5271 
   -5273    -5266    -5260    -5258    -5252    -5247    -5244    -5244 
   -5248    -5252    -5258    -5263    -5265    -5260    -5256    -5255 
   -5259    -5266    -5277    -5287    -5298    -5301    -5298    -5294 
   -5286    -5285    -5297    -5310    -5323    -5329    -5331    -5329 
   -5329    -5333    -5344    -5355    -5359    -5360    -5358    -5351 
   -5344    -5343    -5354    -5367    -5373    -5371    -5364    -5358 
   -5354    -5358    -5363    -5367    -5363    -5351    -5337    -5331 
   -5331    -5333    -5337    -5335    -5324    -5314    -5308    -5300 
   -5293    -5290    -5285    -5277    -5270    -5266    -5262    -5263 
   -5269    -5273    -5274    -5270    -5266    -5260    -5259    -5259 
   -5252    -5235    -5219    -5211    -5211    -5213    -5213    -5206 
   -5196    -5182    -5173    -5171    -5178    -5188    -5197    -5204 
   -5204    -5201    -5196    -5192    -5190    -5196    -5201    -5205 
   -5211    -5211    -5205    -5205    -5212    -5221    -5228    -5232 
   -5238    -5246    -5252    -5259    -5269    -5271    -5270    -5275 
   -5282    -5283    -5287    -5294    -5298    -5298    -5293    -5289 
   -5283    -5279    -5277    -5275    -5277    -5278    -5279    -5282 
   -5278    -5271    -5256    -5236    -5216    -5201    -5192    -5189 
   -5188    -5185    -5184    -5178    -5173    -5167    -5157    -5150 
   -5148    -5147    -5150    -5155    -5159    -5155    -5148    -5143 
   -5136    -5135    -5143    -5151    -5157    -5158    -5155    -5154 
   -5157    -5159    -5163    -5170    -5177    -5179    -5182    -5188 
   -5193    -5198    -5202    -5201    -5202    -5206    -5211    -5215 
   -5221    -5227    -5231    -5236    -5239    -5239    -5235    -5239 
   -5248    -5258    -5269    -5271    -5267    -5265    -5263    -5260 
   -5259    -5259    -5256    -5255    -5255    -5258    -5265    -5273 
   -5279    -5281    -5282    -5283    -5286    -5292    -5302    -5312 
   -5316    -5314    -5314    -5317    -5325    -5340    -5355    -5363 
   -5371    -5378    -5379    -5378    -5378    -5377    -5373    -5366 
   -5362    -5363    -5364    -5367    -5374    -5381    -5386    -5389 
   -5386    -5379    -5370    -5362    -5358    -5351    -5343    -5332 
   -5317    -5300    -5286    -5278    -5273    -5269    -5263    -5250 
   -5233    -5225    -5224    -5225    -5228    -5227    -5220    -5212 
   -5198    -5188    -5186    -5184    -5179    -5181    -5178    -5173 
   -5169    -5165    -5162    -5161    -5157    -5154    -5154    -5157 
   -5161    -5166    -5166    -5159    -5151    -5144    -5143    -5144 
   -5144    -5147    -5151    -5154    -5159    -5166    -5173    -5174 
   -5175    -5175    -5170    -5162    -5155    -5151    -5150    -5152 
   -5155    -5157    -5154    -5147    -5140    -5136    -5134    -5131 
   -5130    -5131    -5138    -5140    -5135    -5125    -5121    -5123 
   -5125    -5128    -5130    -5124    -5120    -5117    -5113    -5113 
   -5116    -5115    -5113    -5112    -5112    -5116    -5124    -5136 
   -5150    -5162    -5170    -5170    -5165    -5166    -5175    -5190 
   -5209    -5225    -5235    -5243    -5254    -5267    -5283    -5304 
   -5316    -5323    -5332    -5347    -5359    -5367    -5377    -5383 
   -5385    -5387    -5398    -5410    -5413    -5408    -5401    -5391 
   -5383    -5385    -5393    -5397    -5393    -5387    -5383    -5379 
   -5370    -5363    -5366    -5370    -5374    -5373    -5360    -5343 
   -5332    -5327    -5319    -5312    -5310    -5306    -5298    -5286 
   -5275    -5269    -5262    -5254    -5248    -5250    -5250    -5243 
   -5239    -5240    -5242    -5240    -5240    -5240    -5239    -5236 
   -5238    -5244    -5254    -5263    -5269    -5267    -5260    -5259 
   -5259    -5263    -5271    -5274    -5274    -5277    -5274    -5270 
   -5270    -5273    -5274    -5274    -5271    -5267    -5269    -5275 
   -5282    -5289    -5292    -5289    -5285    -5278    -5273    -5274 
   -5278    -5282    -5283    -5285    -5290    -5297    -5305    -5313 
   -5319    -5324    -5336    -5350    -5358    -5362    -5358    -5352 
   -5351    -5356    -5366    -5378    -5390    -5397    -5398    -5400 
   -5400    -5395    -5391    -5386    -5374    -5360    -5348    -5341 
   -5347    -5355    -5359    -5358    -5355    -5356    -5355    -5354 
   -5352    -5348    -5340    -5339    -5341    -5341    -5339    -5337 
   -5339    -5341    -5343    -5341    -5336    -5329    -5321    -5319 
   -5319    -5317    -5310    -5302    -5292    -5279    -5277    -5279 
   -5278    -5277    -5275    -5269    -5258    -5250    -5251    -5260 
   -5275    -5287    -5296    -5296    -5290    -5292    -5294    -5294 
   -5293    -5287    -5282    -5282    -5286    -5296    -5306    -5314 
   -5316    -5316    -5313    -5312    -5314    -5320    -5325    -5324 
   -5319    -5313    -5308    -5306    -5304    -5294    -5283    -5273 
   -5259    -5252    -5258    -5260    -5256    -5254    -5251    -5246 
   -5243    -5246    -5252    -5263    -5270    -5274    -5273    -5271 
   -5275    -5283    -5290    -5296    -5301    -5301    -5298    -5298 
   -5301    -5312    -5320    -5324    -5325    -5324    -5320    -5320 
   -5321    -5323    -5321    -5316    -5306    -5298    -5292    -5293 
   -5301    -5308    -5308    -5306    -5305    -5301    -5293    -5289 
   -5287    -5283    -5281    -5279    -5275    -5266    -5255    -5250 
   -5247    -5247    -5247    -5247    -5247    -5244    -5243    -5246 
   -5251    -5252    -5242    -5224    -5208    -5196    -5189    -5186 
   -5179    -5170    -5159    -5150    -5139    -5131    -5135    -5139 
   -5138    -5140    -5151    -5158    -5158    -5158    -5157    -5154 
   -5154    -5152    -5147    -5143    -5142    -5142    -5150    -5163 
   -5175    -5188    -5200    -5209    -5223    -5240    -5260    -5274 
   -5277    -5277    -5281    -5292    -5305    -5320    -5331    -5332 
   -5327    -5320    -5317    -5323    -5332    -5340    -5344    -5344 
   -5337    -5332    -5331    -5333    -5336    -5340    -5339    -5339 
   -5336    -5329    -5325    -5321    -5316    -5309    -5305    -5308 
   -5310    -5305    -5297    -5296    -5293    -5289    -5286    -5289 
   -5293    -5298    -5305    -5309    -5309    -5317    -5327    -5336 
   -5351    -5364    -5374    -5383    -5393    -5401    -5406    -5409 
   -5410    -5409    -5402    -5393    -5377    -5362    -5350    -5339 
   -5328    -5317    -5306    -5293    -5281    -5267    -5255    -5240 
   -5225    -5215    -5204    -5190    -5181    -5171    -5165    -5165 
   -5167    -5173    -5177    -5174    -5171    -5174    -5174    -5171 
   -5173    -5175    -5175    -5178    -5184    -5188    -5192    -5197 
   -5205    -5213    -5223    -5236    -5251    -5262    -5270    -5273 
   -5273    -5270    -5270    -5271    -5270    -5263    -5254    -5247 
   -5243    -5239    -5240    -5242    -5246    -5250    -5254    -5255 
   -5255    -5251    -5248    -5246    -5246    -5246    -5248    -5252 
   -5256    -5258    -5256    -5259    -5270    -5282    -5289    -5297 
   -5308    -5314    -5321    -5325    -5328    -5333    -5336    -5339 
   -5346    -5354    -5356    -5358    -5352    -5341    -5336    -5333 
   -5331    -5331    -5331    -5325    -5320    -5319    -5321    -5327 
   -5333    -5339    -5337    -5335    -5332    -5336    -5346    -5356 
   -5363    -5366    -5364    -5363    -5362    -5363    -5368    -5374 
   -5378    -5383    -5389    -5389    -5389    -5393    -5398    -5405 
   -5416    -5425    -5428    -5422    -5417    -5410    -5402    -5394 
   -5391    -5391    -5394    -5393    -5386    -5375    -5367    -5359 
   -5355    -5354    -5351    -5341    -5327    -5312    -5300    -5290 
   -5285    -5283    -5282    -5277    -5269    -5259    -5248    -5246 
   -5250    -5252    -5255    -5255    -5251    -5244    -5235    -5227 
   -5221    -5223    -5228    -5236    -5244    -5247    -5246    -5240 
   -5229    -5219    -5213    -5212    -5212    -5212    -5209    -5200 
   -5189    -5185    -5184    -5184    -5186    -5188    -5185    -5182 
   -5179    -5177    -5178    -5182    -5188    -5192    -5196    -5200 
   -5200    -5196    -5192    -5193    -5196    -5200    -5204    -5206 
   -5201    -5193    -5188    -5190    -5201    -5211    -5220    -5232 
   -5236    -5232    -5233    -5238    -5243    -5255    -5269    -5275 
   -5277    -5275    -5275    -5279    -5285    -5290    -5292    -5289 
   -5283    -5282    -5285    -5293    -5302    -5309    -5308    -5304 
   -5300    -5293    -5289    -5286    -5283    -5274    -5266    -5262 
   -5260    -5254    -5250    -5247    -5246    -5247    -5247    -5251 
   -5252    -5247    -5238    -5229    -5220    -5212    -5201    -5188 
   -5177    -5167    -5157    -5144    -5135    -5128    -5124    -5123 
   -5121    -5120    -5117    -5113    -5107    -5109    -5119    -5130 
   -5138    -5146    -5151    -5155    -5161    -5173    -5189    -5202 
   -5212    -5220    -5225    -5229    -5229    -5231    -5232    -5235 
   -5240    -5247    -5254    -5256    -5252    -5247    -5247    -5247 
   -5250    -5255    -5262    -5263    -5267    -5267    -5260    -5258 
   -5259    -5260    -5262    -5266    -5270    -5273    -5271    -5270 
   -5277    -5287    -5296    -5304    -5309    -5317    -5331    -5337 
   -5341    -5350    -5354    -5355    -5366    -5379    -5390    -5398 
   -5406    -5413    -5417    -5417    -5421    -5432    -5440    -5451 
   -5467    -5476    -5481    -5486    -5494    -5505    -5514    -5526 
   -5540    -5552    -5559    -5560    -5563    -5566    -5567    -5572 
   -5576    -5579    -5579    -5578    -5579    -5579    -5580    -5583 
   -5582    -5575    -5567    -5556    -5541    -5528    -5516    -5505 
   -5494    -5483    -5468    -5452    -5443    -5435    -5425    -5418 
   -5410    -5398    -5390    -5383    -5377    -5374    -5377    -5381 
   -5387    -5391    -5389    -5387    -5385    -5379    -5381    -5387 
   -5390    -5383    -5370    -5356    -5352    -5355    -5356    -5355 
   -5354    -5350    -5339    -5328    -5321    -5320    -5316    -5308 
   -5298    -5290    -5285    -5278    -5271    -5265    -5254    -5244 
   -5233    -5221    -5216    -5211    -5206    -5206    -5206    -5202 
   -5201    -5202    -5204    -5202    -5197    -5192    -5184    -5175 
   -5174    -5177    -5178    -5175    -5170    -5162    -5154    -5150 
   -5147    -5144    -5139    -5132    -5123    -5119    -5119    -5119 
   -5121    -5123    -5121    -5116    -5116    -5120    -5125    -5134 
   -5146    -5150    -5144    -5139    -5139    -5144    -5154    -5163 
   -5169    -5166    -5158    -5154    -5158    -5163    -5171    -5181 
   -5188    -5189    -5186    -5178    -5171    -5166    -5162    -5155 
   -5154    -5152    -5148    -5144    -5142    -5139    -5140    -5140 
   -5138    -5138    -5140    -5142    -5146    -5155    -5165    -5175 
   -5188    -5196    -5206    -5221    -5232    -5242    -5256    -5273 
   -5283    -5292    -5300    -5305    -5317    -5329    -5343    -5352 
   -5355    -5356    -5360    -5370    -5378    -5387    -5397    -5405 
   -5410    -5418    -5429    -5441    -5454    -5460    -5464    -5470 
   -5471    -5470    -5468    -5464    -5462    -5462    -5464    -5460 
   -5451    -5444    -5432    -5413    -5397    -5383    -5367    -5348 
   -5329    -5310    -5294    -5278    -5265    -5259    -5255    -5243 
   -5229    -5217    -5204    -5193    -5185    -5179    -5174    -5167 
   -5162    -5161    -5165    -5169    -5171    -5171    -5173    -5175 
   -5178    -5182    -5186    -5192    -5197    -5196    -5196    -5198 
   -5197    -5194    -5194    -5196    -5196    -5194    -5194    -5190 
   -5190    -5196    -5202    -5211    -5213    -5211    -5216    -5227 
   -5238    -5248    -5263    -5275    -5285    -5293    -5300    -5304 
   -5313    -5324    -5335    -5346    -5351    -5356    -5364    -5373 
   -5382    -5389    -5395    -5404    -5408    -5408    -5409    -5414 
   -5414    -5414    -5414    -5412    -5410    -5410    -5405    -5402 
   -5402    -5398    -5389    -5377    -5360    -5350    -5341    -5333 
   -5329    -5327    -5320    -5308    -5300    -5294    -5294    -5296 
   -5297    -5298    -5296    -5290    -5287    -5285    -5282    -5279 
   -5277    -5273    -5265    -5255    -5244    -5236    -5231    -5229 
   -5224    -5215    -5206    -5198    -5192    -5188    -5184    -5175 
   -5170    -5166    -5161    -5157    -5151    -5146    -5144    -5147 
   -5150    -5150    -5152    -5157    -5158    -5157    -5158    -5159 
   -5161    -5163    -5167    -5170    -5174    -5177    -5178    -5181 
   -5185    -5190    -5193    -5194    -5193    -5193    -5198    -5205 
   -5212    -5217    -5217    -5219    -5223    -5229    -5242    -5252 
   -5260    -5267    -5271    -5274    -5279    -5286    -5292    -5297 
   -5301    -5306    -5309    -5312    -5314    -5320    -5323    -5327 
   -5332    -5341    -5352    -5359    -5363    -5366    -5368    -5371 
   -5374    -5379    -5385    -5386    -5382    -5373    -5363    -5358 
   -5354    -5352    -5352    -5348    -5341    -5335    -5329    -5323 
   -5319    -5316    -5314    -5316    -5317    -5319    -5323    -5325 
   -5327    -5328    -5329    -5333    -5340    -5346    -5350    -5351 
   -5347    -5341    -5337    -5336    -5336    -5337    -5337    -5337 
   -5333    -5331    -5327    -5323    -5316    -5309    -5301    -5289 
   -5275    -5267    -5265    -5266    -5267    -5263    -5255    -5246 
   -5236    -5232    -5232    -5228    -5224    -5221    -5219    -5219 
   -5220    -5219    -5219    -5217    -5209    -5200    -5196    -5192 
   -5189    -5193    -5198    -5198    -5194    -5193    -5193    -5192 
   -5193    -5196    -5200    -5204    -5206    -5205    -5204    -5201 
   -5196    -5196    -5200    -5202    -5205    -5208    -5209    -5209 
   -5209    -5212    -5221    -5231    -5239    -5247    -5251    -5254 
   -5260    -5270    -5278    -5287    -5296    -5300    -5306    -5317 
   -5325    -5332    -5337    -5346    -5355    -5366    -5378    -5391 
   -5402    -5409    -5414    -5421    -5427    -5431    -5435    -5437 
   -5436    -5433    -5431    -5432    -5431    -5427    -5424    -5418 
   -5408    -5397    -5386    -5371    -5358    -5347    -5336    -5327 
   -5319    -5313    -5309    -5304    -5297    -5294    -5293    -5296 
   -5300    -5304    -5310    -5312    -5314    -5320    -5323    -5327 
   -5333    -5337    -5339    -5343    -5348    -5352    -5355    -5355 
   -5351    -5348    -5352    -5354    -5354    -5355    -5356    -5358 
   -5355    -5350    -5348    -5347    -5348    -5350    -5346    -5335 
   -5331    -5328    -5324    -5321    -5321    -5317    -5308    -5301 
   -5296    -5294    -5298    -5308    -5316    -5320    -5324    -5325 
   -5321    -5323    -5331    -5343    -5355    -5360    -5364    -5370 
   -5374    -5377    -5381    -5386    -5389    -5390    -5395    -5400 
   -5401    -5405    -5409    -5408    -5404    -5402    -5409    -5418 
   -5422    -5427    -5431    -5431    -5428    -5424    -5421    -5420 
   -5417    -5418    -5420    -5414    -5409    -5405    -5400    -5395 
   -5394    -5391    -5385    -5381    -5377    -5374    -5370    -5366 
   -5364    -5367    -5368    -5370    -5371    -5371    -5370    -5374 
   -5377    -5375    -5374    -5373    -5368    -5364    -5356    -5347 
   -5341    -5340    -5335    -5332    -5329    -5319    -5305    -5293 
