Origin Time       2025/01/13 21:19:00
Lat.              31.8
Long.             131.6
Depth. (km)       30
Mag.              6.9
Station Code      HYGH08
Station Lat.      35.1010
Station Long.     134.9036
Station Height(m) 50
Record Time       2025/01/13 21:21:53
Sampling Freq(Hz) 100Hz
Duration Time(s)  120
Dir.              2
Scale Factor      2942(gal)/8224139
Max. Acc. (gal)   0.275
Last Correction   2025/01/13 21:21:55
Memo.             
[...]
  122798   122797   122791   122789   122787   122789   122789   122789 
  122786   122783   122774   122762   122747   122735   122728   122719 
  122710   122709   122708   122700   122692   122685   122677   122666 
  122662   122661   122662   122663   122667   122669   122669   122678 
  122693   122704   122710   122716   122719   122723   122720   122715 
  122712   122709   122706   122705   122701   122696   122700   122705 
  122702   122704   122706   122705   122710   122713   122709   122713 
  122720   122717   122720   122720   122712   122705   122697   122689 
  122683   122678   122669   122654   122647   122646   122639   122634 
  122639   122642   122640   122640   122640   122642   122646   122654 
  122662   122665   122670   122673   122670   122670   122679   122686 
  122693   122702   122709   122712   122713   122717   122717   122716 
  122717   122715   122709   122706   122704   122700   122698   122697 
  122694   122693   122696   122698   122701   122702   122704   122708 
  122710   122716   122723   122720   122716   122717   122717   122717 
  122720   122727   122737   122742   122744   122748   122750   122752 
  122756   122754   122750   122748   122748   122747   122744   122736 
  122733   122735   122735   122735   122737   122740   122737   122733 
  122728   122725   122727   122724   122719   122716   122717   122719 
  122715   122709   122706   122702   122700   122696   122697   122704 
  122708   122713   122720   122729   122742   122754   122763   122771 
  122779   122782   122786   122790   122790   122789   122785   122773 
  122760   122748   122733   122723   122715   122705   122700   122697 
  122693   122688   122685   122685   122679   122678   122682   122685 
  122688   122693   122694   122697   122700   122697   122698   122700 
  122700   122705   122710   122710   122710   122712   122716   122715 
  122712   122709   122706   122706   122709   122716   122720   122723 
  122728   122735   122740   122750   122759   122763   122769   122770 
  122770   122769   122760   122754   122750   122746   122746   122742 
  122739   122746   122751   122754   122759   122762   122764   122764 
  122758   122762   122769   122769   122775   122789   122794   122793 
  122793   122793   122790   122790   122794   122801   122806   122812 
  122823   122832   122843   122854   122862   122871   122874   122878 
  122890   122902   122906   122912   122914   122914   122916   122917 
  122912   122906   122902   122897   122894   122891   122886   122879 
  122874   122868   122864   122858   122847   122840   122835   122827 
  122823   122820   122817   122812   122809   122808   122805   122801 
  122804   122806   122806   122802   122797   122791   122786   122781 
  122773   122764   122755   122750   122748   122743   122744   122755 
  122763   122763   122762   122763   122764   122760   122748   122743 
  122746   122746   122746   122748   122751   122751   122744   122737 
  122739   122742   122737   122737   122740   122743   122750   122760 
  122774   122787   122794   122800   122805   122809   122813   122810 
  122808   122814   122821   122824   122828   122828   122827   122829 
  122828   122824   122821   122816   122814   122814   122816   122816 
  122812   122809   122806   122800   122794   122790   122787   122786 
  122785   122785   122783   122781   122782   122783   122787   122796 
  122805   122810   122820   122828   122831   122835   122841   122851 
  122858   122860   122859   122863   122868   122867   122862   122859 
  122855   122852   122850   122847   122845   122850   122851   122845 
  122843   122844   122840   122836   122839   122836   122831   122829 
  122828   122823   122818   122808   122800   122797   122793   122786 
  122783   122785   122783   122779   122775   122775   122777   122773 
  122767   122763   122756   122755   122756   122756   122756   122758 
  122759   122759   122758   122760   122763   122766   122775   122778 
  122773   122771   122774   122769   122763   122758   122748   122735 
  122728   122724   122716   122709   122704   122698   122693   122693 
  122697   122696   122694   122701   122705   122706   122712   122710 
  122704   122698   122693   122686   122677   122671   122674   122675 
  122677   122677   122673   122674   122675   122671   122669   122667 
  122670   122671   122673   122674   122674   122673   122673   122674 
  122675   122679   122688   122688   122693   122704   122706   122709 
  122713   122719   122723   122724   122723   122724   122724   122720 
  122719   122713   122704   122697   122688   122675   122667   122656 
  122644   122639   122634   122621   122609   122597   122590   122585 
  122575   122569   122559   122548   122542   122530   122516   122512 
  122503   122485   122476   122472   122465   122462   122463   122462 
  122462   122466   122469   122474   122484   122492   122501   122512 
  122519   122526   122532   122535   122536   122538   122538   122536 
  122535   122538   122538   122535   122535   122534   122526   122526 
  122530   122534   122543   122557   122567   122577   122588   122602 
  122617   122631   122646   122658   122673   122690   122702   122716 
  122732   122744   122752   122763   122778   122789   122796   122802 
  122817   122828   122841   122859   122872   122887   122904   122908 
  122912   122920   122921   122913   122905   122902   122897   122882 
  122874   122871   122858   122844   122839   122829   122813   122802 
  122793   122781   122773   122763   122751   122748   122744   122735 
  122729   122723   122710   122702   122696   122683   122675   122671 
  122669   122667   122666   122661   122661   122665   122665   122661 
  122655   122652   122656   122655   122647   122647   122647   122644 
  122648   122654   122659   122669   122678   122685   122693   122702 
  122710   122720   122725   122729   122733   122736   122744   122754 
  122754   122754   122758   122754   122750   122748   122744   122744 
  122748   122747   122746   122747   122747   122747   122750   122750 
  122746   122744   122740   122732   122728   122725   122719   122715 
  122715   122713   122712   122709   122710   122716   122715   122720 
  122731   122737   122743   122754   122766   122774   122781   122791 
  122802   122813   122828   122840   122845   122854   122864   122867 
  122864   122863   122858   122850   122841   122831   122817   122801 
  122787   122775   122762   122748   122733   122719   122701   122686 
  122674   122659   122647   122639   122625   122612   122601   122590 
  122589   122586   122581   122581   122584   122585   122589   122590 
  122597   122611   122621   122634   122647   122661   122675   122693 
  122708   122719   122725   122731   122737   122742   122744   122748 
  122748   122742   122732   122728   122723   122710   122701   122693 
  122683   122675   122667   122658   122652   122647   122639   122631 
  122619   122608   122598   122588   122574   122561   122553   122548 
  122543   122534   122530   122528   122527   122527   122532   122531 
  122527   122526   122526   122524   122521   122519   122516   122512 
  122507   122501   122493   122485   122477   122469   122465   122462 
  122459   122461   122462   122459   122462   122467   122472   122469 
  122469   122470   122467   122465   122469   122467   122465   122466 
  122466   122466   122469   122469   122465   122465   122465   122462 
  122458   122455   122451   122451   122450   122445   122438   122431 
  122427   122424   122420   122418   122415   122411   122412   122420 
  122428   122435   122442   122451   122461   122470   122480   122484 
  122493   122504   122511   122515   122524   122535   122542   122551 
  122563   122573   122581   122593   122601   122609   122620   122629 
  122635   122639   122646   122652   122656   122661   122665   122667 
  122670   122674   122679   122685   122689   122696   122704   122709 
  122715   122720   122727   122733   122737   122739   122744   122750 
  122750   122750   122754   122756   122755   122755   122756   122755 
  122755   122755   122755   122752   122747   122737   122729   122720 
  122705   122694   122683   122666   122654   122644   122628   122609 
  122598   122586   122571   122559   122546   122534   122526   122516 
  122507   122503   122499   122492   122488   122484   122478   122472 
  122466   122463   122459   122451   122445   122438   122434   122431 
  122427   122426   122432   122442   122450   122461   122467   122476 
  122489   122503   122516   122530   122539   122551   122563   122569 
  122574   122581   122586   122590   122597   122604   122611   122621 
  122628   122636   122648   122661   122674   122692   122708   122724 
  122739   122752   122769   122782   122790   122798   122808   122816 
  122823   122824   122818   122816   122816   122809   122804   122804 
  122800   122796   122798   122801   122802   122810   122823   122831 
  122835   122840   122843   122844   122851   122859   122860   122863 
  122867   122868   122868   122871   122868   122863   122856   122851 
  122843   122833   122824   122817   122812   122796   122781   122773 
  122759   122740   122731   122723   122708   122692   122679   122670 
  122659   122646   122635   122629   122624   122621   122616   122611 
  122608   122605   122601   122598   122598   122602   122611   122621 
  122636   122654   122673   122686   122702   122717   122732   122744 
  122758   122774   122787   122796   122804   122809   122810   122805 
  122805   122809   122805   122798   122801   122802   122800   122802 
  122802   122800   122801   122804   122801   122793   122790   122785 
  122775   122771   122762   122747   122732   122720   122709   122702 
  122697   122690   122689   122693   122693   122697   122708   122716 
  122724   122736   122747   122760   122770   122777   122785   122793 
  122796   122801   122804   122804   122808   122812   122813   122816 
  122818   122816   122813   122812   122813   122814   122816   122816 
  122818   122824   122832   122837   122836   122836   122840   122839 
  122840   122845   122847   122850   122855   122860   122868   122877 
  122887   122895   122904   122921   122935   122945   122964   122980 
  122991   123005   123014   123018   123022   123021   123014   123003 
  122991   122979   122964   122943   122924   122906   122883   122856 
  122832   122812   122787   122767   122752   122736   122721   122716 
  122706   122694   122688   122681   122671   122665   122659   122651 
  122646   122644   122644   122646   122648   122656   122666   122671 
  122679   122688   122694   122701   122713   122728   122737   122747 
  122759   122764   122767   122771   122769   122764   122766   122763 
  122754   122746   122739   122729   122720   122712   122702   122696 
  122688   122678   122669   122662   122651   122639   122631   122623 
  122612   122600   122589   122580   122569   122554   122546   122540 
  122534   122531   122536   122539   122540   122553   122566   122567 
  122580   122602   122612   122621   122642   122652   122662   122677 
  122688   122698   122710   122720   122727   122740   122755   122769 
  122783   122800   122816   122836   122854   122868   122883   122897 
  122906   122916   122928   122935   122936   122937   122936   122931 
  122925   122920   122908   122895   122881   122868   122858   122848 
  122843   122832   122817   122805   122793   122785   122782   122777 
  122773   122773   122766   122755   122750   122746   122733   122721 
  122710   122697   122681   122665   122651   122631   122611   122594 
  122577   122562   122544   122523   122507   122494   122482   122470 
  122457   122451   122450   122438   122427   122426   122423   122416 
  122415   122413   122415   122420   122422   122426   122438   122449 
  122461   122476   122490   122509   122528   122546   122567   122589 
  122605   122625   122646   122665   122685   122700   122709   122723 
  122737   122746   122751   122762   122767   122773   122783   122790 
  122796   122812   122824   122827   122835   122844   122847   122855 
  122864   122870   122879   122889   122890   122895   122906   122910 
  122912   122918   122924   122926   122933   122945   122953   122958 
  122963   122967   122972   122976   122974   122966   122956   122947 
  122936   122924   122913   122899   122887   122875   122862   122850 
  122837   122831   122829   122825   122818   122812   122809   122808 
  122805   122801   122797   122796   122793   122789   122782   122775 
  122771   122764   122751   122740   122731   122717   122709   122701 
  122692   122683   122673   122659   122648   122639   122624   122604 
  122586   122567   122544   122526   122509   122494   122480   122465 
  122453   122440   122423   122408   122399   122385   122376   122368 
  122357   122351   122349   122341   122335   122331   122322   122314 
  122307   122301   122299   122296   122297   122301   122303   122307 
  122311   122311   122318   122326   122332   122346   122359   122372 
  122386   122405   122426   122447   122472   122492   122511   122534 
  122551   122571   122596   122620   122650   122683   122713   122752 
  122794   122832   122874   122921   122967   123014   123060   123106 
  123149   123188   123223   123259   123294   123327   123357   123383 
  123404   123426   123445   123456   123465   123477   123487   123492 
  123495   123493   123491   123481   123471   123460   123445   123422 
  123396   123371   123345   123318   123287   123259   123229   123196 
  123165   123134   123101   123067   123036   123003   122967   122932 
  122906   122881   122848   122823   122802   122779   122754   122729 
  122710   122690   122665   122647   122634   122612   122597   122585 
  122566   122553   122535   122511   122494   122474   122447   122424 
  122400   122369   122343   122320   122295   122270   122247   122224 
  122206   122187   122169   122157   122150   122143   122142   122145 
  122148   122152   122160   122172   122184   122195   122210   122223 
  122234   122247   122265   122285   122303   122318   122334   122351 
  122369   122385   122393   122407   122426   122436   122442   122453 
  122465   122466   122465   122472   122476   122472   122467   122459 
  122453   122451   122438   122422   122412   122401   122385   122373 
  122364   122357   122353   122347   122341   122341   122347   122357 
  122365   122380   122400   122423   122446   122473   122500   122524 
  122548   122577   122605   122632   122656   122682   122710   122733 
  122750   122770   122791   122808   122824   122843   122856   122868 
  122886   122901   122912   122926   122936   122941   122951   122959 
  122960   122963   122966   122963   122959   122956   122949   122944 
  122940   122932   122921   122918   122921   122921   122917   122917 
  122917   122918   122921   122922   122925   122933   122941   122948 
  122955   122964   122979   122987   122993   123001   123007   123014 
  123021   123028   123033   123037   123047   123057   123060   123068 
  123080   123082   123084   123098   123106   123110   123118   123126 
  123133   123138   123145   123149   123151   123149   123151   123151 
  123147   123147   123141   123129   123126   123125   123113   123103 
  123097   123087   123078   123070   123063   123053   123047   123043 
  123036   123028   123028   123022   123017   123020   123021   123016 
  123016   123013   123009   123012   123006   122995   122994   122991 
  122980   122974   122975   122974   122972   122976   122983   122989 
  122997   123009   123021   123032   123044   123060   123075   123088 
  123102   123114   123121   123129   123136   123141   123148   123152 
  123152   123151   123149   123141   123132   123124   123109   123091 
  123078   123060   123037   123013   122993   122972   122948   122920 
  122891   122866   122845   122825   122802   122778   122759   122740 
  122723   122704   122688   122675   122659   122646   122634   122620 
  122609   122596   122585   122577   122566   122558   122555   122548 
  122547   122546   122542   122539   122538   122535   122530   122521 
  122516   122511   122499   122488   122480   122467   122455   122442 
  122426   122407   122386   122373   122364   122346   122332   122327 
  122326   122326   122326   122334   122347   122357   122372   122391 
  122409   122435   122462   122489   122516   122543   122571   122598 
  122620   122639   122655   122673   122692   122709   122721   122735 
  122747   122754   122758   122763   122767   122769   122762   122758 
  122752   122740   122731   122727   122717   122706   122697   122688 
  122679   122667   122658   122655   122650   122644   122643   122642 
  122639   122636   122636   122636   122636   122639   122643   122644 
  122643   122644   122648   122648   122647   122647   122646   122644 
  122643   122636   122631   122625   122623   122620   122613   122608 
  122608   122609   122609   122613   122620   122625   122631   122638 
  122651   122663   122675   122692   122705   122720   122737   122752 
  122769   122785   122798   122814   122828   122836   122845   122851 
  122854   122856   122858   122856   122855   122850   122845   122847 
  122843   122832   122823   122814   122805   122791   122777   122770 
  122762   122750   122744   122743   122737   122733   122732   122731 
  122732   122736   122735   122733   122740   122747   122751   122754 
  122763   122773   122781   122794   122805   122809   122818   122829 
  122832   122833   122843   122844   122843   122852   122852   122848 
  122852   122848   122837   122831   122827   122816   122802   122789 
  122779   122770   122758   122748   122742   122739   122736   122731 
  122728   122731   122735   122742   122752   122764   122774   122787 
  122800   122810   122828   122847   122860   122878   122897   122914 
  122931   122948   122963   122982   122999   123012   123024   123037 
  123048   123053   123056   123061   123063   123060   123060   123055 
  123045   123034   123021   123007   122997   122982   122962   122944 
  122929   122909   122890   122877   122860   122845   122839   122831 
  122817   122810   122808   122800   122793   122786   122778   122769 
  122764   122759   122747   122737   122731   122716   122701   122690 
  122675   122658   122642   122628   122611   122589   122571   122547 
  122520   122496   122469   122439   122411   122381   122350   122320 
  122287   122251   122224   122199   122169   122149   122134   122116 
  122103   122098   122098   122098   122096   122099   122103   122110 
  122121   122129   122134   122145   122156   122168   122179   122187 
  122199   122212   122223   122237   122251   122262   122281   122299 
  122311   122326   122341   122358   122378   122391   122405   122430 
  122446   122455   122478   122501   122513   122530   122553   122567 
  122584   122607   122627   122643   122663   122688   122708   122727 
  122744   122763   122782   122804   122825   122839   122856   122875 
  122887   122899   122914   122925   122940   122952   122959   122967 
  122978   122987   122998   123005   123010   123021   123028   123033 
  123039   123044   123049   123056   123059   123060   123060   123056 
