Origin Time       2025/01/13 21:19:00
Lat.              31.8
Long.             131.6
Depth. (km)       30
Mag.              6.9
Station Code      HYGH02
Station Lat.      35.0671
Station Long.     134.4234
Station Height(m) 102
Record Time       2025/01/13 21:21:08
Sampling Freq(Hz) 100Hz
Duration Time(s)  120
Dir.              1
Scale Factor      2942(gal)/8224139
Max. Acc. (gal)   0.374
Last Correction   2025/01/13 21:21:08
Memo.             
[...]
  170492   170503   170507   170506   170506   170510   170514   170513 
  170513   170519   170522   170525   170534   170544   170548   170553 
  170557   170560   170563   170565   170568   170567   170564   170560 
  170549   170533   170518   170500   170480   170460   170436   170403 
  170365   170321   170271   170220   170166   170113   170052   169994 
  169940   169888   169839   169797   169753   169708   169676   169649 
  169627   169612   169607   169607   169616   169631   169650   169681 
  169717   169758   169809   169863   169919   169979   170043   170110 
  170185   170256   170326   170399   170468   170532   170594   170650 
  170699   170742   170776   170797   170814   170819   170812   170797 
  170770   170735   170699   170658   170614   170569   170518   170464 
  170409   170345   170280   170224   170168   170106   170043   169983 
  169919   169862   169820   169777   169731   169695   169659   169624 
  169596   169576   169560   169550   169542   169537   169538   169542 
  169553   169569   169589   169615   169650   169686   169722   169765 
  169813   169854   169892   169931   169970   170009   170051   170095 
  170139   170176   170208   170237   170263   170284   170307   170330 
  170349   170368   170388   170407   170425   170442   170460   170473 
  170487   170503   170515   170522   170536   170548   170557   170565 
  170567   170565   170561   170552   170537   170519   170505   170491 
  170476   170464   170455   170445   170437   170426   170414   170401 
  170380   170356   170336   170317   170297   170276   170259   170244 
  170230   170220   170210   170199   170194   170193   170190   170187 
  170187   170186   170183   170181   170178   170176   170174   170167 
  170163   170156   170143   170132   170124   170106   170082   170054 
  170024   169993   169960   169928   169896   169867   169842   169815 
  169793   169777   169759   169736   169719   169708   169697   169688 
  169680   169668   169654   169642   169634   169627   169627   169630 
  169632   169639   169649   169659   169668   169676   169689   169699 
  169711   169724   169736   169754   169771   169788   169805   169819 
  169828   169838   169843   169847   169850   169848   169842   169836 
  169831   169825   169823   169820   169811   169801   169797   169789 
  169781   169774   169771   169773   169776   169781   169790   169805 
  169823   169839   169858   169881   169902   169928   169956   169985 
  170014   170050   170085   170120   170156   170193   170228   170263 
  170294   170325   170356   170382   170406   170429   170444   170456 
  170468   170475   170475   170475   170476   170473   170468   170465 
  170467   170464   170460   170461   170461   170460   170460   170464 
  170469   170478   170487   170499   170507   170514   170515   170517 
  170517   170515   170518   170519   170517   170514   170513   170509 
  170500   170494   170490   170482   170469   170459   170449   170437 
  170424   170413   170406   170399   170391   170384   170378   170368 
  170363   170352   170336   170324   170310   170294   170283   170276 
  170268   170259   170257   170256   170252   170247   170241   170236 
  170225   170212   170203   170197   170186   170181   170176   170170 
  170170   170174   170181   170195   170209   170224   170244   170266 
  170289   170310   170330   170348   170363   170376   170383   170388 
  170397   170398   170398   170403   170406   170409   170414   170413 
  170409   170401   170386   170374   170360   170343   170330   170318 
  170303   170293   170284   170275   170264   170256   170248   170237 
  170228   170222   170218   170220   170225   170233   170244   170256 
  170276   170299   170328   170363   170397   170430   170471   170513 
  170554   170600   170649   170699   170750   170800   170850   170901 
  170949   170991   171030   171065   171088   171100   171107   171105 
  171099   171084   171055   171018   170972   170918   170853   170781 
  170706   170630   170550   170465   170383   170309   170235   170163 
  170095   170032   169970   169911   169854   169797   169743   169692 
  169645   169601   169558   169520   169492   169469   169452   169442 
  169441   169450   169465   169485   169510   169533   169551   169574 
  169597   169619   169641   169659   169674   169689   169699   169707 
  169713   169717   169713   169705   169695   169684   169673   169663 
  169654   169649   169650   169655   169659   169672   169693   169711 
  169728   169753   169773   169790   169811   169827   169839   169851 
  169858   169859   169865   169874   169878   169879   169878   169874 
  169867   169862   169859   169855   169852   169851   169852   169861 
  169871   169878   169882   169897   169915   169929   169950   169977 
  170001   170029   170058   170085   170113   170141   170164   170189 
  170213   170235   170256   170276   170291   170303   170313   170322 
  170329   170332   170333   170329   170320   170306   170286   170262 
  170236   170205   170168   170132   170091   170052   170016   169981 
  169952   169929   169909   169894   169885   169878   169875   169879 
  169888   169898   169915   169936   169963   169996   170028   170060 
  170093   170124   170156   170187   170212   170232   170253   170272 
  170290   170309   170324   170334   170344   170349   170351   170352 
  170351   170347   170348   170345   170340   170338   170336   170333 
  170333   170329   170325   170329   170333   170340   170351   170360 
  170370   170380   170392   170407   170422   170436   170449   170459 
  170465   170467   170468   170471   170469   170467   170468   170469 
  170472   170478   170480   170488   170500   170511   170519   170529 
  170540   170552   170567   170583   170596   170613   170630   170648 
  170667   170685   170704   170719   170733   170746   170754   170754 
  170753   170743   170729   170714   170699   170676   170652   170629 
  170603   170571   170540   170511   170476   170434   170392   170349 
  170303   170264   170228   170186   170147   170114   170085   170055 
  170028   169998   169966   169936   169911   169882   169861   169846 
  169830   169817   169811   169803   169800   169801   169801   169805 
  169812   169817   169823   169828   169834   169842   169855   169866 
  169878   169893   169909   169925   169940   169954   169966   169975 
  169982   169989   169994   169993   169990   169996   169996   169993 
  169987   169978   169967   169951   169931   169912   169889   169861 
  169835   169808   169781   169759   169743   169734   169728   169730 
  169734   169739   169750   169767   169785   169807   169834   169866 
  169905   169946   169990   170043   170095   170154   170216   170278 
  170340   170405   170465   170523   170579   170629   170672   170708 
  170743   170776   170803   170824   170843   170864   170881   170887 
  170888   170892   170893   170887   170877   170864   170847   170829 
  170803   170777   170749   170716   170685   170652   170615   170576 
  170534   170491   170446   170398   170348   170295   170244   170197 
  170144   170087   170033   169982   169932   169882   169832   169785 
  169742   169699   169659   169624   169587   169549   169516   169487 
  169454   169427   169403   169376   169357   169346   169335   169327 
  169330   169334   169338   169346   169360   169371   169389   169416 
  169443   169473   169507   169542   169580   169618   169654   169693 
  169734   169767   169804   169844   169878   169906   169940   169975 
  170008   170039   170071   170102   170131   170151   170167   170186 
  170203   170214   170225   170237   170248   170259   170268   170278 
  170286   170295   170306   170314   170321   170328   170328   170326 
  170329   170334   170341   170347   170349   170353   170361   170365 
  170365   170368   170374   170374   170374   170375   170375   170375 
  170375   170376   170374   170367   170361   170355   170344   170333 
  170322   170306   170284   170260   170239   170218   170194   170170 
  170147   170125   170104   170085   170070   170056   170044   170039 
  170036   170036   170040   170047   170055   170063   170074   170083 
  170093   170104   170112   170120   170131   170139   170149   170164 
  170179   170193   170208   170222   170236   170247   170255   170262 
  170266   170268   170272   170276   170278   170282   170293   170302 
  170309   170321   170337   170356   170376   170398   170418   170441 
  170467   170494   170515   170534   170557   170580   170596   170607 
  170623   170635   170645   170653   170660   170662   170662   170664 
  170660   170652   170638   170625   170610   170595   170583   170572 
  170560   170552   170544   170534   170526   170519   170511   170505 
  170498   170491   170487   170480   170478   170480   170480   170475 
  170473   170473   170473   170478   170488   170499   170510   170527 
  170542   170556   170575   170588   170599   170611   170621   170626 
  170633   170635   170631   170627   170615   170595   170575   170552 
  170523   170495   170465   170426   170386   170345   170299   170252 
  170206   170160   170112   170064   170020   169978   169935   169890 
  169851   169812   169773   169742   169711   169678   169651   169628 
  169609   169593   169577   169565   169558   169555   169554   169555 
  169564   169574   169584   169593   169607   169622   169634   169643 
  169657   169663   169672   169682   169690   169695   169700   169699 
  169692   169688   169686   169682   169673   169673   169674   169673 
  169676   169681   169685   169695   169707   169717   169732   169755 
  169778   169804   169831   169863   169898   169933   169969   170008 
  170048   170087   170125   170163   170199   170233   170264   170297 
  170326   170355   170384   170414   170440   170461   170480   170500 
  170518   170534   170552   170567   170576   170587   170594   170599 
  170603   170602   170603   170603   170594   170580   170565   170546 
  170525   170498   170468   170434   170397   170357   170314   170271 
  170226   170182   170139   170097   170055   170014   169973   169932 
  169894   169859   169824   169792   169765   169739   169715   169695 
  169680   169670   169668   169669   169673   169682   169696   169716 
  169738   169761   169788   169817   169848   169886   169923   169956 
  169998   170043   170086   170129   170172   170214   170255   170295 
  170332   170365   170397   170425   170452   170482   170510   170536 
  170554   170571   170587   170600   170611   170611   170611   170608 
  170596   170581   170567   170549   170526   170498   170468   170440 
  170409   170376   170345   170314   170278   170239   170201   170162 
  170124   170087   170054   170024   169998   169978   169960   169948 
  169940   169933   169936   169938   169938   169943   169950   169956 
  169966   169973   169978   169983   169987   169997   170009   170016 
  170021   170029   170036   170043   170050   170056   170067   170079 
  170093   170105   170114   170124   170135   170148   170158   170164 
  170171   170178   170179   170178   170181   170183   170181   170181 
  170185   170187   170190   170187   170182   170175   170166   170152 
  170136   170113   170091   170071   170048   170023   169996   169967 
  169939   169911   169882   169857   169831   169805   169781   169761 
  169744   169734   169724   169716   169716   169723   169732   169746 
  169763   169786   169815   169844   169874   169905   169938   169973 
  170009   170046   170079   170113   170145   170175   170203   170229 
  170251   170272   170291   170303   170316   170324   170326   170330 
  170334   170334   170329   170325   170322   170317   170307   170297 
  170284   170274   170263   170253   170249   170244   170236   170230 
  170228   170224   170224   170222   170221   170225   170232   170239 
  170247   170257   170270   170280   170294   170307   170313   170318 
  170329   170334   170337   170345   170352   170356   170363   170370 
  170375   170382   170386   170387   170394   170403   170409   170414 
  170422   170428   170434   170444   170451   170456   170461   170469 
  170472   170473   170475   170475   170469   170461   170451   170438 
  170421   170402   170379   170352   170322   170289   170248   170203 
  170159   170110   170058   170005   169954   169898   169842   169788 
  169732   169677   169623   169569   169522   169480   169439   169403 
  169371   169342   169322   169308   169299   169299   169303   169315 
  169335   169361   169389   169425   169464   169510   169554   169597 
  169646   169696   169740   169784   169834   169882   169921   169960 
  170002   170039   170073   170106   170140   170175   170212   170245 
  170275   170305   170337   170361   170384   170411   170437   170459 
  170479   170498   170511   170523   170534   170546   170557   170568 
  170580   170591   170599   170613   170623   170626   170634   170641 
  170641   170644   170646   170645   170641   170634   170626   170615 
  170604   170598   170587   170575   170568   170561   170552   170546 
  170541   170530   170523   170514   170500   170492   170480   170467 
  170453   170438   170422   170406   170387   170364   170340   170316 
  170284   170253   170222   170187   170152   170114   170071   170031 
  169986   169935   169885   169838   169786   169738   169692   169642 
  169593   169550   169503   169456   169414   169372   169331   169294 
  169256   169227   169203   169182   169164   169146   169136   169134 
  169136   169141   169152   169165   169182   169210   169242   169276 
  169315   169358   169403   169450   169499   169549   169599   169653 
  169709   169766   169823   169879   169933   169989   170044   170095 
  170145   170198   170247   170289   170330   170375   170414   170444 
  170471   170498   170519   170537   170552   170564   170571   170573 
  170573   170575   170576   170577   170576   170575   170573   170571 
  170569   170565   170559   170552   170545   170534   170525   170517 
  170507   170496   170486   170472   170461   170453   170444   170436 
  170430   170422   170414   170411   170406   170398   170391   170383 
  170376   170372   170368   170361   170360   170359   170353   170351 
  170351   170352   170356   170359   170360   170360   170360   170357 
  170355   170347   170334   170322   170310   170297   170279   170259 
  170241   170229   170212   170191   170185   170175   170159   170148 
  170140   170136   170132   170125   170122   170124   170127   170129 
  170141   170155   170167   170187   170208   170228   170255   170282 
  170307   170334   170359   170384   170411   170434   170453   170471 
  170484   170496   170505   170506   170503   170498   170488   170475 
  170457   170433   170406   170376   170343   170310   170279   170244 
  170209   170175   170143   170112   170079   170050   170020   169990 
  169965   169942   169921   169909   169896   169884   169879   169881 
  169884   169890   169901   169919   169940   169960   169985   170009 
  170032   170060   170089   170113   170139   170166   170189   170212 
  170233   170251   170267   170280   170290   170298   170307   170314 
  170321   170326   170330   170337   170341   170343   170345   170341 
  170341   170343   170333   170322   170316   170306   170293   170276 
  170255   170235   170214   170190   170168   170147   170120   170091 
  170068   170047   170021   169992   169967   169944   169917   169893 
  169869   169843   169819   169797   169778   169761   169751   169744 
  169740   169742   169747   169753   169762   169784   169809   169832 
  169863   169900   169939   169983   170029   170074   170129   170190 
  170248   170301   170353   170410   170463   170510   170560   170606 
  170646   170685   170721   170750   170770   170787   170803   170814 
  170812   170812   170811   170799   170781   170765   170746   170723 
  170695   170662   170631   170596   170561   170526   170491   170457 
  170425   170394   170363   170333   170310   170293   170280   170267 
  170256   170255   170260   170264   170271   170283   170298   170316 
  170337   170361   170384   170410   170437   170460   170484   170509 
  170532   170554   170576   170596   170617   170637   170657   170672 
  170679   170684   170689   170692   170688   170683   170677   170668 
  170658   170649   170633   170614   170596   170573   170548   170521 
  170492   170463   170428   170390   170356   170321   170284   170248 
  170210   170175   170143   170108   170070   170036   170008   169982 
  169956   169931   169912   169893   169875   169863   169854   169847 
  169847   169851   169858   169862   169870   169885   169901   169920 
  169942   169966   169987   170013   170043   170070   170094   170120 
  170144   170168   170191   170214   170236   170257   170274   170291 
  170305   170311   170314   170317   170318   170311   170303   170294 
  170279   170264   170253   170241   170225   170206   170191   170174 
  170151   170129   170109   170090   170071   170052   170033   170017 
  169997   169979   169966   169950   169936   169929   169919   169906 
  169900   169893   169890   169888   169885   169886   169889   169888 
  169885   169886   169885   169879   169878   169879   169879   169882 
  169886   169889   169892   169898   169905   169916   169927   169936 
  169948   169966   169983   169996   170008   170023   170041   170059 
  170070   170083   170101   170117   170135   170152   170168   170186 
  170201   170217   170233   170247   170264   170283   170295   170307 
  170322   170332   170338   170351   170361   170367   170372   170382 
  170390   170394   170397   170402   170410   170418   170424   170433 
  170442   170449   170456   170465   170475   170484   170491   170495 
  170502   170510   170515   170523   170532   170540   170548   170557 
  170567   170576   170583   170587   170592   170599   170603   170610 
  170615   170617   170621   170629   170633   170635   170640   170642 
  170646   170644   170637   170633   170626   170617   170606   170591 
  170580   170567   170548   170529   170510   170488   170469   170451 
  170430   170411   170392   170374   170357   170338   170326   170314 
  170295   170280   170270   170252   170240   170230   170217   170206 
  170193   170182   170172   170159   170147   170136   170122   170106 
  170090   170073   170054   170041   170032   170021   170009   170000 
  169992   169985   169977   169973   169970   169971   169971   169971 
  169971   169970   169974   169981   169978   169977   169982   169986 
  169992   169997   170001   170006   170013   170017   170023   170028 
  170029   170032   170033   170035   170033   170031   170025   170020 
  170014   170006   169996   169989   169977   169963   169955   169943 
  169928   169916   169902   169892   169885   169874   169866   169863 
  169863   169861   169863   169871   169877   169884   169892   169901 
  169911   169923   169935   169948   169963   169978   169993   170004 
  170014   170031   170048   170059   170070   170082   170094   170104 
  170109   170114   170120   170121   170121   170124   170129   170132 
  170128   170125   170128   170131   170132   170132   170133   170135 
  170133   170137   170139   170136   170137   170140   170139   170137 
