Origin Time       2025/01/13 21:19:00
Lat.              31.8
Long.             131.6
Depth. (km)       30
Mag.              6.9
Station Code      HYGH06
Station Lat.      34.7935
Station Long.     134.4792
Station Height(m) -135
Record Time       2025/01/13 21:21:31
Sampling Freq(Hz) 100Hz
Duration Time(s)  120
Dir.              1
Scale Factor      2942(gal)/8224139
Max. Acc. (gal)   0.418
Last Correction   2025/01/13 21:21:32
Memo.             
[...]
   50554    50526    50499    50471    50433    50398    50364    50328 
   50292    50253    50209    50170    50141    50116    50091    50067 
   50033    49999    49972    49951    49932    49914    49900    49891 
   49887    49882    49870    49858    49846    49842    49846    49854 
   49860    49869    49874    49879    49885    49890    49902    49917 
   49940    49972    50008    50037    50059    50083    50114    50147 
   50183    50221    50255    50291    50330    50367    50400    50437 
   50472    50507    50546    50587    50625    50664    50707    50749 
   50789    50827    50866    50901    50931    50963    51004    51039 
   51059    51082    51112    51136    51152    51170    51186    51198 
   51210    51217    51221    51221    51219    51212    51201    51189 
   51179    51174    51173    51169    51160    51146    51129    51121 
   51119    51112    51104    51092    51073    51055    51042    51028 
   51012    50989    50965    50946    50926    50903    50885    50866 
   50846    50830    50814    50796    50784    50776    50768    50761 
   50758    50762    50770    50781    50796    50809    50820    50830 
   50842    50851    50862    50880    50899    50908    50913    50924 
   50938    50949    50958    50966    50970    50973    50976    50978 
   50976    50969    50962    50953    50944    50939    50930    50920 
   50913    50904    50892    50882    50877    50870    50862    50855 
   50847    50838    50827    50815    50800    50792    50788    50785 
   50785    50789    50792    50801    50819    50838    50854    50870 
   50884    50893    50900    50907    50911    50911    50907    50901 
   50896    50890    50881    50870    50865    50863    50857    50843 
   50824    50808    50796    50781    50762    50743    50726    50704 
   50681    50653    50620    50592    50566    50542    50518    50494 
   50472    50454    50436    50419    50407    50402    50406    50413 
   50427    50445    50464    50487    50514    50544    50576    50608 
   50645    50692    50742    50788    50827    50866    50908    50947 
   50981    51012    51038    51055    51069    51084    51100    51109 
   51113    51115    51113    51111    51108    51097    51081    51063 
   51047    51032    51013    50994    50980    50958    50928    50903 
   50873    50836    50800    50762    50723    50685    50650    50619 
   50595    50576    50562    50552    50542    50537    50541    50549 
   50556    50566    50572    50579    50591    50604    50616    50631 
   50652    50677    50708    50742    50788    50839    50884    50926 
   50962    50990    51019    51048    51074    51101    51128    51158 
   51192    51220    51243    51263    51278    51290    51304    51316 
   51325    51336    51351    51363    51372    51381    51389    51397 
   51402    51405    51402    51393    51386    51381    51374    51364 
   51348    51325    51301    51279    51260    51243    51227    51210 
   51198    51186    51170    51158    51148    51139    51135    51135 
   51129    51123    51123    51121    51112    51102    51093    51082 
   51081    51088    51089    51086    51085    51079    51069    51057 
   51044    51028    51013    50997    50976    50957    50938    50913 
   50892    50876    50858    50845    50836    50834    50831    50824 
   50819    50819    50819    50814    50808    50801    50795    50789 
   50785    50780    50785    50793    50800    50815    50836    50862 
   50892    50915    50932    50957    50984    51005    51023    51039 
   51051    51061    51065    51066    51063    51058    51051    51042 
   51030    51016    50994    50966    50935    50903    50865    50822 
   50774    50724    50668    50604    50541    50483    50427    50369 
   50313    50253    50190    50129    50071    50017    49974    49941 
   49912    49881    49856    49837    49824    49820    49817    49810 
   49802    49798    49793    49789    49794    49802    49812    49832 
   49855    49878    49910    49954    50005    50060    50117    50174 
   50236    50302    50361    50421    50480    50535    50588    50642 
   50695    50743    50789    50831    50873    50915    50954    50992 
   51032    51071    51109    51146    51183    51223    51259    51293 
   51322    51347    51370    51391    51408    51425    51441    51448 
   51452    51455    51453    51453    51452    51449    51447    51444 
   51436    51426    51418    51403    51386    51371    51351    51322 
   51291    51260    51224    51189    51156    51127    51096    51062 
   51031    51003    50973    50946    50924    50904    50884    50866 
   50847    50826    50803    50778    50758    50741    50726    50710 
   50688    50661    50626    50587    50544    50499    50450    50402 
   50355    50307    50265    50229    50191    50159    50129    50095 
   50056    50025    50002    49983    49966    49947    49929    49914 
   49905    49900    49905    49917    49932    49950    49966    49982 
   50005    50028    50049    50072    50095    50114    50136    50159 
   50186    50224    50257    50288    50325    50361    50396    50434 
   50471    50503    50538    50575    50606    50635    50669    50699 
   50724    50747    50770    50793    50814    50828    50835    50839 
   50846    50850    50845    50831    50814    50793    50770    50739 
   50699    50654    50610    50566    50523    50484    50450    50422 
   50396    50371    50344    50318    50296    50279    50265    50256 
   50252    50255    50259    50267    50278    50288    50301    50317 
   50337    50356    50373    50390    50402    50417    50440    50464 
   50483    50502    50526    50553    50587    50622    50658    50693 
   50723    50747    50777    50807    50831    50854    50881    50909 
   50935    50958    50984    51009    51036    51066    51092    51116 
   51139    51158    51181    51209    51237    51263    51289    51314 
   51339    51358    51370    51381    51386    51387    51387    51385 
   51379    51367    51351    51332    51312    51293    51283    51275 
   51260    51240    51220    51200    51175    51151    51128    51108 
   51090    51063    51034    51012    50992    50967    50943    50923 
   50901    50880    50858    50834    50807    50778    50750    50724 
   50701    50677    50650    50626    50612    50600    50589    50585 
   50584    50587    50593    50604    50619    50637    50658    50681 
   50708    50742    50777    50809    50841    50876    50907    50939 
   50973    51000    51021    51043    51059    51067    51069    51067 
   51067    51066    51057    51040    51021    50997    50971    50947 
   50916    50881    50849    50816    50781    50747    50712    50681 
   50656    50629    50604    50583    50553    50523    50502    50483 
   50469    50467    50458    50456    50467    50483    50498    50521 
   50548    50577    50610    50645    50679    50715    50747    50772 
   50788    50803    50816    50826    50835    50839    50838    50832 
   50830    50828    50822    50811    50801    50796    50791    50787 
   50781    50770    50764    50762    50760    50753    50742    50730 
   50723    50710    50691    50681    50677    50665    50652    50639 
   50629    50622    50611    50592    50576    50564    50552    50538 
   50533    50530    50527    50527    50526    50523    50522    50517 
   50507    50494    50484    50483    50481    50476    50473    50469 
   50468    50469    50476    50480    50480    50481    50484    50488 
   50498    50512    50526    50541    50558    50579    50600    50623 
   50649    50684    50722    50761    50804    50849    50886    50923 
   50962    50994    51024    51059    51092    51123    51154    51186 
   51221    51250    51273    51291    51302    51312    51328    51344 
   51356    51367    51375    51378    51375    51367    51358    51345 
   51327    51305    51279    51252    51225    51200    51177    51154 
   51131    51105    51079    51051    51017    50990    50969    50949 
   50926    50897    50868    50842    50818    50792    50770    50753 
   50735    50718    50704    50693    50687    50680    50674    50669 
   50664    50653    50642    50639    50639    50634    50627    50620 
   50610    50599    50589    50577    50562    50545    50523    50503 
   50481    50450    50419    50387    50352    50318    50286    50255 
   50225    50194    50163    50139    50121    50106    50099    50098 
   50098    50106    50117    50130    50151    50168    50188    50213 
   50230    50245    50264    50282    50294    50307    50325    50342 
   50367    50394    50417    50440    50463    50484    50504    50522 
   50537    50557    50576    50589    50603    50615    50626    50631 
   50629    50629    50633    50629    50625    50625    50626    50626 
   50623    50622    50620    50616    50610    50604    50598    50589 
   50585    50577    50566    50558    50553    50550    50554    50557 
   50553    50550    50550    50544    50530    50517    50506    50498 
   50490    50476    50465    50457    50448    50444    50438    50431 
   50427    50429    50431    50437    50441    50444    50449    50461 
   50475    50485    50500    50517    50529    50545    50566    50593 
   50626    50658    50692    50727    50758    50791    50831    50870 
   50908    50947    50984    51011    51036    51066    51086    51102 
   51123    51143    51162    51179    51189    51197    51208    51214 
   51219    51224    51231    51237    51240    51237    51229    51221 
   51214    51204    51196    51192    51189    51190    51194    51193 
   51186    51182    51179    51179    51181    51183    51186    51192 
   51197    51197    51197    51201    51209    51219    51223    51219 
   51214    51210    51202    51193    51179    51163    51150    51133 
   51111    51086    51058    51027    50997    50965    50927    50888 
   50845    50797    50747    50704    50665    50629    50593    50560 
   50527    50494    50454    50418    50384    50348    50306    50268 
   50233    50194    50157    50125    50095    50074    50055    50035 
   50017    50005    49998    49993    49991    49997    50009    50024 
   50039    50059    50080    50103    50134    50170    50202    50230 
   50263    50299    50334    50367    50404    50448    50487    50525 
   50564    50602    50642    50680    50716    50750    50782    50814 
   50843    50865    50886    50907    50922    50938    50953    50969 
   50984    50997    51011    51021    51027    51032    51040    51048 
   51055    51058    51055    51052    51050    51044    51039    51035 
   51032    51032    51036    51047    51062    51078    51097    51115 
   51131    51144    51152    51159    51166    51175    51190    51209 
   51228    51247    51266    51287    51312    51333    51352    51371 
   51387    51406    51424    51436    51445    51451    51449    51443 
   51426    51405    51383    51362    51335    51300    51263    51229 
   51193    51155    51119    51081    51040    51003    50965    50934 
   50909    50886    50865    50842    50816    50791    50770    50754 
   50735    50718    50704    50691    50679    50665    50646    50629 
   50612    50596    50579    50564    50553    50544    50533    50519 
   50502    50485    50471    50458    50450    50440    50430    50422 
   50410    50402    50396    50387    50384    50383    50379    50377 
   50377    50380    50384    50386    50390    50394    50392    50390 
   50390    50384    50375    50369    50365    50359    50359    50360 
   50359    50359    50359    50356    50353    50355    50360    50369 
   50377    50386    50398    50410    50418    50431    50454    50476 
   50498    50522    50542    50561    50585    50611    50641    50670 
   50704    50743    50780    50816    50855    50890    50923    50954 
   50980    51008    51034    51052    51070    51090    51109    51129 
   51150    51169    51182    51194    51204    51209    51212    51210 
   51206    51198    51178    51151    51123    51094    51063    51030 
   50992    50953    50913    50866    50819    50774    50728    50677 
   50623    50572    50527    50484    50440    50398    50359    50323 
   50286    50245    50206    50168    50136    50109    50080    50053 
   50029    50006    49989    49978    49966    49958    49958    49960 
   49970    49989    50010    50032    50060    50097    50136    50179 
   50228    50279    50336    50394    50452    50507    50566    50626 
   50684    50739    50792    50841    50886    50932    50971    51008 
   51046    51082    51116    51146    51166    51183    51198    51210 
   51219    51225    51233    51237    51237    51241    51247    51250 
   51248    51246    51244    51241    51241    51237    51225    51209 
   51196    51183    51174    51166    51158    51155    51154    51152 
   51151    51151    51150    51152    51159    51166    51170    51174 
   51177    51179    51179    51177    51173    51165    51150    51132 
   51116    51093    51066    51043    51016    50985    50957    50922 
   50880    50838    50795    50751    50710    50666    50627    50593 
   50554    50518    50483    50440    50398    50361    50323    50288 
   50260    50234    50206    50172    50139    50110    50075    50032 
   49993    49955    49913    49877    49844    49809    49774    49738 
   49705    49678    49655    49635    49616    49603    49590    49580 
   49574    49576    49578    49582    49592    49608    49628    49651 
   49680    49713    49748    49786    49821    49860    49904    49944 
   49986    50031    50075    50122    50170    50210    50252    50295 
   50333    50373    50418    50460    50503    50544    50587    50633 
   50681    50731    50778    50822    50868    50912    50954    51000 
   51051    51098    51146    51193    51237    51278    51317    51352 
   51386    51417    51448    51474    51490    51502    51511    51514 
   51507    51495    51480    51466    51449    51429    51410    51386 
   51360    51339    51314    51283    51254    51227    51200    51173 
   51147    51123    51101    51079    51054    51027    51007    50989 
   50969    50951    50934    50915    50895    50876    50855    50831 
   50805    50782    50762    50745    50726    50707    50688    50668 
   50646    50623    50598    50566    50535    50508    50484    50458 
   50438    50421    50404    50390    50376    50363    50350    50340 
   50332    50326    50321    50315    50314    50315    50319    50322 
   50323    50323    50330    50338    50345    50357    50369    50382 
   50400    50421    50440    50461    50485    50508    50533    50557 
   50583    50608    50627    50647    50670    50689    50710    50728 
   50747    50772    50791    50800    50811    50820    50827    50828 
   50828    50834    50839    50839    50839    50836    50831    50824 
   50816    50809    50804    50795    50785    50777    50768    50760 
   50755    50745    50731    50719    50708    50699    50695    50689 
   50681    50676    50670    50665    50664    50661    50656    50652 
   50649    50645    50639    50631    50630    50637    50645    50652 
   50664    50677    50691    50707    50726    50745    50766    50788 
   50809    50834    50862    50888    50907    50924    50940    50954 
   50970    50988    51001    51007    51008    51011    51016    51017 
   51016    51016    51013    51007    50997    50989    50980    50969 
   50955    50943    50935    50926    50916    50909    50900    50886 
   50872    50858    50847    50838    50824    50811    50800    50793 
   50785    50777    50768    50762    50762    50760    50754    50751 
   50749    50742    50735    50733    50728    50723    50722    50719 
   50715    50714    50715    50714    50714    50715    50712    50711 
   50710    50704    50697    50693    50687    50674    50665    50661 
   50654    50647    50642    50637    50630    50623    50615    50603 
   50595    50588    50576    50561    50548    50537    50527    50519 
   50512    50507    50502    50496    50491    50485    50477    50473 
   50472    50469    50461    50457    50454    50450    50448    50445 
   50438    50433    50426    50414    50399    50386    50375    50364 
   50355    50348    50345    50345    50345    50352    50363    50371 
   50377    50383    50388    50392    50396    50402    50409    50414 
   50417    50423    50434    50438    50438    50440    50441    50446 
   50456    50465    50477    50494    50508    50530    50554    50577 
   50603    50633    50661    50689    50716    50742    50768    50793 
   50816    50836    50858    50873    50881    50890    50901    50908 
   50916    50927    50938    50946    50954    50958    50961    50965 
   50970    50978    50982    50988    51000    51013    51023    51030 
   51038    51048    51058    51063    51070    51074    51077    51084 
   51089    51090    51093    51096    51096    51096    51096    51090 
   51079    51069    51055    51043    51032    51019    51005    50994 
   50985    50978    50974    50970    50969    50970    50971    50970 
   50970    50973    50976    50978    50981    50986    50990    50997 
   51007    51016    51021    51034    51047    51059    51069    51079 
   51092    51104    51117    51133    51151    51171    51189    51201 
   51212    51223    51233    51243    51251    51251    51244    51237 
   51227    51212    51194    51179    51159    51135    51108    51081 
   51055    51030    51005    50982    50961    50942    50926    50904 
   50874    50850    50830    50807    50791    50774    50750    50728 
   50711    50689    50669    50652    50633    50611    50589    50569 
   50548    50530    50511    50491    50471    50448    50423    50399 
   50376    50352    50326    50303    50280    50259    50237    50215 
   50197    50179    50159    50137    50120    50103    50087    50071 
   50056    50045    50033    50021    50008    49994    49985    49978 
   49974    49975    49983    49990    49994    50002    50013    50025 
   50041    50064    50091    50117    50143    50170    50198    50226 
   50252    50278    50303    50329    50352    50376    50403    50430 
   50457    50487    50517    50545    50569    50593    50622    50649 
   50674    50697    50719    50739    50758    50780    50805    50827 
   50846    50868    50892    50916    50938    50958    50978    51000 
   51017    51035    51054    51073    51092    51111    51125    51139 
   51156    51173    51183    51193    51202    51212    51220    51228 
   51240    51255    51267    51282    51294    51298    51308    51322 
   51329    51329    51332    51332    51327    51321    51313    51306 
   51298    51283    51268    51258    51244    51229    51217    51205 
   51187    51175    51165    51147    51133    51125    51116    51105 
   51102    51097    51089    51086    51085    51081    51077    51073 
   51063    51050    51040    51034    51023    51011    50996    50978 
   50961    50940    50919    50899    50881    50863    50846    50831 
   50820    50807    50795    50789    50785    50778    50770    50766 
   50765    50762    50757    50753    50754    50754    50751    50753 
   50753    50749    50747    50747    50746    50746    50739    50731 
