Origin Time       2025/01/13 21:19:00
Lat.              31.8
Long.             131.6
Depth. (km)       30
Mag.              6.9
Station Code      HYGH08
Station Lat.      35.1010
Station Long.     134.9036
Station Height(m) 50
Record Time       2025/01/13 21:21:53
Sampling Freq(Hz) 100Hz
Duration Time(s)  120
Dir.              1
Scale Factor      2942(gal)/8224139
Max. Acc. (gal)   0.264
Last Correction   2025/01/13 21:21:55
Memo.             
[...]
   19942    19946    19944    19938    19938    19935    19928    19928 
   19928    19928    19935    19940    19947    19962    19978    19997 
   20023    20052    20085    20113    20142    20177    20209    20235 
   20258    20278    20294    20312    20321    20322    20325    20320 
   20312    20310    20305    20299    20301    20304    20305    20312 
   20314    20312    20317    20321    20317    20317    20313    20302 
   20294    20287    20277    20271    20267    20259    20256    20254 
   20244    20240    20241    20237    20244    20254    20255    20262 
   20271    20272    20274    20277    20281    20285    20278    20268 
   20259    20244    20232    20220    20208    20196    20186    20175 
   20166    20152    20137    20131    20119    20102    20094    20085 
   20074    20074    20071    20065    20059    20062    20066    20067 
   20073    20083    20093    20105    20124    20142    20156    20171 
   20182    20193    20206    20217    20221    20224    20227    20228 
   20228    20227    20225    20227    20228    20228    20229    20231 
   20231    20229    20223    20216    20210    20206    20205    20201 
   20196    20191    20182    20170    20164    20156    20142    20135 
   20133    20127    20125    20128    20125    20132    20143    20147 
   20147    20152    20158    20159    20162    20169    20175    20181 
   20181    20183    20193    20200    20201    20200    20197    20197 
   20198    20191    20187    20189    20185    20181    20182    20179 
   20173    20163    20159    20155    20144    20135    20127    20116 
   20113    20109    20100    20097    20094    20088    20079    20065 
   20050    20039    20032    20021    20011    20004    19997    19993 
   19992    19990    19992    19997    20000    20004    20015    20025 
   20040    20059    20077    20096    20116    20137    20166    20193 
   20213    20236    20262    20289    20313    20343    20371    20394 
   20418    20443    20452    20460    20471    20474    20472    20474 
   20467    20463    20461    20457    20455    20455    20452    20452 
   20456    20456    20456    20457    20453    20449    20449    20441 
   20426    20414    20397    20372    20348    20318    20285    20252 
   20218    20182    20150    20121    20093    20069    20050    20035 
   20021    20013    20007    19996    19988    19985    19982    19975 
   19970    19965    19961    19954    19939    19923    19913    19905 
   19899    19897    19897    19897    19903    19915    19927    19940 
   19958    19973    19985    19998    20013    20027    20042    20056 
   20073    20083    20096    20109    20121    20129    20133    20135 
   20136    20139    20137    20133    20140    20152    20155    20160 
   20169    20171    20179    20189    20194    20202    20213    20224 
   20240    20258    20270    20285    20302    20318    20331    20341 
   20348    20349    20345    20339    20335    20329    20318    20310 
   20301    20289    20278    20263    20243    20227    20213    20198 
   20189    20179    20169    20162    20159    20155    20152    20150 
   20146    20142    20136    20132    20139    20143    20144    20154 
   20160    20164    20174    20183    20193    20202    20212    20221 
   20224    20225    20231    20233    20231    20227    20217    20200 
   20185    20174    20159    20139    20121    20102    20083    20063 
   20047    20029    20008    19990    19975    19958    19942    19930 
   19919    19908    19896    19886    19882    19881    19881    19881 
   19884    19893    19899    19903    19913    19920    19928    19940 
   19948    19951    19957    19971    19988    19993    20000    20012 
   20020    20027    20035    20046    20052    20062    20071    20075 
   20081    20092    20101    20105    20108    20113    20115    20117 
   20124    20117    20106    20105    20100    20085    20077    20070 
   20058    20051    20047    20039    20036    20039    20040    20044 
   20048    20050    20055    20059    20070    20086    20100    20110 
   20128    20146    20162    20179    20193    20201    20206    20209 
   20209    20214    20221    20220    20216    20216    20216    20213 
   20213    20210    20202    20197    20197    20191    20182    20178 
   20177    20170    20160    20152    20150    20147    20140    20135 
   20129    20119    20106    20104    20104    20105    20109    20108 
   20110    20124    20144    20158    20170    20191    20209    20223 
   20240    20256    20271    20291    20306    20317    20333    20348 
   20358    20364    20367    20367    20370    20368    20367    20363 
   20358    20353    20349    20343    20340    20340    20339    20333 
   20329    20329    20328    20325    20328    20329    20328    20329 
   20326    20324    20321    20316    20306    20294    20283    20267 
   20248    20236    20225    20212    20205    20198    20193    20194 
   20194    20193    20201    20206    20205    20208    20214    20214 
   20212    20208    20200    20197    20197    20194    20191    20196 
   20201    20208    20217    20228    20241    20255    20267    20279 
   20295    20310    20322    20335    20341    20336    20331    20326 
   20313    20301    20291    20274    20256    20245    20235    20225 
   20216    20201    20187    20177    20164    20150    20139    20129 
   20117    20109    20105    20093    20083    20081    20075    20070 
   20066    20065    20061    20056    20055    20055    20052    20048 
   20047    20040    20035    20035    20032    20028    20025    20020 
   20017    20015    20011    20007    19998    19989    19980    19967 
   19954    19943    19930    19913    19897    19877    19857    19834 
   19811    19793    19773    19751    19737    19723    19705    19695 
   19689    19681    19676    19669    19664    19670    19677    19678 
   19688    19705    19720    19738    19754    19769    19785    19804 
   19822    19839    19857    19876    19897    19913    19926    19939 
   19955    19973    19988    20001    20015    20024    20035    20052 
   20063    20066    20071    20078    20082    20086    20094    20100 
   20102    20105    20109    20109    20108    20105    20104    20100 
   20097    20096    20092    20090    20096    20100    20102    20106 
   20116    20125    20135    20151    20166    20177    20190    20201 
   20212    20227    20239    20247    20259    20271    20282    20293 
   20302    20313    20326    20340    20358    20374    20387    20399 
   20409    20420    20432    20439    20452    20470    20479    20491 
   20502    20503    20509    20518    20518    20515    20514    20509 
   20502    20494    20478    20460    20434    20403    20374    20339 
   20298    20260    20220    20178    20140    20098    20055    20009 
   19962    19919    19884    19850    19818    19795    19774    19759 
   19750    19738    19730    19728    19726    19722    19720    19720 
   19722    19730    19742    19751    19770    19799    19826    19857 
   19893    19931    19970    20008    20044    20083    20123    20158 
   20196    20228    20254    20281    20302    20316    20324    20332 
   20341    20349    20353    20360    20370    20372    20372    20380 
   20389    20389    20387    20395    20402    20398    20390    20389 
   20387    20382    20374    20364    20360    20355    20351    20348 
   20348    20345    20347    20356    20364    20371    20379    20390 
   20401    20412    20421    20426    20433    20436    20430    20426 
   20429    20426    20418    20414    20413    20409    20406    20403 
   20399    20397    20397    20398    20402    20405    20407    20406 
   20402    20398    20389    20379    20371    20353    20335    20322 
   20301    20271    20250    20227    20198    20169    20144    20121 
   20098    20078    20062    20044    20027    20016    20004    19989 
   19975    19965    19953    19938    19924    19919    19913    19904 
   19900    19900    19897    19899    19905    19919    19932    19944 
   19966    19993    20020    20046    20070    20097    20120    20139 
   20158    20177    20189    20202    20221    20232    20239    20250 
   20259    20267    20277    20282    20289    20299    20306    20316 
   20324    20328    20332    20333    20329    20321    20313    20305 
   20287    20267    20250    20231    20205    20178    20154    20127 
   20096    20066    20036    20007    19975    19947    19920    19890 
   19863    19836    19805    19777    19755    19735    19714    19696 
   19685    19681    19680    19681    19692    19707    19720    19738 
   19755    19772    19795    19819    19840    19865    19893    19919 
   19935    19959    19988    20005    20023    20048    20073    20090 
   20105    20121    20140    20154    20163    20177    20193    20202 
   20205    20206    20209    20209    20204    20197    20191    20189 
   20182    20174    20171    20171    20169    20170    20174    20177 
   20183    20189    20189    20193    20196    20198    20202    20201 
   20196    20194    20191    20181    20177    20175    20164    20152 
   20146    20144    20139    20132    20129    20127    20117    20115 
   20109    20098    20092    20081    20063    20051    20040    20027 
   20009    19994    19986    19974    19959    19948    19940    19935 
   19932    19936    19942    19946    19954    19965    19975    19988 
   19997    20007    20017    20027    20036    20046    20058    20071 
   20085    20096    20109    20128    20144    20159    20177    20193 
   20205    20218    20233    20245    20252    20255    20256    20252 
   20244    20235    20221    20204    20183    20163    20144    20128 
   20112    20098    20088    20073    20058    20050    20043    20034 
   20031    20034    20032    20028    20027    20025    20023    20020 
   20021    20023    20023    20027    20034    20042    20048    20058 
   20073    20092    20109    20124    20139    20156    20174    20187 
   20204    20216    20228    20248    20266    20271    20279    20298 
   20309    20316    20332    20343    20348    20363    20368    20370 
   20375    20378    20378    20379    20385    20387    20387    20389 
   20390    20389    20387    20385    20379    20380    20382    20379 
   20378    20378    20375    20374    20372    20366    20356    20345 
   20337    20324    20312    20298    20286    20274    20260    20248 
   20240    20229    20218    20213    20212    20208    20205    20209 
   20212    20214    20223    20228    20236    20252    20266    20279 
   20295    20305    20309    20318    20326    20332    20339    20343 
   20344    20344    20339    20331    20322    20310    20295    20278 
   20263    20251    20232    20206    20182    20159    20137    20115 
   20089    20069    20050    20031    20016    20005    19994    19985 
   19977    19967    19959    19953    19943    19938    19936    19938 
   19942    19948    19954    19961    19970    19978    19990    20000 
   20011    20021    20034    20052    20071    20085    20100    20120 
   20137    20154    20171    20183    20191    20194    20200    20205 
   20208    20209    20208    20208    20208    20206    20205    20204 
   20198    20194    20186    20174    20169    20160    20147    20139 
   20135    20129    20123    20112    20101    20094    20085    20077 
   20067    20056    20046    20036    20028    20019    20011    20008 
   20005    19998    19990    19986    19986    19989    19986    19989 
   19994    19996    20000    20013    20027    20035    20043    20059 
   20075    20089    20105    20117    20125    20137    20147    20152 
   20155    20159    20164    20171    20178    20182    20189    20193 
   20198    20202    20205    20209    20212    20210    20212    20212 
   20216    20223    20225    20227    20227    20223    20217    20212 
   20205    20198    20191    20186    20183    20179    20175    20169 
   20160    20151    20144    20143    20139    20132    20128    20128 
   20128    20125    20125    20128    20131    20135    20139    20143 
   20147    20155    20162    20170    20182    20194    20205    20213 
   20224    20235    20247    20259    20268    20279    20294    20308 
   20321    20339    20355    20370    20385    20398    20412    20420 
   20425    20434    20445    20452    20460    20468    20470    20472 
   20479    20482    20480    20482    20479    20475    20475    20474 
   20464    20457    20449    20437    20424    20407    20389    20367 
   20348    20332    20306    20277    20252    20231    20204    20179 
   20159    20133    20109    20090    20077    20067    20055    20043 
   20034    20024    20011    20002    19998    19993    19988    19988 
   19989    19990    20000    20013    20019    20024    20036    20048 
   20059    20069    20081    20097    20113    20125    20136    20151 
   20166    20178    20189    20201    20210    20216    20224    20235 
   20241    20251    20263    20274    20281    20293    20305    20313 
   20322    20332    20344    20358    20367    20374    20382    20389 
   20398    20406    20410    20416    20421    20424    20421    20417 
   20413    20405    20395    20380    20364    20344    20324    20302 
   20272    20235    20206    20177    20135    20097    20061    20019 
   19980    19936    19890    19849    19807    19764    19726    19687 
   19645    19611    19580    19545    19514    19491    19465    19441 
   19429    19419    19413    19411    19413    19414    19422    19438 
   19452    19467    19488    19515    19541    19566    19595    19627 
   19661    19696    19731    19768    19807    19845    19884    19923 
   19965    20004    20046    20086    20121    20156    20193    20224 
   20251    20278    20304    20321    20337    20353    20367    20376 
   20386    20394    20399    20402    20402    20401    20398    20393 
   20391    20390    20379    20370    20368    20360    20348    20340 
   20331    20322    20313    20298    20286    20278    20266    20251 
   20237    20223    20209    20200    20186    20174    20164    20154 
   20146    20136    20123    20110    20104    20096    20090    20086 
   20081    20081    20078    20071    20077    20085    20082    20086 
   20096    20101    20112    20123    20133    20146    20156    20174 
   20194    20208    20227    20245    20258    20278    20301    20313 
   20326    20341    20343    20345    20353    20355    20351    20349 
   20341    20335    20328    20313    20301    20293    20278    20264 
   20252    20239    20227    20217    20206    20198    20191    20185 
   20179    20178    20170    20158    20151    20142    20131    20123 
   20116    20109    20101    20094    20090    20086    20079    20073 
   20066    20061    20054    20044    20038    20034    20028    20023 
   20020    20013    20005    19996    19986    19980    19966    19953 
   19944    19935    19924    19916    19909    19907    19905    19904 
   19905    19911    19917    19927    19936    19947    19963    19980 
   19994    20013    20032    20048    20070    20092    20106    20124 
   20143    20155    20167    20181    20190    20198    20210    20218 
   20220    20227    20232    20235    20243    20248    20250    20254 
   20258    20256    20251    20251    20255    20254    20250    20255 
   20255    20254    20260    20267    20271    20275    20277    20281 
   20286    20293    20299    20302    20306    20313    20317    20320 
   20324    20322    20318    20318    20322    20318    20314    20313 
   20301    20287    20282    20268    20250    20237    20228    20212 
   20194    20179    20162    20148    20137    20120    20106    20092 
   20077    20066    20052    20035    20024    20013    19994    19978 
   19969    19955    19942    19932    19924    19915    19913    19913 
   19913    19920    19927    19936    19950    19966    19982    20000 
   20015    20034    20054    20073    20090    20112    20131    20148 
   20167    20186    20202    20216    20232    20251    20271    20286 
   20298    20312    20325    20336    20345    20356    20366    20372 
   20379    20387    20391    20387    20383    20382    20374    20360 
   20351    20340    20322    20306    20290    20271    20252    20236 
   20223    20205    20186    20173    20158    20137    20120    20106 
   20093    20079    20066    20054    20042    20027    20013    20002 
   19992    19982    19975    19969    19958    19951    19948    19943 
   19935    19931    19931    19930    19927    19927    19931    19931 
   19928    19930    19930    19930    19936    19942    19944    19954 
   19965    19975    19990    20007    20023    20038    20056    20078 
   20100    20121    20147    20171    20193    20213    20235    20256 
   20275    20295    20314    20329    20344    20359    20372    20386 
   20394    20399    20407    20416    20420    20421    20421    20418 
   20417    20414    20409    20406    20402    20398    20397    20391 
   20383    20376    20371    20367    20360    20353    20352    20348 
   20345    20347    20345    20344    20345    20347    20345    20351 
   20351    20351    20356    20356    20351    20349    20347    20340 
   20335    20326    20316    20309    20301    20290    20279    20274 
   20270    20266    20262    20260    20263    20263    20263    20271 
   20281    20283    20286    20293    20301    20308    20317    20324 
   20331    20341    20348    20352    20359    20364    20368    20375 
   20378    20378    20380    20385    20385    20385    20385    20378 
   20371    20360    20349    20339    20322    20304    20286    20264 
   20239    20213    20185    20155    20125    20096    20063    20032 
   20008    19986    19966    19947    19931    19919    19912    19905 
   19897    19894    19894    19896    19899    19899    19904    19908 
   19909    19915    19920    19924    19934    19944    19954    19967 
   19981    19994    20007    20020    20031    20039    20051    20059 
   20063    20075    20085    20083    20088    20090    20089    20086 
   20081    20074    20071    20069    20065    20063    20059    20056 
   20058    20062    20063    20063    20066    20067    20067    20069 
   20069    20069    20075    20083    20088    20094    20104    20116 
   20127    20136    20146    20160    20170    20181    20197    20216 
   20233    20251    20268    20290    20312    20331    20349    20367 
   20385    20407    20429    20447    20471    20493    20507    20528 
   20551    20568    20586    20599    20609    20618    20629    20634 
   20632    20626    20625    20621    20609    20598    20586    20565 
   20544    20521    20495    20466    20437    20406    20371    20333 
   20297    20258    20221    20183    20143    20106    20071    20034 
   19998    19969    19939    19903    19877    19858    19828    19803 
   19786    19770    19754    19746    19738    19730    19726    19730 
   19735    19741    19753    19765    19772    19782    19799    19811 
   19820    19835    19849    19861    19870    19880    19894    19903 
   19905    19916    19928    19932    19936    19942    19948    19957 
   19966    19970    19977    19988    19996    20005    20013    20016 
   20023    20034    20042    20050    20058    20063    20071    20083 
