Origin Time       2025/01/13 21:19:00
Lat.              31.8
Long.             131.6
Depth. (km)       30
Mag.              6.9
Station Code      HYGH12
Station Lat.      34.9313
Station Long.     134.5423
Station Height(m) 70
Record Time       2025/01/13 21:21:36
Sampling Freq(Hz) 100Hz
Duration Time(s)  120
Dir.              4
Scale Factor      7845(gal)/8223790
Max. Acc. (gal)   0.390
Last Correction   2025/01/13 21:21:37
Memo.             
[...]
     672      666      661      660      664      675      685      692 
     689      681      672      658      648      638      626      619 
     616      618      619      622      634      657      672      675 
     668      657      646      638      627      611      592      581 
     585      596      604      606      595      572      548      531 
     519      514      522      544      569      591      603      607 
     611      619      631      646      662      679      691      696 
     689      670      646      625      607      598      602      607 
     607      606      607      619      641      662      680      696 
     720      745      757      762      761      750      730      704 
     685      680      685      697      714      729      745      758 
     770      773      761      741      723      714      715      720 
     719      710      695      683      677      679      689      707 
     734      762      781      784      774      764      757      751 
     746      741      741      746      753      757      757      751 
     750      761      781      801      807      805      810      814 
     820      826      820      805      787      769      753      739 
     734      734      737      742      745      743      741      730 
     716      703      692      687      692      702      703      695 
     680      660      637      625      625      629      637      657 
     687      711      726      729      720      700      669      639 
     619      608      604      600      598      600      604      602 
     592      581      576      580      585      592      606      611 
     610      614      621      625      626      619      606      596 
     602      616      633      648      664      684      702      712 
     711      692      660      626      600      589      592      607 
     631      654      669      681      696      706      708      710 
     708      706      714      723      729      734      733      722 
     703      677      657      650      656      665      669      665 
     658      653      654      668      684      696      708      722 
     735      746      749      750      760      770      773      776 
     774      768      753      731      714      702      689      689 
     700      708      720      739      758      773      777      772 
     765      756      738      719      697      677      664      654 
     642      637      639      642      642      648      658      670 
     680      683      679      670      664      653      643      638 
     634      634      642      650      657      664      665      660 
     646      635      630      631      642      654      662      670 
     677      688      704      719      737      750      757      765 
     778      787      789      784      768      743      723      710 
     699      700      710      719      730      747      760      754 
     735      716      695      670      654      648      643      643 
     652      666      681      692      706      719      729      731 
     726      715      704      697      685      673      664      653 
     643      642      648      657      670      688      708      724 
     733      735      737      742      753      764      768      768 
     765      754      733      706      675      648      618      581 
     542      514      498      495      503      513      523      538 
     550      556      560      568      569      560      552      546 
     537      521      498      473      464      469      479      494 
     513      537      557      577      606      629      645      657 
     665      672      675      675      668      649      627      614 
     602      591      591      599      610      630      656      683 
     703      712      718      724      729      726      719      712 
     704      696      689      684      689      707      735      766 
     796      822      839      838      823      803      778      760 
     754      761      777      796      818      834      843      846 
     837      816      791      760      733      714      700      693 
     687      676      660      648      637      626      629      642 
     656      672      688      693      693      691      685      683 
     680      675      676      684      693      700      706      706 
     703      700      692      681      677      676      669      664 
     666      672      680      692      704      715      720      723 
     723      716      708      696      684      684      692      697 
     697      685      664      642      618      596      591      594 
     598      608      625      642      658      675      688      697 
     706      707      710      712      712      716      724      729 
     727      727      731      738      737      730      729      738 
     757      777      800      824      847      870      893      912 
     926      930      930      928      926      920      909      893 
     877      861      849      846      847      845      837      826 
     814      799      781      760      733      707      681      660 
     650      642      643      654      670      693      723      751 
     776      796      811      820      819      812      803      788 
     781      788      801      818      830      834      828      816 
     805      797      787      778      776      774      770      760 
     738      708      681      658      638      623      616      612 
     612      615      616      608      587      558      527      495 
     469      448      422      396      379      369      365      367 
     365      364      372      383      395      413      433      452 
     468      490      517      542      567      589      610      634 
     664      695      723      753      785      816      839      846 
     842      834      815      795      781      777      785      803 
     823      842      862      881      893      896      891      884 
     880      877      878      876      873      873      873      872 
     874      880      881      884      891      896      897      893 
     880      859      843      828      812      792      772      758 
     757      768      781      791      792      781      758      729 
     710      704      706      714      722      723      722      720 
     708      689      675      670      681      710      753      797 
     834      862      889      916      940      959      972      973 
     967      959      954      954      955      947      932      916 
     897      880      861      842      819      800      791      789 
     785      776      764      750      734      722      714      702 
     691      685      683      681      681      683      680      675 
     672      669      662      656      643      623      610      608 
     621      648      679      702      720      733      729      716 
     704      693      687      680      673      670      662      649 
     639      629      616      608      600      589      581      579 
     576      576      585      595      603      614      627      643 
     661      679      693      714      738      764      789      805 
     815      820      820      815      807      800      797      793 
     789      791      800      814      823      834      838      828 
     816      810      801      796      796      800      801      789 
     769      746      716      681      650      625      606      598 
     595      592      589      589      594      598      600      603 
     604      600      592      583      576      572      572      573 
     585      604      618      618      603      584      567      550 
     537      533      535      544      553      568      581      588 
     585      579      569      558      548      540      535      535 
     542      549      554      553      544      529      517      518 
     534      552      567      580      588      595      603      603 
     599      594      591      596      619      653      683      702 
     715      724      734      745      754      766      780      789 
     803      816      823      820      810      795      777      757 
     737      716      699      684      673      668      673      677 
     676      675      669      654      633      607      580      557 
     541      530      518      502      495      496      499      502 
     500      495      492      490      487      495      502      496 
     491      484      481      488      502      518      534      546 
     554      560      567      575      577      569      557      545 
     527      510      492      467      437      411      387      368 
     360      361      372      388      410      437      472      508 
     533      549      558      557      552      556      565      581 
     610      648      684      716      742      761      780      796 
     805      810      810      810      807      804      799      791 
     777      769      768      770      784      803      822      842 
     864      886      909      935      959      970      973      973 
     969      962      962      966      973      980      981      981 
     982      980      972      957      938      923      916      911 
     905      895      880      862      842      830      823      815 
     807      800      791      778      765      750      742      741 
     741      745      746      738      733      731      730      731 
     739      754      772      788      805      823      841      861 
     876      881      876      866      858      853      857      870 
     889      905      916      922      926      924      908      881 
     850      826      816      819      823      824      826      828 
     830      826      816      805      795      788      774      753 
     726      692      657      623      591      562      544      531 
     525      519      515      511      504      499      495      491 
     490      492      496      503      510      517      519      525 
     540      561      579      594      610      621      627      626 
     619      615      612      607      608      615      622      630 
     643      657      666      669      670      672      673      677 
     683      691      697      697      691      677      661      643 
     626      611      602      599      599      603      608      618 
     631      646      658      670      680      685      687      691 
     699      714      729      742      749      751      757      768 
     778      787      793      800      804      801      795      781 
     769      762      754      749      751      751      745      731 
     706      673      645      618      592      569      550      540 
     537      537      537      537      533      525      522      519 
     521      525      523      525      535      548      556      567 
     579      592      607      621      631      639      646      653 
     660      668      676      680      687      695      693      687 
     675      658      641      627      621      616      603      584 
     564      540      519      503      495      491      492      503 
     525      548      568      585      595      599      599      602 
     611      622      634      645      650      653      661      666 
     668      666      661      658      668      689      711      730 
     741      746      749      747      735      716      697      685 
     684      693      711      724      729      722      712      702 
     693      692      696      702      704      700      692      680 
     665      648      631      619      607      598      592      587 
     577      567      556      545      538      540      546      554 
     568      583      598      612      623      635      652      673 
     696      714      729      741      749      757      768      777 
     783      785      795      814      830      835      837      837 
     839      845      853      866      885      908      931      946 
     953      955      947      928      904      874      846      827 
     812      797      784      774      769      765      762      757 
     753      753      750      749      749      747      741      727 
     707      687      670      652      631      615      599      585 
     576      564      549      535      527      523      523      526 
     533      544      562      583      607      639      676      712 
     753      799      842      878      904      919      930      936 
     938      942      951      962      978      994     1012     1036 
    1055     1062     1065     1058     1044     1030     1015     1000 
     990      982      970      957      938      912      889      868 
     843      822      801      784      772      766      758      742 
     722      700      679      660      653      652      649      648 
     645      641      637      633      629      627      625      621 
     616      604      594      585      571      554      542      531 
     518      502      484      464      444      425      407      388 
     371      356      344      334      326      319      313      306 
     299      297      302      307      310      314      317      319 
     321      319      315      310      298      284      279      279 
     288      305      321      332      340      348      359      373 
     391      406      421      434      446      461      475      483 
     490      499      504      508      511      508      503      496 
     487      476      469      465      464      468      480      498 
     521      544      564      579      589      610      635      656 
     676      700      719      733      747      758      761      756 
     749      747      747      756      770      785      799      811 
     824      846      869      886      901      912      924      936 
     945      945      945      946      946      942      934      928 
     930      931      935      936      934      932      931      926 
     919      912      901      888      878      876      877      885 
     900      916      926      931      934      932      924      911 
     888      861      838      818      797      784      770      754 
     745      739      733      729      723      719      723      731 
     737      741      742      734      722      704      679      653 
     631      612      595      576      558      548      540      534 
     531      535      546      560      576      595      612      626 
     641      654      664      673      684      689      696      704 
     708      710      708      703      697      693      689      687 
     689      700      708      714      727      738      745      753 
     757      760      776      797      816      842      870      891 
     907      926      936      939      942      946      947      946 
     942      936      927      920      915      903      892      891 
     889      886      882      872      861      849      834      819 
     801      780      761      749      735      720      707      688 
     665      653      653      654      656      666      681      696 
     708      711      706      700      696      695      696      695 
     691      691      695      702      710      718      729      742 
     754      761      764      764      757      745      733      723 
     720      723      727      734      743      750      753      749 
     741      731      723      723      731      735      737      741 
     742      739      737      737      735      730      719      708 
     695      673      643      612      581      554      534      518 
     504      488      476      463      440      410      383      361 
     351      349      353      361      369      371      367      360 
     355      349      345      342      340      340      346      356 
     363      369      378      380      382      388      399      410 
     421      432      442      452      459      471      486      500 
     518      544      577      614      649      681      708      723 
     729      726      722      720      719      712      704      699 
     699      700      699      696      696      695      691      687 
     685      689      695      697      699      707      715      715 
     710      703      692      677      662      650      639      634 
     631      631      630      627      625      619      618      623 
     634      650      665      677      687      692      695      697 
     696      697      706      714      719      726      727      724 
     722      715      700      684      670      661      657      657 
     660      664      672      683      696      715      735      756 
     772      781      785      784      774      756      727      702 
     681      660      645      639      634      633      633      631 
     633      638      642      646      656      664      668      672 
     679      685      692      700      714      729      742      758 
     773      784      797      815      832      853      869      880 
     893      903      905      904      904      911      919      927 
     938      945      950      958      967      976      982      981 
     978      970      946      911      877      845      819      805 
     797      785      770      753      729      700      669      645 
     626      611      604      603      599      592      588      584 
     583      585      591      603      618      631      648      660 
     670      683      691      693      700      704      702      695 
     684      675      666      658      652      645      633      619 
     602      587      576      562      549      542      534      522 
     513      498      479      459      437      414      395      386 
     383      383      382      382      382      382      382      378 
     372      367      364      369      380      392      407      425 
     445      468      487      503      517      519      519      522 
     521      518      523      530      535      546      557      572 
     588      600      615      631      646      658      676      700 
     722      742      760      770      787      808      828      850 
     870      880      889      899      901      899      899      899 
     899      899      904      904      901      899      893      886 
     881      872      859      845      828      807      784      765 
     746      726      712      702      689      677      661      638 
     614      591      579      575      572      568      573      585 
     598      603      608      611      607      602      599      596 
     589      585      587      585      584      587      594      602 
     611      619      625      627      630      629      626      626 
     626      623      625      627      633      642      654      666 
     681      692      699      704      710      716      726      735 
     738      735      734      731      723      712      704      695 
