Origin Time       2025/01/13 21:19:00
Lat.              31.8
Long.             131.6
Depth. (km)       30
Mag.              6.9
Station Code      HYGH02
Station Lat.      35.0671
Station Long.     134.4234
Station Height(m) 205
Record Time       2025/01/13 21:21:08
Sampling Freq(Hz) 100Hz
Duration Time(s)  120
Dir.              5
Scale Factor      7845(gal)/8223790
Max. Acc. (gal)   0.447
Last Correction   2025/01/13 21:21:08
Memo.             
[...]
    2184     2182     2181     2180     2184     2195     2201     2205 
    2215     2231     2243     2253     2265     2274     2280     2282 
    2278     2272     2261     2246     2232     2226     2220     2216 
    2211     2212     2219     2222     2226     2238     2250     2259 
    2266     2265     2258     2254     2251     2249     2243     2235 
    2227     2219     2204     2187     2177     2176     2177     2180 
    2180     2178     2177     2177     2176     2174     2173     2169 
    2162     2155     2149     2142     2130     2120     2114     2108 
    2104     2103     2101     2097     2095     2096     2099     2099 
    2095     2088     2083     2080     2080     2080     2085     2093 
    2097     2099     2099     2100     2103     2104     2103     2100 
    2101     2101     2096     2092     2088     2087     2089     2081 
    2070     2061     2050     2034     2023     2018     2011     2006 
    2006     2008     2012     2022     2033     2041     2043     2045 
    2049     2053     2056     2058     2065     2072     2079     2083 
    2087     2089     2092     2092     2093     2096     2099     2104 
    2114     2119     2124     2134     2142     2150     2164     2177 
    2188     2196     2203     2211     2219     2222     2223     2226 
    2230     2231     2228     2223     2219     2222     2224     2220 
    2216     2212     2209     2215     2223     2228     2234     2239 
    2246     2254     2261     2268     2276     2280     2286     2295 
    2299     2303     2307     2307     2305     2304     2301     2299 
    2295     2290     2290     2296     2301     2309     2319     2328 
    2334     2336     2335     2331     2324     2313     2296     2274 
    2253     2230     2205     2188     2173     2161     2147     2138 
    2134     2137     2139     2137     2137     2141     2142     2137 
    2130     2127     2126     2120     2107     2092     2084     2080 
    2077     2073     2068     2060     2054     2049     2039     2034 
    2033     2031     2033     2035     2038     2046     2057     2065 
    2072     2077     2077     2073     2066     2058     2053     2050 
    2047     2047     2046     2046     2046     2045     2046     2052 
    2056     2061     2069     2079     2095     2112     2119     2118 
    2118     2118     2114     2108     2100     2088     2073     2060 
    2050     2042     2034     2027     2022     2023     2029     2030 
    2031     2037     2039     2033     2026     2022     2015     2010 
    2004     1999     1998     2002     2004     2007     2012     2025 
    2035     2042     2049     2054     2054     2057     2062     2061 
    2058     2054     2046     2038     2033     2030     2027     2025 
    2022     2023     2029     2031     2029     2026     2026     2027 
    2025     2025     2034     2046     2057     2065     2074     2087 
    2096     2103     2112     2119     2126     2135     2146     2155 
    2164     2168     2169     2172     2169     2164     2162     2165 
    2173     2174     2169     2166     2164     2160     2161     2165 
    2172     2181     2191     2200     2209     2223     2235     2243 
    2251     2263     2272     2277     2285     2295     2300     2299 
    2297     2299     2296     2289     2285     2282     2282     2285 
    2290     2297     2304     2313     2323     2334     2342     2350 
    2361     2371     2380     2390     2401     2408     2412     2416 
    2420     2421     2420     2416     2411     2403     2392     2378 
    2363     2357     2354     2343     2332     2334     2344     2349 
    2350     2351     2351     2347     2338     2328     2315     2295 
    2278     2266     2254     2242     2230     2218     2208     2200 
    2192     2191     2191     2188     2188     2187     2180     2178 
    2182     2185     2187     2191     2199     2209     2223     2234 
    2245     2257     2269     2278     2286     2290     2290     2292 
    2295     2293     2286     2282     2278     2272     2269     2268 
    2262     2250     2241     2235     2232     2234     2231     2222 
    2214     2207     2196     2181     2168     2155     2145     2135 
    2128     2126     2126     2127     2128     2128     2123     2114 
    2101     2091     2085     2083     2080     2076     2072     2072 
    2077     2083     2087     2085     2081     2083     2087     2093 
    2101     2112     2128     2145     2158     2173     2184     2192 
    2199     2197     2188     2180     2176     2172     2169     2170 
    2176     2180     2181     2187     2197     2214     2230     2245 
    2259     2273     2285     2297     2305     2307     2305     2307 
    2305     2304     2305     2307     2308     2312     2316     2320 
    2320     2320     2317     2312     2303     2289     2272     2251 
    2226     2197     2168     2138     2110     2088     2065     2041 
    2022     2002     1977     1958     1938     1917     1903     1894 
    1885     1876     1867     1858     1853     1846     1837     1829 
    1825     1822     1823     1827     1831     1836     1838     1845 
    1854     1865     1879     1890     1899     1914     1926     1933 
    1938     1945     1950     1952     1949     1949     1950     1948 
    1945     1945     1948     1949     1952     1952     1949     1946 
    1945     1942     1941     1938     1937     1937     1934     1930 
    1925     1922     1923     1929     1933     1938     1948     1960 
    1975     1988     2003     2019     2037     2050     2064     2076 
    2091     2104     2114     2119     2124     2128     2130     2128 
    2128     2128     2124     2118     2108     2096     2081     2065 
    2047     2029     2010     1991     1973     1957     1946     1938 
    1931     1919     1906     1894     1883     1869     1852     1836 
    1826     1815     1807     1807     1809     1810     1815     1822 
    1834     1844     1854     1868     1881     1898     1917     1935 
    1952     1964     1977     1991     1999     2007     2022     2035 
    2047     2064     2077     2091     2106     2120     2141     2162 
    2181     2201     2220     2231     2241     2249     2253     2258 
    2262     2261     2258     2258     2258     2254     2249     2250 
    2251     2250     2251     2251     2246     2239     2234     2230 
    2224     2220     2216     2212     2208     2204     2201     2195 
    2188     2187     2189     2185     2181     2181     2178     2170 
    2169     2172     2173     2174     2177     2182     2187     2188 
    2191     2188     2188     2189     2191     2196     2205     2209 
    2215     2218     2218     2219     2220     2215     2208     2205 
    2203     2199     2196     2197     2197     2200     2203     2204 
    2208     2214     2218     2218     2218     2216     2215     2216 
    2214     2212     2211     2205     2200     2195     2192     2196 
    2201     2208     2216     2222     2226     2232     2234     2239 
    2245     2249     2249     2246     2242     2236     2227     2211 
    2196     2185     2170     2153     2139     2128     2118     2114 
    2112     2112     2115     2118     2120     2123     2120     2122 
    2127     2133     2141     2149     2153     2154     2160     2161 
    2157     2151     2147     2135     2124     2114     2100     2089 
    2083     2070     2058     2047     2038     2027     2022     2020 
    2020     2016     2014     2016     2020     2030     2039     2043 
    2043     2041     2045     2050     2061     2076     2093     2106 
    2118     2135     2151     2160     2164     2168     2173     2178 
    2185     2191     2196     2199     2200     2199     2195     2192 
    2185     2174     2161     2147     2133     2116     2099     2084 
    2068     2052     2034     2018     2008     2006     2002     1996 
    1998     2002     2006     2011     2019     2031     2039     2042 
    2052     2064     2072     2083     2097     2111     2130     2149 
    2166     2188     2212     2236     2257     2274     2288     2300 
    2312     2323     2327     2328     2332     2331     2330     2334 
    2335     2332     2334     2334     2334     2335     2334     2330 
    2324     2319     2313     2307     2295     2285     2276     2266 
    2261     2254     2243     2234     2227     2224     2228     2234 
    2238     2241     2246     2251     2261     2270     2277     2282 
    2289     2295     2297     2300     2304     2311     2316     2316 
    2315     2316     2316     2312     2307     2303     2300     2296 
    2292     2290     2293     2296     2303     2309     2317     2328 
    2335     2338     2342     2346     2347     2346     2339     2327 
    2319     2313     2305     2295     2288     2278     2269     2262 
    2249     2228     2212     2199     2182     2172     2161     2153 
    2147     2137     2130     2126     2118     2114     2110     2104 
    2099     2095     2093     2091     2087     2088     2088     2085 
    2081     2076     2070     2069     2065     2057     2049     2041 
    2033     2026     2016     2004     1999     2000     2002     2004 
    2015     2026     2035     2052     2070     2091     2112     2133 
    2146     2155     2165     2169     2166     2162     2157     2147 
    2138     2126     2114     2103     2091     2073     2056     2043 
    2029     2015     2006     2000     1998     1996     1998     1999 
    1996     1991     1988     1991     1995     1996     1999     2004 
    2004     2003     2000     1995     1991     1984     1976     1969 
    1965     1965     1965     1968     1972     1980     1988     2002 
    2015     2029     2043     2054     2060     2064     2069     2068 
    2066     2070     2074     2074     2076     2076     2072     2069 
    2066     2056     2042     2026     2006     1985     1968     1948 
    1929     1912     1899     1885     1875     1865     1856     1846 
    1838     1829     1821     1815     1809     1800     1794     1788 
    1788     1791     1799     1810     1821     1838     1860     1883 
    1904     1929     1954     1979     2002     2020     2041     2062 
    2087     2111     2134     2158     2184     2208     2228     2247 
    2266     2282     2293     2307     2317     2320     2322     2326 
    2330     2336     2346     2351     2355     2361     2369     2374 
    2380     2388     2393     2392     2390     2389     2382     2371 
    2361     2344     2322     2296     2272     2247     2223     2201 
    2181     2161     2142     2123     2104     2088     2073     2057 
    2046     2037     2030     2030     2030     2030     2034     2039 
    2046     2054     2062     2072     2088     2111     2130     2143 
    2161     2184     2207     2234     2259     2282     2308     2336 
    2361     2378     2394     2411     2417     2416     2409     2394 
    2374     2354     2331     2304     2282     2265     2246     2228 
    2216     2209     2201     2199     2199     2196     2196     2197 
    2199     2204     2209     2212     2220     2224     2227     2236 
    2247     2257     2268     2277     2286     2293     2297     2299 
    2303     2311     2316     2320     2328     2336     2346     2353 
    2354     2355     2353     2346     2339     2332     2324     2313 
    2300     2288     2274     2262     2253     2236     2223     2212 
    2201     2191     2180     2172     2165     2161     2157     2151 
    2149     2145     2141     2135     2130     2124     2122     2124 
    2130     2135     2141     2149     2158     2172     2189     2209 
    2227     2246     2263     2278     2295     2311     2323     2335 
    2342     2344     2349     2351     2346     2339     2331     2317 
    2300     2280     2257     2236     2209     2182     2161     2135 
    2110     2091     2074     2061     2047     2034     2022     2011 
    1999     1987     1979     1969     1953     1941     1931     1923 
    1918     1914     1914     1918     1922     1929     1937     1946 
    1954     1962     1966     1968     1968     1969     1968     1964 
    1966     1973     1976     1976     1983     1993     2012     2034 
    2058     2084     2107     2138     2173     2204     2235     2266 
    2296     2323     2344     2365     2386     2404     2416     2430 
    2443     2452     2458     2465     2474     2479     2485     2494 
    2501     2498     2496     2494     2490     2485     2479     2475 
    2470     2461     2450     2435     2413     2389     2366     2340 
    2309     2278     2247     2211     2173     2142     2116     2088 
    2061     2037     2011     1984     1960     1938     1919     1902 
    1891     1887     1884     1884     1888     1892     1896     1902 
    1907     1912     1914     1918     1922     1926     1933     1941 
    1946     1948     1952     1956     1954     1950     1944     1934 
    1929     1919     1904     1891     1881     1871     1863     1857 
    1853     1852     1849     1846     1848     1852     1860     1869 
    1873     1877     1884     1888     1894     1903     1908     1914 
    1925     1938     1950     1965     1984     2007     2030     2054 
    2077     2097     2120     2146     2169     2187     2207     2231 
    2257     2281     2307     2335     2361     2385     2407     2427 
    2446     2469     2490     2509     2528     2548     2567     2582 
    2597     2608     2614     2616     2616     2610     2594     2579 
    2563     2546     2529     2517     2504     2488     2467     2451 
    2439     2424     2409     2393     2376     2362     2351     2338 
    2322     2308     2296     2286     2282     2278     2274     2272 
    2278     2284     2288     2290     2295     2296     2296     2300 
    2303     2303     2303     2299     2290     2281     2268     2251 
    2230     2205     2181     2151     2123     2097     2070     2043 
    2019     1995     1977     1964     1950     1938     1929     1923 
    1922     1922     1922     1925     1931     1939     1946     1957 
    1973     1991     2011     2033     2053     2074     2093     2108 
    2123     2138     2153     2165     2180     2193     2205     2220 
    2232     2242     2250     2258     2263     2266     2263     2258 
    2257     2253     2249     2246     2238     2228     2219     2205 
    2191     2176     2160     2143     2122     2101     2084     2064 
    2041     2018     1998     1976     1954     1935     1915     1896 
    1877     1857     1838     1819     1800     1780     1759     1740 
    1722     1709     1703     1701     1698     1699     1705     1711 
    1719     1725     1732     1740     1752     1764     1775     1783 
    1795     1809     1822     1837     1852     1865     1881     1899 
    1917     1935     1953     1968     1983     1993     2002     2011 
    2016     2018     2018     2015     2014     2012     2008     2006 
    2000     1989     1981     1976     1969     1964     1960     1954 
    1949     1948     1949     1949     1948     1952     1960     1965 
    1972     1987     2002     2011     2026     2043     2064     2087 
    2108     2128     2150     2173     2195     2212     2230     2247 
    2259     2270     2282     2293     2304     2315     2323     2326 
    2324     2323     2316     2307     2299     2290     2281     2272 
    2262     2253     2242     2234     2228     2223     2216     2209 
    2205     2201     2197     2196     2199     2201     2204     2211 
    2223     2234     2246     2261     2276     2286     2301     2323 
    2344     2363     2381     2397     2411     2421     2431     2440 
    2451     2457     2458     2461     2461     2461     2461     2462 
    2461     2461     2463     2467     2474     2477     2474     2474 
    2475     2473     2469     2462     2452     2443     2431     2415 
    2400     2388     2370     2349     2331     2312     2290     2269 
    2251     2235     2219     2205     2196     2184     2170     2161 
    2151     2139     2124     2111     2101     2089     2073     2064 
    2052     2035     2026     2014     2003     1995     1988     1984 
    1983     1979     1976     1971     1965     1960     1954     1950 
    1946     1941     1942     1944     1946     1953     1956     1960 
    1969     1976     1984     1993     2000     2008     2019     2027 
    2037     2050     2064     2076     2089     2104     2119     2135 
    2150     2164     2177     2192     2203     2212     2222     2231 
    2239     2245     2247     2249     2251     2251     2250     2249 
    2243     2239     2234     2230     2224     2223     2222     2216 
    2209     2204     2197     2191     2184     2176     2170     2170 
    2169     2166     2162     2161     2155     2149     2143     2138 
    2126     2112     2099     2087     2073     2060     2049     2043 
    2035     2030     2027     2023     2016     2015     2011     2004 
    2004     2007     2007     2008     2008     2010     2012     2019 
    2023     2030     2038     2045     2054     2065     2072     2080 
    2091     2099     2110     2120     2130     2143     2162     2181 
    2197     2215     2234     2255     2277     2290     2304     2319 
    2332     2342     2349     2350     2351     2355     2357     2351 
    2350     2353     2354     2350     2347     2346     2342     2338 
    2332     2327     2326     2323     2319     2313     2307     2299 
    2289     2281     2276     2270     2259     2251     2247     2241 
    2234     2226     2216     2204     2193     2182     2172     2164 
    2155     2143     2130     2123     2119     2112     2108     2110 
    2114     2120     2130     2138     2149     2161     2170     2185 
    2199     2208     2215     2224     2228     2231     2232     2232 
    2228     2224     2219     2209     2197     2184     2170     2155 
    2139     2127     2118     2112     2107     2104     2103     2101 
    2104     2108     2112     2118     2124     2131     2142     2154 
    2166     2180     2195     2208     2223     2236     2251     2266 
    2278     2289     2304     2315     2322     2328     2336     2346 
    2355     2361     2366     2371     2371     2370     2370     2367 
    2362     2354     2347     2340     2331     2327     2322     2315 
    2311     2308     2304     2304     2304     2303     2301     2304 
    2303     2299     2297     2297     2296     2295     2289     2280 
    2269     2259     2257     2257     2251     2247     2245     2246 
    2250     2253     2255     2258     2261     2262     2261     2261 
    2265     2265     2266     2270     2269     2265     2259     2254 
    2250     2243     2236     2228     2214     2201     2189     2176 
    2160     2142     2124     2106     2084     2065     2046     2029 
    2011     1992     1975     1961     1952     1946     1942     1937 
    1934     1934     1935     1939     1948     1956     1964     1975 
    1983     1993     2008     2022     2037     2056     2072     2087 
    2106     2122     2133     2146     2157     2162     2168     2173 
    2176     2180     2184     2187     2188     2191     2191     2192 
    2195     2191     2185     2182     2177     2170     2166     2161 
