Origin Time       2025/01/13 21:19:00
Lat.              31.8
Long.             131.6
Depth. (km)       30
Mag.              6.9
Station Code      HYGH06
Station Lat.      34.7935
Station Long.     134.4792
Station Height(m) -135
Record Time       2025/01/13 21:21:31
Sampling Freq(Hz) 100Hz
Duration Time(s)  120
Dir.              3
Scale Factor      2942(gal)/8224139
Max. Acc. (gal)   0.331
Last Correction   2025/01/13 21:21:32
Memo.             
[...]
 -102706  -102710  -102717  -102724  -102726  -102720  -102712  -102705 
 -102698  -102690  -102682  -102671  -102663  -102663  -102660  -102654 
 -102652  -102658  -102659  -102660  -102663  -102663  -102662  -102662 
 -102668  -102683  -102691  -102698  -102702  -102697  -102689  -102676 
 -102664  -102656  -102654  -102655  -102654  -102644  -102637  -102633 
 -102624  -102620  -102621  -102616  -102609  -102605  -102600  -102593 
 -102587  -102585  -102587  -102586  -102586  -102597  -102609  -102613 
 -102620  -102629  -102633  -102635  -102645  -102662  -102667  -102668 
 -102668  -102658  -102648  -102647  -102643  -102637  -102639  -102640 
 -102639  -102629  -102624  -102629  -102629  -102628  -102635  -102641 
 -102647  -102662  -102671  -102678  -102691  -102713  -102735  -102755 
 -102771  -102789  -102803  -102813  -102826  -102847  -102861  -102875 
 -102892  -102906  -102911  -102911  -102910  -102910  -102901  -102890 
 -102880  -102861  -102837  -102820  -102801  -102778  -102757  -102736 
 -102718  -102701  -102674  -102662  -102662  -102648  -102632  -102621 
 -102609  -102600  -102600  -102597  -102593  -102591  -102586  -102583 
 -102583  -102586  -102586  -102590  -102595  -102590  -102589  -102606 
 -102624  -102631  -102632  -102632  -102633  -102627  -102618  -102612 
 -102600  -102585  -102563  -102533  -102512  -102500  -102487  -102475 
 -102460  -102443  -102425  -102408  -102386  -102365  -102343  -102323 
 -102303  -102286  -102269  -102246  -102216  -102190  -102165  -102138 
 -102124  -102119  -102107  -102100  -102101  -102100  -102097  -102089 
 -102085  -102087  -102089  -102091  -102093  -102104  -102114  -102114 
 -102119  -102130  -102134  -102146  -102168  -102180  -102186  -102197 
 -102208  -102213  -102219  -102223  -102223  -102231  -102244  -102251 
 -102263  -102280  -102285  -102288  -102303  -102319  -102338  -102361 
 -102379  -102401  -102429  -102450  -102454  -102458  -102473  -102483 
 -102496  -102519  -102535  -102543  -102551  -102554  -102560  -102564 
 -102568  -102589  -102610  -102629  -102651  -102662  -102672  -102697 
 -102709  -102714  -102724  -102728  -102728  -102722  -102717  -102717 
 -102712  -102706  -102703  -102698  -102689  -102675  -102660  -102647 
 -102633  -102627  -102625  -102618  -102610  -102606  -102605  -102601 
 -102597  -102597  -102597  -102601  -102608  -102617  -102631  -102649 
 -102671  -102687  -102699  -102710  -102725  -102741  -102757  -102770 
 -102782  -102799  -102816  -102822  -102830  -102836  -102833  -102830 
 -102821  -102818  -102821  -102811  -102801  -102795  -102780  -102766 
 -102760  -102760  -102760  -102751  -102739  -102726  -102708  -102689 
 -102670  -102655  -102654  -102647  -102624  -102612  -102609  -102591 
 -102579  -102577  -102564  -102548  -102533  -102521  -102508  -102494 
 -102486  -102475  -102460  -102450  -102439  -102433  -102428  -102423 
 -102429  -102439  -102439  -102439  -102447  -102446  -102442  -102454 
 -102466  -102470  -102478  -102492  -102510  -102529  -102540  -102563 
 -102595  -102613  -102629  -102652  -102672  -102690  -102708  -102732 
 -102757  -102776  -102799  -102818  -102828  -102841  -102857  -102865 
 -102879  -102901  -102917  -102925  -102940  -102956  -102963  -102973 
 -102992  -103013  -103030  -103046  -103068  -103091  -103107  -103122 
 -103140  -103149  -103157  -103167  -103171  -103172  -103175  -103177 
 -103173  -103157  -103138  -103119  -103091  -103060  -103030  -102995 
 -102964  -102936  -102902  -102867  -102836  -102807  -102783  -102757 
 -102733  -102710  -102686  -102660  -102633  -102612  -102594  -102571 
 -102548  -102528  -102508  -102490  -102478  -102469  -102462  -102459 
 -102458  -102456  -102455  -102463  -102485  -102509  -102524  -102543 
 -102568  -102583  -102594  -102610  -102622  -102631  -102632  -102627 
 -102631  -102640  -102643  -102643  -102636  -102625  -102613  -102598 
 -102587  -102574  -102559  -102556  -102555  -102546  -102537  -102536 
 -102535  -102524  -102519  -102527  -102535  -102540  -102550  -102563 
 -102575  -102586  -102589  -102589  -102606  -102624  -102629  -102636 
 -102640  -102641  -102645  -102641  -102633  -102620  -102605  -102591 
 -102564  -102532  -102500  -102460  -102420  -102385  -102355  -102327 
 -102296  -102270  -102250  -102227  -102203  -102189  -102184  -102177 
 -102173  -102169  -102159  -102157  -102162  -102170  -102185  -102205 
 -102220  -102235  -102258  -102282  -102304  -102331  -102366  -102400 
 -102425  -102458  -102496  -102527  -102560  -102600  -102631  -102663 
 -102705  -102745  -102783  -102818  -102849  -102879  -102903  -102925 
 -102951  -102968  -102986  -103009  -103019  -103025  -103041  -103048 
 -103042  -103036  -103025  -103011  -102999  -102986  -102973  -102960 
 -102938  -102918  -102902  -102883  -102865  -102845  -102824  -102803 
 -102784  -102771  -102764  -102753  -102748  -102747  -102740  -102739 
 -102740  -102732  -102732  -102735  -102728  -102732  -102740  -102736 
 -102733  -102730  -102718  -102703  -102689  -102668  -102645  -102625 
 -102598  -102571  -102537  -102497  -102462  -102417  -102370  -102338 
 -102301  -102255  -102219  -102185  -102143  -102104  -102066  -102026 
 -101991  -101961  -101931  -101904  -101876  -101852  -101835  -101825 
 -101811  -101804  -101803  -101811  -101826  -101834  -101844  -101864 
 -101892  -101926  -101961  -101995  -102024  -102051  -102082  -102112 
 -102141  -102178  -102213  -102240  -102271  -102304  -102331  -102361 
 -102393  -102424  -102452  -102475  -102498  -102524  -102547  -102555 
 -102559  -102573  -102585  -102589  -102591  -102600  -102612  -102617 
 -102609  -102605  -102609  -102606  -102602  -102601  -102591  -102587 
 -102581  -102567  -102559  -102554  -102555  -102558  -102547  -102531 
 -102520  -102519  -102519  -102519  -102520  -102529  -102539  -102544 
 -102555  -102579  -102601  -102617  -102640  -102666  -102686  -102710 
 -102740  -102767  -102791  -102820  -102845  -102857  -102872  -102894 
 -102902  -102903  -102913  -102914  -102910  -102907  -102901  -102897 
 -102891  -102887  -102891  -102898  -102906  -102911  -102914  -102919 
 -102921  -102928  -102936  -102933  -102936  -102938  -102933  -102936 
 -102937  -102930  -102925  -102917  -102905  -102894  -102883  -102875 
 -102875  -102874  -102864  -102856  -102851  -102848  -102851  -102848 
 -102845  -102849  -102848  -102848  -102860  -102867  -102874  -102882 
 -102884  -102895  -102902  -102906  -102917  -102925  -102934  -102953 
 -102963  -102952  -102944  -102951  -102955  -102957  -102964  -102963 
 -102960  -102964  -102961  -102955  -102955  -102956  -102951  -102940 
 -102933  -102933  -102936  -102936  -102938  -102941  -102940  -102944 
 -102952  -102956  -102953  -102952  -102952  -102945  -102940  -102944 
 -102945  -102944  -102948  -102949  -102948  -102948  -102948  -102948 
 -102949  -102949  -102949  -102941  -102929  -102924  -102917  -102910 
 -102903  -102899  -102902  -102895  -102882  -102878  -102875  -102867 
 -102863  -102859  -102848  -102837  -102832  -102822  -102813  -102803 
 -102787  -102774  -102764  -102747  -102726  -102712  -102690  -102663 
 -102637  -102612  -102585  -102551  -102517  -102494  -102471  -102438 
 -102412  -102393  -102365  -102340  -102316  -102280  -102243  -102211 
 -102178  -102153  -102122  -102088  -102064  -102039  -102016  -101996 
 -101980  -101977  -101969  -101950  -101946  -101939  -101923  -101919 
 -101912  -101903  -101903  -101902  -101903  -101906  -101900  -101900 
 -101904  -101906  -101918  -101934  -101941  -101954  -101974  -101989 
 -102004  -102026  -102046  -102061  -102073  -102091  -102111  -102131 
 -102153  -102170  -102184  -102196  -102204  -102215  -102230  -102238 
 -102251  -102274  -102296  -102320  -102343  -102362  -102382  -102405 
 -102432  -102458  -102477  -102485  -102500  -102516  -102516  -102520 
 -102532  -102537  -102539  -102541  -102544  -102546  -102547  -102552 
 -102564  -102577  -102587  -102600  -102608  -102606  -102604  -102604 
 -102604  -102604  -102609  -102614  -102614  -102616  -102621  -102617 
 -102601  -102590  -102583  -102577  -102578  -102578  -102574  -102575 
 -102581  -102590  -102605  -102621  -102637  -102651  -102666  -102690 
 -102714  -102730  -102753  -102778  -102798  -102826  -102857  -102880 
 -102902  -102934  -102961  -102982  -103007  -103038  -103068  -103096 
 -103127  -103150  -103158  -103164  -103176  -103181  -103189  -103206 
 -103208  -103204  -103207  -103206  -103199  -103192  -103196  -103208 
 -103206  -103196  -103194  -103195  -103194  -103191  -103200  -103214 
 -103211  -103210  -103222  -103223  -103219  -103221  -103212  -103203 
 -103198  -103189  -103173  -103154  -103131  -103104  -103077  -103053 
 -103022  -102986  -102955  -102924  -102883  -102847  -102817  -102778 
 -102741  -102708  -102670  -102628  -102586  -102550  -102520  -102489 
 -102458  -102427  -102398  -102371  -102346  -102325  -102307  -102293 
 -102284  -102274  -102271  -102278  -102285  -102294  -102304  -102312 
 -102325  -102338  -102350  -102367  -102389  -102411  -102431  -102444 
 -102460  -102486  -102514  -102541  -102566  -102593  -102621  -102648 
 -102676  -102705  -102728  -102751  -102771  -102790  -102807  -102818 
 -102821  -102828  -102825  -102816  -102816  -102814  -102805  -102799 
 -102798  -102794  -102787  -102780  -102776  -102770  -102763  -102760 
 -102762  -102763  -102759  -102762  -102770  -102766  -102759  -102760 
 -102763  -102762  -102759  -102749  -102743  -102740  -102733  -102721 
 -102710  -102697  -102679  -102667  -102658  -102645  -102643  -102644 
 -102641  -102647  -102654  -102649  -102652  -102660  -102658  -102662 
 -102672  -102675  -102682  -102693  -102705  -102722  -102737  -102745 
 -102753  -102760  -102763  -102768  -102770  -102767  -102768  -102771 
 -102775  -102786  -102794  -102791  -102787  -102784  -102770  -102753 
 -102744  -102728  -102710  -102693  -102668  -102639  -102613  -102586 
 -102550  -102517  -102487  -102444  -102405  -102366  -102323  -102284 
 -102239  -102199  -102170  -102134  -102100  -102070  -102037  -102014 
 -101995  -101973  -101960  -101941  -101925  -101920  -101915  -101911 
 -101916  -101925  -101935  -101945  -101954  -101972  -101993  -102018 
 -102049  -102087  -102120  -102146  -102174  -102205  -102224  -102235 
 -102258  -102280  -102286  -102293  -102298  -102296  -102293  -102292 
 -102286  -102281  -102280  -102269  -102258  -102257  -102251  -102238 
 -102228  -102231  -102231  -102224  -102226  -102226  -102220  -102226 
 -102227  -102224  -102232  -102238  -102232  -102234  -102239  -102236 
 -102235  -102235  -102231  -102227  -102220  -102211  -102201  -102190 
 -102180  -102170  -102162  -102158  -102153  -102147  -102147  -102149 
 -102151  -102159  -102174  -102188  -102199  -102215  -102239  -102258 
 -102277  -102305  -102343  -102377  -102404  -102433  -102463  -102493 
 -102532  -102570  -102600  -102632  -102668  -102702  -102729  -102759 
 -102799  -102843  -102876  -102909  -102949  -102986  -103019  -103050 
 -103077  -103104  -103135  -103167  -103194  -103216  -103235  -103260 
 -103285  -103310  -103337  -103361  -103383  -103408  -103432  -103450 
 -103457  -103461  -103470  -103472  -103474  -103482  -103481  -103465 
 -103447  -103432  -103410  -103391  -103381  -103364  -103343  -103322 
 -103296  -103273  -103254  -103241  -103235  -103219  -103202  -103194 
 -103185  -103175  -103168  -103161  -103153  -103152  -103153  -103149 
 -103141  -103133  -103131  -103130  -103130  -103140  -103149  -103152 
 -103153  -103153  -103153  -103153  -103149  -103140  -103130  -103118 
 -103094  -103064  -103044  -103017  -102979  -102948  -102917  -102878 
 -102838  -102802  -102760  -102712  -102668  -102627  -102586  -102551 
 -102521  -102485  -102448  -102416  -102374  -102330  -102297  -102262 
 -102224  -102193  -102158  -102126  -102095  -102060  -102019  -101979 
 -101949  -101929  -101906  -101883  -101860  -101838  -101819  -101806 
 -101795  -101785  -101777  -101768  -101764  -101765  -101760  -101760 
 -101772  -101780  -101796  -101825  -101844  -101865  -101889  -101914 
 -101938  -101954  -101974  -102001  -102023  -102041  -102055  -102068 
 -102080  -102089  -102093  -102099  -102109  -102122  -102130  -102134 
 -102135  -102145  -102159  -102170  -102181  -102189  -102193  -102199 
 -102207  -102215  -102227  -102238  -102247  -102262  -102285  -102308 
 -102324  -102340  -102362  -102386  -102402  -102423  -102450  -102473 
 -102494  -102519  -102540  -102563  -102591  -102621  -102649  -102674 
 -102699  -102732  -102766  -102798  -102836  -102875  -102905  -102929 
 -102963  -103000  -103029  -103050  -103080  -103103  -103111  -103125 
 -103134  -103134  -103140  -103141  -103135  -103135  -103130  -103115 
 -103108  -103103  -103091  -103084  -103083  -103076  -103064  -103052 
 -103041  -103036  -103033  -103018  -103007  -103003  -102986  -102964 
 -102949  -102926  -102902  -102892  -102883  -102852  -102820  -102803 
 -102789  -102763  -102735  -102708  -102683  -102659  -102635  -102614 
 -102591  -102571  -102552  -102539  -102536  -102536  -102532  -102529 
 -102541  -102556  -102560  -102573  -102594  -102608  -102637  -102676 
 -102699  -102728  -102766  -102794  -102822  -102861  -102902  -102937 
 -102975  -103017  -103060  -103095  -103129  -103175  -103225  -103261 
 -103299  -103341  -103372  -103397  -103428  -103455  -103476  -103500 
 -103520  -103527  -103530  -103536  -103539  -103535  -103522  -103500 
 -103476  -103458  -103432  -103392  -103357  -103323  -103280  -103237 
 -103196  -103153  -103110  -103064  -103018  -102976  -102938  -102902 
 -102871  -102836  -102802  -102772  -102735  -102698  -102671  -102635 
 -102595  -102567  -102540  -102504  -102471  -102436  -102389  -102351 
 -102316  -102267  -102219  -102180  -102142  -102104  -102068  -102030 
 -101991  -101957  -101929  -101902  -101872  -101846  -101823  -101803 
 -101785  -101771  -101760  -101745  -101734  -101731  -101730  -101729 
 -101736  -101740  -101746  -101757  -101761  -101768  -101784  -101800 
 -101817  -101835  -101856  -101881  -101912  -101938  -101966  -102003 
 -102038  -102078  -102115  -102149  -102192  -102232  -102269  -102307 
 -102343  -102382  -102419  -102450  -102483  -102520  -102550  -102579 
 -102608  -102640  -102675  -102706  -102739  -102775  -102811  -102849 
 -102887  -102926  -102967  -103005  -103038  -103075  -103110  -103144 
 -103176  -103204  -103230  -103257  -103277  -103293  -103307  -103315 
 -103318  -103318  -103315  -103311  -103303  -103289  -103270  -103248 
 -103214  -103176  -103141  -103110  -103073  -103036  -103003  -102963 
 -102917  -102880  -102845  -102805  -102766  -102725  -102682  -102647 
 -102618  -102585  -102550  -102524  -102500  -102474  -102455  -102438 
 -102412  -102389  -102375  -102370  -102362  -102357  -102355  -102352 
 -102350  -102346  -102343  -102344  -102339  -102330  -102324  -102321 
 -102320  -102315  -102313  -102315  -102316  -102317  -102320  -102324 
 -102330  -102342  -102366  -102386  -102397  -102419  -102443  -102459 
 -102489  -102519  -102535  -102559  -102587  -102613  -102640  -102656 
 -102675  -102697  -102713  -102736  -102751  -102749  -102762  -102770 
 -102762  -102753  -102748  -102740  -102726  -102708  -102687  -102666 
 -102645  -102620  -102590  -102567  -102541  -102506  -102471  -102440 
 -102411  -102378  -102347  -102316  -102281  -102249  -102220  -102190 
 -102161  -102136  -102114  -102096  -102085  -102078  -102073  -102078 
 -102096  -102114  -102134  -102155  -102180  -102217  -102261  -102300 
 -102348  -102394  -102436  -102482  -102527  -102575  -102625  -102667 
 -102714  -102757  -102789  -102822  -102853  -102872  -102895  -102914 
 -102924  -102940  -102953  -102951  -102949  -102949  -102938  -102924 
 -102905  -102883  -102874  -102860  -102838  -102824  -102809  -102790 
 -102779  -102774  -102764  -102760  -102762  -102759  -102753  -102747 
 -102743  -102739  -102735  -102737  -102740  -102743  -102748  -102749 
 -102747  -102747  -102756  -102767  -102772  -102776  -102787  -102795 
 -102798  -102805  -102811  -102820  -102834  -102841  -102848  -102860 
 -102870  -102882  -102897  -102906  -102914  -102926  -102940  -102949 
 -102961  -102976  -102988  -102995  -103002  -103013  -103017  -103017 
 -103022  -103025  -103019  -103017  -103014  -103007  -102998  -102987 
 -102976  -102963  -102945  -102933  -102929  -102921  -102906  -102892 
 -102886  -102876  -102864  -102859  -102857  -102845  -102829  -102824 
 -102814  -102805  -102799  -102789  -102776  -102762  -102740  -102725 
 -102709  -102686  -102670  -102659  -102640  -102616  -102601  -102591 
 -102577  -102563  -102555  -102546  -102535  -102524  -102512  -102504 
 -102498  -102489  -102479  -102475  -102470  -102462  -102455  -102452 
 -102448  -102433  -102424  -102425  -102415  -102400  -102396  -102394 
 -102384  -102371  -102363  -102358  -102357  -102354  -102342  -102334 
 -102330  -102324  -102319  -102313  -102309  -102309  -102309  -102305 
 -102301  -102307  -102307  -102305  -102312  -102313  -102308  -102309 
 -102311  -102312  -102315  -102327  -102338  -102336  -102338  -102332 
 -102328  -102338  -102343  -102342  -102346  -102344  -102346  -102348 
 -102350  -102357  -102362  -102370  -102381  -102385  -102392  -102397 
 -102396  -102401  -102409  -102405  -102401  -102398  -102392  -102381 
 -102371  -102365  -102355  -102343  -102335  -102327  -102317  -102312 
 -102312  -102307  -102301  -102304  -102304  -102303  -102309  -102324 
 -102336  -102348  -102361  -102375  -102394  -102412  -102424  -102442 
 -102465  -102481  -102496  -102517  -102535  -102544  -102556  -102564 
 -102570  -102581  -102587  -102593  -102602  -102606  -102606  -102609 
 -102612  -102616  -102620  -102625  -102627  -102627  -102636  -102644 
 -102644  -102648  -102658  -102667  -102679  -102687  -102693  -102701 
 -102699  -102697  -102697  -102694  -102693  -102693  -102689  -102689 
 -102683  -102670  -102671  -102675  -102668  -102670  -102682  -102685 
 -102687  -102694  -102697  -102703  -102716  -102718  -102718  -102729 
 -102737  -102741  -102751  -102764  -102770  -102771  -102780  -102790 
 -102791  -102798  -102816  -102825  -102824  -102834  -102853  -102861 
 -102872  -102894  -102914  -102929  -102941  -102956  -102971  -102980 
 -102990  -103006  -103022  -103032  -103041  -103046  -103044  -103041 
 -103034  -103023  -103015  -103003  -102983  -102961  -102936  -102909 
 -102882  -102852  -102825  -102795  -102763  -102737  -102710  -102683 
 -102664  -102641  -102617  -102598  -102585  -102573  -102560  -102546 
 -102535  -102535  -102532  -102524  -102523  -102521  -102517  -102517 
 -102514  -102510  -102516  -102519  -102519  -102527  -102535  -102537 
 -102543  -102554  -102560  -102560  -102564  -102577  -102582  -102586 
 -102597  -102606  -102620  -102639  -102655  -102671  -102691  -102712 
 -102733  -102753  -102772  -102795  -102810  -102828  -102852  -102867 
 -102882  -102907  -102926  -102940  -102959  -102973  -102987  -102999 
 -103007  -103019  -103034  -103041  -103044  -103049  -103052  -103046 
 -103033  -103017  -103003  -102991  -102973  -102951  -102926  -102903 
 -102875  -102841  -102810  -102782  -102752  -102724  -102699  -102675 
