Origin Time       2025/01/13 21:19:00
Lat.              31.8
Long.             131.6
Depth. (km)       30
Mag.              6.9
Station Code      HYGH03
Station Lat.      35.2193
Station Long.     134.5237
Station Height(m) 265
Record Time       2025/01/13 21:21:43
Sampling Freq(Hz) 100Hz
Duration Time(s)  120
Dir.              2
Scale Factor      2942(gal)/8224139
Max. Acc. (gal)   0.261
Last Correction   2025/01/13 21:21:44
Memo.             
[...]
  125253   125263   125266   125265   125263   125258   125259   125262 
  125263   125259   125253   125243   125236   125234   125228   125219 
  125211   125208   125204   125196   125196   125199   125201   125207 
  125213   125215   125208   125200   125189   125180   125178   125180 
  125176   125172   125167   125159   125153   125149   125147   125145 
  125140   125135   125130   125126   125123   125126   125134   125135 
  125131   125130   125132   125135   125138   125138   125138   125145 
  125153   125158   125165   125170   125173   125176   125178   125177 
  125181   125186   125189   125186   125177   125167   125161   125158 
  125158   125161   125166   125172   125173   125173   125173   125177 
  125181   125186   125192   125199   125203   125201   125200   125201 
  125203   125205   125212   125221   125228   125227   125226   125224 
  125224   125227   125226   125220   125213   125205   125199   125196 
  125197   125200   125205   125211   125215   125216   125219   125220 
  125220   125224   125227   125224   125216   125205   125192   125184 
  125181   125173   125162   125153   125150   125151   125157   125163 
  125163   125154   125146   125140   125138   125135   125132   125130 
  125128   125132   125139   125142   125142   125142   125145   125147 
  125154   125167   125178   125184   125188   125192   125194   125197 
  125203   125208   125216   125228   125240   125248   125253   125255 
  125259   125269   125281   125293   125298   125304   125311   125307 
  125294   125288   125281   125278   125278   125280   125278   125275 
  125263   125250   125240   125236   125232   125228   125221   125211 
  125200   125192   125188   125185   125189   125193   125193   125190 
  125185   125184   125186   125190   125190   125192   125193   125192 
  125190   125190   125189   125184   125176   125169   125161   125153 
  125147   125142   125138   125136   125135   125139   125149   125157 
  125162   125167   125167   125167   125174   125182   125189   125196 
  125201   125209   125215   125216   125217   125223   125228   125224 
  125215   125208   125204   125201   125201   125200   125196   125196 
  125203   125211   125215   125220   125227   125228   125230   125230 
  125226   125226   125227   125227   125231   125235   125232   125230 
  125227   125224   125217   125213   125212   125211   125216   125224 
  125226   125226   125228   125234   125242   125247   125247   125244 
  125244   125247   125251   125258   125262   125259   125257   125253 
  125253   125254   125258   125262   125261   125258   125258   125257 
  125253   125248   125244   125244   125243   125239   125236   125232 
  125232   125238   125243   125247   125254   125259   125261   125261 
  125261   125262   125265   125265   125265   125266   125267   125270 
  125273   125277   125275   125274   125280   125282   125277   125269 
  125261   125254   125253   125250   125247   125243   125236   125232 
  125234   125236   125239   125239   125235   125235   125235   125230 
  125223   125220   125216   125209   125199   125182   125165   125147 
  125135   125124   125112   125103   125093   125086   125082   125081 
  125082   125086   125091   125097   125105   125111   125118   125122 
  125123   125128   125134   125136   125140   125147   125155   125159 
  125162   125166   125177   125189   125200   125213   125224   125228 
  125232   125238   125242   125248   125258   125261   125263   125267 
  125269   125269   125266   125261   125257   125254   125254   125251 
  125243   125238   125236   125234   125232   125236   125238   125236 
  125235   125236   125236   125234   125232   125231   125231   125234 
  125236   125231   125224   125219   125209   125201   125201   125205 
  125209   125212   125215   125220   125220   125215   125212   125212 
  125215   125216   125217   125220   125224   125228   125227   125220 
  125215   125212   125208   125203   125197   125193   125189   125188 
  125190   125194   125199   125207   125213   125216   125223   125234 
  125243   125250   125254   125261   125271   125278   125278   125277 
  125280   125280   125278   125274   125269   125261   125250   125238 
  125232   125231   125221   125211   125203   125200   125203   125207 
  125216   125228   125239   125246   125253   125258   125262   125263 
  125262   125262   125262   125261   125257   125254   125254   125258 
  125266   125273   125277   125284   125290   125294   125301   125304 
  125305   125313   125323   125329   125336   125344   125348   125352 
  125356   125362   125363   125361   125358   125354   125343   125331 
  125321   125308   125294   125288   125281   125275   125275   125277 
  125278   125281   125285   125285   125285   125285   125284   125274 
  125267   125263   125255   125243   125239   125236   125230   125227 
  125227   125223   125216   125208   125197   125188   125177   125167 
  125161   125155   125150   125147   125142   125138   125142   125142 
  125138   125139   125138   125131   125127   125124   125118   125108 
  125101   125092   125080   125069   125061   125054   125049   125046 
  125045   125043   125042   125043   125043   125042   125038   125037 
  125041   125051   125061   125072   125084   125099   125112   125130 
  125146   125157   125163   125169   125173   125177   125178   125181 
  125188   125193   125192   125192   125200   125203   125203   125204 
  125209   125213   125219   125228   125236   125244   125255   125265 
  125270   125274   125280   125285   125282   125280   125284   125292 
  125300   125305   125312   125319   125325   125332   125340   125350 
  125359   125367   125374   125379   125386   125394   125402   125408 
  125413   125420   125423   125423   125419   125417   125417   125419 
  125421   125425   125428   125427   125423   125416   125406   125398 
  125389   125375   125369   125365   125355   125344   125335   125329 
  125323   125315   125305   125297   125290   125281   125271   125267 
  125263   125258   125253   125243   125232   125228   125223   125215 
  125213   125213   125212   125213   125211   125203   125201   125199 
  125192   125185   125181   125173   125169   125166   125159   125151 
  125150   125147   125145   125145   125146   125146   125145   125140 
  125138   125132   125127   125123   125116   125108   125100   125096 
  125091   125081   125076   125070   125064   125059   125053   125047 
  125045   125043   125039   125032   125031   125030   125026   125022 
  125019   125016   125014   125014   125014   125010   125007   125005 
  125007   125008   125011   125012   125014   125011   125005   125001 
  125000   124996   124992   124993   124995   124991   124987   124984 
  124978   124976   124974   124976   124976   124974   124974   124972 
  124966   124960   124956   124954   124947   124939   124935   124931 
  124929   124930   124937   124945   124956   124965   124977   124995 
  125010   125027   125047   125062   125078   125097   125116   125138 
  125162   125180   125194   125216   125234   125247   125266   125288 
  125305   125323   125342   125362   125381   125397   125413   125424 
  125433   125446   125458   125466   125475   125482   125483   125481 
  125482   125489   125496   125505   125510   125510   125513   125521 
  125527   125532   125541   125550   125555   125566   125577   125583 
  125590   125594   125594   125593   125593   125590   125585   125577 
  125568   125560   125552   125545   125540   125535   125533   125533 
  125531   125524   125518   125516   125508   125498   125494   125494 
  125493   125486   125478   125471   125462   125455   125452   125448 
  125446   125450   125448   125443   125442   125437   125431   125427 
  125421   125417   125416   125415   125413   125415   125413   125410 
  125408   125401   125394   125390   125383   125374   125366   125358 
  125352   125348   125342   125334   125321   125309   125300   125292 
  125282   125275   125274   125273   125269   125267   125269   125270 
  125267   125266   125266   125265   125269   125275   125280   125281 
  125284   125288   125292   125294   125298   125302   125302   125304 
  125308   125312   125316   125319   125320   125325   125334   125336 
  125343   125351   125355   125363   125371   125375   125377   125378 
  125374   125365   125359   125358   125354   125343   125329   125317 
  125300   125280   125263   125251   125236   125217   125200   125185 
  125169   125158   125151   125140   125131   125127   125119   125108 
  125096   125081   125069   125057   125038   125020   125008   124997 
  124988   124980   124973   124965   124960   124953   124949   124942 
  124938   124939   124943   124949   124957   124966   124977   124985 
  124992   125003   125011   125023   125035   125042   125047   125051 
  125051   125058   125066   125070   125080   125091   125097   125104 
  125108   125115   125126   125136   125145   125154   125161   125163 
  125166   125167   125167   125167   125166   125159   125155   125150 
  125147   125146   125146   125145   125147   125149   125151   125154 
  125158   125163   125167   125169   125173   125184   125196   125205 
  125216   125230   125242   125250   125255   125258   125262   125266 
  125269   125267   125262   125254   125246   125243   125242   125238 
  125234   125231   125226   125217   125212   125207   125203   125204 
  125204   125203   125203   125201   125199   125197   125194   125190 
  125185   125177   125170   125163   125155   125151   125151   125149 
  125143   125136   125124   125112   125103   125093   125082   125074 
  125070   125068   125064   125058   125051   125045   125031   125014 
  124997   124984   124969   124953   124937   124922   124908   124896 
  124881   124864   124853   124843   124834   124827   124825   124819 
  124816   124815   124811   124806   124807   124808   124814   124823 
  124830   124835   124842   124848   124848   124843   124841   124839 
  124838   124837   124839   124845   124848   124849   124849   124853 
  124857   124858   124864   124869   124872   124876   124879   124875 
  124873   124875   124869   124858   124852   124842   124829   124815 
  124804   124795   124789   124776   124754   124734   124718   124702 
  124688   124676   124664   124657   124652   124645   124642   124644 
  124641   124641   124646   124654   124665   124680   124698   124715 
  124731   124754   124777   124799   124825   124853   124879   124906 
  124938   124968   124995   125022   125047   125076   125104   125132 
  125163   125192   125217   125244   125269   125290   125312   125332 
  125347   125363   125382   125400   125410   125421   125427   125424 
  125423   125424   125419   125413   125409   125401   125394   125390 
  125383   125379   125374   125370   125370   125371   125369   125367 
  125366   125358   125350   125348   125347   125340   125336   125335 
  125334   125334   125335   125336   125343   125350   125356   125366 
  125377   125389   125398   125404   125409   125417   125423   125427 
  125433   125444   125452   125458   125462   125463   125466   125470 
  125473   125470   125463   125460   125455   125448   125444   125437 
  125428   125419   125409   125398   125386   125374   125358   125334 
  125308   125284   125257   125228   125204   125180   125158   125140 
  125122   125105   125091   125076   125061   125047   125039   125034 
  125024   125020   125018   125015   125018   125022   125026   125031 
  125032   125031   125032   125037   125037   125032   125034   125038 
  125039   125039   125038   125041   125041   125035   125030   125027 
  125022   125016   125012   125007   125005   125005   125005   125003 
  125001   125001   125004   125004   125004   125004   125000   125000 
  125004   125005   125007   125015   125023   125026   125024   125026 
  125027   125028   125032   125035   125037   125041   125045   125047 
  125055   125065   125072   125080   125091   125100   125112   125126 
  125138   125149   125161   125176   125190   125200   125211   125223 
  125234   125242   125254   125269   125284   125296   125311   125324 
  125335   125348   125362   125375   125392   125413   125433   125451 
  125471   125493   125510   125524   125536   125547   125554   125560 
  125562   125559   125559   125556   125550   125545   125540   125533 
  125524   125518   125517   125514   125514   125517   125523   125527 
  125535   125541   125550   125558   125564   125571   125578   125581 
  125583   125590   125591   125590   125586   125582   125577   125570 
  125566   125562   125555   125547   125540   125532   125517   125500 
  125482   125464   125444   125421   125406   125394   125379   125365 
  125350   125338   125325   125315   125307   125302   125297   125292 
  125285   125277   125271   125265   125258   125253   125248   125247 
  125248   125251   125255   125261   125265   125269   125274   125284 
  125294   125307   125315   125320   125325   125336   125351   125362 
  125365   125370   125375   125377   125379   125388   125393   125394 
  125394   125393   125390   125385   125381   125374   125370   125367 
  125355   125340   125327   125311   125293   125273   125248   125221 
  125188   125153   125119   125085   125049   125010   124970   124937 
  124903   124870   124842   124815   124789   124764   124742   124717 
  124688   124663   124641   124617   124594   124571   124552   124534 
  124518   124505   124495   124488   124483   124483   124490   124498 
  124510   124528   124548   124568   124590   124617   124642   124667 
  124690   124707   124726   124752   124772   124785   124802   124819 
  124833   124846   124856   124860   124866   124870   124873   124877 
  124877   124877   124879   124877   124877   124877   124877   124887 
  124902   124915   124933   124947   124960   124974   124991   125007 
  125027   125051   125073   125097   125124   125149   125173   125201 
  125228   125254   125282   125308   125331   125352   125377   125400 
  125420   125439   125460   125482   125500   125512   125523   125531 
  125539   125545   125550   125551   125548   125541   125535   125524 
  125509   125494   125482   125466   125450   125436   125421   125405 
  125393   125379   125369   125362   125354   125344   125338   125332 
  125327   125319   125312   125305   125294   125285   125274   125259 
  125246   125232   125217   125203   125192   125180   125170   125162 
  125153   125145   125139   125135   125130   125128   125126   125124 
  125128   125134   125138   125145   125154   125163   125173   125184 
  125197   125211   125224   125240   125257   125271   125285   125297 
  125307   125313   125319   125321   125323   125324   125321   125316 
  125311   125309   125309   125304   125296   125292   125285   125275 
  125267   125259   125248   125236   125227   125217   125204   125193 
  125185   125174   125159   125145   125130   125112   125095   125080 
  125070   125064   125055   125050   125050   125055   125066   125077 
  125089   125104   125122   125139   125158   125177   125197   125219 
  125238   125257   125274   125292   125309   125323   125335   125347 
  125358   125359   125365   125371   125371   125371   125371   125369 
  125365   125362   125361   125355   125350   125346   125340   125335 
  125328   125324   125320   125309   125298   125292   125290   125289 
  125285   125284   125284   125282   125282   125284   125286   125293 
  125300   125307   125313   125323   125331   125336   125342   125350 
  125358   125370   125383   125396   125410   125427   125440   125458 
  125479   125504   125527   125550   125571   125593   125612   125631 
  125652   125674   125693   125713   125730   125743   125755   125761 
  125767   125771   125774   125775   125774   125767   125756   125745 
  125737   125725   125713   125703   125691   125676   125662   125644 
  125626   125610   125594   125577   125559   125540   125521   125506 
  125493   125478   125464   125452   125439   125424   125410   125396 
  125379   125362   125346   125325   125302   125280   125254   125228 
  125204   125180   125155   125130   125101   125078   125058   125037 
  125011   124984   124960   124937   124914   124893   124877   124862 
  124850   124842   124835   124830   124827   124822   124821   124819 
  124812   124810   124811   124810   124807   124808   124810   124812 
  124819   124827   124835   124842   124850   124854   124857   124858 
  124856   124849   124845   124839   124829   124818   124806   124792 
  124779   124764   124752   124738   124725   124713   124700   124690 
  124687   124684   124683   124690   124699   124708   124719   124730 
  124740   124750   124757   124764   124773   124780   124787   124798 
  124808   124815   124823   124833   124845   124857   124868   124879 
  124889   124900   124914   124933   124953   124976   125000   125024 
  125047   125070   125095   125119   125146   125173   125201   125228 
  125251   125271   125290   125305   125319   125329   125344   125356 
  125367   125379   125386   125389   125393   125401   125404   125409 
  125416   125421   125428   125432   125435   125439   125447   125451 
  125454   125454   125452   125448   125444   125437   125429   125423 
  125416   125412   125409   125405   125401   125397   125392   125389 
  125390   125390   125390   125392   125393   125394   125396   125396 
  125398   125400   125397   125397   125397   125398   125402   125405 
  125408   125412   125415   125415   125417   125420   125419   125417 
  125419   125423   125431   125443   125451   125456   125467   125478 
  125487   125500   125508   125509   125516   125525   125528   125528 
  125536   125544   125550   125555   125556   125558   125563   125567 
  125571   125574   125575   125575   125575   125575   125574   125570 
  125562   125558   125552   125547   125543   125541   125537   125531 
  125521   125512   125505   125500   125493   125485   125477   125464 
  125454   125447   125442   125432   125425   125417   125409   125402 
  125397   125388   125378   125371   125361   125347   125338   125324 
  125307   125290   125274   125261   125248   125234   125215   125194 
  125174   125161   125145   125130   125120   125109   125101   125096 
  125088   125081   125081   125082   125084   125088   125095   125101 
  125108   125118   125128   125139   125149   125158   125163   125169 
  125172   125174   125177   125176   125176   125173   125165   125154 
  125143   125134   125119   125103   125085   125069   125055   125041 
  125026   125012   125000   124988   124974   124957   124941   124926 
  124907   124887   124865   124846   124826   124810   124795   124775 
  124752   124733   124714   124692   124679   124668   124653   124641 
  124633   124625   124619   124621   124622   124622   124623   124633 
  124646   124660   124676   124692   124710   124729   124744   124760 
  124779   124802   124822   124839   124860   124881   124904   124933 
  124961   124987   125014   125042   125065   125089   125118   125145 
  125174   125203   125228   125254   125280   125301   125323   125346 
  125369   125389   125408   125425   125440   125454   125466   125477 
  125487   125502   125514   125524   125535   125544   125555   125568 
