Origin Time       2025/01/13 21:19:00
Lat.              31.8
Long.             131.6
Depth. (km)       30
Mag.              6.9
Station Code      HYGH10
Station Lat.      34.8164
Station Long.     134.8078
Station Height(m) -82
Record Time       2025/01/13 21:21:40
Sampling Freq(Hz) 100Hz
Duration Time(s)  120
Dir.              2
Scale Factor      2942(gal)/8224139
Max. Acc. (gal)   0.250
Last Correction   2025/01/13 21:21:41
Memo.             
[...]
  140544   140528   140520   140516   140513   140509   140503   140505 
  140514   140522   140536   140556   140575   140597   140620   140644 
  140670   140691   140710   140726   140740   140756   140775   140792 
  140813   140830   140846   140865   140883   140898   140914   140926 
  140935   140949   140960   140969   140980   140991   140998   141007 
  141018   141034   141053   141069   141085   141102   141118   141137 
  141151   141166   141187   141207   141226   141251   141278   141301 
  141324   141346   141361   141374   141386   141394   141400   141404 
  141408   141411   141408   141401   141389   141374   141366   141361 
  141351   141343   141339   141334   141326   141322   141323   141326 
  141327   141328   141324   141319   141316   141316   141315   141313 
  141311   141309   141312   141309   141303   141299   141293   141282 
  141274   141265   141251   141239   141226   141211   141195   141180 
  141165   141146   141127   141112   141097   141083   141070   141061 
  141050   141039   141035   141030   141026   141026   141023   141021 
  141021   141015   141007   141003   141000   140995   140988   140976 
  140961   140946   140930   140917   140907   140895   140880   140864 
  140846   140830   140817   140799   140782   140769   140755   140736 
  140721   140706   140690   140676   140660   140645   140632   140614 
  140597   140586   140576   140567   140560   140559   140562   140566 
  140571   140575   140574   140575   140579   140583   140586   140587 
  140587   140589   140591   140593   140595   140598   140602   140605 
  140606   140614   140628   140638   140648   140660   140671   140684 
  140702   140715   140725   140737   140751   140761   140772   140784 
  140795   140805   140818   140832   140837   140840   140848   140857 
  140865   140873   140884   140896   140908   140919   140926   140937 
  140950   140961   140975   140985   140995   141008   141019   141022 
  141025   141026   141021   141014   141012   141007   141000   140994 
  140988   140980   140969   140961   140949   140935   140922   140907 
  140892   140877   140863   140844   140826   140814   140795   140772 
  140753   140738   140718   140701   140691   140679   140665   140659 
  140653   140649   140649   140647   140643   140641   140641   140638 
  140632   140625   140628   140629   140626   140626   140630   140633 
  140637   140643   140648   140655   140659   140660   140663   140671 
  140680   140691   140702   140714   140724   140726   140729   140730 
  140726   140725   140732   140734   140737   140744   140751   140757 
  140765   140776   140791   140805   140817   140830   140844   140863 
  140883   140903   140927   140954   140979   141004   141033   141056 
  141073   141093   141116   141141   141164   141187   141211   141235 
  141254   141274   141295   141308   141323   141343   141355   141367 
  141378   141384   141396   141408   141412   141417   141424   141427 
  141432   141436   141443   141448   141455   141465   141469   141467 
  141470   141473   141471   141466   141462   141458   141455   141455 
  141453   141448   141444   141438   141427   141413   141397   141378 
  141355   141327   141300   141278   141255   141232   141215   141197 
  141178   141160   141142   141124   141102   141077   141056   141033 
  141008   140985   140960   140927   140898   140871   140840   140809 
  140779   140752   140730   140710   140692   140678   140660   140641 
  140620   140595   140576   140559   140543   140526   140509   140493 
  140479   140463   140444   140435   140429   140422   140420   140422 
  140424   140422   140422   140424   140424   140427   140433   140439 
  140440   140443   140441   140443   140447   140447   140445   140448 
  140449   140452   140455   140458   140459   140466   140470   140471 
  140479   140489   140495   140505   140517   140530   140549   140570 
  140590   140611   140630   140651   140667   140680   140698   140710 
  140721   140736   140751   140764   140784   140803   140821   140840 
  140860   140880   140899   140910   140921   140934   140946   140956 
  140969   140985   141002   141018   141034   141046   141057   141068 
  141079   141085   141092   141100   141110   141119   141124   141123 
  141122   141110   141093   141077   141061   141043   141029   141016 
  141010   141003   140996   140996   141000   141002   141002   141006 
  141014   141019   141030   141045   141060   141076   141093   141112 
  141135   141158   141180   141203   141227   141254   141281   141309 
  141340   141369   141397   141424   141454   141486   141513   141532 
  141547   141559   141563   141561   141561   141555   141550   141550 
  141544   141531   141516   141505   141492   141475   141457   141436 
  141415   141390   141366   141347   141331   141315   141300   141289 
  141276   141265   141257   141246   141238   141235   141235   141234 
  141235   141238   141238   141237   141239   141242   141243   141242 
  141241   141241   141239   141235   141232   141226   141216   141208 
  141199   141191   141178   141162   141146   141129   141108   141088 
  141069   141053   141037   141025   141012   141002   140994   140987 
  140980   140971   140958   140948   140937   140925   140914   140899 
  140881   140867   140853   140840   140826   140814   140802   140787 
  140776   140767   140756   140746   140741   140733   140724   140714 
  140707   140702   140698   140695   140691   140691   140697   140706 
  140715   140728   140737   140744   140753   140764   140769   140773 
  140779   140783   140786   140786   140784   140780   140776   140778 
  140775   140768   140767   140765   140759   140753   140751   140746 
  140742   140741   140741   140737   140732   140728   140728   140728 
  140726   140725   140724   140726   140734   140741   140744   140751 
  140756   140755   140755   140755   140752   140757   140768   140780 
  140791   140805   140821   140833   140849   140868   140876   140880 
  140887   140894   140900   140907   140915   140929   140946   140965 
  140988   141012   141034   141053   141072   141092   141107   141119 
  141134   141151   141169   141187   141208   141230   141250   141272 
  141300   141327   141351   141377   141405   141427   141446   141465 
  141478   141485   141490   141490   141486   141482   141474   141459 
  141446   141432   141421   141411   141401   141393   141388   141378 
  141369   141359   141345   141328   141316   141305   141292   141281 
  141274   141270   141265   141258   141250   141241   141235   141230 
  141220   141212   141205   141199   141193   141185   141176   141165 
  141157   141149   141137   141127   141120   141110   141096   141081 
  141069   141057   141048   141037   141029   141019   141010   141004 
  141003   141002   141003   141006   141006   141004   141004   141003 
  141003   141000   140995   140987   140980   140967   140952   140942 
  140931   140921   140913   140899   140883   140872   140861   140842 
  140827   140818   140806   140794   140786   140778   140769   140764 
  140759   140753   140756   140761   140767   140776   140791   140809 
  140827   140845   140857   140872   140884   140892   140898   140900 
  140903   140907   140906   140900   140896   140891   140881   140871 
  140859   140842   140825   140811   140799   140786   140772   140756 
  140740   140725   140709   140691   140675   140661   140655   140651 
  140644   140641   140644   140648   140652   140660   140671   140676 
  140684   140698   140710   140715   140725   140740   140746   140749 
  140757   140769   140780   140790   140805   140819   140833   140850 
  140868   140881   140899   140918   140929   140948   140969   140985 
  141006   141023   141035   141050   141064   141072   141080   141087 
  141095   141100   141104   141111   141112   141110   141107   141103 
  141103   141100   141092   141087   141081   141076   141069   141062 
  141061   141064   141066   141068   141075   141083   141089   141097 
  141107   141118   141126   141135   141146   141161   141174   141185 
  141200   141216   141230   141239   141249   141257   141265   141276 
  141284   141286   141288   141288   141288   141286   141278   141269 
  141259   141245   141226   141208   141191   141168   141141   141114 
  141088   141062   141038   141018   141000   140984   140972   140962 
  140949   140934   140923   140911   140899   140887   140873   140857 
  140840   140822   140805   140784   140767   140748   140730   140714 
  140695   140676   140661   140643   140621   140602   140587   140576 
  140566   140556   140553   140553   140556   140564   140576   140589 
  140603   140622   140645   140668   140697   140724   140749   140775 
  140800   140826   140853   140880   140913   140944   140971   140998 
  141025   141048   141066   141080   141089   141102   141114   141122 
  141135   141150   141162   141174   141191   141205   141218   141232 
  141251   141268   141282   141299   141315   141330   141346   141362 
  141376   141389   141407   141424   141438   141448   141457   141461 
  141466   141469   141465   141459   141448   141435   141424   141411 
  141390   141366   141343   141316   141288   141261   141232   141200 
  141170   141141   141106   141073   141042   141010   140979   140949 
  140922   140894   140863   140832   140806   140779   140756   140740 
  140721   140702   140690   140680   140674   140671   140668   140663 
  140660   140663   140670   140675   140680   140690   140703   140715 
  140728   140744   140761   140780   140798   140819   140841   140861 
  140880   140898   140917   140937   140953   140973   140999   141022 
  141046   141072   141093   141114   141133   141149   141165   141181 
  141195   141207   141212   141219   141223   141222   141224   141228 
  141228   141231   141234   141232   141232   141235   141235   141232 
  141230   141228   141224   141216   141211   141207   141201   141193 
  141188   141185   141183   141181   141178   141177   141177   141176 
  141170   141165   141156   141142   141127   141108   141088   141069 
  141049   141029   141006   140984   140962   140937   140911   140887 
  140863   140833   140803   140771   140742   140718   140694   140671 
  140652   140634   140621   140607   140594   140586   140579   140574 
  140575   140576   140576   140582   140591   140602   140618   140634 
  140653   140678   140710   140741   140769   140807   140846   140879 
  140915   140949   140979   141010   141039   141066   141093   141119 
  141141   141162   141184   141204   141223   141239   141254   141265 
  141272   141282   141288   141291   141296   141301   141307   141312 
  141319   141327   141330   141327   141323   141318   141311   141304 
  141299   141289   141281   141276   141265   141257   141257   141249 
  141235   141235   141241   141230   141214   141205   141201   141192 
  141184   141178   141168   141157   141150   141137   141120   141106 
  141091   141075   141060   141043   141025   141003   140984   140967 
  140941   140918   140900   140879   140860   140845   140830   140821 
  140811   140805   140809   140810   140809   140813   140822   140830 
  140836   140846   140860   140871   140883   140898   140908   140919 
  140929   140937   140942   140946   140950   140954   140960   140965 
  140971   140972   140975   140980   140983   140983   140981   140979 
  140972   140968   140962   140956   140946   140938   140929   140921 
  140910   140898   140884   140869   140857   140842   140823   140810 
  140796   140780   140763   140752   140748   140732   140713   140707 
  140703   140695   140697   140699   140697   140701   140711   140721 
  140728   140737   140759   140779   140792   140814   140837   140856 
  140879   140908   140937   140964   140994   141025   141056   141087 
  141114   141141   141169   141191   141211   141234   141250   141264 
  141280   141292   141296   141301   141301   141293   141288   141284 
  141270   141255   141243   141227   141208   141189   141169   141150 
  141131   141111   141089   141070   141053   141038   141026   141014 
  141004   140996   140989   140987   140987   140983   140976   140973 
  140969   140957   140946   140938   140927   140917   140907   140895 
  140883   140871   140864   140856   140844   140827   140814   140805 
  140791   140778   140769   140761   140756   140749   140742   140734 
  140730   140729   140730   140736   140744   140756   140772   140792 
  140811   140833   140856   140879   140902   140923   140946   140965 
  140983   141003   141025   141046   141068   141087   141102   141114 
  141122   141130   141133   141127   141120   141118   141111   141097 
  141083   141068   141053   141037   141021   141006   140985   140962 
  140942   140923   140900   140872   140846   140822   140799   140778 
  140759   140738   140721   140703   140684   140671   140664   140657 
  140656   140660   140665   140674   140687   140699   140713   140730 
  140746   140760   140779   140799   140817   140837   140854   140867 
  140881   140894   140899   140908   140921   140930   140940   140950 
  140960   140972   140988   141004   141021   141038   141057   141076 
  141093   141110   141130   141151   141166   141184   141207   141230 
  141259   141293   141323   141357   141396   141431   141465   141502 
  141534   141561   141588   141613   141637   141658   141671   141679 
  141685   141685   141682   141677   141667   141654   141640   141625 
  141606   141585   141562   141535   141505   141470   141434   141399 
  141362   141324   141292   141258   141228   141201   141174   141153 
  141130   141110   141096   141081   141065   141057   141049   141041 
  141038   141041   141041   141046   141052   141049   141048   141048 
  141045   141039   141037   141033   141027   141021   141016   141018 
  141014   141007   141008   141008   141003   141000   140998   140989 
  140984   140983   140981   140979   140976   140980   140984   140988 
  140999   141011   141022   141034   141045   141058   141076   141093 
  141111   141130   141146   141168   141188   141201   141216   141230 
  141235   141245   141250   141247   141247   141246   141241   141238 
  141234   141226   141219   141212   141204   141193   141184   141174 
  141162   141156   141149   141139   141134   141130   141124   141120 
  141120   141120   141122   141120   141118   141118   141119   141116 
  141110   141107   141104   141100   141095   141093   141099   141103 
  141110   141126   141138   141150   141168   141181   141195   141214 
  141231   141247   141268   141288   141304   141316   141332   141350 
  141365   141374   141382   141390   141396   141394   141394   141394 
  141388   141378   141365   141346   141326   141307   141285   141264 
  141238   141214   141191   141164   141131   141099   141064   141030 
  140999   140967   140934   140904   140886   140869   140853   140845 
  140844   140841   140842   140846   140853   140861   140871   140879 
  140888   140903   140921   140938   140952   140961   140972   140985 
  140992   140996   141000   140999   140999   140999   140994   140988 
  140987   140980   140969   140961   140954   140944   140934   140927 
  140919   140908   140899   140888   140876   140864   140854   140848 
  140844   140844   140848   140853   140860   140869   140881   140892 
  140900   140908   140917   140922   140923   140923   140921   140915 
  140913   140911   140907   140896   140884   140873   140861   140846 
  140834   140821   140803   140787   140776   140764   140756   140755 
  140759   140763   140769   140780   140788   140796   140807   140815 
  140823   140829   140833   140837   140838   140833   140834   140840 
  140841   140841   140844   140845   140846   140849   140853   140853 
  140854   140859   140861   140861   140865   140872   140873   140877 
  140887   140896   140904   140914   140925   140938   140949   140964 
  140980   140995   141010   141025   141039   141054   141070   141087 
  141103   141111   141119   141133   141143   141147   141146   141151 
  141157   141150   141141   141135   141123   141108   141092   141075 
  141060   141043   141027   141012   140995   140976   140956   140935 
  140917   140895   140872   140854   140837   140814   140798   140784 
  140769   140757   140745   140737   140729   140719   140711   140710 
  140715   140717   140721   140736   140752   140767   140786   140805 
  140825   140846   140867   140884   140900   140921   140935   140946 
  140964   140980   140987   140995   141002   141006   141014   141018 
  141016   141021   141022   141018   141015   141011   141000   140991 
  140984   140975   140969   140967   140962   140962   140967   140969 
  140972   140977   140987   140996   141004   141016   141025   141030 
  141039   141049   141058   141072   141085   141099   141112   141124 
  141138   141149   141156   141161   141166   141169   141168   141165 
  141161   141151   141137   141120   141102   141080   141058   141034 
  141014   140992   140969   140949   140930   140911   140899   140890 
  140884   140883   140886   140887   140891   140903   140915   140927 
  140945   140967   140983   141002   141023   141043   141061   141085 
  141108   141126   141141   141157   141166   141178   141189   141195 
  141199   141204   141203   141197   141191   141184   141173   141161 
  141149   141137   141124   141111   141095   141079   141058   141038 
  141022   141006   140989   140980   140971   140960   140952   140946 
  140942   140942   140940   140935   140934   140931   140927   140923 
  140917   140911   140907   140902   140895   140890   140888   140888 
  140886   140887   140887   140886   140884   140881   140879   140881 
  140886   140881   140883   140888   140890   140891   140898   140906 
  140910   140915   140926   140937   140949   140961   140971   140983 
  140999   141018   141037   141054   141072   141091   141114   141133 
  141154   141180   141199   141220   141246   141268   141289   141313 
  141335   141351   141367   141381   141392   141403   141419   141427 
  141431   141436   141440   141443   141442   141438   141439   141435 
  141428   141423   141413   141404   141397   141388   141377   141370 
  141358   141345   141334   141319   141299   141288   141281   141266 
  141250   141241   141231   141218   141210   141205   141197   141196 
  141197   141195   141191   141188   141183   141183   141180   141172 
  141166   141162   141160   141161   141164   141162   141162   141162 
  141164   141162   141157   141153   141149   141143   141137   141133 
  141129   141122   141110   141100   141097   141091   141066   141033 
  141019   141011   140984   140968   140961   140937   140917   140902 
  140880   140861   140849   140832   140817   140809   140800   140792 
  140784   140779   140773   140768   140765   140764   140755   140745 
  140741   140734   140728   140725   140719   140717   140715   140713 
  140710   140709   140707   140707   140706   140702   140699   140698 
  140694   140695   140701   140701   140701   140709   140717   140721 
  140722   140730   140741   140752   140765   140778   140795   140815 
  140834   140854   140877   140902   140925   140949   140973   140999 
