Origin Time       2025/01/13 21:19:00
Lat.              31.8
Long.             131.6
Depth. (km)       30
Mag.              6.9
Station Code      HYGH03
Station Lat.      35.2193
Station Long.     134.5237
Station Height(m) 365
Record Time       2025/01/13 21:21:43
Sampling Freq(Hz) 100Hz
Duration Time(s)  120
Dir.              5
Scale Factor      7845(gal)/8223790
Max. Acc. (gal)   0.287
Last Correction   2025/01/13 21:21:44
Memo.             
[...]
    2627     2637     2651     2668     2683     2701     2714     2708 
    2677     2643     2625     2623     2632     2648     2659     2656 
    2647     2636     2627     2625     2632     2644     2651     2646 
    2627     2609     2604     2616     2646     2674     2682     2667 
    2632     2589     2559     2556     2585     2624     2648     2648 
    2636     2621     2605     2586     2573     2578     2593     2608 
    2621     2624     2617     2608     2597     2594     2601     2613 
    2627     2635     2632     2614     2598     2605     2628     2647 
    2652     2640     2623     2616     2619     2625     2631     2629 
    2629     2627     2613     2597     2589     2594     2620     2650 
    2667     2673     2658     2629     2601     2592     2602     2627 
    2650     2664     2662     2641     2617     2601     2598     2613 
    2644     2677     2693     2687     2671     2644     2608     2589 
    2598     2625     2654     2663     2655     2641     2631     2636 
    2650     2659     2662     2659     2648     2635     2627     2627 
    2640     2654     2643     2605     2575     2575     2587     2597 
    2612     2631     2646     2648     2639     2620     2593     2571 
    2571     2585     2605     2620     2617     2606     2605     2617 
    2631     2639     2633     2621     2608     2600     2604     2619 
    2633     2651     2668     2673     2664     2648     2636     2635 
    2644     2671     2705     2721     2697     2651     2619     2617 
    2640     2678     2714     2732     2722     2683     2631     2596 
    2593     2617     2660     2701     2712     2686     2643     2604 
    2582     2582     2609     2651     2682     2683     2662     2627 
    2587     2570     2596     2647     2687     2691     2664     2635 
    2620     2613     2610     2619     2639     2654     2650     2629 
    2605     2586     2575     2577     2592     2613     2631     2635 
    2623     2606     2600     2612     2636     2654     2650     2628 
    2606     2602     2616     2640     2658     2662     2659     2656 
    2648     2636     2623     2613     2620     2640     2655     2658 
    2640     2610     2587     2583     2604     2646     2690     2709 
    2693     2651     2614     2597     2598     2614     2639     2660 
    2674     2679     2671     2650     2629     2621     2627     2635 
    2636     2628     2625     2633     2654     2675     2682     2675 
    2668     2666     2663     2655     2639     2628     2632     2650 
    2668     2678     2673     2662     2651     2640     2643     2654 
    2663     2663     2651     2635     2631     2639     2648     2648 
    2637     2635     2646     2654     2648     2637     2640     2655 
    2670     2679     2679     2673     2660     2646     2641     2658 
    2681     2694     2689     2673     2662     2666     2679     2693 
    2695     2687     2674     2659     2646     2633     2623     2624 
    2637     2648     2651     2647     2640     2635     2627     2617 
    2623     2635     2644     2652     2648     2625     2601     2594 
    2604     2613     2610     2597     2583     2578     2581     2581 
    2581     2585     2594     2605     2604     2585     2571     2582 
    2608     2633     2650     2648     2632     2610     2596     2585 
    2582     2598     2625     2647     2660     2659     2644     2633 
    2633     2639     2654     2675     2690     2685     2664     2640 
    2625     2628     2648     2670     2681     2682     2679     2666 
    2640     2616     2608     2623     2647     2666     2673     2666 
    2654     2643     2641     2651     2664     2673     2668     2659 
    2650     2633     2621     2627     2636     2643     2644     2637 
    2628     2624     2623     2624     2636     2651     2660     2660 
    2652     2640     2624     2612     2616     2632     2652     2670 
    2673     2658     2637     2627     2623     2617     2612     2613 
    2620     2627     2633     2640     2647     2647     2641     2633 
    2635     2651     2671     2683     2690     2693     2686     2671 
    2647     2629     2635     2655     2670     2677     2682     2685 
    2679     2660     2627     2594     2583     2604     2631     2648 
    2651     2640     2627     2620     2627     2646     2671     2689 
    2693     2687     2675     2659     2644     2633     2640     2658 
    2668     2662     2644     2629     2632     2654     2685     2712 
    2724     2720     2712     2694     2667     2647     2651     2673 
    2705     2735     2740     2724     2704     2683     2673     2677 
    2685     2686     2679     2664     2652     2646     2643     2643 
    2650     2664     2679     2679     2668     2656     2652     2652 
    2656     2660     2660     2654     2643     2635     2632     2635 
    2643     2650     2644     2628     2619     2621     2631     2639 
    2640     2632     2613     2592     2578     2581     2593     2608 
    2625     2637     2635     2625     2612     2593     2579     2582 
    2590     2596     2598     2594     2583     2578     2570     2552 
    2543     2551     2566     2583     2597     2589     2577     2567 
    2558     2562     2579     2593     2596     2590     2585     2593 
    2613     2632     2650     2660     2662     2656     2644     2632 
    2620     2610     2616     2628     2633     2629     2625     2627 
    2631     2633     2640     2652     2658     2652     2641     2632 
    2632     2647     2670     2687     2693     2687     2674     2664 
    2667     2673     2667     2663     2670     2689     2712     2718 
    2706     2695     2693     2700     2709     2717     2725     2727 
    2722     2721     2721     2716     2716     2718     2724     2729 
    2728     2724     2721     2720     2721     2722     2725     2728 
    2724     2710     2693     2674     2664     2671     2679     2682 
    2677     2668     2663     2658     2656     2660     2664     2666 
    2662     2655     2651     2646     2640     2635     2629     2624 
    2620     2617     2613     2614     2627     2641     2651     2658 
    2659     2647     2625     2604     2590     2593     2612     2633 
    2647     2644     2633     2620     2600     2586     2592     2609 
    2631     2643     2633     2614     2602     2598     2598     2598 
    2596     2590     2578     2565     2566     2575     2585     2594 
    2596     2590     2585     2579     2569     2559     2560     2570 
    2578     2578     2570     2555     2550     2552     2554     2556 
    2565     2574     2579     2569     2547     2536     2542     2556 
    2570     2577     2575     2567     2554     2536     2523     2525 
    2539     2554     2566     2567     2560     2552     2540     2528 
    2528     2539     2548     2559     2565     2552     2533     2524 
    2523     2524     2535     2547     2550     2546     2539     2540 
    2555     2574     2590     2604     2612     2612     2614     2616 
    2612     2613     2623     2635     2648     2660     2667     2673 
    2677     2681     2681     2679     2677     2679     2690     2706 
    2724     2740     2755     2760     2748     2729     2722     2731 
    2740     2749     2759     2760     2755     2745     2733     2731 
    2741     2760     2781     2790     2787     2768     2741     2733 
    2752     2778     2802     2828     2837     2821     2795     2767 
    2740     2731     2747     2772     2790     2791     2768     2741 
    2725     2717     2718     2741     2775     2794     2785     2754 
    2716     2694     2695     2712     2735     2759     2778     2779 
    2755     2717     2686     2678     2691     2720     2751     2768 
    2767     2751     2727     2698     2689     2695     2705     2712 
    2710     2708     2712     2712     2705     2693     2683     2685 
    2691     2693     2687     2679     2674     2677     2683     2689 
    2683     2670     2655     2647     2647     2654     2663     2667 
    2664     2656     2648     2647     2660     2678     2686     2681 
    2667     2647     2635     2640     2650     2656     2678     2702 
    2712     2706     2683     2656     2646     2655     2674     2697 
    2712     2710     2698     2686     2686     2694     2702     2712 
    2721     2727     2727     2714     2694     2675     2667     2677 
    2695     2708     2704     2681     2647     2614     2594     2598 
    2616     2631     2637     2633     2620     2604     2587     2581 
    2581     2579     2582     2590     2593     2586     2566     2546 
    2533     2529     2531     2531     2528     2528     2528     2524 
    2520     2523     2532     2533     2520     2506     2506     2519 
    2543     2566     2578     2583     2581     2567     2556     2554 
    2559     2575     2592     2594     2579     2558     2550     2558 
    2574     2601     2631     2646     2641     2620     2593     2574 
    2577     2608     2650     2677     2683     2670     2646     2621 
    2602     2594     2602     2619     2631     2639     2640     2637 
    2636     2636     2635     2632     2637     2647     2651     2647 
    2637     2632     2641     2664     2685     2698     2706     2702 
    2683     2662     2651     2652     2658     2667     2671     2668 
    2666     2659     2646     2636     2629     2627     2625     2624 
    2620     2620     2621     2620     2620     2620     2620     2617 
    2612     2610     2610     2612     2616     2620     2616     2606 
    2594     2583     2582     2592     2608     2623     2628     2619 
    2594     2569     2548     2543     2558     2579     2596     2605 
    2596     2570     2543     2524     2511     2511     2520     2525 
    2524     2516     2504     2492     2484     2489     2504     2511 
    2501     2481     2466     2466     2474     2485     2496     2502 
    2501     2488     2475     2478     2489     2501     2511     2511 
    2497     2481     2469     2458     2448     2450     2467     2494 
    2516     2525     2519     2500     2482     2473     2481     2501 
    2515     2517     2519     2512     2500     2493     2492     2494 
    2501     2500     2490     2478     2467     2458     2454     2458 
    2466     2466     2446     2417     2396     2390     2403     2421 
    2435     2440     2438     2431     2419     2408     2404     2411 
    2435     2461     2477     2490     2492     2486     2488     2497 
    2512     2533     2554     2563     2567     2574     2583     2597 
    2619     2637     2647     2654     2660     2663     2671     2683 
    2701     2722     2737     2736     2727     2712     2695     2693 
    2712     2737     2751     2748     2729     2701     2682     2681 
    2686     2698     2717     2728     2725     2716     2698     2679 
    2674     2685     2709     2731     2739     2727     2702     2678 
    2664     2666     2681     2697     2705     2708     2706     2701 
    2693     2693     2704     2717     2731     2745     2754     2754 
    2754     2751     2745     2739     2736     2745     2758     2760 
    2766     2764     2758     2755     2755     2749     2740     2722 
    2708     2705     2709     2718     2727     2722     2708     2690 
    2677     2668     2663     2658     2650     2637     2619     2592 
    2567     2556     2558     2567     2585     2602     2605     2590 
    2565     2540     2528     2532     2550     2571     2585     2586 
    2578     2562     2552     2555     2567     2581     2589     2586 
    2573     2556     2550     2548     2554     2566     2579     2586 
    2589     2579     2559     2540     2528     2531     2542     2548 
    2552     2554     2558     2566     2567     2563     2560     2556 
    2551     2551     2558     2566     2570     2571     2575     2586 
    2597     2598     2594     2582     2566     2559     2559     2563 
    2574     2579     2578     2577     2579     2587     2604     2617 
    2617     2612     2609     2608     2610     2614     2614     2627 
    2647     2659     2662     2655     2640     2631     2636     2651 
    2666     2683     2698     2701     2691     2683     2682     2690 
    2712     2731     2743     2752     2760     2766     2764     2759 
    2760     2770     2776     2774     2766     2758     2751     2749 
    2754     2760     2766     2770     2766     2756     2748     2747 
    2752     2762     2772     2781     2786     2783     2782     2787 
    2799     2809     2812     2810     2801     2791     2785     2778 
    2779     2786     2789     2786     2776     2763     2756     2758 
    2758     2755     2755     2747     2727     2701     2677     2656 
    2648     2656     2673     2687     2695     2685     2656     2635 
    2621     2616     2628     2644     2650     2647     2633     2619 
    2613     2610     2616     2627     2641     2659     2670     2671 
    2673     2674     2674     2682     2700     2717     2731     2735 
    2732     2724     2718     2727     2744     2752     2748     2741 
    2733     2728     2731     2735     2737     2737     2729     2717 
    2712     2710     2705     2702     2712     2718     2708     2686 
    2658     2628     2608     2596     2583     2571     2552     2531 
    2509     2488     2466     2452     2452     2457     2452     2440 
    2421     2397     2380     2373     2376     2378     2378     2376 
    2367     2358     2347     2342     2338     2339     2349     2359 
    2367     2367     2363     2363     2373     2394     2420     2439 
    2451     2450     2440     2440     2448     2462     2479     2492 
    2494     2492     2488     2492     2500     2512     2525     2532 
    2529     2520     2505     2492     2488     2492     2501     2513 
    2527     2533     2533     2529     2523     2527     2548     2574 
    2596     2606     2597     2578     2570     2579     2602     2631 
    2659     2681     2690     2689     2685     2683     2686     2708 
    2736     2755     2764     2767     2760     2752     2755     2768 
    2790     2812     2822     2814     2793     2766     2749     2756 
    2772     2783     2783     2770     2744     2721     2710     2704 
    2705     2710     2716     2714     2704     2687     2673     2663 
    2666     2677     2686     2689     2678     2658     2640     2624 
    2614     2619     2627     2629     2616     2594     2583     2581 
    2581     2587     2594     2589     2585     2587     2590     2586 
    2586     2598     2610     2619     2624     2619     2613     2613 
    2614     2621     2641     2668     2689     2690     2679     2667 
    2660     2664     2678     2690     2697     2700     2690     2674 
    2664     2663     2668     2678     2682     2682     2681     2674 
    2666     2658     2651     2658     2673     2677     2664     2644 
    2624     2609     2600     2600     2602     2604     2600     2586 
    2565     2546     2538     2535     2539     2548     2554     2556 
    2556     2556     2562     2579     2597     2610     2621     2629 
    2633     2637     2643     2654     2670     2691     2713     2721 
    2712     2702     2698     2700     2708     2716     2720     2728 
    2733     2725     2710     2702     2700     2701     2708     2710 
    2708     2698     2685     2673     2671     2678     2679     2681 
    2677     2663     2647     2637     2644     2660     2677     2686 
    2685     2670     2655     2646     2646     2662     2689     2710 
    2718     2714     2701     2685     2675     2681     2701     2731 
    2760     2782     2789     2781     2770     2767     2779     2802 
    2826     2845     2853     2845     2837     2839     2847     2863 
    2883     2899     2903     2894     2876     2859     2847     2844 
    2849     2856     2862     2852     2830     2808     2794     2793 
    2803     2817     2820     2808     2789     2767     2745     2731 
    2728     2729     2729     2728     2720     2708     2698     2691 
    2691     2694     2691     2685     2673     2654     2636     2623 
    2616     2614     2614     2608     2594     2583     2574     2563 
    2560     2560     2562     2560     2551     2532     2515     2501 
    2496     2502     2515     2524     2521     2505     2488     2482 
    2488     2494     2502     2506     2506     2501     2489     2479 
    2477     2484     2498     2511     2517     2512     2504     2500 
    2498     2502     2516     2527     2523     2509     2486     2462 
    2450     2446     2448     2457     2461     2451     2434     2420 
    2415     2416     2417     2416     2415     2419     2421     2417 
    2416     2425     2440     2459     2477     2484     2475     2458 
    2447     2447     2448     2458     2482     2505     2516     2516 
    2511     2505     2502     2513     2536     2558     2569     2569 
    2571     2581     2598     2623     2650     2673     2686     2685 
    2670     2660     2666     2685     2712     2739     2756     2755 
    2739     2718     2704     2700     2710     2733     2751     2754 
    2740     2714     2694     2686     2689     2709     2737     2755 
    2758     2743     2716     2694     2686     2691     2706     2722 
    2731     2724     2710     2693     2674     2667     2681     2694 
    2704     2704     2695     2685     2675     2671     2678     2690 
    2702     2709     2704     2694     2686     2681     2681     2689 
    2693     2691     2691     2695     2695     2691     2694     2701 
    2702     2702     2704     2701     2697     2693     2698     2718 
    2739     2754     2764     2763     2756     2755     2760     2772 
    2783     2790     2798     2795     2789     2789     2793     2806 
    2825     2836     2841     2837     2821     2809     2799     2794 
    2798     2808     2813     2806     2793     2776     2763     2758 
    2762     2774     2783     2775     2756     2737     2721     2714 
    2727     2736     2729     2725     2716     2693     2678     2674 
    2674     2682     2693     2694     2689     2681     2674     2664 
    2655     2655     2662     2667     2662     2644     2624     2612 
    2606     2609     2619     2624     2619     2602     2586     2570 
    2560     2571     2592     2605     2610     2609     2594     2578 
    2578     2587     2605     2628     2641     2640     2639     2637 
    2631     2627     2632     2641     2654     2663     2655     2637 
    2627     2621     2621     2625     2623     2616     2608     2590 
    2566     2550     2542     2542     2548     2551     2548     2539 
    2523     2509     2500     2494     2493     2492     2484     2467 
    2447     2432     2425     2427     2430     2430     2424     2411 
    2397     2386     2382     2388     2400     2412     2421     2420 
    2407     2396     2393     2397     2412     2434     2452     2465 
    2471     2467     2461     2461     2473     2493     2513     2521 
    2525     2531     2540     2551     2569     2596     2623     2640 
    2651     2651     2647     2648     2652     2666     2694     2722 
    2739     2741     2732     2720     2718     2729     2749     2771 
    2779     2776     2768     2755     2744     2749     2768     2785 
