Origin Time       2025/01/13 21:19:00
Lat.              31.8
Long.             131.6
Depth. (km)       30
Mag.              6.9
Station Code      HYGH02
Station Lat.      35.0671
Station Long.     134.4234
Station Height(m) 205
Record Time       2025/01/13 21:21:08
Sampling Freq(Hz) 100Hz
Duration Time(s)  120
Dir.              4
Scale Factor      7845(gal)/8223790
Max. Acc. (gal)   0.429
Last Correction   2025/01/13 21:21:08
Memo.             
[...]
   -4533    -4540    -4544    -4548    -4558    -4572    -4575    -4565 
   -4550    -4531    -4515    -4503    -4494    -4491    -4499    -4514 
   -4527    -4541    -4550    -4561    -4580    -4595    -4594    -4581 
   -4569    -4560    -4550    -4542    -4537    -4533    -4530    -4533 
   -4540    -4549    -4553    -4550    -4546    -4550    -4557    -4563 
   -4564    -4560    -4554    -4550    -4545    -4544    -4545    -4550 
   -4560    -4568    -4576    -4584    -4591    -4598    -4612    -4627 
   -4635    -4639    -4642    -4639    -4638    -4639    -4637    -4637 
   -4634    -4623    -4614    -4604    -4592    -4579    -4568    -4565 
   -4568    -4571    -4572    -4573    -4571    -4567    -4564    -4560 
   -4552    -4537    -4519    -4511    -4511    -4515    -4525    -4541 
   -4560    -4573    -4583    -4584    -4579    -4569    -4564    -4564 
   -4556    -4542    -4533    -4527    -4531    -4542    -4550    -4553 
   -4556    -4560    -4557    -4548    -4537    -4527    -4521    -4521 
   -4518    -4513    -4509    -4506    -4509    -4510    -4511    -4518 
   -4526    -4534    -4544    -4552    -4558    -4561    -4557    -4549 
   -4545    -4548    -4550    -4548    -4544    -4542    -4542    -4540 
   -4537    -4541    -4553    -4561    -4565    -4576    -4585    -4590 
   -4594    -4603    -4612    -4618    -4615    -4607    -4599    -4591 
   -4585    -4581    -4579    -4579    -4581    -4587    -4590    -4592 
   -4592    -4591    -4587    -4585    -4584    -4584    -4588    -4596 
   -4604    -4612    -4617    -4615    -4610    -4611    -4618    -4617 
   -4603    -4591    -4592    -4599    -4607    -4614    -4610    -4600 
   -4591    -4576    -4556    -4536    -4519    -4504    -4490    -4483 
   -4488    -4499    -4514    -4526    -4530    -4530    -4529    -4530 
   -4534    -4537    -4537    -4531    -4529    -4530    -4529    -4531 
   -4541    -4550    -4557    -4564    -4571    -4576    -4581    -4588 
   -4599    -4611    -4618    -4618    -4608    -4603    -4607    -4607 
   -4603    -4602    -4599    -4595    -4596    -4596    -4599    -4606 
   -4606    -4604    -4610    -4612    -4610    -4603    -4595    -4583 
   -4572    -4561    -4553    -4552    -4552    -4548    -4536    -4522 
   -4510    -4502    -4498    -4498    -4503    -4507    -4503    -4503 
   -4509    -4511    -4513    -4510    -4506    -4502    -4494    -4484 
   -4484    -4490    -4496    -4507    -4517    -4523    -4534    -4550 
   -4568    -4584    -4595    -4602    -4604    -4608    -4610    -4608 
   -4608    -4615    -4618    -4619    -4622    -4626    -4633    -4642 
   -4646    -4649    -4648    -4642    -4635    -4630    -4627    -4629 
   -4633    -4631    -4626    -4619    -4612    -4607    -4602    -4595 
   -4583    -4569    -4558    -4552    -4550    -4548    -4542    -4536 
   -4533    -4531    -4523    -4511    -4503    -4496    -4486    -4479 
   -4475    -4473    -4482    -4487    -4488    -4491    -4499    -4510 
   -4519    -4518    -4511    -4506    -4506    -4514    -4525    -4531 
   -4533    -4533    -4531    -4537    -4541    -4540    -4534    -4533 
   -4537    -4542    -4546    -4550    -4553    -4554    -4560    -4571 
   -4577    -4576    -4569    -4563    -4553    -4544    -4537    -4529 
   -4521    -4509    -4496    -4491    -4488    -4486    -4483    -4482 
   -4479    -4479    -4477    -4479    -4487    -4494    -4498    -4504 
   -4510    -4517    -4526    -4538    -4548    -4556    -4572    -4591 
   -4614    -4637    -4650    -4664    -4681    -4695    -4704    -4711 
   -4714    -4719    -4725    -4725    -4719    -4711    -4706    -4702 
   -4692    -4684    -4681    -4677    -4666    -4654    -4645    -4637 
   -4627    -4619    -4612    -4602    -4590    -4580    -4573    -4572 
   -4569    -4568    -4575    -4577    -4576    -4575    -4573    -4577 
   -4585    -4594    -4598    -4600    -4604    -4610    -4611    -4612 
   -4617    -4622    -4627    -4631    -4633    -4634    -4639    -4644 
   -4644    -4639    -4630    -4621    -4615    -4610    -4603    -4590 
   -4573    -4564    -4556    -4542    -4526    -4518    -4517    -4518 
   -4522    -4530    -4534    -4540    -4546    -4545    -4542    -4541 
   -4540    -4537    -4536    -4537    -4538    -4538    -4540    -4538 
   -4536    -4531    -4522    -4517    -4519    -4521    -4518    -4513 
   -4506    -4499    -4496    -4494    -4487    -4476    -4465    -4455 
   -4442    -4434    -4430    -4426    -4421    -4417    -4417    -4421 
   -4430    -4441    -4449    -4453    -4456    -4461    -4469    -4475 
   -4476    -4479    -4483    -4486    -4487    -4490    -4494    -4492 
   -4492    -4498    -4504    -4511    -4515    -4518    -4522    -4527 
   -4526    -4525    -4527    -4531    -4534    -4533    -4533    -4538 
   -4546    -4554    -4563    -4571    -4573    -4569    -4568    -4571 
   -4571    -4575    -4581    -4590    -4600    -4612    -4622    -4631 
   -4642    -4654    -4661    -4662    -4668    -4671    -4673    -4676 
   -4683    -4693    -4702    -4710    -4720    -4726    -4726    -4725 
   -4727    -4729    -4725    -4716    -4706    -4688    -4671    -4660 
   -4649    -4638    -4633    -4626    -4615    -4606    -4599    -4598 
   -4598    -4595    -4592    -4591    -4587    -4583    -4579    -4572 
   -4568    -4564    -4557    -4550    -4544    -4541    -4541    -4540 
   -4542    -4549    -4556    -4560    -4563    -4568    -4576    -4581 
   -4584    -4585    -4588    -4585    -4579    -4573    -4569    -4564 
   -4560    -4558    -4557    -4553    -4548    -4541    -4531    -4522 
   -4513    -4504    -4500    -4495    -4492    -4494    -4494    -4491 
   -4488    -4486    -4482    -4479    -4473    -4467    -4463    -4464 
   -4464    -4461    -4456    -4452    -4452    -4450    -4444    -4432 
   -4418    -4409    -4405    -4402    -4409    -4432    -4457    -4482 
   -4506    -4525    -4537    -4545    -4552    -4556    -4556    -4554 
   -4549    -4545    -4548    -4552    -4549    -4544    -4538    -4534 
   -4533    -4526    -4514    -4503    -4494    -4482    -4469    -4459 
   -4448    -4440    -4430    -4422    -4413    -4406    -4402    -4396 
   -4391    -4391    -4396    -4403    -4403    -4403    -4407    -4419 
   -4433    -4445    -4456    -4464    -4471    -4480    -4492    -4503 
   -4515    -4526    -4534    -4540    -4544    -4548    -4558    -4567 
   -4568    -4565    -4565    -4563    -4560    -4558    -4554    -4550 
   -4545    -4538    -4530    -4526    -4521    -4510    -4492    -4477 
   -4465    -4455    -4448    -4444    -4442    -4441    -4441    -4444 
   -4450    -4460    -4469    -4479    -4484    -4491    -4502    -4518 
   -4536    -4554    -4573    -4587    -4602    -4619    -4637    -4653 
   -4673    -4693    -4711    -4730    -4749    -4766    -4779    -4789 
   -4796    -4799    -4801    -4801    -4800    -4804    -4811    -4811 
   -4808    -4806    -4799    -4793    -4787    -4779    -4770    -4764 
   -4758    -4754    -4753    -4757    -4768    -4779    -4785    -4791 
   -4797    -4800    -4800    -4801    -4800    -4791    -4777    -4764 
   -4749    -4738    -4729    -4725    -4722    -4716    -4712    -4710 
   -4704    -4702    -4706    -4707    -4707    -4706    -4703    -4702 
   -4702    -4707    -4711    -4710    -4708    -4707    -4702    -4698 
   -4696    -4693    -4689    -4684    -4676    -4664    -4653    -4649 
   -4649    -4650    -4650    -4652    -4654    -4658    -4661    -4662 
   -4661    -4658    -4650    -4641    -4627    -4612    -4599    -4585 
   -4569    -4549    -4529    -4514    -4500    -4486    -4472    -4461 
   -4452    -4442    -4436    -4428    -4415    -4402    -4390    -4378 
   -4367    -4361    -4361    -4363    -4365    -4368    -4371    -4378 
   -4383    -4386    -4394    -4398    -4396    -4395    -4394    -4395 
   -4399    -4405    -4411    -4422    -4436    -4450    -4464    -4472 
   -4480    -4491    -4502    -4510    -4515    -4525    -4538    -4552 
   -4571    -4590    -4607    -4626    -4645    -4658    -4666    -4672 
   -4676    -4679    -4680    -4681    -4684    -4684    -4683    -4683 
   -4681    -4679    -4669    -4661    -4660    -4654    -4642    -4631 
   -4622    -4610    -4594    -4579    -4563    -4545    -4529    -4511 
   -4494    -4480    -4469    -4457    -4445    -4434    -4425    -4419 
   -4417    -4411    -4407    -4406    -4403    -4395    -4387    -4384 
   -4386    -4388    -4394    -4402    -4413    -4425    -4434    -4442 
   -4453    -4461    -4464    -4467    -4472    -4484    -4495    -4500 
   -4509    -4517    -4525    -4537    -4549    -4560    -4573    -4583 
   -4587    -4592    -4600    -4606    -4610    -4611    -4610    -4608 
   -4607    -4604    -4599    -4594    -4587    -4580    -4579    -4573 
   -4563    -4556    -4549    -4541    -4529    -4518    -4514    -4506 
   -4491    -4479    -4469    -4459    -4452    -4448    -4445    -4446 
   -4446    -4446    -4448    -4449    -4452    -4457    -4464    -4471 
   -4475    -4476    -4479    -4480    -4477    -4472    -4465    -4457 
   -4449    -4444    -4438    -4433    -4430    -4432    -4433    -4433 
   -4438    -4441    -4440    -4440    -4442    -4440    -4434    -4426 
   -4415    -4407    -4402    -4396    -4392    -4390    -4386    -4382 
   -4378    -4375    -4376    -4379    -4380    -4380    -4383    -4386 
   -4391    -4401    -4413    -4426    -4436    -4444    -4452    -4459 
   -4464    -4473    -4488    -4506    -4519    -4533    -4542    -4546 
   -4549    -4550    -4544    -4536    -4530    -4526    -4519    -4517 
   -4518    -4517    -4515    -4517    -4517    -4514    -4509    -4499 
   -4486    -4469    -4456    -4448    -4442    -4438    -4437    -4438 
   -4442    -4449    -4457    -4464    -4473    -4483    -4490    -4486 
   -4479    -4472    -4463    -4452    -4444    -4436    -4425    -4421 
   -4418    -4411    -4403    -4396    -4395    -4402    -4414    -4425 
   -4438    -4457    -4473    -4486    -4506    -4530    -4552    -4576 
   -4602    -4629    -4657    -4685    -4716    -4750    -4780    -4804 
   -4823    -4837    -4841    -4843    -4847    -4845    -4838    -4827 
   -4810    -4789    -4769    -4741    -4710    -4679    -4644    -4607 
   -4573    -4538    -4503    -4468    -4434    -4401    -4364    -4332 
   -4303    -4276    -4259    -4243    -4228    -4224    -4222    -4222 
   -4229    -4247    -4266    -4286    -4309    -4332    -4360    -4399 
   -4441    -4476    -4509    -4544    -4576    -4604    -4629    -4652 
   -4673    -4693    -4708    -4727    -4749    -4769    -4789    -4808 
   -4823    -4835    -4842    -4843    -4845    -4843    -4838    -4830 
   -4823    -4810    -4796    -4789    -4780    -4766    -4756    -4742 
   -4727    -4714    -4698    -4680    -4660    -4638    -4618    -4603 
   -4585    -4567    -4553    -4541    -4523    -4506    -4490    -4471 
   -4453    -4445    -4438    -4432    -4425    -4418    -4410    -4405 
   -4402    -4399    -4399    -4401    -4396    -4392    -4395    -4398 
   -4399    -4399    -4403    -4409    -4413    -4418    -4422    -4426 
   -4433    -4442    -4456    -4471    -4486    -4499    -4513    -4522 
   -4529    -4531    -4530    -4527    -4525    -4525    -4531    -4538 
   -4545    -4556    -4569    -4581    -4588    -4591    -4592    -4594 
   -4588    -4583    -4579    -4573    -4571    -4565    -4558    -4557 
   -4560    -4561    -4565    -4571    -4575    -4579    -4584    -4590 
   -4603    -4615    -4623    -4631    -4641    -4652    -4668    -4684 
   -4699    -4710    -4719    -4726    -4734    -4743    -4752    -4758 
   -4765    -4769    -4776    -4785    -4791    -4796    -4801    -4806 
   -4814    -4822    -4828    -4834    -4834    -4833    -4833    -4827 
   -4818    -4808    -4796    -4783    -4773    -4764    -4753    -4743 
   -4731    -4719    -4711    -4699    -4687    -4679    -4671    -4664 
   -4661    -4662    -4661    -4662    -4666    -4672    -4676    -4679 
   -4681    -4681    -4683    -4687    -4688    -4685    -4684    -4683 
   -4679    -4676    -4671    -4665    -4664    -4658    -4649    -4638 
   -4627    -4618    -4608    -4600    -4588    -4573    -4557    -4544 
   -4530    -4519    -4511    -4503    -4496    -4491    -4487    -4480 
   -4477    -4476    -4476    -4477    -4475    -4471    -4471    -4472 
   -4475    -4477    -4477    -4479    -4480    -4476    -4471    -4464 
   -4456    -4448    -4441    -4433    -4425    -4414    -4402    -4392 
   -4388    -4384    -4380    -4380    -4382    -4382    -4383    -4384 
   -4390    -4395    -4399    -4405    -4410    -4414    -4418    -4422 
   -4426    -4430    -4433    -4436    -4437    -4441    -4446    -4453 
   -4461    -4471    -4480    -4491    -4498    -4504    -4511    -4515 
   -4521    -4530    -4538    -4545    -4552    -4557    -4563    -4568 
   -4571    -4568    -4563    -4558    -4554    -4552    -4550    -4552 
   -4554    -4556    -4557    -4556    -4550    -4544    -4537    -4527 
   -4518    -4507    -4498    -4494    -4492    -4488    -4482    -4475 
   -4467    -4457    -4453    -4455    -4459    -4464    -4471    -4473 
   -4477    -4482    -4483    -4482    -4476    -4471    -4472    -4472 
   -4475    -4483    -4487    -4492    -4503    -4513    -4517    -4522 
   -4531    -4538    -4542    -4545    -4549    -4550    -4553    -4558 
   -4558    -4560    -4556    -4545    -4533    -4518    -4495    -4469 
   -4441    -4409    -4379    -4352    -4325    -4297    -4268    -4244 
   -4220    -4195    -4175    -4158    -4141    -4128    -4117    -4110 
   -4113    -4122    -4133    -4143    -4155    -4171    -4191    -4213 
   -4237    -4267    -4302    -4340    -4382    -4429    -4479    -4527 
   -4576    -4626    -4675    -4719    -4764    -4801    -4834    -4866 
   -4893    -4908    -4922    -4936    -4947    -4953    -4957    -4955 
   -4951    -4946    -4941    -4934    -4922    -4908    -4893    -4877 
   -4857    -4833    -4810    -4785    -4769    -4762    -4753    -4742 
   -4739    -4738    -4734    -4737    -4739    -4743    -4747    -4743 
   -4738    -4735    -4733    -4731    -4726    -4719    -4712    -4710 
   -4703    -4693    -4685    -4677    -4668    -4660    -4650    -4638 
   -4625    -4617    -4612    -4610    -4607    -4611    -4619    -4627 
   -4635    -4645    -4656    -4666    -4675    -4683    -4696    -4710 
   -4718    -4723    -4729    -4733    -4734    -4731    -4723    -4714 
   -4704    -4696    -4687    -4677    -4664    -4649    -4637    -4621 
   -4603    -4584    -4565    -4544    -4525    -4510    -4496    -4483 
   -4473    -4469    -4471    -4471    -4472    -4475    -4482    -4492 
   -4502    -4509    -4521    -4540    -4560    -4579    -4598    -4618 
   -4637    -4656    -4676    -4695    -4711    -4727    -4742    -4747 
   -4749    -4749    -4743    -4730    -4716    -4699    -4673    -4646 
   -4621    -4590    -4560    -4531    -4504    -4479    -4460    -4450 
   -4442    -4432    -4423    -4421    -4419    -4418    -4417    -4418 
   -4421    -4423    -4425    -4429    -4436    -4441    -4452    -4467 
   -4479    -4487    -4496    -4506    -4517    -4523    -4527    -4534 
   -4542    -4548    -4557    -4560    -4558    -4561    -4560    -4550 
   -4540    -4527    -4510    -4494    -4482    -4472    -4464    -4461 
   -4457    -4456    -4457    -4461    -4463    -4464    -4464    -4460 
   -4452    -4441    -4429    -4417    -4406    -4396    -4386    -4378 
   -4369    -4363    -4356    -4348    -4342    -4337    -4333    -4328 
   -4320    -4309    -4298    -4294    -4291    -4288    -4286    -4284 
   -4286    -4290    -4297    -4309    -4324    -4338    -4355    -4375 
   -4390    -4406    -4426    -4446    -4469    -4492    -4514    -4537 
   -4563    -4584    -4606    -4630    -4650    -4661    -4672    -4684 
   -4696    -4708    -4723    -4741    -4756    -4766    -4774    -4784 
   -4793    -4800    -4803    -4800    -4797    -4795    -4789    -4787 
   -4784    -4777    -4770    -4761    -4746    -4730    -4710    -4687 
   -4668    -4652    -4635    -4625    -4618    -4611    -4604    -4604 
   -4611    -4617    -4625    -4631    -4635    -4642    -4649    -4656 
   -4668    -4681    -4692    -4706    -4719    -4730    -4739    -4747 
   -4754    -4761    -4762    -4761    -4757    -4747    -4735    -4725 
   -4712    -4695    -4676    -4660    -4644    -4623    -4604    -4585 
   -4563    -4538    -4514    -4486    -4456    -4428    -4398    -4365 
   -4336    -4310    -4287    -4267    -4248    -4233    -4224    -4216 
   -4206    -4202    -4203    -4207    -4214    -4221    -4229    -4240 
   -4248    -4255    -4267    -4282    -4297    -4313    -4328    -4347 
   -4369    -4394    -4417    -4440    -4459    -4479    -4504    -4526 
   -4544    -4569    -4598    -4626    -4654    -4679    -4702    -4730 
   -4757    -4777    -4799    -4822    -4841    -4858    -4876    -4892 
   -4907    -4920    -4930    -4936    -4945    -4953    -4959    -4963 
   -4972    -4977    -4978    -4982    -4985    -4978    -4968    -4951 
   -4931    -4912    -4893    -4870    -4847    -4823    -4797    -4776 
   -4756    -4733    -4708    -4685    -4665    -4649    -4634    -4618 
   -4602    -4588    -4581    -4576    -4569    -4563    -4553    -4540 
   -4529    -4521    -4513    -4509    -4506    -4500    -4499    -4502 
   -4504    -4503    -4500    -4496    -4492    -4491    -4488    -4486 
   -4482    -4479    -4482    -4488    -4490    -4490    -4490    -4487 
   -4482    -4476    -4468    -4463    -4457    -4448    -4440    -4441 
   -4438    -4429    -4426    -4426    -4423    -4422    -4425    -4428 
   -4432    -4436    -4441    -4453    -4469    -4483    -4498    -4517 
   -4536    -4552    -4567    -4583    -4598    -4610    -4621    -4631 
   -4644    -4649    -4653    -4657    -4658    -4660    -4660    -4654 
   -4646    -4639    -4634    -4626    -4618    -4607    -4592    -4580 
   -4569    -4561    -4552    -4542    -4537    -4530    -4519    -4511 
   -4503    -4495    -4484    -4475    -4471    -4469    -4472    -4476 
   -4479    -4483    -4487    -4484    -4480    -4475    -4463    -4449 
   -4436    -4421    -4403    -4383    -4367    -4352    -4341    -4332 
   -4325    -4317    -4310    -4310    -4311    -4315    -4325    -4336 
   -4347    -4360    -4378    -4392    -4405    -4415    -4423    -4432 
   -4442    -4452    -4461    -4472    -4483    -4491    -4495    -4495 
   -4487    -4480    -4475    -4468    -4461    -4455    -4449    -4446 
   -4442    -4441    -4438    -4433    -4430    -4426    -4419    -4415 
   -4409    -4401    -4398    -4391    -4386    -4383    -4378    -4367 
   -4357    -4353    -4353    -4353    -4359    -4368    -4378    -4390 
   -4405    -4419    -4434    -4453    -4472    -4492    -4513    -4530 
   -4542    -4563    -4581    -4595    -4615    -4637    -4653    -4672 
   -4691    -4710    -4730    -4746    -4757    -4770    -4777    -4781 
   -4789    -4793    -4792    -4795    -4796    -4795    -4789    -4781 
   -4776    -4773    -4768    -4765    -4760    -4750    -4742    -4737 
   -4733    -4730    -4730    -4731    -4731    -4734    -4742    -4749 
   -4756    -4760    -4764    -4769    -4777    -4787    -4795    -4803 
   -4811    -4816    -4819    -4822    -4823    -4818    -4811    -4807 
   -4801    -4793    -4783    -4772    -4761    -4746    -4731    -4718 
