Origin Time       2025/01/13 21:19:00
Lat.              31.8
Long.             131.6
Depth. (km)       30
Mag.              6.9
Station Code      HYGH01
Station Lat.      34.2937
Station Long.     134.7941
Station Height(m) 65
Record Time       2025/01/13 21:20:54
Sampling Freq(Hz) 100Hz
Duration Time(s)  154
Dir.              5
Scale Factor      7845(gal)/8223790
Max. Acc. (gal)   1.159
Last Correction   2025/01/13 21:20:55
Memo.             
[...]
     272      294      318      351      382      400      423      442 
     450      461      471      484      504      522      537      550 
     557      549      541      538      522      507      496      480 
     460      442      417      382      359      325      282      259 
     236      210      190      170      152      128      108       98 
      86       76       71       78       78       68       79       91 
      97      112      130      151      172      201      233      259 
     286      317      355      390      413      449      483      499 
     527      571      602      621      653      685      700      704 
     722      756      766      764      772      768      754      749 
     745      737      726      716      702      684      669      643 
     621      594      560      534      502      467      441      414 
     391      373      363      348      329      314      301      298 
     291      282      288      286      263      252      251      248 
     245      251      264      274      283      287      298      319 
     341      353      363      373      382      383      378      378 
     380      360      334      321      291      260      238      224 
     210      191      174      149      122       94       60       44 
      31        6       -2       -9      -13       -2       10       24 
      48       89      120      151      194      230      271      314 
     360      413      448      481      530      567      591      623 
     661      689      710      731      754      765      761      756 
     750      737      715      689      670      643      611      598 
     576      548      525      496      471      445      421      403 
     375      356      352      344      340      355      383      400 
     421      459      490      518      549      579      610      634 
     657      681      702      704      704      715      710      700 
     704      695      685      692      683      657      642      625 
     591      560      527      496      472      441      417      398 
     371      352      341      334      321      305      302      297 
     290      282      265      256      234      210      201      182 
     157      139      117       94       72       49       25       12 
      -6      -41      -66      -89     -116     -128     -135     -143 
    -144     -140     -140     -130     -118     -116     -102      -85 
     -70      -45      -24        4       35       58       81      113 
     144      168      210      267      306      356      407      441 
     486      525      550      580      603      627      664      704 
     737      765      785      787      791      795      789      796 
     797      781      769      765      758      738      720      700 
     680      664      639      616      602      583      557      540 
     535      533      531      529      517      506      488      469 
     457      441      427      419      410      398      386      383 
     373      364      371      368      361      359      353      359 
     361      363      369      363      346      344      353      353 
     352      355      351      340      321      306      302      279 
     252      245      243      225      218      228      232      234 
     247      261      280      292      298      310      326      345 
     361      378      392      414      442      464      492      525 
     533      538      546      549      546      533      523      514 
     494      463      437      427      406      384      383      379 
     357      337      334      348      365      384      413      457 
     491      521      573      615      649      696      746      795 
     839      876      912      954      985     1008     1042     1071 
    1092     1111     1113     1115     1113     1092     1066     1040 
    1012      970      922      874      814      746      670      585 
     510      430      341      259      172       83        2      -67 
    -133     -186     -224     -259     -279     -287     -297     -295 
    -284     -267     -241     -207     -167     -121      -71      -24 
      29       82      116      156      203      241      286      319 
     341      371      396      413      433      453      457      467 
     477      468      473      483      465      453      441      414 
     391      361      328      298      270      238      210      189 
     163      144      133      117      112      117      118      129 
     151      175      203      243      286      334      388      438 
     494      560      616      670      734      795      839      888 
     932      959      990     1015     1028     1038     1031     1021 
    1004      967      919      868      820      762      699      645 
     584      525      467      405      351      297      245      207 
     170      130       98       62       22        0      -24      -48 
     -51      -52      -49      -28        0       33       72      112 
     149      203      259      301      355      423      471      510 
     554      604      646      673      696      720      739      735 
     722      718      700      670      643      618      598      561 
     515      486      448      396      355      319      280      247 
     222      193      175      168      157      153      160      167 
     172      180      182      183      191      194      209      240 
     257      270      292      318      345      360      380      405 
     422      438      456      479      488      491      511      526 
     527      533      537      538      530      525      530      531 
     529      529      534      541      552      568      584      596 
     610      625      634      648      669      681      688      702 
     712      723      724      715      714      707      685      662 
     646      621      581      553      526      492      460      423 
     394      368      340      317      306      295      276      265 
     265      261      264      268      276      295      307      329 
     353      372      402      427      448      479      510      535 
     553      576      611      645      675      716      764      805 
     839      866      912      959      984     1020     1065     1092 
    1115     1135     1161     1189     1188     1189     1204     1194 
    1174     1161     1140     1112     1086     1050     1004      967 
     926      870      804      741      680      611      538      464 
     399      336      244      160       95        4      -93     -170 
    -245     -317     -391     -450     -481     -521     -557     -567 
    -576     -591     -587     -583     -577     -557     -538     -518 
    -502     -490     -463     -441     -421     -387     -346     -303 
    -271     -232     -175     -132      -98      -49        6       54 
      97      145      190      230      264      302      345      368 
     400      438      453      476      513      538      550      553 
     556      560      560      557      553      553      544      527 
     518      507      490      475      460      433      413      395 
     365      346      337      329      326      317      314      324 
     329      334      344      355      361      368      375      379 
     395      402      402      415      429      445      463      471 
     483      494      503      504      500      508      508      503 
     502      495      488      486      479      476      484      488 
     486      490      496      508      523      529      535      549 
     565      583      606      633      665      712      745      769 
     816      853      876      912      940      963      982      994 
    1009     1013     1011     1005     1001      994      972      955 
     939      908      881      854      823      776      720      677 
     627      569      518      471      433      396      364      341 
     315      288      268      248      230      225      221      217 
     211      203      207      217      228      251      275      303 
     334      367      414      453      486      529      569      595 
     618      658      702      726      760      799      834      866 
     888      907      924      936      938      931      932      916 
     888      872      839      796      764      727      687      657 
     623      577      535      495      454      419      387      364 
     348      322      298      284      271      255      243      234 
     220      205      180      153      133      110       94       83 
      71       67       56       41       31       17       10       -2 
     -16      -25      -48      -66      -79      -98     -114     -126 
    -126     -125     -122     -108      -85      -60      -44      -20 
       9       32       56       79      101      130      157      175 
     197      211      206      207      207      194      193      179 
     149      133      120      106       90       79       66       39 
      20       10       -4      -21      -33      -33      -35      -43 
     -43      -39      -22       -5       14       51       91      139 
     194      256      322      376      441      519      579      641 
     712      772      832      905      965     1019     1086     1146 
    1193     1243     1291     1335     1368     1395     1420     1433 
    1433     1428     1428     1412     1375     1348     1313     1264 
    1217     1162     1100     1034      967      900      824      746 
     664      588      510      413      329      255      172       97 
      35      -22      -89     -153     -205     -256     -303     -341 
    -371     -390     -411     -419     -415     -409     -391     -361 
    -334     -302     -252     -202     -148      -89      -36       25 
      87      137      195      252      288      324      371      411 
     434      469      504      525      553      575      598      625 
     639      657      680      691      697      707      715      707 
     697      689      676      664      638      614      600      575 
     545      527      506      480      456      437      419      405 
     391      375      367      365      365      365      375      386 
     392      403      407      415      427      427      436      453 
     465      483      499      519      541      557      577      611 
     643      656      676      712      731      751      777      793 
     815      828      835      851      872      880      876      877 
     877      865      857      846      831      816      792      769 
     746      715      685      666      637      603      580      549 
     511      480      448      411      368      328      294      256 
     214      172      145      114       76       56       28      -10 
     -32      -51      -67      -71      -72      -62      -49      -35 
     -12       18       47       75      122      167      206      260 
     310      355      402      448      492      529      558      596 
     631      648      660      683      696      695      699      718 
     719      707      708      707      695      689      685      689 
     697      696      710      726      734      746      764      778 
     780      780      781      774      777      777      769      766 
     761      754      741      722      715      699      664      629 
     600      560      502      454      409      351      286      222 
     172      114       44       -2      -39      -89     -133     -155 
    -179     -209     -226     -236     -244     -252     -260     -259 
    -251     -243     -234     -218     -195     -170     -130      -91 
     -60       -9       39       82      140      205      264      318 
     376      440      496      545      588      635      677      706 
     737      764      783      804      816      824      826      815 
     800      785      765      741      708      665      616      569 
     521      469      425      384      337      297      270      228 
     187      164      125       87       66       43       17       -6 
     -24      -31      -36      -44      -52      -48      -49      -52 
     -37      -24       -5       22       56       95      130      174 
     226      270      302      341      387      421      453      496 
     527      546      573      598      611      621      634      641 
     645      645      643      648      634      625      635      637 
     625      621      627      623      611      621      641      657 
     677      707      746      772      793      835      868      891 
     919      953      980      999     1017     1031     1040     1050 
    1054     1062     1066     1057     1053     1047     1038     1028 
    1016      994      981      978      969      959      961      954 
     949      945      938      942      954      951      951      966 
     959      945      950      947      930      916      901      895 
     885      864      846      830      807      781      768      749 
     718      696      676      649      622      592      567      538 
     498      463      432      392      346      309      261      203 
     157       98       21      -47     -121     -202     -280     -355 
    -419     -480     -544     -599     -638     -683     -720     -735 
    -756     -780     -791     -796     -796     -788     -776     -757 
    -731     -704     -675     -626     -594     -573     -525     -480 
    -446     -394     -341     -290     -233     -184     -147     -103 
     -64      -37        1       31       48       71       85       98 
     118      137      159      179      201      218      233      255 
     278      302      329      349      376      411      434      449 
     477      502      517      553      588      623      670      712 
     766      816      855      909      955     1000     1057     1101 
    1139     1183     1221     1240     1252     1267     1264     1246 
    1228     1202     1159     1107     1050      982      916      849 
     774      710      639      569      517      457      399      361 
     321      288      280      275      265      274      287      303 
     337      373      413      457      499      556      618      675 
     737      803      866      915      967     1031     1078     1117 
    1158     1200     1231     1244     1258     1278     1282     1273 
    1270     1269     1243     1223     1213     1182     1140     1100 
    1053     1000      939      873      801      723      641      562 
     494      405      315      243      159       74        5      -56 
    -121     -180     -228     -278     -326     -372     -399     -413 
    -446     -461     -450     -457     -463     -452     -437     -423 
    -414     -392     -361     -333     -306     -265     -211     -171 
    -135      -78      -25       22       81      140      190      238 
     294      355      415      467      522      573      608      646 
     680      693      706      708      703      685      665      652 
     623      584      556      530      492      452      426      403 
     369      338      314      295      268      243      237      228 
     218      217      210      206      199      194      190      183 
     183      183      182      186      201      211      220      247 
     275      298      333      378      427      479      526      580 
     639      699      750      811      872      919      973     1019 
    1053     1090     1117     1135     1147     1151     1148     1131 
    1109     1081     1038      990      942      896      835      772 
     715      656      603      546      488      444      387      330 
     294      249      201      170      133       90       64       36 
      -2      -29      -56      -81      -95     -116     -129     -128 
    -133     -148     -143     -124     -116      -99      -68      -36 
      -2       32       81      135      183      238      299      367 
     430      494      567      627      692      758      808      862 
     912      958     1000     1028     1067     1102     1121     1139 
    1150     1158     1161     1147     1140     1140     1121     1093 
    1084     1069     1035     1004      978      949      911      874 
     845      808      762      716      672      635      591      544 
     503      467      427      379      341      311      280      253 
     221      195      175      155      135      109       94       72 
      41       27        0      -25      -43      -72      -90     -109 
    -141     -155     -164     -184     -193     -189     -187     -179 
    -162     -148     -121      -89      -66      -40      -10       20 
      55       91      128      164      195      222      251      283 
     303      319      338      359      368      369      383      384 
     378      379      379      386      387      383      386      387 
     384      386      396      406      403      414      425      421 
     430      436      438      445      448      452      454      454 
     456      457      456      450      448      445      445      448 
     452      461      472      484      503      519      535      556 
     583      611      639      675      706      737      772      808 
     843      864      892      928      951      974     1001     1027 
    1044     1055     1081     1085     1075     1088     1082     1061 
    1048     1019      981      951      912      868      822      766 
     711      660      591      525      475      407      330      270 
     211      139       70        9      -48     -103     -170     -224 
    -257     -309     -353     -371     -394     -419     -432     -426 
    -422     -418     -396     -369     -340     -305     -265     -218 
    -174     -125      -72      -25       27       78      133      182 
     218      272      321      353      399      444      476      504 
     535      567      592      614      639      666      681      685 
     697      715      720      714      719      729      719      711 
     710      699      687      670      660      652      638      625 
     612      598      575      567      564      545      540      538 
     525      521      518      513      504      496      498      492 
     483      481      472      456      436      425      414      390 
     369      355      344      336      328      326      322      322 
     321      318      333      349      356      373      402      421 
     442      471      496      527      552      579      615      634 
     656      677      679      687      683      668      666      643 
     616      599      567      534      503      464      430      392 
     345      305      265      210      168      133       82       45 
      21      -10      -35      -55      -71      -79      -86      -83 
     -79      -79      -63      -43      -25        6       40       67 
     106      144      182      230      264      303      353      392 
     430      467      504      538      560      585      616      638 
     643      656      675      676      681      689      683      681 
