Origin Time       2025/01/13 21:19:00
Lat.              31.8
Long.             131.6
Depth. (km)       30
Mag.              6.9
Station Code      HYGH04
Station Lat.      35.0708
Station Long.     135.2811
Station Height(m) 217.85
Record Time       2025/01/13 21:21:58
Sampling Freq(Hz) 100Hz
Duration Time(s)  120
Dir.              6
Scale Factor      7845(gal)/8223790
Max. Acc. (gal)   0.249
Last Correction   2025/01/13 21:21:59
Memo.             
[...]
   13266    13263    13262    13263    13257    13252    13255    13254 
   13254    13255    13252    13252    13258    13259    13262    13266 
   13273    13279    13279    13284    13293    13297    13304    13311 
   13317    13324    13323    13325    13332    13335    13338    13342 
   13333    13327    13332    13331    13325    13324    13321    13313 
   13312    13309    13302    13300    13300    13292    13288    13288 
   13282    13277    13278    13282    13281    13279    13282    13288 
   13290    13294    13296    13294    13298    13304    13304    13304 
   13311    13317    13319    13319    13324    13328    13327    13325 
   13332    13338    13328    13324    13328    13327    13325    13324 
   13320    13320    13320    13320    13319    13313    13309    13309 
   13305    13300    13297    13294    13290    13279    13269    13269 
   13266    13259    13251    13240    13234    13234    13230    13219 
   13211    13205    13203    13200    13194    13190    13192    13190 
   13186    13186    13185    13186    13192    13190    13190    13201 
   13207    13203    13203    13205    13209    13213    13212    13212 
   13217    13217    13213    13209    13213    13217    13215    13211 
   13215    13217    13215    13215    13221    13224    13221    13225 
   13232    13228    13228    13235    13236    13234    13240    13247 
   13240    13235    13242    13244    13239    13239    13244    13251 
   13248    13244    13248    13254    13258    13259    13259    13262 
   13270    13274    13274    13279    13290    13297    13294    13298 
   13309    13316    13315    13315    13320    13325    13332    13340 
   13340    13342    13351    13354    13350    13352    13358    13359 
   13362    13362    13359    13362    13367    13363    13356    13355 
   13358    13355    13346    13335    13328    13325    13324    13316 
   13308    13304    13297    13292    13292    13289    13282    13282 
   13279    13274    13277    13278    13273    13275    13282    13285 
   13288    13290    13289    13288    13294    13301    13297    13294 
   13294    13298    13305    13306    13301    13301    13304    13304 
   13305    13304    13300    13300    13302    13300    13296    13296 
   13294    13292    13288    13288    13293    13288    13278    13281 
   13281    13271    13265    13265    13261    13254    13252    13251 
   13247    13240    13234    13231    13225    13220    13216    13213 
   13209    13201    13200    13200    13190    13185    13190    13190 
   13190    13196    13198    13200    13204    13209    13215    13220 
   13223    13224    13231    13235    13234    13238    13243    13243 
   13251    13259    13255    13258    13267    13271    13275    13281 
   13281    13285    13292    13292    13289    13292    13296    13294 
   13292    13292    13292    13290    13284    13269    13266    13271 
   13261    13248    13250    13248    13243    13238    13238    13239 
   13236    13236    13238    13238    13244    13250    13252    13259 
   13269    13277    13278    13284    13296    13302    13306    13316 
   13321    13328    13338    13343    13348    13359    13365    13369 
   13375    13378    13382    13387    13387    13393    13402    13402 
   13397    13397    13397    13396    13390    13389    13389    13383 
   13382    13381    13375    13377    13378    13367    13362    13366 
   13366    13360    13360    13360    13356    13355    13355    13351 
   13342    13338    13335    13332    13329    13324    13319    13316 
   13312    13312    13309    13300    13293    13288    13286    13285 
   13279    13271    13266    13263    13263    13257    13248    13246 
   13240    13230    13225    13224    13220    13213    13204    13200 
   13204    13201    13189    13189    13196    13189    13180    13176 
   13176    13180    13184    13180    13178    13182    13185    13185 
   13189    13193    13194    13193    13196    13205    13211    13211 
   13215    13221    13230    13235    13236    13242    13247    13250 
   13254    13258    13261    13262    13267    13270    13270    13273 
   13275    13273    13277    13284    13282    13284    13285    13288 
   13293    13292    13290    13293    13297    13296    13296    13296 
   13296    13293    13292    13294    13290    13279    13281    13289 
   13285    13284    13289    13290    13290    13297    13297    13293 
   13298    13308    13311    13313    13311    13306    13317    13329 
   13327    13325    13333    13338    13343    13350    13348    13346 
   13351    13362    13359    13356    13365    13369    13369    13370 
   13371    13369    13369    13373    13373    13365    13365    13369 
   13369    13369    13371    13371    13373    13370    13363    13366 
   13371    13367    13358    13354    13351    13348    13348    13347 
   13343    13343    13348    13347    13343    13340    13340    13339 
   13336    13333    13331    13324    13317    13316    13315    13308 
   13300    13294    13293    13292    13285    13275    13273    13271 
   13267    13259    13251    13255    13258    13248    13242    13242 
   13243    13242    13236    13231    13230    13234    13230    13224 
   13223    13220    13217    13216    13208    13201    13201    13201 
   13198    13193    13192    13197    13196    13192    13194    13197 
   13196    13200    13203    13198    13205    13213    13211    13216 
   13224    13223    13227    13238    13242    13244    13247    13251 
   13259    13262    13261    13263    13269    13273    13273    13275 
   13278    13281    13279    13278    13284    13290    13292    13292 
   13296    13300    13300    13301    13304    13308    13312    13309 
   13311    13319    13319    13319    13321    13320    13324    13333 
   13332    13328    13331    13332    13331    13331    13328    13324 
   13323    13323    13319    13312    13308    13304    13300    13294 
   13285    13278    13274    13270    13263    13257    13255    13254 
   13250    13242    13235    13234    13235    13230    13221    13220 
   13224    13221    13215    13217    13223    13223    13220    13217 
   13220    13228    13232    13230    13230    13238    13244    13246 
   13251    13254    13252    13261    13265    13259    13259    13265 
   13263    13261    13257    13255    13252    13250    13248    13247 
   13240    13238    13240    13238    13227    13225    13231    13230 
   13227    13227    13227    13224    13223    13223    13219    13213 
   13216    13217    13215    13215    13215    13212    13213    13213 
   13215    13217    13217    13221    13230    13235    13236    13243 
   13258    13265    13261    13269    13282    13292    13298    13302 
   13304    13319    13339    13344    13344    13356    13370    13381 
   13389    13392    13397    13408    13410    13408    13413    13423 
   13428    13431    13431    13431    13437    13443    13432    13423 
   13428    13428    13416    13409    13410    13406    13400    13396 
   13389    13382    13379    13370    13362    13359    13355    13348 
   13343    13333    13328    13325    13320    13309    13304    13302 
   13298    13296    13293    13292    13289    13285    13284    13279 
   13277    13275    13273    13266    13258    13257    13255    13244 
   13238    13232    13225    13221    13216    13213    13209    13200 
   13196    13198    13198    13198    13200    13201    13204    13207 
   13209    13213    13213    13213    13221    13231    13231    13232 
   13239    13247    13250    13252    13259    13265    13266    13274 
   13281    13285    13292    13298    13301    13311    13323    13329 
   13335    13348    13358    13363    13374    13383    13390    13401 
   13410    13412    13417    13429    13437    13439    13440    13441 
   13447    13450    13447    13446    13446    13443    13441    13439 
   13427    13420    13420    13412    13400    13389    13379    13373 
   13363    13352    13342    13332    13327    13316    13302    13292 
   13284    13277    13269    13258    13248    13243    13238    13228 
   13221    13221    13225    13221    13217    13225    13230    13225 
   13227    13231    13230    13232    13238    13238    13239    13244 
   13243    13244    13248    13251    13248    13246    13247    13250 
   13248    13242    13236    13232    13232    13230    13217    13212 
   13216    13208    13200    13201    13197    13192    13190    13181 
   13177    13180    13173    13163    13159    13161    13155    13149 
   13149    13143    13139    13143    13140    13134    13134    13138 
   13143    13143    13142    13143    13146    13150    13155    13155 
   13157    13167    13177    13180    13185    13193    13200    13209 
   13225    13236    13240    13251    13270    13279    13286    13296 
   13301    13313    13323    13321    13327    13332    13335    13339 
   13336    13335    13335    13335    13333    13328    13321    13320 
   13317    13312    13308    13306    13302    13294    13294    13296 
   13289    13288    13292    13292    13289    13289    13293    13294 
   13293    13292    13290    13293    13298    13294    13290    13296 
   13302    13301    13300    13311    13313    13304    13308    13317 
   13315    13316    13321    13319    13321    13329    13331    13331 
   13338    13339    13338    13342    13343    13342    13340    13336 
   13342    13343    13333    13327    13327    13324    13319    13306 
   13294    13288    13284    13278    13262    13250    13250    13244 
   13234    13225    13216    13212    13211    13203    13194    13192 
   13194    13194    13192    13192    13192    13196    13203    13201 
   13204    13213    13217    13223    13234    13238    13240    13255 
   13267    13271    13279    13289    13296    13304    13311    13319 
   13329    13336    13344    13355    13354    13358    13369    13369 
   13367    13374    13378    13381    13387    13390    13387    13392 
   13400    13400    13396    13398    13402    13404    13405    13408 
   13408    13405    13405    13406    13404    13398    13397    13394 
   13394    13394    13386    13381    13383    13378    13366    13362 
   13363    13358    13352    13352    13348    13340    13336    13332 
   13328    13324    13321    13317    13308    13305    13312    13308 
   13300    13297    13296    13293    13289    13286    13281    13275 
   13279    13278    13273    13271    13273    13271    13271    13267 
   13266    13263    13261    13262    13255    13248    13250    13246 
   13238    13234    13231    13224    13223    13219    13205    13201 
   13205    13200    13188    13184    13178    13173    13169    13166 
   13161    13155    13153    13150    13149    13146    13139    13138 
   13135    13131    13130    13127    13126    13126    13119    13122 
   13126    13123    13124    13128    13130    13131    13136    13140 
   13144    13150    13155    13159    13165    13173    13181    13189 
   13196    13205    13223    13236    13239    13250    13266    13275 
   13285    13294    13302    13309    13313    13317    13321    13324 
   13329    13328    13324    13323    13327    13327    13317    13309 
   13311    13313    13311    13305    13300    13300    13300    13296 
   13297    13300    13300    13304    13298    13294    13302    13301 
   13294    13297    13302    13301    13298    13298    13297    13297 
   13300    13296    13292    13296    13297    13290    13289    13294 
   13294    13294    13298    13296    13292    13297    13302    13300 
   13300    13306    13312    13315    13319    13320    13321    13333 
   13346    13344    13344    13355    13366    13370    13371    13371 
   13378    13383    13383    13375    13371    13382    13387    13375 
   13369    13369    13365    13362    13358    13347    13339    13336 
   13332    13324    13316    13311    13305    13301    13301    13302 
   13297    13294    13294    13296    13298    13298    13297    13301 
   13309    13316    13313    13313    13327    13339    13338    13338 
   13342    13350    13359    13362    13358    13359    13366    13367 
   13363    13367    13370    13367    13369    13370    13366    13367 
   13370    13365    13362    13369    13374    13371    13367    13369 
   13375    13381    13379    13379    13383    13385    13383    13381 
   13381    13379    13379    13375    13370    13371    13366    13356 
   13355    13354    13346    13340    13335    13323    13312    13311 
   13304    13289    13278    13270    13258    13250    13242    13227 
   13215    13209    13204    13193    13184    13177    13170    13166 
   13166    13161    13153    13150    13154    13154    13154    13154 
   13153    13157    13166    13173    13171    13173    13182    13190 
   13193    13194    13196    13201    13211    13215    13212    13215 
   13220    13224    13223    13219    13215    13217    13219    13212 
   13207    13209    13205    13196    13193    13190    13186    13182 
   13178    13173    13170    13165    13159    13154    13151    13151 
   13150    13150    13151    13151    13155    13165    13169    13166 
   13177    13192    13196    13204    13217    13228    13243    13259 
   13269    13285    13308    13323    13332    13348    13365    13382 
   13398    13408    13420    13437    13452    13463    13468    13478 
   13494    13501    13505    13512    13517    13520    13527    13533 
   13533    13533    13537    13540    13541    13543    13547    13544 
   13537    13536    13537    13539    13535    13525    13522    13524 
   13517    13506    13497    13493    13490    13478    13463    13451 
   13444    13437    13419    13400    13392    13385    13369    13347 
   13332    13323    13313    13297    13285    13270    13257    13252 
   13239    13221    13219    13215    13201    13192    13189    13184 
   13174    13171    13163    13154    13154    13151    13143    13142 
   13143    13142    13138    13138    13139    13136    13142    13147 
   13146    13146    13155    13163    13163    13169    13181    13189 
   13194    13203    13212    13217    13224    13235    13243    13250 
   13261    13267    13270    13279    13286    13285    13294    13305 
   13304    13304    13309    13315    13315    13316    13319    13317 
   13315    13319    13320    13315    13309    13305    13302    13305 
   13305    13300    13289    13288    13292    13288    13281    13279 
   13277    13278    13281    13277    13275    13277    13277    13277 
   13281    13286    13284    13281    13289    13293    13292    13296 
   13298    13301    13309    13316    13317    13321    13329    13335 
   13335    13339    13350    13355    13354    13354    13354    13358 
   13360    13356    13348    13343    13344    13344    13332    13324 
   13320    13313    13311    13306    13297    13293    13289    13281 
   13275    13270    13266    13265    13261    13254    13250    13250 
   13252    13248    13240    13239    13246    13250    13243    13236 
   13247    13254    13250    13248    13251    13254    13265    13271 
   13269    13269    13279    13286    13285    13288    13290    13290 
   13293    13293    13288    13289    13290    13279    13273    13275 
   13271    13262    13254    13246    13240    13235    13225    13215 
   13208    13201    13192    13188    13182    13173    13173    13174 
   13170    13165    13166    13166    13161    13162    13165    13159 
   13162    13167    13167    13169    13170    13166    13169    13176 
   13173    13167    13167    13167    13167    13166    13157    13154 
   13155    13153    13146    13142    13144    13147    13144    13138 
   13136    13147    13153    13147    13149    13157    13163    13173 
   13177    13177    13181    13197    13212    13211    13215    13232 
   13242    13247    13258    13269    13281    13297    13306    13313 
   13324    13336    13344    13352    13363    13375    13386    13394 
   13396    13404    13414    13416    13420    13436    13439    13429 
   13432    13443    13444    13436    13432    13439    13443    13433 
   13425    13428    13428    13423    13417    13412    13404    13397 
   13392    13383    13373    13363    13356    13346    13335    13331 
   13321    13309    13304    13298    13292    13281    13271    13269 
   13267    13262    13252    13244    13247    13250    13240    13236 
   13239    13236    13236    13242    13244    13240    13244    13259 
   13266    13261    13265    13279    13286    13284    13288    13297 
   13306    13309    13306    13315    13325    13325    13323    13329 
   13332    13332    13332    13331    13331    13332    13333    13332 
   13327    13324    13327    13320    13315    13316    13315    13309 
   13309    13306    13301    13301    13304    13296    13290    13298 
   13302    13293    13289    13292    13294    13293    13289    13293 
   13296    13294    13293    13293    13294    13296    13297    13296 
   13296    13298    13300    13296    13294    13301    13300    13300 
   13306    13304    13304    13308    13309    13312    13315    13313 
   13312    13320    13324    13320    13323    13325    13325    13328 
   13329    13329    13332    13332    13335    13336    13333    13336 
   13340    13338    13336    13339    13336    13332    13329    13327 
   13327    13324    13315    13312    13312    13305    13298    13293 
   13290    13289    13286    13275    13267    13273    13275    13265 
   13257    13259    13263    13258    13251    13250    13254    13251 
   13246    13247    13246    13242    13243    13243    13240    13246 
   13248    13243    13239    13246    13252    13247    13243    13250 
   13254    13247    13248    13251    13248    13247    13248    13247 
   13248    13250    13246    13247    13252    13250    13247    13250 
   13250    13244    13246    13247    13244    13243    13248    13251 
   13248    13248    13251    13252    13255    13252    13257    13265 
   13265    13265    13271    13277    13282    13289    13294    13300 
   13304    13309    13319    13323    13325    13331    13340    13344 
   13343    13346    13352    13355    13355    13355    13358    13360 
   13362    13360    13360    13362    13362    13362    13365    13367 
   13369    13366    13367    13373    13373    13371    13373    13375 
   13377    13374    13373    13371    13369    13371    13374    13371 
   13367    13365    13363    13363    13359    13351    13347    13348 
   13344    13335    13332    13328    13320    13317    13315    13311 
   13306    13305    13300    13286    13282    13284    13281    13273 
   13263    13257    13258    13258    13250    13236    13234    13236 
   13231    13221    13217    13216    13215    13208    13203    13201 
   13201    13203    13197    13189    13192    13189    13185    13182 
   13177    13178    13182    13181    13185    13185    13178    13181 
   13185    13184    13188    13193    13198    13203    13208    13211 
   13211    13217    13230    13235    13236    13243    13252    13257 
   13259    13262    13266    13271    13278    13282    13286    13292 
   13298    13302    13304    13308    13317    13328    13332    13336 
   13344    13348    13352    13358    13362    13367    13375    13377 
