Origin Time       2025/01/13 21:19:00
Lat.              31.8
Long.             131.6
Depth. (km)       30
Mag.              6.9
Station Code      HYGH10
Station Lat.      34.8164
Station Long.     134.8078
Station Height(m) 18
Record Time       2025/01/13 21:21:40
Sampling Freq(Hz) 100Hz
Duration Time(s)  120
Dir.              4
Scale Factor      7845(gal)/8223790
Max. Acc. (gal)   1.202
Last Correction   2025/01/13 21:21:41
Memo.             
[...]
    1930     1969     2000     2023     2038     2049     2056     2056 
    2052     2050     2047     2038     2025     2012     1999     1981 
    1966     1952     1929     1902     1876     1848     1821     1796 
    1772     1745     1715     1683     1647     1609     1571     1532 
    1495     1460     1426     1401     1381     1364     1352     1340 
    1332     1327     1327     1328     1328     1328     1329     1325 
    1324     1325     1321     1310     1294     1273     1248     1221 
    1193     1165     1134     1101     1074     1046     1016      992 
     967      950      943      943      946      954      965      976 
     988     1003     1017     1036     1058     1077     1093     1109 
    1123     1134     1140     1140     1136     1131     1124     1119 
    1112     1104     1098     1094     1090     1090     1092     1094 
    1094     1093     1086     1078     1069     1058     1048     1042 
    1043     1054     1071     1092     1120     1152     1179     1206 
    1235     1262     1290     1320     1348     1381     1420     1460 
    1497     1532     1564     1597     1632     1665     1694     1722 
    1744     1759     1769     1777     1780     1776     1769     1768 
    1769     1772     1780     1794     1804     1811     1818     1823 
    1823     1821     1815     1802     1777     1742     1696     1642 
    1586     1526     1462     1397     1336     1281     1233     1193 
    1159     1134     1117     1102     1089     1081     1078     1070 
    1062     1053     1039     1021     1009      997      986      981 
     980      980      982      992     1011     1039     1070     1102 
    1139     1178     1217     1259     1301     1335     1367     1402 
    1433     1459     1485     1510     1533     1556     1578     1601 
    1622     1647     1672     1702     1736     1769     1799     1823 
    1840     1854     1865     1867     1860     1848     1834     1822 
    1807     1788     1768     1745     1719     1692     1664     1636 
    1611     1594     1576     1553     1530     1509     1487     1463 
    1440     1418     1394     1370     1350     1328     1309     1294 
    1278     1258     1236     1210     1182     1155     1129     1102 
    1071     1043     1017      994      973      953      938      926 
     919      920      928      940      959      984     1013     1048 
    1080     1111     1146     1185     1228     1271     1320     1370 
    1421     1474     1533     1594     1653     1713     1772     1826 
    1879     1931     1973     2003     2027     2043     2047     2046 
    2042     2029     2008     1987     1961     1934     1911     1891 
    1873     1858     1842     1826     1809     1790     1771     1749 
    1721     1691     1661     1626     1591     1560     1533     1509 
    1489     1471     1458     1445     1435     1418     1397     1372 
    1344     1306     1263     1215     1163     1112     1066     1027 
     990      959      932      905      882      864      845      831 
     822      812      811      811      810      810      805      795 
     785      780      776      776      781      792      810      835 
     862      892      928      972     1020     1073     1125     1174 
    1223     1267     1306     1345     1383     1421     1458     1494 
    1534     1576     1615     1649     1674     1691     1706     1714 
    1715     1714     1710     1701     1684     1672     1661     1652 
    1649     1653     1657     1671     1690     1711     1740     1771 
    1798     1822     1844     1860     1869     1876     1879     1880 
    1873     1858     1838     1806     1768     1728     1683     1640 
    1601     1567     1534     1503     1475     1445     1414     1379 
    1343     1306     1271     1236     1200     1163     1127     1093 
    1059     1034     1016     1007     1012     1031     1062     1098 
    1139     1183     1228     1271     1316     1358     1404     1455 
    1507     1561     1615     1665     1706     1738     1767     1794 
    1813     1827     1842     1860     1877     1891     1903     1910 
    1908     1906     1896     1875     1852     1827     1796     1760 
    1715     1668     1617     1559     1502     1449     1398     1350 
    1304     1262     1224     1188     1151     1123     1100     1081 
    1070     1065     1061     1061     1061     1062     1065     1063 
    1066     1071     1069     1063     1059     1051     1040     1030 
    1017     1005     1000     1000     1003     1009     1020     1036 
    1055     1071     1088     1101     1112     1128     1150     1171 
    1194     1217     1242     1267     1290     1309     1329     1350 
    1367     1382     1395     1405     1417     1431     1443     1455 
    1468     1475     1478     1471     1455     1433     1406     1374 
    1335     1291     1250     1213     1179     1146     1111     1080 
    1058     1043     1035     1039     1053     1070     1094     1125 
    1159     1197     1235     1274     1317     1358     1390     1418 
    1441     1456     1463     1459     1453     1449     1444     1440 
    1440     1440     1445     1451     1452     1453     1453     1451 
    1451     1453     1451     1447     1444     1445     1444     1441 
    1440     1436     1429     1417     1401     1379     1352     1321 
    1286     1254     1220     1183     1151     1127     1109     1094 
    1082     1078     1084     1090     1102     1123     1144     1163 
    1192     1223     1252     1285     1320     1352     1389     1428 
    1460     1491     1525     1556     1586     1615     1640     1657 
    1675     1687     1692     1698     1705     1702     1696     1695 
    1695     1695     1698     1701     1701     1699     1699     1698 
    1698     1699     1698     1692     1683     1671     1652     1626 
    1598     1568     1537     1506     1478     1453     1432     1414 
    1401     1387     1377     1371     1371     1372     1370     1364 
    1362     1359     1351     1347     1347     1348     1351     1359 
    1370     1385     1401     1418     1437     1459     1480     1502 
    1528     1555     1583     1607     1628     1645     1655     1652 
    1638     1618     1588     1552     1513     1470     1422     1374 
    1325     1275     1225     1171     1120     1074     1030      994 
     966      945      928      913      903      897      892      891 
     893      895      899      900      897      899      899      896 
     888      880      870      859      847      839      832      832 
     841      855      877      911      950      990     1032     1080 
    1128     1174     1219     1266     1314     1367     1420     1470 
    1521     1570     1613     1649     1682     1709     1730     1748 
    1765     1777     1783     1787     1791     1792     1788     1783 
    1776     1767     1753     1737     1717     1695     1672     1649 
    1626     1606     1587     1567     1549     1534     1525     1516 
    1505     1494     1483     1470     1460     1455     1445     1440 
    1437     1436     1433     1426     1417     1402     1385     1366 
    1343     1324     1309     1291     1275     1260     1248     1237 
    1228     1221     1216     1208     1200     1193     1185     1173 
    1156     1142     1128     1119     1115     1113     1116     1127 
    1150     1181     1221     1269     1317     1368     1424     1482 
    1536     1583     1626     1663     1692     1713     1723     1732 
    1737     1734     1729     1719     1706     1690     1671     1645 
    1621     1594     1564     1536     1513     1493     1474     1455 
    1441     1432     1421     1410     1405     1402     1404     1409 
    1418     1432     1445     1458     1470     1479     1490     1494 
    1493     1489     1480     1463     1440     1418     1397     1375 
    1355     1337     1324     1313     1302     1293     1281     1269 
    1259     1252     1242     1229     1216     1196     1175     1162 
    1151     1140     1138     1144     1155     1170     1194     1223 
    1255     1290     1325     1363     1397     1426     1451     1468 
    1478     1482     1483     1479     1475     1474     1474     1476 
    1478     1476     1478     1480     1483     1486     1486     1485 
    1487     1485     1479     1476     1468     1460     1449     1435 
    1416     1399     1383     1364     1347     1331     1313     1296 
    1278     1262     1247     1231     1212     1193     1174     1154 
    1132     1113     1096     1081     1070     1067     1077     1098 
    1128     1165     1210     1266     1323     1381     1440     1494 
    1544     1588     1626     1659     1686     1705     1718     1723 
    1723     1722     1718     1710     1702     1691     1680     1667 
    1652     1637     1621     1603     1584     1564     1537     1503 
    1464     1422     1378     1335     1290     1248     1210     1175 
    1143     1113     1088     1069     1048     1031     1024     1019 
    1009     1001      993      980      957      931      904      869 
     828      789      749      707      664      625      591      560 
     535      518      506      502      508      526      552      585 
     634      692      758      837      928     1028     1135     1247 
    1367     1489     1607     1729     1846     1957     2058     2150 
    2231     2301     2355     2394     2424     2446     2458     2459 
    2454     2440     2417     2390     2358     2324     2296     2269 
    2241     2219     2201     2182     2166     2149     2127     2106 
    2087     2061     2038     2019     1996     1969     1944     1918 
    1888     1853     1821     1783     1738     1694     1649     1602 
    1553     1503     1451     1399     1347     1293     1240     1186 
    1128     1069     1011      955      900      847      797      749 
     702      666      642      622      608      598      587      579 
     568      557      550      546      545      548      550      556 
     565      579      591      602      614      622      629      634 
     641      652      665      687      714      749      796      849 
     901      957     1015     1069     1117     1161     1204     1247 
    1286     1324     1363     1405     1448     1497     1548     1598 
    1647     1691     1729     1757     1779     1796     1810     1822 
    1834     1842     1846     1850     1849     1842     1836     1826 
    1814     1800     1790     1777     1765     1750     1736     1723 
    1707     1691     1675     1655     1632     1610     1583     1548 
    1509     1467     1421     1370     1320     1271     1221     1174 
    1134     1094     1059     1036     1019     1005      996      993 
     997     1005     1016     1030     1042     1055     1071     1088 
    1104     1120     1136     1150     1161     1163     1162     1158 
    1150     1136     1123     1107     1090     1074     1055     1038 
    1020     1007      999      993      992      993      996     1003 
    1013     1027     1044     1070     1098     1131     1167     1206 
    1251     1300     1348     1401     1460     1521     1579     1638 
    1696     1749     1795     1836     1871     1902     1926     1946 
    1958     1964     1961     1950     1931     1910     1881     1848 
    1817     1784     1748     1705     1659     1613     1568     1521 
    1474     1431     1390     1356     1329     1308     1286     1267 
    1246     1220     1197     1177     1152     1134     1123     1116 
    1115     1119     1129     1144     1165     1185     1205     1232 
    1263     1290     1316     1348     1374     1390     1406     1422 
    1436     1445     1453     1460     1468     1474     1480     1491 
    1501     1512     1525     1540     1552     1563     1574     1583 
    1591     1597     1597     1594     1593     1595     1602     1606 
    1611     1622     1633     1648     1667     1688     1713     1738 
    1764     1787     1806     1822     1836     1840     1842     1840 
    1827     1813     1795     1768     1737     1707     1680     1656 
    1637     1620     1606     1593     1583     1572     1561     1551 
    1536     1514     1489     1462     1431     1395     1358     1313 
    1262     1209     1159     1104     1047      996      943      888 
     839      793      749      714      685      661      643      634 
     633      637      642      654      675      699      729      761 
     796      831      868      899      923      943      962      977 
     992     1005     1020     1038     1055     1074     1101     1131 
    1165     1205     1248     1293     1341     1394     1449     1502 
    1548     1590     1628     1660     1687     1710     1725     1732 
    1734     1729     1718     1706     1696     1684     1671     1663 
    1661     1664     1672     1682     1696     1721     1745     1768 
    1796     1818     1836     1854     1871     1883     1892     1900 
    1907     1915     1919     1918     1917     1917     1911     1902 
    1892     1885     1880     1869     1860     1854     1850     1841 
    1830     1819     1809     1799     1791     1775     1753     1726 
    1690     1648     1599     1544     1483     1421     1352     1278 
    1197     1112     1027      935      835      737      641      549 
     461      382      313      253      205      166      135      118 
     114      117      130      153      182      218      261      307 
     357      413      472      534      599      668      737      804 
     874      940     1008     1073     1134     1196     1256     1314 
    1377     1439     1495     1553     1607     1655     1698     1741 
    1780     1818     1861     1911     1965     2020     2077     2137 
    2195     2253     2308     2358     2403     2440     2473     2497 
    2515     2524     2523     2516     2502     2478     2446     2413 
    2376     2335     2295     2243     2185     2124     2057     1981 
    1902     1815     1726     1632     1536     1437     1333     1228 
    1128     1030      930      837      751      675      607      554 
     508      472      449      432      421      419      427      436 
     445      456      464      473      484      495      506      519 
     534      550      567      583      602      623      650      676 
     703      734      766      801      846      893      940      993 
    1051     1115     1182     1250     1318     1393     1471     1548 
    1622     1695     1768     1840     1906     1968     2027     2079 
    2123     2165     2200     2227     2250     2269     2280     2286 
    2289     2288     2278     2266     2249     2222     2189     2149 
    2101     2049     1985     1915     1840     1756     1671     1586 
    1499     1414     1333     1258     1188     1121     1057     1000 
     949      904      869      839      814      793      784      778 
     774      777      784      795      811      828      843      862 
     882      901      919      938      959      988     1017     1047 
    1077     1107     1138     1169     1196     1220     1247     1273 
    1294     1318     1337     1354     1370     1385     1401     1417 
    1433     1451     1466     1480     1497     1507     1516     1526 
    1536     1544     1556     1570     1578     1586     1595     1605 
    1609     1606     1603     1601     1591     1578     1567     1556 
    1547     1539     1530     1526     1525     1522     1518     1513 
    1507     1501     1489     1471     1447     1417     1385     1350 
    1306     1259     1219     1174     1128     1082     1036      993 
     961      931      903      877      857      845      838      834 
     831      837      847      857      869      884      900      922 
     942      961      982     1012     1047     1088     1132     1181 
    1237     1301     1362     1418     1478     1539     1599     1651 
    1691     1729     1761     1784     1803     1815     1817     1814 
    1809     1800     1790     1775     1760     1746     1729     1707 
    1690     1675     1659     1647     1637     1628     1621     1618 
    1622     1629     1637     1651     1668     1687     1711     1738 
    1765     1795     1825     1852     1876     1896     1911     1921 
    1925     1927     1919     1895     1867     1836     1791     1738 
    1678     1609     1534     1462     1385     1306     1235     1167 
    1101     1039      981      928      880      837      796      760 
     723      689      658      627      602      583      564      544 
     533      533      538      548      568      595      627      673 
     724      776      837      903      967     1036     1108     1177 
    1244     1310     1370     1429     1486     1536     1588     1644 
    1688     1730     1772     1809     1837     1861     1880     1895 
    1904     1914     1925     1927     1930     1930     1925     1919 
    1919     1918     1914     1911     1912     1911     1907     1902 
    1894     1881     1864     1845     1825     1799     1765     1728 
    1684     1636     1583     1524     1462     1399     1337     1275 
    1213     1150     1088     1027      965      900      841      785 
     730      673      619      571      529      488      457      434 
     414      405      406      417      437      467      506      548 
     592      641      692      745      792      838      885      935 
     985     1035     1085     1138     1192     1247     1301     1356 
    1412     1467     1518     1566     1610     1653     1692     1729 
    1764     1795     1823     1852     1877     1903     1934     1965 
    1996     2029     2060     2091     2122     2154     2185     2215 
    2241     2259     2274     2284     2290     2293     2292     2282 
    2266     2245     2218     2188     2154     2118     2076     2037 
    1999     1958     1917     1877     1833     1788     1741     1690 
    1637     1583     1525     1463     1393     1323     1251     1178 
    1104     1031      962      896      831      769      711      657 
     603      554      513      472      440      418      403      394 
     392      398      410      430      453      483      521      562 
     611      664      719      781      850      920      994     1074 
    1163     1258     1351     1448     1545     1637     1726     1814 
    1895     1972     2039     2099     2154     2200     2235     2268 
    2290     2301     2303     2295     2276     2250     2216     2173 
    2126     2070     2008     1946     1883     1813     1744     1674 
    1598     1528     1460     1393     1328     1270     1217     1166 
    1123     1085     1053     1023     1000      982      967      957 
     951      949      943      940      949      959      973      986 
    1004     1028     1054     1075     1094     1119     1146     1167 
    1183     1201     1221     1243     1264     1279     1291     1310 
    1336     1359     1381     1410     1439     1464     1491     1514 
    1530     1547     1563     1574     1579     1584     1587     1588 
    1590     1587     1579     1570     1555     1539     1522     1502 
    1479     1452     1421     1390     1364     1337     1308     1279 
