Origin Time       2025/01/13 21:19:00
Lat.              31.8
Long.             131.6
Depth. (km)       30
Mag.              6.9
Station Code      HYGH13
Station Lat.      35.6208
Station Long.     134.6566
Station Height(m) 230
Record Time       2025/01/13 21:21:54
Sampling Freq(Hz) 100Hz
Duration Time(s)  120
Dir.              6
Scale Factor      7845(gal)/8223790
Max. Acc. (gal)   0.374
Last Correction   2025/01/13 21:21:56
Memo.             
[...]
    8776     8783     8787     8788     8792     8792     8787     8783 
    8779     8773     8766     8762     8760     8760     8761     8760 
    8765     8773     8776     8781     8791     8797     8800     8807 
    8812     8808     8803     8800     8795     8785     8775     8768 
    8764     8764     8764     8760     8761     8765     8762     8756 
    8754     8750     8739     8733     8729     8721     8712     8710 
    8706     8699     8692     8688     8683     8681     8681     8677 
    8676     8677     8677     8676     8677     8675     8671     8671 
    8669     8668     8671     8676     8677     8683     8688     8694 
    8698     8703     8706     8706     8708     8706     8700     8699 
    8696     8694     8695     8694     8694     8698     8700     8703 
    8710     8718     8725     8733     8735     8737     8738     8737 
    8734     8731     8726     8722     8721     8716     8712     8712 
    8711     8707     8708     8711     8710     8710     8714     8718 
    8719     8723     8726     8727     8731     8734     8735     8738 
    8741     8745     8749     8752     8756     8760     8762     8765 
    8766     8769     8770     8770     8773     8773     8768     8765 
    8769     8769     8765     8765     8768     8765     8765     8764 
    8761     8760     8756     8750     8748     8745     8743     8741 
    8739     8735     8734     8735     8733     8730     8730     8730 
    8730     8730     8731     8733     8737     8742     8742     8742 
    8748     8753     8758     8761     8764     8768     8772     8773 
    8775     8773     8770     8772     8773     8776     8776     8775 
    8776     8779     8776     8776     8780     8781     8780     8780 
    8776     8770     8769     8765     8761     8756     8749     8743 
    8741     8735     8729     8723     8722     8721     8718     8716 
    8716     8715     8715     8714     8712     8714     8715     8712 
    8708     8707     8708     8703     8698     8696     8692     8687 
    8687     8687     8685     8688     8692     8695     8698     8700 
    8704     8706     8707     8711     8716     8721     8719     8721 
    8726     8729     8727     8727     8729     8731     8734     8734 
    8735     8741     8745     8748     8752     8760     8769     8776 
    8784     8793     8800     8804     8811     8816     8816     8818 
    8819     8816     8815     8815     8814     8814     8814     8811 
    8811     8815     8814     8810     8807     8807     8802     8797 
    8797     8796     8788     8785     8781     8772     8766     8765 
    8757     8752     8753     8750     8753     8760     8762     8769 
    8783     8791     8791     8792     8793     8791     8788     8783 
    8777     8772     8766     8758     8749     8742     8737     8730 
    8723     8719     8715     8712     8707     8704     8708     8714 
    8712     8710     8712     8715     8714     8712     8715     8712 
    8708     8708     8707     8703     8703     8706     8706     8708 
    8711     8712     8715     8716     8712     8710     8711     8711 
    8707     8700     8696     8692     8689     8688     8688     8688 
    8692     8699     8704     8712     8722     8727     8733     8739 
    8742     8742     8742     8739     8735     8733     8731     8729 
    8725     8725     8726     8727     8727     8725     8722     8722 
    8721     8716     8714     8714     8711     8707     8707     8704 
    8702     8699     8694     8689     8688     8685     8683     8683 
    8684     8684     8687     8691     8696     8700     8703     8710 
    8714     8719     8726     8731     8738     8746     8752     8756 
    8766     8773     8775     8781     8785     8787     8792     8795 
    8795     8797     8802     8806     8807     8807     8806     8803 
    8797     8791     8781     8775     8770     8762     8756     8754 
    8749     8746     8749     8750     8749     8752     8753     8753 
    8753     8756     8756     8752     8749     8746     8742     8738 
    8737     8733     8731     8729     8729     8726     8719     8712 
    8710     8707     8700     8696     8694     8691     8685     8683 
    8679     8673     8672     8675     8672     8672     8676     8679 
    8677     8679     8683     8683     8681     8683     8680     8677 
    8679     8677     8676     8681     8687     8689     8698     8708 
    8714     8721     8733     8742     8749     8757     8766     8769 
    8773     8781     8787     8789     8792     8795     8795     8796 
    8799     8800     8800     8800     8799     8797     8795     8791 
    8785     8777     8770     8766     8762     8760     8760     8758 
    8757     8756     8753     8752     8753     8753     8753     8757 
    8760     8756     8753     8752     8748     8743     8742     8737 
    8734     8733     8731     8734     8737     8738     8745     8753 
    8757     8760     8766     8770     8772     8775     8777     8775 
    8772     8770     8768     8762     8758     8754     8748     8741 
    8735     8725     8716     8714     8708     8702     8696     8691 
    8683     8679     8673     8668     8665     8668     8668     8668 
    8671     8669     8671     8671     8664     8658     8654     8646 
    8638     8633     8625     8617     8613     8608     8603     8599 
    8595     8594     8598     8599     8600     8606     8610     8613 
    8614     8613     8611     8610     8604     8602     8600     8599 
    8602     8606     8610     8618     8627     8634     8642     8650 
    8660     8672     8684     8692     8702     8715     8730     8743 
    8754     8764     8772     8781     8789     8793     8795     8796 
    8799     8806     8814     8819     8823     8833     8839     8843 
    8849     8853     8857     8858     8856     8857     8856     8851 
    8846     8839     8833     8827     8819     8808     8802     8796 
    8789     8785     8785     8787     8788     8788     8788     8785 
    8785     8787     8784     8781     8783     8781     8783     8783 
    8780     8781     8783     8780     8772     8766     8764     8757 
    8749     8745     8739     8737     8735     8731     8730     8733 
    8733     8734     8739     8745     8753     8762     8772     8780 
    8789     8800     8812     8824     8834     8838     8843     8850 
    8858     8864     8865     8869     8873     8874     8874     8874 
    8872     8872     8873     8874     8873     8874     8877     8878 
    8885     8891     8895     8900     8907     8908     8908     8908 
    8904     8899     8893     8885     8876     8870     8862     8851 
    8842     8833     8819     8806     8789     8775     8764     8749 
    8733     8723     8712     8698     8685     8677     8664     8650 
    8642     8634     8619     8608     8602     8594     8583     8579 
    8573     8565     8564     8563     8553     8548     8546     8541 
    8538     8536     8530     8529     8530     8529     8529     8532 
    8536     8540     8541     8541     8541     8542     8546     8549 
    8550     8554     8560     8561     8564     8569     8577     8588 
    8600     8614     8626     8637     8649     8658     8661     8667 
    8671     8665     8661     8662     8658     8652     8649     8644 
    8638     8635     8633     8633     8640     8645     8646     8649 
    8653     8654     8657     8660     8662     8665     8668     8669 
    8668     8669     8671     8672     8676     8681     8687     8694 
    8700     8704     8710     8715     8722     8725     8727     8729 
    8727     8729     8729     8726     8726     8727     8726     8723 
    8725     8723     8721     8721     8721     8715     8714     8718 
    8718     8716     8718     8719     8721     8722     8723     8722 
    8723     8725     8727     8729     8731     8735     8737     8741 
    8742     8739     8737     8739     8738     8737     8737     8735 
    8735     8738     8742     8748     8752     8756     8761     8765 
    8768     8772     8779     8783     8785     8792     8802     8806 
    8814     8824     8833     8839     8847     8853     8861     8870 
    8880     8888     8895     8904     8914     8920     8927     8935 
    8942     8947     8954     8959     8964     8970     8978     8984 
    8991     9001     9011     9013     9018     9023     9026     9030 
    9031     9027     9024     9022     9016     9012     9008     8999 
    8992     8988     8981     8974     8970     8965     8962     8961 
    8958     8954     8946     8937     8928     8922     8908     8895 
    8883     8870     8864     8854     8845     8841     8838     8833 
    8829     8826     8824     8823     8818     8810     8804     8797 
    8787     8776     8768     8757     8743     8730     8718     8704 
    8691     8680     8668     8654     8641     8626     8617     8607 
    8594     8583     8575     8568     8561     8557     8554     8550 
    8549     8550     8544     8537     8537     8532     8525     8525 
    8523     8521     8522     8519     8519     8519     8519     8522 
    8525     8525     8526     8527     8530     8529     8529     8534 
    8540     8545     8553     8564     8573     8586     8598     8607 
    8618     8630     8637     8642     8649     8656     8658     8661 
    8667     8671     8675     8680     8684     8687     8694     8696 
    8699     8702     8700     8695     8691     8688     8685     8681 
    8676     8672     8669     8667     8664     8664     8667     8668 
    8667     8669     8673     8675     8673     8671     8672     8671 
    8665     8662     8658     8654     8656     8656     8653     8654 
    8656     8654     8656     8660     8658     8657     8661     8662 
    8660     8658     8660     8661     8661     8658     8657     8658 
    8661     8661     8658     8657     8658     8658     8658     8660 
    8660     8658     8660     8662     8662     8662     8665     8667 
    8669     8672     8671     8673     8677     8677     8679     8680 
    8680     8683     8687     8688     8688     8692     8692     8692 
    8696     8698     8702     8704     8707     8714     8721     8722 
    8727     8731     8731     8731     8733     8730     8729     8730 
    8731     8730     8727     8726     8727     8726     8726     8727 
    8730     8730     8730     8730     8726     8723     8726     8726 
    8723     8723     8723     8721     8721     8722     8722     8725 
    8730     8733     8734     8741     8749     8752     8753     8757 
    8760     8760     8760     8760     8760     8757     8757     8760 
    8762     8768     8772     8777     8788     8799     8808     8822 
    8833     8842     8857     8870     8878     8889     8903     8915 
    8924     8935     8946     8955     8964     8969     8974     8981 
    8988     8993     8995     8997     9001     9004     9009     9012 
    9011     9011     9012     9009     9008     9007     9000     8992 
    8986     8982     8974     8964     8961     8958     8950     8943 
    8938     8931     8924     8922     8916     8911     8911     8910 
    8907     8908     8911     8907     8905     8905     8903     8899 
    8892     8885     8878     8869     8860     8850     8838     8827 
    8816     8802     8787     8773     8760     8746     8731     8712 
    8696     8680     8661     8645     8630     8614     8596     8583 
    8572     8563     8554     8544     8534     8532     8523     8514 
    8511     8509     8502     8498     8494     8491     8491     8490 
    8490     8494     8496     8499     8505     8514     8521     8525 
    8532     8538     8542     8548     8553     8556     8557     8563 
    8569     8575     8581     8587     8594     8600     8610     8618 
    8622     8627     8634     8635     8635     8641     8644     8648 
    8656     8662     8669     8680     8685     8691     8700     8710 
    8716     8723     8729     8735     8742     8743     8743     8742 
    8741     8743     8742     8737     8734     8734     8729     8725 
    8721     8716     8711     8703     8698     8691     8683     8679 
    8672     8661     8656     8653     8648     8641     8637     8631 
    8627     8622     8618     8614     8608     8607     8606     8600 
    8596     8595     8592     8592     8592     8590     8592     8596 
    8600     8606     8613     8617     8622     8629     8634     8644 
    8653     8664     8679     8692     8708     8726     8741     8757 
    8777     8793     8810     8829     8843     8854     8870     8888 
    8900     8915     8930     8942     8957     8973     8986     8997 
    9009     9020     9031     9043     9053     9059     9065     9070 
    9076     9080     9080     9078     9077     9078     9074     9066 
    9059     9053     9045     9038     9034     9028     9024     9022 
    9020     9016     9012     9011     9009     9005     9003     8996 
    8988     8980     8969     8958     8947     8934     8920     8908 
    8896     8883     8872     8861     8853     8845     8837     8826 
    8816     8808     8796     8780     8768     8754     8738     8722 
    8707     8692     8680     8669     8661     8652     8645     8638 
    8630     8625     8619     8614     8606     8599     8596     8590 
    8581     8576     8568     8559     8546     8534     8525     8511 
    8498     8487     8469     8455     8444     8430     8417     8405 
    8392     8382     8371     8363     8359     8352     8344     8343 
    8343     8343     8344     8347     8349     8353     8356     8364 
    8376     8387     8397     8403     8414     8430     8444     8457 
    8472     8483     8492     8509     8521     8532     8546     8561 
    8573     8588     8604     8619     8637     8657     8672     8685 
    8700     8714     8726     8734     8739     8748     8756     8760 
    8762     8766     8773     8783     8791     8799     8810     8820 
    8831     8842     8854     8865     8874     8884     8895     8903 
    8910     8914     8919     8923     8927     8934     8939     8943 
    8951     8961     8966     8970     8977     8984     8992     9005 
    9015     9019     9028     9039     9043     9047     9054     9058 
    9058     9062     9063     9057     9050     9045     9035     9027 
    9020     9011     9000     8988     8977     8964     8950     8938 
    8922     8905     8891     8873     8854     8838     8819     8802 
    8787     8769     8749     8735     8726     8712     8700     8689 
    8675     8661     8653     8642     8630     8622     8611     8598 
    8591     8584     8575     8567     8560     8556     8550     8548 
    8545     8544     8541     8540     8538     8540     8538     8541 
    8545     8545     8542     8544     8548     8549     8548     8549 
    8550     8548     8546     8546     8545     8545     8549     8552 
    8556     8563     8572     8583     8592     8602     8611     8621 
    8631     8644     8656     8665     8672     8680     8688     8696 
    8702     8711     8726     8738     8748     8761     8777     8791 
    8804     8818     8829     8839     8850     8857     8858     8862 
    8866     8868     8868     8869     8866     8865     8866     8864 
    8857     8856     8856     8850     8846     8846     8839     8835 
    8833     8829     8822     8816     8810     8802     8795     8788 
    8780     8770     8762     8753     8746     8737     8725     8716 
    8711     8703     8694     8687     8681     8677     8675     8672 
    8669     8665     8664     8660     8652     8646     8641     8634 
    8626     8617     8607     8603     8600     8595     8591     8587 
    8583     8581     8580     8577     8576     8579     8581     8586 
    8594     8600     8604     8610     8614     8619     8625     8629 
    8630     8634     8638     8637     8637     8644     8649     8652 
    8657     8665     8675     8683     8692     8703     8714     8725 
    8737     8746     8754     8765     8770     8775     8783     8788 
    8788     8793     8799     8802     8807     8812     8816     8824 
    8835     8838     8838     8845     8849     8849     8853     8854 
    8856     8860     8866     8870     8873     8880     8885     8887 
    8891     8897     8899     8900     8903     8903     8901     8900 
    8897     8891     8885     8884     8880     8874     8870     8865 
    8862     8861     8853     8846     8845     8842     8837     8837 
    8834     8831     8833     8831     8827     8826     8826     8823 
    8819     8816     8811     8804     8800     8796     8791     8791 
    8792     8795     8799     8802     8807     8812     8819     8827 
    8834     8839     8846     8850     8850     8849     8849     8845 
    8841     8837     8829     8824     8824     8819     8814     8814 
    8810     8803     8802     8799     8792     8788     8785     8779 
    8775     8770     8765     8761     8761     8756     8752     8752 
    8748     8741     8735     8731     8726     8721     8714     8706 
    8702     8698     8689     8683     8680     8673     8660     8652 
    8645     8634     8621     8610     8598     8587     8576     8564 
    8552     8542     8534     8526     8518     8510     8502     8495 
    8488     8479     8469     8465     8463     8456     8455     8456 
    8453     8453     8459     8463     8465     8475     8486     8491 
    8499     8511     8522     8532     8545     8556     8567     8581 
    8595     8608     8625     8640     8649     8661     8677     8689 
    8699     8710     8719     8727     8734     8738     8742     8748 
    8750     8752     8749     8748     8746     8742     8737     8734 
    8734     8730     8725     8723     8723     8723     8722     8722 
    8722     8721     8721     8719     8715     8711     8707     8702 
    8692     8685     8677     8665     8660     8656     8649     8642 
    8641     8641     8638     8642     8646     8649     8652     8657 
    8664     8669     8676     8684     8691     8698     8704     8707 
    8712     8719     8723     8729     8738     8745     8749     8757 
    8768     8775     8783     8795     8803     8815     8830     8839 
    8849     8861     8873     8884     8895     8903     8910     8918 
    8924     8932     8937     8942     8950     8957     8961     8962 
    8962     8965     8966     8965     8962     8959     8957     8954 
    8950     8943     8941     8938     8932     8928     8927     8923 
    8918     8912     8907     8903     8897     8889     8885     8881 
    8876     8872     8870     8869     8869     8869     8866     8868 
    8872     8873     8874     8878     8878     8878     8878     8877 
    8878     8877     8869     8864     8861     8853     8845     8837 
    8827     8818     8806     8792     8781     8769     8758     8752 
    8742     8733     8723     8712     8706     8700     8691     8684 
    8679     8671     8661     8653     8645     8635     8629     8623 
    8615     8610     8611     8610     8608     8613     8617     8619 
    8625     8630     8633     8635     8641     8646     8652     8656 
    8657     8662     8669     8676     8684     8695     8703     8710 
    8718     8727     8735     8741     8748     8753     8756     8760 
