Origin Time       2025/01/13 21:19:00
Lat.              31.8
Long.             131.6
Depth. (km)       30
Mag.              6.9
Station Code      HYGH12
Station Lat.      34.9313
Station Long.     134.5423
Station Height(m) 70
Record Time       2025/01/13 21:21:36
Sampling Freq(Hz) 100Hz
Duration Time(s)  120
Dir.              5
Scale Factor      7845(gal)/8223790
Max. Acc. (gal)   0.442
Last Correction   2025/01/13 21:21:37
Memo.             
[...]
    3738     3753     3765     3782     3805     3825     3842     3852 
    3854     3838     3809     3777     3746     3717     3697     3678 
    3657     3635     3620     3612     3611     3609     3609     3612 
    3615     3612     3601     3593     3591     3581     3562     3537 
    3501     3465     3439     3419     3402     3392     3397     3407 
    3419     3433     3442     3450     3456     3457     3457     3456 
    3457     3460     3456     3443     3431     3424     3418     3415 
    3415     3419     3429     3439     3449     3460     3466     3468 
    3462     3451     3439     3433     3422     3399     3376     3364 
    3356     3350     3350     3345     3338     3341     3343     3346 
    3353     3361     3364     3358     3352     3350     3353     3356 
    3350     3342     3338     3341     3349     3369     3393     3416 
    3431     3438     3443     3456     3468     3478     3488     3491 
    3492     3495     3491     3485     3484     3480     3473     3473 
    3478     3483     3483     3478     3464     3447     3439     3434 
    3420     3403     3399     3404     3410     3411     3406     3387 
    3368     3357     3357     3364     3368     3365     3364     3364 
    3368     3380     3397     3412     3420     3426     3427     3424 
    3426     3430     3429     3426     3431     3438     3441     3445 
    3447     3447     3454     3469     3485     3505     3522     3531 
    3542     3557     3574     3588     3595     3595     3592     3596 
    3604     3604     3596     3586     3580     3576     3573     3570 
    3570     3570     3572     3572     3570     3570     3570     3565 
    3564     3572     3585     3591     3586     3578     3566     3550 
    3527     3499     3473     3453     3439     3426     3410     3396 
    3387     3380     3377     3370     3360     3350     3343     3345 
    3358     3376     3387     3392     3396     3400     3408     3420 
    3433     3439     3447     3453     3447     3431     3406     3379 
    3361     3350     3339     3333     3335     3345     3354     3362 
    3373     3387     3406     3435     3465     3489     3510     3527 
    3537     3534     3524     3519     3520     3527     3537     3541 
    3553     3570     3586     3601     3615     3630     3650     3676 
    3704     3726     3747     3770     3784     3796     3811     3820 
    3819     3815     3805     3781     3747     3717     3693     3670 
    3651     3639     3638     3640     3646     3643     3632     3623 
    3613     3595     3569     3543     3528     3526     3531     3541 
    3550     3555     3555     3553     3550     3549     3553     3558 
    3559     3559     3555     3546     3537     3532     3531     3531 
    3537     3541     3543     3545     3541     3531     3520     3511 
    3503     3499     3489     3477     3470     3466     3468     3477 
    3485     3489     3495     3505     3515     3526     3542     3570 
    3604     3632     3647     3649     3646     3646     3643     3635 
    3631     3627     3624     3626     3631     3639     3646     3649 
    3658     3681     3703     3719     3731     3740     3744     3746 
    3742     3734     3726     3712     3680     3640     3604     3569 
    3535     3510     3495     3483     3473     3470     3472     3474 
    3483     3493     3505     3519     3538     3557     3573     3581 
    3580     3565     3537     3512     3489     3458     3424     3391 
    3356     3323     3298     3275     3253     3235     3226     3223 
    3223     3223     3226     3229     3222     3207     3194     3181 
    3167     3154     3146     3146     3156     3176     3203     3219 
    3234     3254     3273     3283     3280     3269     3262     3264 
    3272     3285     3300     3322     3353     3383     3403     3418 
    3433     3451     3473     3483     3481     3477     3472     3466 
    3466     3469     3474     3483     3497     3514     3526     3531 
    3534     3535     3534     3528     3518     3501     3488     3481 
    3476     3472     3473     3478     3488     3505     3531     3551 
    3562     3564     3558     3549     3535     3516     3496     3480 
    3466     3450     3438     3430     3415     3397     3380     3365 
    3358     3366     3384     3406     3435     3474     3519     3558 
    3584     3603     3622     3640     3650     3650     3642     3630 
    3619     3601     3581     3569     3566     3568     3566     3562 
    3559     3558     3557     3557     3557     3565     3584     3601 
    3612     3619     3616     3609     3599     3581     3561     3543 
    3526     3510     3493     3477     3470     3480     3492     3495 
    3495     3500     3507     3512     3518     3514     3507     3501 
    3496     3488     3477     3466     3458     3451     3443     3438 
    3438     3438     3439     3443     3446     3447     3445     3445 
    3449     3460     3474     3485     3493     3503     3503     3496 
    3495     3496     3497     3504     3508     3512     3526     3535 
    3542     3543     3532     3516     3501     3484     3466     3450 
    3441     3437     3435     3430     3418     3400     3379     3356 
    3334     3318     3303     3291     3287     3292     3303     3311 
    3315     3316     3314     3308     3303     3296     3295     3302 
    3310     3322     3334     3339     3343     3354     3373     3400 
    3424     3441     3457     3476     3495     3510     3519     3528 
    3545     3559     3569     3574     3573     3564     3551     3532 
    3516     3505     3496     3488     3481     3472     3461     3458 
    3465     3472     3481     3495     3511     3532     3555     3569 
    3582     3600     3615     3623     3631     3639     3643     3645 
    3647     3658     3677     3700     3721     3735     3742     3755 
    3774     3792     3802     3807     3809     3816     3824     3821 
    3807     3784     3758     3736     3721     3709     3700     3693 
    3689     3689     3690     3692     3694     3700     3707     3715 
    3726     3732     3738     3747     3759     3769     3781     3793 
    3800     3802     3807     3812     3817     3819     3819     3823 
    3827     3832     3834     3828     3819     3808     3790     3771 
    3753     3727     3697     3672     3653     3632     3609     3584 
    3561     3539     3519     3504     3489     3470     3446     3423 
    3406     3389     3380     3380     3376     3365     3364     3372 
    3385     3404     3424     3433     3430     3430     3431     3429 
    3429     3431     3441     3456     3472     3487     3496     3501 
    3508     3518     3524     3528     3523     3510     3493     3478 
    3465     3458     3456     3449     3437     3423     3410     3403 
    3393     3380     3361     3339     3325     3316     3312     3306 
    3298     3292     3291     3295     3302     3310     3321     3330 
    3330     3327     3323     3314     3300     3287     3284     3289 
    3296     3306     3319     3334     3346     3356     3361     3360 
    3357     3356     3356     3352     3341     3327     3312     3299 
    3291     3288     3288     3289     3288     3285     3285     3288 
    3285     3275     3256     3238     3226     3222     3225     3229 
    3235     3249     3261     3268     3269     3272     3279     3287 
    3300     3325     3350     3379     3416     3449     3473     3491 
    3500     3504     3504     3496     3489     3495     3507     3519 
    3534     3549     3562     3582     3600     3613     3627     3640 
    3658     3677     3686     3689     3692     3694     3696     3701 
    3708     3713     3728     3750     3770     3786     3800     3802 
    3798     3792     3789     3781     3774     3773     3774     3777 
    3784     3793     3798     3796     3784     3763     3739     3713 
    3693     3677     3657     3639     3628     3623     3622     3620 
    3618     3623     3635     3646     3653     3655     3655     3657 
    3658     3655     3647     3640     3634     3627     3623     3618 
    3609     3603     3591     3577     3564     3549     3538     3541 
    3549     3554     3558     3565     3573     3581     3584     3580 
    3576     3577     3580     3578     3574     3565     3550     3531 
    3507     3481     3458     3445     3441     3441     3441     3442 
    3446     3450     3449     3443     3437     3431     3431     3433 
    3434     3435     3433     3429     3420     3403     3380     3357 
    3335     3322     3318     3316     3310     3306     3307     3310 
    3315     3321     3322     3323     3329     3333     3333     3326 
    3318     3307     3295     3285     3279     3269     3256     3240 
    3222     3206     3195     3183     3171     3164     3163     3159 
    3159     3164     3175     3194     3215     3235     3258     3287 
    3311     3331     3350     3362     3366     3372     3373     3375 
    3383     3395     3411     3431     3456     3483     3505     3523 
    3539     3553     3570     3588     3604     3613     3618     3618 
    3608     3591     3570     3550     3528     3508     3493     3483 
    3476     3470     3464     3462     3461     3456     3447     3442 
    3437     3435     3439     3441     3441     3443     3447     3449 
    3453     3462     3477     3489     3493     3492     3489     3488 
    3488     3493     3501     3508     3515     3524     3537     3546 
    3547     3542     3535     3523     3511     3501     3493     3488 
    3492     3500     3500     3493     3492     3499     3508     3516 
    3524     3531     3541     3554     3565     3570     3574     3578 
    3585     3596     3609     3619     3626     3631     3636     3640 
    3642     3642     3639     3640     3646     3654     3659     3655 
    3646     3639     3635     3630     3622     3618     3612     3599 
    3585     3574     3554     3526     3496     3468     3439     3408 
    3377     3353     3337     3322     3306     3287     3267     3252 
    3237     3223     3217     3217     3214     3207     3198     3184 
    3167     3152     3144     3137     3136     3137     3138     3144 
    3157     3172     3184     3191     3198     3207     3222     3231 
    3238     3249     3265     3284     3303     3322     3346     3381 
    3423     3465     3510     3554     3592     3616     3634     3650 
    3663     3682     3712     3742     3765     3784     3797     3808 
    3816     3816     3808     3798     3792     3785     3785     3784 
    3775     3767     3761     3753     3739     3723     3708     3690 
    3673     3657     3645     3639     3631     3620     3611     3597 
    3578     3559     3539     3522     3507     3497     3492     3489 
    3489     3492     3493     3493     3493     3497     3505     3516 
    3528     3545     3562     3577     3593     3605     3613     3622 
    3634     3646     3659     3680     3703     3726     3750     3771 
    3789     3802     3815     3823     3828     3831     3832     3840 
    3847     3851     3858     3861     3859     3856     3852     3848 
    3846     3835     3824     3824     3821     3812     3797     3777 
    3758     3748     3740     3735     3732     3732     3730     3721 
    3711     3699     3682     3659     3639     3630     3626     3626 
    3622     3608     3596     3586     3580     3576     3565     3549 
    3532     3518     3499     3474     3456     3442     3430     3426 
    3429     3427     3426     3431     3429     3420     3412     3403 
    3392     3376     3357     3339     3323     3311     3302     3291 
    3280     3267     3258     3253     3246     3244     3242     3245 
    3252     3261     3277     3292     3302     3312     3329     3346 
    3366     3387     3408     3431     3454     3473     3485     3496 
    3503     3505     3510     3514     3511     3507     3504     3503 
    3505     3515     3527     3538     3550     3565     3576     3582 
    3584     3578     3569     3554     3532     3514     3497     3478 
    3457     3438     3423     3407     3387     3366     3353     3343 
    3338     3339     3342     3345     3357     3380     3402     3418 
    3427     3435     3450     3464     3474     3480     3478     3473 
    3466     3458     3453     3449     3446     3443     3447     3458 
    3470     3483     3495     3508     3518     3530     3550     3566 
    3578     3591     3603     3615     3628     3632     3634     3640 
    3653     3673     3696     3713     3720     3723     3728     3730 
    3727     3728     3726     3716     3705     3692     3682     3674 
    3665     3653     3638     3627     3622     3618     3611     3601 
    3582     3566     3562     3559     3553     3545     3535     3528 
    3527     3519     3510     3499     3491     3488     3487     3477 
    3470     3465     3458     3443     3429     3415     3402     3387 
    3372     3354     3338     3327     3318     3307     3296     3288 
    3281     3279     3283     3289     3299     3314     3333     3353 
    3372     3389     3407     3418     3424     3434     3443     3447 
    3451     3466     3484     3495     3499     3501     3507     3516 
    3526     3537     3546     3554     3564     3577     3592     3609 
    3623     3636     3651     3670     3686     3704     3724     3740 
    3753     3767     3785     3801     3817     3835     3854     3878 
    3905     3929     3947     3958     3963     3962     3952     3939 
    3928     3915     3904     3896     3889     3882     3877     3871 
    3862     3852     3846     3835     3819     3802     3788     3774 
    3761     3747     3728     3712     3697     3676     3650     3624 
    3601     3582     3573     3569     3568     3568     3569     3565 
    3557     3550     3550     3555     3562     3568     3572     3569 
    3562     3553     3541     3523     3500     3481     3470     3460 
    3449     3437     3424     3415     3411     3412     3416     3419 
    3429     3441     3449     3453     3461     3465     3462     3461 
    3466     3470     3470     3472     3469     3457     3445     3435 
    3430     3426     3422     3422     3420     3420     3420     3416 
    3410     3406     3403     3396     3387     3376     3361     3348 
    3338     3331     3323     3314     3302     3284     3264     3245 
    3230     3217     3200     3183     3167     3156     3152     3148 
    3146     3152     3156     3164     3179     3196     3210     3218 
    3229     3245     3260     3276     3298     3322     3346     3368 
    3384     3393     3396     3395     3395     3396     3400     3406 
    3414     3420     3423     3420     3416     3414     3406     3397 
    3397     3403     3404     3404     3404     3397     3383     3369 
    3358     3349     3341     3335     3331     3330     3322     3307 
    3291     3280     3275     3268     3260     3249     3245     3250 
    3260     3271     3285     3304     3326     3352     3380     3404 
    3426     3443     3466     3487     3499     3507     3512     3518 
    3527     3537     3543     3550     3555     3566     3578     3589 
    3599     3604     3607     3611     3615     3616     3618     3618 
    3616     3615     3608     3597     3581     3561     3537     3510 
    3480     3456     3438     3423     3410     3402     3397     3397 
    3400     3404     3410     3414     3418     3429     3439     3446 
    3453     3461     3462     3460     3461     3462     3462     3464 
    3468     3474     3483     3487     3492     3499     3504     3512 
    3522     3534     3551     3572     3592     3608     3627     3647 
    3661     3669     3677     3682     3686     3685     3685     3689 
    3694     3694     3692     3690     3686     3677     3674     3677 
    3682     3688     3690     3696     3704     3705     3701     3696 
    3689     3684     3680     3672     3663     3655     3646     3645 
    3646     3645     3642     3638     3635     3630     3623     3613 
    3604     3600     3601     3603     3601     3596     3589     3582 
    3577     3576     3573     3568     3564     3562     3564     3568 
    3573     3581     3580     3574     3569     3564     3559     3555 
    3547     3539     3532     3526     3523     3515     3504     3500 
    3497     3496     3497     3497     3495     3495     3493     3492 
    3496     3499     3500     3500     3495     3489     3488     3484 
    3478     3473     3468     3469     3473     3469     3458     3451 
    3445     3439     3431     3427     3430     3433     3434     3439 
    3446     3450     3454     3464     3469     3468     3465     3465 
    3458     3446     3437     3431     3426     3426     3433     3437 
    3439     3443     3450     3457     3462     3469     3481     3492 
    3501     3507     3505     3505     3507     3511     3516     3516 
    3515     3511     3503     3493     3480     3464     3450     3437 
    3423     3408     3396     3389     3389     3389     3387     3387 
    3387     3388     3392     3397     3400     3403     3404     3408 
    3412     3412     3411     3411     3410     3406     3403     3400 
    3402     3408     3414     3416     3419     3415     3408     3404 
    3400     3396     3391     3384     3377     3372     3368     3362 
    3358     3358     3357     3357     3369     3385     3403     3422 
    3442     3456     3469     3485     3497     3511     3531     3554 
    3576     3596     3615     3632     3647     3657     3662     3667 
    3672     3678     3686     3693     3694     3692     3690     3686 
    3678     3669     3661     3654     3645     3636     3624     3607 
    3589     3572     3551     3532     3518     3503     3492     3485 
    3480     3478     3480     3484     3488     3489     3491     3496 
    3500     3499     3495     3491     3489     3489     3493     3496 
    3499     3503     3503     3503     3503     3501     3504     3507 
    3510     3511     3516     3524     3530     3534     3541     3550 
    3559     3568     3574     3577     3580     3581     3584     3591 
    3596     3596     3601     3608     3613     3619     3620     3619 
    3622     3623     3622     3619     3616     3611     3603     3592 
    3582     3580     3585     3589     3592     3596     3601     3604 
    3600     3595     3591     3591     3593     3596     3600     3600 
    3591     3582     3574     3564     3557     3549     3534     3516 
    3497     3480     3464     3442     3424     3412     3403     3397 
    3396     3393     3388     3385     3380     3375     3368     3364 
    3361     3361     3368     3377     3385     3392     3399     3407 
    3410     3414     3419     3426     3435     3438     3438     3437 
    3433     3427     3422     3419     3418     3419     3427     3434 
    3437     3437     3435     3437     3438     3441     3443     3445 
    3439     3437     3435     3431     3426     3422     3422     3420 
    3418     3419     3422     3422     3424     3429     3431     3435 
    3437     3438     3441     3442     3443     3446     3450     3449 
    3438     3430     3427     3424     3426     3433     3435     3433 
    3429     3427     3429     3426     3426     3429     3426     3427 
