Origin Time       2025/01/13 21:19:00
Lat.              31.8
Long.             131.6
Depth. (km)       30
Mag.              6.9
Station Code      HYGH03
Station Lat.      35.2193
Station Long.     134.5237
Station Height(m) 365
Record Time       2025/01/13 21:21:43
Sampling Freq(Hz) 100Hz
Duration Time(s)  120
Dir.              4
Scale Factor      7845(gal)/8223790
Max. Acc. (gal)   0.306
Last Correction   2025/01/13 21:21:44
Memo.             
[...]
     333      328      324      325      338      345      341      330 
     307      284      279      288      302      321      332      315 
     286      263      253      256      272      291      297      286 
     282      286      284      284      288      288      283      278 
     270      256      255      283      319      345      356      353 
     333      307      297      303      319      345      364      361 
     340      307      280      268      268      282      302      314 
     314      309      299      290      279      270      259      244 
     236      240      248      265      292      309      310      306 
     298      295      302      310      314      307      292      286 
     287      284      287      295      298      294      288      278 
     270      268      268      267      270      278      279      279 
     292      307      310      305      298      298      310      328 
     344      353      355      348      338      333      330      336 
     361      390      402      405      391      364      353      367 
     386      396      403      406      409      414      421      423 
     419      410      402      399      406      421      430      421 
     398      378      363      352      359      379      392      394 
     386      376      378      387      387      369      348      341 
     337      329      329      338      342      332      315      302 
     301      314      330      333      326      314      301      294 
     298      314      338      356      353      333      305      291 
     298      311      329      351      361      346      324      305 
     286      279      286      294      298      301      295      283 
     283      291      291      290      282      264      252      251 
     252      263      284      305      317      317      307      297 
     287      280      279      288      309      338      364      364 
     336      298      272      265      274      288      298      298 
     292      286      283      280      280      283      280      267 
     248      240      247      260      271      280      284      284 
     280      272      265      263      260      260      264      271 
     286      305      318      324      318      310      311      314 
     314      318      319      315      318      326      332      332 
     328      318      311      310      305      301      310      326 
     338      337      321      302      297      305      319      329 
     336      334      317      302      301      310      328      359 
     384      392      387      379      372      371      376      384 
     390      391      391      394      399      407      421      436 
     444      442      441      444      453      467      477      484 
     491      496      498      492      481      477      487      499 
     499      494      486      472      463      463      464      460 
     457      457      459      465      473      475      472      460 
     446      436      423      418      422      422      419      422 
     411      391      380      378      368      355      345      336 
     329      334      340      332      319      309      294      279 
     270      265      260      252      257      276      276      263 
     244      224      218      226      229      221      210      191 
     163      145      152      168      175      176      171      159 
     147      145      151      156      166      170      163      162 
     163      157      156      159      163      167      174      178 
     179      180      184      193      198      202      207      207 
     209      210      214      229      249      255      245      236 
     222      221      248      286      313      318      307      294 
     280      276      284      301      321      336      337      332 
     328      329      330      325      317      314      307      291 
     291      311      328      337      348      351      344      334 
     322      307      303      315      337      361      380      384 
     369      342      322      315      317      330      360      384 
     390      383      365      342      329      330      336      340 
     342      338      332      332      334      340      349      355 
     352      345      332      314      303      301      299      305 
     325      345      349      340      321      298      282      283 
     298      319      334      338      340      332      322      325 
     332      325      314      311      317      330      353      380 
     398      395      375      348      329      322      328      342 
     355      351      340      332      326      324      321      318 
     324      330      334      341      341      329      314      309 
     317      333      346      353      345      326      307      290 
     282      298      324      341      345      329      301      280 
     282      299      321      333      334      324      303      286 
     268      260      272      291      302      307      311      313 
     317      322      319      309      291      272      270      284 
     302      315      338      353      348      336      319      301 
     291      295      303      315      328      333      329      318 
     303      290      290      297      306      313      313      301 
     292      302      322      340      355      357      346      328 
     319      329      344      360      373      379      371      355 
     340      330      334      355      373      382      386      383 
     375      369      367      368      373      372      369      368 
     359      342      332      329      334      351      357      351 
     345      338      324      309      306      317      332      341 
     338      329      317      314      325      344      367      383 
     387      383      376      371      372      383      392      399 
     402      395      390      390      394      400      411      419 
     425      422      415      409      405      406      414      423 
     432      441      449      448      434      419      414      419 
     429      436      437      434      426      417      415      419 
     425      432      427      410      402      405      411      427 
     441      436      413      390      384      392      403      422 
     437      433      422      414      402      399      415      433 
     442      445      436      415      395      387      394      409 
     422      422      398      363      330      314      317      328 
     346      359      355      342      322      299      278      261 
     257      267      271      261      248      236      226      221 
     218      220      226      230      228      214      202      194 
     191      194      202      216      229      232      229      224 
     218      218      229      244      259      275      286      292 
     295      295      294      294      306      326      349      375 
     395      406      410      403      391      382      369      365 
     384      407      421      423      417      400      387      378 
     369      364      361      356      351      345      338      329 
     325      328      332      337      344      348      344      336 
     326      324      329      346      367      378      387      387 
     372      364      371      388      413      434      448      446 
     434      425      419      418      425      438      453      457 
     452      446      445      448      461      480      492      498 
     499      491      477      475      487      508      527      535 
     527      500      475      464      468      483      500      507 
     500      484      472      468      469      473      477      469 
     453      437      426      417      406      405      411      409 
     405      396      382      367      356      345      346      353 
     357      353      341      333      333      332      325      319 
     315      306      290      279      268      259      252      245 
     230      210      193      179      175      175      171      167 
     157      143      130      121      113      108      102      102 
     109      112      110      109      101       89       83       81 
      83       90       85       70       63       60       59       66 
      82       99      112      117      113      106      105      110 
     129      152      171      184      184      176      178      187 
     199      220      247      265      278      276      263      251 
     251      263      274      272      270      267      257      256 
     270      287      302      310      309      301      287      270 
     256      253      260      276      295      303      297      292 
     297      298      299      305      311      319      330      349 
     368      380      394      402      402      398      400      414 
     430      446      467      480      475      461      448      437 
     434      438      446      457      467      473      472      457 
     448      446      446      445      448      452      448      432 
     411      395      382      382      394      399      391      378 
     368      367      378      395      407      415      419      415 
     405      396      392      390      394      411      430      437 
     438      442      446      450      456      460      461      464 
     464      463      461      456      446      446      449      450 
     450      445      441      437      432      433      446      461 
     469      471      459      437      423      422      429      444 
     452      436      409      390      384      387      391      387 
     373      353      336      332      337      345      352      349 
     337      324      313      306      306      309      306      306 
     307      301      290      283      280      282      290      303 
     315      314      303      290      280      279      286      294 
     297      294      288      283      283      280      272      268 
     264      259      256      253      249      243      234      229 
     228      225      220      214      205      190      178      172 
     176      183      178      164      152      145      141      144 
     149      153      152      151      145      141      145      155 
     170      190      197      189      179      170      162      159 
     167      183      198      206      199      178      160      156 
     162      180      207      229      237      244      251      251 
     255      265      270      267      268      274      275      282 
     301      313      321      332      337      332      330      340 
     345      341      345      355      360      361      364      365 
     357      348      355      365      365      369      372      357 
     337      332      329      325      333      351      352      340 
     332      318      297      292      302      303      297      291 
     291      290      282      279      280      278      274      268 
     260      255      267      290      311      326      333      328 
     314      307      313      326      346      368      387      399 
     395      383      379      383      390      402      413      413 
     411      418      426      430      433      436      436      437 
     440      438      437      437      442      454      467      472 
     471      467      457      448      442      441      437      432 
     421      402      388      386      384      382      380      372 
     360      348      334      330      330      328      328      330 
     324      311      301      292      286      287      290      292 
     292      290      282      270      259      248      234      230 
     236      233      228      228      229      228      225      224 
     222      217      214      216      213      213      221      230 
     243      256      260      255      251      247      252      265 
     274      271      264      257      255      256      261      278 
     297      306      313      319      317      313      315      318 
     330      355      380      395      399      394      380      369 
     372      384      399      414      419      417      410      400 
     395      400      413      419      418      407      390      372 
     359      363      376      390      402      402      386      359 
     336      326      329      338      340      330      313      294 
     279      276      286      294      292      282      270      255 
     245      248      265      287      302      309      309      302 
     298      306      322      336      348      356      359      361 
     368      380      398      415      433      444      445      446 
     450      459      469      477      484      490      491      490 
     492      498      504      513      525      531      522      510 
     502      502      510      519      523      521      519      513 
     492      469      459      453      444      433      423      409 
     390      378      361      338      321      307      288      274 
     264      247      226      206      189      175      160      140 
     117       98       83       78       78       79       79       72 
      58       37       20        5        2       14       29       41 
      51       43       25       21       24       32       51       72 
      89      101      105      105      108      116      133      157 
     179      193      202      207      217      228      233      241 
     248      247      248      253      257      263      274      278 
     278      282      284      287      291      301      315      334 
     351      364      373      375      373      380      394      414 
     426      429      429      418      400      390      386      390 
     402      409      406      394      372      355      346      348 
     349      348      345      337      324      306      288      275 
     275      275      270      261      240      213      198      198 
     198      199      202      197      183      168      160      160 
     168      179      186      189      193      190      183      186 
     195      205      229      261      280      287      286      282 
     283      301      328      353      375      388      388      390 
     392      396      411      426      434      440      442      445 
     457      471      480      494      510      519      527      537 
     540      540      542      554      569      585      598      599 
     599      600      603      610      608      599      591      577 
     558      552      562      569      567      557      537      507 
     477      461      457      454      454      452      438      418 
     392      365      351      349      352      355      351      334 
     314      294      282      282      288      292      298      301 
     294      284      280      278      272      276      284      282 
     275      272      267      261      257      256      259      259 
     253      241      226      216      213      217      221      218 
     207      183      159      147      137      130      135      133 
     121      113      101       82       74       76       78       76 
      74       64       52       44       40       36       36       45 
      55       62       64       62       58       54       59       71 
      82       94      108      118      129      137      144      162 
     180      190      202      213      216      224      237      256 
     282      299      306      310      311      317      338      363 
     386      405      410      405      399      400      411      434 
     464      492      513      517      507      500      500      502 
     511      527      541      545      541      535      533      533 
     540      546      549      545      537      526      514      500 
     494      495      500      502      494      476      459      448 
     433      426      436      444      441      429      419      409 
     396      394      399      396      388      383      375      372 
     375      373      372      372      365      351      337      329 
     328      330      338      345      341      328      311      297 
     280      271      268      268      267      264      259      247 
     238      236      234      240      247      243      230      218 
     214      222      234      249      263      263      251      230 
     216      210      216      233      249      257      260      256 
     238      218      214      225      237      245      252      252 
     244      238      238      241      252      268      279      287 
     292      290      288      297      314      337      355      368 
     378      378      376      383      392      406      429      449 
     452      441      434      430      423      421      419      417 
     419      413      394      382      376      369      359      348 
     337      322      307      297      290      279      268      259 
     248      234      221      206      189      174      168      163 
     155      152      145      135      122      109      103      108 
     113      114      109       99       90       83       83       93 
     110      122      122      117      116      117      129      149 
     170      183      195      206      213      224      241      260 
     284      309      319      321      325      340      357      376 
     400      425      442      449      449      452      460      473 
     491      508      521      518      507      499      500      503 
     507      518      522      517      511      506      500      502 
     510      518      522      514      502      490      486      487 
     492      498      502      498      487      476      472      468 
     465      467      471      468      461      456      452      444 
     438      437      436      430      422      411      400      395 
     394      390      391      391      380      367      356      342 
     333      336      338      337      340      342      334      325 
     318      311      309      318      333      341      341      329 
     310      295      294      298      306      314      305      286 
     271      256      241      243      253      260      257      249 
     240      228      218      218      229      234      237      247 
     245      240      243      247      247      253      260      257 
     249      245      244      249      261      276      279      271 
     261      252      245      247      256      270      280      283 
     276      270      264      265      270      271      271      265 
     255      247      241      241      241      247      253      256 
     249      237      222      213      209      207      214      222 
     220      211      203      193      178      166      162      160 
     159      160      160      152      151      153      149      143 
     141      143      140      133      128      132      135      139 
