Origin Time       2025/01/13 21:19:00
Lat.              31.8
Long.             131.6
Depth. (km)       30
Mag.              6.9
Station Code      HYGH12
Station Lat.      34.9313
Station Long.     134.5423
Station Height(m) -30
Record Time       2025/01/13 21:21:36
Sampling Freq(Hz) 100Hz
Duration Time(s)  120
Dir.              3
Scale Factor      3923(gal)/8224838
Max. Acc. (gal)   0.445
Last Correction   2025/01/13 21:21:37
Memo.             
[...]
    8808     8812     8815     8827     8835     8843     8861     8878 
    8896     8915     8932     8955     8978     8996     9018     9036 
    9050     9072     9092     9108     9126     9143     9158     9170 
    9185     9201     9217     9229     9238     9251     9267     9277 
    9283     9293     9304     9312     9323     9337     9351     9360 
    9373     9387     9402     9423     9441     9454     9466     9482 
    9493     9499     9510     9517     9522     9525     9526     9525 
    9521     9520     9518     9514     9510     9508     9501     9489 
    9479     9467     9456     9450     9440     9418     9401     9386 
    9362     9336     9313     9292     9269     9247     9223     9196 
    9170     9150     9135     9119     9103     9093     9085     9072 
    9059     9053     9045     9035     9028     9022     9012     9011 
    9008     8997     8996     9000     9003     9009     9019     9022 
    9028     9039     9043     9040     9042     9045     9042     9043 
    9047     9047     9047     9046     9043     9043     9043     9047 
    9053     9061     9073     9088     9107     9132     9159     9188 
    9223     9262     9296     9323     9350     9377     9393     9409 
    9424     9432     9445     9460     9471     9487     9499     9508 
    9520     9529     9536     9544     9553     9562     9559     9547 
    9533     9517     9501     9479     9445     9416     9389     9362 
    9339     9305     9269     9246     9221     9190     9165     9144 
    9123     9101     9078     9058     9038     9016     8999     8985 
    8966     8943     8923     8903     8883     8868     8853     8837 
    8824     8816     8814     8818     8823     8831     8845     8861 
    8878     8901     8928     8959     8989     9015     9046     9077 
    9103     9132     9161     9182     9198     9216     9232     9242 
    9251     9256     9256     9255     9252     9244     9235     9231 
    9224     9223     9221     9215     9213     9212     9205     9202 
    9201     9192     9186     9184     9181     9178     9170     9159 
    9153     9146     9139     9132     9121     9112     9108     9107 
    9111     9113     9120     9134     9148     9163     9181     9197 
    9209     9217     9220     9219     9219     9219     9204     9186 
    9175     9161     9140     9126     9112     9093     9073     9059 
    9046     9024     9001     8984     8964     8943     8919     8895 
    8869     8846     8826     8803     8783     8769     8754     8742 
    8738     8733     8725     8722     8726     8734     8745     8757 
    8776     8797     8819     8841     8861     8884     8905     8927 
    8951     8976     8997     9020     9042     9062     9086     9105 
    9119     9132     9140     9144     9147     9144     9140     9134 
    9128     9123     9117     9116     9119     9117     9120     9127 
    9135     9143     9151     9158     9157     9155     9158     9157 
    9154     9146     9134     9120     9105     9089     9077     9062 
    9049     9042     9034     9026     9020     9019     9019     9015 
    9007     8999     8996     8992     8986     8989     8995     9000 
    9008     9022     9036     9057     9077     9103     9138     9170 
    9204     9247     9290     9329     9371     9406     9437     9472 
    9498     9514     9533     9545     9551     9552     9545     9537 
    9528     9512     9491     9474     9452     9428     9402     9377 
    9351     9327     9300     9277     9258     9239     9216     9190 
    9169     9153     9132     9113     9105     9096     9082     9072 
    9062     9057     9061     9061     9055     9055     9057     9059 
    9061     9058     9057     9065     9070     9066     9066     9077 
    9088     9097     9112     9128     9146     9166     9184     9196 
    9212     9225     9235     9247     9256     9266     9279     9293 
    9300     9304     9305     9302     9294     9286     9283     9275 
    9263     9254     9248     9243     9239     9239     9243     9247 
    9255     9274     9290     9304     9325     9350     9371     9396 
    9421     9445     9468     9490     9513     9529     9541     9555 
    9571     9580     9583     9590     9595     9595     9598     9599 
    9595     9591     9589     9580     9571     9560     9545     9529 
    9510     9489     9470     9450     9423     9396     9370     9342 
    9316     9289     9258     9228     9205     9184     9163     9147 
    9134     9117     9109     9107     9103     9100     9099     9096 
    9093     9088     9082     9073     9061     9051     9043     9034 
    9031     9030     9030     9024     9023     9028     9034     9038 
    9045     9047     9047     9047     9046     9049     9047     9042 
    9038     9034     9026     9020     9018     9015     9012     9011 
    9019     9031     9035     9046     9062     9069     9067     9070 
    9070     9062     9054     9047     9036     9028     9023     9015 
    9005     9000     9000     9003     9003     9004     9005     9004 
    9005     9003     9000     9003     9001     9001     9011     9016 
    9019     9024     9032     9040     9049     9057     9061     9063 
    9066     9073     9078     9078     9080     9081     9082     9086 
    9092     9097     9105     9113     9124     9131     9140     9157 
    9170     9178     9188     9196     9200     9204     9207     9205 
    9202     9197     9197     9201     9205     9209     9213     9209 
    9205     9211     9213     9208     9198     9184     9162     9139 
    9109     9073     9035     9000     8959     8915     8876     8838 
    8802     8770     8737     8707     8692     8679     8667     8667 
    8673     8680     8689     8710     8738     8768     8796     8826 
    8865     8907     8945     8982     9022     9061     9100     9134 
    9165     9193     9219     9240     9255     9265     9274     9279 
    9281     9281     9278     9274     9267     9262     9255     9247 
    9238     9228     9220     9208     9196     9185     9170     9150 
    9128     9109     9093     9076     9058     9046     9028     9012 
    9001     8985     8974     8973     8973     8976     8984     8999 
    9016     9038     9067     9099     9131     9163     9192     9221 
    9251     9271     9289     9305     9313     9316     9319     9319 
    9308     9288     9267     9248     9223     9189     9161     9139 
    9116     9094     9085     9081     9073     9076     9085     9090 
    9103     9123     9142     9162     9189     9211     9232     9267 
    9301     9331     9366     9401     9433     9468     9508     9545 
    9585     9621     9653     9683     9715     9744     9768     9791 
    9809     9819     9829     9830     9826     9823     9817     9803 
    9791     9776     9753     9728     9701     9676     9651     9624 
    9595     9564     9539     9514     9490     9468     9451     9441 
    9433     9421     9412     9406     9402     9400     9401     9398 
    9394     9393     9385     9370     9352     9331     9306     9274 
    9235     9194     9153     9105     9058     9011     8959     8907 
    8860     8811     8762     8722     8688     8653     8623     8596 
    8571     8550     8541     8532     8522     8522     8522     8515 
    8517     8523     8525     8529     8544     8560     8575     8599 
    8630     8662     8706     8750     8795     8845     8899     8954 
    9008     9057     9100     9138     9177     9212     9236     9262 
    9281     9290     9302     9310     9310     9308     9297     9279 
    9254     9221     9189     9154     9116     9080     9042     9005 
    8973     8951     8931     8910     8895     8887     8880     8874 
    8869     8873     8880     8889     8901     8911     8926     8947 
    8968     8991     9020     9047     9076     9107     9136     9161 
    9186     9215     9238     9254     9270     9282     9283     9279 
    9277     9271     9262     9248     9232     9212     9192     9174 
    9153     9126     9097     9066     9028     8989     8947     8903 
    8854     8803     8756     8708     8658     8614     8577     8542 
    8511     8487     8469     8460     8457     8459     8469     8487 
    8506     8529     8556     8586     8617     8650     8684     8715 
    8742     8772     8799     8822     8839     8853     8866     8878 
    8893     8908     8916     8923     8932     8939     8947     8957 
    8964     8970     8980     8989     8991     8993     8996     8997 
    9004     9011     9016     9022     9030     9039     9047     9058 
    9066     9072     9081     9089     9099     9111     9123     9140 
    9157     9171     9188     9207     9232     9254     9269     9289 
    9315     9332     9343     9359     9373     9377     9378     9378 
    9377     9375     9375     9374     9374     9375     9382     9390 
    9401     9413     9427     9441     9462     9486     9512     9544 
    9583     9614     9648     9694     9734     9763     9796     9833 
    9857     9880     9906     9929     9945     9957     9965     9969 
    9969     9960     9944     9929     9917     9894     9867     9841 
    9809     9775     9740     9701     9663     9628     9593     9555 
    9518     9493     9462     9421     9393     9373     9346     9323 
    9309     9300     9294     9293     9298     9308     9316     9325 
    9342     9352     9360     9371     9377     9377     9375     9370 
    9358     9347     9339     9325     9312     9306     9304     9300 
    9300     9305     9313     9323     9331     9340     9351     9356 
    9359     9366     9370     9366     9363     9359     9350     9339 
    9328     9317     9312     9305     9302     9302     9301     9300 
    9305     9306     9308     9310     9315     9316     9316     9317 
    9328     9333     9333     9336     9336     9331     9324     9315 
    9305     9293     9278     9265     9254     9238     9220     9201 
    9178     9155     9134     9108     9077     9049     9023     8997 
    8970     8943     8922     8903     8887     8874     8866     8857 
    8851     8849     8845     8845     8843     8842     8845     8843 
    8838     8839     8847     8845     8839     8838     8827     8811 
    8800     8787     8761     8731     8708     8689     8667     8641 
    8619     8604     8591     8576     8569     8564     8556     8550 
    8546     8544     8546     8545     8546     8550     8554     8557 
    8568     8580     8588     8594     8602     8613     8623     8637 
    8652     8664     8677     8691     8708     8731     8757     8784 
    8814     8850     8888     8927     8973     9019     9063     9108 
    9148     9181     9220     9259     9286     9313     9342     9363 
    9381     9398     9410     9423     9429     9431     9436     9439 
    9437     9439     9437     9436     9436     9433     9431     9428 
    9425     9425     9418     9412     9408     9404     9394     9382 
    9371     9362     9351     9342     9331     9316     9298     9279 
    9259     9235     9211     9188     9161     9136     9116     9096 
    9080     9067     9057     9047     9040     9043     9053     9061 
    9070     9085     9100     9113     9128     9148     9171     9194 
    9217     9247     9279     9305     9332     9363     9389     9413 
    9437     9458     9472     9479     9489     9499     9502     9509 
    9516     9520     9531     9541     9545     9551     9558     9562 
    9563     9562     9560     9556     9549     9543     9536     9529 
    9520     9506     9491     9474     9458     9436     9410     9386 
    9360     9333     9305     9279     9256     9234     9209     9184 
    9161     9139     9115     9094     9070     9043     9019     8991 
    8961     8935     8908     8880     8860     8838     8815     8799 
    8788     8779     8776     8776     8777     8781     8787     8791 
    8793     8800     8810     8816     8826     8839     8851     8866 
    8880     8892     8904     8915     8926     8934     8935     8937 
    8932     8924     8919     8908     8892     8878     8864     8843 
    8823     8804     8787     8770     8754     8737     8721     8710 
    8700     8695     8698     8698     8702     8714     8729     8748 
    8768     8788     8815     8846     8876     8911     8946     8980 
    9016     9053     9085     9120     9155     9186     9213     9246 
    9273     9293     9316     9337     9356     9375     9387     9398 
    9409     9420     9431     9436     9436     9440     9441     9440 
    9437     9432     9414     9397     9381     9362     9342     9320 
    9294     9270     9248     9225     9205     9186     9170     9163 
    9154     9146     9144     9146     9154     9169     9189     9217 
    9243     9271     9306     9342     9374     9406     9435     9464 
    9490     9506     9521     9536     9540     9541     9543     9537 
    9526     9517     9505     9497     9487     9477     9470     9467 
    9462     9460     9460     9455     9450     9443     9435     9424 
    9408     9394     9379     9355     9328     9305     9278     9248 
    9219     9186     9153     9120     9086     9050     9018     8984 
    8949     8918     8887     8854     8823     8792     8760     8723 
    8688     8654     8622     8588     8550     8514     8483     8451 
    8414     8380     8351     8325     8298     8276     8259     8240 
    8225     8221     8221     8221     8224     8239     8260     8280 
    8309     8347     8386     8432     8484     8538     8598     8660 
    8725     8795     8868     8941     9013     9086     9159     9229 
    9298     9370     9436     9490     9540     9589     9633     9672 
    9703     9732     9761     9784     9796     9806     9813     9817 
    9818     9811     9799     9784     9765     9738     9711     9683 
    9653     9628     9602     9576     9555     9533     9512     9495 
    9483     9466     9450     9432     9414     9400     9382     9360 
    9344     9329     9315     9300     9288     9277     9265     9254 
    9247     9242     9239     9238     9238     9240     9243     9246 
    9252     9261     9274     9286     9300     9321     9343     9364 
    9391     9417     9443     9468     9494     9522     9547     9566 
    9585     9603     9616     9624     9634     9640     9637     9632 
    9626     9620     9605     9590     9574     9552     9531     9510 
    9489     9466     9441     9416     9393     9369     9339     9309 
    9282     9254     9225     9196     9162     9135     9107     9074 
    9045     9016     8988     8961     8932     8900     8872     8853 
    8834     8810     8789     8779     8765     8752     8746     8745 
    8742     8742     8742     8737     8733     8730     8729     8727 
    8725     8721     8722     8722     8714     8712     8716     8714 
    8715     8721     8722     8725     8735     8754     8772     8789 
    8811     8835     8858     8885     8919     8953     8988     9026 
    9061     9099     9138     9175     9209     9240     9274     9301 
    9324     9348     9369     9383     9401     9417     9421     9427 
    9435     9439     9440     9437     9431     9424     9416     9406 
    9394     9378     9362     9346     9329     9310     9292     9274 
    9256     9236     9217     9202     9186     9166     9146     9131 
    9115     9099     9082     9069     9051     9032     9013     8995 
    8978     8955     8930     8907     8880     8847     8818     8791 
    8764     8733     8703     8676     8653     8633     8617     8602 
    8588     8581     8579     8575     8576     8581     8587     8595 
    8607     8622     8637     8657     8677     8698     8719     8746 
    8769     8785     8807     8831     8851     8869     8887     8904 
    8923     8942     8966     8992     9013     9040     9077     9108 
    9138     9171     9205     9235     9265     9297     9332     9358 
    9381     9409     9440     9466     9483     9497     9512     9521 
    9524     9525     9524     9514     9508     9504     9495     9487 
    9478     9471     9468     9462     9452     9445     9441     9441 
    9443     9447     9455     9463     9471     9485     9498     9510 
    9526     9541     9552     9562     9568     9572     9575     9579 
    9582     9582     9580     9580     9579     9575     9571     9570 
    9570     9568     9564     9563     9558     9551     9548     9543 
    9536     9535     9529     9522     9520     9520     9517     9509 
    9498     9491     9483     9468     9452     9443     9432     9417 
    9405     9398     9394     9389     9394     9401     9400     9401 
    9412     9417     9417     9421     9425     9423     9418     9414 
    9406     9397     9390     9378     9362     9348     9335     9313 
    9289     9270     9250     9223     9200     9180     9153     9130 
    9112     9090     9069     9051     9036     9026     9013     9004 
    9001     8996     8988     8982     8980     8974     8973     8970 
    8968     8966     8966     8964     8965     8964     8958     8959 
    8959     8955     8954     8950     8941     8932     8924     8915 
    8904     8891     8880     8866     8851     8837     8820     8803 
    8788     8769     8750     8738     8723     8703     8692     8684 
    8667     8656     8649     8634     8623     8623     8621     8622 
    8629     8634     8638     8645     8658     8671     8681     8699 
    8716     8733     8752     8773     8793     8812     8838     8865 
    8893     8926     8957     8986     9020     9053     9082     9116 
    9148     9173     9198     9221     9242     9259     9275     9286 
    9293     9301     9306     9309     9313     9315     9313     9310 
    9304     9296     9286     9273     9256     9242     9220     9197 
    9171     9146     9121     9094     9065     9038     9012     8985 
    8959     8938     8919     8896     8876     8862     8846     8831 
    8822     8811     8802     8799     8795     8789     8785     8787 
    8787     8785     8789     8788     8785     8787     8791     8793 
    8795     8793     8793     8796     8802     8808     8812     8819 
    8831     8850     8869     8889     8916     8945     8972     9000 
    9030     9061     9097     9130     9161     9196     9229     9259 
    9289     9319     9348     9375     9402     9428     9448     9463 
    9481     9495     9501     9508     9518     9522     9521     9526 
    9532     9531     9533     9535     9535     9536     9536     9532 
    9526     9524     9518     9508     9499     9490     9477     9463 
    9450     9435     9423     9412     9401     9390     9381     9370 
    9364     9364     9363     9360     9360     9362     9360     9358 
    9356     9354     9350     9346     9340     9332     9325     9315 
    9304     9297     9292     9281     9270     9266     9263     9263 
    9269     9274     9285     9296     9305     9324     9346     9358 
    9377     9398     9410     9424     9441     9455     9464     9474 
    9482     9490     9490     9486     9483     9475     9466     9460 
    9447     9428     9418     9406     9389     9374     9356     9335 
    9315     9297     9275     9250     9231     9213     9188     9167 
