Origin Time       2025/01/13 21:19:00
Lat.              31.8
Long.             131.6
Depth. (km)       30
Mag.              6.9
Station Code      HYGH12
Station Lat.      34.9313
Station Long.     134.5423
Station Height(m) -30
Record Time       2025/01/13 21:21:36
Sampling Freq(Hz) 100Hz
Duration Time(s)  120
Dir.              2
Scale Factor      3923(gal)/8224838
Max. Acc. (gal)   0.357
Last Correction   2025/01/13 21:21:37
Memo.             
[...]
     741      745      745      737      731      729      720      712 
     704      695      684      673      660      641      625      604 
     577      548      519      491      465      440      417      396 
     373      348      326      306      288      274      257      243 
     236      226      213      199      189      179      171      162 
     157      153      148      143      143      148      155      159 
     166      172      180      194      205      214      221      221 
     217      210      201      191      184      172      162      152 
     140      126      114      102       86       67       49       28 
       6      -13      -31      -44      -62      -78      -93     -109 
    -121     -129     -137     -143     -141     -135     -120      -99 
     -82      -66      -45      -24       -4       17       41       64 
      86      109      129      147      167      183      199      214 
     229      247      256      260      268      271      267      264 
     260      247      233      222      206      182      160      141 
     117       94       75       56       45       37       25       17 
      21       27       31       37       41       43       48       51 
      49       47       49       49       52       60       67       72 
      83       90       99      114      130      147      163      179 
     193      207      225      243      259      272      286      299 
     315      332      341      349      360      368      372      380 
     386      390      392      391      390      392      394      390 
     387      388      391      396      398      398      396      388 
     382      375      361      346      334      315      292      274 
     251      228      206      187      167      144      126      109 
      91       79       72       67       60       51       49       54 
      55       59       67       71       72       72       66       60 
      56       51       44       36       29       28       25       24 
      27       27       29       44       62       81       98      112 
     126      141      148      159      174      184      198      214 
     233      260      287      311      342      372      399      430 
     463      494      521      548      573      602      629      653 
     673      692      706      710      712      716      715      714 
     714      710      702      695      685      672      653      631 
     604      579      557      533      507      483      461      445 
     433      422      413      406      400      396      391      392 
     396      396      395      392      387      386      386      382 
     375      369      363      349      340      336      326      317 
     311      298      276      256      243      233      225      220 
     217      216      218      221      226      238      255      272 
     284      299      317      326      336      352      367      375 
     384      398      414      426      442      468      488      504 
     530      558      579      600      622      639      654      662 
     668      676      680      679      670      654      635      614 
     585      554      529      499      467      438      411      386 
     364      342      328      314      302      294      288      288 
     291      291      292      294      295      301      302      292 
     275      257      230      194      160      124       78       35 
      -4      -41      -78     -116     -152     -184     -214     -238 
    -263     -291     -318     -341     -359     -371     -382     -387 
    -384     -379     -367     -348     -333     -321     -307     -291 
    -275     -260     -244     -226     -214     -202     -186     -168 
    -144     -114      -85      -58      -31       -4       24       58 
      90      116      141      164      186      203      218      229 
     243      257      274      282      280      282      286      282 
     278      272      270      267      268      274      279      287 
     297      299      299      302      295      284      276      267 
     252      234      217      201      182      164      148      135 
     122      109      102      103      108      116      133      149 
     164      183      199      220      241      261      284      310 
     336      359      379      396      415      432      445      449 
     448      449      449      440      434      427      419      413 
     406      398      392      390      392      391      388      390 
     395      398      395      391      388      387      387      390 
     391      391      392      392      392      391      390      386 
     375      364      353      337      322      305      286      276 
     268      253      238      229      220      205      187      176 
     164      152      149      145      135      128      122      118 
     117      117      121      128      133      139      148      164 
     180      195      209      221      229      241      253      259 
     256      252      251      245      236      222      202      180 
     156      128      102       78       49       22        1      -17 
     -37      -60      -83     -101     -113     -124     -135     -145 
    -156     -160     -167     -174     -174     -172     -166     -149 
    -132     -116      -93      -60      -25        8       48       87 
     124      164      201      233      263      286      303      319 
     330      341      353      356      360      371      376      376 
     375      373      372      371      365      361      359      352 
     348      346      346      349      353      361      371      379 
     390      407      430      456      483      508      538      568 
     596      626      654      676      696      714      730      743 
     749      746      742      739      737      730      720      714 
     704      692      681      670      660      649      638      629 
     623      618      615      616      621      629      639      657 
     676      689      708      731      757      783      805      830 
     851      866      881      892      899      903      903      897 
     889      874      850      823      797      769      738      704 
     666      629      589      554      519      477      434      395 
     353      315      282      245      210      176      148      122 
      99       85       76       66       60       60       58       59 
      63       64       71       79       87       99      113      126 
     143      164      186      203      222      240      253      264 
     274      280      283      280      272      260      244      224 
     206      187      162      139      116       93       72       48 
      22       -1      -28      -49      -68      -90     -109     -120 
    -132     -143     -144     -141     -143     -144     -139     -136 
    -129     -117     -101      -91      -85      -72      -59      -54 
     -48      -43      -43      -45      -48      -51      -52      -56 
     -62      -63      -66      -67      -70      -75      -81      -89 
    -102     -116     -129     -148     -166     -186     -205     -214 
    -218     -226     -229     -228     -232     -228     -217     -210 
    -202     -190     -178     -160     -141     -125      -98      -70 
     -47      -20       10       37       66       94      125      160 
     187      213      241      268      297      325      349      373 
     392      411      433      445      457      479      498      511 
     531      554      576      600      622      641      665      695 
     724      745      758      778      792      796      801      805 
     805      808      811      811      808      797      785      773 
     757      738      719      696      673      652      631      615 
     600      585      576      567      560      554      549      548 
     550      550      550      556      560      558      554      548 
     537      523      519      513      496      483      471      459 
     445      430      414      402      388      376      369      360 
     346      338      338      337      336      338      341      338 
     332      325      321      317      309      298      286      278 
     270      257      244      230      217      203      195      184 
     172      163      153      141      128      113       97       81 
      62       47       35       21        5       -6      -17      -28 
     -37      -44      -52      -60      -64      -72      -82      -87 
     -94     -102     -105     -110     -120     -129     -140     -155 
    -167     -176     -187     -201     -216     -229     -240     -255 
    -272     -286     -291     -298     -305     -305     -298     -287 
    -274     -260     -248     -234     -221     -206     -189     -171 
    -153     -129     -101      -72      -43      -12       14       47 
      82      114      141      174      207      237      261      284 
     305      319      329      340      348      353      352      351 
     353      351      341      333      319      309      301      286 
     268      260      248      230      216      202      189      175 
     162      152      153      155      155      160      167      171 
     179      191      203      217      232      241      249      261 
     274      282      284      284      283      282      282      275 
     268      270      268      264      263      264      267      271 
     276      286      297      302      310      322      333      345 
     357      367      376      388      402      417      430      444 
     459      471      486      502      508      517      526      529 
     529      527      525      522      514      502      495      487 
     473      459      445      427      405      383      359      328 
     299      272      238      202      168      132       93       56 
      18      -20      -59      -94     -128     -163     -194     -221 
    -249     -276     -294     -310     -322     -330     -341     -353 
    -363     -371     -376     -378     -380     -386     -387     -384 
    -384     -383     -378     -369     -359     -344     -325     -301 
    -270     -234     -193     -147      -98      -45        6       59 
     116      175      238      306      365      422      481      534 
     584      629      668      699      727      750      765      778 
     791      799      803      808      812      810      805      800 
     787      773      760      742      720      702      683      662 
     639      619      599      576      558      541      519      502 
     488      469      453      442      426      409      399      391 
     382      379      379      379      386      395      400      406 
     419      434      446      464      486      504      523      546 
     568      589      614      634      653      670      684      699 
     715      727      741      757      766      769      774      784 
     789      791      789      784      784      784      777      765 
     753      742      730      723      714      699      691      684 
     673      665      658      649      639      634      631      630 
     625      615      608      602      591      576      562      556 
     542      522      506      490      467      446      426      406 
     391      378      363      353      338      319      305      288 
     268      248      221      189      159      129       95       63 
      33        0      -32      -59      -83     -109     -133     -152 
    -170     -186     -194     -197     -201     -203     -202     -201 
    -198     -187     -174     -157     -135     -108      -82      -49 
     -13       17       44       70       95      116      136      156 
     178      199      216      229      243      253      261      272 
     282      287      288      287      286      284      280      271 
     263      256      247      233      221      207      193      180 
     166      151      137      126      117      106      103      102 
      97       99      103      108      117      128      135      145 
     159      168      178      191      201      209      216      224 
     234      240      245      255      260      261      265      271 
     274      279      287      295      310      325      337      352 
     372      392      419      448      468      486      503      522 
     538      552      565      575      576      577      581      583 
     579      576      569      560      549      535      523      508 
     491      473      459      444      433      419      400      388 
     376      360      346      333      322      315      307      301 
     298      291      283      276      270      260      245      229 
     216      193      168      147      125      105       85       62 
      39       20        4      -10      -20      -22      -24      -27 
     -25      -18      -12       -5        4       16       29       43 
      59       75       90      113      133      147      163      183 
     205      225      244      261      278      294      306      318 
     333      345      359      375      392      414      436      456 
     480      511      542      573      603      633      664      697 
     734      765      793      824      851      874      900      923 
     939      955      972      984      990      993     1000     1003 
    1003     1003      999      990      985      974      959      943 
     924      903      880      853      826      800      770      737 
     708      681      650      622      600      573      552      537 
     518      504      492      480      469      459      448      441 
     434      426      419      410      398      390      380      364 
     349      336      318      302      288      272      261      252 
     234      222      214      199      184      174      164      155 
     147      143      141      143      141      137      137      139 
     140      137      135      132      129      125      118      116 
     112      102       90       78       64       51       36       25 
      13        1       -9      -22      -37      -51      -67      -86 
    -105     -121     -144     -167     -189     -214     -236     -255 
    -279     -299     -311     -324     -333     -337     -341     -341 
    -338     -330     -319     -307     -287     -265     -245     -221 
    -193     -172     -152     -129     -108      -89      -68      -45 
     -21       -1       16       33       48       59       68       74 
      78       79       83       87       83       79       79       76 
      68       58       52       44       33       18        5      -10 
     -28      -41      -55      -72      -89     -103     -118     -132 
    -141     -152     -162     -167     -167     -166     -162     -152 
    -139     -122     -103      -79      -52      -29       -9       20 
      51       74       97      126      152      174      201      229 
     252      279      311      333      348      367      384      400 
     409      414      422      425      421      415      411      402 
     388      373      357      341      324      307      286      261 
     245      228      209      197      184      176      171      167 
     166      167      164      167      172      179      189      198 
     206      216      225      234      245      257      271      280 
     294      305      309      321      338      351      363      375 
     390      403      415      430      445      460      477      492 
     507      522      538      546      550      562      572      575 
     580      588      592      594      594      592      587      580 
     573      569      568      561      552      548      548      542 
     537      538      534      527      523      519      514      504 
     494      486      479      472      467      460      450      444 
     441      437      436      434      432      429      426      426 
     426      425      421      418      418      413      405      399 
     391      383      378      372      367      363      360      355 
     346      344      344      337      332      329      322      315 
     311      303      295      290      283      275      268      257 
     249      245      240      230      225      218      209      198 
     189      184      179      170      162      156      151      152 
     151      148      155      163      163      164      170      176 
     180      179      176      176      175      171      167      166 
     163      162      160      159      162      163      166      175 
     183      190      198      207      216      225      238      249 
     256      260      263      263      259      255      249      240 
     226      213      201      189      175      166      156      140 
     126      116      102       89       76       62       54       48 
      41       39       35       32       35       39       40       47 
      58       62       64       72       76       75       72       68 
      63       55       45       36       28       16        1       -9 
     -14      -21      -32      -36      -31      -27      -22      -10 
       5       18       36       55       74       95      121      148 
     175      206      243      274      309      345      373      405 
     438      468      494      519      540      556      572      584 
     592      600      602      599      599      595      587      573 
     562      553      537      519      502      486      464      444 
     425      405      382      360      344      328      314      302 
     290      280      272      261      252      247      244      237 
     234      236      233      234      241      244      245      252 
     257      264      274      279      284      290      297      306 
     313      319      328      333      342      355      361      371 
     384      394      402      411      417      422      429      433 
     437      438      438      438      438      436      427      422 
     419      414      411      411      410      409      410      409 
     410      413      417      418      419      421      423      426 
     423      421      417      413      410      410      407      403 
     396      386      376      360      337      315      297      276 
     252      228      206      186      163      143      130      117 
     102       94       87       81       76       75       78       78 
      78       83       85       87       97      103      112      117 
     118      117      117      117      117      114      112      112 
     112      109      106      102       99      101       99       98 
      99       98       99       98       95       98       99       99 
      97       95       95       94       94       98      101      105 
     110      116      118      118      122      125      125      126 
     126      117      112      110      103      101      102       99 
      94       90       86       86       89       91       94       97 
      95       98      105      105      106      110      110      105 
