Origin Time       2025/01/13 21:19:00
Lat.              31.8
Long.             131.6
Depth. (km)       30
Mag.              6.9
Station Code      HYGH09
Station Lat.      34.9082
Station Long.     135.0844
Station Height(m) 40
Record Time       2025/01/13 21:21:51
Sampling Freq(Hz) 100Hz
Duration Time(s)  120
Dir.              1
Scale Factor      3923(gal)/8224838
Max. Acc. (gal)   0.273
Last Correction   2025/01/13 21:21:51
Memo.             
[...]
  -19770   -19772   -19770   -19773   -19780   -19784   -19793   -19805 
  -19813   -19824   -19836   -19847   -19859   -19870   -19878   -19893 
  -19907   -19915   -19920   -19926   -19932   -19938   -19939   -19939 
  -19939   -19939   -19938   -19934   -19927   -19919   -19909   -19899 
  -19888   -19876   -19862   -19847   -19835   -19826   -19811   -19797 
  -19788   -19774   -19759   -19745   -19726   -19707   -19689   -19672 
  -19653   -19634   -19616   -19600   -19581   -19561   -19543   -19527 
  -19512   -19500   -19485   -19473   -19465   -19457   -19449   -19445 
  -19442   -19440   -19438   -19438   -19437   -19440   -19445   -19449 
  -19457   -19471   -19480   -19489   -19502   -19519   -19537   -19554 
  -19573   -19596   -19620   -19645   -19673   -19704   -19732   -19764 
  -19796   -19827   -19855   -19881   -19905   -19930   -19953   -19971 
  -19989   -20004   -20016   -20031   -20044   -20052   -20061   -20073 
  -20079   -20085   -20090   -20093   -20098   -20101   -20100   -20100 
  -20101   -20100   -20098   -20098   -20096   -20093   -20092   -20090 
  -20082   -20073   -20065   -20054   -20040   -20027   -20013   -20002 
  -19992   -19980   -19971   -19963   -19955   -19951   -19953   -19954 
  -19955   -19962   -19971   -19977   -19984   -19994   -20005   -20019 
  -20034   -20044   -20058   -20075   -20088   -20100   -20115   -20129 
  -20142   -20154   -20166   -20182   -20194   -20204   -20217   -20232 
  -20243   -20256   -20272   -20287   -20304   -20318   -20335   -20349 
  -20363   -20375   -20385   -20393   -20401   -20406   -20407   -20406 
  -20403   -20399   -20390   -20379   -20370   -20358   -20343   -20326 
  -20310   -20294   -20277   -20260   -20244   -20227   -20210   -20197 
  -20181   -20164   -20152   -20140   -20125   -20110   -20100   -20086 
  -20074   -20059   -20043   -20032   -20020   -20004   -19992   -19980 
  -19965   -19958   -19950   -19938   -19931   -19926   -19919   -19912 
  -19905   -19900   -19899   -19896   -19890   -19886   -19884   -19884 
  -19880   -19872   -19866   -19862   -19858   -19850   -19840   -19832 
  -19820   -19807   -19793   -19781   -19766   -19749   -19732   -19716 
  -19699   -19684   -19672   -19662   -19651   -19643   -19638   -19634 
  -19631   -19631   -19633   -19631   -19630   -19631   -19635   -19638 
  -19641   -19647   -19654   -19664   -19674   -19681   -19689   -19703 
  -19716   -19727   -19741   -19754   -19766   -19778   -19793   -19809 
  -19824   -19840   -19855   -19869   -19886   -19903   -19912   -19923 
  -19939   -19947   -19953   -19962   -19969   -19970   -19973   -19975 
  -19975   -19974   -19971   -19966   -19959   -19953   -19946   -19939 
  -19931   -19920   -19912   -19903   -19896   -19893   -19889   -19885 
  -19884   -19881   -19881   -19881   -19881   -19880   -19882   -19886 
  -19886   -19885   -19888   -19890   -19886   -19884   -19885   -19885 
  -19885   -19886   -19888   -19890   -19894   -19899   -19903   -19911 
  -19917   -19923   -19932   -19940   -19950   -19961   -19971   -19984 
  -19993   -19997   -20005   -20012   -20016   -20020   -20025   -20027 
  -20027   -20024   -20023   -20021   -20016   -20012   -20011   -20004 
  -19993   -19985   -19978   -19971   -19965   -19954   -19943   -19936 
  -19930   -19920   -19912   -19903   -19890   -19882   -19876   -19862 
  -19853   -19845   -19830   -19818   -19808   -19793   -19780   -19768 
  -19755   -19746   -19734   -19722   -19712   -19705   -19699   -19695 
  -19693   -19693   -19695   -19697   -19704   -19712   -19719   -19726 
  -19737   -19747   -19758   -19769   -19782   -19797   -19808   -19820 
  -19835   -19847   -19858   -19870   -19884   -19897   -19911   -19926 
  -19935   -19943   -19953   -19959   -19963   -19965   -19966   -19963 
  -19958   -19948   -19939   -19928   -19917   -19904   -19888   -19872 
  -19857   -19842   -19826   -19807   -19789   -19774   -19758   -19741 
  -19726   -19715   -19703   -19693   -19687   -19673   -19664   -19661 
  -19653   -19641   -19631   -19624   -19618   -19611   -19604   -19599 
  -19592   -19589   -19588   -19584   -19581   -19581   -19583   -19580 
  -19580   -19584   -19588   -19589   -19593   -19599   -19607   -19616 
  -19624   -19634   -19643   -19651   -19656   -19664   -19670   -19676 
  -19681   -19684   -19688   -19691   -19691   -19689   -19688   -19687 
  -19683   -19683   -19683   -19678   -19673   -19672   -19672   -19672 
  -19673   -19673   -19672   -19674   -19677   -19683   -19692   -19699 
  -19705   -19718   -19731   -19743   -19759   -19772   -19784   -19799 
  -19811   -19824   -19839   -19849   -19861   -19874   -19882   -19893 
  -19905   -19916   -19924   -19935   -19946   -19953   -19962   -19973 
  -19981   -19989   -19997   -20005   -20009   -20015   -20020   -20025 
  -20032   -20039   -20043   -20047   -20050   -20052   -20056   -20059 
  -20061   -20063   -20066   -20070   -20075   -20078   -20079   -20082 
  -20085   -20088   -20090   -20090   -20092   -20093   -20090   -20086 
  -20085   -20083   -20079   -20075   -20074   -20070   -20065   -20062 
  -20061   -20059   -20055   -20052   -20054   -20050   -20048   -20055 
  -20059   -20059   -20066   -20074   -20081   -20092   -20100   -20109 
  -20121   -20133   -20146   -20159   -20171   -20179   -20189   -20200 
  -20209   -20223   -20232   -20236   -20244   -20252   -20256   -20262 
  -20267   -20270   -20268   -20271   -20275   -20271   -20271   -20271 
  -20266   -20260   -20259   -20252   -20243   -20236   -20228   -20218 
  -20206   -20196   -20183   -20171   -20158   -20146   -20133   -20120 
  -20106   -20094   -20079   -20062   -20048   -20035   -20016   -20001 
  -19990   -19974   -19957   -19939   -19923   -19908   -19892   -19877 
  -19863   -19849   -19834   -19818   -19804   -19793   -19781   -19772 
  -19766   -19757   -19746   -19743   -19741   -19737   -19735   -19738 
  -19741   -19743   -19746   -19749   -19754   -19764   -19772   -19777 
  -19786   -19796   -19804   -19813   -19820   -19827   -19836   -19842 
  -19847   -19854   -19854   -19853   -19853   -19853   -19847   -19842 
  -19839   -19834   -19828   -19822   -19815   -19804   -19795   -19784 
  -19773   -19759   -19751   -19743   -19731   -19722   -19714   -19705 
  -19697   -19691   -19684   -19680   -19677   -19672   -19668   -19668 
  -19668   -19665   -19665   -19666   -19666   -19669   -19673   -19678 
  -19685   -19691   -19697   -19705   -19712   -19722   -19734   -19746 
  -19759   -19773   -19786   -19800   -19819   -19836   -19851   -19865 
  -19882   -19899   -19913   -19928   -19942   -19957   -19969   -19981 
  -19992   -20000   -20009   -20017   -20024   -20032   -20040   -20042 
  -20043   -20048   -20050   -20048   -20051   -20052   -20051   -20051 
  -20052   -20052   -20054   -20052   -20048   -20046   -20046   -20044 
  -20039   -20036   -20039   -20036   -20035   -20038   -20036   -20032 
  -20031   -20027   -20023   -20021   -20024   -20024   -20024   -20024 
  -20025   -20031   -20036   -20039   -20043   -20050   -20055   -20063 
  -20070   -20075   -20083   -20089   -20093   -20097   -20101   -20102 
  -20105   -20105   -20101   -20096   -20090   -20085   -20075   -20063 
  -20052   -20042   -20025   -20009   -19992   -19971   -19951   -19927 
  -19901   -19876   -19847   -19819   -19793   -19770   -19747   -19724 
  -19704   -19684   -19665   -19647   -19634   -19620   -19607   -19595 
  -19583   -19575   -19568   -19562   -19557   -19552   -19549   -19552 
  -19549   -19549   -19549   -19545   -19545   -19545   -19542   -19541 
  -19541   -19539   -19541   -19541   -19538   -19543   -19552   -19554 
  -19558   -19569   -19576   -19580   -19591   -19602   -19612   -19624 
  -19637   -19649   -19662   -19677   -19693   -19711   -19727   -19746 
  -19765   -19782   -19801   -19820   -19835   -19855   -19880   -19899 
  -19917   -19936   -19957   -19978   -20000   -20019   -20042   -20065 
  -20085   -20106   -20129   -20150   -20173   -20196   -20214   -20236 
  -20258   -20275   -20294   -20313   -20329   -20347   -20364   -20378 
  -20391   -20403   -20413   -20418   -20418   -20420   -20418   -20414 
  -20412   -20403   -20391   -20383   -20370   -20355   -20340   -20320 
  -20299   -20281   -20258   -20231   -20206   -20181   -20152   -20125 
  -20098   -20067   -20035   -20001   -19969   -19936   -19903   -19869 
  -19838   -19809   -19780   -19751   -19726   -19700   -19681   -19661 
  -19635   -19618   -19604   -19587   -19570   -19560   -19549   -19539 
  -19534   -19529   -19527   -19531   -19535   -19541   -19550   -19562 
  -19579   -19595   -19608   -19626   -19649   -19670   -19691   -19712 
  -19734   -19754   -19776   -19797   -19815   -19836   -19858   -19873 
  -19890   -19911   -19927   -19942   -19957   -19967   -19977   -19986 
  -19996   -20002   -20005   -20011   -20016   -20017   -20017   -20016 
  -20013   -20009   -20007   -20001   -19994   -19986   -19978   -19971 
  -19965   -19954   -19943   -19934   -19926   -19915   -19904   -19892 
  -19880   -19870   -19861   -19850   -19840   -19832   -19822   -19815 
  -19804   -19796   -19793   -19788   -19780   -19777   -19772   -19765 
  -19765   -19762   -19754   -19751   -19751   -19747   -19747   -19750 
  -19747   -19746   -19749   -19747   -19745   -19745   -19747   -19745 
  -19742   -19743   -19742   -19739   -19739   -19739   -19738   -19738 
  -19741   -19743   -19743   -19743   -19743   -19742   -19742   -19741 
  -19745   -19749   -19750   -19757   -19769   -19777   -19785   -19797 
  -19811   -19827   -19845   -19863   -19881   -19900   -19921   -19940 
  -19958   -19980   -20001   -20021   -20040   -20059   -20078   -20097 
  -20113   -20127   -20140   -20154   -20164   -20174   -20182   -20191 
  -20200   -20202   -20206   -20214   -20220   -20220   -20221   -20224 
  -20225   -20225   -20225   -20227   -20224   -20221   -20223   -20223 
  -20223   -20223   -20223   -20223   -20221   -20216   -20212   -20209 
  -20204   -20194   -20183   -20175   -20167   -20156   -20146   -20133 
  -20121   -20108   -20093   -20077   -20062   -20047   -20032   -20016 
  -20000   -19986   -19974   -19961   -19946   -19934   -19921   -19909 
  -19897   -19885   -19876   -19865   -19851   -19842   -19832   -19822 
  -19813   -19807   -19799   -19792   -19782   -19774   -19769   -19764 
  -19758   -19750   -19743   -19741   -19738   -19731   -19727   -19727 
  -19723   -19718   -19716   -19714   -19708   -19705   -19701   -19696 
  -19691   -19685   -19681   -19676   -19668   -19662   -19660   -19654 
  -19650   -19649   -19645   -19638   -19634   -19634   -19633   -19633 
  -19638   -19643   -19642   -19643   -19653   -19658   -19662   -19670 
  -19678   -19685   -19696   -19700   -19704   -19715   -19719   -19720 
  -19727   -19730   -19727   -19728   -19730   -19724   -19722   -19723 
  -19720   -19718   -19715   -19712   -19705   -19699   -19692   -19684 
  -19681   -19677   -19670   -19665   -19661   -19658   -19654   -19650 
  -19647   -19643   -19639   -19638   -19639   -19639   -19637   -19638 
  -19645   -19647   -19649   -19654   -19662   -19669   -19677   -19688 
  -19701   -19712   -19720   -19732   -19746   -19755   -19769   -19780 
  -19788   -19797   -19805   -19816   -19826   -19832   -19845   -19855 
  -19861   -19869   -19877   -19884   -19892   -19897   -19899   -19903 
  -19908   -19909   -19909   -19909   -19909   -19908   -19905   -19900 
  -19892   -19886   -19881   -19867   -19855   -19849   -19839   -19827 
  -19816   -19805   -19796   -19786   -19777   -19770   -19768   -19764 
  -19758   -19755   -19757   -19758   -19758   -19762   -19770   -19774 
  -19780   -19792   -19801   -19808   -19820   -19832   -19845   -19855 
  -19867   -19877   -19888   -19901   -19912   -19923   -19934   -19944 
  -19955   -19970   -19988   -20004   -20017   -20034   -20051   -20067 
  -20083   -20101   -20113   -20129   -20148   -20163   -20175   -20187 
  -20201   -20218   -20231   -20240   -20250   -20256   -20259   -20262 
  -20267   -20267   -20263   -20259   -20252   -20243   -20233   -20221 
  -20208   -20193   -20178   -20163   -20144   -20124   -20109   -20092 
  -20066   -20047   -20029   -20008   -19988   -19974   -19955   -19936 
  -19921   -19905   -19886   -19869   -19853   -19834   -19816   -19801 
  -19785   -19769   -19754   -19739   -19724   -19711   -19700   -19688 
  -19680   -19676   -19666   -19657   -19651   -19649   -19643   -19641 
  -19639   -19639   -19638   -19638   -19637   -19641   -19645   -19643 
  -19649   -19656   -19657   -19660   -19665   -19670   -19677   -19681 
  -19684   -19689   -19695   -19700   -19707   -19712   -19720   -19731 
  -19737   -19739   -19747   -19757   -19764   -19769   -19777   -19784 
  -19789   -19793   -19799   -19807   -19815   -19820   -19824   -19831 
  -19834   -19836   -19842   -19845   -19847   -19849   -19849   -19850 
  -19849   -19843   -19843   -19845   -19839   -19836   -19834   -19828 
  -19824   -19822   -19813   -19807   -19801   -19792   -19782   -19777 
  -19768   -19754   -19746   -19738   -19727   -19718   -19707   -19697 
  -19693   -19688   -19683   -19680   -19678   -19678   -19680   -19684 
  -19687   -19695   -19707   -19714   -19720   -19732   -19750   -19766 
  -19780   -19796   -19815   -19834   -19853   -19874   -19899   -19924 
  -19951   -19977   -20001   -20028   -20056   -20085   -20112   -20139 
  -20166   -20194   -20220   -20243   -20268   -20295   -20317   -20336 
  -20359   -20376   -20391   -20406   -20424   -20434   -20441   -20451 
  -20456   -20456   -20459   -20461   -20456   -20448   -20440   -20429 
  -20418   -20405   -20386   -20368   -20349   -20328   -20309   -20287 
  -20264   -20241   -20218   -20197   -20174   -20148   -20125   -20100 
  -20074   -20048   -20023   -19997   -19973   -19947   -19919   -19893 
  -19867   -19842   -19815   -19791   -19769   -19745   -19720   -19699 
  -19674   -19650   -19629   -19608   -19589   -19568   -19546   -19530 
  -19512   -19494   -19479   -19467   -19448   -19430   -19419   -19411 
  -19400   -19392   -19386   -19380   -19376   -19373   -19369   -19367 
  -19364   -19361   -19363   -19364   -19364   -19367   -19371   -19375 
  -19379   -19381   -19387   -19398   -19403   -19407   -19417   -19426 
  -19435   -19446   -19454   -19465   -19477   -19485   -19498   -19507 
  -19516   -19529   -19539   -19549   -19560   -19570   -19581   -19591 
  -19599   -19608   -19618   -19624   -19635   -19645   -19650   -19658 
  -19669   -19676   -19683   -19689   -19695   -19700   -19704   -19707 
  -19714   -19720   -19724   -19730   -19737   -19743   -19751   -19759 
  -19765   -19772   -19785   -19795   -19804   -19816   -19827   -19832 
  -19839   -19849   -19857   -19865   -19878   -19892   -19897   -19908 
  -19919   -19927   -19935   -19944   -19957   -19967   -19980   -19990 
  -20004   -20017   -20032   -20043   -20056   -20070   -20081   -20094 
  -20110   -20123   -20132   -20143   -20155   -20163   -20171   -20182 
  -20193   -20198   -20206   -20218   -20225   -20229   -20235   -20243 
  -20247   -20244   -20245   -20250   -20245   -20241   -20241   -20237 
  -20231   -20225   -20220   -20213   -20206   -20197   -20189   -20182 
  -20173   -20164   -20158   -20147   -20137   -20129   -20123   -20115 
  -20106   -20098   -20089   -20079   -20075   -20069   -20061   -20054 
  -20048   -20040   -20035   -20027   -20013   -20008   -20004   -19997 
  -19986   -19975   -19967   -19961   -19951   -19940   -19931   -19920 
  -19912   -19903   -19892   -19884   -19877   -19869   -19861   -19851 
  -19838   -19830   -19820   -19805   -19793   -19786   -19780   -19764 
  -19754   -19747   -19738   -19732   -19726   -19716   -19711   -19707 
  -19705   -19701   -19700   -19705   -19710   -19711   -19720   -19728 
  -19735   -19746   -19757   -19766   -19781   -19793   -19804   -19820 
  -19832   -19843   -19857   -19873   -19881   -19888   -19901   -19912 
  -19919   -19928   -19936   -19943   -19950   -19957   -19965   -19971 
  -19974   -19975   -19980   -19980   -19978   -19981   -19981   -19977 
  -19971   -19970   -19969   -19961   -19953   -19943   -19930   -19916 
  -19904   -19888   -19866   -19845   -19824   -19803   -19782   -19759 
  -19731   -19708   -19691   -19668   -19641   -19622   -19606   -19587 
  -19569   -19554   -19538   -19525   -19512   -19504   -19496   -19488 
  -19485   -19483   -19480   -19480   -19481   -19484   -19491   -19496 
  -19503   -19512   -19522   -19527   -19538   -19549   -19558   -19569 
  -19583   -19593   -19602   -19607   -19620   -19634   -19642   -19651 
  -19664   -19673   -19680   -19688   -19697   -19705   -19711   -19715 
  -19724   -19735   -19745   -19750   -19759   -19770   -19778   -19788 
  -19799   -19808   -19815   -19823   -19832   -19840   -19850   -19859 
  -19869   -19880   -19889   -19893   -19900   -19911   -19917   -19923 
  -19932   -19939   -19940   -19947   -19957   -19961   -19962   -19967 
  -19973   -19974   -19977   -19981   -19984   -19988   -19989   -19990 
  -19994   -19998   -19997   -19996   -20001   -20002   -20000   -20001 
  -20002   -20004   -20002   -20004   -20008   -20009   -20008   -20009 
  -20013   -20011   -20008   -20005   -20001   -19998   -19997   -19992 
  -19985   -19981   -19973   -19965   -19958   -19947   -19935   -19927 
  -19916   -19901   -19889   -19876   -19862   -19849   -19834   -19822 
  -19812   -19799   -19782   -19770   -19764   -19755   -19746   -19739 
  -19732   -19728   -19726   -19723   -19723   -19726   -19728   -19732 
  -19739   -19747   -19757   -19769   -19780   -19793   -19808   -19823 
  -19839   -19858   -19877   -19896   -19916   -19936   -19959   -19980 
  -20000   -20023   -20047   -20069   -20092   -20115   -20136   -20160 
  -20182   -20201   -20220   -20240   -20259   -20278   -20297   -20314 
  -20326   -20340   -20358   -20370   -20376   -20387   -20398   -20405 
  -20414   -20418   -20420   -20424   -20425   -20425   -20426   -20425 
  -20424   -20422   -20421   -20417   -20410   -20402   -20398   -20391 
  -20380   -20370   -20362   -20351   -20340   -20326   -20314   -20299 
  -20285   -20274   -20259   -20240   -20221   -20206   -20190   -20171 
  -20152   -20132   -20109   -20089   -20070   -20048   -20029   -20012 
  -19994   -19978   -19958   -19939   -19926   -19911   -19893   -19874 
  -19857   -19842   -19828   -19812   -19796   -19784   -19770   -19754 
  -19738   -19723   -19707   -19695   -19680   -19662   -19651   -19641 
  -19629   -19620   -19615   -19608   -19603   -19600   -19600   -19603 
  -19603   -19606   -19612   -19619   -19627   -19635   -19645   -19658 
  -19672   -19684   -19697   -19708   -19722   -19737   -19749   -19761 
  -19774   -19786   -19800   -19813   -19826   -19838   -19849   -19858 
  -19866   -19876   -19884   -19890   -19897   -19901   -19904   -19909 
  -19913   -19917   -19921   -19924   -19927   -19926   -19927   -19928 
  -19927   -19926   -19926   -19926   -19930   -19934   -19930   -19928 
  -19932   -19934   -19936   -19944   -19947   -19948   -19954   -19958 
  -19963   -19970   -19974   -19978   -19988   -19998   -20004   -20013 
  -20024   -20032   -20040   -20048   -20055   -20062   -20070   -20077 
  -20081   -20086   -20092   -20097   -20102   -20105   -20108   -20112 
  -20113   -20115   -20119   -20121   -20123   -20123   -20125   -20127 
  -20125   -20125   -20127   -20125   -20121   -20119   -20117   -20116 
