Origin Time       2025/01/13 21:19:00
Lat.              31.8
Long.             131.6
Depth. (km)       30
Mag.              6.9
Station Code      HYGH02
Station Lat.      35.0671
Station Long.     134.4234
Station Height(m) 102
Record Time       2025/01/13 21:21:08
Sampling Freq(Hz) 100Hz
Duration Time(s)  120
Dir.              2
Scale Factor      2942(gal)/8224139
Max. Acc. (gal)   0.433
Last Correction   2025/01/13 21:21:08
Memo.             
[...]
  354256   354279   354304   354331   354358   354379   354393   354407 
  354419   354427   354434   354441   354439   354431   354423   354416 
  354406   354397   354391   354385   354383   354381   354379   354377 
  354376   354373   354366   354356   354349   354352   354353   354354 
  354354   354352   354346   354335   354325   354319   354314   354310 
  354311   354308   354304   354304   354304   354299   354288   354279 
  354273   354265   354250   354238   354223   354203   354180   354156 
  354137   354122   354103   354087   354078   354069   354061   354055 
  354045   354034   354024   354011   354002   353994   353986   353978 
  353971   353963   353955   353947   353936   353928   353925   353922 
  353926   353937   353949   353957   353965   353975   353984   353992 
  353995   353991   353982   353975   353964   353944   353925   353905 
  353882   353860   353840   353821   353809   353802   353798   353795 
  353793   353793   353794   353799   353806   353810   353820   353835 
  353848   353862   353883   353906   353921   353934   353951   353968 
  353980   353992   354007   354019   354030   354046   354061   354076 
  354095   354115   354132   354145   354160   354175   354188   354203 
  354219   354230   354241   354252   354256   354260   354267   354271 
  354269   354267   354265   354267   354275   354285   354299   354315 
  354326   354337   354353   354368   354380   354393   354410   354427 
  354447   354469   354487   354501   354512   354522   354527   354531 
  354532   354530   354527   354528   354530   354531   354534   354538 
  354546   354551   354555   354559   354564   354561   354557   354553 
  354545   354535   354524   354508   354493   354478   354457   354424 
  354392   354364   354337   354311   354287   354260   354238   354225 
  354204   354184   354171   354160   354148   354136   354119   354099 
  354086   354073   354057   354038   354019   353997   353971   353945 
  353917   353891   353868   353844   353824   353813   353808   353802 
  353799   353803   353814   353820   353824   353828   353839   353848 
  353857   353870   353882   353890   353895   353899   353903   353903 
  353903   353906   353907   353907   353909   353916   353924   353932 
  353937   353937   353936   353933   353928   353920   353913   353906 
  353899   353897   353894   353887   353878   353872   353870   353867 
  353862   353859   353853   353844   353836   353829   353822   353814 
  353805   353798   353793   353787   353787   353789   353789   353793 
  353803   353817   353826   353835   353844   353852   353859   353864 
  353868   353870   353866   353863   353862   353857   353852   353845 
  353837   353829   353825   353824   353822   353820   353814   353808 
  353802   353794   353790   353793   353797   353803   353813   353821 
  353828   353839   353852   353867   353886   353907   353924   353940 
  353963   353984   354003   354022   354042   354060   354075   354090 
  354105   354118   354132   354145   354156   354163   354168   354172 
  354175   354179   354186   354196   354207   354222   354241   354256 
  354269   354284   354299   354315   354331   354350   354369   354385 
  354399   354408   354414   354420   354427   354433   354437   354446 
  354460   354474   354492   354512   354530   354546   354566   354586 
  354601   354623   354645   354665   354688   354713   354732   354748 
  354765   354781   354797   354809   354815   354823   354831   354836 
  354834   354828   354819   354807   354796   354786   354777   354773 
  354771   354763   354751   354739   354726   354711   354696   354681 
  354661   354642   354623   354603   354584   354565   354542   354520 
  354499   354476   354451   354433   354412   354387   354360   354337 
  354316   354300   354291   354283   354276   354277   354287   354296 
  354311   354333   354352   354369   354385   354402   354415   354424 
  354437   354447   354456   354462   354469   354472   354470   354469 
  354466   354461   354454   354449   354443   354437   354429   354423 
  354412   354400   354387   354365   354343   354322   354299   354276 
  354250   354225   354208   354195   354180   354168   354156   354141 
  354119   354096   354079   354063   354044   354029   354017   354003 
  353997   353998   353995   353984   353976   353972   353965   353960 
  353961   353963   353960   353964   353975   353984   353997   354009 
  354022   354037   354045   354045   354048   354053   354055   354064 
  354082   354098   354113   354130   354150   354171   354196   354229 
  354267   354298   354326   354356   354384   354410   354433   354451 
  354468   354485   354500   354512   354524   354534   354545   354559 
  354573   354582   354589   354595   354595   354588   354577   354565 
  354543   354512   354474   354430   354383   354333   354276   354219 
  354165   354109   354053   354001   353944   353889   353839   353794 
  353755   353717   353682   353650   353616   353582   353548   353515 
  353484   353451   353420   353396   353374   353358   353344   353335 
  353328   353327   353332   353340   353351   353367   353388   353407 
  353428   353451   353471   353488   353504   353515   353524   353535 
  353542   353544   353544   353546   353547   353542   353540   353539 
  353532   353528   353528   353524   353519   353517   353515   353511 
  353508   353502   353497   353496   353500   353508   353519   353536 
  353558   353578   353602   353631   353660   353689   353721   353754 
  353783   353810   353840   353871   353897   353918   353938   353955 
  353968   353982   353992   353997   353991   353983   353978   353965 
  353947   353929   353910   353889   353863   353839   353814   353789 
  353764   353741   353717   353687   353654   353620   353587   353554 
  353519   353485   353454   353424   353393   353370   353350   353332 
  353317   353307   353297   353295   353297   353297   353305   353320 
  353338   353355   353373   353392   353417   353444   353474   353508 
  353546   353587   353631   353679   353727   353776   353832   353889 
  353945   353999   354052   354103   354149   354192   354229   354258 
  354287   354316   354337   354353   354368   354376   354380   354383 
  354387   354391   354388   354383   354380   354376   354368   354357 
  354346   354333   354323   354316   354308   354300   354295   354291 
  354281   354269   354257   354242   354227   354214   354195   354175 
  354159   354142   354127   354121   354117   354113   354114   354122 
  354133   354144   354150   354157   354169   354180   354192   354208 
  354225   354240   354254   354271   354288   354303   354314   354323 
  354333   354338   354341   354345   354352   354356   354354   354356 
  354358   354354   354356   354357   354353   354348   354341   354333 
  354323   354316   354308   354296   354283   354269   354253   354240 
  354231   354226   354223   354222   354226   354230   354230   354233 
  354238   354246   354253   354260   354267   354275   354281   354283 
  354281   354279   354275   354268   354256   354242   354227   354210 
  354192   354177   354163   354146   354132   354122   354115   354111 
  354106   354105   354110   354117   354125   354134   354144   354152 
  354164   354168   354168   354168   354161   354148   354130   354107 
  354082   354056   354032   354003   353971   353944   353922   353901 
  353883   353867   353851   353839   353833   353832   353835   353841 
  353847   353852   353860   353874   353884   353898   353920   353943 
  353964   353988   354014   354041   354068   354091   354109   354125 
  354144   354160   354173   354187   354202   354214   354222   354226 
  354231   354233   354229   354223   354217   354206   354190   354173 
  354154   354127   354095   354063   354030   353999   353967   353938 
  353911   353886   353867   353852   353840   353835   353835   353833 
  353833   353833   353835   353843   353853   353863   353872   353887 
  353907   353929   353955   353984   354021   354056   354094   354133 
  354177   354226   354269   354311   354352   354388   354426   354465 
  354501   354534   354565   354595   354620   354643   354667   354690 
  354708   354723   354736   354748   354754   354753   354747   354739 
  354730   354719   354700   354676   354647   354612   354581   354554 
  354524   354497   354476   354457   354438   354422   354411   354400 
  354389   354384   354381   354380   354383   354387   354392   354399 
  354410   354420   354427   354433   354442   354449   354457   354464 
  354469   354474   354478   354485   354496   354503   354510   354522 
  354537   354549   354562   354580   354600   354619   354632   354646 
  354658   354663   354670   354677   354677   354672   354659   354646 
  354628   354603   354573   354541   354505   354470   354437   354403 
  354368   354334   354303   354273   354244   354217   354188   354157 
  354129   354105   354083   354060   354040   354022   354006   353994 
  353979   353961   353947   353929   353911   353898   353884   353870 
  353853   353836   353817   353797   353779   353763   353749   353740 
  353733   353724   353717   353718   353722   353732   353747   353766 
  353790   353820   353848   353876   353901   353924   353945   353965 
  353984   353999   354010   354018   354026   354033   354034   354033 
  354030   354024   354015   354007   353994   353978   353961   353944 
  353925   353905   353886   353864   353845   353832   353821   353814 
  353810   353808   353802   353798   353791   353782   353775   353768 
  353759   353747   353731   353718   353712   353701   353693   353693 
  353697   353694   353693   353698   353701   353700   353702   353705 
  353702   353702   353708   353714   353721   353728   353732   353733 
  353735   353736   353733   353727   353722   353716   353709   353700 
  353689   353677   353663   353647   353633   353623   353609   353596 
  353581   353566   353547   353525   353502   353478   353450   353420 
  353394   353373   353355   353343   353332   353327   353323   353323 
  353331   353344   353362   353386   353416   353447   353486   353533 
  353579   353624   353674   353729   353786   353844   353906   353968 
  354028   354090   354148   354203   354258   354308   354354   354397 
  354441   354481   354519   354554   354589   354624   354650   354667 
  354688   354704   354715   354727   354736   354738   354739   354740 
  354739   354736   354728   354711   354690   354667   354638   354608 
  354577   354539   354501   354460   354414   354369   354323   354275 
  354227   354180   354133   354088   354055   354024   353998   353979 
  353963   353952   353947   353947   353953   353967   353984   354003 
  354025   354052   354078   354109   354148   354184   354221   354264 
  354312   354361   354408   354454   354499   354542   354578   354605 
  354627   354642   354650   354653   354649   354639   354632   354622 
  354604   354586   354564   354538   354515   354489   354460   354434 
  354410   354387   354364   354345   354327   354311   354300   354294 
  354285   354280   354283   354289   354298   354307   354318   354326 
  354331   354342   354360   354377   354399   354419   354441   354465 
  354489   354511   354532   354555   354574   354591   354607   354616 
  354623   354627   354622   354609   354596   354578   354554   354531 
  354507   354477   354447   354415   354380   354345   354310   354275 
  354238   354204   354179   354156   354134   354113   354094   354080 
  354073   354072   354075   354079   354086   354100   354123   354152 
  354184   354215   354246   354283   354321   354357   354392   354427 
  354462   354493   354516   354532   354549   354559   354564   354566 
  354565   354551   354534   354516   354492   354461   354427   354391 
  354350   354310   354267   354223   354186   354153   354121   354086 
  354052   354021   353992   353963   353930   353897   353862   353828 
  353795   353764   353732   353701   353674   353651   353628   353606 
  353587   353570   353552   353538   353519   353501   353488   353477 
  353470   353463   353457   353457   353461   353466   353475   353485 
  353501   353531   353563   353601   353644   353689   353739   353797 
  353862   353929   353999   354072   354149   354226   354300   354376 
  354450   354519   354585   354653   354716   354774   354828   354883 
  354935   354978   355017   355047   355068   355083   355091   355094 
  355091   355083   355072   355056   355033   355008   354975   354940 
  354905   354865   354820   354778   354734   354684   354631   354578 
  354522   354462   354400   354338   354275   354207   354140   354075 
  354010   353952   353902   353856   353817   353779   353747   353722 
  353701   353683   353671   353662   353656   353655   353652   353652 
  353660   353673   353681   353694   353709   353716   353722   353733 
  353735   353733   353732   353721   353702   353682   353656   353624 
  353592   353559   353524   353484   353442   353405   353373   353343 
  353316   353292   353269   353250   353236   353226   353223   353226 
  353231   353245   353265   353282   353307   353343   353380   353417 
  353461   353508   353560   353614   353667   353724   353781   353840 
  353907   353976   354045   354118   354192   354265   354338   354411 
  354483   354551   354620   354692   354759   354828   354900   354969 
  355033   355095   355151   355205   355249   355283   355310   355330 
  355340   355341   355341   355337   355325   355309   355290   355267 
  355240   355209   355172   355135   355094   355050   355000   354954 
  354910   354867   354825   354786   354751   354716   354686   354658 
  354631   354609   354592   354576   354559   354543   354530   354516 
  354508   354501   354493   354488   354477   354468   354457   354442 
  354424   354407   354381   354353   354323   354288   354252   354218 
  354179   354134   354091   354049   354005   353959   353916   353876 
  353840   353806   353771   353741   353716   353690   353667   353650 
  353636   353628   353628   353631   353639   353652   353667   353685 
  353708   353736   353766   353801   353840   353879   353918   353963 
  354009   354055   354099   354141   354179   354215   354249   354280 
  354308   354333   354357   354377   354388   354397   354406   354403 
  354392   354381   354365   354338   354303   354271   354234   354188 
  354144   354095   354037   353982   353925   353867   353810   353755 
  353700   353646   353593   353539   353489   353440   353389   353338 
  353289   353246   353205   353172   353143   353116   353093   353076 
  353061   353053   353045   353038   353039   353043   353049   353061 
  353073   353088   353106   353126   353151   353177   353204   353235 
  353270   353303   353339   353380   353417   353458   353502   353547 
  353586   353625   353662   353694   353717   353735   353749   353762 
  353767   353764   353760   353756   353744   353728   353717   353704 
  353689   353674   353658   353639   353627   353620   353610   353606 
  353606   353606   353610   353623   353640   353663   353689   353716 
  353744   353779   353817   353853   353890   353933   353976   354017 
  354056   354096   354134   354171   354210   354249   354288   354325 
  354361   354392   354414   354435   354451   354460   354466   354470 
  354472   354469   354464   354458   354450   354438   354427   354416 
  354404   354392   354379   354368   354360   354350   354345   354341 
  354335   354335   354342   354352   354365   354385   354411   354435 
  354462   354497   354535   354573   354613   354653   354692   354728 
  354763   354798   354832   354865   354893   354919   354944   354967 
  354986   355006   355023   355037   355052   355064   355075   355083 
  355085   355083   355079   355071   355059   355040   355017   354991 
  354960   354927   354892   354852   354811   354770   354727   354681 
  354638   354595   354551   354508   354468   354427   354387   354349 
  354307   354267   354230   354191   354152   354117   354082   354046 
  354014   353982   353949   353921   353894   353867   353847   353833 
  353820   353810   353801   353789   353776   353768   353755   353741 
  353733   353725   353716   353706   353700   353693   353690   353690 
  353687   353687   353693   353697   353704   353717   353732   353748 
  353770   353793   353816   353840   353866   353891   353921   353952 
  353983   354014   354041   354067   354099   354129   354156   354180 
  354202   354223   354244   354258   354272   354285   354295   354302 
  354306   354303   354299   354299   354296   354287   354277   354275 
  354269   354260   354250   354240   354227   354213   354200   354192 
  354181   354173   354169   354161   354152   354146   354138   354132 
  354126   354117   354105   354088   354071   354052   354034   354019 
  354002   353982   353963   353947   353930   353914   353898   353883 
  353871   353862   353852   353845   353844   353844   353845   353845 
  353848   353851   353857   353866   353874   353884   353902   353917 
  353929   353948   353964   353975   353992   354010   354022   354040 
  354061   354079   354099   354127   354153   354177   354207   354234 
  354260   354288   354318   354348   354372   354392   354412   354431 
  354447   354465   354481   354497   354512   354523   354534   354546 
  354558   354570   354582   354592   354601   354609   354616   354618 
  354616   354615   354613   354611   354607   354600   354592   354586 
  354576   354565   354555   354539   354518   354501   354481   354456 
  354431   354406   354377   354349   354319   354292   354264   354235 
  354217   354200   354184   354175   354167   354159   354157   354157 
  354160   354169   354177   354187   354203   354217   354226   354240 
  354256   354267   354276   354284   354289   354291   354287   354280 
  354271   354257   354237   354217   354195   354173   354156   354142 
  354122   354102   354091   354078   354064   354059   354059   354059 
  354065   354079   354098   354113   354129   354148   354167   354187 
  354210   354237   354261   354287   354315   354341   354368   354396 
  354426   354456   354483   354508   354531   354553   354577   354593 
  354600   354605   354612   354613   354613   354613   354612   354609 
  354605   354603   354599   354595   354591   354586   354581   354577 
  354573   354568   354562   354553   354545   354538   354532   354524 
  354515   354507   354500   354492   354485   354477   354469   354466 
  354464   354458   354457   354461   354464   354468   354466   354468 
  354473   354477   354478   354485   354492   354499   354501   354501 
  354503   354504   354500   354491   354478   354464   354449   354433 
  354414   354391   354361   354330   354298   354261   354223   354181 
  354140   354096   354052   354006   353968   353928   353887   353851 
  353818   353787   353756   353731   353712   353698   353687   353677 
  353668   353664   353663   353666   353675   353685   353698   353714 
  353728   353744   353764   353786   353809   353835   353859   353882 
  353909   353932   353952   353975   353997   354015   354036   354059 
  354079   354094   354106   354119   354132   354140   354148   354156 
  354163   354164   354163   354163   354163   354160   354163   354165 
