Origin Time       2025/01/13 21:19:00
Lat.              31.8
Long.             131.6
Depth. (km)       30
Mag.              6.9
Station Code      HYGH03
Station Lat.      35.2193
Station Long.     134.5237
Station Height(m) 365
Record Time       2025/01/13 21:21:43
Sampling Freq(Hz) 100Hz
Duration Time(s)  120
Dir.              6
Scale Factor      7845(gal)/8223790
Max. Acc. (gal)   0.264
Last Correction   2025/01/13 21:21:44
Memo.             
[...]
    7773     7773     7773     7780     7790     7798     7798     7801 
    7805     7801     7798     7803     7808     7807     7807     7815 
    7820     7819     7815     7805     7796     7794     7793     7788 
    7786     7786     7786     7786     7785     7785     7790     7794 
    7794     7794     7800     7801     7792     7789     7796     7793 
    7784     7781     7785     7782     7773     7770     7770     7770 
    7776     7780     7784     7793     7804     7801     7793     7789 
    7792     7793     7790     7790     7790     7784     7773     7770 
    7774     7776     7777     7781     7778     7774     7774     7777 
    7774     7776     7785     7788     7792     7798     7801     7798 
    7790     7786     7788     7790     7792     7798     7807     7801 
    7789     7782     7785     7789     7786     7782     7781     7781 
    7778     7778     7784     7792     7792     7792     7792     7782 
    7776     7777     7777     7780     7782     7776     7766     7769 
    7769     7762     7762     7770     7770     7762     7759     7762 
    7762     7763     7763     7766     7778     7790     7792     7788 
    7786     7785     7784     7788     7790     7790     7793     7798 
    7796     7788     7788     7798     7804     7794     7794     7805 
    7805     7793     7786     7785     7788     7785     7777     7769 
    7763     7755     7747     7740     7738     7742     7739     7730 
    7724     7720     7723     7722     7715     7712     7709     7708 
    7712     7719     7730     7728     7715     7709     7716     7722 
    7722     7722     7726     7728     7726     7726     7734     7739 
    7742     7749     7753     7755     7761     7765     7769     7778 
    7789     7797     7805     7819     7834     7836     7832     7835 
    7839     7840     7839     7840     7843     7839     7835     7838 
    7842     7844     7842     7832     7828     7827     7827     7830 
    7832     7832     7824     7812     7807     7805     7801     7797 
    7792     7785     7780     7778     7778     7773     7762     7757 
    7755     7754     7754     7751     7749     7747     7746     7746 
    7757     7766     7769     7774     7776     7767     7762     7759 
    7758     7758     7761     7766     7770     7766     7761     7761 
    7765     7769     7769     7773     7780     7780     7769     7762 
    7770     7777     7781     7784     7782     7781     7781     7778 
    7774     7770     7769     7771     7778     7782     7785     7786 
    7780     7778     7789     7796     7796     7804     7809     7807 
    7809     7819     7827     7827     7821     7820     7819     7815 
    7813     7815     7813     7813     7815     7813     7809     7803 
    7798     7798     7796     7793     7794     7796     7796     7794 
    7797     7797     7794     7796     7797     7797     7796     7790 
    7785     7786     7786     7785     7784     7788     7790     7788 
    7782     7780     7781     7784     7786     7788     7790     7790 
    7785     7785     7788     7784     7782     7784     7781     7777 
    7776     7778     7781     7780     7785     7796     7797     7794 
    7792     7788     7789     7788     7776     7767     7780     7789 
    7788     7786     7785     7781     7780     7781     7784     7784 
    7780     7771     7765     7763     7765     7766     7771     7769 
    7765     7770     7774     7774     7776     7781     7782     7785 
    7785     7784     7788     7792     7789     7786     7788     7788 
    7789     7788     7789     7797     7801     7797     7793     7793 
    7796     7801     7804     7804     7801     7796     7793     7796 
    7798     7803     7808     7807     7797     7792     7790     7792 
    7796     7800     7800     7794     7789     7781     7771     7770 
    7774     7778     7778     7771     7771     7774     7774     7777 
    7784     7793     7798     7790     7781     7780     7777     7773 
    7778     7786     7788     7784     7785     7788     7782     7774 
    7776     7774     7767     7769     7766     7757     7754     7754 
    7755     7757     7749     7742     7746     7744     7734     7724 
    7722     7723     7724     7727     7727     7724     7722     7723 
    7724     7724     7726     7731     7738     7739     7738     7742 
    7746     7750     7758     7761     7758     7759     7762     7765 
    7766     7770     7777     7774     7771     7774     7774     7780 
    7785     7786     7789     7790     7789     7793     7796     7793 
    7792     7794     7801     7809     7812     7815     7817     7813 
    7808     7805     7808     7811     7808     7805     7811     7817 
    7813     7805     7803     7811     7817     7821     7828     7838 
    7839     7834     7835     7842     7847     7851     7852     7848 
    7847     7848     7847     7847     7851     7855     7858     7854 
    7846     7836     7827     7820     7819     7820     7812     7801 
    7801     7800     7796     7794     7797     7793     7788     7788 
    7785     7780     7773     7771     7776     7780     7782     7782 
    7782     7776     7767     7767     7770     7777     7789     7794 
    7797     7805     7805     7803     7811     7819     7823     7831 
    7838     7844     7852     7857     7859     7870     7878     7886 
    7897     7902     7900     7900     7901     7900     7896     7900 
    7908     7904     7892     7885     7878     7869     7866     7865 
    7861     7861     7861     7852     7848     7855     7859     7857 
    7852     7855     7858     7850     7838     7834     7835     7831 
    7820     7815     7819     7813     7807     7805     7807     7801 
    7794     7788     7781     7778     7774     7769     7770     7774 
    7771     7765     7759     7757     7746     7732     7727     7727 
    7724     7724     7726     7723     7722     7717     7715     7719 
    7724     7720     7719     7722     7720     7716     7715     7713 
    7720     7731     7740     7751     7757     7755     7757     7761 
    7773     7786     7794     7800     7803     7805     7807     7804 
    7807     7811     7809     7813     7819     7819     7817     7819 
    7816     7812     7817     7819     7813     7815     7823     7827 
    7827     7830     7835     7834     7828     7827     7828     7830 
    7831     7830     7828     7831     7832     7832     7830     7827 
    7823     7819     7813     7812     7813     7809     7801     7798 
    7798     7793     7789     7792     7793     7789     7786     7786 
    7782     7778     7782     7782     7777     7777     7781     7780 
    7777     7777     7784     7792     7797     7803     7811     7807 
    7798     7794     7793     7793     7793     7797     7803     7805 
    7804     7804     7798     7792     7788     7789     7793     7793 
    7792     7790     7785     7780     7778     7784     7788     7782 
    7780     7782     7780     7773     7773     7774     7770     7769 
    7770     7762     7757     7761     7761     7758     7757     7753 
    7747     7739     7734     7736     7740     7738     7734     7732 
    7734     7730     7724     7724     7728     7731     7731     7728 
    7724     7723     7722     7717     7715     7715     7712     7711 
    7717     7726     7726     7722     7720     7726     7735     7740 
    7743     7750     7753     7747     7747     7757     7761     7766 
    7774     7781     7785     7789     7790     7796     7808     7821 
    7827     7830     7832     7834     7838     7846     7850     7854 
    7863     7870     7874     7879     7885     7881     7877     7881 
    7888     7889     7894     7897     7890     7885     7884     7882 
    7886     7886     7881     7878     7875     7867     7857     7848 
    7846     7847     7846     7843     7839     7831     7825     7824 
    7824     7821     7813     7809     7815     7816     7816     7821 
    7831     7839     7844     7848     7854     7855     7857     7863 
    7873     7879     7885     7892     7900     7906     7908     7909 
    7913     7919     7924     7925     7927     7927     7925     7925 
    7921     7916     7916     7915     7915     7913     7908     7902 
    7894     7881     7867     7851     7832     7820     7807     7788 
    7771     7761     7753     7742     7727     7711     7696     7682 
    7670     7661     7658     7653     7641     7630     7623     7615 
    7603     7592     7584     7581     7578     7578     7582     7582 
    7581     7585     7591     7595     7601     7608     7619     7630 
    7635     7641     7647     7655     7670     7681     7686     7692 
    7699     7705     7711     7713     7717     7724     7730     7732 
    7731     7726     7726     7726     7722     7719     7717     7716 
    7716     7709     7697     7689     7682     7674     7665     7663 
    7662     7654     7646     7639     7632     7630     7627     7618 
    7609     7609     7607     7597     7593     7599     7600     7599 
    7597     7596     7593     7593     7596     7599     7607     7612 
    7614     7622     7628     7630     7632     7638     7649     7655 
    7661     7666     7666     7676     7689     7695     7703     7722 
    7735     7740     7746     7753     7759     7762     7759     7769 
    7784     7786     7785     7789     7792     7794     7803     7813 
    7820     7832     7843     7846     7850     7858     7863     7867 
    7873     7878     7881     7884     7885     7885     7889     7892 
    7896     7901     7902     7902     7905     7909     7912     7916 
    7920     7923     7923     7924     7928     7931     7933     7933 
    7935     7939     7940     7939     7932     7925     7924     7924 
    7925     7931     7933     7929     7927     7924     7917     7915 
    7916     7915     7912     7911     7905     7904     7911     7909 
    7901     7901     7905     7904     7901     7896     7894     7901 
    7901     7897     7900     7906     7908     7908     7906     7905 
    7904     7898     7894     7896     7898     7900     7897     7892 
    7894     7897     7893     7892     7888     7884     7884     7881 
    7877     7879     7879     7878     7875     7874     7874     7870 
    7862     7857     7855     7854     7851     7850     7850     7850 
    7851     7854     7854     7855     7862     7865     7861     7855 
    7855     7855     7852     7852     7854     7854     7850     7843 
    7835     7821     7813     7812     7811     7804     7800     7794 
    7782     7767     7754     7740     7728     7720     7712     7704 
    7696     7684     7672     7661     7653     7649     7645     7642 
    7641     7638     7635     7632     7634     7636     7635     7634 
    7635     7636     7634     7632     7636     7645     7650     7655 
    7662     7665     7666     7673     7685     7695     7700     7709 
    7722     7728     7726     7727     7730     7731     7734     7738 
    7743     7747     7744     7743     7746     7743     7740     7740 
    7739     7738     7736     7732     7724     7720     7723     7722 
    7715     7715     7715     7704     7690     7688     7692     7690 
    7680     7673     7672     7662     7650     7645     7643     7641 
    7643     7646     7647     7643     7642     7646     7646     7646 
    7658     7670     7674     7680     7686     7690     7700     7711 
    7722     7735     7749     7761     7774     7790     7803     7815 
    7830     7843     7855     7869     7881     7889     7896     7909 
    7927     7932     7931     7936     7944     7940     7932     7927 
    7923     7917     7913     7908     7902     7892     7878     7870 
    7866     7862     7859     7858     7855     7852     7850     7847 
    7846     7847     7852     7859     7857     7852     7857     7857 
    7858     7866     7873     7871     7869     7867     7873     7877 
    7874     7873     7875     7877     7878     7879     7878     7873 
    7866     7857     7850     7848     7847     7839     7831     7823 
    7816     7811     7805     7804     7809     7808     7804     7807 
    7803     7790     7793     7805     7804     7797     7803     7807 
    7801     7804     7812     7817     7819     7821     7827     7828 
    7825     7825     7830     7832     7830     7832     7839     7842 
    7838     7840     7843     7843     7847     7857     7863     7859 
    7857     7857     7851     7851     7861     7866     7863     7862 
    7859     7857     7857     7857     7858     7865     7869     7870 
    7875     7874     7869     7867     7870     7869     7865     7861 
    7857     7847     7834     7825     7820     7812     7808     7808 
    7803     7792     7786     7785     7781     7777     7771     7763 
    7761     7759     7750     7744     7744     7742     7738     7740 
    7747     7746     7743     7742     7736     7726     7726     7735 
    7735     7730     7736     7738     7730     7730     7738     7743 
    7743     7746     7751     7753     7753     7757     7763     7769 
    7769     7769     7773     7771     7770     7777     7781     7776 
    7778     7785     7778     7773     7778     7776     7770     7771 
    7771     7761     7753     7747     7736     7724     7715     7708 
    7707     7701     7690     7682     7673     7658     7641     7631 
    7627     7618     7608     7600     7588     7576     7565     7554 
    7541     7534     7530     7524     7520     7515     7510     7510 
    7511     7516     7522     7523     7528     7537     7541     7545 
    7553     7566     7581     7592     7599     7608     7616     7626 
    7634     7642     7654     7666     7674     7680     7684     7686 
    7692     7699     7699     7703     7709     7711     7711     7717 
    7719     7720     7727     7731     7734     7739     7740     7736 
    7734     7734     7738     7740     7740     7740     7738     7735 
    7730     7728     7730     7731     7728     7727     7731     7731 
    7727     7726     7730     7734     7736     7740     7750     7753 
    7747     7753     7763     7770     7778     7788     7792     7792 
    7792     7794     7800     7804     7809     7815     7817     7821 
    7824     7823     7824     7832     7842     7847     7850     7852 
    7858     7862     7861     7857     7857     7859     7859     7855 
    7847     7840     7832     7825     7821     7819     7819     7816 
    7809     7805     7800     7794     7792     7786     7780     7780 
    7778     7774     7773     7770     7769     7777     7782     7789 
    7800     7807     7811     7817     7827     7839     7850     7858 
    7867     7877     7882     7889     7898     7908     7921     7932 
    7944     7954     7959     7969     7977     7982     7994     8006 
    8012     8020     8028     8031     8036     8043     8046     8050 
    8055     8058     8060     8062     8059     8055     8051     8048 
    8046     8040     8033     8024     8016     8004     7987     7977 
    7970     7956     7940     7928     7913     7894     7884     7877 
    7866     7857     7851     7843     7830     7819     7811     7803 
    7797     7793     7792     7786     7780     7774     7769     7763 
    7759     7757     7763     7766     7761     7761     7769     7771 
    7773     7781     7792     7794     7798     7805     7811     7817 
    7823     7828     7835     7839     7843     7847     7847     7847 
    7850     7854     7852     7848     7847     7846     7842     7836 
    7834     7834     7835     7834     7835     7834     7827     7824 
    7823     7817     7819     7820     7815     7815     7809     7797 
    7792     7786     7778     7776     7770     7761     7753     7742 
    7730     7719     7715     7709     7700     7692     7688     7681 
    7668     7657     7647     7638     7630     7624     7620     7616 
    7607     7600     7596     7591     7587     7589     7592     7591 
    7589     7589     7593     7601     7611     7615     7616     7624 
    7632     7635     7638     7647     7655     7662     7670     7681 
    7690     7696     7704     7715     7724     7730     7743     7758 
    7762     7766     7770     7774     7781     7788     7794     7800 
    7796     7790     7789     7784     7773     7770     7769     7757 
    7744     7738     7726     7709     7700     7697     7689     7676 
    7670     7666     7655     7649     7647     7642     7634     7636 
    7647     7651     7651     7654     7659     7663     7674     7684 
    7689     7699     7712     7719     7726     7734     7744     7751 
    7755     7762     7770     7774     7780     7786     7797     7804 
    7807     7812     7820     7824     7827     7834     7839     7840 
    7847     7858     7863     7870     7879     7885     7892     7905 
    7916     7921     7929     7938     7940     7948     7959     7967 
    7977     7983     7983     7986     7990     7989     7987     7985 
    7982     7982     7983     7979     7974     7969     7958     7946 
    7938     7928     7915     7904     7896     7881     7866     7857 
    7847     7834     7824     7820     7811     7796     7785     7780 
    7771     7765     7759     7754     7750     7740     7727     7723 
    7722     7717     7716     7717     7713     7711     7707     7703 
    7705     7709     7707     7707     7709     7711     7712     7712 
    7716     7723     7728     7730     7732     7740     7742     7739 
    7744     7754     7758     7763     7771     7776     7778     7778 
    7777     7784     7792     7796     7804     7812     7809     7809 
    7812     7811     7809     7815     7817     7815     7812     7812 
    7808     7801     7801     7805     7804     7798     7796     7794 
    7785     7778     7778     7778     7780     7784     7786     7785 
    7781     7780     7781     7778     7780     7785     7786     7784 
    7782     7777     7773     7773     7776     7776     7777     7785 
    7790     7792     7794     7798     7805     7813     7817     7820 
    7828     7834     7832     7835     7844     7851     7848     7850 
    7857     7857     7857     7859     7863     7866     7867     7866 
    7863     7858     7851     7843     7838     7834     7825     7817 
    7812     7805     7792     7780     7767     7759     7750     7738 
    7728     7722     7708     7693     7685     7681     7678     7676 
    7673     7672     7672     7670     7670     7674     7678     7685 
    7690     7696     7703     7705     7708     7717     7726     7734 
    7747     7757     7762     7773     7785     7796     7805     7817 
    7831     7840     7848     7861     7871     7874     7878     7889 
    7897     7897     7897     7897     7893     7884     7875     7871 
    7867     7865     7859     7847     7838     7830     7817     7804 
    7798     7794     7786     7778     7765     7751     7744     7734 
    7726     7723     7722     7716     7711     7705     7700     7690 
    7684     7682     7678     7676     7677     7674     7668     7666 
    7669     7672     7674     7676     7673     7676     7680     7676 
    7676     7685     7693     7696     7700     7712     7723     7730 
    7740     7755     7769     7780     7792     7804     7817     7830 
