Origin Time       2025/01/13 21:19:00
Lat.              31.8
Long.             131.6
Depth. (km)       30
Mag.              6.9
Station Code      HYGH07
Station Lat.      35.0322
Station Long.     134.6701
Station Height(m) 60
Record Time       2025/01/13 21:21:46
Sampling Freq(Hz) 100Hz
Duration Time(s)  120
Dir.              1
Scale Factor      2942(gal)/8224139
Max. Acc. (gal)   0.283
Last Correction   2025/01/13 21:21:46
Memo.             
[...]
   19639    19643    19649    19653    19657    19658    19660    19661 
   19661    19661    19662    19662    19664    19669    19674    19681 
   19687    19691    19693    19691    19691    19696    19700    19704 
   19705    19700    19691    19687    19687    19689    19689    19688 
   19685    19683    19684    19683    19676    19670    19668    19669 
   19672    19673    19666    19660    19656    19651    19638    19620 
   19604    19592    19588    19584    19579    19575    19573    19575 
   19577    19581    19588    19587    19580    19575    19572    19569 
   19564    19562    19562    19557    19553    19556    19561    19566 
   19572    19579    19583    19587    19588    19588    19589    19589 
   19591    19595    19603    19610    19615    19619    19622    19622 
   19624    19630    19637    19642    19651    19662    19674    19688 
   19696    19701    19711    19720    19724    19728    19731    19730 
   19730    19735    19742    19743    19745    19742    19734    19727 
   19723    19715    19707    19704    19704    19699    19691    19685 
   19680    19673    19670    19668    19665    19664    19657    19650 
   19645    19641    19635    19633    19630    19629    19629    19635 
   19645    19651    19657    19661    19661    19658    19660    19662 
   19657    19651    19653    19654    19654    19658    19660    19661 
   19661    19660    19657    19653    19650    19647    19641    19635 
   19634    19633    19630    19629    19631    19629    19620    19619 
   19624    19624    19619    19616    19611    19604    19603    19600 
   19597    19599    19603    19610    19620    19629    19631    19637 
   19639    19638    19641    19645    19645    19645    19645    19646 
   19647    19647    19650    19656    19658    19664    19669    19673 
   19674    19673    19672    19676    19683    19685    19688    19687 
   19683    19678    19673    19666    19665    19666    19665    19664 
   19661    19656    19653    19653    19650    19646    19643    19639 
   19629    19618    19614    19607    19596    19592    19595    19593 
   19589    19589    19592    19592    19595    19600    19607    19614 
   19619    19624    19633    19642    19649    19658    19666    19669 
   19670    19677    19684    19688    19693    19703    19707    19704 
   19703    19704    19704    19704    19705    19704    19703    19697 
   19693    19696    19696    19693    19693    19691    19685    19688 
   19687    19681    19677    19674    19669    19662    19658    19654 
   19646    19642    19642    19642    19643    19647    19653    19657 
   19660    19662    19668    19672    19674    19678    19681    19688 
   19693    19695    19697    19697    19693    19685    19674    19668 
   19665    19664    19664    19666    19677    19685    19687    19689 
   19695    19699    19703    19704    19703    19704    19708    19711 
   19714    19723    19730    19734    19741    19751    19759    19770 
   19777    19784    19792    19799    19800    19801    19803    19807 
   19811    19807    19803    19800    19797    19793    19791    19784 
   19778    19772    19761    19750    19741    19726    19708    19693 
   19681    19673    19668    19658    19649    19641    19634    19627 
   19620    19616    19615    19612    19606    19603    19602    19597 
   19595    19596    19595    19595    19597    19599    19599    19597 
   19597    19597    19599    19597    19589    19589    19589    19584 
   19577    19573    19565    19554    19543    19534    19525    19516 
   19515    19518    19512    19508    19510    19512    19516    19521 
   19521    19522    19525    19529    19534    19541    19548    19549 
   19552    19553    19549    19545    19549    19552    19556    19564 
   19575    19587    19602    19612    19624    19639    19654    19672 
   19689    19705    19719    19726    19731    19732    19728    19728 
   19730    19726    19722    19718    19712    19705    19693    19681 
   19673    19668    19661    19656    19646    19634    19624    19614 
   19599    19588    19579    19568    19553    19538    19526    19518 
   19507    19495    19489    19488    19485    19479    19471    19461 
   19453    19448    19442    19435    19434    19431    19427    19426 
   19434    19446    19452    19456    19462    19473    19487    19499 
   19511    19523    19538    19552    19564    19576    19587    19595 
   19603    19612    19622    19627    19634    19642    19649    19654 
   19662    19672    19678    19692    19712    19732    19747    19757 
   19768    19785    19803    19818    19831    19843    19854    19865 
   19873    19877    19880    19882    19882    19881    19881    19882 
   19882    19878    19872    19865    19859    19858    19855    19849 
   19840    19831    19827    19822    19811    19803    19793    19780 
   19762    19751    19741    19726    19714    19704    19695    19687 
   19680    19673    19664    19657    19653    19647    19646    19645 
   19638    19631    19630    19633    19641    19649    19664    19681 
   19701    19723    19745    19765    19784    19804    19826    19845 
   19859    19878    19896    19911    19920    19928    19934    19938 
   19944    19955    19961    19967    19978    19982    19986    19994 
   19998    20000    20004    20005    20001    19997    19994    19988 
   19978    19970    19959    19946    19938    19928    19916    19907 
   19899    19890    19884    19873    19861    19854    19845    19831 
   19823    19815    19801    19789    19777    19766    19758    19750 
   19742    19739    19741    19739    19735    19735    19735    19732 
   19730    19724    19718    19715    19710    19701    19695    19683 
   19668    19656    19639    19622    19610    19599    19587    19575 
   19562    19546    19529    19512    19492    19475    19458    19444 
   19431    19419    19410    19406    19403    19399    19398    19399 
   19398    19396    19395    19392    19395    19402    19403    19404 
   19408    19422    19440    19457    19476    19495    19519    19548 
   19572    19597    19624    19651    19676    19696    19714    19728 
   19739    19751    19759    19768    19782    19800    19812    19822 
   19832    19839    19846    19855    19865    19874    19888    19901 
   19908    19915    19926    19931    19934    19939    19946    19951 
   19957    19963    19970    19974    19982    19992    19996    20000 
   20004    20000    19994    19990    19984    19974    19967    19965 
   19967    19969    19967    19967    19967    19969    19974    19978 
   19984    19992    20000    20007    20011    20016    20023    20028 
   20035    20043    20047    20050    20050    20051    20052    20054 
   20058    20059    20058    20054    20056    20061    20059    20061 
   20065    20059    20051    20046    20035    20021    20011    20002 
   19993    19980    19961    19939    19923    19905    19881    19851 
   19824    19799    19772    19745    19714    19680    19651    19624 
   19592    19561    19534    19510    19487    19462    19435    19417 
   19403    19388    19377    19372    19365    19363    19361    19353 
   19350    19353    19350    19346    19348    19350    19350    19350 
   19353    19363    19372    19381    19392    19408    19429    19450 
   19468    19489    19515    19541    19566    19591    19615    19641 
   19661    19680    19699    19716    19734    19751    19764    19776 
   19789    19799    19805    19808    19808    19801    19792    19784 
   19777    19774    19772    19764    19755    19747    19735    19727 
   19720    19710    19701    19695    19685    19677    19672    19668 
   19666    19664    19661    19662    19661    19658    19657    19660 
   19661    19661    19665    19666    19664    19666    19668    19661 
   19656    19653    19647    19638    19627    19615    19596    19575 
   19557    19541    19523    19508    19498    19485    19473    19465 
   19456    19445    19435    19422    19410    19404    19399    19395 
   19395    19395    19395    19398    19404    19410    19417    19422 
   19426    19433    19437    19438    19441    19445    19444    19440 
   19445    19453    19457    19458    19461    19464    19468    19471 
   19477    19485    19492    19495    19499    19507    19521    19533 
   19546    19557    19572    19592    19606    19618    19635    19650 
   19658    19665    19668    19665    19665    19666    19664    19662 
   19661    19660    19657    19650    19650    19653    19650    19647 
   19646    19643    19639    19633    19627    19623    19615    19606 
   19597    19588    19579    19577    19576    19572    19570    19573 
   19576    19584    19597    19611    19624    19639    19653    19664 
   19676    19687    19692    19696    19703    19704    19703    19699 
   19692    19685    19683    19676    19665    19657    19650    19639 
   19630    19624    19622    19616    19607    19600    19592    19583 
   19576    19569    19566    19564    19561    19561    19564    19568 
   19576    19585    19591    19592    19597    19602    19602    19600 
   19602    19604    19606    19603    19604    19608    19610    19612 
   19618    19623    19633    19643    19651    19661    19670    19678 
   19688    19697    19703    19710    19719    19728    19738    19746 
   19758    19773    19785    19800    19823    19845    19865    19889 
   19916    19936    19953    19967    19977    19981    19985    19986 
   19986    19985    19982    19980    19978    19978    19977    19974 
   19974    19973    19965    19955    19946    19936    19921    19901 
   19874    19850    19826    19799    19773    19746    19720    19697 
   19673    19650    19633    19616    19603    19593    19583    19569 
   19560    19553    19543    19539    19537    19534    19531    19531 
   19531    19529    19530    19533    19535    19538    19542    19545 
   19556    19566    19569    19573    19584    19595    19603    19608 
   19615    19619    19620    19623    19622    19619    19614    19606 
   19597    19593    19581    19568    19552    19531    19514    19496 
   19476    19458    19441    19427    19418    19408    19398    19395 
   19399    19407    19417    19429    19449    19469    19487    19510 
   19533    19556    19581    19610    19639    19669    19699    19727 
   19751    19778    19804    19824    19842    19858    19870    19880 
   19886    19888    19892    19893    19889    19890    19894    19893 
   19893    19892    19886    19885    19881    19867    19854    19843 
   19828    19812    19796    19781    19770    19759    19750    19745 
   19741    19735    19734    19739    19743    19743    19747    19755 
   19757    19757    19757    19757    19755    19754    19750    19743 
   19741    19739    19738    19737    19735    19734    19728    19723 
   19716    19707    19696    19684    19670    19651    19639    19629 
   19612    19595    19583    19568    19550    19535    19527    19521 
   19516    19521    19525    19525    19523    19525    19526    19529 
   19533    19533    19531    19531    19529    19525    19521    19515 
   19506    19495    19487    19477    19467    19460    19452    19445 
   19438    19434    19431    19422    19411    19407    19407    19402 
   19395    19388    19377    19367    19354    19344    19337    19330 
   19325    19323    19321    19317    19319    19323    19326    19332 
   19341    19348    19356    19367    19376    19384    19398    19415 
   19435    19457    19480    19503    19525    19545    19566    19589 
   19608    19629    19649    19666    19680    19696    19707    19715 
   19726    19735    19741    19750    19761    19766    19768    19774 
   19777    19778    19778    19778    19778    19781    19785    19789 
   19792    19797    19808    19819    19828    19840    19849    19854 
   19862    19867    19867    19867    19872    19874    19874    19877 
   19880    19880    19880    19881    19881    19881    19881    19876 
   19873    19872    19866    19862    19859    19857    19854    19850 
   19843    19836    19831    19824    19816    19808    19796    19781 
   19768    19753    19739    19727    19714    19701    19689    19677 
   19664    19653    19646    19641    19634    19626    19614    19606 
   19599    19589    19583    19579    19579    19581    19581    19584 
   19592    19603    19616    19629    19641    19657    19672    19685 
   19695    19701    19710    19722    19728    19731    19741    19751 
   19759    19770    19786    19801    19816    19835    19858    19882 
   19909    19936    19961    19982    20004    20021    20038    20051 
   20059    20058    20055    20051    20046    20039    20034    20023 
   20009    19998    19988    19971    19953    19938    19924    19909 
   19897    19882    19869    19859    19847    19832    19823    19815 
   19807    19796    19788    19780    19770    19761    19750    19739 
   19730    19719    19711    19705    19700    19695    19691    19688 
   19687    19683    19678    19674    19669    19664    19658    19651 
   19643    19633    19620    19610    19600    19591    19579    19565 
   19553    19539    19525    19508    19492    19475    19457    19438 
   19419    19398    19376    19350    19322    19294    19265    19234 
   19206    19178    19148    19117    19089    19060    19035    19010 
   18986    18966    18947    18928    18914    18905    18893    18881 
   18875    18871    18867    18866    18871    18879    18886    18900 
   18914    18929    18951    18975    18998    19025    19053    19079 
   19105    19133    19161    19186    19210    19238    19261    19283 
   19302    19318    19333    19345    19350    19354    19359    19360 
   19361    19363    19360    19356    19357    19363    19368    19371 
   19379    19386    19391    19402    19413    19419    19429    19441 
   19454    19467    19483    19502    19521    19537    19554    19576 
   19595    19612    19631    19653    19672    19689    19707    19722 
   19737    19750    19765    19778    19786    19793    19803    19812 
   19818    19826    19836    19845    19854    19865    19874    19890 
   19905    19915    19931    19943    19951    19966    19980    19986 
   19997    20008    20017    20031    20036    20042    20052    20063 
   20067    20069    20067    20065    20062    20062    20059    20052 
   20048    20044    20036    20028    20025    20023    20015    20007 
   20002    19997    19984    19966    19957    19950    19940    19936 
   19936    19936    19940    19947    19951    19961    19971    19977 
   19985    19996    20001    20005    20008    20013    20019    20016 
   20009    20000    19986    19975    19963    19944    19921    19897 
   19869    19838    19811    19785    19755    19726    19700    19676 
   19649    19624    19604    19587    19566    19546    19527    19508 
   19488    19471    19453    19433    19413    19392    19369    19346 
   19326    19303    19280    19263    19249    19233    19219    19211 
   19206    19205    19205    19203    19209    19222    19234    19249 
   19271    19294    19319    19349    19383    19419    19456    19494 
   19531    19566    19602    19635    19672    19705    19735    19762 
   19785    19809    19835    19854    19866    19881    19899    19907 
   19909    19917    19917    19912    19907    19901    19893    19884 
   19876    19866    19862    19858    19853    19849    19845    19845 
   19843    19843    19847    19849    19847    19849    19850    19847 
   19845    19836    19828    19819    19804    19791    19777    19761 
   19745    19724    19700    19677    19657    19635    19611    19589 
   19572    19549    19525    19504    19481    19457    19441    19425 
   19406    19390    19376    19365    19356    19345    19336    19329 
   19325    19323    19325    19326    19329    19336    19345    19359 
   19373    19390    19410    19433    19452    19469    19492    19514 
   19534    19554    19566    19575    19589    19602    19604    19611 
   19619    19624    19630    19639    19647    19656    19664    19676 
   19691    19703    19715    19726    19738    19750    19762    19776 
   19788    19801    19816    19831    19846    19862    19876    19889 
   19905    19920    19934    19942    19948    19957    19962    19962 
   19965    19969    19967    19965    19962    19958    19958    19958 
   19954    19948    19946    19940    19935    19932    19930    19923 
   19917    19909    19897    19885    19874    19865    19854    19842 
   19828    19811    19795    19778    19764    19743    19720    19704 
   19687    19665    19651    19643    19630    19616    19608    19599 
   19588    19580    19575    19565    19552    19539    19530    19518 
   19503    19494    19484    19473    19462    19449    19435    19429 
   19426    19423    19423    19421    19422    19430    19437    19442 
   19450    19462    19476    19488    19498    19507    19518    19529 
   19537    19542    19549    19553    19556    19560    19562    19558 
   19553    19550    19545    19538    19534    19530    19526    19523 
   19525    19522    19522    19522    19523    19525    19526    19529 
   19537    19546    19557    19568    19583    19597    19610    19622 
   19637    19653    19669    19684    19699    19711    19723    19738 
   19753    19762    19772    19784    19792    19800    19813    19824 
   19830    19839    19850    19858    19865    19873    19881    19886 
   19890    19894    19899    19903    19901    19896    19892    19888 
   19881    19876    19870    19865    19865    19859    19851    19849 
   19845    19839    19834    19827    19820    19815    19808    19799 
   19786    19776    19764    19751    19737    19720    19708    19693 
   19674    19658    19637    19616    19602    19583    19561    19543 
   19522    19499    19477    19454    19430    19408    19386    19361 
   19340    19321    19307    19292    19278    19269    19264    19260 
   19260    19260    19261    19268    19282    19294    19309    19330 
   19352    19376    19404    19429    19450    19473    19495    19516 
   19538    19553    19565    19577    19583    19587    19589    19587 
   19583    19580    19573    19565    19556    19546    19534    19525 
   19512    19500    19494    19487    19477    19473    19472    19471 
   19467    19462    19462    19465    19465    19467    19464    19461 
   19462    19467    19469    19472    19476    19480    19485    19491 
   19502    19516    19526    19534    19545    19550    19553    19554 
   19554    19553    19549    19543    19541    19535    19529    19521 
   19508    19494    19485    19476    19464    19452    19444    19437 
   19429    19419    19411    19403    19398    19390    19381    19377 
   19375    19369    19365    19359    19348    19340    19337    19333 
   19325    19323    19323    19323    19325    19326    19325    19327 
   19336    19338    19340    19346    19352    19356    19364    19371 
   19372    19377    19388    19395    19398    19402    19406    19406 
   19408    19411    19408    19407    19408    19407    19410    19415 
   19418    19422    19434    19446    19454    19465    19477    19487 
   19502    19519    19537    19554    19569    19588    19606    19618 
