Origin Time       2025/01/13 21:19:00
Lat.              31.8
Long.             131.6
Depth. (km)       30
Mag.              6.9
Station Code      HYGH12
Station Lat.      34.9313
Station Long.     134.5423
Station Height(m) 70
Record Time       2025/01/13 21:21:36
Sampling Freq(Hz) 100Hz
Duration Time(s)  120
Dir.              6
Scale Factor      7845(gal)/8223790
Max. Acc. (gal)   0.445
Last Correction   2025/01/13 21:21:37
Memo.             
[...]
    9578     9579     9579     9580     9583     9589     9593     9593 
    9595     9605     9618     9632     9647     9661     9676     9691 
    9702     9709     9714     9722     9733     9742     9751     9760 
    9769     9776     9784     9796     9806     9809     9807     9803 
    9803     9813     9823     9830     9838     9845     9853     9863 
    9868     9869     9871     9873     9882     9892     9904     9914 
    9917     9911     9903     9899     9900     9909     9913     9913 
    9917     9921     9925     9929     9930     9925     9915     9914 
    9915     9911     9906     9902     9892     9879     9868     9860 
    9848     9830     9811     9794     9783     9779     9776     9767 
    9753     9742     9737     9734     9734     9730     9725     9720 
    9713     9709     9709     9709     9706     9698     9688     9675 
    9664     9657     9653     9655     9659     9660     9661     9667 
    9675     9682     9686     9688     9694     9698     9703     9709 
    9707     9706     9705     9699     9694     9688     9684     9686 
    9688     9694     9703     9711     9718     9726     9740     9757 
    9779     9803     9822     9836     9850     9863     9869     9875 
    9879     9884     9892     9896     9898     9902     9910     9915 
    9919     9925     9931     9941     9948     9946     9940     9934 
    9929     9918     9903     9894     9890     9884     9875     9864 
    9845     9828     9818     9807     9790     9775     9763     9753 
    9742     9728     9714     9699     9684     9672     9656     9637 
    9622     9613     9605     9595     9589     9589     9587     9589 
    9591     9591     9591     9590     9595     9605     9609     9613 
    9621     9626     9632     9640     9649     9663     9674     9684 
    9697     9706     9715     9732     9751     9769     9786     9801 
    9814     9828     9836     9837     9834     9829     9822     9809 
    9794     9787     9780     9771     9761     9753     9747     9748 
    9748     9744     9741     9741     9740     9736     9730     9725 
    9721     9713     9706     9705     9710     9714     9720     9725 
    9728     9737     9749     9757     9761     9765     9768     9772 
    9775     9776     9784     9794     9794     9786     9779     9775 
    9768     9760     9753     9747     9744     9740     9730     9720 
    9711     9699     9688     9680     9670     9655     9641     9625 
    9606     9589     9576     9560     9543     9533     9528     9528 
    9529     9531     9529     9529     9529     9533     9545     9555 
    9558     9558     9563     9567     9570     9575     9583     9595 
    9610     9625     9637     9653     9672     9690     9705     9720 
    9732     9745     9753     9756     9759     9759     9753     9748 
    9742     9738     9734     9726     9714     9710     9715     9724 
    9736     9751     9763     9774     9784     9786     9782     9778 
    9779     9783     9780     9765     9748     9740     9733     9720 
    9706     9695     9688     9687     9693     9691     9688     9694 
    9694     9683     9672     9663     9649     9634     9624     9614 
    9616     9624     9633     9649     9667     9683     9701     9720 
    9737     9759     9782     9806     9836     9865     9890     9907 
    9919     9926     9923     9921     9922     9929     9940     9945 
    9945     9942     9936     9934     9934     9923     9904     9886 
    9868     9856     9841     9822     9805     9787     9772     9764 
    9753     9737     9726     9718     9710     9702     9693     9688 
    9688     9688     9691     9693     9691     9695     9699     9694 
    9686     9686     9693     9697     9693     9691     9688     9691 
    9703     9721     9736     9748     9757     9763     9769     9776 
    9784     9791     9792     9792     9796     9802     9805     9806 
    9807     9811     9814     9818     9822     9823     9818     9807 
    9798     9795     9792     9790     9791     9790     9786     9791 
    9801     9809     9813     9821     9834     9850     9864     9871 
    9883     9899     9911     9922     9934     9949     9960     9969 
    9969     9964     9964     9967     9964     9960     9958     9957 
    9954     9950     9944     9936     9927     9923     9919     9911 
    9900     9891     9884     9875     9864     9855     9844     9832 
    9818     9803     9791     9780     9767     9749     9734     9725 
    9720     9718     9717     9713     9711     9714     9717     9714 
    9707     9703     9701     9695     9695     9697     9695     9695 
    9698     9701     9706     9717     9728     9732     9732     9737 
    9740     9737     9734     9729     9721     9711     9703     9694 
    9686     9680     9672     9667     9666     9661     9663     9671 
    9679     9686     9694     9701     9702     9702     9705     9703 
    9699     9694     9690     9678     9661     9648     9636     9625 
    9617     9614     9621     9634     9649     9664     9674     9684 
    9694     9694     9691     9687     9682     9680     9687     9693 
    9698     9707     9718     9725     9722     9720     9720     9721 
    9717     9711     9707     9706     9705     9702     9701     9701 
    9703     9707     9713     9715     9717     9717     9718     9722 
    9728     9732     9737     9741     9741     9741     9747     9753 
    9757     9760     9764     9768     9772     9775     9782     9790 
    9796     9798     9794     9786     9779     9767     9748     9728 
    9713     9695     9675     9655     9633     9612     9595     9576 
    9558     9551     9547     9541     9537     9532     9518     9510 
    9509     9512     9514     9522     9532     9540     9556     9578 
    9595     9616     9636     9655     9671     9693     9714     9734 
    9753     9774     9791     9805     9819     9834     9845     9848 
    9842     9834     9829     9823     9817     9807     9791     9774 
    9759     9744     9737     9733     9724     9720     9724     9724 
    9721     9715     9710     9706     9705     9702     9698     9695 
    9690     9680     9672     9663     9657     9657     9664     9674 
    9686     9699     9711     9721     9730     9742     9755     9764 
    9774     9786     9801     9819     9833     9837     9841     9842 
    9840     9836     9826     9805     9778     9756     9740     9725 
    9711     9702     9698     9697     9699     9702     9705     9706 
    9715     9730     9741     9752     9765     9783     9805     9821 
    9828     9837     9852     9865     9880     9895     9914     9938 
    9963     9985    10003    10018    10034    10046    10050    10049 
   10050    10052    10052    10050    10052    10052    10057    10062 
   10058    10052    10048    10038    10029    10025    10022    10014 
   10006     9992     9968     9946     9929     9910     9890     9873 
    9861     9852     9850     9848     9844     9844     9845     9844 
    9844     9844     9841     9838     9832     9821     9814     9813 
    9807     9796     9780     9757     9732     9707     9683     9656 
    9625     9595     9568     9540     9514     9495     9477     9460 
    9448     9444     9444     9441     9436     9431     9428     9425 
    9424     9427     9429     9432     9435     9441     9447     9455 
    9474     9495     9520     9548     9576     9603     9628     9649 
    9676     9702     9726     9751     9768     9779     9786     9794 
    9809     9821     9826     9830     9834     9834     9829     9821 
    9805     9787     9767     9742     9718     9697     9674     9651 
    9628     9610     9597     9591     9590     9589     9585     9580 
    9579     9583     9586     9585     9582     9589     9603     9620 
    9634     9655     9672     9691     9710     9722     9734     9747 
    9759     9774     9784     9792     9805     9817     9825     9826 
    9825     9822     9822     9819     9815     9807     9798     9790 
    9780     9768     9759     9747     9729     9707     9680     9648 
    9617     9585     9548     9514     9487     9462     9439     9423 
    9412     9405     9401     9397     9397     9405     9413     9423 
    9437     9454     9467     9487     9506     9517     9529     9543 
    9549     9560     9575     9585     9595     9606     9617     9630 
    9641     9643     9641     9641     9643     9652     9659     9659 
    9656     9653     9651     9648     9643     9633     9626     9624 
    9628     9639     9647     9655     9668     9680     9690     9698 
    9705     9710     9715     9722     9728     9730     9738     9748 
    9757     9765     9774     9778     9780     9787     9796     9802 
    9809     9818     9826     9836     9845     9848     9849     9853 
    9855     9850     9849     9845     9842     9844     9844     9840 
    9845     9857     9864     9873     9890     9900     9909     9925 
    9948     9972     9996    10018    10034    10049    10064    10083 
   10102    10116    10127    10135    10145    10156    10164    10170 
   10170    10166    10161    10152    10141    10129    10111    10092 
   10076    10061    10042    10017     9994     9973     9952     9930 
    9909     9890     9875     9861     9846     9834     9825     9813 
    9803     9794     9783     9778     9779     9786     9796     9806 
    9814     9823     9833     9842     9850     9853     9853     9853 
    9853     9856     9857     9855     9848     9842     9841     9840 
    9838     9848     9857     9865     9877     9886     9888     9891 
    9891     9886     9877     9871     9863     9855     9846     9844 
    9844     9837     9833     9836     9834     9833     9837     9836 
    9834     9836     9832     9822     9817     9815     9811     9805 
    9801     9799     9799     9802     9805     9805     9806     9805 
    9801     9798     9794     9788     9787     9787     9783     9782 
    9780     9772     9756     9736     9715     9699     9682     9661 
    9647     9636     9629     9624     9616     9605     9598     9597 
    9595     9591     9589     9585     9583     9587     9591     9593 
    9590     9593     9597     9599     9602     9605     9602     9591 
    9578     9568     9562     9549     9532     9516     9497     9482 
    9475     9470     9463     9456     9451     9447     9441     9436 
    9435     9436     9433     9432     9436     9440     9444     9451 
    9459     9468     9479     9487     9498     9510     9517     9520 
    9522     9525     9529     9537     9541     9545     9558     9568 
    9578     9591     9603     9614     9630     9652     9678     9703 
    9730     9753     9775     9799     9822     9840     9855     9864 
    9867     9872     9877     9880     9882     9883     9880     9877 
    9880     9877     9871     9867     9864     9863     9863     9860 
    9864     9871     9872     9869     9868     9867     9865     9864 
    9860     9853     9849     9846     9837     9829     9819     9803 
    9788     9775     9764     9753     9742     9732     9725     9720 
    9714     9710     9705     9698     9695     9693     9697     9702 
    9703     9710     9720     9729     9740     9752     9757     9765 
    9775     9784     9794     9809     9822     9837     9850     9860 
    9873     9886     9895     9903     9909     9910     9915     9925 
    9937     9949     9958     9963     9964     9967     9965     9958 
    9949     9940     9933     9929     9929     9933     9936     9933 
    9927     9926     9926     9922     9915     9910     9902     9892 
    9884     9873     9853     9832     9818     9799     9774     9760 
    9752     9740     9726     9714     9702     9686     9668     9653 
    9640     9625     9610     9598     9585     9575     9566     9556 
    9549     9543     9539     9540     9544     9547     9553     9558 
    9560     9564     9566     9564     9567     9571     9576     9582 
    9590     9593     9589     9590     9591     9591     9590     9590 
    9593     9595     9595     9598     9603     9603     9598     9590 
    9583     9578     9571     9563     9560     9558     9555     9556 
    9551     9541     9539     9541     9543     9544     9547     9552 
    9560     9571     9580     9594     9610     9632     9653     9675 
    9691     9707     9726     9742     9759     9774     9783     9794 
    9810     9823     9834     9845     9850     9853     9852     9846 
    9841     9838     9841     9850     9857     9857     9860     9863 
    9860     9856     9853     9853     9850     9844     9834     9826 
    9815     9801     9786     9776     9765     9753     9744     9741 
    9741     9738     9740     9744     9745     9751     9761     9772 
    9786     9806     9828     9850     9872     9888     9902     9917 
    9931     9946     9963     9976     9984     9985     9985     9981 
    9973     9967     9957     9944     9927     9918     9915     9911 
    9907     9904     9899     9890     9882     9876     9871     9863 
    9856     9850     9841     9829     9821     9813     9801     9786 
    9771     9756     9745     9737     9724     9709     9697     9682 
    9660     9640     9618     9598     9579     9558     9537     9516 
    9495     9479     9463     9448     9437     9427     9412     9397 
    9383     9371     9356     9340     9327     9316     9306     9298 
    9290     9283     9279     9279     9282     9290     9302     9315 
    9329     9350     9375     9400     9424     9454     9483     9513 
    9545     9580     9617     9653     9688     9721     9755     9790 
    9819     9844     9873     9907     9934     9956     9976     9995 
   10014    10029    10038    10042    10046    10054    10061    10066 
   10068    10062    10054    10045    10033    10021    10011    10002 
    9992     9985     9976     9964     9956     9948     9933     9921 
    9907     9890     9877     9868     9856     9844     9832     9823 
    9819     9810     9802     9799     9796     9795     9795     9792 
    9792     9791     9790     9791     9792     9795     9799     9803 
    9807     9811     9815     9819     9829     9840     9852     9865 
    9877     9888     9902     9914     9925     9937     9952     9965 
    9976     9983     9987     9990     9992     9995     9994     9987 
    9983     9981     9972     9957     9938     9918     9902     9890 
    9877     9867     9859     9853     9846     9837     9826     9819 
    9810     9795     9786     9774     9752     9734     9721     9707 
    9691     9675     9659     9645     9630     9617     9603     9587 
    9570     9560     9555     9548     9548     9551     9545     9541 
    9540     9539     9541     9547     9548     9549     9547     9544 
    9540     9539     9539     9539     9536     9535     9539     9543 
    9548     9555     9558     9560     9568     9576     9582     9593 
    9606     9617     9629     9643     9655     9666     9674     9684 
    9702     9718     9733     9748     9760     9772     9787     9802 
    9815     9826     9834     9844     9849     9850     9856     9860 
    9860     9859     9856     9859     9864     9865     9865     9861 
    9855     9850     9848     9841     9830     9819     9814     9811 
    9803     9794     9782     9768     9761     9755     9745     9733 
    9725     9714     9703     9695     9684     9676     9670     9661 
    9653     9649     9643     9628     9610     9597     9586     9572 
    9559     9547     9531     9516     9506     9498     9490     9485 
    9487     9490     9490     9491     9493     9494     9495     9494 
    9490     9491     9497     9499     9505     9512     9520     9533 
    9548     9559     9570     9582     9587     9597     9612     9625 
    9632     9640     9652     9666     9675     9686     9702     9717 
    9730     9751     9769     9784     9802     9817     9832     9850 
    9868     9882     9895     9907     9919     9926     9926     9926 
    9925     9922     9919     9917     9910     9904     9904     9903 
    9900     9900     9896     9892     9892     9891     9887     9884 
    9884     9886     9888     9891     9896     9903     9910     9914 
    9921     9931     9940     9948     9956     9967     9972     9973 
    9975     9975     9976     9977     9979     9976     9972     9968 
    9965     9960     9953     9946     9938     9930     9925     9919 
    9914     9911     9906     9900     9896     9894     9894     9898 
    9898     9896     9895     9895     9895     9890     9882     9876 
    9875     9872     9868     9864     9857     9855     9856     9857 
    9861     9864     9867     9871     9873     9873     9875     9879 
    9882     9877     9872     9867     9861     9852     9840     9828 
    9817     9807     9795     9784     9772     9756     9741     9733 
    9724     9709     9693     9682     9675     9671     9671     9670 
    9664     9660     9661     9664     9668     9671     9674     9674 
    9674     9676     9675     9667     9661     9666     9668     9667 
    9664     9660     9653     9647     9640     9629     9620     9613 
    9607     9602     9599     9595     9590     9582     9574     9566 
    9559     9549     9540     9535     9529     9525     9520     9514 
    9509     9504     9501     9495     9487     9486     9486     9485 
    9486     9487     9490     9494     9498     9498     9504     9517 
    9528     9533     9543     9559     9579     9591     9603     9618 
    9634     9653     9672     9687     9698     9709     9715     9729 
    9747     9757     9764     9771     9778     9782     9786     9788 
    9788     9791     9794     9795     9796     9799     9805     9807 
    9806     9801     9799     9792     9782     9771     9761     9751 
    9737     9722     9707     9695     9683     9674     9666     9659 
    9655     9649     9641     9633     9628     9622     9620     9614 
    9607     9605     9602     9597     9590     9586     9578     9570 
    9564     9563     9564     9563     9562     9563     9562     9558 
    9558     9563     9568     9571     9575     9582     9590     9598 
    9606     9616     9626     9639     9649     9656     9661     9674 
    9690     9699     9710     9729     9744     9756     9771     9788 
    9801     9811     9830     9849     9864     9877     9888     9896 
    9902     9909     9913     9914     9913     9914     9918     9923 
    9925     9923     9926     9927     9930     9933     9929     9925 
    9927     9929     9923     9919     9915     9911     9909     9903 
    9895     9888     9880     9872     9863     9859     9855     9853 
    9857     9859     9856     9856     9859     9857     9857     9859 
    9857     9855     9852     9852     9848     9837     9830     9829 
    9825     9823     9819     9811     9806     9806     9805     9803 
    9805     9807     9811     9818     9823     9826     9830     9837 
    9842     9846     9853     9861     9867     9871     9879     9887 
    9894     9899     9898     9896     9896     9891     9886     9883 
    9882     9879     9876     9873     9868     9863     9857     9849 
    9840     9828     9813     9799     9791     9783     9772     9764 
