Origin Time       2025/01/13 21:19:00
Lat.              31.8
Long.             131.6
Depth. (km)       30
Mag.              6.9
Station Code      HYGH01
Station Lat.      34.2937
Station Long.     134.7941
Station Height(m) -37
Record Time       2025/01/13 21:20:54
Sampling Freq(Hz) 100Hz
Duration Time(s)  154
Dir.              2
Scale Factor      2942(gal)/8224139
Max. Acc. (gal)   0.586
Last Correction   2025/01/13 21:20:55
Memo.             
[...]
   77870    77854    77842    77828    77809    77792    77780    77760 
   77743    77733    77718    77704    77693    77683    77679    77666 
   77647    77631    77620    77618    77615    77611    77616    77622 
   77623    77630    77634    77634    77634    77631    77627    77622 
   77618    77615    77614    77616    77622    77627    77634    77642 
   77652    77653    77647    77642    77633    77630    77638    77650 
   77669    77696    77724    77751    77774    77800    77830    77857 
   77884    77908    77932    77958    77977    77998    78030    78059 
   78089    78121    78152    78178    78198    78221    78248    78271 
   78291    78308    78316    78316    78310    78304    78289    78268 
   78258    78247    78232    78221    78208    78193    78177    78154 
   78132    78113    78092    78067    78048    78040    78039    78035 
   78031    78028    78027    78021    78015    78008    78004    78004 
   77997    77981    77963    77943    77917    77896    77872    77838 
   77797    77758    77719    77677    77635    77596    77560    77530 
   77503    77479    77457    77437    77422    77410    77402    77400 
   77400    77399    77399    77403    77409    77417    77429    77450 
   77475    77495    77512    77530    77549    77568    77583    77599 
   77618    77637    77657    77674    77692    77708    77720    77737 
   77761    77791    77820    77845    77862    77877    77892    77903 
   77913    77926    77928    77931    77935    77935    77940    77951 
   77958    77963    77967    77971    77976    77977    77984    78000 
   78012    78017    78027    78038    78055    78077    78096    78115 
   78138    78160    78185    78212    78235    78252    78273    78285 
   78293    78301    78306    78316    78322    78317    78309    78298 
   78283    78268    78255    78244    78233    78225    78224    78221 
   78221    78224    78223    78221    78220    78217    78213    78202 
   78197    78189    78175    78165    78154    78143    78131    78115 
   78093    78077    78057    78031    78009    77988    77965    77942 
   77916    77893    77865    77834    77803    77765    77720    77679 
   77637    77591    77549    77508    77461    77418    77383    77348 
   77318    77296    77276    77260    77245    77232    77215    77205 
   77199    77191    77186    77184    77180    77186    77195    77209 
   77228    77247    77271    77298    77317    77340    77364    77383 
   77398    77414    77431    77450    77471    77491    77507    77525 
   77549    77576    77600    77630    77664    77691    77715    77747 
   77782    77812    77839    77868    77900    77927    77949    77967 
   77982    77990    77996    78004    78016    78028    78047    78075 
   78104    78135    78167    78194    78220    78243    78256    78267 
   78275    78281    78279    78273    78263    78252    78241    78228 
   78212    78196    78181    78165    78155    78150    78146    78144 
   78144    78139    78129    78115    78097    78086    78075    78063 
   78052    78038    78025    78021    78012    77994    77974    77954 
   77938    77923    77904    77888    77876    77866    77862    77861 
   77862    77868    77876    77890    77903    77913    77926    77935 
   77940    77943    77940    77936    77931    77926    77924    77924 
   77924    77924    77919    77913    77903    77888    77873    77858 
   77845    77836    77834    77832    77830    77828    77827    77823 
   77818    77815    77815    77823    77841    77861    77882    77911 
   77943    77978    78019    78061    78104    78148    78198    78247 
   78293    78333    78368    78402    78435    78462    78487    78513 
   78532    78545    78561    78575    78583    78594    78603    78609 
   78615    78621    78622    78621    78611    78601    78587    78564 
   78540    78520    78495    78467    78435    78394    78352    78310 
   78264    78220    78182    78144    78106    78075    78046    78015 
   77988    77959    77932    77907    77881    77855    77824    77795 
   77766    77733    77703    77677    77652    77625    77599    77575 
   77550    77522    77498    77476    77458    77445    77436    77431 
   77427    77427    77433    77437    77441    77445    77454    77463 
   77469    77477    77485    77490    77491    77488    77483    77473 
   77463    77453    77441    77426    77415    77406    77395    77390 
   77390    77384    77386    77399    77415    77431    77456    77484 
   77510    77541    77584    77634    77688    77741    77793    77846 
   77900    77949    77993    78043    78088    78131    78175    78210 
   78239    78264    78277    78279    78277    78273    78270    78263 
   78252    78246    78240    78233    78227    78221    78221    78223 
   78221    78224    78227    78224    78217    78214    78210    78206 
   78204    78200    78197    78192    78182    78171    78160    78151 
   78143    78135    78128    78127    78116    78102    78096    78081 
   78063    78050    78036    78024    78009    77992    77981    77971 
   77965    77957    77943    77927    77915    77904    77896    77893 
   77892    77892    77897    77900    77895    77890    77882    77874 
   77868    77865    77859    77851    77842    77830    77816    77804 
   77784    77760    77739    77722    77704    77691    77684    77674 
   77666    77660    77653    77643    77641    77641    77645    77653 
   77664    77677    77692    77699    77700    77706    77710    77718 
   77727    77739    77766    77792    77814    77849    77889    77920 
   77949    77978    78005    78036    78071    78105    78143    78182 
   78214    78244    78277    78302    78318    78336    78351    78356 
   78359    78362    78360    78356    78348    78335    78320    78301 
   78277    78254    78231    78202    78174    78147    78120    78094 
   78065    78042    78030    78019    78008    78008    78015    78021 
   78030    78038    78048    78065    78084    78101    78120    78132 
   78143    78154    78162    78171    78177    78179    78190    78205 
   78220    78236    78254    78277    78308    78345    78383    78424 
   78466    78502    78538    78572    78605    78638    78669    78699 
   78729    78749    78768    78790    78813    78837    78862    78883 
   78900    78919    78933    78942    78952    78950    78943    78934 
   78926    78910    78887    78867    78840    78806    78772    78736 
   78691    78640    78582    78517    78443    78367    78290    78209 
   78125    78039    77958    77881    77801    77722    77646    77571 
   77492    77418    77348    77274    77206    77147    77085    77028 
   76981    76935    76890    76851    76817    76786    76758    76734 
   76715    76694    76688    76694    76698    76702    76717    76734 
   76747    76762    76786    76813    76833    76856    76879    76902 
   76924    76950    76978    77009    77043    77082    77118    77151 
   77179    77209    77241    77271    77298    77330    77369    77410 
   77448    77490    77527    77557    77583    77604    77620    77634 
   77649    77661    77674    77688    77699    77706    77711    77719 
   77724    77727    77728    77728    77728    77733    77737    77743 
   77751    77761    77778    77799    77815    77831    77847    77862 
   77880    77905    77926    77939    77950    77958    77965    77969 
   77970    77976    77982    77990    77997    78001    78005    78008 
   78009    78012    78019    78027    78038    78048    78061    78070 
   78081    78093    78105    78123    78150    78182    78213    78244 
   78282    78318    78352    78389    78428    78468    78506    78538 
   78567    78602    78636    78663    78687    78714    78740    78759 
   78775    78792    78807    78815    78814    78811    78807    78791 
   78777    78768    78753    78738    78730    78726    78723    78719 
   78713    78711    78715    78715    78711    78710    78702    78687 
   78673    78661    78645    78628    78614    78599    78582    78565 
   78549    78533    78518    78498    78475    78452    78424    78395 
   78374    78355    78337    78321    78309    78306    78309    78309 
   78308    78312    78316    78318    78325    78332    78332    78328 
   78322    78312    78295    78277    78255    78233    78209    78181 
   78151    78125    78101    78079    78069    78065    78059    78059 
   78065    78070    78074    78082    78094    78104    78111    78112 
   78108    78098    78079    78051    78016    77980    77943    77907 
   77872    77834    77788    77742    77700    77658    77616    77575 
   77534    77496    77452    77404    77363    77321    77282    77252 
   77226    77201    77180    77163    77147    77134    77126    77117 
   77113    77110    77103    77101    77103    77103    77106    77105 
   77103    77102    77093    77079    77062    77043    77020    76997 
   76974    76951    76932    76917    76902    76889    76877    76867 
   76863    76858    76855    76859    76864    76871    76883    76896 
   76912    76939    76968    76997    77033    77085    77143    77203 
   77269    77337    77404    77479    77554    77625    77696    77766 
   77836    77911    77984    78055    78127    78196    78255    78316 
   78374    78426    78480    78534    78586    78638    78684    78729 
   78768    78799    78827    78852    78872    78894    78915    78939 
   78969    78997    79019    79041    79058    79068    79074    79076 
   79069    79053    79033    79007    78979    78949    78911    78864 
   78811    78752    78686    78617    78544    78464    78382    78295 
   78206    78120    78034    77951    77878    77811    77743    77685 
   77633    77584    77539    77499    77461    77429    77404    77383 
   77363    77349    77333    77315    77301    77282    77263    77251 
   77240    77232    77230    77229    77229    77241    77259    77282 
   77318    77357    77400    77449    77495    77537    77576    77615 
   77658    77699    77738    77781    77818    77850    77878    77900 
   77917    77940    77957    77965    77974    77984    77990    77994 
   78001    78011    78019    78024    78032    78042    78048    78051 
   78052    78051    78047    78047    78052    78052    78051    78054 
   78055    78057    78062    78063    78062    78062    78062    78066 
   78074    78084    78097    78121    78147    78170    78198    78229 
   78262    78301    78341    78383    78424    78462    78502    78538 
   78565    78590    78609    78622    78634    78644    78649    78653 
   78657    78657    78655    78646    78629    78611    78591    78564 
   78538    78518    78497    78475    78451    78417    78381    78348 
   78312    78274    78237    78197    78152    78112    78073    78027 
   77981    77936    77892    77843    77797    77758    77720    77681 
   77647    77622    77602    77595    77599    77611    77629    77653 
   77680    77710    77741    77776    77811    77846    77881    77915 
   77946    77976    77997    78019    78043    78065    78086    78112 
   78135    78158    78179    78197    78213    78231    78250    78266 
   78279    78293    78304    78313    78322    78331    78339    78343 
   78349    78354    78349    78345    78349    78348    78341    78335 
   78324    78312    78301    78286    78270    78254    78231    78205 
   78174    78140    78106    78069    78028    77992    77957    77923 
   77892    77862    77831    77805    77785    77766    77754    77742 
   77734    77733    77727    77719    77715    77714    77712    77706 
   77701    77696    77691    77691    77685    77676    77666    77656 
   77642    77622    77599    77575    77546    77522    77502    77479 
   77460    77448    77441    77434    77430    77431    77431    77436 
   77448    77464    77485    77514    77548    77585    77622    77654 
   77689    77722    77751    77777    77801    77828    77847    77859 
   77874    77885    77890    77899    77903    77904    77901    77896 
   77888    77868    77843    77816    77784    77750    77714    77672 
   77631    77595    77561    77529    77498    77465    77437    77414 
   77392    77379    77375    77369    77367    77369    77372    77375 
   77388    77409    77422    77440    77468    77492    77514    77544 
   77575    77604    77634    77662    77692    77723    77750    77782 
   77819    77850    77884    77919    77947    77971    78000    78030 
   78057    78089    78125    78158    78193    78232    78270    78312 
   78355    78394    78435    78476    78511    78545    78582    78613 
   78644    78684    78719    78746    78772    78792    78808    78830 
   78848    78862    78881    78892    78896    78903    78911    78919 
   78933    78950    78969    78988    79011    79038    79068    79096 
   79124    79155    79180    79196    79215    79228    79240    79251 
   79255    79254    79247    79239    79231    79216    79201    79185 
   79168    79153    79138    79122    79103    79083    79064    79042 
   79018    78987    78956    78926    78891    78848    78806    78760 
   78703    78644    78580    78518    78460    78397    78328    78262 
   78192    78113    78035    77962    77886    77807    77731    77654 
   77576    77499    77422    77349    77280    77211    77141    77071 
   77004    76937    76878    76827    76773    76720    76673    76630 
   76586    76539    76495    76454    76415    76384    76358    76339 
   76327    76320    76315    76312    76311    76311    76310    76312 
   76312    76314    76319    76322    76322    76330    76342    76356 
   76374    76395    76419    76446    76474    76509    76546    76582 
   76627    76675    76723    76773    76824    76874    76924    76974 
   77021    77067    77121    77178    77234    77295    77357    77419 
   77483    77548    77616    77684    77753    77823    77890    77957 
   78025    78093    78159    78223    78286    78343    78393    78439 
   78479    78511    78541    78568    78586    78598    78610    78619 
   78626    78632    78641    78645    78646    78655    78664    78672 
   78683    78699    78721    78744    78768    78791    78813    78835 
   78858    78881    78896    78907    78919    78921    78921    78925 
   78925    78925    78929    78933    78931    78931    78938    78941 
   78938    78938    78941    78945    78950    78958    78970    78985 
   79002    79019    79035    79047    79060    79069    79077    79084 
   79087    79084    79076    79058    79034    79006    78969    78929 
   78883    78835    78787    78732    78668    78597    78525    78451 
   78372    78293    78217    78144    78073    78003    77939    77876 
   77811    77749    77689    77635    77579    77525    77476    77430 
   77388    77349    77314    77282    77252    77229    77206    77184 
   77174    77167    77163    77160    77155    77155    77159    77163 
   77176    77197    77215    77236    77264    77292    77321    77350 
   77380    77403    77422    77444    77464    77479    77487    77495 
   77496    77487    77479    77472    77458    77450    77450    77442 
   77440    77438    77434    77434    77441    77448    77458    77475 
   77495    77521    77549    77573    77596    77614    77626    77639 
   77652    77660    77669    77672    77669    77669    77676    77685 
   77701    77723    77747    77772    77796    77823    77855    77888 
   77922    77961    77998    78039    78082    78123    78165    78200 
   78231    78264    78291    78302    78317    78327    78322    78318 
   78313    78309    78305    78294    78286    78281    78275    78263 
   78248    78243    78236    78228    78223    78219    78217    78221 
   78224    78229    78235    78241    78250    78251    78251    78251 
   78246    78235    78224    78208    78189    78175    78163    78151 
   78138    78121    78108    78092    78073    78055    78039    78021 
   78005    77996    77985    77973    77962    77955    77951    77951 
   77957    77966    77980    78003    78027    78047    78075    78104 
   78131    78169    78205    78241    78281    78318    78355    78397 
   78435    78467    78505    78543    78574    78602    78632    78661 
   78684    78703    78721    78733    78740    78744    78746    78746 
   78741    78729    78714    78696    78675    78655    78629    78597 
   78568    78538    78506    78476    78441    78403    78368    78332 
   78290    78252    78219    78183    78142    78100    78055    78005 
   77955    77909    77861    77808    77760    77714    77665    77619 
   77576    77534    77498    77463    77430    77402    77377    77359 
   77345    77336    77323    77311    77309    77307    77302    77305 
   77310    77311    77315    77321    77323    77322    77322    77318 
   77310    77303    77299    77290    77280    77274    77267    77261 
   77257    77256    77260    77265    77272    77286    77301    77311 
   77328    77348    77371    77395    77419    77442    77461    77480 
   77500    77519    77535    77558    77583    77600    77616    77635 
   77657    77681    77707    77730    77757    77791    77820    77850 
   77890    77931    77969    78011    78051    78092    78139    78185 
   78233    78285    78331    78379    78430    78478    78524    78565 
   78598    78632    78660    78678    78694    78711    78723    78732 
   78733    78734    78740    78736    78725    78715    78703    78686 
   78669    78653    78637    78617    78592    78568    78540    78510 
   78484    78459    78425    78391    78358    78320    78277    78240 
   78200    78148    78098    78048    77997    77949    77901    77857 
   77812    77769    77733    77697    77661    77630    77603    77575 
   77553    77530    77506    77494    77483    77465    77452    77445 
   77437    77429    77425    77422    77414    77403    77399    77394 
   77386    77382    77383    77380    77377    77375    77372    77371 
   77369    77371    77377    77383    77387    77395    77407    77423 
   77440    77460    77484    77507    77530    77560    77593    77626 
   77657    77689    77724    77758    77795    77835    77873    77907 
   77943    77980    78012    78044    78075    78105    78129    78151 
   78175    78193    78206    78219    78227    78232    78240    78246 
   78248    78254    78254    78252    78252    78243    78233    78221 
   78206    78197    78185    78169    78155    78144    78133    78124 
   78116    78111    78109    78109    78112    78120    78132    78146 
   78166    78189    78209    78232    78256    78278    78304    78327 
   78344    78359    78370    78376    78379    78376    78364    78345 
   78325    78302    78275    78248    78221    78190    78162    78131 
   78097    78063    78025    77980    77935    77895    77853    77812 
   77777    77745    77710    77674    77639    77604    77573    77545 
   77511    77479    77452    77422    77394    77372    77355    77334 
   77318    77310    77305    77295    77295    77306    77311    77322 
   77346    77367    77387    77411    77436    77461    77492    77523 
   77556    77591    77626    77660    77692    77723    77754    77785 
   77814    77845    77878    77909    77939    77970    78004    78035 
   78059    78088    78121    78151    78178    78206    78231    78255 
