Origin Time       2025/01/13 21:19:00
Lat.              31.8
Long.             131.6
Depth. (km)       30
Mag.              6.9
Station Code      HYGH07
Station Lat.      35.0322
Station Long.     134.6701
Station Height(m) 160
Record Time       2025/01/13 21:21:46
Sampling Freq(Hz) 100Hz
Duration Time(s)  120
Dir.              6
Scale Factor      7845(gal)/8223790
Max. Acc. (gal)   0.254
Last Correction   2025/01/13 21:21:46
Memo.             
[...]
   15931    15928    15923    15913    15911    15913    15921    15928 
   15928    15925    15924    15927    15928    15931    15935    15939 
   15940    15942    15947    15950    15948    15948    15952    15957 
   15961    15967    15970    15969    15970    15969    15962    15959 
   15959    15955    15951    15948    15944    15939    15936    15936 
   15932    15931    15935    15939    15939    15942    15942    15940 
   15942    15943    15940    15934    15931    15930    15925    15923 
   15923    15921    15920    15917    15919    15923    15925    15928 
   15930    15931    15931    15934    15936    15939    15943    15944 
   15948    15952    15948    15943    15943    15939    15936    15935 
   15935    15936    15931    15924    15927    15930    15931    15940 
   15950    15951    15952    15954    15955    15959    15965    15966 
   15967    15967    15967    15966    15965    15966    15970    15974 
   15971    15967    15967    15970    15969    15967    15970    15973 
   15973    15971    15974    15981    15984    15981    15978    15979 
   15978    15974    15970    15967    15967    15969    15966    15966 
   15965    15958    15950    15946    15940    15940    15939    15931 
   15928    15931    15928    15924    15921    15924    15925    15924 
   15924    15925    15927    15925    15927    15935    15943    15948 
   15952    15955    15952    15952    15957    15961    15961    15961 
   15962    15959    15958    15963    15966    15967    15971    15974 
   15974    15971    15974    15978    15981    15981    15979    15975 
   15973    15970    15966    15965    15966    15965    15959    15955 
   15952    15954    15951    15944    15936    15930    15917    15909 
   15909    15908    15904    15900    15893    15886    15885    15885 
   15884    15890    15900    15903    15905    15905    15901    15905 
   15912    15919    15927    15931    15930    15932    15934    15934 
   15939    15951    15958    15957    15957    15962    15967    15967 
   15967    15967    15963    15957    15952    15950    15954    15957 
   15955    15954    15951    15947    15946    15947    15951    15958 
   15967    15970    15969    15971    15975    15978    15981    15984 
   15986    15989    15993    15997    16004    16008    16004    16000 
   15994    15992    15993    15997    15996    15989    15984    15978 
   15971    15967    15963    15961    15961    15958    15954    15954 
   15958    15957    15948    15944    15940    15938    15943    15948 
   15951    15951    15946    15942    15942    15938    15931    15934 
   15939    15938    15940    15943    15938    15930    15927    15924 
   15919    15913    15913    15913    15911    15904    15898    15901 
   15907    15915    15921    15928    15936    15942    15942    15943 
   15946    15946    15947    15948    15951    15954    15958    15963 
   15962    15959    15959    15958    15961    15963    15963    15962 
   15958    15951    15946    15943    15947    15957    15962    15962 
   15962    15961    15958    15958    15959    15958    15957    15961 
   15962    15959    15962    15970    15977    15978    15977    15977 
   15977    15977    15973    15969    15970    15973    15969    15965 
   15967    15971    15973    15974    15975    15974    15971    15973 
   15978    15982    15984    15985    15984    15981    15978    15975 
   15971    15970    15969    15966    15961    15951    15946    15943 
   15942    15944    15948    15947    15943    15939    15936    15938 
   15942    15944    15948    15952    15959    15969    15975    15979 
   15984    15986    15988    15990    15997    16001    16005    16009 
   16012    16012    16013    16016    16015    16011    16009    16012 
   16013    16012    16011    16009    16005    15997    15996    16000 
   16001    16000    15998    15998    15997    16001    16011    16019 
   16023    16025    16028    16028    16027    16025    16024    16025 
   16024    16023    16021    16021    16016    16006    16001    16000 
   15994    15988    15985    15978    15970    15965    15961    15955 
   15948    15943    15944    15944    15938    15935    15936    15935 
   15934    15935    15936    15938    15936    15935    15932    15934 
   15938    15947    15958    15967    15973    15979    15984    15984 
   15985    15985    15984    15982    15978    15971    15966    15962 
   15955    15947    15943    15943    15940    15938    15935    15930 
   15924    15920    15916    15912    15907    15900    15896    15894 
   15890    15888    15889    15890    15890    15894    15900    15905 
   15911    15915    15917    15923    15924    15924    15924    15930 
   15936    15942    15946    15948    15951    15951    15950    15952 
   15958    15961    15962    15963    15963    15969    15973    15974 
   15975    15977    15979    15984    15985    15981    15978    15978 
   15977    15971    15965    15965    15963    15962    15959    15957 
   15954    15950    15951    15954    15952    15951    15954    15957 
   15957    15961    15965    15965    15962    15962    15962    15961 
   15959    15963    15971    15975    15977    15975    15971    15966 
   15961    15959    15963    15962    15961    15963    15963    15965 
   15971    15977    15977    15971    15969    15970    15971    15974 
   15977    15978    15981    15982    15982    15984    15985    15985 
   15984    15984    15986    15985    15981    15977    15975    15971 
   15969    15967    15967    15965    15959    15951    15947    15951 
   15954    15950    15947    15947    15948    15950    15947    15940 
   15935    15934    15931    15932    15932    15934    15939    15942 
   15939    15940    15943    15943    15944    15948    15951    15951 
   15951    15951    15950    15951    15950    15948    15948    15950 
   15948    15947    15942    15938    15936    15936    15934    15936 
   15943    15943    15942    15940    15938    15934    15931    15930 
   15934    15935    15935    15936    15936    15934    15935    15938 
   15939    15947    15959    15966    15971    15979    15989    15994 
   15994    15996    15996    15996    15998    16001    16002    16002 
   16004    16004    16002    15998    15997    15996    15998    16000 
   15998    15997    15993    15988    15985    15984    15979    15974 
   15965    15952    15943    15934    15925    15917    15912    15908 
   15907    15901    15897    15898    15901    15897    15893    15889 
   15882    15878    15880    15877    15876    15878    15874    15871 
   15873    15873    15873    15874    15876    15877    15880    15878 
   15880    15880    15876    15873    15871    15866    15862    15855 
   15850    15847    15843    15836    15834    15834    15836    15838 
   15840    15846    15853    15859    15862    15865    15865    15867 
   15873    15878    15880    15882    15888    15893    15898    15904 
   15912    15924    15934    15936    15943    15952    15962    15973 
   15982    15988    15990    15994    15996    15997    16002    16005 
   16002    16001    16000    15998    16002    16004    15998    15989 
   15984    15979    15975    15970    15967    15963    15957    15950 
   15944    15940    15936    15934    15932    15930    15928    15928 
   15928    15925    15925    15925    15930    15935    15939    15944 
   15955    15966    15970    15973    15977    15979    15981    15986 
   15994    15997    16000    16002    16002    16002    16006    16011 
   16009    16008    16002    15997    15996    15994    15988    15985 
   15985    15986    15986    15982    15971    15963    15962    15959 
   15954    15954    15955    15955    15952    15950    15950    15947 
   15943    15936    15928    15931    15939    15939    15936    15938 
   15938    15939    15939    15939    15939    15938    15938    15939 
   15936    15931    15931    15934    15936    15943    15948    15948 
   15947    15942    15936    15931    15923    15919    15921    15924 
   15924    15927    15928    15925    15927    15931    15934    15938 
   15940    15939    15942    15943    15942    15938    15938    15940 
   15939    15942    15952    15962    15965    15969    15971    15970 
   15971    15977    15982    15992    15998    16000    16004    16011 
   16013    16017    16025    16032    16040    16050    16058    16065 
   16071    16075    16073    16070    16071    16074    16070    16063 
   16063    16066    16065    16062    16058    16055    16059    16062 
   16059    16056    16051    16043    16038    16033    16029    16023 
   16020    16017    16008    15998    15994    15989    15985    15984 
   15982    15982    15981    15979    15982    15981    15982    15992 
   15996    15996    15996    15998    15998    15997    15994    15988 
   15982    15975    15971    15969    15962    15951    15940    15931 
   15920    15908    15900    15892    15882    15874    15866    15857 
   15846    15838    15832    15831    15831    15826    15820    15817 
   15815    15813    15812    15809    15809    15809    15805    15804 
   15804    15800    15793    15790    15790    15792    15792    15792 
   15792    15793    15799    15805    15811    15817    15828    15839 
   15850    15859    15869    15881    15892    15903    15912    15925 
   15942    15955    15963    15973    15982    15989    16000    16015 
   16028    16038    16046    16054    16058    16058    16060    16067 
   16065    16062    16062    16063    16065    16065    16063    16060 
   16055    16050    16044    16042    16036    16027    16016    16008 
   15998    15989    15978    15967    15957    15942    15924    15908 
   15892    15880    15870    15857    15846    15842    15835    15827 
   15822    15816    15813    15813    15812    15812    15815    15816 
   15813    15815    15817    15817    15819    15826    15830    15835 
   15843    15849    15851    15855    15861    15866    15874    15885 
   15894    15901    15908    15912    15913    15913    15916    15917 
   15919    15924    15928    15930    15928    15927    15927    15928 
   15928    15930    15931    15931    15928    15927    15927    15928 
   15931    15928    15924    15925    15925    15923    15923    15930 
   15943    15951    15955    15961    15967    15971    15977    15985 
   15990    15996    16000    16000    16000    16005    16006    16005 
   16011    16017    16023    16027    16031    16033    16036    16038 
   16040    16043    16043    16042    16044    16051    16056    16062 
   16070    16074    16077    16082    16089    16096    16101    16108 
   16117    16123    16125    16128    16127    16127    16128    16129 
   16128    16123    16119    16114    16104    16093    16086    16081 
   16074    16067    16060    16050    16039    16031    16024    16017 
   16009    16001    16000    15998    15994    15992    15989    15986 
   15986    15984    15984    15986    15985    15985    15981    15973 
   15970    15969    15967    15970    15969    15962    15958    15952 
   15946    15942    15942    15939    15935    15935    15932    15928 
   15925    15921    15916    15913    15912    15912    15912    15909 
   15908    15904    15900    15900    15898    15894    15897    15900 
   15896    15894    15893    15890    15890    15893    15893    15894 
   15896    15897    15900    15903    15904    15909    15913    15916 
   15923    15930    15939    15947    15955    15963    15966    15966 
   15970    15975    15978    15981    15982    15984    15985    15986 
   15988    15990    15992    15992    15997    16000    16001    16004 
   16006    16009    16012    16013    16015    16011    16004    16000 
   15996    15990    15985    15982    15979    15978    15975    15973 
   15973    15967    15958    15950    15942    15934    15928    15924 
   15916    15908    15898    15892    15886    15881    15880    15874 
   15865    15855    15847    15839    15835    15831    15826    15824 
   15824    15822    15817    15809    15803    15800    15796    15790 
   15788    15784    15777    15772    15765    15759    15758    15758 
   15758    15763    15766    15768    15770    15774    15781    15790 
   15796    15799    15799    15799    15803    15804    15803    15808 
   15812    15813    15816    15822    15826    15828    15828    15830 
   15832    15831    15830    15828    15826    15824    15827    15826 
   15823    15827    15828    15827    15831    15838    15844    15851 
   15857    15863    15873    15880    15888    15898    15907    15913 
   15919    15920    15921    15919    15917    15917    15913    15908 
   15904    15896    15888    15881    15873    15869    15866    15862 
   15859    15857    15853    15853    15853    15850    15850    15850 
   15850    15854    15858    15865    15870    15874    15880    15885 
   15888    15892    15897    15903    15911    15915    15916    15921 
   15924    15925    15931    15939    15938    15931    15928    15930 
   15928    15925    15928    15931    15932    15936    15940    15944 
   15950    15957    15962    15967    15974    15979    15986    15994 
   16002    16006    16011    16015    16020    16025    16031    16036 
   16044    16056    16066    16070    16074    16085    16090    16093 
   16098    16106    16116    16128    16141    16150    16156    16166 
   16175    16179    16181    16186    16195    16201    16205    16212 
   16214    16212    16212    16214    16216    16214    16213    16210 
   16208    16201    16194    16186    16175    16167    16158    16146 
   16136    16127    16120    16116    16110    16106    16102    16093 
   16089    16087    16083    16079    16075    16071    16066    16059 
   16054    16056    16060    16062    16067    16069    16069    16074 
   16077    16074    16073    16077    16077    16073    16074    16075 
   16071    16069    16066    16060    16055    16051    16048    16043 
   16038    16029    16025    16020    16013    16005    15997    15989 
   15984    15978    15973    15969    15966    15963    15958    15951 
   15947    15942    15938    15932    15927    15923    15916    15909 
   15903    15894    15886    15880    15871    15863    15858    15850 
   15842    15835    15827    15823    15824    15822    15816    15809 
   15805    15799    15792    15789    15788    15788    15785    15784 
   15782    15784    15788    15793    15800    15803    15805    15812 
   15817    15822    15826    15831    15836    15838    15839    15842 
   15844    15846    15844    15844    15844    15843    15844    15847 
   15846    15846    15850    15855    15859    15865    15869    15873 
   15877    15877    15878    15880    15881    15884    15888    15888 
   15885    15882    15878    15873    15867    15865    15866    15869 
   15869    15867    15871    15880    15885    15885    15886    15894 
   15904    15908    15907    15908    15916    15924    15927    15936 
   15948    15952    15961    15973    15979    15986    15998    16011 
   16020    16029    16039    16046    16048    16054    16059    16065 
   16074    16083    16089    16093    16100    16104    16106    16112 
   16114    16112    16114    16117    16116    16117    16113    16106 
   16102    16097    16085    16075    16067    16059    16052    16044 
   16036    16025    16015    16009    16002    15994    15989    15984 
   15978    15973    15966    15957    15951    15944    15936    15930 
   15924    15919    15913    15908    15901    15898    15896    15893 
   15894    15896    15896    15898    15901    15898    15900    15905 
   15908    15909    15912    15916    15919    15919    15915    15911 
   15911    15908    15905    15908    15908    15898    15893    15894 
   15893    15892    15894    15894    15893    15890    15888    15889 
   15892    15894    15898    15900    15900    15901    15901    15901 
   15904    15905    15904    15904    15905    15903    15901    15901 
   15901    15900    15898    15896    15892    15889    15888    15885 
   15881    15881    15884    15886    15888    15886    15888    15890 
   15892    15894    15898    15903    15907    15912    15916    15916 
   15919    15923    15924    15924    15924    15920    15915    15913 
   15911    15907    15907    15909    15909    15908    15904    15900 
   15897    15890    15884    15882    15885    15882    15880    15878 
   15878    15882    15885    15886    15889    15889    15892    15898 
   15903    15905    15908    15909    15909    15913    15917    15923 
   15930    15940    15948    15954    15958    15962    15967    15977 
   15985    15992    16001    16008    16013    16019    16019    16019 
   16023    16024    16027    16028    16024    16020    16016    16008 
   16001    15997    15992    15989    15985    15984    15981    15974 
   15967    15965    15963    15963    15963    15963    15962    15961 
   15962    15962    15962    15963    15965    15970    15973    15973 
   15977    15979    15981    15979    15977    15977    15977    15973 
   15967    15962    15952    15944    15939    15932    15930    15923 
   15913    15905    15898    15894    15890    15885    15882    15881 
   15874    15865    15861    15859    15859    15857    15857    15857 
   15857    15862    15867    15870    15874    15880    15884    15886 
   15888    15890    15898    15904    15905    15908    15916    15925 
   15931    15938    15946    15952    15958    15963    15969    15973 
   15978    15981    15979    15979    15982    15984    15984    15986 
   15985    15984    15984    15979    15977    15975    15970    15969 
   15967    15969    15973    15977    15978    15981    15985    15989 
   15993    15998    16002    16005    16009    16011    16012    16012 
   16012    16012    16012    16009    16002    15997    15996    15994 
   15993    15993    15993    15992    15990    15986    15982    15982 
   15984    15985    15988    15988    15988    15986    15986    15986 
   15986    15985    15979    15975    15977    15979    15984    15988 
   15990    15990    15989    15990    15993    15992    15992    15994 
   15994    15993    15990    15988    15990    15994    15994    15997 
   16000    15996    15994    15996    15996    16001    16006    16006 
   16008    16009    16005    16004    16006    16009    16012    16013 
   16011    16009    16009    16008    16008    16008    16006    16001 
   15993    15986    15982    15978    15974    15967    15955    15944 
   15939    15934    15924    15917    15911    15905    15896    15888 
   15884    15880    15877    15876    15873    15867    15869    15870 
   15867    15863    15863    15863    15862    15861    15863    15866 
   15867    15870    15873    15878    15882    15885    15888    15892 
   15893    15893    15897    15901    15907    15908    15908    15908 
   15911    15911    15911    15911    15912    15912    15908    15907 
   15908    15904    15900    15898    15897    15897    15894    15890 
   15888    15886    15888    15886    15884    15884    15880    15877 
   15874    15871    15869    15870    15870    15867    15863    15861 
   15862    15863    15863    15866    15869    15869    15870    15871 
   15876    15880    15881    15884    15892    15897    15903    15911 
