Origin Time       2025/01/13 21:19:00
Lat.              31.8
Long.             131.6
Depth. (km)       30
Mag.              6.9
Station Code      HYGH06
Station Lat.      34.7935
Station Long.     134.4792
Station Height(m) 65
Record Time       2025/01/13 21:21:31
Sampling Freq(Hz) 100Hz
Duration Time(s)  120
Dir.              5
Scale Factor      7845(gal)/8223790
Max. Acc. (gal)   0.391
Last Correction   2025/01/13 21:21:32
Memo.             
[...]
    3484     3457     3419     3387     3370     3368     3389     3438 
    3478     3478     3442     3412     3422     3443     3454     3466 
    3462     3447     3473     3505     3497     3491     3501     3487 
    3457     3450     3457     3456     3466     3491     3480     3435 
    3416     3437     3446     3435     3427     3407     3385     3393 
    3402     3404     3433     3462     3446     3396     3360     3339 
    3338     3373     3411     3419     3435     3466     3461     3410 
    3354     3315     3311     3343     3381     3408     3423     3429 
    3420     3404     3389     3372     3350     3350     3379     3415 
    3450     3481     3489     3465     3430     3418     3433     3457 
    3480     3507     3522     3508     3488     3478     3473     3478 
    3488     3485     3485     3484     3480     3478     3466     3445 
    3420     3396     3389     3385     3383     3391     3399     3411 
    3439     3466     3461     3431     3400     3380     3364     3354 
    3360     3368     3387     3414     3418     3402     3395     3406 
    3408     3403     3414     3422     3408     3385     3368     3350 
    3334     3353     3387     3392     3393     3403     3404     3416 
    3430     3419     3411     3423     3412     3391     3400     3420 
    3402     3352     3329     3339     3354     3379     3400     3406 
    3423     3445     3439     3416     3397     3373     3358     3360 
    3361     3383     3435     3473     3485     3496     3487     3445 
    3416     3426     3451     3473     3493     3511     3526     3516 
    3489     3489     3504     3497     3485     3488     3500     3519 
    3535     3538     3528     3507     3492     3515     3566     3595 
    3577     3545     3507     3465     3464     3493     3508     3523 
    3538     3527     3516     3493     3450     3419     3403     3387 
    3392     3420     3456     3483     3489     3470     3426     3381 
    3368     3376     3399     3442     3466     3442     3406     3397 
    3415     3433     3449     3465     3462     3443     3442     3453 
    3450     3438     3429     3412     3404     3410     3431     3454 
    3461     3456     3437     3403     3375     3358     3348     3348 
    3354     3370     3399     3412     3395     3381     3376     3356 
    3333     3341     3377     3404     3415     3422     3392     3335 
    3312     3316     3314     3312     3330     3356     3366     3357 
    3334     3312     3312     3334     3358     3353     3321     3296 
    3299     3319     3330     3323     3326     3338     3342     3352 
    3365     3368     3365     3352     3331     3318     3308     3316 
    3335     3331     3325     3346     3366     3352     3329     3316 
    3308     3321     3353     3399     3446     3474     3492     3512 
    3512     3478     3439     3414     3404     3427     3477     3526 
    3562     3576     3557     3532     3528     3526     3534     3562 
    3564     3531     3505     3488     3476     3495     3531     3551 
    3572     3607     3632     3636     3632     3619     3604     3596 
    3595     3585     3566     3564     3582     3589     3570     3554 
    3555     3554     3542     3541     3551     3559     3553     3547 
    3562     3577     3570     3547     3522     3492     3472     3485 
    3524     3558     3557     3530     3504     3469     3431     3411 
    3411     3429     3447     3449     3445     3447     3465     3485 
    3483     3466     3457     3447     3435     3434     3441     3435 
    3400     3365     3352     3362     3379     3384     3381     3364 
    3343     3345     3341     3304     3277     3300     3338     3353 
    3354     3352     3342     3331     3325     3314     3312     3331 
    3364     3384     3364     3329     3323     3338     3350     3353 
    3357     3381     3412     3435     3450     3450     3427     3404 
    3404     3412     3412     3423     3442     3438     3442     3485 
    3511     3487     3450     3426     3397     3384     3391     3391 
    3387     3388     3377     3366     3380     3407     3411     3395 
    3380     3372     3360     3353     3366     3388     3404     3400 
    3385     3377     3348     3299     3281     3283     3268     3276 
    3322     3346     3345     3341     3311     3264     3229     3226 
    3256     3295     3325     3354     3372     3358     3335     3322 
    3304     3287     3291     3312     3337     3352     3358     3372 
    3388     3404     3420     3420     3422     3442     3460     3466 
    3476     3488     3493     3491     3485     3483     3476     3469 
    3477     3485     3484     3488     3495     3511     3526     3519 
    3508     3501     3485     3485     3523     3573     3601     3593 
    3574     3573     3577     3574     3584     3604     3601     3577 
    3572     3595     3628     3661     3680     3686     3699     3707 
    3707     3715     3711     3688     3676     3661     3643     3650 
    3676     3703     3713     3697     3677     3669     3676     3697 
    3717     3713     3700     3684     3654     3622     3600     3600 
    3616     3627     3624     3619     3615     3604     3597     3603 
    3595     3577     3572     3572     3565     3565     3569     3554 
    3519     3484     3462     3454     3458     3472     3485     3497 
    3491     3461     3423     3384     3349     3330     3319     3300 
    3306     3334     3339     3325     3312     3306     3279     3230 
    3194     3181     3191     3214     3242     3252     3231     3208 
    3198     3203     3221     3235     3252     3280     3312     3331 
    3334     3319     3302     3316     3350     3383     3406     3410 
    3407     3402     3376     3343     3321     3296     3280     3303 
    3349     3381     3397     3388     3364     3331     3299     3279 
    3268     3267     3279     3295     3299     3296     3294     3298 
    3307     3300     3272     3246     3246     3252     3241     3225 
    3208     3198     3213     3242     3252     3249     3265     3292 
    3311     3329     3348     3361     3356     3341     3343     3354 
    3348     3350     3377     3402     3420     3439     3460     3469 
    3457     3445     3438     3423     3406     3402     3418     3430 
    3429     3434     3447     3445     3422     3411     3419     3423 
    3422     3427     3439     3447     3442     3429     3416     3416 
    3419     3429     3454     3485     3485     3465     3461     3449 
    3431     3445     3481     3516     3535     3541     3545     3543 
    3537     3526     3523     3522     3520     3532     3537     3526 
    3522     3518     3499     3473     3450     3442     3454     3473 
    3488     3489     3480     3468     3439     3399     3368     3349 
    3349     3370     3392     3388     3360     3327     3302     3279 
    3249     3223     3211     3210     3219     3230     3230     3227 
    3218     3195     3187     3198     3200     3206     3229     3258 
    3299     3339     3356     3357     3361     3350     3329     3337 
    3375     3408     3418     3419     3411     3402     3420     3451 
    3458     3474     3522     3542     3520     3516     3531     3527 
    3507     3480     3447     3422     3410     3402     3403     3404 
    3396     3383     3369     3348     3310     3281     3272     3254 
    3249     3273     3284     3268     3267     3261     3237     3230 
    3233     3234     3241     3246     3262     3285     3291     3276 
    3261     3260     3256     3252     3268     3295     3310     3325 
    3348     3352     3339     3329     3316     3319     3343     3370 
    3393     3415     3427     3415     3387     3364     3358     3370 
    3384     3395     3407     3431     3451     3461     3483     3501 
    3481     3445     3435     3449     3447     3449     3464     3473 
    3480     3480     3469     3464     3465     3449     3435     3442 
    3450     3466     3481     3476     3469     3457     3430     3419 
    3430     3427     3418     3424     3431     3420     3406     3399 
    3383     3353     3342     3346     3343     3338     3341     3333 
    3312     3294     3287     3281     3272     3272     3276     3253 
    3222     3214     3210     3196     3179     3172     3172     3171 
    3183     3213     3229     3227     3226     3215     3203     3215 
    3242     3276     3318     3353     3360     3354     3361     3372 
    3383     3393     3402     3415     3431     3468     3523     3553 
    3554     3558     3572     3596     3635     3677     3716     3738 
    3730     3719     3715     3705     3715     3739     3751     3747 
    3742     3757     3774     3757     3716     3681     3647     3611 
    3592     3608     3640     3645     3616     3586     3545     3488 
    3446     3434     3441     3438     3415     3377     3346     3321 
    3287     3257     3241     3231     3225     3230     3242     3233 
    3218     3208     3199     3210     3226     3235     3245     3227 
    3192     3168     3148     3142     3150     3163     3191     3229 
    3238     3235     3244     3262     3302     3343     3368     3393 
    3414     3427     3445     3446     3437     3441     3439     3435 
    3458     3488     3508     3520     3526     3520     3503     3487 
    3474     3465     3483     3510     3526     3542     3555     3554 
    3547     3547     3541     3528     3528     3528     3524     3520 
    3530     3554     3565     3555     3532     3508     3505     3526 
    3549     3562     3574     3585     3586     3576     3568     3572 
    3577     3576     3574     3576     3572     3558     3553     3558 
    3558     3550     3543     3549     3558     3570     3586     3584 
    3558     3534     3526     3526     3524     3522     3507     3473 
    3439     3422     3402     3381     3381     3384     3361     3330 
    3319     3327     3333     3348     3376     3389     3395     3406 
    3407     3410     3419     3429     3454     3484     3492     3497 
    3520     3534     3542     3553     3566     3584     3600     3609 
    3618     3623     3622     3620     3619     3628     3642     3645 
    3661     3689     3701     3699     3685     3662     3635     3604 
    3569     3547     3547     3545     3532     3528     3535     3526 
    3512     3503     3470     3434     3419     3410     3406     3396 
    3383     3376     3376     3373     3354     3335     3326     3308 
    3291     3288     3295     3276     3234     3208     3200     3202 
    3210     3211     3210     3211     3217     3219     3215     3227 
    3252     3271     3298     3335     3357     3361     3370     3375 
    3368     3360     3350     3348     3366     3396     3414     3431 
    3451     3447     3424     3399     3375     3356     3353     3365 
    3370     3383     3406     3408     3411     3423     3406     3373 
    3362     3358     3343     3345     3358     3365     3366     3360 
    3362     3381     3402     3416     3431     3431     3426     3437 
    3453     3476     3500     3503     3497     3501     3497     3478 
    3474     3483     3488     3491     3478     3454     3434     3412 
    3385     3372     3372     3356     3346     3370     3387     3379 
    3373     3370     3360     3345     3333     3337     3354     3352 
    3349     3377     3389     3366     3364     3387     3393     3391 
    3404     3414     3427     3443     3443     3438     3431     3412 
    3389     3389     3396     3387     3383     3393     3393     3377 
    3361     3356     3358     3365     3377     3389     3404     3424 
    3442     3453     3454     3454     3456     3460     3469     3478 
    3477     3476     3472     3457     3451     3462     3470     3487 
    3496     3507     3547     3578     3578     3591     3611     3612 
    3608     3599     3595     3622     3640     3622     3604     3600 
    3593     3584     3572     3547     3504     3464     3450     3453 
    3445     3412     3384     3379     3373     3362     3361     3365 
    3364     3357     3343     3333     3335     3339     3343     3343 
    3331     3323     3329     3345     3352     3337     3330     3329 
    3329     3341     3358     3366     3366     3364     3361     3368 
    3388     3414     3424     3414     3407     3397     3364     3337 
    3329     3316     3296     3273     3256     3238     3221     3200 
    3186     3176     3161     3157     3165     3157     3145     3150 
    3161     3167     3183     3207     3221     3229     3235     3241 
    3240     3238     3254     3289     3330     3368     3397     3415 
    3427     3443     3458     3457     3451     3469     3499     3519 
    3534     3546     3553     3554     3549     3545     3538     3528 
    3532     3547     3559     3564     3555     3559     3574     3578 
    3574     3573     3568     3551     3534     3542     3578     3616 
    3643     3672     3689     3685     3676     3665     3650     3647 
    3653     3651     3658     3667     3676     3677     3658     3639 
    3627     3608     3595     3600     3609     3599     3573     3557 
    3542     3528     3531     3537     3534     3531     3528     3530 
    3543     3557     3568     3576     3581     3582     3578     3582 
    3603     3618     3623     3636     3662     3690     3720     3748 
    3773     3792     3802     3809     3813     3815     3820     3827 
    3834     3840     3834     3809     3789     3781     3751     3704 
    3680     3669     3647     3640     3649     3649     3635     3605 
    3577     3555     3530     3519     3516     3499     3473     3446 
    3427     3415     3396     3372     3362     3361     3356     3349 
    3338     3331     3316     3283     3252     3241     3244     3244 
    3241     3257     3273     3258     3237     3238     3231     3207 
    3198     3213     3230     3241     3250     3261     3258     3241 
    3244     3273     3298     3298     3300     3304     3283     3265 
    3273     3277     3280     3300     3308     3296     3295     3299 
    3285     3272     3277     3288     3304     3327     3348     3360 
    3357     3354     3368     3375     3362     3345     3354     3389 
    3415     3424     3434     3441     3430     3407     3388     3368 
    3354     3360     3366     3364     3356     3345     3330     3306 
    3291     3287     3287     3288     3296     3302     3292     3277 
    3268     3261     3250     3248     3268     3292     3292     3275 
    3257     3249     3235     3221     3227     3233     3233     3249 
    3281     3303     3314     3326     3337     3357     3395     3435 
    3460     3473     3499     3532     3541     3542     3557     3558 
    3554     3574     3595     3593     3593     3612     3630     3642 
    3657     3667     3680     3690     3694     3711     3731     3735 
    3735     3731     3719     3709     3717     3732     3740     3751 
    3753     3730     3705     3699     3708     3713     3704     3678 
    3639     3608     3591     3572     3550     3522     3496     3473 
    3449     3419     3380     3346     3318     3287     3256     3237 
    3230     3222     3219     3221     3213     3187     3160     3156 
    3164     3172     3172     3165     3161     3145     3126     3136 
    3154     3159     3157     3150     3136     3121     3114     3119 
    3136     3145     3148     3163     3175     3176     3171     3168 
    3172     3168     3154     3141     3130     3129     3125     3118 
    3127     3150     3175     3196     3221     3248     3260     3248 
    3237     3242     3241     3242     3272     3318     3352     3360 
    3361     3362     3356     3354     3369     3391     3412     3451 
    3492     3507     3520     3535     3530     3523     3528     3523 
    3503     3496     3508     3507     3497     3496     3495     3485 
    3469     3462     3470     3483     3480     3466     3456     3445 
    3420     3404     3411     3429     3447     3458     3462     3481 
    3495     3485     3485     3500     3516     3523     3515     3514 
    3518     3511     3511     3528     3545     3562     3585     3591 
    3581     3568     3553     3550     3553     3566     3591     3599 
    3589     3585     3569     3537     3524     3527     3524     3524 
    3532     3535     3523     3495     3469     3445     3427     3419 
    3414     3408     3408     3416     3424     3434     3445     3450 
    3454     3449     3438     3446     3456     3454     3462     3469 
    3456     3443     3441     3437     3439     3443     3435     3429 
    3430     3424     3408     3395     3388     3377     3362     3345 
    3318     3296     3288     3272     3253     3254     3257     3242 
    3238     3246     3252     3252     3241     3235     3237     3231 
    3229     3242     3261     3273     3292     3319     3345     3353 
    3357     3379     3408     3430     3442     3456     3481     3501 
    3505     3510     3526     3542     3535     3528     3547     3564 
    3566     3570     3572     3565     3561     3557     3541     3523 
    3518     3515     3512     3500     3492     3491     3491     3485 
    3466     3445     3435     3434     3433     3437     3445     3453 
    3453     3446     3439     3437     3431     3431     3434     3429 
    3431     3451     3472     3477     3483     3491     3489     3489 
    3488     3484     3485     3492     3497     3508     3522     3522 
    3524     3534     3547     3553     3542     3541     3550     3551 
    3553     3566     3585     3584     3569     3561     3554     3546 
    3543     3546     3553     3557     3553     3539     3538     3543 
    3531     3514     3508     3500     3476     3460     3464     3460 
    3439     3424     3426     3433     3433     3430     3424     3412 
    3397     3391     3397     3414     3431     3442     3451     3473 
    3481     3474     3474     3477     3483     3503     3528     3553 
    3574     3578     3572     3568     3564     3561     3561     3566 
    3572     3562     3546     3538     3541     3542     3535     3541 
    3561     3564     3549     3545     3551     3549     3542     3545 
    3546     3535     3526     3526     3519     3499     3477     3462 
    3465     3474     3477     3485     3484     3477     3466     3446 
    3437     3435     3430     3424     3422     3423     3422     3418 
    3410     3392     3370     3346     3329     3329     3341     3356 
    3369     3379     3387     3380     3362     3353     3346     3337 
    3338     3352     3368     3381     3387     3383     3368     3362 
    3369     3368     3361     3364     3370     3376     3380     3385 
    3380     3372     3370     3373     3384     3391     3392     3403 
    3412     3416     3416     3415     3412     3407     3399     3393 
    3393     3389     3377     3364     3360     3353     3334     3326 
    3338     3342     3333     3338     3349     3339     3331     3337 
    3345     3353     3365     3379     3391     3403     3403     3391 
    3391     3399     3397     3396     3407     3420     3423     3422 
    3426     3435     3435     3433     3445     3466     3473     3468 
    3477     3493     3501     3501     3499     3501     3508     3511 
