Origin Time       2025/01/13 21:19:00
Lat.              31.8
Long.             131.6
Depth. (km)       30
Mag.              6.9
Station Code      HYGH01
Station Lat.      34.2937
Station Long.     134.7941
Station Height(m) 65
Record Time       2025/01/13 21:20:54
Sampling Freq(Hz) 100Hz
Duration Time(s)  154
Dir.              4
Scale Factor      7845(gal)/8223790
Max. Acc. (gal)   1.370
Last Correction   2025/01/13 21:20:55
Memo.             
[...]
    -699     -702     -715     -716     -710     -718     -724     -707 
    -699     -715     -716     -700     -706     -712     -702     -707 
    -731     -756     -780     -803     -830     -843     -845     -862 
    -878     -884     -904     -935     -951     -963     -993    -1009 
   -1013    -1038    -1044    -1044    -1075    -1088    -1094    -1112 
   -1107    -1104    -1104    -1088    -1062    -1042    -1024     -996 
    -981     -986     -978     -965     -963     -970     -978     -985 
   -1003    -1017    -1012    -1007    -1015    -1011    -1012    -1036 
   -1046    -1048    -1061    -1062    -1054    -1048    -1038    -1017 
   -1011    -1012     -993     -988    -1000     -988     -969     -965 
    -963     -954     -945     -946     -939     -931     -931     -928 
    -928     -922     -930     -962     -970     -984    -1017    -1024 
   -1021    -1024    -1019    -1012    -1000     -993    -1004    -1015 
   -1012    -1013    -1020    -1015    -1020    -1040    -1038    -1028 
   -1042    -1046    -1032    -1042    -1063    -1067    -1065    -1066 
   -1074    -1085    -1086    -1093    -1108    -1115    -1120    -1132 
   -1135    -1136    -1165    -1178    -1177    -1193    -1183    -1169 
   -1169    -1155    -1151    -1151    -1138    -1131    -1131    -1127 
   -1111    -1100    -1094    -1077    -1069    -1054    -1019    -1007 
   -1001     -980     -958     -945     -940     -940     -936     -934 
    -935     -934     -932     -934     -931     -938     -950     -946 
    -945     -954     -963     -966     -986    -1009    -1019    -1039 
   -1067    -1080    -1088    -1101    -1108    -1097    -1100    -1115 
   -1107    -1102    -1107    -1107    -1112    -1101    -1090    -1093 
   -1084    -1080    -1078    -1070    -1065    -1048    -1020    -1011 
   -1005     -978     -950     -928     -891     -858     -832     -789 
    -756     -737     -697     -656     -642     -611     -558     -535 
    -515     -475     -453     -438     -406     -371     -346     -338 
    -333     -321     -314     -319     -313     -307     -325     -336 
    -345     -367     -376     -399     -440     -464     -490     -526 
    -562     -594     -635     -681     -711     -750     -788     -796 
    -812     -838     -846     -842     -838     -842     -842     -837 
    -837     -849     -861     -857     -861     -876     -886     -900 
    -919     -940     -963     -985    -1013    -1051    -1085    -1115 
   -1159    -1193    -1205    -1232    -1264    -1271    -1273    -1289 
   -1304    -1296    -1290    -1290    -1274    -1256    -1240    -1231 
   -1215    -1189    -1189    -1193    -1179    -1181    -1190    -1190 
   -1186    -1182    -1171    -1156    -1155    -1151    -1140    -1135 
   -1128    -1119    -1098    -1075    -1069    -1062    -1043    -1038 
   -1053    -1047    -1026    -1039    -1054    -1051    -1069    -1089 
   -1094    -1097    -1104    -1111    -1108    -1097    -1097    -1100 
   -1078    -1054    -1050    -1028     -999     -982     -967     -947 
    -919     -896     -882     -872     -861     -846     -841     -837 
    -823     -824     -827     -820     -826     -835     -832     -827 
    -834     -838     -830     -827     -824     -826     -822     -804 
    -796     -788     -773     -768     -760     -750     -747     -742 
    -735     -727     -714     -702     -692     -675     -656     -654 
    -660     -646     -634     -639     -634     -615     -614     -615 
    -611     -618     -622     -633     -656     -668     -685     -714 
    -739     -769     -797     -812     -831     -865     -888     -905 
    -931     -950     -966     -985    -1001    -1021    -1043    -1065 
   -1086    -1107    -1119    -1129    -1144    -1136    -1123    -1146 
   -1161    -1156    -1178    -1200    -1200    -1200    -1215    -1240 
   -1258    -1277    -1313    -1351    -1366    -1385    -1409    -1404 
   -1389    -1386    -1378    -1354    -1336    -1321    -1289    -1254 
   -1232    -1209    -1190    -1163    -1132    -1119    -1102    -1080 
   -1066    -1059    -1047    -1036    -1034    -1030    -1027    -1024 
   -1012    -1009    -1004     -997     -994     -980     -967     -954 
    -927     -908     -891     -862     -831     -810     -788     -747 
    -718     -699     -666     -642     -626     -587     -553     -540 
    -510     -469     -460     -448     -419     -402     -390     -379 
    -368     -355     -349     -348     -341     -333     -336     -336 
    -336     -342     -338     -346     -368     -382     -409     -436 
    -457     -486     -515     -552     -592     -641     -687     -733 
    -801     -855     -900     -967    -1012    -1042    -1086    -1116 
   -1129    -1150    -1178    -1197    -1212    -1240    -1270    -1297 
   -1323    -1348    -1363    -1363    -1375    -1394    -1399    -1406 
   -1425    -1437    -1435    -1433    -1428    -1417    -1412    -1394 
   -1370    -1360    -1348    -1321    -1298    -1286    -1269    -1243 
   -1221    -1192    -1161    -1124    -1082    -1050    -1019     -990 
    -965     -936     -913     -891     -877     -874     -861     -842 
    -831     -826     -822     -811     -816     -828     -820     -819 
    -824     -819     -827     -842     -835     -835     -850     -846 
    -835     -846     -858     -854     -853     -853     -843     -837 
    -830     -826     -819     -801     -800     -801     -787     -791 
    -805     -807     -807     -815     -827     -822     -819     -831 
    -835     -849     -857     -872     -907     -912     -928     -980 
    -997    -1007    -1047    -1081    -1094    -1113    -1150    -1174 
   -1183    -1208    -1233    -1244    -1247    -1256    -1270    -1277 
   -1289    -1306    -1310    -1309    -1314    -1313    -1308    -1313 
   -1318    -1323    -1328    -1323    -1314    -1317    -1317    -1300 
   -1293    -1298    -1277    -1252    -1237    -1205    -1173    -1143 
   -1116    -1090    -1057    -1026     -994     -966     -935     -886 
    -855     -827     -777     -735     -702     -662     -618     -580 
    -565     -544     -508     -495     -487     -457     -433     -417 
    -388     -371     -382     -379     -367     -382     -388     -376 
    -378     -388     -395     -402     -403     -409     -419     -417 
    -419     -430     -433     -438     -450     -469     -486     -504 
    -530     -542     -556     -573     -589     -615     -623     -641 
    -677     -685     -700     -731     -741     -753     -785     -808 
    -823     -855     -899     -924     -963    -1021    -1066    -1107 
   -1158    -1212    -1262    -1306    -1354    -1399    -1435    -1462 
   -1491    -1514    -1525    -1536    -1549    -1557    -1567    -1582 
   -1583    -1580    -1583    -1572    -1574    -1582    -1561    -1561 
   -1575    -1563    -1553    -1544    -1533    -1522    -1503    -1489 
   -1472    -1452    -1424    -1391    -1378    -1355    -1313    -1290 
   -1266    -1233    -1202    -1167    -1139    -1108    -1073    -1054 
   -1040    -1016     -999     -992     -973     -959     -962     -950 
    -939     -950     -946     -927     -932     -940     -930     -923 
    -924     -924     -923     -913     -904     -893     -880     -864 
    -850     -842     -830     -815     -783     -743     -731     -704 
    -661     -639     -608     -573     -541     -495     -473     -465 
    -433     -395     -384     -373     -341     -334     -345     -333 
    -336     -357     -364     -372     -388     -406     -421     -438 
    -471     -496     -510     -531     -554     -569     -592     -622 
    -650     -665     -676     -699     -707     -722     -757     -769 
    -787     -812     -820     -837     -843     -842     -843     -835 
    -839     -834     -819     -814     -805     -805     -801     -791 
    -801     -815     -814     -819     -834     -854     -873     -896 
    -936     -980    -1012    -1054    -1108    -1146    -1183    -1225 
   -1247    -1271    -1297    -1300    -1310    -1331    -1324    -1316 
   -1321    -1310    -1290    -1279    -1274    -1260    -1247    -1252 
   -1251    -1239    -1239    -1232    -1227    -1223    -1210    -1224 
   -1227    -1215    -1231    -1224    -1212    -1221    -1217    -1220 
   -1217    -1206    -1215    -1208    -1186    -1179    -1183    -1181 
   -1165    -1167    -1183    -1175    -1175    -1201    -1206    -1210 
   -1240    -1252    -1252    -1270    -1282    -1283    -1286    -1287 
   -1286    -1275    -1256    -1247    -1237    -1220    -1208    -1192 
   -1166    -1151    -1127    -1089    -1074    -1057    -1024     -999 
    -984     -970     -946     -934     -934     -920     -915     -907 
    -896     -908     -896     -882     -896     -889     -870     -868 
    -858     -845     -841     -839     -837     -828     -819     -818 
    -819     -819     -834     -851     -855     -870     -886     -895 
    -911     -935     -949     -961     -982    -1001    -1013    -1026 
   -1039    -1053    -1077    -1113    -1132    -1154    -1186    -1198 
   -1217    -1233    -1228    -1229    -1217    -1194    -1186    -1165 
   -1144    -1120    -1081    -1050    -1007     -953     -903     -841 
    -772     -707     -643     -576     -515     -473     -427     -375 
    -341     -321     -295     -276     -283     -276     -259     -275 
    -290     -290     -314     -338     -345     -360     -376     -387 
    -402     -414     -432     -454     -467     -488     -511     -522 
    -548     -577     -606     -639     -680     -716     -739     -780 
    -827     -868     -924     -978    -1038    -1107    -1150    -1198 
   -1271    -1331    -1377    -1426    -1482    -1524    -1563    -1606 
   -1637    -1668    -1703    -1728    -1748    -1768    -1787    -1802 
   -1818    -1837    -1850    -1856    -1861    -1861    -1842    -1833 
   -1840    -1823    -1799    -1799    -1796    -1767    -1746    -1736 
   -1698    -1657    -1618    -1564    -1517    -1463    -1399    -1345 
   -1275    -1212    -1162    -1097    -1021     -947     -881     -807 
    -722     -664     -616     -550     -495     -456     -417     -369 
    -333     -315     -290     -260     -253     -257     -245     -248 
    -276     -286     -297     -336     -368     -390     -426     -461 
    -491     -527     -562     -604     -653     -693     -741     -793 
    -834     -881     -930     -973    -1011    -1047    -1094    -1134 
   -1163    -1193    -1215    -1239    -1248    -1242    -1239    -1229 
   -1212    -1192    -1163    -1142    -1120    -1084    -1044    -1030 
   -1013     -973     -950     -934     -893     -861     -839     -810 
    -785     -764     -735     -711     -696     -677     -658     -642 
    -623     -603     -584     -567     -542     -511     -491     -484 
    -472     -459     -463     -473     -471     -484     -508     -522 
    -537     -552     -572     -602     -625     -656     -688     -716 
    -739     -764     -800     -824     -845     -893     -927     -940 
    -969    -1009    -1038    -1065    -1112    -1169    -1216    -1254 
   -1296    -1341    -1371    -1410    -1463    -1483    -1505    -1547 
   -1556    -1551    -1566    -1567    -1545    -1536    -1533    -1518 
   -1495    -1472    -1449    -1422    -1390    -1350    -1306    -1275 
   -1233    -1192    -1170    -1135    -1098    -1075    -1044    -1020 
    -996     -972     -958     -939     -918     -908     -909     -907 
    -907     -909     -911     -923     -928     -923     -945     -961 
    -951     -957     -973     -977     -989    -1008    -1026    -1047 
   -1073    -1092    -1111    -1135    -1155    -1165    -1166    -1173 
   -1181    -1178    -1174    -1179    -1181    -1171    -1171    -1171 
   -1154    -1138    -1128    -1109    -1081    -1051    -1023     -986 
    -953     -924     -892     -872     -842     -801     -788     -766 
    -733     -724     -723     -712     -716     -724     -726     -742 
    -768     -783     -796     -810     -823     -837     -843     -854 
    -864     -861     -870     -877     -862     -853     -854     -847 
    -831     -831     -835     -824     -820     -826     -828     -831 
    -838     -839     -847     -866     -868     -869     -878     -876 
    -878     -878     -866     -869     -868     -853     -839     -827 
    -815     -800     -777     -764     -765     -749     -724     -731 
    -733     -723     -734     -745     -745     -745     -753     -764 
    -772     -785     -797     -807     -823     -818     -805     -818 
    -820     -800     -797     -812     -799     -776     -772     -769 
    -762     -750     -747     -751     -738     -730     -734     -724 
    -715     -726     -729     -716     -723     -739     -741     -749 
    -765     -784     -801     -803     -805     -834     -843     -830 
    -843     -861     -850     -855     -877     -885     -889     -901 
    -918     -928     -935     -953     -966     -973     -984     -990 
    -990     -984     -981     -974     -954     -949     -936     -908 
    -892     -881     -861     -851     -853     -843     -843     -857 
    -854     -866     -891     -895     -909     -939     -961     -994 
   -1035    -1066    -1101    -1139    -1174    -1209    -1247    -1293 
   -1344    -1383    -1424    -1479    -1530    -1583    -1632    -1679 
   -1737    -1787    -1838    -1888    -1935    -1991    -2027    -2058 
   -2115    -2158    -2189    -2235    -2272    -2285    -2311    -2342 
   -2353    -2367    -2389    -2393    -2388    -2380    -2366    -2350 
   -2322    -2288    -2253    -2204    -2142    -2084    -2015    -1929 
   -1845    -1753    -1642    -1536    -1433    -1329    -1227    -1123 
   -1020     -932     -846     -750     -680     -622     -546     -488 
    -453     -415     -384     -361     -341     -319     -306     -306 
    -299     -298     -318     -340     -348     -353     -379     -391 
    -382     -394     -413     -413     -425     -446     -459     -472 
    -496     -518     -540     -561     -568     -580     -592     -587 
    -589     -603     -599     -587     -585     -587     -581     -568 
    -558     -552     -534     -518     -506     -488     -479     -468 
    -448     -436     -421     -409     -387     -355     -338     -315 
    -290     -279     -263     -255     -260     -252     -251     -270 
    -280     -282     -306     -333     -341     -364     -396     -414 
    -434     -461     -487     -507     -518     -541     -567     -573 
    -573     -587     -598     -598     -600     -607     -612     -622 
    -630     -642     -662     -676     -684     -708     -719     -720 
    -750     -770     -768     -785     -808     -811     -815     -837 
    -861     -873     -900     -932     -961    -1004    -1043    -1090 
   -1144    -1189    -1251    -1306    -1347    -1406    -1462    -1497 
   -1540    -1584    -1615    -1647    -1679    -1701    -1719    -1737 
   -1741    -1742    -1746    -1745    -1738    -1733    -1722    -1711 
   -1703    -1690    -1669    -1652    -1638    -1613    -1587    -1575 
   -1545    -1506    -1479    -1433    -1386    -1345    -1293    -1248 
   -1196    -1142    -1109    -1065    -1019     -992     -957     -926 
    -909     -889     -870     -872     -869     -850     -861     -878 
    -866     -873     -891     -895     -899     -915     -930     -936 
    -949     -974     -986     -993    -1017    -1044    -1062    -1078 
   -1107    -1135    -1142    -1154    -1181    -1196    -1206    -1229 
   -1252    -1278    -1290    -1294    -1318    -1331    -1324    -1336 
   -1347    -1341    -1344    -1356    -1350    -1335    -1337    -1327 
   -1308    -1293    -1267    -1243    -1215    -1182    -1156    -1121 
   -1090    -1070    -1036     -999     -976     -957     -926     -892 
    -869     -839     -808     -784     -750     -719     -693     -666 
    -637     -608     -589     -569     -537     -518     -504     -479 
    -467     -457     -446     -448     -446     -449     -456     -450 
    -464     -477     -477     -495     -511     -519     -526     -527 
    -540     -550     -549     -560     -572     -568     -567     -577 
    -575     -567     -592     -602     -579     -588     -612     -610 
    -603     -622     -646     -648     -653     -675     -692     -703 
    -711     -726     -743     -745     -754     -773     -770     -773 
    -789     -785     -785     -791     -784     -787     -785     -780 
    -796     -804     -800     -810     -823     -822     -819     -835 
    -838     -834     -850     -855     -858     -877     -900     -924 
    -946     -977    -1008    -1019    -1044    -1074    -1090    -1116 
   -1148    -1175    -1192    -1219    -1256    -1273    -1291    -1318 
   -1337    -1358    -1381    -1390    -1401    -1414    -1421    -1426 
   -1433    -1448    -1456    -1458    -1470    -1467    -1466    -1472 
   -1458    -1453    -1456    -1441    -1425    -1398    -1383    -1374 
   -1336    -1314    -1304    -1267    -1231    -1193    -1155    -1120 
   -1074    -1023     -977     -936     -882     -823     -792     -750 
    -693     -658     -623     -577     -545     -530     -519     -506 
    -507     -529     -541     -560     -600     -642     -676     -723 
    -792     -846     -889     -959    -1020    -1051    -1093    -1138 
   -1174    -1202    -1220    -1251    -1278    -1275    -1274    -1278 
   -1274    -1258    -1233    -1217    -1185    -1146    -1115    -1070 
   -1027     -994     -957     -909     -861     -834     -792     -730 
    -702     -681     -635     -599     -583     -564     -542     -538 
    -546     -558     -576     -589     -618     -657     -679     -712 
    -760     -792     -831     -880     -922     -972    -1012    -1051 
   -1109    -1150    -1185    -1244    -1290    -1327    -1372    -1421 
   -1464    -1502    -1548    -1587    -1621    -1659    -1691    -1728 
   -1761    -1784    -1811    -1825    -1831    -1837    -1833    -1830 
   -1817    -1794    -1783    -1760    -1718    -1684    -1656    -1609 
   -1551    -1512    -1459    -1383    -1331    -1273    -1200    -1139 
   -1089    -1043     -990     -936     -907     -872     -824     -797 
    -769     -746     -742     -731     -724     -731     -730     -741 
    -758     -772     -788     -803     -814     -819     -832     -851 
    -862     -881     -892     -895     -904     -900     -899     -897 
    -884     -881     -859     -831     -830     -824     -800     -784 
    -787     -787     -774     -774     -776     -769     -772     -773 
    -777     -784     -781     -783     -784     -774     -772     -773 
    -773     -769     -760     -764     -768     -757     -754     -758 
    -758     -754     -753     -761     -757     -741     -745     -751 
    -749     -751     -761     -769     -760     -756     -764     -761 
    -758     -760     -774     -797     -795     -801     -834     -847 
    -847     -869     -903     -909     -911     -936     -951     -957 
    -982    -1008    -1021    -1028    -1039    -1051    -1043    -1047 
   -1069    -1061    -1057    -1071    -1070    -1066    -1066    -1065 
   -1074    -1073    -1071    -1088    -1090    -1098    -1115    -1121 
   -1127    -1135    -1144    -1152    -1158    -1162    -1165    -1174 
   -1174    -1162    -1169    -1170    -1161    -1156    -1140    -1123 
