Origin Time       2025/01/13 21:19:00
Lat.              31.8
Long.             131.6
Depth. (km)       30
Mag.              6.9
Station Code      ISKH09
Station Lat.      36.2667
Station Long.     136.7168
Station Height(m) 454.5
Record Time       2025/01/13 21:22:58
Sampling Freq(Hz) 100Hz
Duration Time(s)  120
Dir.              1
Scale Factor      2942(gal)/8224139
Max. Acc. (gal)   0.152
Last Correction   2025/01/13 21:22:59
Memo.             
[...]
  -37470   -37477   -37481   -37485   -37490   -37496   -37500   -37505 
  -37511   -37516   -37521   -37527   -37532   -37538   -37543   -37548 
  -37552   -37557   -37563   -37569   -37573   -37578   -37584   -37588 
  -37592   -37597   -37600   -37604   -37609   -37613   -37616   -37619 
  -37623   -37624   -37623   -37627   -37631   -37633   -37633   -37633 
  -37633   -37635   -37633   -37635   -37636   -37636   -37636   -37638 
  -37638   -37639   -37640   -37642   -37642   -37642   -37643   -37644 
  -37642   -37640   -37642   -37642   -37643   -37643   -37642   -37642 
  -37643   -37640   -37642   -37642   -37642   -37642   -37640   -37640 
  -37642   -37643   -37644   -37646   -37646   -37646   -37644   -37647 
  -37650   -37650   -37651   -37652   -37651   -37651   -37652   -37654 
  -37652   -37651   -37654   -37651   -37648   -37648   -37647   -37644 
  -37643   -37640   -37640   -37638   -37631   -37631   -37629   -37623 
  -37617   -37615   -37613   -37609   -37605   -37602   -37597   -37593 
  -37592   -37585   -37577   -37573   -37571   -37569   -37563   -37559 
  -37554   -37550   -37548   -37546   -37538   -37534   -37534   -37531 
  -37525   -37523   -37519   -37516   -37515   -37512   -37505   -37503 
  -37503   -37500   -37496   -37493   -37493   -37490   -37486   -37485 
  -37485   -37482   -37478   -37474   -37473   -37473   -37469   -37469 
  -37466   -37462   -37461   -37462   -37459   -37458   -37459   -37459 
  -37459   -37459   -37461   -37461   -37462   -37463   -37465   -37466 
  -37467   -37467   -37469   -37470   -37471   -37473   -37477   -37481 
  -37484   -37486   -37488   -37488   -37490   -37493   -37496   -37500 
  -37504   -37505   -37507   -37509   -37509   -37511   -37516   -37520 
  -37523   -37527   -37532   -37535   -37539   -37543   -37543   -37547 
  -37552   -37552   -37554   -37558   -37561   -37563   -37566   -37569 
  -37570   -37573   -37575   -37578   -37581   -37582   -37582   -37584 
  -37586   -37590   -37589   -37586   -37590   -37594   -37596   -37596 
  -37596   -37596   -37597   -37598   -37598   -37600   -37601   -37602 
  -37604   -37605   -37606   -37606   -37608   -37612   -37613   -37616 
  -37617   -37616   -37619   -37624   -37627   -37627   -37627   -37629 
  -37635   -37638   -37639   -37640   -37643   -37646   -37647   -37648 
  -37652   -37658   -37658   -37658   -37659   -37662   -37660   -37662 
  -37663   -37663   -37663   -37663   -37663   -37663   -37663   -37662 
  -37660   -37659   -37660   -37660   -37658   -37656   -37656   -37654 
  -37651   -37650   -37647   -37647   -37644   -37642   -37640   -37640 
  -37639   -37639   -37636   -37632   -37636   -37635   -37631   -37633 
  -37633   -37632   -37632   -37631   -37631   -37632   -37632   -37633 
  -37635   -37633   -37632   -37635   -37638   -37638   -37638   -37640 
  -37642   -37642   -37640   -37642   -37644   -37644   -37644   -37644 
  -37644   -37646   -37643   -37642   -37642   -37642   -37640   -37640 
  -37639   -37635   -37633   -37635   -37632   -37628   -37628   -37627 
  -37624   -37621   -37620   -37617   -37615   -37613   -37612   -37609 
  -37608   -37605   -37600   -37598   -37597   -37594   -37593   -37592 
  -37588   -37585   -37582   -37577   -37571   -37569   -37567   -37566 
  -37561   -37557   -37555   -37552   -37548   -37548   -37548   -37544 
  -37540   -37540   -37539   -37539   -37539   -37538   -37538   -37536 
  -37535   -37536   -37536   -37532   -37531   -37534   -37534   -37530 
  -37530   -37530   -37528   -37527   -37528   -37528   -37525   -37523 
  -37520   -37520   -37519   -37517   -37513   -37508   -37507   -37505 
  -37501   -37500   -37497   -37490   -37489   -37489   -37485   -37481 
  -37477   -37474   -37474   -37471   -37469   -37466   -37462   -37462 
  -37461   -37458   -37455   -37453   -37453   -37453   -37451   -37451 
  -37451   -37449   -37444   -37443   -37444   -37442   -37436   -37438 
  -37439   -37435   -37432   -37430   -37427   -37426   -37424   -37422 
  -37419   -37415   -37412   -37409   -37405   -37401   -37399   -37395 
  -37390   -37388   -37384   -37380   -37377   -37372   -37368   -37366 
  -37362   -37357   -37357   -37354   -37349   -37346   -37345   -37342 
  -37339   -37335   -37331   -37328   -37328   -37326   -37326   -37326 
  -37324   -37323   -37322   -37322   -37323   -37324   -37324   -37324 
  -37326   -37327   -37327   -37330   -37331   -37332   -37335   -37338 
  -37339   -37342   -37346   -37350   -37353   -37355   -37361   -37365 
  -37366   -37372   -37378   -37382   -37386   -37393   -37403   -37407 
  -37411   -37420   -37427   -37435   -37446   -37453   -37459   -37469 
  -37480   -37489   -37500   -37511   -37520   -37530   -37539   -37548 
  -37558   -37569   -37577   -37586   -37596   -37604   -37611   -37617 
  -37623   -37629   -37639   -37647   -37651   -37655   -37660   -37663 
  -37666   -37671   -37677   -37678   -37679   -37685   -37687   -37686 
  -37686   -37689   -37687   -37687   -37689   -37689   -37686   -37685 
  -37683   -37681   -37679   -37675   -37674   -37675   -37671   -37665 
  -37663   -37662   -37659   -37654   -37648   -37644   -37640   -37635 
  -37629   -37624   -37619   -37613   -37608   -37602   -37597   -37592 
  -37588   -37578   -37569   -37562   -37558   -37551   -37543   -37534 
  -37527   -37521   -37513   -37504   -37496   -37489   -37480   -37473 
  -37467   -37461   -37453   -37446   -37439   -37431   -37426   -37422 
  -37417   -37409   -37403   -37399   -37399   -37395   -37388   -37386 
  -37385   -37382   -37381   -37380   -37376   -37374   -37373   -37372 
  -37373   -37373   -37370   -37370   -37374   -37374   -37376   -37380 
  -37384   -37386   -37390   -37393   -37397   -37403   -37408   -37413 
  -37417   -37426   -37434   -37440   -37444   -37453   -37462   -37469 
  -37477   -37486   -37494   -37498   -37507   -37516   -37523   -37531 
  -37539   -37546   -37552   -37559   -37566   -37574   -37579   -37584 
  -37590   -37597   -37600   -37604   -37612   -37616   -37619   -37623 
  -37627   -37631   -37633   -37638   -37642   -37642   -37643   -37647 
  -37650   -37651   -37652   -37654   -37658   -37660   -37660   -37659 
  -37660   -37663   -37665   -37666   -37666   -37666   -37667   -37669 
  -37669   -37670   -37670   -37671   -37674   -37674   -37673   -37674 
  -37677   -37675   -37673   -37674   -37673   -37669   -37669   -37669 
  -37666   -37662   -37658   -37655   -37654   -37651   -37648   -37644 
  -37640   -37638   -37633   -37627   -37623   -37619   -37612   -37608 
  -37604   -37598   -37592   -37586   -37581   -37573   -37565   -37559 
  -37554   -37547   -37539   -37531   -37524   -37515   -37508   -37503 
  -37493   -37484   -37480   -37474   -37466   -37457   -37449   -37442 
  -37434   -37426   -37420   -37415   -37407   -37401   -37396   -37390 
  -37388   -37384   -37376   -37370   -37369   -37369   -37366   -37362 
  -37361   -37361   -37358   -37358   -37361   -37361   -37361   -37363 
  -37368   -37369   -37373   -37377   -37381   -37385   -37390   -37396 
  -37401   -37405   -37411   -37416   -37426   -37434   -37438   -37444 
  -37454   -37459   -37467   -37476   -37482   -37486   -37492   -37498 
  -37505   -37512   -37516   -37520   -37530   -37536   -37539   -37543 
  -37548   -37552   -37558   -37562   -37566   -37567   -37570   -37575 
  -37579   -37581   -37582   -37585   -37585   -37588   -37590   -37590 
  -37590   -37593   -37592   -37590   -37590   -37592   -37592   -37588 
  -37588   -37590   -37586   -37584   -37581   -37578   -37578   -37578 
  -37575   -37573   -37570   -37567   -37567   -37570   -37569   -37567 
  -37566   -37567   -37567   -37570   -37573   -37574   -37577   -37581 
  -37585   -37592   -37597   -37600   -37606   -37615   -37620   -37625 
  -37635   -37646   -37652   -37660   -37670   -37677   -37686   -37697 
  -37708   -37717   -37727   -37736   -37747   -37756   -37764   -37773 
  -37782   -37793   -37800   -37808   -37816   -37822   -37829   -37835 
  -37840   -37847   -37852   -37856   -37860   -37863   -37864   -37867 
  -37871   -37871   -37868   -37870   -37867   -37863   -37860   -37856 
  -37852   -37849   -37844   -37835   -37828   -37821   -37813   -37805 
  -37798   -37789   -37777   -37767   -37759   -37748   -37737   -37727 
  -37713   -37702   -37692   -37679   -37669   -37658   -37646   -37633 
  -37623   -37612   -37604   -37593   -37579   -37570   -37561   -37548 
  -37536   -37525   -37515   -37504   -37490   -37480   -37469   -37457 
  -37444   -37435   -37424   -37412   -37400   -37388   -37380   -37370 
  -37357   -37343   -37334   -37327   -37318   -37305   -37297   -37289 
  -37278   -37272   -37265   -37258   -37251   -37245   -37239   -37235 
  -37231   -37226   -37219   -37218   -37215   -37212   -37210   -37208 
  -37208   -37208   -37207   -37206   -37208   -37212   -37211   -37214 
  -37220   -37224   -37228   -37235   -37241   -37246   -37254   -37264 
  -37270   -37278   -37287   -37296   -37304   -37311   -37323   -37335 
  -37345   -37357   -37369   -37378   -37388   -37399   -37411   -37424 
  -37435   -37446   -37458   -37470   -37480   -37493   -37505   -37512 
  -37523   -37532   -37540   -37546   -37555   -37565   -37570   -37574 
  -37578   -37584   -37588   -37590   -37592   -37596   -37598   -37597 
  -37597   -37597   -37596   -37594   -37594   -37592   -37589   -37585 
  -37582   -37579   -37574   -37570   -37567   -37561   -37557   -37557 
  -37551   -37547   -37544   -37539   -37534   -37531   -37528   -37525 
  -37521   -37519   -37519   -37521   -37521   -37519   -37520   -37521 
  -37523   -37525   -37528   -37530   -37531   -37534   -37539   -37547 
  -37554   -37558   -37566   -37575   -37581   -37586   -37593   -37601 
  -37611   -37617   -37624   -37632   -37640   -37648   -37656   -37666 
  -37674   -37682   -37689   -37696   -37701   -37705   -37712   -37720 
  -37725   -37731   -37736   -37740   -37746   -37751   -37754   -37758 
  -37760   -37762   -37763   -37766   -37767   -37768   -37768   -37767 
  -37767   -37767   -37763   -37760   -37758   -37752   -37747   -37743 
  -37736   -37728   -37721   -37712   -37702   -37693   -37685   -37671 
  -37659   -37648   -37638   -37624   -37609   -37594   -37581   -37563 
  -37550   -37536   -37519   -37503   -37488   -37473   -37458   -37443 
  -37427   -37412   -37397   -37382   -37370   -37357   -37345   -37331 
  -37316   -37304   -37295   -37284   -37273   -37265   -37258   -37249 
  -37238   -37233   -37228   -37222   -37216   -37214   -37208   -37200 
  -37199   -37201   -37200   -37197   -37196   -37195   -37195   -37195 
  -37195   -37197   -37201   -37204   -37206   -37210   -37214   -37218 
  -37220   -37224   -37233   -37239   -37247   -37254   -37260   -37266 
  -37276   -37285   -37295   -37303   -37309   -37320   -37331   -37342 
  -37353   -37363   -37374   -37389   -37403   -37412   -37426   -37439 
  -37453   -37466   -37477   -37489   -37505   -37521   -37536   -37550 
  -37561   -37573   -37588   -37602   -37615   -37628   -37642   -37654 
  -37666   -37679   -37689   -37701   -37712   -37721   -37732   -37741 
  -37750   -37760   -37767   -37773   -37781   -37786   -37790   -37800 
  -37805   -37806   -37810   -37816   -37817   -37817   -37817   -37818 
  -37820   -37820   -37817   -37813   -37810   -37809   -37806   -37800 
  -37795   -37791   -37785   -37777   -37768   -37760   -37754   -37747 
  -37740   -37731   -37719   -37710   -37702   -37692   -37681   -37673 
  -37665   -37654   -37643   -37633   -37623   -37612   -37602   -37593 
  -37585   -37575   -37565   -37555   -37547   -37538   -37530   -37521 
  -37513   -37504   -37497   -37489   -37482   -37478   -37471   -37465 
  -37461   -37455   -37450   -37444   -37440   -37438   -37436   -37431 
  -37427   -37424   -37424   -37423   -37423   -37422   -37422   -37423 
  -37427   -37431   -37432   -37435   -37442   -37446   -37449   -37455 
  -37462   -37466   -37470   -37478   -37484   -37488   -37494   -37503 
  -37509   -37519   -37524   -37532   -37539   -37546   -37552   -37561 
  -37566   -37571   -37578   -37586   -37592   -37597   -37602   -37608 
  -37611   -37616   -37625   -37628   -37628   -37633   -37638   -37636 
  -37639   -37643   -37643   -37643   -37644   -37646   -37648   -37648 
  -37646   -37644   -37642   -37638   -37636   -37635   -37629   -37625 
  -37620   -37615   -37611   -37604   -37597   -37589   -37579   -37571 
  -37563   -37557   -37548   -37539   -37528   -37517   -37511   -37504 
  -37492   -37482   -37476   -37467   -37457   -37447   -37440   -37432 
  -37423   -37415   -37407   -37401   -37399   -37392   -37386   -37380 
  -37374   -37372   -37368   -37366   -37366   -37362   -37359   -37359 
  -37361   -37361   -37361   -37362   -37363   -37368   -37370   -37373 
  -37378   -37384   -37389   -37396   -37403   -37408   -37415   -37423 
  -37428   -37434   -37442   -37449   -37454   -37461   -37469   -37476 
  -37481   -37482   -37488   -37493   -37494   -37494   -37498   -37501 
  -37500   -37501   -37503   -37498   -37494   -37493   -37489   -37485 
  -37481   -37474   -37466   -37461   -37454   -37444   -37436   -37427 
  -37417   -37409   -37397   -37385   -37378   -37369   -37357   -37346 
  -37335   -37323   -37314   -37303   -37292   -37282   -37273   -37260 
  -37249   -37241   -37233   -37220   -37211   -37206   -37196   -37184 
  -37176   -37168   -37161   -37154   -37145   -37138   -37133   -37126 
  -37120   -37115   -37108   -37106   -37104   -37102   -37100   -37098 
  -37093   -37096   -37098   -37098   -37099   -37103   -37104   -37107 
  -37112   -37119   -37123   -37130   -37138   -37145   -37153   -37164 
  -37172   -37183   -37195   -37206   -37218   -37228   -37241   -37257 
  -37270   -37281   -37293   -37311   -37327   -37342   -37359   -37376 
  -37392   -37409   -37427   -37444   -37462   -37477   -37496   -37516 
  -37535   -37552   -37569   -37585   -37604   -37623   -37638   -37654 
  -37669   -37683   -37700   -37719   -37732   -37743   -37755   -37770 
  -37783   -37794   -37805   -37814   -37824   -37833   -37844   -37852 
  -37858   -37863   -37871   -37878   -37885   -37889   -37891   -37894 
  -37897   -37899   -37903   -37903   -37903   -37903   -37902   -37901 
  -37899   -37897   -37894   -37891   -37887   -37882   -37875   -37868 
  -37860   -37852   -37845   -37837   -37829   -37818   -37808   -37794 
  -37783   -37773   -37759   -37746   -37735   -37720   -37702   -37689 
  -37673   -37658   -37643   -37627   -37609   -37593   -37578   -37562 
  -37544   -37531   -37516   -37497   -37484   -37471   -37458   -37443 
  -37428   -37416   -37405   -37395   -37382   -37372   -37362   -37354 
  -37346   -37338   -37332   -37326   -37319   -37314   -37309   -37304 
  -37301   -37300   -37297   -37296   -37295   -37296   -37297   -37299 
  -37299   -37300   -37304   -37309   -37312   -37315   -37320   -37326 
  -37328   -37335   -37341   -37345   -37351   -37357   -37361   -37368 
  -37373   -37377   -37382   -37389   -37395   -37401   -37408   -37412 
  -37416   -37423   -37428   -37434   -37440   -37443   -37444   -37449 
  -37453   -37454   -37457   -37461   -37462   -37465   -37466   -37465 
  -37463   -37463   -37465   -37465   -37462   -37459   -37458   -37458 
  -37455   -37450   -37446   -37444   -37439   -37434   -37431   -37427 
  -37422   -37419   -37416   -37413   -37409   -37403   -37399   -37397 
  -37395   -37390   -37389   -37389   -37389   -37385   -37386   -37388 
  -37388   -37390   -37390   -37393   -37399   -37404   -37408   -37412 
  -37417   -37423   -37432   -37440   -37447   -37455   -37465   -37471 
  -37481   -37492   -37498   -37509   -37521   -37531   -37540   -37551 
  -37562   -37573   -37585   -37593   -37600   -37611   -37620   -37627 
  -37636   -37646   -37650   -37656   -37669   -37675   -37677   -37682 
  -37689   -37690   -37694   -37700   -37702   -37705   -37706   -37706 
  -37706   -37705   -37704   -37702   -37700   -37697   -37694   -37690 
  -37686   -37682   -37675   -37670   -37665   -37655   -37647   -37642 
  -37632   -37621   -37615   -37608   -37596   -37585   -37578   -37566 
  -37557   -37547   -37538   -37527   -37517   -37508   -37501   -37490 
  -37481   -37473   -37465   -37457   -37449   -37442   -37438   -37432 
  -37424   -37420   -37419   -37413   -37409   -37408   -37407   -37405 
  -37407   -37408   -37409   -37412   -37415   -37420   -37424   -37428 
  -37434   -37440   -37446   -37453   -37461   -37469   -37478   -37486 
  -37494   -37503   -37509   -37521   -37532   -37542   -37552   -37563 
  -37571   -37582   -37592   -37601   -37612   -37623   -37633   -37642 
  -37650   -37659   -37670   -37677   -37685   -37693   -37701   -37708 
  -37716   -37723   -37728   -37733   -37739   -37744   -37750   -37754 
  -37758   -37763   -37764   -37764   -37767   -37771   -37771   -37773 
  -37773   -37768   -37766   -37764   -37762   -37758   -37752   -37750 
  -37744   -37736   -37729   -37721   -37712   -37706   -37697   -37686 
  -37678   -37666   -37655   -37646   -37635   -37623   -37613   -37602 
  -37589   -37575   -37566   -37555   -37542   -37530   -37516   -37500 
  -37486   -37477   -37463   -37447   -37436   -37424   -37411   -37401 
  -37388   -37373   -37359   -37349   -37338   -37326   -37316   -37307 
  -37296   -37282   -37274   -37268   -37258   -37249   -37243   -37237 
  -37228   -37223   -37215   -37210   -37207   -37201   -37197   -37193 
  -37192   -37191   -37188   -37187   -37188   -37187   -37187   -37189 
  -37193   -37192   -37195   -37201   -37204   -37204   -37208   -37215 
  -37222   -37227   -37233   -37239   -37246   -37251   -37258   -37268 
  -37274   -37282   -37291   -37299   -37308   -37315   -37324   -37334 
  -37343   -37350   -37359   -37369   -37376   -37385   -37396   -37403 
  -37408   -37416   -37424   -37431   -37438   -37443   -37450   -37457 
  -37462   -37467   -37471   -37477   -37481   -37485   -37489   -37492 
  -37493   -37498   -37505   -37508   -37509   -37512   -37516   -37517 
  -37520   -37521   -37524   -37525   -37524   -37525   -37528   -37530 
  -37530   -37531   -37534   -37532   -37531   -37532   -37531   -37531 
  -37531   -37528   -37527   -37527   -37521   -37519   -37517   -37513 
  -37508   -37505   -37501   -37496   -37492   -37489   -37482   -37474 
  -37473   -37471   -37463   -37455   -37451   -37447   -37442   -37438 
  -37432   -37430   -37426   -37422   -37419   -37415   -37412   -37412 
  -37412   -37409   -37407   -37407   -37407   -37408   -37409   -37411 
  -37409   -37408   -37411   -37417   -37420   -37423   -37427   -37430 
  -37434   -37438   -37442   -37449   -37455   -37462   -37466   -37471 
  -37480   -37488   -37494   -37500   -37505   -37513   -37520   -37527 
  -37535   -37542   -37547   -37554   -37562   -37571   -37577   -37581 
  -37589   -37594   -37600   -37608   -37613   -37617   -37625   -37631 
  -37633   -37639   -37644   -37648   -37655   -37658   -37658   -37662 
  -37666   -37670   -37673   -37673   -37673   -37674   -37674   -37674 
  -37674   -37673   -37671   -37669   -37665   -37663   -37659   -37656 
  -37655   -37651   -37644   -37640   -37635   -37628   -37623   -37619 
  -37615   -37609   -37601   -37594   -37588   -37579   -37573   -37566 
  -37558   -37551   -37543   -37536   -37527   -37517   -37512   -37504 
  -37492   -37484   -37477   -37465   -37455   -37449   -37440   -37430 
