Origin Time       2025/01/13 21:19:00
Lat.              31.8
Long.             131.6
Depth. (km)       30
Mag.              6.9
Station Code      ISKH09
Station Lat.      36.2667
Station Long.     136.7168
Station Height(m) 454.5
Record Time       2025/01/13 21:22:58
Sampling Freq(Hz) 100Hz
Duration Time(s)  120
Dir.              2
Scale Factor      2942(gal)/8224139
Max. Acc. (gal)   0.086
Last Correction   2025/01/13 21:22:59
Memo.             
 -104321  -104322  -104323  -104328  -104329  -104330  -104333  -104333 
 -104334  -104338  -104337  -104338  -104344  -104346  -104346  -104346 
 -104348  -104350  -104355  -104356  -104355  -104359  -104360  -104360 
 -104367  -104368  -104364  -104367  -104371  -104371  -104373  -104376 
 -104376  -104379  -104380  -104379  -104380  -104386  -104387  -104388 
 -104390  -104394  -104396  -104396  -104396  -104399  -104402  -104402 
 -104400  -104400  -104404  -104404  -104404  -104404  -104403  -104404 
 -104407  -104407  -104407  -104409  -104409  -104407  -104407  -104410 
 -104411  -104409  -104409  -104410  -104407  -104407  -104410  -104409 
 -104404  -104404  -104406  -104404  -104402  -104402  -104402  -104399 
 -104396  -104395  -104394  -104392  -104391  -104388  -104387  -104387 
 -104386  -104384  -104380  -104377  -104376  -104375  -104372  -104369 
 -104368  -104367  -104361  -104356  -104357  -104355  -104350  -104349 
 -104345  -104342  -104341  -104340  -104337  -104334  -104332  -104329 
 -104328  -104326  -104325  -104323  -104323  -104322  -104321  -104318 
 -104317  -104318  -104318  -104318  -104318  -104319  -104319  -104319 
 -104319  -104321  -104321  -104322  -104325  -104325  -104325  -104330 
 -104333  -104332  -104334  -104342  -104342  -104341  -104346  -104352 
 -104352  -104357  -104364  -104365  -104368  -104373  -104376  -104379 
 -104383  -104387  -104391  -104394  -104398  -104400  -104406  -104409 
 -104411  -104414  -104417  -104419  -104422  -104423  -104426  -104430 
 -104430  -104431  -104434  -104437  -104438  -104440  -104442  -104442 
 -104444  -104444  -104442  -104444  -104445  -104444  -104442  -104440 
 -104441  -104442  -104438  -104436  -104434  -104430  -104429  -104427 
 -104425  -104422  -104418  -104417  -104417  -104413  -104407  -104404 
 -104404  -104403  -104398  -104392  -104390  -104387  -104386  -104383 
 -104379  -104375  -104376  -104376  -104373  -104372  -104372  -104368 
 -104365  -104365  -104365  -104367  -104364  -104364  -104365  -104367 
 -104365  -104365  -104368  -104367  -104367  -104369  -104369  -104369 
 -104371  -104371  -104372  -104375  -104376  -104376  -104377  -104379 
 -104382  -104383  -104384  -104386  -104387  -104387  -104391  -104392 
 -104391  -104392  -104396  -104399  -104402  -104400  -104400  -104402 
 -104402  -104404  -104407  -104407  -104410  -104411  -104411  -104411 
 -104413  -104417  -104418  -104417  -104419  -104422  -104421  -104418 
 -104421  -104423  -104426  -104425  -104423  -104425  -104426  -104425 
 -104423  -104425  -104425  -104423  -104423  -104425  -104425  -104421 
 -104422  -104426  -104423  -104425  -104427  -104425  -104425  -104427 
 -104425  -104423  -104425  -104422  -104422  -104425  -104421  -104419 
 -104422  -104423  -104422  -104423  -104423  -104421  -104422  -104422 
 -104421  -104418  -104419  -104419  -104421  -104419  -104415  -104415 
 -104417  -104414  -104413  -104414  -104413  -104413  -104411  -104411 
 -104409  -104407  -104404  -104403  -104404  -104406  -104403  -104399 
 -104399  -104399  -104398  -104399  -104396  -104395  -104395  -104392 
 -104391  -104394  -104394  -104394  -104391  -104390  -104391  -104391 
 -104392  -104392  -104392  -104394  -104394  -104392  -104396  -104398 
 -104400  -104402  -104402  -104403  -104406  -104406  -104407  -104406 
 -104406  -104411  -104413  -104410  -104413  -104418  -104418  -104415 
 -104418  -104422  -104425  -104426  -104426  -104427  -104430  -104436 
 -104437  -104437  -104438  -104440  -104440  -104441  -104445  -104448 
 -104448  -104449  -104452  -104456  -104456  -104456  -104460  -104463 
 -104461  -104463  -104465  -104468  -104471  -104472  -104475  -104473 
 -104475  -104479  -104480  -104484  -104487  -104487  -104490  -104492 
 -104494  -104496  -104498  -104496  -104496  -104496  -104496  -104495 
 -104492  -104491  -104491  -104490  -104487  -104485  -104483  -104477 
 -104476  -104475  -104469  -104463  -104460  -104456  -104446  -104438 
 -104436  -104433  -104425  -104418  -104413  -104409  -104404  -104400 
 -104394  -104387  -104383  -104380  -104376  -104368  -104364  -104364 
 -104359  -104350  -104348  -104345  -104340  -104337  -104332  -104326 
 -104323  -104321  -104318  -104314  -104311  -104309  -104307  -104307 
 -104306  -104305  -104305  -104306  -104303  -104303  -104306  -104306 
 -104306  -104309  -104310  -104309  -104309  -104310  -104313  -104314 
 -104315  -104317  -104319  -104322  -104328  -104333  -104336  -104340 
 -104345  -104349  -104355  -104357  -104360  -104364  -104371  -104376 
 -104380  -104384  -104391  -104396  -104400  -104404  -104409  -104413 
 -104418  -104425  -104427  -104427  -104433  -104438  -104442  -104445 
 -104449  -104453  -104454  -104457  -104461  -104461  -104463  -104465 
 -104467  -104468  -104469  -104469  -104468  -104472  -104475  -104475 
 -104477  -104481  -104480  -104479  -104484  -104481  -104479  -104481 
 -104483  -104480  -104483  -104483  -104479  -104480  -104481  -104481 
 -104480  -104480  -104481  -104480  -104480  -104480  -104480  -104481 
 -104481  -104480  -104480  -104477  -104475  -104475  -104475  -104476 
 -104477  -104476  -104473  -104472  -104475  -104475  -104473  -104473 
 -104473  -104472  -104472  -104472  -104472  -104473  -104473  -104475 
 -104476  -104476  -104476  -104480  -104481  -104483  -104484  -104485 
 -104487  -104490  -104491  -104491  -104492  -104495  -104495  -104496 
 -104496  -104495  -104496  -104500  -104500  -104498  -104495  -104492 
 -104491  -104488  -104485  -104484  -104481  -104477  -104472  -104468 
 -104464  -104457  -104454  -104449  -104441  -104434  -104429  -104419 
 -104411  -104406  -104398  -104388  -104383  -104377  -104369  -104363 
 -104356  -104348  -104341  -104336  -104332  -104328  -104321  -104315 
 -104313  -104309  -104305  -104301  -104295  -104294  -104294  -104291 
 -104287  -104284  -104283  -104280  -104280  -104280  -104280  -104282 
 -104283  -104283  -104286  -104290  -104288  -104290  -104295  -104299 
 -104301  -104306  -104313  -104311  -104314  -104322  -104325  -104326 
 -104330  -104336  -104340  -104341  -104345  -104352  -104355  -104356 
 -104360  -104361  -104363  -104368  -104371  -104371  -104373  -104377 
 -104376  -104376  -104377  -104376  -104376  -104379  -104377  -104375 
 -104376  -104376  -104373  -104373  -104375  -104372  -104372  -104373 
 -104373  -104373  -104375  -104376  -104377  -104380  -104383  -104384 
 -104386  -104388  -104392  -104396  -104398  -104403  -104406  -104409 
 -104414  -104419  -104423  -104426  -104433  -104437  -104441  -104444 
 -104446  -104449  -104454  -104457  -104460  -104464  -104464  -104465 
 -104469  -104473  -104473  -104473  -104476  -104479  -104480  -104481 
 -104483  -104483  -104484  -104484  -104484  -104484  -104481  -104481 
 -104481  -104480  -104479  -104477  -104476  -104475  -104469  -104467 
 -104464  -104458  -104457  -104456  -104452  -104449  -104446  -104441 
 -104440  -104437  -104433  -104430  -104426  -104421  -104418  -104417 
 -104411  -104403  -104400  -104396  -104391  -104388  -104383  -104380 
 -104379  -104371  -104364  -104361  -104359  -104355  -104349  -104342 
 -104340  -104338  -104333  -104326  -104325  -104323  -104322  -104318 
 -104314  -104311  -104310  -104305  -104301  -104302  -104299  -104295 
 -104292  -104290  -104288  -104288  -104286  -104283  -104280  -104278 
 -104276  -104274  -104274  -104275  -104274  -104271  -104274  -104276 
 -104272  -104269  -104274  -104275  -104274  -104278  -104280  -104280 
 -104282  -104286  -104286  -104288  -104295  -104296  -104295  -104301 
 -104306  -104309  -104315  -104322  -104325  -104329  -104334  -104341 
 -104345  -104348  -104355  -104360  -104364  -104372  -104377  -104380 
 -104387  -104392  -104396  -104399  -104402  -104407  -104413  -104415 
 -104418  -104418  -104421  -104423  -104426  -104426  -104426  -104426 
 -104426  -104429  -104430  -104429  -104425  -104425  -104423  -104419 
 -104422  -104422  -104418  -104418  -104415  -104413  -104413  -104411 
 -104406  -104404  -104403  -104400  -104398  -104392  -104390  -104387 
 -104383  -104380  -104379  -104375  -104371  -104368  -104363  -104360 
 -104356  -104350  -104345  -104340  -104336  -104332  -104328  -104323 
 -104317  -104311  -104306  -104299  -104296  -104291  -104284  -104282 
 -104278  -104272  -104267  -104263  -104260  -104255  -104249  -104244 
 -104242  -104240  -104233  -104230  -104230  -104225  -104220  -104218 
 -104214  -104211  -104210  -104209  -104207  -104207  -104207  -104205 
 -104203  -104205  -104206  -104203  -104202  -104201  -104201  -104206 
 -104207  -104206  -104209  -104210  -104209  -104211  -104214  -104215 
 -104217  -104220  -104224  -104229  -104234  -104236  -104238  -104244 
 -104249  -104251  -104253  -104257  -104259  -104261  -104265  -104271 
 -104275  -104276  -104282  -104287  -104290  -104291  -104294  -104301 
 -104305  -104309  -104313  -104315  -104318  -104321  -104322  -104326 
 -104330  -104334  -104337  -104340  -104342  -104345  -104345  -104348 
 -104355  -104356  -104357  -104360  -104363  -104365  -104368  -104369 
 -104369  -104372  -104377  -104382  -104380  -104382  -104384  -104384 
 -104386  -104387  -104388  -104388  -104390  -104391  -104392  -104391 
 -104392  -104394  -104390  -104390  -104391  -104388  -104386  -104384 
 -104386  -104384  -104383  -104382  -104377  -104376  -104375  -104373 
 -104371  -104372  -104371  -104368  -104368  -104368  -104367  -104365 
 -104363  -104363  -104363  -104361  -104357  -104359  -104359  -104357 
 -104356  -104356  -104353  -104355  -104355  -104352  -104352  -104353 
 -104350  -104349  -104350  -104353  -104353  -104352  -104352  -104350 
 -104349  -104352  -104353  -104353  -104353  -104353  -104353  -104355 
 -104355  -104353  -104355  -104355  -104355  -104356  -104355  -104355 
 -104356  -104357  -104359  -104357  -104357  -104359  -104356  -104353 
 -104352  -104352  -104352  -104350  -104350  -104350  -104349  -104346 
 -104345  -104346  -104349  -104346  -104344  -104345  -104344  -104345 
 -104346  -104345  -104344  -104345  -104346  -104346  -104346  -104345 
 -104346  -104349  -104346  -104346  -104349  -104349  -104346  -104348 
 -104348  -104346  -104348  -104349  -104346  -104345  -104346  -104346 
 -104345  -104346  -104348  -104350  -104352  -104352  -104353  -104356 
 -104357  -104360  -104365  -104367  -104368  -104373  -104377  -104380 
 -104383  -104387  -104392  -104396  -104402  -104406  -104410  -104415 
 -104422  -104427  -104433  -104441  -104448  -104453  -104458  -104467 
 -104473  -104477  -104485  -104494  -104498  -104504  -104512  -104518 
 -104521  -104527  -104535  -104542  -104546  -104549  -104553  -104557 
 -104558  -104558  -104562  -104566  -104566  -104566  -104565  -104564 
 -104565  -104565  -104560  -104557  -104554  -104550  -104546  -104542 
 -104538  -104533  -104526  -104519  -104515  -104510  -104499  -104490 
 -104483  -104477  -104471  -104463  -104456  -104450  -104442  -104436 
 -104427  -104418  -104411  -104407  -104399  -104391  -104387  -104377 
 -104369  -104363  -104357  -104352  -104345  -104338  -104334  -104330 
 -104325  -104323  -104318  -104311  -104311  -104310  -104305  -104302 
 -104301  -104299  -104295  -104292  -104292  -104292  -104290  -104286 
 -104287  -104288  -104287  -104287  -104288  -104288  -104288  -104287 
 -104288  -104292  -104294  -104294  -104296  -104296  -104296  -104296 
 -104296  -104298  -104299  -104296  -104295  -104298  -104298  -104296 
 -104296  -104296  -104296  -104298  -104298  -104294  -104294  -104295 
 -104296  -104296  -104295  -104295  -104299  -104302  -104298  -104299 
 -104306  -104307  -104307  -104311  -104317  -104322  -104325  -104330 
 -104336  -104340  -104346  -104353  -104357  -104365  -104375  -104380 
 -104384  -104392  -104399  -104404  -104410  -104415  -104419  -104425 
 -104429  -104431  -104436  -104437  -104438  -104441  -104445  -104445 
 -104446  -104445  -104445  -104449  -104448  -104445  -104445  -104444 
 -104441  -104440  -104436  -104430  -104427  -104426  -104421  -104418 
 -104413  -104407  -104404  -104402  -104398  -104392  -104387  -104383 
 -104380  -104377  -104375  -104375  -104373  -104372  -104369  -104365 
 -104365  -104368  -104368  -104367  -104369  -104373  -104375  -104377 
 -104380  -104383  -104387  -104391  -104395  -104398  -104403  -104407 
 -104413  -104419  -104423  -104426  -104433  -104438  -104440  -104446 
 -104452  -104452  -104457  -104464  -104465  -104469  -104473  -104473 
 -104476  -104479  -104483  -104485  -104484  -104484  -104485  -104484 
 -104483  -104485  -104485  -104481  -104477  -104476  -104472  -104467 
 -104464  -104463  -104458  -104456  -104452  -104445  -104438  -104433 
 -104429  -104425  -104419  -104417  -104410  -104403  -104398  -104392 
 -104387  -104383  -104377  -104372  -104368  -104363  -104357  -104355 
 -104352  -104349  -104345  -104342  -104340  -104340  -104340  -104337 
 -104336  -104336  -104334  -104332  -104333  -104333  -104333  -104334 
 -104334  -104333  -104334  -104334  -104333  -104333  -104332  -104330 
 -104330  -104329  -104326  -104325  -104321  -104315  -104313  -104310 
 -104302  -104298  -104295  -104288  -104283  -104282  -104275  -104265 
 -104260  -104255  -104251  -104244  -104237  -104230  -104224  -104220 
 -104214  -104207  -104202  -104195  -104190  -104186  -104182  -104178 
 -104175  -104171  -104167  -104163  -104159  -104157  -104157  -104155 
 -104152  -104151  -104148  -104147  -104149  -104149  -104149  -104152 
 -104152  -104153  -104157  -104161  -104164  -104168  -104172  -104176 
 -104184  -104191  -104195  -104203  -104211  -104215  -104224  -104234 
 -104242  -104251  -104259  -104269  -104280  -104290  -104301  -104310 
 -104318  -104329  -104340  -104349  -104360  -104369  -104377  -104387 
 -104396  -104406  -104415  -104423  -104430  -104436  -104442  -104449 
 -104454  -104458  -104465  -104469  -104472  -104476  -104480  -104483 
 -104487  -104491  -104495  -104496  -104498  -104502  -104500  -104498 
 -104499  -104499  -104499  -104496  -104495  -104495  -104492  -104488 
 -104485  -104484  -104480  -104477  -104475  -104473  -104471  -104467 
 -104464  -104461  -104458  -104457  -104454  -104452  -104450  -104448 
 -104445  -104441  -104440  -104440  -104440  -104437  -104434  -104433 
 -104431  -104430  -104430  -104431  -104431  -104427  -104426  -104430 
 -104431  -104431  -104433  -104433  -104434  -104436  -104437  -104440 
 -104441  -104441  -104444  -104448  -104449  -104450  -104453  -104454 
 -104456  -104460  -104463  -104464  -104465  -104471  -104475  -104473 
 -104473  -104479  -104480  -104481  -104487  -104488  -104488  -104490 
 -104490  -104490  -104491  -104491  -104490  -104490  -104488  -104488 
 -104490  -104490  -104485  -104483  -104481  -104479  -104475  -104472 
 -104468  -104463  -104460  -104456  -104452  -104444  -104437  -104431 
 -104425  -104415  -104407  -104398  -104390  -104382  -104372  -104364 
 -104357  -104346  -104334  -104325  -104319  -104310  -104298  -104287 
 -104279  -104269  -104257  -104247  -104241  -104233  -104224  -104217 
 -104210  -104202  -104197  -104190  -104184  -104182  -104178  -104172 
 -104172  -104174  -104171  -104168  -104168  -104167  -104167  -104168 
 -104167  -104166  -104168  -104170  -104171  -104174  -104179  -104184 
 -104187  -104187  -104190  -104195  -104199  -104201  -104203  -104206 
 -104210  -104217  -104222  -104225  -104226  -104229  -104232  -104237 
 -104241  -104242  -104247  -104249  -104252  -104255  -104260  -104264 
 -104265  -104269  -104278  -104284  -104287  -104292  -104298  -104302 
 -104307  -104315  -104322  -104329  -104332  -104337  -104345  -104352 
 -104357  -104367  -104372  -104379  -104386  -104391  -104398  -104404 
 -104409  -104415  -104421  -104425  -104430  -104433  -104438  -104444 
 -104446  -104450  -104453  -104456  -104457  -104458  -104460  -104460 
 -104460  -104461  -104460  -104457  -104457  -104457  -104453  -104452 
 -104450  -104446  -104444  -104441  -104436  -104430  -104426  -104423 
 -104421  -104418  -104414  -104410  -104406  -104400  -104395  -104395 
 -104394  -104387  -104384  -104383  -104379  -104373  -104371  -104369 
 -104368  -104365  -104363  -104361  -104357  -104353  -104352  -104349 
 -104348  -104346  -104344  -104341  -104340  -104338  -104334  -104333 
 -104334  -104334  -104332  -104332  -104332  -104333  -104333  -104333 
 -104333  -104333  -104334  -104337  -104338  -104338  -104338  -104342 
 -104345  -104346  -104349  -104355  -104357  -104359  -104363  -104367 
 -104371  -104372  -104375  -104379  -104382  -104383  -104386  -104387 
 -104390  -104394  -104394  -104394  -104396  -104398  -104399  -104402 
 -104403  -104402  -104400  -104400  -104400  -104400  -104399  -104398 
 -104396  -104396  -104395  -104395  -104392  -104391  -104391  -104391 
 -104388  -104387  -104386  -104384  -104380  -104377  -104377  -104372 
 -104369  -104368  -104365  -104361  -104357  -104353  -104348  -104342 
 -104340  -104337  -104333  -104326  -104319  -104317  -104313  -104307 
 -104303  -104298  -104292  -104287  -104280  -104278  -104274  -104265 
 -104259  -104255  -104249  -104242  -104240  -104238  -104233  -104229 
 -104225  -104220  -104217  -104215  -104211  -104206  -104205  -104202 
 -104198  -104198  -104197  -104193  -104190  -104188  -104187  -104186 
 -104186  -104184  -104182  -104180  -104183  -104184  -104184  -104184 
 -104186  -104188  -104187  -104188  -104194  -104199  -104201  -104202 
 -104206  -104211  -104217  -104224  -104230  -104240  -104245  -104251 
 -104260  -104269  -104279  -104288  -104301  -104311  -104321  -104332 
 -104345  -104359  -104371  -104382  -104395  -104407  -104419  -104433 
 -104445  -104458  -104469  -104479  -104491  -104506  -104514  -104523 
 -104531  -104539  -104550  -104558  -104564  -104568  -104572  -104577 
 -104583  -104589  -104589  -104588  -104591  -104592  -104589  -104591 
 -104589  -104585  -104583  -104581  -104577  -104572  -104568  -104560 
 -104550  -104544  -104541  -104534  -104525  -104517  -104506  -104496 
 -104488  -104480  -104471  -104464  -104456  -104445  -104436  -104427 
 -104417  -104410  -104404  -104396  -104387  -104383  -104377  -104369 
 -104364  -104363  -104357  -104353  -104352  -104350  -104348  -104345 
 -104345  -104348  -104350  -104349  -104349  -104353  -104357  -104361 
 -104363  -104367  -104372  -104377  -104382  -104386  -104391  -104398 
 -104404  -104410  -104413  -104423  -104431  -104434  -104440  -104448 
 -104452  -104457  -104465  -104469  -104473  -104480  -104485  -104490 
 -104494  -104498  -104503  -104507  -104510  -104517  -104523  -104526 
 -104527  -104530  -104533  -104538  -104545  -104548  -104550  -104553 
 -104556  -104560  -104566  -104571  -104575  -104579  -104581  -104585 
 -104588  -104592  -104596  -104600  -104602  -104603  -104608  -104611 
 -104612  -104614  -104619  -104622  -104623  -104625  -104626  -104625 
 -104623  -104623  -104622  -104619  -104618  -104615  -104612  -104610 
 -104606  -104598  -104589  -104585  -104580  -104569  -104560  -104552 
 -104541  -104530  -104522  -104511  -104498  -104485  -104475  -104461 
 -104450  -104438  -104425  -104411  -104399  -104387  -104372  -104359 
 -104346  -104338  -104328  -104314  -104302  -104294  -104287  -104276 
