Origin Time       2025/01/13 21:19:00
Lat.              31.8
Long.             131.6
Depth. (km)       30
Mag.              6.9
Station Code      ISKH09
Station Lat.      36.2667
Station Long.     136.7168
Station Height(m) 560
Record Time       2025/01/13 21:22:58
Sampling Freq(Hz) 100Hz
Duration Time(s)  120
Dir.              6
Scale Factor      7845(gal)/8223790
Max. Acc. (gal)   0.164
Last Correction   2025/01/13 21:22:59
Memo.             
[...]
    6390     6389     6390     6388     6385     6386     6386     6386 
    6384     6380     6381     6385     6381     6378     6378     6377 
    6376     6374     6372     6370     6372     6369     6365     6366 
    6367     6365     6365     6365     6366     6366     6363     6365 
    6366     6365     6363     6363     6366     6369     6366     6366 
    6372     6373     6370     6369     6373     6374     6374     6374 
    6376     6374     6372     6372     6374     6373     6373     6374 
    6373     6373     6376     6376     6376     6376     6374     6378 
    6380     6376     6376     6382     6382     6381     6384     6385 
    6385     6385     6386     6386     6389     6392     6390     6390 
    6397     6399     6397     6400     6400     6401     6401     6401 
    6404     6404     6404     6407     6407     6405     6407     6408 
    6412     6413     6413     6413     6413     6413     6413     6415 
    6415     6417     6416     6413     6413     6417     6419     6416 
    6413     6413     6413     6415     6416     6412     6409     6409 
    6409     6409     6409     6405     6401     6400     6400     6399 
    6397     6394     6393     6392     6390     6389     6385     6382 
    6381     6380     6378     6374     6372     6370     6365     6363 
    6363     6361     6357     6354     6354     6357     6355     6353 
    6353     6354     6351     6351     6353     6351     6351     6351 
    6350     6349     6350     6351     6349     6345     6346     6350 
    6347     6346     6347     6346     6343     6343     6342     6342 
    6343     6340     6339     6342     6345     6345     6342     6342 
    6345     6343     6343     6343     6343     6343     6345     6345 
    6345     6343     6342     6343     6345     6343     6345     6347 
    6347     6346     6346     6347     6353     6355     6353     6351 
    6355     6361     6361     6361     6365     6366     6365     6369 
    6370     6372     6376     6376     6377     6381     6381     6380 
    6384     6386     6385     6388     6389     6389     6394     6396 
    6392     6392     6394     6394     6397     6399     6399     6399 
    6399     6400     6401     6403     6400     6399     6404     6405 
    6403     6401     6403     6404     6405     6405     6405     6408 
    6408     6407     6408     6408     6407     6405     6404     6403 
    6403     6403     6400     6397     6397     6397     6394     6392 
    6392     6390     6385     6385     6388     6386     6385     6385 
    6382     6382     6380     6376     6377     6377     6374     6373 
    6376     6377     6374     6370     6373     6376     6374     6373 
    6374     6374     6376     6376     6374     6374     6374     6373 
    6377     6381     6378     6378     6381     6380     6381     6385 
    6386     6385     6386     6388     6389     6392     6394     6397 
    6399     6399     6399     6400     6403     6403     6405     6405 
    6405     6405     6405     6408     6411     6408     6409     6411 
    6405     6407     6411     6409     6407     6405     6407     6408 
    6405     6405     6404     6400     6401     6404     6401     6399 
    6400     6399     6396     6396     6393     6394     6396     6392 
    6390     6394     6394     6390     6388     6389     6388     6385 
    6386     6388     6386     6388     6388     6385     6384     6385 
    6386     6386     6386     6389     6390     6388     6386     6389 
    6392     6392     6389     6389     6392     6392     6392     6394 
    6396     6394     6393     6397     6399     6396     6397     6400 
    6401     6403     6404     6405     6408     6411     6411     6412 
    6416     6417     6419     6421     6423     6426     6428     6431 
    6434     6435     6435     6439     6442     6440     6442     6443 
    6443     6446     6446     6447     6448     6448     6450     6450 
    6447     6447     6447     6446     6444     6443     6442     6439 
    6439     6439     6438     6435     6434     6432     6431     6427 
    6423     6420     6419     6417     6415     6409     6407     6403 
    6397     6393     6390     6386     6385     6384     6378     6373 
    6373     6370     6366     6362     6362     6362     6357     6353 
    6351     6349     6350     6350     6346     6346     6346     6343 
    6342     6343     6342     6342     6339     6339     6342     6342 
    6338     6336     6339     6340     6340     6342     6345     6343 
    6343     6346     6346     6345     6347     6351     6350     6350 
    6353     6353     6354     6357     6357     6359     6361     6359 
    6359     6362     6363     6365     6366     6369     6370     6370 
    6372     6376     6378     6378     6381     6382     6385     6388 
    6390     6392     6390     6392     6396     6397     6397     6396 
    6397     6399     6397     6394     6396     6400     6400     6397 
    6394     6396     6399     6394     6392     6394     6393     6390 
    6390     6389     6385     6384     6380     6377     6377     6377 
    6374     6372     6370     6370     6366     6362     6362     6361 
    6361     6361     6358     6353     6353     6353     6349     6346 
    6345     6343     6343     6342     6340     6339     6339     6339 
    6335     6335     6335     6332     6332     6335     6334     6331 
    6332     6334     6331     6332     6335     6335     6335     6335 
    6336     6339     6338     6336     6336     6338     6336     6338 
    6339     6339     6340     6343     6343     6343     6345     6345 
    6347     6350     6351     6350     6349     6349     6350     6351 
    6351     6351     6353     6353     6353     6351     6351     6351 
    6353     6354     6353     6351     6351     6351     6355     6357 
    6358     6359     6358     6358     6361     6363     6366     6366 
    6367     6372     6376     6376     6380     6382     6384     6386 
    6390     6394     6399     6400     6404     6409     6415     6417 
    6420     6423     6427     6431     6435     6439     6440     6443 
    6444     6447     6448     6448     6453     6457     6457     6457 
    6459     6461     6461     6461     6459     6458     6462     6462 
    6457     6455     6457     6454     6450     6450     6446     6442 
    6442     6439     6435     6435     6434     6428     6426     6424 
    6423     6421     6420     6419     6417     6415     6413     6416 
    6413     6411     6409     6409     6405     6405     6405     6401 
    6400     6401     6400     6399     6397     6397     6397     6396 
    6396     6396     6393     6392     6390     6388     6388     6386 
    6384     6384     6384     6382     6381     6380     6377     6376 
    6376     6376     6373     6370     6372     6373     6372     6370 
    6370     6370     6372     6372     6369     6370     6370     6372 
    6373     6374     6373     6370     6370     6372     6374     6373 
    6373     6373     6373     6373     6373     6370     6370     6369 
    6369     6367     6370     6369     6365     6363     6362     6359 
    6358     6357     6359     6358     6354     6357     6358     6353 
    6354     6357     6354     6351     6354     6354     6354     6353 
    6354     6354     6350     6350     6354     6355     6351     6353 
    6355     6354     6353     6353     6353     6351     6349     6349 
    6350     6347     6346     6347     6346     6345     6343     6340 
    6339     6340     6339     6331     6331     6334     6331     6331 
    6330     6328     6330     6330     6328     6328     6328     6330 
    6331     6334     6334     6334     6336     6340     6342     6343 
    6347     6347     6350     6355     6358     6362     6363     6365 
    6370     6377     6380     6382     6386     6390     6393     6399 
    6404     6405     6409     6416     6417     6420     6426     6431 
    6438     6439     6443     6451     6454     6455     6462     6467 
    6470     6474     6477     6480     6484     6486     6486     6490 
    6493     6493     6497     6500     6498     6500     6498     6498 
    6502     6504     6501     6502     6502     6500     6498     6498 
    6496     6494     6493     6492     6490     6488     6482     6478 
    6477     6473     6467     6465     6459     6453     6448     6446 
    6440     6435     6427     6421     6417     6413     6408     6403 
    6399     6393     6388     6384     6376     6367     6363     6358 
    6355     6354     6349     6345     6340     6334     6330     6328 
    6327     6324     6320     6319     6320     6318     6318     6318 
    6316     6315     6316     6318     6320     6322     6323     6322 
    6323     6328     6330     6330     6335     6338     6339     6342 
    6349     6353     6355     6359     6362     6365     6370     6373 
    6378     6384     6385     6389     6394     6397     6400     6401 
    6403     6407     6409     6409     6413     6416     6419     6421 
    6421     6420     6421     6424     6426     6423     6423     6424 
    6421     6420     6419     6417     6415     6411     6407     6407 
    6405     6401     6396     6390     6388     6385     6381     6374 
    6370     6366     6361     6354     6350     6345     6335     6327 
    6327     6322     6312     6309     6307     6299     6292     6288 
    6284     6280     6276     6273     6270     6266     6264     6262 
    6262     6261     6258     6255     6255     6258     6258     6258 
    6259     6261     6262     6266     6268     6270     6274     6276 
    6281     6286     6291     6293     6300     6303     6305     6311 
    6318     6323     6330     6334     6339     6347     6354     6358 
    6362     6367     6376     6381     6388     6396     6401     6405 
    6409     6415     6424     6430     6434     6440     6446     6451 
    6455     6461     6465     6467     6474     6480     6480     6480 
    6484     6489     6492     6493     6497     6498     6494     6497 
    6500     6498     6498     6500     6501     6501     6500     6501 
    6498     6494     6493     6492     6488     6488     6486     6482 
    6477     6473     6469     6465     6459     6455     6453     6446 
    6439     6434     6427     6420     6415     6408     6404     6399 
    6392     6388     6384     6376     6370     6366     6361     6355 
    6347     6342     6336     6331     6326     6323     6318     6315 
    6312     6307     6304     6301     6296     6292     6291     6289 
    6285     6282     6280     6280     6278     6277     6274     6274 
    6274     6276     6274     6274     6274     6273     6273     6276 
    6276     6277     6280     6281     6282     6285     6288     6292 
    6295     6297     6300     6307     6312     6318     6320     6323 
    6327     6331     6336     6340     6343     6350     6354     6353 
    6357     6362     6366     6372     6374     6374     6374     6377 
    6382     6384     6385     6386     6386     6388     6389     6389 
    6390     6392     6390     6393     6393     6392     6393     6392 
    6389     6390     6392     6392     6390     6389     6388     6386 
    6384     6382     6381     6380     6378     6377     6376     6374 
    6376     6373     6367     6369     6367     6366     6366     6367 
    6363     6362     6362     6362     6362     6362     6359     6357 
    6357     6355     6355     6357     6357     6355     6354     6351 
    6351     6354     6354     6355     6358     6358     6357     6358 
    6358     6361     6362     6361     6361     6363     6365     6365 
    6369     6370     6370     6372     6374     6376     6380     6382 
    6382     6385     6390     6393     6394     6397     6403     6407 
    6407     6409     6413     6415     6419     6427     6431     6434 
    6438     6440     6443     6448     6454     6458     6461     6462 
    6465     6469     6473     6477     6481     6484     6489     6490 
    6486     6486     6488     6489     6490     6489     6486     6486 
    6486     6485     6484     6477     6474     6474     6467     6462 
    6459     6457     6453     6448     6440     6434     6428     6426 
    6423     6417     6409     6405     6399     6394     6390     6385 
    6380     6374     6370     6365     6361     6359     6354     6350 
    6350     6345     6340     6340     6339     6336     6332     6331 
    6330     6328     6328     6327     6328     6330     6330     6330 
    6331     6332     6335     6336     6335     6338     6340     6340 
    6340     6343     6347     6351     6355     6357     6358     6362 
    6365     6369     6373     6377     6380     6384     6388     6393 
    6397     6404     6408     6411     6415     6420     6426     6430 
    6435     6440     6443     6447     6451     6453     6457     6463 
    6466     6469     6471     6477     6482     6484     6484     6486 
    6490     6493     6496     6497     6500     6500     6501     6501 
    6502     6504     6504     6502     6501     6501     6498     6497 
    6497     6494     6488     6484     6485     6481     6475     6471 
    6467     6461     6455     6450     6447     6440     6434     6428 
    6421     6413     6405     6399     6393     6388     6384     6374 
    6362     6357     6353     6345     6338     6330     6320     6316 
    6309     6297     6293     6292     6282     6273     6268     6262 
    6258     6254     6249     6239     6235     6234     6228     6226 
    6226     6222     6220     6219     6212     6212     6216     6214 
    6214     6216     6220     6223     6226     6231     6235     6237 
    6242     6249     6255     6262     6266     6273     6278     6284 
    6292     6299     6307     6315     6322     6330     6338     6345 
    6351     6358     6365     6370     6377     6382     6386     6392 
    6399     6403     6405     6409     6415     6419     6420     6420 
    6421     6423     6426     6428     6431     6430     6427     6428 
    6431     6430     6428     6428     6428     6427     6427     6423 
    6420     6420     6419     6415     6415     6416     6411     6407 
    6408     6407     6400     6396     6394     6394     6394     6392 
    6386     6385     6384     6380     6378     6378     6376     6372 
    6370     6370     6366     6365     6362     6358     6357     6357 
    6355     6351     6350     6351     6353     6353     6353     6351 
    6351     6351     6350     6350     6353     6353     6351     6355 
    6358     6355     6357     6361     6362     6363     6365     6366 
    6367     6370     6373     6376     6376     6376     6377     6377 
    6380     6384     6384     6382     6384     6384     6386     6389 
    6388     6386     6388     6389     6388     6382     6381     6386 
    6385     6381     6381     6381     6378     6377     6376     6376 
    6376     6373     6373     6376     6374     6373     6376     6376 
    6374     6374     6374     6376     6373     6373     6376     6373 
    6373     6376     6376     6373     6373     6374     6372     6367 
    6367     6372     6369     6367     6369     6367     6366     6366 
    6366     6363     6362     6362     6365     6366     6366     6366 
    6363     6363     6365     6365     6365     6369     6372     6370 
    6370     6374     6377     6377     6377     6381     6384     6384 
    6386     6392     6394     6392     6396     6403     6401     6400 
    6405     6409     6411     6413     6416     6415     6415     6420 
    6426     6424     6426     6428     6427     6428     6430     6434 
    6436     6438     6438     6439     6439     6440     6443     6443 
    6443     6444     6443     6444     6447     6448     6448     6450 
    6448     6448     6450     6451     6451     6451     6451     6455 
    6454     6453     6454     6455     6455     6457     6455     6451 
    6453     6453     6453     6454     6454     6453     6453     6451 
    6450     6450     6450     6448     6447     6447     6447     6446 
    6444     6444     6444     6443     6443     6442     6438     6436 
    6438     6436     6434     6432     6430     6427     6427     6426 
    6421     6417     6415     6413     6409     6409     6409     6404 
    6399     6397     6396     6390     6388     6386     6380     6376 
    6377     6372     6363     6361     6359     6355     6351     6347 
    6343     6339     6336     6335     6330     6326     6323     6322 
    6320     6316     6312     6312     6311     6307     6304     6304 
    6301     6303     6304     6300     6299     6303     6303     6303 
    6304     6304     6307     6309     6311     6311     6312     6318 
    6319     6320     6322     6323     6327     6331     6334     6336 
    6340     6340     6342     6345     6347     6351     6357     6359 
    6361     6363     6366     6367     6370     6372     6376     6380 
    6381     6385     6388     6388     6389     6392     6394     6397 
    6399     6400     6403     6405     6404     6408     6412     6412 
    6413     6416     6416     6415     6419     6423     6421     6424 
    6427     6428     6431     6431     6430     6431     6435     6436 
    6436     6438     6439     6439     6440     6439     6439     6440 
    6442     6442     6442     6440     6439     6439     6440     6438 
    6435     6435     6435     6432     6430     6428     6428     6430 
    6427     6424     6427     6426     6420     6419     6419     6417 
    6419     6420     6416     6415     6413     6411     6408     6409 
    6409     6404     6403     6404     6401     6401     6403     6399 
    6397     6396     6394     6394     6394     6392     6392     6390 
    6386     6386     6385     6381     6382     6384     6381     6378 
    6378     6376     6374     6373     6372     6372     6372     6370 
    6372     6367     6362     6363     6363     6363     6363     6363 
    6365     6365     6363     6363     6363     6362     6361     6362 
    6362     6362     6361     6358     6357     6359     6361     6358 
    6357     6357     6355     6357     6358     6355     6353     6353 
    6354     6354     6350     6347     6350     6349     6347     6347 
    6346     6343     6346     6346     6343     6343     6343     6342 
    6340     6340     6339     6339     6340     6336     6334     6336 
    6339     6338     6335     6334     6334     6336     6335     6335 
    6335     6335     6336     6338     6339     6338     6338     6338 
    6338     6339     6342     6340     6340     6345     6346     6343 
    6346     6350     6350     6351     6353     6354     6357     6359 
    6361     6365     6369     6369     6373     6378     6382     6382 
    6385     6392     6397     6401     6407     6412     6415     6416 
    6421     6426     6428     6434     6439     6442     6447     6453 
    6454     6455     6458     6462     6465     6469     6471     6473 
    6474     6475     6474     6477     6478     6475     6474     6477 
    6477     6477     6475     6473     6471     6469     6466     6465 
    6463     6461     6457     6455     6454     6447     6443     6442 
    6436     6430     6428     6424     6419     6415     6409     6405 
    6403     6397     6393     6389     6382     6376     6370     6367 
    6366     6362     6353     6349     6347     6342     6336     6336 
