Origin Time       2025/01/13 21:19:00
Lat.              31.8
Long.             131.6
Depth. (km)       30
Mag.              6.9
Station Code      ISKH09
Station Lat.      36.2667
Station Long.     136.7168
Station Height(m) 560
Record Time       2025/01/13 21:22:58
Sampling Freq(Hz) 100Hz
Duration Time(s)  120
Dir.              4
Scale Factor      7845(gal)/8223790
Max. Acc. (gal)   0.168
Last Correction   2025/01/13 21:22:59
Memo.             
[...]
     274      275      276      275      275      276      275      278 
     280      276      271      272      274      272      271      274 
     272      267      268      272      270      265      263      260 
     263      265      267      267      267      267      270      271 
     274      278      278      280      284      287      288      288 
     291      294      295      298      303      307      307      309 
     314      318      315      311      313      314      317      322 
     324      322      325      324      322      324      324      324 
     324      328      329      330      333      334      334      334 
     337      338      340      340      341      344      346      345 
     345      348      346      345      349      349      346      348 
     351      348      346      348      348      346      345      345 
     344      346      348      344      344      345      345      342 
     342      341      340      338      337      337      336      333 
     333      333      330      326      325      326      324      321 
     318      317      317      315      313      313      313      310 
     310      309      305      305      306      306      305      303 
     305      306      306      306      302      299      303      305 
     301      299      299      302      303      299      298      299 
     299      301      301      299      301      301      301      302 
     302      301      298      297      299      299      298      297 
     294      291      288      286      283      282      280      279 
     276      278      276      274      272      270      267      267 
     265      264      264      264      263      261      259      257 
     256      255      256      257      256      257      260      260 
     260      257      260      264      263      263      267      267 
     268      270      271      271      270      271      272      272 
     276      279      278      279      278      275      278      280 
     280      283      284      284      283      283      283      283 
     283      279      279      283      283      280      282      283 
     280      279      279      279      276      275      276      279 
     278      275      276      276      275      276      276      275 
     275      279      280      282      280      280      283      283 
     282      286      288      287      288      288      286      288 
     292      291      291      295      297      298      299      298 
     297      299      301      303      303      303      306      307 
     309      309      307      309      311      313      313      315 
     318      321      319      321      324      324      324      322 
     322      321      322      325      325      324      324      324 
     321      318      321      322      319      319      324      321 
     318      321      321      322      324      325      328      328 
     326      330      333      332      332      332      334      337 
     340      344      345      342      345      348      346      348 
     349      349      351      353      353      353      353      353 
     353      355      357      357      357      359      359      357 
     356      355      356      357      359      359      359      360 
     361      364      364      363      361      364      365      367 
     368      369      371      372      373      378      378      376 
     380      384      384      387      392      395      394      394 
     395      396      395      396      399      398      399      402 
     399      398      400      400      398      399      400      402 
     400      399      402      400      398      396      396      396 
     399      396      395      394      391      390      388      388 
     386      383      382      383      383      380      376      371 
     367      365      361      357      355      352      351      344 
     336      333      329      325      322      319      314      309 
     303      299      297      292      288      284      282      279 
     272      268      268      267      263      259      256      257 
     259      256      256      257      256      253      255      255 
     255      255      252      252      255      257      256      255 
     256      256      255      253      256      259      259      259 
     261      261      261      261      260      260      264      268 
     268      268      272      274      274      279      282      280 
     283      286      290      297      299      299      302      306 
     311      313      314      321      326      328      330      332 
     338      344      345      349      353      355      360      364 
     364      368      371      373      378      379      384      388 
     388      390      392      392      392      392      394      394 
     392      394      394      394      394      392      391      390 
     390      387      384      384      384      382      379      373 
     369      368      364      361      359      355      353      351 
     345      342      341      334      329      325      321      319 
     315      313      309      303      301      299      295      294 
     292      291      288      287      286      286      284      283 
     284      283      283      286      284      280      280      280 
     279      278      276      278      278      275      276      278 
     275      271      270      270      265      264      267      267 
     264      263      264      264      261      260      260      260 
     260      259      259      259      259      257      255      253 
     255      255      255      257      257      256      257      259 
     260      263      263      264      270      272      274      279 
     280      282      287      291      291      294      298      302 
     306      307      311      314      315      318      324      326 
     329      334      337      340      344      348      351      355 
     356      355      359      365      367      368      372      375 
     376      378      380      379      380      383      383      384 
     386      386      386      388      388      388      388      387 
     387      387      386      386      384      384      382      378 
     376      375      372      372      369      364      360      356 
     355      352      348      342      341      340      336      333 
     329      326      324      322      319      317      314      314 
     313      310      310      309      303      301      302      302 
     299      298      298      299      298      294      292      292 
     292      291      290      290      290      290      290      290 
     291      294      297      295      295      299      303      302 
     303      307      309      309      310      313      314      315 
     315      314      315      315      313      310      310      310 
     310      309      306      305      301      295      294      288 
     282      280      279      275      272      265      261      260 
     253      249      249      244      238      238      232      224 
     224      221      214      211      209      206      206      205 
     201      195      191      191      187      186      187      186 
     184      186      183      179      180      180      180      183 
     186      187      191      194      197      198      201      205 
     206      210      214      221      225      229      233      236 
     240      247      251      253      257      263      268      271 
     276      279      280      287      294      295      299      305 
     309      313      318      321      326      333      334      336 
     345      352      355      359      365      369      373      376 
     380      387      391      396      402      407      409      413 
     417      422      426      430      434      436      437      442 
     448      448      446      449      453      454      454      456 
     456      456      457      457      457      457      456      454 
     454      456      454      448      445      445      441      436 
     432      430      426      419      415      413      406      400 
     395      387      379      375      371      365      357      351 
     346      341      336      329      325      322      314      310 
     307      302      297      295      291      286      284      283 
     276      276      278      275      274      271      268      271 
     274      272      274      276      276      280      280      278 
     283      286      286      288      294      298      302      305 
     306      307      310      313      313      317      321      322 
     328      332      332      333      336      337      337      337 
     338      338      337      337      336      334      334      334 
     329      326      328      325      319      315      311      309 
     303      299      297      294      290      286      280      278 
     275      270      267      264      261      259      259      257 
     253      251      248      244      241      240      238      237 
     237      233      232      232      228      222      221      221 
     221      221      222      221      220      220      220      218 
     220      221      224      225      226      232      238      241 
     245      251      255      260      268      276      284      292 
     298      303      313      321      328      333      340      346 
     352      361      371      378      382      387      391      396 
     402      406      409      414      421      426      427      430 
     430      432      438      442      444      444      446      449 
     450      452      454      456      454      453      453      453 
     454      454      456      453      452      450      448      445 
     446      446      444      440      438      437      434      430 
     427      426      423      418      414      413      407      402 
     400      396      390      387      383      376      373      369 
     360      355      351      344      337      332      324      318 
     315      310      301      294      288      280      272      268 
     263      255      249      247      241      234      229      224 
     220      216      209      206      205      202      201      202 
     199      195      193      195      194      191      195      195 
     193      193      193      193      193      191      193      197 
     198      201      205      206      209      211      214      218 
     222      228      233      237      240      244      251      256 
     261      268      274      279      284      288      294      299 
     302      305      311      314      318      325      328      332 
     333      337      342      344      346      351      352      353 
     359      360      363      364      364      368      369      369 
     371      373      375      375      376      378      378      378 
     378      378      376      373      373      372      369      367 
     365      365      359      352      352      351      345      341 
     338      334      328      325      324      319      317      314 
     310      306      302      298      294      291      288      286 
     282      279      276      275      272      268      265      260 
     257      257      255      252      251      249      251      252 
     249      247      248      251      252      253      255      256 
     257      261      263      264      270      272      275      279 
     283      290      297      301      305      310      314      322 
     329      333      338      345      349      355      360      365 
     372      376      378      384      390      391      398      400 
     399      403      407      407      407      410      411      413 
     413      411      409      407      405      402      399      398 
     394      390      387      386      383      378      372      368 
     364      361      360      353      348      344      338      333 
     328      326      325      322      318      315      313      310 
     310      310      309      309      310      310      314      318 
     319      322      325      325      332      337      336      340 
     348      351      352      357      361      364      369      376 
     379      382      388      394      396      398      400      409 
     413      415      422      429      432      434      441      446 
     450      453      457      461      465      469      472      472 
     477      483      484      486      490      492      495      495 
     495      498      499      498      498      498      495      492 
     491      491      488      484      481      479      475      471 
     467      464      461      454      448      444      440      433 
     429      425      418      414      411      407      402      396 
     388      382      373      367      363      359      351      342 
     336      326      315      306      301      295      284      275 
     268      264      259      248      237      229      224      217 
     210      205      199      195      191      186      180      176 
     174      170      164      163      163      157      155      155 
     153      151      151      149      147      149      152      152 
     152      152      152      155      155      157      160      162 
     166      171      174      175      180      184      187      193 
     197      202      210      217      224      232      238      245 
     252      260      267      275      280      288      299      307 
     315      324      329      337      344      348      359      367 
     369      375      382      384      388      392      396      402 
     405      409      411      413      417      418      419      419 
     419      423      426      426      426      425      425      423 
     422      423      422      419      421      419      414      411 
     409      402      399      396      392      388      384      380 
     378      373      369      368      365      357      356      356 
     353      351      348      345      344      342      340      337 
     337      337      336      338      337      334      333      334 
     332      333      336      336      338      338      337      342 
     345      342      344      345      348      352      355      359 
     361      363      365      369      369      371      373      376 
     380      382      382      386      390      390      390      387 
     386      388      391      388      388      390      386      382 
     380      378      372      369      367      363      359      355 
     351      348      344      336      330      328      324      318 
     314      309      303      299      295      290      286      283 
     279      275      271      268      265      261      257      252 
     249      249      249      245      241      238      237      236 
     234      233      234      234      236      240      241      240 
     243      244      244      245      251      253      257      264 
     268      270      276      282      283      286      292      298 
     301      306      310      315      322      325      325      330 
     337      340      344      348      349      353      359      360 
     360      364      367      367      371      372      372      373 
     373      372      371      369      368      369      365      361 
     364      361      356      352      349      344      338      336 
     336      330      322      317      315      310      305      302 
     299      297      291      288      286      282      276      272 
     270      265      263      259      256      253      251      248 
     244      238      236      234      232      230      229      225 
     224      224      222      221      220      217      217      218 
     220      220      220      220      221      221      221      225 
     229      230      232      236      238      240      244      249 
     251      255      263      265      267      275      283      286 
     290      295      299      303      309      317      322      326 
     334      338      345      352      355      360      368      373 
     378      384      390      395      399      402      406      411 
     415      422      426      429      433      438      442      445 
     448      449      452      456      459      460      461      461 
     463      463      461      460      461      461      460      460 
     459      459      457      454      450      450      450      448 
     445      444      442      440      437      434      430      427 
     426      422      418      415      411      407      405      400 
     395      391      386      382      380      375      368      364 
     361      357      351      346      345      342      338      336 
     334      332      329      328      326      324      318      319 
     319      318      317      317      315      314      311      310 
     310      310      310      310      310      309      306      303 
     303      301      302      303      303      303      303      303 
     303      302      303      305      305      309      311      311 
     314      318      318      318      321      324      328      330 
     333      338      342      345      348      349      349      352 
     355      357      363      365      365      369      371      369 
     371      372      372      373      376      379      378      375 
     376      375      373      372      372      369      368      367 
     363      360      360      357      353      351      348      346 
     344      340      336      333      330      325      324      322 
     318      315      313      307      305      303      299      294 
     291      291      287      284      283      280      276      275 
     274      272      268      265      267      264      263      263 
     260      260      259      257      259      260      257      257 
     257      257      260      261      259      257      261      264 
     265      265      268      272      274      276      279      280 
     282      286      288      290      292      298      302      305 
     307      309      310      311      314      318      321      324 
     329      333      334      337      342      345      346      351 
     355      360      365      368      371      373      376      380 
     384      384      390      392      394      398      399      398 
     402      405      403      403      406      407      407      406 
     403      403      403      399      398      396      392      390 
     390      388      384      379      378      378      373      369 
     369      369      367      363      359      352      348      348 
     345      338      336      332      326      324      319      315 
     310      302      298      294      288      284      283      279 
     274      271      267      264      261      257      256      252 
