Origin Time       2025/01/13 21:19:00
Lat.              31.8
Long.             131.6
Depth. (km)       30
Mag.              6.9
Station Code      ISKH09
Station Lat.      36.2667
Station Long.     136.7168
Station Height(m) 560
Record Time       2025/01/13 21:22:58
Sampling Freq(Hz) 100Hz
Duration Time(s)  120
Dir.              5
Scale Factor      7845(gal)/8223790
Max. Acc. (gal)   0.121
Last Correction   2025/01/13 21:22:59
Memo.             
[...]
   -5224    -5220    -5220    -5220    -5219    -5217    -5216    -5216 
   -5212    -5208    -5204    -5198    -5194    -5192    -5190    -5190 
   -5185    -5179    -5177    -5171    -5166    -5163    -5159    -5155 
   -5155    -5151    -5147    -5146    -5143    -5136    -5134    -5132 
   -5130    -5128    -5128    -5127    -5124    -5124    -5124    -5123 
   -5123    -5123    -5121    -5120    -5119    -5120    -5123    -5123 
   -5120    -5121    -5123    -5123    -5124    -5127    -5130    -5131 
   -5130    -5132    -5135    -5134    -5136    -5139    -5142    -5144 
   -5148    -5148    -5151    -5155    -5158    -5158    -5158    -5161 
   -5162    -5162    -5165    -5166    -5166    -5167    -5170    -5169 
   -5167    -5170    -5169    -5167    -5169    -5170    -5169    -5169 
   -5169    -5167    -5166    -5163    -5163    -5163    -5163    -5162 
   -5162    -5159    -5158    -5159    -5161    -5159    -5159    -5161 
   -5161    -5161    -5165    -5166    -5165    -5165    -5165    -5169 
   -5173    -5171    -5173    -5177    -5179    -5182    -5188    -5189 
   -5189    -5189    -5192    -5196    -5200    -5204    -5205    -5206 
   -5208    -5208    -5209    -5212    -5212    -5212    -5213    -5215 
   -5215    -5215    -5213    -5211    -5212    -5212    -5209    -5211 
   -5209    -5209    -5212    -5211    -5206    -5206    -5208    -5206 
   -5205    -5202    -5202    -5202    -5202    -5201    -5198    -5197 
   -5196    -5194    -5192    -5192    -5193    -5190    -5189    -5186 
   -5182    -5179    -5178    -5175    -5175    -5177    -5177    -5174 
   -5173    -5170    -5167    -5165    -5165    -5165    -5162    -5159 
   -5157    -5155    -5152    -5152    -5151    -5146    -5142    -5143 
   -5140    -5139    -5143    -5143    -5139    -5136    -5135    -5136 
   -5134    -5128    -5127    -5128    -5128    -5130    -5127    -5124 
   -5125    -5124    -5121    -5119    -5116    -5117    -5119    -5120 
   -5120    -5117    -5117    -5119    -5117    -5116    -5119    -5120 
   -5121    -5125    -5130    -5128    -5127    -5128    -5130    -5130 
   -5130    -5132    -5136    -5138    -5139    -5143    -5144    -5143 
   -5144    -5147    -5148    -5151    -5157    -5161    -5165    -5169 
   -5171    -5173    -5173    -5174    -5178    -5181    -5185    -5189 
   -5189    -5193    -5197    -5192    -5190    -5194    -5192    -5190 
   -5192    -5192    -5192    -5193    -5190    -5186    -5186    -5188 
   -5185    -5179    -5178    -5181    -5179    -5175    -5174    -5175 
   -5174    -5171    -5170    -5170    -5173    -5174    -5173    -5171 
   -5171    -5170    -5167    -5167    -5167    -5166    -5165    -5163 
   -5162    -5161    -5159    -5157    -5152    -5148    -5147    -5146 
   -5146    -5146    -5143    -5140    -5140    -5136    -5131    -5130 
   -5128    -5127    -5127    -5123    -5121    -5120    -5117    -5116 
   -5115    -5111    -5108    -5108    -5108    -5108    -5107    -5103 
   -5101    -5100    -5094    -5093    -5096    -5094    -5090    -5090 
   -5090    -5089    -5090    -5088    -5085    -5085    -5084    -5082 
   -5086    -5089    -5092    -5093    -5089    -5089    -5092    -5093 
   -5093    -5093    -5093    -5096    -5097    -5101    -5104    -5103 
   -5103    -5107    -5111    -5112    -5113    -5117    -5119    -5120 
   -5124    -5127    -5127    -5127    -5127    -5130    -5132    -5135 
   -5138    -5139    -5138    -5138    -5143    -5144    -5142    -5144 
   -5150    -5151    -5151    -5154    -5155    -5154    -5155    -5157 
   -5158    -5162    -5163    -5166    -5170    -5170    -5171    -5173 
   -5171    -5170    -5171    -5174    -5175    -5177    -5178    -5177 
   -5177    -5177    -5175    -5177    -5178    -5179    -5181    -5181 
   -5181    -5181    -5178    -5178    -5178    -5178    -5178    -5181 
   -5178    -5178    -5178    -5177    -5174    -5173    -5171    -5169 
   -5166    -5166    -5169    -5169    -5165    -5162    -5162    -5159 
   -5157    -5158    -5157    -5155    -5157    -5158    -5155    -5154 
   -5157    -5158    -5154    -5151    -5154    -5157    -5155    -5151 
   -5151    -5154    -5154    -5152    -5150    -5150    -5151    -5151 
   -5151    -5150    -5151    -5154    -5155    -5154    -5155    -5158 
   -5158    -5159    -5161    -5163    -5163    -5165    -5166    -5166 
   -5166    -5169    -5169    -5169    -5171    -5174    -5173    -5174 
   -5177    -5174    -5171    -5171    -5174    -5173    -5173    -5174 
   -5173    -5171    -5170    -5169    -5167    -5166    -5165    -5165 
   -5167    -5169    -5166    -5167    -5170    -5169    -5165    -5165 
   -5167    -5167    -5166    -5169    -5169    -5169    -5169    -5166 
   -5163    -5163    -5161    -5158    -5161    -5162    -5159    -5157 
   -5155    -5158    -5158    -5155    -5154    -5155    -5154    -5155 
   -5155    -5155    -5155    -5154    -5152    -5154    -5158    -5158 
   -5161    -5165    -5166    -5167    -5169    -5169    -5169    -5171 
   -5173    -5174    -5178    -5181    -5179    -5182    -5186    -5189 
   -5192    -5196    -5197    -5198    -5204    -5209    -5212    -5213 
   -5215    -5219    -5223    -5223    -5228    -5235    -5235    -5235 
   -5239    -5242    -5244    -5244    -5244    -5244    -5246    -5246 
   -5246    -5250    -5250    -5246    -5246    -5246    -5240    -5235 
   -5233    -5233    -5233    -5231    -5228    -5227    -5223    -5219 
   -5216    -5212    -5208    -5204    -5201    -5198    -5196    -5194 
   -5192    -5186    -5182    -5181    -5177    -5173    -5173    -5171 
   -5169    -5167    -5163    -5161    -5158    -5157    -5152    -5148 
   -5147    -5144    -5144    -5142    -5138    -5139    -5139    -5135 
   -5135    -5138    -5136    -5135    -5138    -5138    -5136    -5138 
   -5139    -5139    -5138    -5138    -5136    -5135    -5138    -5139 
   -5139    -5138    -5136    -5138    -5138    -5139    -5142    -5143 
   -5140    -5140    -5138    -5136    -5139    -5138    -5136    -5139 
   -5140    -5138    -5138    -5139    -5138    -5134    -5130    -5131 
   -5130    -5125    -5125    -5128    -5127    -5125    -5125    -5124 
   -5121    -5119    -5119    -5121    -5127    -5128    -5130    -5131 
   -5134    -5135    -5136    -5136    -5140    -5146    -5148    -5154 
   -5159    -5161    -5163    -5166    -5169    -5171    -5174    -5178 
   -5181    -5184    -5186    -5189    -5190    -5192    -5194    -5194 
   -5196    -5197    -5197    -5198    -5200    -5198    -5196    -5194 
   -5194    -5196    -5192    -5188    -5190    -5192    -5189    -5188 
   -5184    -5181    -5181    -5179    -5174    -5173    -5175    -5174 
   -5169    -5167    -5166    -5163    -5161    -5158    -5158    -5157 
   -5159    -5161    -5158    -5157    -5158    -5157    -5158    -5161 
   -5162    -5163    -5167    -5173    -5174    -5175    -5181    -5182 
   -5182    -5186    -5190    -5193    -5198    -5202    -5204    -5206 
   -5206    -5209    -5211    -5211    -5212    -5216    -5217    -5217 
   -5221    -5221    -5220    -5220    -5219    -5217    -5216    -5217 
   -5219    -5216    -5215    -5216    -5213    -5211    -5211    -5209 
   -5204    -5204    -5205    -5204    -5198    -5196    -5194    -5189 
   -5186    -5188    -5186    -5182    -5179    -5179    -5177    -5171 
   -5170    -5169    -5165    -5159    -5159    -5159    -5157    -5154 
   -5154    -5155    -5154    -5150    -5146    -5147    -5148    -5148 
   -5148    -5148    -5150    -5154    -5151    -5148    -5151    -5154 
   -5157    -5157    -5159    -5162    -5162    -5162    -5165    -5163 
   -5161    -5159    -5159    -5161    -5159    -5159    -5159    -5159 
   -5158    -5154    -5148    -5146    -5144    -5140    -5136    -5134 
   -5130    -5125    -5120    -5113    -5109    -5108    -5107    -5103 
   -5097    -5094    -5093    -5089    -5085    -5084    -5080    -5077 
   -5076    -5074    -5073    -5069    -5067    -5066    -5065    -5063 
   -5059    -5059    -5059    -5058    -5058    -5059    -5058    -5055 
   -5055    -5058    -5059    -5058    -5059    -5061    -5061    -5065 
   -5069    -5066    -5066    -5070    -5071    -5074    -5080    -5085 
   -5088    -5093    -5097    -5101    -5104    -5107    -5112    -5120 
   -5124    -5128    -5135    -5142    -5148    -5154    -5157    -5159 
   -5166    -5173    -5177    -5179    -5185    -5194    -5197    -5197 
   -5200    -5202    -5204    -5206    -5209    -5213    -5216    -5217 
   -5216    -5215    -5216    -5217    -5217    -5216    -5217    -5220 
   -5220    -5220    -5221    -5221    -5221    -5220    -5219    -5219 
   -5219    -5221    -5221    -5221    -5220    -5220    -5220    -5217 
   -5213    -5213    -5215    -5215    -5215    -5215    -5215    -5213 
   -5212    -5211    -5209    -5208    -5208    -5209    -5208    -5206 
   -5209    -5211    -5205    -5202    -5202    -5201    -5204    -5204 
   -5202    -5202    -5202    -5200    -5197    -5196    -5196    -5197 
   -5197    -5197    -5197    -5197    -5198    -5201    -5200    -5200 
   -5198    -5201    -5202    -5202    -5204    -5205    -5205    -5206 
   -5208    -5208    -5206    -5205    -5205    -5208    -5208    -5208 
   -5209    -5209    -5208    -5208    -5205    -5205    -5208    -5206 
   -5205    -5205    -5205    -5205    -5204    -5202    -5201    -5198 
   -5200    -5201    -5198    -5197    -5198    -5196    -5190    -5190 
   -5190    -5186    -5185    -5185    -5181    -5178    -5175    -5170 
   -5165    -5161    -5155    -5148    -5146    -5142    -5138    -5135 
   -5130    -5124    -5120    -5117    -5111    -5107    -5108    -5104 
   -5098    -5097    -5097    -5094    -5092    -5089    -5088    -5084 
   -5084    -5086    -5084    -5082    -5084    -5085    -5086    -5085 
   -5084    -5084    -5086    -5089    -5089    -5089    -5089    -5090 
   -5092    -5089    -5088    -5089    -5090    -5088    -5088    -5090 
   -5090    -5090    -5089    -5089    -5093    -5092    -5089    -5094 
   -5097    -5097    -5098    -5100    -5100    -5100    -5101    -5105 
   -5104    -5108    -5113    -5113    -5111    -5113    -5115    -5117 
   -5120    -5121    -5124    -5125    -5127    -5130    -5134    -5136 
   -5138    -5140    -5146    -5150    -5154    -5155    -5158    -5163 
   -5169    -5171    -5177    -5181    -5184    -5188    -5190    -5192 
   -5196    -5201    -5204    -5204    -5204    -5205    -5208    -5211 
   -5212    -5212    -5215    -5216    -5215    -5216    -5217    -5213 
   -5212    -5212    -5211    -5209    -5209    -5209    -5208    -5205 
   -5205    -5201    -5198    -5198    -5196    -5197    -5196    -5190 
   -5190    -5192    -5188    -5185    -5186    -5185    -5182    -5184 
   -5184    -5179    -5184    -5186    -5182    -5181    -5179    -5177 
   -5178    -5179    -5177    -5174    -5175    -5175    -5171    -5170 
   -5166    -5162    -5161    -5159    -5155    -5152    -5154    -5155 
   -5151    -5148    -5148    -5147    -5146    -5144    -5147    -5150 
   -5150    -5150    -5148    -5147    -5148    -5148    -5148    -5152 
   -5154    -5155    -5159    -5159    -5157    -5161    -5159    -5158 
   -5162    -5161    -5158    -5162    -5165    -5165    -5163    -5162 
   -5161    -5162    -5161    -5161    -5163    -5163    -5163    -5165 
   -5163    -5162    -5162    -5159    -5159    -5163    -5165    -5162 
   -5163    -5165    -5161    -5161    -5161    -5161    -5161    -5163 
   -5165    -5165    -5166    -5163    -5161    -5159    -5159    -5159 
   -5157    -5155    -5157    -5157    -5152    -5150    -5150    -5144 
   -5139    -5138    -5138    -5136    -5134    -5132    -5131    -5128 
   -5125    -5121    -5117    -5119    -5116    -5112    -5113    -5113 
   -5109    -5108    -5105    -5103    -5104    -5103    -5100    -5101 
   -5101    -5097    -5097    -5098    -5094    -5088    -5089    -5090 
   -5088    -5088    -5088    -5088    -5088    -5088    -5086    -5086 
   -5085    -5084    -5084    -5085    -5086    -5088    -5088    -5088 
   -5088    -5088    -5090    -5092    -5094    -5098    -5101    -5101 
   -5103    -5107    -5111    -5115    -5117    -5123    -5128    -5132 
   -5139    -5146    -5152    -5157    -5162    -5169    -5175    -5181 
   -5188    -5196    -5204    -5209    -5215    -5220    -5227    -5231 
   -5235    -5240    -5247    -5251    -5254    -5258    -5262    -5262 
   -5259    -5262    -5265    -5266    -5266    -5267    -5269    -5267 
   -5267    -5269    -5266    -5262    -5258    -5255    -5254    -5251 
   -5250    -5248    -5244    -5240    -5236    -5231    -5227    -5224 
   -5220    -5216    -5212    -5209    -5205    -5198    -5193    -5190 
   -5185    -5178    -5173    -5173    -5171    -5169    -5165    -5159 
   -5155    -5154    -5151    -5150    -5147    -5147    -5148    -5150 
   -5151    -5152    -5148    -5147    -5150    -5152    -5152    -5154 
   -5158    -5161    -5163    -5166    -5169    -5171    -5173    -5173 
   -5175    -5179    -5184    -5185    -5186    -5189    -5190    -5189 
   -5192    -5196    -5197    -5196    -5197    -5202    -5201    -5200 
   -5202    -5202    -5201    -5204    -5205    -5205    -5209    -5212 
   -5212    -5216    -5219    -5219    -5219    -5223    -5228    -5228 
   -5229    -5233    -5238    -5240    -5243    -5244    -5246    -5247 
   -5250    -5256    -5259    -5262    -5266    -5269    -5269    -5269 
   -5273    -5275    -5278    -5283    -5287    -5287    -5287    -5287 
   -5289    -5290    -5290    -5290    -5292    -5296    -5296    -5297 
   -5296    -5294    -5293    -5292    -5287    -5283    -5281    -5278 
   -5274    -5271    -5269    -5260    -5251    -5247    -5243    -5233 
   -5227    -5221    -5215    -5206    -5200    -5194    -5186    -5178 
   -5171    -5163    -5154    -5148    -5144    -5140    -5135    -5131 
   -5124    -5116    -5111    -5105    -5103    -5101    -5098    -5097 
   -5094    -5092    -5089    -5086    -5084    -5085    -5086    -5086 
   -5089    -5092    -5092    -5092    -5092    -5094    -5097    -5100 
   -5104    -5108    -5111    -5115    -5120    -5121    -5125    -5131 
   -5135    -5139    -5142    -5146    -5151    -5159    -5165    -5167 
   -5171    -5177    -5178    -5181    -5186    -5192    -5194    -5197 
   -5202    -5206    -5205    -5206    -5212    -5213    -5213    -5217 
   -5217    -5215    -5219    -5219    -5215    -5215    -5216    -5215 
   -5215    -5216    -5212    -5211    -5215    -5215    -5213    -5211 
   -5208    -5206    -5206    -5204    -5201    -5202    -5205    -5204 
   -5200    -5197    -5197    -5193    -5193    -5196    -5194    -5193 
   -5194    -5193    -5188    -5189    -5193    -5190    -5186    -5189 
   -5192    -5192    -5192    -5192    -5190    -5190    -5190    -5190 
   -5190    -5190    -5193    -5193    -5194    -5194    -5190    -5190 
   -5192    -5192    -5188    -5189    -5193    -5193    -5192    -5192 
   -5190    -5188    -5188    -5188    -5188    -5188    -5186    -5186 
   -5185    -5185    -5184    -5182    -5179    -5177    -5177    -5177 
   -5177    -5177    -5177    -5174    -5173    -5173    -5171    -5171 
   -5173    -5174    -5175    -5174    -5174    -5178    -5181    -5181 
   -5179    -5181    -5184    -5186    -5190    -5193    -5196    -5196 
   -5196    -5196    -5196    -5197    -5198    -5198    -5198    -5200 
   -5198    -5197    -5194    -5194    -5196    -5194    -5192    -5192 
   -5192    -5189    -5188    -5185    -5182    -5184    -5181    -5178 
   -5177    -5175    -5173    -5173    -5174    -5171    -5166    -5165 
   -5163    -5161    -5161    -5162    -5161    -5158    -5155    -5154 
   -5151    -5148    -5146    -5144    -5140    -5138    -5138    -5139 
   -5132    -5127    -5124    -5120    -5117    -5113    -5108    -5109 
   -5109    -5105    -5104    -5104    -5100    -5096    -5096    -5096 
   -5094    -5093    -5092    -5092    -5094    -5094    -5093    -5092 
   -5093    -5094    -5094    -5096    -5103    -5105    -5107    -5108 
   -5109    -5113    -5116    -5119    -5123    -5125    -5130    -5134 
   -5136    -5138    -5143    -5146    -5147    -5150    -5152    -5155 
   -5159    -5163    -5169    -5170    -5169    -5171    -5175    -5178 
   -5181    -5185    -5186    -5192    -5197    -5196    -5198    -5202 
   -5205    -5206    -5211    -5212    -5212    -5215    -5219    -5220 
   -5220    -5220    -5220    -5220    -5220    -5219    -5220    -5223 
   -5221    -5219    -5220    -5219    -5215    -5215    -5216    -5213 
   -5209    -5212    -5212    -5206    -5204    -5202    -5198    -5197 
   -5197    -5194    -5192    -5192    -5188    -5185    -5184    -5179 
   -5179    -5175    -5171    -5171    -5170    -5166    -5162    -5159 
   -5155    -5151    -5150    -5146    -5143    -5143    -5139    -5134 
   -5132    -5128    -5123    -5119    -5116    -5113    -5111    -5108 
   -5105    -5103    -5103    -5100    -5096    -5096    -5096    -5094 
   -5094    -5096    -5098    -5100    -5101    -5103    -5103    -5104 
   -5108    -5109    -5113    -5119    -5123    -5124    -5130    -5134 
   -5138    -5142    -5146    -5150    -5157    -5162    -5167    -5173 
   -5177    -5182    -5186    -5189    -5193    -5198    -5204    -5205 
   -5209    -5213    -5215    -5217    -5220    -5223    -5224    -5227 
   -5228    -5229    -5232    -5235    -5235    -5235    -5239    -5240 
   -5238    -5239    -5239    -5240    -5243    -5243    -5242    -5242 
   -5240    -5239    -5238    -5239    -5240    -5239    -5236    -5235 
   -5231    -5228    -5227    -5223    -5221    -5221    -5220    -5216 
   -5213    -5211    -5206    -5204    -5198    -5194    -5192    -5189 
   -5186    -5184    -5182    -5181    -5178    -5177    -5174    -5171 
   -5170    -5167    -5166    -5166    -5165    -5165    -5166    -5163 
   -5161    -5161    -5161    -5161    -5162    -5165    -5166    -5167 
   -5166    -5166    -5167    -5167    -5166    -5166    -5170    -5174 
   -5175    -5178    -5181    -5185    -5186    -5185    -5186    -5193 
   -5194    -5196    -5200    -5202    -5204    -5208    -5211    -5211 
   -5212    -5213    -5215    -5217    -5220    -5220    -5223    -5221 
   -5216    -5219    -5220    -5219    -5220    -5220    -5219    -5219 
   -5219    -5217    -5216    -5216    -5215    -5213    -5213    -5215 
   -5217    -5220    -5220    -5221    -5221    -5219    -5219    -5223 
   -5224    -5223    -5224    -5229    -5229    -5228    -5228    -5229 
   -5228    -5231    -5231    -5232    -5236    -5239    -5239    -5236 
   -5239    -5242    -5239    -5239    -5242    -5242    -5242    -5246 
   -5247    -5244    -5243    -5240    -5238    -5238    -5236    -5236 
   -5233    -5231    -5229    -5227    -5223    -5219    -5219    -5215 
   -5208    -5205    -5204    -5196    -5192    -5188    -5182    -5175 
   -5169    -5165    -5161    -5155    -5151    -5147    -5143    -5135 
   -5128    -5121    -5116    -5113    -5108    -5104    -5103    -5098 
   -5094    -5092    -5088    -5085    -5082    -5080    -5080    -5080 
   -5078    -5077    -5076    -5077    -5078    -5078    -5080    -5081 
   -5081    -5085    -5089    -5090    -5093    -5096    -5098    -5103 
   -5107    -5111    -5116    -5121    -5127    -5132    -5136    -5142 
   -5147    -5151    -5155    -5162    -5170    -5175    -5181    -5185 
