Origin Time       2025/01/13 21:19:00
Lat.              31.8
Long.             131.6
Depth. (km)       30
Mag.              6.9
Station Code      ISKH09
Station Lat.      36.2667
Station Long.     136.7168
Station Height(m) 454.5
Record Time       2025/01/13 21:22:58
Sampling Freq(Hz) 100Hz
Duration Time(s)  120
Dir.              3
Scale Factor      2942(gal)/8224139
Max. Acc. (gal)   0.146
Last Correction   2025/01/13 21:22:59
Memo.             
[...]
 -243999  -244003  -244005  -244007  -244009  -244011  -244015  -244020 
 -244023  -244027  -244030  -244030  -244032  -244035  -244039  -244043 
 -244044  -244046  -244050  -244053  -244055  -244055  -244055  -244057 
 -244059  -244061  -244061  -244062  -244062  -244061  -244061  -244062 
 -244059  -244059  -244062  -244061  -244058  -244057  -244055  -244054 
 -244054  -244054  -244054  -244051  -244048  -244047  -244047  -244047 
 -244050  -244048  -244044  -244044  -244044  -244047  -244047  -244044 
 -244043  -244043  -244043  -244043  -244042  -244038  -244038  -244036 
 -244034  -244032  -244031  -244028  -244026  -244023  -244019  -244016 
 -244013  -244009  -244007  -244004  -244000  -243997  -243994  -243992 
 -243988  -243984  -243981  -243981  -243980  -243974  -243970  -243970 
 -243967  -243963  -243965  -243963  -243961  -243958  -243955  -243953 
 -243953  -243951  -243950  -243951  -243951  -243950  -243946  -243945 
 -243943  -243945  -243946  -243943  -243942  -243943  -243947  -243949 
 -243949  -243950  -243954  -243954  -243953  -243957  -243959  -243961 
 -243963  -243966  -243969  -243972  -243976  -243982  -243985  -243988 
 -243994  -244000  -244003  -244005  -244012  -244019  -244023  -244030 
 -244035  -244039  -244046  -244051  -244054  -244059  -244065  -244067 
 -244071  -244078  -244082  -244085  -244088  -244089  -244092  -244096 
 -244100  -244100  -244100  -244101  -244104  -244104  -244108  -244111 
 -244109  -244109  -244112  -244113  -244113  -244113  -244115  -244116 
 -244116  -244117  -244117  -244119  -244117  -244117  -244121  -244121 
 -244121  -244121  -244123  -244123  -244120  -244120  -244123  -244123 
 -244121  -244121  -244121  -244121  -244121  -244124  -244124  -244123 
 -244120  -244120  -244116  -244115  -244115  -244112  -244113  -244112 
 -244108  -244107  -244104  -244100  -244098  -244093  -244090  -244088 
 -244085  -244081  -244077  -244071  -244066  -244062  -244058  -244055 
 -244051  -244048  -244044  -244042  -244038  -244032  -244031  -244028 
 -244023  -244020  -244017  -244013  -244012  -244009  -244005  -244005 
 -244001  -243997  -243997  -243994  -243990  -243990  -243990  -243989 
 -243984  -243981  -243978  -243977  -243977  -243977  -243976  -243974 
 -243970  -243967  -243966  -243963  -243963  -243963  -243962  -243961 
 -243962  -243963  -243965  -243963  -243963  -243966  -243969  -243967 
 -243969  -243974  -243978  -243980  -243984  -243988  -243988  -243990 
 -243997  -244001  -244001  -244003  -244005  -244009  -244012  -244015 
 -244019  -244020  -244023  -244026  -244028  -244031  -244031  -244031 
 -244035  -244038  -244039  -244036  -244036  -244040  -244042  -244040 
 -244042  -244042  -244042  -244042  -244040  -244038  -244036  -244036 
 -244036  -244035  -244032  -244028  -244026  -244024  -244023  -244020 
 -244017  -244012  -244008  -244004  -244001  -244003  -244000  -243990 
 -243985  -243982  -243982  -243980  -243974  -243970  -243969  -243965 
 -243963  -243962  -243959  -243959  -243959  -243959  -243958  -243957 
 -243958  -243961  -243962  -243961  -243959  -243959  -243962  -243965 
 -243965  -243966  -243969  -243972  -243973  -243977  -243978  -243980 
 -243982  -243986  -243989  -243990  -243993  -243997  -243999  -244000 
 -244004  -244005  -244003  -244005  -244011  -244011  -244011  -244013 
 -244015  -244013  -244012  -244015  -244016  -244016  -244013  -244015 
 -244019  -244016  -244013  -244012  -244011  -244011  -244009  -244005 
 -244003  -244003  -244003  -244000  -243999  -243999  -243996  -243993 
 -243989  -243986  -243984  -243978  -243974  -243976  -243973  -243967 
 -243965  -243962  -243957  -243953  -243950  -243945  -243938  -243934 
 -243928  -243923  -243919  -243913  -243909  -243904  -243900  -243895 
 -243888  -243884  -243882  -243877  -243872  -243870  -243870  -243869 
 -243868  -243866  -243861  -243859  -243862  -243864  -243862  -243865 
 -243865  -243864  -243866  -243872  -243873  -243873  -243876  -243881 
 -243888  -243889  -243895  -243901  -243907  -243911  -243919  -243924 
 -243928  -243935  -243945  -243953  -243958  -243965  -243976  -243985 
 -243990  -243999  -244009  -244017  -244026  -244034  -244042  -244050 
 -244057  -244062  -244070  -244077  -244078  -244084  -244092  -244096 
 -244100  -244105  -244108  -244109  -244113  -244116  -244117  -244119 
 -244123  -244124  -244124  -244124  -244127  -244128  -244128  -244127 
 -244125  -244128  -244127  -244123  -244124  -244123  -244116  -244115 
 -244116  -244113  -244108  -244107  -244105  -244101  -244097  -244094 
 -244093  -244089  -244085  -244080  -244074  -244070  -244069  -244066 
 -244062  -244057  -244051  -244046  -244042  -244040  -244036  -244030 
 -244028  -244026  -244017  -244015  -244012  -244007  -244004  -244004 
 -244001  -243997  -243994  -243993  -243993  -243990  -243989  -243989 
 -243986  -243985  -243988  -243988  -243990  -243996  -243996  -243996 
 -244000  -244001  -244005  -244009  -244009  -244011  -244017  -244020 
 -244024  -244027  -244030  -244035  -244040  -244046  -244054  -244057 
 -244058  -244065  -244073  -244075  -244077  -244082  -244088  -244089 
 -244090  -244097  -244104  -244107  -244107  -244112  -244117  -244117 
 -244120  -244124  -244127  -244129  -244131  -244132  -244135  -244139 
 -244140  -244142  -244142  -244144  -244146  -244144  -244147  -244150 
 -244150  -244150  -244150  -244147  -244147  -244151  -244150  -244147 
 -244147  -244147  -244144  -244144  -244143  -244142  -244140  -244139 
 -244136  -244135  -244134  -244131  -244128  -244127  -244123  -244121 
 -244121  -244119  -244115  -244115  -244116  -244112  -244108  -244108 
 -244109  -244107  -244104  -244102  -244101  -244101  -244100  -244098 
 -244096  -244096  -244096  -244093  -244090  -244089  -244086  -244085 
 -244082  -244077  -244073  -244070  -244065  -244059  -244054  -244048 
 -244043  -244038  -244031  -244024  -244019  -244011  -244004  -243999 
 -243988  -243980  -243976  -243967  -243959  -243951  -243943  -243935 
 -243926  -243916  -243911  -243907  -243896  -243888  -243885  -243881 
 -243872  -243868  -243866  -243859  -243853  -243851  -243849  -243846 
 -243847  -243849  -243846  -243845  -243843  -243845  -243846  -243849 
 -243850  -243853  -243857  -243859  -243862  -243865  -243870  -243874 
 -243877  -243884  -243891  -243892  -243897  -243905  -243905  -243909 
 -243915  -243919  -243923  -243924  -243928  -243932  -243935  -243938 
 -243945  -243949  -243949  -243951  -243957  -243958  -243959  -243963 
 -243966  -243969  -243973  -243976  -243977  -243981  -243986  -243990 
 -243990  -243994  -243999  -244001  -244003  -244007  -244011  -244011 
 -244013  -244016  -244020  -244024  -244028  -244030  -244031  -244035 
 -244035  -244038  -244040  -244040  -244040  -244042  -244042  -244043 
 -244047  -244048  -244047  -244048  -244048  -244050  -244050  -244050 
 -244048  -244048  -244050  -244051  -244050  -244050  -244051  -244054 
 -244055  -244055  -244057  -244057  -244059  -244061  -244062  -244065 
 -244069  -244071  -244074  -244075  -244077  -244081  -244082  -244084 
 -244089  -244090  -244089  -244090  -244097  -244098  -244098  -244098 
 -244098  -244098  -244098  -244100  -244100  -244101  -244102  -244101 
 -244100  -244100  -244100  -244100  -244098  -244101  -244104  -244102 
 -244102  -244104  -244102  -244104  -244108  -244108  -244107  -244111 
 -244112  -244113  -244116  -244117  -244119  -244123  -244125  -244128 
 -244131  -244135  -244138  -244138  -244140  -244143  -244144  -244146 
 -244147  -244147  -244147  -244146  -244147  -244147  -244146  -244144 
 -244140  -244136  -244132  -244129  -244127  -244124  -244117  -244112 
 -244107  -244100  -244093  -244088  -244080  -244070  -244061  -244054 
 -244046  -244035  -244027  -244019  -244005  -243994  -243986  -243977 
 -243965  -243953  -243943  -243934  -243922  -243909  -243900  -243886 
 -243874  -243864  -243853  -243843  -243834  -243822  -243814  -243804 
 -243793  -243787  -243780  -243772  -243765  -243757  -243751  -243746 
 -243738  -243733  -243729  -243724  -243722  -243719  -243716  -243716 
 -243715  -243715  -243715  -243715  -243716  -243719  -243722  -243724 
 -243730  -243738  -243745  -243749  -243758  -243768  -243774  -243783 
 -243792  -243800  -243815  -243828  -243837  -243850  -243865  -243877 
 -243891  -243905  -243919  -243934  -243949  -243962  -243976  -243990 
 -244003  -244016  -244030  -244043  -244057  -244070  -244082  -244093 
 -244104  -244115  -244124  -244134  -244142  -244148  -244155  -244163 
 -244169  -244170  -244173  -244177  -244181  -244183  -244185  -244183 
 -244182  -244183  -244182  -244179  -244179  -244175  -244169  -244166 
 -244162  -244154  -244148  -244144  -244139  -244132  -244123  -244112 
 -244104  -244097  -244090  -244081  -244071  -244063  -244054  -244043 
 -244036  -244031  -244021  -244011  -244005  -243997  -243986  -243981 
 -243976  -243966  -243958  -243951  -243949  -243945  -243939  -243935 
 -243932  -243928  -243926  -243926  -243930  -243931  -243930  -243931 
 -243932  -243938  -243945  -243947  -243951  -243958  -243966  -243973 
 -243980  -243989  -244001  -244011  -244021  -244032  -244042  -244054 
 -244067  -244081  -244094  -244107  -244119  -244132  -244146  -244158 
 -244173  -244186  -244198  -244210  -244223  -244236  -244247  -244256 
 -244266  -244277  -244286  -244294  -244304  -244308  -244312  -244320 
 -244324  -244323  -244327  -244331  -244329  -244329  -244329  -244324 
 -244320  -244320  -244316  -244309  -244300  -244293  -244289  -244281 
 -244270  -244259  -244251  -244242  -244229  -244216  -244204  -244192 
 -244179  -244167  -244152  -244139  -244123  -244108  -244094  -244081 
 -244066  -244048  -244032  -244017  -244004  -243988  -243970  -243958 
 -243945  -243928  -243913  -243900  -243885  -243873  -243859  -243845 
 -243832  -243820  -243811  -243800  -243788  -243780  -243769  -243760 
 -243757  -243751  -243745  -243738  -243733  -243729  -243724  -243723 
 -243722  -243720  -243722  -243724  -243723  -243724  -243727  -243730 
 -243735  -243741  -243747  -243754  -243761  -243768  -243776  -243787 
 -243796  -243805  -243819  -243832  -243842  -243854  -243870  -243884 
 -243895  -243909  -243924  -243938  -243953  -243966  -243981  -243996 
 -244009  -244024  -244039  -244053  -244063  -244078  -244093  -244105 
 -244116  -244131  -244144  -244154  -244165  -244178  -244189  -244200 
 -244210  -244219  -244228  -244235  -244243  -244252  -244256  -244259 
 -244269  -244274  -244274  -244278  -244285  -244287  -244289  -244291 
 -244293  -244294  -244294  -244291  -244287  -244283  -244283  -244281 
 -244275  -244271  -244266  -244260  -244255  -244251  -244244  -244236 
 -244231  -244220  -244210  -244204  -244198  -244188  -244175  -244165 
 -244155  -244147  -244138  -244125  -244119  -244112  -244102  -244093 
 -244086  -244078  -244070  -244063  -244059  -244053  -244044  -244039 
 -244038  -244034  -244026  -244020  -244020  -244017  -244013  -244013 
 -244012  -244007  -244007  -244009  -244008  -244008  -244008  -244007 
 -244009  -244013  -244013  -244013  -244017  -244024  -244026  -244026 
 -244028  -244031  -244034  -244039  -244043  -244044  -244047  -244051 
 -244054  -244057  -244061  -244063  -244065  -244067  -244069  -244073 
 -244077  -244078  -244080  -244082  -244084  -244085  -244089  -244092 
 -244092  -244094  -244096  -244096  -244097  -244097  -244096  -244097 
 -244100  -244100  -244096  -244094  -244096  -244096  -244094  -244092 
 -244088  -244085  -244081  -244077  -244074  -244071  -244066  -244059 
 -244055  -244053  -244046  -244036  -244031  -244026  -244017  -244011 
 -244001  -243994  -243989  -243978  -243969  -243965  -243955  -243945 
 -243938  -243930  -243919  -243909  -243899  -243888  -243880  -243870 
 -243859  -243851  -243845  -243831  -243822  -243818  -243808  -243796 
 -243789  -243784  -243776  -243770  -243769  -243766  -243761  -243758 
 -243758  -243757  -243757  -243756  -243757  -243762  -243768  -243772 
 -243776  -243783  -243788  -243795  -243808  -243818  -243824  -243835 
 -243847  -243857  -243865  -243878  -243892  -243904  -243916  -243930 
 -243943  -243955  -243967  -243977  -243989  -244005  -244016  -244024 
 -244035  -244044  -244055  -244066  -244075  -244086  -244093  -244100 
 -244111  -244116  -244120  -244127  -244132  -244139  -244143  -244144 
 -244146  -244148  -244150  -244151  -244154  -244152  -244152  -244152 
 -244150  -244146  -244142  -244142  -244140  -244132  -244128  -244127 
 -244120  -244113  -244109  -244102  -244094  -244086  -244077  -244067 
 -244062  -244054  -244043  -244032  -244023  -244015  -244003  -243989 
 -243978  -243967  -243954  -243943  -243931  -243918  -243904  -243895 
 -243882  -243872  -243859  -243851  -243843  -243831  -243819  -243811 
 -243801  -243791  -243781  -243776  -243768  -243760  -243753  -243749 
 -243742  -243737  -243733  -243730  -243727  -243724  -243724  -243724 
 -243723  -243723  -243727  -243730  -243731  -243737  -243741  -243746 
 -243753  -243760  -243765  -243772  -243783  -243793  -243804  -243816 
 -243828  -243839  -243853  -243866  -243878  -243896  -243912  -243928 
 -243946  -243963  -243980  -243996  -244013  -244031  -244050  -244067 
 -244085  -244102  -244123  -244142  -244161  -244179  -244198  -244215 
 -244231  -244248  -244263  -244279  -244296  -244308  -244321  -244335 
 -244348  -244362  -244374  -244382  -244389  -244397  -244406  -244412 
 -244416  -244420  -244424  -244425  -244426  -244428  -244424  -244417 
 -244414  -244414  -244408  -244398  -244390  -244382  -244372  -244362 
 -244350  -244337  -244324  -244310  -244294  -244278  -244263  -244247 
 -244232  -244216  -244197  -244177  -244165  -244150  -244131  -244115 
 -244098  -244081  -244066  -244054  -244040  -244027  -244015  -244003 
 -243989  -243980  -243972  -243961  -243951  -243946  -243942  -243935 
 -243931  -243927  -243919  -243912  -243915  -243916  -243913  -243912 
 -243913  -243913  -243916  -243916  -243915  -243919  -243924  -243927 
 -243932  -243935  -243938  -243946  -243953  -243957  -243963  -243970 
 -243973  -243977  -243986  -243993  -243996  -244003  -244009  -244013 
 -244019  -244026  -244031  -244038  -244043  -244050  -244054  -244058 
 -244063  -244067  -244071  -244077  -244081  -244085  -244088  -244093 
 -244097  -244097  -244100  -244104  -244105  -244105  -244104  -244105 
 -244105  -244102  -244097  -244097  -244097  -244093  -244089  -244088 
 -244085  -244081  -244077  -244073  -244067  -244065  -244061  -244058 
 -244051  -244044  -244043  -244042  -244036  -244031  -244028  -244024 
 -244020  -244021  -244020  -244015  -244013  -244016  -244013  -244012 
 -244013  -244015  -244017  -244016  -244015  -244019  -244021  -244019 
 -244021  -244028  -244028  -244028  -244034  -244035  -244035  -244036 
 -244038  -244039  -244042  -244043  -244044  -244046  -244046  -244044 
 -244048  -244048  -244048  -244050  -244051  -244051  -244055  -244055 
 -244053  -244055  -244057  -244058  -244062  -244062  -244062  -244063 
 -244063  -244065  -244067  -244069  -244071  -244073  -244075  -244077 
 -244075  -244073  -244074  -244077  -244075  -244073  -244073  -244071 
 -244071  -244071  -244067  -244065  -244063  -244059  -244057  -244054 
 -244051  -244047  -244043  -244038  -244032  -244030  -244024  -244017 
 -244012  -244007  -244003  -243997  -243990  -243985  -243980  -243973 
 -243965  -243958  -243951  -243947  -243943  -243936  -243931  -243927 
 -243922  -243916  -243912  -243909  -243907  -243901  -243895  -243891 
 -243888  -243882  -243880  -243880  -243877  -243873  -243872  -243869 
 -243865  -243862  -243857  -243854  -243854  -243851  -243850  -243849 
 -243845  -243841  -243838  -243837  -243835  -243834  -243834  -243832 
 -243830  -243831  -243830  -243830  -243828  -243827  -243827  -243828 
 -243828  -243828  -243830  -243832  -243832  -243832  -243835  -243837 
 -243837  -243837  -243839  -243842  -243843  -243845  -243847  -243851 
 -243854  -243855  -243858  -243864  -243865  -243869  -243873  -243877 
 -243881  -243885  -243891  -243897  -243901  -243907  -243913  -243919 
 -243923  -243931  -243939  -243945  -243950  -243958  -243967  -243978 
 -243986  -243992  -244000  -244008  -244016  -244027  -244039  -244047 
 -244057  -244067  -244077  -244085  -244093  -244101  -244112  -244123 
 -244129  -244135  -244144  -244155  -244162  -244166  -244174  -244182 
 -244189  -244196  -244200  -244202  -244208  -244212  -244215  -244216 
 -244217  -244220  -244223  -244223  -244223  -244223  -244220  -244219 
 -244217  -244215  -244212  -244209  -244205  -244201  -244196  -244192 
 -244188  -244183  -244177  -244169  -244163  -244159  -244154  -244147 
 -244142  -244135  -244128  -244123  -244117  -244109  -244102  -244098 
 -244093  -244085  -244080  -244073  -244065  -244057  -244051  -244046 
 -244039  -244034  -244027  -244019  -244012  -244008  -244004  -243999 
 -243990  -243985  -243980  -243976  -243970  -243963  -243957  -243951 
 -243950  -243942  -243934  -243934  -243928  -243919  -243918  -243916 
 -243908  -243905  -243903  -243897  -243893  -243891  -243888  -243884 
 -243881  -243882  -243880  -243876  -243877  -243878  -243876  -243874 
 -243876  -243876  -243877  -243877  -243878  -243881  -243882  -243882 
 -243888  -243891  -243889  -243893  -243897  -243897  -243901  -243905 
 -243907  -243909  -243915  -243918  -243920  -243926  -243927  -243927 
 -243931  -243936  -243938  -243940  -243946  -243951  -243955  -243958 
 -243958  -243962  -243969  -243972  -243972  -243977  -243982  -243985 
 -243986  -243992  -243999  -244001  -244001  -244007  -244011  -244015 
 -244017  -244021  -244024  -244027  -244032  -244034  -244036  -244042 
 -244044  -244047  -244051  -244054  -244058  -244059  -244058  -244061 
 -244065  -244065  -244066  -244069  -244069  -244071  -244075  -244075 
 -244075  -244077  -244075  -244074  -244075  -244077  -244077  -244078 
 -244080  -244080  -244080  -244078  -244081  -244081  -244081  -244082 
 -244085  -244088  -244088  -244089  -244094  -244097  -244097  -244096 
 -244098  -244102  -244107  -244109  -244111  -244113  -244116  -244116 
 -244119  -244124  -244123  -244125  -244129  -244131  -244132  -244134 
 -244132  -244138  -244140  -244142  -244146  -244147  -244146  -244147 
 -244147  -244148  -244151  -244152  -244154  -244152  -244152  -244155 
 -244154  -244151  -244154  -244154  -244151  -244148  -244147  -244146 
 -244144  -244144  -244143  -244136  -244129  -244128  -244127  -244121 
 -244115  -244109  -244105  -244100  -244094  -244088  -244081  -244074 
 -244067  -244061  -244051  -244040  -244035  -244027  -244013  -244004 
 -243997  -243986  -243974  -243963  -243953  -243945  -243934  -243922 
 -243911  -243901  -243891  -243880  -243870  -243861  -243853  -243845 
 -243837  -243827  -243818  -243814  -243810  -243803  -243796  -243791 
 -243788  -243787  -243784  -243780  -243780  -243780  -243778  -243780 
 -243784  -243787  -243791  -243795  -243797  -243800  -243808  -243818 
 -243822  -243827  -243838  -243846  -243853  -243865  -243874  -243882 
 -243893  -243905  -243918  -243931  -243939  -243947  -243962  -243976 
 -243984  -243994  -244007  -244017  -244030  -244042  -244053  -244065 
 -244077  -244085  -244094  -244107  -244115  -244125  -244135  -244143 
