Origin Time       2025/01/13 21:19:00
Lat.              31.8
Long.             131.6
Depth. (km)       30
Mag.              6.9
Station Code      KGSH02
Station Lat.      31.9940
Station Long.     130.2077
Station Height(m) -161.238
Record Time       2025/01/13 21:19:53
Sampling Freq(Hz) 100Hz
Duration Time(s)  206
Dir.              3
Scale Factor      2940(gal)/6170270
Max. Acc. (gal)   2.343
Last Correction   2025/01/13 21:19:38
Memo.             
[...]
    8596     8622     8614     8581     8540     8507     8495     8511 
    8545     8589     8634     8659     8657     8645     8631     8603 
    8556     8485     8397     8305     8211     8112     8011     7924 
    7872     7863     7898     7967     8055     8159     8272     8382 
    8485     8587     8693     8795     8888     8972     9045     9103 
    9153     9202     9255     9311     9364     9415     9468     9515 
    9552     9582     9611     9655     9729     9819     9896     9941 
    9950     9918     9852     9779     9727     9719     9768     9854 
    9931     9980    10015    10035    10023     9972     9889     9790 
    9705     9654     9640     9648     9640     9590     9507     9414 
    9330     9245     9123     8963     8798     8656     8558     8518 
    8501     8451     8376     8323     8317     8345     8369     8359 
    8319     8274     8244     8216     8171     8114     8064     8024 
    7998     7997     8017     8051     8099     8149     8190     8218 
    8225     8210     8168     8092     7994     7894     7796     7715 
    7677     7676     7686     7701     7735     7791     7849     7892 
    7923     7951     7988     8033     8084     8145     8216     8289 
    8351     8393     8426     8479     8565     8668     8772     8876 
    8972     9050     9107     9151     9176     9165     9119     9046 
    8956     8873     8797     8699     8582     8469     8378     8313 
    8268     8233     8203     8175     8153     8153     8162     8149 
    8108     8060     8012     7948     7862     7785     7744     7735 
    7747     7789     7861     7943     8009     8049     8052     8017 
    7968     7940     7954     8005     8070     8134     8189     8230 
    8268     8302     8315     8301     8266     8229     8206     8183 
    8147     8116     8110     8124     8152     8208     8310     8466 
    8665     8868     9051     9210     9343     9452     9547     9623 
    9660     9657     9636     9600     9560     9536     9525     9519 
    9524     9535     9540     9548     9568     9581     9567     9528 
    9469     9387     9284     9167     9037     8898     8768     8672 
    8619     8600     8599     8601     8610     8645     8708     8777 
    8844     8926     9026     9134     9248     9364     9463     9531 
    9576     9622     9689     9767     9832     9873     9881     9851 
    9789     9700     9586     9465     9365     9294     9222     9120 
    8983     8827     8667     8521     8400     8311     8257     8241 
    8243     8223     8172     8102     8010     7889     7744     7599 
    7486     7419     7392     7398     7433     7484     7532     7578 
    7637     7707     7780     7865     7955     8029     8092     8174 
    8282     8391     8491     8604     8746     8920     9114     9309 
    9497     9674     9817     9900     9915     9882     9825     9764 
    9702     9623     9515     9392     9283     9209     9171     9156 
    9153     9157     9159     9164     9175     9171     9153     9135 
    9123     9116     9107     9075     9007     8925     8858     8809 
    8777     8788     8850     8934     9019     9113     9216     9308 
    9371     9400     9390     9347     9289     9243     9221     9210 
    9204     9212     9239     9267     9280     9277     9250     9196 
    9135     9090     9073     9084     9112     9140     9154     9151 
    9151     9160     9173     9200     9236     9262     9278     9297 
    9314     9306     9274     9246     9233     9226     9210     9184 
    9146     9087     9020     8966     8930     8908     8912     8943 
    8979     8996     8994     8987     8977     8974     8999     9053 
    9107     9139     9156     9167     9167     9154     9140     9130 
    9101     9046     8990     8944     8887     8811     8723     8619 
    8495     8362     8219     8065     7912     7770     7644     7537 
    7460     7419     7396     7352     7268     7152     7025     6897 
    6777     6681     6622     6613     6648     6700     6735     6743 
    6737     6742     6765     6791     6813     6838     6862     6886 
    6906     6919     6918     6897     6866     6859     6893     6948 
    7004     7055     7106     7146     7161     7159     7163     7168 
    7157     7127     7096     7089     7113     7148     7182     7229 
    7289     7351     7408     7451     7483     7516     7566     7648 
    7758     7881     8008     8137     8267     8409     8573     8760 
    8961     9171     9403     9662     9921    10161    10382    10580 
   10764    10955    11155    11338    11487    11598    11681    11745 
   11796    11838    11881    11935    12002    12076    12157    12248 
   12337    12395    12396    12342    12264    12176    12076    11961 
   11842    11729    11625    11521    11418    11318    11216    11110 
   11000    10896    10815    10760    10722    10684    10630    10550 
   10447    10327    10192    10052     9927     9814     9698     9587 
    9493     9409     9332     9253     9139     8987     8827     8688 
    8578     8492     8420     8354     8290     8235     8187     8142 
    8107     8083     8056     8025     7999     7973     7930     7868 
    7799     7730     7658     7583     7516     7464     7423     7406 
    7415     7445     7505     7580     7648     7711     7767     7812 
    7852     7897     7947     7990     8011     8009     7989     7955 
    7920     7889     7862     7847     7849     7854     7847     7825 
    7788     7740     7691     7653     7637     7651     7696     7762 
    7837     7915     7986     8038     8066     8077     8081     8085 
    8098     8130     8186     8256     8328     8399     8473     8557 
    8651     8736     8792     8807     8790     8766     8743     8717 
    8690     8661     8627     8593     8556     8505     8436     8359 
    8286     8223     8171     8126     8096     8091     8113     8161 
    8228     8300     8370     8434     8490     8537     8574     8607 
    8645     8698     8770     8853     8940     9034     9139     9240 
    9328     9399     9459     9510     9547     9569     9576     9563 
    9544     9543     9559     9579     9601     9621     9643     9678 
    9717     9755     9790     9813     9807     9771     9721     9671 
    9629     9590     9543     9501     9468     9424     9352     9264 
    9180     9107     9037     8972     8919     8868     8819     8775 
    8723     8657     8572     8462     8351     8274     8224     8185 
    8162     8169     8204     8252     8295     8326     8342     8355 
    8382     8431     8507     8617     8748     8891     9048     9202 
    9334     9449     9548     9625     9693     9760     9829     9901 
    9963    10006    10031    10035    10017     9978     9924     9861 
    9793     9728     9674     9626     9568     9485     9381     9262 
    9129     8985     8845     8735     8666     8625     8601     8589 
    8569     8517     8433     8345     8279     8235     8211     8221 
    8265     8320     8356     8360     8348     8337     8335     8351 
    8380     8403     8418     8430     8435     8419     8373     8300 
    8218     8123     8013     7908     7823     7754     7699     7648 
    7590     7526     7452     7357     7251     7142     7024     6902 
    6797     6718     6658     6604     6554     6504     6454     6411 
    6378     6353     6347     6354     6357     6365     6402     6461 
    6527     6589     6646     6698     6729     6734     6720     6703 
    6696     6694     6687     6687     6708     6759     6839     6947 
    7069     7203     7351     7502     7640     7761     7871     7972 
    8055     8109     8139     8160     8172     8174     8182     8208 
    8251     8321     8412     8510     8613     8715     8797     8836 
    8822     8774     8726     8679     8629     8581     8531     8484 
    8452     8422     8382     8337     8297     8275     8287     8334 
    8411     8512     8625     8743     8862     8969     9054     9126 
    9197     9275     9363     9468     9596     9740     9894    10049 
   10198    10346    10494    10629    10738    10814    10865    10895 
   10908    10914    10909    10880    10816    10717    10596    10465 
   10321    10166    10023     9907     9811     9720     9628     9537 
    9457     9402     9377     9378     9396     9428     9481     9551 
    9635     9724     9806     9873     9925     9979    10057    10158 
   10277    10415    10562    10702    10835    10962    11078    11173 
   11240    11281    11311    11335    11346    11338    11310    11259 
   11198    11143    11091    11032    10958    10870    10770    10649 
   10517    10395    10291    10214    10164    10130    10102    10082 
   10079    10092    10114    10136    10146    10145    10136    10117 
   10095    10070    10043    10025    10019    10019    10021    10014 
    9984     9928     9854     9770     9681     9601     9540     9481 
    9407     9317     9209     9087     8956     8817     8667     8506 
    8342     8190     8043     7895     7751     7609     7465     7339 
    7240     7160     7084     7015     6966     6951     6977     7036 
    7112     7195     7296     7421     7553     7673     7772     7852 
    7917     7960     7964     7915     7822     7693     7540     7382 
    7225     7063     6903     6746     6583     6416     6255     6102 
    5955     5826     5728     5663     5620     5582     5546     5512 
    5481     5456     5440     5439     5457     5495     5567     5677 
    5800     5916     6039     6191     6351     6494     6625     6750 
    6870     6994     7127     7260     7376     7464     7522     7554 
    7566     7557     7514     7442     7363     7288     7215     7145 
    7067     6979     6895     6826     6778     6764     6795     6857 
    6935     7026     7131     7249     7372     7484     7584     7682 
    7787     7908     8048     8186     8308     8418     8518     8606 
    8679     8736     8787     8844     8906     8961     9002     9024 
    9033     9033     9021     8992     8945     8876     8775     8652 
    8524     8380     8218     8071     7941     7830     7744     7662 
    7575     7492     7417     7363     7334     7326     7357     7432 
    7534     7646     7754     7851     7942     8037     8136     8237 
    8346     8471     8618     8781     8945     9104     9256     9400 
    9519     9611     9689     9752     9794     9819     9840     9866 
    9892     9909     9920     9921     9910     9897     9892     9891 
    9887     9876     9859     9839     9823     9810     9803     9810 
    9838     9880     9924     9958     9971     9958     9934     9920 
    9921     9924     9927     9936     9945     9959     9979     9992 
    9990     9972     9942     9914     9899     9901     9918     9939 
    9966    10011    10056    10085    10097    10096    10091    10088 
   10080    10061    10039    10015     9991     9972     9960     9949 
    9939     9941     9960     9984    10001    10008    10005     9994 
    9973     9943     9904     9860     9804     9727     9625     9507 
    9384     9262     9153     9065     8997     8949     8922     8912 
    8912     8901     8864     8811     8750     8690     8646     8620 
    8602     8591     8585     8572     8541     8491     8429     8369 
    8314     8257     8198     8146     8100     8055     8009     7954 
    7888     7818     7739     7646     7551     7467     7400     7353 
    7333     7342     7380     7445     7529     7620     7713     7801 
    7879     7938     7971     7979     7976     7964     7941     7910 
    7878     7851     7827     7809     7796     7778     7756     7741 
    7734     7736     7747     7754     7739     7702     7649     7584 
    7503     7407     7308     7225     7169     7135     7112     7093 
    7077     7070     7071     7076     7089     7113     7143     7177 
    7221     7279     7349     7423     7486     7529     7557     7579 
    7603     7637     7690     7770     7881     8011     8145     8271 
    8384     8483     8559     8593     8581     8536     8485     8430 
    8363     8288     8211     8140     8091     8070     8069     8080 
    8096     8115     8148     8203     8271     8340     8416     8517 
    8649     8802     8956     9109     9255     9394     9530     9674 
    9833    10009    10202    10412    10633    10854    11066    11262 
   11435    11582    11717    11846    11970    12092    12216    12336 
   12450    12558    12654    12732    12794    12842    12888    12943 
   13009    13083    13154    13213    13253    13275    13290    13295 
   13278    13242    13206    13183    13166    13146    13126    13095 
   13042    12989    12955    12932    12913    12888    12855    12816 
   12772    12719    12645    12547    12432    12307    12177    12037 
   11875    11689    11490    11287    11090    10899    10716    10546 
   10388    10231    10059     9864     9650     9417     9167     8911 
    8665     8433     8208     7985     7767     7559     7353     7141 
    6921     6689     6448     6216     6002     5799     5599     5404 
    5219     5047     4894     4766     4662     4578     4512     4466 
    4435     4405     4377     4360     4354     4361     4377     4393 
    4407     4414     4414     4409     4394     4362     4318     4267 
    4211     4159     4112     4072     4038     4001     3959     3912 
    3865     3823     3792     3786     3812     3863     3942     4049 
    4163     4265     4366     4471     4579     4699     4831     4969 
    5113     5267     5426     5590     5760     5930     6092     6252 
    6406     6551     6688     6816     6936     7062     7205     7366 
    7534     7705     7890     8082     8276     8479     8692     8911 
    9135     9364     9594     9822    10036    10237    10423    10592 
   10747    10892    11026    11157    11283    11393    11479    11536 
   11564    11572    11570    11569    11568    11567    11576    11591 
   11604    11612    11611    11608    11608    11609    11610    11611 
   11608    11593    11562    11510    11435    11335    11211    11068 
   10910    10738    10567    10402    10238    10068     9892     9720 
    9563     9417     9279     9148     9021     8898     8782     8665 
    8541     8413     8292     8189     8102     8022     7934     7830 
    7712     7588     7469     7362     7273     7206     7166     7153 
    7160     7172     7179     7188     7207     7236     7274     7326 
    7395     7476     7567     7655     7728     7786     7830     7861 
    7888     7921     7968     8033     8116     8218     8336     8462 
    8587     8707     8822     8936     9044     9137     9220     9306 
    9393     9474     9550     9616     9667     9699     9720     9737 
    9749     9755     9757     9757     9763     9777     9797     9819 
    9842     9868     9900     9948    10023    10116    10213    10309 
   10398    10473    10533    10573    10596    10615    10635    10655 
   10664    10649    10622    10593    10558    10512    10457    10397 
   10340    10288    10246    10223    10223    10238    10256    10273 
   10286    10287    10277    10253    10209    10149    10079     9998 
    9900     9788     9675     9564     9458     9367     9294     9237 
    9194     9168     9158     9149     9132     9105     9065     9007 
    8929     8832     8725     8630     8557     8500     8456     8421 
    8380     8334     8290     8238     8175     8112     8050     7987 
    7926     7862     7780     7681     7577     7472     7364     7258 
    7154     7051     6952     6865     6795     6743     6706     6682 
    6666     6650     6629     6608     6586     6559     6529     6499 
    6471     6446     6417     6379     6335     6288     6246     6215 
    6188     6165     6154     6155     6170     6211     6273     6353 
    6447     6549     6651     6749     6839     6922     7008     7101 
    7202     7317     7430     7529     7618     7701     7767     7808 
    7831     7847     7862     7882     7903     7921     7935     7952 
    7983     8026     8073     8123     8171     8208     8237     8263 
    8294     8331     8381     8439     8492     8539     8581     8607 
    8617     8616     8605     8586     8568     8556     8550     8551 
    8560     8574     8583     8583     8576     8563     8545     8525 
    8506     8486     8464     8449     8437     8408     8353     8283 
    8208     8137     8085     8062     8066     8092     8142     8226 
    8344     8484     8631     8780     8930     9081     9230     9372 
    9503     9628     9744     9847     9931     9998    10056    10116 
   10181    10242    10298    10356    10411    10451    10472    10474 
   10458    10427    10377    10312    10242    10176    10112    10050 
    9990     9932     9876     9821     9773     9736     9706     9681 
    9673     9681     9695     9715     9731     9741     9746     9752 
    9760     9777     9804     9848     9909     9983    10064    10142 
   10214    10277    10323    10361    10399    10437    10467    10494 
   10522    10544    10558    10568    10569    10562    10558    10565 
   10580    10600    10616    10624    10622    10608    10583    10548 
   10500    10442    10377    10307    10236    10165    10089    10008 
    9923     9840     9761     9683     9607     9536     9464     9381 
    9289     9196     9098     8999     8908     8827     8752     8681 
    8608     8522     8421     8302     8166     8028     7904     7804 
    7722     7655     7604     7561     7520     7482     7448     7421 
    7412     7427     7468     7534     7618     7707     7794     7877 
    7963     8056     8155     8259     8365     8465     8554     8630 
    8685     8713     8720     8711     8696     8686     8685     8689 
    8696     8706     8714     8714     8711     8704     8694     8690 
    8698     8717     8738     8762     8797     8845     8899     8945 
    8973     8990     9004     9016     9029     9041     9054     9068 
    9080     9085     9085     9074     9050     9019     8986     8954 
    8927     8904     8874     8830     8766     8688     8600     8511 
    8428     8349     8265     8178     8092     8007     7919     7827 
    7731     7634     7544     7473     7419     7376     7345     7326 
    7316     7313     7309     7308     7309     7310     7311     7314 
    7314     7313     7309     7301     7290     7279     7275     7287 
    7312     7354     7407     7461     7517     7574     7624     7669 
    7698     7710     7721     7731     7745     7768     7801     7837 
    7878     7927     7978     8038     8116     8211     8320     8442 
    8576     8721     8871     9019     9170     9326     9482     9632 
    9766     9888    10007    10116    10215    10313    10409    10498 
   10582    10662    10734    10790    10828    10850    10862    10866 
   10856    10832    10796    10742    10676    10611    10549    10493 
   10450    10424    10422    10447    10485    10527    10565    10593 
   10602    10592    10566    10525    10478    10441    10419    10412 
   10422    10442    10466    10489    10507    10515    10513    10504 
   10487    10457    10420    10376    10318    10239    10135    10009 
