Origin Time       2025/01/13 21:19:00
Lat.              31.8
Long.             131.6
Depth. (km)       30
Mag.              6.9
Station Code      KGSH02
Station Lat.      31.9940
Station Long.     130.2077
Station Height(m) 40.762
Record Time       2025/01/13 21:19:53
Sampling Freq(Hz) 100Hz
Duration Time(s)  206
Dir.              4
Scale Factor      3920(gal)/6170801
Max. Acc. (gal)   2.995
Last Correction   2025/01/13 21:19:38
Memo.             
[...]
   16188    16423    16585    16701    16798    16855    16873    16947 
   17154    17423    17620    17699    17674    17544    17354    17201 
   17119    17064    16997    16886    16699    16453    16207    16023 
   15943    15978    16089    16210    16266    16193    16007    15834 
   15793    15896    16101    16382    16670    16838    16835    16749 
   16676    16643    16688    16847    17057    17184    17147    16974 
   16761    16628    16659    16834    17045    17166    17137    16995 
   16830    16736    16768    16871    16914    16845    16693    16466 
   16196    15980    15891    15922    16007    16083    16144    16212 
   16287    16367    16471    16591    16647    16577    16407    16174 
   15890    15610    15441    15460    15638    15846    15978    16042 
   16106    16231    16455    16775    17093    17273    17278    17182 
   17026    16834    16690    16613    16512    16370    16274    16195 
   15999    15684    15376    15157    15065    15157    15415    15692 
   15832    15808    15727    15708    15784    15940    16160    16406 
   16613    16745    16814    16855    16916    17044    17225    17359 
   17370    17255    17032    16726    16422    16247    16247    16358 
   16503    16642    16722    16708    16654    16661    16780    17004 
   17289    17524    17570    17393    17104    16832    16640    16566 
   16599    16654    16642    16546    16396    16230    16105    16109 
   16284    16585    16914    17182    17344    17405    17373    17237 
   17009    16753    16505    16252    16010    15848    15800    15820 
   15875    15993    16185    16378    16446    16329    16099    15883 
   15775    15841    16091    16449    16779    16985    17075    17105 
   17083    16972    16776    16566    16413    16320    16259    16227 
   16203    16137    16008    15838    15667    15549    15518    15555 
   15626    15732    15870    16028    16210    16424    16632    16767 
   16802    16767    16675    16511    16313    16182    16194    16375 
   16698    17065    17334    17414    17339    17211    17110    17048 
   16976    16833    16598    16295    15975    15709    15572    15588 
   15691    15773    15791    15747    15616    15428    15294    15273 
   15316    15394    15543    15766    15960    16019    15972    15895 
   15789    15692    15754    16020    16348    16614    16805    16919 
   16957    16966    16965    16917    16820    16715    16642    16637 
   16710    16815    16909    16967    16964    16917    16882    16835 
   16694    16509    16416    16436    16521    16672    16867    17017 
   17074    17063    17023    16984    16983    17028    17080    17091 
   16985    16698    16280    15869    15594    15533    15686    15958 
   16233    16465    16647    16802    16983    17190    17326    17288 
   17091    16815    16546    16386    16390    16449    16418    16294 
   16139    15987    15852    15736    15654    15683    15884    16229 
   16659    17116    17497    17678    17641    17506    17397    17309 
   17150    16903    16654    16460    16287    16088    15880    15709 
   15593    15542    15598    15746    15853    15821    15721    15686 
   15745    15826    15884    15925    15929    15911    15973    16139 
   16308    16404    16431    16419    16442    16577    16788    16931 
   16946    16906    16842    16725    16590    16449    16200    15796 
   15362    15043    14888    14893    15008    15154    15301    15485 
   15723    15988    16224    16340    16278    16091    15922    15892 
   16050    16345    16650    16838    16904    16995    17224    17500 
   17680    17752    17730    17596    17445    17415    17432    17314 
   17075    16859    16671    16483    16414    16527    16688    16766 
   16744    16622    16428    16267    16199    16220    16366    16622 
   16826    16870    16806    16705    16570    16415    16295    16271 
   16357    16530    16791    17082    17232    17125    16847    16535 
   16221    15912    15667    15485    15265    14992    14791    14747 
   14857    15158    15633    16073    16284    16322    16359    16490 
   16754    17166    17579    17726    17561    17356    17327    17453 
   17645    17790    17737    17466    17147    16929    16783    16609 
   16398    16169    15895    15603    15418    15411    15527    15694 
   15897    16117    16279    16318    16219    16023    15835    15752 
   15810    15984    16152    16149    15951    15682    15480    15497 
   15886    16589    17287    17699    17825    17851    17955    18175 
   18373    18396    18249    18031    17811    17644    17521    17324 
   16971    16570    16302    16202    16139    16016    15844    15650 
   15420    15169    14965    14843    14789    14817    14965    15212 
   15486    15749    16029    16379    16805    17218    17482    17530 
   17442    17378    17406    17476    17524    17486    17337    17187 
   17168    17244    17262    17095    16706    16220    15895    15895 
   16144    16422    16531    16421    16189    15946    15788    15769 
   15775    15634    15386    15233    15287    15529    15874    16147 
   16196    16067    15919    15804    15696    15662    15813    16138 
   16556    17031    17518    17860    17896    17671    17381    17108 
   16829    16585    16408    16205    15943    15759    15749    15865 
   16032    16182    16260    16305    16388    16479    16513    16512 
   16472    16305    16107    16164    16515    16872    17042    17112 
   17179    17161    16975    16691    16373    16043    15801    15758 
   15867    15949    15817    15458    15093    14987    15261    15788 
   16246    16359    16116    15712    15339    15125    15173    15441 
   15685    15707    15526    15247    14942    14724    14761    15095 
   15594    16072    16356    16338    16087    15829    15796    16104 
   16681    17267    17568    17491    17256    17230    17569    18084 
   18441    18434    18077    17523    16973    16628    16598    16737 
   16736    16485    16194    16077    16220    16691    17419    18114 
   18527    18632    18530    18376    18320    18340    18214    17758 
   17031    16243    15642    15458    15741    16238    16596    16724 
   16754    16724    16578    16384    16267    16218    16179    16185 
   16245    16268    16168    15980    15846    15863    15966    16011 
   15896    15636    15352    15194    15269    15620    16175    16725 
   17041    17067    16885    16533    16005    15408    14956    14777 
   14814    14962    15151    15271    15224    15126    15226    15555 
   15896    16099    16181    16148    15989    15850    15865    15921 
   15857    15712    15579    15469    15438    15592    15883    16115 
   16191    16169    16123    16130    16304    16683    17080    17268 
   17266    17251    17304    17473    17793    18129    18276    18215 
   18036    17799    17603    17591    17823    18199    18531    18729 
   18793    18678    18340    17833    17256    16702    16240    15911 
   15761    15800    15965    16159    16350    16588    16916    17293 
   17604    17713    17528    17027    16317    15686    15424    15519 
   15682    15663    15399    14940    14446    14154    14188    14458 
   14775    14995    15065    15019    14931    14839    14746    14655 
   14555    14420    14226    13966    13652    13356    13238    13493 
   14135    14914    15565    15964    16007    15680    15230    14983 
   15047    15283    15482    15521    15403    15235    15155    15254 
   15578    16091    16594    16910    17096    17292    17525    17787 
   18130    18539    18882    19073    19079    18854    18441    18026 
   17791    17846    18191    18646    18963    19047    19002    18975 
   19024    19135    19252    19273    19087    18694    18297    18115 
   18146    18257    18388    18457    18337    18031    17663    17314 
   17066    17045    17264    17569    17798    17858    17690    17350 
   17080    17100    17379    17725    17986    18036    17795    17389 
   17059    16904    16909    17031    17123    17021    16778    16552 
   16340    16093    15900    15826    15782    15710    15661    15625 
   15494    15233    14913    14574    14245    14027    13934    13873 
   13884    14095    14456    14853    15266    15635    15836    15880 
   15961    16210    16515    16684    16654    16505    16376    16385 
   16592    16938    17242    17387    17431    17502    17692    18002 
   18281    18363    18261    18112    17998    17900    17791    17672 
   17509    17264    17013    16836    16659    16371    16029    15784 
   15639    15476    15276    15084    14892    14711    14604    14579 
   14584    14578    14528    14435    14376    14420    14526    14591 
   14576    14546    14585    14694    14842    15052    15310    15521 
   15677    15883    16141    16288    16237    16091    15950    15811 
   15676    15585    15528    15455    15371    15353    15462    15673 
   15904    16088    16207    16301    16419    16569    16724    16850 
   16943    17031    17146    17276    17405    17553    17688    17706 
   17615    17541    17480    17355    17214    17130    17057    16967 
   16919    16929    16956    16981    17005    17021    17057    17172 
   17381    17610    17742    17719    17604    17489    17405    17360 
   17393    17498    17605    17672    17713    17702    17577    17328 
   17012    16692    16425    16240    16109    16011    15960    15941 
   15922    15922    15956    15946    15790    15461    15008    14517 
   14078    13758    13596    13594    13698    13842    14001    14195 
   14431    14685    14970    15346    15835    16363    16805    17094 
   17258    17368    17487    17660    17919    18198    18342    18278 
   18083    17827    17536    17286    17161    17136    17099    16970 
   16750    16487    16221    15984    15828    15753    15653    15445 
   15210    15075    15067    15178    15423    15750    16083    16424 
   16769    17063    17314    17552    17751    17924    18120    18266 
   18272    18191    18116    18047    17996    18021    18078    18024 
   17808    17485    17138    16834    16572    16309    16061    15863 
   15695    15521    15327    15067    14714    14353    14104    13974 
   13888    13796    13688    13574    13495    13483    13535    13613 
   13672    13722    13834    14045    14312    14572    14806    15048 
   15366    15793    16322    16900    17374    17593    17577    17463 
   17347    17248    17148    17024    16853    16642    16449    16341 
   16343    16458    16659    16911    17203    17555    17949    18281 
   18451    18469    18405    18297    18178    18062    17874    17537 
   17069    16570    16168    15926    15810    15756    15738    15746 
   15761    15758    15746    15714    15590    15375    15196    15125 
   15094    15028    14939    14880    14885    14987    15220    15531 
   15828    16099    16391    16729    17111    17490    17776    17920 
   17972    18024    18130    18303    18517    18685    18724    18664 
   18601    18603    18689    18840    18983    19005    18833    18502 
   18133    17828    17613    17498    17486    17509    17480    17400 
   17308    17188    17019    16860    16793    16805    16806    16756 
   16692    16653    16651    16682    16726    16715    16563    16264 
   15948    15753    15697    15711    15726    15676    15525    15308 
   15077    14855    14655    14479    14305    14135    14058    14149 
   14348    14570    14797    15012    15188    15349    15534    15750 
   15981    16221    16485    16763    16999    17146    17201    17203 
   17200    17238    17354    17538    17696    17757    17759    17781 
   17859    17988    18108    18122    17977    17732    17497    17310 
   17137    16951    16746    16531    16352    16239    16163    16059 
   15853    15539    15235    15066    15041    15052    14977    14762 
   14452    14169    14015    13991    14036    14099    14157    14224 
   14372    14646    14973    15245    15436    15561    15608    15581 
   15513    15422    15321    15245    15195    15148    15127    15178 
   15282    15415    15617    15892    16185    16474    16760    17002 
   17158    17249    17326    17436    17614    17835    18047    18240 
   18425    18594    18761    18962    19199    19411    19517    19512 
   19468    19427    19383    19347    19294    19134    18815    18392 
   17969    17582    17199    16791    16367    15971    15666    15508 
   15515    15615    15657    15567    15432    15370    15395    15475 
   15603    15754    15846    15859    15894    16013    16133    16156 
   16102    16081    16148    16266    16427    16651    16869    16991 
   17052    17141    17279    17427    17520    17498    17355    17138 
   16911    16717    16547    16359    16111    15798    15449    15110 
   14821    14606    14462    14370    14295    14222    14195    14263 
   14397    14537    14695    14900    15133    15354    15545    15698 
   15777    15749    15623    15443    15247    15054    14882    14758 
   14718    14797    15005    15269    15470    15563    15588    15592 
   15600    15609    15584    15514    15460    15501    15650    15869 
   16104    16284    16342    16294    16254    16313    16449    16609 
   16805    17072    17391    17733    18136    18623    19131    19579 
   19947    20226    20406    20524    20659    20817    20938    21019 
   21102    21145    21059    20858    20605    20268    19797    19263 
   18745    18239    17758    17366    17068    16804    16559    16395 
   16352    16388    16423    16404    16323    16189    16034    15920 
   15870    15842    15773    15639    15471    15327    15236    15188 
   15155    15138    15167    15253    15365    15479    15583    15622 
   15543    15397    15287    15234    15181    15106    15032    14942 
   14807    14656    14520    14338    14054    13750    13542    13436 
   13374    13338    13315    13235    13067    12918    12871    12865 
   12839    12834    12902    13078    13380    13759    14101    14316 
   14426    14553    14815    15253    15804    16346    16787    17131 
   17427    17720    18042    18388    18686    18848    18892    18947 
   19078    19213    19285    19294    19251    19158    19065    19015 
   18979    18913    18826    18753    18731    18796    18932    19033 
   18982    18774    18513    18295    18142    18031    17915    17748 
   17514    17248    17015    16860    16770    16698    16614    16501 
   16356    16221    16150    16121    16060    15929    15755    15585 
   15470    15472    15609    15812    16007    16178    16352    16527 
   16678    16816    16968    17116    17225    17286    17295    17227 
   17099    16983    16898    16793    16652    16507    16341    16144 
   16009    16010    16089    16133    16097    16015    15926    15842 
   15784    15762    15712    15585    15463    15448    15538    15700 
   15942    16216    16416    16567    16785    17051    17255    17375 
   17413    17342    17213    17144    17165    17199    17201    17209 
   17229    17227    17238    17282    17266    17113    16862    16585 
   16327    16141    16085    16131    16176    16178    16160    16118 
   16043    15992    16023    16097    16129    16086    16003    15902 
   15764    15617    15516    15424    15254    15017    14806    14642 
   14466    14299    14199    14143    14098    14114    14226    14396 
   14587    14827    15134    15486    15884    16334    16782    17157 
   17426    17577    17637    17669    17702    17738    17779    17813 
   17818    17781    17688    17546    17411    17322    17282    17311 
   17436    17609    17741    17834    17969    18154    18315    18425 
   18502    18522    18442    18302    18176    18035    17797    17485 
   17175    16870    16547    16240    15991    15795    15645    15577 
   15598    15660    15708    15716    15679    15606    15529    15466 
   15421    15419    15498    15645    15811    16003    16245    16478 
   16640    16759    16872    16945    16919    16807    16682    16573 
   16456    16361    16331    16323    16297    16290    16359    16505 
   16683    16866    17038    17151    17224    17340    17488    17573 
   17565    17481    17300    17014    16684    16401    16199    16033 
   15857    15676    15532    15461    15452    15501    15591    15654 
   15640    15558    15445    15358    15303    15226    15117    15023 
   14995    15076    15268    15521    15769    15960    16096    16244 
   16444    16668    16853    16977    17043    17032    16938    16826 
   16707    16494    16193    15924    15736    15597    15514    15521 
   15582    15621    15650    15683    15655    15553    15457    15421 
   15450    15534    15629    15695    15743    15815    15920    16022 
   16084    16076    15973    15835    15791    15899    16126    16443 
   16799    17124    17382    17594    17803    18004    18153    18234 
   18257    18231    18173    18088    17953    17765    17533    17246 
   16914    16633    16481    16407    16310    16158    15971    15780 
   15630    15573    15620    15707    15727    15614    15421    15279 
   15237    15237    15237    15227    15188    15117    15072    15101 
   15180    15247    15276    15289    15308    15332    15357    15386 
   15441    15556    15754    16051    16426    16814    17154    17431 
   17656    17840    17998    18115    18145    18100    18062    18056 
   18059    18080    18099    18047    17922    17800    17740    17763 
   17864    18015    18190    18341    18395    18343    18255    18183 
   18120    18068    18032    17962    17808    17597    17382    17176 
   16985    16829    16706    16578    16426    16289    16226    16273 
   16420    16599    16740    16830    16891    16936    16981    17038 
   17092    17092    17012    16888    16755    16612    16464    16331 
   16208    16074    15962    15926    15944    15960    15984    16025 
   16052    16052    16034    15992    15914    15785    15596    15368 
   15139    14924    14713    14507    14318    14126    13927    13775 
   13700    13670    13653    13654    13709    13835    14020    14272 
   14612    14997    15339    15608    15861    16147    16436    16707 
   16985    17275    17543    17788    18069    18416    18780    19105 
   19354    19484    19491    19432    19356    19269    19179    19098 
   18974    18748    18457    18183    17981    17866    17836    17855 
   17859    17815    17724    17609    17510    17446    17375    17245 
   17058    16848    16639    16445    16276    16124    15954    15741 
   15497    15258    15059    14934    14873    14817    14751    14697 
   14643    14587    14561    14567    14557    14504    14436    14394 
   14383    14415    14537    14761    15021    15256    15478    15698 
   15871    15987    16097    16201    16264    16310    16377    16436 
   16441    16378    16268    16146    16037    15963    15926    15911 
   15906    15897    15880    15875    15892    15900    15877    15829 
   15783    15773    15803    15853    15897    15917    15905    15867 
   15825    15797    15776    15760    15762    15774    15790    15831 
   15884    15901    15858    15773    15693    15666    15690    15733 
