Origin Time       2025/01/13 21:19:00
Lat.              31.8
Long.             131.6
Depth. (km)       30
Mag.              6.9
Station Code      KGSH09
Station Lat.      31.3741
Station Long.     130.4333
Station Height(m) 19.091
Record Time       2025/01/13 21:19:52
Sampling Freq(Hz) 100Hz
Duration Time(s)  143
Dir.              2
Scale Factor      3923(gal)/8224838
Max. Acc. (gal)   2.427
Last Correction   2025/01/13 21:19:52
Memo.             
[...]
    3082     3272     3210     3003     2864     2899     3065     3240 
    3350     3377     3330     3273     3198     2982     2639     2311 
    2041     1780     1609     1657     1790     1745     1567     1428 
    1304     1201     1239     1309     1283     1366     1678     2014 
    2257     2442     2554     2529     2340     2092     1945     1991 
    2180     2401     2650     2853     2875     2808     2818     2829 
    2739     2600     2469     2373     2297     2196     2072     1915 
    1706     1489     1306     1174      989      653      306        5 
    -336     -648     -834     -924     -923     -830     -797     -908 
    -973     -946     -953     -922     -857     -905     -963     -876 
    -769     -730     -687     -618     -504     -282       54      423 
     734      891      900     1004     1310     1614     1806     1894 
    1908     2042     2336     2558     2628     2654     2610     2471 
    2370     2309     2172     2035     1979     1912     1890     1938 
    1931     1904     1939     1935     1834     1737     1664     1549 
    1476     1526     1560     1532     1601     1772     1952     2065 
    2057     2050     2138     2281     2489     2670     2693     2631 
    2532     2390     2327     2380     2416     2385     2327     2326 
    2473     2667     2727     2664     2640     2762     2879     2791 
    2641     2596     2577     2579     2677     2793     2845     2841 
    2727     2465     2239     2172     2115     1992     1894     1854 
    1884     2030     2226     2332     2340     2288     2176     2066 
    2034     1989     1811     1594     1466     1340     1132      905 
     660      410      328      460      610      677      729      741 
     673      621      635      673      747      861      981     1158 
    1391     1636     1906     2184     2378     2500     2659     2830 
    2902     2898     2899     2938     3002     3025     2978     2925 
    2894     2825     2655     2504     2502     2542     2593     2813 
    3100     3198     3105     2997     2944     2836     2590     2357 
    2226     2093     1954     1833     1672     1501     1306      990 
     588      199     -199     -673    -1115    -1432    -1764    -2097 
   -2209    -2211    -2307    -2349    -2281    -2230    -2065    -1686 
   -1308    -1104     -997     -905     -869     -864     -808     -712 
    -544     -187      251      599      927     1254     1505     1729 
    1883     1899     1933     2049     2093     2066     2084     2147 
    2296     2554     2774     2903     3015     3053     2978     2903 
    2805     2481     2002     1679     1510     1363     1381     1567 
    1661     1630     1655     1750     1831     1861     1775     1587 
    1441     1371     1343     1387     1420     1375     1414     1674 
    2045     2412     2812     3180     3397     3555     3763     3969 
    4108     4217     4334     4405     4379     4315     4255     4098 
    3780     3342     2828     2324     1953     1669     1350     1051 
     903      846      760      680      677      653      541      517 
     702      951     1086     1132     1185     1188     1050      858 
     684      436      130      -86     -198     -286     -325     -263 
    -191     -129        9      110      105      157      303      469 
     689      965     1269     1630     1979     2195     2455     2880 
    3200     3334     3442     3449     3319     3184     2983     2677 
    2482     2485     2479     2362     2301     2317     2282     2338 
    2590     2806     2907     3064     3242     3256     3148     3076 
    3024     2952     2976     3088     3119     3107     3152     3114 
    2916     2671     2407     2101     1883     1838     1912     1993 
    1985     1881     1764     1706     1671     1638     1655     1692 
    1740     1809     1806     1695     1588     1486     1274     1009 
     812      608      344      120      -24      -67       45      236 
     411      562      611      540      477      461      469      567 
     743      905      981      950      872      843      939     1201 
    1512     1745     1976     2226     2355     2285     2096     1975 
    1985     2015     1952     1765     1525     1274     1017      808 
     684      652      720      897     1146     1343     1375     1279 
    1193     1159     1181     1300     1410     1424     1439     1449 
    1350     1233     1256     1397     1556     1776     2079     2251 
    2231     2250     2299     2199     2039     1918     1802     1756 
    1815     1911     1992     2016     1964     1860     1782     1782 
    1821     1879     1946     1979     2003     2006     1939     1881 
    1815     1642     1505     1516     1540     1566     1614     1494 
    1235     1051      938      851      853      913      955      967 
    1001     1086     1170     1240     1313     1395     1517     1665 
    1885     2219     2492     2592     2631     2666     2673     2639 
    2501     2297     2092     1788     1402     1131     1017     1019 
    1161     1393     1624     1853     2107     2327     2430     2427 
    2394     2343     2251     2099     1856     1543     1262     1140 
    1206     1358     1493     1563     1568     1618     1804     1981 
    2037     2126     2278     2420     2636     2866     2924     2894 
    2928     3046     3246     3465     3651     3800     3832     3716 
    3518     3250     2947     2704     2523     2386     2344     2338 
    2266     2193     2185     2177     2114     2049     1971     1750 
    1363      942      576      249       16       27      256      479 
     669      973     1321     1548     1690     1813     1842     1825 
    1875     1884     1734     1566     1490     1402     1302     1339 
    1468     1530     1561     1637     1730     1867     2000     2019 
    2020     2133     2199     2165     2254     2412     2421     2424 
    2558     2651     2608     2508     2374     2211     2110     2072 
    1973     1856     1815     1761     1676     1637     1625     1665 
    1792     1915     1972     2004     2002     1890     1744     1696 
    1665     1530     1337     1127      918      773      720      741 
     811      909     1092     1367     1551     1572     1597     1672 
    1753     1871     1972     1987     1996     2012     1941     1852 
    1829     1792     1698     1545     1316     1078      967      969 
     909      812      801      757      599      484      453      432 
     454      486      427      427      595      739      803      901 
     986     1021     1074     1123     1161     1225     1271     1275 
    1281     1305     1331     1394     1559     1791     2002     2178 
    2296     2328     2299     2170     1988     1911     1890     1813 
    1782     1867     1985     2042     1953     1763     1598     1489 
    1422     1431     1493     1552     1603     1664     1688     1679 
    1686     1609     1385     1208     1201     1225     1239     1328 
    1394     1296     1147     1093     1129     1254     1460     1641 
    1775     1973     2214     2389     2525     2654     2737     2745 
    2666     2551     2435     2277     2146     2127     2176     2223 
    2218     2176     2215     2351     2448     2407     2253     2089 
    1954     1869     1868     1892     1946     2115     2370     2621 
    2859     3076     3200     3187     3053     2903     2843     2795 
    2617     2336     2131     2047     1923     1728     1628     1625 
    1605     1584     1548     1441     1306     1155      931      637 
     333       17     -295     -434     -334     -145       99      417 
     681      901     1183     1418     1463     1416     1421     1452 
    1441     1463     1549     1556     1468     1428     1432     1406 
    1370     1333     1277     1212     1205     1320     1489     1588 
    1695     1918     2084     2061     2061     2162     2212     2242 
    2349     2452     2544     2704     2812     2728     2539     2317 
    2046     1776     1561     1341     1048      772      623      549 
     506      533      567      496      356      232       67     -198 
    -434     -554     -630     -603     -432     -288     -241     -175 
     -54       64      140      189      287      525      913     1354 
    1675     1837     1945     2053     2211     2470     2779     3106 
    3532     4063     4530     4865     5142     5283     5163     4970 
    4959     5042     5070     5043     4982     4854     4611     4287 
    3885     3418     3021     2760     2613     2533     2478     2428 
    2363     2274     2164     2020     1823     1633     1584     1630 
    1624     1552     1474     1424     1399     1408     1467     1516 
    1448     1271     1100      970      807      652      619      643 
     639      656      695      734      815      926     1008     1051 
    1059     1005      949      928      814      633      554      495 
     363      278      247      199      195      267      334      375 
     432      480      504      579      689      749      770      788 
     792      831      961     1151     1341     1563     1888     2238 
    2462     2589     2685     2697     2694     2808     2951     3057 
    3249     3549     3815     4010     4185     4251     4082     3747 
    3435     3227     3060     2911     2856     2868     2833     2764 
    2690     2573     2459     2388     2340     2328     2358     2381 
    2346     2265     2149     1987     1844     1769     1679     1545 
    1449     1420     1440     1498     1578     1676     1717     1590 
    1337     1082      862      675      585      627      719      853 
    1059     1258     1414     1598     1787     1884     1823     1625 
    1381     1165     1003      938      986     1086     1200     1352 
    1567     1846     2181     2524     2817     3032     3123     3061 
    2882     2644     2396     2154     1935     1796     1744     1699 
    1649     1620     1597     1583     1603     1648     1695     1734 
    1783     1827     1837     1838     1848     1845     1863     1941 
    2014     2065     2182     2331     2436     2532     2550     2416 
    2286     2253     2207     2133     2099     2112     2153     2261 
    2511     2848     3148     3379     3512     3515     3446     3379 
    3272     3048     2720     2357     1969     1583     1259      989 
     747      569      486      517      691      916     1032     1039 
    1020     1003     1012     1097     1209     1213     1043      796 
     631      534      372      112     -170     -361     -384     -306 
    -240     -216     -230     -309     -465     -649     -804     -959 
   -1096    -1147    -1140    -1113    -1063    -1009     -938     -791 
    -573     -363     -221     -153     -120     -124     -197     -295 
    -361     -373     -332     -255     -172      -44      189      425 
     546      607      625      540      384      228      105       47 
     103      295      583      970     1451     1908     2272     2574 
    2818     3006     3208     3454     3700     3956     4222     4395 
    4448     4473     4475     4390     4251     4113     3975     3878 
    3865     3906     3946     3901     3748     3507     3181     2876 
    2727     2731     2863     3079     3303     3559     3855     4083 
    4180     4183     4137     4090     4105     4191     4263     4226 
    4112     4024     4002     4045     4124     4143     4050     3844 
    3534     3149     2712     2193     1607     1058      626      310 
     151      171      244      321      502      770     1062     1422 
    1813     2133     2382     2546     2575     2469     2296     2182 
    2164     2135     2004     1748     1437     1204     1086     1086 
    1233     1459     1709     2037     2434     2798     3063     3235 
    3285     3229     3221     3296     3314     3222     3067     2903 
    2758     2644     2589     2543     2455     2369     2339     2346 
    2290     2103     1817     1520     1279     1100      970      935 
    1007     1108     1159     1112      967      720      338      -94 
    -421     -572     -562     -475     -380     -228       36      364 
     745     1209     1675     2023     2247     2361     2312     2099 
    1795     1402      919      452       75     -222     -445     -583 
    -645     -658     -703     -830     -973    -1074    -1169    -1262 
   -1285    -1298    -1433    -1636    -1795    -1898    -1907    -1822 
   -1744    -1644    -1470    -1331    -1267    -1220    -1189    -1178 
   -1134     -984     -766     -611     -491     -319     -129      155 
     704     1432     2137     2787     3393     3906     4314     4639 
    4880     5027     5096     5097     5012     4857     4685     4521 
    4386     4347     4438     4537     4567     4665     4839     5063 
    5466     5891     6131     6247     6196     5969     5671     5348 
    5080     4920     4896     4996     5134     5278     5467     5649 
    5714     5616     5444     5298     5171     5036     4869     4615 
    4290     3993     3793     3670     3581     3516     3491     3518 
    3558     3534     3393     3149     2884     2731     2717     2713 
    2548     2189     1771     1424     1167      953      737      522 
     372      330      334      264       25     -383     -807    -1094 
   -1293    -1530    -1802    -2035    -2199    -2258    -2212    -2138 
   -2178    -2432    -2794    -3090    -3275    -3369    -3400    -3357 
   -3215    -3032    -2845    -2666    -2560    -2577    -2682    -2812 
   -2940    -3067    -3173    -3245    -3242    -3095    -2828    -2539 
   -2251    -1945    -1669    -1444    -1228    -1032     -827     -554 
    -279      -45      203      473      719      922     1119     1312 
    1439     1498     1516     1485     1455     1479     1503     1533 
    1675     1888     2057     2247     2485     2673     2872     3175 
    3478     3723     3975     4214     4395     4552     4749     5022 
    5298     5471     5549     5594     5606     5551     5378     5098 
    4806     4565     4386     4286     4293     4374     4494     4696 
    4990     5279     5463     5578     5676     5668     5490     5235 
    5031     4927     4872     4814     4727     4571     4341     4090 
    3800     3439     3026     2567     2081     1675     1413     1217 
    1053      981      974      972      994     1035     1054     1080 
    1131     1181     1221     1248     1227     1151     1034      834 
     554      294       86     -130     -322     -399     -375     -290 
    -148       10      194      405      572      692      814      946 
    1115     1327     1485     1560     1637     1705     1695     1645 
    1590     1474     1298     1115      916      729      648      661 
     718      853     1057     1246     1417     1584     1678     1661 
    1567     1413     1248     1108      973      854      773      718 
     729      826      931      986     1012     1012      986      967 
     973      950      805      604      548      656      827     1047 
    1283     1471     1595     1660     1696     1741     1818     1938 
    2047     2096     2135     2205     2268     2340     2473     2606 
    2667     2666     2655     2668     2735     2824     2867     2876 
    2909     2924     2867     2772     2654     2528     2442     2362 
    2253     2155     2084     2025     2000     1975     1857     1663 
    1463     1264     1051      874      750      608      467      390 
     346      305      259      216      216      291      403      436 
     375      326      318      315      333      398      522      715 
     972     1270     1547     1741     1861     1954     2054     2164 
    2273     2373     2438     2446     2405     2346     2269     2118 
    1890     1699     1629     1640     1651     1637     1607     1544 
    1471     1493     1610     1729     1845     1953     1957     1884 
    1804     1676     1498     1336     1190     1057      962      897 
     880      913      916      849      734      592      414      191 
      32       10        4      -36      -49      -43      -33      -16 
      -1       31       86      109       78       18      -63     -139 
    -184     -245     -287     -253     -153       -1      151      267 
     407      596      801     1040     1300     1505     1651     1775 
    1899     2056     2242     2416     2579     2727     2835     2938 
    3069     3194     3288     3334     3315     3273     3249     3235 
    3230     3213     3175     3113     3028     2940     2860     2820 
    2875     2986     3028     2980     2929     2897     2864     2829 
    2758     2655     2592     2625     2747     2905     3051     3136 
    3119     3029     2925     2825     2744     2686     2596     2475 
    2403     2362     2285     2161     2004     1863     1779     1730 
    1675     1594     1462     1231      932      656      437      275 
     160       67      -40     -172     -257     -256     -205      -86 
     132      400      645      816      920     1015     1162     1360 
    1563     1740     1927     2141     2350     2565     2810     3046 
    3252     3450     3653     3846     3975     4006     3969     3910 
    3873     3881     3928     3996     4031     3982     3852     3677 
    3507     3368     3250     3137     3010     2889     2778     2654 
    2485     2238     1911     1557     1233      976      768      576 
     417      306      237      202      187      175      151      124 
     126      144      151      190      286      415      598      851 
    1096     1255     1355     1421     1462     1503     1539     1525 
    1453     1316     1132      957      799      625      446      317 
     260      280      383      546      687      751      774      783 
     777      796      862      942     1007     1059     1112     1171 
    1267     1420     1610     1798     1973     2124     2234     2309 
    2366     2405     2413     2354     2246     2146     2050     1964 
    1933     1939     1950     1983     2066     2176     2272     2354 
    2413     2435     2442     2428     2381     2357     2362     2349 
    2319     2317     2365     2440     2508     2565     2621     2659 
    2663     2673     2718     2760     2760     2735     2681     2616 
    2592     2600     2579     2516     2461     2451     2467     2519 
    2617     2714     2785     2830     2843     2855     2893     2914 
    2910     2914     2920     2907     2874     2791     2647     2462 
    2266     2076     1895     1714     1534     1372     1237     1128 
    1077     1107     1163     1179     1150     1090     1040     1047 
    1081     1098     1144     1219     1263     1278     1293     1275 
    1190     1053      923      845      812      820      843      830 
     760      635      487      364      291      271      276      291 
     310      299      240      166       74      -55     -187     -284 
    -340     -360     -372     -399     -452     -540     -661     -793 
    -895     -939     -934     -884     -796     -689     -548     -328 
     -35      297      662     1048     1429     1791     2119     2404 
    2648     2876     3119     3358     3564     3746     3901     4020 
