Origin Time       2025/01/13 21:19:00
Lat.              31.8
Long.             131.6
Depth. (km)       30
Mag.              6.9
Station Code      KGSH05
Station Lat.      31.8699
Station Long.     130.4958
Station Height(m) 73.342
Record Time       2025/01/13 21:19:49
Sampling Freq(Hz) 100Hz
Duration Time(s)  229
Dir.              5
Scale Factor      7845(gal)/8223790
Max. Acc. (gal)   11.540
Last Correction   2025/01/13 21:19:50
Memo.             
[...]
   18482    17200    16127    15395    14945    14673    14426    13968 
   13198    12231    11210    10245     9431     8842     8549     8649 
    9231    10264    11549    12834    13880    14482    14546    14197 
   13737    13481    13586    14004    14604    15279    15970    16677 
   17400    18063    18585    18916    18999    18856    18566    18183 
   17794    17455    17035    16326    15268    13952    12525    11075 
    9633     8321     7323     6725     6542     6786     7518     8768 
   10366    12009    13510    14771    15634    15943    15618    14669 
   13242    11516     9574     7551     5760     4476     3782     3607 
    3827     4301     4966     5919     7168     8510     9768    10851 
   11691    12276    12590    12604    12343    11793    10936     9774 
    8367     6914     5652     4664     3921     3333     2748     2119 
    1568     1208     1051     1028     1061     1206     1617     2462 
    3882     5805     7993    10210    12141    13441    13960    13725 
   12903    11812    10733     9832     9251     9082     9346     9984 
   10829    11716    12571    13248    13491    13100    12042    10457 
    8621     6771     5055     3640     2687     2238     2197     2454 
    3028     4043     5455     7028     8549     9930    11155    12248 
   13246    14142    14879    15322    15303    14820    14072    13269 
   12560    12106    12054    12437    13220    14332    15628    16889 
   17913    18580    18854    18719    18179    17263    16048    14662 
   13327    12318    11808    11792    12187    12866    13678    14526 
   15408    16411    17533    18624    19558    20290    20773    20970 
   20845    20398    19665    18705    17680    16734    15928    15377 
   15188    15291    15475    15508    15267    14755    13994    13039 
   12043    11152    10469    10108    10174    10692    11592    12760 
   14053    15291    16308    16969    17209    17118    16860    16553 
   16298    16173    16140    16069    15858    15487    14960    14287 
   13495    12595    11565    10430     9306     8340     7639     7240 
    7126     7269     7645     8230     8982     9826    10654    11334 
   11801    12071    12147    11974    11523    10871    10135     9333 
    8386     7283     6133     5063     4128     3323     2705     2377 
    2400     2768     3402     4198     5081     5937     6594     6912 
    6886     6678     6469     6359     6401     6627     7056     7728 
    8617     9566    10417    11095    11530    11632    11373    10841 
   10192     9528     8881     8344     8054     8087     8441     8982 
    9498     9906    10224    10436    10516    10467    10299    10052 
    9779     9540     9396     9408     9652    10179    10944    11836 
   12661    13208    13374    13143    12498    11425     9972     8260 
    6477     4891     3815     3496     4033     5386     7376     9775 
   12383    15001    17423    19531    21265    22469    22979    22786 
   22010    20850    19562    18391    17529    17077    16992    17140 
   17401    17757    18204    18623    18883    18840    18404    17675 
   16776    15793    14881    14135    13603    13284    13020    12696 
   12344    11958    11578    11365    11326    11344    11404    11457 
   11292    10720     9688     8340     6976     5883     5221     5046 
    5344     6084     7202     8573    10034    11402    12479    13031 
   12862    11955    10497     8752     6971     5427     4314     3674 
    3504     3839     4710     6107     7912     9861    11676    13166 
   14265    15002    15441    15618    15553    15321    15016    14713 
   14501    14461    14667    15194    15986    16865    17686    18311 
   18555    18284    17425    15981    14088    11997     9992     8336 
    7196     6635     6671     7284     8340     9616    10906    12074 
   13015    13649    13981    14148    14342    14732    15414    16370 
   17483    18585    19484    20002    20027    19483    18312    16561 
   14412    12101     9913     8135     6932     6403     6579     7346 
    8544    10002    11488    12777    13691    14077    13872    13149 
   12047    10712     9323     8100     7217     6689     6427     6339 
    6358     6450     6606     6783     6934     7072     7213     7335 
    7450     7620     7869     8145     8364     8456     8426     8311 
    8114     7844     7543     7263     7025     6829     6674     6573 
    6561     6731     7161     7850     8739     9765    10879    12019 
   13113    14060    14732    15034    14945    14508    13775    12793 
   11684    10624     9742     9116     8792     8761     8982     9420 
   10010    10689    11412    12131    12795    13420    14052    14700 
   15318    15784    15992    15905    15500    14771    13779    12636 
   11479    10449     9632     9035     8634     8429     8451     8689 
    9086     9605    10233    10937    11661    12320    12807    13026 
   12933    12552    11931    11140    10299     9482     8676     7886 
    7204     6754     6642     6909     7473     8209     8997     9732 
   10362    10885    11311    11685    12002    12178    12114    11789 
   11290    10750    10273     9942     9828     9933    10199    10557 
   10959    11421    11983    12677    13493    14355    15188    15982 
   16731    17405    17965    18399    18731    18993    19144    19102 
   18806    18265    17543    16718    15849    14989    14181    13424 
   12708    12101    11688    11523    11661    12128    12876    13813 
   14879    16040    17235    18353    19286    19967    20335    20401 
   20297    20121    19907    19692    19479    19179    18689    17971 
   17031    15892    14635    13354    12093    10874     9752     8784 
    8014     7489     7249     7287     7542     7944     8459     9067 
    9694    10216    10516    10523    10212     9560     8581     7366 
    6035     4683     3424     2435     1861     1752     2081     2771 
    3697     4731     5736     6536     6945     6851     6266     5305 
    4141     3033     2255     1985     2301     3192     4541     6164 
    7871     9471    10829    11888    12610    12943    12876    12478 
   11855    11141    10520    10233    10430    11074    11998    12976 
   13797    14315    14466    14273    13826    13225    12602    12086 
   11777    11761    12079    12710    13578    14534    15396    16048 
   16401    16444    16310    16117    15932    15840    15817    15769 
   15718    15691    15653    15638    15691    15782    15850    15765 
   15430    14855    14038    12968    11678    10216     8662     7142 
    5784     4714     4068     3986     4536     5668     7236     9012 
   10725    12132    13047    13359    13063    12270    11163     9940 
    8757     7732     6966     6529     6430     6644     7121     7771 
    8495     9186     9732    10048    10085     9852     9460     9039 
    8721     8710     9185    10131    11361    12633    13775    14670 
   15206    15360    15213    14833    14251    13509    12677    11866 
   11192    10714    10427    10361    10531    10881    11346    11901 
   12548    13327    14257    15279    16256    17028    17479    17572 
   17338    16857    16279    15786    15476    15333    15290    15253 
   15094    14693    14018    13139    12175    11191    10215     9282 
    8428     7680     7092     6750     6686     6862     7202     7618 
    8040     8461     8869     9231     9537     9774     9927    10019 
   10100    10231    10449    10741    11048    11310    11529    11713 
   11834    11847    11723    11449    11053    10601    10185     9888 
    9720     9680     9803    10112    10592    11134    11566    11835 
   12001    12110    12205    12316    12451    12600    12734    12829 
   12879    12874    12852    12873    12981    13223    13618    14122 
   14651    15178    15724    16298    16860    17338    17671    17849 
   17857    17670    17329    16908    16455    15997    15525    15022 
   14535    14106    13743    13456    13267    13162    13092    12970 
   12733    12391    12027    11743    11614    11655    11834    12086 
   12333    12507    12599    12653    12730    12888    13170    13594 
   14146    14770    15383    15908    16275    16421    16309    15907 
   15226    14365    13452    12622    12004    11649    11520    11546 
   11639    11665    11475    11020    10336     9504     8613     7753 
    7030     6540     6301     6264     6374     6602     6918     7249 
    7507     7643     7666     7604     7457     7242     7020     6853 
    6741     6621     6450     6230     6006     5832     5728     5702 
    5775     5938     6146     6372     6629     6949     7331     7696 
    7960     8137     8291     8453     8617     8752     8800     8707 
    8457     8066     7569     7013     6440     5927     5552     5336 
    5274     5377     5657     6091     6608     7125     7603     8043 
    8417     8672     8810     8865     8873     8869     8920     9097 
    9439     9937    10521    11092    11584    11973    12259    12455 
   12560    12552    12440    12289    12213    12351    12792    13564 
   14621    15867    17199    18526    19766    20849    21716    22327 
   22689    22844    22823    22643    22329    21890    21347    20748 
   20123    19498    18933    18485    18166    17940    17721    17447 
   17103    16680    16179    15619    15036    14472    13938    13435 
   13001    12675    12442    12252    12044    11796    11537    11291 
   11071    10914    10860    10908    11030    11180    11311    11416 
   11499    11530    11441    11175    10781    10370    10019     9788 
    9755     9949    10338    10849    11387    11865    12228    12452 
   12571    12665    12762    12856    12955    13103    13343    13714 
   14231    14874    15570    16214    16713    16995    17030    16843 
   16479    15993    15441    14854    14247    13625    12974    12268 
   11502    10686     9829     8910     7924     6913     5953     5130 
    4546     4252     4228     4455     4918     5576     6413     7407 
    8506     9641    10714    11608    12222    12482    12370    11931 
   11225    10332     9379     8486     7754     7258     7064     7207 
    7638     8248     8941     9621    10226    10714    11018    11117 
   11064    10903    10655    10336     9967     9589     9269     9047 
    8942     8961     9103     9331     9580     9769     9841     9779 
    9582     9269     8922     8656     8553     8622     8843     9209 
    9666    10084    10322    10303    10049     9628     9107     8575 
    8152     7943     7996     8322     8903     9688    10628    11680 
   12810    13998    15196    16313    17248    17926    18304    18400 
   18276    17968    17486    16835    16023    15028    13868    12638 
   11483    10546     9911     9568     9456     9508     9661     9852 
   10008    10065     9979     9740     9378     8934     8430     7919 
    7503     7276     7219     7277     7431     7678     8001     8352 
    8652     8833     8860     8739     8537     8351     8282     8410 
    8722     9111     9468     9753    10015    10334    10721    11157 
   11634    12112    12522    12837    13093    13340    13597    13864 
   14162    14535    15022    15639    16374    17162    17902    18482 
   18796    18771    18431    17888    17282    16684    16121    15616 
   15194    14868    14623    14431    14250    14040    13775    13447 
   13076    12712    12425    12285    12321    12522    12843    13225 
   13614    13961    14222    14365    14354    14183    13863    13392 
   12818    12271    11894    11770    11878    12160    12591    13131 
   13698    14184    14512    14661    14635    14443    14119    13743 
   13400    13151    13027    13015    13066    13159    13297    13456 
   13578    13606    13533    13409    13296    13209    13153    13151 
   13228    13381    13566    13752    13938    14110    14216    14199 
   14006    13639    13130    12475    11659    10721     9736     8776 
    7901     7159     6582     6193     5975     5837     5722     5641 
    5616     5616     5586     5478     5292     5061     4827     4646 
    4579     4677     4972     5459     6107     6868     7661     8386 
    8973     9398     9660     9815     9991    10318    10849    11568 
   12459    13500    14646    15836    16981    17948    18615    18878 
   18655    17963    16937    15745    14535    13408    12428    11630 
   11028    10615    10380    10299    10336    10430    10488    10428 
   10227     9922     9555     9155     8766     8438     8221     8160 
    8271     8532     8883     9267     9634     9909    10025     9992 
    9846     9585     9201     8730     8266     7923     7766     7790 
    7982     8328     8807     9366     9933    10438    10844    11114 
   11200    11090    10785    10292     9632     8857     8044     7271 
    6609     6142     5927     5991     6349     7024     7994     9171 
   10436    11703    12931    14068    15037    15788    16316    16622 
   16731    16680    16494    16216    15940    15768    15732    15801 
   15907    15975    15958    15820    15539    15136    14698    14357 
   14193    14245    14553    15097    15790    16522    17128    17442 
   17381    16934    16133    15049    13787    12479    11263    10239 
    9458     8946     8710     8698     8835     9063     9290     9387 
    9250     8815     8064     6972     5556     3951     2350      947 
     -76     -571     -433      360     1732     3534     5575     7657 
    9566    11074    11986    12231    11871    11075    10054     9026 
    8208     7753     7717     8090     8823     9856    11121    12503 
   13849    15028    15938    16521    16811    16897    16896    16960 
   17186    17595    18172    18858    19576    20244    20709    20825 
   20534    19842    18805    17554    16264    15148    14426    14256 
   14678    15612    16881    18249    19454    20283    20599    20339 
   19542    18326    16798    15088    13401    11966    10967    10478 
   10449    10824    11549    12499    13501    14380    15033    15423 
   15493    15165    14420    13321    11975    10550     9221     8081 
    7207     6682     6544     6809     7408     8208     9116     9998 
   10669    11020    10995    10547     9706     8565     7240     5868 
    4577     3438     2504     1833     1463     1413     1641     2037 
    2470     2855     3165     3423     3654     3870     4113     4450 
    4905     5459     6083     6731     7334     7792     7979     7820 
    7303     6475     5463     4430     3522     2853     2543     2689 
    3326     4411     5844     7447     9001    10322    11290    11847 
   12010    11838    11389    10750    10053     9487     9213     9296 
    9725    10439    11335    12278    13126    13767    14111    14129 
   13878    13423    12825    12210    11730    11495    11583    12005 
   12696    13575    14561    15564    16503    17304    17905    18301 
   18493    18457    18246    17999    17837    17857    18112    18565 
   19144    19782    20405    20934    21293    21404    21190    20630 
   19777    18713    17513    16283    15169    14291    13707    13436 
   13439    13656    14017    14388    14611    14582    14334    13979 
   13625    13352    13239    13348    13678    14150    14673    15165 
   15566    15782    15704    15259    14455    13396    12259    11233 
   10481    10162    10385    11125    12260    13656    15178    16652 
   17867    18646    18905    18638    17874    16711    15310    13852 
   12532    11485    10766    10392    10336    10508    10804    11124 
   11406    11641    11835    11978    12067    12136    12237    12434 
   12768    13248    13840    14458    15001    15360    15437    15168 
   14531    13560    12366    11055     9745     8581     7672     7086 
    6885     7094     7676     8515     9450    10314    10947    11240 
   11149    10674     9853     8760     7511     6241     5050     4032 
    3310     2971     3038     3489     4272     5325     6556     7834 
    9031    10053    10832    11308    11448    11286    10910    10428 
    9979     9690     9590     9640     9806    10021    10172    10152 
    9888     9352     8586     7669     6679     5707     4872     4279 
    4001     4070     4471     5147     5995     6880     7668     8230 
    8491     8413     8032     7477     6940     6619     6689     7264 
    8370     9979    11988    14207    16426    18450    20105    21277 
   21895    21903    21289    20124    18540    16680    14708    12791 
   11055     9574     8405     7562     7029     6771     6728     6848 
    7087     7373     7674     8002     8328     8622     8865     9007 
    9030     8939     8731     8461     8208     8029     7974     8066 
    8314     8749     9377    10152    11001    11867    12702    13455 
   14064    14478    14678    14655    14446    14158    13898    13725 
   13694    13851    14208    14727    15345    16017    16675    17232 
   17621    17784    17691    17342    16748    15921    14926    13867 
   12839    11929    11218    10717    10409    10292    10354    10575 
   10925    11352    11801    12226    12603    12933    13190    13315 
   13251    12958    12451    11751    10858     9867     8945     8210 
    7781     7736     8074     8788     9795    10936    12110    13223 
   14149    14887    15477    15898    16182    16421    16652    16839 
   17030    17308    17631    17945    18250    18503    18685    18843 
   19039    19306    19608    19851    19947    19828    19472    18909 
   18215    17436    16580    15681    14773    13829    12827    11794 
   10754     9724     8721     7761     6910     6232     5763     5528 
    5535     5763     6146     6585     6976     7227     7264     7029 
    6488     5675     4707     3732     2883     2251     1864     1702 
    1745     1945     2274     2743     3321     3978     4691     5394 
    6041     6619     7109     7470     7665     7669     7423     6847 
    5989     5005     4004     3080     2376     1965     1863     2100 
    2682     3545     4617     5840     7115     8329     9394    10233 
   10800    11115    11242    11240    11138    10995    10882    10835 
   10899    11169    11701    12505    13589    14941    16480    18090 
   19615    20892    21772    22154    22054    21589    20904    20142 
   19437    18904    18598    18500    18546    18677    18816    18852 
   18678    18230    17525    16649    15723    14866    14206    13875 
   13922    14305    14939    15699    16443    17066    17510    17683 
   17523    17032    16236    15172    13922    12571    11227    10004 
    8976     8187     7668     7391     7315     7387     7542     7753 
    7996     8201     8294     8266     8145     7959     7732     7497 
    7326     7280     7389     7654     8055     8557     9124     9717 
   10274    10740    11071    11233    11218    11049    10766    10388 
    9914     9337     8677     7962     7203     6415     5652     5004 
    4541     4314     4352     4671     5275     6119     7126     8206 
    9244    10189    11020    11641    11951    11934    11638    11148 
   10565     9985     9525     9301     9375     9732    10318    11047 
   11816    12540    13154    13606    13884    13980    13892    13671 
