Origin Time       2025/01/13 21:19:00
Lat.              31.8
Long.             131.6
Depth. (km)       30
Mag.              6.9
Station Code      KGSH08
Station Lat.      31.5618
Station Long.     130.9969
Station Height(m) -53.603
Record Time       2025/01/13 21:19:45
Sampling Freq(Hz) 100Hz
Duration Time(s)  120
Dir.              2
Scale Factor      2940(gal)/6170270
Max. Acc. (gal)   6.606
Last Correction   2025/01/13 21:19:30
Memo.             
[...]
  -28778   -28111   -27732   -27602   -27543   -27552   -27690   -27913 
  -28178   -28459   -28714   -28990   -29321   -29644   -29996   -30420 
  -30737   -30758   -30594   -30463   -30279   -29817   -29176   -28633 
  -28234   -27817   -27291   -26747   -26342   -26181   -26217   -26330 
  -26445   -26454   -26261   -25939   -25577   -25117   -24494   -23822 
  -23336   -23125   -22970   -22680   -22538   -22857   -23274   -23495 
  -23887   -24565   -25140   -25370   -25360   -25184   -24691   -24059 
  -23478   -22675   -21695   -20835   -20177   -19810   -19635   -19330 
  -18987   -18971   -19227   -19602   -20166   -20790   -21245   -21539 
  -21710   -21709   -21667   -21797   -22150   -22743   -23556   -24368 
  -24982   -25461   -25899   -26255   -26560   -26954   -27398   -27528 
  -27171   -26883   -26840   -26181   -25221   -25078   -25326   -25741 
  -26700   -27680   -28558   -29625   -30806   -32047   -33132   -33847 
  -34198   -34256   -34126   -33829   -33394   -32943   -32540   -32152 
  -31723   -31264   -30638   -29729   -29130   -29184   -29211   -29103 
  -29194   -29155   -28922   -28660   -28291   -27875   -27397   -26874 
  -26456   -26081   -25717   -25599   -25823   -26153   -26395   -26599 
  -26831   -27006   -27089   -27197   -27428   -27857   -28463   -28996 
  -29247   -29287   -29206   -28951   -28565   -28231   -27964   -27635 
  -27334   -27206   -27115   -26795   -26125   -25322   -24733   -24354 
  -24041   -23793   -23653   -23716   -23925   -24055   -24187   -24519 
  -24946   -25348   -25646   -25642   -25366   -25084   -24933   -24734 
  -24178   -23272   -22310   -21538   -21053   -20808   -20728   -20824 
  -21152   -21726   -22521   -23343   -23884   -24132   -24233   -24184 
  -23973   -23576   -23067   -22722   -22678   -22874   -23201   -23401 
  -23485   -23910   -24740   -25534   -26122   -26619   -27073   -27486 
  -27874   -28234   -28481   -28557   -28539   -28481   -28329   -28060 
  -27813   -27803   -28015   -28140   -28068   -28154   -28669   -29489 
  -30414   -31270   -31973   -32731   -33734   -34753   -35438   -35813 
  -36207   -36786   -37148   -36747   -36001   -35622   -35271   -34852 
  -34815   -34783   -34556   -34544   -34679   -34791   -34842   -34676 
  -34330   -33915   -33391   -32732   -32006   -31276   -30460   -29475 
  -28456   -27600   -26948   -26472   -26304   -26523   -26848   -26976 
  -26956   -27057   -27383   -27766   -28064   -28280   -28382   -28318 
  -28190   -28053   -27884   -27792   -27784   -27729   -27556   -27209 
  -26628   -25870   -25187   -24783   -24546   -24208   -23638   -22912 
  -22247   -21816   -21431   -20907   -20562   -20549   -20657   -20922 
  -21290   -21527   -21545   -21427   -21505   -21737   -21778   -21763 
  -21808   -21802   -21797   -21875   -22093   -22563   -23271   -23884 
  -24201   -24252   -23962   -23594   -23460   -23378   -23107   -22643 
  -22243   -21882   -21197   -20414   -19893   -19508   -19288   -19346 
  -19565   -19802   -19918   -19905   -19942   -20156   -20601   -21386 
  -22503   -23628   -24516   -25292   -26065   -26795   -27541   -28424 
  -29427   -30360   -30971   -31175   -31089   -30782   -30310   -29918 
  -29756   -29664   -29473   -29155   -28809   -28609   -28502   -28348 
  -28431   -28981   -29592   -30022   -30383   -30509   -30363   -30132 
  -29757   -29249   -28744   -28187   -27531   -26983   -26669   -26469 
  -26471   -26864   -27330   -27409   -27314   -27450   -27618   -27519 
  -27333   -27311   -27488   -27952   -28701   -29311   -29426   -29214 
  -28921   -28525   -27983   -27415   -26924   -26488   -26063   -25624 
  -25144   -24582   -23879   -23130   -22769   -23088   -23468   -23529 
  -24025   -24795   -25068   -25445   -26121   -26457   -26593   -26718 
  -26736   -26617   -26237   -25688   -25207   -24805   -24424   -24027 
  -23576   -23117   -22707   -22445   -22511   -22856   -23300   -23896 
  -24671   -25386   -25911   -26394   -26843   -27047   -26963   -26766 
  -26626   -26656   -26745   -26524   -26229   -26868   -28130   -28649 
  -28891   -29538   -29973   -30420   -30906   -30886   -30637   -30178 
  -29517   -29123   -29033   -29001   -28884   -28813   -28887   -28895 
  -28768   -28720   -28881   -29158   -29457   -29805   -30087   -30053 
  -29690   -29174   -28660   -28293   -28109   -28090   -28271   -28527 
  -28790   -29339   -30174   -30808   -31251   -31998   -32890   -33483 
  -33893   -34205   -34207   -33821   -33068   -32003   -30884   -30038 
  -29410   -28658   -27797   -27166   -26782   -26438   -26243   -26260 
  -26200   -26000   -25924   -25990   -25973   -25970   -26141   -26185 
  -25984   -25885   -26012   -26205   -26372   -26501   -26656   -26895 
  -27091   -27068   -26893   -26761   -26658   -26395   -25946   -25538 
  -25338   -25313   -25458   -25703   -25736   -25348   -24753   -24285 
  -23928   -23452   -22847   -22278   -21840   -21491   -21095   -20665 
  -20397   -20418   -20733   -21209   -21688   -22279   -23159   -24236 
  -25346   -26380   -27203   -27839   -28375   -28789   -29149   -29504 
  -29704   -29703   -29631   -29505   -29255   -28838   -28325   -27933 
  -27738   -27509   -26968   -26260   -25754   -25515   -25567   -25910 
  -26407   -27229   -28501   -29834   -30860   -31657   -32306   -32616 
  -32808   -33290   -33350   -32436   -31650   -31332   -30580   -29632 
  -29051   -28774   -28698   -28576   -28359   -28166   -28002   -27900 
  -27773   -27599   -27547   -27660   -27887   -28246   -28662   -28922 
  -28917   -28691   -28394   -28238   -28192   -28005   -27527   -26843 
  -26244   -25913   -25773   -25667   -25490   -25320   -25212   -24865 
  -24016   -22917   -21885   -20992   -20449   -20349   -20397   -20394 
  -20296   -20120   -19985   -19881   -19704   -19448   -19274   -19366 
  -19610   -19886   -20352   -21042   -21835   -22711   -23594   -24262 
  -24618   -24846   -25151   -25448   -25547   -25457   -25196   -24595 
  -23579   -22354   -21169   -20237   -19664   -19399   -19536   -19941 
  -20140   -20363   -20999   -21747   -22621   -23794   -24962   -25985 
  -26912   -27703   -28246   -28463   -28495   -28476   -28399   -28298 
  -28196   -28130   -28196   -28395   -28727   -29277   -30008   -30869 
  -31864   -32814   -33626   -34515   -35468   -36165   -36517   -36623 
  -36413   -35835   -35148   -34583   -33964   -33199   -32485   -31797 
  -31135   -30791   -30710   -30740   -31055   -31582   -32034   -32243 
  -32122   -31678   -31012   -30309   -29726   -29238   -28734   -28190 
  -27668   -27262   -27040   -26993   -27092   -27352   -27841   -28569 
  -29399   -30163   -30847   -31507   -32018   -32104   -31659   -30930 
  -30281   -29791   -29277   -28687   -28188   -27909   -27824   -27809 
  -27771   -27743   -27791   -27920   -28052   -28131   -28184   -28131 
  -27782   -27119   -26371   -25776   -25326   -24816   -24196   -23550 
  -22870   -22201   -21667   -21242   -20861   -20888   -21692   -22573 
  -23012   -23693   -24384   -24501   -24678   -24884   -24771   -24641 
  -24342   -23932   -23920   -24231   -24442   -24486   -24685   -25155 
  -25636   -26095   -26593   -26894   -26949   -26897   -26672   -26238 
  -25686   -25076   -24462   -23926   -23591   -23565   -23838   -24344 
  -24983   -25518   -25821   -26054   -26367   -26769   -27168   -27415 
  -27530   -27617   -27643   -27514   -27256   -26943   -26600   -26297 
  -26112   -25996   -25874   -25736   -25561   -25364   -25235   -25200 
  -25184   -25127   -24993   -24730   -24340   -23927   -23558   -23261 
  -23177   -23405   -23829   -24348   -24911   -25386   -25731   -25949 
  -25908   -25557   -25083   -24712   -24497   -24411   -24469   -24656 
  -24878   -25018   -25042   -25014   -24995   -24961   -24906   -24891 
  -24902   -24829   -24639   -24563   -24952   -25664   -26256   -26945 
  -28030   -29114   -30068   -31019   -31724   -32167   -32542   -32828 
  -32928   -32723   -32209   -31541   -30827   -30105   -29493   -29080 
  -28824   -28758   -28886   -28981   -28907   -28724   -28567   -28682 
  -29074   -29405   -29576   -29694   -29681   -29443   -29027   -28547 
  -28148   -27923   -27863   -27908   -27951   -27892   -27801   -27869 
  -28124   -28451   -28812   -29155   -29327   -29260   -29038   -28731 
  -28329   -27896   -27536   -27221   -26881   -26552   -26306   -26150 
  -26050   -26035   -26191   -26493   -26809   -27133   -27598   -28182 
  -28766   -29311   -29724   -30033   -30406   -30798   -31061   -31113 
  -30825   -30128   -29243   -28549   -28012   -27277   -26496   -25954 
  -25437   -24852   -24377   -24086   -23981   -24029   -24242   -24535 
  -24613   -24437   -24320   -24385   -24548   -24813   -25066   -25132 
  -25106   -25135   -25157   -25060   -24878   -24739   -24706   -24698 
  -24593   -24388   -24165   -23935   -23633   -23253   -22899   -22656 
  -22577   -22631   -22601   -22437   -22371   -22452   -22632   -22925 
  -23354   -24086   -25114   -26151   -27083   -27920   -28571   -28994 
  -29317   -29601   -29795   -29928   -30061   -30257   -30517   -30660 
  -30663   -30688   -30728   -30732   -30645   -30403   -30066   -29640 
  -29088   -28477   -27848   -27241   -26755   -26356   -25894   -25386 
  -24984   -24739   -24643   -24637   -24564   -24375   -24223   -24251 
  -24484   -24812   -25194   -25815   -26540   -27035   -27544   -28041 
  -28077   -27906   -27754   -27465   -27134   -26780   -26467   -26405 
  -26512   -26674   -27026   -27551   -28016   -28340   -28481   -28343 
  -27962   -27477   -27039   -26705   -26425   -26193   -26046   -25984 
  -25944   -25880   -25857   -25926   -26065   -26248   -26412   -26426 
  -26182   -25720   -25202   -24717   -24248   -23809   -23425   -23082 
  -22773   -22504   -22237   -21951   -21742   -21694   -21828   -22229 
  -22897   -23623   -24283   -24921   -25505   -25906   -26156   -26531 
  -27127   -27550   -27512   -27309   -27171   -26934   -26729   -26718 
  -26666   -26643   -26814   -26990   -27092   -27123   -27043   -26945 
  -26932   -26971   -26911   -26660   -26292   -25867   -25364   -24871 
  -24576   -24492   -24533   -24712   -25010   -25347   -25866   -26899 
  -28163   -29000   -29800   -31000   -31907   -32386   -32826   -33087 
  -33219   -33264   -33019   -32537   -31960   -31318   -30548   -29718 
  -29069   -28587   -28157   -27894   -27806   -27798   -27900   -28075 
  -28236   -28396   -28455   -28315   -28140   -28017   -27911   -27918 
  -28043   -28213   -28457   -28771   -29109   -29452   -29839   -30274 
  -30672   -30955   -31089   -31087   -31012   -30885   -30666   -30322 
  -29856   -29289   -28619   -27839   -27029   -26344   -25863   -25563 
  -25428   -25456   -25594   -25776   -26004   -26258   -26447   -26570 
  -26633   -26583   -26414   -26106   -25672   -25192   -24634   -23979 
  -23354   -22849   -22503   -22469   -22878   -23617   -24505   -25411 
  -26073   -26393   -26626   -26930   -27287   -27660   -27921   -28079 
  -28297   -28509   -28616   -28756   -28902   -28919   -28846   -28640 
  -28224   -27721   -27293   -27004   -26840   -26776   -26743   -26663 
  -26575   -26516   -26425   -26287   -26203   -26251   -26378   -26472 
  -26509   -26569   -26698   -26878   -27141   -27498   -27861   -28112 
  -28160   -28017   -27754   -27365   -26842   -26326   -26002   -25940 
  -26072   -26287   -26523   -26749   -26993   -27267   -27461   -27719 
  -28392   -28907   -28552   -28168   -28181   -27895   -27683   -27768 
  -27633   -27460   -27267   -26864   -26427   -26042   -25740   -25484 
  -25230   -25090   -25093   -25145   -25204   -25317   -25508   -25743 
  -25989   -26192   -26323   -26436   -26598   -26835   -27125   -27451 
  -27829   -28224   -28584   -28937   -29237   -29266   -28893   -28287 
  -27640   -26981   -26399   -25946   -25489   -24962   -24458   -24019 
  -23543   -23042   -22707   -22586   -22606   -22665   -22680   -22687 
  -22717   -22717   -22695   -22693   -22702   -22699   -22704   -22775 
  -22984   -23358   -23814   -24256   -24683   -25066   -25332   -25456 
  -25442   -25377   -25444   -25742   -26185   -26530   -26599   -26561 
  -26557   -26342   -25935   -25597   -25202   -24710   -24301   -23970 
  -23806   -23895   -24192   -24764   -25596   -26440   -27086   -27591 
  -28093   -28584   -29093   -29712   -30294   -30681   -30966   -31207 
  -31393   -31602   -31864   -32197   -32637   -33036   -33206   -33131 
  -32803   -32181   -31363   -30546   -29827   -29208   -28714   -28358 
  -28122   -27987   -27953   -28009   -28065   -28023   -27881   -27665 
  -27334   -26835   -26236   -25755   -25438   -24964   -24260   -23678 
  -23267   -22848   -22488   -22222   -22020   -22072   -22439   -22836 
  -23233   -23804   -24373   -24744   -24876   -24801   -24737   -24648 
  -24376   -24097   -23932   -23857   -23855   -23816   -23684   -23507 
  -23284   -23054   -22966   -23140   -23487   -23759   -23903   -24057 
  -24145   -23995   -23680   -23284   -22777   -22273   -21823   -21342 
  -20880   -20579   -20586   -20921   -21394   -21846   -22354   -23044 
  -23828   -24570   -25256   -25874   -26445   -27060   -27657   -28009 
  -27971   -27609   -27126   -26682   -26365   -26198   -26152   -26206 
  -26332   -26547   -26917   -27446   -28067   -28730   -29378   -29880 
  -30224   -30714   -31314   -31416   -31084   -30885   -30658   -30337 
  -30246   -30311   -30417   -30602   -31040   -31928   -33066   -34208 
  -35289   -36220   -37046   -37847   -38549   -39111   -39568   -39958 
  -40339   -40697   -40833   -40581   -40153   -39798   -39416   -38955 
  -38489   -37979   -37471   -37051   -36658   -36344   -36267   -36203 
  -35904   -35542   -35077   -34467   -33988   -33533   -32943   -32403 
  -31882   -31246   -30557   -30061   -29771   -29136   -28198   -27537 
  -26835   -25802   -24833   -24008   -23187   -22393   -21657   -20950 
  -20299   -19839   -19606   -19533   -19630   -19976   -20588   -21376 
  -22238   -23017   -23503   -23708   -23834   -24027   -24263   -24410 
  -24434   -24352   -24185   -23929   -23457   -22734   -21992   -21336 
  -20640   -20070   -19785   -19534   -19321   -19348   -19531   -19684 
  -19735   -19733   -19626   -19262   -18646   -17905   -17126   -16382 
  -15769   -15356   -15116   -14979   -14985   -15201   -15636   -16314 
  -17166   -18024   -18785   -19423   -19889   -20204   -20454   -20676 
  -20950   -21262   -21529   -21807   -22197   -22768   -23486   -24274 
  -25061   -25743   -26334   -26886   -27302   -27546   -27688   -27741 
  -27651   -27293   -26813   -26638   -26741   -26908   -27282   -27840 
  -28474   -29279   -30188   -31123   -32114   -33112   -34046   -34859 
  -35542   -36119   -36550   -36729   -36766   -36946   -37125   -37115 
  -37175   -37217   -37062   -36926   -36747   -36414   -35976   -35408 
  -34767   -34047   -33177   -32190   -31166   -30186   -29258   -28372 
  -27528   -26737   -26066   -25432   -24721   -24153   -23846   -23612 
  -23433   -23351   -23314   -23307   -23345   -23523   -23926   -24494 
  -25059   -25459   -25556   -25337   -24898   -24277   -23509   -22710 
  -22095   -21826   -21874   -22183   -22695   -23300   -23927   -24588 
  -25252   -25874   -26459   -27024   -27627   -28299   -28969   -29560 
  -30088   -30519   -30762   -30932   -31116   -31265   -31453   -31728 
  -32038   -32358   -32610   -32670   -32529   -32259   -31873   -31362 
  -30756   -30078   -29350   -28663   -28068   -27485   -26880   -26360 
  -25972   -25594   -25125   -24613   -24122   -23645   -23211   -22888 
  -22691   -22534   -22326   -22144   -22101   -22200   -22499   -23055 
  -23755   -24513   -25327   -26133   -26831   -27341   -27708   -28048 
  -28422   -28825   -29183   -29469   -29688   -29787   -29716   -29513 
  -29250   -28955   -28684   -28478   -28300   -28097   -27866   -27648 
  -27492   -27443   -27514   -27685   -27941   -28260   -28598   -28890 
  -29121   -29307   -29386   -29321   -29174   -28939   -28547   -28012 
  -27405   -26735   -25998   -25289   -24725   -24320   -23989   -23655 
  -23349   -23188   -23250   -23507   -23893   -24345   -24820   -25322 
  -25825   -26262   -26610   -26863   -27005   -27071   -27114   -27157 
  -27305   -27697   -28301   -28940   -29483   -29890   -30145   -30240 
  -30185   -29944   -29501   -28986   -28573   -28314   -28137   -28000 
  -27920   -27891   -27906   -27901   -27760   -27462   -27007   -26353 
  -25562   -24749   -23973   -23282   -22710   -22279   -22013   -21954 
  -22211   -22855   -23823   -24976   -26134   -27143   -28037   -28958 
  -29878   -30619   -31093   -31365   -31516   -31488   -31184   -30643 
  -29972   -29233   -28539   -28009   -27595   -27211   -26859   -26503 
  -26084   -25616   -25173   -24834   -24659   -24647   -24729   -24832 
  -24946   -25051   -25115   -25192   -25311   -25431   -25582   -25813 
  -26065   -26211   -26209   -26169   -26184   -26198   -26145   -26062 
  -26008   -26028   -26129   -26234   -26230   -26075   -25831   -25561 
  -25278   -25040   -24943   -25006   -25215   -25560   -25955   -26303 
  -26603   -26881   -27158   -27435   -27656   -27773   -27772   -27660 
  -27478   -27260   -27057   -26951   -26926   -26901   -26886   -26914 
  -26965   -26985   -26951   -26929   -26988   -27084   -27158   -27224 
  -27310   -27411   -27514   -27647   -27860   -28125   -28316   -28347 
  -28230   -27991   -27647   -27244   -26861   -26532   -26209   -25852 
  -25530   -25331   -25251   -25290   -25469   -25696   -25881   -26093 
  -26419   -26827   -27289   -27823   -28369   -28799   -29039   -29056 
  -28883   -28631   -28361   -28064   -27757   -27439   -27060   -26586 
  -26040   -25555   -25276   -25216   -25314   -25499   -25678   -25809 
  -25908   -25964   -25954   -25932   -26001   -26224   -26619   -27171 
  -27825   -28530   -29232   -29871   -30428   -30886   -31250   -31617 
  -32018   -32337   -32487   -32469   -32311   -32046   -31677   -31229 
  -30772   -30365   -30073   -29915   -29791   -29612   -29379   -29091 
  -28760   -28444   -28171   -27925   -27715   -27582   -27544   -27550 
  -27510   -27377   -27238   -27228   -27373   -27612   -27873   -28083 
  -28192   -28205   -28166   -28090   -27954   -27733   -27468   -27292 
  -27211   -27090   -26972   -26948   -26956   -27020   -27146   -27213 
  -27167   -27006   -26793   -26569   -26302   -26004   -25676   -25297 
  -24922   -24596   -24236   -23798   -23362   -22992   -22713   -22482 
  -22272   -22203   -22374   -22692   -23041   -23459   -23924   -24271 
  -24508   -24732   -24895   -24957   -24999   -25125   -25419   -25942 
  -26619   -27279   -27870   -28408   -28807   -29046   -29216   -29301 
  -29256   -29102   -28834   -28447   -27952   -27347   -26703   -26127 
  -25667   -25365   -25243   -25222   -25173   -25084   -25025   -24987 
  -24966   -24996   -25079   -25223   -25395   -25506   -25548   -25589 
  -25700   -25936   -26269   -26637   -27046   -27462   -27763   -27898 
  -27973   -28051   -28047   -27978   -27899   -27756   -27623   -27497 
  -27204   -26800   -26373   -25923   -25550   -25255   -24979   -24786 
  -24725   -24739   -24752   -24751   -24729   -24681   -24647   -24659 
  -24723   -24826   -24897   -24882   -24864   -24968   -25225   -25624 
  -26127   -26640   -27116   -27574   -27986   -28255   -28322   -28239 
  -28098   -27921   -27709   -27513   -27379   -27335   -27366   -27386 
