Origin Time       2025/01/13 21:19:00
Lat.              31.8
Long.             131.6
Depth. (km)       30
Mag.              6.9
Station Code      KGSH02
Station Lat.      31.9940
Station Long.     130.2077
Station Height(m) -161.238
Record Time       2025/01/13 21:19:53
Sampling Freq(Hz) 100Hz
Duration Time(s)  206
Dir.              2
Scale Factor      2940(gal)/6170270
Max. Acc. (gal)   4.005
Last Correction   2025/01/13 21:19:38
Memo.             
[...]
   15449    15531    15628    15735    15882    16033    16117    16174 
   16274    16405    16535    16691    16875    17014    17080    17107 
   17094    17033    16975    16966    17005    17077    17171    17249 
   17280    17318    17435    17605    17760    17902    18056    18193 
   18291    18357    18386    18378    18392    18496    18671    18835 
   18965    19067    19099    19035    18931    18842    18756    18673 
   18644    18674    18711    18727    18703    18591    18384    18158 
   17990    17874    17774    17702    17687    17710    17726    17714 
   17670    17581    17457    17323    17181    17017    16831    16641 
   16487    16403    16370    16344    16304    16248    16203    16182 
   16161    16133    16116    16117    16137    16159    16146    16073 
   15949    15815    15689    15573    15483    15418    15347    15260 
   15167    15074    14986    14896    14801    14714    14642    14555 
   14431    14299    14194    14104    14007    13897    13771    13618 
   13454    13311    13203    13118    13044    12978    12927    12911 
   12943    13026    13138    13235    13285    13299    13306    13319 
   13327    13314    13273    13217    13185    13215    13305    13426 
   13574    13752    13905    13962    13922    13835    13732    13613 
   13476    13341    13241    13196    13198    13234    13301    13384 
   13460    13503    13515    13523    13538    13547    13521    13452 
   13365    13276    13181    13091    13010    12940    12903    12922 
   12990    13098    13246    13418    13586    13735    13852    13904 
   13883    13840    13833    13864    13910    13975    14053    14097 
   14105    14115    14124    14106    14069    14031    13983    13929 
   13891    13866    13830    13810    13839    13886    13917    13945 
   13974    13974    13933    13873    13820    13790    13801    13864 
   13980    14136    14298    14431    14539    14667    14840    15021 
   15171    15307    15448    15592    15745    15913    16076    16207 
   16311    16402    16500    16628    16798    17001    17223    17456 
   17690    17919    18133    18322    18470    18565    18600    18587 
   18552    18532    18546    18596    18684    18785    18855    18864 
   18821    18753    18687    18640    18614    18593    18562    18517 
   18437    18291    18085    17873    17684    17506    17348    17246 
   17194    17151    17097    17035    16977    16932    16900    16872 
   16831    16762    16665    16553    16446    16352    16268    16186 
   16110    16045    15994    15958    15921    15864    15778    15672 
   15570    15485    15415    15359    15300    15203    15061    14917 
   14808    14717    14622    14519    14398    14262    14142    14050 
   13975    13903    13834    13777    13739    13709    13658    13578 
   13480    13374    13259    13133    12998    12852    12699    12546 
   12391    12237    12100    11984    11895    11851    11851    11893 
   11976    12060    12087    12058    12006    11958    11930    11924 
   11927    11912    11855    11754    11626    11499    11394    11308 
   11231    11161    11096    11061    11099    11219    11383    11538 
   11661    11763    11855    11953    12069    12190    12290    12362 
   12415    12457    12492    12521    12549    12589    12661    12764 
   12870    12960    13028    13087    13160    13269    13408    13548 
   13680    13824    13963    14061    14120    14172    14221    14261 
   14310    14390    14485    14575    14678    14811    14959    15121 
   15304    15507    15732    15990    16280    16579    16852    17067 
   17219    17317    17382    17435    17473    17491    17505    17524 
   17538    17543    17527    17466    17380    17315    17295    17316 
   17363    17423    17499    17593    17700    17797    17859    17890 
   17906    17903    17886    17909    18008    18140    18247    18329 
   18411    18477    18492    18456    18392    18307    18204    18090 
   17965    17826    17687    17563    17461    17385    17334    17294 
   17259    17233    17204    17143    17046    16929    16788    16619 
   16439    16229    15961    15682    15463    15313    15197    15098 
   15014    14935    14860    14804    14753    14686    14611    14548 
   14505    14481    14474    14456    14391    14281    14161    14043 
   13923    13807    13698    13601    13541    13539    13572    13607 
   13643    13678    13679    13638    13595    13559    13498    13399 
   13300    13233    13187    13145    13113    13092    13063    13006 
   12926    12854    12806    12767    12718    12663    12616    12582 
   12567    12569    12575    12580    12589    12598    12594    12574 
   12558    12561    12562    12542    12508    12479    12460    12460 
   12495    12568    12677    12808    12944    13070    13177    13257 
   13304    13332    13373    13436    13491    13523    13553    13587 
   13602    13593    13572    13543    13506    13478    13461    13448 
   13440    13458    13511    13585    13669    13752    13820    13853 
   13849    13824    13805    13817    13885    14011    14161    14300 
   14420    14524    14610    14688    14786    14898    14999    15088 
   15190    15314    15448    15582    15706    15798    15848    15872 
   15879    15862    15823    15781    15752    15734    15721    15713 
   15707    15696    15692    15717    15770    15841    15939    16079 
   16243    16396    16517    16596    16630    16625    16599    16565 
   16532    16516    16524    16552    16603    16673    16749    16833 
   16937    17042    17118    17168    17218    17279    17362    17479 
   17608    17726    17842    17963    18081    18177    18253    18321 
   18389    18454    18508    18546    18568    18562    18511    18427 
   18335    18242    18149    18050    17933    17807    17708    17633 
   17548    17451    17355    17248    17111    16958    16808    16637 
   16409    16145    15895    15668    15440    15193    14942    14704 
   14488    14303    14165    14066    13962    13825    13677    13536 
   13389    13218    13036    12845    12642    12459    12336    12265 
   12219    12183    12168    12191    12242    12302    12365    12431 
   12503    12581    12654    12716    12775    12834    12891    12933 
   12947    12946    12948    12956    12978    13029    13107    13193 
   13271    13339    13401    13468    13549    13631    13700    13769 
   13861    13982    14134    14316    14512    14695    14846    14952 
   15016    15046    15050    15054    15067    15076    15096    15144 
   15192    15207    15193    15167    15136    15102    15072    15044 
   15004    14952    14892    14824    14752    14691    14659    14642 
   14616    14581    14557    14556    14583    14651    14769    14907 
   15034    15152    15271    15369    15427    15458    15464    15448 
   15436    15438    15419    15365    15310    15277    15236    15178 
   15148    15184    15270    15372    15463    15519    15540    15555 
   15568    15562    15560    15594    15642    15665    15657    15624 
   15557    15452    15340    15248    15175    15127    15117    15127 
   15128    15112    15082    15032    14956    14859    14759    14661 
   14575    14532    14542    14577    14606    14629    14649    14643 
   14598    14530    14439    14313    14175    14063    13994    13949 
   13902    13849    13789    13715    13615    13487    13344    13194 
   13039    12889    12760    12653    12555    12459    12365    12275 
   12201    12174    12199    12247    12304    12382    12488    12621 
   12779    12953    13119    13268    13411    13541    13635    13688 
   13718    13731    13732    13759    13848    13979    14123    14269 
   14407    14529    14645    14763    14881    15005    15158    15350 
   15563    15780    15996    16195    16366    16522    16671    16801 
   16907    16991    17043    17064    17071    17064    17037    16991 
   16937    16890    16848    16808    16775    16754    16753    16775 
   16822    16892    16965    17017    17043    17046    17027    16999 
   16976    16965    16968    16983    17007    17040    17075    17100 
   17108    17104    17093    17074    17039    16991    16947    16912 
   16883    16858    16827    16773    16694    16611    16538    16488 
   16460    16438    16418    16407    16415    16447    16491    16519 
   16517    16485    16428    16337    16215    16101    16035    16020 
   16026    16038    16069    16123    16169    16171    16133    16065 
   15956    15796    15605    15413    15248    15122    15008    14883 
   14760    14648    14539    14427    14318    14217    14129    14058 
   14001    13942    13868    13786    13700    13621    13562    13533 
   13529    13545    13581    13635    13700    13758    13775    13739 
   13670    13594    13511    13419    13315    13197    13064    12928 
   12820    12749    12690    12629    12583    12564    12569    12607 
   12691    12810    12953    13100    13217    13304    13396    13501 
   13599    13674    13720    13727    13695    13639    13576    13518 
   13470    13430    13393    13362    13356    13383    13425    13463 
   13498    13529    13548    13562    13590    13645    13723    13809 
   13904    14016    14142    14263    14351    14383    14367    14318 
   14229    14100    13967    13858    13775    13711    13659    13615 
   13587    13586    13608    13645    13697    13758    13818    13863 
   13894    13920    13939    13950    13968    14009    14071    14157 
   14277    14438    14640    14871    15112    15340    15558    15780 
   15994    16177    16333    16486    16628    16735    16817    16900 
   16986    17075    17178    17304    17445    17594    17747    17879 
   17971    18039    18109    18188    18276    18380    18503    18630 
   18751    18876    19004    19119    19220    19315    19404    19482 
   19544    19584    19589    19563    19522    19460    19382    19308 
   19234    19147    19054    18971    18899    18833    18766    18700 
   18642    18590    18526    18433    18311    18154    17961    17743 
   17501    17240    16984    16743    16516    16298    16084    15866 
   15645    15429    15226    15049    14902    14784    14699    14641 
   14597    14556    14506    14442    14358    14249    14117    13965 
   13810    13676    13567    13472    13383    13295    13202    13111 
   13042    13008    12986    12966    12952    12930    12881    12811 
   12731    12642    12542    12435    12336    12255    12195    12154 
   12135    12146    12177    12209    12236    12262    12271    12255 
   12229    12220    12220    12195    12137    12062    11992    11943 
   11929    11942    11959    11965    11958    11940    11912    11884 
   11858    11832    11800    11756    11698    11639    11590    11558 
   11544    11548    11576    11625    11691    11775    11880    11996 
   12114    12231    12342    12442    12522    12570    12589    12603 
   12618    12625    12627    12629    12634    12652    12691    12750 
   12820    12890    12964    13058    13183    13326    13473    13614 
   13745    13861    13959    14042    14122    14206    14286    14357 
   14430    14532    14666    14817    14972    15119    15246    15352 
   15439    15511    15578    15655    15749    15856    15974    16096 
   16218    16333    16432    16514    16587    16666    16754    16842 
   16935    17031    17124    17232    17379    17565    17794    18056 
   18326    18597    18874    19157    19437    19715    19996    20261 
   20502    20737    20958    21132    21251    21329    21392    21471 
   21583    21724    21872    22002    22107    22191    22252    22306 
   22360    22409    22442    22458    22464    22465    22457    22439 
   22414    22377    22314    22209    22063    21884    21677    21452 
   21224    21001    20791    20601    20433    20285    20142    19980 
   19782    19551    19310    19076    18843    18602    18347    18084 
   17824    17578    17340    17096    16835    16558    16275    15993 
   15726    15479    15242    15001    14754    14502    14249    13984 
   13709    13445    13213    13022    12871    12740    12618    12524 
   12439    12326    12195    12062    11914    11750    11588    11432 
   11270    11106    10963    10842    10720    10578    10412    10230 
   10054     9900     9767     9647     9543     9459     9394     9348 
    9326     9334     9366     9409     9461     9524     9586     9631 
    9655     9661     9658     9664     9683     9709     9731     9742 
    9743     9720     9667     9595     9511     9402     9274     9153 
    9059     9000     8970     8966     8983     9008     9021     9025 
    9031     9026     8995     8944     8893     8848     8810     8786 
    8784     8805     8856     8942     9051     9168     9298     9447 
    9608     9769     9930    10100    10278    10449    10607    10761 
   10912    11066    11224    11389    11564    11758    11971    12191 
   12392    12565    12726    12881    13030    13188    13377    13595 
   13827    14065    14305    14543    14779    15007    15226    15448 
   15677    15902    16139    16404    16679    16966    17278    17605 
   17932    18254    18569    18872    19156    19424    19685    19945 
   20196    20425    20653    20904    21171    21444    21722    22003 
   22274    22514    22719    22897    23046    23171    23275    23342 
   23362    23332    23255    23136    22971    22761    22523    22269 
   22002    21729    21463    21202    20945    20687    20433    20198 
   19992    19812    19655    19520    19409    19306    19202    19097 
   18997    18907    18821    18727    18610    18458    18270    18045 
   17775    17463    17125    16755    16359    15970    15631    15358 
   15134    14938    14760    14590    14409    14204    13976    13740 
   13510    13291    13070    12837    12612    12412    12217    12029 
   11886    11789    11718    11683    11696    11737    11791    11860 
   11936    12004    12068    12143    12229    12321    12427    12552 
   12678    12791    12897    12998    13083    13143    13174    13174 
   13147    13104    13063    13031    13014    13028    13080    13162 
   13269    13391    13511    13632    13767    13915    14065    14209 
   14349    14483    14613    14743    14867    14980    15083    15168 
   15240    15308    15376    15444    15505    15564    15628    15686 
   15730    15756    15767    15761    15741    15719    15707    15707 
   15731    15788    15867    15944    16000    16029    16036    16028 
   16024    16029    16030    16007    15958    15882    15764    15594 
   15389    15166    14933    14699    14483    14303    14159    14051 
   13971    13900    13826    13753    13687    13637    13610    13608 
   13622    13636    13632    13591    13489    13337    13166    13001 
   12854    12740    12668    12635    12634    12656    12672    12660 
   12628    12581    12515    12430    12335    12246    12171    12110 
   12066    12050    12064    12106    12180    12292    12433    12592 
   12760    12927    13088    13237    13371    13487    13587    13680 
   13775    13870    13965    14071    14197    14337    14479    14623 
   14774    14942    15135    15347    15560    15753    15919    16054 
   16165    16267    16372    16488    16609    16735    16871    17013 
   17155    17281    17375    17434    17464    17470    17468    17471 
   17480    17498    17526    17555    17592    17646    17713    17784 
   17854    17905    17919    17897    17848    17781    17714    17666 
   17646    17653    17683    17726    17777    17829    17876    17911 
   17932    17945    17952    17949    17940    17938    17941    17941 
   17937    17931    17919    17902    17886    17874    17854    17818 
   17772    17731    17706    17696    17692    17681    17648    17587 
   17505    17406    17290    17166    17043    16918    16789    16670 
   16565    16479    16411    16355    16309    16270    16241    16211 
   16170    16116    16057    15990    15911    15829    15758    15690 
   15608    15506    15381    15232    15061    14866    14654    14436 
   14217    14000    13785    13585    13404    13228    13052    12880 
   12716    12564    12422    12289    12165    12045    11920    11783 
   11625    11453    11279    11109    10945    10789    10631    10471 
   10312    10155     9995     9832     9657     9476     9312     9176 
    9064     8976     8910     8862     8823     8795     8792     8821 
    8870     8927     8981     9023     9049     9068     9084     9092 
    9094     9099     9117     9162     9240     9341     9454     9556 
    9630     9677     9706     9714     9702     9686     9677     9688 
    9728     9803     9920    10085    10293    10536    10802    11082 
   11364    11630    11868    12068    12234    12374    12484    12563 
   12623    12681    12743    12814    12902    13015    13161    13348 
   13577    13826    14081    14348    14627    14910    15193    15478 
   15752    16011    16276    16550    16810    17046    17265    17473 
   17668    17852    18022    18177    18317    18451    18589    18729 
   18870    19009    19149    19294    19441    19587    19718    19828 
   19919    19994    20065    20145    20232    20320    20409    20497 
   20571    20618    20647    20664    20666    20665    20676    20691 
   20696    20684    20652    20593    20510    20413    20303    20175 
   20039    19907    19776    19637    19498    19368    19245    19124 
   19004    18878    18742    18592    18439    18294    18154    18011 
   17867    17718    17562    17408    17262    17116    16964    16804 
   16640    16471    16280    16056    15807    15542    15255    14965 
   14698    14452    14229    14051    13930    13863    13838    13848 
   13879    13909    13931    13947    13949    13921    13860    13775 
   13671    13562    13463    13374    13298    13244    13204    13160 
   13104    13037    12961    12885    12811    12737    12661    12585 
   12518    12463    12417    12383    12361    12349    12347    12360 
   12388    12419    12448    12484    12539    12616    12708    12805 
   12895    12967    13028    13086    13140    13198    13270    13359 
   13468    13601    13761    13947    14148    14354    14555    14750 
   14939    15121    15295    15461    15613    15743    15860    15979 
   16107    16254    16416    16578    16743    16918    17098    17273 
   17430    17559    17656    17714    17738    17745    17735    17713 
   17694    17676    17660    17659    17675    17694    17707    17708 
   17690    17650    17591    17512    17410    17289    17154    17008 
   16859    16717    16587    16471    16366    16270    16178    16088 
   15994    15893    15776    15641    15493    15335    15169    14996 
   14815    14623    14421    14213    14007    13804    13609    13420 
   13232    13055    12897    12763    12651    12558    12490    12450 
   12436    12443    12471    12516    12571    12626    12672    12705 
   12721    12715    12686    12640    12583    12520    12452    12386 
   12334    12304    12296    12306    12333    12380    12449    12539 
   12640    12743    12841    12930    13002    13056    13101    13138 
