Origin Time       2025/01/13 21:19:00
Lat.              31.8
Long.             131.6
Depth. (km)       30
Mag.              6.9
Station Code      KGSH07
Station Lat.      31.7140
Station Long.     130.6149
Station Height(m) 6.405
Record Time       2025/01/13 21:19:49
Sampling Freq(Hz) 100Hz
Duration Time(s)  242
Dir.              4
Scale Factor      7845(gal)/8223790
Max. Acc. (gal)   20.478
Last Correction   2025/01/13 21:19:49
Memo.             
[...]
   11665    12390    12830    13046    13155    13167    12958    12469 
   11735    10785     9825     9225     9250     9821    10476    10673 
   10176     9131     7777     6158     4297     2359      564     -953 
   -2176    -3122    -3684    -3700    -3161    -2128     -708      691 
    1570     1786     1549     1262     1228     1472     1860     2226 
    2497     2658     2752     2887     3028     3044     3013     3261 
    4106     5535     7249     8957    10550    12073    13452    14449 
   14877    14713    14104    13281    12413    11597    10999    10916 
   11534    12669    13876    14850    15508    15703    15151    13668 
   11350     8758     6654     5425     5005     5162     5674     6385 
    7180     7874     8214     8132     7886     7811     7909     7896 
    7632     7206     6752     6403     6142     5872     5690     5811 
    6394     7468     8776     9934    10795    11506    12228    12861 
   13088    12750    12024    11079     9821     8225     6608     5404 
    4868     4951     5439     6137     6743     6947     6889     7010 
    7489     8203     8988     9848    10876    11946    12738    13100 
   13120    12895    12451    11823    10936     9589     7743     5625 
    3593     2049     1297     1345     1991     3110     4660     6475 
    8122     9143     9568     9763     9940    10103    10131    10010 
    9826     9586     9348     9167     9005     8789     8428     7973 
    7545     7088     6574     6066     5568     5070     4626     4282 
    4025     3886     3932     4224     4739     5360     6003     6678 
    7408     8058     8338     8094     7402     6447     5269     3754 
    2033      357    -1156    -2466    -3542    -4288    -4618    -4631 
   -4452    -4044    -3268    -2099     -668      868     2358     3658 
    4695     5522     6280     6941     7296     7252     6941     6517 
    5949     5113     4112     3283     2839     2733     2840     3064 
    3462     4183     5251     6496     7622     8417     8854     8919 
    8602     7977     7075     5836     4226     2313      194    -1981 
   -3912    -5252    -5888    -5927    -5494    -4737    -3912    -3249 
   -2795    -2415    -1921    -1236     -417      483     1509     2666 
    3942     5406     7078     8826    10446    11778    12807    13539 
   13879    13779    13350    12681    11709    10435     9117     8199 
    7954     8249     8746     9111     9117     8680     7746     6363 
    4803     3503     2920     3365     4923     7258     9659    11516 
   12552    12730    12255    11453    10613     9981     9794    10152 
   10910    11762    12437    12841    12943    12690    12151    11607 
   11407    11704    12434    13520    14878    16266    17285    17651 
   17431    16831    15942    14833    13601    12336    11183    10214 
    9391     8735     8330     8259     8475     8749     8907     8910 
    8737     8351     7696     6728     5528     4361     3522     3106 
    2932     2787     2612     2340     1887     1220      363     -483 
   -1053    -1298    -1356    -1360    -1401    -1505    -1561    -1435 
   -1113     -684     -229      284      970     1844     2767     3585 
    4299     5005     5714     6346     6876     7420     8109     8912 
    9678    10287    10696    10814    10482     9633     8467     7383 
    6631     6230     6170     6489     7194     8085     8743     8814 
    8199     7059     5667     4302     3176     2461     2280     2567 
    3049     3399     3395     3086     2724     2590     2862     3520 
    4383     5267     6069     6666     6890     6669     6112     5471 
    4935     4564     4363     4293     4369     4626     4959     5211 
    5266     5066     4610     3979     3280     2587     1953     1404 
    1008      899     1167     1710     2290     2745     3037     3213 
    3358     3568     4031     4999     6529     8390    10160    11473 
   12128    11988    11018     9445     7716     6234     5220     4750 
    4799     5293     6119     7180     8525    10266    12368    14644 
   16879    18854    20376    21335    21743    21714    21323    20645 
   19888    19221    18709    18335    17944    17355    16491    15361 
   14002    12483    10953     9585     8482     7645     7005     6551 
    6334     6431     6858     7419     7836     7889     7402     6289 
    4614     2590      592     -977    -1876    -2178    -2243    -2377 
   -2567    -2617    -2408    -1987    -1502    -1016     -453      193 
     797     1215     1374     1417     1637     2157     2802     3184 
    2979     2218     1200      221     -549     -967     -930     -440 
     507     1879     3480     5100     6617     7917     8985     9963 
   10867    11448    11431    10756     9629     8402     7349     6520 
    5871     5433     5271     5405     5732     6039     6162     6102 
    6008     6049     6254     6471     6426     5935     5009     3753 
    2335     1009       68     -301     -172      166      472      692 
     795      619       18     -946    -2019    -2911    -3445    -3622 
   -3505    -3095    -2328    -1196      186     1636     3013     4225 
    5224     6015     6651     7169     7597     8028     8526     9031 
    9425     9645     9745     9814     9915    10131    10471    10786 
   10872    10606     9991     9171     8353     7657     7074     6621 
    6389     6442     6764     7245     7770     8317     8857     9363 
    9830    10266    10720    11275    12033    13089    14435    15815 
   16814    17197    17011    16398    15496    14430    13389    12654 
   12415    12602    13042    13622    14233    14764    15111    15199 
   15107    14886    14451    13767    12866    11745    10415     8942 
    7331     5563     3700     1939      611       29      232      943 
    1814     2608     3145     3291     2970     2228     1336      661 
     449      707     1259     1927     2585     3092     3296     3129 
    2737     2381     2286     2533     2994     3499     3958     4299 
    4390     4056     3230     2062      893      117      -78      148 
     518      935     1505     2359     3499     4797     6122     7437 
    8742     9961    10962    11643    11954    11913    11658    11406 
   11299    11325    11380    11368    11249    11074    10916    10783 
   10632    10462    10338    10368    10605    10968    11288    11457 
   11554    11739    12096    12609    13194    13764    14265    14625 
   14740    14547    14058    13333    12457    11468    10363     9213 
    8143     7213     6390     5670     5090     4645     4237     3693 
    2860     1695      271    -1250    -2660    -3765    -4453    -4710 
   -4577    -4186    -3667    -3111    -2546    -1948    -1368     -911 
    -618     -472     -376     -206      103      562     1123     1674 
    2158     2667     3319     4113     4895     5483     5880     6160 
    6268     6110     5719     5258     4880     4648     4544     4549 
    4680     4889     5070     5209     5412     5698     5898     5800 
    5332     4569     3589     2388     1003     -395    -1657    -2744 
   -3699    -4569    -5313    -5844    -6129    -6195    -6093    -5796 
   -5208    -4287    -3061    -1622     -117     1345     2716     3916 
    4853     5418     5553     5422     5360     5613     6226     7095 
    8093     9130    10065    10787    11286    11600    11826    12077 
   12436    12935    13464    13832    13976    13946    13790    13544 
   13157    12537    11739    10862     9909     8862     7774     6783 
    6027     5547     5285     5188     5231     5331     5375     5332 
    5212     5017     4757     4476     4245     4110     4144     4399 
    4869     5535     6370     7410     8757    10377    12044    13490 
   14542    15145    15348    15276    15034    14674    14239    13795 
   13427    13192    13077    13003    12904    12796    12765    12880 
   13128    13463    13822    14102    14250    14346    14515    14789 
   15091    15336    15438    15307    14887    14185    13273    12236 
   11121     9942     8748     7632     6698     6015     5568     5313 
    5254     5370     5551     5645     5549     5298     5016     4885 
    5054     5514     6142     6789     7385     7940     8374     8564 
    8457     8071     7495     6907     6501     6359     6447     6667 
    6901     6991     6767     6149     5175     4035     2999     2281 
    2025     2253     2793     3365     3734     3781     3537     3127 
    2610     1954     1225      557       -4     -525    -1078    -1680 
   -2308    -2875    -3267    -3420    -3302    -2922    -2374    -1745 
   -1059     -379      213      706     1094     1375     1566     1663 
    1678     1699     1849     2185     2702     3412     4326     5444 
    6745     8129     9483    10763    11954    13049    14037    14863 
   15415    15604    15465    15101    14602    14021    13302    12394 
   11411    10575    10022     9697     9456     9252     9130     9107 
    9107     8996     8642     8031     7368     6878     6605     6488 
    6467     6532     6646     6690     6573     6250     5745     5186 
    4737     4496     4436     4392     4220     3879     3354     2612 
    1718      841       83     -583    -1204    -1817    -2482    -3194 
   -3894    -4531    -5036    -5347    -5456    -5476    -5617    -6025 
   -6632    -7263    -7809    -8171    -8164    -7636    -6604    -5189 
   -3547    -1852     -224     1293     2660     3879     5015     6112 
    7179     8214     9189     9975    10436    10558    10455    10338 
   10319    10362    10440    10544    10628    10636    10552    10454 
   10427    10503    10724    11136    11720    12409    13128    13846 
   14503    14971    15134    14967    14561    14022    13386    12695 
   12023    11392    10708     9848     8762     7438     5925     4357 
    2890     1610      561     -220     -680     -737     -376      294 
    1166     2222     3447     4716     5860     6783     7450     7916 
    8344     8866     9460    10058    10651    11269    11967    12752 
   13529    14212    14798    15284    15576    15538    15072    14193 
   13035    11705    10335     9142     8230     7573     7102     6763 
    6598     6629     6771     6930     7078     7258     7584     8060 
    8521     8826     8970     8965     8846     8704     8611     8550 
    8496     8453     8406     8313     8101     7726     7277     6872 
    6528     6158     5684     5115     4468     3723     2879     2010 
    1228      643      368      442      835     1505     2424     3593 
    5005     6632     8429    10320    12224    14042    15653    16989 
   17996    18574    18681    18408    17871    17163    16363    15510 
   14647    13829    13080    12406    11753    11057    10307     9547 
    8934     8629     8676     9055     9687    10412    11033    11331 
   11168    10512     9398     8028     6737     5775     5197     4963 
    5034     5379     5876     6261     6293     5927     5219     4234 
    3078     1837      560     -730    -2039    -3368    -4684    -6002 
   -7375    -8835   -10341   -11719   -12775   -13474   -13864   -13948 
  -13744   -13338   -12852   -12410   -12110   -11978   -11927   -11815 
  -11530   -11072   -10532    -9942    -9269    -8538    -7878    -7445 
   -7314    -7456    -7793    -8224    -8617    -8824    -8635    -7894 
   -6639    -4949    -2925     -803     1175     2897     4414     5887 
    7412     9020    10771    12719    14791    16816    18669    20251 
   21528    22555    23372    24013    24520    24910    25205    25415 
   25523    25489    25299    25029    24765    24520    24209    23693 
   22852    21664    20198    18535    16749    14951    13281    11851 
   10739    10019     9703     9668     9730     9780     9845     9980 
   10211    10585    11178    12027    13030    13971    14679    15078 
   15148    14941    14566    14204    14095    14395    15036    15809 
   16509    16993    17217    17124    16687    15996    15188    14424 
   13765    13092    12249    11107     9626     7925     6168     4477 
    2887     1367      -47    -1274    -2285    -3095    -3720    -4224 
   -4653    -5005    -5356    -5795    -6353    -7033    -7813    -8637 
   -9393    -9972   -10297   -10309   -10027    -9463    -8577    -7408 
   -6039    -4530    -2943    -1381       67     1362     2474     3393 
    4067     4448     4606     4642     4603     4473     4275     4132 
    4178     4479     5078     6002     7195     8449     9504    10096 
   10037     9292     7950     6259     4580     3186     2228     1749 
    1683     1898     2214     2443     2481     2382     2301     2388 
    2732     3302     4016     4803     5620     6453     7241     7936 
    8569     9173     9771    10343    10794    11016    10943    10642 
   10280    10026     9968    10131    10482    10929    11411    11896 
   12312    12575    12626    12449    12078    11622    11218    10891 
   10596    10241     9783     9346     9070     9000     9139     9458 
    9922    10459    10953    11304    11457    11398    11151    10827 
   10609    10643    10959    11506    12217    13050    13967    14898 
   15751    16455    16976    17296    17394    17246    16889    16380 
   15724    14894    13809    12442    10847     9069     7153     5177 
    3254     1529      156     -766    -1289    -1559    -1672    -1695 
   -1746    -2020    -2691    -3780    -5154    -6606    -7975    -9209 
  -10342   -11419   -12436   -13356   -14169   -14825   -15205   -15179 
  -14654   -13617   -12205   -10639    -9081    -7651    -6413    -5294 
   -4135    -2826    -1395       12     1209     2091     2641     2947 
    3254     3883     5005     6575     8388    10176    11699    12796 
   13425    13675    13684    13599    13552    13606    13711    13720 
   13481    12919    12040    10945     9782     8698     7869     7485 
    7634     8197     8912     9553     9988    10173    10085     9693 
    9036     8257     7524     7014     6868     7137     7831     8970 
   10524    12397    14436    16438    18238    19797    21127    22179 
   22875    23174    23083    22666    22030    21276    20514    19830 
   19206    18565    17830    16906    15718    14337    12937    11631 
   10512     9640     8918     8151     7148     5809     4145     2235 
     203    -1791    -3566    -4924    -5737    -5967    -5647    -4839 
   -3626    -2095     -359     1395     3034     4507     5775     6853 
    7771     8500     8996     9286     9441     9431     9189     8725 
    8086     7395     6752     6174     5628     5047     4399     3707 
    3017     2412     1961     1748     1831     2195     2728     3210 
    3376     3025     2133      908     -330    -1275    -1657    -1283 
    -141     1532     3408     5151     6489     7300     7607     7561 
    7373     7209     7186     7333     7630     8008     8329     8491 
    8455     8252     7944     7565     7129     6636     6166     5875 
    5844     6079     6512     7061     7720     8460     9208     9938 
   10667    11348    11902    12276    12422    12379    12272    12177 
   12121    12037    11749    11103    10019     8506     6704     4823 
    3109     1746      815      261      -41     -195     -257     -194 
     163      986     2327     4129     6226     8356    10258    11745 
   12708    13150    13140    12749    12055    11178    10251     9369 
    8525     7662     6745     5768     4803     3919     3090     2281 
    1517      854      330     -102     -556    -1113    -1777    -2511 
   -3233    -3867    -4473    -5116    -5738    -6220    -6466    -6478 
   -6339    -6093    -5730    -5239    -4662    -4036    -3349    -2547 
   -1537     -255     1321     3173     5179     7183     9049    10632 
   11801    12483    12687    12492    12035    11452    10879    10393 
    9954     9501     8982     8309     7422     6358     5250     4288 
    3692     3589     3986     4839     6016     7291     8424     9177 
    9425     9180     8483     7427     6129     4729     3392     2265 
    1476     1047      911      994     1183     1422     1756     2173 
    2646     3225     3981     4945     6108     7357     8496     9386 
    9929    10075     9899     9582     9337     9351     9732    10509 
   11630    12976    14349    15527    16389    16869    16969    16821 
   16600    16464    16509    16737    17055    17373    17683    17984 
   18241    18382    18308    17975    17417    16717    15985    15354 
   14920    14673    14538    14403    14131    13652    12968    12120 
   11207    10377     9701     9104     8480     7724     6736     5498 
    4077     2614     1255       64     -907    -1641    -2153    -2500 
   -2785    -3090    -3437    -3766    -3962    -3924    -3654    -3234 
   -2755    -2274    -1803    -1313     -792     -213      445     1167 
    1930     2683     3360     3925     4368     4731     5074     5400 
    5713     6010     6237     6301     6173     5873     5475     5094 
    4838     4812     5067     5557     6184     6831     7415     7904 
    8317     8714     9142     9676    10324    10975    11558    12012 
   12237    12193    11880    11308    10552     9747     8996     8356 
    7905     7719     7834     8221     8772     9339     9744     9869 
    9710     9343     8858     8328     7855     7538     7356     7211 
    6982     6571     5944     5154     4324     3523     2770     2085 
    1475      918      375     -193     -814    -1447    -1991    -2380 
   -2596    -2655    -2614    -2538    -2451    -2357    -2295    -2343 
   -2519    -2744    -2924    -3017    -2999    -2820    -2462    -1937 
   -1235     -372      606     1621     2566     3412     4232     5107 
    6058     7068     8102     9170    10297    11430    12434    13243 
   13923    14598    15334    16202    17251    18419    19606    20725 
   21648    22297    22673    22778    22640    22296    21759    21028 
   20097    18971    17689    16298    14860    13428    12052    10800 
    9720     8837     8145     7614     7196     6852     6540     6193 
    5760     5243     4669     4058     3414     2737     2056     1424 
     899      507      260      144      110      130      183      247 
     314      407      573      845     1232     1775     2524     3495 
    4662     5998     7422     8800     9996    10912    11515    11811 
   11805    11546    11075    10412     9537     8380     6921     5258 
    3561     1983      616     -499    -1347    -1911    -2259    -2538 
   -2862    -3295    -3817    -4349    -4831    -5193    -5401    -5431 
   -5252    -4876    -4313    -3593    -2764    -1871     -984     -152 
     602     1254     1782     2173     2408     2465     2378     2259 
    2218     2296     2488     2737     2974     3171     3352     3488 
    3531     3481     3393     3345     3348     3364     3383     3397 
    3402     3373     3327     3349     3507     3831     4307     4892 
    5559     6286     7029     7713     8275     8685     8978     9262 
    9580     9895    10206    10558    11007    11591    12280    13011 
   13726    14404    15017    15546    16006    16384    16663    16893 
   17170    17497    17755    17837    17694    17309    16734    15993 
   15066    13964    12729    11425    10172     9078     8166     7426 
