Origin Time       2025/01/13 21:19:00
Lat.              31.8
Long.             131.6
Depth. (km)       30
Mag.              6.9
Station Code      KGSH02
Station Lat.      31.9940
Station Long.     130.2077
Station Height(m) 40.762
Record Time       2025/01/13 21:19:53
Sampling Freq(Hz) 100Hz
Duration Time(s)  206
Dir.              5
Scale Factor      3920(gal)/6170801
Max. Acc. (gal)   4.940
Last Correction   2025/01/13 21:19:38
Memo.             
[...]
  -38204   -37736   -37434   -37294   -37173   -36995   -36785   -36524 
  -36131   -35647   -35276   -35167   -35252   -35377   -35462   -35447 
  -35256   -34919   -34597   -34396   -34300   -34271   -34296   -34325 
  -34255   -33980   -33478   -32872   -32348   -31984   -31743   -31604 
  -31559   -31559   -31561   -31594   -31727   -32007   -32467   -33094 
  -33719   -34117   -34180   -33914   -33383   -32750   -32226   -31981 
  -32080   -32449   -32926   -33374   -33685   -33771   -33652   -33512 
  -33569   -33870   -34206   -34314   -34141   -33827   -33498   -33216 
  -33074   -33125   -33307   -33495   -33529   -33304   -32903   -32523 
  -32278   -32162   -32164   -32274   -32381   -32338   -32142   -31947 
  -31863   -31851   -31848   -31852   -31886   -31994   -32224   -32568 
  -32934   -33209   -33357   -33382   -33244   -33011   -32933   -33189 
  -33683   -34154   -34400   -34407   -34289   -34137   -34031   -34132 
  -34611   -35428   -36338   -37135   -37737   -38095   -38238   -38283 
  -38270   -38149   -37909   -37582   -37231   -36990   -37002   -37305 
  -37804   -38326   -38685   -38778   -38683   -38553   -38447   -38415 
  -38562   -38872   -39160   -39265   -39208   -39149   -39249   -39550 
  -40002   -40558   -41147   -41608   -41824   -41893   -41977   -42058 
  -42043   -41951   -41845   -41720   -41531   -41286   -41057   -40870 
  -40676   -40455   -40232   -40010   -39800   -39658   -39628   -39648 
  -39612   -39501   -39347   -39144   -38880   -38558   -38214   -37979 
  -37967   -38111   -38230   -38187   -37951   -37564   -37123   -36739 
  -36497   -36457   -36624   -36901   -37167   -37339   -37321   -37071 
  -36710   -36442   -36376   -36481   -36635   -36692   -36558   -36255 
  -35932   -35755   -35753   -35824   -35862   -35789   -35509   -35022 
  -34518   -34234   -34246   -34483   -34819   -35095   -35130   -34815 
  -34209   -33497   -32882   -32524   -32472   -32594   -32709   -32742 
  -32686   -32574   -32527   -32661   -32959   -33308   -33578   -33655 
  -33519   -33304   -33202   -33295   -33537   -33840   -34111   -34248 
  -34177   -33868   -33364   -32811   -32382   -32180   -32212   -32396 
  -32631   -32870   -33106   -33310   -33443   -33526   -33631   -33778 
  -33945   -34118   -34261   -34340   -34393   -34395   -34247   -33968 
  -33694   -33515   -33484   -33607   -33795   -33945   -34026   -34013 
  -33908   -33840   -33943   -34152   -34322   -34444   -34549   -34609 
  -34604   -34568   -34588   -34726   -34965   -35267   -35586   -35827 
  -35931   -35973   -36073   -36268   -36542   -36884   -37250   -37536 
  -37662   -37631   -37488   -37280   -37033   -36733   -36403   -36131 
  -35974   -35886   -35802   -35709   -35621   -35527   -35415   -35322 
  -35310   -35377   -35475   -35617   -35861   -36189   -36505   -36769 
  -37020   -37272   -37492   -37661   -37809   -37960   -38101   -38213 
  -38290   -38299   -38217   -38134   -38152   -38216   -38239   -38233 
  -38223   -38182   -38051   -37782   -37395   -36957   -36530   -36137 
  -35766   -35399   -35056   -34809   -34710   -34733   -34847   -35032 
  -35217   -35329   -35383   -35415   -35418   -35395   -35392   -35470 
  -35635   -35831   -36025   -36251   -36527   -36829   -37138   -37456 
  -37785   -38123   -38448   -38729   -38960   -39126   -39169   -39077 
  -38939   -38838   -38760   -38662   -38537   -38386   -38195   -37960 
  -37665   -37304   -36935   -36629   -36372   -36102   -35794   -35462 
  -35120   -34808   -34606   -34573   -34701   -34943   -35252   -35570 
  -35814   -35939   -35987   -36012   -36048   -36130   -36276   -36447 
  -36588   -36690   -36764   -36809   -36814   -36781   -36735   -36703 
  -36689   -36667   -36626   -36623   -36694   -36779   -36820   -36791 
  -36627   -36281   -35795   -35264   -34767   -34353   -34055   -33894 
  -33854   -33838   -33727   -33535   -33350   -33194   -33058   -32984 
  -32957   -32851   -32561   -32091   -31541   -31033   -30624   -30314 
  -30151   -30187   -30365   -30575   -30802   -31097   -31480   -31931 
  -32431   -32936   -33347   -33589   -33685   -33723   -33788   -33954 
  -34274   -34742   -35269   -35702   -35905   -35831   -35527   -35123 
  -34807   -34706   -34785   -34900   -34949   -34914   -34808   -34677 
  -34608   -34658   -34807   -35013   -35190   -35212   -35039   -34742 
  -34443   -34257   -34237   -34355   -34553   -34789   -35022   -35168 
  -35206   -35252   -35419   -35703   -36054   -36420   -36729   -36928 
  -37008   -37021   -37076   -37246   -37493   -37737   -37938   -38087 
  -38172   -38173   -38093   -37974   -37858   -37780   -37762   -37793 
  -37835   -37855   -37841   -37838   -37905   -38046   -38227   -38427 
  -38593   -38636   -38539   -38415   -38363   -38394   -38467   -38512 
  -38508   -38544   -38676   -38826   -38945   -39073   -39237   -39408 
  -39534   -39603   -39652   -39699   -39705   -39617   -39406   -39090 
  -38732   -38367   -38004   -37677   -37426   -37250   -37101   -36917 
  -36673   -36427   -36274   -36237   -36251   -36258   -36249   -36214 
  -36147   -36099   -36169   -36396   -36702   -36946   -37044   -37005 
  -36881   -36734   -36632   -36626   -36723   -36894   -37075   -37176 
  -37132   -36982   -36843   -36756   -36656   -36500   -36332   -36181 
  -36009   -35787   -35561   -35421   -35407   -35455   -35447   -35310 
  -35055   -34736   -34385   -34002   -33608   -33255   -32946   -32641 
  -32365   -32213   -32215   -32286   -32353   -32443   -32568   -32646 
  -32625   -32551   -32494   -32504   -32605   -32783   -32998   -33209 
  -33380   -33488   -33555   -33652   -33831   -34063   -34283   -34428 
  -34494   -34520   -34500   -34401   -34254   -34109   -33951   -33722 
  -33422   -33131   -32911   -32763   -32685   -32685   -32734   -32792 
  -32864   -32967   -33131   -33428   -33888   -34426   -34931   -35342 
  -35592   -35623   -35485   -35323   -35265   -35358   -35576   -35860 
  -36144   -36385   -36579   -36758   -36956   -37181   -37402   -37560 
  -37616   -37585   -37490   -37349   -37210   -37126   -37093   -37053 
  -36981   -36909   -36862   -36848   -36897   -37036   -37211   -37319 
  -37284   -37114   -36896   -36727   -36646   -36648   -36692   -36706 
  -36628   -36451   -36226   -35999   -35798   -35686   -35733   -35893 
  -36038   -36108   -36156   -36256   -36433   -36680   -36994   -37337 
  -37621   -37775   -37804   -37781   -37766   -37764   -37769   -37810 
  -37865   -37864   -37813   -37806   -37860   -37860   -37740   -37568 
  -37429   -37344   -37323   -37387   -37533   -37713   -37837   -37865 
  -37834   -37738   -37534   -37285   -37116   -37054   -37031   -37010 
  -36988   -36932   -36814   -36690   -36637   -36687   -36804   -36890 
  -36890   -36838   -36764   -36676   -36604   -36577   -36586   -36613 
  -36654   -36707   -36773   -36862   -36971   -37088   -37189   -37232 
  -37172   -37017   -36829   -36638   -36440   -36264   -36132   -36002 
  -35827   -35598   -35346   -35112   -34908   -34734   -34603   -34506 
  -34413   -34324   -34272   -34288   -34384   -34541   -34705   -34786 
  -34728   -34567   -34356   -34135   -33969   -33917   -33976   -34114 
  -34293   -34452   -34563   -34668   -34790   -34895   -34992   -35142 
  -35350   -35541   -35653   -35660   -35556   -35371   -35163   -34959 
  -34768   -34607   -34487   -34395   -34318   -34247   -34180   -34113 
  -34041   -33995   -34034   -34164   -34300   -34366   -34378   -34354 
  -34266   -34107   -33919   -33734   -33559   -33379   -33146   -32815 
  -32402   -31994   -31681   -31506   -31455   -31514   -31683   -31911 
  -32122   -32298   -32467   -32659   -32878   -33099   -33310   -33553 
  -33892   -34334   -34829   -35330   -35787   -36146   -36400   -36597 
  -36792   -37013   -37257   -37503   -37738   -37946   -38098   -38192 
  -38259   -38327   -38393   -38439   -38476   -38522   -38523   -38429 
  -38312   -38244   -38202   -38177   -38177   -38125   -37950   -37712 
  -37534   -37472   -37490   -37534   -37571   -37578   -37535   -37421 
  -37235   -37012   -36806   -36633   -36469   -36303   -36171   -36075 
  -35953   -35769   -35588   -35503   -35504   -35521   -35543   -35590 
  -35656   -35756   -35903   -36046   -36141   -36218   -36300   -36384 
  -36477   -36586   -36676   -36687   -36598   -36438   -36280   -36200 
  -36228   -36316   -36390   -36411   -36364   -36238   -36068   -35954 
  -35981   -36138   -36328   -36443   -36438   -36352   -36248   -36145 
  -36062   -36058   -36143   -36230   -36240   -36201   -36197   -36251 
  -36325   -36400   -36492   -36567   -36568   -36496   -36381   -36262 
  -36177   -36118   -36043   -35929   -35760   -35550   -35361   -35234 
  -35159   -35117   -35094   -35068   -35022   -34989   -35027   -35107 
  -35132   -35079   -34994   -34908   -34836   -34799   -34815   -34870 
  -34949   -35028   -35038   -34954   -34850   -34782   -34752   -34780 
  -34908   -35107   -35299   -35439   -35536   -35628   -35772   -35996 
  -36251   -36455   -36574   -36593   -36473   -36207   -35892   -35644 
  -35487   -35385   -35345   -35402   -35551   -35749   -35942   -36103 
  -36266   -36470   -36702   -36932   -37137   -37292   -37380   -37419 
  -37441   -37465   -37508   -37596   -37760   -37989   -38211   -38339 
  -38335   -38239   -38091   -37905   -37760   -37764   -37883   -37982 
  -37998   -37955   -37882   -37824   -37837   -37921   -38024   -38090 
  -38057   -37859   -37502   -37061   -36604   -36177   -35809   -35502 
  -35248   -35038   -34818   -34534   -34236   -34031   -33961   -34000 
  -34106   -34227   -34332   -34435   -34546   -34639   -34718   -34808 
  -34888   -34925   -34931   -34919   -34831   -34607   -34286   -33957 
  -33650   -33351   -33088   -32920   -32835   -32784   -32792   -32918 
  -33151   -33435   -33756   -34098   -34398   -34620   -34781   -34892 
  -34931   -34891   -34808   -34748   -34766   -34857   -34968   -35061 
  -35150   -35225   -35235   -35177   -35101   -35035   -34989   -34966 
  -34947   -34925   -34889   -34815   -34742   -34727   -34763   -34822 
  -34910   -35033   -35163   -35257   -35324   -35397   -35452   -35455 
  -35446   -35453   -35446   -35394   -35316   -35257   -35225   -35185 
  -35128   -35072   -35021   -34976   -34930   -34874   -34833   -34845 
  -34930   -35056   -35144   -35175   -35194   -35215   -35238   -35266 
  -35303   -35367   -35444   -35486   -35500   -35545   -35647   -35794 
  -35965   -36173   -36433   -36708   -36956   -37176   -37347   -37425 
  -37387   -37261   -37124   -37029   -36970   -36936   -36937   -36955 
  -36943   -36886   -36820   -36776   -36735   -36687   -36658   -36632 
  -36551   -36423   -36318   -36276   -36284   -36369   -36579   -36855 
  -37093   -37304   -37554   -37839   -38119   -38394   -38647   -38818 
  -38867   -38805   -38671   -38499   -38323   -38140   -37917   -37652 
  -37342   -36968   -36568   -36224   -35984   -35835   -35734   -35646 
  -35548   -35423   -35265   -35090   -34966   -34963   -35066   -35215 
  -35394   -35605   -35796   -35924   -36036   -36195   -36385   -36560 
  -36730   -36924   -37146   -37389   -37638   -37852   -37979   -37995 
  -37936   -37849   -37744   -37628   -37500   -37338   -37129   -36886 
  -36642   -36455   -36380   -36407   -36460   -36488   -36492   -36470 
  -36393   -36243   -36043   -35832   -35638   -35456   -35263   -35062 
  -34872   -34710   -34559   -34420   -34321   -34261   -34190   -34089 
  -33971   -33832   -33643   -33409   -33182   -32994   -32846   -32764 
  -32793   -32929   -33125   -33321   -33460   -33528   -33547   -33534 
  -33503   -33475   -33453   -33386   -33223   -32995   -32761   -32534 
  -32335   -32218   -32196   -32226   -32258   -32267   -32236   -32158 
  -32065   -32007   -32009   -32044   -32087   -32159   -32275   -32420 
  -32583   -32784   -33028   -33283   -33508   -33681   -33811   -33923 
  -34037   -34196   -34434   -34722   -35004   -35264   -35499   -35683 
  -35781   -35804   -35800   -35807   -35829   -35856   -35874   -35874 
  -35854   -35831   -35836   -35899   -36034   -36232   -36468   -36700 
  -36897   -37071   -37255   -37450   -37622   -37748   -37844   -37916 
  -37940   -37908   -37864   -37846   -37838   -37817   -37793   -37757 
  -37682   -37582   -37500   -37463   -37476   -37514   -37551   -37590 
  -37645   -37711   -37760   -37769   -37740   -37698   -37656   -37601 
  -37538   -37513   -37565   -37673   -37793   -37908   -38016   -38110 
  -38185   -38253   -38341   -38451   -38541   -38566   -38523   -38441 
  -38348   -38271   -38227   -38230   -38292   -38376   -38409   -38362 
  -38271   -38173   -38073   -37980   -37913   -37877   -37857   -37831 
  -37788   -37750   -37751   -37772   -37776   -37781   -37801   -37788 
  -37703   -37577   -37444   -37297   -37154   -37058   -37002   -36948 
  -36878   -36780   -36650   -36508   -36377   -36277   -36210   -36138 
  -36054   -35997   -35967   -35911   -35811   -35700   -35598   -35524 
  -35513   -35583   -35721   -35883   -36022   -36111   -36170   -36201 
  -36168   -36077   -35979   -35893   -35798   -35679   -35544   -35415 
  -35298   -35185   -35082   -34992   -34904   -34813   -34714   -34613 
  -34523   -34455   -34414   -34377   -34285   -34101   -33851   -33593 
  -33364   -33176   -33036   -32934   -32840   -32732   -32603   -32477 
  -32404   -32393   -32390   -32362   -32315   -32215   -31990   -31628 
  -31189   -30723   -30253   -29827   -29475   -29163   -28852   -28547 
  -28276   -28087   -28021   -28065   -28180   -28349   -28553   -28730 
  -28845   -28940   -29059   -29185   -29324   -29521   -29791   -30099 
  -30404   -30696   -30986   -31260   -31504   -31749   -32026   -32319 
  -32581   -32804   -33033   -33298   -33579   -33863   -34161   -34463 
  -34731   -34945   -35114   -35228   -35259   -35217   -35156   -35122 
  -35137   -35218   -35363   -35566   -35815   -36081   -36331   -36544 
  -36734   -36936   -37156   -37377   -37602   -37841   -38082   -38319 
  -38548   -38768   -38994   -39239   -39489   -39724   -39925   -40080 
  -40181   -40205   -40139   -40009   -39860   -39731   -39634   -39553 
  -39469   -39371   -39262   -39180   -39164   -39209   -39297   -39413 
  -39543   -39660   -39725   -39741   -39766   -39838   -39967   -40149 
  -40368   -40595   -40801   -40935   -40953   -40868   -40746   -40656 
  -40616   -40598   -40583   -40547   -40451   -40286   -40080   -39873 
  -39690   -39531   -39376   -39218   -39070   -38948   -38854   -38805 
  -38823   -38895   -38984   -39092   -39224   -39350   -39458   -39576 
  -39724   -39891   -40065   -40227   -40338   -40369   -40330   -40270 
  -40248   -40285   -40354   -40409   -40408   -40322   -40162   -39966 
  -39756   -39527   -39274   -38998   -38700   -38402   -38127   -37873 
  -37631   -37403   -37200   -37004   -36774   -36495   -36207   -35953 
  -35747   -35582   -35455   -35354   -35236   -35062   -34843   -34636 
  -34496   -34430   -34409   -34410   -34394   -34303   -34117   -33876 
  -33648   -33478   -33354   -33244   -33131   -33002   -32832   -32592 
  -32286   -31938   -31566   -31178   -30764   -30314   -29845   -29402 
  -29033   -28763   -28596   -28524   -28532   -28574   -28608   -28634 
  -28685   -28790   -28951   -29132   -29288   -29396   -29461   -29492 
  -29492   -29485   -29512   -29590   -29711   -29880   -30100   -30367 
  -30702   -31125   -31612   -32133   -32656   -33136   -33549   -33913 
  -34243   -34555   -34887   -35254   -35617   -35936   -36179   -36313 
  -36319   -36216   -36055   -35896   -35761   -35646   -35548   -35465 
  -35384   -35294   -35215   -35202   -35284   -35435   -35651   -35927 
  -36235   -36570   -36925   -37274   -37632   -38006   -38364   -38672 
  -38911   -39079   -39199   -39285   -39349   -39417   -39461   -39414 
  -39247   -38994   -38714   -38432   -38152   -37909   -37712   -37525 
  -37316   -37080   -36838   -36636   -36507   -36446   -36429   -36423 
  -36411   -36407   -36441   -36508   -36592   -36693   -36792   -36842 
  -36818   -36752   -36691   -36674   -36725   -36826   -36939   -37024 
  -37047   -36987   -36876   -36770   -36688   -36610   -36522   -36419 
  -36258   -36026   -35771   -35536   -35328   -35146   -34983   -34836 
  -34707   -34603   -34532   -34499   -34509   -34553   -34602   -34649 
  -34710   -34785   -34868   -34985   -35148   -35312   -35445   -35559 
  -35650   -35716   -35772   -35830   -35862   -35832   -35741   -35607 
  -35433   -35229   -35043   -34916   -34855   -34863   -34949   -35107 
  -35309   -35521   -35730   -35952   -36182   -36408   -36658   -36962 
  -37296   -37622   -37949   -38290   -38612   -38864   -39028   -39121 
  -39165   -39163   -39119   -39041   -38925   -38732   -38416   -37993 
  -37543   -37148   -36864   -36714   -36698   -36789   -36911   -36982 
  -36971   -36887   -36747   -36571   -36409   -36311   -36289   -36310 
  -36338   -36372   -36446   -36571   -36737   -36944   -37181   -37404 
  -37572   -37669   -37674   -37576   -37396   -37153   -36861   -36551 
  -36274   -36054   -35870   -35692   -35493   -35263   -35010   -34756 
  -34517   -34314   -34155   -34026   -33905   -33771   -33621   -33469 
  -33322   -33173   -33020   -32849   -32656   -32448   -32242   -32068 
  -31967   -31966   -32063   -32235   -32438   -32631   -32801   -32952 
  -33103   -33286   -33507   -33754   -34012   -34260   -34480   -34676 
  -34846   -34974   -35064   -35126   -35136   -35077   -34947   -34752 
  -34546   -34389   -34299   -34277   -34315   -34372   -34404   -34385 
  -34302   -34157   -33978   -33800   -33631   -33451   -33265   -33115 
  -33022   -32987   -33023   -33129   -33271   -33402   -33494   -33546 
  -33574   -33604   -33643   -33683   -33743   -33838   -33959   -34094 
  -34216   -34302   -34359   -34401   -34431   -34467   -34535   -34639 
  -34786   -34994   -35261   -35559   -35843   -36094   -36322   -36535 
  -36722   -36870   -36976   -37039   -37049   -37005   -36953   -36948 
  -36997   -37082   -37182   -37266   -37302   -37275   -37208   -37168 
  -37208   -37334   -37514   -37710   -37892   -38032   -38118   -38190 
  -38323   -38551   -38853   -39194   -39522   -39783   -39964   -40105 
  -40253   -40439   -40664   -40889   -41057   -41141   -41150   -41119 
  -41097   -41121   -41191   -41276   -41337   -41342   -41278   -41161 
  -41013   -40845   -40684   -40544   -40398   -40217   -40000   -39771 
  -39554   -39347   -39139   -38950   -38800   -38680   -38574   -38494 
  -38464   -38483   -38526   -38575   -38615   -38647   -38688   -38752 
  -38842   -38952   -39053   -39096   -39052   -38941   -38803   -38668 
  -38567   -38537   -38578   -38642   -38675   -38643   -38543   -38391 
  -38205   -38002   -37787   -37538   -37235   -36879   -36490   -36090 
  -35705   -35356   -35040   -34742   -34465   -34213   -33993   -33837 
  -33763   -33758   -33802   -33862   -33893   -33868   -33788   -33658 
  -33490   -33309   -33142   -33000   -32875   -32747   -32609   -32457 
  -32291   -32116   -31940   -31772   -31618   -31472   -31326   -31192 
  -31082   -31019   -31017   -31054   -31095   -31112   -31080   -31011 
  -30944   -30904   -30898   -30946   -31057   -31207   -31366   -31530 
  -31707   -31899   -32106   -32343   -32592   -32817   -32993   -33107 
  -33162   -33180   -33196   -33236   -33303   -33389   -33488   -33583 
