Origin Time       2025/01/13 21:19:00
Lat.              31.8
Long.             131.6
Depth. (km)       30
Mag.              6.9
Station Code      KGSH03
Station Lat.      31.9812
Station Long.     130.4438
Station Height(m) 110.11
Record Time       2025/01/13 21:19:50
Sampling Freq(Hz) 100Hz
Duration Time(s)  168
Dir.              5
Scale Factor      3920(gal)/6170801
Max. Acc. (gal)   5.036
Last Correction   2025/01/13 21:19:35
Memo.             
[...]
  -18695   -18561   -18484   -18466   -18468   -18488   -18525   -18547 
  -18508   -18400   -18264   -18137   -18008   -17859   -17693   -17518 
  -17322   -17074   -16783   -16522   -16343   -16227   -16168   -16192 
  -16282   -16381   -16455   -16497   -16500   -16474   -16436   -16374 
  -16282   -16184   -16098   -16026   -15946   -15818   -15666   -15552 
  -15470   -15417   -15459   -15651   -15958   -16264   -16449   -16482 
  -16414   -16278   -16061   -15791   -15557   -15381   -15192   -14984 
  -14822   -14719   -14664   -14660   -14714   -14836   -14999   -15087 
  -15006   -14779   -14479   -14140   -13760   -13374   -13091   -12988 
  -13014   -13065   -13111   -13220   -13477   -13896   -14433   -15026 
  -15609   -16126   -16547   -16873   -17113   -17275   -17406   -17580 
  -17844   -18151   -18375   -18443   -18436   -18488   -18640   -18866 
  -19156   -19481   -19771   -19963   -20051   -20095   -20152   -20235 
  -20345   -20512   -20756   -21023   -21202   -21280   -21364   -21538 
  -21753   -21879   -21844   -21704   -21513   -21232   -20805   -20265 
  -19726   -19293   -18971   -18715   -18510   -18358   -18246   -18191 
  -18215   -18280   -18317   -18304   -18267   -18227   -18164   -18068 
  -17959   -17878   -17839   -17805   -17719   -17583   -17467   -17431 
  -17462   -17517   -17609   -17809   -18155   -18578   -18970   -19311 
  -19651   -20013   -20360   -20650   -20879   -21077   -21252   -21384 
  -21475   -21535   -21569   -21618   -21744   -21957   -22172   -22275 
  -22240   -22134   -21991   -21770   -21471   -21149   -20841   -20541 
  -20230   -19930   -19687   -19473   -19201   -18874   -18591   -18419 
  -18365   -18396   -18466   -18541   -18590   -18571   -18469   -18303 
  -18066   -17768   -17460   -17187   -16953   -16756   -16590   -16475 
  -16448   -16467   -16446   -16388   -16380   -16482   -16652   -16758 
  -16743   -16717   -16761   -16832   -16904   -16994   -17083   -17124 
  -17100   -17045   -17022   -17070   -17174   -17286   -17366   -17404 
  -17400   -17355   -17290   -17248   -17274   -17365   -17431   -17409 
  -17367   -17391   -17485   -17609   -17762   -17984   -18263   -18475 
  -18518   -18445   -18368   -18304   -18188   -17982   -17728   -17484 
  -17265   -17079   -16962   -16960   -17077   -17310   -17671   -18124 
  -18580   -18998   -19399   -19803   -20200   -20550   -20818   -21009 
  -21135   -21150   -20976   -20633   -20231   -19849   -19495   -19132 
  -18723   -18280   -17843   -17413   -16991   -16630   -16387   -16251 
  -16144   -16003   -15856   -15757   -15715   -15696   -15702   -15774 
  -15929   -16191   -16594   -17100   -17624   -18092   -18467   -18766 
  -19038   -19316   -19598   -19855   -20037   -20116   -20118   -20098 
  -20087   -20034   -19875   -19653   -19466   -19342   -19270   -19255 
  -19288   -19369   -19526   -19746   -19981   -20198   -20382   -20539 
  -20670   -20748   -20750   -20648   -20418   -20089   -19703   -19258 
  -18777   -18325   -17915   -17503   -17079   -16701   -16442   -16312 
  -16252   -16190   -16132   -16166   -16324   -16544   -16795   -17101 
  -17454   -17806   -18144   -18495   -18857   -19180   -19437   -19671 
  -19941   -20262   -20608   -20956   -21304   -21642   -21906   -22041 
  -22098   -22159   -22203   -22136   -21918   -21646   -21415   -21185 
  -20883   -20542   -20256   -20055   -19881   -19696   -19549   -19471 
  -19399   -19290   -19175   -19085   -19006   -18909   -18798   -18723 
  -18702   -18661   -18485   -18153   -17815   -17637   -17602   -17580 
  -17543   -17577   -17702   -17842   -17963   -18133   -18389   -18677 
  -18925   -19089   -19152   -19117   -18994   -18817   -18618   -18390 
  -18144   -17931   -17766   -17610   -17436   -17281   -17196   -17171 
  -17164   -17164   -17147   -17081   -16965   -16813   -16610   -16332 
  -16002   -15687   -15417   -15142   -14817   -14482   -14227   -14083 
  -13996   -13940   -13974   -14160   -14449   -14724   -14955   -15208 
  -15480   -15660   -15687   -15626   -15554   -15475   -15363   -15234 
  -15157   -15171   -15207   -15183   -15154   -15228   -15411   -15645 
  -15897   -16181   -16502   -16825   -17116   -17370   -17595   -17823 
  -18044   -18176   -18202   -18208   -18263   -18360   -18470   -18570 
  -18650   -18686   -18644   -18545   -18451   -18386   -18336   -18283 
  -18215   -18110   -17951   -17761   -17608   -17531   -17513   -17548 
  -17664   -17867   -18127   -18417   -18745   -19135   -19560   -19967 
  -20357   -20746   -21081   -21305   -21435   -21518   -21545   -21475 
  -21299   -21058   -20798   -20528   -20257   -20028   -19873   -19768 
  -19681   -19626   -19613   -19612   -19629   -19700   -19822   -19953 
  -20041   -20044   -19977   -19903   -19864   -19847   -19818   -19748 
  -19624   -19446   -19227   -18985   -18740   -18514   -18344   -18261 
  -18251   -18282   -18334   -18404   -18502   -18622   -18735   -18842 
  -18989   -19218   -19534   -19895   -20243   -20576   -20938   -21344 
  -21752   -22112   -22392   -22576   -22653   -22625   -22539   -22452 
  -22361   -22213   -21983   -21699   -21405   -21107   -20775   -20408 
  -20060   -19779   -19567   -19395   -19234   -19083   -18945   -18796 
  -18617   -18437   -18289   -18178   -18089   -17990   -17875   -17790 
  -17731   -17631   -17482   -17336   -17232   -17163   -17096   -17012 
  -16950   -16935   -16927   -16884   -16815   -16759   -16742   -16756 
  -16783   -16834   -16919   -17006   -17038   -17020   -17029   -17106 
  -17222   -17344   -17445   -17480   -17433   -17321   -17166   -16998 
  -16847   -16713   -16583   -16469   -16354   -16179   -15927   -15642 
  -15352   -15046   -14746   -14512   -14360   -14269   -14217   -14189 
  -14184   -14213   -14277   -14363   -14469   -14608   -14784   -14956 
  -15078   -15163   -15241   -15312   -15371   -15424   -15467   -15499 
  -15544   -15631   -15768   -15945   -16153   -16379   -16610   -16832 
  -17036   -17217   -17399   -17611   -17840   -18061   -18267   -18483 
  -18731   -18988   -19212   -19430   -19690   -19986   -20285   -20565 
  -20830   -21087   -21318   -21498   -21629   -21715   -21745   -21714 
  -21635   -21525   -21388   -21221   -21029   -20819   -20603   -20400 
  -20219   -20062   -19918   -19765   -19606   -19471   -19373   -19301 
  -19268   -19287   -19325   -19344   -19347   -19358   -19379   -19390 
  -19359   -19254   -19067   -18843   -18636   -18456   -18292   -18154 
  -18049   -17967   -17875   -17743   -17594   -17491   -17462   -17475 
  -17492   -17522   -17619   -17794   -17996   -18187   -18392   -18651 
  -18968   -19311   -19641   -19948   -20234   -20491   -20721   -20926 
  -21078   -21166   -21214   -21236   -21222   -21158   -21062   -20994 
  -20996   -21049   -21099   -21132   -21171   -21225   -21265   -21276 
  -21281   -21297   -21298   -21251   -21163   -21064   -20967   -20867 
  -20761   -20657   -20558   -20441   -20281   -20062   -19786   -19469 
  -19115   -18733   -18347   -17986   -17684   -17426   -17153   -16851 
  -16561   -16308   -16092   -15908   -15776   -15739   -15807   -15933 
  -16084   -16283   -16561   -16893   -17217   -17520   -17829   -18129 
  -18369   -18527   -18615   -18639   -18593   -18481   -18330   -18167 
  -18020   -17900   -17774   -17616   -17449   -17327   -17286   -17319 
  -17378   -17429   -17498   -17598   -17692   -17731   -17722   -17704 
  -17691   -17669   -17638   -17608   -17551   -17434   -17282   -17154 
  -17094   -17099   -17128   -17171   -17258   -17380   -17460   -17456 
  -17443   -17482   -17530   -17542   -17558   -17642   -17783   -17906 
  -17985   -18082   -18237   -18397   -18513   -18609   -18721   -18831 
  -18898   -18929   -18965   -18996   -18974   -18910   -18876   -18877 
  -18835   -18702   -18512   -18323   -18154   -17977   -17780   -17579 
  -17379   -17185   -17012   -16840   -16627   -16358   -16062   -15791 
  -15569   -15388   -15257   -15196   -15207   -15281   -15404   -15573 
  -15805   -16087   -16383   -16682   -16985   -17272   -17507   -17681 
  -17841   -18040   -18248   -18406   -18524   -18635   -18730   -18785 
  -18797   -18791   -18797   -18790   -18714   -18564   -18390   -18209 
  -18019   -17836   -17694   -17619   -17599   -17603   -17619   -17663 
  -17741   -17848   -17988   -18160   -18345   -18527   -18699   -18854 
  -18978   -19078   -19175   -19274   -19374   -19469   -19511   -19454 
  -19311   -19140   -18995   -18875   -18727   -18551   -18393   -18234 
  -18016   -17741   -17465   -17258   -17169   -17182   -17251   -17369 
  -17579   -17911   -18335   -18812   -19342   -19912   -20477   -20990 
  -21427   -21795   -22091   -22284   -22380   -22410   -22375   -22267 
  -22096   -21868   -21606   -21341   -21080   -20812   -20532   -20254 
  -19997   -19771   -19575   -19408   -19275   -19176   -19111   -19100 
  -19141   -19209   -19289   -19367   -19426   -19444   -19409   -19328 
  -19243   -19168   -19083   -18985   -18892   -18814   -18743   -18657 
  -18527   -18362   -18211   -18099   -17984   -17853   -17746   -17672 
  -17610   -17552   -17501   -17474   -17491   -17553   -17671   -17846 
  -18036   -18199   -18332   -18449   -18553   -18616   -18596   -18500 
  -18386   -18286   -18187   -18078   -17972   -17901   -17872   -17842 
  -17772   -17699   -17688   -17734   -17808   -17913   -18052   -18207 
  -18345   -18458   -18583   -18725   -18847   -18915   -18919   -18855 
  -18705   -18467   -18202   -18002   -17890   -17806   -17701   -17590 
  -17515   -17496   -17501   -17508   -17546   -17657   -17808   -17917 
  -17952   -17944   -17933   -17955   -18005   -18033   -18029   -18046 
  -18091   -18110   -18064   -17959   -17834   -17735   -17664   -17596 
  -17518   -17419   -17287   -17114   -16897   -16643   -16346   -16020 
  -15718   -15458   -15228   -15035   -14881   -14749   -14645   -14581 
  -14561   -14599   -14696   -14827   -14948   -15038   -15122   -15231 
  -15358   -15491   -15630   -15761   -15860   -15923   -15968   -16019 
  -16083   -16153   -16238   -16370   -16563   -16810   -17112   -17465 
  -17843   -18203   -18539   -18886   -19248   -19575   -19850   -20098 
  -20342   -20593   -20844   -21072   -21263   -21380   -21397   -21344 
  -21271   -21185   -21087   -20991   -20886   -20749   -20553   -20307 
  -20082   -19954   -19913   -19899   -19911   -19989   -20112   -20217 
  -20313   -20462   -20682   -20909   -21076   -21198   -21304   -21358 
  -21296   -21106   -20843   -20573   -20297   -19988   -19673   -19398 
  -19151   -18893   -18627   -18390   -18218   -18117   -18057   -18025 
  -18038   -18086   -18130   -18158   -18192   -18252   -18327   -18391 
  -18451   -18537   -18627   -18659   -18611   -18502   -18355   -18170 
  -17953   -17745   -17579   -17438   -17311   -17225   -17198   -17223 
  -17262   -17277   -17258   -17199   -17103   -17000   -16917   -16863 
  -16837   -16836   -16874   -16967   -17078   -17153   -17207   -17306 
  -17472   -17661   -17859   -18106   -18419   -18743   -18999   -19170 
  -19322   -19497   -19641   -19687   -19679   -19705   -19773   -19816 
  -19780   -19671   -19548   -19440   -19319   -19175   -19032   -18895 
  -18736   -18550   -18361   -18184   -18002   -17797   -17598   -17431 
  -17283   -17154   -17082   -17090   -17155   -17230   -17295   -17358 
  -17410   -17409   -17326   -17190   -17046   -16901   -16749   -16623 
  -16561   -16554   -16563   -16574   -16617   -16713   -16823   -16919 
  -17039   -17217   -17431   -17635   -17795   -17899   -17956   -17978 
  -17974   -17953   -17896   -17771   -17561   -17272   -16936   -16578 
  -16201   -15825   -15475   -15147   -14811   -14467   -14160   -13931 
  -13785   -13717   -13716   -13769   -13872   -14006   -14153   -14323 
  -14518   -14722   -14939   -15189   -15456   -15701   -15898   -16066 
  -16233   -16404   -16566   -16723   -16897   -17094   -17276   -17406 
  -17501   -17615   -17767   -17933   -18083   -18212   -18334   -18472 
  -18640   -18820   -18981   -19112   -19235   -19375   -19535   -19710 
  -19897   -20096   -20320   -20567   -20806   -21020   -21253   -21553 
  -21905   -22248   -22545   -22807   -23056   -23289   -23479   -23603 
  -23653   -23621   -23504   -23317   -23089   -22837   -22566   -22294 
  -22040   -21793   -21541   -21305   -21115   -20975   -20866   -20753 
  -20615   -20465   -20312   -20135   -19935   -19745   -19586   -19447 
  -19294   -19119   -18951   -18804   -18650   -18482   -18345   -18277 
  -18253   -18220   -18173   -18138   -18110   -18061   -17995   -17948 
  -17947   -17994   -18067   -18144   -18228   -18328   -18430   -18528 
  -18625   -18721   -18818   -18927   -19050   -19185   -19329   -19477 
  -19618   -19740   -19849   -19955   -20047   -20113   -20154   -20155 
  -20108   -20015   -19889   -19745   -19578   -19362   -19081   -18756 
  -18422   -18091   -17749   -17397   -17057   -16763   -16519   -16298 
  -16107   -15987   -15961   -16014   -16129   -16299   -16530   -16830 
  -17178   -17543   -17914   -18289   -18670   -19042   -19371   -19646 
  -19885   -20097   -20272   -20390   -20442   -20435   -20383   -20300 
  -20200   -20094   -19973   -19841   -19713   -19581   -19433   -19303 
  -19238   -19227   -19221   -19206   -19206   -19239   -19273   -19264 
  -19229   -19202   -19163   -19058   -18859   -18585   -18265   -17894 
  -17460   -16982   -16483   -15949   -15351   -14692   -14011   -13343 
  -12710   -12144   -11673   -11296   -10998   -10752   -10553   -10434 
  -10396   -10390   -10403   -10454   -10550   -10673   -10788   -10890 
  -11023   -11197   -11362   -11503   -11649   -11813   -11972   -12110 
  -12247   -12424   -12649   -12888   -13109   -13349   -13655   -14024 
  -14440   -14894   -15386   -15909   -16437   -16934   -17401   -17866 
  -18340   -18810   -19252   -19664   -20068   -20465   -20830   -21153 
  -21436   -21668   -21838   -21955   -22039   -22090   -22078   -21982 
  -21826   -21655   -21477   -21282   -21096   -20981   -20953   -20983 
  -21039   -21117   -21238   -21410   -21606   -21803   -21998   -22185 
  -22352   -22464   -22483   -22408   -22275   -22104   -21881   -21614 
  -21346   -21098   -20840   -20555   -20260   -19967   -19686   -19438 
  -19242   -19096   -18962   -18789   -18576   -18370   -18197   -18039 
  -17877   -17731   -17643   -17630   -17669   -17738   -17851   -18031 
  -18266   -18515   -18763   -19004   -19218   -19384   -19502   -19592 
  -19667   -19738   -19825   -19949   -20105   -20268   -20415   -20551 
  -20689   -20818   -20914   -20981   -21054   -21153   -21266   -21371 
  -21466   -21564   -21660   -21723   -21745   -21744   -21719   -21659 
  -21576   -21487   -21393   -21291   -21173   -21027   -20860   -20686 
  -20509   -20323   -20121   -19902   -19677   -19445   -19208   -18996 
  -18838   -18736   -18676   -18650   -18668   -18743   -18863   -19019 
  -19228   -19495   -19772   -20020   -20241   -20435   -20574   -20645 
  -20664   -20638   -20556   -20400   -20169   -19886   -19573   -19242 
  -18886   -18507   -18122   -17750   -17387   -17016   -16637   -16266 
  -15902   -15538   -15184   -14869   -14626   -14466   -14366   -14302 
  -14267   -14266   -14308   -14382   -14475   -14599   -14761   -14951 
  -15160   -15370   -15560   -15727   -15874   -15995   -16078   -16139 
  -16182   -16183   -16128   -16028   -15904   -15769   -15627   -15489 
  -15371   -15282   -15224   -15202   -15212   -15237   -15268   -15321 
  -15423   -15575   -15741   -15889   -16036   -16215   -16423   -16630 
  -16834   -17063   -17328   -17613   -17893   -18166   -18436   -18701 
  -18972   -19255   -19540   -19811   -20066   -20320   -20582   -20828 
  -21022   -21156   -21244   -21299   -21312   -21270   -21176   -21048 
  -20880   -20646   -20338   -19981   -19605   -19221   -18829   -18443 
  -18069   -17689   -17282   -16841   -16385   -15958   -15589   -15290 
  -15071   -14930   -14873   -14924   -15083   -15322   -15622   -15971 
  -16361   -16792   -17238   -17676   -18115   -18568   -19034   -19492 
  -19920   -20312   -20674   -20990   -21243   -21429   -21557   -21644 
  -21696   -21711   -21703   -21686   -21659   -21620   -21568   -21503 
  -21432   -21379   -21361   -21357   -21340   -21314   -21285   -21247 
  -21207   -21165   -21115   -21071   -21053   -21048   -21031   -20994 
  -20944   -20889   -20806   -20665   -20465   -20230   -19971   -19696 
  -19411   -19115   -18829   -18584   -18395   -18262   -18173   -18124 
  -18133   -18202   -18316   -18450   -18588   -18729   -18865   -18983 
  -19080   -19167   -19241   -19296   -19337   -19381   -19438   -19499 
  -19550   -19571   -19570   -19566   -19558   -19527   -19458   -19359 
  -19235   -19089   -18918   -18711   -18473   -18221   -17965   -17725 
  -17527   -17380   -17284   -17249   -17277   -17361   -17499   -17673 
  -17858   -18051   -18249   -18453   -18664   -18861   -19011   -19102 
  -19156   -19194   -19197   -19133   -19005   -18858   -18709   -18532 
  -18304   -18030   -17733   -17409   -17039   -16615   -16151   -15682 
  -15234   -14820   -14453   -14155   -13933   -13782   -13704   -13712 
  -13799   -13935   -14101   -14294   -14517   -14749   -14966   -15169 
  -15367   -15556   -15730   -15887   -16036   -16178   -16288   -16354 
  -16402   -16465   -16553   -16671   -16814   -16976   -17150   -17317 
  -17453   -17556   -17639   -17708   -17759   -17779   -17762   -17698 
  -17570   -17374   -17118   -16818   -16487   -16131   -15749   -15351 
  -14948   -14560   -14210   -13926   -13725   -13598   -13524   -13502 
  -13536   -13609   -13693   -13780   -13872   -13974   -14086   -14193 
  -14280   -14357   -14445   -14557   -14686   -14828   -14989   -15168 
  -15350   -15527   -15697   -15867   -16057   -16281   -16531   -16792 
  -17062   -17346   -17643   -17944   -18224   -18464   -18684   -18893 
  -19070   -19195   -19274   -19329   -19366   -19373   -19352   -19319 
  -19279   -19237   -19213   -19227   -19291   -19402   -19562   -19797 
  -20123   -20519   -20968   -21455   -21969   -22502   -23035   -23546 
  -24020   -24436   -24772   -25031   -25214   -25317   -25343   -25306 
  -25208   -25053   -24843   -24580   -24282   -23966   -23644   -23322 
  -22997   -22679   -22390   -22134   -21898   -21676   -21468   -21264 
  -21054   -20843   -20638   -20437   -20227   -20005   -19792   -19612 
  -19465   -19344   -19238   -19140   -19050   -18975   -18917   -18882 
  -18875   -18904   -18985   -19126   -19310   -19518   -19732   -19941 
  -20151   -20358   -20544   -20688   -20784   -20837   -20847   -20818 
  -20757   -20677   -20586   -20479   -20346   -20183   -19989   -19768 
  -19534   -19303   -19078   -18849   -18610   -18370   -18133   -17886 
  -17615   -17340   -17094   -16887   -16710   -16552   -16403   -16253 
  -16097   -15936   -15788   -15680   -15617   -15592   -15591   -15594 
  -15597   -15615   -15658   -15739   -15866   -16016   -16166   -16305 
  -16431   -16568   -16723   -16877   -17024   -17168   -17308   -17426 
  -17514   -17582   -17642   -17703   -17785   -17894   -18027   -18175 
  -18316   -18443   -18554   -18645   -18726   -18807   -18891   -18984 
  -19086   -19186   -19279   -19351   -19382   -19360   -19280   -19174 
  -19071   -18967   -18849   -18726   -18606   -18486   -18367   -18253 
  -18156   -18094   -18065   -18050   -18041   -18040   -18048   -18062 
