Origin Time       2025/01/13 21:19:00
Lat.              31.8
Long.             131.6
Depth. (km)       30
Mag.              6.9
Station Code      KGSH05
Station Lat.      31.8699
Station Long.     130.4958
Station Height(m) -33.658
Record Time       2025/01/13 21:19:49
Sampling Freq(Hz) 100Hz
Duration Time(s)  229
Dir.              2
Scale Factor      3923(gal)/8224838
Max. Acc. (gal)   6.722
Last Correction   2025/01/13 21:19:50
Memo.             
[...]
  -32451   -31911   -31399   -30885   -30352   -29809   -29290   -28836 
  -28432   -28020   -27583   -27155   -26793   -26562   -26485   -26520 
  -26640   -26866   -27187   -27544   -27865   -28101   -28264   -28426 
  -28620   -28815   -28985   -29126   -29255   -29382   -29504   -29616 
  -29704   -29785   -29925   -30176   -30496   -30813   -31068   -31183 
  -31091   -30819   -30419   -29924   -29358   -28755   -28136   -27541 
  -27035   -26654   -26380   -26163   -25953   -25729   -25512   -25343 
  -25250   -25232   -25262   -25276   -25213   -25103   -25045   -25104 
  -25270   -25502   -25785   -26121   -26474   -26800   -27085   -27328 
  -27525   -27683   -27793   -27855   -27897   -27918   -27880   -27756 
  -27535   -27240   -26935   -26673   -26441   -26181   -25891   -25610 
  -25335   -25065   -24854   -24737   -24672   -24606   -24479   -24240 
  -23900   -23511   -23114   -22727   -22331   -21879   -21354   -20753 
  -20079   -19365   -18674   -18067   -17551   -17080   -16633   -16212 
  -15777   -15321   -14889   -14517   -14249   -14145   -14237   -14488 
  -14832   -15240   -15731   -16302   -16968   -17768   -18698   -19714 
  -20783   -21859   -22874   -23769   -24513   -25123   -25614   -26010 
  -26353   -26666   -26950   -27209   -27479   -27823   -28260   -28736 
  -29166   -29501   -29724   -29839   -29880   -29897   -29945   -30087 
  -30362   -30770   -31280   -31860   -32449   -32975   -33388   -33667 
  -33831   -33933   -34018   -34109   -34215   -34314   -34396   -34476 
  -34538   -34593   -34689   -34846   -35048   -35279   -35510   -35688 
  -35758   -35696   -35534   -35328   -35090   -34811   -34487   -34123 
  -33766   -33471   -33235   -33003   -32717   -32352   -31908   -31380 
  -30751   -30022   -29255   -28530   -27897   -27346   -26835   -26350 
  -25913   -25532   -25193   -24854   -24482   -24063   -23588   -23053 
  -22499   -22009   -21683   -21614   -21837   -22314   -22975   -23754 
  -24574   -25370   -26090   -26688   -27130   -27375   -27383   -27140 
  -26666   -26038   -25362   -24715   -24148   -23724   -23506   -23499 
  -23654   -23922   -24262   -24645   -25051   -25456   -25820   -26125 
  -26380   -26600   -26811   -27067   -27434   -27923   -28512   -29168 
  -29845   -30503   -31120   -31687   -32201   -32672   -33106   -33457 
  -33685   -33781   -33747   -33571   -33235   -32760   -32209   -31629 
  -31056   -30523   -30021   -29527   -29016   -28480   -27961   -27522 
  -27174   -26887   -26647   -26423   -26190   -25944   -25695   -25450 
  -25205   -24965   -24746   -24538   -24294   -23994   -23637   -23256 
  -22944   -22751   -22635   -22551   -22505   -22509   -22578   -22723 
  -22951   -23265   -23672   -24158   -24691   -25243   -25785   -26279 
  -26677   -26951   -27129   -27249   -27319   -27368   -27433   -27525 
  -27635   -27723   -27730   -27650   -27500   -27268   -26963   -26642 
  -26329   -26014   -25726   -25506   -25388   -25440   -25720   -26203 
  -26785   -27355   -27838   -28185   -28368   -28397   -28300   -28102 
  -27814   -27471   -27155   -26955   -26877   -26869   -26896   -26958 
  -27024   -27058   -27048   -26991   -26869   -26671   -26427   -26190 
  -26001   -25856   -25732   -25624   -25537   -25447   -25347   -25266 
  -25213   -25158   -25076   -24975   -24877   -24800   -24748   -24705 
  -24652   -24584   -24489   -24337   -24129   -23895   -23660   -23454 
  -23305   -23195   -23109   -23066   -23079   -23120   -23121   -23040 
  -22874   -22673   -22511   -22416   -22357   -22296   -22216   -22146 
  -22129   -22173   -22254   -22381   -22576   -22831   -23110   -23376 
  -23611   -23823   -24009   -24166   -24279   -24333   -24344   -24328 
  -24286   -24235   -24212   -24246   -24344   -24494   -24679   -24896 
  -25134   -25405   -25741   -26134   -26522   -26836   -27060   -27198 
  -27245   -27190   -27041   -26850   -26693   -26611   -26580   -26566 
  -26551   -26536   -26550   -26636   -26838   -27191   -27692   -28290 
  -28949   -29666   -30422   -31178   -31903   -32598   -33261   -33872 
  -34398   -34812   -35121   -35363   -35561   -35708   -35796   -35799 
  -35688   -35492   -35270   -35068   -34946   -34942   -35040   -35186 
  -35334   -35469   -35567   -35595   -35556   -35452   -35302   -35128 
  -34938   -34728   -34499   -34260   -34059   -33932   -33880   -33858 
  -33817   -33755   -33673   -33552   -33385   -33177   -32923   -32613 
  -32248   -31843   -31419   -31012   -30640   -30330   -30114   -29982 
  -29903   -29871   -29860   -29824   -29747   -29631   -29452   -29178 
  -28777   -28236   -27573   -26848   -26136   -25471   -24856   -24267 
  -23664   -23060   -22534   -22100   -21739   -21404   -21031   -20649 
  -20316   -20004   -19691   -19372   -19040   -18717   -18438   -18220 
  -18060   -17934   -17838   -17755   -17643   -17479   -17312   -17209 
  -17169   -17093   -16903   -16586   -16201   -15853   -15630   -15597 
  -15781   -16160   -16694   -17332   -18023   -18711   -19361   -19998 
  -20672   -21393   -22131   -22839   -23458   -23967   -24398   -24776 
  -25088   -25323   -25510   -25678   -25840   -25984   -26088   -26146 
  -26150   -26068   -25883   -25632   -25342   -25012   -24655   -24301 
  -23969   -23689   -23464   -23255   -23033   -22819   -22662   -22626 
  -22758   -23083   -23568   -24154   -24817   -25543   -26289   -27031 
  -27762   -28487   -29176   -29767   -30226   -30537   -30697   -30734 
  -30667   -30489   -30190   -29802   -29362   -28888   -28391   -27895 
  -27438   -27032   -26676   -26428   -26360   -26474   -26746   -27151 
  -27639   -28154   -28649   -29107   -29538   -29930   -30265   -30531 
  -30715   -30819   -30879   -30931   -30983   -31043   -31120   -31222 
  -31359   -31510   -31634   -31684   -31629   -31494   -31353   -31249 
  -31199   -31225   -31315   -31448   -31639   -31885   -32136   -32366 
  -32559   -32706   -32765   -32684   -32463   -32151   -31803   -31469 
  -31176   -30924   -30709   -30526   -30392   -30307   -30221   -30103 
  -29961   -29786   -29552   -29220   -28765   -28201   -27562   -26904 
  -26283   -25743   -25305   -24985   -24783   -24686   -24694   -24813 
  -25024   -25323   -25716   -26168   -26628   -27062   -27446   -27774 
  -28061   -28320   -28543   -28695   -28753   -28738   -28684   -28601 
  -28486   -28340   -28166   -27973   -27773   -27577   -27415   -27319 
  -27292   -27310   -27371   -27477   -27619   -27780   -27912   -27990 
  -28047   -28090   -28101   -28080   -28066   -28101   -28192   -28332 
  -28525   -28753   -29000   -29247   -29484   -29689   -29810   -29809 
  -29697   -29517   -29328   -29153   -28944   -28653   -28283   -27865 
  -27445   -27060   -26717   -26414   -26141   -25874   -25602   -25340 
  -25093   -24848   -24597   -24355   -24167   -24063   -24007   -23938 
  -23820   -23669   -23527   -23415   -23329   -23238   -23102   -22902 
  -22620   -22256   -21867   -21486   -21112   -20783   -20544   -20376 
  -20256   -20193   -20183   -20214   -20256   -20244   -20136   -19975 
  -19857   -19854   -19965   -20151   -20378   -20622   -20879   -21172 
  -21509   -21870   -22214   -22515   -22750   -22931   -23120   -23380 
  -23719   -24112   -24514   -24872   -25150   -25336   -25417   -25371 
  -25186   -24884   -24516   -24135   -23787   -23518   -23371   -23344 
  -23406   -23512   -23639   -23785   -23938   -24078   -24196   -24279 
  -24354   -24443   -24530   -24615   -24721   -24868   -25076   -25373 
  -25762   -26217   -26715   -27253   -27824   -28424   -29077   -29781 
  -30504   -31224   -31914   -32553   -33124   -33583   -33891   -34020 
  -33957   -33713   -33312   -32813   -32289   -31769   -31257   -30761 
  -30279   -29826   -29431   -29120   -28919   -28821   -28765   -28682 
  -28545   -28386   -28240   -28131   -28066   -28051   -28057   -28051 
  -28031   -28009   -28005   -28043   -28134   -28267   -28437   -28638 
  -28872   -29153   -29497   -29901   -30325   -30721   -31045   -31243 
  -31280   -31149   -30861   -30460   -29988   -29459   -28872   -28236 
  -27585   -26962   -26419   -25998   -25709   -25566   -25574   -25714 
  -25960   -26275   -26617   -26982   -27368   -27750   -28112   -28460 
  -28786   -29057   -29266   -29419   -29527   -29628   -29756   -29934 
  -30184   -30527   -30952   -31414   -31861   -32270   -32638   -32952 
  -33177   -33281   -33234   -33025   -32683   -32258   -31780   -31272 
  -30746   -30196   -29651   -29145   -28668   -28188   -27672   -27118 
  -26569   -26052   -25574   -25174   -24884   -24727   -24733   -24887 
  -25126   -25377   -25581   -25714   -25778   -25780   -25717   -25579 
  -25382   -25174   -25012   -24918   -24876   -24888   -24970   -25116 
  -25296   -25471   -25620   -25712   -25720   -25645   -25508   -25335 
  -25165   -25019   -24929   -24930   -25033   -25258   -25612   -26065 
  -26592   -27139   -27616   -27973   -28208   -28327   -28335   -28258 
  -28094   -27837   -27537   -27252   -27001   -26819   -26739   -26785 
  -26964   -27259   -27619   -27992   -28348   -28667   -28941   -29182 
  -29400   -29590   -29755   -29913   -30087   -30273   -30446   -30600 
  -30739   -30836   -30854   -30763   -30554   -30253   -29879   -29447 
  -28979   -28480   -27957   -27436   -26944   -26496   -26107   -25790 
  -25533   -25282   -24966   -24559   -24074   -23518   -22879   -22185 
  -21492   -20856   -20332   -19931   -19611   -19341   -19090   -18837 
  -18578   -18295   -17975   -17633   -17282   -16937   -16614   -16333 
  -16113   -15978   -15965   -16113   -16436   -16922   -17556   -18297 
  -19074   -19819   -20488   -21060   -21516   -21867   -22142   -22368 
  -22572   -22798   -23082   -23441   -23874   -24360   -24889   -25483 
  -26133   -26789   -27425   -28054   -28706   -29392   -30096   -30781 
  -31392   -31927   -32425   -32887   -33281   -33609   -33897   -34152 
  -34381   -34605   -34832   -35052   -35282   -35556   -35885   -36274 
  -36718   -37189   -37658   -38098   -38487   -38816   -39094   -39318 
  -39483   -39598   -39660   -39665   -39636   -39613   -39626   -39685 
  -39779   -39881   -39962   -39996   -39964   -39854   -39663   -39376 
  -38971   -38434   -37768   -36980   -36084   -35112   -34102   -33095 
  -32143   -31315   -30667   -30208   -29920   -29785   -29760   -29783 
  -29787   -29717   -29574   -29377   -29115   -28827   -28532   -28196 
  -27816   -27380   -26879   -26349   -25798   -25250   -24727   -24214 
  -23692   -23159   -22631   -22107   -21570   -21008   -20418   -19803 
  -19190   -18596   -18037   -17533   -17089   -16699   -16360   -16078 
  -15867   -15716   -15610   -15554   -15557   -15622   -15766   -15988 
  -16268   -16576   -16889   -17184   -17421   -17578   -17651   -17675 
  -17710   -17821   -18027   -18314   -18665   -19053   -19442   -19805 
  -20113   -20366   -20575   -20729   -20814   -20842   -20812   -20704 
  -20511   -20264   -20012   -19816   -19722   -19746   -19908   -20204 
  -20609   -21091   -21610   -22102   -22519   -22858   -23141   -23404 
  -23687   -23976   -24243   -24480   -24683   -24857   -25018   -25170 
  -25308   -25393   -25377   -25239   -25002   -24695   -24355   -24013 
  -23700   -23425   -23187   -23001   -22874   -22801   -22793   -22859 
  -22986   -23145   -23306   -23446   -23583   -23743   -23954   -24254 
  -24651   -25137   -25717   -26387   -27120   -27882   -28633   -29340 
  -29997   -30582   -31062   -31379   -31518   -31510   -31369   -31109 
  -30769   -30400   -30052   -29751   -29508   -29353   -29328   -29454 
  -29717   -30091   -30543   -31032   -31518   -31957   -32308   -32562 
  -32732   -32844   -32952   -33091   -33272   -33504   -33790   -34123 
  -34487   -34867   -35260   -35653   -36013   -36310   -36509   -36572 
  -36482   -36254   -35930   -35560   -35189   -34825   -34447   -34024 
  -33501   -32822   -31982   -31020   -29983   -28918   -27866   -26893 
  -26080   -25485   -25134   -25047   -25223   -25621   -26179   -26825 
  -27491   -28136   -28742   -29311   -29851   -30366   -30848   -31287 
  -31675   -32020   -32346   -32656   -32940   -33187   -33374   -33469 
  -33434   -33230   -32854   -32336   -31733   -31086   -30416   -29736 
  -29027   -28283   -27538   -26824   -26163   -25578   -25080   -24669 
  -24362   -24174   -24109   -24158   -24312   -24567   -24925   -25374 
  -25890   -26469   -27105   -27745   -28329   -28811   -29133   -29242 
  -29133   -28822   -28351   -27792   -27203   -26630   -26119   -25693 
  -25350   -25115   -25014   -25031   -25123   -25243   -25359   -25459 
  -25540   -25594   -25600   -25537   -25392   -25158   -24845   -24453 
  -23989   -23488   -22975   -22476   -22034   -21686   -21420   -21238 
  -21149   -21143   -21207   -21312   -21428   -21540   -21645   -21749 
  -21870   -22019   -22199   -22404   -22626   -22851   -23062   -23249 
  -23413   -23558   -23707   -23853   -23981   -24098   -24210   -24310 
  -24395   -24467   -24537   -24613   -24676   -24703   -24694   -24645 
  -24529   -24337   -24073   -23746   -23414   -23120   -22833   -22524 
  -22195   -21853   -21524   -21236   -20997   -20799   -20641   -20528 
  -20460   -20430   -20414   -20407   -20443   -20547   -20736   -21011 
  -21371   -21822   -22364   -22985   -23670   -24436   -25285   -26192 
  -27151   -28155   -29192   -30245   -31288   -32306   -33281   -34188 
  -35010   -35743   -36382   -36919   -37376   -37768   -38102   -38415 
  -38749   -39097   -39456   -39808   -40136   -40433   -40682   -40867 
  -40994   -41054   -41035   -40933   -40734   -40409   -39934   -39309 
  -38562   -37746   -36911   -36105   -35357   -34678   -34074   -33535 
  -33062   -32663   -32333   -32074   -31862   -31645   -31380   -31032 
  -30570   -29999   -29365   -28722   -28104   -27526   -26998   -26526 
  -26130   -25820   -25571   -25373   -25230   -25135   -25065   -25010 
  -24964   -24930   -24914   -24907   -24892   -24854   -24771   -24628 
  -24424   -24167   -23876   -23534   -23106   -22578   -21957   -21265 
  -20528   -19791   -19099   -18472   -17906   -17429   -17065   -16829 
  -16733   -16764   -16892   -17085   -17311   -17563   -17838   -18126 
  -18424   -18740   -19080   -19457   -19876   -20331   -20833   -21390 
  -22000   -22665   -23371   -24098   -24822   -25519   -26184   -26816 
  -27383   -27866   -28255   -28537   -28715   -28798   -28806   -28787 
  -28790   -28860   -29023   -29272   -29590   -29959   -30356   -30780 
  -31244   -31735   -32238   -32722   -33149   -33485   -33714   -33835 
  -33872   -33843   -33740   -33579   -33390   -33200   -33038   -32921 
  -32864   -32877   -32961   -33103   -33281   -33466   -33639   -33786 
  -33890   -33924   -33866   -33713   -33492   -33234   -32962   -32691 
  -32429   -32188   -31965   -31749   -31521   -31267   -30977   -30643 
  -30252   -29812   -29342   -28846   -28328   -27800   -27244   -26654 
  -26049   -25432   -24799   -24154   -23512   -22901   -22345   -21853 
  -21420   -21039   -20725   -20488   -20335   -20259   -20254   -20289 
  -20318   -20293   -20181   -19978   -19704   -19390   -19076   -18800 
  -18571   -18395   -18270   -18191   -18162   -18191   -18269   -18396 
  -18566   -18777   -19018   -19273   -19546   -19840   -20148   -20468 
  -20785   -21084   -21361   -21594   -21751   -21830   -21843   -21794 
  -21694   -21556   -21412   -21288   -21219   -21220   -21281   -21400 
  -21578   -21813   -22099   -22420   -22777   -23160   -23544   -23912 
  -24256   -24572   -24865   -25137   -25389   -25639   -25901   -26168 
  -26423   -26651   -26831   -26967   -27072   -27147   -27198   -27216 
  -27198   -27153   -27079   -26968   -26833   -26692   -26562   -26460 
  -26415   -26466   -26613   -26842   -27143   -27490   -27850   -28196 
  -28503   -28769   -29003   -29222   -29450   -29689   -29920   -30132 
  -30338   -30550   -30781   -31052   -31365   -31715   -32094   -32483 
  -32859   -33205   -33508   -33745   -33901   -33972   -33972   -33928 
  -33853   -33737   -33582   -33401   -33205   -33015   -32830   -32630 
  -32418   -32196   -31966   -31735   -31507   -31290   -31074   -30855 
  -30647   -30437   -30210   -29995   -29821   -29701   -29651   -29652 
  -29666   -29683   -29706   -29725   -29727   -29695   -29631   -29538 
  -29415   -29274   -29127   -28981   -28838   -28688   -28526   -28355 
  -28179   -28001   -27822   -27653   -27522   -27445   -27423   -27456 
  -27523   -27618   -27720   -27804   -27847   -27828   -27735   -27583 
  -27396   -27202   -27027   -26885   -26777   -26703   -26665   -26669 
  -26698   -26731   -26770   -26815   -26847   -26859   -26862   -26863 
  -26871   -26908   -27000   -27157   -27373   -27626   -27893   -28161 
  -28417   -28655   -28871   -29070   -29253   -29408   -29529   -29609 
  -29632   -29582   -29459   -29263   -28993   -28671   -28305   -27889 
  -27427   -26936   -26430   -25921   -25428   -24965   -24530   -24115 
  -23718   -23349   -23005   -22686   -22408   -22183   -22007   -21878 
  -21798   -21762   -21759   -21775   -21806   -21843   -21874   -21902 
  -21933   -21965   -21987   -21995   -21991   -21972   -21928   -21851 
  -21762   -21678   -21591   -21494   -21405   -21336   -21284   -21250 
  -21250   -21278   -21330   -21402   -21497   -21614   -21748   -21884 
  -22018   -22146   -22283   -22441   -22617   -22820   -23049   -23318 
  -23643   -24036   -24502   -25024   -25569   -26119   -26670   -27201 
  -27695   -28152   -28576   -28966   -29323   -29650   -29952   -30233 
  -30499   -30744   -30952   -31120   -31251   -31352   -31426   -31494 
  -31567   -31653   -31772   -31914   -32057   -32197   -32323   -32422 
  -32509   -32584   -32644   -32690   -32724   -32730   -32707   -32637 
  -32495   -32287   -32019   -31688   -31303   -30875   -30435   -30003 
  -29583   -29176   -28772   -28366   -27959   -27575   -27214   -26875 
  -26576   -26341   -26176   -26091   -26083   -26131   -26226   -26349 
  -26462   -26558   -26649   -26738   -26821   -26900   -26971   -27025 
  -27052   -27049   -27020   -26971   -26894   -26774   -26603   -26384 
  -26126   -25836   -25525   -25219   -24942   -24713   -24538   -24429 
  -24394   -24416   -24480   -24584   -24725   -24895   -25076   -25245 
  -25402   -25542   -25652   -25737   -25799   -25849   -25899   -25949 
  -26005   -26075   -26172   -26299   -26455   -26651   -26887   -27148 
  -27413   -27668   -27918   -28161   -28397   -28622   -28829   -29014 
  -29188   -29363   -29547   -29739   -29929   -30110   -30280   -30427 
  -30546   -30638   -30701   -30743   -30778   -30805   -30811   -30796 
  -30747   -30649   -30500   -30288   -30010   -29683   -29323   -28953 
  -28606   -28277   -27955   -27641   -27333   -27041   -26778   -26547 
  -26356   -26202   -26084   -25984   -25867   -25714   -25537   -25335 
  -25107   -24875   -24657   -24476   -24340   -24246   -24186   -24148 
  -24120   -24090   -24057   -24028   -24030   -24075   -24158   -24259 
  -24375   -24509   -24649   -24802   -24966   -25107   -25216   -25305 
  -25378   -25444   -25497   -25533   -25562   -25596   -25643   -25713 
  -25810   -25940   -26092   -26253   -26404   -26532   -26642   -26734 
  -26802   -26825   -26790   -26703   -26576   -26422   -26258   -26095 
  -25948   -25826   -25731   -25660   -25609   -25575   -25566   -25552 
  -25524   -25498   -25485   -25490   -25520   -25575   -25664   -25793 
