Origin Time       2025/01/13 21:19:00
Lat.              31.8
Long.             131.6
Depth. (km)       30
Mag.              6.9
Station Code      KGSH06
Station Lat.      31.6988
Station Long.     130.4594
Station Height(m) 131.07
Record Time       2025/01/13 21:19:51
Sampling Freq(Hz) 100Hz
Duration Time(s)  205
Dir.              5
Scale Factor      3920(gal)/6170801
Max. Acc. (gal)   5.065
Last Correction   2025/01/13 21:19:36
Memo.             
[...]
  -12864   -12927   -12897   -12707   -12359   -11924   -11589   -11521 
  -11666   -11806   -11727   -11342   -10799   -10437   -10506   -10981 
  -11617   -12067   -12007   -11308   -10054    -8490    -7031    -6151 
   -6119    -6868    -8079    -9322   -10175   -10365    -9914    -9042 
   -7974    -6997    -6470    -6563    -7109    -7767    -8265    -8519 
   -8629    -8784    -9043    -9288    -9405    -9307    -8930    -8379 
   -7859    -7467    -7268    -7389    -7835    -8370    -8657    -8381 
   -7385    -5875    -4333    -3151    -2548    -2711    -3604    -4781 
   -5756    -6391    -6752    -6847    -6663    -6296    -5891    -5550 
   -5276    -4990    -4614    -4170    -3773    -3558    -3679    -4253 
   -5172    -6122    -6840    -7252    -7438    -7512    -7545    -7652 
   -8019    -8712    -9587   -10379   -10832   -10835   -10491   -10100 
  -10028   -10414   -10949   -11112   -10651    -9640    -8356    -7254 
   -6695    -6754    -7378    -8425    -9530   -10218   -10238    -9676 
   -8779    -7885    -7347    -7314    -7618    -7943    -8068    -7894 
   -7431    -6909    -6639    -6758    -7189    -7642    -7726    -7258 
   -6341    -5223    -4252    -3804    -4093    -5065    -6432    -7786 
   -8752    -9084    -8758    -8053    -7370    -6973    -7011    -7526 
   -8311    -8975    -9223    -9017    -8575    -8289    -8449    -9024 
   -9809   -10581   -11100   -11189   -10845   -10255    -9663    -9241 
   -9097    -9209    -9360    -9297    -8861    -8060    -7192    -6718 
   -6906    -7686    -8763    -9749   -10215    -9909    -9020    -7971 
   -7096    -6628    -6702    -7223    -7883    -8347    -8415    -8085 
   -7546    -7060    -6844    -6988    -7445    -8035    -8492    -8632 
   -8528    -8440    -8593    -9044    -9688   -10331   -10716   -10647 
  -10170    -9568    -9142    -9084    -9467   -10194   -11007   -11622 
  -11865   -11712   -11241   -10587    -9891    -9278    -8864    -8687 
   -8607    -8439    -8125    -7719    -7362    -7186    -7168    -7172 
   -7108    -7020    -7014    -7126    -7258    -7236    -6980    -6603 
   -6290    -6164    -6281    -6622    -7077    -7540    -7997    -8443 
   -8861    -9273    -9683   -10007   -10148   -10092    -9910    -9724 
   -9704   -10007   -10594   -11189   -11509   -11401   -10835    -9951 
   -8990    -8105    -7343    -6729    -6247    -5872    -5624    -5506 
   -5477    -5497    -5555    -5661    -5804    -5999    -6315    -6794 
   -7367    -7931    -8446    -8866    -9102    -9058    -8694    -8058 
   -7251    -6396    -5629    -5076    -4808    -4729    -4657    -4535 
   -4401    -4280    -4203    -4232    -4448    -4902    -5530    -6158 
   -6654    -7007    -7289    -7569    -7834    -8027    -8130    -8166 
   -8206    -8363    -8716    -9282   -10015   -10772   -11371   -11654 
  -11558   -11157   -10627   -10203   -10042   -10091   -10215   -10362 
  -10484   -10501   -10359   -10051    -9584    -8973    -8250    -7503 
   -6859    -6397    -6134    -6038    -6008    -5991    -6055    -6184 
   -6215    -5990    -5492    -4817    -4077    -3429    -3100    -3224 
   -3720    -4419    -5251    -6156    -6904    -7262    -7219    -6926 
   -6581    -6347    -6256    -6228    -6189    -6142    -6187    -6507 
   -7235    -8274    -9326   -10064   -10334   -10214    -9838    -9281 
   -8659    -8145    -7852    -7819    -8067    -8524    -8993    -9308 
   -9412    -9339    -9201    -9166    -9303    -9526    -9747    -9907 
   -9908    -9695    -9351    -9029    -8849    -8848    -9002    -9216 
   -9363    -9333    -9027    -8464    -7833    -7346    -7121    -7150 
   -7309    -7448    -7509    -7510    -7505    -7561    -7701    -7927 
   -8245    -8593    -8869    -9046    -9159    -9257    -9393    -9618 
   -9929   -10239   -10406   -10349   -10115    -9830    -9649    -9694 
   -9975   -10379   -10724   -10843   -10732   -10530   -10351   -10225 
  -10148   -10081    -9929    -9605    -9149    -8703    -8355    -8089 
   -7887    -7808    -7897    -8058    -8156    -8145    -8056    -7945 
   -7822    -7607    -7254    -6832    -6503    -6416    -6570    -6791 
   -6901    -6861    -6745    -6654    -6639    -6652    -6560    -6220 
   -5603    -4853    -4190    -3792    -3799    -4291    -5178    -6210 
   -7097    -7630    -7772    -7684    -7621    -7773    -8172    -8711 
   -9255    -9737   -10172   -10571   -10868   -10988   -10906   -10643 
  -10261    -9828    -9417    -9172    -9209    -9497    -9912   -10339 
  -10670   -10806   -10782   -10771   -10909   -11231   -11700   -12174 
  -12451   -12432   -12181   -11789   -11299   -10731   -10122    -9570 
   -9230    -9201    -9427    -9774   -10145   -10477   -10705   -10796 
  -10758   -10566   -10150    -9514    -8761    -8027    -7421    -6967 
   -6623    -6388    -6334    -6520    -6932    -7434    -7784    -7799 
   -7465    -6871    -6145    -5390    -4608    -3806    -3118    -2735 
   -2752    -3126    -3698    -4237    -4578    -4683    -4555    -4219 
   -3739    -3195    -2655    -2198    -1941    -1976    -2297    -2814 
   -3370    -3785    -3974    -3957    -3730    -3290    -2748    -2281 
   -2077    -2296    -2950    -3892    -4938    -5930    -6758    -7408 
   -7942    -8408    -8812    -9234    -9856   -10793   -11982   -13258 
  -14401   -15180   -15505   -15487   -15259   -14841   -14259   -13634 
  -13095   -12728   -12611   -12732   -12955   -13151   -13279   -13357 
  -13370   -13230   -12863   -12291   -11637   -11077   -10759   -10707 
  -10848   -11079   -11321   -11546   -11779   -12013   -12168   -12167 
  -11983   -11638   -11197   -10736   -10308    -9920    -9554    -9217 
   -8960    -8825    -8793    -8767    -8653    -8416    -8029    -7471 
   -6771    -5998    -5233    -4571    -4103    -3890    -3954    -4272 
   -4701    -4991    -4985    -4728    -4365    -4013    -3755    -3612 
   -3540    -3493    -3438    -3394    -3409    -3473    -3556    -3670 
   -3809    -3917    -3939    -3877    -3805    -3796    -3947    -4370 
   -5005    -5593    -5909    -5911    -5669    -5344    -5175    -5325 
   -5802    -6510    -7312    -8056    -8614    -8918    -8953    -8779 
   -8572    -8498    -8589    -8821    -9146    -9477    -9761   -10043 
  -10422   -10945   -11530   -11992   -12181   -12094   -11846   -11550 
  -11259   -11000   -10795   -10635   -10534   -10525   -10572   -10571 
  -10470   -10305   -10141   -10021    -9942    -9844    -9663    -9389 
   -9042    -8646    -8217    -7731    -7199    -6723    -6372    -6113 
   -5912    -5739    -5494    -5107    -4681    -4403    -4328    -4378 
   -4509    -4700    -4879    -5010    -5163    -5423    -5780    -6168 
   -6534    -6819    -6978    -7011    -6948    -6861    -6889    -7132 
   -7587    -8169    -8740    -9189    -9443    -9485    -9420    -9366 
   -9325    -9236    -9083    -8920    -8814    -8786    -8805    -8835 
   -8870    -8902    -8927    -8985    -9124    -9351    -9654   -10026 
  -10435   -10794   -11003   -11015   -10856   -10658   -10561   -10557 
  -10559   -10522   -10450   -10364   -10307   -10368   -10593   -10944 
  -11358   -11748   -11971   -11922   -11586   -11036   -10407    -9806 
   -9241    -8682    -8150    -7730    -7550    -7706    -8158    -8710 
   -9134    -9319    -9281    -9105    -8950    -8963    -9121    -9282 
   -9365    -9410    -9477    -9565    -9622    -9592    -9439    -9180 
   -8865    -8525    -8181    -7898    -7767    -7847    -8132    -8532 
   -8874    -8986    -8822    -8493    -8158    -7923    -7801    -7714 
   -7597    -7473    -7385    -7352    -7372    -7368    -7233    -6921 
   -6446    -5857    -5225    -4617    -4083    -3678    -3492    -3585 
   -3922    -4403    -4925    -5399    -5752    -5974    -6108    -6202 
   -6268    -6308    -6359    -6434    -6524    -6654    -6830    -7051 
   -7363    -7729    -8018    -8198    -8332    -8434    -8487    -8509 
   -8528    -8531    -8503    -8440    -8312    -8077    -7742    -7348 
   -6944    -6593    -6337    -6164    -6036    -5941    -5890    -5911 
   -6026    -6225    -6475    -6775    -7153    -7571    -7943    -8208 
   -8333    -8343    -8323    -8360    -8494    -8712    -8988    -9269 
   -9483    -9590    -9599    -9532    -9421    -9316    -9253    -9206 
   -9152    -9107    -9103    -9205    -9464    -9801   -10068   -10215 
  -10237   -10060    -9603    -8900    -8055    -7142    -6249    -5533 
   -5143    -5100    -5304    -5620    -5945    -6221    -6412    -6492 
   -6509    -6577    -6751    -6958    -7117    -7220    -7287    -7338 
   -7414    -7551    -7746    -7996    -8316    -8689    -9055    -9334 
   -9437    -9317    -9035    -8705    -8415    -8224    -8142    -8113 
   -8100    -8118    -8169    -8211    -8208    -8143    -8017    -7862 
   -7732    -7663    -7644    -7652    -7708    -7868    -8151    -8523 
   -8906    -9221    -9425    -9496    -9411    -9204    -8990    -8901 
   -9003    -9291    -9716   -10215   -10725   -11164   -11446   -11535 
  -11454   -11270   -11053   -10823   -10571   -10321   -10110    -9977 
   -9953    -9988    -9963    -9829    -9636    -9436    -9259    -9140 
   -9091    -9060    -8994    -8902    -8816    -8745    -8693    -8668 
   -8693    -8803    -8984    -9163    -9275    -9314    -9316    -9322 
   -9342    -9359    -9308    -9097    -8725    -8286    -7842    -7392 
   -6964    -6643    -6536    -6683    -6961    -7143    -7062    -6715 
   -6193    -5606    -5086    -4742    -4567    -4464    -4354    -4216 
   -4049    -3838    -3587    -3372    -3290    -3372    -3566    -3786 
   -3968    -4087    -4158    -4216    -4307    -4473    -4686    -4869 
   -4993    -5080    -5153    -5214    -5276    -5365    -5512    -5751 
   -6062    -6374    -6663    -6949    -7234    -7497    -7721    -7888 
   -7990    -8045    -8063    -8029    -7927    -7767    -7596    -7492 
   -7539    -7772    -8156    -8603    -9008    -9291    -9403    -9293 
   -8952    -8471    -7973    -7551    -7271    -7179    -7257    -7408 
   -7547    -7654    -7772    -7943    -8136    -8278    -8348    -8386 
   -8459    -8614    -8872    -9224    -9613    -9976   -10279   -10486 
  -10559   -10510   -10398   -10274   -10157   -10041    -9908    -9737 
   -9518    -9257    -8982    -8747    -8594    -8527    -8560    -8724 
   -9020    -9384    -9739   -10038   -10265   -10400   -10436   -10414 
  -10369   -10288   -10162   -10009    -9846    -9715    -9661    -9668 
   -9684    -9691    -9663    -9530    -9249    -8869    -8477    -8160 
   -8006    -8073    -8352    -8749    -9060    -9088    -8815    -8371 
   -7895    -7492    -7228    -7067    -6912    -6713    -6485    -6241 
   -5991    -5791    -5743    -5894    -6205    -6573    -6859    -6969 
   -6928    -6824    -6732    -6692    -6710    -6740    -6724    -6674 
   -6658    -6704    -6794    -6882    -6890    -6776    -6595    -6461 
   -6446    -6535    -6682    -6874    -7116    -7421    -7826    -8342 
   -8912    -9459    -9941   -10339   -10650   -10915   -11181   -11457 
  -11722   -11955   -12140   -12265   -12331   -12325   -12225   -12039 
  -11831   -11686   -11662   -11743   -11831   -11829   -11702   -11459 
  -11111   -10680   -10196    -9678    -9139    -8620    -8201    -7940 
   -7816    -7734    -7581    -7265    -6775    -6232    -5789    -5533 
   -5506    -5689    -5999    -6373    -6776    -7154    -7471    -7751 
   -8026    -8278    -8462    -8539    -8489    -8348    -8219    -8214 
   -8386    -8709    -9087    -9405    -9599    -9682    -9684    -9627 
   -9535    -9428    -9309    -9192    -9111    -9064    -9009    -8926 
   -8816    -8685    -8540    -8397    -8277    -8176    -8088    -8031 
   -7986    -7876    -7641    -7289    -6880    -6516    -6289    -6214 
   -6269    -6413    -6576    -6686    -6724    -6725    -6709    -6628 
   -6421    -6069    -5610    -5149    -4838    -4796    -5021    -5401 
   -5817    -6172    -6372    -6346    -6074    -5612    -5093    -4673 
   -4472    -4525    -4759    -5055    -5343    -5581    -5718    -5697 
   -5465    -5020    -4422    -3758    -3140    -2723    -2606    -2751 
   -3051    -3446    -3888    -4266    -4442    -4353    -4003    -3469 
   -2888    -2422    -2210    -2334    -2786    -3486    -4328    -5208 
   -6014    -6640    -7032    -7196    -7199    -7149    -7131    -7196 
   -7387    -7716    -8136    -8593    -9081    -9584   -10067   -10518 
  -10934   -11312   -11641   -11907   -12120   -12308   -12496   -12680 
  -12814   -12856   -12794   -12640   -12415   -12127   -11793   -11451 
  -11136   -10884   -10734   -10684   -10680   -10663   -10609   -10552 
  -10546   -10597   -10670   -10741   -10791   -10814   -10830   -10833 
  -10798   -10710   -10547   -10296   -10003    -9756    -9614    -9572 
   -9579    -9607    -9669    -9753    -9803    -9771    -9625    -9351 
   -8997    -8654    -8410    -8328    -8446    -8751    -9172    -9605 
   -9996   -10342   -10636   -10872   -11044   -11137   -11159   -11136 
  -11081   -11000   -10901   -10804   -10730   -10676   -10625   -10573 
  -10496   -10351   -10124    -9856    -9608    -9425    -9312    -9218 
   -9064    -8820    -8518    -8224    -7980    -7809    -7734    -7744 
   -7797    -7878    -7999    -8149    -8305    -8446    -8561    -8639 
   -8668    -8639    -8554    -8427    -8267    -8105    -8008    -8013 
   -8064    -8078    -8029    -7923    -7749    -7498    -7184    -6807 
   -6352    -5831    -5273    -4703    -4131    -3540    -2896    -2188 
   -1459     -797     -319     -102     -131     -337     -646     -978 
   -1246    -1394    -1408    -1293    -1093     -898     -784     -773 
    -860    -1036    -1288    -1602    -1960    -2319    -2636    -2914 
   -3179    -3449    -3762    -4159    -4648    -5219    -5843    -6469 
   -7065    -7633    -8183    -8727    -9282    -9852   -10420   -10955 
  -11449   -11922   -12394   -12861   -13293   -13663   -13964   -14198 
  -14357   -14423   -14393   -14289   -14154   -14042   -14003   -14049 
  -14128   -14143   -14028   -13781   -13455   -13124   -12850   -12672 
  -12614   -12683   -12843   -13020   -13149   -13157   -13005   -12759 
  -12528   -12364   -12267   -12202   -12139   -12087   -12056   -12034 
  -11987   -11863   -11636   -11321   -10943   -10513   -10023    -9456 
   -8812    -8151    -7570    -7140    -6912    -6913    -7105    -7417 
   -7788    -8161    -8483    -8723    -8862    -8893    -8832    -8689 
   -8467    -8173    -7808    -7360    -6831    -6272    -5771    -5392 
   -5134    -4975    -4877    -4776    -4614    -4378    -4102    -3842 
   -3655    -3579    -3612    -3711    -3808    -3819    -3697    -3481 
   -3263    -3120    -3086    -3173    -3379    -3676    -3999    -4300 
   -4587    -4868    -5117    -5315    -5447    -5499    -5488    -5471 
   -5511    -5630    -5822    -6080    -6420    -6853    -7355    -7850 
   -8251    -8478    -8458    -8172    -7688    -7161    -6777    -6666 
   -6884    -7419    -8204    -9148   -10161   -11166   -12094   -12860 
  -13391   -13649   -13614   -13330   -12922   -12518   -12215   -12096 
  -12218   -12619   -13253   -13990   -14682   -15206   -15492   -15527 
  -15309   -14796   -13960   -12883   -11765   -10832   -10271   -10168 
  -10440   -10886   -11306   -11548   -11501   -11121   -10481    -9737 
   -9012    -8390    -7951    -7698    -7534    -7312    -6912    -6305 
   -5557    -4780    -4097    -3596    -3263    -3027    -2848    -2716 
   -2620    -2512    -2319    -2007    -1625    -1244     -890     -560 
    -281     -113     -124     -396     -948    -1683    -2464    -3185 
   -3764    -4134    -4269    -4209    -4039    -3858    -3789    -3933 
   -4287    -4771    -5281    -5729    -6098    -6436    -6804    -7236 
   -7731    -8265    -8797    -9274    -9647    -9890   -10012   -10045 
  -10027    -9977    -9927    -9948   -10094   -10365   -10726   -11103 
  -11419   -11624   -11697   -11673   -11646   -11713   -11926   -12305 
  -12834   -13435   -13967   -14299   -14369   -14197   -13883   -13539 
  -13199   -12877   -12629   -12497   -12474   -12540   -12685   -12857 
  -12971   -12998   -12981   -12942   -12847   -12659   -12361   -11973 
  -11554   -11180   -10911   -10758   -10688   -10643   -10528   -10228 
   -9689    -8947    -8093    -7271    -6637    -6292    -6264    -6485 
   -6778    -6939    -6846    -6518    -6043    -5508    -4979    -4518 
   -4182    -3985    -3925    -4016    -4230    -4480    -4693    -4856 
   -4971    -5034    -5033    -4944    -4762    -4513    -4239    -3984 
   -3799    -3733    -3845    -4176    -4704    -5333    -5917    -6334 
   -6539    -6536    -6376    -6165    -6021    -6016    -6168    -6448 
   -6776    -7098    -7407    -7703    -7978    -8192    -8269    -8143 
   -7783    -7228    -6599    -6041    -5640    -5398    -5277    -5252 
   -5282    -5290    -5240    -5172    -5120    -5074    -5030    -5002 
   -4990    -4979    -4996    -5097    -5339    -5756    -6287    -6821 
   -7286    -7647    -7895    -8020    -8005    -7855    -7607    -7337 
   -7137    -7064    -7130    -7312    -7549    -7778    -7983    -8162 
   -8293    -8358    -8368    -8343    -8303    -8301    -8407    -8633 
   -8962    -9404    -9944   -10516   -11063   -11543   -11904   -12121 
  -12222   -12260   -12292   -12362   -12475   -12605   -12720   -12775 
  -12722   -12550   -12295   -12024   -11809   -11704   -11695   -11716 
  -11719   -11685   -11592   -11430   -11217   -10965   -10659   -10308 
   -9947    -9587    -9230    -8900    -8611    -8365    -8185    -8114 
   -8164    -8320    -8580    -8922    -9274    -9565    -9737    -9740 
   -9570    -9307    -9036    -8785    -8552    -8322    -8076    -7822 
   -7575    -7319    -7040    -6738    -6414    -6064    -5685    -5308 
   -4980    -4736    -4595    -4548    -4551    -4564    -4582    -4613 
   -4670    -4803    -5065    -5453    -5933    -6474    -7034    -7547 
   -7955    -8241    -8405    -8477    -8496    -8482    -8439    -8386 
   -8357    -8401    -8547    -8778    -9026    -9194    -9228    -9139 
   -8962    -8737    -8497    -8247    -7956    -7619    -7297    -7067 
   -6946    -6912    -6952    -7069    -7260    -7499    -7715    -7856 
   -7917    -7945    -7983    -8029    -8076    -8142    -8248    -8406 
   -8633    -8920    -9221    -9489    -9694    -9834    -9926    -9994 
  -10063   -10167   -10322   -10522   -10756   -11018   -11281   -11528 
  -11772   -12028   -12284   -12516   -12663   -12631   -12368   -11916 
  -11384   -10888   -10506   -10251   -10105   -10050   -10074   -10154 
  -10247   -10319   -10353   -10321   -10198    -9981    -9690    -9375 
   -9103    -8920    -8830    -8801    -8771    -8672    -8478    -8210 
   -7907    -7606    -7340    -7126    -6978    -6922    -6970    -7081 
   -7169    -7156    -7031    -6836    -6639    -6493    -6398    -6325 
   -6267    -6228    -6197    -6137    -6007    -5807    -5556    -5275 
   -4989    -4728    -4536    -4454    -4515    -4729    -5074    -5511 
   -6007    -6522    -7002    -7399    -7663    -7758    -7703    -7575 
   -7479    -7530    -7800    -8281    -8895    -9518   -10043   -10424 
  -10663   -10768   -10772   -10710   -10575   -10342   -10036    -9725 
   -9475    -9341    -9379    -9605    -9947   -10267   -10423   -10351 
  -10080    -9693    -9277    -8908    -8632    -8457    -8377    -8389 
