Origin Time       2025/01/13 21:19:00
Lat.              31.8
Long.             131.6
Depth. (km)       30
Mag.              6.9
Station Code      KGSH08
Station Lat.      31.5618
Station Long.     130.9969
Station Height(m) -53.603
Record Time       2025/01/13 21:19:45
Sampling Freq(Hz) 100Hz
Duration Time(s)  120
Dir.              3
Scale Factor      2940(gal)/6170270
Max. Acc. (gal)   4.930
Last Correction   2025/01/13 21:19:30
Memo.             
[...]
  -88015   -88507   -89069   -89565   -89869   -89996   -90128   -90333 
  -90464   -90415   -90195   -89878   -89708   -89868   -90173   -90414 
  -90612   -90747   -90782   -90809   -90807   -90686   -90556   -90498 
  -90353   -90060   -89783   -89632   -89621   -89702   -89735   -89687 
  -89608   -89429   -89181   -88969   -88683   -88292   -87966   -87741 
  -87613   -87648   -87837   -88151   -88520   -88749   -88741   -88640 
  -88565   -88499   -88432   -88415   -88489   -88630   -88820   -89064 
  -89302   -89538   -89822   -90041   -90071   -89917   -89578   -89153 
  -88872   -88774   -88679   -88509   -88344   -88254   -88247   -88337 
  -88573   -88840   -88892   -88721   -88566   -88544   -88593   -88597 
  -88452   -88172   -87875   -87648   -87573   -87665   -87761   -87764 
  -87802   -87956   -88167   -88423   -88796   -89290   -89754   -90024 
  -90076   -89967   -89736   -89426   -89142   -88996   -88968   -88991 
  -89078   -89175   -89159   -89111   -89247   -89535   -89748   -89795 
  -89710   -89517   -89294   -89122   -89004   -88931   -88885   -88846 
  -88844   -88844   -88738   -88552   -88445   -88506   -88644   -88692 
  -88644   -88590   -88541   -88535   -88622   -88693   -88583   -88314 
  -88054   -87911   -87988   -88359   -88827   -89154   -89285   -89187 
  -88992   -88929   -88923   -88848   -88844   -88977   -89130   -89295 
  -89505   -89645   -89673   -89737   -89904   -90055   -90092   -90020 
  -89823   -89507   -89193   -88959   -88732   -88487   -88314   -88284 
  -88426   -88708   -88971   -89023   -88839   -88560   -88327   -88246 
  -88400   -88751   -89121   -89415   -89732   -90050   -90241   -90402 
  -90594   -90578   -90291   -89997   -89845   -89830   -89977   -90203 
  -90275   -90126   -89965   -90011   -90235   -90438   -90490   -90384 
  -90139   -89780   -89412   -89117   -88842   -88649   -88708   -88924 
  -89193   -89592   -89834   -89543   -89020   -88648   -88267   -87861 
  -87671   -87603   -87527   -87572   -87745   -87940   -88106   -88212 
  -88345   -88583   -88795   -88949   -89158   -89363   -89449   -89426 
  -89316   -89208   -89252   -89419   -89571   -89638   -89589   -89474 
  -89360   -89196   -88932   -88603   -88239   -87977   -88070   -88525 
  -89061   -89463   -89661   -89674   -89651   -89760   -89955   -90004 
  -89803   -89456   -89033   -88642   -88506   -88592   -88702   -88776 
  -88698   -88445   -88307   -88436   -88808   -89457   -90142   -90394 
  -90071   -89376   -88517   -87716   -87216   -87044   -87051   -87261 
  -87794   -88491   -89059   -89409   -89531   -89446   -89283   -89110 
  -88851   -88512   -88364   -88610   -88975   -89126   -89044   -88744 
  -88355   -88127   -88037   -88002   -88165   -88625   -89234   -89665 
  -89759   -89747   -89807   -89830   -89741   -89470   -88899   -88232 
  -87869   -87874   -88038   -88314   -88763   -89153   -89200   -89033 
  -88885   -88862   -89125   -89490   -89432   -89038   -88833   -88804 
  -88843   -89186   -89619   -89689   -89619   -89752   -89869   -89730 
  -89447   -89190   -88987   -88825   -88701   -88550   -88399   -88390 
  -88550   -88815   -89119   -89334   -89389   -89295   -88980   -88379 
  -87736   -87536   -87934   -88585   -89154   -89530   -89697   -89825 
  -90127   -90481   -90603   -90406   -89994   -89712   -89886   -90267 
  -90409   -90428   -90605   -90731   -90486   -89920   -89257   -88702 
  -88494   -88624   -88686   -88503   -88409   -88651   -89180   -89848 
  -90364   -90480   -90265   -89904   -89434   -88825   -88238   -88009 
  -88214   -88554   -88789   -88810   -88381   -87490   -86720   -86583 
  -86927   -87431   -88073   -88786   -89302   -89586   -89825   -89993 
  -89945   -89712   -89366   -88910   -88455   -88167   -88058   -88114 
  -88358   -88646   -88761   -88666   -88551   -88627   -88919   -89382 
  -89929   -90219   -90037   -89682   -89454   -89306   -89193   -89139 
  -89097   -89118   -89327   -89561   -89574   -89485   -89459   -89390 
  -89246   -89104   -88900   -88643   -88541   -88662   -88857   -89003 
  -89066   -89090   -89146   -89197   -89196   -89112   -88858   -88570 
  -88521   -88683   -88827   -88796   -88646   -88590   -88738   -89063 
  -89447   -89689   -89707   -89582   -89424   -89308   -89227   -89167 
  -89251   -89537   -89816   -89870   -89763   -89726   -89811   -89814 
  -89595   -89265   -88910   -88465   -88060   -87902   -87818   -87639 
  -87602   -87717   -87650   -87497   -87565   -87712   -87705   -87610 
  -87532   -87520   -87657   -87987   -88455   -88970   -89422   -89682 
  -89689   -89542   -89381   -89142   -88663   -88172   -88111   -88508 
  -89114   -89769   -90262   -90447   -90437   -90341   -90183   -90044 
  -90052   -90312   -90665   -90682   -90225   -89487   -88674   -88140 
  -88043   -87992   -87841   -87929   -88322   -88885   -89568   -90080 
  -90183   -90127   -90096   -89990   -89882   -89882   -89926   -90010 
  -90043   -89837   -89507   -89296   -89229   -89328   -89658   -90014 
  -90062   -89768   -89339   -88929   -88698   -88848   -89321   -89771 
  -89969   -89900   -89619   -89311   -89062   -88658   -88079   -87604 
  -87278   -87042   -87018   -87175   -87349   -87574   -87950   -88372 
  -88573   -88408   -88039   -87709   -87507   -87432   -87496   -87670 
  -87861   -88060   -88351   -88722   -89055   -89286   -89397   -89318 
  -89099   -88953   -88933   -88943   -89046   -89351   -89780   -90186 
  -90564   -90928   -91067   -90831   -90482   -90261   -89984   -89490 
  -88984   -88665   -88491   -88456   -88618   -88837   -88918   -88936 
  -89041   -89116   -89083   -89202   -89571   -89928   -90168   -90331 
  -90319   -90172   -90100   -90067   -89816   -89301   -88712   -88122 
  -87543   -87193   -87251   -87513   -87704   -87882   -88145   -88376 
  -88530   -88636   -88673   -88744   -88911   -89012   -89027   -89100 
  -89168   -89126   -89109   -89214   -89358   -89516   -89679   -89776 
  -89815   -89889   -90056   -90297   -90496   -90527   -90400   -90241 
  -90146   -90139   -90279   -90651   -91077   -91246   -91178   -90981 
  -90546   -89936   -89389   -88898   -88383   -88043   -88084   -88451 
  -88998   -89527   -89793   -89723   -89400   -88981   -88679   -88490 
  -88324   -88330   -88603   -89005   -89392   -89682   -89852   -89857 
  -89526   -88825   -88022   -87332   -86800   -86594   -86809   -87212 
  -87568   -87847   -88016   -88040   -87975   -87861   -87736   -87730 
  -87887   -88023   -87960   -87638   -87093   -86534   -86160   -85949 
  -85941   -86313   -86994   -87761   -88557   -89255   -89621   -89686 
  -89672   -89621   -89423   -89137   -89067   -89340   -89780   -90356 
  -91151   -91882   -92124   -91879   -91408   -90898   -90575   -90616 
  -90904   -91201   -91450   -91737   -92016   -92107   -91959   -91546 
  -90819   -90034   -89540   -89329   -89371   -89789   -90355   -90604 
  -90483   -90170   -89678   -89147   -88905   -88956   -88987   -88953 
  -89047   -89117   -89039   -89191   -89476   -89314   -88970   -88816 
  -88632   -88432   -88222   -87914   -87610   -87277   -86859   -86306 
  -85772   -85749   -86275   -86873   -87231   -87221   -86875   -86556 
  -86686   -87353   -88325   -89272   -89949   -90313   -90434   -90340 
  -90005   -89496   -89034   -88774   -88691   -88771   -89041   -89478 
  -89988   -90407   -90643   -90737   -90736   -90690   -90745   -90896 
  -90835   -90385   -89663   -88781   -87898   -87265   -86847   -86381 
  -85830   -85421   -85438   -85975   -86777   -87533   -88129   -88606 
  -89149   -89727   -90082   -90144   -89958   -89858   -89985   -90026 
  -90249   -90678   -90788   -90914   -91583   -92534   -93124   -93307 
  -93573   -93705   -93133   -92068   -91112   -90187   -89167   -88631 
  -88622   -88727   -89007   -89368   -89651   -90000   -90378   -90663 
  -90917   -91105   -91105   -90919   -90502   -89997   -89842   -89703 
  -88969   -88381   -88364   -88172   -87920   -87852   -87575   -87215 
  -86990   -86943   -87062   -87125   -87163   -87349   -87592   -87635 
  -87279   -86475   -85348   -84319   -83756   -83549   -83577   -83773 
  -83960   -84213   -84611   -85069   -85573   -86056   -86485   -86822 
  -86934   -86885   -86804   -86716   -86676   -86702   -86811   -87014 
  -87305   -87809   -88623   -89537   -90209   -90480   -90368   -90070 
  -89839   -89630   -89366   -89256   -89366   -89565   -89855   -90257 
  -90764   -91451   -92365   -93392   -94310   -95050   -95636   -95990 
  -96083   -95915   -95434   -94824   -94379   -94131   -93943   -93673 
  -93282   -92951   -92853   -92856   -92716   -92384   -92029   -91827 
  -91799   -91844   -91738   -91224   -90460   -89806   -89260   -88788 
  -88492   -88375   -88371   -88329   -88333   -88277   -87738   -87382 
  -87800   -87933   -87474   -87349   -87550   -87870   -88502   -89199 
  -89709   -89719   -89064   -88156   -87149   -86164   -85610   -85548 
  -85806   -86131   -85933   -85262   -85162   -85454   -85272   -85190 
  -85382   -85196   -84866   -84796   -84977   -85247   -85319   -85150 
  -84955   -85009   -85357   -85802   -86416   -87148   -87655   -88045 
  -88510   -88890   -89170   -89496   -89848   -90136   -90523   -91169 
  -91846   -92285   -92523   -92645   -92705   -92831   -92984   -93036 
  -93189   -93524   -93637   -93421   -93184   -92896   -92330   -91540 
  -90756   -90134   -89638   -89257   -89186   -89447   -89788   -90138 
  -90538   -90796   -90594   -89769   -88646   -88108   -88273   -87840 
  -86725   -86385   -86544   -86403   -86454   -86567   -86565   -86833 
  -87244   -87653   -87978   -88049   -87889   -87726   -87780   -87693 
  -87298   -87130   -87238   -87346   -87510   -87631   -87494   -87187 
  -87005   -87002   -87013   -87042   -87073   -86985   -86924   -87099 
  -87417   -87727   -88052   -88363   -88408   -88136   -87881   -87768 
  -87563   -87249   -87127   -87192   -87497   -88389   -89370   -89810 
  -90000   -90256   -90469   -90440   -90346   -90439   -90517   -90497 
  -90476   -90441   -90436   -90558   -90927   -91546   -92234   -92782 
  -92955   -92668   -92142   -91519   -90811   -90193   -89686   -89119 
  -88642   -88509   -88643   -88908   -89294   -89658   -89811   -89798 
  -89726   -89589   -89437   -89363   -89338   -89246   -89091   -89019 
  -89035   -89028   -88973   -88764   -88323   -87847   -87466   -87097 
  -86869   -87030   -87420   -87671   -87767   -87871   -87926   -87780 
  -87494   -87231   -87014   -86781   -86439   -85881   -85187   -84560 
  -84096   -83864   -83869   -83943   -84051   -84388   -85069   -85967 
  -86799   -87428   -88036   -88764   -89738   -91181   -92591   -93283 
  -93716   -94320   -94589   -94222   -93808   -94010   -94412   -94514 
  -94560   -94639   -94761   -94877   -94910   -95143   -95483   -95495 
  -95402   -95554   -95555   -95078   -94446   -93827   -93097   -92459 
  -92302   -92634   -93201   -93774   -94023   -93669   -92891   -92236 
  -91976   -91959   -91996   -91855   -91367   -90807   -90641   -90693 
  -90308   -89900   -90087   -89749   -88780   -88530   -88360   -87866 
  -87837   -87858   -87797   -87738   -87202   -86405   -85734   -85286 
  -85145   -85166   -85110   -84880   -84513   -84155   -83875   -83639 
  -83602   -83760   -83536   -82804   -82554   -83059   -83224   -82967 
  -82848   -82544   -82221   -82135   -81896   -81579   -81461   -81749 
  -82593   -83638   -84429   -84868   -85110   -85442   -86039   -86664 
  -87002   -87126   -87205   -87345   -87726   -88207   -88509   -88897 
  -89624   -90381   -91025   -91668   -92091   -92101   -91953   -91797 
  -91413   -90793   -90341   -90229   -90103   -89798   -89608   -89609 
  -89724   -89928   -90098   -90357   -90793   -91166   -91558   -92101 
  -92412   -92355   -92172   -91864   -91458   -91056   -90599   -90116 
  -89759   -89611   -89535   -89308   -88908   -88562   -88508   -88637 
  -88583   -88055   -87006   -85764   -84838   -84521   -84684   -85048 
  -85574   -86223   -86874   -87521   -88047   -88251   -88092   -87561 
  -86707   -85771   -84908   -84228   -83917   -83874   -84002   -84432 
  -85001   -85484   -85948   -86379   -86692   -86994   -87303   -87344 
  -87019   -86803   -87239   -88170   -89181   -90168   -90798   -90761 
  -90501   -90532   -90870   -91317   -91537   -91383   -91243   -91497 
  -92165   -93181   -94045   -93992   -93512   -93652   -93838   -93497 
  -93416   -93586   -93477   -93297   -93073   -92759   -92625   -92710 
  -92675   -92286   -91756   -91287   -90865   -90589   -90545   -90603 
  -90556   -90355   -90181   -90133   -89930   -89316   -88556   -88121 
  -88174   -88611   -89280   -89987   -90500   -90863   -91177   -91187 
  -90904   -90607   -90268   -89955   -89682   -89182   -88634   -88552 
  -89052   -89802   -90334   -90285   -89623   -88637   -87654   -86906 
  -86587   -86832   -87392   -87731   -87713   -87458   -87121   -86980 
  -86995   -87178   -87618   -87898   -88044   -88533   -89382   -90607 
  -92237   -93958   -95330   -95928   -95597   -94820   -94200   -93441 
  -92327   -91535   -91078   -90470   -89938   -89960   -90588   -91376 
  -92133   -92697   -92494   -91726   -91064   -90646   -90394   -89965 
  -89109   -88122   -87343   -86940   -86941   -87116   -87151   -86880 
  -86450   -86219   -86315   -86732   -87588   -88643   -89357   -89639 
  -89695   -89598   -89415   -89203   -88978   -88607   -87809   -86746 
  -85828   -85144   -84839   -85045   -85530   -85966   -86027   -85492 
  -84558   -83444   -82032   -80575   -79579   -78966   -78705   -79088 
  -80079   -81373   -82563   -83348   -83780   -84104   -84576   -85199 
  -85452   -84991   -84484   -84668   -85263   -85865   -86562   -87225 
  -87665   -88232   -89024   -89391   -89139   -88798   -88544   -88291 
  -88196   -88272   -88374   -88545   -88853   -89211   -89503   -89695 
  -89818   -89990   -90232   -90259   -90223   -90734   -91261   -91072 
  -91094   -91553   -91473   -91236   -91175   -90907   -90729   -90635 
  -90409   -90303   -90320   -90335   -90465   -90795   -91062   -90996 
  -90896   -90949   -90629   -89807   -88982   -88242   -87628   -87527 
  -87923   -88339   -88438   -88306   -88154   -88029   -88007   -88198 
  -88523   -88852   -89334   -90210   -91528   -93267   -94450   -94029 
  -93538   -93996   -94051   -93968   -94229   -94201   -94517   -95457 
  -96239   -96362   -95775   -94984   -94381   -93895   -93403   -92745 
  -91869   -90932   -90139   -89641   -89342   -88914   -88156   -87193 
  -86400   -86102   -86357   -87077   -87912   -88343   -88267   -87844 
  -87202   -86670   -86402   -86071   -85528   -84978   -84680   -84946 
  -85651   -86299   -86821   -87170   -87386   -87944   -88657   -88911 
  -88949   -89222   -89526   -89712   -89953   -90023   -89638   -89185 
  -88813   -88121   -87508   -87699   -88228   -88459   -88579   -88687 
  -88811   -89241   -89906   -90380   -90478   -90350   -90138   -89930 
  -90020   -90607   -91375   -91939   -92294   -92588   -92827   -92869 
  -92668   -92339   -91740   -90741   -89759   -89091   -88479   -87865 
  -87441   -87015   -86282   -85429   -84747   -84084   -83391   -83121 
  -83301   -83434   -83594   -84018   -84304   -84291   -84341   -84493 
  -84583   -84712   -84980   -85180   -85073   -84818   -84748   -84786 
  -84650   -84517   -84657   -84777   -84775   -85042   -85381   -85267 
  -85074   -85353   -85747   -86041   -86564   -87099   -87423   -87910 
  -88632   -89198   -89510   -89991   -90814   -91487   -91708   -91607 
  -91443   -91721   -92151   -91809   -91194   -90777   -90095   -89741 
  -90059   -90447   -90603   -90294   -89891   -89928   -90222   -90528 
  -90594   -90239   -89669   -89172   -88788   -88358   -87899   -87530 
  -87161   -86909   -87051   -87348   -87438   -87571   -88114   -88979 
  -89961   -90753   -91088   -91176   -91230   -91168   -91051   -91015 
  -91091   -91279   -91545   -91785   -92067   -92637   -93338   -93660 
  -93470   -92967   -92294   -91716   -91633   -91916   -92043   -91923 
  -91635   -91197   -90804   -90458   -89998   -89495   -89178   -89305 
  -89936   -90725   -91238   -91368   -91258   -90980   -90518   -90052 
  -89860   -89844   -89625   -89115   -88434   -87654   -87211   -87395 
  -87667   -87917   -88477   -89075   -89663   -90354   -90903   -91208 
  -91109   -90580   -90024   -89634   -89238   -88705   -88199   -87968 
  -87924   -87934   -88047   -88167   -88296   -88641   -89086   -89304 
  -89279   -89261   -89322   -89265   -89027   -88727   -88383   -88162 
  -88356   -88740   -88930   -88912   -88533   -87920   -87730   -87847 
  -87778   -87734   -87792   -87889   -88255   -88764   -89053   -89026 
  -88871   -88792   -88700   -88496   -88212   -87849   -87527   -87397 
  -87412   -87394   -87210   -86954   -86916   -87252   -87846   -88422 
  -88728   -88775   -88726   -88566   -88249   -87900   -87678   -87650 
  -87756   -87930   -88277   -88830   -89378   -89780   -90015   -90053 
  -90002   -89985   -89948   -89894   -89952   -90141   -90334   -90316 
  -89919   -89348   -88947   -88674   -88529   -88764   -89245   -89670 
  -90106   -90566   -90748   -90384   -89475   -88592   -88227   -87440 
  -85693   -84439   -83751   -82673   -82172   -82509   -83014   -83894 
  -84709   -84907   -84861   -84847   -84659   -84179   -83830   -83768 
  -83528   -83222   -83347   -83778   -84186   -84513   -84958   -85662 
  -86496   -87408   -88377   -89274   -90111   -90984   -91856   -92629 
  -93254   -93668   -93960   -94390   -94870   -95102   -95167   -95165 
  -94885   -94308   -93731   -93283   -92975   -92883   -92824   -92502 
  -91931   -91356   -90989   -90874   -90936   -90970   -90730   -90375 
  -90244   -90280   -90382   -90554   -90523   -90154   -89787   -89737 
  -90002   -90431   -90869   -91275   -91631   -91873   -92036   -92160 
  -92252   -92397   -92508   -92394   -92180   -92097   -92125   -92291 
  -92750   -93296   -93550   -93445   -93129   -92763   -92397   -91893 
  -91187   -90461   -89920   -89678   -89861   -90190   -90045   -89642 
  -89608   -89673   -89581   -89537   -89475   -89363   -89228   -89073 
  -89081   -89236   -89348   -89298   -89006   -88664   -88644   -88934 
  -89264   -89614   -89829   -89642   -89545   -90036   -90584   -90735 
  -90654   -90371   -90004   -89738   -89455   -89162   -88907   -88455 
  -87717   -86936   -86365   -86139   -86311   -86775   -87262   -87476 
  -87304   -86874   -86373   -85912   -85486   -85042   -84623   -84346 
  -84296   -84442   -84576   -84472   -84131   -83696   -83244   -82877 
  -82718   -82694   -82709   -82907   -83319   -83799   -84375   -84988 
  -85459   -85989   -86804   -87727   -88530   -89089   -89349   -89539 
  -90022   -90602   -90762   -90693   -90672   -90335   -89798   -89556 
  -89397   -89092   -88815   -88678   -88638   -88620   -88908   -89732 
  -90577   -90925   -90911   -90743   -90393   -89860   -89269   -88781 
  -88371   -88034   -87994   -88255   -88563   -88883   -89285   -89706 
  -90007   -90058   -89830   -89412   -88966   -88651   -88466   -88289 
  -88156   -88111   -88044   -88112   -88466   -88762   -88892   -89056 
  -89065   -88749   -88236   -87635   -87073   -86732   -86665   -86709 
  -86821   -87185   -87675   -87854   -87692   -87581   -87534   -87254 
  -86976   -87029   -87178   -87284   -87442   -87673   -88064   -88547 
