Origin Time       2025/01/13 21:19:00
Lat.              31.8
Long.             131.6
Depth. (km)       30
Mag.              6.9
Station Code      KGSH01
Station Lat.      32.1554
Station Long.     130.1191
Station Height(m) -187.134
Record Time       2025/01/13 21:19:55
Sampling Freq(Hz) 100Hz
Duration Time(s)  229
Dir.              2
Scale Factor      3923(gal)/8224838
Max. Acc. (gal)   2.145
Last Correction   2025/01/13 21:19:56
Memo.             
[...]
    9124     9105     9131     9177     9216     9238     9242     9234 
    9225     9228     9224     9212     9202     9204     9223     9269 
    9335     9428     9556     9714     9883    10052    10227    10415 
   10608    10797    10974    11118    11219    11288    11350    11418 
   11481    11533    11560    11554    11516    11454    11375    11286 
   11188    11106    11061    11049    11059    11086    11124    11164 
   11207    11259    11325    11406    11496    11584    11657    11697 
   11707    11697    11677    11661    11666    11693    11719    11727 
   11727    11736    11776    11854    11970    12117    12271    12402 
   12495    12563    12625    12683    12742    12810    12891    12984 
   13085    13200    13316    13423    13514    13590    13651    13698 
   13733    13778    13859    13971    14076    14146    14181    14191 
   14195    14197    14183    14138    14068    13990    13906    13801 
   13663    13483    13265    13034    12829    12665    12545    12459 
   12393    12351    12349    12397    12472    12542    12591    12610 
   12602    12550    12442    12294    12127    11958    11815    11715 
   11655    11635    11646    11665    11678    11672    11634    11573 
   11491    11389    11286    11172    11048    10922    10795    10665 
   10531    10389    10247    10122    10026     9960     9913     9863 
    9802     9733     9656     9576     9506     9454     9420     9404 
    9406     9421     9441     9464     9497     9556     9652     9774 
    9918    10080    10249    10393    10490    10550    10592    10631 
   10686    10779    10901    11021    11118    11175    11186    11157 
   11113    11076    11037    10974    10885    10791    10712    10639 
   10566    10501    10465    10458    10463    10476    10511    10569 
   10636    10706    10771    10816    10827    10797    10727    10623 
   10485    10328    10172    10019     9868     9725     9599     9490 
    9405     9332     9243     9131     9001     8845     8676     8517 
    8386     8299     8268     8287     8347     8446     8586     8762 
    8984     9235     9489     9732     9960    10177    10378    10534 
   10648    10735    10775    10768    10739    10712    10708    10729 
   10752    10766    10789    10828    10875    10917    10945    10966 
   10991    11021    11055    11092    11128    11157    11192    11236 
   11296    11365    11431    11488    11542    11595    11655    11722 
   11778    11804    11788    11728    11616    11448    11241    11014 
   10783    10571    10397    10264    10166    10099    10056    10034 
   10039    10071    10127    10199    10284    10380    10476    10548 
   10592    10605    10600    10584    10573    10588    10627    10665 
   10696    10732    10802    10921    11063    11198    11333    11464 
   11574    11655    11703    11709    11688    11649    11581    11489 
   11399    11329    11277    11246    11226    11203    11176    11146 
   11117    11086    11060    11057    11090    11145    11213    11288 
   11354    11389    11384    11341    11279    11215    11161    11107 
   11043    10976    10925    10902    10916    10968    11048    11128 
   11187    11222    11238    11248    11260    11275    11295    11318 
   11335    11340    11331    11303    11252    11188    11122    11049 
   10966    10872    10789    10724    10674    10638    10611    10569 
   10509    10444    10386    10357    10380    10457    10569    10687 
   10795    10889    10949    10960    10921    10841    10741    10636 
   10536    10466    10443    10471    10544    10660    10813    10989 
   11179    11375    11560    11720    11853    11954    12039    12114 
   12171    12214    12241    12251    12256    12274    12306    12353 
   12417    12501    12599    12699    12788    12857    12895    12900 
   12880    12837    12780    12718    12645    12552    12434    12291 
   12139    12004    11905    11848    11828    11834    11844    11846 
   11843    11843    11844    11838    11820    11801    11782    11749 
   11691    11630    11592    11576    11557    11529    11497    11470 
   11450    11433    11421    11416    11410    11392    11369    11349 
   11340    11344    11357    11379    11415    11460    11496    11527 
   11560    11588    11611    11642    11689    11753    11815    11857 
   11889    11919    11938    11939    11917    11871    11797    11704 
   11603    11506    11410    11319    11238    11171    11103    11036 
   10980    10935    10890    10849    10820    10808    10820    10863 
   10933    11020    11125    11256    11404    11549    11684    11805 
   11901    11963    11994    12008    12028    12058    12093    12135 
   12164    12158    12112    12031    11925    11826    11746    11684 
   11650    11651    11685    11734    11781    11824    11869    11935 
   12035    12151    12253    12326    12370    12379    12356    12305 
   12226    12116    11985    11848    11728    11643    11587    11530 
   11458    11380    11311    11260    11223    11192    11153    11103 
   11048    10980    10891    10774    10628    10458    10264    10061 
    9887     9759     9670     9607     9560     9532     9531     9556 
    9607     9687     9795     9925    10064    10200    10322    10424 
   10500    10542    10558    10562    10554    10525    10470    10380 
   10261    10141    10037     9942     9859     9788     9728     9676 
    9632     9582     9531     9472     9406     9337     9263     9177 
    9088     9009     8939     8878     8837     8826     8843     8883 
    8943     9008     9065     9107     9132     9150     9159     9162 
    9163     9159     9157     9163     9174     9190     9219     9252 
    9286     9320     9360     9418     9491     9579     9682     9791 
    9900    10010    10127    10260    10412    10577    10736    10883 
   11007    11102    11184    11263    11331    11391    11452    11516 
   11595    11686    11778    11873    11959    12024    12078    12117 
   12127    12109    12082    12044    11993    11942    11892    11850 
   11827    11820    11839    11893    11986    12105    12231    12356 
   12475    12575    12656    12723    12772    12803    12827    12854 
   12888    12931    12987    13055    13126    13184    13230    13265 
   13290    13302    13312    13320    13311    13279    13238    13197 
   13167    13147    13139    13143    13151    13155    13151    13140 
   13126    13112    13107    13115    13140    13177    13211    13236 
   13265    13308    13352    13397    13452    13510    13559    13594 
   13614    13618    13602    13556    13489    13408    13308    13184 
   13032    12862    12679    12492    12314    12160    12039    11951 
   11898    11881    11890    11921    11963    12006    12047    12064 
   12043    11989    11905    11784    11619    11418    11205    11003 
   10835    10709    10629    10586    10566    10552    10547    10554 
   10561    10554    10530    10488    10443    10419    10415    10427 
   10463    10516    10571    10623    10675    10724    10766    10797 
   10805    10779    10720    10628    10507    10363    10212    10053 
    9895     9753     9626     9518     9436     9387     9370     9375 
    9400     9444     9497     9547     9590     9620     9630     9629 
    9620     9589     9549     9516     9487     9472     9477     9489 
    9509     9544     9595     9657     9726     9798     9875     9963 
   10061    10177    10296    10393    10465    10507    10504    10453 
   10359    10238    10111     9995     9894     9799     9724     9698 
    9736     9811     9914    10045    10172    10264    10315    10322 
   10287    10220    10137    10052     9990     9964     9973    10015 
   10083    10145    10187    10222    10260    10301    10343    10382 
   10413    10426    10416    10389    10357    10334    10322    10319 
   10326    10330    10323    10312    10300    10284    10268    10254 
   10243    10243    10254    10281    10315    10335    10336    10327 
   10315    10309    10323    10357    10408    10471    10540    10612 
   10677    10724    10739    10712    10656    10594    10542    10504 
   10484    10482    10507    10557    10635    10735    10831    10894 
   10916    10890    10822    10733    10648    10577    10527    10501 
   10509    10557    10647    10771    10921    11090    11269    11445 
   11600    11735    11863    11992    12123    12266    12406    12532 
   12638    12710    12742    12749    12734    12702    12657    12619 
   12611    12638    12703    12806    12933    13078    13242    13406 
   13566    13716    13849    13964    14061    14143    14218    14291 
   14369    14449    14519    14566    14582    14567    14515    14416 
   14265    14069    13841    13589    13319    13036    12764    12522 
   12320    12150    12005    11878    11761    11639    11497    11322 
   11119    10909    10705    10527    10397    10309    10246    10195 
   10149    10107    10066    10031     9994     9948     9907     9875 
    9844     9813     9778     9729     9653     9552     9435     9304 
    9170     9050     8953     8877     8826     8797     8797     8826 
    8878     8950     9028     9119     9228     9355     9491     9629 
    9756     9860     9948    10035    10127    10228    10345    10467 
   10588    10694    10782    10848    10897    10936    10972    10997 
   11018    11051    11091    11148    11226    11319    11426    11546 
   11672    11799    11925    12043    12156    12286    12436    12607 
   12808    13042    13288    13531    13756    13944    14087    14197 
   14273    14310    14304    14254    14175    14081    13975    13868 
   13775    13675    13551    13416    13271    13108    12941    12777 
   12609    12453    12336    12253    12189    12147    12132    12136 
   12160    12204    12256    12318    12387    12451    12502    12536 
   12549    12548    12536    12510    12478    12440    12399    12360 
   12329    12307    12283    12245    12190    12120    12037    11951 
   11870    11811    11769    11732    11688    11632    11553    11439 
   11287    11107    10910    10704    10497    10299    10119     9961 
    9822     9705     9612     9539     9487     9451     9420     9385 
    9342     9278     9194     9103     9003     8888     8761     8631 
    8510     8402     8311     8236     8171     8121     8091     8074 
    8086     8137     8216     8322     8451     8586     8723     8866 
    9018     9173     9323     9462     9586     9674     9715     9717 
    9695     9666     9630     9593     9553     9514     9477     9445 
    9424     9410     9410     9436     9490     9576     9690     9829 
    9983    10141    10291    10420    10520    10597    10655    10709 
   10766    10817    10855    10882    10895    10893    10874    10841 
   10802    10754    10702    10648    10589    10525    10462    10411 
   10374    10351    10345    10354    10373    10396    10419    10443 
   10480    10535    10615    10712    10813    10902    10978    11040 
   11088    11125    11151    11161    11157    11128    11079    11028 
   10986    10964    10956    10957    10975    10994    11009    11021 
   11036    11051    11075    11115    11169    11242    11327    11414 
   11491    11547    11570    11568    11556    11543    11535    11523 
   11502    11473    11445    11415    11389    11381    11391    11411 
   11438    11468    11508    11573    11672    11809    11997    12225 
   12483    12769    13055    13304    13502    13645    13722    13730 
   13691    13624    13533    13429    13311    13181    13054    12942 
   12842    12754    12677    12609    12540    12461    12364    12268 
   12183    12108    12052    12024    12020    12040    12074    12112 
   12145    12167    12164    12133    12083    12027    11962    11896 
   11835    11782    11720    11646    11553    11429    11265    11064 
   10825    10559    10292    10045     9819     9624     9478     9377 
    9294     9215     9132     9040     8941     8837     8739     8652 
    8581     8536     8510     8498     8491     8475     8448     8414 
    8379     8352     8334     8328     8336     8352     8376     8414 
    8459     8513     8584     8664     8745     8834     8926     9011 
    9082     9140     9178     9193     9189     9166     9132     9093 
    9050     9015     8996     8982     8978     8992     9018     9051 
    9100     9167     9247     9335     9427     9521     9617     9718 
    9809     9875     9921     9950     9973     9998    10029    10065 
   10103    10142    10173    10199    10220    10237    10250    10261 
   10270    10292    10326    10365    10405    10440    10473    10507 
   10531    10547    10557    10561    10562    10577    10601    10635 
   10674    10710    10752    10798    10840    10887    10935    10970 
   10997    11009    10995    10956    10886    10782    10655    10520 
   10388    10277    10203    10181    10227    10332    10488    10690 
   10921    11176    11454    11751    12067    12390    12707    13001 
   13257    13464    13625    13743    13819    13873    13927    13994 
   14076    14172    14277    14395    14521    14636    14719    14770 
   14796    14789    14746    14678    14605    14536    14474    14423 
   14386    14370    14369    14370    14384    14420    14474    14542 
   14624    14736    14882    15030    15161    15279    15388    15479 
   15542    15574    15584    15572    15547    15518    15477    15415 
   15330    15218    15088    14956    14835    14733    14659    14611 
   14584    14557    14520    14473    14403    14305    14196    14075 
   13944    13805    13663    13513    13350    13161    12943    12706 
   12453    12186    11908    11627    11352    11098    10881    10705 
   10567    10463    10386    10326    10269    10215    10174    10143 
   10111    10085    10068    10053    10035    10022    10012    10006 
   10002     9990     9973     9953     9923     9883     9832     9759 
    9664     9560     9452     9346     9242     9131     9015     8893 
    8760     8608     8445     8272     8095     7917     7739     7562 
    7392     7236     7094     6970     6855     6755     6685     6651 
    6654     6691     6752     6835     6937     7048     7163     7275 
    7384     7499     7624     7757     7901     8059     8224     8395 
    8575     8760     8949     9130     9304     9472     9632     9784 
    9938    10076    10181    10268    10354    10430    10478    10501 
   10509    10512    10513    10523    10550    10594    10640    10681 
   10720    10750    10759    10751    10728    10686    10628    10565 
   10498    10427    10343    10242    10120     9988     9849     9703 
    9563     9443     9342     9266     9215     9182     9174     9189 
    9224     9278     9343     9410     9478     9543     9602     9653 
    9703     9753     9799     9840     9867     9883     9900     9927 
    9960     9998    10054    10125    10196    10269    10334    10384 
   10422    10454    10485    10511    10534    10555    10573    10586 
   10601    10625    10665    10723    10802    10906    11037    11187 
   11352    11520    11680    11823    11951    12056    12140    12217 
   12283    12336    12388    12436    12486    12555    12637    12725 
   12814    12897    12974    13042    13090    13120    13136    13136 
   13113    13073    13027    12974    12926    12897    12876    12856 
   12843    12830    12816    12810    12811    12820    12827    12841 
   12865    12888    12906    12923    12937    12943    12942    12927 
   12903    12873    12837    12793    12739    12667    12584    12503 
   12430    12360    12295    12243    12199    12163    12139    12131 
   12141    12167    12204    12249    12309    12384    12452    12490 
   12502    12499    12484    12452    12403    12344    12270    12181 
   12085    11982    11880    11785    11700    11630    11581    11561 
   11572    11601    11647    11701    11749    11786    11815    11828 
   11823    11789    11732    11661    11585    11515    11462    11433 
   11425    11442    11488    11557    11642    11731    11823    11913 
   11990    12047    12074    12069    12032    11974    11901    11815 
   11715    11604    11483    11358    11238    11130    11043    10968 
   10909    10872    10855    10855    10870    10895    10926    10956 
   10982    11011    11043    11071    11094    11102    11094    11071 
   11037    10995    10943    10882    10814    10743    10665    10588 
   10521    10465    10417    10370    10319    10268    10215    10156 
   10095    10042     9991     9942     9898     9855     9815     9787 
    9765     9749     9737     9729     9718     9701     9678     9651 
    9622     9589     9547     9501     9445     9377     9297     9205 
    9113     9023     8938     8869     8811     8756     8711     8676 
    8644     8614     8584     8552     8510     8465     8424     8371 
    8313     8263     8233     8224     8237     8275     8333     8402 
    8482     8572     8671     8779     8896     9015     9130     9236 
    9328     9410     9482     9543     9583     9601     9613     9632 
    9649     9652     9661     9705     9759     9791     9838     9934 
   10052    10174    10315    10471    10628    10782    10933    11070 
   11196    11319    11437    11546    11639    11715    11778    11828 
   11863    11901    11942    11959    11958    11970    12004    12040 
   12064    12086    12112    12132    12139    12148    12162    12154 
   12121    12073    12008    11931    11854    11793    11749    11718 
   11699    11692    11704    11732    11770    11826    11894    11973 
   12056    12139    12217    12286    12353    12411    12456    12499 
   12545    12591    12642    12712    12803    12903    12997    13089 
   13181    13273    13358    13436    13516    13603    13699    13791 
   13879    13975    14075    14173    14265    14341    14397    14436 
   14466    14488    14504    14512    14523    14532    14543    14555 
   14566    14567    14555    14530    14484    14412    14323    14226 
   14119    14003    13873    13732    13587    13441    13297    13162 
   13031    12900    12766    12623    12472    12318    12158    11989 
   11812    11626    11442    11271    11105    10937    10777    10633 
   10505    10386    10280    10183    10087     9998     9915     9838 
    9769     9701     9633     9572     9512     9445     9386     9340 
    9304     9273     9250     9242     9251     9277     9315     9359 
    9412     9468     9520     9556     9579     9597     9612     9607 
    9590     9567     9544     9529     9521     9526     9553     9593 
    9636     9694     9760     9822     9875     9911     9937     9944 
    9931     9906     9867     9810     9742     9670     9593     9522 
    9464     9416     9385     9377     9385     9401     9418     9435 
    9450     9466     9486     9517     9558     9614     9680     9751 
    9826     9909     9991    10069    10145    10219    10282    10330 
   10368    10396    10413    10422    10427    10427    10430    10443 
   10461    10478    10497    10520    10547    10569    10588    10605 
   10619    10633    10658    10681    10694    10694    10678    10646 
