Origin Time       2025/01/13 21:19:00
Lat.              31.8
Long.             131.6
Depth. (km)       30
Mag.              6.9
Station Code      KGSH03
Station Lat.      31.9812
Station Long.     130.4438
Station Height(m) 110.11
Record Time       2025/01/13 21:19:50
Sampling Freq(Hz) 100Hz
Duration Time(s)  168
Dir.              4
Scale Factor      3920(gal)/6170801
Max. Acc. (gal)   6.303
Last Correction   2025/01/13 21:19:35
Memo.             
[...]
   -1464    -1464    -1440    -1368    -1212     -975     -674     -314 
      62      397      679      923     1133     1315     1481     1619 
    1719     1794     1830     1775     1620     1414     1209     1033 
     857      640      407      196      -43     -353     -667     -955 
   -1302    -1738    -2184    -2571    -2882    -3138    -3364    -3532 
   -3628    -3728    -3885    -4055    -4196    -4307    -4374    -4411 
   -4433    -4407    -4337    -4295    -4313    -4356    -4392    -4415 
   -4442    -4489    -4573    -4716    -4904    -5113    -5341    -5566 
   -5746    -5861    -5889    -5807    -5644    -5452    -5230    -4962 
   -4693    -4466    -4279    -4100    -3920    -3774    -3718    -3758 
   -3853    -3952    -4038    -4120    -4202    -4267    -4311    -4337 
   -4310    -4178    -3989    -3870    -3861    -3882    -3839    -3727 
   -3631    -3618    -3659    -3709    -3779    -3904    -4100    -4383 
   -4750    -5152    -5535    -5864    -6108    -6270    -6332    -6251 
   -6051    -5776    -5438    -5081    -4770    -4527    -4374    -4331 
   -4354    -4386    -4408    -4402    -4334    -4180    -3937    -3650 
   -3396    -3217    -3083    -2979    -2943    -3031    -3266    -3582 
   -3871    -4111    -4327    -4500    -4608    -4654    -4634    -4558 
   -4486    -4489    -4602    -4799    -5022    -5262    -5544    -5834 
   -6022    -6046    -5953    -5795    -5552    -5201    -4795    -4387 
   -3960    -3464    -2916    -2387    -1901    -1426     -957     -522 
    -110      303      676      916      970      881      721      514 
     286      116       55       82      162      261      341      375 
     333      163     -182     -655    -1107    -1420    -1589    -1662 
   -1682    -1710    -1794    -1920    -2051    -2157    -2233    -2320 
   -2458    -2621    -2740    -2803    -2890    -3079    -3394    -3816 
   -4307    -4849    -5407    -5897    -6322    -6778    -7263    -7658 
   -7885    -7976    -8002    -8002    -7969    -7891    -7786    -7675 
   -7550    -7377    -7158    -6926    -6691    -6450    -6216    -5992 
   -5787    -5637    -5586    -5647    -5734    -5714    -5534    -5251 
   -4939    -4616    -4273    -3924    -3605    -3346    -3144    -2958 
   -2749    -2516    -2295    -2093    -1903    -1752    -1672    -1653 
   -1653    -1658    -1709    -1833    -1994    -2117    -2142    -2067 
   -1941    -1816    -1753    -1794    -1908    -2024    -2095    -2096 
   -2021    -1901    -1777    -1651    -1507    -1359    -1238    -1149 
   -1091    -1052    -1008     -981    -1024    -1127    -1242    -1353 
   -1470    -1636    -1900    -2258    -2648    -3026    -3372    -3683 
   -3962    -4181    -4295    -4297    -4214    -4104    -4031    -4018 
   -4018    -4001    -3992    -3989    -3943    -3875    -3863    -3918 
   -3982    -4024    -4075    -4185    -4347    -4479    -4501    -4412 
   -4280    -4170    -4105    -4069    -4016    -3908    -3755    -3609 
   -3540    -3596    -3748    -3944    -4173    -4387    -4483    -4415 
   -4233    -4012    -3790    -3544    -3253    -2978    -2803    -2726 
   -2710    -2757    -2899    -3157    -3507    -3919    -4405    -4976 
   -5580    -6149    -6667    -7155    -7564    -7789    -7819    -7751 
   -7657    -7547    -7404    -7226    -7056    -6953    -6897    -6798 
   -6622    -6421    -6242    -6051    -5800    -5507    -5208    -4909 
   -4608    -4314    -4045    -3830    -3685    -3601    -3556    -3538 
   -3531    -3520    -3501    -3476    -3457    -3459    -3492    -3553 
   -3628    -3710    -3799    -3859    -3854    -3789    -3677    -3533 
   -3403    -3328    -3306    -3299    -3239    -3118    -2999    -2890 
   -2746    -2547    -2306    -2045    -1765    -1429    -1016     -578 
    -168      234      652     1016     1234     1317     1339     1301 
    1162      923      623      304      -31     -421     -862    -1296 
   -1705    -2098    -2454    -2766    -3057    -3319    -3540    -3760 
   -3993    -4187    -4317    -4407    -4475    -4516    -4515    -4478 
   -4461    -4514    -4600    -4667    -4730    -4794    -4834    -4846 
   -4820    -4757    -4710    -4709    -4723    -4722    -4682    -4577 
   -4446    -4358    -4313    -4253    -4143    -3984    -3783    -3554 
   -3323    -3117    -2933    -2747    -2563    -2421    -2360    -2383 
   -2444    -2499    -2545    -2565    -2536    -2490    -2504    -2622 
   -2844    -3146    -3484    -3803    -4097    -4392    -4694    -5013 
   -5325    -5573    -5773    -5974    -6158    -6259    -6224    -6063 
   -5836    -5556    -5220    -4868    -4526    -4184    -3838    -3514 
   -3263    -3102    -2979    -2851    -2712    -2546    -2350    -2179 
   -2102    -2134    -2224    -2339    -2487    -2654    -2818    -2985 
   -3138    -3240    -3304    -3378    -3467    -3554    -3649    -3749 
   -3849    -3950    -4038    -4132    -4291    -4503    -4697    -4857 
   -5006    -5162    -5332    -5484    -5573    -5605    -5597    -5556 
   -5513    -5504    -5509    -5466    -5338    -5157    -4988    -4883 
   -4835    -4797    -4760    -4767    -4826    -4909    -4966    -4972 
   -4954    -4935    -4892    -4809    -4700    -4576    -4421    -4222 
   -4015    -3843    -3720    -3638    -3555    -3446    -3349    -3302 
   -3289    -3268    -3194    -3042    -2822    -2575    -2347    -2160 
   -2008    -1881    -1770    -1672    -1587    -1505    -1427    -1375 
   -1354    -1340    -1319    -1303    -1302    -1311    -1328    -1383 
   -1508    -1691    -1879    -2030    -2150    -2263    -2366    -2427 
   -2433    -2384    -2293    -2211    -2184    -2242    -2402    -2636 
   -2907    -3190    -3463    -3702    -3890    -4015    -4081    -4086 
   -4008    -3837    -3590    -3301    -3020    -2797    -2659    -2603 
   -2593    -2594    -2617    -2685    -2815    -3015    -3268    -3547 
   -3846    -4167    -4506    -4823    -5078    -5261    -5363    -5382 
   -5331    -5238    -5131    -5024    -4906    -4754    -4566    -4374 
   -4225    -4119    -4018    -3900    -3748    -3585    -3463    -3389 
   -3356    -3379    -3430    -3463    -3478    -3489    -3482    -3449 
   -3393    -3301    -3176    -3073    -3036    -3069    -3173    -3343 
   -3570    -3855    -4183    -4531    -4910    -5318    -5708    -6017 
   -6197    -6249    -6222    -6138    -5978    -5737    -5446    -5171 
   -4961    -4796    -4655    -4565    -4547    -4594    -4684    -4779 
   -4849    -4891    -4922    -4945    -4919    -4805    -4622    -4430 
   -4268    -4114    -3929    -3701    -3433    -3130    -2810    -2502 
   -2251    -2090    -2000    -1939    -1885    -1835    -1769    -1661 
   -1509    -1330    -1153    -1023     -956     -931     -945     -983 
   -1009    -1028    -1046    -1069    -1119    -1196    -1278    -1371 
   -1498    -1674    -1883    -2089    -2296    -2523    -2747    -2925 
   -3038    -3120    -3208    -3272    -3272    -3227    -3174    -3140 
   -3122    -3103    -3106    -3167    -3272    -3384    -3487    -3582 
   -3668    -3745    -3818    -3902    -4011    -4130    -4231    -4307 
   -4350    -4351    -4333    -4322    -4308    -4269    -4206    -4137 
   -4070    -3988    -3882    -3770    -3662    -3538    -3408    -3321 
   -3294    -3297    -3308    -3355    -3499    -3750    -4043    -4315 
   -4575    -4846    -5092    -5266    -5391    -5507    -5608    -5655 
   -5641    -5619    -5624    -5600    -5488    -5315    -5128    -4932 
   -4714    -4475    -4237    -4001    -3741    -3475    -3256    -3115 
   -3052    -3053    -3113    -3226    -3350    -3433    -3477    -3527 
   -3599    -3683    -3783    -3900    -4015    -4103    -4159    -4198 
   -4224    -4223    -4191    -4171    -4185    -4194    -4152    -4071 
   -3951    -3776    -3578    -3398    -3238    -3101    -2989    -2887 
   -2819    -2813    -2825    -2811    -2793    -2795    -2813    -2834 
   -2861    -2904    -2957    -2987    -2952    -2844    -2695    -2536 
   -2380    -2244    -2135    -2044    -1974    -1938    -1952    -2024 
   -2153    -2312    -2471    -2631    -2804    -2996    -3228    -3490 
   -3737    -3952    -4129    -4267    -4398    -4545    -4670    -4749 
   -4785    -4792    -4801    -4824    -4827    -4815    -4831    -4864 
   -4851    -4775    -4656    -4516    -4358    -4167    -3934    -3689 
   -3483    -3342    -3249    -3178    -3125    -3112    -3147    -3184 
   -3200    -3218    -3227    -3187    -3091    -2958    -2811    -2657 
   -2509    -2396    -2317    -2248    -2183    -2118    -2051    -2000 
   -1974    -1965    -1970    -2005    -2086    -2212    -2381    -2586 
   -2798    -2984    -3144    -3301    -3464    -3619    -3743    -3824 
   -3872    -3901    -3899    -3861    -3834    -3858    -3924    -4003 
   -4042    -3982    -3843    -3672    -3460    -3203    -2946    -2727 
   -2570    -2484    -2453    -2479    -2578    -2745    -2974    -3267 
   -3600    -3936    -4272    -4601    -4882    -5079    -5162    -5124 
   -5000    -4837    -4668    -4518    -4393    -4278    -4151    -3979 
   -3749    -3514    -3328    -3168    -2978    -2749    -2507    -2265 
   -2015    -1760    -1506    -1270    -1068     -916     -846     -882 
   -1010    -1203    -1449    -1759    -2120    -2472    -2772    -3022 
   -3238    -3437    -3632    -3820    -4022    -4293    -4630    -4954 
   -5233    -5505    -5790    -6074    -6332    -6525    -6659    -6789 
   -6919    -7008    -7049    -7069    -7100    -7145    -7161    -7108 
   -6982    -6829    -6706    -6612    -6521    -6443    -6381    -6323 
   -6290    -6306    -6352    -6397    -6423    -6404    -6298    -6098 
   -5821    -5477    -5080    -4643    -4160    -3646    -3159    -2748 
   -2409    -2126    -1883    -1656    -1447    -1278    -1155    -1079 
   -1035    -1003    -1000    -1047    -1137    -1259    -1429    -1669 
   -1959    -2251    -2544    -2860    -3184    -3483    -3742    -3957 
   -4132    -4274    -4376    -4437    -4465    -4462    -4433    -4403 
   -4385    -4364    -4311    -4201    -4030    -3806    -3559    -3345 
   -3203    -3131    -3088    -3027    -2935    -2845    -2777    -2703 
   -2611    -2527    -2451    -2351    -2215    -2070    -1958    -1884 
   -1800    -1695    -1621    -1618    -1650    -1653    -1604    -1527 
   -1414    -1251    -1080     -961     -911     -916     -945     -988 
   -1070    -1203    -1380    -1598    -1839    -2060    -2221    -2320 
   -2384    -2433    -2478    -2503    -2472    -2378    -2256    -2127 
   -2014    -1958    -1976    -2035    -2098    -2170    -2288    -2469 
   -2678    -2858    -2991    -3077    -3128    -3175    -3242    -3303 
   -3325    -3315    -3330    -3410    -3531    -3638    -3725    -3827 
   -3956    -4091    -4221    -4363    -4547    -4760    -4942    -5058 
   -5116    -5113    -5015    -4808    -4553    -4348    -4228    -4163 
   -4104    -4044    -4016    -4038    -4088    -4165    -4302    -4519 
   -4807    -5145    -5511    -5874    -6202    -6474    -6700    -6901 
   -7076    -7210    -7291    -7317    -7292    -7231    -7153    -7064 
   -6939    -6733    -6440    -6117    -5819    -5551    -5297    -5068 
   -4902    -4831    -4836    -4868    -4911    -4970    -5024    -5068 
   -5131    -5226    -5325    -5388    -5399    -5373    -5303    -5165 
   -4962    -4709    -4403    -4073    -3766    -3506    -3304    -3140 
   -2963    -2750    -2518    -2276    -2018    -1763    -1536    -1335 
   -1159    -1020     -919     -858     -855     -913    -1012    -1133 
   -1243    -1319    -1376    -1436    -1487    -1514    -1515    -1494 
   -1454    -1402    -1333    -1243    -1144    -1046     -955     -895 
    -902     -987    -1142    -1341    -1556    -1796    -2075    -2372 
   -2667    -2948    -3195    -3407    -3601    -3769    -3894    -3977 
   -4019    -4016    -3971    -3891    -3779    -3653    -3543    -3468 
   -3423    -3386    -3342    -3308    -3316    -3372    -3445    -3517 
   -3589    -3662    -3743    -3850    -3992    -4162    -4334    -4505 
   -4697    -4914    -5147    -5400    -5667    -5921    -6134    -6286 
   -6389    -6485    -6597    -6690    -6721    -6685    -6609    -6483 
   -6283    -6018    -5712    -5388    -5065    -4746    -4441    -4170 
   -3932    -3706    -3508    -3377    -3324    -3313    -3306    -3288 
   -3253    -3207    -3142    -3024    -2848    -2640    -2418    -2194 
   -1983    -1789    -1610    -1448    -1312    -1212    -1157    -1148 
   -1175    -1241    -1361    -1519    -1686    -1837    -1959    -2050 
   -2119    -2170    -2199    -2199    -2177    -2143    -2090    -2017 
   -1938    -1865    -1809    -1766    -1731    -1708    -1698    -1700 
   -1735    -1842    -2039    -2299    -2588    -2887    -3197    -3507 
   -3793    -4039    -4255    -4450    -4612    -4726    -4797    -4843 
   -4898    -4987    -5105    -5229    -5352    -5471    -5569    -5631 
   -5650    -5641    -5626    -5625    -5664    -5753    -5878    -6036 
   -6244    -6507    -6812    -7161    -7565    -8023    -8496    -8932 
   -9323    -9692   -10041   -10337   -10557   -10703   -10777   -10764 
  -10652   -10456   -10193    -9863    -9463    -9030    -8628    -8287 
   -8002    -7769    -7575    -7414    -7292    -7190    -7096    -7019 
   -6941    -6814    -6604    -6303    -5904    -5400    -4782    -4063 
   -3290    -2495    -1673     -817       42      869     1659     2404 
    3074     3644     4113     4507     4858     5162     5411     5623 
    5828     6031     6201     6307     6347     6327     6241     6096 
    5894     5632     5313     4928     4456     3897     3288     2657 
    2027     1421      840      274     -257     -715    -1078    -1351 
   -1565    -1771    -1984    -2171    -2319    -2442    -2547    -2641 
   -2746    -2895    -3121    -3431    -3800    -4205    -4650    -5143 
   -5688    -6280    -6883    -7466    -8021    -8520    -8920    -9216 
   -9441    -9611    -9711    -9742    -9727    -9678    -9594    -9460 
   -9263    -9000    -8665    -8249    -7776    -7289    -6798    -6282 
   -5729    -5168    -4646    -4186    -3772    -3402    -3089    -2837 
   -2646    -2512    -2445    -2460    -2533    -2604    -2643    -2647 
   -2629    -2601    -2576    -2568    -2573    -2556    -2479    -2331 
   -2122    -1866    -1574    -1290    -1062     -894     -775     -694 
    -651     -674     -773     -917    -1089    -1287    -1494    -1692 
   -1883    -2078    -2287    -2509    -2717    -2892    -3031    -3143 
   -3241    -3339    -3429    -3500    -3564    -3654    -3797    -4003 
   -4240    -4455    -4625    -4750    -4847    -4947    -5062    -5179 
   -5289    -5394    -5490    -5581    -5682    -5807    -5950    -6107 
   -6292    -6503    -6714    -6895    -7039    -7167    -7285    -7380 
   -7444    -7484    -7524    -7580    -7639    -7676    -7678    -7646 
   -7587    -7485    -7320    -7107    -6868    -6602    -6298    -5957 
   -5597    -5234    -4868    -4497    -4116    -3730    -3369    -3062 
   -2808    -2605    -2463    -2394    -2413    -2502    -2621    -2737 
   -2822    -2870    -2895    -2910    -2909    -2873    -2792    -2660 
   -2495    -2329    -2167    -2014    -1882    -1775    -1693    -1655 
   -1671    -1725    -1783    -1824    -1858    -1908    -1969    -2020 
   -2048    -2068    -2084    -2069    -2007    -1910    -1784    -1638 
   -1478    -1286    -1064     -839     -635     -479     -395     -386 
    -447     -583     -805    -1113    -1480    -1869    -2249    -2618 
   -2991    -3359    -3705    -4041    -4374    -4680    -4937    -5153 
   -5347    -5524    -5674    -5783    -5845    -5871    -5851    -5772 
   -5639    -5453    -5222    -4960    -4677    -4374    -4053    -3724 
   -3407    -3121    -2876    -2674    -2507    -2373    -2257    -2138 
   -2012    -1889    -1778    -1685    -1609    -1541    -1482    -1444 
   -1424    -1411    -1408    -1415    -1426    -1433    -1422    -1393 
   -1368    -1363    -1366    -1358    -1337    -1321    -1330    -1377 
   -1457    -1551    -1646    -1744    -1845    -1936    -2009    -2059 
   -2104    -2171    -2257    -2338    -2417    -2511    -2625    -2749 
   -2870    -3000    -3156    -3343    -3549    -3743    -3892    -4008 
   -4137    -4299    -4491    -4697    -4899    -5091    -5266    -5414 
   -5548    -5678    -5800    -5917    -6031    -6133    -6222    -6299 
   -6355    -6382    -6384    -6368    -6339    -6290    -6204    -6061 
   -5852    -5592    -5308    -5017    -4725    -4442    -4174    -3928 
   -3722    -3581    -3529    -3579    -3726    -3950    -4222    -4523 
   -4838    -5162    -5497    -5832    -6124    -6339    -6458    -6484 
   -6447    -6380    -6288    -6179    -6075    -5997    -5955    -5940 
   -5921    -5890    -5859    -5820    -5757    -5672    -5575    -5469 
   -5354    -5217    -5057    -4899    -4767    -4674    -4628    -4639 
   -4709    -4811    -4916    -5011    -5092    -5149    -5172    -5156 
   -5097    -4985    -4804    -4564    -4296    -4027    -3773    -3542 
   -3353    -3227    -3165    -3154    -3193    -3285    -3422    -3594 
   -3774    -3930    -4039    -4085    -4056    -3950    -3782    -3577 
   -3343    -3068    -2755    -2426    -2108    -1830    -1619    -1484 
   -1430    -1458    -1558    -1727    -1955    -2207    -2451    -2677 
   -2896    -3100    -3264    -3368    -3419    -3429    -3400    -3328 
   -3219    -3084    -2936    -2777    -2598    -2390    -2154    -1894 
   -1611    -1310    -1008     -706     -408     -123      148      407 
     643      843      997     1096     1146     1140     1074      958 
     815      662      506      337      158      -11     -154     -268 
    -346     -391     -420     -453     -502     -573     -671     -801 
    -976    -1198    -1457    -1742    -2044    -2353    -2666    -2989 
   -3329    -3694    -4082    -4473    -4863    -5260    -5644    -5986 
   -6267    -6475    -6599    -6643    -6625    -6560    -6456    -6316 
   -6148    -5971    -5807    -5658    -5520    -5396    -5291    -5211 
   -5158    -5132    -5130    -5161    -5205    -5229    -5224    -5197 
   -5138    -5053    -4959    -4866    -4784    -4717    -4673    -4671 
   -4728    -4844    -5010    -5217    -5448    -5680    -5892    -6073 
   -6211    -6295    -6318    -6272    -6166    -6011    -5816    -5598 
   -5376    -5168    -4995    -4861    -4764    -4713    -4712    -4752 
   -4822    -4921    -5045    -5182    -5320    -5453    -5569    -5658 
   -5717    -5747    -5752    -5731    -5687    -5629    -5574    -5529 
   -5480    -5399    -5271    -5092    -4861    -4592    -4305    -4016 
   -3731    -3450    -3175    -2907    -2642    -2381    -2143    -1935 
   -1758    -1627    -1538    -1470    -1407    -1346    -1283    -1214 
   -1143    -1083    -1056    -1079    -1148    -1250    -1366    -1475 
   -1562    -1626    -1670    -1690    -1682    -1648    -1571    -1438 
   -1259    -1054     -843     -649     -470     -308     -189     -134 
    -156     -247     -379     -531     -688     -837     -970    -1072 
   -1136    -1158    -1137    -1084    -1023     -974     -954     -970 
   -1019    -1100    -1221    -1389    -1610    -1883    -2198    -2556 
   -2963    -3419    -3926    -4474    -5036    -5590    -6134    -6673 
   -7193    -7668    -8084    -8432    -8700    -8879    -8968    -8973 
