Origin Time       2025/01/13 21:19:00
Lat.              31.8
Long.             131.6
Depth. (km)       30
Mag.              6.9
Station Code      KGSH07
Station Lat.      31.7140
Station Long.     130.6149
Station Height(m) -295.595
Record Time       2025/01/13 21:19:49
Sampling Freq(Hz) 100Hz
Duration Time(s)  242
Dir.              3
Scale Factor      2942(gal)/8224139
Max. Acc. (gal)   3.563
Last Correction   2025/01/13 21:19:49
Memo.             
[...]
    9298     9590     9806     9805     9625     9454     9423     9510 
    9587     9560     9466     9401     9358     9198     8876     8540 
    8395     8510     8773     8993     9084     9132     9212     9274 
    9250     9167     9100     9076     9107     9219     9351     9396 
    9351     9310     9304     9244     9023     8664     8325     8095 
    7920     7738     7651     7762     7963     8112     8252     8494 
    8839     9177     9381     9445     9474     9552     9661     9767 
    9921    10172    10461    10705    10839    10786    10524    10085 
    9566     9131     8885     8729     8537     8355     8247     8194 
    8193     8282     8441     8615     8797     9024     9304     9594 
    9811     9887     9869     9849     9829     9775     9676     9547 
    9432     9362     9300     9213     9113     9012     8853     8618 
    8438     8410     8473     8602     8822     9123     9460     9774 
   10008    10129    10084     9884     9612     9310     8968     8618 
    8320     8020     7654     7304     7065     6991     7163     7564 
    8044     8491     8865     9144     9335     9475     9559     9535 
    9397     9205     9061     9023     9088     9224     9354     9366 
    9239     9042     8846     8665     8471     8283     8151     8079 
    8054     8083     8148     8209     8274     8414     8735     9275 
    9968    10737    11502    12152    12546    12555    12158    11458 
   10690    10111     9765     9512     9207     8766     8222     7677 
    7177     6782     6567     6543     6706     7096     7672     8282 
    8845     9401     9938    10347    10586    10701    10791    10986 
   11313    11689    12069    12426    12657    12584    12128    11354 
   10403     9459     8688     8105     7642     7267     6971     6768 
    6652     6562     6482     6469     6559     6801     7241     7793 
    8302     8692     8962     9177     9443     9788    10169    10579 
   10970    11151    10978    10500     9933     9472     9081     8602 
    8062     7663     7564     7761     8108     8451     8753     9019 
    9232     9383     9420     9240     8842     8384     8013     7707 
    7406     7180     7195     7557     8255     9101     9795    10177 
   10281    10162     9844     9416     9031     8799     8730     8752 
    8806     8922     9155     9455     9729     9958    10176    10385 
   10517    10474    10243     9872     9355     8748     8228     7878 
    7665     7653     7931     8494     9316    10250    10984    11277 
   11072    10489     9791     9205     8754     8348     7942     7596 
    7383     7257     7169     7198     7422     7798     8195     8478 
    8619     8677     8644     8549     8507     8594     8910     9560 
   10430    11221    11746    12031    12155    12085    11746    11138 
   10342     9460     8557     7678     6905     6320     5949     5795 
    5891     6280     6918     7673     8414     9061     9568     9913 
   10085    10214    10494    10902    11223    11381    11431    11429 
   11384    11257    11003    10636    10183     9590     8792     7855 
    6978     6268     5687     5251     5063     5197     5686     6453 
    7285     8031     8627     9022     9215     9285     9335     9477 
    9757    10111    10435    10652    10706    10584    10343    10044 
    9684     9301     8989     8769     8579     8390     8218     8068 
    7933     7740     7443     7186     7138     7350     7792     8310 
    8662     8768     8684     8425     8020     7607     7322     7253 
    7474     8035     8854     9693    10287    10543    10548    10442 
   10297    10108     9883     9687     9558     9493     9487     9551 
    9707     9927    10129    10260    10320    10350    10346    10206 
    9886     9470     9067     8785     8687     8692     8683     8650 
    8699     8951     9439    10033    10552    10914    11059    10949 
   10644    10241     9829     9549     9478     9567     9752     9968 
   10089    10091    10099    10165    10222    10261    10308    10331 
   10296    10237    10241    10332    10431    10467    10461    10461 
   10471    10440    10304    10027     9651     9261     8892     8507 
    8091     7720     7543     7677     8140     8851     9682    10462 
   11021    11310    11434    11515    11570    11526    11326    11018 
   10665    10255     9792     9319     8893     8634     8654     8856 
    9008     8999     8822     8491     8055     7561     7048     6571 
    6187     5965     6031     6466     7171     7963     8696     9258 
    9610     9791     9836     9792     9738     9660     9452     9046 
    8473     7859     7348     7033     6995     7256     7704     8228 
    8831     9474     9998    10287    10304    10058     9661     9271 
    8945     8672     8500     8519     8754     9171     9693    10208 
   10650    10966    11095    11025    10817    10532    10204     9856 
    9537     9271     8986     8590     8127     7754     7566     7507 
    7452     7348     7226     7099     6913     6629     6313     6135 
    6232     6586     7110     7762     8492     9238     9946    10550 
   10986    11250    11368    11392    11362    11257    11092    10964 
   10875    10675    10270     9782     9343     8899     8359     7755 
    7203     6806     6588     6496     6471     6519     6686     6994 
    7389     7800     8220     8660     9097     9553    10058    10543 
   10901    11053    10998    10885    10862    10918    10966    10905 
   10656    10249     9783     9306     8796     8268     7816     7524 
    7331     7048     6619     6238     6146     6411     6963     7719 
    8586     9436    10165    10692    10893    10706    10278     9855 
    9549     9358     9267     9274     9308     9234     8993     8702 
    8527     8542     8679     8818     8874     8839     8727     8540 
    8297     8060     7913     7929     8149     8533     9058     9744 
   10520    11199    11614    11692    11458    11030    10619    10354 
   10174     9994     9850     9759     9643     9425     9065     8622 
    8235     7938     7603     7203     6894     6783     6853     7064 
    7357     7626     7816     8048     8452     8961     9432     9787 
    9994    10080    10118    10095     9903     9513     9100     8880 
    8905     9144     9545     9936    10135    10126     9979     9759 
    9512     9194     8673     7943     7242     6841     6795     6984 
    7234     7410     7534     7700     7954     8302     8680     8962 
    9096     9124     9074     8965     8854     8762     8669     8580 
    8549     8623     8776     8887     8884     8823     8814     8892 
    8978     8999     8961     8873     8742     8603     8478     8394 
    8326     8183     7989     7873     7892     8056     8399     8883 
    9363     9678     9691     9381     8874     8344     7875     7476 
    7136     6887     6817     7011     7450     8009     8537     8950 
    9298     9682    10081    10366    10478    10470    10453    10489 
   10565    10697    10933    11199    11338    11288    11151    11109 
   11261    11481    11587    11570    11538    11533    11527    11508 
   11515    11581    11661    11697    11709    11708    11610    11315 
   10820    10258     9821     9634     9709     9919    10143    10392 
   10746    11192    11587    11772    11676    11314    10759    10068 
    9296     8613     8264     8386     8899     9547    10108    10523 
   10821    11016    11086    11030    10901    10743    10544    10287 
    9979     9630     9263     8923     8611     8260     7859     7514 
    7311     7192     7001     6636     6120     5566     5104     4846 
    4849     5036     5233     5371     5535     5854     6454     7269 
    8029     8527     8758     8839     8904     8954     8887     8679 
    8422     8206     8043     7901     7767     7654     7634     7780 
    8043     8283     8390     8343     8220     8109     7986     7794 
    7564     7375     7321     7433     7659     7975     8397     8910 
    9447     9891    10147    10249    10281    10312    10382    10419 
   10278     9973     9644     9382     9207     9144     9197     9351 
    9606     9971    10412    10818    11033    10956    10617    10143 
    9718     9501     9512     9621     9682     9697     9810    10112 
   10534    10885    11029    10974    10810    10620    10396    10120 
    9872     9759     9829    10064    10326    10453    10450    10416 
   10390    10378    10431    10579    10759    10854    10778    10516 
   10185     9953     9853     9806     9782     9883    10188    10567 
   10764    10647    10320    10034     9906     9809     9643     9518 
    9536     9691     9929    10115    10135    10007     9790     9559 
    9424     9424     9493     9613     9795     9937     9869     9486 
    8800     7967     7194     6559     6014     5568     5348     5386 
    5532     5656     5790     6025     6419     6960     7564     8074 
    8345     8376     8263     7978     7457     6810     6242     5890 
    5841     6150     6781     7589     8371     8943     9297     9591 
    9936    10273    10462    10346     9810     8881     7759     6671 
    5718     4976     4567     4533     4792     5233     5726     6135 
    6435     6700     6955     7150     7284     7393     7497     7642 
    7867     8090     8145     7969     7696     7557     7739     8307 
    9158    10119    11038    11707    11950    11816    11497    11130 
   10770    10459    10257    10188    10195    10143     9925     9535 
    9031     8464     7901     7479     7272     7186     7114     7047 
    6993     6926     6817     6637     6408     6235     6185     6199 
    6264     6521     7030     7681     8388     9134     9806    10228 
   10381    10442    10531    10565    10393     9992     9468     8973 
    8617     8407     8297     8311     8491     8758     8961     9089 
    9283     9598     9857     9864     9603     9201     8819     8604 
    8685     9084     9598     9971    10172    10395    10735    11070 
   11268    11321    11280    11169    10939    10496     9806     8989 
    8252     7798     7784     8206     8893     9675    10520    11452 
   12386    13086    13333    13101    12548    11911    11399    11099 
   10944    10831    10732    10596    10308     9837     9228     8534 
    7902     7581     7747     8382     9204     9914    10463    10890 
   11146    11260    11326    11362    11315    11118    10756    10311 
    9848     9251     8388     7391     6578     6262     6608     7518 
    8731    10014    11234    12293    13032    13301    13032    12263 
   11165    10011     9061     8510     8495     9062    10098    11350 
   12573    13544    14019    13934    13483    12904    12303    11739 
   11365    11318    11523    11789    11965    11947    11719    11404 
   11165    11072    11061    11033    10925    10632    10007     8992 
    7719     6427     5290     4467     4205     4700     5865     7349 
    8749     9707     9937     9389     8333     7168     6235     5744 
    5749     6195     6972     7884     8712     9409    10054    10623 
   10979    11043    10843    10396     9694     8808     7842     6845 
    5861     4911     4098     3684     3773     4081     4241     4218 
    4257     4561     5054     5414     5335     4816     4148     3663 
    3568     3863     4471     5381     6608     8040     9381    10264 
   10503    10143     9385     8529     7838     7354     6979     6654 
    6362     6079     5854     5825     6038     6369     6671     6936 
    7254     7685     8176     8595     8847     8866     8657     8380 
    8248     8382     8841     9610    10498    11237    11746    12097 
   12313    12363    12275    12104    11803    11373    11037    11045 
   11319    11507    11365    10990    10643    10555    10840    11345 
   11769    12021    12167    12205    12094    11780    11254    10687 
   10273    10039     9933     9952    10107    10357    10571    10548 
   10188     9630     9177     9085     9402     9990    10651    11173 
   11341    11029    10311     9440     8679     8131     7765     7561 
    7543     7700     7979     8390     9053    10042    11188    12229 
   13004    13451    13529    13162    12352    11298    10211     9193 
    8325     7730     7458     7468     7761     8390     9285    10291 
   11290    12170    12783    13041    12926    12394    11433    10154 
    8808     7658     6839     6386     6284     6434     6758     7176 
    7496     7545     7290     6802     6215     5606     4963     4401 
    4218     4587     5305     6027     6548     6809     6837     6686 
    6332     5717     4858     3906     3092     2531     2254     2381 
    2965     3859     4845     5691     6262     6552     6517     6130 
    5475     4672     3812     2933     2153     1764     1965     2701 
    3777     4949     6012     6860     7442     7739     7789     7699 
    7533     7288     7006     6740     6525     6332     6065     5848 
    6018     6606     7358     8089     8687     9101     9359     9549 
    9780    10045    10230    10331    10462    10766    11439    12550 
   13844    15014    15954    16600    16873    16783    16348    15506 
   14250    12784    11442    10403     9598     8985     8634     8536 
    8656     9013     9606    10322    10956    11350    11573    11751 
   11842    11727    11431    11160    11142    11470    12179    13296 
   14677    16085    17408    18476    19047    18999    18214    16683 
   14720    12756    11034     9616     8606     8225     8445     8857 
    9124     9255     9386     9633    10083    10629    11056    11267 
   11218    10893    10407     9976     9721     9553     9329     9115 
    9186     9709    10520    11350    12000    12201    11676    10419 
    8750     7122     5864     5055     4756     5123     6164     7597 
    9070    10324    11226    11716    11723    11253    10486     9618 
    8721     7909     7415     7350     7595     7987     8403     8819 
    9377    10127    10851    11295    11373    11145    10612     9632 
    8221     6729     5579     5065     5294     6129     7271     8368 
    9082     9306     9185     8827     8316     7875     7717     7908 
    8456     9306    10180    10741    10941    10903    10636    10220 
    9957    10034    10304    10540    10712    10929    11155    11103 
   10633    10023     9626     9553     9786    10328    11148    11982 
   12413    12240    11577    10598     9470     8468     7892     7900 
    8464     9315    10030    10369    10358    10129     9873     9734 
    9706     9761     9927    10195    10548    10975    11296    11271 
   10899    10323     9672     9074     8523     8001     7682     7658 
    7789     7897     7784     7295     6523     5683     4909     4356 
    4225     4584     5355     6345     7182     7539     7446     7113 
    6662     6178     5782     5649     5980     6737     7580     8208 
    8498     8415     8029     7418     6705     6216     6214     6494 
    6612     6442     6166     5931     5918     6274     6847     7342 
    7684     8001     8303     8398     8195     7846     7469     7007 
    6320     5404     4549     4095     4122     4538     5259     6255 
    7585     9173    10589    11497    12032    12405    12603    12575 
   12341    11921    11291    10493     9634     8804     8171     7905 
    7936     8046     8135     8268     8572     9100     9691    10088 
   10147     9838     9256     8715     8548     8830     9377    10022 
   10778    11676    12622    13455    14008    14246    14264    14145 
   13987    13853    13641    13281    12884    12492    12093    11778 
   11611    11651    11988    12406    12471    12059    11403    10759 
   10281     9983     9863    10007    10459    11115    11732    12136 
   12474    12897    13311    13591    13672    13486    13018    12249 
   11244    10195     9254     8463     7742     7025     6439     6183 
    6273     6612     7129     7723     8235     8571     8815     9138 
    9558    10012    10543    11156    11750    12209    12402    12208 
   11669    10956    10131     9123     7938     6812     5999     5467 
    4939     4201     3229     2170     1289      828      909     1517 
    2424     3276     3888     4355     4781     5165     5529     5972 
    6548     7314     8299     9401    10409    11156    11566    11658 
   11524    11207    10690    10026     9315     8619     7974     7457 
    7133     6925     6689     6451     6412     6655     7007     7257 
    7317     7260     7253     7396     7696     8074     8318     8290 
    8160     8210     8482     8742     8745     8484     8143     7884 
    7850     8128     8615     9088     9400     9525     9494     9421 
    9375     9254     8959     8583     8252     7940     7512     6939 
    6394     6103     6145     6434     6895     7523     8276     9031 
    9687    10246    10727    11105    11296    11205    10890    10539 
   10287    10152    10125    10293    10785    11580    12505    13350 
   13896    13976    13539    12702    11657    10500     9266     8109 
    7272     6933     7057     7438     7923     8463     9049     9747 
   10588    11485    12363    13200    13934    14443    14580    14266 
   13616    12889    12302    11924    11763    11809    11948    12020 
   12010    11958    11828    11638    11469    11299    11087    10910 
   10804    10713    10628    10566    10465    10185     9724     9275 
    8976     8803     8757     8876     9150     9535     9915    10164 
   10323    10524    10760    10917    10936    10893    10936    11091 
   11244    11335    11418    11534    11632    11620    11476    11248 
   10989    10739    10488    10196     9877     9528     9119     8733 
    8506     8467     8606     8953     9470     9976    10261    10254 
   10065     9877     9826     9910     9981     9845     9420     8831 
    8274     7847     7558     7342     7156     7078     7215     7553 
    7981     8365     8554     8437     8028     7477     7041     6949 
    7238     7782     8417     9031     9632    10247    10775    11090 
   11209    11254    11273    11205    10949    10422     9590     8529 
    7383     6311     5478     4974     4811     4963     5366     5904 
    6486     7052     7519     7809     7920     7943     8036     8310 
    8710     9150     9641    10173    10647    10955    11032    10910 
   10706    10503    10258     9892     9414     8880     8276     7538 
    6662     5715     4779     3925     3136     2330     1610     1243 
    1336     1769     2378     3064     3804     4602     5424     6174 
    6755     7146     7434     7770     8222     8685     9005     9117 
    9016     8699     8190     7570     6944     6366     5867     5513 
    5352     5333     5391     5471     5497     5470     5470     5555 
    5799     6246     6810     7426     8158     9074    10146    11311 
   12513    13697    14786    15654    16191    16425    16460    16370 
   16232    16105    15957    15736    15433    14999    14355    13532 
   12669    11853    11146    10623    10265    10052    10044    10261 
   10569    10746    10698    10534    10422    10404    10377    10266 
   10154    10199    10443    10728    10858    10791    10590    10274 
