Origin Time       2025/01/13 21:19:00
Lat.              31.8
Long.             131.6
Depth. (km)       30
Mag.              6.9
Station Code      KGSH09
Station Lat.      31.3741
Station Long.     130.4333
Station Height(m) 119.391
Record Time       2025/01/13 21:19:52
Sampling Freq(Hz) 100Hz
Duration Time(s)  143
Dir.              6
Scale Factor      7845(gal)/8223790
Max. Acc. (gal)   6.822
Last Correction   2025/01/13 21:19:52
Memo.             
[...]
   -9506    -9305    -8861    -8776    -9571   -10833   -11483   -10918 
   -9606    -8513    -8141    -8244    -8340    -8199    -7944    -7938 
   -8491    -9470   -10255   -10299    -9688    -9036    -8884    -9313 
   -9909   -10087    -9652    -8981    -8627    -8796    -9165    -9278 
   -9107    -9028    -9313    -9807   -10123   -10030    -9699    -9509 
   -9622    -9813    -9760    -9421    -9150    -9441   -10330   -11241 
  -11578   -11105    -9977    -8741    -7951    -7755    -7917    -8071 
   -8023    -7967    -8267    -8954    -9644    -9934    -9725    -9238 
   -8897    -9049    -9699   -10574   -11288   -11500   -11090   -10309 
   -9633    -9381    -9531    -9823   -10010    -9957    -9594    -9019 
   -8565    -8475    -8608    -8533    -7913    -6999    -6562    -7080 
   -8243    -9377   -10048   -10162    -9944    -9895   -10373   -11156 
  -11631   -11369   -10476    -9518    -9046    -9154    -9528    -9751 
   -9590    -9142    -8683    -8338    -8060    -7966    -8256    -8780 
   -9062    -8829    -8380    -8324    -8857    -9559    -9956    -9983 
   -9882    -9948   -10300   -10720   -10810   -10427    -9910    -9732 
   -9937   -10160   -10118    -9868    -9630    -9472    -9180    -8500 
   -7510    -6632    -6308    -6627    -7263    -7843    -8330    -8904 
   -9625   -10335   -10775   -10822   -10616   -10432   -10465   -10762 
  -11261   -11799   -12127   -11973   -11198   -10033    -8939    -8141 
   -7564    -7132    -6871    -6847    -7182    -7954    -9016    -9988 
  -10457   -10303    -9825    -9432    -9292    -9221    -8953    -8536 
   -8263    -8301    -8573    -8939    -9364    -9945   -10689   -11372 
  -11685   -11523   -11114   -10724   -10349    -9779    -8861    -7750 
   -6944    -6921    -7813    -9355   -10913   -11726   -11457   -10503 
   -9548    -8938    -8517    -7985    -7400    -7253    -8027    -9668 
  -11403   -12239   -11755   -10357    -8815    -7668    -7011    -6724 
   -6772    -7296    -8357    -9714   -10933   -11645   -11753   -11462 
  -11016   -10420    -9549    -8526    -7834    -7896    -8584    -9319 
   -9562    -9205    -8602    -8237    -8411    -9073    -9803   -10054 
   -9551    -8595    -7965    -8252    -9306   -10361   -10700   -10330 
  -10021   -10442   -11319   -11677   -10844    -9131    -7564    -6937 
   -7221    -7847    -8361    -8722    -9116    -9648   -10245   -10694 
  -10755   -10349    -9666    -9086    -8985    -9448   -10192   -10839 
  -11186   -11249   -11059   -10538    -9768    -9101    -8775    -8627 
   -8375    -8052    -7994    -8357    -8914    -9316    -9450    -9466 
   -9493    -9444    -9162    -8658    -8210    -8176    -8658    -9329 
   -9717    -9725    -9780   -10343   -11330   -12101   -12029   -11102 
   -9994    -9393    -9265    -8991    -8170    -7110    -6556    -6886 
   -7738    -8398    -8388    -7820    -7337    -7599    -8726   -10177 
  -11138   -11179   -10679   -10458   -10930   -11718   -12082   -11632 
  -10585    -9466    -8595    -7956    -7501    -7345    -7624    -8293 
   -9173   -10041   -10604   -10616   -10089    -9317    -8746    -8683 
   -9042    -9420    -9494    -9366    -9396    -9705   -10023   -10069 
   -9836    -9540    -9432    -9653   -10157   -10764   -11246   -11306 
  -10654    -9279    -7684    -6628    -6475    -6922    -7410    -7712 
   -8074    -8715    -9458    -9950   -10038    -9899    -9861   -10014 
  -10189   -10307   -10457   -10701   -10937   -10974   -10751   -10417 
  -10071    -9603    -9016    -8644    -8807    -9367    -9684    -9188 
   -8054    -7048    -6679    -6747    -6659    -6220    -6016    -6771 
   -8483   -10389   -11611   -11782   -11184   -10366    -9747    -9531 
   -9737   -10203   -10736   -11294   -11909   -12449   -12555   -11862 
  -10388    -8658    -7321    -6563    -6033    -5447    -5131    -5610 
   -6813    -7994    -8471    -8336    -8363    -9238   -10843   -12407 
  -13285   -13335   -12866   -12339   -11946   -11566   -11070   -10534 
  -10130    -9860    -9586    -9188    -8548    -7743    -7177    -7118 
   -7325    -7337    -6847    -6031    -5553    -5929    -6987    -8074 
   -8619    -8645    -8699    -9254   -10308   -11519   -12465   -12904 
  -12923   -12784   -12667   -12441   -11766   -10512    -8951    -7627 
   -6934    -6840    -7064    -7341    -7658    -8208    -9078   -10041 
  -10558   -10257    -9400    -8661    -8665    -9529   -10627   -11188 
  -11005   -10380    -9782    -9531    -9544    -9513    -9312    -9093 
   -9050    -9208    -9455    -9570    -9363    -8870    -8294    -7882 
   -7797    -8141    -8903    -9759   -10281   -10277    -9859    -9410 
   -9362    -9732   -10115   -10181    -9975    -9798    -9976   -10570 
  -11186   -11219   -10396    -8980    -7554    -6739    -6845    -7634 
   -8552    -9177    -9452    -9661   -10076   -10573   -10667   -10037 
   -9018    -8424    -8861   -10180   -11481   -11815   -11087    -9994 
   -9121    -8503    -7890    -7137    -6354    -5891    -6116    -7103 
   -8571    -9988   -10741   -10597    -9995    -9661    -9936   -10515 
  -10836   -10575    -9934    -9576    -9976   -10818   -11330   -11049 
  -10161    -9277    -8845    -8761    -8600    -8131    -7495    -7005 
   -6926    -7345    -8117    -8966    -9659   -10077   -10170    -9965 
   -9728    -9838   -10355   -10863   -10891   -10505   -10158   -10046 
   -9980    -9715    -9189    -8577    -8101    -7821    -7712    -7819 
   -8226    -8868    -9448    -9718    -9756    -9799    -9819    -9594 
   -9150    -8824    -8892    -9337    -9913   -10361   -10640   -10908 
  -11291   -11604   -11358   -10295    -8729    -7303    -6539    -6600 
   -7273    -8102    -8675    -8996    -9371    -9904   -10322   -10287 
   -9759    -9082    -8815    -9273   -10189   -10960   -11106   -10535 
   -9607    -8919    -8745    -8841    -8849    -8676    -8476    -8428 
   -8606    -8903    -9043    -8820    -8322    -7933    -8117    -9065 
  -10395   -11384   -11578   -11063   -10368   -10052   -10169   -10270 
   -9953    -9302    -8785    -8743    -9115    -9626    -9975    -9888 
   -9277    -8406    -7778    -7796    -8446    -9286    -9829   -10002 
  -10216   -10829   -11624   -12001   -11624   -10733    -9838    -9351 
   -9328    -9475    -9513    -9397    -9170    -8846    -8452    -8104 
   -8013    -8230    -8451    -8417    -8299    -8434    -8924    -9556 
   -9992   -10081    -9917    -9683    -9537    -9490    -9391    -9198 
   -9159    -9499   -10069   -10521   -10681   -10686   -10744   -10814 
  -10557    -9655    -8299    -7150    -6691    -6897    -7474    -8140 
   -8667    -8877    -8707    -8326    -8133    -8503    -9370   -10176 
  -10347    -9810    -9082    -8822    -9123    -9413    -9193    -8695 
   -8600    -9177    -9996   -10427   -10233    -9796    -9695   -10143 
  -10917   -11550   -11628   -11082   -10195    -9385    -8851    -8515 
   -8232    -7886    -7530    -7456    -7867    -8648    -9381    -9591 
   -9288    -9046    -9300    -9859   -10261   -10304   -10135    -9988 
   -9988   -10133   -10373   -10705   -11040   -11128   -10791   -10110 
   -9454    -9178    -9224    -9294    -9266    -9229    -9259    -9251 
   -9018    -8623    -8421    -8510    -8560    -8368    -8167    -8321 
   -8969    -9913   -10774   -11253   -11238   -10728    -9927    -9296 
   -9252    -9787   -10350   -10223    -9239    -8095    -7672    -8131 
   -8793    -8768    -7855    -6822    -6615    -7437    -8761    -9879 
  -10384   -10297    -9922    -9670    -9813   -10243   -10600   -10547 
  -10060    -9464    -9109    -9069    -9101    -8918    -8579    -8433 
   -8689    -9235    -9755   -10033   -10010    -9589    -8719    -7657 
   -6930    -7020    -7952    -9169    -9991   -10242   -10262   -10416 
  -10689   -10713   -10185    -9244    -8411    -8145    -8413    -8842 
   -9267    -9791   -10353   -10606   -10270    -9435    -8534    -8019 
   -7955    -8043    -8087    -8252    -8819    -9846   -11076   -12102 
  -12548   -12156   -10984    -9543    -8559    -8338    -8509    -8559 
   -8425    -8449    -8947    -9846   -10631   -10714   -10042    -9189 
   -8760    -8831    -9030    -9003    -8754    -8598    -8779    -9236 
   -9678    -9829    -9670    -9582   -10008   -10748   -11105   -10760 
  -10092    -9786   -10064   -10408   -10269    -9710    -9159    -8888 
   -8901    -9028    -9076    -8976    -8746    -8410    -8043    -7770 
   -7639    -7715    -8139    -8891    -9579    -9714    -9204    -8503 
   -8202    -8518    -9117    -9532    -9622    -9606    -9790   -10265 
  -10810   -11056   -10727    -9859    -8853    -8220    -8230    -8725 
   -9248    -9459    -9383    -9289    -9410    -9686    -9767    -9373 
   -8642    -8071    -8051    -8509    -9097    -9610   -10069   -10513 
  -10885   -11055   -10982   -10890   -11051   -11263   -10976   -10025 
   -8920    -8376    -8638    -9238    -9450    -8964    -8171    -7703 
   -7715    -7915    -8036    -8019    -8001    -8172    -8526    -8961 
   -9464    -9975   -10253   -10135    -9829    -9725    -9946   -10268 
  -10416   -10282    -9946    -9555    -9123    -8598    -8122    -8025 
   -8518    -9389   -10098   -10266   -10011    -9706    -9471    -9076 
   -8320    -7429    -6940    -7218    -8178    -9313   -10079   -10373 
  -10423   -10380   -10265   -10169   -10222   -10303   -10103    -9548 
   -8864    -8316    -8033    -7969    -8029    -8225    -8590    -9031 
   -9288    -9111    -8599    -8154    -8028    -8172    -8513    -9107 
   -9963   -10849   -11472   -11736   -11711   -11514   -11287   -11065 
  -10833   -10678   -10674   -10743   -10685   -10316    -9657    -8982 
   -8542    -8317    -8125    -7854    -7492    -7117    -6870    -6895 
   -7319    -8154    -9148    -9963   -10551   -11129   -11723   -12032 
  -11824   -11164   -10230    -9250    -8568    -8459    -8922    -9617 
  -10033    -9953    -9663    -9583    -9798    -9919    -9387    -8141 
   -6984    -6831    -7688    -8766    -9377    -9451    -9329    -9267 
   -9252    -9113    -8851    -8769    -9045    -9525    -9961   -10164 
  -10103    -9852    -9447    -8991    -8614    -8345    -8170    -8162 
   -8444    -8958    -9402    -9564    -9525    -9570    -9949   -10621 
  -11203   -11346   -11151   -10952   -10847   -10683   -10296    -9666 
   -8973    -8471    -8345    -8652    -9224    -9680    -9682    -9302 
   -8876    -8595    -8490    -8500    -8549    -8742    -9235    -9918 
  -10569   -11053   -11313   -11375   -11213   -10697    -9860    -9057 
   -8715    -8908    -9227    -9202    -8853    -8568    -8506    -8421 
   -8032    -7361    -6890    -7138    -8019    -8970    -9641   -10160 
  -10736   -11153   -10971   -10083    -8923    -8152    -8052    -8311 
   -8507    -8650    -9101    -9945   -10813   -11315   -11389   -11219 
  -10918   -10372    -9514    -8645    -8202    -8213    -8307    -8274 
   -8311    -8727    -9468    -9991    -9922    -9628    -9641    -9872 
   -9818    -9306    -8700    -8460    -8626    -8812    -8704    -8448 
   -8355    -8486    -8687    -8837    -9009    -9443   -10314   -11487 
  -12507   -12992   -12889   -12415   -11863   -11268   -10251    -8580 
   -6706    -5505    -5526    -6447    -7402    -7902    -8249    -9019 
  -10230   -11087   -10723    -9251    -7840    -7605    -8579    -9832 
  -10451   -10363   -10234   -10671   -11502   -11834   -10903    -8781 
   -6496    -5374    -5887    -7321    -8685    -9568   -10204   -10997 
  -11915   -12474   -12235   -11102    -9454    -8074    -7569    -7836 
   -8262    -8457    -8712    -9524   -10913   -12339   -13123   -13065 
  -12479   -11672   -10785    -9895    -9082    -8351    -7550    -6774 
   -6532    -7258    -8741   -10006   -10058    -8945    -7677    -7149 
   -7410    -7812    -7859    -7747    -8067    -9119   -10458   -11302 
  -11358   -10914   -10280    -9624    -9235    -9375    -9888   -10411 
  -10798   -11167   -11754   -12496   -12672   -11523    -9190    -6705 
   -5169    -4801    -5044    -5553    -6434    -7750    -9120    -9933 
  -10102   -10065   -10150   -10361   -10400   -10111    -9975   -10563 
  -11611   -12283   -12202   -11643   -11129   -10993   -10978   -10674 
  -10243   -10141   -10471   -10920   -11084   -10812   -10396   -10204 
  -10027    -9337    -8125    -6988    -6496    -6782    -7484    -7997 
   -8062    -8078    -8634    -9787   -10878   -11084   -10166    -8629 
   -7334    -6960    -7447    -8078    -8348    -8395    -8694    -9620 
  -11028   -12001   -11454    -9238    -6501    -4986    -5598    -7469 
   -8969    -9537    -9994   -11203   -12937   -14019   -13432   -11330 
   -9045    -7812    -7661    -7780    -7628    -7452    -7844    -8935 
  -10075   -10318    -9302    -7612    -6200    -5722    -6242    -7206 
   -7920    -8303    -8950   -10428   -12544   -14197   -14304   -12799 
  -10611    -8922    -8387    -8746    -9107    -8723    -7785    -7317 
   -7993    -9277    -9918    -9229    -7807    -6858    -6967    -7762 
   -8623    -9348   -10143   -11167   -12224   -12826   -12636   -11823 
  -10851   -10114    -9710    -9471    -9279    -9155    -9058    -8847 
   -8432    -7867    -7317    -6998    -7209    -8078    -9202    -9903 
   -9875    -9378    -8928    -9028    -9886   -11205   -12421   -13162 
  -13424   -13428   -13254   -12634   -11286    -9240    -6824    -4627 
   -3393    -3539    -4878    -6793    -8480    -9202    -8715    -7508 
   -6454    -6230    -6941    -8082    -9090    -9979   -11284   -13338 
  -15545   -16522   -15265   -12266    -9158    -7327    -7144    -8112 
   -9352   -10161   -10311    -9998    -9589    -9250    -8839    -8077 
   -6826    -5503    -4914    -5502    -6980    -8537    -9572   -10289 
  -11292   -12862   -14578   -15462   -14899   -13290   -11547   -10185 
   -9134    -8363    -8239    -9036   -10315   -11037   -10361    -8332 
   -5819    -3886    -3129    -3435    -4367    -5537    -6619    -7537 
   -8626   -10180   -11902   -12927   -12623   -11485   -10814   -11307 
  -12232   -12218   -10831    -9096    -8278    -8430    -8621    -8263 
   -7754    -7731    -8202    -8646    -8648    -8314    -8183    -8625 
   -9545   -10640   -11655   -12482   -13023   -13181   -13015   -12675 
  -12131   -11182    -9942    -9101    -9292   -10169   -10534    -9594 
   -7854    -6590    -6527    -7157    -7506    -7225    -6831    -7148 
   -8506   -10287   -11416   -11511   -11157   -11032   -11331   -11881 
  -12272   -12197   -11612   -10600    -9366    -8174    -7164    -6521 
   -6573    -7445    -8714    -9528    -9317    -8235    -6864    -5780 
   -5194    -5013    -5267    -6161    -7782   -10002   -12372   -14002 
  -13976   -12218    -9792    -8144    -7938    -8735    -9755   -10656 
  -11524   -12316   -12708   -12382   -11227    -9512    -7840    -6682 
   -6162    -6335    -7267    -8760   -10203   -10940   -10804   -10234 
   -9802    -9605    -9316    -8775    -8259    -8170    -8710    -9695 
  -10578   -11001   -11133   -11325   -11789   -12355   -12394   -11443 
   -9657    -7596    -5980    -5310    -5593    -6565    -7846    -9081 
  -10154   -11049   -11646   -11645   -10785    -9270    -7820    -7202 
   -7723    -8984   -10170   -10798   -11043   -11365   -11956   -12393 
  -11963   -10552    -8766    -7366    -6880    -7321    -8067    -8367 
   -8055    -7523    -7133    -7051    -7338    -7978    -8819    -9498 
   -9755    -9725    -9725   -10035   -10673   -11303   -11588   -11398 
  -10933   -10667   -10905   -11453   -11774   -11493   -10746   -10017 
   -9832   -10288   -10797   -10592    -9413    -7786    -6739    -6898 
   -7781    -8324    -8094    -7654    -7888    -9162   -10808   -11604 
  -11047    -9730    -8695    -8635    -9351    -9994    -9911    -9146 
   -8306    -7992    -8143    -8167    -7762    -7371    -7763    -9104 
  -10700   -11691   -11635   -10794    -9914    -9432    -9231    -9082 
   -8977    -9182    -9849   -10540   -10627    -9941    -8895    -8136 
   -7866    -7743    -7614    -7684    -8116    -8760    -9188    -9147 
   -8837    -8625    -8788    -9296    -9871   -10476   -11129   -11596 
  -11553   -10762    -9467    -8317    -7689    -7618    -8027    -8815 
   -9909   -11088   -11931   -12170   -11827   -10963    -9632    -8074 
   -6804    -6363    -6925    -8140    -9387   -10219   -10527   -10462 
  -10170    -9648    -8962    -8230    -7535    -7148    -7354    -8124 
   -9109    -9887   -10238   -10195    -9973    -9869    -9957   -10095 
  -10185   -10112    -9779    -9217    -8580    -8276    -8603    -9293 
   -9814    -9790    -9166    -8268    -7550    -7258    -7319    -7592 
   -8129    -8949    -9734   -10234   -10559   -10716   -10430    -9603 
   -8529    -7744    -7699    -8392    -9423   -10304   -10822   -11098 
  -11245   -11234   -10999   -10493    -9892    -9602    -9792   -10104 
  -10007    -9340    -8403    -7572    -6945    -6442    -6042    -5875 
   -6174    -7067    -8326    -9537   -10342   -10494   -10037    -9408 
   -9170    -9570   -10312   -10843   -10817   -10322    -9741    -9387 
   -9271    -9139    -8737    -8073    -7387    -6924    -6805    -7071 
   -7642    -8295    -8822    -9178    -9445    -9684    -9879    -9995 
  -10080   -10309   -10831   -11595   -12262   -12375   -11901   -11292 
  -11003   -11049   -10983   -10494    -9801    -9328    -9265    -9274 
   -8765    -7688    -6623    -6196    -6698    -7811    -8883    -9718 
  -10480   -11210   -11773   -11894   -11487   -10839   -10295    -9992 
   -9861    -9624    -9120    -8618    -8475    -8804    -9504   -10284 
  -10729   -10540    -9760    -8776    -8083    -7981    -8303    -8610 
   -8665    -8500    -8274    -8280    -8716    -9427   -10061   -10318 
  -10110    -9688    -9547   -10033   -10960   -11657   -11572   -10806 
  -10008    -9705    -9864   -10116   -10197   -10062    -9796    -9495 
   -9177    -8865    -8496    -7851    -6976    -6289    -6108    -6427 
   -7047    -7692    -8168    -8550    -8965    -9278    -9377    -9347 
   -9277    -9273    -9505    -9933   -10210   -10010    -9428    -8973 
   -9109    -9799   -10447   -10476    -9873    -9062    -8440    -8093 
   -7807    -7395    -6921    -6704    -7060    -7848    -8563    -8851 
   -8776    -8776    -9269   -10260   -11406   -12280   -12690   -12756 
  -12685   -12563   -12318   -11823   -10959    -9873    -9132    -9162 
   -9732   -10223   -10189    -9748    -9404    -9486    -9861   -10034 
   -9640    -8868    -8252    -8112    -8286    -8465    -8556    -8685 
   -8996    -9447    -9868   -10189   -10482   -10785   -10980   -10941 
  -10740   -10628   -10721   -10748   -10237    -9055    -7654    -6615 
   -6085    -5825    -5684    -5879    -6613    -7668    -8619    -9166 
   -9306    -9371    -9543    -9675    -9734    -9787    -9828    -9960 
  -10288   -10655   -10801   -10675   -10436   -10330   -10528   -10951 
  -11323   -11429   -11190   -10604    -9841    -9283    -9134    -9229 
   -9298    -9113    -8581    -7936    -7568    -7592    -7755    -7678 
   -7254    -6868    -7047    -7906    -9032    -9846   -10096   -10089 
  -10401   -11267   -12255   -12669   -12333   -11713   -11275   -11097 
  -10982   -10700   -10246    -9783    -9420    -9175    -9036    -8892 
   -8581    -8074    -7485    -6955    -6588    -6380    -6196    -6000 
   -6062    -6685    -7827    -9153   -10276   -11009   -11519   -11955 
