Origin Time       2025/01/13 21:19:00
Lat.              31.8
Long.             131.6
Depth. (km)       30
Mag.              6.9
Station Code      KGSH01
Station Lat.      32.1554
Station Long.     130.1191
Station Height(m) 14.866
Record Time       2025/01/13 21:19:55
Sampling Freq(Hz) 100Hz
Duration Time(s)  229
Dir.              5
Scale Factor      7845(gal)/8223790
Max. Acc. (gal)   3.730
Last Correction   2025/01/13 21:19:56
Memo.             
[...]
    6528     6619     6700     6764     6813     6844     6852     6833 
    6793     6735     6666     6597     6528     6458     6405     6366 
    6326     6280     6242     6232     6251     6270     6268     6241 
    6183     6093     5991     5895     5810     5733     5664     5620 
    5617     5653     5726     5845     6010     6187     6345     6466 
    6552     6606     6635     6635     6608     6566     6516     6443 
    6334     6212     6104     6023     5975     5972     6023     6103 
    6189     6272     6323     6328     6309     6278     6234     6187 
    6153     6130     6100     6052     5991     5930     5884     5864 
    5869     5886     5914     5953     6002     6043     6070     6084 
    6089     6103     6124     6127     6110     6107     6139     6203 
    6288     6377     6448     6484     6475     6431     6366     6309 
    6280     6274     6277     6269     6228     6143     6029     5911 
    5811     5756     5749     5768     5790     5810     5826     5833 
    5841     5879     5946     6033     6131     6235     6347     6480 
    6608     6709     6787     6841     6875     6909     6944     6967 
    6959     6902     6790     6629     6424     6204     6019     5894 
    5806     5741     5703     5694     5703     5734     5791     5860 
    5923     5979     6043     6124     6228     6353     6478     6583 
    6655     6705     6754     6810     6852     6862     6841     6797 
    6728     6644     6569     6527     6517     6521     6500     6423 
    6286     6100     5879     5656     5459     5298     5194     5162 
    5193     5270     5373     5487     5606     5711     5798     5876 
    5957     6031     6095     6154     6220     6303     6403     6504 
    6593     6660     6693     6681     6639     6588     6519     6419 
    6304     6201     6112     6031     5961     5903     5853     5818 
    5800     5795     5815     5861     5927     6026     6149     6274 
    6388     6488     6574     6637     6681     6705     6713     6704 
    6682     6654     6615     6543     6434     6309     6196     6099 
    6006     5907     5811     5738     5688     5655     5647     5678 
    5753     5887     6056     6211     6334     6420     6463     6473 
    6462     6436     6404     6372     6332     6282     6219     6143 
    6064     5989     5918     5853     5806     5779     5776     5794 
    5823     5856     5892     5945     6018     6110     6211     6308 
    6405     6508     6586     6616     6593     6525     6419     6278 
    6124     5994     5908     5864     5845     5852     5876     5913 
    5967     6019     6054     6079     6110     6156     6216     6277 
    6312     6315     6288     6243     6210     6199     6201     6215 
    6235     6265     6318     6384     6447     6493     6509     6497 
    6474     6446     6415     6393     6386     6388     6400     6424 
    6451     6469     6458     6421     6362     6285     6201     6130 
    6083     6064     6066     6087     6124     6172     6208     6211 
    6187     6170     6180     6210     6255     6309     6354     6374 
    6359     6318     6268     6214     6158     6106     6060     6034 
    6049     6119     6243     6394     6546     6681     6779     6829 
    6833     6789     6687     6520     6311     6102     5923     5769 
    5637     5539     5482     5476     5521     5610     5738     5873 
    5971     6022     6039     6054     6096     6170     6262     6345 
    6393     6399     6374     6338     6285     6203     6099     5999 
    5922     5879     5872     5898     5937     5976     6008     6045 
    6093     6151     6211     6251     6258     6230     6173     6102 
    6038     5995     5957     5921     5896     5888     5883     5876 
    5876     5873     5854     5817     5767     5718     5684     5663 
    5628     5566     5495     5445     5429     5449     5514     5625 
    5783     5962     6114     6219     6303     6369     6394     6380 
    6343     6297     6246     6199     6168     6146     6112     6053 
    5977     5914     5879     5869     5859     5842     5830     5811 
    5779     5738     5694     5655     5638     5664     5729     5829 
    5967     6141     6324     6493     6648     6783     6874     6912 
    6902     6855     6778     6689     6620     6582     6555     6519 
    6480     6442     6399     6345     6291     6258     6258     6289 
    6358     6442     6513     6567     6609     6635     6646     6652 
    6664     6685     6701     6686     6633     6548     6440     6340 
    6280     6250     6227     6189     6126     6050     5976     5911 
    5852     5807     5796     5813     5841     5877     5906     5914 
    5903     5886     5863     5825     5778     5764     5800     5879 
    5985     6096     6214     6340     6457     6540     6597     6646 
    6697     6743     6768     6772     6754     6709     6632     6534 
    6427     6309     6170     6010     5834     5668     5545     5474 
    5439     5441     5494     5599     5744     5888     6006     6114 
    6216     6293     6340     6370     6399     6423     6438     6451 
    6466     6471     6461     6423     6343     6238     6122     6002 
    5891     5792     5703     5614     5514     5413     5329     5255 
    5184     5146     5177     5290     5470     5688     5914     6116 
    6255     6315     6319     6292     6231     6146     6058     5989 
    5937     5888     5860     5869     5917     5989     6070     6154 
    6245     6351     6459     6550     6612     6647     6651     6632 
    6616     6600     6561     6486     6384     6277     6207     6200 
    6232     6285     6358     6438     6512     6589     6660     6710 
    6720     6693     6655     6616     6559     6486     6409     6338 
    6273     6219     6185     6176     6189     6201     6177     6120 
    6081     6102     6187     6311     6428     6517     6589     6644 
    6683     6712     6716     6681     6608     6517     6434     6358 
    6277     6196     6130     6083     6060     6046     6014     5962 
    5915     5869     5813     5749     5702     5667     5614     5553 
    5530     5552     5607     5714     5898     6169     6504     6864 
    7200     7468     7642     7711     7684     7587     7423     7177 
    6876     6586     6339     6127     5960     5861     5826     5830 
    5853     5880     5896     5877     5810     5703     5556     5373 
    5184     5027     4915     4845     4811     4812     4857     4949 
    5092     5287     5513     5726     5906     6046     6146     6214 
    6253     6280     6312     6336     6342     6336     6324     6307 
    6295     6308     6339     6365     6378     6378     6358     6297 
    6169     5964     5724     5487     5262     5070     4954     4945 
    5027     5152     5266     5360     5460     5578     5721     5869 
    5994     6104     6235     6399     6563     6691     6775     6826 
    6852     6853     6858     6882     6920     6955     6974     6982 
    6997     7033     7091     7150     7177     7153     7072     6936 
    6751     6538     6320     6089     5826     5548     5305     5135 
    5051     5049     5100     5181     5278     5387     5493     5594 
    5707     5827     5935     6037     6151     6286     6440     6608 
    6764     6868     6875     6767     6586     6376     6139     5895 
    5702     5590     5526     5476     5455     5482     5543     5593 
    5611     5601     5566     5530     5526     5571     5676     5841 
    6035     6237     6443     6647     6825     6975     7083     7125 
    7107     7059     6999     6939     6874     6813     6759     6717 
    6693     6675     6632     6548     6444     6343     6245     6149 
    6080     6052     6043     6029     5994     5940     5872     5798 
    5722     5652     5586     5537     5526     5544     5589     5671 
    5791     5914     6007     6060     6076     6085     6114     6146 
    6168     6200     6265     6345     6412     6463     6508     6559 
    6610     6655     6682     6687     6670     6610     6500     6362 
    6243     6173     6158     6165     6131     6042     5933     5823 
    5710     5606     5555     5586     5695     5867     6087     6349 
    6624     6871     7074     7225     7326     7384     7399     7368 
    7290     7169     7032     6889     6729     6543     6347     6168 
    6026     5921     5829     5738     5663     5621     5624     5667 
    5725     5803     5913     6037     6150     6237     6297     6355 
    6419     6455     6462     6473     6486     6481     6451     6419 
    6426     6489     6573     6646     6713     6772     6805     6804 
    6798     6825     6885     6959     7041     7118     7149     7132 
    7096     7071     7026     6912     6728     6516     6309     6131 
    5989     5883     5822     5837     5935     6064     6166     6232 
    6291     6369     6480     6605     6718     6795     6820     6775 
    6658     6489     6301     6102     5881     5660     5481     5374 
    5336     5340     5371     5418     5449     5448     5437     5441 
    5436     5408     5408     5494     5651     5829     6011     6197 
    6357     6442     6467     6490     6527     6554     6559     6547 
    6509     6439     6340     6224     6115     6012     5908     5827 
    5813     5877     6004     6166     6340     6490     6588     6628 
    6629     6615     6583     6519     6436     6373     6332     6276 
    6180     6068     5961     5842     5703     5572     5460     5351 
    5211     5015     4780     4542     4324     4112     3905     3736 
    3647     3628     3650     3711     3836     4045     4321     4646 
    5008     5377     5706     5975     6195     6374     6504     6588 
    6620     6581     6480     6365     6276     6185     6049     5864 
    5648     5431     5246     5113     5039     5027     5062     5132 
    5225     5327     5427     5526     5634     5764     5931     6099 
    6237     6372     6511     6619     6671     6687     6691     6696 
    6710     6763     6862     6990     7126     7275     7438     7597 
    7743     7874     7973     8014     7987     7888     7736     7576 
    7418     7250     7049     6806     6528     6214     5872     5540 
    5260     5032     4814     4596     4403     4263     4224     4307 
    4500     4787     5159     5595     6068     6556     7024     7425 
    7740     7974     8135     8224     8243     8185     8036     7793 
    7472     7102     6704     6297     5929     5641     5454     5387 
    5435     5541     5663     5799     5967     6162     6369     6575 
    6795     7025     7244     7434     7612     7820     8079     8382 
    8679     8916     9069     9111     9015     8772     8407     7962 
    7476     6986     6532     6145     5823     5560     5348     5186 
    5063     4962     4896     4882     4920     5013     5198     5489 
    5848     6223     6582     6903     7163     7330     7383     7329 
    7209     7060     6909     6767     6642     6527     6434     6399 
    6419     6457     6465     6427     6374     6332     6309     6318 
    6361     6415     6454     6450     6405     6369     6369     6390 
    6416     6432     6440     6453     6467     6478     6485     6485 
    6467     6426     6374     6340     6339     6363     6405     6477 
    6585     6718     6868     7025     7172     7292     7384     7450 
    7484     7466     7384     7241     7057     6855     6637     6412 
    6188     5985     5809     5641     5478     5323     5147     4942 
    4735     4567     4453     4388     4374     4428     4558     4750 
    4974     5182     5331     5398     5374     5252     5043     4770 
    4471     4182     3940     3767     3680     3699     3813     3971 
    4118     4236     4351     4494     4668     4880     5130     5413 
    5715     6007     6254     6450     6593     6679     6718     6728 
    6716     6687     6663     6656     6670     6714     6802     6917 
    7002     7003     6917     6768     6569     6320     6043     5748 
    5433     5117     4835     4602     4436     4347     4330     4386 
    4526     4756     5054     5378     5679     5933     6124     6238 
    6288     6315     6336     6350     6355     6370     6405     6458 
    6535     6631     6716     6754     6747     6708     6651     6582 
    6488     6370     6246     6110     5952     5782     5624     5493 
    5389     5309     5267     5273     5312     5364     5429     5513 
    5613     5715     5813     5896     5953     5984     6029     6118 
    6242     6385     6539     6681     6782     6818     6797     6733 
    6644     6552     6477     6408     6324     6210     6053     5868 
    5691     5566     5524     5548     5607     5682     5760     5848 
    5946     6030     6100     6188     6309     6461     6628     6787 
    6914     6990     6991     6916     6801     6689     6589     6494 
    6423     6394     6408     6458     6543     6640     6698     6698 
    6664     6597     6455     6231     5965     5694     5414     5105 
    4774     4453     4167     3948     3829     3819     3910     4099 
    4378     4712     5065     5424     5767     6060     6292     6459 
    6558     6574     6517     6412     6272     6089     5863     5601 
    5321     5040     4780     4552     4367     4245     4214     4313 
    4565     4945     5409     5929     6494     7087     7673     8217 
    8699     9120     9479     9769     9975    10081    10073     9949 
    9733     9471     9212     8974     8734     8487     8262     8059 
    7857     7643     7446     7298     7203     7161     7184     7264 
    7379     7488     7560     7574     7523     7403     7237     7038 
    6813     6582     6365     6183     6064     6006     5979     5958 
    5953     5981     6025     6046     6048     6043     6019     5980 
    5960     5977     6039     6145     6265     6361     6399     6350 
    6211     6012     5786     5563     5373     5211     5066     4951 
    4896     4914     4995     5117     5250     5377     5518     5715 
    5981     6273     6538     6747     6886     6930     6879     6768 
    6644     6554     6502     6461     6408     6359     6345     6376 
    6442     6512     6578     6652     6754     6882     7026     7180 
    7337     7497     7672     7835     7955     8023     8040     8021 
    7969     7879     7759     7622     7480     7354     7242     7126 
    6990     6828     6643     6442     6230     6034     5881     5768 
    5687     5648     5653     5692     5753     5823     5881     5914 
    5927     5929     5914     5886     5852     5806     5748     5691 
    5640     5575     5495     5404     5298     5193     5117     5103 
    5171     5308     5478     5648     5773     5840     5850     5800 
    5683     5505     5286     5053     4803     4545     4294     4068 
    3871     3701     3549     3414     3314     3273     3292     3368 
    3496     3673     3897     4156     4434     4718     4986     5217 
    5412     5584     5749     5899     6014     6083     6108     6081 
    6002     5886     5746     5602     5471     5364     5292     5266 
    5306     5416     5574     5751     5917     6049     6137     6181 
    6185     6165     6149     6137     6112     6076     6045     6030 
    6018     5995     5962     5930     5903     5894     5918     6006 
    6150     6327     6523     6723     6914     7082     7202     7276 
    7314     7306     7263     7215     7177     7146     7133     7126 
    7092     7017     6914     6798     6682     6558     6405     6220 
    6021     5838     5699     5602     5545     5529     5556     5636 
    5765     5927     6115     6327     6548     6768     6980     7180 
    7360     7516     7651     7763     7854     7925     7970     7959 
    7863     7665     7384     7069     6752     6462     6231     6072 
    5973     5906     5853     5807     5763     5717     5672     5638 
    5622     5601     5548     5495     5474     5478     5512     5557 
    5576     5555     5487     5391     5289     5178     5074     4997 
    4951     4932     4955     5036     5171     5333     5493     5626 
    5732     5830     5938     6068     6226     6401     6570     6712 
    6816     6874     6883     6837     6750     6642     6527     6405 
    6284     6180     6097     6037     5998     5983     5995     6045 
    6114     6181     6243     6303     6357     6389     6390     6357 
    6301     6261     6258     6282     6322     6378     6443     6498 
    6535     6548     6524     6466     6389     6311     6241     6180 
    6141     6126     6122     6130     6153     6181     6207     6220 
    6211     6172     6110     6042     5973     5908     5850     5788 
    5721     5657     5580     5491     5397     5270     5111     4954 
    4801     4649     4513     4414     4364     4341     4321     4320 
    4356     4421     4506     4618     4754     4897     5051     5235 
    5444     5665     5892     6116     6323     6497     6646     6778 
    6885     6947     6971     6972     6971     6990     7036     7102 
    7171     7241     7311     7364     7372     7331     7244     7113 
    6952     6782     6619     6466     6305     6120     5921     5740 
    5590     5476     5405     5382     5398     5424     5441     5466 
    5514     5591     5691     5805     5925     6052     6185     6330 
    6488     6660     6851     7038     7198     7310     7364     7358 
    7310     7240     7172     7129     7111     7114     7134     7173 
    7236     7314     7402     7493     7582     7663     7724     7754 
    7765     7767     7761     7755     7762     7777     7793     7807 
    7805     7770     7692     7580     7453     7334     7230     7134 
    7052     6983     6926     6889     6883     6930     7028     7133 
    7221     7314     7419     7515     7569     7576     7545     7491 
    7416     7318     7202     7079     6952     6843     6778     6745 
    6705     6635     6519     6346     6115     5842     5560     5301 
    5080     4905     4800     4766     4784     4841     4935     5054 
    5171     5262     5324     5367     5385     5375     5354     5344 
    5360     5394     5424     5445     5460     5462     5459     5458 
    5447     5424     5389     5340     5298     5269     5255     5269 
    5327     5425     5551     5697     5861     6042     6234     6432 
    6631     6812     6959     7065     7128     7145     7106     6997 
    6836     6642     6405     6112     5786     5459     5138     4822 
    4531     4295     4129     4027     3977     3977     4023     4120 
    4279     4498     4762     5034     5289     5533     5780     6025 
    6247     6439     6613     6774     6903     6976     6979     6914 
    6794     6629     6428     6208     5988     5772     5551     5320 
    5086     4860     4654     4495     4392     4338     4317     4330 
    4395     4517     4699     4934     5212     5521     5849     6178 
    6498     6804     7092     7373     7631     7855     8046     8175 
    8222     8197     8112     7985     7821     7619     7385     7142 
    6895     6647     6405     6168     5926     5690     5460     5242 
    5036     4853     4708     4606     4537     4513     4552     4654 
