Origin Time       2025/01/13 21:19:00
Lat.              31.8
Long.             131.6
Depth. (km)       30
Mag.              6.9
Station Code      KGSH02
Station Lat.      31.9940
Station Long.     130.2077
Station Height(m) 40.762
Record Time       2025/01/13 21:19:53
Sampling Freq(Hz) 100Hz
Duration Time(s)  206
Dir.              6
Scale Factor      3920(gal)/6170801
Max. Acc. (gal)   2.902
Last Correction   2025/01/13 21:19:38
Memo.             
[...]
  -41707   -41610   -41574   -41478   -41243   -40966   -40763   -40615 
  -40472   -40312   -40110   -39911   -39836   -39889   -39966   -40061 
  -40213   -40354   -40433   -40469   -40474   -40468   -40512   -40634 
  -40796   -40924   -40990   -41046   -41133   -41220   -41280   -41315 
  -41332   -41325   -41250   -41076   -40867   -40690   -40534   -40376 
  -40236   -40118   -40048   -40105   -40272   -40442   -40602   -40762 
  -40844   -40811   -40703   -40530   -40308   -40108   -39937   -39696 
  -39350   -39010   -38785   -38709   -38787   -38933   -38982   -38937 
  -38953   -39057   -39123   -39091   -39024   -39020   -39131   -39309 
  -39458   -39544   -39607   -39647   -39603   -39466   -39347   -39350 
  -39449   -39554   -39616   -39641   -39695   -39854   -40110   -40356 
  -40486   -40492   -40437   -40393   -40385   -40389   -40366   -40290 
  -40208   -40214   -40310   -40424   -40516   -40560   -40563   -40608 
  -40759   -40965   -41127   -41194   -41176   -41157   -41250   -41437 
  -41563   -41527   -41406   -41369   -41448   -41508   -41498   -41485 
  -41455   -41355   -41218   -41093   -40985   -40908   -40870   -40857 
  -40873   -40911   -40952   -41005   -41103   -41224   -41306   -41321 
  -41310   -41331   -41370   -41338   -41234   -41163   -41148   -41106 
  -40988   -40814   -40629   -40494   -40451   -40475   -40525   -40605 
  -40743   -40901   -40982   -40946   -40836   -40697   -40554   -40446 
  -40409   -40418   -40387   -40297   -40244   -40279   -40341   -40393 
  -40455   -40505   -40533   -40573   -40626   -40659   -40674   -40744 
  -40937   -41208   -41443   -41557   -41520   -41389   -41290   -41250 
  -41202   -41157   -41188   -41290   -41369   -41350   -41256   -41191 
  -41240   -41371   -41522   -41700   -41843   -41867   -41846   -41858 
  -41807   -41626   -41428   -41333   -41309   -41286   -41231   -41112 
  -40973   -40923   -40962   -41006   -41057   -41167   -41324   -41472 
  -41560   -41552   -41478   -41420   -41383   -41281   -41060   -40753 
  -40431   -40153   -39911   -39681   -39485   -39338   -39235   -39187 
  -39164   -39116   -39071   -39071   -39084   -39094   -39157   -39283 
  -39417   -39532   -39605   -39648   -39760   -39963   -40147   -40271 
  -40365   -40433   -40497   -40569   -40602   -40544   -40367   -40081 
  -39776   -39549   -39426   -39344   -39212   -39005   -38839   -38828 
  -38912   -38993   -39073   -39162   -39244   -39333   -39441   -39571 
  -39684   -39707   -39671   -39727   -39917   -40146   -40376   -40633 
  -40914   -41184   -41394   -41480   -41433   -41357   -41360   -41430 
  -41494   -41528   -41526   -41470   -41368   -41266   -41187   -41139 
  -41148   -41196   -41226   -41231   -41247   -41281   -41310   -41317 
  -41336   -41391   -41433   -41432   -41426   -41410   -41320   -41168 
  -41036   -40966   -40937   -40924   -40906   -40866   -40770   -40601 
  -40425   -40294   -40126   -39857   -39572   -39352   -39177   -39036 
  -38965   -38978   -39082   -39283   -39517   -39705   -39824   -39889 
  -39976   -40169   -40386   -40454   -40354   -40231   -40219   -40328 
  -40484   -40643   -40803   -40945   -41049   -41112   -41134   -41116 
  -41059   -40967   -40854   -40714   -40530   -40324   -40137   -39995 
  -39882   -39780   -39716   -39710   -39700   -39653   -39650   -39757 
  -39919   -40089   -40283   -40431   -40421   -40278   -40121   -40012 
  -39934   -39869   -39863   -39948   -40065   -40174   -40299   -40393 
  -40391   -40329   -40267   -40199   -40113   -40035   -39979   -39909 
  -39814   -39745   -39755   -39865   -40055   -40263   -40453   -40640 
  -40836   -41001   -41052   -40967   -40860   -40818   -40785   -40705 
  -40601   -40474   -40316   -40167   -40085   -40075   -40069   -40042 
  -40051   -40098   -40096   -40006   -39875   -39737   -39608   -39549 
  -39613   -39752   -39872   -39910   -39854   -39776   -39791   -39951 
  -40233   -40564   -40862   -41126   -41395   -41654   -41892   -42146 
  -42442   -42751   -43000   -43134   -43147   -43051   -42873   -42645 
  -42407   -42218   -42148   -42204   -42289   -42310   -42283   -42274 
  -42289   -42273   -42192   -42096   -42036   -42018   -42057   -42128 
  -42128   -42025   -41914   -41864   -41859   -41871   -41882   -41862 
  -41805   -41768   -41801   -41871   -41888   -41806   -41676   -41568 
  -41471   -41355   -41261   -41234   -41268   -41315   -41362   -41464 
  -41663   -41904   -42057   -42058   -41989   -41919   -41808   -41671 
  -41566   -41439   -41258   -41080   -40906   -40708   -40529   -40416 
  -40362   -40334   -40278   -40164   -39992   -39748   -39465   -39223 
  -39014   -38777   -38527   -38323   -38178   -38073   -37979   -37859 
  -37714   -37587   -37535   -37571   -37652   -37739   -37802   -37826 
  -37833   -37848   -37858   -37865   -37897   -37962   -38017   -38048 
  -38113   -38248   -38408   -38549   -38632   -38621   -38538   -38418 
  -38283   -38174   -38122   -38113   -38123   -38150   -38226   -38377 
  -38565   -38749   -38928   -39096   -39256   -39459   -39726   -39996 
  -40235   -40457   -40633   -40704   -40712   -40778   -40899   -40962 
  -40940   -40875   -40803   -40779   -40835   -40910   -40961   -41021 
  -41107   -41181   -41215   -41176   -41065   -40947   -40862   -40780 
  -40677   -40612   -40662   -40798   -40953   -41141   -41371   -41592 
  -41779   -41949   -42084   -42160   -42195   -42199   -42173   -42147 
  -42122   -42036   -41869   -41717   -41648   -41594   -41498   -41374 
  -41226   -41048   -40864   -40725   -40654   -40627   -40581   -40469 
  -40341   -40276   -40271   -40312   -40443   -40683   -40959   -41190 
  -41379   -41557   -41681   -41677   -41553   -41388   -41212   -41019 
  -40833   -40671   -40540   -40450   -40382   -40335   -40352   -40437 
  -40518   -40564   -40612   -40669   -40729   -40793   -40836   -40858 
  -40903   -40999   -41139   -41301   -41433   -41499   -41546   -41615 
  -41677   -41703   -41703   -41704   -41730   -41778   -41808   -41785 
  -41737   -41691   -41628   -41538   -41437   -41294   -41083   -40857 
  -40708   -40646   -40599   -40536   -40485   -40445   -40394   -40336 
  -40273   -40221   -40230   -40284   -40315   -40302   -40257   -40203 
  -40179   -40179   -40162   -40133   -40132   -40170   -40224   -40225 
  -40135   -40019   -39938   -39864   -39764   -39635   -39471   -39288 
  -39138   -39039   -38966   -38940   -38994   -39089   -39169   -39244 
  -39363   -39521   -39656   -39741   -39813   -39911   -40018   -40080 
  -40101   -40143   -40219   -40281   -40291   -40255   -40226   -40239 
  -40276   -40342   -40471   -40603   -40642   -40621   -40621   -40608 
  -40502   -40325   -40160   -40041   -39951   -39857   -39748   -39650 
  -39574   -39497   -39413   -39327   -39241   -39183   -39178   -39183 
  -39153   -39114   -39097   -39109   -39165   -39253   -39325   -39376 
  -39451   -39555   -39668   -39812   -40007   -40233   -40461   -40661 
  -40818   -40948   -41064   -41183   -41318   -41448   -41545   -41581 
  -41535   -41403   -41191   -40943   -40726   -40586   -40538   -40568 
  -40626   -40669   -40671   -40627   -40569   -40543   -40542   -40525 
  -40500   -40531   -40645   -40782   -40883   -40977   -41111   -41273 
  -41442   -41618   -41776   -41877   -41940   -41998   -42027   -42010 
  -42005   -42071   -42162   -42195   -42155   -42068   -41976   -41940 
  -41943   -41925   -41900   -41898   -41880   -41864   -41902   -41948 
  -41962   -41993   -42059   -42141   -42249   -42385   -42509   -42603 
  -42676   -42715   -42730   -42737   -42697   -42597   -42508   -42452 
  -42411   -42383   -42370   -42368   -42377   -42366   -42313   -42243 
  -42203   -42216   -42255   -42283   -42287   -42253   -42189   -42120 
  -42034   -41912   -41791   -41704   -41623   -41489   -41292   -41095 
  -40956   -40874   -40841   -40888   -41006   -41094   -41077   -41009 
  -40973   -40969   -40965   -40940   -40897   -40881   -40911   -40966 
  -41037   -41088   -41060   -40975   -40914   -40883   -40822   -40714 
  -40606   -40516   -40458   -40460   -40466   -40423   -40366   -40287 
  -40134   -39942   -39756   -39545   -39315   -39135   -38991   -38809 
  -38620   -38507   -38448   -38395   -38333   -38263   -38216   -38213 
  -38197   -38130   -38064   -38063   -38103   -38120   -38108   -38087 
  -38053   -38025   -38061   -38181   -38347   -38521   -38684   -38852 
  -39048   -39233   -39350   -39434   -39564   -39745   -39923   -40054 
  -40087   -39988   -39793   -39580   -39398   -39258   -39140   -39023 
  -38919   -38845   -38782   -38713   -38650   -38595   -38552   -38550 
  -38593   -38651   -38719   -38773   -38761   -38702   -38662   -38668 
  -38703   -38755   -38805   -38829   -38819   -38781   -38730   -38694 
  -38687   -38694   -38705   -38731   -38780   -38859   -39003   -39217 
  -39431   -39594   -39751   -39948   -40168   -40379   -40548   -40627 
  -40587   -40462   -40316   -40189   -40072   -39921   -39729   -39529 
  -39352   -39204   -39085   -39018   -39021   -39072   -39141   -39240 
  -39399   -39590   -39771   -39947   -40133   -40304   -40471   -40700 
  -41003   -41312   -41571   -41783   -41957   -42114   -42267   -42388 
  -42447   -42462   -42466   -42462   -42453   -42451   -42451   -42438 
  -42434   -42449   -42448   -42378   -42233   -42040   -41824   -41628 
  -41487   -41374   -41259   -41176   -41175   -41244   -41336   -41440 
  -41576   -41753   -41967   -42204   -42440   -42650   -42809   -42929 
  -43066   -43222   -43366   -43514   -43678   -43817   -43909   -43956 
  -43960   -43937   -43896   -43827   -43745   -43693   -43671   -43623 
  -43526   -43403   -43281   -43180   -43088   -42962   -42784   -42595 
  -42425   -42250   -42052   -41864   -41723   -41645   -41618   -41608 
  -41597   -41584   -41566   -41562   -41606   -41690   -41778   -41852 
  -41893   -41897   -41874   -41811   -41712   -41606   -41512   -41434 
  -41373   -41306   -41218   -41130   -41031   -40894   -40756   -40665 
  -40583   -40475   -40360   -40257   -40170   -40101   -40039   -39973 
  -39887   -39781   -39678   -39592   -39507   -39400   -39271   -39154 
  -39075   -39025   -38989   -38985   -39060   -39240   -39491   -39751 
  -39981   -40173   -40338   -40500   -40679   -40876   -41076   -41259 
  -41420   -41564   -41669   -41698   -41669   -41659   -41701   -41744 
  -41723   -41641   -41529   -41388   -41224   -41035   -40813   -40608 
  -40493   -40450   -40411   -40354   -40287   -40219   -40182   -40176 
  -40147   -40078   -40026   -40005   -39990   -40000   -40062   -40159 
  -40253   -40325   -40378   -40434   -40513   -40594   -40637   -40645 
  -40642   -40617   -40563   -40506   -40448   -40367   -40273   -40182 
  -40065   -39915   -39763   -39618   -39473   -39335   -39193   -39022 
  -38833   -38660   -38546   -38530   -38636   -38833   -39059   -39289 
  -39533   -39774   -39983   -40167   -40339   -40476   -40560   -40597 
  -40580   -40493   -40350   -40196   -40038   -39867   -39705   -39551 
  -39368   -39185   -39059   -38969   -38856   -38724   -38602   -38514 
  -38474   -38486   -38535   -38616   -38726   -38855   -39012   -39214 
  -39442   -39651   -39853   -40075   -40287   -40458   -40597   -40717 
  -40799   -40811   -40751   -40666   -40611   -40588   -40575   -40567 
  -40552   -40504   -40435   -40371   -40319   -40281   -40242   -40186 
  -40152   -40187   -40249   -40278   -40295   -40347   -40441   -40586 
  -40777   -40978   -41187   -41420   -41632   -41768   -41847   -41911 
  -41961   -41993   -41997   -41957   -41880   -41791   -41699   -41587 
  -41462   -41374   -41339   -41327   -41330   -41367   -41423   -41469 
  -41509   -41552   -41596   -41652   -41718   -41772   -41810   -41822 
  -41780   -41693   -41587   -41459   -41306   -41153   -41024   -40927 
  -40857   -40804   -40765   -40764   -40823   -40921   -41012   -41090 
  -41179   -41275   -41375   -41512   -41692   -41866   -42015   -42166 
  -42312   -42419   -42462   -42421   -42328   -42232   -42129   -42000 
  -41856   -41700   -41529   -41359   -41201   -41057   -40954   -40902 
  -40844   -40755   -40681   -40649   -40637   -40618   -40605   -40624 
  -40651   -40651   -40619   -40569   -40532   -40529   -40553   -40580 
  -40595   -40621   -40687   -40787   -40870   -40888   -40865   -40850 
  -40848   -40866   -40897   -40881   -40812   -40759   -40741   -40723 
  -40693   -40647   -40556   -40415   -40258   -40089   -39879   -39636 
  -39407   -39224   -39085   -38984   -38886   -38771   -38651   -38525 
  -38388   -38241   -38114   -38030   -37974   -37915   -37838   -37743 
  -37634   -37504   -37358   -37204   -37036   -36839   -36622   -36424 
  -36274   -36170   -36105   -36090   -36133   -36219   -36327   -36449 
  -36578   -36727   -36925   -37155   -37360   -37504   -37600   -37680 
  -37744   -37769   -37749   -37684   -37564   -37420   -37320   -37288 
  -37285   -37300   -37361   -37470   -37614   -37795   -38001   -38212 
  -38435   -38667   -38881   -39050   -39162   -39234   -39299   -39397 
  -39548   -39731   -39918   -40092   -40250   -40400   -40525   -40613 
  -40700   -40811   -40918   -41011   -41117   -41262   -41427   -41575 
  -41728   -41945   -42225   -42509   -42764   -42999   -43233   -43473 
  -43714   -43945   -44145   -44296   -44401   -44459   -44452   -44386 
  -44290   -44199   -44138   -44119   -44136   -44171   -44225   -44297 
  -44387   -44500   -44631   -44759   -44874   -44973   -45046   -45090 
  -45120   -45132   -45122   -45104   -45093   -45072   -45039   -45019 
  -45018   -44999   -44946   -44877   -44806   -44726   -44638   -44546 
  -44445   -44338   -44213   -44042   -43830   -43605   -43370   -43134 
  -42920   -42753   -42613   -42460   -42297   -42164   -42085   -42053 
  -42037   -42008   -41952   -41873   -41781   -41664   -41507   -41318 
  -41098   -40834   -40546   -40272   -40018   -39772   -39535   -39320 
  -39133   -38966   -38825   -38734   -38692   -38684   -38692   -38687 
  -38655   -38605   -38549   -38498   -38464   -38440   -38402   -38342 
  -38265   -38168   -38059   -37963   -37890   -37858   -37892   -37967 
  -38033   -38078   -38106   -38121   -38151   -38191   -38204   -38214 
  -38266   -38345   -38417   -38485   -38578   -38697   -38826   -38969 
  -39128   -39293   -39438   -39527   -39557   -39544   -39515   -39507 
  -39519   -39515   -39494   -39487   -39515   -39566   -39623   -39694 
  -39801   -39942   -40113   -40318   -40537   -40746   -40951   -41156 
  -41329   -41444   -41490   -41478   -41467   -41506   -41596   -41707 
  -41801   -41871   -41941   -42017   -42080   -42124   -42161   -42197 
  -42230   -42261   -42273   -42236   -42167   -42104   -42058   -42017 
  -41968   -41900   -41808   -41692   -41563   -41429   -41292   -41159 
  -41031   -40899   -40778   -40697   -40654   -40630   -40632   -40672 
  -40734   -40798   -40851   -40882   -40895   -40888   -40815   -40660 
  -40467   -40278   -40101   -39935   -39782   -39637   -39474   -39294 
  -39132   -39006   -38905   -38829   -38785   -38774   -38787   -38817 
  -38850   -38856   -38834   -38806   -38790   -38781   -38760   -38712 
  -38635   -38534   -38416   -38298   -38208   -38158   -38149   -38193 
  -38297   -38430   -38559   -38704   -38880   -39067   -39250   -39425 
  -39583   -39719   -39817   -39856   -39862   -39869   -39870   -39866 
  -39885   -39915   -39944   -39986   -40043   -40093   -40142   -40209 
  -40277   -40323   -40369   -40429   -40482   -40500   -40467   -40393 
  -40314   -40245   -40199   -40195   -40220   -40243   -40267   -40324 
  -40417   -40516   -40595   -40663   -40756   -40887   -41040   -41212 
  -41393   -41548   -41682   -41813   -41909   -41945   -41939   -41909 
  -41864   -41832   -41831   -41822   -41784   -41768   -41806   -41875 
  -41951   -42025   -42071   -42082   -42091   -42114   -42131   -42147 
  -42198   -42287   -42383   -42473   -42563   -42648   -42721   -42790 
  -42858   -42913   -42944   -42951   -42932   -42875   -42791   -42702 
  -42610   -42505   -42384   -42238   -42063   -41868   -41669   -41503 
  -41402   -41337   -41274   -41226   -41197   -41151   -41067   -40970 
  -40891   -40847   -40828   -40815   -40807   -40818   -40856   -40902 
  -40938   -40950   -40942   -40934   -40933   -40938   -40935   -40912 
  -40887   -40886   -40914   -40961   -41015   -41058   -41075   -41048 
  -40958   -40824   -40683   -40558   -40465   -40405   -40363   -40329 
  -40314   -40320   -40344   -40391   -40453   -40508   -40556   -40600 
  -40623   -40648   -40710   -40792   -40861   -40919   -40973   -41027 
  -41087   -41134   -41142   -41126   -41125   -41143   -41155   -41145 
  -41105   -41041   -40963   -40874   -40783   -40694   -40587   -40449 
  -40307   -40191   -40097   -39998   -39878   -39767   -39693   -39638 
  -39574   -39500   -39446   -39449   -39495   -39541   -39566   -39573 
  -39577   -39582   -39571   -39545   -39534   -39556   -39592   -39619 
  -39637   -39660   -39695   -39724   -39733   -39741   -39769   -39819 
  -39870   -39902   -39914   -39908   -39888   -39868   -39863   -39863 
  -39863   -39875   -39909   -39949   -39975   -39973   -39945   -39897 
  -39820   -39713   -39595   -39472   -39340   -39220   -39139   -39091 
  -39051   -39008   -38967   -38919   -38870   -38837   -38809   -38773 
  -38745   -38745   -38772   -38833   -38928   -39032   -39119   -39188 
  -39257   -39335   -39401   -39431   -39433   -39420   -39384   -39333 
  -39290   -39270   -39280   -39316   -39370   -39440   -39521   -39602 
  -39691   -39795   -39903   -40002   -40084   -40154   -40222   -40274 
  -40307   -40349   -40413   -40482   -40553   -40640   -40735   -40833 
  -40945   -41065   -41186   -41300   -41370   -41363   -41310   -41242 
  -41174   -41120   -41075   -41026   -40979   -40939   -40898   -40849 
  -40793   -40736   -40695   -40687   -40722   -40787   -40863   -40938 
  -40996   -41042   -41092   -41142   -41178   -41184   -41155   -41109 
  -41058   -40997   -40925   -40852   -40790   -40741   -40698   -40660 
  -40630   -40614   -40606   -40590   -40568   -40558   -40548   -40522 
  -40497   -40495   -40518   -40545   -40551   -40559   -40603   -40661 
  -40696   -40698   -40674   -40642   -40617   -40589   -40554   -40520 
  -40485   -40438   -40382   -40343   -40340   -40368   -40399   -40420 
  -40445   -40497   -40585   -40714   -40881   -41053   -41198   -41311 
  -41395   -41453   -41494   -41528   -41560   -41606   -41676   -41771 
  -41864   -41932   -41976   -42008   -42032   -42041   -42028   -41989 
  -41935   -41876   -41818   -41766   -41726   -41698   -41687   -41707 
  -41752   -41792   -41830   -41886   -41949   -41991   -41999   -41970 
  -41909   -41831   -41746   -41654   -41550   -41432   -41305   -41186 
  -41089   -40988   -40865   -40748   -40654   -40570   -40497   -40435 
  -40369   -40291   -40207   -40107   -39984   -39853   -39712   -39549 
  -39388   -39260   -39151   -39042   -38941   -38856   -38785   -38736 
  -38702   -38668   -38646   -38628   -38595   -38567   -38556   -38539 
  -38520   -38535   -38578   -38625   -38677   -38730   -38760   -38772 
  -38791   -38835   -38906   -39013   -39140   -39266   -39392   -39516 
  -39618   -39693   -39759   -39818   -39869   -39916   -39944   -39934 
  -39894   -39840   -39783   -39735   -39698   -39657   -39610   -39573 
