Origin Time       2025/01/13 21:19:00
Lat.              31.8
Long.             131.6
Depth. (km)       30
Mag.              6.9
Station Code      KGSH05
Station Lat.      31.8699
Station Long.     130.4958
Station Height(m) 73.342
Record Time       2025/01/13 21:19:49
Sampling Freq(Hz) 100Hz
Duration Time(s)  229
Dir.              6
Scale Factor      7845(gal)/8223790
Max. Acc. (gal)   6.208
Last Correction   2025/01/13 21:19:50
Memo.             
[...]
   11442    11331    11298    11253    11168    11059    10986    11102 
   11533    12191    12830    13255    13451    13552    13713    13959 
   14207    14366    14373    14208    13936    13691    13630    13788 
   14037    14218    14277    14241    14187    14189    14258    14392 
   14544    14594    14469    14197    13883    13657    13540    13437 
   13319    13215    13092    12887    12576    12244    12067    12172 
   12517    12930    13240    13373    13312    13078    12783    12575 
   12536    12665    12857    12953    12901    12761    12613    12532 
   12513    12452    12258    11971    11743    11709    11889    12183 
   12441    12564    12555    12534    12653    12935    13274    13564 
   13691    13568    13254    12923    12735    12757    12919    13035 
   12961    12756    12654    12826    13208    13568    13705    13572 
   13293    13055    12992    13117    13342    13574    13786    13981 
   14149    14239    14230    14157    14089    14098    14188    14318 
   14496    14769    15117    15433    15546    15372    15010    14683 
   14569    14679    14881    14999    14983    14912    14843    14773 
   14748    14883    15218    15641    15962    16052    15877    15431 
   14789    14131    13629    13313    13089    12860    12665    12680 
   13005    13549    14149    14723    15249    15700    16031    16175 
   16116    15921    15728    15620    15522    15244    14674    13910 
   13203    12775    12687    12860    13170    13504    13764    13921 
   14031    14218    14547    14947    15242    15260    14905    14206 
   13258    12197    11163    10241     9467     8899     8634     8725 
    9066     9478     9832    10041    10154    10322    10575    10866 
   11195    11583    12024    12472    12883    13255    13525    13614 
   13582    13552    13602    13737    13868    13953    14014    13976 
   13778    13506    13221    12937    12752    12704    12694    12648 
   12584    12576    12668    12772    12806    12858    13049    13346 
   13603    13709    13629    13412    13174    13061    13149    13405 
   13782    14251    14698    14966    14998    14860    14671    14511 
   14319    13956    13431    12957    12733    12796    13069    13404 
   13641    13747    13753    13660    13518    13468    13579    13806 
   14038    14107    13872    13335    12684    12178    11943    11925 
   12000    12116    12318    12611    12853    12883    12677    12355 
   12121    12137    12386    12692    12896    12997    13157    13485 
   13969    14544    15103    15529    15805    15997    16154    16276 
   16337    16290    16067    15666    15188    14766    14454    14206 
   13956    13667    13333    13004    12760    12636    12591    12586 
   12657    12865    13185    13491    13664    13717    13697    13579 
   13382    13165    12965    12830    12785    12812    12910    13099 
   13347    13554    13683    13825    14015    14175    14246    14204 
   14052    13892    13803    13778    13763    13733    13740    13792 
   13865    13934    13967    13981    13994    13984    13929    13814 
   13725    13747    13903    14179    14431    14490    14323    14015 
   13717    13520    13377    13163    12830    12449    12133    12001 
   12112    12359    12563    12573    12313    11858    11394    11190 
   11445    12029    12626    13045    13311    13516    13730    13961 
   14162    14324    14413    14308    13977    13549    13243    13220 
   13427    13643    13686    13528    13228    12895    12638    12526 
   12569    12731    12914    12984    12847    12550    12287    12236 
   12382    12568    12673    12714    12788    12947    13150    13373 
   13616    13822    13902    13795    13504    13100    12692    12436 
   12452    12681    12881    12879    12785    12846    13153    13635 
   14161    14527    14559    14287    13842    13363    12982    12749 
   12648    12675    12800    12953    13073    13161    13289    13498 
   13713    13810    13760    13644    13537    13467    13427    13356 
   13212    13066    13014    13063    13211    13487    13983    14752 
   15691    16586    17290    17728    17790    17378    16545    15514 
   14534    13780    13332    13134    13074    13085    13166    13304 
   13398    13377    13278    13153    12943    12580    12140    11813 
   11716    11804    11947    12073    12216    12406    12517    12351 
   11913    11410    10982    10631    10304     9987     9803     9949 
   10463    11196    12009    12845    13609    14168    14539    14832 
   14985    14817    14314    13660    13069    12673    12492    12479 
   12598    12845    13185    13529    13778    13886    13890    13882 
   13938    14019    14025    13938    13825    13725    13655    13603 
   13558    13527    13490    13424    13346    13315    13398    13563 
   13647    13554    13321    13011    12696    12472    12422    12582 
   12880    13198    13548    14025    14632    15215    15561    15588 
   15337    14820    14013    12987    11965    11244    10983    11088 
   11338    11554    11674    11750    11869    12029    12170    12271 
   12326    12272    12060    11821    11827    12220    12900    13740 
   14682    15574    16150    16225    15793    15043    14303    13837 
   13690    13741    13903    14212    14642    15013    15161    15032 
   14694    14412    14445    14782    15195    15421    15279    14751 
   14044    13475    13204    13207    13524    14216    15067    15662 
   15817    15699    15568    15504    15345    14914    14303    13884 
   13967    14449    14925    15183    15358    15577    15720    15674 
   15523    15367    15174    14859    14454    14072    13733    13410 
   13153    13015    12993    13046    13058    12910    12644    12467 
   12440    12370    12167    11983    11931    11909    11750    11411 
   11057    10945    11149    11476    11740    11900    11912    11724 
   11389    11059    10856    10809    10935    11257    11685    12104 
   12625    13454    14530    15530    16194    16457    16325    15846 
   15229    14771    14632    14688    14638    14269    13612    12861 
   12208    11765    11573    11623    11861    12102    12154    12021 
   11840    11699    11649    11758    12101    12637    13099    13257 
   13217    13225    13304    13277    13066    12802    12681    12788 
   13024    13293    13690    14327    15098    15769    16187    16416 
   16592    16773    16974    17169    17250    17084    16545    15595 
   14404    13293    12553    12253    12259    12467    12792    13095 
   13344    13693    14299    15093    15750    16032    15900    15344 
   14423    13344    12353    11658    11335    11248    11182    11095 
   11155    11515    12102    12622    12788    12553    12113    11676 
   11334    11099    10959    10881    10844    10870    10972    11044 
   10951    10725    10519    10411    10417    10515    10609    10690 
   10847    11065    11202    11226    11304    11626    12236    13031 
   13832    14524    15145    15780    16362    16665    16487    15786 
   14709    13501    12330    11334    10678    10392    10330    10392 
   10675    11290    12191    13231    14268    15240    16191    17172 
   18022    18446    18372    17986    17514    17074    16591    15924 
   14998    13856    12698    11758    11179    11022    11124    11110 
   10752    10129     9460     8964     8781     8973     9505    10216 
   10936    11616    12271    12922    13676    14596    15495    16128 
   16430    16471    16291    15909    15403    14958    14729    14679 
   14569    14187    13508    12658    11855    11392    11508    12159 
   12976    13539    13707    13729    13972    14542    15223    15704 
   15816    15657    15514    15611    15888    16087    16035    15684 
   15002    14030    12947    11990    11295    10849    10558    10349 
   10214    10253    10644    11439    12525    13744    14922    15840 
   16330    16391    16235    16154    16279    16576    16927    17147 
   17059    16630    15997    15466    15309    15457    15552    15279 
   14625    13846    13228    12858    12567    12071    11269    10345 
    9533     8955     8649     8598     8770     9219     9904    10577 
   11033    11321    11558    11753    11907    12155    12694    13562 
   14597    15522    16098    16272    16150    15876    15535    15084 
   14463    13732    12978    12213    11449    10831    10586    10806 
   11334    11900    12260    12325    12172    11936    11734    11678 
   11836    12213    12783    13463    14067    14457    14662    14767 
   14867    14989    15052    15059    15113    15269    15577    16090 
   16696    17084    16939    16222    15256    14532    14358    14598 
   14879    15068    15322    15691    15993    16113    16106    16100 
   16183    16318    16428    16440    16150    15484    14683    13880 
   12943    11885    10941    10264     9844     9647     9643     9787 
   10007    10212    10332    10408    10536    10732    10982    11323 
   11686    11916    11992    12062    12339    12887    13570    14268 
   14995    15839    16819    17748    18293    18311    18018    17736 
   17601    17486    17147    16497    15655    14775    13945    13161 
   12407    11718    11092    10486     9892     9382     9097     9134 
    9390     9693     9992    10331    10713    11110    11511    11874 
   12131    12318    12538    12842    13235    13698    14234    14824 
   15385    15877    16340    16784    17126    17301    17304    17111 
   16710    16154    15597    15230    15078    15005    14917    14864 
   14960    15225    15526    15708    15743    15709    15678    15670 
   15665    15661    15672    15628    15415    15026    14592    14230 
   13872    13312    12546    11793    11188    10754    10542    10555 
   10685    10779    10797    10816    10921    11184    11566    11805 
   11659    11210    10754    10511    10525    10764    11144    11495 
   11619    11419    10951    10405    10076    10137    10450    10755 
   10918    10998    11169    11500    11861    12096    12148    12075 
   12028    12100    12258    12503    12879    13350    13922    14665 
   15553    16434    17132    17497    17458    17046    16386    15688 
   15159    14856    14696    14600    14528    14443    14345    14227 
   14040    13770    13446    13100    12729    12324    11912    11526 
   11200    10935    10696    10467    10278    10162    10112    10135 
   10346    10840    11560    12355    13084    13680    14200    14723 
   15237    15612    15715    15557    15236    14823    14407    14146 
   14165    14450    14913    15441    15849    16001    15955    15793 
   15515    15163    14818    14546    14395    14319    14249    14195 
   14158    14157    14249    14373    14466    14524    14416    14077 
   13745    13606    13597    13597    13514    13343    13181    13127 
   13213    13347    13402    13414    13444    13389    13198    13057 
   13131    13400    13776    14153    14409    14582    14800    15086 
   15427    15835    16290    16748    17113    17298    17338    17332 
   17273    17035    16521    15754    14829    13921    13200    12706 
   12340    11951    11410    10782    10249     9807     9337     8861 
    8522     8494     8849     9427     9941    10181    10130     9954 
    9868     9968    10250    10647    11033    11279    11302    11157 
   11038    11094    11230    11223    10986    10606    10210     9964 
   10068    10627    11569    12665    13608    14175    14415    14535 
   14661    14882    15283    15750    16067    16156    16106    16089 
   16198    16343    16425    16444    16414    16341    16241    16085 
   15863    15624    15356    14985    14466    13864    13360    13031 
   12734    12363    12009    11831    11878    12073    12313    12550 
   12781    13018    13297    13676    14142    14627    15124    15666 
   16222    16671    16939    17096    17238    17409    17641    17921 
   18179    18316    18222    17853    17259    16515    15742    15059 
   14511    14041    13478    12685    11745    10831    10000     9243 
    8575     8023     7674     7657     7947     8403     8922     9459 
    9992    10459    10750    10828    10790    10735    10697    10670 
   10640    10589    10492    10339    10158    10012     9909     9806 
    9714     9660     9672     9828    10184    10692    11232    11726 
   12177    12660    13227    13857    14523    15217    15924    16610 
   17199    17568    17583    17197    16532    15784    15138    14678 
   14326    13976    13676    13524    13527    13674    13937    14258 
   14585    14844    14999    15106    15167    15149    15082    14980 
   14840    14673    14531    14493    14592    14793    15024    15198 
   15299    15407    15533    15557    15396    15114    14820    14573 
   14391    14284    14308    14489    14724    14852    14786    14532 
   14202    13919    13730    13614    13548    13491    13439    13437 
   13532    13701    13867    13992    14152    14434    14824    15267 
   15726    16170    16563    16872    17132    17386    17597    17732 
   17795    17784    17643    17351    17041    16845    16708    16494 
   16150    15681    15082    14368    13581    12796    12104    11522 
   10991    10497    10072     9755     9576     9487     9331     9016 
    8649     8390     8240     8060     7788     7487     7215     7001 
    6909     7029     7387     7896     8379     8730     9005     9313 
    9702    10146    10562    10832    10945    11026    11209    11533 
   11981    12533    13144    13678    14029    14251    14457    14752 
   15253    15977    16731    17308    17651    17759    17647    17401 
   17109    16785    16390    15907    15394    14955    14674    14555 
   14593    14798    15129    15475    15673    15589    15222    14713 
   14227    13873    13687    13633    13668    13801    14003    14188 
   14338    14516    14713    14844    14887    14839    14643    14335 
   14006    13694    13466    13344    13250    13140    13039    12997 
   13036    13099    13093    12982    12795    12631    12576    12598 
   12668    12854    13138    13394    13559    13655    13741    13864 
   14014    14160    14249    14170    13900    13544    13155    12741 
   12348    12025    11804    11708    11703    11719    11772    11954 
   12298    12789    13393    14025    14574    14980    15234    15377 
   15433    15348    15110    14813    14531    14295    14118    13980 
   13873    13775    13616    13401    13211    13085    12993    12896 
   12806    12781    12826    12850    12791    12677    12586    12580 
   12685    12873    13076    13217    13275    13271    13257    13313 
   13520    13856    14184    14392    14473    14450    14368    14312 
   14384    14592    14805    14883    14840    14760    14682    14602 
   14508    14364    14156    13914    13675    13474    13329    13247 
   13261    13397    13614    13833    14004    14114    14161    14158 
   14100    13994    13886    13790    13668    13487    13265    13016 
   12749    12487    12231    11927    11565    11209    10883    10593 
   10405    10370    10430    10524    10635    10728    10752    10678 
   10536    10412    10345    10328    10363    10411    10423    10436 
   10489    10554    10636    10771    10920    11006    10998    10959 
   11026    11249    11514    11703    11799    11815    11746    11624 
   11569    11691    11992    12382    12738    12968    13069    13116 
   13211    13427    13782    14211    14639    15025    15356    15661 
   16036    16586    17273    17921    18374    18584    18574    18451 
   18385    18484    18692    18852    18781    18347    17609    16762 
   15971    15310    14797    14418    14104    13736    13259    12753 
   12355    12150    12118    12194    12348    12584    12860    13073 
   13205    13362    13608    13845    13936    13855    13684    13509 
   13323    13131    13031    13101    13277    13410    13431    13397 
   13387    13404    13483    13710    14068    14430    14656    14670 
   14505    14292    14173    14249    14499    14770    14926    14970 
   15021    15249    15720    16305    16833    17185    17315    17334 
   17394    17481    17537    17574    17541    17370    17101    16783 
   16403    15966    15512    15136    14905    14752    14570    14359 
   14173    14019    13871    13711    13556    13424    13311    13211 
   13153    13134    13142    13177    13186    13074    12814    12445 
   12025    11612    11256    10979    10767    10578    10363    10089 
    9774     9464     9209     9062     9015     9011     9019     9050 
    9123     9244     9447     9732    10030    10280    10450    10524 
   10540    10525    10447    10292    10142    10084    10131    10265 
   10496    10782    10979    10967    10814    10685    10655    10728 
   10908    11238    11745    12330    12866    13323    13743    14166 
   14577    14909    15113    15167    15070    14890    14720    14596 
   14499    14373    14181    13938    13707    13593    13630    13705 
   13699    13620    13517    13459    13481    13543    13599    13636 
   13680    13756    13829    13861    13895    14037    14338    14723 
   15055    15244    15271    15195    15084    14970    14871    14778 
   14661    14515    14366    14242    14137    14017    13873    13721 
   13552    13352    13140    12954    12827    12758    12725    12675 
   12532    12260    11909    11569    11300    11113    11005    10983 
   11026    11080    11087    11013    10912    10910    11065    11290 
   11438    11442    11369    11331    11357    11398    11442    11524 
   11662    11835    11998    12133    12297    12579    12972    13331 
   13555    13693    13828    14027    14372    14889    15539    16212 
   16760    17134    17386    17523    17498    17301    16981    16582 
   16059    15356    14558    13872    13414    13139    12914    12652 
   12398    12252    12229    12235    12197    12147    12170    12302 
   12533    12853    13234    13586    13838    13990    14062    14094 
   14099    14077    14071    14127    14222    14322    14439    14617 
   14920    15363    15866    16330    16703    16951    17055    16993 
   16753    16379    15974    15620    15329    15075    14868    14704 
   14561    14439    14362    14343    14399    14500    14570    14569 
   14538    14542    14573    14543    14370    14050    13676    13359 
   13082    12766    12434    12177    12027    11961    11955    11966 
   11935    11871    11846    11913    12039    12123    12132    12101 
   12079    12137    12309    12552    12803    13027    13192    13254 
   13243    13266    13401    13616    13792    13824    13690    13446 
   13150    12843    12573    12378    12217    12019    11785    11592 
   11514    11574    11719    11808    11722    11481    11219    11059 
   11041    11138    11303    11495    11664    11789    11921    12128 
   12411    12717    13008    13258    13451    13662    14002    14450 
   14844    15029    14974    14766    14512    14272    14098    14015 
   13968    13867    13706    13563    13514    13589    13733    13876 
   13969    13996    13965    13906    13838    13790    13752    13693 
