Origin Time       2025/01/13 21:19:00
Lat.              31.8
Long.             131.6
Depth. (km)       30
Mag.              6.9
Station Code      KGSH03
Station Lat.      31.9812
Station Long.     130.4438
Station Height(m) 110.11
Record Time       2025/01/13 21:19:50
Sampling Freq(Hz) 100Hz
Duration Time(s)  168
Dir.              6
Scale Factor      3920(gal)/6170801
Max. Acc. (gal)   3.046
Last Correction   2025/01/13 21:19:35
Memo.             
[...]
  -43784   -43770   -43787   -43868   -43963   -44016   -44029   -43995 
  -43898   -43756   -43592   -43473   -43470   -43509   -43484   -43414 
  -43315   -43136   -42938   -42855   -42932   -43107   -43295   -43476 
  -43689   -43949   -44164   -44181   -44007   -43849   -43849   -43954 
  -44118   -44347   -44529   -44570   -44607   -44785   -45029   -45185 
  -45192   -45093   -44971   -44868   -44732   -44448   -43993   -43532 
  -43267   -43201   -43172   -43115   -43107   -43214   -43425   -43634 
  -43724   -43689   -43624   -43628   -43694   -43706   -43618   -43540 
  -43618   -43949   -44492   -45039   -45434   -45718   -45972   -46191 
  -46359   -46479   -46492   -46352   -46141   -45927   -45657   -45291 
  -44926   -44743   -44883   -45364   -46029   -46620   -47008   -47285 
  -47548   -47711   -47644   -47364   -46975   -46569   -46230   -45992 
  -45832   -45744   -45704   -45631   -45492   -45349   -45245   -45158 
  -45084   -45002   -44868   -44695   -44581   -44618   -44721   -44684 
  -44492   -44303   -44154   -44004   -43860   -43678   -43415   -43176 
  -43065   -43008   -42917   -42844   -42865   -43011   -43254   -43501 
  -43714   -43977   -44303   -44575   -44773   -44997   -45299   -45670 
  -46080   -46472   -46803   -47092   -47412   -47797   -48140   -48286 
  -48193   -47950   -47686   -47429   -47103   -46712   -46379   -46168 
  -46032   -45952   -45921   -45846   -45627   -45271   -44876   -44538 
  -44286   -44105   -44022   -44093   -44293   -44487   -44568   -44532 
  -44399   -44181   -43944   -43759   -43622   -43505   -43444   -43552 
  -43909   -44440   -44992   -45443   -45715   -45835   -45905   -45947 
  -45878   -45660   -45396   -45178   -44977   -44794   -44758   -44926 
  -45144   -45262   -45290   -45242   -45119   -45028   -45045   -45076 
  -44996   -44775   -44473   -44197   -44051   -44076   -44176   -44195 
  -44103   -44057   -44198   -44449   -44667   -44905   -45254   -45614 
  -45861   -45995   -46032   -45935   -45698   -45327   -44882   -44523 
  -44355   -44327   -44345   -44365   -44349   -44293   -44282   -44357 
  -44416   -44373   -44293   -44288   -44363   -44424   -44459   -44547 
  -44656   -44688   -44649   -44589   -44545   -44582   -44755   -45012 
  -45224   -45365   -45557   -45871   -46223   -46498   -46642   -46664 
  -46633   -46631   -46676   -46732   -46753   -46663   -46395   -46035 
  -45734   -45462   -45125   -44787   -44559   -44432   -44425   -44584 
  -44800   -44939   -45053   -45214   -45382   -45519   -45637   -45723 
  -45758   -45777   -45744   -45570   -45317   -45094   -44869   -44598 
  -44304   -44001   -43698   -43455   -43345   -43324   -43312   -43376 
  -43590   -43869   -44106   -44320   -44528   -44660   -44686   -44665 
  -44621   -44535   -44489   -44591   -44761   -44877   -44977   -45101 
  -45178   -45201   -45241   -45314   -45389   -45450   -45485   -45528 
  -45658   -45887   -46084   -46137   -46093   -46031   -45973   -45925 
  -45865   -45736   -45544   -45366   -45282   -45306   -45378   -45437 
  -45480   -45572   -45774   -46029   -46201   -46257   -46283   -46289 
  -46213   -46059   -45886   -45737   -45607   -45441   -45258   -45173 
  -45166   -45102   -45005   -45032   -45208   -45422   -45618   -45810 
  -45967   -46049   -46086   -46049   -45855   -45613   -45520   -45522 
  -45417   -45223   -45130   -45145   -45106   -45015   -45005   -45040 
  -45040   -45087   -45262   -45500   -45681   -45739   -45655   -45423 
  -45140   -45001   -45084   -45235   -45278   -45248   -45289   -45426 
  -45558   -45609   -45591   -45515   -45352   -45148   -44971   -44741 
  -44347   -43855   -43417   -43070   -42746   -42439   -42259   -42248 
  -42313   -42414   -42612   -42926   -43306   -43673   -43965   -44197 
  -44443   -44657   -44676   -44503   -44337   -44241   -44108   -43927 
  -43769   -43643   -43540   -43464   -43397   -43378   -43504   -43747 
  -43985   -44197   -44440   -44707   -44983   -45258   -45432   -45450 
  -45408   -45348   -45213   -45042   -44948   -44952   -44951   -44840 
  -44658   -44505   -44384   -44265   -44166   -44081   -43985   -43929 
  -43996   -44156   -44299   -44351   -44298   -44206   -44159   -44133 
  -44091   -44078   -44087   -44048   -44008   -44065   -44206   -44354 
  -44454   -44483   -44431   -44293   -44102   -43964   -43953   -43999 
  -43980   -43937   -44015   -44218   -44431   -44610   -44762   -44869 
  -44948   -45089   -45323   -45557   -45703   -45755   -45729   -45623 
  -45429   -45161   -44901   -44727   -44616   -44545   -44530   -44529 
  -44521   -44574   -44686   -44757   -44736   -44638   -44506   -44396 
  -44357   -44368   -44335   -44238   -44185   -44211   -44223   -44173 
  -44072   -43918   -43738   -43594   -43496   -43411   -43333   -43287 
  -43258   -43209   -43182   -43271   -43471   -43683   -43873   -44095 
  -44381   -44695   -44945   -45086   -45209   -45410   -45681   -46009 
  -46409   -46844   -47274   -47669   -47962   -48141   -48286   -48417 
  -48472   -48427   -48303   -48127   -47929   -47721   -47482   -47210 
  -46936   -46703   -46528   -46403   -46336   -46330   -46330   -46257 
  -46137   -46078   -46083   -46042   -45897   -45724   -45621   -45591 
  -45570   -45526   -45471   -45434   -45434   -45451   -45447   -45451 
  -45500   -45568   -45639   -45768   -45974   -46197   -46375   -46467 
  -46411   -46209   -45941   -45656   -45354   -45046   -44744   -44468 
  -44267   -44143   -44008   -43810   -43602   -43427   -43279   -43207 
  -43263   -43363   -43410   -43434   -43492   -43581   -43710   -43881 
  -44019   -44073   -44085   -44113   -44153   -44176   -44189   -44211 
  -44260   -44380   -44580   -44788   -44963   -45119   -45250   -45317 
  -45288   -45194   -45086   -44971   -44854   -44747   -44631   -44534 
  -44527   -44598   -44663   -44694   -44724   -44795   -44901   -44973 
  -44973   -44932   -44855   -44730   -44602   -44505   -44382   -44184 
  -43981   -43847   -43770   -43755   -43816   -43915   -44046   -44258 
  -44559   -44894   -45185   -45383   -45471   -45488   -45522   -45584 
  -45588   -45533   -45472   -45378   -45272   -45251   -45320   -45396 
  -45440   -45484   -45557   -45666   -45808   -45956   -46058   -46086 
  -46073   -46085   -46126   -46111   -46008   -45900   -45843   -45820 
  -45810   -45791   -45742   -45662   -45549   -45390   -45190   -44998 
  -44880   -44798   -44686   -44605   -44644   -44786   -44987   -45204 
  -45357   -45433   -45499   -45596   -45687   -45708   -45630   -45524 
  -45514   -45640   -45844   -46086   -46348   -46592   -46783   -46915 
  -47004   -47060   -47064   -47028   -46999   -46989   -46968   -46901 
  -46791   -46651   -46478   -46278   -46059   -45786   -45459   -45142 
  -44865   -44604   -44359   -44127   -43901   -43708   -43562   -43458 
  -43412   -43460   -43602   -43765   -43886   -44016   -44196   -44374 
  -44510   -44630   -44765   -44916   -45038   -45076   -45013   -44867 
  -44665   -44437   -44232   -44102   -44020   -43921   -43808   -43713 
  -43651   -43648   -43728   -43848   -43950   -44043   -44190   -44404 
  -44625   -44813   -44979   -45142   -45307   -45451   -45550   -45620 
  -45681   -45692   -45617   -45529   -45509   -45518   -45514   -45550 
  -45657   -45785   -45901   -45999   -46066   -46104   -46111   -46049 
  -45926   -45826   -45769   -45674   -45515   -45389   -45363   -45354 
  -45247   -45071   -44917   -44781   -44652   -44562   -44506   -44429 
  -44291   -44116   -43986   -43932   -43866   -43724   -43550   -43388 
  -43235   -43101   -42986   -42875   -42765   -42667   -42593   -42553 
  -42542   -42545   -42594   -42728   -42912   -43066   -43170   -43271 
  -43384   -43472   -43539   -43633   -43765   -43903   -44024   -44130 
  -44200   -44179   -44073   -43939   -43802   -43687   -43629   -43602 
  -43598   -43681   -43836   -43957   -44031   -44131   -44270   -44415 
  -44555   -44697   -44861   -45061   -45288   -45506   -45682   -45828 
  -45957   -46041   -46095   -46165   -46251   -46328   -46391   -46431 
  -46433   -46395   -46328   -46238   -46130   -46015   -45922   -45839 
  -45689   -45431   -45130   -44857   -44631   -44470   -44377   -44317 
  -44270   -44248   -44297   -44447   -44589   -44595   -44524   -44478 
  -44437   -44403   -44430   -44502   -44567   -44622   -44666   -44673 
  -44642   -44607   -44600   -44600   -44561   -44512   -44513   -44532 
  -44504   -44451   -44394   -44308   -44231   -44243   -44338   -44465 
  -44590   -44714   -44849   -44970   -45052   -45135   -45232   -45286 
  -45297   -45323   -45356   -45347   -45294   -45208   -45091   -44957 
  -44820   -44703   -44624   -44577   -44580   -44663   -44788   -44904 
  -45011   -45103   -45139   -45123   -45110   -45150   -45249   -45397 
  -45573   -45723   -45856   -46043   -46256   -46393   -46421   -46375 
  -46294   -46202   -46112   -46037   -45953   -45792   -45557   -45341 
  -45185   -45059   -44952   -44887   -44862   -44861   -44875   -44884 
  -44889   -44901   -44889   -44843   -44816   -44851   -44966   -45144 
  -45267   -45261   -45197   -45158   -45168   -45228   -45318   -45385 
  -45378   -45308   -45230   -45179   -45141   -45074   -44973   -44885 
  -44807   -44694   -44575   -44530   -44569   -44615   -44626   -44643 
  -44701   -44786   -44877   -44927   -44902   -44875   -44966   -45163 
  -45337   -45425   -45458   -45458   -45440   -45382   -45223   -44974 
  -44703   -44447   -44227   -44058   -43944   -43907   -43935   -43972 
  -44003   -44045   -44120   -44225   -44320   -44397   -44464   -44498 
  -44539   -44634   -44693   -44639   -44550   -44525   -44567   -44649 
  -44784   -44956   -45106   -45245   -45396   -45487   -45469   -45392 
  -45290   -45168   -45072   -45057   -45118   -45218   -45343   -45508 
  -45735   -45994   -46222   -46391   -46486   -46478   -46387   -46274 
  -46159   -45998   -45781   -45585   -45445   -45310   -45155   -45013 
  -44941   -44951   -44976   -44971   -44961   -44930   -44836   -44729 
  -44683   -44672   -44629   -44570   -44545   -44565   -44583   -44538 
  -44404   -44199   -43971   -43777   -43652   -43609   -43637   -43687 
  -43713   -43760   -43931   -44214   -44491   -44724   -44970   -45241 
  -45478   -45641   -45751   -45838   -45906   -45930   -45905   -45858 
  -45796   -45686   -45517   -45315   -45095   -44857   -44623   -44421 
  -44268   -44186   -44179   -44212   -44245   -44273   -44330   -44431 
  -44541   -44646   -44770   -44905   -45011   -45079   -45142   -45203 
  -45210   -45147   -45044   -44922   -44816   -44776   -44816   -44908 
  -44997   -45063   -45144   -45251   -45344   -45402   -45423   -45390 
  -45281   -45120   -44988   -44945   -44957   -44950   -44918   -44908 
  -44949   -45012   -45031   -44996   -44988   -45063   -45166   -45234 
  -45283   -45342   -45385   -45366   -45271   -45142   -45064   -45054 
  -45052   -45033   -45040   -45101   -45185   -45244   -45256   -45233 
  -45228   -45290   -45402   -45515   -45612   -45695   -45764   -45837 
  -45912   -45954   -45956   -45977   -46046   -46102   -46102   -46093 
  -46114   -46124   -46081   -46008   -45922   -45807   -45674   -45544 
  -45428   -45349   -45311   -45281   -45252   -45249   -45260   -45236 
  -45155   -45053   -44961   -44876   -44823   -44832   -44870   -44885 
  -44891   -44935   -44984   -44989   -44962   -44903   -44818   -44768 
  -44757   -44748   -44759   -44792   -44782   -44722   -44686   -44696 
  -44710   -44697   -44653   -44589   -44530   -44476   -44391   -44266 
  -44132   -44008   -43909   -43848   -43813   -43780   -43731   -43668 
  -43615   -43573   -43501   -43391   -43288   -43214   -43163   -43143 
  -43151   -43163   -43189   -43243   -43297   -43336   -43406   -43532 
  -43669   -43788   -43870   -43897   -43910   -43966   -44041   -44077 
  -44068   -44055   -44079   -44164   -44293   -44416   -44487   -44509 
  -44538   -44617   -44710   -44786   -44865   -44960   -45044   -45114 
  -45196   -45292   -45370   -45421   -45457   -45477   -45465   -45456 
  -45504   -45598   -45686   -45749   -45812   -45880   -45919   -45920 
  -45935   -46011   -46120   -46205   -46243   -46226   -46190   -46215 
  -46311   -46435   -46566   -46692   -46797   -46849   -46845   -46865 
  -46968   -47077   -47113   -47112   -47108   -47064   -46991   -46947 
  -46911   -46824   -46711   -46623   -46580   -46618   -46753   -46916 
  -47031   -47089   -47134   -47199   -47285   -47354   -47374   -47338 
  -47246   -47099   -46920   -46755   -46631   -46527   -46397   -46222 
  -46035   -45873   -45745   -45645   -45556   -45460   -45370   -45318 
  -45337   -45416   -45494   -45525   -45507   -45481   -45486   -45496 
  -45467   -45410   -45363   -45335   -45297   -45226   -45147   -45085 
  -45035   -45007   -44994   -44971   -44947   -44955   -44987   -44991 
  -44949   -44916   -44936   -44976   -45018   -45091   -45187   -45265 
  -45307   -45323   -45340   -45384   -45460   -45541   -45587   -45599 
  -45620   -45676   -45734   -45747   -45723   -45726   -45761   -45760 
  -45709   -45654   -45631   -45633   -45642   -45679   -45792   -45952 
  -46088   -46194   -46313   -46434   -46513   -46549   -46556   -46512 
  -46400   -46260   -46116   -45947   -45732   -45468   -45174   -44898 
  -44662   -44455   -44274   -44110   -43941   -43759   -43544   -43298 
  -43056   -42816   -42535   -42207   -41883   -41616   -41432   -41295 
  -41142   -40972   -40824   -40709   -40606   -40504   -40401   -40304 
  -40223   -40189   -40226   -40341   -40501   -40655   -40787   -40924 
  -41115   -41388   -41689   -41930   -42103   -42258   -42427   -42626 
  -42841   -43021   -43139   -43209   -43269   -43373   -43520   -43632 
  -43659   -43645   -43628   -43580   -43516   -43515   -43592   -43691 
  -43789   -43902   -44034   -44197   -44377   -44534   -44643   -44700 
  -44714   -44713   -44706   -44675   -44636   -44637   -44667   -44663 
  -44621   -44600   -44617   -44633   -44644   -44703   -44833   -44995 
  -45173   -45387   -45624   -45826   -45970   -46084   -46174   -46216 
  -46196   -46131   -46069   -46054   -46084   -46121   -46142   -46163 
  -46212   -46295   -46401   -46526   -46640   -46699   -46701   -46671 
  -46617   -46537   -46438   -46343   -46265   -46200   -46170   -46222 
  -46364   -46558   -46760   -46944   -47105   -47237   -47335   -47400 
  -47426   -47417   -47395   -47353   -47269   -47168   -47102   -47069 
  -47037   -46993   -46931   -46836   -46702   -46567   -46456   -46341 
  -46184   -45993   -45786   -45571   -45368   -45192   -45020   -44835 
  -44669   -44557   -44482   -44413   -44357   -44347   -44384   -44429 
  -44467   -44531   -44636   -44739   -44810   -44887   -44986   -45063 
  -45101   -45133   -45173   -45207   -45268   -45402   -45585   -45761 
  -45922   -46093   -46279   -46470   -46652   -46816   -46954   -47079 
  -47209   -47325   -47391   -47411   -47422   -47435   -47433   -47397 
  -47331   -47269   -47250   -47301   -47399   -47489   -47544   -47576 
  -47606   -47646   -47699   -47734   -47709   -47615   -47478   -47331 
  -47209   -47115   -47008   -46844   -46637   -46449   -46303   -46181 
  -46064   -45942   -45799   -45639   -45486   -45346   -45185   -44992 
  -44801   -44634   -44472   -44290   -44107   -43974   -43906   -43853 
  -43762   -43635   -43496   -43340   -43167   -43013   -42881   -42749 
  -42633   -42546   -42472   -42415   -42391   -42400   -42442   -42492 
  -42514   -42514   -42538   -42607   -42693   -42786   -42914   -43079 
  -43258   -43433   -43587   -43723   -43862   -44000   -44108   -44171 
  -44199   -44229   -44284   -44349   -44420   -44523   -44673   -44854 
  -45048   -45229   -45368   -45468   -45552   -45609   -45602   -45530 
  -45443   -45387   -45359   -45335   -45294   -45214   -45095   -44957 
  -44811   -44658   -44499   -44323   -44116   -43886   -43671   -43514 
  -43405   -43303   -43189   -43083   -43004   -42971   -42997   -43063 
  -43137   -43228   -43374   -43586   -43835   -44084   -44323   -44545 
  -44724   -44854   -44961   -45065   -45160   -45230   -45275   -45274 
  -45229   -45200   -45206   -45189   -45117   -45022   -44944   -44896 
  -44883   -44899   -44915   -44898   -44873   -44880   -44899   -44887 
  -44847   -44796   -44727   -44642   -44573   -44549   -44550   -44546 
  -44548   -44573   -44612   -44658   -44722   -44814   -44934   -45079 
  -45238   -45391   -45524   -45656   -45818   -46018   -46219   -46390 
  -46532   -46659   -46765   -46840   -46881   -46879   -46829   -46746 
  -46644   -46522   -46388   -46263   -46163   -46105   -46109   -46163 
  -46223   -46250   -46250   -46260   -46310   -46391   -46467   -46512 
  -46533   -46566   -46626   -46673   -46672   -46647   -46640   -46655 
  -46658   -46643   -46652   -46694   -46720   -46700   -46625   -46484 
  -46302   -46128   -45964   -45794   -45625   -45457   -45295   -45153 
  -45029   -44911   -44771   -44597   -44420   -44276   -44175   -44121 
  -44123   -44165   -44216   -44263   -44326   -44403   -44465   -44524 
  -44604   -44703   -44808   -44898   -44964   -45013   -45047   -45070 
  -45083   -45068   -45014   -44935   -44844   -44731   -44574   -44374 
  -44139   -43882   -43626   -43392   -43177   -42980   -42807   -42657 
  -42536   -42447   -42370   -42303   -42258   -42224   -42190   -42160 
  -42143   -42152   -42167   -42152   -42107   -42069   -42069   -42112 
  -42192   -42286   -42368   -42445   -42542   -42643   -42723   -42805 
  -42905   -42988   -43026   -43045   -43069   -43119   -43207   -43299 
  -43369   -43448   -43568   -43731   -43904   -44045   -44142   -44203 
  -44238   -44245   -44216   -44167   -44120   -44058   -43970   -43892 
  -43847   -43809   -43742   -43639   -43513   -43366   -43217   -43116 
  -43066   -43027   -42986   -42951   -42946   -42988   -43062   -43132 
  -43182   -43204   -43212   -43233   -43299   -43420   -43583   -43766 
  -43979   -44239   -44522   -44796   -45062   -45322   -45566   -45789 
  -45985   -46147   -46279   -46387   -46465   -46517   -46549   -46557 
  -46540   -46504   -46464   -46436   -46410   -46347   -46236   -46101 
  -45958   -45802   -45638   -45476   -45328   -45206   -45129   -45103 
  -45109   -45117   -45118   -45132   -45176   -45248   -45337   -45444 
  -45580   -45747   -45938   -46140   -46336   -46514   -46658   -46756 
  -46797   -46793   -46762   -46716   -46663   -46600   -46523   -46444 
  -46383   -46345   -46342   -46379   -46442   -46521   -46619   -46728 
  -46827   -46907   -46974   -47039   -47097   -47130   -47138   -47122 
  -47085   -47036   -46981   -46949   -46953   -46968   -46987   -47029 
  -47085   -47131   -47174   -47222   -47263   -47282   -47293   -47317 
  -47345   -47373   -47410   -47437   -47431   -47401   -47361   -47302 
  -47208   -47065   -46875   -46653   -46410   -46154   -45896   -45645 
  -45402   -45175   -44981   -44815   -44658   -44513   -44395   -44299 
  -44215   -44139   -44072   -44039   -44053   -44104   -44182   -44288 
  -44416   -44561   -44718   -44877   -45034   -45186   -45310   -45379 
  -45406   -45411   -45398   -45375   -45347   -45291   -45204   -45110 
  -45013   -44911   -44809   -44687   -44534   -44370   -44210   -44054 
  -43888   -43712   -43550   -43412   -43293   -43197   -43143   -43140 
  -43180   -43262   -43368   -43459   -43530   -43610   -43714   -43821 
