Origin Time       2025/01/13 21:19:00
Lat.              31.8
Long.             131.6
Depth. (km)       30
Mag.              6.9
Station Code      KGSH03
Station Lat.      31.9812
Station Long.     130.4438
Station Height(m) 10.11
Record Time       2025/01/13 21:19:50
Sampling Freq(Hz) 100Hz
Duration Time(s)  168
Dir.              3
Scale Factor      2940(gal)/6170270
Max. Acc. (gal)   2.806
Last Correction   2025/01/13 21:19:35
Memo.             
[...]
   73906    74010    74105    74234    74408    74609    74812    74987 
   75107    75166    75175    75149    75115    75107    75135    75178 
   75208    75201    75175    75184    75238    75302    75386    75501 
   75595    75631    75620    75576    75507    75404    75245    75067 
   74963    74951    74955    74921    74854    74756    74625    74503 
   74420    74335    74182    73964    73750    73604    73526    73476 
   73408    73332    73325    73454    73683    73907    74098    74313 
   74567    74803    74975    75070    75111    75133    75149    75139 
   75076    74977    74897    74851    74808    74728    74557    74262 
   73897    73558    73246    72926    72612    72313    72021    71783 
   71647    71615    71667    71785    71967    72221    72473    72603 
   72560    72367    72098    71851    71608    71292    70933    70645 
   70493    70473    70577    70781    71030    71294    71556    71798 
   72032    72275    72501    72671    72792    72903    73040    73215 
   73398    73554    73653    73708    73814    74004    74178    74296 
   74397    74495    74606    74781    75006    75199    75344    75486 
   75615    75690    75684    75597    75456    75290    75087    74825 
   74544    74292    74031    73718    73363    72969    72537    72108 
   71728    71379    71000    70607    70285    70083    69999    69998 
   70057    70205    70453    70749    71044    71327    71590    71808 
   71978    72141    72334    72556    72781    73012    73274    73566 
   73834    74013    74123    74212    74277    74333    74412    74500 
   74565    74609    74644    74660    74634    74527    74328    74059 
   73758    73481    73261    73069    72875    72704    72604    72565 
   72549    72584    72705    72861    72967    73026    73095    73172 
   73254    73375    73502    73574    73612    73671    73789    73975 
   74201    74402    74519    74559    74590    74660    74700    74615 
   74434    74264    74105    73859    73535    73210    72904    72629 
   72429    72328    72346    72477    72652    72813    72966    73133 
   73312    73476    73618    73739    73797    73790    73800    73852 
   73877    73851    73813    73778    73724    73648    73584    73551 
   73518    73472    73414    73326    73222    73155    73135    73088 
   72946    72741    72556    72428    72344    72267    72174    72070 
   71968    71885    71859    71927    72064    72197    72328    72524 
   72784    73043    73265    73420    73480    73482    73493    73505 
   73458    73350    73221    73080    72928    72782    72642    72503 
   72410    72381    72385    72436    72573    72778    73030    73320 
   73607    73846    74039    74211    74347    74421    74455    74489 
   74479    74377    74217    74043    73878    73755    73720    73766 
   73818    73857    73918    73977    73974    73914    73833    73723 
   73572    73406    73252    73134    73057    72978    72851    72697 
   72583    72515    72442    72356    72279    72217    72207    72276 
   72397    72518    72601    72643    72670    72707    72747    72737 
   72659    72569    72500    72420    72315    72237    72205    72203 
   72229    72277    72352    72459    72529    72514    72485    72482 
   72441    72334    72211    72106    72011    71929    71871    71828 
   71820    71895    72030    72132    72208    72359    72590    72802 
   72932    73038    73174    73272    73303    73348    73412    73414 
   73338    73232    73145    73109    73146    73238    73300    73274 
   73220    73227    73274    73275    73208    73118    73042    72985 
   72954    72978    73061    73180    73352    73625    73989    74379 
   74753    75129    75533    75933    76278    76560    76752    76806 
   76722    76521    76236    75939    75663    75357    75002    74690 
   74485    74309    74121    73994    73951    73966    74034    74130 
   74229    74338    74439    74487    74480    74464    74459    74422 
   74331    74188    73992    73787    73611    73438    73277    73185 
   73153    73133    73095    73065    73104    73205    73297    73360 
   73425    73493    73557    73651    73771    73837    73830    73800 
   73768    73755    73771    73793    73817    73859    73898    73924 
   73979    74054    74070    74034    74015    74025    74041    74074 
   74141    74241    74351    74446    74520    74620    74756    74839 
   74814    74734    74629    74480    74309    74144    73950    73711 
   73475    73256    73068    72941    72870    72843    72875    72947 
   73025    73131    73295    73495    73706    73909    74050    74111 
   74150    74213    74294    74398    74508    74570    74562    74531 
   74509    74457    74349    74230    74138    74077    74069    74122 
   74184    74223    74277    74371    74493    74641    74810    74972 
   75078    75100    75075    75035    74955    74812    74609    74370 
   74149    73942    73699    73431    73157    72847    72497    72121 
   71729    71330    70931    70516    70089    69728    69501    69402 
   69396    69443    69510    69616    69784    69991    70214    70449 
   70680    70877    71031    71162    71309    71478    71616    71712 
   71832    72014    72206    72349    72437    72501    72570    72628 
   72640    72606    72554    72516    72492    72462    72433    72411 
   72374    72294    72182    72076    71998    71966    71998    72074 
   72178    72334    72553    72828    73150    73487    73800    74096 
   74400    74695    74950    75151    75284    75332    75316    75300 
   75297    75256    75164    75063    74963    74848    74746    74663 
   74551    74416    74293    74178    74066    73964    73865    73760 
   73652    73543    73428    73304    73195    73129    73098    73088 
   73111    73171    73252    73354    73470    73558    73589    73590 
   73586    73567    73511    73419    73328    73267    73217    73160 
   73132    73141    73154    73185    73289    73465    73668    73878 
   74075    74233    74348    74431    74461    74408    74290    74139 
   73971    73807    73656    73502    73353    73265    73241    73230 
   73219    73203    73142    73041    72940    72856    72787    72726 
   72650    72548    72434    72330    72259    72221    72171    72097 
   72051    72086    72168    72236    72294    72371    72464    72559 
   72653    72749    72855    72976    73092    73180    73262    73383 
   73509    73575    73569    73500    73392    73283    73179    73057 
   72906    72741    72586    72456    72366    72297    72219    72139 
   72054    71941    71797    71635    71457    71264    71084    70939 
   70832    70762    70718    70698    70722    70806    70934    71086 
   71259    71464    71712    72013    72335    72646    72960    73288 
   73625    73975    74315    74615    74871    75061    75150    75150 
   75112    75058    74971    74839    74680    74508    74314    74084 
   73832    73592    73400    73269    73197    73177    73209    73297 
   73423    73573    73754    73968    74197    74427    74635    74791 
   74886    74949    74990    74965    74856    74690    74479    74222 
   73923    73609    73323    73086    72893    72734    72610    72543 
   72516    72475    72414    72377    72364    72343    72310    72282 
   72258    72242    72232    72233    72276    72365    72451    72504 
   72563    72668    72779    72827    72822    72841    72931    73058 
   73180    73298    73422    73539    73659    73800    73966    74128 
   74242    74324    74434    74577    74721    74862    75005    75150 
   75301    75466    75644    75829    76007    76177    76333    76447 
   76495    76489    76447    76388    76329    76250    76147    76027 
   75874    75681    75469    75249    75025    74817    74649    74520 
   74429    74378    74352    74326    74312    74321    74318    74274 
   74232    74220    74193    74130    74065    74010    73948    73865 
   73745    73597    73437    73255    73045    72830    72640    72487 
   72354    72222    72096    71983    71869    71754    71661    71602 
   71584    71608    71661    71731    71805    71903    72071    72304 
   72564    72834    73096    73344    73586    73805    73982    74106 
   74150    74140    74156    74197    74198    74178    74168    74127 
   74058    74013    73988    73965    73955    73948    73931    73895 
   73862    73874    73912    73922    73916    73921    73920    73893 
   73875    73894    73911    73895    73864    73817    73752    73681 
   73616    73554    73485    73404    73330    73262    73181    73095 
   73024    72969    72937    72942    72985    73065    73157    73231 
   73293    73353    73381    73378    73369    73352    73318    73287 
   73277    73273    73251    73210    73158    73081    72988    72888 
   72753    72584    72433    72322    72243    72197    72178    72176 
   72182    72191    72225    72299    72379    72445    72524    72632 
   72748    72847    72925    72997    73080    73176    73255    73300 
   73340    73384    73402    73380    73319    73241    73193    73166 
   73120    73074    73045    73013    72987    72983    72982    72968 
   72950    72942    72977    73058    73161    73276    73404    73537 
   73647    73699    73715    73737    73747    73729    73688    73626 
   73554    73495    73426    73302    73128    72964    72849    72778 
   72739    72711    72699    72757    72890    73051    73227    73413 
   73594    73766    73934    74097    74269    74440    74565    74620 
   74621    74600    74566    74520    74488    74460    74390    74312 
   74287    74288    74271    74240    74186    74096    73987    73888 
   73790    73663    73521    73407    73327    73289    73305    73346 
   73367    73350    73300    73228    73136    73001    72818    72618 
   72421    72226    72051    71915    71809    71739    71733    71788 
   71867    71951    72066    72217    72369    72495    72577    72623 
   72679    72751    72823    72899    72983    73061    73127    73210 
   73339    73487    73604    73688    73770    73867    73987    74121 
   74261    74398    74501    74557    74596    74628    74626    74545 
   74376    74172    73971    73757    73512    73259    73028    72826 
   72642    72483    72372    72330    72339    72375    72446    72566 
   72720    72908    73124    73338    73546    73742    73893    74000 
   74075    74115    74123    74084    73983    73856    73739    73619 
   73496    73389    73307    73242    73189    73181    73240    73327 
   73417    73518    73606    73639    73627    73603    73577    73536 
   73472    73385    73278    73168    73082    73041    73048    73080 
   73107    73131    73180    73254    73324    73361    73359    73346 
   73348    73337    73270    73167    73080    73018    72954    72900 
   72885    72909    72937    72938    72920    72919    72958    73015 
   73043    73042    73051    73079    73110    73130    73116    73073 
   73029    72969    72881    72791    72702    72599    72503    72432 
   72367    72287    72213    72175    72159    72140    72118    72110 
   72117    72143    72207    72309    72433    72571    72704    72810 
   72906    73002    73073    73105    73121    73138    73154    73158 
   73150    73133    73100    73071    73070    73093    73130    73184 
   73265    73360    73453    73550    73645    73714    73771    73827 
   73868    73908    73960    73989    73977    73957    73954    73970 
   74003    74027    74029    74030    74053    74098    74153    74217 
   74300    74394    74488    74591    74696    74776    74838    74911 
   75008    75125    75237    75321    75376    75399    75391    75360 
   75298    75213    75127    75030    74909    74783    74674    74585 
   74519    74470    74410    74333    74268    74235    74223    74209 
   74173    74110    74024    73935    73865    73804    73721    73625 
   73542    73452    73343    73242    73161    73078    72983    72885 
   72803    72758    72747    72745    72734    72713    72681    72635 
   72587    72546    72512    72484    72456    72412    72338    72242 
   72148    72065    71999    71954    71900    71812    71707    71609 
   71512    71416    71337    71289    71239    71154    71071    71040 
   71043    71049    71065    71097    71127    71153    71190    71230 
   71260    71279    71261    71188    71090    71002    70930    70857 
   70769    70659    70541    70448    70386    70349    70355    70406 
   70482    70583    70714    70876    71079    71302    71509    71701 
   71890    72075    72248    72410    72564    72693    72792    72882 
   72972    73064    73142    73171    73169    73171    73175    73167 
   73147    73118    73086    73049    73006    72968    72935    72900 
   72864    72838    72807    72760    72727    72731    72750    72760 
   72766    72780    72788    72772    72742    72723    72722    72728 
   72736    72732    72712    72700    72704    72698    72669    72633 
   72612    72597    72565    72531    72533    72564    72582    72566 
   72524    72483    72453    72420    72385    72369    72368    72356 
   72325    72279    72230    72188    72168    72196    72266    72365 
   72490    72629    72789    72980    73188    73401    73624    73858 
   74093    74331    74575    74823    75080    75334    75579    75853 
   76174    76518    76850    77155    77437    77707    77971    78212 
   78415    78590    78748    78885    78996    79091    79174    79204 
   79145    79063    79014    78920    78769    78608    78372    78074 
   77798    77532    77253    76963    76655    76333    76013    75736 
   75524    75352    75199    75055    74926    74839    74783    74723 
   74684    74686    74685    74644    74580    74501    74385    74229 
   74047    73854    73666    73484    73308    73152    73009    72881 
   72808    72786    72771    72769    72809    72897    73013    73118 
   73205    73291    73352    73366    73358    73346    73309    73226 
   73108    72977    72866    72784    72689    72603    72592    72605 
   72596    72596    72594    72586    72582    72540    72440    72304 
   72140    71957    71799    71688    71613    71573    71567    71590 
   71637    71701    71780    71865    71917    71916    71875    71817 
   71755    71685    71600    71493    71361    71206    71040    70865 
   70682    70514    70382    70271    70174    70106    70068    70058 
   70091    70166    70258    70358    70479    70632    70828    71077 
   71369    71675    71971    72262    72562    72860    73132    73374 
   73588    73766    73895    73968    74008    74027    74017    73981 
   73938    73898    73861    73803    73738    73690    73639    73588 
   73557    73530    73478    73401    73319    73232    73111    72949 
   72755    72527    72270    72010    71755    71496    71236    71008 
   70827    70659    70500    70370    70260    70181    70143    70105 
   70048    69989    69943    69920    69916    69913    69902    69882 
   69863    69851    69862    69912    69984    70071    70172    70258 
   70346    70510    70728    70911    71087    71293    71489    71693 
   71920    72132    72321    72501    72681    72857    73019    73175 
   73348    73529    73701    73865    74025    74201    74402    74611 
   74824    75041    75246    75447    75661    75869    76063    76247 
   76397    76506    76595    76666    76713    76747    76762    76743 
   76688    76600    76478    76333    76172    75986    75791    75610 
   75433    75244    75047    74859    74700    74573    74462    74360 
   74268    74186    74096    73992    73887    73787    73689    73600 
   73506    73385    73252    73135    73037    72958    72888    72812 
   72749    72713    72701    72717    72773    72864    72977    73107 
   73268    73469    73710    73977    74241    74482    74715    74948 
   75171    75369    75532    75651    75717    75740    75728    75659 
   75529    75358    75162    74943    74698    74440    74188    73947 
   73720    73512    73339    73211    73115    73048    73004    72956 
   72926    72942    72989    73046    73109    73167    73217    73270 
   73329    73389    73439    73477    73518    73569    73613    73655 
   73706    73757    73787    73795    73797    73799    73791    73764 
   73720    73658    73582    73492    73379    73245    73099    72958 
   72820    72666    72491    72311    72136    71962    71786    71618 
   71476    71355    71253    71187    71159    71152    71178    71251 
   71350    71455    71561    71644    71689    71712    71725    71729 
   71712    71657    71574    71489    71412    71342    71280    71219 
   71173    71175    71222    71281    71338    71404    71490    71585 
   71657    71695    71727    71778    71860    71970    72097    72244 
   72415    72594    72781    72971    73147    73308    73455    73585 
   73704    73825    73936    74031    74122    74192    74235    74276 
   74311    74314    74287    74244    74188    74107    74002    73886 
   73760    73636    73519    73396    73274    73170    73089    73044 
   73035    73051    73097    73179    73290    73433    73612    73827 
   74075    74352    74645    74950    75263    75562    75830    76072 
   76288    76463    76592    76697    76777    76819    76831    76829 
   76827    76826    76822    76823    76827    76822    76815    76810 
   76788    76731    76645    76545    76433    76302    76164    76035 
   75924    75817    75696    75569    75445    75332    75227    75109 
   74970    74826    74694    74579    74480    74397    74344    74328 
   74350    74400    74465    74556    74662    74751    74829    74919 
   75025    75141    75258    75371    75464    75527    75576    75622 
   75648    75647    75624    75568    75493    75425    75366    75312 
   75259    75181    75076    74969    74861    74729    74563    74356 
   74133    73918    73665    73360    73064    72779    72491    72241 
   72024    71820    71649    71506    71389    71314    71284    71298 
   71344    71403    71491    71616    71753    71890    72048    72225 
   72406    72601    72796    72961    73091    73206    73311    73387 
   73424    73420    73362    73253    73106    72931    72732    72514 
   72289    72069    71861    71679    71523    71392    71295    71232 
   71195    71187    71215    71271    71346    71434    71523    71599 
   71649    71668    71659    71615    71534    71432    71331    71229 
   71113    70998    70907    70843    70803    70786    70781    70776 
   70768    70750    70724    70705    70690    70672    70655    70636 
   70611    70597    70604    70624    70640    70649    70652    70647 
   70642    70652    70670    70690    70716    70753    70812    70908 
   71039    71193    71370    71564    71769    71984    72209    72429 
   72639    72843    73042    73234    73413    73574    73718    73845 
   73951    74027    74070    74089    74085    74056    73996    73901 
   73777    73632    73462    73286    73130    72997    72883    72790 
   72709    72640    72601    72595    72618    72672    72750    72850 
   72978    73131    73312    73523    73748    73978    74220    74466 
   74703    74935    75151    75329    75478    75602    75684    75725 
