Origin Time       2025/01/13 21:19:00
Lat.              31.8
Long.             131.6
Depth. (km)       30
Mag.              6.9
Station Code      KGSH06
Station Lat.      31.6988
Station Long.     130.4594
Station Height(m) 131.07
Record Time       2025/01/13 21:19:51
Sampling Freq(Hz) 100Hz
Duration Time(s)  205
Dir.              6
Scale Factor      3920(gal)/6170801
Max. Acc. (gal)   4.489
Last Correction   2025/01/13 21:19:36
Memo.             
[...]
  -42501   -42375   -42567   -42949   -43175   -43103   -42940   -42894 
  -42903   -42850   -42801   -42848   -42949   -43060   -43258   -43559 
  -43746   -43558   -43043   -42585   -42528   -42828   -43149   -43294 
  -43326   -43273   -43085   -42879   -42909   -43193   -43465   -43577 
  -43616   -43628   -43533   -43307   -43043   -42891   -42964   -43151 
  -43211   -43109   -43004   -42953   -42906   -42857   -42836   -42825 
  -42736   -42488   -42167   -41988   -42065   -42323   -42616   -42833 
  -42939   -42996   -43107   -43290   -43448   -43456   -43310   -43189 
  -43280   -43524   -43707   -43787   -43882   -43977   -43874   -43450 
  -42885   -42501   -42405   -42465   -42586   -42771   -42965   -43080 
  -43089   -43007   -42958   -43064   -43196   -43115   -42820   -42549 
  -42510   -42665   -42774   -42733   -42732   -42952   -43296   -43533 
  -43566   -43430   -43178   -42968   -43027   -43316   -43532   -43553 
  -43578   -43788   -44058   -44112   -43921   -43730   -43683   -43724 
  -43755   -43693   -43509   -43260   -43029   -42917   -43009   -43244 
  -43400   -43311   -43038   -42727   -42425   -42187   -42168   -42397 
  -42641   -42676   -42556   -42516   -42678   -42843   -42705   -42315 
  -42055   -42108   -42270   -42293   -42203   -42179   -42295   -42567 
  -43006   -43515   -43909   -44069   -44059   -44096   -44260   -44353 
  -44169   -43814   -43638   -43832   -44207   -44398   -44199   -43748 
  -43384   -43222   -43040   -42692   -42364   -42287   -42439   -42632 
  -42749   -42804   -42870   -43002   -43128   -43116   -42981   -42921 
  -43077   -43289   -43281   -43095   -43006   -43087   -43112   -42866 
  -42423   -42094   -42069   -42203   -42259   -42211   -42162   -42161 
  -42203   -42239   -42181   -42025   -41923   -42020   -42310   -42683 
  -43018   -43254   -43420   -43539   -43549   -43395   -43167   -42963 
  -42763   -42597   -42567   -42639   -42671   -42578   -42395   -42263 
  -42289   -42406   -42403   -42172   -41925   -41942   -42141   -42220 
  -42119   -41985   -41907   -41920   -42040   -42217   -42375   -42466 
  -42536   -42720   -42989   -43133   -43128   -43146   -43231   -43340 
  -43550   -43900   -44207   -44304   -44272   -44248   -44205   -44074 
  -43863   -43659   -43604   -43796   -44166   -44473   -44471   -44130 
  -43664   -43272   -42916   -42479   -41962   -41446   -41049   -40903 
  -40996   -41194   -41429   -41697   -41980   -42225   -42348   -42352 
  -42399   -42606   -42891   -43120   -43307   -43596   -44014   -44304 
  -44217   -43847   -43454   -43189   -43087   -43107   -43183   -43302 
  -43405   -43374   -43230   -43142   -43193   -43298   -43337   -43232 
  -43003   -42807   -42796   -42950   -43140   -43299   -43471   -43696 
  -43868   -43788   -43448   -43092   -42946   -43064   -43348   -43594 
  -43586   -43328   -43084   -43056   -43202   -43343   -43313   -43133 
  -43059   -43285   -43645   -43828   -43830   -43891   -44079   -44217 
  -44119   -43766   -43341   -43072   -43038   -43164   -43336   -43428 
  -43351   -43180   -43064   -42988   -42807   -42517   -42261   -42194 
  -42370   -42642   -42745   -42569   -42342   -42371   -42619   -42781 
  -42721   -42626   -42729   -43007   -43225   -43259   -43193   -43154 
  -43172   -43197   -43170   -43047   -42863   -42758   -42798   -42903 
  -42989   -43011   -42970   -42908   -42809   -42614   -42355   -42141 
  -42072   -42212   -42510   -42788   -42967   -43118   -43219   -43131 
  -42863   -42601   -42462   -42436   -42473   -42496   -42498   -42568 
  -42703   -42715   -42459   -42131   -42112   -42408   -42643   -42655 
  -42645   -42856   -43326   -43837   -44127   -44129   -43958   -43773 
  -43733   -43885   -44023   -43854   -43388   -43005   -43015   -43292 
  -43457   -43369   -43280   -43395   -43511   -43315   -42846   -42441 
  -42338   -42437   -42487   -42428   -42403   -42480   -42544   -42501 
  -42440   -42492   -42632   -42747   -42878   -43107   -43287   -43259 
  -43190   -43333   -43654   -43903   -43926   -43854   -43939   -44159 
  -44253   -44144   -44009   -43933   -43766   -43377   -42915   -42630 
  -42552   -42552   -42620   -42835   -43124   -43286   -43217   -43007 
  -42772   -42565   -42444   -42463   -42632   -42857   -42904   -42684 
  -42411   -42287   -42258   -42148   -41958   -41900   -42036   -42167 
  -42161   -42106   -42179   -42478   -42915   -43337   -43686   -43931 
  -43961   -43762   -43547   -43537   -43754   -44053   -44267   -44321 
  -44288   -44325   -44442   -44434   -44215   -43993   -43941   -43959 
  -43839   -43573   -43368   -43368   -43523   -43722   -43827   -43746 
  -43604   -43601   -43726   -43825   -43842   -43836   -43847   -43880 
  -43924   -43900   -43755   -43622   -43664   -43797   -43807   -43660 
  -43467   -43283   -43149   -43143   -43211   -43186   -43011   -42802 
  -42656   -42502   -42239   -41908   -41661   -41623   -41808   -42177 
  -42652   -43054   -43183   -43041   -42856   -42841   -43021   -43260 
  -43404   -43400   -43301   -43170   -42968   -42636   -42268   -42068 
  -42111   -42299   -42504   -42649   -42735   -42818   -42920   -43013 
  -43073   -43079   -43006   -42855   -42683   -42575   -42509   -42340 
  -41976   -41533   -41221   -41129   -41174   -41271   -41418   -41609 
  -41784   -41928   -42117   -42373   -42634   -42901   -43225   -43572 
  -43846   -43942   -43800   -43528   -43344   -43339   -43431   -43511 
  -43544   -43510   -43330   -42950   -42463   -42053   -41833   -41724 
  -41577   -41461   -41586   -41927   -42204   -42239   -42103   -41937 
  -41864   -41918   -41972   -41934   -41925   -42068   -42323   -42658 
  -43102   -43560   -43799   -43686   -43336   -43003   -42830   -42719 
  -42536   -42396   -42477   -42677   -42773   -42710   -42564   -42412 
  -42314   -42320   -42467   -42765   -43162   -43543   -43786   -43921 
  -44105   -44335   -44440   -44408   -44384   -44386   -44333   -44202 
  -43992   -43725   -43458   -43235   -43148   -43263   -43407   -43326 
  -43043   -42802   -42759   -42866   -42957   -42936   -42868   -42823 
  -42784   -42730   -42654   -42583   -42583   -42626   -42614   -42551 
  -42495   -42482   -42561   -42730   -42883   -42925   -42878   -42835 
  -42872   -43035   -43330   -43679   -43949   -44075   -44114   -44152 
  -44182   -44168   -44143   -44166   -44261   -44468   -44822   -45185 
  -45273   -45006   -44633   -44396   -44262   -44094   -43871   -43644 
  -43485   -43509   -43725   -43939   -43957   -43740   -43433   -43263 
  -43269   -43234   -43007   -42696   -42460   -42328   -42289   -42319 
  -42299   -42196   -42191   -42361   -42566   -42710   -42798   -42804 
  -42721   -42654   -42669   -42624   -42399   -42090   -41860   -41794 
  -41836   -41804   -41611   -41376   -41232   -41229   -41389   -41636 
  -41815   -41922   -42117   -42448   -42788   -43043   -43210   -43305 
  -43374   -43463   -43550   -43601   -43632   -43602   -43424   -43155 
  -42954   -42851   -42750   -42592   -42428   -42357   -42380   -42334 
  -42112   -41886   -41898   -42112   -42276   -42266   -42199   -42253 
  -42504   -42838   -43028   -43017   -42957   -42955   -42998   -43042 
  -43034   -42939   -42781   -42619   -42505   -42454   -42399   -42282 
  -42215   -42438   -42901   -43152   -42940   -42566   -42455   -42690 
  -43033   -43270   -43439   -43609   -43681   -43583   -43410   -43270 
  -43181   -43120   -43086   -43101   -43159   -43176   -43051   -42794 
  -42590   -42656   -42982   -43324   -43445   -43321   -43172   -43196 
  -43347   -43479   -43569   -43688   -43862   -44060   -44252   -44416 
  -44540   -44620   -44649   -44640   -44662   -44712   -44624   -44281 
  -43826   -43485   -43299   -43113   -42813   -42524   -42400   -42380 
  -42356   -42324   -42265   -42138   -41949   -41799   -41891   -42326 
  -42837   -43040   -42929   -42801   -42790   -42754   -42565   -42379 
  -42462   -42818   -43210   -43452   -43538   -43550   -43521   -43445 
  -43400   -43478   -43628   -43712   -43630   -43362   -42998   -42711 
  -42598   -42606   -42671   -42835   -43097   -43264   -43181   -43004 
  -42971   -43083   -43217   -43371   -43613   -43908   -44124   -44171 
  -44111   -44075   -44125   -44200   -44147   -43902   -43639   -43546 
  -43569   -43535   -43348   -43010   -42617   -42318   -42218   -42322 
  -42474   -42504   -42513   -42723   -43072   -43301   -43390   -43585 
  -43935   -44147   -44036   -43807   -43746   -43866   -43978   -43978 
  -43920   -43897   -43974   -44140   -44276   -44286   -44229   -44208 
  -44224   -44159   -43904   -43493   -43103   -42894   -42872   -42874 
  -42734   -42524   -42463   -42537   -42449   -42041   -41557   -41379 
  -41562   -41798   -41858   -41869   -42046   -42348   -42541   -42472 
  -42241   -42127   -42256   -42463   -42580   -42703   -43071   -43734 
  -44456   -44924   -44993   -44763   -44498   -44432   -44598   -44822 
  -44877   -44689   -44475   -44525   -44766   -44879   -44806   -44741 
  -44742   -44681   -44478   -44179   -43828   -43372   -42784   -42260 
  -42062   -42149   -42140   -41759   -41243   -41006   -41018   -40923 
  -40585   -40206   -40027   -40052   -40106   -40162   -40395   -40822 
  -41160   -41207   -41110   -41119   -41359   -41825   -42352   -42686 
  -42824   -43071   -43625   -44293   -44699   -44636   -44305   -44198 
  -44515   -44887   -44857   -44381   -43820   -43597   -43800   -44076 
  -44035   -43751   -43590   -43676   -43822   -43827   -43605   -43197 
  -42737   -42360   -42164   -42188   -42312   -42349   -42296   -42300 
  -42474   -42795   -42994   -42777   -42251   -41844   -41787   -41945 
  -42076   -42075   -42004   -42017   -42224   -42508   -42573   -42300 
  -41909   -41680   -41708   -42010   -42585   -43255   -43788   -44116 
  -44226   -44069   -43701   -43279   -42944   -42811   -42856   -42871 
  -42732   -42586   -42588   -42565   -42262   -41846   -41700   -41821 
  -41820   -41432   -40869   -40602   -40816   -41242   -41556   -41746 
  -42005   -42425   -42886   -43254   -43545   -43798   -43988   -44162 
  -44427   -44776   -45070   -45144   -45065   -45203   -45675   -45996 
  -45746   -45170   -44784   -44756   -44861   -44867   -44807   -44838 
  -44952   -44984   -44811   -44421   -43872   -43311   -42942   -42844 
  -42840   -42654   -42213   -41719   -41452   -41448   -41401   -41076 
  -40688   -40597   -40810   -41012   -41005   -40958   -41154   -41601 
  -42012   -42138   -42057   -42010   -42038   -42048   -42074   -42193 
  -42361   -42488   -42559   -42675   -42946   -43286   -43467   -43470 
  -43523   -43715   -43857   -43790   -43555   -43259   -42929   -42527 
  -42042   -41503   -41006   -40691   -40588   -40618   -40757   -40971 
  -41067   -40930   -40784   -40970   -41563   -42332   -43024   -43566 
  -43973   -44255   -44485   -44799   -45256   -45724   -46021   -46163 
  -46340   -46666   -47006   -47114   -46909   -46455   -45755   -44842 
  -44037   -43730   -43842   -43960   -44009   -44249   -44693   -45021 
  -45043   -44955   -45019   -45160   -45182   -45158   -45250   -45340 
  -45165   -44715   -44246   -43926   -43670   -43287   -42763   -42338 
  -42207   -42301   -42424   -42471   -42455   -42324   -41962   -41531 
  -41421   -41680   -41893   -41823   -41809   -42235   -42858   -43136 
  -43061   -43082   -43360   -43639   -43677   -43498   -43343   -43413 
  -43634   -43796   -43925   -44237   -44688   -44843   -44391   -43620 
  -43014   -42612   -42179   -41781   -41682   -41869   -42126   -42387 
  -42648   -42716   -42411   -41996   -41972   -42318   -42452   -42099 
  -41674   -41676   -42117   -42643   -42889   -42751   -42443   -42229 
  -42171   -42139   -41956   -41591   -41228   -41094   -41219   -41408 
  -41468   -41446   -41543   -41795   -42003   -41999   -41890   -42014 
  -42650   -43712   -44766   -45417   -45662   -45886   -46338   -46682 
  -46494   -45981   -45665   -45682   -45762   -45593   -45073   -44374 
  -43803   -43551   -43557   -43564   -43230   -42469   -41719   -41420 
  -41362   -41017   -40346   -39846   -39905   -40414   -40894   -40872 
  -40354   -39837   -39755   -40043   -40341   -40486   -40584   -40734 
  -41011   -41490   -42085   -42659   -43211   -43759   -44269   -44679 
  -44867   -44786   -44623   -44594   -44668   -44725   -44876   -45241 
  -45574   -45535   -45144   -44726   -44562   -44665   -44845   -44965 
  -45011   -45053   -45201   -45443   -45569   -45391   -44984   -44634 
  -44532   -44582   -44559   -44308   -43774   -43081   -42470   -42078 
  -41960   -42128   -42406   -42550   -42578   -42720   -43067   -43426 
  -43564   -43543   -43554   -43539   -43333   -43013   -42724   -42478 
  -42298   -42220   -42232   -42352   -42539   -42637   -42505   -42148 
  -41810   -41796   -42164   -42785   -43475   -43998   -44202   -44054 
  -43539   -42784   -42076   -41517   -41024   -40683   -40655   -40800 
  -40825   -40672   -40500   -40427   -40407   -40384   -40432   -40522 
  -40520   -40504   -40709   -41207   -41837   -42355   -42589   -42527 
  -42317   -42103   -41818   -41359   -40833   -40492   -40510   -40808 
  -41198   -41663   -42207   -42646   -42947   -43391   -44064   -44723 
  -45339   -46148   -47164   -48033   -48405   -48332   -48182   -48136 
  -48102   -48033   -47999   -47987   -47899   -47690   -47401   -47101 
  -46771   -46287   -45561   -44665   -43774   -42942   -42060   -41096 
  -40158   -39322   -38593   -37971   -37403   -36848   -36363   -36030 
  -35954   -36240   -36793   -37420   -38037   -38630   -39206   -39721 
  -40039   -40126   -40138   -40282   -40696   -41309   -41872   -42263 
  -42604   -43045   -43637   -44302   -44866   -45281   -45686   -46189 
  -46707   -47029   -47106   -47089   -47082   -47103   -47177   -47215 
  -47042   -46614   -46082   -45705   -45564   -45347   -44742   -43922 
  -43262   -42848   -42519   -42168   -41823   -41571   -41465   -41468 
  -41470   -41428   -41380   -41312   -41165   -40925   -40611   -40227 
  -39826   -39584   -39637   -39900   -40203   -40470   -40734   -41099 
  -41602   -42056   -42265   -42370   -42649   -43103   -43537   -43781 
  -43763   -43643   -43710   -44010   -44293   -44399   -44478   -44735 
  -45174   -45626   -45941   -46154   -46308   -46296   -46072   -45787 
  -45561   -45310   -44918   -44433   -44022   -43726   -43383   -42931 
  -42573   -42535   -42813   -43126   -43219   -43189   -43328   -43680 
  -43952   -43918   -43728   -43697   -43917   -44146   -44107   -43801 
  -43407   -43077   -42899   -42842   -42799   -42693   -42516   -42361 
  -42358   -42456   -42449   -42302   -42224   -42348   -42575   -42757 
  -42855   -42873   -42742   -42449   -42152   -42064   -42231   -42432 
  -42362   -42042   -41803   -41793   -41849   -41799   -41665   -41548 
  -41467   -41377   -41238   -40969   -40521   -40001   -39616   -39524 
  -39806   -40393   -41031   -41518   -41908   -42362   -42858   -43166 
  -43128   -42841   -42568   -42491   -42549   -42581   -42597   -42778 
  -43232   -43861   -44470   -44894   -45104   -45247   -45452   -45733 
  -46148   -46694   -47194   -47485   -47559   -47463   -47189   -46746 
  -46272   -45894   -45551   -45130   -44653   -44189   -43754   -43375 
  -43030   -42634   -42206   -41843   -41558   -41270   -40898   -40467 
  -40099   -39918   -39950   -40058   -40073   -39976   -39899   -39947 
  -40031   -40027   -40023   -40176   -40500   -40944   -41445   -41906 
  -42271   -42537   -42681   -42719   -42799   -43084   -43581   -44135 
  -44594   -44938   -45213   -45387   -45368   -45148   -44886   -44794 
  -44903   -45062   -45196   -45301   -45269   -45066   -44850   -44673 
  -44349   -43775   -43072   -42412   -41923   -41715   -41778   -41934 
  -41992   -41963   -42041   -42267   -42446   -42426   -42215   -41984 
  -41974   -42188   -42370   -42431   -42539   -42814   -43202   -43513 
  -43521   -43181   -42715   -42378   -42243   -42226   -42225   -42176 
  -42066   -41988   -42081   -42294   -42399   -42353   -42381   -42656 
  -43088   -43419   -43446   -43195   -42905   -42864   -43142   -43487 
  -43577   -43377   -43138   -43046   -42975   -42727   -42343   -41992 
  -41777   -41699   -41683   -41706   -41838   -42026   -42149   -42241 
  -42398   -42578   -42657   -42581   -42430   -42339   -42336   -42313 
  -42218   -42125   -42083   -42062   -42066   -42164   -42387   -42637 
  -42783   -42854   -43001   -43318   -43773   -44230   -44556   -44745 
  -44857   -44930   -45007   -45151   -45336   -45408   -45323   -45267 
  -45397   -45643   -45766   -45624   -45407   -45405   -45590   -45732 
  -45706   -45543   -45360   -45248   -45163   -45007   -44758   -44492 
  -44291   -44141   -43969   -43719   -43367   -42950   -42542   -42197 
  -41982   -41974   -42136   -42298   -42288   -42080   -41819   -41626 
  -41467   -41239   -40937   -40741   -40829   -41100   -41347   -41536 
  -41652   -41620   -41510   -41487   -41633   -41904   -42131   -42170 
  -42107   -42136   -42264   -42370   -42407   -42429   -42502   -42601 
  -42672   -42728   -42726   -42603   -42429   -42328   -42382   -42633 
  -42982   -43215   -43288   -43338   -43416   -43480   -43536   -43635 
  -43782   -43910   -43903   -43700   -43431   -43322   -43412   -43545 
  -43605   -43650   -43806   -44052   -44214   -44218   -44134   -44045 
  -43967   -43859   -43706   -43548   -43411   -43287   -43155   -43006 
  -42902   -42853   -42737   -42501   -42263   -42128   -42032   -41836 
  -41564   -41360   -41247   -41149   -41105   -41218   -41430   -41596 
  -41731   -41939   -42212   -42410   -42423   -42310   -42261   -42380 
  -42570   -42716   -42809   -42833   -42788   -42764   -42827   -42955 
  -43088   -43178   -43226   -43297   -43423   -43497   -43395   -43151 
  -42944   -42925   -43023   -43062   -42997   -42920   -42907   -42923 
  -42891   -42837   -42817   -42761   -42579   -42319   -42108   -42037 
  -42109   -42236   -42282   -42214   -42175   -42271   -42395   -42435 
  -42462   -42643   -43057   -43582   -43997   -44211   -44293   -44355 
  -44460   -44573   -44574   -44391   -44096   -43807   -43569   -43409 
  -43313   -43179   -42958   -42764   -42731   -42833   -42933   -42975 
  -43026   -43135   -43257   -43338   -43363   -43369   -43387   -43353 
  -43222   -43059   -42935   -42845   -42772   -42730   -42697   -42589 
  -42410   -42293   -42272   -42226   -42154   -42223   -42481   -42751 
  -42844   -42782   -42688   -42612   -42571   -42544   -42537   -42616 
  -42752   -42818   -42776   -42694   -42635   -42629   -42706   -42867 
  -43050   -43166   -43159   -43032   -42861   -42804   -42912   -43006 
  -42965   -42896   -42912   -43045   -43301   -43638   -43984   -44355 
  -44815   -45347   -45852   -46187   -46227   -46017   -45796   -45720 
  -45667   -45445   -45033   -44559   -44172   -43955   -43865   -43769 
  -43583   -43364   -43200   -43088   -42992   -42869   -42673   -42467 
  -42379   -42379   -42335   -42199   -41957   -41603   -41246   -41032 
  -40944   -40919   -40998   -41182   -41392   -41674   -42119   -42615 
  -42916   -42964   -42982   -43175   -43496   -43760   -43892   -43972 
  -44107   -44312   -44529   -44704   -44787   -44787   -44817   -44926 
  -45012   -44957   -44749   -44514   -44412   -44442   -44441   -44249 
  -43842   -43366   -43014   -42805   -42598   -42317   -42011   -41795 
