Origin Time       2025/01/13 21:19:00
Lat.              31.8
Long.             131.6
Depth. (km)       30
Mag.              6.9
Station Code      KGSH01
Station Lat.      32.1554
Station Long.     130.1191
Station Height(m) 14.866
Record Time       2025/01/13 21:19:55
Sampling Freq(Hz) 100Hz
Duration Time(s)  229
Dir.              4
Scale Factor      7845(gal)/8223790
Max. Acc. (gal)   3.097
Last Correction   2025/01/13 21:19:56
Memo.             
[...]
   15149    15526    15878    16174    16401    16575    16707    16804 
   16865    16887    16866    16796    16671    16495    16313    16170 
   16077    16017    15965    15894    15805    15712    15647    15623 
   15615    15603    15610    15650    15728    15851    15996    16106 
   16164    16190    16202    16200    16177    16135    16101    16119 
   16218    16403    16661    16954    17242    17489    17664    17768 
   17824    17848    17834    17768    17621    17382    17074    16715 
   16328    15939    15566    15232    14959    14756    14613    14503 
   14407    14330    14289    14304    14378    14499    14654    14844 
   15071    15341    15660    16011    16371    16711    16999    17223 
   17390    17504    17568    17595    17594    17574    17548    17528 
   17502    17442    17324    17145    16920    16688    16495    16386 
   16379    16457    16596    16771    16953    17130    17301    17444 
   17537    17572    17541    17459    17343    17205    17058    16910 
   16773    16660    16567    16502    16475    16490    16565    16699 
   16891    17143    17427    17691    17902    18019    18031    17953 
   17824    17686    17556    17425    17304    17220    17209    17275 
   17393    17513    17606    17685    17759    17829    17891    17913 
   17859    17737    17591    17454    17328    17194    17053    16916 
   16791    16679    16591    16541    16542    16598    16694    16822 
   16978    17163    17369    17585    17784    17940    18040    18081 
   18054    17942    17740    17469    17154    16822    16492    16173 
   15876    15618    15408    15257    15165    15120    15091    15059 
   15024    14998    14976    14958    14943    14936    14939    14953 
   14990    15063    15159    15241    15310    15394    15507    15641 
   15765    15842    15877    15882    15878    15893    15921    15932 
   15931    15944    15985    16060    16174    16297    16406    16511 
   16625    16746    16861    16947    16981    16933    16806    16641 
   16468    16294    16124    15940    15747    15585    15465    15361 
   15255    15140    15037    14983    15002    15090    15228    15395 
   15572    15742    15881    15967    16000    15998    15984    15966 
   15971    16021    16119    16249    16409    16596    16807    17030 
   17246    17432    17566    17629    17613    17528    17388    17196 
   16965    16717    16467    16232    16044    15931    15893    15921 
   16015    16175    16389    16633    16892    17157    17401    17598 
   17739    17848    17928    17960    17929    17821    17641    17406 
   17138    16853    16568    16282    15993    15714    15476    15307 
   15201    15122    15043    14968    14921    14912    14944    15009 
   15099    15205    15333    15496    15676    15853    16021    16174 
   16293    16386    16472    16549    16614    16663    16688    16683 
   16633    16532    16402    16270    16151    16059    15997    15975 
   16016    16125    16302    16525    16768    17020    17277    17497 
   17643    17713    17716    17667    17594    17518    17452    17396 
   17329    17246    17157    17068    16981    16897    16802    16680 
   16536    16389    16258    16141    16047    15988    15961    15955 
   15973    16020    16081    16124    16148    16181    16232    16302 
   16391    16471    16505    16478    16414    16357    16345    16390 
   16484    16611    16741    16864    16985    17091    17159    17177 
   17139    17053    16942    16833    16745    16668    16580    16492 
   16429    16393    16383    16393    16409    16409    16374    16306 
   16227    16151    16074    15989    15903    15832    15782    15716 
   15615    15506    15418    15368    15371    15411    15457    15493 
   15525    15550    15573    15601    15641    15685    15736    15807 
   15911    16036    16167    16286    16380    16441    16468    16461 
   16425    16357    16256    16123    15961    15789    15643    15539 
   15472    15435    15419    15419    15435    15461    15492    15514 
   15506    15458    15383    15282    15160    15049    14975    14955 
   15003    15129    15331    15606    15909    16181    16387    16544 
   16677    16800    16910    16999    17073    17124    17146    17149 
   17143    17131    17115    17109    17131    17177    17232    17294 
   17355    17397    17416    17406    17361    17269    17128    16954 
   16784    16648    16540    16457    16397    16347    16298    16247 
   16183    16106    16016    15908    15808    15759    15777    15859 
   16008    16212    16445    16679    16889    17074    17235    17356 
   17437    17482    17489    17450    17369    17261    17150    17045 
   16969    16926    16899    16876    16852    16827    16818    16827 
   16849    16873    16888    16884    16861    16835    16821    16818 
   16826    16845    16884    16947    17010    17023    16973    16872 
   16731    16564    16387    16214    16040    15862    15682    15514 
   15372    15273    15230    15263    15387    15601    15890    16245 
   16664    17127    17604    18063    18472    18820    19103    19313 
   19446    19514    19530    19522    19507    19457    19346    19164 
   18904    18559    18156    17739    17335    16949    16605    16313 
   16062    15862    15742    15697    15715    15792    15921    16093 
   16282    16468    16640    16796    16961    17127    17257    17329 
   17347    17293    17167    16985    16760    16498    16194    15850 
   15481    15111    14759    14431    14137    13888    13698    13571 
   13522    13556    13644    13759    13887    14021    14150    14283 
   14424    14570    14704    14823    14941    15052    15140    15199 
   15232    15241    15234    15230    15252    15303    15372    15449 
   15523    15584    15634    15681    15741    15834    15961    16104 
   16245    16376    16509    16661    16826    16985    17132    17261 
   17369    17464    17560    17649    17703    17699    17622    17471 
   17253    16970    16652    16328    16019    15755    15565    15448 
   15385    15361    15368    15403    15466    15554    15664    15786 
   15907    16004    16081    16147    16216    16287    16349    16378 
   16374    16360    16364    16406    16480    16564    16665    16815 
   17008    17213    17409    17583    17721    17813    17875    17929 
   17960    17961    17940    17888    17791    17647    17464    17246 
   16999    16738    16492    16283    16129    16046    16024    16065 
   16174    16349    16569    16806    17038    17274    17504    17706 
   17880    18027    18139    18202    18185    18077    17891    17653 
   17381    17085    16773    16440    16093    15759    15468    15225 
   15033    14890    14812    14808    14858    14953    15079    15202 
   15295    15358    15402    15434    15461    15492    15538    15600 
   15655    15693    15724    15730    15682    15604    15516    15425 
   15337    15269    15237    15238    15268    15327    15403    15476 
   15546    15626    15718    15815    15919    16043    16185    16341 
   16511    16690    16860    17003    17112    17185    17228    17251 
   17253    17239    17221    17177    17091    16968    16821    16680 
   16571    16497    16478    16546    16692    16883    17084    17269 
   17410    17491    17501    17469    17431    17393    17355    17313 
   17258    17194    17145    17126    17127    17128    17118    17095 
   17072    17066    17081    17120    17193    17297    17420    17545 
   17658    17734    17747    17687    17579    17450    17308    17167 
   17043    16920    16783    16645    16499    16328    16137    15946 
   15754    15573    15412    15275    15163    15078    15022    15002 
   15009    15025    15032    15029    15047    15091    15147    15211 
   15291    15383    15481    15580    15674    15761    15844    15934 
   16012    16046    16036    15985    15888    15761    15631    15520 
   15446    15410    15412    15472    15584    15723    15867    16004 
   16131    16248    16370    16501    16630    16745    16853    16960 
   17069    17170    17263    17346    17404    17439    17474    17510 
   17545    17589    17628    17656    17682    17702    17710    17687 
   17606    17470    17297    17092    16880    16683    16499    16343 
   16225    16139    16093    16090    16108    16114    16085    16016 
   15930    15835    15747    15696    15689    15723    15800    15923 
   16100    16317    16560    16818    17073    17307    17514    17678 
   17783    17841    17845    17790    17682    17528    17346    17146 
   16922    16675    16422    16183    15974    15809    15680    15573 
   15495    15441    15406    15381    15356    15330    15314    15307 
   15314    15326    15330    15322    15296    15248    15194    15147 
   15098    15040    14979    14929    14897    14885    14901    14952 
   15043    15165    15309    15466    15646    15844    16052    16254 
   16428    16569    16672    16731    16754    16762    16784    16829 
   16893    16976    17077    17185    17290    17367    17396    17367 
   17286    17157    16973    16742    16474    16173    15861    15558 
   15267    14997    14764    14574    14440    14370    14366    14430 
   14546    14694    14856    15016    15160    15286    15387    15466 
   15526    15565    15588    15615    15657    15712    15784    15877 
   15981    16098    16244    16426    16644    16895    17167    17444 
   17720    17987    18231    18449    18632    18760    18827    18829 
   18766    18640    18446    18169    17818    17420    16993    16559 
   16143    15762    15430    15152    14933    14796    14736    14732 
   14766    14845    14962    15099    15263    15448    15633    15801 
   15938    16039    16125    16201    16252    16278    16293    16303 
   16317    16347    16393    16441    16490    16544    16607    16676 
   16737    16795    16854    16897    16912    16889    16841    16787 
   16744    16707    16692    16711    16773    16873    17001    17151 
   17325    17500    17649    17771    17849    17876    17848    17759 
   17622    17459    17285    17103    16931    16798    16707    16642 
   16594    16563    16544    16529    16521    16533    16567    16598 
   16626    16661    16691    16708    16719    16714    16691    16657 
   16613    16569    16542    16534    16540    16564    16599    16644 
   16714    16812    16926    17043    17159    17269    17373    17469 
   17552    17621    17675    17709    17717    17694    17644    17564 
   17448    17290    17086    16838    16556    16247    15913    15568 
   15232    14924    14658    14443    14281    14179    14148    14193 
   14312    14496    14725    14980    15246    15522    15796    16062 
   16313    16544    16733    16860    16915    16895    16806    16676 
   16526    16368    16217    16075    15957    15865    15793    15731 
   15669    15588    15485    15373    15264    15161    15075    15014 
   14991    15013    15082    15194    15334    15492    15668    15853 
   16042    16228    16413    16595    16775    16941    17103    17265 
   17415    17545    17653    17730    17766    17761    17724    17659 
   17570    17459    17335    17213    17112    17041    17000    16999 
   17032    17096    17177    17251    17300    17320    17320    17312 
   17313    17336    17385    17460    17562    17674    17795    17930 
   18067    18204    18353    18505    18658    18790    18858    18844 
   18754    18590    18373    18119    17834    17535    17234    16934 
   16646    16384    16146    15940    15769    15618    15477    15346 
   15219    15101    14990    14877    14767    14675    14601    14544 
   14513    14508    14512    14513    14515    14515    14509    14494 
   14465    14420    14357    14285    14238    14230    14265    14354 
   14503    14706    14963    15248    15546    15854    16156    16441 
   16707    16945    17138    17275    17366    17419    17412    17335 
   17205    17028    16807    16548    16270    15990    15726    15496 
   15326    15230    15202    15225    15273    15334    15399    15453 
   15473    15446    15380    15290    15196    15118    15063    15025 
   15002    14998    15013    15043    15075    15114    15165    15222 
   15292    15388    15519    15682    15870    16059    16227    16362 
   16459    16525    16557    16563    16555    16530    16491    16440 
   16371    16294    16209    16119    16039    15978    15939    15928 
   15950    16015    16121    16258    16416    16584    16746    16899 
   17030    17140    17234    17301    17338    17347    17332    17290 
   17208    17081    16919    16735    16545    16378    16236    16104 
   15973    15838    15695    15534    15363    15203    15072    14979 
   14928    14931    14994    15113    15271    15460    15672    15904 
   16151    16393    16611    16796    16938    17032    17089    17128 
   17163    17189    17209    17239    17282    17335    17385    17420 
   17433    17431    17420    17406    17386    17343    17269    17176 
   17089    17015    16947    16880    16814    16744    16673    16613 
   16553    16492    16441    16399    16359    16312    16243    16137 
   15998    15843    15697    15572    15471    15402    15365    15361 
   15391    15457    15561    15705    15903    16167    16494    16864 
   17269    17694    18117    18522    18891    19199    19431    19580 
   19638    19607    19507    19350    19149    18922    18700    18484 
   18269    18056    17834    17601    17367    17151    16953    16772 
   16603    16438    16289    16151    16027    15920    15827    15738 
   15668    15626    15604    15616    15670    15768    15908    16079 
   16259    16425    16556    16640    16665    16622    16509    16336 
   16114    15859    15591    15336    15111    14939    14839    14812 
   14847    14931    15056    15219    15408    15624    15878    16170 
   16487    16816    17146    17467    17768    18049    18307    18524 
   18685    18790    18844    18837    18769    18642    18458    18212 
   17932    17656    17398    17170    16992    16866    16794    16769 
   16803    16892    17012    17146    17267    17355    17401    17396 
   17340    17240    17085    16881    16632    16345    16036    15704 
   15360    15024    14702    14408    14160    13956    13792    13672 
   13595    13558    13567    13630    13755    13930    14145    14395 
   14665    14944    15225    15488    15735    15977    16218    16452 
   16672    16880    17076    17239    17362    17444    17482    17475 
   17433    17363    17261    17139    17015    16896    16798    16734 
   16699    16677    16665    16660    16653    16641    16625    16600 
   16580    16576    16590    16622    16664    16707    16750    16792 
   16834    16877    16906    16906    16869    16800    16704    16594 
   16478    16363    16252    16160    16096    16054    16039    16040 
   16038    16028    16015    16001    15981    15952    15928    15905 
   15880    15854    15816    15758    15689    15618    15557    15518 
   15499    15502    15539    15606    15691    15792    15898    15989 
   16039    16043    16000    15912    15781    15616    15441    15275 
   15130    15010    14926    14886    14898    14972    15103    15277 
   15475    15684    15904    16121    16336    16553    16769    16995 
   17244    17521    17818    18125    18420    18675    18856    18945 
   18937    18824    18615    18322    17945    17496    17004    16501 
   16000    15526    15113    14781    14540    14399    14359    14420 
   14567    14797    15103    15465    15865    16286    16700    17086 
   17437    17737    17977    18164    18299    18399    18473    18526 
   18549    18532    18473    18368    18219    18042    17853    17659 
   17474    17313    17192    17127    17122    17163    17250    17377 
   17533    17714    17906    18075    18206    18291    18312    18260 
   18144    17968    17730    17437    17112    16772    16432    16112 
   15824    15576    15391    15290    15279    15348    15475    15642 
   15839    16055    16275    16486    16686    16866    17003    17086 
   17130    17131    17086    17003    16881    16719    16528    16316 
   16087    15832    15554    15273    15002    14743    14507    14311 
   14160    14062    14022    14030    14075    14156    14276    14422 
   14585    14762    14944    15097    15207    15283    15304    15263 
   15169    15022    14820    14577    14323    14089    13882    13695 
   13537    13408    13304    13223    13173    13151    13154    13188 
   13259    13378    13552    13771    14026    14304    14594    14891 
   15187    15450    15668    15832    15927    15955    15939    15888 
   15815    15726    15627    15522    15429    15365    15338    15356 
   15425    15550    15749    16006    16293    16599    16920    17224 
   17502    17749    17957    18123    18242    18316    18347    18334 
   18279    18191    18079    17948    17817    17695    17585    17494 
   17429    17392    17375    17374    17385    17409    17442    17473 
   17504    17533    17562    17597    17637    17686    17749    17825 
   17907    17988    18058    18115    18152    18154    18125    18067 
   17971    17844    17699    17539    17361    17178    16992    16799 
   16606    16430    16278    16152    16066    16028    16033    16071 
   16143    16248    16378    16518    16664    16815    16962    17103 
   17240    17377    17502    17606    17705    17795    17875    17941 
   17995    18040    18076    18108    18148    18192    18241    18295 
   18351    18404    18453    18499    18536    18559    18578    18596 
   18605    18607    18600    18574    18536    18497    18450    18385 
   18291    18160    17998    17810    17591    17347    17082    16802 
   16519    16251    16002    15777    15584    15425    15304    15233 
   15215    15253    15344    15468    15607    15749    15884    16005 
   16106    16175    16217    16235    16218    16170    16108    16038 
   15967    15912    15880    15870    15876    15881    15880    15873 
   15865    15850    15817    15763    15689    15589    15456    15290 
   15097    14885    14669    14473    14312    14192    14110    14069 
   14077    14127    14214    14338    14489    14652    14821    15002 
   15191    15381    15573    15759    15931    16082    16214    16320 
   16387    16411    16393    16333    16252    16167    16092    16039 
   16012    16011    16038    16086    16148    16212    16267    16314 
   16349    16364    16357    16321    16259    16182    16089    15993 
   15915    15858    15820    15804    15808    15830    15869    15920 
   15973    16016    16051    16077    16081    16054    16006    15939 
   15863    15790    15716    15645    15574    15507    15449    15390 
   15326    15260    15194    15126    15067    15016    14972    14939 
   14912    14895    14898    14925    14979    15059    15163    15300 
   15473    15677    15908    16156    16407    16649    16868    17059 
   17208    17311    17385    17427    17424    17382    17296    17166 
   17005    16816    16607    16386    16163    15950    15758    15600 
   15491    15433    15434    15503    15635    15830    16074    16344 
