Origin Time       2025/01/13 21:19:00
Lat.              31.8
Long.             131.6
Depth. (km)       30
Mag.              6.9
Station Code      KGSH06
Station Lat.      31.6988
Station Long.     130.4594
Station Height(m) -71.93
Record Time       2025/01/13 21:19:51
Sampling Freq(Hz) 100Hz
Duration Time(s)  205
Dir.              3
Scale Factor      2940(gal)/6170270
Max. Acc. (gal)   1.707
Last Correction   2025/01/13 21:19:36
Memo.             
[...]
   63518    63378    63307    63295    63328    63388    63457    63522 
   63586    63640    63650    63614    63593    63630    63688    63738 
   63803    63874    63911    63895    63830    63763    63766    63853 
   63964    64040    64061    64044    64006    63925    63797    63703 
   63726    63830    63947    64085    64248    64362    64374    64307 
   64179    63991    63771    63561    63366    63193    63045    62889 
   62709    62535    62401    62318    62279    62258    62253    62289 
   62370    62483    62607    62702    62751    62782    62805    62794 
   62766    62787    62898    63071    63231    63335    63416    63507 
   63591    63652    63682    63670    63622    63548    63416    63201 
   62916    62590    62268    61977    61700    61444    61270    61205 
   61196    61195    61218    61296    61429    61590    61730    61790 
   61767    61694    61559    61355    61122    60906    60756    60711 
   60761    60879    61069    61342    61676    62020    62348    62663 
   62941    63136    63255    63327    63365    63397    63443    63507 
   63584    63672    63759    63841    63919    63965    63980    64020 
   64124    64293    64488    64670    64824    64945    65031    65087 
   65141    65229    65334    65395    65405    65410    65436    65479 
   65531    65604    65726    65892    66049    66163    66198    66079 
   65812    65491    65152    64774    64393    64085    63879    63746 
   63649    63587    63605    63713    63823    63854    63787    63635 
   63438    63214    62927    62572    62247    62004    61768    61501 
   61269    61139    61115    61182    61337    61514    61634    61687 
   61693    61656    61589    61522    61492    61519    61584    61664 
   61739    61793    61844    61930    62082    62302    62554    62785 
   62982    63171    63368    63565    63752    63964    64235    64500 
   64660    64693    64636    64510    64333    64122    63871    63607 
   63388    63221    63059    62847    62595    62378    62245    62165 
   62110    62121    62250    62447    62606    62693    62727    62709 
   62659    62627    62655    62736    62838    62969    63166    63412 
   63650    63863    64048    64158    64174    64149    64127    64073 
   63959    63814    63683    63587    63522    63456    63377    63322 
   63305    63275    63186    63049    62893    62732    62576    62416 
   62237    62071    61962    61906    61873    61835    61791    61769 
   61783    61824    61885    61966    62069    62169    62248    62337 
   62487    62714    62981    63260    63550    63847    64129    64342 
   64459    64547    64676    64828    64989    65162    65310    65410 
   65480    65508    65473    65432    65455    65525    65590    65625 
   65616    65545    65428    65312    65212    65115    65006    64888 
   64761    64615    64442    64248    64032    63797    63581    63410 
   63258    63095    62894    62639    62361    62102    61882    61695 
   61539    61421    61325    61240    61184    61163    61156    61147 
   61131    61116    61110    61116    61123    61115    61079    61018 
   60970    60987    61069    61177    61273    61335    61373    61405 
   61440    61491    61581    61723    61909    62109    62302    62492 
   62675    62840    62996    63148    63282    63392    63493    63615 
   63754    63856    63912    63968    64041    64112    64193    64298 
   64419    64546    64656    64713    64724    64706    64666    64629 
   64606    64596    64587    64534    64411    64243    64051    63839 
   63602    63353    63151    63042    62989    62924    62845    62779 
   62719    62662    62633    62645    62656    62614    62534    62502 
   62576    62730    62912    63111    63297    63433    63527    63578 
   63551    63444    63304    63173    63034    62869    62702    62554 
   62424    62306    62214    62170    62177    62208    62249    62301 
   62360    62409    62439    62462    62509    62594    62694    62802 
   62941    63106    63258    63383    63481    63515    63453    63336 
   63219    63125    63081    63069    63049    63056    63141    63289 
   63452    63623    63816    64036    64287    64533    64719    64860 
   64989    65070    65092    65116    65175    65232    65242    65202 
   65135    65066    65006    64933    64824    64694    64551    64375 
   64191    64035    63913    63847    63834    63821    63800    63807 
   63853    63914    63954    63962    63947    63906    63822    63675 
   63485    63310    63162    63025    62924    62878    62857    62853 
   62903    62995    63078    63151    63251    63376    63484    63551 
   63587    63613    63634    63629    63554    63405    63214    63003 
   62784    62583    62415    62260    62112    62002    61956    61978 
   62056    62154    62255    62370    62523    62722    62922    63080 
   63200    63288    63302    63209    63042    62880    62744    62616 
   62539    62556    62635    62747    62885    63000    63062    63106 
   63173    63257    63329    63373    63376    63335    63259    63169 
   63089    63038    62999    62959    62941    62957    62994    63036 
   63061    63039    62960    62840    62659    62383    62054    61739 
   61469    61279    61188    61165    61202    61334    61549    61774 
   61976    62178    62394    62605    62775    62870    62908    62927 
   62928    62904    62864    62839    62869    62948    63024    63075 
   63101    63113    63141    63200    63254    63292    63337    63375 
   63375    63346    63278    63166    63054    62973    62896    62811 
   62734    62668    62601    62528    62468    62438    62430    62423 
   62402    62377    62362    62336    62295    62279    62294    62321 
   62373    62446    62510    62560    62620    62699    62796    62921 
   63083    63277    63462    63592    63661    63692    63691    63655 
   63610    63598    63622    63664    63728    63834    63974    64120 
   64250    64380    64524    64660    64767    64826    64831    64804 
   64770    64747    64744    64730    64653    64519    64374    64248 
   64135    64019    63916    63875    63912    63984    64042    64079 
   64103    64107    64098    64098    64104    64103    64095    64090 
   64087    64083    64058    64006    63934    63847    63760    63685 
   63621    63587    63583    63582    63591    63631    63676    63677 
   63633    63599    63596    63569    63487    63395    63347    63320 
   63262    63167    63078    63028    63012    63016    63034    63067 
   63125    63221    63344    63474    63602    63724    63825    63893 
   63937    63972    64005    64042    64092    64144    64189    64232 
   64287    64342    64358    64321    64256    64189    64120    64034 
   63928    63831    63767    63731    63697    63635    63539    63424 
   63270    63032    62728    62436    62199    61985    61766    61566 
   61414    61290    61179    61108    61096    61118    61153    61183 
   61196    61206    61238    61305    61390    61456    61500    61572 
   61696    61810    61854    61845    61824    61795    61745    61672 
   61597    61522    61437    61345    61247    61155    61103    61088 
   61094    61147    61250    61389    61552    61717    61883    62056 
   62195    62295    62418    62587    62764    62917    63061    63231 
   63427    63603    63732    63827    63891    63906    63872    63824 
   63794    63772    63743    63720    63695    63646    63581    63526 
   63491    63472    63482    63520    63549    63555    63556    63566 
   63576    63584    63594    63594    63574    63544    63504    63440 
   63358    63287    63236    63194    63153    63108    63077    63083 
   63114    63157    63230    63326    63409    63454    63457    63416 
   63347    63263    63157    63030    62911    62833    62814    62848 
   62915    62999    63092    63182    63267    63346    63416    63487 
   63558    63606    63637    63690    63772    63846    63902    63969 
   64066    64178    64291    64393    64488    64573    64635    64676 
   64684    64645    64590    64559    64554    64563    64567    64574 
   64603    64647    64699    64791    64942    65123    65303    65479 
   65640    65761    65826    65847    65831    65765    65637    65443 
   65195    64937    64701    64484    64284    64101    63923    63736 
   63544    63386    63271    63150    63004    62886    62815    62748 
   62655    62543    62430    62314    62161    61961    61757    61585 
   61438    61302    61174    61057    60944    60843    60803    60841 
   60901    60948    60998    61065    61146    61240    61353    61482 
   61613    61750    61908    62077    62236    62370    62468    62520 
   62518    62486    62465    62460    62449    62425    62405    62404 
   62411    62433    62508    62652    62840    63055    63301    63584 
   63896    64197    64444    64626    64753    64836    64871    64859 
   64810    64731    64614    64459    64277    64068    63837    63592 
   63318    63023    62720    62404    62095    61837    61637    61474 
   61339    61247    61217    61230    61239    61228    61223    61255 
   61307    61338    61340    61325    61293    61239    61166    61083 
   61016    60991    61018    61068    61103    61130    61190    61284 
   61404    61566    61763    61971    62166    62333    62466    62568 
   62669    62779    62887    62992    63092    63182    63261    63334 
   63410    63486    63547    63597    63642    63651    63602    63505 
   63389    63276    63163    63045    62937    62845    62759    62691 
   62667    62676    62691    62712    62748    62787    62814    62812 
   62793    62793    62818    62843    62883    62955    63043    63120 
   63173    63210    63238    63249    63240    63224    63208    63182 
   63145    63111    63082    63054    63037    63038    63048    63040 
   63006    62955    62886    62788    62670    62547    62420    62319 
   62281    62295    62337    62415    62526    62669    62844    63037 
   63234    63446    63691    63965    64239    64495    64721    64908 
   65067    65216    65341    65425    65486    65544    65607    65668 
   65703    65698    65674    65648    65609    65548    65484    65425 
   65369    65329    65305    65278    65259    65258    65257    65256 
   65277    65334    65399    65427    65414    65396    65387    65368 
   65326    65258    65178    65101    65019    64921    64830    64775 
   64753    64750    64753    64750    64737    64719    64692    64635 
   64539    64418    64275    64108    63936    63773    63606    63418 
   63222    63039    62880    62748    62638    62558    62520    62497 
   62466    62441    62418    62383    62351    62331    62316    62312 
   62320    62316    62277    62198    62096    61983    61856    61732 
   61630    61548    61500    61503    61549    61613    61649    61657 
   61687    61738    61770    61785    61808    61847    61903    61966 
   62010    62018    61977    61895    61795    61674    61525    61373 
   61231    61085    60936    60795    60675    60582    60508    60452 
   60429    60460    60551    60690    60850    61003    61144    61283 
   61425    61563    61675    61741    61752    61720    61665    61596 
   61525    61482    61488    61537    61605    61674    61754    61861 
   62010    62198    62411    62659    62966    63316    63673    64019 
   64333    64586    64773    64907    64980    64987    64952    64901 
   64841    64762    64648    64503    64344    64181    64033    63919 
   63838    63782    63752    63735    63713    63680    63651    63653 
   63683    63691    63663    63622    63565    63464    63321    63155 
   62992    62844    62722    62645    62615    62618    62659    62733 
   62812    62881    62948    63004    63041    63080    63130    63175 
   63198    63203    63214    63240    63268    63290    63318    63362 
   63415    63469    63526    63567    63563    63517    63452    63394 
   63351    63317    63303    63339    63419    63502    63564    63611 
   63660    63710    63752    63767    63741    63688    63632    63578 
   63519    63442    63348    63241    63110    62946    62772    62619 
   62475    62337    62229    62151    62064    61948    61839    61772 
   61729    61683    61631    61585    61536    61475    61400    61309 
   61205    61112    61054    61057    61136    61268    61429    61627 
   61854    62077    62279    62467    62648    62814    62959    63087 
   63197    63277    63321    63352    63405    63482    63557    63620 
   63682    63746    63811    63870    63909    63921    63920    63934 
   63967    64011    64067    64146    64252    64381    64515    64630 
   64725    64799    64836    64854    64874    64885    64877    64862 
   64854    64852    64842    64825    64821    64845    64894    64954 
   64999    65022    65043    65054    65021    64934    64804    64637 
   64451    64262    64060    63821    63553    63267    62960    62644 
   62358    62117    61930    61809    61749    61726    61739    61776 
   61803    61794    61753    61700    61648    61603    61578    61577 
   61587    61596    61621    61701    61832    61980    62143    62313 
   62472    62631    62799    62979    63193    63432    63666    63891 
   64118    64346    64560    64760    64958    65149    65314    65436 
   65536    65620    65679    65720    65759    65801    65845    65887 
   65938    65998    66054    66125    66238    66375    66513    66644 
   66731    66748    66731    66698    66640    66578    66541    66530 
   66515    66475    66423    66365    66277    66163    66032    65875 
   65685    65449    65148    64814    64474    64111    63712    63297 
   62896    62521    62177    61858    61548    61236    60940    60669 
   60419    60201    60028    59909    59844    59811    59792    59804 
   59866    59983    60132    60258    60346    60423    60508    60595 
   60678    60785    60946    61148    61356    61553    61738    61916 
   62082    62218    62318    62378    62400    62396    62367    62319 
   62274    62239    62212    62196    62189    62215    62281    62359 
   62435    62509    62577    62651    62745    62861    63002    63165 
   63318    63431    63513    63577    63612    63603    63536    63411 
   63261    63126    63016    62917    62836    62787    62768    62765 
   62772    62807    62870    62936    62990    63035    63092    63168 
   63240    63295    63346    63394    63431    63459    63485    63499 
   63494    63465    63404    63310    63175    62989    62779    62570 
   62343    62110    61909    61735    61575    61431    61299    61166 
   61024    60877    60722    60556    60398    60278    60189    60118 
   60082    60085    60114    60162    60224    60293    60368    60463 
   60596    60761    60931    61089    61247    61409    61555    61676 
   61793    61935    62120    62339    62564    62780    63005    63251 
   63485    63689    63898    64133    64390    64663    64936    65209 
   65473    65711    65906    66041    66128    66193    66239    66257 
   66237    66165    66048    65922    65801    65677    65552    65434 
   65315    65177    65007    64807    64590    64370    64126    63843 
   63548    63274    63026    62806    62614    62442    62299    62201 
   62144    62122    62123    62134    62132    62113    62093    62071 
   62045    62031    62010    61967    61925    61899    61886    61892 
   61923    61983    62077    62188    62305    62431    62585    62765 
   62907    62988    63055    63085    63057    63020    62954    62865 
   62830    62852    62917    63030    63174    63323    63444    63529 
   63604    63689    63786    63870    63928    63973    64006    64011 
   63995    63971    63932    63864    63774    63690    63623    63568 
   63537    63505    63445    63403    63396    63386    63387    63407 
   63426    63455    63483    63487    63480    63459    63404    63332 
   63265    63207    63156    63125    63111    63107    63120    63167 
   63246    63337    63428    63527    63639    63755    63865    63955 
   64027    64100    64176    64247    64305    64353    64405    64454 
   64464    64445    64418    64367    64304    64238    64147    64027 
   63881    63720    63546    63362    63190    63037    62882    62728 
   62589    62483    62434    62449    62504    62580    62679    62820 
   62995    63162    63294    63398    63498    63592    63651    63673 
   63690    63700    63691    63663    63605    63529    63457    63368 
   63248    63117    62992    62874    62774    62709    62687    62709 
   62764    62837    62917    63001    63102    63222    63344    63457 
   63563    63666    63770    63869    63944    64008    64082    64117 
   64109    64094    64045    63975    63906    63823    63747    63694 
   63650    63600    63524    63433    63343    63257    63185    63124 
   63056    62966    62849    62706    62559    62425    62302    62200 
   62121    62033    61925    61824    61752    61690    61631    61609 
   61621    61661    61758    61889    62026    62177    62323    62467 
   62625    62799    63004    63225    63450    63681    63899    64085 
   64220    64298    64336    64355    64349    64317    64284    64257 
   64205    64133    64075    63993    63871    63767    63678    63585 
   63491    63377    63262    63178    63134    63126    63138    63147 
   63156    63175    63190    63196    63212    63232    63229    63203 
   63170    63122    63054    62978    62910    62859    62805    62751 
   62726    62721    62704    62698    62720    62743    62776    62825 
   62871    62911    62934    62938    62940    62933    62910    62886 
   62875    62871    62853    62810    62751    62691    62628    62542 
   62430    62312    62197    62089    62007    61955    61916    61898 
   61910    61944    62010    62107    62226    62375    62538    62695 
   62846    62977    63073    63128    63150    63144    63109    63049 
   62978    62898    62803    62694    62586    62498    62438    62412 
   62423    62472    62552    62660    62796    62941    63073    63199 
   63325    63437    63517    63574    63621    63638    63610    63567 
   63543    63539    63540    63544    63561    63582    63583    63550 
   63497    63455    63429    63392    63344    63308    63293    63300 
   63309    63313    63344    63422    63523    63617    63699    63781 
   63873    63975    64072    64152    64226    64307    64382    64447 
   64498    64535    64565    64587    64599    64610    64632    64671 
   64719    64749    64753    64748    64741    64729    64710    64675 
   64618    64547    64479    64429    64384    64329    64283    64255 
   64234    64218    64220    64233    64236    64219    64189    64143 
   64074    63997    63921    63836    63722    63575    63406    63234 
   63065    62896    62727    62561    62404    62270    62171    62099 
   62035    61964    61881    61782    61679    61584    61502    61441 
   61409    61397    61393    61396    61414    61443    61466    61481 
   61494    61503    61502    61487    61456    61413    61375    61360 
   61376    61410    61437    61462    61513    61591    61679    61780 
   61898    62033    62195    62381    62573    62758    62947    63152 
   63366    63568    63762    63968    64186    64406    64622    64830 
