Origin Time       2025/01/13 21:19:00
Lat.              31.8
Long.             131.6
Depth. (km)       30
Mag.              6.9
Station Code      KGSH06
Station Lat.      31.6988
Station Long.     130.4594
Station Height(m) -71.93
Record Time       2025/01/13 21:19:51
Sampling Freq(Hz) 100Hz
Duration Time(s)  205
Dir.              1
Scale Factor      2940(gal)/6170270
Max. Acc. (gal)   2.358
Last Correction   2025/01/13 21:19:36
Memo.             
[...]
   48016    48313    48542    48698    48803    48874    48941    49031 
   49144    49282    49441    49594    49707    49752    49699    49554 
   49345    49094    48822    48546    48256    47934    47582    47209 
   46838    46498    46218    46043    45993    46022    46068    46109 
   46119    46094    46061    46020    45945    45856    45785    45724 
   45663    45605    45553    45518    45511    45514    45527    45592 
   45723    45886    46071    46274    46476    46675    46879    47105 
   47338    47522    47623    47652    47629    47591    47555    47495 
   47428    47412    47453    47535    47659    47798    47927    48047 
   48150    48239    48303    48305    48232    48080    47850    47576 
   47321    47143    47055    47032    47052    47103    47179    47260 
   47304    47303    47286    47261    47229    47209    47208    47209 
   47194    47142    47040    46900    46743    46589    46457    46363 
   46307    46267    46215    46162    46149    46187    46264    46386 
   46581    46853    47172    47487    47734    47891    47991    48068 
   48136    48174    48156    48097    48023    47945    47880    47832 
   47810    47839    47912    47996    48074    48136    48180    48195 
   48177    48147    48096    47991    47843    47690    47540    47385 
   47230    47077    46933    46822    46766    46758    46760    46739 
   46707    46692    46701    46744    46833    46970    47126    47273 
   47403    47507    47568    47596    47637    47720    47812    47874 
   47910    47926    47929    47917    47879    47826    47758    47674 
   47624    47639    47693    47775    47906    48070    48221    48324 
   48376    48386    48368    48338    48298    48248    48190    48109 
   47998    47885    47801    47731    47652    47554    47454    47374 
   47302    47239    47199    47173    47164    47186    47222    47262 
   47306    47330    47304    47249    47215    47197    47155    47093 
   47045    47034    47047    47061    47092    47173    47308    47490 
   47702    47913    48105    48281    48424    48503    48491    48395 
   48262    48135    48015    47909    47830    47767    47719    47687 
   47671    47673    47686    47691    47688    47696    47728    47765 
   47750    47662    47546    47440    47335    47221    47113    47027 
   46955    46896    46888    46911    46907    46866    46803    46738 
   46664    46549    46441    46394    46381    46355    46326    46329 
   46387    46493    46619    46744    46883    47051    47241    47441 
   47639    47831    48032    48252    48472    48665    48811    48892 
   48921    48914    48868    48792    48708    48623    48547    48497 
   48479    48491    48506    48505    48501    48494    48464    48397 
   48296    48175    48048    47927    47828    47778    47790    47829 
   47860    47898    47947    47974    47991    48043    48130    48242 
   48383    48515    48612    48688    48747    48785    48780    48699 
   48546    48348    48139    47941    47746    47536    47319    47115 
   46929    46728    46490    46255    46070    45946    45855    45757 
   45641    45531    45454    45407    45363    45326    45336    45386 
   45439    45504    45577    45610    45601    45575    45539    45504 
   45481    45477    45496    45539    45596    45636    45633    45589 
   45510    45408    45320    45285    45303    45360    45453    45563 
   45657    45723    45759    45760    45720    45648    45556    45473 
   45435    45449    45503    45587    45679    45767    45856    45936 
   45979    45985    45987    46010    46044    46077    46132    46223 
   46335    46442    46548    46667    46808    46979    47178    47369 
   47530    47675    47822    47973    48115    48215    48253    48246 
   48219    48191    48176    48165    48140    48108    48096    48103 
   48104    48081    48014    47895    47750    47614    47497    47412 
   47396    47484    47659    47862    48053    48218    48328    48368 
   48348    48296    48261    48270    48316    48374    48423    48444 
   48454    48470    48482    48468    48424    48359    48302    48258 
   48200    48109    48001    47886    47747    47560    47343    47135 
   46942    46727    46490    46277    46130    46043    45977    45914 
   45866    45831    45794    45770    45788    45864    45991    46142 
   46300    46459    46613    46761    46922    47090    47221    47290 
   47316    47320    47298    47246    47188    47138    47092    47038 
   46961    46862    46742    46597    46442    46306    46206    46140 
   46089    46061    46084    46151    46238    46325    46399    46465 
   46533    46595    46652    46733    46842    46947    47020    47053 
   47060    47049    47021    46997    46999    47025    47079    47190 
   47350    47506    47635    47736    47811    47874    47928    47970 
   48008    48048    48086    48111    48122    48124    48116    48090 
   48045    47989    47940    47920    47928    47934    47920    47884 
   47841    47816    47821    47848    47875    47881    47863    47830 
   47791    47740    47667    47583    47518    47485    47475    47494 
   47558    47650    47747    47845    47934    47996    48013    47990 
   47933    47856    47780    47703    47605    47478    47334    47170 
   46985    46786    46578    46374    46189    46019    45858    45703 
   45561    45436    45322    45212    45118    45041    44983    44963 
   45004    45104    45238    45382    45523    45655    45775    45882 
   45979    46072    46158    46257    46415    46629    46850    47060 
   47267    47477    47688    47880    48041    48161    48233    48261 
   48255    48226    48168    48049    47870    47667    47462    47266 
   47090    46928    46771    46624    46488    46356    46223    46098 
   45984    45872    45761    45655    45570    45522    45516    45563 
   45670    45809    45945    46079    46230    46411    46617    46839 
   47076    47328    47590    47843    48072    48282    48484    48685 
   48868    49008    49107    49177    49235    49307    49398    49494 
   49577    49638    49673    49687    49699    49730    49774    49821 
   49866    49895    49894    49870    49847    49839    49835    49839 
   49869    49914    49953    49980    49983    49955    49896    49807 
   49707    49620    49536    49421    49266    49095    48925    48755 
   48586    48427    48299    48215    48149    48081    48034    48011 
   47988    47968    47958    47950    47924    47869    47799    47730 
   47655    47573    47482    47358    47174    46923    46616    46283 
   45969    45704    45495    45329    45191    45077    44988    44916 
   44843    44759    44673    44600    44548    44530    44554    44613 
   44692    44780    44866    44949    45038    45133    45226    45324 
   45421    45503    45559    45599    45639    45687    45740    45789 
   45823    45842    45850    45857    45867    45863    45851    45861 
   45898    45943    45997    46070    46150    46223    46283    46317 
   46315    46282    46220    46131    46028    45920    45783    45603 
   45407    45232    45098    45011    44975    44997    45072    45183 
   45325    45496    45681    45857    46009    46131    46225    46318 
   46454    46642    46860    47098    47343    47584    47826    48052 
   48229    48359    48447    48482    48465    48415    48336    48227 
   48093    47961    47866    47823    47838    47904    47996    48103 
   48212    48307    48401    48508    48615    48726    48864    49016 
   49154    49276    49383    49458    49506    49560    49614    49639 
   49632    49596    49531    49455    49378    49285    49183    49089 
   49001    48917    48831    48730    48623    48538    48470    48401 
   48327    48247    48159    48069    47973    47869    47752    47616 
   47461    47308    47168    47047    46948    46863    46761    46626 
   46478    46334    46203    46095    45994    45891    45801    45721 
   45630    45538    45479    45464    45475    45494    45511    45529 
   45559    45601    45648    45706    45783    45881    45983    46047 
   46048    46008    45954    45885    45779    45634    45459    45264 
   45073    44927    44845    44832    44881    44976    45105    45251 
   45383    45491    45585    45678    45784    45920    46076    46240 
   46410    46569    46685    46756    46796    46818    46844    46895 
   46975    47084    47215    47347    47453    47524    47570    47595 
   47602    47588    47543    47469    47375    47263    47144    47029 
   46927    46845    46794    46784    46813    46862    46903    46917 
   46900    46861    46818    46784    46758    46738    46727    46737 
   46785    46877    47009    47188    47402    47617    47813    48006 
   48207    48393    48550    48685    48786    48833    48832    48799 
   48759    48745    48761    48769    48748    48720    48692    48651 
   48602    48551    48488    48402    48279    48125    47968    47814 
   47653    47499    47364    47259    47186    47118    47031    46925 
   46801    46661    46510    46347    46183    46041    45924    45820 
   45735    45686    45674    45705    45783    45913    46102    46332 
   46574    46816    47054    47276    47483    47688    47897    48110 
   48313    48497    48662    48804    48915    48981    48988    48950 
   48896    48824    48740    48668    48593    48496    48394    48288 
   48157    47984    47768    47531    47300    47085    46882    46691 
   46509    46340    46203    46120    46089    46090    46116    46158 
   46201    46242    46281    46301    46295    46275    46234    46167 
   46119    46121    46147    46180    46230    46304    46408    46560 
   46752    46969    47216    47504    47830    48189    48562    48932 
   49307    49695    50076    50411    50691    50927    51108    51219 
   51271    51271    51229    51161    51059    50915    50735    50498 
   50190    49837    49483    49138    48790    48438    48096    47773 
   47467    47170    46883    46610    46350    46119    45954    45856 
   45794    45755    45744    45768    45829    45912    45989    46053 
   46109    46175    46262    46360    46453    46535    46612    46696 
   46808    46945    47084    47214    47330    47409    47443    47456 
   47462    47447    47413    47377    47351    47348    47367    47384 
   47378    47348    47315    47304    47300    47268    47201    47111 
   46989    46812    46579    46324    46069    45820    45578    45350 
   45138    44923    44700    44485    44289    44118    43983    43900 
   43863    43842    43824    43814    43821    43870    43962    44077 
   44207    44356    44531    44743    44973    45208    45446    45677 
   45890    46083    46249    46382    46494    46606    46721    46825 
   46928    47043    47157    47261    47363    47456    47523    47568 
   47601    47629    47651    47661    47667    47672    47688    47733 
   47808    47890    47966    48040    48112    48171    48205    48206 
   48175    48126    48068    48005    47948    47904    47861    47805 
   47730    47645    47584    47573    47603    47653    47727    47837 
   47963    48084    48193    48281    48356    48429    48484    48515 
   48530    48542    48556    48561    48536    48474    48395    48311 
   48216    48122    48050    48002    47981    47984    47997    47991 
   47953    47893    47841    47814    47790    47765    47780    47829 
   47868    47911    47957    47998    48048    48092    48119    48124 
   48093    48030    47925    47766    47568    47359    47141    46909 
   46692    46521    46377    46232    46089    45956    45824    45681 
   45537    45398    45268    45175    45146    45172    45232    45321 
   45427    45530    45644    45771    45886    45995    46099    46181 
   46241    46285    46323    46362    46400    46426    46424    46394 
   46340    46263    46171    46080    46003    45946    45900    45854 
   45819    45807    45813    45826    45840    45859    45899    45957 
   46027    46135    46273    46404    46496    46520    46479    46401 
   46310    46225    46147    46062    45960    45859    45798    45806 
   45872    45981    46130    46312    46504    46689    46864    47028 
   47170    47274    47344    47401    47465    47545    47638    47764 
   47940    48149    48354    48525    48655    48770    48891    49018 
   49145    49263    49374    49462    49507    49524    49527    49520 
   49501    49460    49399    49325    49222    49075    48887    48675 
   48466    48277    48122    48019    47989    48030    48104    48163 
   48192    48221    48296    48423    48579    48758    48960    49164 
   49351    49520    49662    49759    49811    49819    49795    49775 
   49775    49774    49761    49750    49750    49764    49794    49828 
   49843    49839    49830    49806    49751    49652    49508    49340 
   49177    49027    48892    48778    48700    48673    48685    48721 
   48792    48906    49040    49163    49256    49314    49340    49330 
   49290    49224    49111    48946    48748    48538    48330    48131 
   47950    47804    47693    47593    47491    47390    47295    47229 
   47179    47120    47067    47013    46937    46843    46733    46607 
   46451    46257    46051    45852    45656    45464    45281    45107 
   44935    44763    44590    44422    44264    44113    43968    43824 
   43670    43511    43346    43177    43013    42859    42709    42553 
   42421    42346    42303    42274    42266    42255    42236    42252 
   42344    42517    42742    42994    43259    43515    43755    43979 
   44126    44190    44326    44506    44535    44589    44779    44895 
   45020    45205    45319    45420    45513    45560    45610    45675 
   45731    45772    45855    45954    46026    46146    46308    46465 
   46641    46781    46846    46847    46786    46694    46583    46471 
   46396    46361    46344    46350    46410    46540    46695    46853 
   47013    47155    47304    47466    47603    47728    47860    47998 
   48163    48356    48537    48710    48887    49023    49141    49262 
   49351    49429    49491    49509    49493    49447    49377    49297 
   49207    49101    48978    48846    48707    48566    48438    48325 
   48223    48129    48051    48010    47990    47960    47949    47972 
   48003    48027    48062    48115    48164    48200    48246    48324 
   48396    48448    48525    48605    48679    48760    48828    48894 
   48942    48949    48936    48888    48816    48742    48664    48587 
   48499    48414    48349    48281    48205    48131    48059    47999 
   47965    47952    47949    47945    47938    47935    47919    47888 
   47887    47904    47893    47881    47863    47819    47781    47754 
   47735    47720    47688    47641    47592    47540    47480    47408 
   47313    47202    47082    46963    46856    46767    46696    46644 
   46608    46594    46614    46661    46697    46728    46795    46856 
   46902    46982    47056    47116    47173    47204    47244    47291 
   47348    47462    47616    47817    48066    48341    48663    49022 
   49385    49750    50094    50395    50653    50867    51049    51220 
   51349    51405    51406    51357    51265    51147    50984    50809 
   50647    50452    50227    49962    49659    49363    49059    48749 
   48456    48167    47896    47645    47395    47143    46903    46684 
   46487    46305    46130    45969    45819    45672    45556    45498 
   45456    45422    45471    45570    45667    45815    45982    46140 
   46335    46528    46673    46784    46857    46894    46897    46870 
   46846    46838    46828    46809    46787    46763    46726    46653 
   46542    46401    46245    46070    45866    45659    45470    45292 
   45130    44980    44792    44596    44453    44339    44266    44259 
   44288    44373    44527    44737    44985    45243    45506    45770 
   46015    46240    46448    46639    46811    46955    47065    47134 
   47157    47135    47065    46960    46842    46718    46585    46442 
   46293    46170    46100    46053    46001    45981    45988    46005 
   46035    46058    46083    46127    46186    46265    46360    46452 
   46547    46664    46796    46921    47048    47196    47361    47521 
   47669    47810    47943    48063    48160    48225    48259    48250 
   48201    48148    48088    48018    47949    47865    47767    47666 
   47552    47428    47289    47136    46980    46822    46682    46574 
   46480    46391    46322    46286    46283    46313    46376    46464 
   46567    46675    46774    46842    46876    46880    46858    46829 
   46803    46775    46741    46688    46607    46509    46405    46307 
   46230    46170    46135    46131    46139    46159    46198    46258 
   46329    46396    46469    46568    46695    46841    46989    47128 
   47267    47405    47528    47650    47777    47898    48013    48115 
   48193    48214    48173    48105    48021    47937    47867    47787 
   47686    47579    47479    47394    47332    47291    47250    47204 
   47178    47186    47214    47249    47281    47296    47281    47249 
   47221    47200    47178    47152    47120    47084    47047    46997 
   46910    46794    46675    46563    46459    46374    46313    46275 
   46276    46327    46430    46579    46757    46938    47108    47260 
   47384    47480    47555    47621    47687    47759    47842    47927 
   47995    48029    48021    47977    47916    47846    47757    47651 
   47526    47368    47173    46955    46740    46553    46404    46281 
   46166    46055    45956    45872    45790    45703    45622    45562 
   45528    45515    45520    45549    45598    45665    45747    45843 
   45954    46080    46228    46407    46612    46834    47054    47255 
   47432    47591    47734    47861    47962    48036    48099    48167 
   48239    48302    48354    48389    48399    48389    48382    48390 
   48408    48431    48447    48437    48407    48369    48325    48281 
   48246    48217    48188    48157    48125    48093    48063    48025 
   47962    47879    47783    47669    47546    47430    47326    47235 
   47155    47093    47054    47034    47021    47007    46992    46979 
   46970    46960    46940    46914    46888    46873    46880    46907 
   46950    47019    47117    47229    47329    47400    47454    47510 
   47568    47618    47663    47704    47750    47804    47868    47944 
   48018    48085    48156    48223    48266    48295    48314    48312 
   48285    48237    48156    48037    47889    47723    47549    47373 
   47206    47061    46935    46806    46661    46517    46394    46287 
   46183    46093    46020    45955    45898    45868    45871    45899 
   45929    45940    45917    45857    45766    45643    45510    45396 
   45305    45233    45196    45195    45212    45240    45282    45337 
   45392    45448    45506    45571    45644    45724    45802    45867 
   45927    45995    46071    46148    46220    46282    46336    46382 
   46413    46435    46456    46475    46484    46493    46524    46574 
   46632    46690    46753    46837    46953    47099    47267    47447 
   47626    47777    47884    47960    48009    48024    48007    47972 
   47938    47935    47972    48041    48134    48238    48329    48389 
