Origin Time       2025/01/13 21:19:00
Lat.              31.8
Long.             131.6
Depth. (km)       30
Mag.              6.9
Station Code      KGSH08
Station Lat.      31.5618
Station Long.     130.9969
Station Height(m) -53.603
Record Time       2025/01/13 21:19:45
Sampling Freq(Hz) 100Hz
Duration Time(s)  120
Dir.              1
Scale Factor      2940(gal)/6170270
Max. Acc. (gal)   7.447
Last Correction   2025/01/13 21:19:30
Memo.             
[...]
   90182    90138    89796    89245    88798    88410    87791    87108 
   86634    86247    85835    85407    85004    84697    84358    83922 
   83592    83364    83092    82895    82924    83088    83191    83306 
   83738    84515    85441    86358    87179    87933    88643    89242 
   89818    90556    91300    91793    92109    92325    92433    92516 
   92540    92389    92023    91538    91149    90873    90519    90058 
   89544    88909    88180    87557    87191    87145    87334    87605 
   87918    88325    88945    89797    90741    91684    92613    93576 
   94547    95249    95467    95456    95495    95437    95109    94550 
   93810    92991    92200    91431    90657    89862    88994    88037 
   87038    86106    85528    85484    85413    84811    84226    83883 
   83344    82856    82611    82381    82306    82458    82739    83135 
   83516    83808    84120    84553    85096    85705    86354    87034 
   87745    88445    89048    89621    90195    90581    90839    91264 
   91811    92235    92484    92632    92677    92481    92082    91739 
   91463    91120    90710    90156    89464    88878    88581    88592 
   88884    89362    89843    90278    90724    91100    91374    91639 
   91821    91800    91749    91779    91606    91247    91031    90862 
   90560    90221    90056    90108    90140    90231    90643    91214 
   91804    92324    92529    92386    92024    91423    90619    89831 
   89047    88254    87707    87263    86649    86060    85868    86228 
   86775    87295    88022    88748    89254    89786    90304    90608 
   90716    90640    90424    90180    89959    89744    89477    89125 
   88748    88478    88302    88085    87908    87977    88230    88368 
   88230    87979    87890    87942    87849    87578    87285    86871 
   86306    85824    85590    85727    86185    86653    87080    87698 
   88374    88830    89291    89943    90504    90743    90590    90225 
   90050    90049    89902    89623    89255    88465    87238    86150 
   85388    84676    84039    83711    83658    83645    83625    83752 
   83992    84197    84519    85148    85952    86791    87699    88567 
   89207    89731    90312    90767    90972    91129    91369    91669 
   91995    92328    92709    93037    92845    91892    90935    90460 
   89758    88852    88257    87446    86345    85382    84439    83537 
   82719    81918    81297    80990    81041    81400    81972    82716 
   83463    84081    84713    85384    85998    86748    87821    89066 
   90254    91278    92099    92678    93043    93307    93530    93720 
   93965    94323    94737    95340    96030    96132    95909    96111 
   95934    95219    95007    94896    94602    94459    94130    93843 
   93834    93624    93045    92366    91836    91465    91266    91295 
   91332    91144    90854    90693    90623    90488    90319    90155 
   90020    90224    90890    91659    92372    93059    93506    93605 
   93428    92901    92127    91445    90792    89918    89009    88179 
   87334    86620    86084    85698    85635    85941    86397    86763 
   87089    87586    88146    88439    88464    88459    88363    87981 
   87434    86945    86577    86419    86542    86755    86937    87301 
   87824    88177    88356    88622    89000    89270    89347    89335 
   89348    89416    89444    89404    89477    89718    89887    89758 
   89393    89050    88814    88531    88233    88161    88274    88363 
   88517    88928    89527    90071    90352    90399    90438    90437 
   90190    89762    89297    88728    87944    86990    86101    85450 
   84982    84628    84353    84069    83871    83912    84009    83926 
   83842    83977    84263    84566    84832    85106    85460    85926 
   86469    86971    87445    87979    88594    89325    90037    90612 
   91201    91819    92363    92837    93153    93187    93058    92951 
   92575    91632    90837    90604    89947    88833    88215    87884 
   87624    87671    87890    88201    88463    88654    88891    89058 
   89106    89009    88734    88365    87881    87255    86622    86032 
   85387    84782    84389    84113    83858    83705    83777    84123 
   84590    85076    85668    86341    86894    87170    87269    87462 
   87816    88159    88375    88384    88076    87540    87068    86774 
   86501    86061    85503    85089    84937    84998    85208    85442 
   85717    86198    86860    87495    88021    88508    88941    89352 
   89949    90725    91410    91893    92223    92378    92313    92129 
   92093    92311    92572    92688    92715    92741    92641    92416 
   92302    92151    91835    91684    91696    91752    91964    92194 
   92255    92167    92053    91999    91967    91949    91926    91831 
   91639    91236    90630    90147    89979    90066    90320    90600 
   90769    90856    90953    90954    90767    90580    90499    90425 
   90395    90468    90496    90401    90342    90331    90231    90144 
   90100    89898    89634    89384    89020    88661    88401    88217 
   88173    88232    88315    88444    88638    88869    89141    89460 
   89708    89771    89752    89802    89895    89974    90036    89919 
   89526    89078    88765    88506    88162    87715    87234    86769 
   86392    86236    86326    86529    86744    86999    87382    87927 
   88480    88760    88716    88556    88369    88104    87816    87643 
   87644    87847    88268    88761    89179    89570    89925    90168 
   90374    90650    90990    91371    91729    91618    90741    89908 
   89491    88635    87613    87084    86543    86145    86118    85992 
   85871    85746    85336    84915    84778    84820    84796    84720 
   84805    84992    85182    85508    85898    86147    86316    86566 
   86955    87450    87948    88338    88578    88694    88757    88797 
   88744    88632    88610    88727    88889    88936    88796    88515 
   88095    87522    86903    86411    86081    85791    85466    85094 
   84667    84259    83997    83904    83943    84076    84245    84433 
   84679    84974    85234    85376    85414    85418    85406    85388 
   85401    85446    85458    85339    85115    84953    84906    85022 
   85441    86109    86804    87406    87901    88292    88637    89083 
   89738    90510    91154    91492    91531    91379    91133    90841 
   90536    90245    89992    89729    89338    88950    88796    88591 
   88128    87826    87780    87813    88093    88596    89092    89537 
   89961    90420    90927    91454    92061    92874    93850    94766 
   95515    96082    96460    96718    96887    97037    97310    97596 
   97737    97835    97889    97835    97821    97894    97855    97480 
   96723    95783    94876    94083    93455    93028    92784    92701 
   92745    92763    92586    92253    91862    91361    90736    90161 
   89770    89512    89261    88965    88722    88704    88958    89383 
   89905    90488    91033    91489    91937    92328    92406    92149 
   91788    91429    91144    90972    90874    90917    91068    91139 
   91165    91340    91628    91751    91636    91375    90782    89852 
   88959    88117    87121    86040    85118    84575    84319    84127 
   84109    84359    84656    84918    85224    85507    85745    86036 
   86365    86586    86633    86610    86570    86482    86410    86417 
   86477    86569    86688    86824    86969    87092    87171    87205 
   87151    86983    86802    86616    86388    86186    85909    85488 
   85032    84441    83724    83144    82768    82526    82476    82698 
   83051    83255    83257    83297    83585    84052    84582    85212 
   85852    86381    86847    87193    87399    87626    87929    88251 
   88498    88601    88638    88723    88878    89151    89602    90132 
   90617    91069    91455    91673    91744    91788    91916    92189 
   92519    92783    92918    92753    92392    92124    91701    91121 
   90810    90604    90361    90149    89780    89334    89046    88876 
   88754    88706    88728    88790    88842    88781    88607    88389 
   88090    87720    87341    87035    86875    86778    86627    86451 
   86297    86154    85993    85794    85598    85457    85313    85104 
   84895    84781    84767    84821    84989    85407    86079    86789 
   87396    87948    88488    89012    89524    89997    90343    90474 
   90408    90197    89796    89169    88409    87655    86951    86150 
   85258    84685    84581    84500    84241    84138    84257    84471 
   84864    85284    85577    85861    86089    86183    86274    86481 
   86749    87017    87438    88097    88787    89349    89850    90372 
   90883    91344    91796    92261    92720    93205    93619    93643 
   93469    93682    93910    93679    93456    93211    92699    92327 
   92168    92075    92035    91909    91652    91349    91119    91029 
   91037    91172    91399    91549    91566    91457    91242    91092 
   91069    91046    91043    91089    91033    90924    90954    91109 
   91352    91640    91860    92027    92238    92441    92474    92303 
   92022    91706    91399    91129    90889    90632    90323    89989 
   89680    89425    89252    89139    89027    88914    88860    88887 
   88915    88866    88772    88609    88205    87565    86890    86257 
   85721    85334    84984    84623    84271    83913    83639    83542 
   83618    83832    84110    84321    84355    84292    84308    84446 
   84717    85027    85206    85359    85630    85989    86470    86987 
   87276    87357    87413    87435    87429    87432    87378    87260 
   87123    86972    86765    86460    86129    85855    85626    85430 
   85305    85242    85119    84853    84508    84188    83959    83843 
   83833    83960    84280    84788    85377    85938    86435    86893 
   87334    87731    88071    88461    89035    89774    90569    91320 
   91963    92508    93042    93678    94436    95317    96367    97253 
   97424    97353    97753    97916    97660    97785    97822    97498 
   97300    96984    96515    96115    95680    95211    94781    94473 
   94308    94192    94049    93805    93376    92756    92016    91216 
   90386    89598    88957    88536    88359    88379    88538    88770 
   88954    88977    88798    88412    87923    87532    87284    87043 
   86827    86747    86657    86451    86351    86485    86665    86747 
   86876    87120    87252    87122    86769    86280    85676    84981 
   84400    84073    83937    84020    84349    84795    85292    85879 
   86508    87111    87700    88324    89002    89699    90348    90877 
   91238    91449    91540    91548    91577    91730    91910    91820 
   91402    91022    90800    90564    90438    90454    90545    90885 
   91385    91767    91986    92032    91878    91610    91364    91096 
   90696    90264    89857    89406    88983    88609    88191    87871 
   87773    87750    87796    87995    88243    88438    88578    88688 
   88774    88781    88661    88435    88186    87969    87810    87737 
   87753    87862    88134    88627    89343    90245    91243    92224 
   93151    94017    94671    94790    94312    93640    92981    92154 
   91204    90321    89483    88714    88137    87688    87257    86921 
   86655    86349    86082    85847    85602    85397    85104    84686 
   84194    83529    82778    82133    81622    81238    80928    80621 
   80341    80113    79910    79737    79709    79968    80401    80705 
   80838    80956    81056    81118    81153    81154    81216    81404 
   81652    81927    82239    82642    83241    84016    84834    85627 
   86439    87254    87901    88366    88737    88938    88918    88811 
   88774    88790    88778    88774    88869    89114    89471    89913 
   90419    90852    91120    91308    91457    91514    91532    91643 
   91730    91395    90703    90309    90232    90110    90250    90686 
   90992    91196    91455    91774    92055    92227    92460    92727 
   92878    93027    93217    93366    93474    93545    93599    93669 
   93705    93597    93392    93267    93201    93089    93047    93112 
   93209    93381    93576    93754    94033    94363    94610    94906 
   95368    95802    96144    96444    96598    96703    96929    97295 
   97855    98639    99478    99928   100016   100413   101027   101329 
  101605   102026   102207   102112   101904   101511   100881   100115 
   99263    98349    97463    96576    95533    94229    92720    91145 
   89621    88280    87161    86209    85371    84648    84125    83803 
   83580    83365    83106    82894    82875    83020    83078    82989 
   82900    82595    81922    81207    80532    79796    79138    78632 
   78249    77939    77638    77316    76963    76651    76480    76516 
   76746    77098    77494    77857    78198    78532    78782    78892 
   78964    79097    79189    79189    79130    78971    78728    78520 
   78387    78327    78437    78708    79047    79451    79914    80404 
   80920    81554    82277    82977    83734    84526    85205    85766 
   86242    86697    87090    87227    87219    87228    87122    87001 
   87018    87047    87096    87148    87070    86931    86872    86899 
   86935    86984    87245    87892    88685    89253    89827    90650 
   91449    92262    93205    94050    94809    95599    96476    97521 
   98591    99490   100248   100974   101671   102258   102693   103002 
  103249   103468   103614   103787   104091   104313   104331   104256 
  104078   103727   103210   102532   101682   100685    99558    98285 
   96926    95533    94108    92733    91479    90374    89460    88714 
   88067    87481    86999    86635    86300    85928    85514    85103 
   84739    84434    84222    84109    84052    84048    84120    84197 
   84157    84081    84173    84405    84651    84914    85099    85119 
   85080    85066    85096    85162    85232    85252    85136    84857 
   84430    83895    83375    82981    82734    82606    82555    82549 
   82570    82649    82853    83140    83350    83401    83355    83234 
   83044    82890    82816    82719    82556    82362    82120    81833 
   81526    81262    81155    81317    81749    82322    82959    83630 
   84334    85112    85945    86763    87542    88294    88981    89558 
   90052    90510    90927    91258    91490    91729    92089    92537 
   92984    93390    93708    93918    94053    94127    94105    93971 
   93742    93404    92939    92380    91798    91288    90926    90731 
   90689    90689    90572    90293    89880    89381    88866    88398 
   87995    87664    87453    87405    87466    87537    87643    87904 
   88357    88898    89426    89964    90514    90958    91247    91465 
   91595    91518    91239    90880    90511    90143    89804    89511 
   89262    89094    89057    89155    89344    89563    89763    89913 
   89996    89984    89869    89703    89500    89232    88899    88514 
   88108    87729    87360    86936    86503    86208    86130    86260 
   86615    87208    87941    88646    89231    89672    89930    90002 
   89976    89938    89850    89637    89290    88824    88315    87859 
   87529    87382    87365    87384    87464    87610    87764    87959 
   88242    88578    88893    89140    89348    89554    89755    89948 
   90129    90271    90291    90140    89903    89681    89512    89436 
   89494    89658    89876    90153    90470    90731    90868    90876 
   90804    90720    90630    90508    90381    90277    90222    90260 
   90377    90497    90600    90718    90823    90855    90821    90751 
   90660    90594    90613    90692    90789    90897    90990    91024 
   90987    90921    90867    90820    90757    90675    90545    90271 
   89783    89128    88409    87685    86969    86310    85795    85468 
   85327    85385    85630    85992    86400    86869    87479    88200 
   88906    89513    89999    90337    90444    90231    89754    89175 
   88551    87866    87198    86640    86229    86052    86163    86512 
   87081    87900    88913    89990    91001    91830    92385    92697 
   92853    92838    92609    92202    91675    91107    90598    90207 
   89924    89731    89632    89629    89719    89896    90100    90203 
   90061    89644    89035    88264    87283    86122    84924    83859 
   83074    82644    82544    82740    83205    83905    84858    86035 
   87293    88507    89615    90571    91335    91914    92364    92716 
   92969    93143    93281    93440    93634    93778    93799    93735 
   93632    93539    93589    93872    94312    94776    95180    95443 
   95481    95252    94724    93879    92802    91620    90363    89038 
   87700    86386    85097    83823    82617    81620    80937    80509 
   80335    80583    81204    81971    82796    83530    84009    84231 
   84211    84011    83717    83384    83094    82854    82629    82447 
   82327    82305    82487    82920    83554    84334    85124    85782 
   86299    86665    86829    86827    86683    86358    85976    85678 
   85350    84902    84422    84016    83736    83591    83602    83783 
   84122    84612    85175    85719    86279    86846    87285    87597 
   87894    88198    88481    88724    88932    89139    89365    89649 
   90078    90642    91240    91859    92515    93105    93534    93786 
   93785    93532    93160    92709    92210    91758    91371    91013 
   90695    90449    90301    90259    90296    90417    90642    90889 
   91023    91009    90908    90707    90456    90331    90273    90197 
   90204    90249    90287    90379    90535    90813    91213    91623 
   91994    92313    92521    92574    92532    92462    92359    92221 
   92047    91851    91697    91604    91501    91355    91220    91135 
   91097    91093    91103    91072    90940    90722    90493    90267 
   89988    89644    89268    88872    88451    87991    87499    87054 
   86731    86499    86282    86058    85836    85638    85517    85497 
   85562    85656    85683    85582    85399    85234    85145    85109 
   85083    85055    85005    84938    84871    84774    84609    84343 
   84009    83737    83573    83469    83432    83512    83705    83992 
   84424    84971    85522    86045    86522    86902    87183    87405 
   87633    87893    88101    88219    88334    88488    88676    88953 
   89329    89731    90120    90542    91088    91777    92528    93279 
   93991    94563    94893    95029    95111    95139    95037    94852 
   94636    94363    94082    93855    93661    93500    93414    93416 
   93513    93697    93907    94040    94016    93840    93570    93252 
   92885    92485    92102    91721    91285    90805    90294    89717 
   89073    88418    87792    87201    86653    86177    85751    85317 
   84881    84477    84091    83722    83431    83259    83196    83221 
   83324    83479    83653    83851    84116    84464    84888    85358 
   85828    86291    86763    87237    87715    88202    88655    89002 
   89259    89476    89586    89543    89413    89233    88991    88703 
   88376    87976    87511    87050    86661    86395    86291    86324 
   86385    86362    86225    86022    85819    85647    85530    85481 
   85482    85538    85680    85903    86179    86497    86852    87247 
