Origin Time       2025/01/13 21:19:00
Lat.              31.8
Long.             131.6
Depth. (km)       30
Mag.              6.9
Station Code      KGSH07
Station Lat.      31.7140
Station Long.     130.6149
Station Height(m) -295.595
Record Time       2025/01/13 21:19:49
Sampling Freq(Hz) 100Hz
Duration Time(s)  242
Dir.              2
Scale Factor      2942(gal)/8224139
Max. Acc. (gal)   4.911
Last Correction   2025/01/13 21:19:49
Memo.             
[...]
  158549   158292   158001   157643   157227   156844   156600   156510 
  156564   156791   157161   157504   157628   157546   157519   157709 
  157968   158120   158218   158375   158575   158778   158997   159159 
  159146   158988   158808   158653   158515   158384   158210   157929 
  157516   157036   156577   156180   155964   156118   156570   157015 
  157334   157642   157970   158134   157986   157729   157712   157937 
  158184   158403   158696   159057   159345   159491   159582   159698 
  159807   159871   159875   159732   159362   158847   158400   158145 
  157998   157815   157554   157295   157145   157121   157149   157148 
  157034   156752   156342   155888   155480   155274   155363   155614 
  155846   156049   156244   156428   156598   156691   156639   156521 
  156487   156568   156729   156961   157229   157458   157584   157565 
  157377   157023   156604   156261   156012   155756   155490   155389 
  155537   155785   156001   156278   156637   156865   156849   156786 
  156861   156996   157044   156986   156888   156825   156901   157192 
  157581   157864   158022   158137   158205   158203   158184   158202 
  158248   158326   158499   158735   158874   158834   158685   158496 
  158220   157798   157291   156824   156469   156169   155834   155559 
  155590   155974   156486   156941   157311   157531   157493   157292 
  157235   157477   157835   158121   158356   158652   159051   159440 
  159632   159561   159254   158741   158099   157481   157056   156880 
  156899   157067   157408   157945   158531   158904   159000   158985 
  158969   158849   158475   157864   157167   156563   156247   156317 
  156667   157108   157519   157819   157962   157994   158071   158272 
  158504   158666   158753   158803   158876   158985   159039   158915 
  158549   158029   157542   157211   157023   156901   156826   156867 
  157068   157366   157603   157661   157543   157314   157046   156838 
  156749   156771   156886   157106   157383   157623   157806   157970 
  158097   158074   157815   157420   157135   157071   157100   157054 
  156874   156648   156497   156406   156288   156136   156043   156074 
  156174   156261   156303   156273   156215   156277   156477   156675 
  156814   156996   157350   157831   158278   158673   159123   159614 
  160033   160307   160435   160455   160396   160228   159942   159588 
  159204   158788   158406   158201   158206   158263   158226   158093 
  157897   157651   157343   156917   156315   155568   154795   154105 
  153543   153134   152913   152883   153017   153264   153547   153871 
  154319   154928   155664   156482   157339   158134   158687   158940 
  159074   159254   159421   159416   159197   158889   158687   158704 
  158908   159185   159437   159628   159783   159912   159992   159999 
  159931   159798   159580   159228   158751   158260   157866   157596 
  157428   157351   157365   157459   157682   158160   158884   159578 
  159973   160068   160003   159883   159746   159614   159560   159663 
  159892   160164   160405   160535   160419   159930   159104   158148 
  157246   156481   155877   155457   155309   155520   155981   156371 
  156443   156324   156343   156556   156694   156554   156240   155970 
  155748   155366   154737   154010   153338   152753   152355   152327 
  152709   153331   154001   154642   155174   155399   155302   155206 
  155348   155574   155692   155760   155829   155795   155622   155405 
  155229   155150   155240   155461   155672   155868   156182   156620 
  157034   157396   157873   158526   159186   159726   160143   160367 
  160270   159862   159294   158627   157824   156924   156065   155371 
  154958   154912   155151   155472   155829   156354   157075   157790 
  158372   158881   159320   159533   159460   159236   158942   158539 
  158143   157971   158041   158211   158485   158946   159464   159800 
  159933   160047   160254   160466   160546   160444   160251   160116 
  160135   160220   160162   159907   159614   159362   159046   158626 
  158241   158043   158101   158444   158976   159444   159686   159813 
  160019   160294   160523   160698   160830   160817   160552   160070 
  159484   158870   158233   157549   156864   156323   156065   156163 
  156664   157588   158842   160173   161239   161767   161804   161624 
  161365   161042   160739   160531   160359   160154   160051   160209 
  160402   160245   159641   158716   157547   156280   155177   154375 
  153827   153486   153368   153459   153674   153959   154384   154948 
  155472   155818   156087   156452   156871   157195   157412   157593 
  157817   158151   158485   158608   158460   158134   157711   157287 
  157080   157291   157878   158658   159582   160658   161719   162500 
  162830   162672   162082   161133   159952   158770   157829   157150 
  156535   155889   155374   155198   155348   155568   155661   155646 
  155576   155355   154888   154337   154014   154053   154307   154623 
  155042   155657   156382   156965   157216   157137   156901   156766 
  156918   157374   158001   158637   159165   159543   159813   160029 
  160173   160195   160073   159813   159428   159031   158785   158738 
  158764   158674   158295   157557   156556   155513   154658   154093 
  153747   153504   153293   153123   153052   153141   153451   153967 
  154612   155464   156655   158099   159595   160961   162016   162622 
  162680   162160   161146   159798   158313   156841   155491   154535 
  154147   154072   154201   154718   155484   156238   157011   157921 
  158927   159811   160342   160456   160205   159644   158916   158278 
  157874   157621   157420   157281   157187   156975   156512   155973 
  155714   155821   156035   156109   156055   156085   156342   156732 
  157006   156875   156153   154939   153623   152533   151718   151147 
  150881   150978   151502   152439   153516   154529   155540   156433 
  156937   157057   157015   156976   157029   157239   157466   157414 
  157095   156861   156876   156968   156968   156941   157026   157208 
  157360   157362   157234   157104   157069   157094   157088   157036 
  156963   156793   156428   155949   155501   155163   154993   154997 
  155105   155339   155787   156440   157140   157677   157990   158199 
  158383   158522   158653   158873   159227   159679   160180   160678 
  161096   161312   161253   161025   160805   160625   160377   160000 
  159632   159447   159476   159637   159771   159636   159081   158272 
  157577   157211   157157   157320   157615   158045   158642   159293 
  159821   160155   160317   160294   160030   159556   159062   158701 
  158395   157987   157576   157497   157936   158672   159310   159642 
  159791   160053   160627   161507   162494   163285   163686   163711 
  163525   163310   163090   162768   162369   162101   162166   162565 
  163021   163147   162737   161870   160871   160069   159506   159063 
  158746   158646   158781   159109   159615   160282   160911   161199 
  161077   160802   160632   160569   160481   160319   160151   160054 
  159977   159779   159390   158858   158251   157536   156676   155802 
  155171   154932   154980   155163   155501   156037   156689   157347 
  157935   158373   158647   158828   158943   158924   158796   158677 
  158479   157910   156852   155509   154238   153327   152898   152915 
  153216   153519   153698   154040   154894   156147   157335   158152 
  158464   158205   157650   157231   156990   156687   156147   155483 
  155079   155098   155271   155439   155804   156444   157088   157496 
  157673   157721   157675   157495   157137   156597   155958   155405 
  155092   154994   154927   154672   154064   153139   152208   151663 
  151621   151800   151896   151888   151842   151704   151376   150939 
  150693   150751   151017   151684   153072   155077   157250   159193 
  160751   161939   162750   163034   162641   161806   160932   160002 
  159023   158407   158232   158062   157549   156712   155875   155387 
  155324   155515   155760   156043   156508   157264   158264   159277 
  160062   160617   161056   161424   161781   162175   162588   162967 
  163256   163448   163579   163536   163027   161986   160712   159525 
  158523   157734   157137   156604   156145   156057   156563   157432 
  158151   158458   158527   158598   158693   158701   158575   158395 
  158249   158139   158109   158242   158496   158750   158958   159138 
  159171   158706   157449   155633   153863   152516   151584   150943 
  150472   150128   150075   150523   151254   151690   151681   151695 
  152066   152559   152790   152795   152919   153195   153331   153287 
  153279   153289   153158   152977   152945   153048   153177   153345 
  153644   154053   154407   154633   154882   155326   155947   156628 
  157289   157815   158124   158382   158766   159250   159842   160575 
  161361   162136   162819   163293   163586   163807   163945   163877 
  163545   163062   162567   162031   161433   160967   160789   160759 
  160608   160128   159316   158377   157547   156919   156552   156550 
  156976   157789   158886   160114   161211   162029   162729   163516 
  164289   164771   164849   164722   164671   164754   164845   164891 
  164889   164678   164149   163475   162692   161586   160293   159294 
  158870   158899   159055   159150   159254   159425   159553   159599 
  159680   159792   159803   159656   159398   159077   158664   158207 
  157851   157617   157420   157237   157110   157119   157266   157434 
  157562   157746   158002   158113   157971   157751   157536   157211 
  156728   156115   155372   154518   153743   153341   153373   153663 
  154165   154958   155952   156921   157740   158388   158805   158897 
  158657   158126   157342   156419   155545   154892   154523   154322 
  154076   153711   153280   152778   152154   151503   151108   151182 
  151617   152097   152527   153222   154479   156081   157600   158934 
  160112   160967   161350   161397   161337   161285   161252   161087 
  160579   159690   158579   157401   156222   155115   154248   153792 
  153793   154084   154479   154989   155652   156309   156762   156984 
  157056   156991   156826   156779   157118   157873   158828   159722 
  160358   160637   160527   160027   159200   158182   157154   156259 
  155526   154955   154546   154152   153561   152698   151708   150874 
  150372   150184   150299   150801   151707   152907   154291   155775 
  157223   158502   159682   160942   162271   163459   164350   164917 
  165103   164787   164016   163082   162274   161701   161319   161052 
  160938   161076   161482   162067   162614   162831   162560   161947 
  161271   160686   160320   160276   160432   160527   160359   159891 
  159329   158882   158449   157854   157169   156593   156257   156157 
  156213   156363   156532   156624   156554   156261   155784   155312 
  155063   155132   155409   155707   155980   156271   156501   156492 
  156200   155791   155513   155515   155792   156234   156686   156973 
  157026   156937   156799   156571   156184   155661   155089   154516 
  154006   153681   153551   153501   153526   153752   154194   154608 
  154677   154290   153652   153139   153023   153252   153519   153654 
  153765   153932   154016   153883   153615   153372   153203   153083 
  153080   153304   153716   154141   154479   154824   155286   155776 
  156154   156450   156789   157214   157669   158052   158286   158340 
  158221   157962   157621   157272   156990   156849   156828   156763 
  156512   156172   155964   155956   155999   155946   155803   155706 
  155800   156168   156780   157547   158436   159459   160482   161264 
  161739   162074   162380   162600   162638   162465   162207   162114 
  162314   162670   162915   162951   162985   163275   163869   164637 
  165408   166023   166410   166610   166668   166538   166170   165574 
  164816   163957   163051   162162   161388   160844   160624   160771 
  161269   162049   162920   163566   163806   163761   163609   163271 
  162515   161316   159942   158674   157563   156506   155424   154291 
  153117   152086   151526   151217   150527   149818   149808   150109 
  150252   150492   151133   152167   153242   154083   154762   155352 
  155787   156069   156370   156787   157188   157480   157715   157836 
  157693   157385   157187   157096   156849   156385   155872   155291 
  154452   153415   152532   152007   151684   151379   151221   151403 
  151777   152051   152217   152452   152840   153364   154001   154689 
  155370   156016   156577   157002   157289   157408   157306   157006 
  156710   156676   156945   157333   157720   158171   158742   159376 
  159999   160559   160987   161265   161453   161597   161762   162006 
  162315   162611   162831   163024   163264   163518   163653   163606 
  163494   163424   163294   162922   162259   161406   160505   159644 
  158839   158134   157628   157404   157423   157534   157621   157655 
  157655   157758   158137   158812   159652   160490   161217   161813 
  162280   162622   162838   162920   162880   162765   162552   162197 
  161755   161316   160903   160486   160050   159671   159425   159301 
  159289   159490   159992   160756   161653   162502   163129   163526 
  163796   163975   163981   163703   163097   162193   161013   159592 
  158070   156635   155380   154273   153192   152066   150954   149916 
  148936   147957   146959   146010   145200   144555   144115   143950 
  144042   144331   144822   145551   146453   147302   147900   148261 
  148520   148799   149226   149956   150998   152150   153223   154121 
  154805   155405   156087   156816   157411   157800   158048   158213 
  158363   158608   158958   159290   159493   159611   159819   160216 
  160731   161261   161835   162488   163089   163541   164011   164695 
  165499   166114   166328   166128   165607   164911   164226   163682 
  163266   162912   162642   162503   162414   162236   161923   161526 
  161163   160895   160691   160509   160304   160003   159645   159385 
  159268   159160   158911   158514   158012   157384   156664   156026 
  155601   155406   155495   155918   156548   157202   157813   158350 
  158722   158850   158823   158855   158993   159021   158804   158433 
  158010   157624   157327   157121   157094   157289   157604   158116 
  158940   159858   160594   161061   161203   160983   160521   160033 
  159664   159414   159159   158814   158476   158292   158247   158197 
  158066   157977   158157   158607   159086   159462   159726   159754 
  159383   158653   157771   156952   156282   155696   155109   154514 
  153954   153451   152953   152331   151578   150867   150299   149790 
  149250   148734   148336   148003   147685   147517   147548   147708 
  148049   148632   149372   150168   150966   151752   152606   153624 
  154791   156060   157457   158962   160416   161701   162824   163803 
  164538   164882   164844   164610   164384   164208   163957   163534 
  162982   162378   161723   161030   160380   159830   159428   159217 
  159162   159106   158936   158701   158518   158423   158359   158241 
  158080   157937   157833   157709   157480   157154   156797   156409 
  155937   155360   154724   154118   153585   153139   152876   152861 
  152999   153137   153250   153378   153446   153365   153192   153014 
  152834   152652   152568   152693   152968   153252   153549   153951 
  154407   154786   155104   155470   155849   156185   156597   157150 
  157715   158213   158711   159239   159779   160309   160748   160963 
  160856   160497   160105   159857   159756   159744   159799   159958 
  160292   160795   161334   161789   162189   162584   162945   163224 
  163394   163410   163277   163138   163150   163281   163395   163421 
  163333   163107   162747   162303   161796   161167   160331   159321 
  158315   157442   156670   155923   155224   154664   154265   153983 
  153775   153574   153280   152890   152509   152258   152215   152405 
  152756   153106   153342   153511   153733   154059   154465   154912 
  155410   156051   156901   157890   158907   159914   160921   161856 
  162630   163297   163948   164542   165005   165280   165369   165381 
  165419   165460   165416   165249   164992   164678   164324   163989 
  163711   163443   163105   162668   162174   161657   161111   160633 
  160381   160393   160631   161076   161712   162449   163158   163776 
  164336   164806   165042   164925   164447   163717   162927   162222 
  161578   160887   160145   159445   158791   158085   157347   156737 
  156406   156388   156502   156469   156208   155849   155459   155015 
  154479   153887   153366   152967   152589   152199   151929   151906 
  152108   152432   152803   153193   153549   153804   153967   154111 
  154279   154450   154585   154705   154885   155108   155182   154984 
  154838   154958   154824   154302   154071   154323   154699   154982 
  155171   155378   155575   155602   155506   155466   155457   155306 
  155043   154881   154873   154878   154858   154919   155123   155452 
  155916   156498   157061   157438   157596   157582   157385   156983 
  156465   155898   155151   154053   152628   151081   149658   148471 
  147448   146566   145953   145728   145902   146389   147101   148009 
  149068   150188   151318   152452   153607   154764   155869   156868 
  157717   158429   159074   159626   159995   160189   160303   160353 
  160281   160100   159903   159779   159700   159633   159672   159891 
  160218   160551   160863   161200   161608   162063   162541   162989 
  163289   163372   163240   162907   162407   161811   161225   160691 
  160164   159634   159150   158737   158407   158193   158137   158214 
  158309   158395   158637   159119   159628   159881   159861   159726 
  159565   159337   159038   158831   158901   159233   159661   160097 
  160582   161133   161658   162048   162336   162629   162931   163162 
  163267   163251   163143   162950   162639   162213   161757   161357 
  161022   160732   160471   160232   160012   159841   159792   159891 
  160085   160334   160624   160920   161157   161288   161306   161246 
  161161   161096   161082   161096   161111   161109   161057   160920 
  160706   160523   160479   160564   160689   160816   160961   161123 
  161237   161272   161291   161326   161320   161210   161006   160720 
  160363   159962   159505   158967   158369   157736   157103   156479 
  155799   155061   154357   153678   152919   152112   151398   150757 
  150133   149650   149357   149192   149134   149191   149418   149854 
  150458   151158   151908   152716   153588   154489   155344   156078 
  156672   157167   157611   158032   158465   158931   159355   159648 
  159768   159702   159498   159270   159102   159008   158939   158828 
  158643   158403   158182   157972   157623   157048   156374   155780 
  155313   154873   154423   154101   154009   154066   154140   154228 
  154441   154836   155301   155665   155902   156107   156366   156666 
  156926   157090   157150   157149   157177   157314   157559   157839 
  158040   158125   158141   158128   158114   158132   158184   158236 
  158244   158171   158021   157855   157734   157669   157627   157631 
