Origin Time       2025/01/13 21:19:00
Lat.              31.8
Long.             131.6
Depth. (km)       30
Mag.              6.9
Station Code      KGSH05
Station Lat.      31.8699
Station Long.     130.4958
Station Height(m) -33.658
Record Time       2025/01/13 21:19:49
Sampling Freq(Hz) 100Hz
Duration Time(s)  229
Dir.              3
Scale Factor      3923(gal)/8224838
Max. Acc. (gal)   5.103
Last Correction   2025/01/13 21:19:50
Memo.             
[...]
   23001    22588    22065    21555    21185    21023    21046    21146 
   21196    21153    21057    20964    20919    20938    21011    21138 
   21321    21525    21697    21805    21859    21903    21969    22046 
   22141    22319    22634    23068    23571    24063    24452    24682 
   24748    24684    24548    24376    24213    24084    23994    23958 
   23985    24048    24106    24132    24086    23940    23697    23364 
   22968    22588    22261    21953    21670    21481    21439    21550 
   21772    22030    22252    22399    22445    22366    22179    21918 
   21637    21412    21274    21192    21115    21039    21000    21007 
   21030    21026    20979    20910    20846    20787    20727    20665 
   20628    20663    20779    20945    21139    21363    21621    21911 
   22206    22465    22657    22774    22852    22931    23014    23051 
   22983    22836    22667    22504    22360    22221    22059    21924 
   21928    22122    22465    22835    23082    23170    23209    23334 
   23562    23811    24013    24171    24363    24687    25119    25501 
   25714    25791    25847    25976    26176    26345    26416    26431 
   26433    26420    26393    26401    26488    26623    26728    26740 
   26608    26307    25848    25286    24686    24100    23593    23261 
   23183    23382    23818    24386    24933    25317    25496    25523 
   25492    25440    25342    25195    25070    25030    25023    24976 
   24877    24772    24741    24835    25006    25180    25324    25421 
   25451    25382    25170    24826    24436    24100    23862    23697 
   23544    23340    23018    22534    21922    21277    20665    20143 
   19796    19710    19880    20193    20482    20587    20452    20139 
   19728    19280    18874    18578    18407    18358    18424    18551 
   18689    18858    19151    19647    20322    21047    21709    22208 
   22454    22468    22384    22308    22253    22221    22258    22385 
   22531    22628    22654    22604    22486    22335    22185    22075 
   22022    22003    22013    22069    22173    22293    22393    22438 
   22412    22346    22327    22427    22615    22775    22831    22806 
   22809    22912    23087    23288    23530    23838    24204    24592 
   24931    25126    25139    25037    24904    24744    24521    24210 
   23819    23430    23117    22840    22535    22176    21791    21442 
   21189    21080    21124    21315    21632    22025    22392    22580 
   22465    22064    21521    21026    20727    20657    20779    21097 
   21624    22284    22943    23499    23916    24219    24460    24664 
   24826    24973    25158    25407    25705    26006    26258    26420 
   26455    26349    26118    25817    25515    25249    25023    24788 
   24467    24011    23480    23005    22665    22446    22342    22365 
   22480    22630    22763    22837    22820    22689    22455    22188 
   21976    21868    21847    21882    21990    22198    22474    22763 
   23008    23143    23152    23103    23102    23188    23330    23502 
   23704    23944    24221    24497    24759    25004    25166    25172 
   25012    24725    24381    24075    23913    23938    24094    24268 
   24362    24298    24040    23639    23199    22816    22519    22281 
   22063    21861    21712    21649    21697    21851    22057    22234 
   22343    22419    22505    22585    22589    22505    22393    22315 
   22270    22184    21996    21770    21628    21624    21730    21882 
   22021    22130    22238    22384    22567    22770    22982    23190 
   23352    23444    23469    23446    23394    23284    23068    22748 
   22365    21978    21651    21402    21222    21131    21161    21297 
   21466    21601    21698    21779    21875    22003    22138    22215 
   22212    22183    22195    22252    22314    22376    22482    22669 
   22896    23097    23197    23113    22851    22528    22230    21960 
   21717    21551    21529    21693    22025    22431    22777    22982 
   23043    22985    22871    22770    22694    22631    22573    22540 
   22558    22628    22747    22941    23224    23539    23818    24043 
   24256    24489    24740    25016    25350    25743    26102    26280 
   26198    25901    25536    25273    25199    25328    25660    26133 
   26601    26886    26813    26319    25540    24687    23885    23128 
   22387    21716    21190    20817    20571    20463    20514    20691 
   20881    20915    20700    20293    19812    19345    18906    18476 
   18114    17960    18073    18393    18867    19457    20085    20673 
   21204    21674    22006    22122    22025    21805    21618    21582 
   21691    21925    22272    22694    23148    23539    23724    23615 
   23232    22697    22176    21753    21469    21389    21566    21949 
   22418    22869    23240    23512    23695    23797    23822    23781 
   23711    23615    23463    23253    23017    22765    22484    22154 
   21797    21504    21400    21577    22026    22640    23279    23799 
   24086    24123    23988    23766    23492    23170    22832    22551 
   22374    22266    22140    21929    21652    21374    21159    21010 
   20887    20812    20860    21047    21338    21695    22073    22376 
   22545    22636    22767    23002    23333    23661    23849    23836 
   23704    23607    23635    23770    24044    24565    25340    26211 
   26905    27144    26856    26279    25762    25508    25533    25739 
   25938    25990    25891    25706    25444    25146    24977    25112 
   25573    26212    26773    27005    26862    26492    26056    25633 
   25316    25257    25531    26005    26392    26511    26428    26273 
   26068    25774    25396    25018    24767    24729    24885    25130 
   25326    25392    25339    25207    25037    24861    24637    24259 
   23668    22925    22138    21379    20696    20158    19851    19842 
   20077    20325    20366    20175    19838    19442    19093    18874 
   18802    18828    18927    19107    19321    19510    19685    19878 
   20102    20356    20618    20839    20970    21006    20995    21039 
   21238    21609    22086    22608    23163    23762    24359    24822 
   25053    25069    24934    24665    24275    23841    23500    23352 
   23361    23388    23292    23028    22673    22380    22265    22329 
   22442    22468    22378    22184    21861    21408    20869    20363 
   20121    20325    20883    21535    22118    22613    23039    23368 
   23571    23662    23691    23706    23724    23739    23751    23787 
   23846    23904    23980    24100    24240    24398    24619    24938 
   25363    25828    26227    26511    26647    26574    26315    25999 
   25683    25304    24802    24163    23457    22847    22478    22376 
   22470    22697    23033    23431    23760    23847    23615    23137 
   22603    22157    21810    21504    21189    20887    20655    20503 
   20366    20142    19758    19211    18598    18064    17679    17379 
   17081    16789    16552    16363    16194    16065    16023    16150 
   16578    17382    18455    19587    20636    21544    22245    22665 
   22771    22640    22392    22104    21822    21605    21566    21801 
   22277    22866    23442    23878    24021    23774    23151    22341 
   21713    21575    21944    22596    23269    23827    24282    24746 
   25286    25820    26265    26658    27017    27326    27608    27818 
   27788    27394    26698    25830    24791    23546    22198    20907 
   19815    19044    18657    18623    18831    19164    19566    20040 
   20596    21263    22075    23017    23970    24742    25201    25374 
   25425    25493    25573    25621    25625    25539    25317    25058 
   24918    24934    24993    24925    24621    24129    23576    23043 
   22582    22265    22171    22369    22901    23627    24247    24548 
   24529    24295    23969    23633    23302    22921    22461    22015 
   21751    21753    21986    22393    22912    23388    23668    23716 
   23569    23261    22873    22547    22415    22542    22925    23480 
   24121    24817    25506    26087    26488    26738    26916    27055 
   27081    26862    26361    25725    25174    24799    24475    24030 
   23417    22705    22018    21486    21139    20946    20906    21020 
   21239    21444    21505    21359    20987    20395    19718    19201 
   19039    19282    19788    20310    20704    20949    21042    21011 
   20896    20706    20505    20422    20510    20715    20973    21239 
   21517    21883    22353    22775    22958    22855    22562    22225 
   21921    21633    21308    21004    20900    21038    21215    21242 
   21111    20907    20749    20785    21119    21712    22443    23264 
   24193    25177    26057    26628    26757    26489    26113    26014 
   26373    27032    27702    28210    28553    28803    28949    28846 
   28393    27687    26956    26411    26161    26152    26191    26140 
   25996    25780    25517    25288    25112    24894    24578    24263 
   24030    23803    23485    23051    22482    21818    21158    20538 
   19980    19535    19210    18990    18898    18927    19044    19271 
   19631    20085    20603    21217    21930    22640    23178    23444 
   23510    23585    23868    24389    25008    25585    26104    26603 
   27055    27376    27521    27502    27321    26946    26342    25535 
   24624    23689    22775    21969    21367    20995    20833    20854 
   20985    21107    21122    21031    20900    20761    20638    20609 
   20761    21127    21610    22075    22461    22752    22944    23091 
   23287    23587    23994    24505    25084    25652    26130    26454 
   26599    26639    26715    26893    27114    27241    27160    26920 
   26684    26551    26523    26551    26586    26555    26370    26014 
   25571    25146    24768    24440    24200    24071    24043    24097 
   24192    24235    24160    23958    23616    23049    22235    21319 
   20430    19564    18712    17968    17447    17200    17167    17181 
   17107    16947    16733    16455    16106    15716    15363    15141 
   15140    15384    15850    16510    17285    17996    18481    18686 
   18685    18685    18856    19172    19500    19777    20052    20424 
   20946    21589    22248    22820    23275    23662    24034    24349 
   24513    24557    24625    24800    25104    25527    25976    26299 
   26381    26211    25845    25388    24943    24518    24061    23571 
   23089    22647    22249    21891    21586    21369    21269    21277 
   21324    21366    21470    21736    22144    22617    23113    23616 
   24128    24640    25096    25407    25528    25493    25342    25116 
   24900    24779    24780    24894    25110    25427    25812    26185 
   26465    26595    26558    26369    26114    25884    25695    25513 
   25332    25166    25008    24840    24664    24510    24399    24313 
   24241    24192    24162    24175    24273    24430    24560    24580 
   24502    24398    24300    24152    23917    23634    23345    23039 
   22689    22338    22075    21968    22034    22289    22728    23259 
   23768    24193    24532    24825    25111    25397    25674    25941 
   26199    26423    26555    26589    26532    26358    26071    25753 
   25474    25208    24903    24511    24027    23483    22908    22302 
   21617    20835    20017    19273    18700    18331    18107    17921 
   17713    17487    17270    17080    16941    16869    16866    16922 
   17005    17086    17167    17262    17355    17458    17629    17913 
   18304    18756    19221    19678    20150    20656    21172    21620 
   21951    22177    22314    22393    22476    22577    22655    22698 
   22750    22855    23031    23249    23487    23757    24088    24476 
   24854    25138    25309    25415    25500    25567    25586    25529 
   25409    25259    25084    24876    24694    24645    24795    25081 
   25355    25510    25531    25443    25263    25012    24746    24536 
   24435    24471    24626    24826    24997    25174    25463    25924 
   26514    27144    27745    28269    28679    28957    29061    28939 
   28626    28235    27864    27527    27143    26624    25952    25150 
   24250    23274    22204    21041    19858    18779    17874    17153 
   16618    16281    16105    16042    16044    16060    16067    16101 
   16225    16457    16764    17116    17486    17811    18045    18187 
   18269    18331    18382    18388    18341    18272    18216    18191 
   18191    18229    18347    18571    18868    19179    19453    19687 
   19920    20204    20556    20960    21378    21783    22167    22536 
   22906    23294    23700    24092    24429    24705    24922    25081 
   25184    25246    25303    25404    25583    25836    26123    26407 
   26663    26858    26960    26977    26935    26882    26896    27063 
   27360    27672    27928    28136    28269    28278    28155    27949 
   27749    27645    27680    27845    28113    28421    28647    28678 
   28462    28003    27379    26719    26149    25732    25459    25315 
   25296    25367    25462    25509    25469    25365    25259    25196 
   25189    25242    25357    25556    25841    26194    26619    27103 
   27594    28051    28478    28837    29061    29100    28927    28553 
   28067    27575    27128    26709    26258    25706    25020    24217 
   23359    22503    21655    20784    19877    18970    18126    17329 
   16487    15556    14646    13913    13404    13085    12911    12820 
   12738    12617    12468    12326    12255    12333    12549    12815 
   13097    13424    13838    14332    14816    15202    15534    15947 
   16529    17259    18088    18972    19847    20668    21413    22022 
   22447    22743    23028    23375    23795    24274    24777    25245 
   25636    25978    26333    26758    27282    27861    28424    28923 
   29315    29527    29498    29268    28946    28615    28321    28044 
   27739    27427    27201    27135    27244    27480    27770    28059 
   28281    28331    28163    27814    27342    26812    26277    25771 
   25299    24840    24366    23885    23452    23113    22906    22839 
   22835    22804    22678    22410    22005    21527    21066    20737 
   20579    20533    20547    20633    20826    21089    21324    21455 
   21485    21466    21444    21425    21388    21334    21298    21312 
   21390    21523    21663    21757    21791    21799    21824    21880 
   21986    22181    22511    23005    23647    24331    24914    25309 
   25515    25583    25578    25527    25450    25401    25415    25463 
   25489    25416    25205    24862    24417    23938    23495    23076 
   22636    22168    21708    21298    20962    20698    20515    20414 
   20390    20463    20650    20926    21223    21498    21764    22060 
   22393    22756    23140    23522    23873    24192    24472    24684 
   24790    24818    24853    24921    25010    25116    25228    25338 
   25442    25500    25488    25439    25393    25348    25307    25273 
   25239    25203    25170    25157    25177    25259    25384    25466 
   25409    25181    24791    24279    23701    23102    22519    22014 
   21629    21320    21033    20760    20479    20164    19828    19489 
   19140    18794    18485    18214    17960    17749    17626    17558 
   17475    17343    17167    16996    16895    16908    17027    17207 
   17386    17517    17587    17626    17689    17826    18053    18316 
   18562    18792    19006    19164    19265    19361    19508    19746 
   20059    20358    20571    20711    20829    20969    21173    21447 
   21782    22179    22628    23078    23469    23804    24160    24613 
   25155    25743    26357    26973    27535    28005    28381    28664 
   28872    29030    29158    29276    29404    29552    29704    29810 
   29832    29760    29623    29425    29143    28771    28312    27756 
   27097    26357    25574    24769    23957    23186    22540    22099 
   21857    21708    21555    21408    21323    21304    21327    21366 
   21398    21424    21448    21474    21535    21652    21803    21972 
   22160    22361    22574    22802    23043    23282    23519    23780 
   24067    24339    24553    24734    24933    25185    25521    25920 
   26318    26692    27066    27452    27823    28146    28418    28657 
   28879    29074    29195    29200    29124    29041    29000    29019 
   29077    29124    29084    28895    28574    28208    27880    27587 
   27278    26923    26524    26087    25625    25150    24667    24198 
   23788    23471    23247    23058    22862    22666    22476    22265 
   22010    21714    21384    20999    20540    20023    19498    19039 
   18673    18369    18112    17918    17806    17760    17707    17574 
   17348    17055    16727    16386    16046    15719    15442    15246 
   15156    15225    15481    15851    16225    16538    16802    17016 
   17165    17284    17432    17620    17824    18023    18212    18395 
   18570    18702    18773    18848    19028    19352    19772    20220 
   20661    21091    21517    21933    22304    22593    22794    22927 
   22999    23040    23095    23188    23311    23450    23620    23846 
   24101    24332    24509    24646    24772    24895    24989    25024 
   25002    24969    24987    25078    25193    25277    25328    25392 
   25521    25713    25894    25978    25928    25779    25575    25358 
   25158    24964    24741    24468    24143    23788    23433    23110 
   22843    22642    22493    22366    22239    22103    21948    21757 
   21539    21315    21074    20799    20511    20245    20027    19884 
   19824    19828    19886    19970    20005    19917    19715    19500 
   19402    19468    19660    19915    20187    20433    20609    20687 
   20675    20632    20622    20661    20744    20872    21065    21361 
   21762    22208    22643    23040    23402    23753    24097    24424 
   24725    24979    25151    25220    25203    25128    24992    24795 
   24576    24352    24106    23807    23472    23157    22893    22682 
   22507    22322    22142    22037    22017    22018    21990    21933 
   21890    21911    22002    22110    22198    22262    22333    22437 
   22594    22800    23021    23247    23523    23904    24386    24904 
   25371    25744    26048    26331    26624    26919    27184    27399 
   27569    27707    27823    27942    28073    28204    28321    28416 
   28480    28497    28462    28374    28219    28034    27881    27783 
   27692    27541    27292    26958    26578    26172    25709    25181 
   24663    24244    23924    23625    23305    22989    22702    22446 
   22223    22000    21743    21483    21277    21145    21104    21147 
   21223    21290    21313    21269    21151    20957    20704    20457 
   20267    20158    20120    20110    20104    20100    20083    20058 
   20051    20082    20143    20235    20353    20482    20599    20694 
   20758    20779    20767    20767    20802    20852    20885    20903 
   20937    21012    21132    21284    21459    21654    21852    22023 
   22165    22279    22343    22383    22438    22520    22634    22809 
   23071    23411    23773    24088    24328    24503    24602    24619 
   24564    24443    24267    24038    23750    23417    23056    22669 
   22260    21860    21516    21254    21091    21018    20988    20956 
