Origin Time       2025/01/13 21:19:00
Lat.              31.8
Long.             131.6
Depth. (km)       30
Mag.              6.9
Station Code      KGSH08
Station Lat.      31.5618
Station Long.     130.9969
Station Height(m) 96.897
Record Time       2025/01/13 21:19:45
Sampling Freq(Hz) 100Hz
Duration Time(s)  120
Dir.              4
Scale Factor      3920(gal)/6170801
Max. Acc. (gal)   15.675
Last Correction   2025/01/13 21:19:30
Memo.             
[...]
  -23472   -23284   -23067   -22783   -22024   -20942   -19894   -18799 
  -17634   -16860   -16545   -16167   -15646   -15250   -14865   -14651 
  -15232   -16221   -16403   -15727   -15094   -15039   -15501   -15856 
  -15708   -15362   -15085   -15202   -16162   -17643   -18987   -20232 
  -21568   -22704   -23354   -23782   -24396   -25105   -25855   -26878 
  -27894   -28340   -28056   -27223   -26276   -25594   -25143   -24815 
  -24585   -24639   -25636   -27715   -29865   -31358   -32463   -33510 
  -34488   -35387   -36208   -36752   -36838   -36671   -36781   -37725 
  -39396   -40935   -41854   -42198   -41659   -40045   -38154   -36963 
  -36303   -35294   -33631   -31652   -29789   -28199   -26705   -25483 
  -24831   -24204   -23050   -21901   -21481   -21651   -21883   -21920 
  -21690   -21227   -20547   -19650   -18883   -18512   -18304   -18238 
  -18481   -18572   -18022   -17231   -16907   -17463   -18929   -20685 
  -21902   -22497   -22718   -22432   -21737   -20908   -19665   -17828 
  -15731   -13544   -11377    -9721    -8853    -8611    -9385   -11630 
  -14394   -16443   -17813   -19126   -20775   -22639   -24173   -25276 
  -26352   -27598   -28953   -30281   -31701   -33547   -35554   -37171 
  -38475   -39504   -39891   -39730   -39466   -39095   -38204   -36874 
  -35807   -35069   -34125   -32920   -31695   -30701   -29927   -28917 
  -27807   -27350   -27594   -27892   -27887   -27828   -27918   -27827 
  -27461   -27366   -27543   -27241   -26181   -24630   -22878   -21525 
  -21226   -21955   -23084   -23758   -23497   -22755   -22154   -21668 
  -20913   -19411   -17094   -14884   -13866   -14192   -15467   -17383 
  -19118   -19455   -18582   -18044   -18551   -19474   -19916   -19482 
  -18605   -17779   -17006   -16790   -17787   -19194   -19762   -19562 
  -19268   -19256   -19762   -20847   -22540   -24768   -26923   -28541 
  -29999   -32021   -34814   -37388   -38413   -37984   -37113   -35971 
  -34262   -32590   -31630   -30715   -29020   -26872   -24831   -23067 
  -21624   -20310   -19112   -18456   -18250   -18020   -18089   -19218 
  -21470   -23945   -25609   -26276   -26437   -26549   -26760   -26872 
  -26870   -27183   -27844   -28260   -27919   -27017   -26455   -26612 
  -26775   -26250   -24986   -23332   -21753   -20651   -20252   -20394 
  -20784   -21368   -22085   -22659   -22749   -22228   -21491   -21179 
  -21474   -22070   -22752   -23599   -24848   -26626   -28590   -30059 
  -30599   -30522   -30616   -31005   -31190   -31298   -31726   -32157 
  -32373   -32675   -32798   -32102   -30714   -29208   -27788   -26314 
  -24527   -22281   -19852   -17978   -17138   -16878   -16824   -17619 
  -19691   -22402   -25005   -26898   -27385   -26546   -25504   -25102 
  -24889   -23917   -22089   -20258   -19737   -21535   -25352   -29661 
  -32671   -33491   -32799   -31822   -31010   -30284   -29846   -30165 
  -30860   -30551   -29234   -28655   -29333   -30243   -30665   -30313 
  -28965   -26694   -24185   -22086   -20284   -18675   -17637   -17457 
  -17971   -18894   -20247   -21769   -22649   -22789   -23137   -24342 
  -26218   -28401   -30828   -33538   -35901   -36820   -36201   -34643 
  -32279   -29462   -26803   -24430   -22533   -21368   -20772   -20531 
  -20693   -21396   -22223   -22084   -20507   -18282   -16323   -14758 
  -13443   -12576   -12145   -11638   -11043   -10810   -10779   -10747 
  -11231   -12541   -14224   -15742   -17083   -18439   -19620   -20612 
  -22246   -24941   -27598   -29208   -30296   -31504   -32240   -31752 
  -30660   -30053   -29659   -28663   -27263   -26116   -25562   -25412 
  -25024   -24329   -24100   -24676   -25434   -25704   -25592   -25379 
  -24761   -23642   -22646   -22553   -23842   -25930   -27509   -28721 
  -30719   -32984   -34278   -34795   -34813   -33745   -31595   -29374 
  -27959   -27162   -26332   -25408   -24585   -23930   -23662   -23651 
  -23281   -22347   -21248   -20379   -19776   -19296   -19029   -19146 
  -19716   -20867   -22145   -22688   -22587   -22359   -22103   -22041 
  -22297   -22606   -22865   -23536   -25234   -27477   -28868   -28967 
  -28415   -27895   -27776   -27533   -26329   -24990   -25288   -27277 
  -29416   -31046   -32608   -33497   -32626   -30557   -28243   -25796 
  -23632   -22236   -21528   -21529   -22069   -22529   -22752   -23098 
  -24000   -25485   -26842   -27768   -28939   -30744   -32579   -33736 
  -34459   -34927   -34370   -32923   -31568   -30300   -29187   -28779 
  -28739   -28371   -27647   -27017   -26557   -25679   -24324   -22932 
  -21405   -19944   -19081   -18429   -17461   -16343   -15115   -13645 
  -12398   -12088   -12502   -12807   -12966   -13556   -14762   -16508 
  -18703   -21092   -23201   -24323   -24160   -23485   -23502   -24763 
  -26683   -28509   -30366   -32265   -33924   -35697   -37660   -39162 
  -39610   -38734   -37142   -35731   -34414   -33133   -32626   -32870 
  -32790   -32064   -31380   -30979   -30460   -29682   -28954   -28723 
  -29219   -29815   -29604   -28787   -27934   -27005   -26076   -25380 
  -24768   -23982   -22957   -22055   -22113   -23530   -25396   -26421 
  -26437   -25996   -25144   -23693   -21860   -20102   -18809   -17899 
  -17009   -16140   -15430   -14904   -14643   -14588   -14542   -14480 
  -14695   -15577   -16898   -17847   -18276   -18794   -19646   -20578 
  -21265   -21452   -21235   -21173   -21964   -23844   -26296   -28629 
  -30412   -31485   -32097   -32396   -31910   -30326   -28034   -25683 
  -23860   -22741   -21834   -20827   -20231   -20430   -20878   -20905 
  -20580   -20161   -19619   -19381   -20006   -21211   -22460   -23313 
  -23666   -24361   -25825   -27300   -28437   -29732   -31232   -32062 
  -31658   -30540   -29335   -28337   -27742   -27372   -27127   -27203 
  -27267   -27006   -26619   -26010   -25088   -24050   -23120   -22778 
  -22994   -22946   -22170   -20709   -19037   -18125   -18280   -18812 
  -19213   -19806   -21255   -23438   -25459   -27061   -28551   -29701 
  -30162   -30230   -30553   -31501   -32782   -33624   -33483   -32518 
  -31200   -29797   -28508   -27557   -27014   -26780   -26605   -26494 
  -26857   -27483   -27440   -26500   -25290   -24273   -23410   -22443 
  -21274   -20193   -19525   -18984   -18245   -17996   -18886   -20254 
  -21241   -21853   -22650   -24127   -26025   -27591   -28570   -28915 
  -28319   -26990   -25551   -24226   -23069   -22202   -21612   -21249 
  -21230   -21715   -22669   -24173   -26296   -28289   -29324   -29839 
  -30486   -30953   -30831   -30167   -29217   -28276   -27476   -26952 
  -26715   -26604   -26849   -27532   -28350   -29552   -31318   -33058 
  -34287   -34857   -34756   -34190   -33290   -32048   -30346   -28179 
  -26157   -24866   -24568   -25504   -27147   -28680   -29942   -30840 
  -31477   -32129   -32406   -31875   -30676   -29108   -27623   -26630 
  -25987   -25309   -24589   -24204   -24393   -24846   -25156   -25465 
  -26102   -26901   -27226   -26810   -26106   -25449   -24870   -24361 
  -23712   -22930   -22221   -21439   -20565   -19949   -19677   -19418 
  -18792   -17721   -16547   -15680   -15018   -14298   -13888   -14052 
  -14217   -14053   -14113   -14848   -16045   -17267   -18222   -18992 
  -19832   -20569   -20852   -20810   -20914   -21121   -20674   -19438 
  -18585   -19151   -20851   -22631   -23889   -24804   -25375   -25388 
  -25384   -25903   -26266   -25480   -23618   -21641   -20120   -18676 
  -16917   -15156   -13932   -13608   -14272   -15576   -17185   -19100 
  -21197   -23117   -24397   -24728   -24632   -24991   -25902   -26972 
  -28080   -29274   -30473   -31621   -32768   -33724   -34093   -33787 
  -33072   -32085   -30532   -28042   -25054   -22740   -21586   -21078 
  -20903   -21177   -21868   -22866   -24141   -25581   -26960   -28119 
  -28991   -29362   -28819   -27215   -25078   -23332   -22597   -22633 
  -22579   -22066   -21705   -22262   -23902   -26089   -28207   -30124 
  -31598   -32125   -31723   -30806   -29836   -29208   -28699   -27855 
  -26730   -25562   -24625   -24300   -24705   -25373   -25622   -25486 
  -25555   -25987   -26518   -27043   -27598   -28086   -28348   -28335 
  -28300   -28608   -29167   -29619   -29917   -30178   -30407   -30660 
  -30960   -31023   -30760   -30629   -30824   -30905   -30525   -29767 
  -28765   -27584   -26698   -26677   -27011   -26692   -25856   -25245 
  -24978   -25085   -25675   -26091   -25694   -25038   -24852   -24812 
  -24233   -23234   -22640   -22683   -22589   -21980   -21417   -21337 
  -21636   -21902   -21766   -21364   -20953   -20499   -20123   -20322 
  -21264   -22079   -21787   -20742   -19962   -19663   -19366   -18795 
  -18249   -18035   -17746   -17009   -16538   -17198   -18639   -19792 
  -20175   -20381   -21215   -22548   -23805   -25000   -26264   -27182 
  -27320   -26854   -26436   -26567   -27265   -28334   -29548   -30642 
  -31389   -31714   -31611   -30993   -30073   -29487   -29414   -29505 
  -29872   -30930   -32491   -34070   -35654   -37459   -39231   -40254 
  -40047   -38899   -37635   -36614   -35480   -34240   -33290   -32306 
  -30798   -29047   -27532   -26470   -25893   -25614   -25373   -25075 
  -24705   -24176   -23770   -23963   -24338   -24074   -23150   -21981 
  -20934   -20390   -20314   -20113   -19349   -18186   -17035   -16280 
  -16186   -16679   -17423   -18200   -18926   -19347   -19164   -18543 
  -17839   -17015   -15941   -14823   -13973   -13602   -13855   -14660 
  -15766   -17144   -18786   -20250   -21180   -22080   -23575   -25274 
  -26606   -27645   -28345   -28598   -28599   -28352   -27973   -27810 
  -27701   -27363   -26948   -26560   -26289   -26439   -27057   -27766 
  -28200   -28252   -27965   -27241   -25897   -24238   -22885   -21962 
  -21203   -20447   -19710   -19138   -18741   -18386   -18145   -18106 
  -18135   -18156   -18362   -19029   -20078   -21062   -21886   -22881 
  -24018   -24957   -25716   -26516   -27342   -27980   -28280   -28347 
  -28492   -29018   -30001   -31253   -32579   -33785   -34496   -34624 
  -34655   -34866   -34868   -34222   -32931   -31268   -29539   -28266 
  -28121   -29119   -30482   -31595   -32311   -32599   -32864   -33708 
  -34755   -35123   -34678   -33668   -32335   -31171   -30459   -30089 
  -29919   -29634   -28943   -27996   -27120   -26454   -25795   -24942 
  -24065   -23204   -22212   -21338   -20981   -21231   -21903   -22603 
  -23049   -23216   -22966   -22157   -21048   -19956   -18913   -18062 
  -17687   -17789   -18283   -19097   -20010   -20821   -21385   -21776 
  -22323   -22913   -23042   -22605   -21755   -20778   -20200   -20063 
  -19907   -19467   -18531   -17163   -16067   -15740   -15894   -15950 
  -15604   -14909   -14084   -13495   -13486   -14074   -15291   -17183 
  -19245   -20942   -22263   -23311   -24155   -24868   -25392   -25653 
  -25842   -26433   -27652   -29119   -30294   -31036   -31654   -32462 
  -33254   -33630   -33551   -32931   -31665   -30155   -28790   -27565 
  -26477   -25504   -24476   -23323   -22225   -21405   -20952   -21056 
  -21888   -23121   -24280   -25353   -26595   -28076   -29437   -30202 
  -30351   -29982   -28996   -27687   -26583   -25745   -25126   -24879 
  -25049   -25633   -26553   -27414   -28014   -28441   -28541   -28274 
  -27997   -27843   -27639   -27373   -27250   -27354   -27483   -27586 
  -27839   -28201   -28484   -28657   -28859   -29246   -29740   -30107 
  -30246   -30208   -30080   -29859   -29539   -29167   -28662   -27827 
  -26426   -24375   -22033   -19708   -17164   -14288   -11561    -9574 
   -8368    -7402    -6663    -6989    -8439   -10037   -11422   -13025 
  -14977   -16882   -18377   -19398   -19946   -20042   -19850   -19664 
  -19818   -20284   -20623   -20623   -20526   -20671   -21164   -21852 
  -22676   -23907   -25572   -27141   -28277   -29203   -30215   -31251 
  -31895   -31993   -31853   -31674   -31594   -31883   -32372   -32550 
  -32425   -32504   -33064   -33940   -34966   -36077   -37080   -37816 
  -38172   -38189   -38244   -38448   -38490   -38184   -37437   -36194 
  -34659   -33145   -31849   -30961   -30618   -30762   -31279   -32180 
  -33417   -34734   -35990   -37133   -37722   -37239   -35725   -33642 
  -31502   -29582   -27794   -26081   -24615   -23428   -22433   -21637 
  -20954   -20249   -19536   -18848   -18216   -17727   -17332   -17017 
  -17084   -17731   -18686   -19499   -20023   -20501   -21074   -21557 
  -21783   -21796   -21719   -21724   -22026   -22560   -22967   -23123 
  -23153   -23049   -22771   -22399   -22010   -21635   -21259   -20879 
  -20667   -20678   -20789   -21160   -21993   -23073   -24045   -24712 
  -25022   -25108   -25170   -25105   -24686   -24041   -23379   -22567 
  -21381   -20043   -19156   -18896   -18815   -18626   -18503   -18582 
  -18755   -18922   -19091   -19197   -18985   -18212   -16928   -15587 
  -14845   -14988   -15853   -17201   -18675   -19945   -21073   -22107 
  -22715   -22622   -21985   -21009   -19755   -18461   -17270   -16134 
  -15238   -14685   -14429   -14583   -15033   -15500   -16040   -16691 
  -17083   -16867   -16122   -15154   -14214   -13518   -13284   -13608 
  -14352   -15365   -16603   -17847   -18876   -19777   -20718   -21785 
  -22945   -24186   -25705   -27520   -29254   -30640   -31926   -33583 
  -35637   -37606   -39076   -39851   -40026   -39970   -39907   -39932 
  -40153   -40503   -40825   -41130   -41731   -42871   -44355   -45960 
  -47576   -48910   -49662   -49680   -49046   -48129   -47184   -46264 
  -45481   -44884   -44277   -43410   -42241   -40898   -39576   -38521 
  -37729   -36869   -35770   -34566   -33461   -32677   -32313   -32262 
  -32552   -33280   -34131   -34652   -34687   -34244   -33424   -32442 
  -31397   -30170   -28683   -26951   -24949   -22817   -20876   -19220 
  -17665   -16200   -15117   -14435   -13676   -12482   -10990    -9645 
   -8695    -7925    -7196    -6675    -6267    -5699    -5126    -4966 
   -5377    -6150    -6941    -7581    -8101    -8561    -9015    -9342 
   -9270    -8779    -7995    -6742    -4935    -3209    -2447    -2847 
   -4060    -5718    -7396    -8920   -10626   -12805   -15332   -17737 
  -19537   -20716   -21644   -22691   -23996   -25286   -26223   -26818 
  -27135   -27121   -26844   -26508   -26320   -26469   -27001   -27758 
  -28642   -29791   -31463   -33823   -36553   -38895   -40447   -41419 
  -42120   -42592   -42725   -42530   -42002   -41024   -39741   -38592 
  -37919   -37694   -37559   -37177   -36604   -36019   -35186   -33851 
  -32374   -31315   -30736   -30162   -29118   -27686   -26296   -25185 
  -24444   -24111   -24033   -24063   -24136   -24210   -24458   -25076 
  -25862   -26582   -27236   -27651   -27572   -27019   -26161   -25214 
  -24326   -23597   -23277   -23414   -23726   -24080   -24447   -24772 
  -25020   -25158   -25310   -25481   -25361   -24939   -24618   -24674 
  -25167   -26120   -27522   -29226   -30922   -32200   -32826   -33075 
  -33382   -33745   -33895   -33682   -32978   -31696   -30006   -28145 
  -26313   -24775   -23570   -22356   -20859   -19288   -17878   -16455 
  -15039   -14040   -13616   -13528   -13475   -13321   -13148   -13067 
  -13119   -13354   -13747   -14274   -14972   -15765   -16538   -17308 
  -18159   -19092   -19979   -20701   -21199   -21395   -21355   -21411 
  -21810   -22538   -23616   -25051   -26664   -28236   -29621   -30735 
  -31451   -31583   -31213   -30582   -29759   -28829   -27881   -26871 
  -25872   -25126   -24739   -24588   -24643   -25004   -25660   -26578 
  -27674   -28765   -29834   -30868   -31726   -32340   -32677   -32754 
  -32532   -31828   -30699   -29506   -28440   -27290   -25836   -24282 
  -23059   -22449   -22528   -23320   -24756   -26448   -27916   -28951 
  -29516   -29665   -29524   -29054   -28132   -26697   -24756   -22597 
  -20717   -19435   -18624   -17909   -17252   -16861   -16737   -16909 
  -17408   -18008   -18634   -19337   -19965   -20627   -21639   -22908 
  -24159   -25252   -26140   -26942   -27837   -28837   -29720   -30205 
  -30127   -29500   -28535   -27466   -26337   -25119   -23839   -22603 
  -21643   -21027   -20593   -20467   -20908   -21729   -22675   -23703 
  -24653   -25301   -25713   -26138   -26450   -26288   -25714   -24958 
  -24200   -23745   -23557   -23296   -22970   -22699   -22382   -21904 
  -21286   -20754   -20391   -19891   -19101   -18258   -17616   -17311 
  -17424   -17944   -18631   -19061   -19005   -18542   -17889   -17312 
  -16981   -16918   -17180   -17832   -18764   -19919   -21666   -24325 
  -27589   -30884   -33838   -36379   -38489   -39888   -40411   -40345 
  -39937   -39222   -38273   -37216   -36162   -35185   -34440   -34059 
  -33870   -33742   -33796   -34050   -34368   -34696   -35134   -35612 
  -35747   -35235   -34001   -32068   -29600   -26959   -24453   -22074 
  -19799   -17824   -16246   -15063   -14287   -13745   -13291   -12894 
  -12529   -12317   -12244   -12129   -12053   -12169   -12445   -12716 
  -12667   -12171   -11590   -11380   -11655   -12419   -13720   -15314 
  -16808   -18155   -19548   -21148   -22895   -24390   -25245   -25552 
  -25639   -25551   -25204   -24813   -24612   -24563   -24666   -25027 
  -25574   -26253   -27264   -28763   -30580   -32390   -33932   -35003 
  -35425   -35119   -34296   -33332   -32337   -31279   -30230   -29195 
  -28105   -26926   -25769   -24881   -24353   -24207   -24396   -24651 
  -24925   -25547   -26767   -28535   -30578   -32535   -34122   -35179 
  -35829   -36322   -36581   -36541   -36562   -36720   -36558   -35800 
  -34563   -33013   -31157   -29110   -27173   -25442   -24006   -23150 
  -22921   -23167   -23678   -24132   -24593   -25474   -26668   -27533 
  -27621   -27044   -26147   -25126   -24156   -23462   -23175   -23245 
  -23353   -23337   -23412   -23595   -23699   -23724   -23699   -23592 
  -23356   -22935   -22551   -22610   -23166   -23885   -24373   -24531 
  -24574   -24567   -24463   -24438   -24722   -25313   -25812   -25771 
  -25217   -24420   -23529   -22665   -22008   -21614   -21235   -20672 
  -20136   -19827   -19727   -19830   -20157   -20743   -21460   -21952 
  -22133   -22304   -22631   -22915   -22868   -22423   -21841   -21436 
  -21213   -21046   -20950   -20899   -20772   -20600   -20560   -20761 
  -21216   -21803   -22166   -22099   -21847   -21569   -21083   -20352 
  -19542   -18776   -18181   -17892   -17972   -18478   -19370   -20431 
  -21521   -22681   -23922   -25142   -26176   -26986   -27682   -28210 
  -28485   -28601   -28674   -28717   -28646   -28454   -28318   -28398 
  -28709   -29181   -29746   -30424   -31287   -32355   -33548   -34772 
  -35921   -36757   -36943   -36362   -35306   -34142   -33049   -32208 
  -31809   -31791   -31846   -31817   -31869   -32086   -32371   -32555 
  -32335   -31688   -30954   -30142   -28979   -27488   -25937   -24571 
  -23505   -22721   -22250   -22209   -22567   -23008   -23205   -23179 
  -23100   -22942   -22582   -21862   -20674   -19208   -17724   -16236 
  -14805   -13625   -12677   -11872   -11280   -11031   -11214   -11884 
  -13048   -14542   -16134   -17705   -19235   -20796   -22317   -23512 
  -24216   -24248   -23413   -22054   -20785   -19808   -19145   -18896 
  -19107   -19850   -21142   -22830   -24589   -26022   -27080   -27867 
