Origin Time       2025/01/13 21:19:00
Lat.              31.8
Long.             131.6
Depth. (km)       30
Mag.              6.9
Station Code      KGSH08
Station Lat.      31.5618
Station Long.     130.9969
Station Height(m) 96.897
Record Time       2025/01/13 21:19:45
Sampling Freq(Hz) 100Hz
Duration Time(s)  120
Dir.              6
Scale Factor      3920(gal)/6170801
Max. Acc. (gal)   10.488
Last Correction   2025/01/13 21:19:30
Memo.             
[...]
   13805    14172    13988    13409    13110    13477    14263    14807 
   14737    14388    14312    14611    15000    15361    15794    16250 
   16509    16218    15154    13827    13044    13022    13445    13628 
   13040    12099    11483    11380    11697    12044    12191    12427 
   12707    12642    12365    12320    12838    13954    14923    14911 
   14281    13869    13782    13906    14308    14675    14429    13658 
   13171    13476    14358    15283    15742    15575    14978    14163 
   13305    12472    11721    11336    11407    11569    11472    11043 
   10474    10132    10442    11373    12132    12283    12192    11939 
   11547    11624    12425    13379    13989    14199    14005    13677 
   13817    14411    14909    15111    14950    14473    13920    13383 
   13299    14017    14863    15328    15424    14902    14168    14102 
   14573    14886    14651    13905    13298    13398    13897    14208 
   14260    14250    14068    13544    12970    12580    12139    11691 
   11512    11383    11214    11379    11857    12561    13690    14763 
   15114    15036    15042    15160    15282    15414    15623    15629 
   15235    15091    15471    15522    14914    14226    13824    13923 
   14487    14805    14493    14040    13864    13964    14260    14551 
   14447    13814    13108    12594    11946    11240    10892    10798 
   10841    11194    11705    12053    12220    12443    12847    13293 
   13854    14649    15186    14991    14445    14170    14244    14491 
   14900    15270    15305    15143    14952    14661    14287    13976 
   13997    14375    14591    14245    13360    12201    11455    11651 
   12380    13027    13446    13469    13015    12662    13064    14166 
   15364    15856    15212    14121    13509    13350    13624    14609 
   15543    15486    14749    13854    12857    12093    12001    12396 
   12792    12946    12593    11636    10696    10431    10865    11762 
   12887    13890    14250    13971    13953    14699    15797    16740 
   17024    16566    16120    16087    16094    16023    15812    14941 
   13336    11837    11044    10618    10307    10413    10575    10015 
    9197     9130     9671    10256    10908    11523    11830    12193 
   12893    13412    13615    14047    14738    15338    15738    15789 
   15650    15855    16414    16936    16952    15932    14412    13454 
   12699    12017    12611    13796    13614    12779    12613    12383 
   12064    12614    13512    14031    14501    14891    14741    14063 
   13408    13520    14314    14920    14982    14473    13472    12753 
   12763    12914    12904    12996    13056    12875    12642    12488 
   12704    13649    14794    15404    15386    14610    13382    12841 
   13228    13648    13755    13700    13234    12316    11757    12082 
   12746    13464    14266    14339    13561    13095    13178    13627 
   14825    16132    16600    16284    15063    12955    11280    11434 
   13271    15414    16716    16655    15171    13398    12682    12700 
   12759    13133    13627    13483    12829    12336    12204    12408 
   13032    13680    13550    13013    13189    13899    14687    15789 
   16631    16749    16766    16426    14919    12905    11728    11631 
   11773    11714    11847    12146    12250    12528    13181    13684 
   14089    14712    14793    13745    12645    12795    14033    15384 
   16084    15491    13807    12797    13325    13949    14034    14315 
   14019    12349    10913    10880    11219    11493    12380    13364 
   13292    12444    11931    12077    12897    14714    16637    16975 
   15926    14769    13920    13790    14829    16393    17414    17616 
   16950    15092    12781    11592    11798    12707    13568    13235 
   11571     9829     8759     8808    10142    11315    11227    10799 
   10503     9789     9307    10325    12746    15509    17559    18027 
   16961    15833    16017    17078    17731    17418    16017    13819 
   12031    11629    12178    12877    13730    14447    13771    11661 
   10015    10071    11517    14029    17160    19204    18718    16682 
   14790    13387    12721    13144    13802    13663    12882    11937 
   10823     9897    10126    11455    12722    13655    14456    14396 
   13287    12654    13835    16006    17326    17397    16629    14905 
   13284    13319    14196    14587    14656    14321    13328    12390 
   12024    11787    11403    11375    11682    11548    11205    11558 
   12499    13516    14600    15584    15951    15623    15147    14897 
   14719    14461    14208    14011    13861    13899    14030    13790 
   13114    12285    11656    11785    12520    13071    13105    12672 
   12325    12601    12994    13123    13313    13566    13645    13450 
   13127    12974    12989    13273    13938    14512    14788    14995 
   15062    15046    15282    15601    15446    15062    15174    15254 
   14693    14476    14837    14720    14380    14576    14870    14840 
   14617    14022    12957    12200    12357    12790    12776    12552 
   12471    12335    12022    12077    12853    13545    13430    12921 
   12332    11759    11712    12106    12434    12798    13257    13362 
   12670    11494    11189    12546    14771    16828    17725    16834 
   15568    15600    16118    15965    15463    14766    13817    12976 
   12013    10672     9781     9848    10226    10419    10425    10322 
   10504    11226    12208    13276    14096    13970    13178    12925 
   13657    15024    16606    17523    16787    14694    12700    11878 
   12364    13852    15546    16493    16574    15997    14745    13564 
   13548    14652    16058    16930    16512    14866    13133    12454 
   13128    14612    16008    16663    16230    14782    13129    12282 
   12395    12785    13069    13228    12833    11906    11424    11645 
   11912    12282    13118    13726    13286    12207    11447    11393 
   11741    12251    13171    13945    13471    12610    12924    13911 
   14712    15528    15926    15200    14140    13893    14093    14144 
   14582    15176    14491    12689    11478    11219    11115    11321 
   12114    12309    11200    10323    10987    12429    13960    15957 
   17819    18157    17286    16562    16113    15695    15782    16140 
   15763    14696    13613    12472    11412    11225    11856    12356 
   12359    12052    11532    11111    11191    11581    11862    12109 
   12414    12518    12413    12362    12574    13317    14434    14969 
   14432    13515    12722    11966    11609    11915    12447    13021 
   13646    13985    14030    14258    14814    15279    15144    14237 
   12920    11933    11811    12479    13353    13748    13589    13233 
   12612    11866    11600    11726    11985    12550    13219    14062 
   15564    17120    17870    18203    18492    18305    17759    17377 
   16890    16179    15888    16060    16068    15660    14867    13715 
   12554    12074    12666    13996    15354    16088    15951    15115 
   13861    12745    12197    11798    11420    11620    12018    11830 
   11494    11844    12875    13805    13867    13205    12299    11161 
   10293    10673    12041    13308    14233    14691    13909    12094 
   10651    10056     9815    10017    10765    11262    11240    11685 
   12877    13866    14410    14796    14393    13029    12197    12739 
   13595    14082    14599    14777    14095    13306    12943    12679 
   12649    13013    13211    12912    12521    12402    12376    12567 
   13515    14812    15661    16288    16924    17232    17576    18392 
   18739    17868    16675    16006    15793    16024    16338    15819 
   14286    12441    10896     9894     9597    10146    11198    12066 
   12503    12487    11971    11361    11285    11909    12772    13432 
   13967    14234    13929    13536    13619    13866    13669    13163 
   13140    13777    14611    15496    16305    16917    17486    17794 
   17555    16909    15815    14272    12737    11545    10671    10006 
    9593     9670    10184    10740    11199    11482    11453    11377 
   11448    11394    11073    10501     9674     9049     9226    10011 
   10773    11392    12190    13403    14862    15963    16200    15743 
   15244    15215    15610    15867    15394    14186    12893    12008 
   11454    11249    11427    11521    11305    11223    11670    12559 
   13426    14054    14811    16005    17419    18640    19594    20218 
   20007    19134    18610    18512    18094    17258    16628    16900 
   18045    19214    19623    18974    17599    16245    15431    15228 
   15154    14740    14092    13137    11801    10609     9876     9808 
   10668    11803    12404    12677    12967    13044    12749    12539 
   12753    12931    12754    12417    11957    11692    12026    12551 
   13084    13978    14721    14686    14392    14297    14150    13809 
   13208    12126    10527     8796     7580     7047     6825     6768 
    6809     6718     6517     6343     6359     6971     8365    10176 
   11717    12320    12008    11574    11682    12225    12658    12925 
   13292    13449    13220    13229    13625    13894    14178    14770 
   14919    14089    13253    13179    13348    13759    14716    15146 
   14604    14276    14253    13837    13491    13539    13402    13070 
   13447    14980    16971    18747    20281    21203    21014    20250 
   19768    19665    19897    20462    20733    20283    19599    18787 
   17563    16702    16743    16673    16057    15713    15603    14986 
   14184    13897    13707    13175    12965    13331    13453    12963 
   12383    12142    12011    11841    12143    12563    11888    10683 
   10153     9762     9261     9308     9332     8679     8018     7421 
    6193     5169     5656     6833     7376     7647     8334     9298 
   10310    11534    13037    14116    14184    13864    13694    13406 
   13330    14191    15591    16457    16488    16076    15656    15777 
   16487    16902    16779    16910    17415    17768    17958    18156 
   17990    17089    15891    15082    14671    14300    14064    14203 
   14263    13844    13477    13479    13570    14046    15218    16262 
   16583    16773    16999    16728    16282    16288    16298    15740 
   14986    14369    13630    12976    13146    14203    15507    16611 
   17402    17593    16748    15282    14233    13570    12826    12542 
   12786    12653    12128    11563    10549     9269     8687     8906 
    9310     9632     9662     9060     8077     7345     7102     7511 
    8740    10241    11425    12466    13168    13126    13169    14005 
   15047    15987    16900    17076    16118    15054    14720    14658 
   14460    14168    13480    12427    11697    11492    11331    11098 
   11354    12256    13289    14361    15722    17123    18245    19019 
   19093    18300    17530    17670    18347    18867    19176    19202 
   18639    17630    16658    16003    15940    16584    17261    17216 
   16444    15190    13898    13227    13069    12637    11611    10458 
    9744     9111     7864     6585     6075     5864     5661     5804 
    6061     6390     7294     8338     8518     8169     8591     9775 
   10319     9790     9077     8523     7955     7737     7668     6798 
    5708     5683     6242     6852     8194    10182    11871    12602 
   12205    11476    11535    12700    14966    17590    18717    17803 
   16218    14841    13893    14081    15513    16805    16562    15052 
   13718    13238    13325    14105    15524    16545    16624    16062 
   14985    13889    13951    15770    18523    20609    20905    19469 
   17616    17026    18132    19918    21201    21517    21096    20146 
   19048    18748    19091    18956    18687    19008    19295    19158 
   18751    17921    17261    17782    19082    19763    18922    16571 
   13512    11134    10576    11407    11955    11293     9943     8807 
    8080     7746     8320     9535    10430    11158    11643    10939 
    9734     9476     9965    10696    11855    12903    12993    12729 
   13020    13476    13912    14713    15416    15849    16456    16547 
   15621    14622    14014    13705    13819    13698    12765    11734 
   11018    10365    10200    10701    11088    11263    11719    11984 
   11542    11018    11203    12209    13621    14816    15451    15819 
   16618    18345    20888    23225    23904    22658    20570    18633 
   17279    16486    15840    14948    13865    13004    12435    12061 
   12332    13383    14398    14951    15474    15951    16111    16525 
   17433    17954    17793    17332    16317    14739    13355    12695 
   12741    12676    11551     9623     7854     7405     9111    11859 
   13647    13879    13000    11868    11477    11977    12678    12972 
   12726    11942    10685     9621     9364     9686    10219    10464 
    9898     9155     9051     9172     9166     9297     9544    10141 
   11547    12926    13209    13176    13676    13960    13646    13498 
   13937    14427    14210    13621    13640    14089    14330    14261 
   13375    11554     9931     9119     8853     9094     9696    10233 
   10580    10770    10573    10080    10150    11088    12200    13000 
   13056    12495    12861    14679    16892    19133    20618    19987 
   17937    15968    14660    14931    17067    19351    20184    19500 
   17655    15148    13203    12543    12114    10762     8550     5451 
    1416    -2007    -2928    -1494     1092     4212     7292     9530 
   10412    10512    11609    14615    18443    21373    22231    20872 
   18451    16790    16667    17185    17404    17251    16604    15257 
   13706    12685    12410    12782    13658    14811    15968    16776 
   16878    16437    15983    15408    14587    14354    14965    15557 
   15864    15906    15370    14697    14535    14927    15944    17542 
   19259    20254    19615    17813    16533    16550    17562    19274 
   21358    23134    23807    23278    22312    21316    19997    18421 
   17125    16212    15326    14345    13210    11567     9572     8671 
   10242    13077    14384    13762    12972    12573    12468    13328 
   14424    14150    13648    14622    15475    14811    14119    13958 
   13498    13471    14386    14781    13779    12312    11449    11169 
   10877    10390     9831     9227     8675     8369     8457     8874 
    9232     9373     9829    10810    11746    12631    13773    14784 
   15551    16141    16207    15950    15638    15449    16066    16767 
   16096    14962    14748    15081    15782    16898    17133    15849 
   14478    13901    13511    13125    12942    12736    12261    11337 
   10124     9000     7345     4904     3847     5591     8076     9220 
    9128     8276     7285     7019     7375     7713     7491     6790 
    6981     8468     9820    10695    11488    11787    12102    13439 
   15273    16709    17728    18656    19727    21155    23215    25235 
   25411    23261    20147    17159    14951    14019    13720    13196 
   12800    12944    13043    12775    12838    13164    12688    12003 
   12304    12798    13312    14655    15235    14045    13397    14189 
   14735    14664    14549    13825    12418    11755    12165    12502 
   12890    13616    13133    11120     9536     9143     9092     9116 
    9374     9486     9442    10023    11059    11634    12128    13026 
   13464    13038    12437    12097    12012    12265    13250    14571 
   14694    13890    14049    14622    14392    14831    16661    18037 
   18143    17776    17337    17218    18247    20146    21134    20481 
   19468    18535    17288    16993    18191    19011    18757    18483 
   18463    18301    18188    18834    19921    20089    19453    19165 
   18792    17318    15604    15187    15481    15317    15340    15181 
   13377    11446    10976    10565    10144    10981    11790    11005 
    9717     9147     8277     6427     5396     6119     6960     7545 
    9078    10581    10843    11828    14580    16708    17115    16951 
   16486    16134    17030    18448    18567    17259    15605    14414 
   14019    14341    15138    15778    15700    15408    15226    14872 
   14522    14224    14081    14426    14681    14035    12245     9546 
    7123     6293     7186     8928    10366    10831    10217     8857 
    8004     8502     9556    10465    10999    10756    10260    10084 
    9938    10288    11210    11216    10361    10225    10545    10504 
   10780    11778    13251    15021    16309    16490    15592    13596 
   11519    11050    12049    13160    13800    14100    14011    12996 
   11261    10206    10482    11566    12777    13266    12631    11528 
   10840    10909    11584    12685    14043    14899    14567    13711 
   13344    13445    13961    15529    17801    19053    18605    17474 
   16649    16565    17356    18426    18613    17653    16618    16176 
   16045    16392    17430    18216    17988    17361    16882    16094 
   15109    14915    15259    15184    14869    14262    12883    11224 
    9770     8673     8247     8184     7898     7522     7613     8323 
    9158     9944    11060    12360    13492    14331    14637    14706 
   15065    15683    16414    16688    15816    14149    12565    12011 
   13002    14767    16377    17481    17727    17036    15819    15122 
   15909    17388    17905    17065    15495    13809    12415    11583 
   11377    11585    11868    11759    10975    10057     9715    10274 
   11926    13846    14789    14770    13817    11754     9655     8343 
    7656     7929     9308    10633    10990    11121    12095    13889 
   16370    19631    22712    24421    24843    24570    23989    23701 
   24458    26037    26793    25802    23956    21924    19846    18400 
   17775    17130    15958    14848    14131    12844    10762     9132 
    8204     7372     6769     6306     5398     4098     3108     3081 
    3829     4480     4655     4740     5335     6533     7794     9135 
   10829    12150    12694    12922    12970    13398    14950    16888 
   18012    18078    17314    16013    14784    14587    15493    16172 
   15938    15091    13526    11887    11537    12094    12198    11559 
   10471     9229     8202     7654     7576     7751     8181     8744 
    8758     8131     7774     8069     8550     9083     9665     9792 
    9411     9109     9265    10020    11098    12115    13274    14518 
   15346    15615    15521    15689    16566    17695    18654    19154 
   18642    17598    17005    16629    16377    16780    17148    16472 
   15037    13485    12182    11563    11638    11610    10943    10208 
   10044    10356    10892    11275    11086    10685    10603    10808 
   11341    11978    12257    12478    12894    13216    13738    14968 
   16478    17481    17675    17111    16253    15668    15359    15436 
   16232    17436    18480    18978    18794    18203    17553    17313 
   17872    18852    19553    19652    19270    18671    17890    16967 
   16429    16907    17875    17934    16919    15703    14589    13896 
   13980    14090    13603    13092    12785    12227    11396    10199 
    8518     7498     8165     9647    10866    11716    12092    12183 
   12770    13965    15110    15965    16469    16063    14675    13285 
