Origin Time       2025/01/13 21:19:00
Lat.              31.8
Long.             131.6
Depth. (km)       30
Mag.              6.9
Station Code      KGSH03
Station Lat.      31.9812
Station Long.     130.4438
Station Height(m) 10.11
Record Time       2025/01/13 21:19:50
Sampling Freq(Hz) 100Hz
Duration Time(s)  168
Dir.              2
Scale Factor      2940(gal)/6170270
Max. Acc. (gal)   4.665
Last Correction   2025/01/13 21:19:35
Memo.             
[...]
  152070   152052   152065   152178   152407   152709   153027   153333 
  153623   153902   154181   154465   154735   154987   155236   155486 
  155727   155951   156134   156251   156292   156254   156135   155995 
  155910   155920   156023   156173   156296   156344   156331   156288 
  156246   156240   156283   156359   156475   156627   156770   156865 
  156892   156844   156775   156761   156811   156894   156994   157095 
  157200   157314   157419   157496   157556   157626   157710   157769 
  157768   157696   157558   157391   157236   157101   156999   156942 
  156916   156883   156801   156632   156360   156002   155619   155267 
  154935   154563   154104   153563   153026   152609   152350   152210 
  152139   152092   152016   151877   151660   151384   151092   150817 
  150589   150401   150191   149909   149562   149199   148878   148629 
  148461   148357   148304   148305   148348   148411   148506   148658 
  148853   149035   149173   149288   149420   149583   149745   149888 
  150022   150171   150360   150583   150801   151003   151212   151430 
  151648   151873   152088   152243   152316   152329   152305   152255 
  152182   152076   151948   151824   151698   151573   151479   151404 
  151300   151141   150947   150748   150558   150374   150170   149940 
  149718   149535   149375   149209   149020   148813   148595   148369 
  148165   148018   147931   147904   147949   148054   148170   148263 
  148323   148359   148378   148391   148435   148552   148742   148969 
  149214   149493   149810   150138   150447   150706   150915   151136 
  151419   151753   152099   152410   152667   152916   153198   153488 
  153744   153943   154095   154249   154431   154622   154816   155026 
  155239   155426   155555   155601   155575   155514   155426   155288 
  155096   154882   154682   154528   154430   154370   154318   154252 
  154149   154011   153891   153828   153793   153726   153587   153381 
  153159   152972   152848   152781   152758   152755   152720   152621 
  152496   152410   152366   152334   152315   152332   152365   152367 
  152319   152218   152079   151941   151814   151671   151528   151411 
  151305   151191   151048   150876   150712   150580   150467   150349 
  150199   150022   149851   149740   149720   149763   149824   149916 
  150054   150237   150463   150729   151032   151371   151732   152112 
  152523   152969   153423   153818   154103   154304   154462   154595 
  154694   154743   154739   154675   154552   154395   154205   153976 
  153719   153447   153180   152943   152741   152577   152442   152291 
  152092   151885   151724   151606   151489   151340   151164   150988 
  150817   150647   150484   150333   150197   150089   150008   149953 
  149935   149958   150010   150074   150144   150225   150316   150416 
  150537   150681   150824   150957   151091   151230   151377   151537 
  151706   151880   152045   152179   152289   152406   152562   152758 
  152974   153180   153344   153445   153480   153450   153370   153254 
  153075   152801   152448   152049   151597   151072   150504   149962 
  149505   149149   148888   148702   148575   148504   148491   148520 
  148568   148618   148644   148645   148652   148654   148627   148587 
  148570   148587   148625   148686   148803   149005   149288   149604 
  149881   150086   150271   150497   150748   150973   151146   151271 
  151359   151417   151436   151412   151361   151296   151222   151178 
  151210   151306   151422   151518   151563   151561   151557   151589 
  151669   151772   151850   151867   151822   151755   151726   151774 
  151888   152036   152203   152404   152663   152990   153368   153766 
  154159   154537   154896   155217   155477   155679   155836   155947 
  156028   156097   156152   156176   156177   156177   156196   156236 
  156280   156334   156424   156571   156775   157006   157206   157349 
  157428   157427   157358   157277   157215   157163   157115   157073 
  157039   157015   156970   156858   156664   156415   156142   155881 
  155649   155431   155219   155003   154725   154347   153901   153438 
  152997   152594   152215   151858   151558   151327   151154   151040 
  150985   150982   151019   151071   151138   151248   151395   151541 
  151652   151705   151702   151681   151668   151668   151653   151585 
  151446   151237   150984   150766   150646   150599   150557   150483 
  150372   150229   150075   149940   149831   149740   149671   149623 
  149594   149577   149538   149453   149376   149358   149385   149458 
  149597   149780   149976   150161   150285   150321   150305   150279 
  150244   150203   150160   150115   150092   150130   150233   150356 
  150452   150512   150538   150531   150512   150501   150493   150492 
  150517   150566   150615   150642   150606   150465   150227   149938 
  149643   149355   149080   148838   148650   148514   148412   148313 
  148188   148050   147942   147911   147971   148097   148232   148339 
  148411   148439   148446   148485   148577   148720   148916   149160 
  149431   149720   150012   150281   150524   150753   150954   151115 
  151246   151373   151526   151708   151872   152004   152153   152343 
  152540   152710   152850   152965   153072   153182   153303   153452 
  153618   153754   153835   153865   153858   153825   153765   153668 
  153549   153453   153403   153378   153367   153364   153356   153360 
  153404   153486   153598   153755   153967   154209   154457   154702 
  154925   155125   155339   155585   155843   156099   156340   156529 
  156650   156719   156758   156814   156928   157081   157239   157384 
  157490   157558   157601   157608   157568   157498   157406   157276 
  157096   156890   156668   156415   156137   155869   155626   155412 
  155222   155044   154871   154698   154513   154313   154084   153805 
  153471   153107   152756   152450   152173   151895   151610   151304 
  150969   150626   150301   149995   149694   149403   149136   148893 
  148685   148537   148440   148368   148307   148255   148216   148211 
  148238   148272   148317   148408   148554   148744   148972   149209 
  149422   149602   149741   149835   149913   149998   150072   150128 
  150189   150268   150358   150454   150545   150631   150734   150863 
  150995   151099   151181   151281   151431   151634   151868   152112 
  152339   152522   152642   152697   152687   152628   152534   152389 
  152192   151970   151738   151507   151275   151016   150728   150438 
  150157   149884   149615   149338   149052   148789   148599   148493 
  148456   148463   148468   148436   148368   148289   148239   148242 
  148293   148380   148497   148633   148783   148948   149119   149289 
  149465   149650   149822   149962   150068   150144   150223   150342 
  150501   150680   150868   151061   151268   151500   151751   152012 
  152280   152548   152811   153069   153316   153548   153756   153924 
  154053   154158   154226   154228   154159   154042   153904   153771 
  153665   153602   153569   153519   153410   153250   153082   152944 
  152841   152761   152672   152560   152448   152351   152268   152218 
  152214   152235   152264   152288   152295   152288   152277   152260 
  152254   152297   152384   152463   152517   152575   152670   152799 
  152926   153024   153108   153205   153305   153377   153419   153443 
  153457   153469   153480   153489   153495   153478   153403   153259 
  153070   152874   152694   152531   152379   152232   152087   151953 
  151853   151782   151720   151668   151627   151588   151541   151485 
  151425   151384   151373   151383   151417   151478   151555   151645 
  151763   151925   152117   152304   152484   152691   152952   153265 
  153604   153942   154277   154598   154872   155067   155183   155230 
  155217   155168   155123   155094   155040   154937   154805   154648 
  154461   154261   154062   153859   153654   153455   153257   153063 
  152880   152718   152577   152454   152344   152242   152157   152107 
  152091   152104   152140   152203   152286   152367   152434   152485 
  152526   152559   152581   152600   152615   152604   152556   152488 
  152413   152341   152290   152250   152183   152052   151843   151590 
  151355   151170   151028   150915   150826   150762   150746   150791 
  150893   151067   151317   151597   151856   152086   152287   152456 
  152580   152638   152611   152504   152347   152161   151942   151677 
  151369   151041   150707   150365   150040   149762   149507   149254 
  149022   148828   148673   148561   148490   148459   148470   148509 
  148566   148658   148795   148971   149181   149391   149568   149709 
  149817   149905   150009   150135   150261   150377   150472   150534 
  150579   150622   150672   150747   150840   150909   150931   150926 
  150934   150984   151075   151177   151263   151337   151439   151588 
  151761   151936   152103   152249   152365   152445   152489   152512 
  152523   152519   152484   152403   152286   152151   152024   151911 
  151809   151738   151720   151755   151828   151907   151960   151983 
  151986   151997   152055   152160   152293   152424   152517   152545 
  152519   152496   152527   152619   152735   152837   152890   152885 
  152852   152824   152807   152811   152834   152856   152866   152873 
  152854   152769   152634   152512   152442   152424   152426   152414 
  152405   152431   152467   152471   152445   152393   152313   152224 
  152129   152017   151915   151853   151823   151796   151759   151731 
  151743   151804   151915   152075   152281   152528   152787   153020 
  153234   153446   153652   153851   154051   154252   154451   154646 
  154830   154999   155160   155334   155515   155681   155821   155951 
  156074   156186   156283   156359   156400   156409   156392   156341 
  156251   156125   155973   155811   155642   155475   155320   155160 
  154973   154744   154472   154175   153874   153569   153271   152975 
  152654   152296   151910   151496   151061   150629   150225   149860 
  149535   149254   149025   148847   148701   148576   148484   148437 
  148434   148475   148549   148637   148723   148785   148802   148792 
  148798   148840   148904   148960   149002   149049   149096   149135 
  149189   149275   149388   149530   149700   149896   150099   150285 
  150440   150576   150719   150874   151021   151153   151262   151348 
  151433   151514   151572   151610   151639   151668   151719   151812 
  151943   152082   152196   152269   152320   152374   152434   152484 
  152522   152569   152635   152707   152775   152832   152866   152879 
  152892   152917   152967   153055   153171   153302   153432   153546 
  153640   153711   153753   153770   153761   153731   153683   153610 
  153499   153366   153236   153113   152989   152858   152712   152551 
  152375   152184   151979   151784   151637   151530   151411   151263 
  151112   150972   150849   150741   150641   150565   150548   150585 
  150649   150740   150854   150963   151050   151128   151213   151316 
  151448   151595   151725   151829   151913   151980   152047   152123 
  152202   152288   152391   152495   152572   152637   152719   152820 
  152919   152996   153054   153101   153145   153179   153188   153171 
  153156   153155   153154   153142   153126   153112   153097   153078 
  153060   153044   153017   152979   152968   153009   153102   153242 
  153409   153577   153754   153966   154215   154496   154814   155156 
  155503   155855   156196   156501   156771   157005   157191   157333 
  157458   157571   157652   157693   157687   157629   157538   157418 
  157262   157083   156890   156679   156456   156227   155997   155772 
  155553   155321   155071   154826   154611   154416   154218   153996 
  153742   153465   153177   152894   152637   152405   152178   151947 
  151699   151423   151120   150796   150451   150105   149790   149509 
  149238   148973   148716   148453   148179   147898   147614   147338 
  147087   146871   146687   146515   146350   146212   146122   146083 
  146085   146101   146126   146169   146226   146293   146380   146487 
  146607   146743   146887   147026   147184   147383   147613   147859 
  148111   148352   148570   148776   148999   149252   149536   149834 
  150115   150355   150549   150722   150892   151063   151232   151401 
  151558   151695   151814   151914   151997   152062   152097   152100 
  152094   152098   152122   152168   152210   152206   152141   152047 
  151952   151870   151804   151731   151626   151490   151348   151220 
  151116   151038   150985   150957   150953   150976   151028   151113 
  151233   151369   151517   151691   151891   152113   152360   152628 
  152909   153187   153445   153680   153884   154047   154165   154226 
  154222   154167   154078   153941   153735   153471   153169   152843 
  152506   152171   151851   151564   151304   151057   150823   150612 
  150435   150293   150170   150054   149945   149834   149717   149621 
  149572   149554   149545   149551   149576   149603   149611   149602 
  149590   149585   149583   149595   149645   149723   149815   149939 
  150112   150331   150604   150932   151313   151760   152278   152852 
  153464   154098   154727   155323   155880   156416   156947   157478 
  157993   158475   158923   159335   159703   160022   160300   160542 
  160749   160930   161096   161249   161401   161538   161645   161735 
  161802   161830   161830   161804   161736   161632   161498   161311 
  161077   160850   160629   160353   160034   159702   159336   158953 
  158556   158109   157612   157080   156518   155934   155327   154701 
  154075   153465   152886   152355   151873   151426   151009   150618 
  150249   149905   149595   149319   149073   148852   148642   148432 
  148233   148062   147922   147811   147721   147653   147609   147573 
  147537   147509   147490   147479   147474   147461   147423   147357 
  147275   147176   147059   146948   146868   146823   146832   146902 
  147014   147154   147328   147541   147773   148031   148321   148613 
  148916   149254   149598   149923   150215   150449   150623   150755 
  150874   150987   151082   151158   151221   151279   151358   151465 
  151576   151670   151727   151727   151666   151546   151382   151191 
  150994   150802   150616   150449   150310   150188   150072   149964 
  149853   149721   149559   149378   149192   149015   148843   148661 
  148469   148280   148116   147998   147939   147936   147986   148094 
  148250   148430   148617   148798   148981   149177   149375   149558 
  149724   149862   149971   150051   150097   150113   150112   150088 
  150038   149968   149882   149788   149702   149625   149546   149468 
  149400   149345   149308   149301   149330   149397   149479   149558 
  149642   149746   149881   150058   150283   150551   150838   151135 
  151450   151798   152186   152611   153053   153481   153868   154202 
  154483   154729   154956   155162   155353   155542   155728   155906 
  156070   156212   156329   156422   156492   156544   156579   156586 
  156553   156493   156413   156307   156201   156111   156031   155967 
  155915   155870   155836   155812   155806   155811   155812   155796 
  155753   155680   155589   155504   155429   155360   155286   155205 
  155120   155031   154928   154802   154648   154467   154255   154004 
  153723   153423   153109   152799   152507   152230   151968   151715 
  151478   151268   151086   150924   150764   150597   150429   150270 
  150129   150023   149958   149927   149929   149965   150037   150152 
  150296   150460   150666   150924   151218   151537   151869   152209 
  152562   152929   153288   153617   153901   154129   154299   154411 
  154464   154459   154396   154285   154143   153980   153803   153624 
  153435   153221   152964   152661   152333   151995   151654   151315 
  150974   150626   150278   149944   149638   149370   149149   148984 
  148877   148810   148760   148718   148671   148610   148547   148496 
  148471   148482   148521   148567   148603   148624   148643   148671 
  148706   148742   148773   148801   148845   148918   149021   149142 
  149270   149406   149562   149739   149931   150121   150298   150456 
  150604   150748   150872   150962   151022   151045   151025   150970 
  150891   150807   150735   150681   150638   150596   150539   150454 
  150352   150250   150151   150061   149991   149939   149901   149883 
  149906   149985   150118   150289   150481   150680   150877   151069 
  151255   151429   151591   151745   151882   151990   152058   152089 
  152098   152094   152091   152102   152113   152106   152076   152025 
  151962   151895   151815   151731   151661   151606   151568   151562 
  151600   151685   151802   151932   152081   152270   152510   152793 
  153111   153457   153802   154133   154450   154747   155026   155271 
  155456   155583   155668   155728   155789   155855   155917   155971 
  156006   156007   155975   155920   155848   155765   155668   155555 
  155432   155301   155156   154995   154816   154619   154408   154191 
  153980   153787   153622   153499   153413   153361   153338   153336 
  153360   153418   153515   153646   153795   153959   154150   154376 
  154636   154922   155220   155516   155809   156105   156403   156686 
  156935   157131   157281   157419   157564   157708   157848   157974 
  158076   158150   158197   158210   158197   158158   158080   157954 
  157780   157573   157358   157146   156932   156713   156492   156259 
  156023   155804   155598   155395   155192   154977   154746   154514 
  154291   154077   153877   153695   153539   153417   153334   153275 
  153214   153136   153033   152900   152739   152547   152317   152050 
  151739   151376   150978   150574   150164   149746   149315   148866 
  148403   147939   147487   147053   146634   146227   145835   145457 
  145098   144772   144468   144199   144002   143864   143779   143767 
  143812   143900   144035   144194   144357   144529   144718   144929 
  145168   145439   145741   146051   146353   146644   146933   147222 
  147510   147791   148063   148324   148573   148815   149048   149263 
  149453   149616   149749   149849   149918   149956   149969   149961 
  149926   149864   149780   149683   149578   149473   149370   149281 
  149213   149161   149123   149108   149111   149122   149148   149201 
  149282   149384   149510   149658   149814   149972   150141   150325 
  150532   150770   151029   151289   151537   151756   151947   152121 
  152290   152477   152697   152943   153205   153465   153709   153933 
  154143   154342   154529   154698   154835   154932   154996   155036 
  155051   155044   155021   154985   154949   154924   154902   154865 
  154816   154767   154713   154645   154557   154438   154287   154116 
  153933   153748   153571   153403   153244   153091   152938   152786 
  152641   152496   152346   152202   152070   151963   151903   151895 
  151926   151977   152046   152132   152216   152288   152354   152418 
  152482   152543   152587   152607   152609   152605   152594   152581 
  152579   152595   152623   152662   152713   152765   152810   152849 
  152879   152893   152895   152891   152885   152880   152873   152853 
