Origin Time       2025/01/13 21:19:00
Lat.              31.8
Long.             131.6
Depth. (km)       30
Mag.              6.9
Station Code      KGSH07
Station Lat.      31.7140
Station Long.     130.6149
Station Height(m) -295.595
Record Time       2025/01/13 21:19:49
Sampling Freq(Hz) 100Hz
Duration Time(s)  242
Dir.              1
Scale Factor      2942(gal)/8224139
Max. Acc. (gal)   4.479
Last Correction   2025/01/13 21:19:49
Memo.             
[...]
   99955   100916   101985   103006   103821   104353   104596   104507 
  104103   103562   103027   102595   102388   102455   102782   103311 
  103989   104707   105231   105484   105678   105926   106068   105977 
  105814   105790   105912   106118   106328   106357   106091   105692 
  105409   105294   105322   105586   106104   106699   107264   107820 
  108245   108334   108149   107987   107971   108006   108033   107983 
  107700   107229   106843   106710   106799   107022   107280   107492 
  107723   108087   108498   108679   108434   107847   107221   106782 
  106455   106105   105768   105422   104907   104198   103450   102844 
  102531   102559   102901   103515   104218   104681   104742   104518 
  104182   103828   103616   103688   103897   104048   104186   104341 
  104423   104475   104575   104550   104244   103828   103527   103338 
  103262   103457   103901   104365   104710   104859   104742   104448 
  104056   103423   102540   101733   101260   101120   101227   101583 
  102150   102725   103138   103377   103500   103542   103503   103396 
  103230   102979   102702   102523   102432   102413   102628   103153 
  103812   104419   104903   105223   105354   105252   104897   104334 
  103693   103249   103246   103635   104224   104836   105262   105387 
  105329   105251   105205   105305   105767   106573   107442   108202 
  108882   109432   109667   109528   109127   108606   108043   107454 
  106737   105777   104654   103497   102431   101649   101152   100701 
  100151    99590    99245    99272    99604   100025   100430   100853 
  101333   101888   102471   103026   103523   103893   104156   104484 
  104961   105483   105970   106482   107092   107831   108633   109336 
  109803   109961   109883   109746   109528   109111   108670   108519 
  108773   109367   110043   110459   110550   110504   110378   110077 
  109719   109578   109694   109877   109998   110088   110265   110547 
  110822   110944   110813   110506   110195   109944   109787   109755 
  109752   109638   109394   109074   108700   108334   108028   107789 
  107634   107599   107589   107248   106355   105221   104267   103509 
  102697   101711   100720   100008    99747    99902   100284   100712 
  101127   101621   102331   103248   104198   105052   105794   106375 
  106790   107126   107434   107619   107551   107269   106941   106605 
  106185   105696   105193   104653   104052   103530   103289   103299 
  103426   103708   104279   105135   105996   106546   106733   106682 
  106451   106081   105729   105540   105555   105821   106262   106575 
  106519   106186   105802   105459   105220   105237   105576   106122 
  106756   107337   107595   107389   106861   106263   105777   105430 
  105233   105254   105495   105871   106227   106425   106420   106177 
  105646   104876   103989   103081   102213   101397   100677   100198 
  100029   100122   100336   100494   100511   100307    99824    99239 
   98878    98934    99291    99638    99851   100024   100194   100384 
  100737   101290   102055   103131   104363   105397   106123   106722 
  107369   108035   108465   108307   107555   106720   106188   105879 
  105621   105371   105077   104657   104188   103932   103991   104187 
  104409   104718   105031   105174   105183   105219   105344   105533 
  105683   105727   105713   105707   105756   105879   105969   105838 
  105420   104720   103694   102386   101047    99906    98956    98037 
   97147    96533    96338    96453    96766    97294    97984    98618 
   99072    99472    99943   100442   100927   101507   102305   103230 
  104086   104803   105360   105648   105611   105386   105047   104491 
  103712   102952   102462   102335   102520   102890   103324   103844 
  104587   105570   106604   107507   108302   108985   109352   109356 
  109132   108643   107869   107026   106254   105525   104912   104535 
  104411   104515   104843   105316   105825   106415   107140   107840 
  108413   108966   109540   110077   110694   111522   112313   112611 
  112336   111824   111362   111010   110643   110089   109406   108780 
  108257   107835   107462   107010   106508   106089   105690   105227 
  104822   104537   104313   104183   104190   104372   104796   105428 
  106145   106758   107069   107094   106906   106462   105835   105310 
  105069   105062   105155   105255   105420   105829   106546   107453 
  108479   109633   110771   111631   112137   112476   112881   113425 
  114058   114648   114928   114745   114277   113643   112723   111666 
  110937   110654   110481   110158   109711   109175   108513   107862 
  107485   107403   107411   107462   107601   107686   107577   107356 
  107136   106739   105811   104390   102907   101461    99906    98506 
   97591    97119    96984    97102    97190    97092    97086    97367 
   97710    97970    98248    98554    98860    99200    99540    99858 
  100246   100824   101615   102475   103211   103674   103711   103285 
  102548   101713   100965   100350    99802    99297    98934    98882 
   99122    99473    99843   100191   100438   100562   100730   101142 
  101753   102432   103158   103798   104182   104367   104545   104919 
  105571   106390   107202   107832   108145   108122   107919   107730 
  107601   107507   107487   107592   107789   107935   107894   107631 
  107146   106431   105578   104811   104299   104058   104016   104083 
  104205   104364   104496   104471   104275   104082   104018   104045 
  104136   104394   104888   105484   105950   106223   106338   106289 
  106182   106177   106311   106628   107127   107640   107964   108032 
  107894   107593   107184   106844   106733   106810   106991   107244 
  107453   107512   107493   107447   107280   106961   106621   106392 
  106350   106547   106937   107345   107597   107568   107256   106844 
  106474   106153   105833   105518   105374   105506   105814   106247 
  106731   107022   106982   106759   106604   106648   106907   107322 
  107754   108018   108035   107794   107291   106647   106068   105669 
  105486   105471   105514   105510   105383   105046   104448   103779 
  103342   103169   103127   103203   103453   103843   104242   104507 
  104616   104634   104485   104035   103342   102674   102293   102308 
  102620   103040   103470   103894   104284   104708   105250   105802 
  106213   106477   106645   106709   106589   106288   105938   105655 
  105468   105336   105144   104819   104423   104086   103831   103599 
  103393   103311   103385   103518   103665   103958   104471   105154 
  105970   106791   107426   107883   108271   108596   108814   108932 
  109059   109279   109548   109679   109467   108931   108325   107860 
  107538   107222   106843   106493   106240   105983   105619   105175 
  104681   104101   103414   102687   102006   101443   101067   100916 
  100919   100935   100959   101112   101471   102085   102909   103700 
  104284   104768   105278   105729   105948   105980   106045   106276 
  106687   107173   107487   107492   107287   107005   106651   106222 
  105826   105595   105582   105738   105922   106062   106234   106532 
  106991   107542   108048   108410   108616   108726   108814   108899 
  109009   109233   109598   109948   110006   109701   109254   108795 
  108301   107840   107434   106986   106489   106034   105583   105034 
  104529   104259   104045   103647   103238   103018   102805   102483 
  102263   102184   102020   101706   101424   101286   101201   101119 
  101113   101162   101164   101147   101233   101490   101934   102555 
  103180   103589   103789   103929   104051   104118   104209   104422 
  104726   105097   105474   105644   105544   105393   105406   105591 
  105790   105907   105991   106081   106118   106024   105783   105430 
  105044   104643   104182   103731   103499   103574   103864   104267 
  104770   105374   106024   106733   107523   108217   108633   108796 
  108766   108548   108218   107874   107534   107154   106689   106174 
  105737   105462   105349   105398   105628   105989   106326   106519 
  106670   106956   107333   107604   107777   108001   108252   108361 
  108261   108000   107615   107103   106440   105626   104645   103530 
  102487   101753   101375   101232   101216   101299   101464   101667 
  101884   102092   102204   102139   101906   101548   101112   100704 
  100454   100421   100608   100982   101441   101862   102209   102550 
  102996   103584   104225   104803   105289   105711   106077   106351 
  106483   106486   106409   106242   105968   105667   105451   105336 
  105273   105279   105424   105676   105961   106288   106651   106938 
  107057   106968   106685   106353   106142   106116   106228   106442 
  106756   107088   107326   107445   107464   107412   107326   107183 
  106964   106697   106398   106111   105915   105860   105965   106093 
  106022   105838   105781   105825   105818   105733   105548   105216 
  104849   104666   104673   104720   104782   104900   105035   105154 
  105285   105409   105439   105394   105416   105578   105819   106073 
  106417   106911   107420   107784   108000   108148   108228   108201 
  108110   108018   107917   107801   107670   107509   107342   107212 
  107068   106848   106604   106461   106450   106432   106308   106128 
  105945   105769   105636   105489   105186   104768   104463   104394 
  104465   104637   104990   105495   105993   106443   106907   107370 
  107731   107985   108180   108225   108059   107829   107605   107288 
  106891   106512   106199   105903   105564   105324   105241   105140 
  105146   105479   105902   106170   106358   106470   106388   106147 
  105918   105717   105464   105158   104770   104198   103364   102350 
  101378   100525    99620    98593    97580    96730    96160    95976 
   96221    96853    97733    98641    99372    99821   100036   100122 
  100183   100332   100623   101008   101447   101933   102374   102660 
  102855   103126   103540   104086   104719   105314   105844   106377 
  106845   107073   107003   106712   106301   105860   105484   105248 
  105116   104971   104701   104334   103932   103485   103092   102841 
  102681   102597   102512   102312   102104   102078   102250   102492 
  102645   102656   102602   102536   102411   102258   102228   102428 
  102829   103376   103998   104580   105088   105557   105969   106301 
  106573   106837   107137   107396   107570   107708   107794   107761 
  107574   107314   107088   106829   106466   106083   105722   105354 
  105000   104734   104606   104619   104765   105030   105325   105605 
  105895   106122   106199   106191   106189   106165   106061   105961 
  105997   106172   106456   106864   107260   107453   107424   107276 
  107127   107087   107190   107358   107496   107586   107599   107455 
  107168   106828   106469   106107   105780   105511   105322   105273 
  105372   105555   105750   105914   105996   105946   105706   105254 
  104672   104058   103470   103010   102736   102560   102397   102263 
  102192   102203   102304   102510   102857   103337   103827   104242 
  104603   104853   104850   104630   104421   104377   104453   104608 
  104886   105250   105564   105777   105938   106022   105987   105923 
  105937   106015   106111   106195   106278   106401   106540   106629 
  106648   106681   106829   107126   107632   108398   109333   110257 
  111006   111573   112020   112299   112357   112230   111948   111550 
  111086   110539   109841   109013   108178   107418   106743   106143 
  105649   105313   105140   105074   105005   104912   104847   104749 
  104607   104603   104814   105158   105637   106259   106895   107427 
  107842   108151   108348   108403   108341   108256   108178   108058 
  107914   107847   107855   107831   107763   107742   107754   107684 
  107454   107069   106585   106056   105530   105071   104687   104318 
  103935   103562   103206   102795   102289   101754   101299   100969 
  100720   100603   100724   101020   101343   101702   102172   102720 
  103268   103810   104388   104985   105499   105865   106088   106157 
  106076   105915   105706   105420   105067   104720   104492   104464 
  104588   104728   104803   104858   104958   105139   105417   105717 
  105989   106231   106373   106393   106296   106030   105659   105287 
  104846   104240   103515   102779   102132   101549   100939   100310 
   99673    98984    98280    97659    97133    96674    96303    96026 
   95760    95505    95353    95359    95573    95994    96565    97214 
   97927    98707    99522   100352   101162   101891   102582   103262 
  103824   104245   104637   105047   105440   105776   106030   106215 
  106357   106440   106421   106274   105985   105576   105125   104692 
  104288   103932   103658   103461   103281   103117   103083   103303 
  103796   104471   105202   105899   106508   107018   107410   107627 
  107703   107774   107933   108087   108058   107777   107329   106824 
  106303   105798   105367   104986   104598   104202   103869   103607 
  103307   102907   102444   101953   101483   101089   100800   100658 
  100715   101008   101552   102359   103392   104526   105680   106861 
  108078   109264   110317   111177   111834   112275   112525   112668 
  112734   112661   112456   112199   111865   111368   110763   110226 
  109861   109674   109719   110095   110752   111599   112629   113810 
  115006   116081   116946   117512   117725   117626   117289   116819 
  116347   115943   115547   115049   114419   113680   112843   111921 
  110960   109996   109044   108132   107275   106461   105722   105111 
  104606   104099   103528   102928   102330   101714   101067   100398 
   99725    99083    98478    97807    97025    96337    95816    95241 
   94628    94215    94020    94007    94251    94716    95230    95710 
   96255    96977    97792    98528    99125    99559    99739    99674 
   99511    99331    99166    99103    99150    99254    99453    99790 
  100229   100759   101409   102157   102975   103852   104730   105501 
  106139   106674   107080   107298   107352   107399   107526   107646 
  107685   107705   107804   107960   108063   108113   108189   108255 
  108274   108317   108392   108446   108526   108630   108648   108519 
  108247   107920   107630   107342   107032   106740   106494   106257 
  105988   105705   105428   105197   105111   105206   105405   105599 
  105727   105760   105672   105494   105331   105332   105611   106139 
  106848   107720   108635   109471   110242   110926   111460   111898 
  112336   112816   113332   113838   114242   114407   114239   113800 
  113258   112722   112145   111491   110903   110438   109938   109408 
  108954   108513   108040   107581   107144   106740   106378   105997 
  105522   104927   104238   103472   102555   101453   100313    99268 
   98292    97401    96696    96210    95904    95750    95696    95669 
   95627    95547    95478    95493    95604    95785    96007    96217 
   96371    96457    96526    96682    96955    97363    97988    98801 
   99642   100422   101143   101734   102033   102033   101883   101663 
  101447   101335   101345   101448   101618   101829   102049   102261 
  102483   102741   103056   103495   104090   104734   105233   105505 
  105588   105494   105312   105235   105343   105653   106201   106956 
  107843   108750   109561   110203   110662   111021   111402   111852 
  112333   112745   113053   113304   113495   113537   113356   112972 
  112504   112095   111773   111483   111172   110782   110261   109614 
  108907   108255   107773   107518   107496   107619   107724   107771 
  107840   107908   107904   107862   107804   107693   107539   107325 
  106975   106543   106153   105835   105595   105514   105684   106099 
  106662   107304   107939   108440   108792   109046   109177   109163 
  109061   108988   108962   108858   108621   108305   107983   107709 
  107496   107357   107315   107330   107354   107319   107084   106650 
  106173   105675   105096   104440   103707   102887   101988   101044 
  100118    99289    98628    98194    98003    98037    98261    98640 
   99141    99701   100261   100870   101598   102393   103154   103781 
  104188   104369   104253   103813   103346   103094   102861   102594 
  102535   102562   102388   102095   101881   101794   101780   101821 
  101930   102026   102042   102046   102038   101934   101737   101541 
  101424   101368   101329   101317   101320   101258   101083   100808 
  100431    99936    99335    98693    98078    97498    96958    96519 
   96250    96196    96383    96831    97580    98675   100043   101521 
  102990   104394   105765   107099   108232   109046   109617   110047 
  110421   110808   111199   111542   111829   112056   112162   112068 
  111782   111427   111115   110841   110573   110331   110108   109818 
  109412   108939   108454   107941   107451   107103   106914   106829 
  106855   106999   107196   107347   107383   107314   107185   107025 
  106890   106870   106965   107086   107165   107212   107241   107231 
  107198   107160   107176   107376   107769   108225   108685   109093 
  109356   109459   109402   109161   108716   108108   107458   106866 
  106335   105841   105370   104924   104494   104064   103671   103329 
  103046   102936   103079   103411   103820   104299   104893   105561 
  106201   106797   107393   108008   108564   108950   109119   109092 
  108915   108649   108378   108178   108105   108191   108445   108869 
  109375   109810   110169   110523   110756   110760   110640   110496 
  110326   110247   110386   110600   110671   110554   110278   109815 
  109152   108390   107680   107140   106713   106168   105387   104383 
  103161   101804   100448    99226    98262    97569    97086    96745 
   96461    96161    95875    95727    95806    96161    96792    97621 
   98531    99373   100025   100465   100743   100946   101189   101498 
  101831   102273   102816   103356   103964   104611   105131   105536 
  105838   106016   106185   106477   106856   107179   107384   107481 
  107393   107028   106427   105696   104919   104152   103416   102702 
  102003   101372   100882   100565   100418   100446   100615   100854 
  101148   101479   101749   101930   102095   102286   102570   103034 
  103685   104442   105201   105921   106610   107260   107902   108527 
  108990   109232   109368   109462   109510   109524   109448   109239 
  108926   108569   108249   108020   107894   107908   108039   108205 
  108376   108506   108510   108355   108086   107747   107283   106741 
  106238   105691   105057   104461   103958   103522   103183   102990 
  102911   102892   102952   103098   103265   103441   103670   103947 
  104203   104400   104575   104750   104870   104866   104735   104498 
  104186   103842   103572   103423   103308   103184   103052   102872 
  102668   102492   102402   102455   102636   102979   103516   104083 
  104526   104849   105125   105432   105780   106142   106517   106882 
  107184   107423   107666   107941   108203   108394   108480   108483 
  108409   108225   107947   107620   107268   106938   106641   106320 
  105949   105557   105160   104745   104274   103775   103320   102915 
