Origin Time       2025/01/13 21:19:00
Lat.              31.8
Long.             131.6
Depth. (km)       30
Mag.              6.9
Station Code      KGSH05
Station Lat.      31.8699
Station Long.     130.4958
Station Height(m) -33.658
Record Time       2025/01/13 21:19:49
Sampling Freq(Hz) 100Hz
Duration Time(s)  229
Dir.              1
Scale Factor      3923(gal)/8224838
Max. Acc. (gal)   5.262
Last Correction   2025/01/13 21:19:50
Memo.             
[...]
  -20644   -21725   -22680   -23425   -23915   -24139   -24155   -24071 
  -23980   -23926   -23899   -23866   -23827   -23799   -23782   -23766 
  -23724   -23600   -23353   -23036   -22793   -22771   -23016   -23431 
  -23854   -24173   -24414   -24675   -24993   -25319   -25598   -25855 
  -26140   -26481   -26867   -27275   -27668   -27981   -28156   -28229 
  -28297   -28409   -28509   -28544   -28522   -28413   -28169   -27842 
  -27527   -27248   -26998   -26781   -26603   -26481   -26462   -26586 
  -26846   -27159   -27410   -27534   -27526   -27368   -27025   -26516 
  -25921   -25300   -24692   -24132   -23630   -23214   -22906   -22684 
  -22512   -22399   -22384   -22469   -22607   -22798   -23132   -23641 
  -24248   -24872   -25479   -26040   -26446   -26592   -26470   -26160 
  -25763   -25305   -24687   -23862   -22940   -22063   -21311   -20722 
  -20314   -20013   -19722   -19449   -19276   -19238   -19317   -19465 
  -19645   -19843   -20082   -20380   -20713   -21074   -21477   -21886 
  -22239   -22507   -22692   -22820   -22914   -22943   -22858   -22670 
  -22447   -22252   -22098   -21982   -21902   -21856   -21841   -21875 
  -21992   -22192   -22401   -22554   -22705   -22947   -23271   -23595 
  -23819   -23857   -23746   -23604   -23507   -23460   -23410   -23257 
  -22933   -22455   -21903   -21361   -20869   -20445   -20096   -19813 
  -19593   -19442   -19354   -19323   -19345   -19403   -19450   -19453 
  -19423   -19383   -19334   -19295   -19300   -19386   -19553   -19797 
  -20116   -20463   -20791   -21100   -21340   -21450   -21420   -21273 
  -21065   -20865   -20686   -20514   -20376   -20301   -20293   -20372 
  -20576   -20935   -21469   -22150   -22889   -23585   -24208   -24771 
  -25304   -25814   -26253   -26562   -26755   -26875   -26939   -26952 
  -26929   -26870   -26759   -26604   -26426   -26245   -26045   -25782 
  -25448   -25078   -24710   -24408   -24241   -24231   -24409   -24826 
  -25467   -26242   -27018   -27665   -28143   -28518   -28885   -29284 
  -29675   -30010   -30272   -30464   -30618   -30762   -30879   -30946 
  -30900   -30685   -30316   -29860   -29378   -28907   -28467   -28057 
  -27654   -27211   -26697   -26107   -25450   -24753   -24069   -23465 
  -22978   -22588   -22284   -22080   -21969   -21892   -21743   -21456 
  -21080   -20710   -20394   -20144   -19959   -19842   -19788   -19776 
  -19782   -19805   -19866   -19990   -20163   -20347   -20509   -20607 
  -20613   -20525   -20398   -20291   -20194   -20065   -19907   -19765 
  -19691   -19688   -19724   -19770   -19819   -19934   -20191   -20609 
  -21147   -21725   -22245   -22685   -23075   -23421   -23699   -23876 
  -23950   -23984   -24062   -24220   -24455   -24749   -25060   -25331 
  -25543   -25740   -25968   -26215   -26460   -26684   -26890   -27117 
  -27373   -27625   -27814   -27876   -27780   -27525   -27105   -26547 
  -25929   -25312   -24744   -24256   -23849   -23517   -23259   -23056 
  -22879   -22715   -22530   -22275   -21946   -21589   -21227   -20871 
  -20517   -20132   -19680   -19170   -18631   -18069   -17470   -16815 
  -16114   -15426   -14868   -14534   -14389   -14373   -14446   -14561 
  -14701   -14859   -15018   -15196   -15437   -15773   -16209   -16730 
  -17305   -17909   -18522   -19130   -19724   -20314   -20958   -21716 
  -22569   -23445   -24270   -24977   -25535   -25949   -26256   -26503 
  -26740   -26993   -27260   -27510   -27712   -27891   -28124   -28431 
  -28742   -29018   -29247   -29430   -29550   -29602   -29598   -29547 
  -29447   -29292   -29081   -28863   -28683   -28532   -28395   -28291 
  -28210   -28134   -28063   -27980   -27843   -27642   -27379   -27035 
  -26597   -26077   -25504   -24907   -24313   -23733   -23159   -22572 
  -21948   -21280   -20590   -19917   -19292   -18754   -18334   -18050 
  -17901   -17876   -17994   -18258   -18640   -19099   -19614   -20151 
  -20668   -21149   -21594   -21990   -22324   -22608   -22858   -23105 
  -23352   -23571   -23757   -23944   -24182   -24510   -24916   -25353 
  -25770   -26129   -26422   -26704   -27012   -27317   -27553   -27664 
  -27627   -27463   -27210   -26904   -26572   -26285   -26102   -25990 
  -25936   -25986   -26136   -26323   -26473   -26523   -26462   -26316 
  -26117   -25884   -25598   -25215   -24714   -24096   -23375   -22613 
  -21917   -21363   -20946   -20633   -20426   -20332   -20345   -20484 
  -20729   -21020   -21308   -21551   -21743   -21921   -22121   -22323 
  -22486   -22607   -22734   -22909   -23139   -23429   -23796   -24239 
  -24725   -25201   -25614   -25947   -26171   -26230   -26126   -25953 
  -25776   -25612   -25461   -25330   -25251   -25274   -25417   -25627 
  -25790   -25856   -25874   -25894   -25953   -26080   -26277   -26516 
  -26755   -26946   -27058   -27099   -27071   -26956   -26731   -26385 
  -25920   -25358   -24757   -24179   -23641   -23125   -22611   -22084 
  -21564   -21077   -20630   -20239   -19915   -19624   -19337   -19072 
  -18860   -18702   -18582   -18466   -18323   -18149   -17953   -17733 
  -17474   -17199   -16962   -16794   -16695   -16692   -16812   -17051 
  -17402   -17857   -18412   -19070   -19770   -20402   -20876   -21173 
  -21342   -21447   -21506   -21532   -21567   -21617   -21662   -21691 
  -21693   -21662   -21594   -21473   -21301   -21136   -21007   -20891 
  -20780   -20694   -20655   -20677   -20756   -20860   -20974   -21099 
  -21231   -21367   -21510   -21695   -21942   -22219   -22461   -22636 
  -22748   -22815   -22856   -22874   -22887   -22952   -23082   -23213 
  -23276   -23269   -23221   -23145   -23076   -23062   -23163   -23433 
  -23859   -24379   -24962   -25594   -26262   -26954   -27641   -28277 
  -28817   -29218   -29471   -29594   -29608   -29533   -29381   -29160 
  -28914   -28725   -28659   -28723   -28868   -29027   -29151   -29192 
  -29126   -28948   -28655   -28259   -27810   -27367   -26964   -26624 
  -26372   -26253   -26304   -26500   -26744   -26971   -27172   -27322 
  -27372   -27324   -27224   -27101   -26968   -26855   -26784   -26751 
  -26736   -26723   -26680   -26555   -26335   -26042   -25691   -25303 
  -24923   -24574   -24243   -23908   -23560   -23210   -22889   -22600 
  -22304   -21968   -21613   -21296   -21037   -20830   -20692   -20644 
  -20687   -20780   -20873   -20965   -21082   -21216   -21324   -21375 
  -21369   -21320   -21217   -21061   -20907   -20804   -20745   -20688 
  -20580   -20391   -20110   -19754   -19353   -18935   -18528   -18152 
  -17775   -17358   -16895   -16426   -15993   -15618   -15331   -15182 
  -15172   -15268   -15453   -15704   -15982   -16290   -16640   -17018 
  -17412   -17805   -18154   -18423   -18613   -18739   -18813   -18877 
  -18967   -19109   -19323   -19608   -19930   -20244   -20538   -20834 
  -21150   -21486   -21833   -22168   -22477   -22769   -23037   -23256 
  -23409   -23518   -23620   -23737   -23858   -23959   -24032   -24102 
  -24217   -24437   -24800   -25288   -25830   -26347   -26782   -27118 
  -27375   -27573   -27715   -27788   -27799   -27766   -27703   -27638 
  -27599   -27564   -27507   -27432   -27360   -27288   -27198   -27079 
  -26941   -26789   -26596   -26346   -26086   -25863   -25695   -25586 
  -25540   -25555   -25621   -25722   -25855   -26013   -26169   -26283 
  -26311   -26241   -26118   -26018   -25979   -25967   -25921   -25805 
  -25628   -25409   -25142   -24830   -24499   -24173   -23858   -23566 
  -23309   -23101   -22962   -22886   -22846   -22839   -22874   -22917 
  -22933   -22939   -22998   -23168   -23488   -23943   -24449   -24910 
  -25316   -25705   -26079   -26424   -26704   -26870   -26919   -26883 
  -26824   -26782   -26744   -26708   -26663   -26586   -26484   -26381 
  -26279   -26148   -25969   -25745   -25482   -25192   -24885   -24560 
  -24224   -23904   -23646   -23485   -23407   -23377   -23402   -23467 
  -23526   -23595   -23734   -23965   -24264   -24597   -24931   -25223 
  -25421   -25502   -25496   -25452   -25397   -25321   -25211   -25057 
  -24867   -24660   -24441   -24197   -23899   -23518   -23052   -22520 
  -21953   -21371   -20812   -20328   -19943   -19638   -19386   -19178 
  -19036   -18972   -18981   -19043   -19128   -19232   -19383   -19597 
  -19836   -20019   -20106   -20127   -20102   -20051   -20015   -20015 
  -20031   -20038   -20021   -19969   -19880   -19758   -19618   -19499 
  -19429   -19395   -19377   -19361   -19346   -19367   -19434   -19533 
  -19653   -19793   -19931   -20035   -20113   -20217   -20362   -20525 
  -20700   -20887   -21068   -21231   -21363   -21471   -21591   -21751 
  -21972   -22258   -22580   -22906   -23217   -23480   -23658   -23741 
  -23737   -23641   -23449   -23197   -22931   -22663   -22418   -22215 
  -22034   -21875   -21775   -21749   -21798   -21915   -22102   -22365 
  -22669   -22968   -23265   -23548   -23769   -23931   -24048   -24117 
  -24138   -24133   -24127   -24129   -24163   -24227   -24274   -24285 
  -24278   -24270   -24270   -24282   -24321   -24395   -24474   -24489 
  -24408   -24270   -24131   -24038   -24001   -24001   -24017   -24038 
  -24047   -24043   -24046   -24085   -24182   -24351   -24557   -24764 
  -24972   -25207   -25493   -25843   -26252   -26688   -27106   -27477 
  -27789   -28082   -28394   -28694   -28900   -28968   -28907   -28759 
  -28566   -28364   -28151   -27881   -27544   -27151   -26719   -26285 
  -25899   -25578   -25317   -25089   -24857   -24629   -24441   -24302 
  -24189   -24093   -24025   -23992   -23997   -24036   -24067   -24065 
  -24050   -24028   -24001   -23962   -23881   -23762   -23639   -23515 
  -23376   -23228   -23063   -22854   -22623   -22424   -22275   -22148 
  -22011   -21843   -21636   -21396   -21130   -20877   -20669   -20502 
  -20380   -20310   -20294   -20363   -20537   -20806   -21146   -21527 
  -21938   -22353   -22729   -23063   -23353   -23589   -23777   -23936 
  -24088   -24246   -24393   -24520   -24641   -24767   -24904   -25064 
  -25269   -25562   -25960   -26438   -26925   -27365   -27738   -28059 
  -28355   -28641   -28891   -29079   -29185   -29170   -28993   -28674 
  -28260   -27781   -27263   -26725   -26187   -25675   -25205   -24771 
  -24364   -23984   -23637   -23352   -23161   -23080   -23080   -23120 
  -23172   -23218   -23249   -23286   -23355   -23469   -23630   -23819 
  -24031   -24306   -24655   -25033   -25393   -25724   -26022   -26266 
  -26416   -26447   -26376   -26229   -26025   -25760   -25428   -25058 
  -24669   -24246   -23762   -23220   -22619   -21933   -21162   -20366 
  -19585   -18825   -18107   -17463   -16895   -16391   -15957   -15604 
  -15331   -15113   -14925   -14752   -14597   -14482   -14411   -14378 
  -14396   -14486   -14670   -14944   -15299   -15735   -16262   -16870 
  -17525   -18193   -18851   -19475   -20044   -20564   -21057   -21525 
  -21921   -22204   -22381   -22481   -22528   -22531   -22504   -22473 
  -22459   -22455   -22445   -22423   -22400   -22401   -22438   -22478 
  -22477   -22428   -22362   -22300   -22254   -22242   -22257   -22287 
  -22341   -22431   -22554   -22712   -22912   -23141   -23367   -23545 
  -23652   -23706   -23722   -23714   -23699   -23672   -23614   -23521 
  -23395   -23260   -23179   -23188   -23274   -23417   -23620   -23881 
  -24187   -24533   -24888   -25211   -25469   -25633   -25706   -25720 
  -25694   -25632   -25523   -25373   -25216   -25064   -24903   -24736 
  -24563   -24381   -24209   -24085   -24030   -24028   -24062   -24127 
  -24228   -24378   -24598   -24889   -25227   -25581   -25921   -26223 
  -26478   -26686   -26852   -27012   -27175   -27330   -27480   -27612 
  -27723   -27796   -27789   -27679   -27479   -27203   -26862   -26453 
  -25959   -25375   -24713   -24015   -23345   -22727   -22180   -21728 
  -21366   -21099   -20953   -20925   -20984   -21100   -21262   -21466 
  -21730   -22061   -22439   -22827   -23182   -23479   -23724   -23940 
  -24154   -24368   -24576   -24754   -24872   -24929   -24933   -24892 
  -24830   -24746   -24605   -24397   -24160   -23928   -23716   -23552 
  -23434   -23342   -23302   -23342   -23437   -23537   -23629   -23689 
  -23695   -23633   -23496   -23295   -23075   -22908   -22848   -22925 
  -23137   -23456   -23838   -24236   -24601   -24880   -25046   -25104 
  -25057   -24912   -24684   -24389   -24067   -23764   -23488   -23253 
  -23068   -22952   -22905   -22909   -22959   -23048   -23134   -23172 
  -23139   -23028   -22860   -22670   -22484   -22330   -22231   -22195 
  -22214   -22258   -22315   -22383   -22443   -22461   -22426   -22373 
  -22337   -22330   -22360   -22431   -22557   -22740   -22967   -23213 
  -23430   -23588   -23683   -23712   -23703   -23693   -23708   -23743 
  -23788   -23832   -23877   -23919   -23951   -23966   -23967   -23959 
  -23930   -23884   -23832   -23755   -23630   -23468   -23301   -23141 
  -22979   -22793   -22555   -22248   -21859   -21379   -20814   -20190 
  -19545   -18913   -18334   -17832   -17415   -17100   -16903   -16815 
  -16807   -16850   -16930   -17045   -17199   -17408   -17660   -17923 
  -18191   -18482   -18800   -19138   -19499   -19863   -20233   -20628 
  -21065   -21559   -22086   -22605   -23106   -23576   -23994   -24354 
  -24687   -25027   -25373   -25772   -26275   -26840   -27459   -28129 
  -28802   -29481   -30168   -30831   -31446   -32009   -32536   -33015 
  -33407   -33701   -33907   -34042   -34121   -34160   -34204   -34273 
  -34342   -34391   -34402   -34348   -34209   -33979   -33667   -33304 
  -32925   -32524   -32092   -31626   -31122   -30595   -30053   -29496 
  -28917   -28286   -27560   -26716   -25751   -24691   -23592   -22491 
  -21428   -20468   -19658   -19029   -18593   -18327   -18200   -18191 
  -18272   -18419   -18605   -18798   -18976   -19126   -19230   -19292 
  -19330   -19356   -19379   -19406   -19435   -19472   -19522   -19580 
  -19611   -19599   -19579   -19595   -19647   -19722   -19808   -19905 
  -20036   -20233   -20507   -20850   -21255   -21709   -22196   -22702 
  -23182   -23603   -23957   -24214   -24352   -24394   -24352   -24237 
  -24086   -23892   -23625   -23257   -22773   -22188   -21528   -20806 
  -20074   -19415   -18878   -18465   -18166   -17982   -17894   -17878 
  -17898   -17910   -17891   -17851   -17784   -17694   -17590   -17470 
  -17321   -17162   -17020   -16916   -16865   -16870   -16933   -17066 
  -17278   -17540   -17833   -18137   -18427   -18709   -18991   -19267 
  -19522   -19749   -19942   -20078   -20162   -20212   -20254   -20351 
  -20567   -20926   -21431   -22071   -22801   -23577   -24367   -25123 
  -25805   -26397   -26881   -27241   -27486   -27618   -27648   -27610 
  -27529   -27438   -27372   -27330   -27313   -27311   -27326   -27371 
  -27448   -27552   -27672   -27769   -27808   -27781   -27714   -27621 
  -27471   -27222   -26858   -26360   -25724   -24987   -24198   -23402 
  -22636   -21955   -21398   -20996   -20761   -20687   -20750   -20922 
  -21147   -21378   -21587   -21749   -21852   -21880   -21817   -21683 
  -21523   -21346   -21174   -21058   -21014   -21043   -21150   -21296 
  -21463   -21656   -21856   -22064   -22295   -22565   -22881   -23240 
  -23643   -24094   -24587   -25103   -25609   -26096   -26576   -27055 
  -27513   -27909   -28227   -28440   -28512   -28445   -28270   -28011 
  -27712   -27423   -27149   -26900   -26701   -26554   -26450   -26374 
  -26322   -26304   -26338   -26442   -26646   -26944   -27302   -27684 
  -28058   -28394   -28661   -28827   -28880   -28821   -28663   -28440 
  -28196   -27949   -27688   -27391   -27024   -26585   -26095   -25560 
  -24987   -24387   -23762   -23117   -22472   -21834   -21226   -20669 
  -20182   -19788   -19492   -19264   -19074   -18920   -18821   -18812 
  -18906   -19097   -19373   -19728   -20159   -20657   -21201   -21770 
  -22349   -22925   -23464   -23938   -24332   -24632   -24821   -24919 
  -24937   -24862   -24723   -24557   -24378   -24213   -24088   -23997 
  -23942   -23908   -23881   -23850   -23784   -23660   -23465   -23207 
  -22914   -22607   -22302   -22000   -21691   -21389   -21128   -20916 
  -20740   -20563   -20356   -20132   -19908   -19683   -19488   -19348 
  -19248   -19191   -19187   -19211   -19244   -19296   -19384   -19492 
  -19593   -19691   -19782   -19893   -20047   -20227   -20409   -20567 
  -20653   -20642   -20538   -20360   -20140   -19916   -19722   -19572 
  -19491   -19494   -19558   -19660   -19773   -19899   -20052   -20243 
  -20470   -20753   -21115   -21558   -22057   -22590   -23126   -23637 
  -24102   -24510   -24860   -25164   -25446   -25725   -25991   -26237 
  -26480   -26717   -26936   -27141   -27342   -27553   -27776   -27992 
  -28162   -28248   -28236   -28121   -27920   -27653   -27333   -26974 
  -26607   -26258   -25956   -25705   -25494   -25312   -25145   -24980 
  -24837   -24729   -24657   -24628   -24636   -24684   -24760   -24842 
  -24921   -24991   -25053   -25091   -25097   -25076   -25027   -24956 
  -24862   -24756   -24653   -24565   -24506   -24490   -24513   -24563 
  -24634   -24719   -24802   -24868   -24895   -24884   -24854   -24821 
  -24800   -24799   -24817   -24858   -24912   -24954   -24983   -24989 
  -24969   -24931   -24906   -24903   -24906   -24904   -24892   -24869 
  -24831   -24763   -24655   -24518   -24375   -24250   -24151   -24081 
  -24023   -23946   -23835   -23691   -23508   -23303   -23091   -22883 
  -22696   -22534   -22393   -22261   -22121   -21972   -21826   -21706 
  -21639   -21670   -21838   -22145   -22546   -22983   -23406   -23774 
  -24062   -24255   -24336   -24304   -24166   -23939   -23661   -23364 
  -23079   -22831   -22623   -22446   -22283   -22131   -21987   -21840 
  -21705   -21606   -21556   -21554   -21598   -21694   -21840   -22037 
  -22284   -22569   -22886   -23225   -23544   -23807   -24023   -24210 
  -24375   -24522   -24673   -24829   -24981   -25141   -25290   -25404 
  -25470   -25469   -25385   -25216   -24970   -24648   -24270   -23876 
  -23502   -23156   -22831   -22520   -22239   -22009   -21840   -21744 
  -21702   -21686   -21676   -21659   -21631   -21594   -21532   -21438 
  -21328   -21216   -21099   -20981   -20883   -20811   -20781   -20802 
  -20879   -21015   -21201   -21423   -21655   -21882   -22103   -22306 
  -22480   -22626   -22735   -22794   -22806   -22786   -22735   -22644 
  -22518   -22364   -22189   -22005   -21824   -21670   -21544   -21435 
  -21330   -21199   -21031   -20837   -20628   -20412   -20190   -19978 
  -19796   -19666   -19603   -19602   -19657   -19759   -19893   -20042 
  -20197   -20370   -20568   -20790   -21030   -21293   -21583   -21891 
  -22203   -22513   -22821   -23136   -23465   -23789   -24090   -24348 
  -24543   -24672   -24750   -24783   -24781   -24744   -24687   -24640 
  -24606   -24588   -24603   -24646   -24726   -24848   -24991   -25165 
  -25397   -25686   -26028   -26419   -26852   -27336   -27870   -28440 
  -29025   -29597   -30125   -30576   -30920   -31128   -31193   -31113 
  -30893   -30555   -30136   -29627   -29046   -28431   -27788   -27159 
  -26580   -26046   -25578   -25165   -24784   -24426   -24071   -23722 
  -23380   -23040   -22702   -22370   -22027   -21679   -21359   -21089 
  -20869   -20715   -20632   -20579   -20545   -20529   -20521   -20518 
