Origin Time       2025/01/13 21:19:00
Lat.              31.8
Long.             131.6
Depth. (km)       30
Mag.              6.9
Station Code      KGSH06
Station Lat.      31.6988
Station Long.     130.4594
Station Height(m) -71.93
Record Time       2025/01/13 21:19:51
Sampling Freq(Hz) 100Hz
Duration Time(s)  205
Dir.              2
Scale Factor      2940(gal)/6170270
Max. Acc. (gal)   1.927
Last Correction   2025/01/13 21:19:36
Memo.             
[...]
   92773    93019    93300    93599    93882    94111    94285    94413 
   94477    94493    94510    94531    94529    94521    94523    94482 
   94355    94199    94079    93981    93854    93695    93547    93434 
   93356    93321    93332    93368    93398    93395    93347    93274 
   93224    93223    93234    93211    93145    93042    92927    92811 
   92673    92525    92403    92303    92190    92081    92008    91959 
   91925    91904    91840    91679    91451    91225    91065    91001 
   90989    90963    90906    90864    90890    90988    91140    91316 
   91483    91632    91747    91817    91885    91980    92079    92186 
   92314    92438    92531    92591    92624    92639    92659    92712 
   92804    92961    93211    93512    93787    93973    94015    93918 
   93733    93502    93260    93039    92831    92595    92329    92088 
   91938    91879    91851    91792    91687    91567    91431    91238 
   91010    90801    90611    90448    90366    90372    90393    90373 
   90348    90389    90510    90644    90705    90688    90670    90722 
   90860    91036    91184    91295    91384    91431    91419    91383 
   91379    91419    91477    91528    91562    91570    91550    91509 
   91449    91364    91248    91099    90941    90809    90728    90723 
   90797    90945    91172    91455    91750    92051    92376    92678 
   92865    92922    92934    92959    92969    92932    92888    92906 
   92988    93082    93148    93174    93152    93102    93064    93044 
   93009    92929    92784    92580    92347    92095    91816    91539 
   91332    91230    91208    91238    91341    91533    91770    91996 
   92208    92448    92708    92927    93061    93118    93131    93138 
   93168    93208    93208    93111    92938    92783    92695    92656 
   92661    92685    92691    92678    92657    92617    92556    92496 
   92467    92503    92610    92762    92923    93048    93105    93120 
   93144    93197    93254    93265    93231    93178    93078    92909 
   92693    92480    92312    92209    92153    92112    92099    92128 
   92146    92124    92098    92106    92171    92285    92397    92468 
   92531    92647    92829    93064    93330    93610    93908    94221 
   94516    94747    94904    94995    95002    94902    94697    94404 
   94038    93634    93256    92959    92739    92541    92311    92065 
   91869    91744    91668    91616    91561    91510    91485    91481 
   91492    91510    91534    91598    91756    92004    92288    92584 
   92873    93103    93224    93206    93066    92898    92785    92736 
   92737    92766    92819    92919    93063    93200    93289    93313 
   93273    93197    93088    92957    92840    92736    92628    92530 
   92465    92446    92450    92454    92470    92516    92578    92617 
   92585    92470    92308    92126    91932    91735    91558    91405 
   91252    91094    90970    90914    90937    91025    91135    91224 
   91272    91271    91242    91235    91277    91351    91424    91486 
   91582    91736    91917    92096    92274    92441    92555    92583 
   92549    92497    92430    92352    92281    92192    92038    91845 
   91677    91554    91470    91422    91393    91354    91301    91273 
   91302    91357    91403    91426    91376    91215    90990    90765 
   90571    90449    90399    90381    90390    90439    90520    90607 
   90657    90656    90634    90635    90688    90795    90966    91219 
   91500    91719    91856    91973    92127    92312    92503    92686 
   92840    92946    93002    93012    92983    92918    92789    92586 
   92380    92242    92165    92105    92044    92011    92036    92114 
   92224    92346    92442    92489    92513    92526    92516    92492 
   92463    92414    92324    92205    92105    92011    91859    91663 
   91485    91333    91178    91022    90880    90736    90588    90457 
   90346    90270    90247    90266    90322    90397    90473    90555 
   90664    90825    91022    91200    91345    91519    91774    92069 
   92328    92546    92765    92991    93198    93386    93562    93700 
   93784    93834    93881    93933    93982    94029    94077    94153 
   94273    94396    94476    94521    94546    94558    94575    94592 
   94578    94526    94456    94346    94150    93880    93601    93357 
   93134    92925    92763    92639    92523    92420    92330    92233 
   92106    91960    91840    91766    91745    91789    91869    91946 
   92012    92079    92142    92180    92179    92137    92060    91955 
   91807    91632    91470    91343    91258    91223    91235    91270 
   91322    91403    91487    91542    91576    91613    91653    91683 
   91690    91686    91701    91748    91792    91800    91808    91823 
   91797    91738    91717    91748    91782    91773    91710    91617 
   91549    91521    91477    91394    91314    91260    91228    91217 
   91228    91277    91390    91548    91704    91823    91919    92041 
   92176    92283    92381    92481    92585    92704    92790    92810 
   92791    92745    92684    92605    92488    92351    92236    92155 
   92103    92087    92093    92089    92085    92114    92193    92318 
   92470    92633    92797    92956    93116    93285    93472    93678 
   93888    94084    94259    94421    94553    94618    94636    94624 
   94555    94433    94315    94247    94221    94205    94170    94082 
   93935    93750    93552    93365    93211    93100    93007    92892 
   92738    92582    92464    92371    92277    92209    92178    92160 
   92143    92106    92052    92016    92015    92053    92104    92118 
   92097    92066    92029    91979    91911    91849    91835    91895 
   91996    92085    92154    92203    92213    92190    92173    92181 
   92220    92274    92320    92378    92479    92591    92675    92736 
   92780    92799    92786    92748    92707    92656    92597    92550 
   92490    92392    92275    92175    92123    92107    92083    92036 
   91993    91973    91958    91938    91926    91926    91913    91886 
   91880    91916    91970    91995    91976    91928    91857    91762 
   91627    91434    91207    90993    90798    90638    90531    90459 
   90426    90441    90486    90561    90669    90780    90855    90898 
   90926    90921    90858    90748    90628    90527    90443    90381 
   90337    90294    90247    90204    90193    90237    90316    90397 
   90484    90583    90672    90738    90802    90864    90900    90899 
   90875    90859    90857    90857    90872    90901    90909    90906 
   90942    91005    91039    91047    91052    91067    91129    91275 
   91482    91703    91927    92164    92423    92692    92923    93074 
   93164    93214    93222    93211    93224    93268    93311    93347 
   93392    93461    93561    93681    93821    93981    94117    94197 
   94226    94199    94108    93977    93837    93719    93634    93566 
   93495    93408    93295    93162    93033    92919    92828    92774 
   92753    92768    92835    92952    93081    93199    93308    93416 
   93533    93666    93777    93823    93816    93773    93690    93565 
   93407    93249    93125    93027    92936    92850    92760    92646 
   92501    92327    92140    91966    91820    91691    91587    91534 
   91548    91623    91719    91792    91847    91906    91971    92040 
   92121    92195    92245    92301    92370    92433    92482    92528 
   92592    92681    92780    92869    92944    93007    93065    93104 
   93083    92990    92858    92725    92617    92548    92492    92410 
   92305    92215    92146    92057    91934    91816    91742    91710 
   91687    91643    91602    91602    91650    91737    91862    92011 
   92177    92368    92566    92744    92893    93017    93133    93250 
   93339    93370    93342    93289    93255    93268    93332    93435 
   93555    93649    93682    93658    93590    93483    93346    93175 
   92966    92736    92498    92241    91958    91671    91420    91211 
   91028    90851    90667    90489    90351    90269    90234    90219 
   90193    90162    90146    90145    90153    90167    90183    90209 
   90263    90357    90480    90626    90819    91081    91375    91641 
   91845    91998    92117    92188    92192    92145    92092    92081 
   92121    92169    92172    92154    92153    92146    92101    92010 
   91889    91786    91741    91725    91696    91671    91677    91722 
   91810    91929    92045    92148    92243    92315    92322    92261 
   92191    92163    92164    92165    92172    92207    92260    92320 
   92401    92503    92616    92732    92846    92955    93060    93166 
   93278    93390    93490    93579    93666    93758    93846    93909 
   93940    93970    94036    94132    94210    94242    94231    94194 
   94153    94105    94028    93941    93884    93853    93820    93769 
   93678    93539    93412    93352    93330    93303    93278    93270 
   93263    93256    93267    93289    93320    93389    93506    93649 
   93804    93984    94194    94396    94543    94634    94707    94790 
   94862    94887    94868    94823    94741    94614    94457    94293 
   94126    93965    93851    93799    93761    93692    93599    93506 
   93409    93281    93114    92933    92766    92627    92521    92457 
   92435    92407    92337    92243    92145    92034    91898    91737 
   91543    91325    91105    90896    90705    90538    90381    90216 
   90052    89912    89808    89731    89669    89629    89618    89634 
   89661    89695    89744    89811    89892    89994    90104    90208 
   90302    90384    90457    90538    90637    90766    90930    91112 
   91295    91483    91673    91844    91984    92109    92252    92434 
   92641    92833    92964    93047    93125    93192    93215    93186 
   93114    93011    92886    92745    92581    92399    92228    92104 
   92029    91974    91916    91849    91780    91720    91669    91611 
   91550    91498    91437    91353    91270    91202    91158    91153 
   91187    91243    91321    91425    91534    91608    91635    91615 
   91551    91460    91372    91300    91243    91210    91207    91219 
   91227    91221    91208    91201    91201    91202    91196    91179 
   91160    91142    91139    91195    91287    91364    91400    91384 
   91337    91280    91203    91119    91047    90965    90869    90789 
   90733    90697    90696    90748    90862    91026    91202    91363 
   91513    91662    91824    92003    92179    92341    92500    92648 
   92775    92884    92974    93039    93106    93189    93268    93339 
   93414    93494    93570    93637    93677    93679    93653    93611 
   93565    93513    93450    93385    93325    93270    93212    93137 
   93047    92961    92886    92817    92762    92726    92692    92652 
   92631    92626    92594    92521    92423    92314    92199    92078 
   91977    91923    91907    91902    91905    91934    92018    92151 
   92303    92435    92535    92622    92705    92768    92810    92863 
   92950    93063    93188    93315    93444    93570    93680    93759 
   93804    93830    93850    93863    93896    93983    94113    94261 
   94421    94602    94792    94949    95056    95122    95137    95097 
   95017    94910    94802    94729    94687    94658    94635    94618 
   94597    94576    94577    94594    94588    94541    94453    94333 
   94202    94058    93874    93637    93372    93128    92925    92752 
   92611    92517    92460    92435    92450    92497    92565    92647 
   92731    92806    92859    92866    92838    92790    92719    92639 
   92570    92516    92480    92465    92449    92412    92369    92340 
   92319    92296    92266    92251    92267    92291    92294    92270 
   92222    92145    92052    91975    91919    91856    91771    91681 
   91591    91497    91401    91301    91182    91025    90811    90544 
   90251    89962    89683    89402    89116    88839    88592    88404 
   88302    88291    88358    88493    88683    88911    89158    89418 
   89699    89988    90277    90571    90862    91115    91305    91432 
   91509    91547    91550    91513    91435    91330    91222    91133 
   91056    90991    90961    90974    91019    91094    91193    91304 
   91425    91555    91673    91752    91794    91823    91848    91840 
   91777    91679    91582    91475    91324    91130    90935    90764 
   90624    90512    90432    90400    90435    90541    90695    90873 
   91070    91274    91475    91677    91873    92062    92258    92457 
   92644    92815    92970    93112    93233    93346    93481    93639 
   93811    94006    94225    94445    94656    94859    95042    95180 
   95265    95298    95283    95238    95191    95146    95094    95029 
   94959    94902    94869    94861    94882    94922    94948    94936 
   94886    94822    94772    94735    94689    94640    94589    94522 
   94453    94396    94336    94265    94177    94073    93959    93834 
   93710    93597    93491    93384    93268    93151    93066    93024 
   92993    92945    92887    92820    92738    92652    92583    92520 
   92433    92309    92169    92034    91890    91705    91465    91203 
   90964    90765    90589    90420    90273    90182    90167    90216 
   90314    90444    90584    90707    90805    90874    90905    90897 
   90862    90802    90697    90545    90366    90171    89963    89746 
   89514    89244    88941    88644    88401    88258    88218    88242 
   88300    88392    88520    88680    88858    89032    89204    89378 
   89537    89658    89747    89825    89916    90041    90217    90445 
   90692    90923    91137    91362    91609    91853    92073    92268 
   92448    92606    92730    92844    92976    93108    93224    93340 
   93462    93588    93723    93851    93955    94032    94091    94134 
   94156    94156    94146    94138    94139    94168    94220    94275 
   94335    94390    94414    94388    94291    94116    93897    93664 
   93453    93305    93235    93221    93217    93196    93198    93193 
   93106    92978    92836    92679    92564    92485    92425    92393 
   92372    92378    92429    92526    92669    92828    92969    93077 
   93154    93202    93226    93226    93200    93167    93150    93124 
   93062    92975    92880    92784    92702    92630    92550    92476 
   92415    92338    92267    92206    92110    92001    91922    91885 
   91883    91864    91815    91766    91731    91705    91677    91660 
   91673    91704    91723    91712    91682    91646    91609    91579 
   91558    91542    91523    91481    91394    91286    91192    91103 
   91004    90923    90867    90825    90797    90768    90755    90792 
   90864    90961    91087    91233    91395    91562    91719    91869 
   92022    92172    92321    92483    92667    92877    93111    93377 
   93679    93991    94290    94580    94853    95082    95249    95341 
   95353    95283    95125    94887    94592    94271    93944    93635 
   93380    93202    93087    93008    92951    92903    92838    92710 
   92497    92225    91948    91693    91450    91213    90985    90773 
   90580    90409    90263    90165    90127    90116    90100    90097 
   90141    90231    90334    90434    90534    90625    90690    90725 
   90744    90778    90844    90931    91016    91088    91157    91231 
   91310    91383    91433    91471    91530    91612    91701    91802 
   91916    92013    92076    92104    92101    92085    92068    92047 
   92017    91962    91875    91779    91682    91596    91551    91557 
   91605    91702    91852    92032    92210    92365    92486    92589 
   92701    92838    92990    93122    93216    93288    93350    93395 
   93422    93444    93471    93518    93586    93622    93614    93619 
   93637    93645    93675    93710    93736    93780    93823    93870 
   93928    93970    94005    94049    94097    94139    94170    94179 
   94157    94101    93996    93864    93773    93731    93714    93712 
   93708    93711    93742    93790    93837    93893    93944    93945 
   93922    93915    93898    93876    93873    93890    93936    93984 
   94018    94043    94040    94003    93952    93906    93860    93804 
   93744    93655    93520    93365    93195    92994    92785    92606 
   92456    92329    92226    92134    92043    91942    91842    91765 
   91664    91515    91381    91227    91014    90831    90669    90530 
   90483    90485    90527    90614    90707    90813    90925    91020 
   91087    91122    91148    91175    91187    91170    91119    91022 
   90871    90675    90462    90270    90116    89999    89907    89837 
   89832    89912    90021    90152    90306    90429    90536    90644 
   90722    90812    90946    91127    91355    91607    91873    92145 
   92409    92655    92858    92996    93054    93039    92978    92880 
   92743    92584    92420    92253    92095    91969    91877    91824 
   91788    91725    91659    91627    91618    91624    91674    91784 
   91908    92056    92261    92454    92638    92827    92971    93096 
   93196    93250    93272    93246    93172    93082    92976    92849 
   92712    92555    92360    92136    91901    91665    91429    91198 
   90992    90843    90753    90709    90692    90684    90679    90686 
   90734    90814    90892    90974    91019    91011    90977    90904 
   90794    90659    90502    90353    90233    90145    90102    90106 
   90152    90261    90431    90626    90835    91061    91307    91571 
   91826    92070    92312    92541    92729    92873    93006    93093 
   93137    93178    93163    93125    93100    93041    92993    92969 
   92948    92931    92899    92852    92792    92707    92579    92404 
   92191    91942    91687    91444    91200    90966    90761    90596 
   90489    90431    90389    90363    90374    90397    90403    90425 
   90448    90438    90442    90435    90392    90348    90294    90261 
   90274    90310    90375    90469    90597    90762    90953    91153 
   91337    91511    91690    91859    92006    92132    92227    92287 
   92290    92250    92240    92209    92121    92097    92137    92198 
   92314    92452    92606    92784    92955    93095    93212    93308 
   93380    93437    93474    93484    93455    93370    93243    93091 
   92920    92737    92557    92398    92261    92158    92104    92097 
   92150    92243    92311    92383    92495    92615    92776    92984 
   93194    93415    93639    93845    94029    94169    94250    94288 
   94295    94274    94246    94210    94152    94060    93937    93812 
   93716    93659    93616    93562    93507    93454    93398    93353 
   93306    93241    93191    93152    93099    93041    92983    92949 
   92955    92972    92995    93013    93004    92980    92950    92920 
   92899    92880    92869    92889    92935    92988    93043    93096 
   93156    93242    93358    93493    93633    93772    93908    94036 
   94155    94246    94300    94349    94406    94440    94454    94446 
   94392    94299    94177    94034    93867    93663    93438    93212 
   92991    92783    92597    92424    92264    92120    91979    91835 
   91713    91635    91581    91542    91533    91543    91560    91587 
