Origin Time       2025/01/13 21:19:00
Lat.              31.8
Long.             131.6
Depth. (km)       30
Mag.              6.9
Station Code      KGSH09
Station Lat.      31.3741
Station Long.     130.4333
Station Height(m) 119.391
Record Time       2025/01/13 21:19:52
Sampling Freq(Hz) 100Hz
Duration Time(s)  143
Dir.              5
Scale Factor      7845(gal)/8223790
Max. Acc. (gal)   10.335
Last Correction   2025/01/13 21:19:52
Memo.             
[...]
  -11650    -9783    -8005    -6458    -5397    -5131    -5705    -6631 
   -7352    -7666    -7549    -7111    -6716    -6758    -7333    -8208 
   -9143   -10071   -10944   -11562   -11655   -11202   -10507    -9968 
   -9856   -10201   -10813   -11519   -12279   -12976   -13397   -13528 
  -13486   -13266   -12919   -12789   -13101   -13432   -13151   -12240 
  -11186   -10323    -9613    -8891    -8255    -7993    -7987    -7697 
   -6797    -5350    -3666    -2332    -1894    -2351    -3366    -4723 
   -6259    -7604    -8275    -8110    -7338    -6338    -5620    -5591 
   -6345    -7720    -9332   -10986   -12785   -14494   -15592   -15961 
  -15812   -15348   -14771   -14350   -14385   -15049   -16167   -17273 
  -17830   -17433   -16028   -14030   -11979   -10133    -8613    -7570 
   -7014    -6831    -7017    -7681    -8746    -9744   -10133    -9774 
   -8949    -8217    -8110    -8675    -9579   -10470   -11057   -11263 
  -11210   -11068   -10859   -10422    -9725    -8950    -8388    -8379 
   -8912    -9482    -9560    -9035    -8209    -7522    -7276    -7561 
   -8303    -9283   -10238   -10979   -11340   -11078   -10173    -9192 
   -8865    -9441   -10611   -11842   -12727   -13035   -12691   -11827 
  -10659    -9494    -8804    -8865    -9606   -10800   -12125   -13200 
  -13599   -13047   -11650    -9703    -7415    -5231    -4056    -4567 
   -6540    -9096   -11271   -12384   -12186   -11001    -9578    -8569 
   -8241    -8580    -9483   -10836   -12325   -13348   -13363   -12178 
   -9998    -7439    -5301    -4162    -4164    -5316    -7646   -10725 
  -13508   -14995   -14925   -13792   -12282   -10712    -9148    -7754 
   -6733    -6296    -6593    -7388    -8251    -9046    -9764   -10311 
  -10712   -11091   -11392   -11439   -11163   -10666   -10207    -9944 
   -9734    -9409    -9028    -8870    -9119    -9634   -10222   -10746 
  -10936   -10463    -9327    -7885    -6432    -5258    -4922    -5755 
   -7376    -9023   -10112   -10561   -10665   -10571   -10152    -9416 
   -8715    -8433    -8837    -9917   -11146   -11874   -11898   -11377 
  -10485    -9374    -8251    -7341    -6895    -7074    -7770    -8696 
   -9539   -10080   -10311   -10376   -10393   -10469   -10756   -11360 
  -12244   -13162   -13689   -13547   -12853   -11967   -11137   -10357 
   -9552    -8822    -8356    -8179    -8145    -8118    -8031    -7896 
   -7798    -7798    -7801    -7754    -7840    -8221    -8696    -8955 
   -8939    -8802    -8630    -8368    -8052    -7866    -7986    -8484 
   -9350   -10513   -11723   -12614   -13063   -13246   -13312   -13211 
  -12883   -12487   -12287   -12411   -12749   -13104   -13464   -13987 
  -14678   -15326   -15681   -15492   -14582   -13066   -11345    -9906 
   -8965    -8295    -7605    -6929    -6574    -6822    -7585    -8403 
   -8803    -8725    -8532    -8424    -8256    -8051    -8060    -8475 
   -9302   -10207   -10602   -10141    -8957    -7539    -6540    -6338 
   -6743    -7474    -8613   -10257   -12121   -13710   -14638   -14762 
  -14214   -13219   -11881   -10428    -9459    -9516   -10463   -11601 
  -12275   -12194   -11392   -10165    -8873    -7742    -6882    -6428 
   -6578    -7364    -8488    -9518   -10058    -9821    -8810    -7412 
   -6110    -5244    -5044    -5555    -6571    -7767    -8833    -9467 
   -9540    -9294    -9271    -9933   -11325   -13073   -14685   -15763 
  -16032   -15373   -13892   -11824    -9485    -7331    -5890    -5435 
   -5852    -6810    -7994    -9123    -9821    -9688    -8777    -7762 
   -7352    -7716    -8630    -9876   -11326   -12757   -13792   -14075 
  -13497   -12264   -10759    -9348    -8394    -8104    -8303    -8761 
   -9552   -10710   -11817   -12297   -11959   -11125   -10323    -9811 
   -9532    -9459    -9618    -9877   -10093   -10203   -10079    -9661 
   -9244    -9221    -9632   -10289   -11082   -11928   -12615   -12795 
  -12251   -11101    -9632    -8075    -6578    -5337    -4575    -4351 
   -4591    -5166    -5849    -6423    -6917    -7550    -8371    -9147 
   -9591    -9678    -9651    -9652    -9528    -9212    -8977    -9104 
   -9609   -10350   -11137   -11863   -12557   -13215   -13679   -13776 
  -13470   -12880   -12274   -11966   -12043   -12282   -12614   -13270 
  -14291   -15318   -16000   -16325   -16455   -16402   -16023   -15199 
  -13956   -12415   -10831    -9466    -8318    -7296    -6577    -6361 
   -6542    -6836    -7080    -7240    -7400    -7657    -7793    -7492 
   -6856    -6312    -6142    -6415    -6998    -7512    -7750    -7998 
   -8596    -9485   -10401   -11145   -11649   -12020   -12372   -12595 
  -12550   -12353   -12167   -12010   -12000   -12276   -12690   -12946 
  -12908   -12606   -12128   -11493   -10625    -9555    -8514    -7686 
   -7067    -6647    -6478    -6582    -7051    -7994    -9167   -10031 
  -10288   -10077    -9680    -9205    -8530    -7543    -6446    -5675 
   -5547    -6039    -6723    -7036    -6802    -6346    -6026    -5813 
   -5613    -5659    -6322    -7712    -9544   -11335   -12738   -13690 
  -14359   -14947   -15475   -15813   -15930   -15982   -16098   -16060 
  -15415   -14089   -12584   -11317   -10196    -9124    -8402    -8248 
   -8461    -8783    -9148    -9447    -9474    -9274    -9082    -8892 
   -8579    -8461    -9111   -10478   -11824   -12602   -12852   -12695 
  -12044   -10910    -9549    -8251    -7277    -6901    -7176    -7840 
   -8617    -9396   -10044   -10262    -9792    -8765    -7754    -7258 
   -7176    -7150    -7168    -7422    -8024    -8941    -9832   -10191 
   -9844    -9167    -8768    -8962    -9516    -9988   -10318   -10675 
  -10924   -10747   -10216    -9697    -9316    -9042    -8992    -9189 
   -9443    -9644    -9826   -10011   -10142   -10068    -9759    -9418 
   -9213    -9097    -9046    -9165    -9462    -9765   -10004   -10322 
  -10735   -11011   -11065   -11146   -11526   -12164   -12738   -12939 
  -12758   -12445   -12177   -11925   -11620   -11229   -10790   -10477 
  -10417   -10409   -10212   -10072   -10308   -10777   -11103   -10960 
  -10187    -8973    -7719    -6723    -6130    -5981    -6299    -7155 
   -8506   -10039   -11403   -12402   -12803   -12372   -11257    -9894 
   -8607    -7533    -6799    -6516    -6663    -7200    -8097    -9167 
  -10057   -10517   -10605   -10604   -10763   -11129   -11669   -12359 
  -12997   -13180   -12696   -11793   -10858   -10137    -9769    -9765 
  -10031   -10500   -11068   -11468   -11437   -10929   -10081    -9147 
   -8411    -7997    -7846    -7929    -8297    -8899    -9499    -9780 
   -9548    -8808    -7693    -6538    -5902    -6183    -7402    -9302 
  -11403   -13124   -14072   -14125   -13389   -12181   -10831    -9537 
   -8576    -8318    -8814    -9752   -10831   -11799   -12364   -12464 
  -12409   -12479   -12514   -12155   -11300   -10187    -9157    -8397 
   -7898    -7595    -7415    -7400    -7847    -8857    -9887   -10343 
  -10293   -10057    -9579    -8665    -7476    -6490    -6072    -6297 
   -7092    -8241    -9352   -10170   -10817   -11395   -11631   -11299 
  -10651   -10141   -10075   -10632   -11824   -13379   -14899   -16056 
  -16521   -15951   -14243   -11692    -8895    -6443    -4671    -3646 
   -3373    -3890    -5123    -6760    -8421    -9834   -10790   -11097 
  -10810   -10312    -9909    -9599    -9378    -9375    -9670   -10130 
  -10485   -10601   -10609   -10577   -10413   -10129    -9855    -9684 
   -9601    -9498    -9248    -8811    -8270    -7777    -7462    -7291 
   -7096    -6859    -6706    -6628    -6525    -6474    -6710    -7406 
   -8542    -9848   -10982   -11839   -12544   -13251   -13956   -14555 
  -15012   -15402   -15758   -15948   -15784   -15147   -14089   -12835 
  -11468    -9872    -8185    -6809    -5994    -5679    -5652    -5773 
   -6087    -6696    -7607    -8679    -9589   -10008    -9915    -9489 
   -8808    -7973    -7315    -7128    -7389    -7917    -8538    -9126 
   -9695   -10347   -11028   -11543   -11765   -11778   -11877   -12247 
  -12680   -12853   -12739   -12413   -11817   -10966   -10066    -9332 
   -8819    -8505    -8376    -8414    -8661    -9130    -9574    -9714 
   -9444    -8765    -7935    -7450    -7512    -7886    -8376    -8985 
   -9672   -10347   -10971   -11511   -11990   -12521   -13084   -13396 
  -13223   -12726   -12280   -11950   -11485   -10767    -9914    -9104 
   -8387    -7716    -7213    -7122    -7466    -8024    -8638    -9270 
   -9848   -10264   -10500   -10561   -10396   -10131   -10072   -10246 
  -10326   -10141    -9923    -9991   -10411   -10980   -11400   -11519 
  -11394   -11156   -10856   -10423    -9811    -9159    -8764    -8804 
   -9157    -9564    -9941   -10266   -10399   -10266   -10058   -10025 
  -10255   -10696   -11210   -11610   -11680   -11299   -10494    -9437 
   -8365    -7539    -7214    -7487    -8190    -9067   -10010   -10995 
  -11863   -12286   -11997   -11098   -10084    -9406    -9127    -9127 
   -9414   -10060   -10910   -11547   -11581   -10960    -9977    -9100 
   -8635    -8550    -8714    -9088    -9670   -10405   -11101   -11489 
  -11489   -11296   -11159   -11071   -10800   -10245    -9591    -9061 
   -8630    -8059    -7253    -6439    -5803    -5309    -5046    -5285 
   -6122    -7373    -8816   -10309   -11684   -12645   -12923   -12525 
  -11731   -10783    -9815    -9093    -8945    -9383   -10045   -10554 
  -10754   -10640   -10289    -9787    -9239    -8843    -8768    -8958 
   -9228    -9508    -9919   -10588   -11395   -12040   -12317   -12181 
  -11708   -11083   -10442    -9815    -9243    -8791    -8476    -8356 
   -8567    -9111    -9782   -10359   -10737   -10912   -10925   -10804 
  -10561   -10308   -10246   -10400   -10596   -10737   -10802   -10719 
  -10377    -9745    -9003    -8405    -8112    -8237    -8796    -9671 
  -10686   -11535   -11932   -11919   -11676   -11226   -10588    -9883 
   -9247    -8803    -8645    -8733    -8923    -9093    -9092    -8762 
   -8178    -7674    -7557    -7827    -8213    -8441    -8499    -8613 
   -8908    -9234    -9371    -9285    -9128    -9188    -9726   -10741 
  -11908   -12891   -13616   -14168   -14593   -14839   -14844   -14635 
  -14322   -13999   -13647   -13117   -12378   -11700   -11441   -11685 
  -12235   -12784   -13015   -12703   -11867   -10723    -9429    -8043 
   -6739    -5833    -5568    -5981    -6809    -7520    -7657    -7213 
   -6525    -5919    -5474    -5092    -4769    -4734    -5192    -6061 
   -6966    -7445    -7283    -6613    -5764    -5034    -4630    -4761 
   -5644    -7345    -9582   -11738   -13216   -13826   -13815   -13585 
  -13396   -13300   -13273   -13340   -13602   -14053   -14405   -14288 
  -13559   -12317   -10821    -9374    -8182    -7416    -7227    -7564 
   -8152    -8698    -9043    -9066    -8700    -8108    -7545    -7200 
   -7240    -7761    -8646    -9628   -10524   -11367   -12182   -12839 
  -13261   -13522   -13703   -13821   -13886   -13888   -13795   -13598 
  -13273   -12738   -11956   -11024   -10099    -9283    -8627    -8139 
   -7866    -7932    -8344    -8895    -9397    -9729    -9749    -9498 
   -9193    -8854    -8436    -8236    -8456    -8949    -9787   -10717 
  -10922   -10527   -10081    -9340    -8441    -7692    -6932    -6542 
   -6748    -7236    -7827    -8214    -8486    -8787    -8754    -8557 
   -8407    -8116    -7875    -7919    -8303    -8985    -9894   -10839 
  -11362   -11564   -11658   -11368   -10839   -10239    -9555    -9192 
   -9279    -9693   -10322   -10746   -10806   -10768   -10710   -10625 
  -10619   -10675   -10778   -11048   -11402   -11610   -11545   -11053 
  -10243    -9574    -9130    -8772    -8707    -9011    -9559   -10397 
  -11306   -11913   -12136   -11888   -11178   -10284    -9294    -8395 
   -7931    -7765    -7650    -7614    -7654    -7935    -8577    -9375 
  -10179   -10939   -11601   -12175   -12565   -12514   -11893   -10862 
   -9653    -8445    -7456    -6855    -6706    -7033    -7730    -8591 
   -9418   -10021   -10382   -10679   -10898   -10909   -10700   -10343 
  -10050   -10046   -10331   -10735   -11060   -11210   -11215   -11072 
  -10824   -10685   -10828   -11188   -11460   -11295   -10569    -9424 
   -8172    -7191    -6704    -6693    -7048    -7723    -8610    -9359 
   -9705    -9722    -9516    -9067    -8379    -7477    -6457    -5513 
   -4885    -4699    -4800    -5057    -5659    -6744    -8145    -9586 
  -10860   -11982   -13111   -14261   -15291   -16027   -16389   -16441 
  -16360   -16321   -16279   -16089   -15732   -15219   -14555   -13726 
  -12690   -11472   -10099    -8608    -7242    -6322    -5950    -6083 
   -6633    -7460    -8365    -9113    -9535    -9568    -9134    -8301 
   -7454    -6947    -6812    -7084    -8041    -9707   -11604   -13309 
  -14688   -15628   -16136   -16312   -16116   -15523   -14688   -13868 
  -13305   -13047   -13003   -13018   -12904   -12611   -12148   -11538 
  -10813    -9842    -8650    -7596    -6902    -6615    -6758    -7207 
   -7835    -8498    -8926    -9019    -8966    -8824    -8432    -7793 
   -7119    -6548    -6087    -5725    -5422    -5101    -4880    -4978 
   -5412    -6114    -7053    -8055    -8937    -9724   -10378   -10724 
  -10778   -10647   -10378   -10233   -10469   -10976   -11566   -12197 
  -12807   -13250   -13343   -12980   -12272   -11546   -11078   -10926 
  -11045   -11179   -10955   -10272    -9201    -7728    -5799    -3538 
   -1362      236      947      556     -999    -3364    -5980    -8452 
  -10471   -11703   -11966   -11442   -10588    -9907    -9759   -10261 
  -11389   -13034   -14959   -16845   -18342   -19120   -19101   -18443 
  -17315   -15843   -14145   -12348   -10696    -9363    -8237    -7098 
   -5894    -4783    -3981    -3555    -3445    -3657    -4290    -5356 
   -6685    -7994    -9013    -9598    -9771    -9705    -9543    -9223 
   -8660    -8002    -7462    -7106    -6872    -6636    -6474    -6658 
   -7192    -7920    -8905   -10204   -11723   -13355   -14891   -16035 
  -16645   -16756   -16328   -15179   -13351   -11302    -9556    -8411 
   -7932    -8016    -8590    -9562   -10696   -11767   -12609   -13050 
  -13062   -12706   -12006   -11029    -9991    -9126    -8532    -8198 
   -7993    -7715    -7373    -7080    -6755    -6292    -5757    -5279 
   -4970    -4953    -5320    -6093    -7240    -8706   -10374   -12063 
  -13690   -15214   -16530   -17544   -18192   -18458   -18438   -18241 
  -17910   -17481   -16947   -16205   -15175   -13948   -12761   -11816 
  -11163   -10764   -10579   -10503   -10374   -10185   -10089   -10184 
  -10392   -10573   -10608   -10400    -9995    -9599    -9333    -9105 
   -8797    -8428    -8105    -7925    -7885    -7889    -7808    -7506 
   -6875    -5927    -4843    -3834    -3018    -2446    -2211    -2386 
   -2905    -3632    -4507    -5560    -6845    -8351    -9953   -11446 
  -12656   -13458   -13760   -13571   -12947   -11892   -10505    -9076 
   -7844    -6912    -6297    -5968    -5899    -6156    -6805    -7749 
   -8692    -9362    -9645    -9505    -8912    -7902    -6556    -4995 
   -3531    -2590    -2381    -2867    -3946    -5503    -7368    -9256 
  -10828   -11859   -12334   -12430   -12460   -12677   -13095   -13576 
  -13992   -14262   -14320   -13992   -13104   -11800   -10481    -9510 
   -9193    -9724   -10966   -12507   -13917   -14864   -15109   -14558 
  -13313   -11661   -10019    -8834    -8379    -8662    -9504   -10658 
  -11836   -12765   -13311   -13513   -13448   -13177   -12784   -12380 
  -12070   -11989   -12210   -12661   -13146   -13446   -13439   -13123 
  -12565   -11865   -11146   -10566   -10250   -10255   -10600   -11236 
  -12046   -12945   -13899   -14802   -15444   -15607   -15163   -14133 
  -12687   -11043    -9436    -8079    -7040    -6315    -5911    -5740 
   -5640    -5579    -5655    -5950    -6446    -7056    -7765    -8598 
   -9491   -10349   -11128   -11853   -12538   -13113   -13481   -13578 
  -13385   -12958   -12406   -11817   -11213   -10539    -9807    -9117 
   -8433    -7611    -6632    -5580    -4476    -3395    -2563    -2191 
   -2319    -2868    -3704    -4673    -5663    -6616    -7464    -8071 
   -8322    -8293    -8213    -8268    -8440    -8623    -8835    -9158 
   -9578    -9917    -9949    -9572    -8868    -8098    -7570    -7422 
   -7577    -7923    -8446    -9157    -9952   -10594   -10902   -10998 
  -11184   -11601   -12141   -12621   -12942   -13030   -12793   -12233 
  -11380   -10287    -9212    -8541    -8529    -9242   -10485   -11847 
  -12965   -13603   -13589   -12870   -11554    -9911    -8361    -7348 
   -7184    -7919    -9316   -11005   -12583   -13616   -13786   -13073 
  -11718   -10102    -8658    -7754    -7547    -7943    -8708    -9618 
  -10436   -10948   -10967   -10413    -9483    -8634    -8294    -8615 
   -9497   -10647   -11674   -12321   -12582   -12561   -12329   -11843 
  -11065   -10120    -9265    -8700    -8445    -8360    -8306    -8290 
   -8484    -8976    -9609   -10222   -10832   -11479   -12047   -12340 
  -12206   -11623   -10764    -9952    -9427    -9244    -9316    -9485 
   -9684   -10002   -10451   -10854   -11051   -11076   -11020   -10883 
  -10609   -10154    -9547    -8910    -8355    -7893    -7523    -7287 
   -7237    -7425    -7781    -8070    -8143    -8090    -8073    -8178 
   -8352    -8469    -8532    -8711    -9194   -10012   -10989   -11827 
  -12405   -12850   -13246   -13605   -13934   -14173   -14253   -14165 
  -13887   -13396   -12744   -11993   -11187   -10420    -9832    -9462 
   -9212    -8972    -8734    -8499    -8212    -7844    -7407    -6937 
   -6547    -6420    -6678    -7222    -7865    -8498    -9040    -9441 
   -9714    -9926   -10122   -10338   -10646   -11007   -11188   -10952 
  -10281    -9369    -8448    -7659    -7133    -7017    -7356    -8081 
   -9038   -10012   -10856   -11530   -12020   -12325   -12451   -12422 
  -12295   -12096   -11811   -11443   -10951   -10264    -9414    -8559 
   -7843    -7356    -7141    -7284    -7830    -8633    -9485   -10262 
  -10893   -11394   -11857   -12309   -12699   -12993   -13247   -13504 
  -13655   -13564   -13184   -12515   -11669   -10908   -10535   -10714 
  -11433   -12541   -13794   -14843   -15313   -14963   -13879   -12456 
  -11091    -9990    -9235    -8826    -8660    -8608    -8530    -8229 
   -7584    -6675    -5757    -5036    -4596    -4544    -4997    -5887 
   -6974    -7989    -8746    -9166    -9259    -9157    -9007    -8905 
   -8953    -9201    -9629   -10222   -10871   -11373   -11604   -11538 
  -11221   -10805   -10453   -10227   -10156   -10270   -10505   -10693 
  -10673   -10307    -9568    -8621    -7681    -6925    -6513    -6512 
   -6870    -7476    -8171    -8765    -9084    -9047    -8785    -8536 
   -8446    -8557    -8847    -9289    -9802   -10216   -10409   -10370 
  -10164    -9926    -9794    -9867   -10250   -10945   -11848   -12861 
  -13772   -14303   -14291   -13733   -12746   -11557   -10439    -9601 
   -9181    -9254    -9795   -10640   -11530   -12221   -12528   -12390 
  -11909   -11292   -10750   -10409   -10284   -10353   -10515   -10509 
  -10095    -9244    -8133    -7024    -6147    -5641    -5540    -5756 
   -6129    -6498    -6717    -6686    -6389    -5917    -5441    -5136 
