Origin Time       2025/01/13 21:19:00
Lat.              31.8
Long.             131.6
Depth. (km)       30
Mag.              6.9
Station Code      KGSH02
Station Lat.      31.9940
Station Long.     130.2077
Station Height(m) -161.238
Record Time       2025/01/13 21:19:53
Sampling Freq(Hz) 100Hz
Duration Time(s)  206
Dir.              1
Scale Factor      2940(gal)/6170270
Max. Acc. (gal)   1.392
Last Correction   2025/01/13 21:19:38
Memo.             
[...]
  -33150   -33174   -33178   -33181   -33196   -33227   -33264   -33285 
  -33285   -33283   -33290   -33311   -33357   -33414   -33454   -33467 
  -33455   -33420   -33370   -33306   -33237   -33194   -33207   -33263 
  -33329   -33388   -33449   -33524   -33604   -33666   -33694   -33701 
  -33701   -33691   -33675   -33654   -33614   -33562   -33516   -33475 
  -33446   -33436   -33441   -33450   -33468   -33503   -33550   -33610 
  -33690   -33779   -33866   -33951   -34014   -34040   -34036   -34016 
  -33996   -33982   -33954   -33894   -33812   -33724   -33639   -33572 
  -33520   -33469   -33420   -33378   -33336   -33301   -33287   -33288 
  -33304   -33332   -33339   -33309   -33259   -33198   -33126   -33062 
  -33028   -33022   -33041   -33088   -33146   -33177   -33173   -33145 
  -33097   -33030   -32955   -32882   -32817   -32763   -32727   -32700 
  -32659   -32601   -32550   -32521   -32522   -32568   -32669   -32802 
  -32947   -33090   -33207   -33298   -33392   -33485   -33547   -33580 
  -33588   -33570   -33533   -33483   -33418   -33357   -33323   -33314 
  -33316   -33320   -33313   -33284   -33246   -33208   -33166   -33133 
  -33125   -33142   -33197   -33284   -33379   -33476   -33576   -33670 
  -33757   -33832   -33887   -33928   -33957   -33953   -33900   -33811 
  -33720   -33643   -33587   -33553   -33524   -33492   -33471   -33465 
  -33456   -33436   -33420   -33423   -33446   -33483   -33510   -33510 
  -33486   -33463   -33454   -33442   -33409   -33369   -33344   -33348 
  -33386   -33456   -33528   -33575   -33603   -33630   -33650   -33646 
  -33611   -33539   -33435   -33325   -33233   -33182   -33190   -33250 
  -33346   -33478   -33618   -33714   -33758   -33787   -33820   -33866 
  -33914   -33944   -33968   -33997   -34019   -34035   -34052   -34056 
  -34045   -34024   -33990   -33937   -33868   -33785   -33694   -33594 
  -33483   -33359   -33233   -33128   -33066   -33043   -33046   -33053 
  -33051   -33060   -33115   -33200   -33270   -33305   -33314   -33296 
  -33261   -33211   -33133   -33033   -32938   -32858   -32801   -32784 
  -32798   -32824   -32867   -32932   -33010   -33089   -33155   -33194 
  -33223   -33279   -33368   -33465   -33544   -33604   -33656   -33702 
  -33747   -33796   -33830   -33830   -33802   -33766   -33717   -33655 
  -33596   -33537   -33461   -33364   -33252   -33132   -33015   -32907 
  -32806   -32725   -32678   -32657   -32658   -32689   -32737   -32790 
  -32839   -32887   -32952   -33053   -33184   -33327   -33480   -33646 
  -33810   -33943   -34031   -34061   -34014   -33899   -33767   -33671 
  -33620   -33595   -33582   -33582   -33604   -33648   -33706   -33766 
  -33817   -33839   -33810   -33726   -33610   -33500   -33386   -33238 
  -33087   -32988   -32944   -32944   -32985   -33043   -33112   -33218 
  -33352   -33490   -33649   -33823   -33948   -34007   -34022   -33995 
  -33946   -33895   -33847   -33814   -33805   -33800   -33785   -33776 
  -33793   -33835   -33894   -33952   -34001   -34035   -34033   -33982 
  -33904   -33824   -33740   -33652   -33581   -33542   -33526   -33527 
  -33537   -33526   -33484   -33422   -33345   -33252   -33141   -33001 
  -32853   -32732   -32652   -32617   -32632   -32689   -32790   -32940 
  -33099   -33227   -33338   -33450   -33539   -33587   -33587   -33524 
  -33406   -33281   -33189   -33136   -33125   -33137   -33138   -33125 
  -33125   -33151   -33195   -33245   -33304   -33371   -33423   -33438 
  -33421   -33391   -33347   -33297   -33274   -33301   -33366   -33435 
  -33476   -33491   -33514   -33555   -33578   -33541   -33446   -33316 
  -33183   -33079   -33003   -32951   -32947   -33000   -33075   -33136 
  -33167   -33160   -33133   -33139   -33182   -33222   -33255   -33297 
  -33342   -33400   -33485   -33579   -33650   -33688   -33695   -33690 
  -33692   -33694   -33680   -33654   -33621   -33572   -33499   -33414 
  -33334   -33271   -33242   -33251   -33264   -33247   -33225   -33246 
  -33324   -33430   -33516   -33544   -33514   -33466   -33418   -33358 
  -33285   -33196   -33098   -33041   -33060   -33136   -33214   -33246 
  -33236   -33225   -33239   -33259   -33234   -33167   -33113   -33095 
  -33081   -33052   -33004   -32938   -32865   -32793   -32729   -32695 
  -32710   -32768   -32858   -32960   -33045   -33104   -33147   -33173 
  -33201   -33265   -33357   -33438   -33497   -33543   -33581   -33593 
  -33556   -33466   -33341   -33211   -33106   -33040   -33007   -33007 
  -33046   -33110   -33182   -33274   -33393   -33539   -33702   -33850 
  -33954   -34020   -34063   -34081   -34072   -34042   -33972   -33839 
  -33679   -33570   -33553   -33625   -33745   -33858   -33941   -34013 
  -34083   -34131   -34133   -34088   -34009   -33910   -33803   -33706 
  -33630   -33576   -33544   -33528   -33516   -33498   -33476   -33455 
  -33431   -33386   -33291   -33125   -32898   -32658   -32466   -32340 
  -32276   -32273   -32335   -32490   -32753   -33076   -33410   -33744 
  -34042   -34260   -34399   -34464   -34437   -34348   -34274   -34246 
  -34241   -34242   -34245   -34262   -34309   -34375   -34436   -34442 
  -34341   -34186   -34085   -34042   -33988   -33896   -33773   -33644 
  -33533   -33439   -33391   -33428   -33521   -33627   -33719   -33754 
  -33704   -33609   -33522   -33434   -33302   -33122   -32932   -32772 
  -32678   -32676   -32734   -32794   -32853   -32940   -33050   -33150 
  -33219   -33243   -33215   -33143   -33054   -32960   -32876   -32829 
  -32804   -32781   -32764   -32716   -32593   -32444   -32330   -32252 
  -32217   -32235   -32273   -32306   -32369   -32480   -32596   -32674 
  -32722   -32765   -32823   -32910   -33004   -33055   -33066   -33122 
  -33251   -33379   -33464   -33508   -33518   -33544   -33614   -33676 
  -33696   -33715   -33762   -33841   -33941   -34001   -33967   -33869 
  -33744   -33604   -33512   -33511   -33576   -33669   -33756   -33825 
  -33906   -34009   -34105   -34183   -34239   -34260   -34264   -34287 
  -34325   -34350   -34332   -34238   -34088   -33965   -33910   -33913 
  -33964   -34065   -34213   -34395   -34564   -34683   -34755   -34787 
  -34767   -34708   -34633   -34536   -34429   -34327   -34217   -34094 
  -33956   -33785   -33575   -33362   -33192   -33085   -33025   -32993 
  -33010   -33085   -33191   -33300   -33392   -33445   -33470   -33480 
  -33460   -33434   -33433   -33440   -33448   -33443   -33390   -33308 
  -33240   -33184   -33104   -32964   -32764   -32523   -32283   -32113 
  -32034   -32024   -32072   -32180   -32374   -32660   -32996   -33343 
  -33659   -33909   -34089   -34204   -34270   -34302   -34286   -34218 
  -34130   -34049   -33990   -33977   -34017   -34100   -34209   -34311 
  -34381   -34428   -34474   -34539   -34608   -34646   -34638   -34594 
  -34529   -34449   -34347   -34234   -34112   -33984   -33875   -33808 
  -33789   -33823   -33903   -34007   -34104   -34196   -34305   -34405 
  -34459   -34465   -34414   -34295   -34128   -33932   -33718   -33507 
  -33321   -33176   -33070   -32990   -32931   -32888   -32846   -32791 
  -32728   -32661   -32577   -32481   -32399   -32331   -32268   -32212 
  -32159   -32096   -32020   -31937   -31852   -31764   -31668   -31564 
  -31448   -31328   -31219   -31134   -31082   -31064   -31067   -31076 
  -31096   -31151   -31244   -31366   -31509   -31641   -31727   -31751 
  -31724   -31668   -31591   -31504   -31455   -31465   -31513   -31607 
  -31759   -31924   -32068   -32214   -32351   -32431   -32454   -32467 
  -32491   -32525   -32573   -32640   -32717   -32814   -32945   -33094 
  -33251   -33430   -33632   -33836   -34014   -34147   -34246   -34326 
  -34388   -34421   -34428   -34391   -34281   -34110   -33916   -33714 
  -33528   -33387   -33300   -33262   -33258   -33286   -33364   -33473 
  -33565   -33635   -33696   -33738   -33778   -33836   -33902   -33967 
  -34031   -34079   -34100   -34109   -34119   -34115   -34099   -34081 
  -34040   -33947   -33813   -33680   -33577   -33492   -33420   -33377 
  -33374   -33406   -33450   -33488   -33515   -33549   -33606   -33682 
  -33767   -33858   -33950   -34018   -34041   -34037   -34035   -34034 
  -34023   -34005   -33985   -33968   -33973   -34005   -34051   -34126 
  -34231   -34335   -34439   -34569   -34717   -34871   -35024   -35154 
  -35231   -35243   -35198   -35116   -35013   -34901   -34762   -34587 
  -34389   -34176   -33960   -33772   -33632   -33547   -33521   -33537 
  -33568   -33591   -33595   -33562   -33484   -33373   -33249   -33117 
  -32991   -32883   -32801   -32758   -32761   -32805   -32883   -32982 
  -33082   -33156   -33204   -33238   -33252   -33242   -33220   -33192 
  -33148   -33087   -33008   -32907   -32782   -32632   -32470   -32317 
  -32192   -32123   -32138   -32219   -32327   -32461   -32621   -32766 
  -32861   -32921   -32973   -33022   -33063   -33078   -33079   -33100 
  -33142   -33176   -33189   -33183   -33166   -33160   -33179   -33209 
  -33231   -33239   -33230   -33204   -33174   -33135   -33072   -33004 
  -32972   -32984   -33029   -33107   -33231   -33395   -33575   -33753 
  -33908   -34007   -34050   -34057   -34022   -33968   -33933   -33912 
  -33896   -33915   -33983   -34084   -34208   -34333   -34439   -34527 
  -34582   -34575   -34511   -34412   -34288   -34157   -34026   -33885 
  -33749   -33634   -33518   -33397   -33297   -33211   -33126   -33058 
  -33017   -32988   -32972   -32982   -33002   -33019   -33046   -33092 
  -33143   -33192   -33230   -33247   -33253   -33265   -33295   -33350 
  -33436   -33547   -33660   -33739   -33770   -33757   -33701   -33617 
  -33525   -33432   -33358   -33323   -33316   -33315   -33309   -33297 
  -33286   -33288   -33302   -33324   -33369   -33442   -33516   -33590 
  -33681   -33786   -33915   -34087   -34285   -34480   -34658   -34804 
  -34921   -35024   -35111   -35167   -35191   -35196   -35181   -35146 
  -35110   -35099   -35141   -35241   -35354   -35431   -35459   -35422 
  -35313   -35137   -34898   -34601   -34270   -33935   -33614   -33319 
  -33065   -32849   -32659   -32504   -32403   -32356   -32361   -32405 
  -32472   -32554   -32647   -32751   -32858   -32964   -33082   -33207 
  -33313   -33397   -33484   -33578   -33660   -33714   -33739   -33737 
  -33716   -33679   -33619   -33547   -33473   -33390   -33305   -33218 
  -33111   -32994   -32900   -32828   -32790   -32804   -32833   -32822 
  -32762   -32666   -32540   -32400   -32264   -32129   -31988   -31852 
  -31723   -31596   -31482   -31388   -31321   -31300   -31321   -31368 
  -31444   -31534   -31613   -31695   -31793   -31895   -31994   -32091 
  -32184   -32271   -32357   -32436   -32497   -32547   -32590   -32630 
  -32673   -32724   -32790   -32884   -32994   -33094   -33177   -33237 
  -33262   -33272   -33289   -33306   -33330   -33377   -33427   -33457 
  -33459   -33435   -33405   -33393   -33400   -33414   -33430   -33433 
  -33415   -33394   -33399   -33431   -33476   -33521   -33565   -33606 
  -33652   -33714   -33790   -33862   -33917   -33956   -33983   -34006 
  -34025   -34036   -34053   -34086   -34121   -34149   -34158   -34135 
  -34094   -34052   -34004   -33955   -33910   -33856   -33803   -33760 
  -33705   -33623   -33535   -33453   -33370   -33298   -33255   -33240 
  -33260   -33316   -33387   -33476   -33592   -33715   -33845   -33992 
  -34149   -34303   -34433   -34529   -34595   -34635   -34659   -34668 
  -34658   -34640   -34619   -34602   -34601   -34602   -34602   -34603 
  -34581   -34533   -34480   -34440   -34438   -34470   -34519   -34594 
  -34678   -34757   -34828   -34855   -34811   -34709   -34564   -34388 
  -34183   -33955   -33726   -33509   -33318   -33152   -32997   -32845 
  -32681   -32508   -32360   -32255   -32184   -32153   -32160   -32184 
  -32227   -32305   -32410   -32521   -32617   -32671   -32670   -32639 
  -32602   -32559   -32523   -32497   -32459   -32404   -32324   -32210 
  -32085   -31978   -31898   -31868   -31912   -32009   -32134   -32282 
  -32441   -32591   -32716   -32806   -32869   -32915   -32936   -32929 
  -32905   -32875   -32841   -32796   -32740   -32665   -32571   -32479 
  -32407   -32351   -32309   -32292   -32314   -32383   -32501   -32651 
  -32812   -32968   -33129   -33320   -33538   -33754   -33963   -34160 
  -34321   -34445   -34535   -34585   -34602   -34603   -34586   -34556 
  -34536   -34522   -34503   -34484   -34470   -34453   -34422   -34380 
  -34336   -34294   -34256   -34230   -34213   -34204   -34204   -34210 
  -34227   -34269   -34336   -34424   -34534   -34655   -34762   -34851 
  -34936   -35013   -35068   -35094   -35077   -35009   -34904   -34772 
  -34621   -34460   -34286   -34101   -33919   -33750   -33603   -33487 
  -33398   -33326   -33269   -33234   -33207   -33158   -33076   -32963 
  -32820   -32655   -32488   -32324   -32164   -32012   -31873   -31760 
  -31699   -31698   -31736   -31798   -31868   -31927   -31971   -32002 
  -32014   -32007   -32000   -31989   -31969   -31947   -31917   -31864 
  -31788   -31692   -31587   -31492   -31424   -31403   -31444   -31534 
  -31645   -31762   -31878   -31984   -32076   -32169   -32276   -32391 
  -32508   -32629   -32741   -32829   -32886   -32904   -32893   -32877 
  -32872   -32891   -32948   -33039   -33153   -33283   -33439   -33627 
  -33839   -34065   -34286   -34485   -34661   -34829   -34999   -35163 
  -35311   -35458   -35616   -35771   -35920   -36064   -36187   -36272 
  -36318   -36327   -36304   -36262   -36210   -36145   -36073   -35995 
  -35904   -35810   -35729   -35653   -35566   -35465   -35348   -35220 
  -35093   -34955   -34790   -34602   -34403   -34203   -34010   -33838 
  -33699   -33591   -33497   -33409   -33318   -33204   -33067   -32914 
  -32749   -32589   -32453   -32339   -32236   -32152   -32091   -32052 
  -32043   -32062   -32088   -32129   -32188   -32247   -32305   -32369 
  -32420   -32463   -32502   -32524   -32530   -32525   -32501   -32458 
  -32391   -32297   -32195   -32092   -31986   -31887   -31809   -31765 
  -31747   -31745   -31757   -31788   -31837   -31906   -31990   -32082 
  -32176   -32275   -32372   -32451   -32512   -32565   -32617   -32670 
  -32718   -32760   -32805   -32859   -32913   -32966   -33012   -33034 
  -33043   -33064   -33089   -33121   -33178   -33248   -33329   -33427 
  -33517   -33585   -33638   -33672   -33677   -33653   -33604   -33540 
  -33491   -33461   -33425   -33379   -33330   -33296   -33307   -33373 
  -33461   -33547   -33615   -33634   -33595   -33519   -33424   -33321 
  -33224   -33143   -33082   -33056   -33075   -33128   -33200   -33274 
  -33323   -33347   -33362   -33370   -33381   -33415   -33454   -33485 
  -33509   -33523   -33524   -33527   -33543   -33577   -33625   -33681 
  -33732   -33766   -33797   -33841   -33886   -33925   -33968   -34006 
  -34030   -34049   -34067   -34077   -34071   -34053   -34031   -34011 
  -34006   -34021   -34042   -34062   -34065   -34020   -33932   -33833 
  -33748   -33692   -33659   -33629   -33602   -33587   -33581   -33569 
  -33551   -33538   -33523   -33505   -33476   -33427   -33374   -33334 
  -33299   -33265   -33226   -33184   -33150   -33126   -33101   -33075 
  -33052   -33021   -32977   -32925   -32883   -32855   -32827   -32792 
  -32747   -32695   -32646   -32611   -32592   -32577   -32563   -32551 
  -32523   -32477   -32427   -32376   -32330   -32307   -32319   -32363 
  -32431   -32517   -32614   -32720   -32838   -32956   -33050   -33115 
  -33157   -33180   -33193   -33212   -33240   -33274   -33310   -33349 
  -33392   -33437   -33489   -33536   -33554   -33551   -33534   -33497 
  -33459   -33435   -33421   -33410   -33389   -33362   -33355   -33368 
  -33395   -33447   -33533   -33640   -33752   -33861   -33956   -34023 
  -34061   -34084   -34091   -34093   -34102   -34109   -34102   -34096 
  -34106   -34135   -34170   -34193   -34202   -34214   -34235   -34251 
  -34240   -34201   -34143   -34066   -33974   -33876   -33782   -33701 
  -33639   -33591   -33563   -33554   -33556   -33557   -33539   -33501 
  -33459   -33420   -33388   -33384   -33410   -33446   -33494   -33552 
  -33609   -33665   -33716   -33744   -33749   -33748   -33750   -33750 
  -33749   -33758   -33782   -33814   -33852   -33899   -33952   -34009 
  -34067   -34119   -34149   -34145   -34110   -34048   -33957   -33841 
  -33697   -33538   -33398   -33300   -33239   -33199   -33173   -33153 
  -33133   -33110   -33083   -33055   -33041   -33059   -33105   -33166 
  -33225   -33271   -33305   -33335   -33369   -33417   -33484   -33562 
  -33647   -33730   -33801   -33865   -33931   -33991   -34025   -34021 
  -33974   -33890   -33777   -33640   -33493   -33351   -33227   -33134 
  -33079   -33046   -33026   -33033   -33048   -33052   -33066   -33101 
  -33145   -33201   -33263   -33315   -33348   -33360   -33341   -33294 
  -33239   -33189   -33153   -33142   -33159   -33193   -33237   -33291 
  -33342   -33388   -33434   -33483   -33539   -33605   -33655   -33669 
  -33654   -33601   -33513   -33408   -33293   -33177   -33074   -32985 
  -32909   -32838   -32766   -32702   -32646   -32594   -32549   -32516 
  -32496   -32483   -32476   -32473   -32462   -32443   -32419   -32382 
  -32323   -32251   -32177   -32107   -32049   -32013   -32001   -32012 
  -32051   -32117   -32204   -32309   -32429   -32555   -32671   -32777 
  -32885   -32986   -33077   -33169   -33266   -33355   -33432   -33506 
  -33580   -33654   -33730   -33799   -33862   -33924   -33972   -33990 
  -33993   -33977   -33937   -33889   -33854   -33836   -33835   -33845 
  -33869   -33910   -33967   -34025   -34071   -34102   -34126   -34144 
  -34152   -34154   -34146   -34137   -34129   -34109   -34078   -34040 
  -33993   -33946   -33902   -33856   -33799   -33718   -33616   -33520 
  -33446   -33403   -33390   -33389   -33390   -33392   -33393   -33398 
  -33402   -33392   -33358   -33295   -33204   -33109   -33029   -32959 
  -32887   -32812   -32721   -32606   -32479   -32351   -32226   -32113 
  -32019   -31941   -31880   -31852   -31874   -31933   -32009   -32097 
  -32195   -32297   -32389   -32470   -32546   -32622   -32703   -32796 
  -32899   -33000   -33094   -33187   -33278   -33367   -33452   -33536 
  -33611   -33669   -33708   -33735   -33765   -33799   -33837   -33881 
  -33943   -34022   -34105   -34195   -34304   -34414   -34507   -34573 
  -34608   -34622   -34622   -34600   -34556   -34501   -34440   -34366 
  -34288   -34211   -34131   -34051   -33982   -33925   -33885   -33869 
  -33878   -33906   -33948   -33993   -34033   -34064   -34084   -34100 
  -34113   -34113   -34094   -34064   -34037   -34022   -34020   -34036 
  -34074   -34128   -34197   -34279   -34364   -34440   -34503   -34551 
  -34580   -34580   -34552   -34504   -34443   -34376   -34322   -34284 
  -34259   -34243   -34227   -34212   -34194   -34172   -34140   -34096 
  -34029   -33936   -33820   -33680   -33520   -33349   -33178   -33022 
  -32907   -32844   -32841   -32905   -33030   -33200   -33387   -33569 
  -33735   -33877   -33990   -34082   -34166   -34236   -34290   -34334 
  -34367   -34393   -34423   -34463   -34511   -34566   -34629   -34689 
  -34737   -34762   -34763   -34751   -34735   -34712   -34688   -34672 
  -34657   -34639   -34610   -34559   -34488   -34398   -34298   -34208 
