Origin Time       2025/01/13 21:19:00
Lat.              31.8
Long.             131.6
Depth. (km)       30
Mag.              6.9
Station Code      KGSH09
Station Lat.      31.3741
Station Long.     130.4333
Station Height(m) 19.091
Record Time       2025/01/13 21:19:52
Sampling Freq(Hz) 100Hz
Duration Time(s)  143
Dir.              1
Scale Factor      3923(gal)/8224838
Max. Acc. (gal)   3.096
Last Correction   2025/01/13 21:19:52
Memo.             
[...]
   -4573    -4492    -4297    -4108    -3910    -3739    -3666    -3572 
   -3411    -3300    -3267    -3275    -3315    -3372    -3431    -3480 
   -3527    -3612    -3717    -3708    -3507    -3164    -2795    -2596 
   -2709    -3042    -3404    -3728    -4077    -4432    -4702    -4900 
   -5036    -5092    -5121    -5076    -4858    -4550    -4279    -4079 
   -3944    -3846    -3744    -3576    -3311    -3102    -3059    -3090 
   -3173    -3389    -3715    -4064    -4369    -4603    -4710    -4646 
   -4523    -4418    -4297    -4201    -4139    -4008    -3782    -3539 
   -3298    -3060    -2921    -2961    -3159    -3434    -3666    -3778 
   -3785    -3705    -3551    -3373    -3225    -3117    -3040    -2963 
   -2832    -2651    -2471    -2276    -2066    -1923    -1858    -1837 
   -1861    -1968    -2166    -2323    -2299    -2153    -1988    -1787 
   -1507    -1232    -1084    -1019     -962     -965    -1070    -1237 
   -1436    -1647    -1880    -2149    -2377    -2467    -2409    -2292 
   -2188    -2034    -1772    -1497    -1336    -1290    -1267    -1252 
   -1278    -1352    -1440    -1539    -1732    -1981    -2141    -2305 
   -2617    -2938    -3137    -3227    -3242    -3339    -3688    -4198 
   -4666    -4976    -5147    -5250    -5233    -5044    -4715    -4340 
   -4010    -3746    -3532    -3319    -3059    -2809    -2639    -2571 
   -2608    -2710    -2822    -2943    -3192    -3636    -4121    -4540 
   -4912    -5159    -5204    -5061    -4762    -4415    -4148    -3954 
   -3792    -3692    -3651    -3655    -3777    -4062    -4425    -4773 
   -5088    -5317    -5363    -5250    -5094    -4889    -4571    -4225 
   -3997    -3913    -3879    -3824    -3775    -3807    -3959    -4183 
   -4367    -4418    -4338    -4160    -3852    -3392    -2871    -2419 
   -2097    -1927    -1881    -1869    -1860    -1919    -2062    -2243 
   -2419    -2532    -2573    -2679    -2917    -3132    -3214    -3165 
   -2998    -2844    -2851    -2974    -3118    -3295    -3520    -3667 
   -3584    -3285    -2928    -2616    -2362    -2197    -2134    -2153 
   -2222    -2207    -2039    -1848    -1749    -1695    -1657    -1732 
   -1926    -2087    -2119    -2084    -2002    -1830    -1617    -1513 
   -1641    -1948    -2246    -2442    -2520    -2488    -2440    -2439 
   -2431    -2443    -2585    -2890    -3308    -3716    -3994    -4155 
   -4261    -4306    -4251    -4116    -3966    -3827    -3720    -3658 
   -3634    -3678    -3801    -3973    -4152    -4263    -4280    -4302 
   -4329    -4275    -4122    -3919    -3708    -3515    -3393    -3383 
   -3454    -3618    -3816    -3974    -4126    -4213    -4191    -4097 
   -3925    -3751    -3588    -3357    -3110    -2889    -2722    -2687 
   -2759    -2870    -3015    -3207    -3333    -3271    -3111    -2937 
   -2745    -2604    -2513    -2454    -2430    -2361    -2224    -2030 
   -1782    -1584    -1553    -1699    -1923    -2092    -2212    -2331 
   -2396    -2390    -2319    -2110    -1775    -1471    -1316    -1364 
   -1615    -1896    -2091    -2278    -2471    -2650    -2878    -3117 
   -3277    -3399    -3541    -3667    -3742    -3778    -3738    -3569 
   -3323    -3121    -3048    -3099    -3186    -3244    -3291    -3416 
   -3619    -3740    -3755    -3844    -4074    -4344    -4623    -4945 
   -5267    -5520    -5653    -5641    -5529    -5401    -5300    -5232 
   -5136    -4954    -4671    -4306    -3933    -3578    -3207    -2857 
   -2631    -2633    -2821    -2983    -3088    -3249    -3415    -3541 
   -3663    -3738    -3724    -3709    -3767    -3859    -3927    -3898 
   -3815    -3784    -3732    -3604    -3538    -3577    -3677    -3829 
   -3996    -4094    -4095    -4041    -3967    -3850    -3727    -3658 
   -3645    -3672    -3657    -3562    -3466    -3433    -3445    -3449 
   -3430    -3372    -3218    -2987    -2712    -2411    -2160    -1962 
   -1821    -1737    -1661    -1628    -1709    -1926    -2274    -2629 
   -2852    -2983    -3133    -3311    -3411    -3325    -3057    -2687 
   -2326    -2053    -1841    -1647    -1521    -1460    -1414    -1395 
   -1354    -1189     -922     -630     -405     -317     -333     -394 
    -448     -507     -693    -1000    -1297    -1557    -1780    -1929 
   -1944    -1858    -1834    -1872    -1848    -1780    -1726    -1695 
   -1679    -1696    -1761    -1841    -1952    -2114    -2309    -2573 
   -2897    -3219    -3481    -3686    -3870    -4023    -4144    -4297 
   -4500    -4665    -4762    -4907    -5147    -5432    -5682    -5854 
   -5940    -5903    -5798    -5719    -5643    -5530    -5444    -5364 
   -5301    -5368    -5494    -5591    -5752    -5934    -6062    -6151 
   -6127    -5979    -5802    -5686    -5663    -5676    -5715    -5784 
   -5805    -5771    -5690    -5441    -5043    -4741    -4615    -4525 
   -4414    -4342    -4297    -4203    -4060    -3954    -3937    -3979 
   -4024    -4060    -4098    -4041    -3797    -3446    -3083    -2706 
   -2376    -2189    -2165    -2239    -2323    -2349    -2293    -2177 
   -2035    -1915    -1898    -1964    -2042    -2153    -2288    -2424 
   -2587    -2700    -2706    -2739    -2872    -3018    -3114    -3187 
   -3218    -3152    -3007    -2863    -2740    -2629    -2547    -2520 
   -2529    -2508    -2421    -2278    -2033    -1715    -1443    -1231 
   -1063     -972     -982    -1127    -1354    -1553    -1713    -1899 
   -2119    -2322    -2508    -2712    -2899    -3018    -3067    -3026 
   -2880    -2701    -2606    -2633    -2754    -2921    -3079    -3173 
   -3171    -3073    -2905    -2722    -2637    -2667    -2756    -2903 
   -3075    -3164    -3098    -2961    -2864    -2768    -2643    -2566 
   -2536    -2443    -2292    -2176    -2047    -1879    -1696    -1471 
   -1285    -1196    -1090     -962     -896     -888     -885     -908 
   -1040    -1293    -1615    -1961    -2286    -2654    -3118    -3581 
   -3997    -4367    -4687    -4963    -5144    -5215    -5224    -5236 
   -5335    -5456    -5493    -5481    -5459    -5452    -5459    -5412 
   -5277    -5138    -5054    -4990    -4934    -4970    -5104    -5225 
   -5332    -5464    -5493    -5327    -5120    -4950    -4718    -4419 
   -4099    -3740    -3366    -3025    -2732    -2479    -2273    -2184 
   -2234    -2305    -2350    -2421    -2500    -2525    -2478    -2401 
   -2350    -2295    -2222    -2153    -2066    -1934    -1771    -1648 
   -1626    -1690    -1791    -1915    -2039    -2122    -2161    -2172 
   -2161    -2134    -2096    -2083    -2097    -2142    -2289    -2567 
   -2875    -3117    -3354    -3647    -3915    -4075    -4077    -3920 
   -3734    -3649    -3658    -3609    -3422    -3225    -3168    -3262 
   -3345    -3302    -3252    -3237    -3188    -3146    -3171    -3308 
   -3578    -3846    -3998    -4090    -4186    -4280    -4325    -4287 
   -4234    -4252    -4369    -4557    -4726    -4847    -4943    -4986 
   -4961    -4858    -4675    -4463    -4302    -4199    -4054    -3788 
   -3480    -3283    -3218    -3150    -2972    -2786    -2754    -2843 
   -2921    -2945    -2897    -2782    -2660    -2543    -2409    -2315 
   -2276    -2209    -2069    -1869    -1625    -1386    -1212    -1123 
   -1078    -1023    -1023    -1154    -1339    -1458    -1425    -1287 
   -1189    -1170    -1182    -1190    -1197    -1232    -1259    -1209 
   -1097    -1020    -1009    -1003     -966     -909     -870     -923 
   -1105    -1328    -1497    -1659    -1831    -1927    -2027    -2278 
   -2612    -2894    -3113    -3245    -3280    -3276    -3246    -3150 
   -3030    -2999    -3133    -3385    -3667    -3958    -4221    -4342 
   -4341    -4387    -4500    -4538    -4418    -4183    -3948    -3784 
   -3634    -3500    -3480    -3562    -3595    -3578    -3689    -3939 
   -4140    -4176    -4082    -3947    -3847    -3809    -3796    -3754 
   -3711    -3731    -3813    -3910    -4001    -4129    -4284    -4379 
   -4384    -4395    -4519    -4731    -4907    -4985    -4972    -4895 
   -4799    -4703    -4634    -4607    -4587    -4588    -4604    -4585 
   -4554    -4495    -4347    -4159    -4012    -3901    -3801    -3744 
   -3775    -3865    -3954    -4045    -4190    -4382    -4548    -4610 
   -4530    -4372    -4225    -4072    -3865    -3623    -3403    -3207 
   -2979    -2716    -2442    -2158    -1922    -1802    -1732    -1632 
   -1572    -1590    -1597    -1582    -1578    -1570    -1557    -1584 
   -1690    -1865    -2068    -2261    -2421    -2548    -2623    -2646 
   -2617    -2500    -2343    -2200    -2099    -2115    -2236    -2340 
   -2376    -2377    -2339    -2219    -2049    -1907    -1811    -1794 
   -1872    -1960    -2007    -2122    -2362    -2573    -2621    -2525 
   -2339    -2160    -2047    -1996    -1964    -1871    -1687    -1449 
   -1190    -1027    -1061    -1256    -1494    -1690    -1879    -2103 
   -2373    -2664    -2932    -3188    -3477    -3789    -4095    -4374 
   -4584    -4692    -4687    -4626    -4631    -4729    -4826    -4936 
   -5053    -5040    -4877    -4664    -4479    -4314    -4158    -4067 
   -4067    -4113    -4176    -4202    -4133    -4039    -3974    -3919 
   -3886    -3910    -3954    -3948    -3848    -3616    -3262    -2825 
   -2378    -2046    -1875    -1806    -1777    -1786    -1868    -1991 
   -2052    -2018    -1946    -1873    -1811    -1791    -1829    -1930 
   -2087    -2254    -2428    -2632    -2849    -3080    -3308    -3450 
   -3456    -3370    -3319    -3384    -3523    -3673    -3804    -3896 
   -3956    -4040    -4166    -4217    -4122    -4001    -3962    -3989 
   -4043    -4121    -4203    -4221    -4166    -4095    -4039    -3989 
   -3959    -4008    -4159    -4352    -4521    -4669    -4797    -4843 
   -4814    -4760    -4656    -4490    -4337    -4284    -4330    -4423 
   -4591    -4830    -5035    -5167    -5258    -5312    -5328    -5298 
   -5215    -5073    -4891    -4731    -4602    -4437    -4241    -4075 
   -3950    -3823    -3657    -3472    -3277    -3034    -2794    -2633 
   -2504    -2362    -2227    -2065    -1860    -1671    -1551    -1529 
   -1640    -1853    -2042    -2138    -2172    -2149    -2056    -1925 
   -1796    -1678    -1548    -1443    -1426    -1510    -1707    -2054 
   -2484    -2824    -3006    -3103    -3176    -3217    -3198    -3100 
   -2965    -2863    -2803    -2760    -2716    -2659    -2587    -2497 
   -2398    -2319    -2258    -2241    -2269    -2296    -2303    -2277 
   -2231    -2227    -2290    -2386    -2511    -2659    -2801    -2920 
   -3015    -3061    -3053    -3090    -3249    -3487    -3721    -3902 
   -4000    -4002    -3882    -3647    -3385    -3187    -3063    -2976 
   -2922    -2930    -2979    -3002    -3037    -3169    -3364    -3581 
   -3838    -4110    -4376    -4619    -4781    -4849    -4851    -4785 
   -4662    -4545    -4461    -4433    -4473    -4500    -4422    -4255 
   -4041    -3788    -3522    -3249    -2967    -2737    -2598    -2527 
   -2502    -2493    -2440    -2315    -2155    -2014    -1867    -1710 
   -1606    -1547    -1509    -1571    -1787    -2070    -2274    -2299 
   -2145    -1898    -1630    -1375    -1173    -1073    -1031     -931 
    -715     -456     -279     -232     -272     -353     -480     -688 
    -934    -1140    -1304    -1463    -1663    -1923    -2239    -2578 
   -2882    -3086    -3187    -3233    -3304    -3516    -3900    -4340 
   -4719    -5023    -5273    -5448    -5545    -5645    -5809    -5979 
   -6097    -6183    -6237    -6273    -6309    -6311    -6270    -6224 
   -6220    -6301    -6439    -6590    -6766    -6970    -7179    -7376 
   -7481    -7410    -7183    -6856    -6436    -5958    -5526    -5212 
   -4969    -4756    -4599    -4490    -4376    -4189    -3851    -3352 
   -2752    -2093    -1425     -870     -521     -378     -379     -459 
    -630     -907    -1279    -1692    -2012    -2195    -2288    -2285 
   -2160    -1918    -1624    -1355    -1096     -820     -614     -550 
    -591     -704     -851     -927     -916     -892     -877     -904 
   -1054    -1385    -1837    -2289    -2712    -3159    -3615    -4036 
   -4409    -4714    -4966    -5238    -5516    -5679    -5638    -5425 
   -5120    -4816    -4599    -4525    -4590    -4658    -4603    -4464 
   -4355    -4330    -4337    -4328    -4303    -4201    -4014    -3839 
   -3703    -3559    -3402    -3316    -3358    -3491    -3709    -4001 
   -4302    -4595    -4899    -5173    -5363    -5468    -5479    -5362 
   -5155    -4923    -4688    -4452    -4234    -4059    -3916    -3802 
   -3727    -3663    -3619    -3599    -3551    -3395    -3140    -2925 
   -2794    -2689    -2633    -2623    -2582    -2523    -2455    -2297 
   -2042    -1791    -1587    -1426    -1310    -1148     -835     -414 
     -12      332      668     1001     1274     1453     1551     1575 
    1548     1476     1339     1174     1012      876      812      778 
     723      715      793      869      835      704      573      490 
     405      261       83      -74     -201     -329     -469     -635 
    -845    -1061    -1200    -1256    -1285    -1314    -1390    -1544 
   -1771    -2070    -2469    -2937    -3414    -3883    -4336    -4720 
   -4978    -5108    -5130    -5054    -4950    -4878    -4862    -4922 
   -5017    -5101    -5232    -5422    -5610    -5825    -6104    -6447 
   -6874    -7400    -8006    -8556    -8928    -9138    -9217    -9254 
   -9290    -9305    -9370    -9516    -9641    -9679    -9663    -9589 
   -9416    -9205    -9031    -8883    -8685    -8370    -7955    -7515 
   -7132    -6832    -6585    -6350    -6119    -5930    -5822    -5759 
   -5692    -5628    -5559    -5485    -5429    -5354    -5232    -5074 
   -4892    -4718    -4595    -4529    -4445    -4320    -4183    -4035 
   -3888    -3769    -3701    -3712    -3797    -3879    -3867    -3755 
   -3618    -3522    -3465    -3426    -3408    -3416    -3473    -3569 
   -3628    -3627    -3611    -3607    -3546    -3343    -3049    -2749 
   -2455    -2168    -1887    -1629    -1383    -1098     -751     -318 
     166      580      868     1039     1094     1038      913      822 
     850     1021     1324     1676     2034     2373     2585     2608 
    2477     2242     1989     1790     1667     1683     1875     2165 
    2434     2631     2774     2884     2967     2980     2874     2650 
    2350     2045     1780     1549     1359     1204     1027      812 
     569      276      -68     -423     -737    -1009    -1293    -1614 
   -1977    -2357    -2722    -3083    -3464    -3869    -4288    -4684 
   -5031    -5332    -5626    -5953    -6293    -6610    -6912    -7238 
   -7585    -7882    -8062    -8113    -8074    -7992    -7886    -7773 
   -7645    -7489    -7335    -7226    -7209    -7285    -7392    -7492 
   -7580    -7616    -7585    -7527    -7470    -7461    -7520    -7565 
   -7523    -7391    -7180    -6891    -6511    -6099    -5759    -5503 
   -5309    -5184    -5121    -5134    -5201    -5200    -5027    -4727 
   -4413    -4159    -3974    -3846    -3771    -3757    -3805    -3915 
   -4072    -4233    -4360    -4460    -4533    -4533    -4405    -4109 
   -3674    -3171    -2627    -2076    -1591    -1186     -847     -584 
    -417     -355     -391     -531     -735     -912    -1057    -1201 
   -1348    -1498    -1603    -1611    -1518    -1324    -1057     -774 
    -523     -314     -149      -31       40       44      -39     -198 
    -384     -550     -664     -739     -841     -989    -1134    -1256 
   -1385    -1513    -1607    -1695    -1814    -1904    -1899    -1830 
   -1728    -1602    -1486    -1379    -1271    -1161    -1004     -823 
    -670     -526     -394     -290     -171      -32       41       -1 
    -143     -369     -657     -919    -1093    -1210    -1320    -1421 
   -1489    -1539    -1583    -1584    -1551    -1520    -1480    -1463 
   -1516    -1633    -1858    -2188    -2548    -2937    -3349    -3784 
   -4261    -4698    -5055    -5413    -5779    -6149    -6532    -6906 
   -7261    -7588    -7858    -8056    -8194    -8283    -8314    -8272 
   -8168    -8043    -7932    -7844    -7769    -7686    -7565    -7387 
   -7215    -7123    -7110    -7161    -7288    -7487    -7722    -7936 
   -8085    -8128    -8048    -7866    -7635    -7420    -7222    -7007 
   -6816    -6681    -6521    -6259    -5926    -5559    -5138    -4671 
   -4206    -3792    -3442    -3130    -2849    -2594    -2326    -2047 
   -1750    -1418    -1113     -855     -634     -472     -368     -286 
    -220     -184     -174     -167     -163     -145      -97       -4 
     116      210      290      355      348      267      159       37 
    -108     -299     -515     -703     -877    -1063    -1242    -1377 
   -1424    -1405    -1372    -1331    -1324    -1414    -1563    -1717 
   -1895    -2091    -2254    -2385    -2544    -2786    -3090    -3387 
   -3663    -3912    -4079    -4145    -4151    -4144    -4152    -4163 
   -4176    -4207    -4232    -4255    -4310    -4348    -4394    -4541 
   -4743    -4941    -5113    -5204    -5235    -5212    -5094    -4904 
   -4685    -4492    -4363    -4278    -4228    -4190    -4120    -3994 
   -3808    -3596    -3422    -3262    -3079    -2890    -2681    -2424 
   -2133    -1833    -1549    -1283    -1042     -874     -819     -851 
    -958    -1121    -1308    -1522    -1744    -1925    -2058    -2150 
   -2209    -2265    -2336    -2439    -2571    -2701    -2799    -2867 
   -2898    -2879    -2798    -2709    -2695    -2755    -2814    -2864 
   -2938    -3057    -3222    -3435    -3697    -3987    -4257    -4499 
   -4734    -4953    -5131    -5256    -5293    -5215    -5050    -4851 
   -4654    -4514    -4432    -4341    -4209    -4058    -3882    -3663 
   -3424    -3207    -3037    -2953    -2976    -3028    -3048    -3038 
   -2990    -2899    -2802    -2722    -2679    -2693    -2759    -2852 
   -2956    -3056    -3126    -3167    -3187    -3192    -3172    -3121 
   -3068    -3029    -2988    -2941    -2924    -2968    -3003    -2971 
   -2929    -2916    -2906    -2909    -2938    -2994    -3053    -3076 
   -3048    -2986    -2920    -2879    -2870    -2878    -2889    -2917 
   -2979    -3051    -3114    -3160    -3171    -3171    -3186    -3202 
   -3218    -3238    -3267    -3318    -3387    -3473    -3581    -3696 
   -3785    -3828    -3821    -3778    -3713    -3636    -3557    -3470 
   -3384    -3335    -3335    -3362    -3410    -3476    -3530    -3554 
   -3564    -3577    -3586    -3595    -3624    -3678    -3712    -3704 
   -3662    -3586    -3493    -3438    -3453    -3499    -3519    -3532 
   -3574    -3639    -3739    -3866    -3971    -4043    -4113    -4168 
   -4190    -4217    -4280    -4383    -4517    -4646    -4752    -4835 
   -4908    -4939    -4893    -4810    -4700    -4549    -4382    -4232 
   -4099    -3942    -3728    -3487    -3268    -3088    -2911    -2729 
   -2593    -2506    -2463    -2481    -2538    -2604    -2675    -2735 
   -2771    -2799    -2826    -2855    -2890    -2934    -3001    -3095 
   -3195    -3289    -3372    -3419    -3407    -3356    -3291    -3215 
   -3133    -3065    -3032    -3040    -3086    -3137    -3156    -3114 
   -2999    -2825    -2635    -2452    -2276    -2106    -1954    -1806 
