Origin Time       2025/01/13 21:19:00
Lat.              31.8
Long.             131.6
Depth. (km)       30
Mag.              6.9
Station Code      KGSH01
Station Lat.      32.1554
Station Long.     130.1191
Station Height(m) -187.134
Record Time       2025/01/13 21:19:55
Sampling Freq(Hz) 100Hz
Duration Time(s)  229
Dir.              3
Scale Factor      3923(gal)/8224838
Max. Acc. (gal)   2.111
Last Correction   2025/01/13 21:19:56
Memo.             
[...]
  -10577   -10520   -10474   -10428   -10378   -10341   -10341   -10404 
  -10539   -10728   -10922   -11087   -11202   -11236   -11198   -11138 
  -11119   -11156   -11221   -11268   -11279   -11257   -11203   -11129 
  -11078   -11070   -11075   -11061   -11018   -10963   -10906   -10833 
  -10732   -10617   -10509   -10415   -10353   -10366   -10493   -10714 
  -10976   -11226   -11438   -11607   -11743   -11853   -11946   -12037 
  -12129   -12210   -12256   -12271   -12280   -12287   -12283   -12280 
  -12301   -12337   -12384   -12448   -12530   -12615   -12684   -12718 
  -12699   -12622   -12515   -12406   -12298   -12195   -12093   -11979 
  -11858   -11742   -11645   -11584   -11562   -11574   -11622   -11708 
  -11812   -11898   -11959   -11998   -12005   -11961   -11848   -11676 
  -11491   -11329   -11180   -11047   -10962   -10960   -11029   -11106 
  -11138   -11128   -11098   -11049   -10945   -10767   -10548   -10365 
  -10266   -10261   -10331   -10461   -10642   -10835   -10986   -11060 
  -11057   -11028   -11013   -11002   -10970   -10926   -10912   -10952 
  -11052   -11188   -11327   -11443   -11514   -11512   -11446   -11379 
  -11360   -11402   -11484   -11569   -11624   -11647   -11649   -11631 
  -11577   -11484   -11360   -11211   -11060   -10957   -10935   -10979 
  -11051   -11084   -11036   -10906   -10729   -10555   -10439   -10409 
  -10458   -10565   -10712   -10881   -11072   -11272   -11446   -11565 
  -11603   -11547   -11422   -11275   -11130   -10968   -10779   -10604 
  -10508   -10527   -10639   -10793   -10959   -11151   -11380   -11623 
  -11828   -11951   -11962   -11865   -11697   -11522   -11380   -11288 
  -11250   -11290   -11402   -11518   -11562   -11526   -11458   -11410 
  -11407   -11429   -11427   -11387   -11340   -11323   -11340   -11371 
  -11422   -11503   -11611   -11731   -11846   -11956   -12089   -12226 
  -12290   -12213   -12002   -11711   -11391   -11075   -10782   -10534 
  -10332   -10164    -9990    -9796    -9632    -9545    -9548    -9614 
   -9703    -9798    -9926   -10096   -10251   -10326   -10299   -10184 
  -10019    -9865    -9774    -9755    -9807    -9891    -9938    -9913 
   -9846    -9798    -9813    -9896   -10034   -10188   -10295   -10326 
  -10319   -10315   -10336   -10405   -10532   -10706   -10876   -10990 
  -11057   -11125   -11207   -11284   -11342   -11394   -11464   -11570 
  -11707   -11869   -12039   -12168   -12213   -12163   -12060   -11985 
  -11969   -11985   -12019   -12075   -12147   -12191   -12170   -12082 
  -11952   -11801   -11638   -11470   -11325   -11237   -11221   -11250 
  -11299   -11379   -11514   -11682   -11826   -11904   -11915   -11870 
  -11769   -11614   -11433   -11267   -11152   -11106   -11124   -11207 
  -11365   -11589   -11839   -12064   -12237   -12356   -12391   -12325 
  -12185   -12032   -11929   -11904   -11932   -11967   -11986   -11975 
  -11932   -11866   -11788   -11708   -11651   -11626   -11607   -11574 
  -11533   -11488   -11430   -11350   -11236   -11067   -10866   -10679 
  -10561   -10551   -10662   -10878   -11169   -11493   -11794   -12006 
  -12093   -12059   -11929   -11724   -11465   -11176   -10881   -10600 
  -10382   -10277   -10303   -10438   -10601   -10700   -10712   -10651 
  -10525   -10359   -10184   -10030    -9933    -9919    -9991   -10129 
  -10312   -10503   -10639   -10689   -10646   -10516   -10332   -10153 
  -10044   -10037   -10129   -10307   -10538   -10783   -11033   -11276 
  -11475   -11585   -11591   -11506   -11373   -11240   -11149   -11136 
  -11207   -11346   -11518   -11677   -11804   -11901   -11975   -12036 
  -12082   -12105   -12104   -12078   -12028   -11963   -11889   -11816 
  -11761   -11726   -11691   -11631   -11570   -11537   -11531   -11541 
  -11561   -11589   -11605   -11593   -11551   -11479   -11380   -11277 
  -11180   -11068   -10945   -10835   -10763   -10743   -10760   -10771 
  -10744   -10692   -10652   -10647   -10665   -10693   -10729   -10789 
  -10889   -11036   -11198   -11346   -11481   -11614   -11734   -11824 
  -11863   -11861   -11848   -11824   -11747   -11605   -11448   -11331 
  -11264   -11199   -11113   -11007   -10895   -10789   -10706   -10640 
  -10574   -10511   -10444   -10378   -10334   -10292   -10220   -10111 
   -9971    -9798    -9578    -9298    -8973    -8641    -8352    -8145 
   -8052    -8095    -8276    -8557    -8885    -9189    -9409    -9541 
   -9603    -9585    -9481    -9304    -9092    -8897    -8772    -8746 
   -8834    -9042    -9367    -9760   -10142   -10457   -10690   -10843 
  -10920   -10924   -10867   -10785   -10719   -10687   -10671   -10655 
  -10639   -10633   -10639   -10673   -10747   -10864   -11030   -11242 
  -11456   -11631   -11755   -11801   -11757   -11641   -11493   -11353 
  -11253   -11202   -11194   -11226   -11302   -11408   -11511   -11588 
  -11638   -11657   -11639   -11573   -11464   -11356   -11300   -11329 
  -11423   -11510   -11541   -11507   -11406   -11229   -10979   -10677 
  -10365   -10071    -9799    -9572    -9425    -9379    -9417    -9520 
   -9688    -9899   -10099   -10265   -10395   -10480   -10521   -10525 
  -10476   -10357   -10189   -10002    -9841    -9786    -9894   -10161 
  -10557   -11013   -11433   -11735   -11897   -11939   -11894   -11815 
  -11739   -11692   -11681   -11709   -11766   -11844   -11956   -12121 
  -12326   -12549   -12753   -12888   -12916   -12842   -12687   -12484 
  -12285   -12151   -12113   -12151   -12224   -12305   -12368   -12410 
  -12444   -12480   -12492   -12456   -12355   -12172   -11935   -11707 
  -11524   -11379   -11259   -11175   -11140   -11142   -11167   -11180 
  -11145   -11063   -10951   -10835   -10744   -10702   -10720   -10812 
  -10971   -11169   -11372   -11562   -11727   -11846   -11901   -11909 
  -11900   -11896   -11911   -11935   -11956   -11985   -12047   -12159 
  -12302   -12428   -12505   -12540   -12548   -12522   -12452   -12367 
  -12317   -12329   -12397   -12480   -12548   -12586   -12602   -12580 
  -12484   -12316   -12118   -11939   -11807   -11732   -11724   -11780 
  -11877   -11988   -12086   -12144   -12150   -12110   -12043   -11962 
  -11873   -11778   -11680   -11597   -11539   -11499   -11457   -11377 
  -11240   -11048   -10824   -10571   -10304   -10048    -9833    -9702 
   -9683    -9776    -9957   -10185   -10427   -10656   -10833   -10930 
  -10951   -10924   -10862   -10763   -10639   -10512   -10390   -10272 
  -10156   -10065   -10023   -10034   -10081   -10149   -10230   -10338 
  -10458   -10554   -10620   -10692   -10786   -10891   -10979   -11022 
  -11020   -11003   -10995   -10998   -11034   -11107   -11209   -11315 
  -11372   -11337   -11221   -11070   -10944   -10886   -10906   -10982 
  -11088   -11211   -11356   -11530   -11724   -11905   -12028   -12044 
  -11939   -11758   -11573   -11434   -11354   -11321   -11321   -11358 
  -11415   -11464   -11495   -11507   -11500   -11489   -11465   -11418 
  -11360   -11319   -11322   -11356   -11377   -11348   -11269   -11171 
  -11083   -11010   -10945   -10885   -10829   -10783   -10736   -10674 
  -10597   -10535   -10507   -10503   -10500   -10492   -10508   -10578 
  -10708   -10874   -11034   -11151   -11210   -11209   -11146   -11040 
  -10912   -10797   -10725   -10696   -10683   -10679   -10683   -10687 
  -10674   -10617   -10504   -10349   -10188   -10065    -9984    -9923 
   -9868    -9795    -9680    -9535    -9385    -9251    -9162    -9115 
   -9086    -9059    -9049    -9078    -9155    -9244    -9308    -9324 
   -9281    -9207    -9144    -9120    -9138    -9197    -9310    -9487 
   -9726   -10006   -10281   -10509   -10669   -10741   -10712   -10597 
  -10459   -10369   -10361   -10432   -10565   -10740   -10937   -11121 
  -11260   -11333   -11354   -11362   -11381   -11396   -11385   -11348 
  -11310   -11304   -11335   -11383   -11415   -11419   -11402   -11379 
  -11367   -11360   -11354   -11354   -11350   -11338   -11321   -11279 
  -11203   -11109   -11001   -10875   -10723   -10535   -10336   -10177 
  -10080   -10030   -10014   -10018   -10023   -10014    -9991    -9964 
   -9938    -9917    -9895    -9861    -9798    -9688    -9540    -9387 
   -9275    -9242    -9302    -9452    -9670    -9910   -10139   -10346 
  -10528   -10689   -10837   -10971   -11084   -11191   -11307   -11430 
  -11546   -11653   -11758   -11853   -11929   -11989   -12017   -11994 
  -11932   -11854   -11769   -11680   -11581   -11475   -11376   -11307 
  -11273   -11257   -11219   -11153   -11079   -11026   -11029   -11101 
  -11222   -11387   -11581   -11767   -11915   -12006   -12028   -11994 
  -11943   -11916   -11936   -12012   -12147   -12329   -12534   -12725 
  -12872   -12964   -12996   -12969   -12892   -12789   -12688   -12618 
  -12602   -12649   -12748   -12884   -13027   -13149   -13239   -13293 
  -13301   -13250   -13146   -13003   -12835   -12675   -12560   -12511 
  -12526   -12571   -12606   -12618   -12595   -12541   -12479   -12413 
  -12328   -12228   -12125   -12017   -11900   -11782   -11676   -11595 
  -11558   -11568   -11603   -11639   -11654   -11641   -11604   -11554 
  -11492   -11415   -11315   -11194   -11067   -10959   -10886   -10852 
  -10845   -10843   -10822   -10771   -10710   -10674   -10665   -10662 
  -10632   -10574   -10508   -10453   -10397   -10320   -10237   -10176 
  -10154   -10145   -10125   -10100   -10083   -10062   -10017    -9933 
   -9838    -9761    -9705    -9641    -9544    -9412    -9254    -9080 
   -8928    -8820    -8750    -8707    -8675    -8645    -8641    -8680 
   -8754    -8846    -8931    -8986    -9008    -8999    -8964    -8930 
   -8931    -8982    -9085    -9229    -9406    -9617    -9853   -10083 
  -10281   -10454   -10600   -10717   -10797   -10836   -10848   -10845 
  -10836   -10831   -10836   -10859   -10910   -10984   -11057   -11110 
  -11136   -11144   -11153   -11178   -11240   -11375   -11596   -11861 
  -12106   -12294   -12422   -12507   -12571   -12634   -12703   -12772 
  -12837   -12904   -12977   -13062   -13177   -13311   -13446   -13574 
  -13686   -13771   -13837   -13886   -13915   -13932   -13938   -13934 
  -13918   -13899   -13891   -13879   -13837   -13749   -13614   -13432 
  -13219   -12995   -12784   -12618   -12496   -12387   -12255   -12093 
  -11919   -11763   -11651   -11566   -11483   -11395   -11306   -11207 
  -11101   -11002   -10921   -10848   -10764   -10669   -10563   -10446 
  -10301   -10122    -9921    -9729    -9562    -9423    -9325    -9285 
   -9275    -9273    -9269    -9254    -9227    -9207    -9190    -9157 
   -9097    -9019    -8935    -8866    -8845    -8884    -8964    -9073 
   -9221    -9412    -9621    -9822   -10014   -10206   -10400   -10604 
  -10810   -11001   -11161   -11275   -11331   -11357   -11383   -11412 
  -11434   -11446   -11466   -11506   -11543   -11553   -11529   -11497 
  -11473   -11453   -11421   -11364   -11296   -11248   -11246   -11286 
  -11353   -11427   -11481   -11500   -11496   -11483   -11476   -11491 
  -11524   -11576   -11637   -11692   -11739   -11772   -11789   -11790 
  -11763   -11720   -11681   -11665   -11689   -11754   -11832   -11909 
  -11974   -12006   -12006   -11983   -11946   -11904   -11871   -11855 
  -11865   -11893   -11940   -12013   -12116   -12248   -12387   -12502 
  -12584   -12642   -12667   -12652   -12619   -12602   -12619   -12676 
  -12766   -12874   -12991   -13109   -13212   -13275   -13278   -13205 
  -13072   -12900   -12680   -12397   -12066   -11703   -11326   -10957 
  -10604   -10265    -9963    -9707    -9486    -9279    -9078    -8878 
   -8689    -8507    -8317    -8112    -7906    -7723    -7597    -7547 
   -7549    -7582    -7642    -7730    -7850    -7989    -8109    -8199 
   -8266    -8313    -8345    -8364    -8376    -8397    -8446    -8526 
   -8618    -8721    -8842    -8976    -9117    -9247    -9340    -9401 
   -9443    -9471    -9499    -9539    -9590    -9648    -9697    -9734 
   -9772    -9819    -9891    -9984   -10081   -10173   -10258   -10336 
  -10423   -10542   -10696   -10875   -11074   -11272   -11454   -11623 
  -11780   -11912   -12012   -12082   -12133   -12185   -12251   -12326 
  -12406   -12492   -12579   -12658   -12730   -12791   -12835   -12865 
  -12880   -12880   -12866   -12842   -12811   -12783   -12761   -12734 
  -12702   -12669   -12633   -12591   -12548   -12486   -12383   -12232 
  -12059   -11892   -11754   -11649   -11564   -11488   -11422   -11369 
  -11337   -11331   -11345   -11353   -11341   -11317   -11281   -11240 
  -11205   -11195   -11225   -11281   -11360   -11458   -11553   -11645 
  -11749   -11851   -11942   -12033   -12132   -12229   -12317   -12371 
  -12380   -12371   -12353   -12320   -12259   -12160   -12019   -11846 
  -11657   -11468   -11296   -11165   -11076   -10994   -10893   -10771 
  -10647   -10509   -10336   -10126    -9891    -9644    -9385    -9116 
   -8862    -8635    -8442    -8295    -8195    -8114    -8035    -7948 
   -7848    -7740    -7639    -7572    -7549    -7582    -7673    -7797 
   -7940    -8108    -8284    -8457    -8619    -8765    -8900    -9036 
   -9162    -9274    -9389    -9516    -9639    -9741    -9821    -9887 
   -9952   -10026   -10106   -10180   -10249   -10322   -10390   -10466 
  -10567   -10705   -10887   -11115   -11395   -11711   -12029   -12334 
  -12610   -12856   -13097   -13348   -13606   -13867   -14121   -14357 
  -14573   -14752   -14898   -15010   -15090   -15157   -15218   -15271 
  -15327   -15385   -15429   -15461   -15488   -15496   -15476   -15417 
  -15311   -15178   -15033   -14871   -14679   -14472   -14268   -14080 
  -13905   -13729   -13527   -13296   -13058   -12820   -12590   -12375 
  -12186   -12013   -11840   -11649   -11435   -11230   -11057   -10912 
  -10797   -10719   -10656   -10585   -10501   -10416   -10330   -10231 
  -10131   -10052   -10003    -9983    -9980    -9981    -9981    -9973 
   -9942    -9882    -9806    -9728    -9634    -9526    -9425    -9344 
   -9289    -9261    -9240    -9208    -9161    -9097    -9030    -8976 
   -8950    -8949    -8955    -8961    -8968    -8970    -8966    -8966 
   -8966    -8951    -8918    -8877    -8839    -8822    -8839    -8900 
   -9005    -9161    -9352    -9541    -9714    -9869    -9985   -10053 
  -10092   -10119   -10145   -10180   -10219   -10250   -10277   -10308 
  -10342   -10388   -10457   -10539   -10617   -10671   -10687   -10685 
  -10678   -10665   -10631   -10585   -10538   -10485   -10419   -10343 
  -10266   -10196   -10129   -10065   -10014    -9979    -9957    -9930 
   -9891    -9864    -9867    -9896    -9948    -9996   -10033   -10068 
  -10115   -10169   -10220   -10270   -10322   -10369   -10417   -10478 
  -10561   -10665   -10781   -10893   -10999   -11105   -11203   -11284 
  -11340   -11384   -11431   -11488   -11558   -11650   -11770   -11916 
  -12089   -12287   -12486   -12663   -12812   -12927   -12985   -12982 
  -12941   -12884   -12829   -12776   -12715   -12649   -12582   -12521 
  -12474   -12442   -12411   -12374   -12324   -12256   -12172   -12085 
  -12008   -11952   -11919   -11900   -11882   -11865   -11858   -11865 
  -11877   -11874   -11842   -11774   -11680   -11578   -11473   -11360 
  -11250   -11161   -11105   -11086   -11107   -11173   -11279   -11392 
  -11476   -11502   -11450   -11341   -11203   -11038   -10854   -10677 
  -10527   -10412   -10335   -10285   -10254   -10238   -10233   -10233 
  -10233   -10230   -10212   -10174   -10108   -10007    -9886    -9767 
   -9661    -9562    -9471    -9405    -9377    -9387    -9436    -9514 
   -9620    -9744    -9879   -10021   -10172   -10328   -10470   -10581 
  -10666   -10743   -10822   -10895   -10953   -11003   -11056   -11121 
  -11203   -11310   -11443   -11593   -11749   -11900   -12036   -12155 
  -12258   -12351   -12434   -12498   -12537   -12542   -12505   -12438 
  -12361   -12287   -12231   -12202   -12193   -12185   -12162   -12116 
  -12037   -11929   -11796   -11646   -11496   -11358   -11241   -11152 
  -11094   -11065   -11067   -11097   -11134   -11163   -11182   -11194 
  -11205   -11215   -11223   -11234   -11241   -11244   -11256   -11288 
  -11348   -11426   -11515   -11607   -11692   -11762   -11815   -11840 
  -11835   -11800   -11740   -11668   -11596   -11529   -11470   -11422 
  -11377   -11344   -11322   -11303   -11295   -11302   -11317   -11346 
  -11398   -11456   -11502   -11510   -11470   -11398   -11298   -11182 
  -11071   -10980   -10924   -10901   -10885   -10860   -10836   -10809 
  -10783   -10778   -10783   -10777   -10766   -10767   -10778   -10787 
  -10804   -10833   -10879   -10930   -10968   -10983   -10980   -10970 
  -10955   -10933   -10910   -10893   -10886   -10889   -10905   -10929 
  -10952   -10962   -10947   -10909   -10851   -10768   -10655   -10517 
  -10363   -10206   -10060    -9946    -9869    -9829    -9818    -9828 
   -9859    -9922   -10007   -10107   -10220   -10345   -10465   -10574 
  -10665   -10740   -10802   -10856   -10901   -10939   -10976   -11025 
  -11080   -11136   -11190   -11248   -11307   -11367   -11419   -11457 
  -11475   -11475   -11460   -11429   -11384   -11321   -11233   -11130 
  -11007   -10859   -10696   -10521   -10342   -10165   -10000    -9861 
   -9761    -9697    -9649    -9606    -9564    -9533    -9518    -9516 
   -9528    -9545    -9544    -9524    -9504    -9498    -9495    -9509 
   -9560    -9629    -9697    -9769    -9848    -9936   -10033   -10123 
  -10206   -10278   -10336   -10386   -10432   -10466   -10494   -10521 
  -10546   -10566   -10582   -10606   -10643   -10683   -10731   -10791 
  -10863   -10943   -11033   -11122   -11198   -11257   -11296   -11323 
  -11353   -11387   -11419   -11445   -11461   -11464   -11458   -11449 
  -11445   -11458   -11491   -11542   -11627   -11755   -11919   -12108 
  -12303   -12483   -12634   -12741   -12798   -12812   -12795   -12758 
  -12726   -12702   -12679   -12652   -12627   -12609   -12592   -12564 
  -12515   -12457   -12402   -12348   -12285   -12214   -12145   -12090 
  -12059   -12060   -12096   -12154   -12213   -12251   -12256   -12237 
  -12206   -12171   -12136   -12112   -12108   -12121   -12148   -12186 
  -12236   -12297   -12363   -12413   -12433   -12434   -12425   -12429 
  -12461   -12519   -12594   -12677   -12760   -12834   -12893   -12931 
  -12946   -12923   -12853   -12739   -12599   -12455   -12316   -12185 
  -12066   -11969   -11894   -11851   -11832   -11830   -11842   -11874 
  -11919   -11954   -11975   -11988   -11989   -11979   -11962   -11929 
  -11888   -11855   -11844   -11857   -11874   -11873   -11843   -11793 
  -11731   -11659   -11580   -11502   -11431   -11365   -11303   -11253 
  -11221   -11199   -11183   -11169   -11152   -11140   -11142   -11152 
  -11183   -11253   -11357   -11485   -11620   -11742   -11846   -11943 
  -12031   -12108   -12175   -12224   -12247   -12248   -12231   -12201 
  -12168   -12139   -12125   -12125   -12127   -12125   -12123   -12113 
  -12087   -12043   -11983   -11894   -11767   -11601   -11411   -11215 
  -11038   -10898   -10793   -10720   -10670   -10627   -10590   -10565 
  -10552   -10562   -10589   -10620   -10655   -10681   -10679   -10655 
  -10615   -10565   -10509   -10451   -10386   -10318   -10245   -10164 
  -10062    -9944    -9817    -9686    -9555    -9420    -9281    -9139 
