Origin Time       2025/01/13 21:19:00
Lat.              31.8
Long.             131.6
Depth. (km)       30
Mag.              6.9
Station Code      KGSH07
Station Lat.      31.7140
Station Long.     130.6149
Station Height(m) 6.405
Record Time       2025/01/13 21:19:49
Sampling Freq(Hz) 100Hz
Duration Time(s)  242
Dir.              6
Scale Factor      7845(gal)/8223790
Max. Acc. (gal)   9.229
Last Correction   2025/01/13 21:19:49
Memo.             
[...]
  -16557   -16815   -16501   -16186   -16578   -17652   -18540   -18535 
  -17879   -17316   -17207   -17334   -17270   -16860   -16434   -16464 
  -17014   -17639   -17775   -17343   -16789   -16575   -16800   -17174 
  -17421   -17640   -18056   -18439   -18246   -17455   -16702   -16484 
  -16677   -16939   -17182   -17424   -17726   -18219   -18766   -18966 
  -18558   -17743   -17085   -16915   -17047   -17186   -17250   -17227 
  -17185   -17274   -17400   -17286   -16960   -16877   -17385   -18183 
  -18613   -18391   -17932   -17832   -18054   -18031   -17504   -16930 
  -16945   -17617   -18322   -18235   -17127   -15618   -14647   -14735 
  -15472   -15951   -15827   -15549   -15680   -16193   -16519   -16387 
  -16248   -16688   -17784   -19026   -19715   -19587   -19013   -18558 
  -18449   -18350   -17787   -16865   -16175   -16114   -16563   -17051 
  -17298   -17410   -17479   -17385   -17097   -16848   -16829   -16883 
  -16767   -16609   -16748   -17261   -17990   -18721   -19221   -19450 
  -19573   -19619   -19502   -19257   -19012   -18796   -18499   -17968 
  -17226   -16640   -16563   -16895   -17277   -17489   -17567   -17568 
  -17375   -16947   -16495   -16205   -16029   -15889   -15925   -16287 
  -16843   -17302   -17435   -17192   -16726   -16368   -16393   -16636 
  -16644   -16312   -16017   -16071   -16436   -16811   -16725   -16062 
  -15394   -15465   -16397   -17521   -18173   -18296   -18219   -18295 
  -18643   -19024   -19045   -18636   -18141   -17851   -17729   -17616 
  -17552   -17686   -17926   -18009   -17793   -17427   -17132   -16962 
  -16842   -16592   -16144   -15843   -16100   -16834   -17486   -17645 
  -17493   -17460   -17682   -17923   -17872   -17336   -16524   -16040 
  -16152   -16402   -16270   -15877   -15769   -16065   -16325   -16281 
  -16208   -16560   -17363   -18122   -18351   -18050   -17644   -17564 
  -17786   -17849   -17460   -16771   -16151   -15934   -16163   -16564 
  -16814   -16740   -16399   -15990   -15724   -15815   -16321   -16985 
  -17323   -17084   -16629   -16592   -17169   -18002   -18647   -18970 
  -19116   -19221   -19201   -18797   -17840   -16605   -15730   -15561 
  -15867   -16320   -16773   -17091   -17123   -16833   -16451   -16429 
  -16962   -17725   -18296   -18613   -18778   -18778   -18562   -18023 
  -17108   -16129   -15661   -16001   -16802   -17367   -17425   -17415 
  -17820   -18477   -18835   -18565   -17855   -17248   -17074   -17131 
  -17011   -16623   -16328   -16533   -17219   -17856   -17977   -17722 
  -17555   -17743   -18145   -18360   -18161   -17817   -17799   -18142 
  -18391   -18119   -17377   -16630   -16259   -16308   -16590   -16866 
  -17037   -17078   -16973   -16781   -16613   -16553   -16625   -16737 
  -16699   -16424   -16052   -15828   -15946   -16322   -16645   -16798 
  -16929   -17146   -17274   -17105   -16872   -17015   -17518   -17977 
  -18245   -18493   -18814   -19059   -18986   -18563   -18083   -17872 
  -18053   -18520   -19029   -19327   -19284   -18841   -18002   -17039 
  -16433   -16390   -16656   -16752   -16375   -15701   -15282   -15450 
  -15870   -16056   -16124   -16507   -17235   -17853   -18019   -17906 
  -17863   -17963   -18138   -18426   -18720   -18738   -18368   -17717 
  -16999   -16452   -16214   -16252   -16456   -16717   -16860   -16806 
  -16721   -16729   -16764   -16804   -16903   -17019   -17181   -17555 
  -18150   -18685   -18770   -18300   -17678   -17421   -17672   -18153 
  -18500   -18617   -18700   -18913   -19106   -18908   -18158   -17167 
  -16429   -16205   -16341   -16420   -16179   -15805   -15707   -16019 
  -16433   -16575   -16422   -16324   -16530   -16829   -16918   -16873 
  -16974   -17301   -17617   -17582   -17163   -16810   -16934   -17479 
  -18099   -18481   -18590   -18677   -18867   -18883   -18311   -17122 
  -15770   -14863   -14789   -15508   -16652   -17712   -18211   -17990 
  -17388   -17011   -17227   -17867   -18401   -18504   -18404   -18428 
  -18513   -18353   -17853   -17432   -17635   -18453   -19307   -19526 
  -18847   -17658   -16795   -16825   -17347   -17443   -16876   -16437 
  -16822   -17506   -17491   -16636   -15577   -14948   -15130   -15994 
  -16683   -16475   -15615   -14870   -14766   -15172   -15579   -15735 
  -15795   -15997   -16470   -17239   -18118   -18678   -18621   -18079 
  -17523   -17369   -17598   -17820   -17756   -17712   -18150   -18831 
  -19141   -19094   -19234   -19707   -20220   -20771   -21312   -21308 
  -20644   -19912   -19398   -18920   -18477   -18238   -18220   -18149 
  -17616   -16679   -15805   -15246   -15134   -15616   -16495   -17265 
  -17562   -17508   -17518   -17755   -17905   -17670   -17189   -16749 
  -16453   -16305   -16367   -16679   -17116   -17556   -17921   -18115 
  -18245   -18495   -18754   -18642   -17864   -16511   -15121   -14369 
  -14496   -15110   -15580   -15539   -15187   -14926   -14828   -14679 
  -14440   -14386   -14678   -15110   -15396   -15498   -15700   -16187 
  -16675   -16799   -16575   -16382   -16519   -16787   -16646   -15962 
  -15288   -15083   -15263   -15766   -16498   -16889   -16696   -16688 
  -17293   -17868   -18210   -18450   -18179   -17616   -17470   -17745 
  -18149   -18229   -17614   -16850   -16794   -17582   -18708   -19406 
  -19276   -18740   -18385   -18192   -17865   -17451   -17267   -17496 
  -17996   -18346   -18258   -17868   -17412   -16991   -16665   -16476 
  -16398   -16318   -16227   -16260   -16386   -16484   -16657   -17018 
  -17344   -17339   -17149   -17149   -17512   -18233   -19107   -19665 
  -19577   -19089   -18720   -18690   -18819   -18778   -18416   -17790 
  -17076   -16629   -16735   -17355   -18121   -18472   -18222   -17842 
  -17910   -18516   -19211   -19480   -19229   -18792   -18474   -18152 
  -17464   -16343   -15265   -14920   -15491   -16414   -16956   -16976 
  -16953   -17307   -17865   -18034   -17582   -17046   -16956   -17157 
  -17151   -16702   -16002   -15418   -15155   -15132   -15234   -15593 
  -16434   -17782   -19178   -19826   -19305   -18085   -17150   -17019 
  -17304   -17293   -16775   -16162   -15863   -15807   -15772   -15799 
  -16081   -16656   -17319   -17778   -17861   -17767   -17880   -18227 
  -18403   -18189   -17980   -18289   -18975   -19273   -18712   -17714 
  -16987   -16665   -16384   -15820   -15001   -14311   -14126   -14305 
  -14277   -13900   -13755   -14284   -15121   -15522   -15296   -15076 
  -15610   -16933   -18328   -18995   -18754   -18193   -18002   -18135 
  -18003   -17366   -16700   -16565   -16869   -16989   -16569   -15977 
  -15907   -16603   -17571   -18068   -17887   -17632   -17964   -18751 
  -19306   -19164   -18492   -17932   -17882   -18103   -18301   -18526 
  -18697   -18432   -17856   -17647   -17944   -18431   -19107   -19880 
  -20395   -20653   -20802   -20768   -20544   -20206   -19795   -19396 
  -19149   -19265   -19753   -20081   -19735   -18836   -17898   -17404 
  -17491   -17811   -17774   -17050   -15932   -15122   -15076   -15506 
  -15655   -15064   -13942   -13046   -13130   -14246   -15696   -16690 
  -17088   -17305   -17501   -17483   -17199   -16668   -15858   -15070 
  -14808   -15161   -15854   -16603   -17196   -17552   -17728   -17944 
  -18370   -18804   -18944   -18804   -18790   -19346   -20320   -20895 
  -20376   -19003   -17822   -17664   -18445   -19386   -19822   -19678 
  -19257   -18862   -18571   -18215   -17658   -17059   -16748   -16843 
  -17099   -17170   -16965   -16703   -16587   -16556   -16518   -16518 
  -16703   -17221   -17994   -18603   -18652   -18281   -17979   -18014 
  -18264   -18401   -18208   -17662   -16880   -16116   -15596   -15392 
  -15461   -15835   -16629   -17818   -19107   -20015   -20196   -19758 
  -19126   -18698   -18569   -18516   -18293   -17799   -17163   -16637 
  -16299   -15916   -15269   -14705   -14931   -16075   -17451   -18181 
  -17848   -16812   -15939   -15649   -15591   -15365   -14975   -14562 
  -14262   -14127   -14116   -14138   -14060   -13915   -14103   -14951 
  -16131   -16893   -16842   -16264   -15774   -15789   -16217   -16591 
  -16584   -16330   -16266   -16686   -17423   -17946   -17864   -17402 
  -17231   -17732   -18631   -19323   -19489   -19373   -19438   -19892 
  -20412   -20371   -19511   -18161   -16787   -15687   -15014   -14735 
  -14674   -14701   -14756   -14906   -15317   -15942   -16487   -16706 
  -16592   -16398   -16510   -17119   -17953   -18517   -18580   -18193 
  -17541   -16883   -16343   -15762   -14956   -14129   -13807   -14320 
  -15547   -17077   -18432   -19273   -19545   -19333   -18499   -16941 
  -15149   -13923   -13721   -14485   -15831   -17221   -18171   -18511 
  -18339   -17768   -16896   -15925   -15184   -14847   -14850   -15163 
  -15780   -16420   -16557   -16066   -15643   -16112   -17543   -19329 
  -20780   -21386   -20899   -19746   -18941   -18972   -19156   -18720 
  -18111   -18254   -19224   -20371   -21066   -21219   -21400   -22184 
  -23361   -24057   -23576   -22080   -20501   -19687   -19611   -19587 
  -19095   -18257   -17540   -17236   -17270   -17239   -16741   -15741 
  -14647   -14249   -15128   -16938   -18567   -19134   -18916   -18917 
  -19533   -20097   -19707   -18373   -17136   -16997   -18033   -19244 
  -19371   -18238   -16969   -16749   -17582   -18239   -17620   -16216 
  -15619   -16552   -18110   -18891   -18249   -16725   -15642   -15925 
  -17146   -18036   -17810   -16799   -16016   -16065   -16505   -16432 
  -15558   -14520   -14162   -14566   -15064   -15136   -14945   -15086 
  -15951   -17196   -18022   -17995   -17219   -16019   -14847   -14131 
  -13941   -13848   -13324   -12440   -11789   -11780   -12375   -13328 
  -14372   -15242   -15701   -15815   -15992   -16432   -16821   -16804 
  -16515   -16428   -16884   -17856   -18914   -19489   -19323   -18571 
  -17581   -16723   -16335   -16590   -17250   -17772   -17913   -17964 
  -18280   -18847   -19337   -19415   -19148   -18897   -18765   -18612 
  -18457   -18477   -18763   -19175   -19523   -19796   -20048   -20349 
  -20811   -21342   -21506   -20899   -19533   -17782   -16208   -15400 
  -15558   -16264   -16889   -17084   -16964   -16765   -16455   -16019 
  -15803   -16035   -16375   -16303   -15745   -15137   -14920   -15088 
  -15356   -15398   -15120   -14952   -15507   -16830   -18300   -19251 
  -19477   -19232   -18848   -18370   -17687   -16900   -16278   -16110 
  -16537   -17415   -18388   -19111   -19580   -20142   -20995   -21814 
  -21992   -21257   -19963   -18920   -18867   -19812   -20885   -21031 
  -20100   -19148   -19357   -20792   -22395   -23075   -22588   -21509 
  -20638   -20194   -19579   -18191   -16272   -14775   -14469   -15250 
  -16351   -16950   -16621   -15607   -14748   -14729   -15373   -15849 
  -15446   -14277   -13269   -13284   -14322   -15556   -16132   -15878 
  -15172   -14520   -14292   -14563   -15099   -15573   -15944   -16552 
  -17601   -18555   -18477   -17263   -16016   -15939   -17138   -18582 
  -19284   -19233   -19144   -19627   -20522   -20996   -20270   -18391 
  -16366   -15253   -15176   -15341   -14993   -14403   -14609   -16160 
  -18472   -20345   -21028   -20726   -20120   -19631   -19171   -18408 
  -17280   -16222   -15789   -16096   -16637   -16673   -16008   -15169 
  -14729   -14690   -14666   -14590   -14786   -15271   -15596   -15388 
  -14651   -13583   -12469   -11682   -11470   -11774   -12355   -13136 
  -14315   -15870   -17205   -17729   -17578   -17301   -17204   -17280 
  -17509   -17963   -18570   -19087   -19430   -19587   -19425   -18990 
  -18654   -18740   -19164   -19476   -19334   -18855   -18419   -18326 
  -18744   -19522   -20065   -19923   -19379   -19121   -19516   -20383 
  -21319   -22050   -22513   -22689   -22540   -22057   -21087   -19368 
  -17128   -15315   -14743   -15303   -16240   -16846   -16883   -16571 
  -16426   -17011   -18270   -19230   -18982   -17802   -16802   -16668 
  -17047   -16989   -15778   -13624   -11654   -10991   -11564   -12064 
  -11610   -11011   -11657   -13589   -15448   -16101   -15616   -14785 
  -14330   -14492   -15039   -15612   -16044   -16362   -16540   -16534 
  -16401   -16139   -15642   -14899   -14304   -14424   -15237   -16214 
  -16943   -17226   -16996   -16374   -15682   -15259   -15241   -15503 
  -15876   -16372   -17011   -17568   -17664   -17096   -16135   -15352 
  -15160   -15476   -15819   -15909   -16040   -16634   -17709   -18883 
  -19604   -19583   -19230   -19133   -19437   -19988   -20420   -20443 
  -20163   -19728   -19134   -18504   -18018   -17609   -17068   -16432 
  -16097   -16578   -17905   -19413   -20488   -21080   -21470   -21798 
  -21776   -21116   -20177   -19703   -19934   -20394   -20536   -20198 
  -19573   -18974   -18462   -17702   -16588   -15708   -15650   -16287 
  -16966   -17092   -16733   -16561   -16862   -17073   -16617   -15722 
  -15211   -15597   -16492   -17100   -17095   -16761   -16478   -16357 
  -16310   -16367   -16887   -18187   -19885   -20984   -20953   -20405 
  -20272   -20854   -21811   -22461   -22400   -22087   -22191   -22727 
  -23184   -23139   -22756   -22651   -22940   -22921   -21847   -19722 
  -17383   -15765   -15055   -14886   -15039   -15371   -15495   -15059 
  -14254   -13690   -13594   -13617   -13664   -14145   -14987   -15553 
  -15677   -15731   -15874   -15947   -15839   -15650   -15573   -15714 
  -15927   -15916   -15499   -14656   -13471   -12135   -10906   -10050 
   -9648    -9460    -9150    -8571    -7921    -7605    -7801    -8363 
   -9178   -10227   -11308   -12075   -12505   -12935   -13666   -14870 
  -16610   -18611   -20264   -21096   -21157   -20887   -20796   -21049 
  -21258   -21037   -20487   -19973   -19633   -19276   -18802   -18463 
  -18715   -19742   -21006   -21664   -21527   -21120   -20962   -21076 
  -21047   -20584   -20031   -19992   -20537   -21246   -21878   -22468 
  -22931   -23182   -23301   -23369   -23461   -23542   -23410   -22982 
  -22266   -21159   -19711   -18238   -16838   -15364   -13923   -12884 
  -12368   -12124   -11896   -11807   -12206   -13184   -14322   -15029 
  -15133   -15033   -15214   -15862   -16811   -17572   -17705   -17336 
  -16961   -16906   -17220   -17724   -18033   -17825   -17124   -16324 
  -15931   -16120   -16591   -16933   -17027   -17089   -17397   -17887 
  -18125   -17874   -17413   -17211   -17379   -17482   -17115   -16456 
  -15932   -15773   -16000   -16405   -16660   -16667   -16683   -17012 
  -17671   -18423   -19102   -19739   -20339   -20690   -20586   -20287 
  -20320   -20706   -20875   -20394   -19562   -19172   -19699   -20880 
  -21948   -22188   -21419   -20079   -18891   -18297   -18188   -18138 
  -17934   -17722   -17598   -17423   -17057   -16495   -15844   -15326 
  -15122   -15233   -15498   -15700   -15761   -15788   -15843   -15762 
  -15408   -14921   -14449   -13954   -13485   -13360   -13849   -14661 
  -15214   -15319   -15167   -14916   -14500   -13751   -12780   -11982 
  -11572   -11492   -11723   -12301   -13065   -13705   -14025   -14023 
  -13888   -13873   -13987   -14057   -14173   -14600   -15356   -16281 
  -17217   -18010   -18584   -19075   -19649   -20154   -20282   -20081 
  -19969   -20293   -20977   -21556   -21636   -21297   -20880   -20579 
  -20434   -20256   -19656   -18543   -17355   -16695   -16773   -17130 
  -17108   -16636   -16206   -16247   -16731   -17367   -18025   -18709 
  -19273   -19485   -19318   -19037   -18928   -18956   -18975   -19008 
  -19101   -19102   -18731   -17991   -17385   -17431   -18000   -18412 
  -18195   -17563   -17135   -17242   -17500   -17280   -16487   -15647 
  -15311   -15461   -15620   -15450   -15145   -15171   -15569   -15889 
  -15720   -15132   -14715   -15010   -15931   -16816   -17058   -16706 
  -16391   -16540   -16880   -16866   -16357   -15854   -16001   -16830 
  -17717   -18065   -17821   -17375   -17043   -16811   -16438   -15684 
  -14721   -14134   -14364   -15326   -16526   -17437   -17887   -18152 
  -18428   -18469   -17960   -16887   -15537   -14284   -13336   -12764 
  -12622   -12880   -13308   -13586   -13524   -13259   -13221   -13756 
  -14854   -16225   -17460   -18299   -18777   -19078   -19394   -19795 
  -20191   -20474   -20610   -20642   -20676   -20833   -21073   -21165 
  -20920   -20397   -19826   -19433   -19298   -19371   -19633   -20083 
  -20555   -20781   -20669   -20337   -19982   -19815   -19939   -20150 
  -20125   -19874   -19692   -19765   -19966   -20106   -20224   -20466 
  -20729   -20672   -20156   -19454   -18983   -18952   -19165   -19244 
  -19091   -18959   -19080   -19336   -19203   -18360   -17257   -16587 
  -16461   -16420   -15907   -14825   -13763   -13432   -13980   -14812 
  -15040   -14486   -13938   -14102   -14909   -15815   -16268   -16124 
  -15716   -15507   -15766   -16445   -17204   -17605   -17421   -16781 
  -16023   -15476   -15261   -15259   -15296   -15373   -15662   -16187 
  -16679   -16841   -16669   -16505   -16745   -17351   -17795   -17690 
  -17188   -16714   -16637   -17003   -17459   -17597   -17335   -16951 
  -16738   -16733   -16845   -17020   -17219   -17351   -17308   -17162 
  -17143   -17331   -17464   -17243   -16723   -16275   -16175   -16328 
  -16484   -16521   -16532   -16738   -17172   -17545   -17541   -17109 
  -16552   -16266   -16357   -16605   -16723   -16634   -16482   -16464 
  -16609   -16694   -16505   -16078   -15618   -15279   -15083   -14994 
  -15001   -15111   -15346   -15676   -15978   -16120   -16055   -15907 
  -15861   -16019   -16376   -16792   -17046   -17109   -17239   -17656 
  -18293   -18901   -19283   -19402   -19315   -19174   -19194   -19440 
  -19773   -19992   -20070   -20314   -20985   -21882   -22523   -22681 
  -22594   -22593   -22723   -22746   -22442   -21879   -21312   -20914 
  -20711   -20642   -20564   -20360   -20070   -19747   -19450   -19318 
  -19441   -19791   -20197   -20374   -20210   -19917   -19696   -19404 
  -18810   -17980   -17248   -16915   -16923   -16911   -16632   -16213 
  -15954   -15963   -16116   -16206   -16116   -15893   -15541   -14889 
  -13852   -12671   -11722   -11175   -10918   -10713   -10494   -10516 
  -11030   -11859   -12503   -12631   -12410   -12317   -12679   -13423 
  -14126   -14357   -14145   -14022   -14416   -15136   -15603   -15518 
  -15151   -15084   -15664   -16660   -17558   -18072   -18241   -18246 
  -18258   -18347   -18443   -18461   -18418   -18399   -18476   -18651 
  -18797   -18727   -18427   -18102   -17991   -18139   -18354   -18430 
  -18308   -18048   -17745   -17402   -16978   -16572   -16371   -16420 
  -16622   -16862   -16962   -16788   -16421   -16044   -15847   -15888 
  -16016   -16067   -16029   -16005   -16070   -16237   -16460   -16654 
  -16827   -17053   -17352   -17718   -18057   -18207   -18127   -17975 
  -17914   -17969   -18110   -18261   -18382   -18543   -18801   -19074 
  -19179   -19012   -18659   -18361   -18293   -18361   -18322   -18042 
  -17598   -17203   -17064   -17266   -17645   -17933   -18045   -18131 
  -18362   -18613   -18544   -18060   -17432   -16946   -16622   -16330 
  -16062   -15975   -16151   -16425   -16623   -16772   -16931   -17016 
  -16912   -16645   -16402   -16306   -16303   -16397   -16688   -17221 
  -17898   -18532   -19044   -19516   -20016   -20478   -20790   -20887 
