Origin Time       2025/01/13 21:19:00
Lat.              31.8
Long.             131.6
Depth. (km)       30
Mag.              6.9
Station Code      KGSH09
Station Lat.      31.3741
Station Long.     130.4333
Station Height(m) 119.391
Record Time       2025/01/13 21:19:52
Sampling Freq(Hz) 100Hz
Duration Time(s)  143
Dir.              4
Scale Factor      7845(gal)/8223790
Max. Acc. (gal)   12.376
Last Correction   2025/01/13 21:19:52
Memo.             
[...]
   -8310    -8244    -8306    -8490    -8490    -7979    -7096    -6397 
   -6266    -6666    -7331    -7969    -8345    -8452    -8473    -8487 
   -8317    -7774    -7020    -6529    -6578    -6930    -7179    -7173 
   -7057    -7095    -7526    -8446    -9626   -10478   -10532    -9896 
   -9035    -8379    -8127    -8105    -7879    -7192    -6323    -5864 
   -6037    -6393    -6432    -6289    -6517    -7366    -8527    -9458 
   -9707    -9073    -7817    -6640    -6123    -6286    -6724    -7111 
   -7549    -8289    -9196    -9867   -10100    -9882    -9225    -8343 
   -7562    -6955    -6367    -5782    -5363    -5294    -5645    -6303 
   -7051    -7776    -8513    -9277    -9895   -10088    -9749    -9082 
   -8316    -7611    -7157    -6988    -6932    -6987    -7318    -7843 
   -8259    -8409    -8294    -7906    -7344    -6847    -6575    -6542 
   -6682    -6901    -7110    -7284    -7515    -7978    -8708    -9489 
  -10072   -10297   -10053    -9370    -8440    -7396    -6393    -5757 
   -5726    -6180    -6729    -7037    -7114    -7217    -7435    -7618 
   -7708    -7885    -8279    -8781    -9120    -9121    -8874    -8511 
   -8114    -7888    -8017    -8359    -8615    -8757    -8874    -8749 
   -8093    -7126    -6353    -5907    -5648    -5562    -5680    -5884 
   -6110    -6578    -7402    -8182    -8437    -8262    -8101    -8108 
   -8160    -8220    -8301    -8363    -8437    -8610    -8876    -9147 
   -9413    -9741    -9995    -9759    -8824    -7558    -6531    -6018 
   -5907    -5867    -5649    -5297    -5016    -5020    -5475    -6401 
   -7654    -9047   -10403   -11461   -11858   -11338   -10042    -8452 
   -7041    -6061    -5637    -5830    -6538    -7524    -8510    -9181 
   -9316    -9003    -8577    -8256    -7927    -7396    -6729    -6196 
   -5989    -6088    -6320    -6521    -6702    -7095    -7852    -8726 
   -9267    -9317    -9022    -8545    -8008    -7542    -7128    -6633 
   -6176    -6112    -6655    -7641    -8619    -9213    -9379    -9240 
   -8850    -8248    -7542    -6841    -6265    -6026    -6354    -7222 
   -8240    -8991    -9440    -9853   -10268   -10295    -9603    -8375 
   -7098    -6188    -5829    -5911    -6146    -6347    -6532    -6777 
   -7029    -7172    -7234    -7371    -7738    -8386    -9127    -9579 
   -9443    -8788    -8017    -7530    -7450    -7632    -7830    -7886 
   -7850    -7831    -7753    -7446    -6924    -6463    -6500    -7321 
   -8770   -10260   -11129   -11137   -10513    -9634    -8764    -7942 
   -7036    -5958    -4887    -4228    -4345    -5240    -6396    -7067 
   -6929    -6345    -5817    -5522    -5436    -5503    -5667    -6021 
   -6737    -7743    -8710    -9302    -9433    -9346    -9323    -9474 
   -9810   -10253   -10648   -10935   -11090   -10978   -10524    -9865 
   -9175    -8490    -7809    -7244    -7011    -7254    -7734    -7809 
   -7065    -5811    -4729    -4218    -4240    -4608    -5177    -5864 
   -6717    -7801    -8841    -9266    -8845    -8041    -7639    -8021 
   -8904    -9733   -10114    -9864    -9034    -7915    -6766    -5636 
   -4536    -3688    -3508    -4264    -5784    -7614    -9321   -10635 
  -11527   -12110   -12276   -11642   -10091    -8216    -6926    -6605 
   -6866    -7207    -7516    -7755    -7688    -7171    -6435    -5821 
   -5391    -5123    -5244    -5931    -6956    -7884    -8407    -8445 
   -8132    -7790    -7751    -8136    -8799    -9444    -9837    -9898 
   -9618    -9113    -8561    -8005    -7396    -6832    -6609    -7010 
   -7901    -8799    -9294    -9155    -8309    -7025    -5842    -5071 
   -4560    -4174    -4267    -5263    -7010    -8873   -10291   -11037 
  -11090   -10523    -9587    -8741    -8424    -8718    -9293    -9729 
   -9821    -9574    -9057    -8264    -7163    -5930    -5042    -4974 
   -5852    -7321    -8695    -9373    -9219    -8505    -7549    -6515 
   -5537    -4837    -4614    -5039    -6251    -8089    -9907   -10906 
  -10686    -9526    -8117    -7030    -6450    -6274    -6359    -6632 
   -6995    -7253    -7199    -6812    -6409    -6496    -7186    -8059 
   -8766    -9350    -9829    -9937    -9363    -8140    -6728    -5740 
   -5657    -6571    -8002    -9196    -9821   -10130   -10374   -10469 
  -10243    -9694    -8900    -8004    -7223    -6713    -6384    -5923 
   -5166    -4409    -4144    -4576    -5576    -6870    -8132    -9131 
   -9859   -10443   -10899   -11020   -10547    -9479    -8137    -6991 
   -6370    -6282    -6448    -6532    -6470    -6620    -7268    -8081 
   -8475    -8248    -7557    -6728    -6177    -6168    -6655    -7393 
   -8090    -8584    -8874    -8889    -8495    -7777    -7095    -6831 
   -7115    -7778    -8505    -9105    -9548    -9756    -9617    -9158 
   -8494    -7742    -7087    -6754    -6795    -7001    -7141    -7155 
   -7028    -6723    -6270    -5778    -5416    -5447    -5992    -6787 
   -7510    -8137    -8737    -9217    -9477    -9578    -9607    -9540 
   -9342    -9043    -8619    -8031    -7365    -6673    -5911    -5275 
   -5177    -5818    -7059    -8599   -10029   -10962   -11362   -11472 
  -11334   -10779    -9742    -8394    -7133    -6427    -6423    -6751 
   -6844    -6435    -5707    -5024    -4625    -4561    -4808    -5350 
   -6177    -7298    -8683   -10099   -11074   -11097    -9956    -8089 
   -6416    -5643    -5852    -6697    -7750    -8768    -9691   -10380 
  -10512    -9805    -8348    -6733    -5705    -5595    -6183    -7024 
   -7728    -8048    -7924    -7484    -7036    -6882    -7080    -7506 
   -8031    -8476    -8710    -8843    -9004    -9031    -8703    -8124 
   -7657    -7560    -7820    -8228    -8448    -8225    -7597    -6750 
   -5810    -4904    -4255    -4016    -4155    -4665    -5682    -7272 
   -9275   -11283   -12785   -13468   -13354   -12621   -11461   -10026 
   -8472    -7041    -6008    -5574    -5810    -6416    -6758    -6475 
   -5764    -5042    -4692    -5008    -6016    -7362    -8486    -9035 
   -9086    -8876    -8542    -8274    -8313    -8722    -9436   -10355 
  -11195   -11457   -10686    -8928    -6840    -5139    -4083    -3643 
   -3758    -4311    -5200    -6426    -7965    -9524   -10520   -10511 
   -9598    -8297    -7204    -6694    -6725    -7003    -7272    -7449 
   -7561    -7668    -7840    -8041    -8074    -7842    -7570    -7584 
   -7870    -8098    -8001    -7466    -6546    -5648    -5370    -5942 
   -6986    -7933    -8650    -9362   -10092   -10521   -10339    -9462 
   -8091    -6740    -5992    -6097    -6856    -7813    -8532    -8797 
   -8592    -7973    -7053    -6030    -5167    -4696    -4788    -5548 
   -6835    -8158    -8969    -9028    -8510    -7894    -7662    -7956 
   -8630    -9478   -10323   -10979   -11233   -10895    -9930    -8596 
   -7314    -6385    -5940    -6027    -6592    -7450    -8357    -9040 
   -9346    -9406    -9487    -9644    -9636    -9108    -7944    -6525 
   -5506    -5196    -5294    -5325    -5177    -5135    -5513    -6308 
   -7209    -7792    -7805    -7437    -7196    -7384    -7765    -7931 
   -7757    -7415    -7222    -7495    -8321    -9366   -10079   -10127 
   -9549    -8622    -7695    -6978    -6540    -6461    -6818    -7585 
   -8592    -9504    -9864    -9468    -8591    -7715    -7167    -7049 
   -7285    -7546    -7419    -6820    -6115    -5715    -5692    -5848 
   -5992    -6114    -6303    -6502    -6531    -6345    -6103    -5985 
   -6161    -6775    -7753    -8723    -9347    -9644    -9846   -10087 
  -10314   -10440   -10440   -10358   -10308   -10408   -10674   -10926 
  -10756    -9930    -8799    -7965    -7641    -7569    -7422    -7079 
   -6652    -6426    -6624    -7134    -7585    -7731    -7665    -7581 
   -7499    -7308    -6960    -6574    -6354    -6359    -6571    -7002 
   -7476    -7623    -7350    -7020    -6970    -7063    -7005    -6898 
   -7130    -7840    -8783    -9571    -9833    -9382    -8482    -7663 
   -7110    -6629    -6238    -6305    -7045    -8152    -9063    -9482 
   -9491    -9310    -9108    -8942    -8694    -8267    -7931    -8066 
   -8600    -9039    -8949    -8345    -7596    -6995    -6527    -6027 
   -5441    -4865    -4491    -4576    -5181    -6041    -6804    -7246 
   -7346    -7299    -7383    -7717    -8174    -8503    -8576    -8513 
   -8500    -8523    -8357    -7812    -7022    -6470    -6570    -7319 
   -8360    -9271    -9790    -9860    -9537    -8949    -8291    -7747 
   -7469    -7542    -7897    -8333    -8633    -8756    -8858    -8976 
   -8953    -8667    -8093    -7368    -6797    -6551    -6497    -6501 
   -6647    -7017    -7416    -7547    -7442    -7412    -7591    -7952 
   -8572    -9391   -10091   -10458   -10530   -10301    -9656    -8577 
   -7206    -5778    -4641    -4105    -4101    -4306    -4606    -5117 
   -5863    -6718    -7564    -8289    -8733    -8739    -8245    -7319 
   -6307    -5790    -6134    -7177    -8418    -9387    -9779    -9504 
   -8780    -7931    -7182    -6758    -6920    -7723    -8872    -9884 
  -10323   -10003    -9092    -7956    -7045    -6785    -7287    -8195 
   -9007    -9418    -9347    -8915    -8383    -8009    -7923    -8141 
   -8592    -9043    -9175    -8827    -8017    -6937    -5996    -5583 
   -5710    -6088    -6516    -6956    -7221    -7079    -6718    -6628 
   -7048    -7892    -9034   -10254   -11152   -11438   -11095   -10216 
   -8908    -7480    -6494    -6286    -6608    -7017    -7263    -7226 
   -6926    -6606    -6569    -6948    -7697    -8683    -9722   -10488 
  -10662   -10210    -9266    -8052    -6980    -6466    -6658    -7470 
   -8584    -9528    -9903    -9513    -8451    -7063    -5707    -4692 
   -4221    -4178    -4253    -4329    -4468    -4698    -4974    -5281 
   -5647    -6139    -6798    -7528    -8118    -8390    -8320    -8097 
   -7998    -8109    -8249    -8264    -8249    -8383    -8753    -9400 
  -10281   -11192   -11807   -11811   -11106    -9888    -8473    -7160 
   -6212    -5813    -5984    -6624    -7511    -8303    -8718    -8684 
   -8345    -7997    -7890    -8039    -8228    -8158    -7659    -6949 
   -6490    -6469    -6639    -6687    -6579    -6589    -7071    -8093 
   -9256    -9961    -9832    -8931    -7704    -6763    -6407    -6417 
   -6650    -7329    -8526    -9875   -10899   -11330   -11074   -10181 
   -9013    -8081    -7628    -7524    -7485    -7364    -7195    -6905 
   -6238    -5119    -3848    -2945    -2826    -3492    -4500    -5435 
   -6212    -6901    -7503    -7992    -8368    -8722    -9225    -9918 
  -10582   -10956   -10854   -10141    -8876    -7446    -6380    -5898 
   -5769    -5810    -6157    -6876    -7744    -8554    -9262    -9818 
  -10166   -10339   -10416   -10326    -9801    -8775    -7676    -6991 
   -6858    -7149    -7622    -8048    -8392    -8600    -8338    -7369 
   -5911    -4359    -3055    -2485    -3069    -4564    -6169    -7380 
   -8302    -9142    -9906   -10582   -11142   -11492   -11574   -11437 
  -11198   -10874   -10250    -9123    -7651    -6289    -5359    -4834 
   -4552    -4506    -4818    -5517    -6509    -7704    -8916    -9752 
   -9949    -9632    -9119    -8714    -8556    -8546    -8633    -8980 
   -9636   -10226   -10188    -9328    -8005    -6794    -6143    -6178 
   -6604    -7067    -7555    -8048    -8167    -7577    -6465    -5524 
   -5512    -6631    -8405   -10046   -10918   -10909   -10405    -9811 
   -9238    -8406    -6905    -4926    -3446    -3307    -4326    -5567 
   -6396    -7086    -8259    -9941   -11450   -12046   -11481   -10254 
   -9220    -8814    -8762    -8413    -7339    -5926    -5108    -5374 
   -6259    -6852    -6586    -5657    -4725    -4162    -3859    -3613 
   -3357    -3190    -3341    -3982    -4953    -5688    -5706    -5186 
   -4874    -5323    -6451    -7958    -9597   -11074   -12247   -13163 
  -13722   -13770   -13393   -12795   -12051   -11129   -10183    -9524 
   -9100    -8525    -7717    -7078    -7067    -7784    -8829    -9545 
   -9417    -8471    -7345    -6706    -6534    -6309    -5799    -5287 
   -5132    -5444    -6052    -6624    -6870    -6623    -6029    -5618 
   -5798    -6297    -6529    -6444    -6623    -7387    -8272    -8478 
   -7643    -6089    -4401    -3051    -2444    -2897    -4303    -6172 
   -8070    -9687   -10615   -10573    -9900    -9285    -9015    -8942 
   -9045    -9524   -10285   -10782   -10575    -9775    -8772    -7773 
   -6836    -6138    -5892    -6116    -6737    -7722    -8796    -9463 
   -9499    -9109    -8596    -8067    -7476    -6907    -6609    -6768 
   -7429    -8387    -9236    -9732    -9877    -9749    -9686   -10143 
  -11017   -11605   -11342   -10223    -8691    -7192    -5790    -4321 
   -2870    -1894    -2108    -3944    -6829    -9485   -11045   -11564 
  -11716   -12131   -12792   -13166   -12861   -12032   -11354   -11538 
  -12546   -13493   -13612   -12908   -11777   -10530    -9246    -7813 
   -6220    -4742    -3712    -3296    -3474    -4028    -4627    -5134 
   -5782    -6832    -8120    -9051    -9189    -8772    -8395    -8430 
   -8841    -9197    -9031    -8361    -7659    -7256    -6961    -6276 
   -4858    -2829     -751      680     1140      907      274    -1019 
   -3322    -6508   -10038   -13193   -15302   -16070   -15722   -14839 
  -13864   -12723   -11186    -9400    -7696    -6165    -4795    -3597 
   -2432    -1067      460     1765     2485     2651     2516     2131 
    1227     -595    -3546    -7411   -11661   -15762   -19052   -20737 
  -20571   -19028   -16699   -14072   -11547    -9278    -7296    -5822 
   -5147    -5182    -5374    -5250    -4986    -5319    -6627    -8305 
   -9375    -9346    -8287    -6704    -5431    -5256    -6243    -7578 
   -8568    -9356   -10304   -11159   -11322   -10719    -9855    -9166 
   -8842    -8997    -9520    -9967    -9873    -9016    -7452    -5512 
   -3631    -1993     -522      618     1005      313    -1621    -4668 
   -8175   -11227   -13292   -14492   -15199   -15646   -15948   -16101 
  -15901   -15103   -13744   -12137   -10462    -8619    -6696    -5094 
   -3950    -3025    -2205    -1518    -1036     -994    -1674    -3149 
   -5290    -7870   -10581   -13041   -14951   -16205   -16640   -15993 
  -14299   -11981    -9456    -6912    -4455    -2463    -1533    -1907 
   -3203    -4784    -6145    -6910    -6922    -6442    -5946    -5710 
   -5768    -6174    -7157    -8829   -10778   -12353   -13068   -12630 
  -11072    -8911    -6878    -5391    -4394    -3708    -3350    -3441 
   -3923    -4441    -4679    -4687    -4801    -5277    -5980    -6465 
   -6434    -6092    -5948    -6272    -6980    -7939    -9032    -9980 
  -10449   -10354    -9834    -8945    -7709    -6459    -5694    -5555 
   -5838    -6381    -7007    -7642    -8665   -10430   -12507   -14019 
  -14553   -14440   -14184   -13961   -13759   -13458   -12823   -11809 
  -10770   -10087    -9652    -8935    -7535    -5521    -3277    -1210 
     336     1042      669     -795    -2992    -5290    -7084    -7925 
   -7581    -6142    -3952    -1602      -16     -168    -2331    -5715 
   -9116   -11720   -13162   -13365   -12546   -11115    -9575    -8415 
   -7998    -8560    -9904   -11223   -11746   -11325   -10307    -9220 
   -8451    -8140    -8301    -8820    -9400    -9566    -8958    -7669 
   -5988    -4091    -2357    -1553    -2172    -3897    -5954    -7568 
   -8245    -7981    -7049    -5798    -4630    -3886    -3723    -4158 
   -5058    -6131    -7029    -7499    -7627    -7915    -8787   -10069 
  -11267   -12141   -12667   -12638   -11759   -10038    -7900    -5946 
   -4722    -4575    -5447    -6851    -8291    -9551   -10540   -11153 
  -11226   -10478    -8646    -5973    -3365    -1834    -1879    -3277 
   -5306    -7226    -8858   -10489   -12150   -13508   -14354   -14816 
  -15165   -15427   -15257   -14395   -12819   -10523    -7811    -5539 
   -4468    -4606    -5265    -5767    -5972    -6093    -6374    -6878 
   -7389    -7643    -7553    -7211    -6755    -6235    -5572    -4702 
   -3919    -3859    -4888    -6686    -8537    -9829   -10295    -9919 
   -8919    -7708    -6683    -6156    -6249    -6790    -7464    -8139 
   -8992   -10141   -11277   -11867   -11585   -10532    -9077    -7668 
   -6790    -6679    -7113    -7839    -8856    -9992   -10752   -10729 
   -9926    -8645    -7310    -6361    -6039    -6232    -6663    -7229 
   -7954    -8661    -8955    -8525    -7403    -5950    -4634    -3927 
   -4097    -5019    -6403    -8118   -10092   -11988   -13266   -13589 
  -13018   -11907   -10719    -9821    -9328    -9155    -9331   -10002 
  -11026   -11925   -12212   -11506    -9659    -6982    -4159    -1800 
    -148      676      440     -820    -2619    -4365    -5582    -5933 
   -5537    -5066    -5098    -5691    -6639    -7753    -8949   -10180 
  -11286   -12004   -12104   -11492   -10307    -8981    -8043    -7831 
   -8344    -9161    -9682    -9560    -8756    -7395    -5728    -4104 
   -2902    -2443    -2810    -3654    -4365    -4622    -4487    -4079 
   -3535    -3156    -3308    -4170    -5668    -7585    -9513   -10852 
  -11148   -10447    -9242    -8066    -7292    -7215    -8028    -9548 
  -11097   -12019   -12205   -11969   -11688   -11530   -11327   -10912 
  -10377    -9859    -9342    -8865    -8590    -8494    -8398    -8275 
   -8139    -7857    -7302    -6493    -5482    -4297    -3045    -1969 
   -1348    -1331    -1869    -2778    -3909    -5267    -6777    -8102 
   -8869    -8999    -8856    -9000    -9738   -10905   -12135   -13215 
  -14184   -15147   -15955   -16146   -15250   -13282   -10894    -8823 
   -7368    -6508    -6093    -5853    -5555    -5239    -5130    -5348 
   -5795    -6300    -6813    -7353    -7882    -8252    -8306    -8116 
   -7890    -7618    -7187    -6825    -6983    -7699    -8496    -8923 
   -8860    -8417    -7754    -7017    -6339    -5798    -5385    -5154 
   -5327    -6022    -6897    -7420    -7481    -7399    -7483    -7884 
   -8614    -9450   -10091   -10455   -10627   -10646   -10412    -9774 
   -8735    -7457    -6141    -5024    -4336    -4126    -4178    -4290 
   -4587    -5244    -6003    -6328    -5971    -5201    -4561    -4473 
   -5024    -6046    -7348    -8704    -9865   -10817   -11797   -12676 
  -12869   -12141   -10897    -9559    -8168    -6660    -5124    -3705 
   -2558    -1987    -2289    -3387    -4874    -6358    -7645    -8648 
   -9271    -9486    -9354    -9009    -8654    -8500    -8745    -9458 
  -10378   -11043   -11192   -10948   -10582   -10172    -9641    -8993 
   -8278    -7701    -7716    -8567    -9855   -10841   -11210   -11232 
  -11183   -10918   -10161    -8941    -7487    -6000    -4687    -3757 
   -3364    -3562    -4261    -5281    -6430    -7443    -8023    -8143 
   -8024    -7707    -7122    -6436    -5941    -5711    -5564    -5355 
   -5169    -5211    -5659    -6583    -7827    -9051   -10045   -10885 
  -11601   -11916   -11549   -10515    -9047    -7516    -6276    -5545 
   -5389    -5679    -6226    -6918    -7570    -7803    -7323    -6184 
   -4666    -3127    -2020    -1779    -2452    -3632    -4779    -5518 
   -5780    -5821    -6018    -6605    -7597    -8916   -10536   -12399 
  -14149   -15206   -15179   -14125   -12472   -10879    -9937    -9748 
