Origin Time       2025/01/13 21:19:00
Lat.              31.8
Long.             131.6
Depth. (km)       30
Mag.              6.9
Station Code      KGSH07
Station Lat.      31.7140
Station Long.     130.6149
Station Height(m) 6.405
Record Time       2025/01/13 21:19:49
Sampling Freq(Hz) 100Hz
Duration Time(s)  242
Dir.              5
Scale Factor      7845(gal)/8223790
Max. Acc. (gal)   20.916
Last Correction   2025/01/13 21:19:49
Memo.             
[...]
   21404    20723    20035    19500    19197    19147    19269    19371 
   19164    18524    17652    16916    16584    16715    17294    18266 
   19448    20513    21088    21001    20405    19612    18935    18632 
   18887    19656    20599    21309    21587    21467    21053    20532 
   20209    20308    20866    21713    22593    23315    23673    23535 
   23029    22388    21845    21627    21791    22214    22867    23778 
   24810    25747    26406    26769    27063    27526    28216    28999 
   29663    29974    29710    28783    27271    25463    23734    22414 
   21799    21963    22729    23850    24995    25818    26168    26226 
   26258    26361    26601    27025    27625    28290    28761    28908 
   28757    28360    27886    27472    27202    27211    27496    27753 
   27662    27245    26673    25975    25045    23826    22488    21236 
   20093    19017    18041    17285    16895    17046    17739    18654 
   19504    20233    20960    21817    22774    23839    25030    25982 
   26196    25589    24324    22493    20331    18330    16968    16386 
   16312    16538    17220    18459    20089    21776    23195    24286 
   25158    25832    26245    26389    26318    26134    25965    25770 
   25425    24976    24636    24695    25274    26235    27436    28692 
   29670    30032    29612    28611    27454    26388    25429    24614 
   23984    23422    22688    21574    20081    18522    17340    16910 
   17435    18882    20954    23244    25548    27784    29489    30065 
   29550    28525    27383    26160    24822    23345    21770    20301 
   19209    18636    18588    19083    20185    21856    23799    25528 
   26659    26990    26527    25461    23916    21865    19376    16754 
   14430    12722    11708    11337    11596    12440    13639    14872 
   15911    16686    17269    17787    18396    19271    20498    21909 
   23101    23758    23768    23099    21818    20214    18689    17508 
   16857    16958    18015    19975    22293    24181    25115    25131 
   24626    23920    23198    22573    22148    22023    22142    22311 
   22369    22281    22099    21779    21203    20312    19213    18138 
   17232    16571    16341    16702    17589    18841    20353    21980 
   23515    24860    25984    26863    27454    27676    27384    26484 
   25093    23400    21419    19078    16470    14006    12237    11452 
   11534    12268    13491    14980    16548    18027    19224    20109 
   20777    21277    21587    21618    21369    20953    20520    20223 
   20155    20432    21190    22462    24059    25585    26754    27561 
   28178    28738    29193    29482    29594    29531    29334    28925 
   28135    26912    25425    24021    22972    22399    22327    22727 
   23511    24499    25578    26758    27984    29122    30059    30747 
   31152    31264    31122    30747    30233    29839    29747    29871 
   29995    29987    29739    29181    28331    27306    26372    25724 
   25308    24993    24733    24644    24868    25296    25519    25091 
   23976    22553    21172    20020    19381    19626    20819    22747 
   25138    27652    29856    31224    31419    30661    29413    27962 
   26364    24637    23006    21830    21350    21568    22334    23441 
   24644    25743    26565    26908    26623    25668    24209    22655 
   21385    20436    19670    19087    18781    18798    19101    19646 
   20441    21424    22501    23684    24950    26183    27172    27707 
   27839    27761    27488    26840    25694    24210    22684    21228 
   19832    18566    17548    16799    16267    16040    16312    17100 
   18214    19504    20919    22346    23626    24736    25771    26728 
   27400    27537    27008    25793    24031    22044    20166    18642 
   17587    16995    16771    16753    16827    17066    17597    18368 
   19137    19774    20355    20817    20826    20164    19008    17629 
   16083    14508    13347    12991    13437    14492    16096    18219 
   20609    22871    24815    26476    27797    28625    28908    28656 
   27861    26531    24810    22963    21065    19084    17219    15828 
   15082    14905    15255    16123    17294    18486    19618    20672 
   21321    21132    20120    18779    17697    17118    16972    17365 
   18492    20173    21818    22913    23442    23788    24318    25053 
   25803    26454    26939    27248    27368    27309    27202    27045 
   26667    26045    25358    24790    24374    24200    24424    24966 
   25540    25791    25471    24651    23634    22617    21502    20304 
   19341    18787    18519    18239    17697    16972    16295    15754 
   15439    15541    16131    17112    18349    19607    20660    21481 
   22160    22842    23599    24320    24914    25532    26364    27392 
   28472    29548    30636    31765    32919    33828    34121    33751 
   32902    31746    30511    29328    28167    27132    26435    26167 
   26281    26667    27282    28178    29282    30314    30948    30963 
   30302    28946    26951    24732    22891    21726    21213    21263 
   21921    23217    24830    26117    26511    25743    23905    21594 
   19529    17941    16798    16056    15627    15449    15331    15016 
   14567    14295    14445    15110    16141    17093    17571    17605 
   17477    17550    18131    19318    21138    23496    25987    28061 
   29262    29509    29064    28019    26314    24294    22513    21043 
   19674    18454    17532    16969    16744    16756    16950    17244 
   17431    17502    17752    18345    19156    20056    20988    21832 
   22426    22707    22692    22520    22555    23201    24489    25987 
   27249    28109    28443    28080    26993    25513    24217    23495 
   23504    24233    25348    26383    27048    27297    27247    27024 
   26751    26576    26588    26788    27066    27303    27518    27800 
   28063    28058    27684    26981    25988    24800    23499    22175 
   21020    20129    19381    18640    17829    16829    15704    14791 
   14324    14322    14721    15439    16398    17383    18085    18419 
   18586    18862    19349    20086    21209    22774    24544    26133 
   27315    28031    28237    27909    27135    26175    25327    24717 
   24355    24239    24302    24414    24537    24706    24775    24559 
   24171    23955    24152    24765    25620    26431    26950    27039 
   26647    25901    25027    24233    23641    23271    23171    23349 
   23669    23939    23947    23568    22912    22107    21203    20371 
   19791    19419    19261    19473    20132    21216    22551    23886 
   25178    26534    27920    29143    30109    30904    31565    31891 
   31612    30665    29153    27268    25251    23291    21508    19920 
   18519    17347    16371    15498    14670    13953    13598    13761 
   14343    15134    15948    16767    17748    19026    20572    22285 
   24017    25540    26696    27332    27256    26532    25412    24165 
   23044    22137    21384    20644    19715    18523    17203    15938 
   14827    13923    13343    13219    13637    14581    15977    17780 
   19878    22003    23922    25671    27360    28848    30030    30940 
   31507    31691    31463    30720    29465    27700    25373    22640 
   19835    17226    15088    13629    12837    12665    13093    14003 
   15152    16268    17262    18222    19206    20306    21568    22719 
   23494    24058    24629    25218    25809    26406    27067    27838 
   28588    29200    29668    29990    30194    30325    30447    30631 
   30777    30696    30360    29906    29571    29555    29704    29658 
   29307    28625    27476    25849    23935    22027    20417    19255 
   18482    17918    17371    16663    15709    14701    13954    13536 
   13198    12725    12151    11676    11491    11573    11761    12009 
   12395    13059    14100    15476    17077    18854    20775    22667 
   24236    25185    25305    24665    23573    22357    21277    20486 
   20021    19921    20258    20937    21689    22329    22835    23321 
   23946    24725    25550    26357    27159    27992    28833    29489 
   29652    29139    27988    26388    24682    23263    22453    22465 
   23382    25034    26948    28579    29585    29907    29682    29029 
   28040    26873    25716    24725    23911    23202    22588    22087 
   21706    21460    21327    21277    21358    21616    22026    22538 
   23035    23363    23461    23359    23134    22882    22667    22582 
   22716    23032    23348    23537    23580    23411    22954    22229 
   21401    20684    20212    20071    20310    20927    21847    22882 
   23859    24707    25371    25802    26041    26241    26528    26950 
   27484    28040    28572    29045    29411    29766    30219    30747 
   31310    31860    32274    32448    32337    31823    30785    29335 
   27745    26234    24962    24094    23772    24024    24727    25712 
   26761    27517    27673    27229    26366    25358    24516    23985 
   23762    23793    23936    23976    23711    23016    21875    20420 
   18839    17329    16112    15302    14856    14640    14481    14312 
   14137    13909    13554    12982    12181    11279    10422     9713 
    9271     9216     9524    10096    10932    12017    13247    14511 
   15754    17010    18330    19656    20831    21709    22156    22010 
   21157    19687    17856    15924    14148    12845    12293    12588 
   13572    14883    16132    17095    17751    18191    18571    19035 
   19653    20445    21378    22411    23469    24376    25030    25509 
   26044    26883    28124    29679    31353    32945    34353    35511 
   36350    36799    36783    36297    35517    34693    33960    33377 
   33007    32833    32782    32771    32734    32625    32429    32221 
   32074    32003    31999    31943    31673    31078    30080    28741 
   27271    25938    24937    24300    24065    24271    24822    25531 
   26218    26856    27583    28408    29099    29481    29578    29444 
   29100    28536    27715    26634    25290    23701    21937    20058 
   18094    16108    14249    12637    11315    10308     9597     9224 
    9290     9803    10705    11904    13306    14818    16272    17539 
   18543    19183    19408    19269    18846    18226    17560    16997 
   16557    16164    15739    15259    14781    14413    14257    14345 
   14673    15172    15664    15971    15931    15434    14575    13624 
   12889    12618    12961    14006    15759    18088    20710    23209 
   25204    26604    27560    28225    28703    29029    29207    29284 
   29269    29106    28767    28255    27642    27122    26879    26943 
   27243    27612    27862    27953    27939    27900    27958    28185 
   28549    28949    29263    29388    29203    28610    27579    26131 
   24386    22557    20889    19504    18409    17670    17373    17554 
   18126    18875    19583    20112    20470    20744    21001    21273 
   21604    22098    22815    23688    24632    25591    26554    27534 
   28525    29434    30126    30523    30584    30389    30100    29829 
   29674    29706    29961    30470    31197    32031    32830    33465 
   33844    33895    33571    32873    31923    30928    30011    29208 
   28559    28150    27986    27942    27923    27972    28194    28649 
   29247    29845    30362    30721    30711    30044    28647    26690 
   24417    22021    19665    17598    16024    14926    14145    13532 
   12996    12451    11885    11369    10943    10647    10489    10384 
   10224     9911     9387     8692     7936     7298     6975     7078 
    7608     8550     9830    11246    12557    13635    14500    15244 
   15893    16406    16767    16980    16988    16753    16314    15708 
   14955    14115    13338    12806    12603    12796    13450    14494 
   15793    17182    18482    19596    20549    21443    22323    23178 
   23977    24684    25292    25758    25983    25955    25740    25355 
   24760    23998    23224    22535    21964    21570    21416    21474 
   21647    21853    22045    22164    22125    21860    21425    20973 
   20653    20545    20672    21016    21508    22019    22397    22644 
   22940    23373    23936    24634    25429    26234    26964    27572 
   28058    28445    28698    28768    28730    28675    28620    28637 
   28800    29111    29575    30237    31147    32255    33393    34404 
   35251    35989    36653    37224    37638    37824    37839    37758 
   37544    37145    36595    36016    35507    35075    34641    34076 
   33313    32387    31388    30415    29529    28729    28003    27421 
   27093    27081    27380    27924    28618    29331    29917    30288 
   30341    29997    29309    28399    27417    26476    25577    24664 
   23680    22551    21230    19761    18230    16741    15407    14311 
   13522    13046    12769    12582    12464    12425    12469    12667 
   12982    13254    13510    13923    14477    15026    15539    16089 
   16684    17267    17791    18154    18307    18349    18462    18851 
   19664    20892    22411    24101    25813    27345    28559    29419 
   29959    30269    30431    30499    30510    30462    30275    29878 
   29308    28661    28039    27533    27140    26793    26480    26253 
   26125    26018    25809    25436    24968    24443    23734    22802 
   21756    20682    19684    18939    18531    18430    18644    19102 
   19607    19967    19971    19468    18449    16910    14864    12428 
    9825     7292     5035     3237     1984     1216      845      882 
    1379     2332     3771     5660     7852    10191    12440    14377 
   15870    16827    17278    17366    17267    17177    17277    17648 
   18207    18894    19753    20795    21937    23039    24016    24822 
   25463    25980    26314    26391    26223    25818    25182    24324 
   23263    22033    20655    19299    18260    17790    18000    18774 
   19886    21161    22383    23279    23670    23556    23121    22650 
   22353    22319    22576    23082    23762    24547    25375    26225 
   27068    27918    28837    29818    30719    31357    31630    31491 
   30848    29640    27976    26059    24031    21961    19920    18040 
   16461    15215    14295    13772    13682    13986    14702    15869 
   17432    19233    21118    22985    24763    26426    28008    29527 
   30913    32177    33435    34697    35922    37089    38094    38842 
   39312    39510    39428    39028    38412    37812    37366    37066 
   36803    36456    35999    35418    34651    33758    32915    32242 
   31761    31382    30985    30514    29918    29111    28024    26777 
   25633    24732    24046    23519    23098    22712    22307    21878 
   21447    21058    20763    20613    20699    21077    21668    22292 
   22858    23444    24081    24687    25254    25860    26577    27375 
   28167    28907    29554    30057    30343    30391    30256    29968 
   29515    28877    28116    27317    26492    25660    24891    24255 
   23758    23322    22918    22554    22171    21748    21357    21093 
   20973    20915    20822    20636    20343    19899    19271    18539 
   17859    17409    17335    17691    18396    19215    19903    20312 
   20356    20024    19390    18604    17879    17358    17069    17016 
   17128    17185    16977    16482    15769    14866    13791    12640 
   11535    10534     9649     8895     8290     7869     7649     7599 
    7690     7938     8302     8689     9034     9296     9475     9564 
    9564     9520     9487     9586     9927    10486    11209    12079 
   13058    14100    15195    16335    17427    18389    19238    20052 
   20895    21694    22376    23043    23832    24759    25744    26731 
   27677    28533    29258    29822    30242    30586    30890    31141 
   31336    31502    31617    31572    31305    30802    30075    29145 
   28028    26771    25447    24136    22959    22045    21506    21304 
   21253    21240    21259    21316    21398    21510    21629    21722 
   21811    21886    21864    21732    21527    21251    20881    20461 
   20102    19919    19934    20097    20358    20634    20838    20929 
   20923    20945    21138    21554    22248    23263    24502    25752 
   26844    27735    28428    28962    29344    29559    29687    29818 
   29987    30172    30250    30121    29785    29255    28476    27438 
   26303    25299    24603    24279    24241    24401    24698    25004 
   25165    25142    25023    24922    24985    25357    26090    27141 
   28347    29570    30775    31927    32927    33667    34109    34221 
   33953    33304    32329    31197    30121    29209    28463    27797 
   27105    26281    25236    23922    22365    20713    19201    18034 
   17327    17064    17140    17396    17693    17996    18274    18426 
   18365    18112    17767    17400    17049    16792    16771    17082 
   17672    18382    19035    19453    19492    19099    18408    17659 
   17049    16708    16622    16632    16548    16193    15452    14347 
   13027    11666    10477     9698     9490     9876    10790    12121 
   13714    15371    16960    18480    20005    21635    23411    25307 
   27267    29253    31172    32840    34094    34879    35251    35372 
   35429    35526    35677    35823    35857    35679    35245    34566 
   33708    32806    32005    31375    30871    30396    29899    29324 
   28547    27449    26063    24520    22967    21535    20324    19421 
   18835    18505    18392    18422    18473    18528    18684    19045 
   19696    20661    21799    22887    23796    24424    24628    24316 
   23510    22396    21277    20383    19768    19377    19130    18929 
   18732    18561    18458    18468    18642    19053    19700    20472 
   21298    22149    22983    23750    24439    25096    25776    26524 
   27338    28125    28813    29382    29840    30125    30102    29710 
   28948    27874    26717    25737    25080    24823    24981    25427 
   25948    26316    26311    25845    25018    24036    23180    22708 
   22736    23232    24070    25018    25779    26153    26049    25461 
   24479    23220    21790    20279    18778    17432    16340    15561 
   15178    15219    15646    16341    17157    17948    18570    18908 
   18918    18694    18450    18327    18314    18354    18416    18436 
   18346    18072    17474    16529    15461    14532    13875    13545 
   13579    13949    14534    15153    15660    15998    16194    16349 
   16603    17012    17582    18310    19230    20397    21756    23209 
   24675    26079    27322    28301    28972    29326    29394    29292 
   29123    28945    28773    28607    28486    28420    28368    28273 
   28120    27945    27712    27341    26802    26114    25251    24146 
   22785    21235    19623    18129    16896    16012    15461    15099 
   14773    14381    13864    13178    12409    11758    11392    11477 
   12131    13312    14867    16563    18142    19395    20185    20472 
   20316    19858    19299    18833    18611    18679    19029    19620 
   20394    21261    22095    22783    23198    23226    22869    22184 
   21331    20628    20391    20742    21651    23059    24833    26681 
   28202    29116    29455    29412    29174    28930    28814    28900 
   29173    29529    29884    30180    30381    30505    30601    30774 
