Origin Time       2025/01/13 21:19:00
Lat.              31.8
Long.             131.6
Depth. (km)       30
Mag.              6.9
Station Code      KGSH08
Station Lat.      31.5618
Station Long.     130.9969
Station Height(m) 96.897
Record Time       2025/01/13 21:19:45
Sampling Freq(Hz) 100Hz
Duration Time(s)  120
Dir.              5
Scale Factor      3920(gal)/6170801
Max. Acc. (gal)   12.577
Last Correction   2025/01/13 21:19:30
Memo.             
[...]
   -4264    -4272    -4273    -4272    -4273    -4269    -4268    -4269 
   -4262    -4262    -4272    -4268    -4256    -4261    -4276    -4273 
   -4269    -4283    -4287    -4274    -4269    -4260    -4237    -4226 
   -4237    -4246    -4248    -4261    -4278    -4282    -4287    -4293 
   -4275    -4248    -4241    -4236    -4231    -4228    -4220    -4225 
   -4255    -4289    -4303    -4309    -4323    -4327    -4313    -4297 
   -4279    -4257    -4245    -4244    -4247    -4259    -4281    -4292 
   -4283    -4273    -4280    -4309    -4345    -4347    -4315    -4294 
   -4298    -4307    -4311    -4306    -4290    -4271    -4237    -4202 
   -4214    -4269    -4295    -4260    -4214    -4198    -4220    -4235 
   -4192    -4141    -4116    -4074    -4050    -4083    -4123    -4167 
   -4226    -4262    -4291    -4330    -4322    -4264    -4206    -4116 
   -4023    -4016    -4034    -4026    -4072    -4136    -4157    -4197 
   -4261    -4283    -4260    -4192    -4041    -3824    -3682    -3747 
   -3938    -4082    -4155    -4234    -4311    -4325    -4284    -4277 
   -4340    -4358    -4206    -3976    -3864    -3896    -3989    -4131 
   -4291    -4406    -4504    -4556    -4478    -4369    -4324    -4322 
   -4362    -4358    -4286    -4309    -4329    -4154    -4023    -4153 
   -4291    -4220    -4130    -4232    -4487    -4715    -4775    -4710 
   -4624    -4496    -4388    -4400    -4344    -4083    -3853    -3862 
   -4051    -4329    -4588    -4668    -4660    -4699    -4616    -4314 
   -3902    -3542    -3400    -3368    -3310    -3398    -3699    -4072 
   -4388    -4532    -4506    -4526    -4737    -4912    -4763    -4373 
   -3960    -3691    -3773    -4187    -4550    -4561    -4306    -4064 
   -4070    -4334    -4654    -4830    -4641    -4086    -3646    -3679 
   -4063    -4556    -4753    -4408    -4072    -4261    -4676    -5031 
   -5342    -5350    -4884    -4287    -3976    -4000    -4084    -4051 
   -4075    -4322    -4706    -5042    -5136    -4986    -4895    -5133 
   -5631    -6079    -6187    -5818    -5104    -4600    -4645    -4739 
   -4408    -3823    -3309    -3151    -3287    -3322    -3371    -3813 
   -4403    -4678    -4555    -4414    -4799    -5333    -4898    -3528 
   -2372    -2036    -2472    -3443    -4274    -4321    -3950    -4214 
   -5407    -6445    -6093    -4434    -2748    -2233    -2932    -3901 
   -4242    -3792    -3241    -3438    -4296    -4930    -4896    -4495 
   -3968    -3261    -2413    -1714    -1490    -1783    -2349    -2876 
   -3070    -2864    -2779    -3464    -4530    -4802    -4039    -3259 
   -3316    -4120    -5111    -5759    -5756    -5297    -4938    -4963 
   -5001    -4447    -3601    -3329    -3551    -3664    -3604    -3632 
   -4033    -4845    -5712    -6342    -6614    -6435    -6036    -5789 
   -5518    -4842    -3979    -3478    -3520    -3812    -4097    -4475 
   -4951    -5186    -5009    -4539    -3951    -3521    -3375    -3400 
   -3572    -3918    -4397    -5019    -5763    -6449    -6813    -6714 
   -6231    -5414    -4218    -2968    -2266    -2401    -3237    -4176 
   -4597    -4706    -5084    -5851    -6883    -7692    -7442    -5996 
   -4102    -2710    -2346    -2659    -3021    -3186    -3238    -3547 
   -4229    -4864    -5060    -4739    -4159    -3674    -3278    -2858 
   -2571    -2603    -2996    -3720    -4576    -5139    -4978    -4156 
   -3360    -3110    -3225    -3394    -3659    -4009    -4139    -4048 
   -4215    -4847    -5493    -5650    -5350    -4871    -4315    -3826 
   -3742    -4115    -4466    -4485    -4504    -4736    -4872    -4832 
   -4904    -4967    -4559    -3746    -3104    -2851    -2718    -2731 
   -3371    -4738    -6231    -7221    -7354    -6414    -4697    -3010 
   -1933    -1439    -1251    -1366    -1874    -2660    -3584    -4513 
   -5343    -5921    -6089    -6100    -6199    -6051    -5340    -4307 
   -3534    -3408    -3745    -4192    -4618    -4764    -4517    -4444 
   -4963    -5495    -5198    -4072    -2989    -2748    -3333    -4186 
   -4764    -4699    -4127    -3683    -3758    -4081    -4103    -3677 
   -3201    -3013    -3072    -3211    -3272    -3142    -2791    -2457 
   -2624    -3318    -4093    -4646    -4712    -4275    -3879    -3904 
   -4265    -4820    -5212    -4890    -4047    -3619    -3904    -4541 
   -5136    -5169    -4777    -4901    -5747    -6513    -6445    -5401 
   -4137    -3640    -3906    -4264    -4362    -4287    -4334    -4650 
   -5088    -5467    -5572    -5144    -4314    -3579    -3108    -2820 
   -2911    -3413    -3882    -3991    -3914    -4146    -4941    -5834 
   -6045    -5302    -4045    -3220    -3669    -4934    -5557    -4880 
   -3586    -2929    -3529    -4826    -5912    -6122    -5348    -4236 
   -3383    -2976    -2994    -3034    -2962    -3316    -4293    -5390 
   -6117    -6330    -6164    -5862    -5581    -5348    -4983    -4176 
   -3099    -2400    -2355    -2758    -3142    -3141    -3059    -3365 
   -4103    -5006    -5636    -5813    -5825    -6014    -6218    -5871 
   -4972    -4050    -3351    -2942    -2680    -2150    -1558    -1843 
   -3309    -5119    -6287    -6380    -5678    -5005    -4814    -4808 
   -4629    -4202    -3619    -3061    -2619    -2298    -2055    -1836 
   -1857    -2370    -3151    -3746    -3824    -3491    -3292    -3386 
   -3621    -4133    -4871    -5438    -5699    -5880    -6202    -6453 
   -6119    -5265    -4710    -5021    -5928    -6686    -6686    -5991 
   -5336    -5305    -5624    -5422    -4238    -2774    -2121    -2379 
   -2862    -3242    -3640    -4010    -4263    -4500    -4570    -4158 
   -3432    -3006    -3204    -3395    -2695    -1503    -1256    -2411 
   -3939    -4964    -5273    -4963    -4849    -5457    -5993    -5518 
   -4124    -2768    -2136    -1988    -2003    -2371    -3283    -4626 
   -5975    -6529    -5774    -4269    -2900    -2013    -1770    -2096 
   -2612    -3432    -4870    -6433    -7251    -7166    -6898    -7081 
   -7398    -6885    -5034    -2573    -1002    -1343    -3386    -5733 
   -6799    -6313    -5359    -4711    -4084    -3117    -2155    -1948 
   -2722    -3870    -4786    -5234    -5264    -5467    -6198    -6785 
   -6581    -5756    -4833    -4289    -4217    -4200    -4007    -3993 
   -4189    -4103    -3825    -3784    -3904    -4138    -4594    -4921 
   -4707    -4144    -3832    -4040    -4527    -5132    -5748    -5992 
   -5612    -4676    -3395    -2224    -1802    -2231    -2801    -3039 
   -3188    -3581    -4306    -4991    -5228    -5267    -5443    -5908 
   -6807    -7409    -6590    -4534    -2572    -1948    -2715    -3600 
   -3678    -3342    -3213    -3136    -2723    -2137    -1728    -1674 
   -2072    -2720    -3087    -2914    -2880    -4012    -6134    -7928 
   -8551    -8069    -6970    -6056    -5834    -5890    -5498    -4595 
   -3685    -3040    -2680    -2767    -3300    -4019    -4792    -5333 
   -5207    -4672    -4477    -4859    -5438    -5654    -5170    -4194 
   -3424    -3451    -3933    -4159    -4322    -4767    -5033    -4719 
   -4044    -3596    -3945    -4850    -5406    -5083    -4022    -3119 
   -3403    -4331    -4265    -2755     -656      819      762     -379 
   -1425    -2239    -3439    -5157    -6698    -7080    -6088    -4557 
   -3570    -3545    -4012    -4248    -3897    -3414    -3570    -4059 
   -3883    -2975    -2226    -2471    -3779    -5411    -6403    -6306 
   -5612    -5275    -5736    -6726    -7585    -7687    -7044    -6312 
   -5749    -4947    -4001    -3577    -3823    -4503    -5410    -6141 
   -6414    -6446    -6392    -5964    -5073    -4269    -4089    -4539 
   -5132    -5270    -4906    -4382    -3925    -3754    -3814    -3791 
   -3793    -4252    -5048    -5243    -4313    -2889    -1732    -1236 
   -1542    -2302    -3040    -3446    -3458    -3358    -3316    -3293 
   -3340    -3576    -4153    -4899    -5336    -5353    -5051    -4450 
   -3801    -3458    -3482    -3696    -3891    -3915    -3672    -3204 
   -2879    -3070    -3751    -4728    -5842    -6794    -7160    -6702 
   -5601    -4321    -3400    -3075    -3116    -3337    -3645    -3817 
   -3848    -3718    -3223    -2731    -2977    -4020    -5147    -5538 
   -4887    -3710    -2947    -2974    -3364    -3600    -3533    -3395 
   -3426    -3607    -4031    -4644    -4930    -4765    -4402    -3798 
   -3037    -2519    -2567    -3111    -3395    -2877    -2280    -2461 
   -3312    -4492    -5678    -6193    -5661    -4625    -3817    -3375 
   -3243    -3448    -3653    -3512    -3105    -2474    -1839    -1727 
   -2026    -2080    -1755    -1626    -2206    -3301    -4439    -5332 
   -5627    -5275    -4902    -4739    -4191    -3256    -2817    -3171 
   -3928    -4817    -5290    -4891    -4147    -3645    -3344    -3022 
   -2506    -2065    -2308    -3335    -4644    -5726    -6408    -6687 
   -6607    -6344    -5948    -5265    -4288    -3219    -2307    -1927 
   -2583    -4271    -6084    -7041    -7136    -7073    -7163    -7319 
   -7587    -7762    -7510    -6896    -6058    -5101    -4355    -4210 
   -4857    -5934    -6509    -6134    -5645    -6241    -8096   -10001 
  -10360    -8760    -6096    -3701    -2818    -3715    -5172    -5812 
   -5784    -6235    -7403    -8596    -9372    -9471    -8720    -7444 
   -5937    -4238    -2796    -2404    -3445    -5428    -7149    -7544 
   -6474    -4682    -2900    -1206      420     1582     1932     1322 
    -423    -3125    -5976    -7988    -8481    -7321    -5122    -2791 
    -910       23     -181     -760     -863     -628     -797    -1884 
   -3709    -5565    -6631    -6420    -5420    -4646    -4596    -5258 
   -6224    -6813    -6739    -6113    -5058    -3814    -2574    -1226 
     380     2132     3604     4412     4426     3569     2251     1501 
    1738     2254     2332     1972     1460     1098     1175     1605 
    2063     2509     2843     2460      973    -1346    -4062    -6615 
   -8295    -8840    -8606    -8181    -8079    -8387    -8755    -8921 
   -8885    -8804    -9069   -10020   -11220   -11440   -10172    -8707 
   -8611   -10027   -11949   -13105   -12900   -12036   -11736   -12388 
  -13436   -14058   -13623   -12341   -11167   -10581   -10316   -10011 
   -9577    -9256    -9362    -9738    -9661    -8731    -7581    -7031 
   -7172    -7639    -7900    -7484    -6307    -4571    -2554     -341 
    2124     4575     6434     7177     6715     5468     3978     2883 
    2662     2813     2344     1129     -200    -1299    -2098    -2277 
   -1681     -860     -598    -1168    -2153    -2866    -2931    -2404 
   -1508     -572     -105     -382    -1170    -2280    -3773    -5563 
   -7476    -9467   -11326   -12568   -12863   -12381   -11749   -11423 
  -11145   -10376    -8771    -6324    -3509     -848     1467     3338 
    4659     5178     4528     2953     1352      471      386      534 
     436      262      320      536      660      617      505      315 
    -172    -1180    -2723    -4507    -5751    -5681    -4577    -3465 
   -2811    -2326    -1592     -539      399      757      706      788 
    1003      895       67    -1668    -3596    -4480    -4353    -4445 
   -5491    -7012    -7992    -7946    -7376    -7162    -7584    -8313 
   -8946    -9207    -9369   -10049   -11298   -12649   -13651   -14229 
  -14686   -14877   -14209   -12848   -11677   -11169   -11119   -11126 
  -10858   -10219    -9493    -9008    -8660    -7946    -6620    -5250 
   -4649    -4851    -5133    -5142    -5212    -5358    -5232    -4950 
   -4800    -4756    -4724    -4784    -5033    -5137    -4396    -2658 
    -877      -94     -196     -590    -1210    -1935    -2220    -1795 
    -841      397     1747     3140     4554     5956     7500     9182 
   10279    10182     9275     8226     7154     5800     4021     2000 
     173     -988    -1284     -924     -442     -453     -975    -1306 
   -1061     -787    -1283    -2597    -4046    -5100    -5660    -5815 
   -5888    -6302    -7016    -7368    -7075    -6902    -7375    -8041 
   -8602    -9151    -9655   -10245   -11089   -12043   -13033   -14105 
  -15141   -15968   -16402   -16103   -14899   -13259   -11799   -10582 
   -9407    -8396    -8044    -8639    -9717   -10355    -9987    -8798 
   -7315    -6165    -5854    -6088    -6343    -6848    -7739    -8395 
   -8278    -7443    -6286    -5240    -4531    -4063    -3640    -3385 
   -3615    -4482    -5902    -7353    -8304    -8891    -9393    -9689 
   -9445    -8391    -6702    -4993    -3774    -3000    -2175     -972 
     383     1248     1172      479     -217     -699     -946    -1059 
   -1372    -2087    -2860    -2950    -2122    -1118     -696     -698 
    -740    -1160    -2248    -3405    -4073    -4327    -4345    -4316 
   -4531    -5190    -6214    -7167    -7443    -6781    -5636    -4708 
   -4300    -4411    -5018    -5846    -6273    -6013    -5300    -4333 
   -3332    -2523    -1778     -962     -285     -128     -510     -801 
    -462      342     1159     1921     3021     4539     6075     7546 
    9199    10985    12423    13020    12557    10996     8682     6423 
    4925     4387     4346     4199     4046     4055     3850     3261 
    2283      649    -1599    -3819    -5593    -7497   -10315   -13733 
  -16605   -18102   -18318   -17894   -17260   -16656   -16372   -16643 
  -17395   -18142   -18651   -19067   -19233   -19065   -18814   -18598 
  -18639   -19300   -20611   -22293   -23733   -24067   -22939   -21065 
  -19559   -18349   -16253   -12937    -9294    -6298    -4451    -3555 
   -2982    -2305    -1443     -704     -469     -319      685     2646 
    4934     7133     8942    10221    11191    11884    12023    11461 
   10483     9735     9607     9877    10198    10386    10017     8652 
    6735     5142     4185     3722     3112     1680     -208    -1977 
   -3528    -4599    -5107    -5446    -5760    -5735    -5312    -5176 
   -5841    -6877    -7716    -8105    -8027    -7862    -7983    -8494 
   -9423   -10503   -11212   -11325   -10956   -10095    -8990    -8518 
   -9009    -9832   -10142    -9228    -7152    -4488    -1558     1186 
    3462     5469     7065     7777     7383     6065     4474     3136 
    1892      629     -145     -136      241      403     -111    -1371 
   -2639    -2969    -2341    -1746    -2161    -3617    -5349    -6566 
   -7114    -7503    -8128    -8951    -9929   -10918   -11675   -12319 
  -12996   -13557   -13945   -14061   -13777   -13339   -12933   -12512 
  -12235   -12413   -13217   -14519   -16040   -17465   -18232   -17769 
  -16256   -14675   -13703   -13155   -12520   -11244    -9253    -7496 
   -7111    -8168    -9703   -10578    -9879    -7690    -5557    -4656 
   -4774    -5196    -5136    -4588    -4525    -5393    -6768    -8021 
   -8350    -7316    -5505    -3627    -1514     1034     3499     5196 
    5607     4867     3990     3491     2825     1645      224     -975 
   -1340     -687      379     1349     2205     3048     3752     3750 
    2796     1690     1474     2341     3404     3631     2802     1346 
      42     -542     -775    -1345    -2309    -3032    -2718    -1546 
    -670     -500     -532     -564     -520     -458     -905    -1962 
   -3088    -3832    -3958    -3563    -3033    -2621    -2230    -1613 
    -909     -730    -1387    -2263    -2305    -1497    -1071    -1772 
   -3092    -4215    -4816    -4933    -4636    -4365    -4631    -5137 
   -5314    -5227    -5165    -4923    -4175    -3142    -2262    -1733 
   -1659    -1975    -2441    -3059    -3979    -5068    -5878    -5918 
   -5248    -4778    -5493    -7070    -8078    -8102    -8123    -8976 
  -10722   -12448   -12878   -11885   -10217    -8265    -6187    -4257 
   -2602    -1337    -1191    -2835    -5493    -7473    -7995    -7849 
   -8189    -9035    -9489    -8736    -6584    -3929    -2084    -1471 
   -1691    -2138    -2517    -3082    -3710    -3519    -2343    -1510 
   -2022    -2947    -3177    -3057    -3146    -3651    -4899    -6956 
   -8951    -9532    -8783    -7946    -7077    -5589    -3862    -2842 
   -3286    -5123    -7145    -7908    -6904    -4602    -1939      173 
    1892     4254     7349     9983    11015    10301     8395     5811 
    3155      837    -1410    -3300    -3774    -2712     -883      903 
    1973     2432     2637     2116      571    -1681    -4298    -6157 
   -6034    -4312    -2146     -529      -65     -335     -860    -1988 
   -3703    -5376    -6810    -8072    -9168   -10121   -10711   -10887 
  -11075   -11465   -11948   -12878   -14704   -16765   -17930   -18034 
  -17118   -15214   -13393   -12524   -12294   -12348   -12505   -12803 
  -13566   -14312   -14072   -12749   -10949    -9509    -9087    -9618 
  -10665   -11623   -11818   -11294   -10562    -9522    -7631    -4804 
   -1750      448     1160      780      184     -226     -625    -1387 
   -2676    -3960    -4428    -4122    -3936    -4296    -4675    -4734 
   -4693    -4477    -3832    -2445      -43     2586     4301     4943 
    4754     3866     2374      362    -2059    -4513    -5873    -5470 
   -4110    -2159      717     3793     6080     7380     7680     6994 
    5391     2828     -352    -3097    -4724    -5639    -6170    -6003 
   -5172    -4316    -3801    -3398    -3131    -3234    -3449    -3609 
   -3725    -3528    -3066    -2766    -3089    -4394    -6307    -7729 
   -8019    -7593    -7238    -7227    -7190    -6568    -5176    -3584 
   -2739    -3158    -4815    -7121    -9015   -10087   -10754   -11077 
  -10856   -10347    -9854    -9271    -8466    -7829    -7880    -8617 
   -9703   -10771   -11539   -11701   -10884    -9448    -8326    -7588 
   -6523    -4908    -3391    -2984    -4053    -5775    -7038    -7420 
   -7191    -7046    -7431    -7729    -6903    -4650    -1555     1099 
    2484     3277     4171     4784     4893     4672     3934     2640 
    1281       72    -1108    -2186    -3226    -4427    -5760    -7156 
   -8269    -8533    -8020    -7419    -7274    -7360    -7116    -6488 
   -5414    -3867    -2693    -2494    -2530    -1931     -826      -42 
    -240     -940     -499     2021     5409     7832     8651     8138 
    7219     7128     7899     8299     7419     5548     3943     3625 
    4465     5596     6180     5983     5220     3912     1958     -584 
   -3336    -5743    -7812    -9888   -11679   -12689   -12612   -11275 
   -9383    -7845    -6541    -5184    -3907    -2947    -2894    -3994 
   -5249    -5387    -4062    -2034     -808    -1485    -3738    -6363 
   -8641   -10685   -12665   -14390   -15429   -15366   -14370   -13060 
  -11757   -10491    -9295    -8421    -8394    -9352   -10574   -11172 
  -11133   -11039   -10892   -10276    -9148    -7878    -7229    -7873 
   -9496   -11179   -12339   -12823   -12937   -13293   -13857   -13767 
  -12567   -10719    -8759    -7151    -6363    -6308    -6754    -7781 
   -9131   -10200   -10389    -9162    -6758    -4374    -2947    -2215 
   -1169      500     2018     2841     3265     3778     4429     4895 
    4892     4190     2918     1765      939      -37    -1430    -3091 
   -4427    -4831    -4515    -4268    -4585    -5129    -5227    -4809 
   -4294    -4144    -4566    -5368    -6282    -7157    -7967    -8725 
