Origin Time       2025/01/13 21:19:00
Lat.              31.8
Long.             131.6
Depth. (km)       30
Mag.              6.9
Station Code      KGSH01
Station Lat.      32.1554
Station Long.     130.1191
Station Height(m) -187.134
Record Time       2025/01/13 21:19:55
Sampling Freq(Hz) 100Hz
Duration Time(s)  229
Dir.              1
Scale Factor      3923(gal)/8224838
Max. Acc. (gal)   1.654
Last Correction   2025/01/13 21:19:56
Memo.             
[...]
   27980    27985    27986    27997    28015    28024    28030    28040 
   28058    28065    28055    28032    28003    27963    27919    27884 
   27872    27874    27876    27862    27831    27781    27695    27571 
   27419    27252    27086    26947    26852    26812    26820    26863 
   26939    27048    27171    27288    27391    27463    27498    27496 
   27461    27399    27329    27260    27189    27125    27079    27039 
   26991    26925    26829    26721    26626    26562    26534    26528 
   26541    26561    26570    26563    26543    26526    26520    26527 
   26550    26588    26630    26650    26635    26585    26504    26419 
   26357    26318    26296    26295    26310    26330    26361    26415 
   26493    26595    26715    26828    26919    26997    27070    27133 
   27179    27198    27199    27194    27182    27167    27147    27125 
   27099    27074    27049    27025    27013    27027    27056    27087 
   27122    27184    27287    27425    27577    27718    27824    27882 
   27884    27832    27750    27654    27573    27534    27540    27573 
   27606    27614    27622    27652    27687    27723    27769    27805 
   27826    27846    27892    27966    28057    28146    28227    28289 
   28327    28348    28363    28372    28379    28399    28431    28447 
   28435    28395    28335    28260    28161    28031    27882    27735 
   27596    27465    27344    27244    27167    27110    27068    27058 
   27089    27168    27287    27410    27511    27587    27631    27654 
   27666    27677    27685    27696    27718    27737    27741    27738 
   27738    27742    27745    27742    27746    27757    27778    27815 
   27859    27904    27949    27997    28050    28108    28162    28221 
   28305    28429    28588    28761    28925    29077    29218    29330 
   29398    29446    29484    29515    29550    29600    29655    29705 
   29756    29802    29836    29855    29849    29808    29736    29643 
   29543    29439    29328    29226    29143    29088    29047    29015 
   28993    28984    28983    28991    29010    29023    28999    28915 
   28779    28606    28399    28155    27893    27635    27406    27218 
   27071    26952    26859    26789    26738    26697    26651    26600 
   26550    26495    26424    26333    26214    26075    25920    25767 
   25644    25551    25478    25421    25375    25346    25334    25330 
   25335    25354    25377    25388    25375    25353    25336    25327 
   25309    25284    25257    25243    25235    25235    25273    25359 
   25483    25637    25805    25975    26149    26316    26455    26557 
   26623    26659    26666    26658    26657    26671    26696    26725 
   26759    26789    26800    26781    26744    26693    26624    26534 
   26428    26315    26202    26095    26006    25952    25944    25980 
   26056    26165    26291    26404    26492    26574    26665    26759 
   26856    26973    27109    27261    27432    27633    27857    28089 
   28310    28507    28668    28784    28853    28881    28875    28837 
   28780    28718    28665    28624    28588    28553    28525    28514 
   28512    28503    28490    28478    28487    28536    28624    28740 
   28863    28972    29069    29153    29216    29253    29254    29234 
   29204    29162    29101    29029    28946    28854    28764    28683 
   28618    28578    28566    28578    28601    28624    28633    28625 
   28606    28567    28495    28390    28251    28078    27881    27679 
   27490    27309    27126    26954    26798    26661    26555    26491 
   26451    26415    26380    26345    26312    26277    26237    26202 
   26181    26165    26138    26109    26088    26076    26077    26100 
   26154    26231    26318    26404    26480    26542    26585    26600 
   26582    26547    26501    26451    26420    26415    26423    26450 
   26501    26574    26667    26778    26896    26997    27072    27147 
   27229    27315    27396    27469    27537    27616    27697    27772 
   27847    27932    28021    28108    28194    28291    28386    28455 
   28502    28548    28588    28618    28648    28686    28722    28734 
   28722    28701    28688    28696    28728    28776    28836    28887 
   28911    28914    28904    28877    28834    28787    28744    28706 
   28682    28665    28653    28642    28626    28610    28595    28570 
   28522    28456    28378    28289    28198    28121    28057    27999 
   27947    27903    27855    27795    27720    27645    27583    27531 
   27465    27376    27282    27184    27082    26981    26885    26801 
   26739    26697    26680    26693    26736    26794    26852    26897 
   26925    26925    26881    26796    26685    26545    26381    26212 
   26071    25984    25947    25938    25968    26048    26177    26353 
   26553    26761    26974    27176    27352    27491    27588    27652 
   27688    27699    27683    27645    27598    27548    27496    27442 
   27395    27367    27352    27342    27333    27319    27306    27298 
   27290    27295    27324    27378    27454    27557    27681    27818 
   27961    28109    28260    28413    28555    28683    28792    28876 
   28938    28991    29035    29066    29089    29108    29118    29104 
   29068    29006    28907    28775    28606    28398    28163    27913 
   27665    27432    27216    27025    26873    26757    26666    26590 
   26522    26457    26392    26326    26257    26183    26106    26032 
   25963    25924    25925    25963    26033    26131    26238    26350 
   26473    26590    26692    26779    26844    26886    26910    26913 
   26898    26874    26842    26813    26805    26821    26851    26889 
   26925    26954    26968    26967    26952    26932    26917    26912 
   26916    26909    26867    26786    26673    26538    26392    26258 
   26158    26100    26071    26055    26055    26069    26088    26100 
   26090    26055    26002    25933    25853    25778    25708    25639 
   25574    25531    25517    25532    25569    25623    25693    25779 
   25876    25978    26080    26176    26261    26338    26410    26481 
   26570    26690    26836    27008    27209    27423    27635    27832 
   28003    28151    28279    28368    28417    28433    28439    28447 
   28451    28443    28433    28424    28410    28389    28360    28321 
   28271    28220    28177    28158    28167    28197    28240    28294 
   28351    28402    28444    28463    28447    28404    28354    28309 
   28269    28229    28190    28155    28124    28084    28032    27980 
   27936    27899    27861    27824    27795    27766    27731    27685 
   27635    27584    27537    27502    27486    27476    27475    27486 
   27513    27561    27623    27693    27780    27889    28016    28147 
   28264    28366    28451    28505    28518    28491    28428    28331 
   28204    28063    27924    27793    27680    27598    27546    27508 
   27469    27426    27388    27352    27313    27272    27236    27220 
   27232    27280    27369    27490    27637    27804    27973    28134 
   28277    28394    28483    28540    28568    28586    28593    28582 
   28566    28549    28524    28497    28480    28470    28453    28425 
   28381    28316    28232    28139    28039    27930    27815    27703 
   27591    27473    27355    27245    27157    27101    27072    27072 
   27099    27143    27189    27237    27283    27326    27371    27417 
   27460    27498    27526    27546    27562    27573    27573    27569 
   27560    27544    27526    27498    27448    27371    27272    27203 
   27186    27148    27075    27024    26981    26908    26806    26673 
   26499    26299    26103    25928    25786    25686    25628    25605 
   25618    25667    25747    25853    25976    26107    26239    26365 
   26474    26570    26653    26723    26790    26856    26921    26994 
   27087    27198    27319    27444    27564    27672    27758    27823 
   27869    27900    27926    27958    27988    28008    28020    28032 
   28054    28078    28104    28148    28225    28327    28455    28607 
   28767    28911    29038    29139    29216    29269    29297    29304 
   29301    29304    29327    29388    29492    29619    29751    29874 
   29975    30040    30065    30052    29997    29902    29776    29633 
   29482    29328    29177    29043    28930    28819    28694    28547 
   28386    28217    28043    27873    27712    27565    27434    27315 
   27205    27113    27044    26983    26921    26847    26751    26639 
   26523    26412    26320    26252    26203    26171    26157    26163 
   26180    26199    26218    26235    26248    26264    26293    26339 
   26391    26443    26497    26551    26605    26657    26690    26696 
   26661    26586    26489    26373    26233    26077    25936    25830 
   25758    25706    25674    25666    25678    25697    25722    25749 
   25768    25775    25779    25793    25822    25859    25891    25913 
   25925    25922    25911    25895    25872    25852    25841    25844 
   25864    25898    25936    25971    25998    26001    25969    25902 
   25802    25687    25578    25483    25415    25380    25388    25442 
   25535    25659    25797    25938    26080    26222    26365    26501 
   26622    26735    26844    26946    27036    27113    27176    27226 
   27251    27251    27232    27198    27156    27113    27079    27068 
   27079    27102    27136    27180    27226    27267    27298    27319 
   27322    27292    27234    27159    27076    27001    26947    26929 
   26946    26981    27031    27099    27183    27265    27341    27413 
   27488    27571    27670    27792    27932    28073    28209    28377 
   28568    28719    28822    28914    28975    28966    28917    28854 
   28782    28699    28611    28522    28431    28343    28260    28186 
   28128    28077    28026    27978    27946    27926    27909    27889 
   27859    27819    27761    27691    27623    27550    27463    27373 
   27302    27248    27218    27222    27268    27359    27492    27665 
   27866    28080    28287    28475    28641    28787    28910    29007 
   29084    29135    29164    29185    29199    29205    29209    29204 
   29181    29145    29096    29031    28958    28868    28760    28637 
   28495    28339    28178    28020    27870    27726    27589    27473 
   27382    27309    27253    27210    27184    27189    27222    27275 
   27349    27446    27557    27664    27764    27861    27947    28013 
   28062    28104    28148    28208    28281    28367    28467    28579 
   28684    28763    28806    28806    28753    28660    28551    28437 
   28336    28259    28216    28205    28223    28266    28336    28424 
   28517    28606    28686    28749    28790    28807    28806    28784 
   28745    28695    28642    28590    28545    28509    28486    28480 
   28486    28495    28505    28507    28495    28467    28426    28370 
   28290    28186    28050    27884    27697    27490    27267    27048 
   26843    26665    26543    26480    26457    26464    26485    26501 
   26497    26469    26422    26362    26298    26225    26154    26104 
   26065    26032    26014    26014    26032    26063    26102    26153 
   26218    26299    26395    26507    26634    26774    26927    27095 
   27272    27446    27612    27760    27886    27993    28077    28129 
   28146    28127    28077    28004    27923    27846    27778    27718 
   27665    27619    27580    27567    27592    27643    27714    27800 
   27893    27970    28023    28061    28081    28085    28071    28044 
   28015    27986    27962    27943    27926    27905    27885    27854 
   27808    27753    27680    27583    27456    27306    27145    26993 
   26856    26736    26640    26578    26549    26555    26593    26651 
   26723    26804    26882    26956    27033    27114    27189    27256 
   27313    27342    27334    27291    27209    27095    26966    26821 
   26670    26527    26392    26261    26138    26032    25947    25880 
   25829    25795    25785    25802    25849    25929    26042    26184 
   26342    26500    26644    26766    26855    26906    26921    26912 
   26896    26885    26875    26863    26854    26847    26842    26838 
   26835    26832    26828    26824    26824    26832    26850    26877 
   26910    26958    27018    27094    27182    27279    27376    27479 
   27598    27729    27862    28004    28154    28300    28440    28563 
   28649    28703    28733    28736    28714    28680    28636    28588 
   28548    28526    28522    28530    28556    28605    28664    28725 
   28783    28837    28887    28921    28927    28907    28863    28799 
   28721    28632    28536    28443    28362    28300    28263    28269 
   28320    28406    28526    28675    28842    29025    29211    29381 
   29527    29648    29748    29822    29862    29866    29833    29767 
   29674    29554    29401    29223    29033    28841    28651    28463 
   28274    28088    27912    27756    27612    27481    27361    27251 
   27160    27094    27043    27001    26967    26940    26916    26887 
   26844    26778    26692    26592    26485    26373    26271    26185 
   26111    26050    26005    25983    25998    26023    26023    26002 
   25967    25905    25820    25718    25610    25509    25417    25336 
   25265    25195    25130    25092    25077    25054    25018    24999 
   25008    25007    24984    24966    24953    24929    24881    24806 
   24710    24601    24476    24345    24221    24121    24054    24012 
   23993    24011    24062    24133    24210    24294    24386    24478 
   24575    24679    24777    24873    24972    25073    25182    25299 
   25415    25536    25666    25801    25949    26110    26271    26424 
   26568    26703    26839    26975    27114    27261    27422    27599 
   27793    28000    28213    28428    28637    28836    29022    29187 
   29327    29450    29559    29651    29720    29764    29778    29767 
   29732    29668    29585    29492    29397    29309    29228    29155 
   29099    29054    29018    28984    28953    28929    28910    28896 
   28883    28869    28863    28869    28888    28911    28935    28962 
   28987    29011    29047    29100    29164    29243    29338    29431 
   29521    29604    29668    29717    29748    29760    29762    29760 
   29752    29737    29725    29716    29705    29691    29670    29648 
   29643    29648    29658    29666    29674    29677    29668    29647 
   29617    29570    29493    29398    29309    29224    29135    29053 
   28980    28911    28852    28800    28765    28744    28728    28719 
   28721    28728    28730    28728    28729    28725    28718    28721 
   28728    28722    28709    28692    28678    28669    28665    28659 
   28649    28636    28621    28602    28575    28543    28512    28480 
   28451    28417    28370    28305    28219    28112    27992    27859 
   27712    27556    27384    27193    26997    26806    26615    26431 
   26262    26111    25987    25887    25801    25735    25690    25666 
   25656    25659    25675    25695    25706    25706    25690    25659 
   25621    25581    25542    25505    25478    25474    25493    25528 
   25579    25636    25686    25728    25760    25782    25789    25785 
   25768    25739    25702    25677    25668    25674    25687    25706 
   25728    25748    25770    25797    25836    25894    25971    26053 
   26138    26234    26333    26437    26557    26680    26794    26898 
   26990    27068    27136    27182    27198    27186    27151    27099 
   27035    26959    26875    26786    26703    26638    26584    26531 
   26481    26424    26357    26280    26190    26077    25961    25879 
   25849    25847    25863    25915    25998    26095    26206    26333 
   26473    26613    26735    26835    26935    27041    27143    27220 
   27292    27380    27459    27510    27540    27550    27537    27495 
   27437    27375    27301    27211    27109    27006    26912    26835 
   26781    26744    26730    26740    26771    26816    26865    26912 
   26959    27005    27047    27082    27106    27122    27141    27163 
   27191    27229    27283    27360    27473    27618    27792    27989 
   28194    28397    28587    28755    28898    29020    29118    29193 
   29258    29305    29334    29349    29358    29363    29370    29378 
   29390    29411    29427    29439    29458    29479    29494    29502 
   29506    29506    29505    29497    29484    29469    29452    29439 
   29439    29452    29484    29535    29598    29666    29741    29824 
   29901    29975    30048    30111    30149    30165    30159    30129 
   30083    30028    29959    29878    29786    29681    29565    29435 
   29288    29134    28979    28818    28659    28510    28374    28244 
   28119    27992    27865    27739    27614    27481    27341    27194 
   27040    26893    26752    26623    26512    26420    26337    26258 
   26183    26096    25999    25899    25790    25677    25567    25462 
   25358    25266    25191    25131    25084    25047    25023    25002 
   24975    24942    24904    24862    24819    24777    24740    24702 
   24667    24636    24613    24599    24594    24595    24607    24630 
   24660    24702    24757    24819    24887    24962    25042    25123 
   25200    25267    25334    25404    25473    25535    25606    25694 
   25794    25903    26019    26134    26246    26347    26434    26522 
   26622    26730    26828    26879    26906    26975    27058    27109 
   27164    27241    27313    27382    27461    27562    27681    27801 
   27935    28089    28243    28394    28555    28718    28868    29010 
   29146    29277    29407    29533    29663    29790    29916    30034 
   30141    30237    30321    30384    30422    30431    30418    30383 
   30325    30238    30123    29990    29847    29695    29539    29386 
   29246    29127    29034    28965    28925    28911    28917    28945 
   28998    29070    29149    29220    29276    29311    29327    29328 
   29312    29280    29231    29160    29066    28958    28848    28744 
   28645    28548    28451    28345    28229    28105    27970    27818 
   27653    27477    27297    27120    26950    26781    26622    26477 
   26347    26238    26157    26095    26050    26028    26021    26014 
   26003    25988    25969    25942    25910    25875    25849    25840 
   25843    25856    25883    25925    25975    26036    26103    26176 
   26254    26333    26404    26476    26546    26608    26663    26715 
   26757    26790    26817    26842    26865    26886    26905    26919 
   26929    26943    26952    26962    26977    27004    27035    27064 
   27093    27135    27190    27243    27295    27349    27390    27415 
   27422    27409    27378    27334    27283    27234    27193    27162 
   27143    27139    27144    27159    27178    27197    27213    27225 
   27229    27229    27228    27216    27197    27184    27171    27140 
   27101    27060    27012    26962    26920    26887    26862    26847 
   26844    26851    26863    26877    26892    26906    26923    26944 
   26974    27008    27041    27079    27122    27174    27233    27302 
   27384    27480    27587    27697    27804    27903    27997    28085 
   28170    28256    28348    28447    28545    28649    28749    28831 
   28899    28953    28991    29015    29027    29026    29020    29006 
