Origin Time       2025/01/13 21:19:00
Lat.              31.8
Long.             131.6
Depth. (km)       30
Mag.              6.9
Station Code      KGSH09
Station Lat.      31.3741
Station Long.     130.4333
Station Height(m) 19.091
Record Time       2025/01/13 21:19:52
Sampling Freq(Hz) 100Hz
Duration Time(s)  143
Dir.              3
Scale Factor      3923(gal)/8224838
Max. Acc. (gal)   1.743
Last Correction   2025/01/13 21:19:52
Memo.             
[...]
   14175    14204    14378    14557    14694    14813    14940    15088 
   15192    15199    15142    15059    14978    14936    14933    14990 
   15138    15318    15491    15782    16259    16733    16988    17073 
   17109    16995    16638    16178    15749    15441    15336    15319 
   15222    15078    14990    14959    14966    14995    15001    14971 
   15001    15164    15399    15674    15992    16202    16174    15989 
   15797    15726    15893    16228    16467    16528    16556    16564 
   16471    16370    16363    16351    16228    16038    15840    15665 
   15534    15412    15255    15161    15215    15267    15238    15264 
   15353    15395    15412    15503    15670    15888    16119    16231 
   16195    16154    16121    16078    16146    16351    16594    16754 
   16725    16518    16243    15992    15838    15790    15789    15786 
   15749    15691    15645    15611    15587    15539    15529    15697 
   15963    16135    16240    16397    16538    16541    16492    16510 
   16518    16398    16071    15562    15095    14817    14650    14512 
   14355    14146    13938    13821    13776    13736    13729    13801 
   13921    14129    14418    14646    14820    15002    15113    15176 
   15275    15311    15244    15159    15072    15006    15025    15087 
   15142    15271    15444    15487    15411    15361    15323    15179 
   14925    14670    14493    14428    14505    14710    14995    15327 
   15649    15876    16031    16177    16268    16193    15944    15730 
   15657    15539    15309    15115    15028    15014    15021    14958 
   14882    14910    14891    14650    14293    13990    13772    13617 
   13531    13582    13833    14254    14735    15167    15546    15916 
   16268    16595    16929    17259    17487    17539    17474    17370 
   17315    17398    17486    17397    17278    17301    17334    17231 
   17014    16725    16441    16266    16177    16155    16268    16395 
   16405    16474    16686    16788    16672    16564    16610    16686 
   16650    16484    16195    15851    15554    15292    15045    14868 
   14696    14411    14077    13814    13609    13393    13135    12853 
   12568    12328    12224    12326    12567    12781    12969    13248 
   13622    14026    14382    14624    14794    14953    15087    15195 
   15284    15358    15445    15526    15534    15437    15242    15033 
   14897    14775    14625    14550    14601    14766    14980    15141 
   15346    15712    16082    16395    16704    16868    16835    16798 
   16846    16896    16885    16862    16862    16873    16941    17014 
   16910    16671    16451    16204    15923    15688    15404    14955 
   14443    14068    13919    13927    14004    14081    14083    14075 
   14164    14295    14494    14872    15253    15466    15660    15952 
   16309    16679    16923    16960    16933    16941    16946    16929 
   16787    16417    15944    15525    15172    14920    14747    14504 
   14145    13822    13641    13589    13671    13788    13752    13608 
   13562    13697    14007    14458    14887    15237    15670    16156 
   16486    16676    16814    16869    16830    16721    16596    16524 
   16506    16482    16364    16156    15990    15966    16079    16268 
   16411    16429    16397    16447    16575    16623    16611    16741 
   16954    17023    16987    16946    16834    16636    16417    16174 
   15909    15673    15480    15283    14991    14566    14094    13714 
   13470    13284    13147    13151    13328    13629    13944    14216 
   14515    14844    15130    15350    15481    15520    15523    15588 
   15723    15738    15592    15527    15619    15715    15777    15877 
   15979    15958    15743    15387    15074    14904    14740    14561 
   14490    14451    14409    14605    15115    15691    16150    16540 
   16857    17066    17312    17621    17774    17722    17605    17428 
   17247    17240    17338    17286    17038    16754    16545    16378 
   16179    15886    15465    15084    14929    14870    14739    14586 
   14403    14211    14197    14319    14382    14443    14593    14764 
   14949    15194    15368    15341    15229    15137    15037    14991 
   15018    14991    14879    14727    14511    14304    14215    14203 
   14245    14350    14445    14555    14752    14967    15179    15454 
   15745    15971    16182    16394    16540    16611    16681    16783 
   16877    16934    16934    16831    16633    16456    16337    16236 
   16259    16414    16461    16380    16380    16487    16610    16690 
   16611    16330    16004    15822    15812    15892    16031    16241 
   16472    16605    16607    16495    16297    16094    15951    15817 
   15657    15481    15253    14975    14769    14671    14619    14609 
   14688    14797    14818    14751    14696    14617    14426    14245 
   14173    14106    14035    14011    13971    13949    13973    13954 
   13969    14145    14423    14667    14836    15063    15394    15674 
   15842    16000    16216    16443    16615    16718    16714    16596 
   16490    16507    16569    16565    16540    16536    16563    16652 
   16706    16590    16380    16190    16001    15769    15516    15306 
   15098    14868    14746    14731    14717    14763    14898    15032 
   15118    15144    15147    15199    15271    15268    15149    14955 
   14793    14704    14655    14675    14754    14766    14704    14697 
   14771    14910    15086    15179    15182    15230    15340    15418 
   15403    15317    15233    15136    15001    14913    14895    14866 
   14797    14685    14523    14374    14316    14307    14280    14270 
   14289    14276    14260    14274    14250    14158    14068    14087 
   14251    14412    14438    14389    14349    14384    14562    14817 
   15060    15321    15483    15390    15219    15202    15272    15348 
   15450    15530    15549    15588    15697    15849    15993    16102 
   16194    16301    16407    16488    16525    16497    16390    16218 
   15967    15615    15257    15013    14841    14682    14562    14430 
   14234    14068    13949    13783    13659    13672    13659    13558 
   13571    13780    14100    14499    14945    15292    15507    15720 
   15967    16231    16528    16757    16802    16741    16698    16663 
   16580    16443    16276    16119    15998    15924    15873    15823 
   15747    15576    15329    15187    15253    15425    15587    15742 
   15897    16039    16218    16436    16640    16802    16838    16730 
   16607    16532    16475    16467    16487    16432    16258    15994 
   15751    15622    15491    15264    15087    15080    15191    15377 
   15581    15731    15896    16092    16183    16229    16374    16518 
   16572    16634    16775    17003    17294    17555    17701    17753 
   17745    17625    17383    17153    16978    16695    16263    15849 
   15534    15344    15273    15182    15018    14886    14759    14634 
   14623    14643    14550    14384    14254    14227    14285    14328 
   14291    14215    14152    14088    14075    14185    14335    14423 
   14500    14609    14740    14914    15064    15094    15101    15217 
   15375    15472    15546    15641    15726    15776    15758    15662 
   15543    15417    15252    15076    14909    14777    14751    14801 
   14829    14839    14829    14796    14863    15111    15350    15406 
   15357    15372    15487    15628    15747    15838    15935    16083 
   16190    16170    16155    16228    16285    16235    16043    15761 
   15557    15458    15356    15260    15155    14953    14724    14550 
   14438    14389    14349    14239    14130    14180    14385    14585 
   14712    14806    14947    15217    15507    15626    15608    15564 
   15462    15373    15457    15666    15876    16092    16286    16401 
   16530    16730    16880    16912    16884    16796    16663    16586 
   16506    16308    16110    15988    15823    15684    15720    15827 
   15843    15780    15734    15754    15832    15923    15977    16052 
   16228    16456    16650    16829    17010    17134    17139    17055 
   16965    16870    16735    16584    16393    16113    15793    15479 
   15165    14862    14601    14400    14261    14177    14092    13963 
   13865    13880    14017    14214    14339    14376    14440    14567 
   14732    14959    15147    15156    15097    15115    15188    15282 
   15346    15280    15101    14963    14955    15022    15079    15044 
   14882    14669    14481    14322    14170    13995    13883    13921 
   13995    14057    14207    14395    14532    14682    14840    14885 
   14809    14735    14715    14804    15028    15199    15152    15083 
   15236    15535    15866    16197    16398    16406    16375    16436 
   16494    16432    16322    16268    16233    16225    16317    16433 
   16486    16515    16522    16503    16549    16660    16758    16862 
   17003    17112    17124    17039    16926    16849    16823    16818 
   16756    16584    16375    16200    15984    15673    15371    15157 
   14983    14810    14681    14598    14528    14436    14293    14148 
   14094    14138    14218    14303    14413    14562    14716    14824 
   14871    14909    14952    14925    14790    14598    14404    14230 
   14099    14019    13937    13837    13824    13906    13953    13929 
   13910    13941    13996    14056    14114    14162    14229    14366 
   14546    14739    14951    15105    15188    15311    15476    15612 
   15715    15735    15576    15272    14976    14748    14539    14330 
   14139    13968    13856    13872    13957    14004    14038    14123 
   14264    14443    14623    14763    14891    15010    15064    15094 
   15169    15287    15450    15614    15678    15650    15592    15504 
   15454    15493    15500    15406    15331    15356    15423    15522 
   15677    15820    15915    16027    16148    16236    16357    16544 
   16744    16931    17074    17159    17221    17235    17132    16950 
   16776    16595    16374    16179    16039    15909    15808    15745 
   15687    15642    15570    15395    15202    15097    15013    14912 
   14843    14825    14889    15041    15217    15412    15620    15762 
   15840    15908    15947    15940    15897    15855    15871    15961 
   16059    16139    16252    16434    16617    16735    16839    16957 
   17035    17027    16919    16756    16591    16432    16285    16151 
   15969    15719    15500    15340    15168    14993    14863    14766 
   14720    14748    14777    14755    14704    14628    14577    14634 
   14755    14840    14925    15079    15272    15453    15670    15979 
   16306    16561    16729    16796    16780    16769    16788    16745 
   16600    16422    16251    16087    15942    15799    15600    15388 
   15261    15198    15130    15074    14998    14895    14850    14875 
   14918    14986    15079    15174    15315    15561    15844    16052 
   16160    16190    16204    16283    16448    16642    16795    16870 
   16891    16903    16903    16839    16714    16553    16363    16150 
   15932    15741    15570    15344    15047    14824    14748    14733 
   14658    14462    14181    13899    13682    13575    13551    13518 
   13444    13331    13163    13005    13009    13174    13342    13433 
   13444    13397    13383    13435    13518    13614    13695    13720 
   13684    13657    13714    13783    13743    13613    13489    13417 
   13446    13560    13625    13601    13605    13698    13863    14134 
   14527    14943    15260    15441    15502    15506    15568    15724 
   15938    16182    16444    16696    16896    17039    17159    17254 
   17273    17197    17064    16943    16907    16953    16985    16954 
   16935    16987    17058    17135    17258    17392    17478    17535 
   17604    17683    17747    17786    17815    17833    17833    17828 
   17833    17848    17832    17740    17554    17273    16951    16683 
   16480    16303    16173    16123    16144    16221    16333    16410 
   16443    16494    16521    16434    16237    16047    15967    15939 
   15846    15670    15473    15372    15422    15569    15720    15789 
   15749    15653    15541    15427    15288    15074    14786    14474 
   14157    13836    13537    13316    13123    12860    12572    12405 
   12394    12469    12560    12621    12684    12857    13135    13413 
   13690    14003    14338    14723    15141    15499    15774    16016 
   16224    16376    16465    16509    16486    16378    16217    16040 
   15843    15622    15375    15153    15052    15098    15222    15364 
   15477    15529    15547    15580    15628    15723    15855    15931 
   15901    15797    15631    15406    15169    14944    14731    14547 
   14362    14088    13714    13347    13063    12854    12706    12571 
   12348    12073    11888    11834    11902    12067    12210    12328 
   12528    12764    12939    13084    13235    13387    13571    13830 
   14107    14277    14347    14428    14520    14585    14678    14817 
   14966    15140    15346    15558    15776    16005    16255    16513 
   16737    16866    16865    16812    16833    16908    16961    16983 
   16980    16946    16880    16756    16560    16390    16333    16336 
   16339    16349    16332    16245    16117    15971    15826    15704 
   15591    15506    15533    15723    16043    16433    16822    17136 
   17392    17664    17973    18297    18597    18817    18963    19057 
   19089    19078    19057    19003    18877    18678    18445    18202 
   17922    17551    17078    16627    16309    16096    15884    15606 
   15304    15076    14959    14935    14949    14985    15086    15272 
   15499    15678    15774    15836    15930    16075    16252    16367 
   16347    16204    16008    15831    15711    15642    15580    15458 
   15284    15115    14966    14841    14737    14647    14625    14689 
   14771    14835    14881    14939    15039    15130    15136    15067 
   14966    14820    14658    14563    14532    14526    14547    14573 
   14523    14377    14173    13927    13672    13455    13265    13101 
   12996    12966    13008    13080    13177    13352    13554    13702 
   13802    13829    13801    13836    13925    13987    14077    14265 
   14481    14671    14841    14971    15088    15269    15496    15720 
   15965    16224    16441    16614    16771    16896    16958    16978 
   16972    16954    16958    16960    16919    16823    16652    16422 
   16205    16033    15894    15811    15769    15714    15674    15747 
   15913    16067    16193    16302    16384    16455    16517    16595 
   16731    16900    17038    17139    17257    17455    17706    17926 
   18049    18052    17926    17712    17512    17378    17278    17151 
   16958    16723    16510    16291    16017    15757    15545    15325 
   15111    14955    14862    14831    14804    14724    14647    14631 
   14623    14571    14501    14435    14369    14296    14230    14168 
   14116    14108    14130    14139    14145    14170    14223    14303 
   14357    14326    14283    14288    14295    14310    14355    14362 
   14284    14149    13979    13819    13718    13675    13660    13618 
   13521    13389    13279    13254    13270    13219    13085    12926 
   12792    12721    12677    12621    12607    12715    12933    13158 
   13331    13491    13695    13917    14134    14366    14593    14794 
   14974    15164    15453    15813    16101    16298    16461    16596 
   16691    16737    16750    16775    16846    16958    17054    17096 
   17112    17122    17099    17020    16888    16721    16571    16471 
   16348    16146    15931    15770    15653    15523    15330    15063 
   14742    14392    14034    13722    13516    13377    13248    13173 
   13194    13285    13408    13545    13706    13884    14071    14287 
   14543    14783    14966    15101    15202    15303    15411    15491 
   15561    15633    15668    15658    15646    15626    15560    15450 
   15327    15218    15118    15006    14887    14794    14771    14817 
   14905    15021    15147    15255    15353    15453    15557    15654 
   15719    15758    15768    15731    15696    15674    15597    15472 
   15381    15360    15406    15496    15593    15681    15745    15782 
   15827    15893    15973    16062    16146    16205    16228    16194 
   16121    16082    16102    16137    16185    16274    16368    16451 
   16561    16681    16776    16837    16839    16776    16680    16600 
   16538    16464    16380    16328    16306    16294    16297    16329 
   16405    16497    16552    16580    16629    16700    16764    16781 
   16754    16698    16610    16542    16518    16475    16402    16345 
   16308    16279    16271    16255    16185    16060    15928    15854 
   15881    15958    15981    15934    15842    15722    15603    15522 
   15473    15419    15331    15221    15099    14991    14945    14952 
   14997    15113    15250    15349    15439    15475    15419    15353 
   15299    15260    15277    15346    15445    15574    15704    15786 
   15815    15795    15750    15726    15749    15805    15859    15867 
   15817    15731    15611    15462    15323    15232    15205    15233 
   15264    15277    15276    15253    15226    15214    15182    15125 
   15078    14997    14864    14748    14674    14628    14635    14700 
   14758    14774    14800    14839    14836    14814    14831    14874 
   14882    14848    14837    14867    14918    14990    15076    15168 
   15282    15441    15628    15839    16073    16287    16460    16609 
   16734    16845    16951    17066    17200    17316    17390    17442 
   17481    17514    17545    17552    17554    17574    17575    17545 
   17500    17381    17150    16887    16657    16436    16208    16013 
   15890    15812    15714    15583    15438    15271    15102    14971 
   14859    14754    14685    14650    14639    14658    14690    14702 
   14693    14683    14679    14696    14750    14802    14801    14750 
   14683    14604    14509    14434    14392    14366    14353    14372 
   14416    14467    14512    14530    14515    14472    14419    14391 
   14395    14407    14407    14388    14369    14345    14295    14249 
   14227    14195    14145    14094    14030    13950    13891    13895 
   13953    14025    14079    14119    14189    14304    14420    14500 
   14550    14577    14604    14686    14844    15040    15242    15411 
   15511    15564    15616    15700    15796    15857    15897    15965 
   16056    16151    16262    16406    16565    16708    16818    16885 
   16924    16953    16953    16904    16846    16799    16733    16667 
   16644    16654    16663    16637    16553    16440    16345    16264 
   16174    16078    15988    15908    15838    15786    15773    15770 
   15746    15708    15666    15619    15581    15543    15475    15385 
   15310    15259    15214    15140    15024    14878    14712    14528 
   14354    14212    14129    14100    14065    13995    13936    13918 
   13923    13929    13918    13914    13956    14030    14095    14161 
   14247    14357    14481    14608    14737    14868    14987    15075 
   15148    15222    15298    15384    15488    15564    15577    15576 
   15615    15682    15720    15692    15628    15565    15511    15460 
