Origin Time       2025/01/13 21:19:00
Lat.              31.8
Long.             131.6
Depth. (km)       30
Mag.              6.9
Station Code      KGSH03
Station Lat.      31.9812
Station Long.     130.4438
Station Height(m) 10.11
Record Time       2025/01/13 21:19:50
Sampling Freq(Hz) 100Hz
Duration Time(s)  168
Dir.              1
Scale Factor      2940(gal)/6170270
Max. Acc. (gal)   5.136
Last Correction   2025/01/13 21:19:35
Memo.             
[...]
  -14870   -14816   -14720   -14589   -14430   -14253   -14063   -13838 
  -13569   -13274   -12972   -12696   -12492   -12372   -12291   -12215 
  -12153   -12115   -12117   -12193   -12336   -12518   -12746   -13007 
  -13264   -13522   -13780   -14012   -14232   -14462   -14715   -15026 
  -15404   -15821   -16242   -16641   -16992   -17309   -17602   -17838 
  -18002   -18147   -18303   -18448   -18572   -18670   -18719   -18723 
  -18705   -18682   -18696   -18770   -18888   -19022   -19136   -19212 
  -19266   -19303   -19313   -19310   -19273   -19157   -19010   -18912 
  -18873   -18868   -18883   -18892   -18869   -18809   -18718   -18627 
  -18576   -18577   -18593   -18564   -18463   -18304   -18115   -17911 
  -17711   -17544   -17405   -17290   -17232   -17243   -17298   -17382 
  -17469   -17526   -17541   -17539   -17558   -17632   -17771   -17946 
  -18114   -18259   -18372   -18459   -18539   -18597   -18600   -18545 
  -18466   -18420   -18435   -18498   -18597   -18725   -18840   -18904 
  -18930   -18937   -18926   -18894   -18817   -18665   -18460   -18250 
  -18057   -17896   -17773   -17685   -17633   -17614   -17615   -17618 
  -17591   -17496   -17348   -17199   -17075   -16971   -16903   -16888 
  -16923   -17002   -17122   -17287   -17498   -17731   -17963   -18203 
  -18441   -18639   -18774   -18850   -18867   -18834   -18762   -18669 
  -18568   -18452   -18302   -18104   -17851   -17564   -17273   -16981 
  -16704   -16459   -16233   -16022   -15822   -15594   -15306   -14964 
  -14600   -14233   -13857   -13473   -13112   -12803   -12563   -12420 
  -12395   -12444   -12506   -12576   -12662   -12743   -12821   -12948 
  -13155   -13420   -13700   -13962   -14193   -14416   -14666   -14935 
  -15190   -15396   -15535   -15626   -15717   -15868   -16136   -16522 
  -16942   -17299   -17563   -17765   -17947   -18137   -18357   -18623 
  -18921   -19226   -19538   -19882   -20274   -20705   -21139   -21529 
  -21841   -22053   -22141   -22120   -22043   -21955   -21865   -21776 
  -21704   -21632   -21523   -21374   -21185   -20934   -20624   -20303 
  -20008   -19739   -19502   -19294   -19086   -18865   -18652   -18473 
  -18335   -18214   -18059   -17851   -17592   -17278   -16931   -16598 
  -16302   -16056   -15861   -15696   -15532   -15373   -15239   -15130 
  -15051   -15024   -15054   -15133   -15250   -15364   -15427   -15432 
  -15409   -15387   -15375   -15353   -15294   -15176   -15009   -14849 
  -14740   -14680   -14673   -14695   -14690   -14651   -14629   -14649 
  -14710   -14815   -14943   -15068   -15186   -15305   -15439   -15589 
  -15726   -15823   -15878   -15905   -15960   -16097   -16309   -16565 
  -16831   -17064   -17245   -17382   -17464   -17486   -17478   -17488 
  -17547   -17656   -17798   -17943   -18060   -18121   -18111   -18016 
  -17840   -17635   -17463   -17336   -17240   -17181   -17171   -17187 
  -17199   -17199   -17204   -17229   -17275   -17341   -17403   -17406 
  -17327   -17181   -16981   -16768   -16608   -16505   -16430   -16406 
  -16462   -16584   -16751   -16938   -17123   -17311   -17495   -17660 
  -17821   -18004   -18220   -18462   -18706   -18928   -19105   -19258 
  -19453   -19719   -20031   -20364   -20689   -20949   -21139   -21296 
  -21425   -21491   -21490   -21448   -21376   -21258   -21091   -20886 
  -20653   -20405   -20138   -19831   -19504   -19200   -18931   -18692 
  -18473   -18257   -18052   -17895   -17803   -17751   -17707   -17671 
  -17665   -17678   -17684   -17688   -17686   -17658   -17616   -17597 
  -17616   -17671   -17760   -17877   -17987   -18044   -18031   -17956 
  -17814   -17621   -17413   -17212   -17026   -16864   -16718   -16556 
  -16352   -16114   -15876   -15642   -15396   -15143   -14893   -14651 
  -14439   -14286   -14191   -14155   -14185   -14241   -14257   -14231 
  -14202   -14193   -14216   -14257   -14304   -14394   -14551   -14732 
  -14916   -15128   -15365   -15603   -15842   -16079   -16297   -16502 
  -16714   -16956   -17229   -17496   -17723   -17911   -18065   -18179 
  -18267   -18332   -18362   -18382   -18422   -18483   -18559   -18659 
  -18779   -18890   -18955   -18953   -18870   -18708   -18504   -18301 
  -18108   -17924   -17759   -17601   -17421   -17217   -17019   -16850 
  -16726   -16629   -16530   -16435   -16365   -16296   -16207   -16132 
  -16099   -16105   -16153   -16225   -16290   -16362   -16471   -16603 
  -16750   -16938   -17157   -17396   -17675   -17977   -18243   -18460 
  -18635   -18740   -18761   -18712   -18618   -18508   -18388   -18242 
  -18064   -17865   -17665   -17469   -17269   -17074   -16898   -16729 
  -16577   -16468   -16396   -16353   -16357   -16392   -16409   -16376 
  -16305   -16227   -16152   -16075   -16023   -16012   -16021   -16040 
  -16089   -16174   -16293   -16438   -16577   -16713   -16869   -17030 
  -17178   -17313   -17430   -17535   -17660   -17815   -17972   -18115 
  -18253   -18386   -18518   -18655   -18786   -18907   -19024   -19121 
  -19191   -19255   -19322   -19391   -19469   -19549   -19604   -19624 
  -19616   -19579   -19521   -19456   -19392   -19343   -19311   -19268 
  -19205   -19146   -19102   -19066   -19027   -18970   -18877   -18739 
  -18567   -18372   -18157   -17926   -17671   -17389   -17120   -16889 
  -16700   -16559   -16467   -16397   -16313   -16198   -16060   -15898 
  -15718   -15550   -15415   -15316   -15268   -15279   -15325   -15373 
  -15411   -15437   -15464   -15495   -15532   -15594   -15678   -15754 
  -15821   -15884   -15936   -15996   -16100   -16260   -16462   -16681 
  -16880   -17037   -17160   -17252   -17305   -17315   -17294   -17271 
  -17262   -17258   -17243   -17216   -17191   -17193   -17230   -17277 
  -17305   -17304   -17269   -17202   -17113   -17003   -16888   -16795 
  -16735   -16720   -16760   -16855   -16984   -17116   -17241   -17358 
  -17456   -17531   -17587   -17614   -17610   -17594   -17594   -17615 
  -17649   -17689   -17722   -17730   -17705   -17636   -17525   -17409 
  -17296   -17172   -17054   -16969   -16905   -16858   -16833   -16816 
  -16793   -16784   -16819   -16890   -16970   -17045   -17111   -17169 
  -17244   -17349   -17470   -17610   -17785   -17995   -18227   -18470 
  -18693   -18862   -18974   -19043   -19083   -19103   -19117   -19142 
  -19184   -19238   -19297   -19334   -19327   -19281   -19213   -19137 
  -19061   -18985   -18921   -18873   -18809   -18688   -18498   -18261 
  -18017   -17797   -17609   -17437   -17275   -17114   -16939   -16760 
  -16593   -16438   -16291   -16157   -16027   -15878   -15701   -15495 
  -15258   -15004   -14756   -14536   -14375   -14296   -14287   -14312 
  -14347   -14372   -14362   -14325   -14281   -14243   -14228   -14245 
  -14283   -14338   -14414   -14512   -14625   -14743   -14854   -14953 
  -15048   -15155   -15299   -15490   -15715   -15951   -16183   -16419 
  -16648   -16864   -17078   -17284   -17470   -17625   -17732   -17796 
  -17848   -17904   -17961   -18018   -18062   -18063   -18004   -17907 
  -17808   -17727   -17665   -17611   -17571   -17559   -17570   -17589 
  -17618   -17664   -17728   -17802   -17863   -17902   -17923   -17938 
  -17958   -17982   -17991   -17973   -17938   -17891   -17848   -17842 
  -17887   -17951   -18012   -18062   -18096   -18125   -18172   -18241 
  -18312   -18384   -18467   -18563   -18660   -18738   -18795   -18847 
  -18902   -18946   -18971   -18975   -18949   -18891   -18820   -18743 
  -18670   -18602   -18538   -18477   -18412   -18332   -18226   -18096 
  -17961   -17836   -17737   -17688   -17689   -17714   -17743   -17777 
  -17822   -17879   -17937   -17989   -18039   -18080   -18100   -18088 
  -18041   -17961   -17848   -17736   -17662   -17612   -17551   -17475 
  -17390   -17291   -17196   -17126   -17083   -17057   -17041   -17019 
  -16984   -16939   -16881   -16798   -16685   -16549   -16395   -16228 
  -16056   -15893   -15754   -15651   -15589   -15571   -15596   -15651 
  -15709   -15769   -15842   -15929   -16033   -16161   -16301   -16443 
  -16588   -16717   -16831   -16961   -17112   -17268   -17417   -17530 
  -17606   -17680   -17758   -17835   -17925   -18025   -18119   -18213 
  -18300   -18346   -18338   -18306   -18271   -18226   -18167   -18090 
  -17998   -17901   -17816   -17749   -17688   -17618   -17531   -17436 
  -17337   -17214   -17060   -16899   -16730   -16534   -16332   -16154 
  -16007   -15881   -15772   -15679   -15593   -15504   -15421   -15348 
  -15273   -15204   -15158   -15131   -15132   -15178   -15267   -15384 
  -15508   -15611   -15680   -15738   -15813   -15917   -16034   -16140 
  -16230   -16317   -16412   -16522   -16640   -16762   -16885   -16996 
  -17078   -17120   -17120   -17086   -17045   -17010   -16978   -16957 
  -16955   -16973   -17007   -17045   -17067   -17087   -17114   -17133 
  -17132   -17120   -17114   -17137   -17184   -17237   -17295   -17356 
  -17409   -17468   -17556   -17669   -17799   -17949   -18100   -18223 
  -18301   -18329   -18312   -18258   -18162   -18029   -17877   -17719 
  -17550   -17350   -17100   -16806   -16503   -16237   -16027   -15861 
  -15726   -15623   -15556   -15513   -15492   -15492   -15503   -15525 
  -15584   -15679   -15797   -15954   -16156   -16377   -16622   -16903 
  -17191   -17457   -17716   -17972   -18211   -18433   -18648   -18856 
  -19078   -19328   -19588   -19837   -20072   -20295   -20507   -20702 
  -20868   -21001   -21104   -21183   -21237   -21263   -21298   -21372 
  -21455   -21525   -21602   -21670   -21691   -21661   -21597   -21501 
  -21360   -21180   -20976   -20747   -20505   -20267   -20030   -19797 
  -19575   -19356   -19125   -18862   -18552   -18193   -17809   -17431 
  -17075   -16742   -16438   -16175   -15962   -15810   -15717   -15668 
  -15644   -15629   -15607   -15570   -15544   -15561   -15624   -15719 
  -15839   -15976   -16116   -16254   -16391   -16544   -16727   -16925 
  -17105   -17244   -17333   -17371   -17360   -17308   -17229   -17142 
  -17076   -17037   -17000   -16955   -16907   -16850   -16757   -16622 
  -16461   -16277   -16073   -15883   -15725   -15580   -15442   -15314 
  -15192   -15088   -15015   -14964   -14921   -14875   -14820   -14758 
  -14692   -14616   -14525   -14437   -14373   -14332   -14322   -14352 
  -14405   -14461   -14509   -14551   -14589   -14624   -14655   -14696 
  -14753   -14820   -14893   -14966   -15042   -15117   -15178   -15229 
  -15287   -15362   -15464   -15589   -15707   -15790   -15830   -15842 
  -15852   -15865   -15871   -15879   -15908   -15963   -16054   -16187 
  -16333   -16463   -16572   -16673   -16782   -16904   -17033   -17171 
  -17318   -17458   -17584   -17705   -17816   -17904   -17984   -18057 
  -18100   -18111   -18106   -18093   -18068   -18042   -18034   -18051 
  -18085   -18121   -18138   -18134   -18135   -18160   -18206   -18269 
  -18331   -18381   -18436   -18513   -18611   -18736   -18895   -19077 
  -19274   -19480   -19686   -19880   -20054   -20211   -20361   -20513 
  -20681   -20851   -20998   -21112   -21205   -21279   -21329   -21360 
  -21388   -21416   -21438   -21437   -21388   -21284   -21143   -20980 
  -20805   -20632   -20477   -20345   -20231   -20118   -19980   -19804 
  -19592   -19371   -19178   -19013   -18860   -18725   -18596   -18454 
  -18304   -18152   -18000   -17848   -17684   -17484   -17252   -17007 
  -16748   -16487   -16258   -16072   -15916   -15792   -15708   -15646 
  -15577   -15498   -15422   -15345   -15271   -15214   -15170   -15132 
  -15103   -15070   -15014   -14943   -14869   -14800   -14744   -14709 
  -14695   -14701   -14726   -14778   -14855   -14940   -15017   -15088 
  -15161   -15239   -15326   -15416   -15504   -15607   -15731   -15856 
  -15974   -16099   -16227   -16335   -16418   -16483   -16537   -16586 
  -16633   -16675   -16711   -16732   -16729   -16717   -16708   -16701 
  -16695   -16695   -16700   -16720   -16745   -16755   -16758   -16775 
  -16813   -16889   -17001   -17131   -17279   -17458   -17679   -17932 
  -18198   -18460   -18705   -18925   -19115   -19280   -19432   -19567 
  -19678   -19768   -19841   -19876   -19864   -19822   -19756   -19660 
  -19543   -19413   -19269   -19108   -18934   -18757   -18572   -18371 
  -18154   -17923   -17685   -17454   -17225   -16982   -16731   -16489 
  -16260   -16043   -15835   -15634   -15449   -15285   -15136   -14997 
  -14871   -14763   -14673   -14606   -14570   -14561   -14570   -14587 
  -14614   -14657   -14713   -14769   -14818   -14866   -14922   -14978 
  -15025   -15073   -15135   -15205   -15276   -15340   -15386   -15424 
  -15473   -15541   -15631   -15739   -15851   -15960   -16062   -16164 
  -16273   -16380   -16483   -16593   -16709   -16818   -16917   -17023 
  -17151   -17296   -17458   -17634   -17813   -17982   -18133   -18261 
  -18365   -18448   -18532   -18627   -18734   -18875   -19059   -19264 
  -19477   -19701   -19939   -20203   -20495   -20796   -21104   -21431 
  -21766   -22102   -22444   -22778   -23097   -23410   -23714   -23991 
  -24233   -24449   -24641   -24802   -24938   -25064   -25181   -25289 
  -25380   -25448   -25500   -25534   -25528   -25472   -25352   -25159 
  -24911   -24629   -24317   -23980   -23608   -23194   -22751   -22280 
  -21769   -21221   -20649   -20063   -19456   -18823   -18171   -17517 
  -16868   -16222   -15570   -14908   -14232   -13541   -12836   -12135 
  -11456   -10767   -10051    -9368    -8747    -8165    -7661    -7253 
   -6920    -6685    -6555    -6504    -6511    -6567    -6682    -6864 
   -7102    -7387    -7703    -8040    -8398    -8775    -9168    -9585 
  -10031   -10495   -10955   -11394   -11801   -12182   -12547   -12902 
  -13263   -13644   -14045   -14459   -14887   -15324   -15772   -16228 
  -16673   -17103   -17532   -17956   -18373   -18793   -19218   -19624 
  -19996   -20346   -20678   -20983   -21263   -21527   -21779   -22015 
  -22224   -22389   -22481   -22500   -22488   -22443   -22332   -22179 
  -21990   -21730   -21425   -21105   -20766   -20424   -20088   -19753 
  -19432   -19138   -18870   -18619   -18385   -18161   -17932   -17711 
  -17520   -17352   -17203   -17068   -16931   -16793   -16657   -16507 
  -16332   -16120   -15874   -15614   -15366   -15143   -14942   -14759 
  -14601   -14462   -14332   -14214   -14109   -14006   -13904   -13816 
  -13737   -13661   -13603   -13575   -13586   -13651   -13771   -13940 
  -14150   -14391   -14650   -14917   -15174   -15420   -15671   -15931 
  -16192   -16448   -16695   -16938   -17171   -17366   -17512   -17630 
  -17726   -17800   -17873   -17973   -18113   -18286   -18472   -18653 
  -18822   -18987   -19160   -19345   -19530   -19707   -19889   -20086 
  -20286   -20480   -20682   -20907   -21150   -21409   -21680   -21953 
  -22217   -22455   -22637   -22749   -22800   -22804   -22765   -22683 
  -22547   -22354   -22108   -21815   -21491   -21154   -20807   -20456 
  -20115   -19798   -19513   -19258   -19011   -18756   -18505   -18287 
  -18105   -17923   -17737   -17580   -17424   -17252   -17102   -16975 
  -16856   -16754   -16661   -16573   -16485   -16404   -16339   -16292 
  -16257   -16225   -16183   -16128   -16066   -16005   -15959   -15928 
  -15897   -15871   -15859   -15859   -15861   -15848   -15799   -15700 
  -15549   -15357   -15139   -14905   -14664   -14428   -14219   -14065 
  -13979   -13960   -13987   -14041   -14114   -14205   -14309   -14422 
  -14552   -14703   -14881   -15089   -15323   -15583   -15861   -16149 
  -16452   -16769   -17093   -17424   -17769   -18120   -18456   -18760 
  -19009   -19197   -19333   -19416   -19447   -19430   -19357   -19221 
  -19022   -18773   -18500   -18221   -17944   -17664   -17375   -17078 
  -16783   -16504   -16240   -15986   -15742   -15514   -15313   -15148 
  -15031   -14966   -14930   -14903   -14874   -14823   -14739   -14629 
  -14504   -14374   -14254   -14154   -14074   -14010   -13963   -13937 
  -13935   -13957   -13994   -14050   -14126   -14207   -14278   -14336 
  -14387   -14446   -14527   -14628   -14739   -14854   -14977   -15117 
  -15271   -15427   -15577   -15720   -15852   -15977   -16099   -16222 
  -16351   -16488   -16629   -16767   -16901   -17050   -17235   -17455 
  -17691   -17922   -18145   -18368   -18591   -18811   -19031   -19245 
  -19447   -19627   -19775   -19881   -19945   -19980   -19990   -19970 
  -19913   -19827   -19729   -19625   -19516   -19395   -19261   -19127 
  -19002   -18887   -18784   -18696   -18626   -18579   -18550   -18531 
  -18527   -18540   -18563   -18597   -18645   -18701   -18763   -18830 
  -18917   -19022   -19136   -19270   -19431   -19614   -19807   -20000 
  -20178   -20330   -20453   -20545   -20601   -20618   -20602   -20562 
  -20507   -20439   -20365   -20292   -20223   -20164   -20131   -20129 
  -20156   -20203   -20263   -20323   -20366   -20390   -20397   -20381 
  -20345   -20297   -20237   -20164   -20085   -20007   -19935   -19861 
  -19781   -19694   -19603   -19513   -19421   -19322   -19204   -19052 
  -18867   -18665   -18458   -18248   -18042   -17839   -17640   -17452 
  -17277   -17115   -16972   -16844   -16736   -16659   -16609   -16582 
  -16580   -16602   -16646   -16708   -16775   -16839   -16889   -16913 
  -16919   -16930   -16952   -16967   -16970   -16979   -16997   -17021 
  -17060   -17108   -17147   -17162   -17142   -17078   -16973   -16841 
  -16688   -16519   -16338   -16149   -15949   -15729   -15489   -15229 
  -14947   -14655   -14356   -14055   -13772   -13526   -13325   -13163 
  -13028   -12911   -12800   -12681   -12546   -12404   -12268   -12147 
  -12047   -11970   -11920   -11894   -11902   -11959   -12063   -12200 
  -12362   -12538   -12724   -12923   -13127   -13330   -13531   -13732 
  -13941   -14174   -14433   -14707   -14986   -15283   -15604   -15938 
  -16256   -16545   -16832   -17120   -17370   -17589   -17800   -17978 
  -18125   -18261   -18380   -18489   -18596   -18691   -18762   -18809 
  -18835   -18846   -18846   -18838   -18829   -18825   -18814   -18787 
  -18746   -18686   -18612   -18546   -18502   -18493   -18520   -18574 
  -18647   -18740   -18846   -18953   -19054   -19146   -19216   -19260 
  -19282   -19289   -19285   -19278   -19272   -19269   -19277   -19299 
  -19324   -19347   -19365   -19380   -19399   -19422   -19446   -19468 
  -19488   -19500   -19497   -19484   -19466   -19448   -19430   -19413 
  -19392   -19374   -19362   -19361   -19374   -19412   -19477   -19554 
  -19626   -19684   -19721   -19729   -19710   -19669   -19603   -19516 
  -19417   -19298   -19154   -18989   -18799   -18576   -18317   -18031 
  -17732   -17422   -17098   -16775   -16470   -16186   -15930   -15709 
  -15519   -15361   -15242   -15164   -15131   -15136   -15166   -15202 
  -15239   -15272   -15294   -15299   -15283   -15243   -15183   -15110 
  -15026   -14923   -14799   -14654   -14496   -14340   -14202   -14089 
  -14002   -13937   -13888   -13860   -13848   -13836   -13809   -13771 
  -13729   -13692   -13671   -13667   -13671   -13677   -13690   -13717 
  -13761   -13828   -13919   -14026   -14141   -14263   -14393   -14540 
  -14715   -14937   -15210   -15531   -15895   -16298   -16738   -17216 
  -17728   -18257   -18782   -19293   -19767   -20191   -20573   -20907 
  -21192   -21441   -21668   -21875   -22056   -22202   -22315   -22401 
