Origin Time       2025/01/13 21:19:00
Lat.              31.8
Long.             131.6
Depth. (km)       30
Mag.              6.9
Station Code      KGSH01
Station Lat.      32.1554
Station Long.     130.1191
Station Height(m) 14.866
Record Time       2025/01/13 21:19:55
Sampling Freq(Hz) 100Hz
Duration Time(s)  229
Dir.              6
Scale Factor      7845(gal)/8223790
Max. Acc. (gal)   2.479
Last Correction   2025/01/13 21:19:56
Memo.             
[...]
  -21566   -21598   -21602   -21595   -21610   -21686   -21820   -21957 
  -22040   -22033   -21933   -21744   -21489   -21239   -21081   -21062 
  -21174   -21378   -21641   -21928   -22169   -22291   -22295   -22265 
  -22257   -22243   -22196   -22127   -22046   -21913   -21709   -21487 
  -21290   -21100   -20902   -20768   -20772   -20879   -21008   -21132 
  -21258   -21357   -21408   -21436   -21490   -21625   -21886   -22226 
  -22576   -22933   -23287   -23569   -23758   -23896   -23996   -24027 
  -23982   -23893   -23764   -23591   -23386   -23145   -22852   -22531 
  -22234   -21971   -21726   -21531   -21404   -21319   -21277   -21300 
  -21365   -21421   -21478   -21591   -21801   -22071   -22339   -22582 
  -22793   -22963   -23103   -23199   -23211   -23110   -22920   -22696 
  -22446   -22173   -21926   -21730   -21556   -21382   -21208   -21038 
  -20896   -20810   -20760   -20737   -20814   -21049   -21365   -21629 
  -21807   -21937   -22029   -22079   -22076   -22023   -21967   -21953 
  -21967   -21956   -21918   -21868   -21806   -21717   -21590   -21444 
  -21346   -21350   -21442   -21568   -21710   -21907   -22158   -22376 
  -22480   -22501   -22513   -22536   -22545   -22534   -22524   -22563 
  -22669   -22779   -22809   -22727   -22559   -22335   -22065   -21780 
  -21513   -21278   -21101   -20991   -20908   -20856   -20861   -20891 
  -20908   -20910   -20872   -20819   -20848   -21006   -21273   -21601 
  -21952   -22323   -22702   -23029   -23259   -23403   -23480   -23503 
  -23469   -23336   -23106   -22856   -22586   -22198   -21664   -21089 
  -20588   -20186   -19880   -19722   -19741   -19904   -20193   -20595 
  -21051   -21481   -21825   -22106   -22392   -22705   -23004   -23253 
  -23442   -23565   -23615   -23569   -23394   -23121   -22866   -22694 
  -22584   -22503   -22459   -22434   -22376   -22265   -22088   -21851 
  -21624   -21460   -21340   -21255   -21236   -21315   -21463   -21597 
  -21643   -21594   -21485   -21346   -21201   -21068   -20970   -20895 
  -20811   -20725   -20644   -20534   -20416   -20367   -20418   -20528 
  -20653   -20831   -21155   -21605   -22014   -22239   -22283   -22215 
  -22077   -21914   -21779   -21691   -21618   -21492   -21276   -21026 
  -20834   -20730   -20710   -20785   -20958   -21180   -21370   -21512 
  -21648   -21783   -21882   -21978   -22129   -22299   -22403   -22435 
  -22462   -22531   -22616   -22682   -22761   -22883   -23016   -23109 
  -23141   -23105   -22987   -22775   -22484   -22175   -21937   -21813 
  -21760   -21722   -21718   -21786   -21875   -21874   -21766   -21641 
  -21554   -21477   -21405   -21385   -21435   -21537   -21674   -21821 
  -21961   -22111   -22300   -22499   -22647   -22731   -22781   -22809 
  -22783   -22696   -22603   -22555   -22561   -22565   -22503   -22399 
  -22335   -22341   -22401   -22507   -22632   -22763   -22850   -22823 
  -22689   -22500   -22276   -22060   -21915   -21853   -21833   -21786 
  -21687   -21579   -21494   -21451   -21489   -21609   -21752   -21902 
  -22083   -22261   -22376   -22407   -22361   -22212   -21976   -21753 
  -21624   -21605   -21699   -21887   -22103   -22269   -22349   -22343 
  -22215   -21946   -21606   -21285   -21033   -20858   -20750   -20682 
  -20648   -20650   -20646   -20587   -20506   -20452   -20460   -20569 
  -20787   -21070   -21389   -21722   -22045   -22320   -22530   -22669 
  -22729   -22689   -22542   -22316   -22060   -21805   -21595   -21498 
  -21539   -21676   -21872   -22096   -22304   -22465   -22584   -22685 
  -22761   -22777   -22721   -22636   -22586   -22566   -22536   -22492 
  -22426   -22323   -22183   -21999   -21794   -21644   -21605   -21659 
  -21772   -21942   -22137   -22284   -22342   -22308   -22194   -22030 
  -21848   -21670   -21547   -21508   -21537   -21633   -21783   -21926 
  -22013   -22064   -22107   -22137   -22149   -22137   -22071   -21942 
  -21767   -21558   -21362   -21262   -21257   -21284   -21334   -21415 
  -21490   -21544   -21624   -21745   -21870   -21976   -22098   -22261 
  -22455   -22643   -22761   -22806   -22866   -22972   -23068   -23101 
  -23076   -22983   -22793   -22528   -22219   -21884   -21562   -21270 
  -20997   -20741   -20538   -20405   -20294   -20201   -20182   -20220 
  -20259   -20331   -20467   -20630   -20790   -20943   -21051   -21085 
  -21054   -20957   -20777   -20522   -20213   -19884   -19583   -19353 
  -19269   -19372   -19599   -19897   -20255   -20603   -20896   -21177 
  -21481   -21763   -21987   -22158   -22296   -22397   -22424   -22347 
  -22196   -22037   -21895   -21749   -21579   -21429   -21358   -21346 
  -21359   -21400   -21460   -21516   -21567   -21605   -21573   -21447 
  -21290   -21197   -21196   -21284   -21482   -21795   -22158   -22482 
  -22713   -22855   -22951   -23024   -23052   -23040   -23028   -23043 
  -23055   -23031   -22954   -22798   -22574   -22333   -22100   -21872 
  -21659   -21504   -21409   -21313   -21222   -21207   -21284   -21401 
  -21508   -21562   -21568   -21563   -21548   -21510   -21485   -21483 
  -21465   -21397   -21267   -21073   -20842   -20626   -20440   -20301 
  -20285   -20433   -20680   -20968   -21297   -21644   -21959   -22245 
  -22504   -22688   -22773   -22778   -22708   -22597   -22504   -22414 
  -22275   -22084   -21856   -21589   -21347   -21224   -21246   -21400 
  -21671   -22018   -22378   -22697   -22909   -22995   -22999   -22985 
  -22982   -23001   -23052   -23118   -23145   -23120   -23066   -22981 
  -22860   -22751   -22671   -22574   -22437   -22304   -22189   -22052 
  -21907   -21795   -21675   -21513   -21339   -21159   -20989   -20898 
  -20939   -21092   -21311   -21564   -21828   -22053   -22196   -22237 
  -22187   -22086   -22003   -21991   -22042   -22129   -22239   -22360 
  -22454   -22501   -22519   -22535   -22569   -22599   -22616   -22688 
  -22848   -23044   -23225   -23352   -23390   -23350   -23260   -23130 
  -22979   -22794   -22567   -22346   -22173   -22015   -21840   -21697 
  -21639   -21639   -21639   -21652   -21735   -21909   -22150   -22419 
  -22657   -22825   -22933   -23004   -23037   -23037   -23014   -22947 
  -22793   -22547   -22258   -21963   -21664   -21390   -21203   -21122 
  -21139   -21246   -21401   -21529   -21606   -21627   -21590   -21524 
  -21452   -21377   -21308   -21255   -21211   -21165   -21165   -21263 
  -21451   -21693   -21949   -22192   -22407   -22546   -22570   -22484 
  -22316   -22118   -21929   -21745   -21555   -21386   -21209   -20945 
  -20621   -20348   -20174   -20097   -20127   -20282   -20549   -20877 
  -21223   -21555   -21868   -22188   -22507   -22763   -22923   -22985 
  -22944   -22815   -22653   -22501   -22373   -22265   -22161   -22037 
  -21870   -21636   -21343   -21051   -20848   -20773   -20826   -20996 
  -21236   -21478   -21694   -21898   -22100   -22297   -22462   -22570 
  -22632   -22675   -22724   -22786   -22837   -22840   -22779   -22673 
  -22527   -22353   -22172   -22014   -21910   -21868   -21884   -21955 
  -22073   -22218   -22341   -22373   -22260   -22030   -21794   -21658 
  -21639   -21672   -21708   -21755   -21809   -21810   -21724   -21566 
  -21378   -21220   -21142   -21126   -21136   -21199   -21335   -21516 
  -21690   -21825   -21888   -21876   -21837   -21810   -21767   -21683 
  -21597   -21528   -21443   -21324   -21180   -21023   -20872   -20738 
  -20626   -20528   -20447   -20420   -20493   -20657   -20846   -21006 
  -21128   -21201   -21216   -21212   -21227   -21254   -21282   -21297 
  -21278   -21215   -21123   -21020   -20904   -20773   -20642   -20532 
  -20440   -20390   -20424   -20532   -20669   -20829   -21018   -21219 
  -21412   -21594   -21749   -21860   -21926   -21946   -21929   -21911 
  -21928   -21972   -22010   -21995   -21922   -21840   -21771   -21708 
  -21658   -21614   -21575   -21578   -21649   -21732   -21763   -21749 
  -21726   -21699   -21662   -21625   -21600   -21571   -21543   -21544 
  -21586   -21658   -21748   -21834   -21915   -22025   -22149   -22227 
  -22249   -22249   -22214   -22087   -21852   -21551   -21242   -20973 
  -20768   -20630   -20578   -20617   -20727   -20875   -21034   -21212 
  -21427   -21681   -21955   -22210   -22414   -22559   -22648   -22673 
  -22635   -22563   -22481   -22391   -22283   -22153   -22018   -21901 
  -21795   -21726   -21730   -21810   -21952   -22149   -22381   -22634 
  -22855   -22971   -22989   -22967   -22910   -22812   -22700   -22559 
  -22385   -22229   -22098   -21936   -21732   -21521   -21327   -21157 
  -21042   -20999   -21006   -21057   -21188   -21400   -21656   -21936 
  -22225   -22484   -22693   -22848   -22931   -22950   -22952   -22943 
  -22902   -22851   -22833   -22867   -22917   -22932   -22874   -22756 
  -22605   -22454   -22331   -22227   -22140   -22107   -22153   -22234 
  -22324   -22442   -22578   -22717   -22860   -22997   -23106   -23191 
  -23237   -23218   -23143   -23006   -22801   -22555   -22312   -22090 
  -21886   -21687   -21486   -21317   -21207   -21139   -21134   -21207 
  -21323   -21467   -21652   -21834   -21963   -22041   -22088   -22107 
  -22119   -22142   -22172   -22207   -22239   -22256   -22254   -22246 
  -22237   -22218   -22177   -22125   -22071   -22023   -21967   -21905 
  -21845   -21771   -21675   -21583   -21540   -21574   -21656   -21729 
  -21776   -21822   -21882   -21930   -21929   -21863   -21749   -21620 
  -21494   -21373   -21243   -21119   -21022   -20910   -20745   -20568 
  -20429   -20331   -20267   -20232   -20202   -20175   -20175   -20201 
  -20243   -20295   -20335   -20339   -20312   -20275   -20260   -20294 
  -20374   -20478   -20599   -20742   -20884   -21003   -21087   -21146 
  -21205   -21277   -21384   -21544   -21740   -21921   -22049   -22117 
  -22126   -22099   -22072   -22046   -21992   -21925   -21890   -21890 
  -21888   -21860   -21826   -21816   -21824   -21838   -21868   -21919 
  -21994   -22080   -22180   -22308   -22454   -22619   -22808   -22971 
  -23051   -23067   -23051   -23012   -22975   -22986   -23048   -23130 
  -23205   -23276   -23326   -23333   -23311   -23267   -23174   -23045 
  -22945   -22904   -22897   -22906   -22923   -22933   -22951   -22993 
  -23051   -23103   -23144   -23145   -23066   -22912   -22736   -22565 
  -22383   -22212   -22100   -22054   -22064   -22094   -22103   -22107 
  -22145   -22211   -22265   -22284   -22272   -22230   -22142   -22006 
  -21841   -21693   -21581   -21492   -21423   -21386   -21375   -21369 
  -21348   -21288   -21178   -21055   -20952   -20883   -20869   -20915 
  -20989   -21046   -21072   -21091   -21112   -21126   -21138   -21161 
  -21185   -21208   -21230   -21240   -21239   -21242   -21258   -21270 
  -21297   -21367   -21459   -21546   -21654   -21794   -21938   -22090 
  -22260   -22411   -22474   -22418   -22292   -22168   -22069   -21975 
  -21872   -21791   -21755   -21747   -21718   -21652   -21575   -21516 
  -21481   -21475   -21496   -21521   -21563   -21651   -21783   -21924 
  -22040   -22123   -22167   -22162   -22126   -22083   -22029   -21952 
  -21860   -21763   -21670   -21590   -21514   -21454   -21431   -21438 
  -21455   -21490   -21570   -21713   -21895   -22068   -22198   -22280 
  -22302   -22250   -22158   -22076   -22019   -22000   -22040   -22131 
  -22239   -22330   -22405   -22485   -22586   -22700   -22810   -22920 
  -23026   -23118   -23178   -23193   -23178   -23147   -23090   -23020 
  -22956   -22879   -22778   -22686   -22611   -22501   -22346   -22187 
  -22048   -21915   -21729   -21458   -21134   -20810   -20517   -20274 
  -20101   -19996   -19936   -19911   -19901   -19893   -19893   -19920 
  -19998   -20132   -20299   -20463   -20603   -20748   -20919   -21073 
  -21157   -21188   -21195   -21189   -21182   -21166   -21126   -21085 
  -21073   -21081   -21091   -21099   -21099   -21091   -21080   -21055 
  -21028   -21027   -21049   -21087   -21134   -21165   -21176   -21200 
  -21258   -21346   -21458   -21590   -21741   -21886   -21986   -22013 
  -21965   -21879   -21774   -21658   -21535   -21425   -21373   -21375 
  -21401   -21465   -21587   -21740   -21895   -22060   -22233   -22400 
  -22540   -22647   -22720   -22755   -22763   -22762   -22752   -22729 
  -22692   -22662   -22642   -22611   -22577   -22553   -22526   -22489 
  -22441   -22376   -22314   -22249   -22158   -22056   -21955   -21848 
  -21753   -21689   -21649   -21620   -21575   -21512   -21442   -21377 
  -21348   -21363   -21419   -21519   -21651   -21776   -21872   -21959 
  -22071   -22208   -22354   -22495   -22620   -22729   -22816   -22870 
  -22912   -22964   -23017   -23053   -23074   -23072   -23060   -23048 
  -23037   -23028   -23026   -23052   -23106   -23164   -23199   -23190 
  -23116   -22985   -22812   -22582   -22303   -22021   -21744   -21455 
  -21184   -20962   -20787   -20652   -20556   -20463   -20356   -20286 
  -20267   -20247   -20202   -20155   -20127   -20124   -20127   -20109 
  -20074   -20038   -20000   -19963   -19938   -19923   -19915   -19931 
  -19974   -20016   -20066   -20156   -20279   -20416   -20568   -20721 
  -20868   -21001   -21108   -21174   -21200   -21197   -21188   -21180 
  -21182   -21199   -21236   -21324   -21446   -21570   -21718   -21911 
  -22133   -22361   -22574   -22759   -22918   -23044   -23130   -23168 
  -23147   -23071   -22955   -22815   -22677   -22561   -22466   -22407 
  -22408   -22477   -22613   -22832   -23109   -23398   -23676   -23943 
  -24170   -24324   -24409   -24437   -24409   -24333   -24231   -24115 
  -23997   -23849   -23647   -23433   -23234   -23052   -22916   -22851 
  -22859   -22940   -23074   -23207   -23301   -23355   -23384   -23395 
  -23365   -23268   -23102   -22914   -22720   -22496   -22256   -22036 
  -21834   -21652   -21506   -21388   -21298   -21270   -21311   -21398 
  -21529   -21687   -21817   -21895   -21940   -21933   -21837   -21664 
  -21482   -21339   -21222   -21101   -20989   -20900   -20810   -20688 
  -20559   -20464   -20425   -20441   -20494   -20556   -20617   -20680 
  -20731   -20753   -20730   -20667   -20572   -20459   -20339   -20231 
  -20150   -20115   -20140   -20217   -20322   -20434   -20545   -20656 
  -20753   -20837   -20927   -21037   -21155   -21262   -21344   -21388 
  -21385   -21369   -21358   -21342   -21338   -21369   -21406   -21423 
  -21435   -21452   -21456   -21443   -21428   -21435   -21447   -21452 
  -21462   -21486   -21527   -21574   -21598   -21579   -21531   -21482 
  -21431   -21351   -21269   -21227   -21228   -21243   -21246   -21223 
  -21170   -21100   -21026   -20960   -20927   -20949   -21014   -21092 
  -21184   -21312   -21466   -21602   -21714   -21820   -21924   -22027 
  -22141   -22241   -22292   -22300   -22283   -22234   -22164   -22104 
  -22071   -22056   -22072   -22131   -22222   -22319   -22423   -22509 
  -22547   -22559   -22582   -22607   -22619   -22626   -22632   -22634 
  -22623   -22604   -22567   -22505   -22439   -22374   -22299   -22216 
  -22156   -22126   -22107   -22083   -22049   -22009   -21973   -21960 
  -21979   -22033   -22108   -22198   -22293   -22374   -22432   -22478 
  -22508   -22512   -22496   -22481   -22476   -22481   -22508   -22570 
  -22640   -22680   -22692   -22686   -22662   -22607   -22501   -22350 
  -22176   -21999   -21826   -21659   -21510   -21398   -21324   -21271 
  -21227   -21203   -21211   -21253   -21343   -21466   -21581   -21674 
  -21741   -21757   -21714   -21631   -21523   -21412   -21311   -21223 
  -21168   -21165   -21203   -21265   -21335   -21392   -21427   -21438 
  -21419   -21366   -21296   -21227   -21154   -21069   -20979   -20891 
  -20821   -20765   -20734   -20771   -20887   -21061   -21262   -21478 
  -21717   -21969   -22198   -22376   -22495   -22555   -22582   -22585 
  -22573   -22562   -22566   -22576   -22589   -22609   -22636   -22662 
  -22690   -22719   -22740   -22743   -22720   -22684   -22627   -22530 
  -22412   -22302   -22200   -22115   -22056   -22006   -21959   -21924 
  -21915   -21921   -21925   -21933   -21956   -21979   -21995   -22005 
  -22014   -22041   -22090   -22135   -22157   -22150   -22140   -22145 
  -22162   -22202   -22270   -22339   -22377   -22400   -22431   -22465 
  -22485   -22489   -22485   -22462   -22416   -22360   -22297   -22214 
  -22098   -21961   -21829   -21713   -21618   -21535   -21450   -21366 
  -21294   -21220   -21168   -21173   -21230   -21308   -21408   -21547 
  -21718   -21884   -22013   -22099   -22150   -22171   -22156   -22096 
  -22006   -21895   -21766   -21625   -21490   -21358   -21239   -21178 
  -21190   -21259   -21371   -21513   -21686   -21887   -22069   -22187 
  -22250   -22283   -22264   -22184   -22061   -21921   -21779   -21635 
  -21485   -21344   -21242   -21186   -21155   -21149   -21181   -21242 
  -21301   -21342   -21363   -21367   -21346   -21297   -21239   -21181 
  -21123   -21066   -21030   -21034   -21078   -21143   -21219   -21323 
  -21454   -21583   -21702   -21814   -21915   -22014   -22114   -22208 
  -22291   -22361   -22407   -22422   -22392   -22323   -22243   -22169 
  -22081   -21972   -21861   -21767   -21685   -21622   -21579   -21554 
  -21540   -21524   -21498   -21469   -21435   -21406   -21389   -21367 
  -21334   -21289   -21226   -21124   -20991   -20850   -20718   -20603 
  -20510   -20443   -20394   -20358   -20351   -20397   -20479   -20583 
  -20719   -20883   -21061   -21250   -21436   -21601   -21760   -21917 
  -22044   -22131   -22189   -22223   -22238   -22242   -22223   -22177 
  -22118   -22050   -21975   -21899   -21825   -21756   -21682   -21585 
  -21489   -21425   -21397   -21412   -21479   -21583   -21689   -21779 
  -21855   -21899   -21909   -21902   -21894   -21902   -21932   -21983 
  -22057   -22134   -22189   -22231   -22268   -22300   -22341   -22393 
  -22455   -22536   -22631   -22729   -22835   -22943   -23045   -23132 
  -23195   -23233   -23248   -23247   -23236   -23214   -23183   -23148 
  -23117   -23066   -22970   -22832   -22673   -22499   -22314   -22135 
  -21978   -21852   -21776   -21743   -21730   -21745   -21783   -21833 
  -21914   -22025   -22154   -22293   -22414   -22511   -22586   -22636 
  -22671   -22693   -22701   -22720   -22755   -22801   -22852   -22906 
  -22950   -22974   -22982   -22959   -22897   -22823   -22758   -22700 
  -22646   -22594   -22534   -22459   -22364   -22253   -22141   -22030 
  -21928   -21844   -21797   -21794   -21845   -21941   -22049   -22134 
  -22189   -22216   -22212   -22191   -22161   -22140   -22153   -22202 
  -22270   -22349   -22427   -22501   -22563   -22604   -22620   -22604 
  -22553   -22482   -22400   -22296   -22150   -21963   -21760   -21582 
  -21438   -21328   -21262   -21244   -21269   -21328   -21416   -21535 
  -21683   -21834   -21967   -22092   -22215   -22314   -22372   -22396 
  -22404   -22412   -22435   -22470   -22513   -22580   -22673   -22782 
  -22900   -23005   -23072   -23093   -23064   -22978   -22831   -22635 
  -22412   -22179   -21957   -21759   -21589   -21458   -21371   -21327 
  -21327   -21365   -21435   -21524   -21605   -21662   -21694   -21699 
  -21687   -21668   -21655   -21643   -21609   -21562   -21521   -21485 
  -21448   -21419   -21406   -21423   -21465   -21520   -21568   -21604 
  -21625   -21617   -21566   -21490   -21389   -21254   -21101   -20938 
