Origin Time       2025/01/13 21:19:00
Lat.              31.8
Long.             131.6
Depth. (km)       30
Mag.              6.9
Station Code      KGSH06
Station Lat.      31.6988
Station Long.     130.4594
Station Height(m) 131.07
Record Time       2025/01/13 21:19:51
Sampling Freq(Hz) 100Hz
Duration Time(s)  205
Dir.              4
Scale Factor      3920(gal)/6170801
Max. Acc. (gal)   4.299
Last Correction   2025/01/13 21:19:36
Memo.             
[...]
   25338    25570    25549    25240    24761    24244    23752    23356 
   23174    23235    23390    23458    23364    23119    22804    22528 
   22350    22291    22344    22446    22545    22647    22743    22789 
   22779    22753    22734    22711    22672    22666    22751    22950 
   23364    24133    25215    26391    27433    28108    28191    27684 
   26906    26264    25973    26045    26370    26712    26816    26621 
   26288    26015    25923    26025    26222    26397    26484    26462 
   26424    26602    27106    27729    28124    28077    27578    26799 
   26038    25551    25367    25293    25131    24845    24492    24141 
   23898    23884    24154    24642    25144    25428    25430    25267 
   25086    24969    24913    24828    24550    23974    23243    22672 
   22475    22670    23085    23455    23602    23475    23112    22673 
   22354    22257    22412    22787    23263    23689    23903    23776 
   23300    22617    21956    21525    21367    21430    21713    22196 
   22777    23352    23857    24253    24524    24671    24752    24872 
   25113    25460    25819    26120    26385    26647    26875    27013 
   27011    26843    26560    26267    26060    26036    26255    26700 
   27274    27817    28194    28333    28222    27946    27647    27415 
   27282    27234    27219    27198    27161    27125    27105    27066 
   26966    26791    26556    26318    26121    25964    25809    25582 
   25241    24805    24332    23935    23724    23723    23903    24164 
   24317    24247    24033    23785    23537    23294    23071    22917 
   22897    23027    23272    23574    23845    24000    24011    23903 
   23737    23619    23633    23768    23997    24295    24571    24764 
   24879    24904    24845    24709    24441    24034    23573    23132 
   22799    22686    22850    23268    23821    24347    24777    25100 
   25310    25455    25618    25840    26095    26338    26553    26721 
   26816    26826    26779    26730    26690    26610    26456    26252 
   26015    25758    25551    25480    25508    25510    25449    25382 
   25339    25327    25371    25497    25658    25737    25682    25530 
   25331    25120    24955    24896    24929    24995    25056    25078 
   25018    24879    24701    24530    24401    24315    24201    24014 
   23788    23569    23423    23443    23654    23948    24137    24099 
   23866    23534    23176    22878    22752    22880    23271    23870 
   24549    25149    25575    25804    25847    25737    25532    25340 
   25282    25443    25842    26409    27014    27502    27751    27751 
   27600    27426    27324    27338    27422    27413    27208    26892 
   26584    26284    25979    25731    25594    25537    25496    25444 
   25391    25363    25392    25496    25668    25845    25903    25766 
   25508    25291    25227    25347    25622    25961    26256    26424 
   26410    26239    26036    25935    25984    26118    26236    26291 
   26282    26211    26073    25875    25622    25293    24864    24376 
   23898    23446    23035    22711    22454    22145    21709    21220 
   20802    20520    20392    20400    20511    20676    20789    20791 
   20762    20792    20870    20929    20918    20784    20462    19957 
   19428    19080    19008    19184    19492    19780    19984    20123 
   20211    20278    20385    20560    20766    20934    21005    20997 
   21032    21254    21706    22317    22974    23547    23905    24018 
   24038    24199    24629    25288    26027    26638    26948    26965 
   26872    26864    27030    27356    27772    28180    28497    28684 
   28756    28806    28953    29235    29574    29825    29882    29769 
   29642    29652    29831    30096    30306    30332    30112    29698 
   29279    29060    29077    29194    29267    29212    28993    28644 
   28272    27969    27752    27577    27349    26987    26514    26030 
   25637    25370    25184    24971    24654    24259    23879    23608 
   23520    23601    23726    23747    23602    23302    22872    22350 
   21804    21325    20957    20675    20451    20305    20245    20272 
   20407    20630    20861    21028    21105    21067    20904    20644 
   20346    20078    19896    19834    19896    20070    20329    20620 
   20891    21133    21394    21721    22120    22577    23073    23561 
   24031    24513    25012    25479    25829    26005    26055    26101 
   26254    26604    27197    27949    28656    29122    29264    29125 
   28815    28421    28027    27750    27650    27672    27742    27831 
   27913    27930    27815    27538    27119    26605    26048    25527 
   25148    24982    24972    25019    25123    25319    25510    25561 
   25462    25263    24954    24515    24009    23581    23331    23231 
   23221    23288    23418    23551    23630    23637    23601    23597 
   23687    23874    24146    24507    24930    25320    25537    25504 
   25287    25039    24879    24861    25005    25265    25509    25621 
   25614    25568    25550    25608    25763    25980    26183    26265 
   26143    25868    25614    25522    25605    25774    25923    25966 
   25837    25523    25112    24749    24505    24374    24336    24361 
   24422    24515    24634    24780    24961    25151    25273    25250 
   25028    24608    24064    23491    22953    22503    22179    22017 
   21975    21915    21765    21608    21541    21550    21551    21471 
   21287    21011    20676    20363    20217    20355    20739    21188 
   21525    21668    21611    21398    21149    21027    21147    21517 
   22052    22653    23262    23825    24297    24703    25124    25601 
   26081    26491    26802    27018    27145    27185    27141    27032 
   26902    26786    26674    26555    26467    26433    26435    26482 
   26616    26833    27073    27250    27303    27240    27144    27125 
   27233    27450    27741    28046    28305    28515    28705    28861 
   28935    28897    28763    28578    28383    28205    28069    27990 
   27949    27894    27780    27586    27335    27085    26884    26758 
   26715    26707    26651    26505    26286    26039    25793    25561 
   25372    25251    25198    25198    25217    25211    25188    25167 
   25132    25082    25049    25034    25022    25026    25095    25263 
   25496    25724    25898    26015    26091    26147    26206    26273 
   26317    26269    26071    25730    25286    24805    24402    24171 
   24119    24165    24192    24148    24024    23790    23446    23064 
   22701    22378    22109    21903    21774    21715    21683    21632 
   21519    21307    20988    20596    20206    19889    19628    19345 
   19026    18738    18521    18373    18337    18499    18888    19436 
   20049    20652    21173    21538    21729    21839    22017    22330 
   22740    23215    23760    24332    24861    25326    25727    26032 
   26189    26167    25988    25720    25461    25318    25342    25489 
   25658    25766    25780    25671    25440    25177    24997    24934 
   24960    25052    25207    25428    25715    26062    26439    26752 
   26874    26733    26331    25769    25248    24922    24817    24897 
   25090    25315    25519    25713    25930    26157    26355    26496 
   26531    26415    26164    25848    25570    25405    25368    25429 
   25533    25634    25723    25813    25945    26149    26399    26610 
   26714    26706    26621    26524    26490    26541    26618    26648 
   26611    26509    26339    26110    25831    25492    25103    24721 
   24421    24268    24316    24590    25041    25538    25953    26211 
   26291    26222    26074    25931    25852    25871    25994    26162 
   26291    26326    26242    26062    25853    25626    25321    24894 
   24383    23899    23580    23514    23690    23994    24259    24360 
   24260    23997    23675    23403    23221    23076    22878    22574 
   22181    21778    21462    21315    21361    21507    21590    21531 
   21395    21267    21199    21261    21481    21760    21954    21982 
   21851    21638    21481    21523    21813    22290    22846    23382 
   23828    24154    24367    24506    24606    24669    24658    24545 
   24372    24239    24220    24331    24560    24871    25186    25418 
   25542    25603    25665    25761    25910    26134    26395    26599 
   26679    26658    26596    26504    26346    26117    25839    25552 
   25314    25183    25184    25302    25487    25671    25780    25764 
   25631    25456    25315    25242    25230    25241    25238    25203 
   25109    24919    24623    24266    23909    23606    23377    23195 
   23053    22997    23041    23152    23272    23356    23396    23405 
   23369    23252    23098    23019    23083    23279    23576    23953 
   24376    24756    25014    25174    25299    25416    25542    25699 
   25898    26119    26320    26499    26703    26940    27163    27355 
   27525    27664    27764    27830    27859    27874    27900    27916 
   27886    27799    27641    27385    27046    26696    26429    26309 
   26341    26490    26701    26899    27020    27032    26935    26746 
   26491    26173    25763    25251    24672    24079    23520    23041 
   22680    22441    22282    22157    22017    21818    21553    21261 
   21023    20903    20894    20946    21019    21094    21185    21324 
   21538    21831    22155    22439    22653    22825    23001    23238 
   23601    24097    24646    25127    25439    25555    25523    25389 
   25180    24952    24773    24656    24586    24569    24612    24688 
   24775    24910    25159    25531    25970    26410    26822    27214 
   27607    28006    28420    28859    29278    29603    29816    29931 
   29954    29902    29813    29701    29544    29343    29145    28979 
   28814    28609    28354    28049    27683    27259    26824    26447 
   26175    26015    25932    25858    25746    25579    25355    25072 
   24742    24394    24046    23709    23386    23057    22712    22401 
   22204    22143    22148    22124    22043    21947    21896    21927 
   22043    22226    22442    22621    22702    22690    22620    22497 
   22311    22098    21915    21791    21749    21833    22041    22297 
   22511    22630    22619    22443    22090    21623    21181    20902 
   20856    21044    21424    21927    22467    22961    23358    23648 
   23864    24047    24222    24405    24603    24821    25061    25317 
   25590    25894    26214    26499    26693    26763    26706    26550 
   26370    26260    26283    26435    26650    26820    26854    26709 
   26409    26049    25736    25523    25397    25295    25131    24858 
   24467    24004    23560    23208    22969    22845    22789    22698 
   22495    22159    21741    21367    21146    21103    21209    21416 
   21676    21973    22313    22707    23145    23570    23913    24156 
   24300    24321    24256    24211    24295    24587    25105    25786 
   26514    27159    27635    27917    28023    28008    27963    27981 
   28122    28386    28711    29032    29319    29529    29584    29450 
   29149    28722    28243    27829    27562    27409    27272    27069 
   26749    26312    25827    25374    24988    24657    24341    23988 
   23557    23064    22599    22276    22169    22274    22516    22786 
   23005    23146    23214    23233    23258    23336    23476    23647 
   23811    23960    24132    24392    24768    25207    25635    26017 
   26334    26575    26756    26874    26902    26823    26633    26359 
   26082    25882    25790    25823    25962    26123    26210    26147 
   25872    25353    24639    23827    23013    22294    21751    21430 
   21336    21404    21538    21660    21674    21522    21250    20931 
   20624    20419    20360    20406    20485    20506    20403    20195 
   19963    19812    19809    19957    20236    20597    20971    21326 
   21658    21952    22193    22381    22527    22644    22754    22893 
   23091    23369    23756    24286    24947    25653    26298    26814 
   27141    27231    27099    26846    26611    26473    26420    26419 
   26452    26502    26544    26547    26529    26521    26501    26480 
   26525    26660    26882    27181    27527    27876    28167    28354 
   28476    28631    28899    29284    29720    30107    30356    30401 
   30238    29935    29561    29159    28768    28425    28172    28051 
   28080    28237    28433    28528    28399    27998    27381    26667 
   25979    25430    25107    25009    25029    25061    25057    24965 
   24736    24410    24061    23701    23307    22889    22478    22112 
   21862    21818    21999    22334    22748    23190    23591    23893 
   24107    24285    24468    24691    25005    25440    25986    26595 
   27199    27742    28188    28516    28709    28769    28743    28710 
   28702    28700    28677    28615    28501    28348    28214    28141 
   28115    28090    28002    27789    27413    26870    26216    25558 
   25010    24649    24474    24407    24357    24266    24111    23906 
   23662    23356    22975    22561    22177    21874    21701    21693 
   21853    22114    22336    22403    22301    22084    21849    21729 
   21855    22238    22732    23161    23420    23491    23448    23391 
   23347    23277    23127    22852    22425    21885    21339    20901 
   20638    20546    20554    20583    20584    20535    20443    20347 
   20276    20212    20077    19792    19362    18869    18426    18122 
   17984    18004    18157    18389    18631    18851    19058    19282 
   19532    19789    20049    20298    20499    20667    20858    21113 
   21475    21997    22683    23474    24269    24971    25519    25882 
   26095    26238    26365    26521    26746    27031    27345    27668 
   27970    28212    28366    28399    28297    28097    27870    27686 
   27586    27571    27631    27758    27948    28170    28388    28593 
   28771    28834    28707    28411    28023    27630    27333    27217 
   27306    27553    27868    28163    28369    28459    28435    28284 
   27986    27581    27142    26725    26400    26237    26263    26448 
   26718    26979    27148    27172    27021    26717    26326    25920 
   25533    25172    24856    24582    24302    23991    23702    23486 
   23322    23176    23073    23059    23127    23238    23366    23506 
   23667    23842    24005    24157    24310    24445    24523    24526 
   24446    24280    24061    23875    23798    23868    24093    24423 
   24782    25122    25432    25715    25992    26282    26561    26760 
   26806    26678    26404    26043    25686    25412    25237    25113 
   24975    24759    24443    24074    23732    23473    23320    23274 
   23324    23428    23531    23623    23746    23927    24167    24457 
   24750    24971    25070    25076    25071    25131    25296    25549 
   25842    26121    26337    26462    26513    26547    26618    26729 
   26820    26814    26671    26417    26153    25981    25925    25945 
   25981    25980    25925    25853    25834    25919    26099    26329 
   26552    26717    26806    26829    26829    26859    26928    27017 
   27120    27239    27369    27508    27670    27871    28092    28278 
   28399    28445    28391    28203    27898    27547    27213    26907 
   26597    26248    25823    25276    24596    23863    23205    22721 
   22453    22396    22502    22689    22860    22966    23027    23087 
   23161    23219    23210    23109    22932    22741    22612    22602 
   22712    22873    22992    23018    22941    22787    22596    22380 
   22128    21837    21538    21298    21179    21203    21359    21593 
   21821    21970    22014    21971    21875    21779    21744    21780 
   21835    21836    21763    21685    21691    21813    22020    22251 
   22448    22559    22568    22550    22616    22805    23093    23439 
   23791    24085    24281    24415    24565    24798    25128    25526 
   25931    26270    26509    26675    26827    27014    27245    27482 
   27672    27764    27720    27552    27303    27006    26700    26429 
   26215    26039    25888    25782    25729    25714    25724    25745 
   25748    25686    25536    25348    25211    25177    25253    25406 
   25572    25657    25574    25325    25003    24704    24487    24381 
   24385    24459    24560    24662    24747    24805    24835    24816 
   24716    24515    24228    23919    23665    23530    23556    23742 
   24015    24258    24377    24351    24192    23902    23509    23094 
   22729    22438    22215    22061    21995    22014    22084    22169 
   22215    22166    22014    21809    21636    21580    21675    21877 
   22119    22370    22608    22814    23018    23259    23551    23892 
   24254    24592    24882    25134    25387    25692    26065    26465 
   26832    27146    27410    27643    27875    28128    28421    28732 
   28985    29114    29112    29017    28888    28787    28761    28838 
   28996    29162    29269    29299    29257    29145    28946    28632 
   28201    27668    27045    26365    25690    25094    24619    24260 
   23990    23768    23521    23198    22811    22397    21980    21579 
   21215    20918    20699    20538    20413    20313    20219    20102 
   19933    19714    19476    19255    19083    18996    19018    19130 
   19288    19474    19704    20017    20435    20973    21639    22401 
   23201    23986    24697    25292    25766    26140    26445    26728 
   27043    27424    27862    28298    28667    28939    29121    29225 
   29250    29191    29062    28894    28716    28545    28388    28238 
   28077    27889    27663    27415    27168    26932    26715    26508 
   26278    26004    25691    25344    24975    24625    24356    24187 
   24077    23986    23890    23768    23599    23397    23191    22997 
   22824    22663    22490    22298    22111    21959    21866    21835 
   21845    21849    21814    21737    21637    21548    21520    21593 
   21767    22006    22286    22618    23012    23447    23893    24323 
   24712    25043    25310    25526    25740    26012    26372    26809 
   27293    27792    28288    28756    29174    29530    29813    29988 
   30034    29983    29890    29786    29696    29639    29595    29520 
   29376    29141    28832    28484    28137    27827    27556    27282 
   26975    26632    26257    25853    25444    25058    24714    24410 
   24094    23709    23271    22843    22479    22223    22085    22022 
   21979    21907    21785    21623    21463    21341    21266    21231 
   21215    21178    21091    20967    20855    20794    20795    20850 
   20920    20951    20913    20819    20712    20638    20625    20680 
   20785    20924    21092    21275    21475    21709    21962    22193 
   22361    22454    22488    22484    22485    22551    22717    22991 
   23353    23731    24036    24224    24320    24363    24375    24392 
   24469    24645    24912    25221    25525    25784    25974    26090 
   26142    26148    26122    26078    26050    26083    26211    26428 
   26700    26994    27278    27523    27710    27825    27862    27829 
   27746    27628    27496    27391    27349    27398    27554    27799 
   28086    28356    28549    28637    28632    28560    28433    28250 
   28027    27777    27500    27212    26955    26753    26582    26404 
