Origin Time       2025/01/13 21:19:00
Lat.              31.8
Long.             131.6
Depth. (km)       30
Mag.              6.9
Station Code      KGSH05
Station Lat.      31.8699
Station Long.     130.4958
Station Height(m) 73.342
Record Time       2025/01/13 21:19:49
Sampling Freq(Hz) 100Hz
Duration Time(s)  229
Dir.              4
Scale Factor      7845(gal)/8223790
Max. Acc. (gal)   13.606
Last Correction   2025/01/13 21:19:50
Memo.             
[...]
   12042    12299    12742    13367    14156    15087    16186    17475 
   18890    20227    21227    21775    21899    21608    20865    19707 
   18357    17158    16308    15816    15601    15537    15435    15022 
   14095    12657    10833     8783     6705     4860     3554     3032 
    3360     4467     6168     8095     9813    11028    11647    11712 
   11327    10619     9713     8688     7612     6601     5769     5252 
    5124     5329     5769     6381     7094     7852     8658     9489 
   10215    10692    10866    10773    10503    10158     9852     9749 
   10011    10690    11711    12935    14184    15238    15954    16317 
   16345    16008    15300    14378    13543    13001    12750    12681 
   12698    12776    12954    13243    13629    14138    14823    15677 
   16615    17521    18318    18952    19272    19032    18099    16524 
   14484    12285    10241     8596     7564     7173     7283     7793 
    8638     9645    10578    11211    11434    11259    10805    10316 
   10042    10157    10798    12015    13728    15785    17948    19943 
   21593    22769    23323    23174    22322    20880    19106    17269 
   15496    13846    12388    11205    10427    10166    10361    10785 
   11246    11751    12363    13028    13648    14085    14176    13857 
   13167    12221    11273    10619    10404    10717    11610    12923 
   14355    15726    16911    17733    18076    17915    17262    16220 
   15020    13930    13104    12560    12307    12376    12752    13375 
   14193    15138    16097    16938    17533    17779    17699    17396 
   16833    15957    14872    13689    12434    11206    10193     9499 
    9119     9128     9564    10330    11416    12687    13803    14693 
   15364    15654    15495    14841    13703    12317    10948     9841 
    9243     9244     9844    11017    12522    14064    15475    16537 
   17068    17012    16333    15137    13690    12206    10835     9693 
    8837     8340     8206     8301     8542     8907     9223     9315 
    9229     9093     9001     9096     9477    10134    11003    11946 
   12829    13606    14230    14656    14890    14939    14774    14357 
   13680    12823    11878    10906     9958     9032     8070     7117 
    6285     5614     5130     4912     5035     5516     6316     7373 
    8606     9898    11076    11981    12586    12927    12987    12718 
   12150    11406    10632     9917     9390     9286     9787    10922 
   12614    14652    16740    18621    20128    21136    21635    21671 
   21285    20544    19556    18412    17269    16340    15746    15549 
   15763    16243    16857    17589    18314    18910    19352    19558 
   19508    19263    18858    18334    17693    16811    15627    14276 
   12923    11627    10397     9319     8486     7877     7412     7109 
    7044     7207     7438     7557     7473     7153     6644     6061 
    5513     5103     4941     5144     5833     7033     8623    10407 
   12185    13757    14959    15688    15931    15732    15174    14400 
   13578    12843    12314    12077    12170    12606    13338    14288 
   15425    16717    18091    19457    20698    21712    22416    22698 
   22462    21713    20513    18982    17309    15682    14296    13374 
   13082    13452    14366    15576    16816    17940    18883    19588 
   19938    19818    19272    18505    17686    16885    16163    15565 
   15120    14875    14837    14902    14937    14890    14790    14638 
   14366    13964    13463    12846    12058    11082     9972     8858 
    7846     6967     6257     5738     5381     5165     5031     4881 
    4715     4648     4819     5296     5980     6670     7222     7591 
    7761     7711     7420     6960     6493     6133     5952     6056 
    6509     7348     8573    10116    11878    13721    15426    16787 
   17732    18333    18690    18850    18829    18663    18428    18196 
   17992    17864    17948    18330    18925    19522    19961    20200 
   20281    20245    20113    19882    19500    18868    17940    16733 
   15256    13570    11836    10238     8922     7975     7387     7083 
    7003     7121     7402     7749     7993     8004     7753     7236 
    6484     5598     4707     3989     3618     3586     3831     4364 
    5173     6228     7508     8874    10147    11206    11967    12406 
   12550    12479    12343    12260    12272    12420    12702    13062 
   13500    14073    14817    15711    16671    17527    18123    18399 
   18360    18053    17577    17092    16777    16762    17122    17834 
   18769    19812    20899    21892    22573    22759    22362    21402 
   19959    18135    16071    13922    11786     9738     7885     6373 
    5319     4691     4371     4303     4502     5005     5840     6956 
    8228     9487    10539    11210    11383    11010    10152     8996 
    7850     7059     6818     7129     7969     9321    11030    12814 
   14415    15680    16576    17073    17058    16571    15832    15002 
   14150    13370    12768    12390    12225    12247    12394    12564 
   12753    12999    13296    13680    14139    14586    14999    15408 
   15826    16235    16625    17012    17378    17667    17878    18069 
   18254    18387    18436    18420    18322    18084    17658    17027 
   16222    15326    14465    13736    13180    12843    12779    12991 
   13436    14049    14729    15352    15782    15977    15971    15769 
   15373    14844    14261    13736    13390    13247    13302    13606 
   14154    14835    15473    15855    15838    15454    14825    14089 
   13423    12972    12768    12789    12995    13270    13466    13500 
   13366    13080    12623    11994    11277    10629    10184     9969 
    9895     9886     9950    10069    10200    10353    10536    10719 
   10878    11014    11125    11226    11373    11573    11746    11855 
   11916    11942    11932    11877    11750    11541    11227    10770 
   10154     9428     8658     7912     7257     6758     6467     6417 
    6597     6964     7473     8067     8634     9058     9275     9244 
    8927     8359     7647     6928     6370     6161     6442     7300 
    8756    10686    12865    15039    16981    18501    19426    19657 
   19272    18470    17437    16357    15433    14751    14269    13930 
   13664    13427    13297    13297    13367    13559    13892    14254 
   14531    14667    14732    14854    15032    15178    15209    15056 
   14682    14111    13427    12729    12102    11620    11276    10978 
   10697    10489    10386    10374    10412    10485    10615    10809 
   11088    11502    12073    12789    13612    14493    15391    16258 
   17055    17772    18407    18922    19218    19217    18945    18520 
   18090    17805    17793    18094    18650    19413    20339    21288 
   22113    22736    23070    23090    22846    22376    21766    21097 
   20347    19480    18478    17297    15928    14386    12725    11074 
    9616     8491     7723     7269     7069     7076     7246     7512 
    7774     7912     7850     7601     7223     6777     6363     6091 
    5994     6060     6288     6710     7369     8252     9269    10327 
   11356    12286    13022    13487    13660    13536    13116    12463 
   11732    11067    10546    10243    10222    10493    11001    11612 
   12208    12780    13367    13938    14430    14794    15016    15097 
   15068    15001    14975    15056    15279    15626    16038    16441 
   16762    16939    16933    16708    16270    15688    15005    14202 
   13265    12236    11225    10366     9767     9477     9479     9713 
   10110    10590    11059    11421    11627    11669    11578    11430 
   11287    11171    11086    11017    10945    10914    10979    11136 
   11350    11600    11866    12116    12295    12349    12278    12085 
   11762    11321    10794    10203     9603     9103     8776     8658 
    8770     9109     9647    10311    10982    11519    11840    11932 
   11809    11499    11029    10436     9813     9306     9067     9163 
    9564    10214    11033    11908    12739    13447    13965    14303 
   14505    14577    14516    14341    14057    13674    13236    12843 
   12588    12491    12526    12664    12903    13288    13833    14472 
   15117    15724    16233    16564    16673    16556    16231    15753 
   15198    14646    14161    13786    13575    13595    13848    14274 
   14802    15344    15816    16166    16341    16345    16225    15986 
   15610    15093    14469    13826    13279    12901    12700    12638 
   12644    12652    12672    12780    13036    13448    13977    14571 
   15203    15865    16537    17205    17906    18659    19379    19904 
   20108    19934    19387    18511    17421    16266    15138    14077 
   13113    12260    11558    11097    10921    11001    11252    11551 
   11753    11788    11686    11504    11263    10984    10686    10381 
   10111     9936     9884     9949    10099    10336    10709    11263 
   11970    12738    13504    14239    14914    15476    15873    16098 
   16174    16074    15758    15284    14785    14353    14023    13807 
   13672    13585    13551    13576    13644    13706    13675    13466 
   13047    12460    11793    11110    10451     9867     9421     9159 
    9111     9271     9590    10014    10494    10957    11314    11533 
   11650    11695    11651    11493    11211    10818    10361     9907 
    9544     9336     9269     9252     9184     9016     8797     8635 
    8619     8772     9062     9439     9832    10177    10481    10797 
   11157    11541    11874    12139    12425    12831    13387    14094 
   14931    15832    16711    17478    18049    18370    18426    18243 
   17864    17297    16569    15796    15129    14648    14338    14127 
   13929    13693    13423    13150    12920    12807    12845    13018 
   13296    13647    14038    14447    14851    15218    15468    15503 
   15284    14825    14157    13356    12505    11622    10686     9695 
    8696     7781     7020     6461     6161     6130     6313     6654 
    7113     7680     8355     9121     9940    10748    11499    12168 
   12765    13311    13805    14224    14530    14701    14763    14755 
   14721    14700    14700    14679    14574    14338    13964    13452 
   12781    11946    11011    10083     9236     8526     7992     7631 
    7420     7342     7373     7480     7669     7998     8518     9202 
    9973    10763    11508    12124    12523    12669    12555    12190 
   11637    11005    10424    10018     9860     9979    10384    11026 
   11815    12690    13617    14548    15426    16186    16794    17253 
   17558    17707    17716    17613    17440    17235    17066    17014 
   17134    17462    18015    18766    19651    20572    21413    22103 
   22621    22968    23144    23134    22931    22534    21964    21278 
   20547    19815    19128    18540    18081    17687    17266    16772 
   16178    15472    14716    13994    13302    12583    11786    10902 
    9953     8988     8060     7200     6376     5517     4602     3674 
    2840     2226     1969     2173     2880     4064     5611     7387 
    9285    11196    12973    14484    15610    16254    16421    16225 
   15826    15400    15113    15032    15168    15550    16218    17143 
   18231    19372    20436    21281    21809    21980    21809    21355 
   20668    19785    18770    17695    16644    15685    14848    14142 
   13556    13039    12548    12075    11615    11179    10802    10498 
   10226     9902     9443     8816     8033     7130     6153     5142 
    4167     3358     2825     2608     2747     3256     4078     5111 
    6245     7388     8471     9433    10247    10955    11600    12214 
   12822    13429    14026    14582    15051    15438    15790    16128 
   16424    16630    16707    16636    16395    15977    15414    14767 
   14127    13594    13238    13070    13054    13127    13239    13365 
   13518    13720    13944    14148    14319    14438    14457    14312 
   13929    13277    12414    11450    10520     9763     9323     9301 
    9734    10601    11813    13227    14675    15996    17072    17845 
   18246    18184    17640    16687    15476    14208    13023    11967 
   11065    10293     9655     9259     9155     9277     9524     9747 
    9855     9925    10008    10072    10143    10223    10233    10181 
   10119    10031     9975    10048    10307    10786    11448    12205 
   13000    13748    14357    14821    15142    15252    15094    14709 
   14181    13603    13109    12834    12869    13282    14107    15279 
   16633    17957    19037    19701    19832    19383    18424    17111 
   15589    14014    12568    11396    10594    10274    10469    11044 
   11840    12681    13313    13601    13509    12972    11992    10667 
    9143     7630     6307     5305     4714     4504     4595     4945 
    5501     6203     7052     8085     9282    10558    11820    13014 
   14076    14956    15643    16131    16409    16491    16405    16216 
   16027    15939    16073    16532    17321    18365    19561    20815 
   22029    23099    23916    24398    24528    24328    23838    23148 
   22368    21608    20949    20445    20133    20009    20013    20055 
   20054    19939    19666    19213    18580    17811    16980    16105 
   15160    14129    13028    11904    10804     9748     8734     7786 
    6937     6154     5363     4545     3693     2803     1910     1065 
     307     -333     -839    -1174    -1323    -1318    -1156     -820 
    -355      182      789     1479     2235     3028     3813     4523 
    5117     5620     6057     6477     6951     7497     8101     8783 
    9579    10492    11493    12533    13549    14478    15260    15863 
   16283    16548    16706    16823    16984    17258    17659    18142 
   18671    19225    19758    20225    20592    20860    21062    21230 
   21354    21406    21355    21158    20769    20181    19431    18542 
   17532    16447    15311    14102    12820    11516    10280     9194 
    8307     7619     7094     6691     6392     6189     6100     6168 
    6427     6886     7518     8278     9115     9975    10810    11547 
   12113    12495    12704    12768    12748    12723    12769    12918 
   13126    13309    13401    13358    13147    12811    12467    12248 
   12283    12661    13436    14624    16158    17906    19722    21440 
   22904    24017    24765    25123    25073    24663    23961    23040 
   22005    20953    19946    19052    18339    17833    17506    17338 
   17320    17397    17444    17343    16995    16308    15260    13956 
   12559    11206    10050     9238     8861     8947     9423    10114 
   10845    11464    11866    11996    11821    11349    10627     9713 
    8688     7626     6571     5590     4780     4197     3862     3798 
    4028     4576     5439     6559     7857     9250    10669    12054 
   13347    14507    15512    16355    17018    17500    17811    17965 
   17965    17818    17509    17003    16303    15462    14561    13728 
   13096    12766    12804    13182    13819    14643    15585    16549 
   17428    18110    18488    18504    18181    17591    16816    15967 
   15151    14440    13911    13610    13495    13468    13435    13386 
   13367    13363    13352    13344    13274    13117    12922    12634 
   12201    11647    11017    10346     9670     9028     8451     7959 
    7585     7319     7142     7065     7067     7082     7094     7105 
    7096     7033     6872     6594     6249     5954     5845     6003 
    6466     7234     8260     9478    10837    12303    13813    15276 
   16592    17621    18235    18335    17841    16757    15209    13389 
   11514     9759     8260     7140     6520     6528     7242     8603 
   10432    12502    14584    16511    18100    19143    19521    19240 
   18345    16943    15303    13743    12459    11560    11186    11445 
   12314    13620    15142    16738    18249    19483    20301    20547 
   20124    19102    17543    15452    13016    10554     8299     6415 
    5070     4384     4329     4865     5984     7549     9362    11240 
   12960    14327    15226    15610    15511    15005    14208    13275 
   12312    11402    10639    10123     9923     9990    10280    10804 
   11502    12333    13292    14284    15228    16060    16644    16920 
   16951    16779    16474    16174    15957    15858    15955    16286 
   16798    17439    18191    18998    19786    20497    21034    21307 
   21288    20968    20370    19572    18644    17626    16591    15626 
   14805    14196    13817    13632    13656    13905    14324    14818 
   15260    15504    15444    15025    14246    13151    11831    10413 
    9070     7947     7125     6679     6648     6987     7622     8500 
    9543    10605    11531    12213    12563    12513    12081    11372 
   10563     9861     9398     9201     9283     9621    10118    10685 
   11279    11819    12178    12297    12174    11790    11149    10326 
    9431     8588     7909     7500     7470     7884     8704     9823 
   11106    12410    13624    14650    15361    15665    15600    15263 
   14698    13968    13181    12429    11759    11238    10913    10748 
   10719    10821    10995    11209    11469    11724    11916    12040 
   12078    12048    11994    11909    11799    11684    11558    11429 
   11313    11202    11126    11149    11284    11547    11966    12509 
   13130    13790    14407    14904    15228    15346    15264    14985 
   14516    13890    13176    12511    12033    11817    11889    12226 
   12775    13459    14196    14902    15512    16001    16393    16711 
   16954    17135    17269    17359    17421    17469    17481    17435 
   17308    17077    16733    16271    15662    14906    14061    13212 
   12410    11665    11005    10454    10011     9690     9521     9516 
    9691    10076    10635    11245    11786    12181    12375    12367 
   12198    11901    11504    11079    10696    10423    10314    10381 
   10590    10871    11141    11311    11299    11079    10666    10091 
    9404     8679     8005     7457     7118     7084     7402     8074 
    9085    10373    11846    13392    14885    16198    17236    17942 
   18297    18333    18119    17741    17285    16831    16451    16195 
   16119    16240    16540    16978    17501    18036    18507    18825 
   18941    18816    18401    17709    16812    15796    14733    13682 
   12690    11813    11079    10484    10021     9686     9487     9416 
    9427     9481     9532     9543     9499     9398     9259     9128 
    9073     9166     9455     9954    10638    11461    12363    13258 
   14081    14770    15253    15515    15580    15496    15325    15136 
   14997    14974    15093    15354    15742    16200    16650    17030 
   17277    17370    17329    17174    16920    16603    16236    15826 
   15388    14931    14454    13952    13413    12820    12197    11600 
   11097    10710    10462    10386    10500    10756    11065    11346 
   11551    11670    11693    11601    11399    11107    10733    10297 
    9826     9323     8799     8259     7700     7140     6615     6158 
    5809     5625     5665     5958     6507     7287     8260     9378 
   10592    11835    13007    14023    14825    15392    15751    15924 
