Origin Time       2025/01/13 21:19:00
Lat.              31.8
Long.             131.6
Depth. (km)       30
Mag.              6.9
Station Code      KGWH02
Station Lat.      34.1980
Station Long.     133.7081
Station Height(m) -195
Record Time       2025/01/13 21:20:28
Sampling Freq(Hz) 100Hz
Duration Time(s)  146
Dir.              2
Scale Factor      2942(gal)/8224139
Max. Acc. (gal)   1.188
Last Correction   2025/01/13 21:20:28
Memo.             
[...]
   89918    89996    90039    90078    90147    90202    90198    90212 
   90329    90460    90463    90340    90221    90189    90200    90228 
   90292    90360    90417    90497    90586    90622    90587    90529 
   90501    90509    90508    90477    90440    90373    90266    90209 
   90265    90378    90493    90616    90740    90848    90926    90933 
   90877    90830    90805    90744    90643    90572    90537    90463 
   90383    90393    90479    90607    90738    90783    90709    90603 
   90566    90598    90620    90593    90555    90521    90495    90477 
   90421    90332    90258    90180    90063    89947    89868    89800 
   89731    89684    89688    89739    89797    89841    89850    89800 
   89707    89604    89519    89496    89515    89506    89472    89464 
   89513    89631    89785    89935    90078    90188    90243    90282 
   90319    90319    90266    90181    90101    90076    90092    90077 
   90031    90013    90019    90038    90111    90193    90186    90130 
   90105    90104    90084    90004    89826    89602    89452    89421 
   89441    89405    89270    89116    89048    89091    89205    89349 
   89502    89633    89721    89765    89768    89779    89862    89959 
   89988    89951    89865    89737    89649    89698    89888    90093 
   90165    90111    90022    89980    90042    90144    90162    90054 
   89868    89702    89622    89575    89503    89461    89523    89645 
   89756    89853    89937    89999    90046    90058    90009    89916 
   89810    89692    89559    89411    89280    89198    89205    89302 
   89401    89446    89500    89557    89594    89675    89765    89752 
   89652    89563    89548    89611    89683    89684    89614    89499 
   89353    89209    89120    89121    89213    89353    89461    89506 
   89534    89548    89475    89302    89091    88929    88882    88916 
   88947    88971    89029    89131    89237    89330    89424    89500 
   89536    89548    89580    89623    89630    89610    89584    89521 
   89406    89299    89244    89268    89403    89592    89721    89777 
   89804    89787    89737    89749    89861    90026    90178    90256 
   90246    90197    90113    89989    89912    89920    89930    89931 
   89974    90067    90173    90242    90277    90312    90362    90447 
   90564    90670    90721    90688    90575    90436    90332    90298 
   90340    90431    90508    90536    90537    90535    90528    90537 
   90545    90505    90412    90301    90208    90151    90120    90089 
   90047    90012    90011    90038    90050    90020    89946    89872 
   89846    89854    89865    89869    89854    89803    89749    89765 
   89833    89877    89920    89989    90012    89958    89864    89760 
   89667    89583    89500    89445    89446    89526    89672    89800 
   89845    89847    89839    89803    89765    89777    89831    89850 
   89811    89775    89742    89699    89708    89777    89816    89820 
   89831    89837    89843    89874    89870    89795    89712    89676 
   89654    89650    89691    89718    89699    89726    89823    89910 
   89984    90053    90046    89947    89833    89742    89671    89595 
   89502    89397    89278    89131    88993    88933    88982    89113 
   89267    89376    89425    89437    89434    89422    89397    89355 
   89324    89341    89386    89418    89440    89468    89515    89573 
   89598    89567    89560    89633    89733    89831    89932    89989 
   89977    89953    89943    89923    89896    89865    89834    89845 
   89916    90001    90061    90055    89955    89846    89853    89977 
   90119    90217    90281    90293    90248    90189    90132    90088 
   90108    90208    90316    90362    90358    90359    90378    90414 
   90485    90566    90626    90707    90849    90984    91034    90996 
   90934    90902    90868    90792    90706    90632    90562    90505 
   90483    90493    90509    90525    90514    90452    90409    90456 
   90536    90575    90578    90568    90559    90540    90466    90355 
   90278    90227    90130    89986    89869    89780    89675    89588 
   89594    89685    89779    89810    89791    89739    89644    89521 
   89411    89336    89294    89262    89229    89217    89217    89209 
   89186    89145    89087    89008    88924    88859    88793    88713 
   88665    88680    88734    88794    88843    88865    88854    88800 
   88711    88605    88501    88411    88337    88291    88294    88334 
   88393    88449    88483    88516    88574    88619    88607    88560 
   88510    88470    88472    88560    88734    88912    88998    89008 
   89035    89125    89214    89206    89105    89010    88985    88993 
   88992    89000    89043    89120    89208    89276    89317    89351 
   89411    89525    89661    89762    89829    89905    89992    90051 
   90063    90039    90012    90008    90009    89992    89997    90053 
   90130    90211    90325    90462    90564    90616    90618    90583 
   90551    90551    90574    90630    90703    90717    90645    90533 
   90410    90298    90259    90321    90437    90525    90560    90563 
   90520    90432    90343    90258    90180    90157    90162    90143 
   90131    90181    90270    90346    90382    90400    90404    90398 
   90382    90312    90193    90089    90000    89926    89919    89991 
   90088    90173    90229    90259    90269    90246    90197    90139 
   90058    89935    89766    89575    89415    89303    89203    89139 
   89170    89257    89328    89391    89453    89490    89525    89556 
   89563    89577    89606    89618    89619    89596    89518    89415 
   89368    89380    89360    89305    89302    89341    89363    89375 
   89409    89488    89617    89748    89857    89946    89977    89935 
   89856    89770    89689    89603    89529    89525    89606    89719 
   89807    89880    89969    90076    90175    90247    90275    90259 
   90250    90270    90256    90178    90074    89991    89959    89974 
   89988    89992    90005    89999    89965    89932    89885    89818 
   89770    89746    89699    89602    89475    89352    89228    89067 
   88889    88742    88647    88599    88587    88588    88585    88595 
   88605    88572    88492    88423    88408    88435    88468    88465 
   88427    88373    88304    88250    88229    88184    88114    88078 
   88091    88122    88144    88165    88227    88304    88335    88346 
   88375    88387    88388    88419    88470    88497    88503    88528 
   88580    88634    88700    88796    88919    89054    89190    89320 
   89433    89537    89642    89731    89795    89862    89924    89962 
   90018    90121    90229    90310    90367    90389    90386    90400 
   90437    90482    90528    90562    90567    90566    90585    90625 
   90663    90676    90690    90740    90822    90895    90948    91002 
   91076    91170    91251    91274    91250    91196    91100    90984 
   90892    90863    90917    91027    91156    91284    91390    91473 
   91521    91524    91493    91442    91381    91342    91322    91292 
   91243    91188    91157    91126    91038    90909    90791    90680 
   90580    90522    90479    90425    90408    90431    90435    90417 
   90406    90386    90352    90328    90290    90215    90147    90126 
   90112    90084    90073    90093    90116    90136    90181    90247 
   90306    90352    90379    90389    90400    90423    90428    90386 
   90298    90197    90105    90042    90011    89991    89951    89912 
   89900    89896    89861    89803    89753    89702    89641    89599 
   89568    89527    89491    89459    89411    89360    89329    89313 
   89290    89279    89280    89256    89198    89151    89144    89151 
   89139    89129    89145    89170    89178    89163    89113    89041 
   89009    89044    89091    89086    89037    88981    88940    88912 
   88867    88823    88827    88875    88940    89004    89040    89048 
   89056    89067    89083    89143    89257    89387    89498    89603 
   89708    89795    89854    89931    90061    90193    90281    90352 
   90444    90553    90656    90741    90810    90886    90995    91111 
   91201    91269    91305    91305    91301    91315    91359    91440 
   91539    91646    91767    91881    91944    91945    91912    91879 
   91848    91818    91791    91746    91686    91660    91648    91598 
   91524    91436    91314    91161    90998    90818    90629    90452 
   90300    90142    89931    89669    89384    89086    88785    88514 
   88288    88118    87997    87887    87760    87612    87481    87385 
   87282    87151    87029    86958    86927    86903    86914    86960 
   86980    86983    87031    87095    87122    87124    87141    87208 
   87346    87521    87706    87882    88001    88053    88125    88268 
   88434    88573    88697    88847    89039    89264    89503    89737 
   89937    90094    90220    90332    90443    90541    90606    90653 
   90722    90811    90879    90915    90945    90988    91048    91119 
   91195    91278    91369    91459    91539    91589    91616    91636 
   91639    91617    91570    91512    91465    91396    91276    91147 
   91038    90927    90799    90633    90423    90208    90012    89818 
   89633    89487    89376    89280    89182    89078    88990    88917 
   88832    88744    88677    88605    88528    88485    88485    88495 
   88487    88443    88357    88261    88203    88177    88159    88165 
   88200    88225    88230    88236    88258    88298    88342    88387 
   88430    88464    88483    88479    88466    88484    88527    88557 
   88564    88560    88553    88558    88585    88632    88686    88740 
   88797    88858    88911    88955    89001    89054    89102    89136 
   89174    89240    89301    89333    89372    89444    89521    89596 
   89689    89797    89901    90005    90130    90266    90425    90645 
   90923    91204    91439    91600    91681    91717    91743    91759 
   91773    91785    91785    91779    91779    91781    91785    91794 
   91801    91802    91802    91810    91841    91894    91960    92022 
   92030    91971    91893    91824    91748    91643    91496    91324 
   91146    90948    90706    90429    90163    89943    89765    89615 
   89492    89374    89228    89037    88831    88665    88549    88433 
   88292    88152    88034    87949    87890    87856    87848    87862 
   87878    87880    87909    87980    88040    88067    88095    88123 
   88148    88186    88252    88330    88415    88510    88609    88711 
   88813    88923    89047    89164    89279    89444    89652    89841 
   89977    90055    90090    90135    90204    90273    90344    90421 
   90499    90579    90660    90715    90706    90645    90570    90494 
   90423    90360    90279    90167    90072    90018    89966    89900 
   89851    89843    89851    89845    89826    89802    89758    89684 
   89591    89511    89455    89405    89359    89326    89301    89294 
   89316    89330    89332    89347    89361    89367    89378    89383 
   89372    89340    89278    89203    89141    89086    89051    89047 
   89044    89037    89062    89127    89208    89293    89367    89437 
   89527    89631    89719    89788    89847    89900    89957    90028 
   90101    90153    90184    90200    90190    90144    90082    90035 
   90032    90078    90136    90167    90167    90167    90184    90200 
   90221    90271    90342    90410    90491    90583    90664    90747 
   90876    91056    91239    91400    91543    91652    91696    91694 
   91694    91701    91710    91733    91766    91787    91816    91867 
   91928    92002    92072    92115    92146    92172    92172    92164 
   92173    92186    92172    92132    92065    91974    91883    91814 
   91752    91708    91701    91723    91737    91728    91705    91673 
   91617    91532    91420    91297    91176    91041    90886    90729 
   90585    90459    90359    90265    90146    90007    89868    89745 
   89641    89540    89417    89267    89116    88963    88776    88553 
   88322    88079    87824    87590    87394    87235    87118    87053 
   87023    86999    87000    87060    87162    87273    87373    87455 
   87509    87515    87478    87403    87303    87215    87158    87139 
   87168    87241    87351    87486    87636    87795    87959    88110 
   88241    88373    88500    88593    88657    88734    88840    88940 
   88989    89002    89027    89082    89158    89236    89320    89415 
   89507    89591    89662    89734    89804    89857    89887    89892 
   89856    89804    89783    89785    89791    89792    89776    89754 
   89750    89764    89779    89785    89783    89799    89853    89903 
   89912    89903    89885    89837    89756    89660    89564    89471 
   89375    89295    89255    89233    89209    89199    89191    89148 
   89073    88997    88924    88824    88696    88562    88442    88350 
   88279    88211    88153    88119    88121    88157    88206    88245 
   88283    88333    88387    88416    88427    88465    88531    88582 
   88604    88626    88651    88669    88693    88749    88821    88900 
   89004    89133    89271    89394    89502    89607    89695    89757 
   89831    89939    90059    90186    90328    90471    90618    90790 
   90981    91169    91339    91501    91662    91810    91940    92076 
   92242    92414    92565    92695    92800    92888    92977    93050 
   93089    93114    93139    93139    93113    93073    93002    92912 
   92826    92731    92620    92514    92415    92303    92175    92055 
   91968    91910    91855    91804    91750    91673    91581    91492 
   91390    91273    91154    91037    90922    90815    90730    90670 
   90607    90533    90440    90297    90115    89941    89780    89633 
   89511    89429    89375    89347    89344    89374    89445    89546 
   89650    89726    89776    89827    89889    89950    90008    90047 
   90057    90050    90039    90031    90024    89991    89918    89827 
   89741    89668    89614    89587    89576    89569    89568    89568 
   89544    89488    89430    89392    89368    89343    89309    89257 
   89179    89083    88994    88938    88913    88913    88933    88959 
   88963    88940    88911    88874    88825    88780    88727    88653 
   88568    88468    88356    88253    88177    88128    88105    88113 
   88129    88129    88138    88172    88199    88195    88172    88141 
   88107    88080    88071    88090    88125    88141    88145    88167 
   88191    88198    88204    88226    88256    88294    88348    88412 
   88488    88580    88688    88817    88954    89091    89240    89409 
   89599    89819    90040    90223    90366    90487    90591    90686 
   90765    90819    90852    90882    90891    90859    90791    90694 
   90585    90495    90437    90408    90400    90389    90360    90313 
   90242    90158    90076    90005    89955    89919    89889    89853 
   89787    89702    89623    89563    89507    89442    89352    89240 
   89124    88998    88858    88739    88676    88645    88618    88588 
   88545    88466    88372    88302    88256    88218    88191    88173 
   88159    88150    88140    88118    88095    88067    88038    88037 
   88053    88060    88080    88134    88214    88317    88435    88561 
   88697    88842    88992    89158    89352    89548    89719    89868 
   90011    90163    90328    90498    90680    90860    91007    91118 
   91211    91295    91389    91516    91654    91768    91856    91924 
   91974    92029    92115    92214    92295    92350    92385    92412 
   92418    92396    92358    92295    92210    92106    91980    91854 
   91743    91638    91536    91453    91390    91330    91255    91173 
   91084    90980    90864    90747    90636    90541    90460    90375 
   90270    90153    90035    89907    89760    89611    89480    89380 
   89314    89270    89224    89156    89077    89012    88969    88928 
   88888    88846    88792    88724    88662    88631    88615    88595 
   88597    88639    88696    88757    88808    88834    88854    88900 
   88952    88983    89004    89024    89029    89012    89000    89021 
   89063    89100    89136    89194    89286    89388    89496    89619 
   89746    89850    89950    90072    90184    90282    90397    90526 
   90647    90756    90867    90977    91058    91095    91112    91130 
   91146    91160    91183    91203    91212    91228    91260    91281 
   91273    91241    91215    91204    91191    91177    91176    91189 
   91233    91299    91358    91399    91408    91380    91326    91268 
   91220    91176    91111    91026    90946    90879    90829    90790 
   90749    90698    90639    90576    90494    90364    90202    90043 
   89899    89779    89679    89569    89429    89272    89125    89001 
   88888    88774    88673    88596    88537    88479    88435    88425 
   88425    88414    88408    88408    88411    88419    88425    88434 
   88477    88543    88593    88635    88690    88755    88825    88894 
   88954    89004    89039    89052    89060    89095    89170    89262 
   89343    89410    89456    89475    89473    89457    89442    89440 
   89445    89463    89502    89548    89580    89603    89634    89687 
   89768    89858    89927    89954    89962    89980    89999    90011 
   90022    90007    89965    89918    89873    89824    89769    89715 
   89680    89671    89684    89721    89787    89870    89949    90008 
   90055    90093    90109    90094    90054    90012    89995    90005 
   90018    90012    90004    90011    90023    90020    90011    89988 
   89934    89876    89841    89810    89773    89757    89768    89795 
   89835    89889    89942    89993    90054    90103    90119    90124 
   90134    90151    90182    90223    90265    90289    90290    90285 
   90270    90240    90216    90211    90207    90197    90204    90229 
   90246    90250    90258    90258    90254    90270    90294    90310 
   90317    90329    90351    90362    90366    90386    90408    90408 
   90386    90373    90382    90398    90391    90358    90298    90228 
   90158    90081    90000    89932    89880    89837    89804    89784 
   89772    89745    89692    89630    89587    89563    89541    89519 
   89506    89494    89492    89523    89583    89633    89652    89642 
   89603    89552    89509    89468    89421    89355    89284    89243 
   89228    89209    89168    89106    89031    88947    88865    88815 
   88812    88840    88889    88950    88998    89029    89066    89100 
   89112    89121    89145    89176    89230    89324    89430    89529 
   89623    89723    89835    89973    90138    90305    90447    90555 
   90652    90751    90836    90906    90969    91017    91054    91106 
   91165    91207    91234    91260    91281    91295    91297    91292 
   91272    91226    91161    91092    91008    90922    90855    90790 
   90717    90640    90563    90498    90448    90402    90362    90336 
   90331    90331    90313    90283    90243    90182    90111    90046 
   89989    89931    89856    89765    89673    89576    89476    89395 
   89337    89283    89224    89159    89095    89040    88985    88921 
   88869    88839    88823    88808    88808    88825    88832    88816 
