Origin Time       2025/01/13 21:19:00
Lat.              31.8
Long.             131.6
Depth. (km)       30
Mag.              6.9
Station Code      KGWH01
Station Lat.      34.2186
Station Long.     133.9493
Station Height(m) -27
Record Time       2025/01/13 21:20:46
Sampling Freq(Hz) 100Hz
Duration Time(s)  120
Dir.              3
Scale Factor      2942(gal)/8224139
Max. Acc. (gal)   0.585
Last Correction   2025/01/13 21:20:47
Memo.             
[...]
   83616    83673    83724    83762    83806    83864    83924    83970 
   83991    84003    84029    84067    84103    84126    84134    84137 
   84148    84156    84153    84160    84171    84163    84127    84078 
   84029    83984    83936    83889    83843    83785    83717    83652 
   83593    83546    83508    83463    83401    83334    83278    83242 
   83215    83188    83155    83093    83015    82984    83004    83029 
   83043    83058    83065    83061    83062    83088    83115    83128 
   83146    83181    83227    83263    83289    83311    83332    83358 
   83380    83381    83361    83336    83313    83286    83251    83211 
   83173    83137    83084    83019    82975    82954    82927    82894 
   82865    82837    82815    82799    82784    82768    82752    82740 
   82741    82750    82755    82757    82773    82795    82810    82826 
   82850    82884    82918    82939    82954    82973    82996    83011 
   83006    82989    82984    82987    82976    82958    82957    82957 
   82946    82948    82971    82984    82993    83008    83014    83027 
   83060    83088    83091    83077    83083    83096    83097    83095 
   83091    83080    83068    83058    83060    83073    83092    83112 
   83141    83178    83216    83254    83315    83394    83454    83488 
   83515    83552    83597    83639    83677    83702    83710    83718 
   83732    83747    83759    83763    83759    83760    83762    83760 
   83748    83727    83708    83689    83667    83651    83635    83624 
   83625    83629    83633    83647    83668    83693    83712    83714 
   83716    83729    83745    83754    83762    83755    83716    83667 
   83623    83581    83548    83519    83475    83440    83427    83419 
   83409    83411    83416    83421    83435    83462    83489    83511 
   83523    83532    83559    83601    83639    83666    83687    83713 
   83741    83764    83771    83768    83775    83789    83782    83756 
   83747    83758    83754    83732    83709    83694    83690    83694 
   83705    83718    83727    83732    83744    83762    83783    83802 
   83803    83794    83791    83787    83766    83741    83722    83701 
   83682    83667    83654    83651    83647    83627    83619    83639 
   83667    83697    83741    83790    83824    83855    83897    83938 
   83976    84007    84022    84026    84030    84034    84029    83999 
   83957    83926    83903    83872    83836    83786    83722    83658 
   83589    83517    83448    83378    83308    83239    83161    83081 
   83011    82950    82906    82852    82768    82691    82649    82638 
   82645    82649    82636    82626    82634    82648    82653    82665 
   82696    82723    82726    82726    82734    82737    82723    82710 
   82698    82691    82709    82741    82763    82772    82768    82755 
   82741    82729    82722    82719    82709    82695    82687    82691 
   82703    82710    82709    82721    82749    82779    82809    82845 
   82876    82896    82917    82949    82991    83037    83080    83111 
   83133    83160    83199    83239    83277    83311    83346    83380 
   83401    83412    83427    83447    83475    83502    83505    83492 
   83477    83455    83430    83405    83385    83361    83324    83281 
   83245    83216    83187    83150    83114    83076    83033    82995 
   82965    82926    82891    82869    82840    82787    82736    82707 
   82699    82688    82664    82645    82636    82625    82628    82647 
   82659    82659    82653    82642    82634    82634    82638    82633 
   82613    82591    82582    82579    82574    82572    82567    82552 
   82541    82556    82576    82584    82582    82578    82576    82586 
   82602    82626    82656    82684    82714    82752    82794    82841 
   82884    82912    82938    82971    83004    83045    83111    83188 
   83247    83296    83353    83413    83470    83519    83570    83623 
   83674    83731    83787    83832    83878    83918    83951    83984 
   84010    84029    84061    84086    84086    84083    84083    84075 
   84059    84033    83994    83957    83944    83945    83925    83880 
   83837    83812    83805    83801    83787    83785    83805    83830 
   83848    83868    83879    83874    83874    83890    83903    83907 
   83905    83901    83902    83894    83874    83866    83862    83855 
   83860    83871    83871    83872    83898    83930    83941    83948 
   83983    84025    84057    84090    84115    84125    84133    84154 
   84188    84208    84210    84207    84196    84181    84177    84168 
   84134    84095    84059    84015    83967    83920    83879    83836 
   83793    83764    83745    83721    83695    83667    83637    83613 
   83590    83552    83506    83465    83431    83401    83378    83361 
   83342    83328    83323    83320    83336    83367    83396    83423 
   83443    83462    83497    83535    83552    83570    83596    83606 
   83596    83582    83587    83586    83552    83519    83497    83463 
   83427    83392    83353    83313    83278    83247    83222    83203 
   83180    83150    83120    83092    83057    83020    82984    82945 
   82914    82898    82888    82867    82844    82826    82803    82790 
   82799    82814    82814    82802    82794    82796    82804    82813 
   82829    82850    82873    82898    82925    82956    82995    83031 
   83046    83047    83054    83068    83081    83101    83135    83169 
   83189    83199    83204    83215    83234    83241    83242    83254 
   83257    83245    83247    83259    83257    83236    83207    83177 
   83155    83138    83123    83110    83083    83052    83042    83047 
   83049    83045    83039    83037    83047    83070    83095    83116 
   83138    83160    83185    83214    83242    83258    83253    83239 
   83241    83250    83251    83236    83218    83205    83191    83174 
   83176    83185    83189    83195    83209    83228    83254    83290 
   83330    83365    83394    83431    83485    83536    83573    83608 
   83651    83693    83733    83763    83768    83767    83783    83801 
   83814    83836    83849    83857    83880    83902    83922    83951 
   83968    83968    83968    83967    83957    83941    83918    83884 
   83843    83803    83768    83736    83700    83659    83621    83587 
   83560    83533    83498    83466    83443    83424    83405    83386 
   83374    83374    83374    83365    83363    83381    83400    83421 
   83451    83477    83488    83490    83496    83519    83538    83548 
   83566    83581    83585    83596    83609    83614    83614    83608 
   83590    83575    83574    83570    83567    83567    83569    83574 
   83573    83575    83581    83574    83566    83562    83554    83551 
   83554    83555    83569    83593    83610    83621    83643    83679 
   83713    83737    83766    83791    83794    83779    83763    83728 
   83675    83624    83570    83498    83425    83355    83276    83187 
   83100    83019    82941    82873    82818    82752    82664    82588 
   82533    82480    82431    82378    82316    82262    82235    82231 
   82229    82215    82196    82201    82229    82252    82252    82243 
   82246    82254    82258    82259    82258    82246    82223    82208 
   82212    82220    82217    82215    82216    82223    82239    82258 
   82271    82285    82312    82350    82385    82413    82437    82463 
   82505    82557    82599    82636    82680    82726    82760    82788 
   82831    82884    82935    82991    83052    83115    83185    83262 
   83340    83417    83493    83567    83641    83706    83749    83782 
   83812    83829    83825    83806    83775    83728    83675    83632 
   83600    83574    83555    83532    83502    83478    83459    83443 
   83428    83413    83400    83394    83400    83401    83381    83362 
   83369    83377    83374    83373    83370    83370    83374    83365 
   83350    83342    83332    83319    83307    83301    83312    83331 
   83340    83349    83370    83396    83415    83425    83436    83454 
   83477    83498    83527    83569    83613    83652    83687    83722 
   83756    83791    83818    83839    83866    83882    83886    83895 
   83907    83910    83910    83906    83902    83891    83870    83851 
   83841    83826    83801    83776    83759    83736    83721    83724 
   83717    83702    83698    83706    83718    83735    83744    83743 
   83743    83744    83740    83740    83748    83751    83745    83745 
   83749    83755    83760    83767    83770    83767    83751    83735 
   83722    83697    83663    83643    83617    83577    83532    83489 
   83448    83409    83388    83389    83386    83377    83378    83382 
   83369    83338    83307    83276    83247    83212    83160    83097 
   83043    82995    82946    82895    82837    82776    82715    82655 
   82595    82541    82487    82437    82402    82370    82332    82304 
   82294    82287    82277    82277    82294    82320    82348    82379 
   82401    82404    82410    82439    82462    82462    82464    82479 
   82485    82472    82458    82453    82463    82463    82453    82455 
   82467    82487    82517    82543    82572    82621    82674    82718 
   82768    82834    82904    82971    83043    83128    83207    83270 
   83328    83389    83438    83469    83493    83509    83523    83531 
   83525    83512    83496    83474    83463    83465    83466    83470 
   83466    83448    83435    83434    83434    83439    83443    83442 
   83444    83451    83452    83454    83470    83492    83494    83489 
   83481    83458    83424    83398    83376    83344    83315    83289 
   83269    83255    83253    83257    83263    83274    83297    83336 
   83384    83442    83501    83550    83610    83694    83774    83843 
   83911    83974    84017    84041    84057    84069    84080    84090 
   84084    84049    84006    83968    83928    83880    83818    83741 
   83668    83600    83532    83482    83438    83385    83339    83319 
   83316    83315    83328    83354    83380    83424    83479    83523 
   83555    83590    83635    83681    83716    83752    83802    83862 
   83926    83990    84046    84098    84145    84187    84233    84283 
   84323    84358    84387    84400    84411    84424    84426    84415 
   84406    84402    84384    84349    84311    84276    84244    84208 
   84169    84121    84067    84011    83959    83905    83852    83806 
   83770    83736    83700    83671    83654    83631    83604    83585 
   83578    83567    83539    83515    83509    83504    83479    83455 
   83443    83428    83405    83385    83369    83359    83357    83359 
   83365    83369    83373    83373    83382    83407    83435    83469 
   83504    83539    83573    83602    83624    83644    83664    83667 
   83660    83659    83650    83628    83608    83587    83566    83538 
   83500    83462    83431    83409    83384    83350    83317    83304 
   83313    83328    83335    83349    83378    83412    83440    83469 
   83501    83533    83555    83579    83608    83623    83624    83619 
   83602    83575    83542    83498    83447    83396    83338    83276 
   83219    83158    83099    83057    83022    82993    82976    82960 
   82942    82937    82945    82962    82988    83016    83034    83050 
   83076    83106    83134    83155    83160    83160    83162    83160 
   83154    83149    83143    83137    83127    83119    83119    83122 
   83116    83103    83096    83101    83108    83111    83110    83108 
   83116    83137    83157    83166    83160    83149    83147    83153 
   83161    83168    83172    83168    83164    83174    83191    83192 
   83193    83205    83211    83207    83204    83211    83227    83239 
   83239    83239    83241    83238    83230    83211    83189    83170 
   83153    83127    83095    83058    83019    82984    82949    82900 
   82849    82806    82761    82714    82668    82622    82580    82544 
   82520    82505    82489    82468    82453    82444    82444    82456 
   82466    82475    82497    82517    82529    82541    82563    82598 
   82633    82663    82699    82745    82791    82841    82895    82939 
   82981    83035    83095    83143    83187    83238    83285    83324 
   83362    83407    83450    83485    83517    83544    83560    83582 
   83617    83647    83664    83679    83701    83720    83733    83751 
   83770    83789    83808    83812    83801    83793    83786    83772 
   83745    83706    83658    83606    83552    83497    83439    83385 
   83332    83280    83227    83170    83118    83077    83045    83008 
   82973    82953    82948    82949    82950    82950    82952    82956 
   82956    82954    82958    82954    82946    82939    82935    82933 
   82919    82892    82865    82836    82803    82775    82753    82738 
   82733    82729    82719    82714    82726    82752    82783    82822 
   82869    82923    82999    83088    83174    83269    83370    83462 
   83559    83673    83787    83884    83960    84030    84098    84154 
   84217    84271    84302    84325    84348    84375    84395    84396 
   84391    84403    84416    84422    84424    84426    84423    84422 
   84423    84420    84414    84402    84381    84354    84316    84264 
   84210    84144    84056    83964    83879    83794    83704    83608 
   83504    83388    83269    83155    83042    82921    82799    82683 
   82568    82459    82348    82236    82142    82055    81974    81911 
   81859    81805    81758    81727    81710    81700    81704    81722 
   81749    81776    81801    81828    81865    81908    81947    81984 
   82019    82058    82098    82140    82186    82228    82269    82313 
   82359    82413    82478    82540    82607    82684    82761    82841 
   82923    83008    83103    83197    83284    83371    83466    83554 
   83629    83697    83760    83813    83857    83897    83930    83965 
   84002    84028    84038    84041    84040    84032    84010    83979 
   83937    83884    83830    83783    83741    83689    83627    83567 
   83515    83465    83423    83382    83330    83276    83235    83204 
   83177    83157    83143    83127    83116    83120    83133    83150 
   83173    83192    83214    83242    83282    83320    83347    83371 
   83404    83444    83486    83528    83567    83606    83656    83710 
   83755    83793    83832    83870    83907    83940    83965    83984 
   83991    83995    84010    84018    84009    83994    83984    83980 
   83971    83944    83909    83883    83863    83839    83810    83776 
   83749    83743    83748    83751    83754    83759    83763    83767 
   83785    83806    83816    83816    83808    83787    83770    83759 
   83736    83701    83664    83629    83589    83547    83494    83438 
   83392    83350    83296    83232    83185    83154    83131    83111 
   83089    83079    83077    83065    83050    83046    83037    83027 
   83023    83018    83011    83010    83008    83006    83003    83010 
   83027    83043    83057    83076    83097    83112    83123    83141 
   83158    83170    83181    83192    83199    83203    83211    83220 
   83226    83224    83224    83223    83220    83228    83247    83259 
   83258    83268    83293    83324    83358    83396    83428    83459 
   83490    83521    83548    83573    83594    83605    83602    83602 
   83601    83593    83582    83573    83567    83555    83521    83488 
   83473    83463    83458    83451    83435    83411    83386    83367 
   83354    83343    83334    83324    83309    83296    83281    83262 
   83230    83192    83164    83137    83103    83072    83042    83015 
   82998    82992    82989    82987    82984    82985    83004    83039 
   83076    83108    83138    83170    83209    83255    83313    83377 
   83438    83497    83556    83623    83691    83755    83802    83835 
   83871    83913    83955    83988    84013    84037    84057    84073 
   84080    84083    84091    84102    84111    84118    84113    84100 
   84095    84086    84073    84065    84045    84015    83992    83976 
   83955    83914    83857    83798    83747    83695    83643    83587 
   83532    83482    83438    83388    83328    83266    83207    83153 
   83101    83046    82992    82950    82912    82871    82823    82773 
   82736    82703    82656    82606    82568    82536    82507    82483 
   82455    82435    82436    82440    82443    82449    82462    82480 
   82509    82540    82571    82613    82661    82709    82757    82811 
   82869    82926    82988    83058    83127    83193    83254    83315 
   83381    83435    83477    83521    83563    83593    83616    83631 
   83640    83648    83651    83651    83650    83640    83625    83606 
   83578    83543    83505    83475    83455    83420    83362    83304 
   83255    83208    83174    83142    83096    83050    83015    82989 
   82972    82954    82934    82907    82883    82863    82840    82821 
   82799    82773    82761    82756    82740    82730    82734    82732 
   82722    82725    82741    82761    82782    82802    82825    82848 
   82877    82911    82949    82993    83041    83088    83133    83170 
   83204    83245    83290    83336    83377    83419    83467    83515 
   83558    83597    83633    83668    83700    83735    83774    83817 
   83848    83870    83895    83932    83965    83991    84003    84003 
   84005    84013    84026    84036    84038    84036    84024    84011 
   84010    84018    84029    84036    84030    84026    84029    84036 
   84049    84064    84068    84069    84073    84083    84100    84105 
   84092    84084    84084    84083    84069    84051    84036    84017 
   83992    83968    83944    83913    83871    83825    83786    83748 
   83714    83682    83639    83592    83555    83525    83496    83469 
   83435    83403    83381    83361    83339    83320    83304    83288 
   83277    83266    83254    83249    83246    83238    83235    83246 
   83254    83251    83243    83235    83227    83224    83231    83236 
   83235    83230    83230    83234    83241    83251    83258    83258 
   83258    83253    83239    83231    83234    83228    83208    83189 
   83180    83180    83182    83174    83162    83157    83154    83153 
   83160    83177    83195    83209    83235    83265    83290    83323 
   83361    83389    83407    83424    83443    83459    83474    83484 
   83479    83469    83458    83446    83425    83397    83363    83328 
   83293    83258    83216    83170    83124    83083    83046    83011 
   82973    82930    82895    82869    82844    82817    82791    82765 
   82744    82728    82707    82682    82663    82649    82644    82645 
   82640    82626    82629    82651    82674    82692    82719    82757 
   82798    82831    82868    82911    82954    83002    83058    83118 
   83166    83200    83236    83280    83320    83351    83369    83388 
   83413    83430    83434    83432    83424    83411    83401    83392 
   83370    83331    83289    83263    83247    83230    83211    83182 
   83146    83112    83092    83072    83043    83022    83016    83011 
   83004    83002    83000    82999    83000    83008    83012    83014 
   83018    83022    83022    83022    83031    83050    83069    83080 
   83088    83097    83114    83142    83176    83205    83236    83276 
