Origin Time       2025/01/13 21:19:00
Lat.              31.8
Long.             131.6
Depth. (km)       30
Mag.              6.9
Station Code      KGWH01
Station Lat.      34.2186
Station Long.     133.9493
Station Height(m) 90
Record Time       2025/01/13 21:20:46
Sampling Freq(Hz) 100Hz
Duration Time(s)  120
Dir.              5
Scale Factor      7845(gal)/8223790
Max. Acc. (gal)   1.787
Last Correction   2025/01/13 21:20:47
Memo.             
[...]
    1621     1591     1582     1597     1611     1642     1717     1787 
    1798     1746     1655     1534     1431     1386     1386     1406 
    1441     1493     1549     1579     1580     1576     1584     1613 
    1656     1698     1753     1827     1895     1934     1938     1892 
    1776     1610     1431     1269     1202     1258     1355     1464 
    1620     1794     1945     2052     2091     2066     1999     1908 
    1831     1786     1729     1649     1583     1552     1532     1490 
    1453     1472     1528     1586     1647     1695     1728     1752 
    1755     1738     1733     1745     1760     1768     1760     1718 
    1656     1601     1537     1441     1356     1328     1347     1393 
    1458     1532     1601     1682     1782     1850     1858     1815 
    1737     1645     1555     1495     1497     1525     1552     1602 
    1657     1680     1680     1678     1656     1606     1571     1571 
    1593     1626     1660     1694     1725     1740     1741     1736 
    1733     1738     1736     1741     1794     1845     1845     1819 
    1795     1772     1746     1725     1746     1802     1838     1829 
    1753     1626     1517     1433     1359     1321     1339     1404 
    1514     1647     1742     1773     1765     1752     1755     1746 
    1705     1640     1561     1489     1453     1440     1421     1422 
    1468     1543     1625     1703     1764     1807     1841     1864 
    1869     1861     1842     1819     1780     1706     1618     1541 
    1472     1431     1417     1420     1464     1544     1620     1687 
    1737     1757     1753     1709     1634     1578     1541     1520 
    1514     1502     1483     1472     1463     1459     1474     1476 
    1429     1371     1377     1451     1545     1640     1718     1775 
    1836     1906     1944     1926     1884     1836     1775     1715 
    1676     1630     1587     1579     1588     1586     1597     1636 
    1664     1667     1674     1694     1706     1694     1660     1617 
    1557     1506     1510     1563     1615     1649     1676     1703 
    1734     1783     1852     1898     1881     1844     1833     1819 
    1765     1676     1568     1466     1382     1310     1262     1247 
    1263     1291     1321     1371     1445     1507     1553     1617 
    1706     1798     1887     1975     2041     2064     2050     2003 
    1939     1879     1814     1728     1640     1591     1582     1566 
    1506     1422     1352     1337     1386     1455     1518     1594 
    1656     1686     1745     1848     1921     1945     1961     1984 
    1980     1915     1813     1729     1663     1583     1509     1468 
    1459     1458     1440     1426     1452     1486     1494     1494 
    1495     1498     1493     1482     1491     1520     1545     1575 
    1618     1652     1675     1686     1664     1622     1583     1534 
    1476     1440     1439     1449     1462     1468     1470     1487 
    1526     1566     1603     1638     1668     1684     1695     1714 
    1749     1776     1791     1826     1896     1993     2079     2101 
    2068     2029     1973     1879     1776     1702     1675     1696 
    1706     1657     1578     1502     1426     1352     1305     1317 
    1395     1505     1593     1628     1615     1590     1583     1598 
    1602     1598     1645     1755     1853     1919     1980     2015 
    1999     1954     1900     1840     1768     1680     1593     1533 
    1503     1470     1429     1420     1460     1529     1601     1663 
    1715     1759     1775     1768     1772     1775     1734     1664 
    1610     1584     1580     1578     1560     1536     1520     1539 
    1590     1629     1647     1671     1686     1690     1728     1779 
    1782     1733     1686     1665     1645     1621     1618     1632 
    1649     1680     1709     1736     1761     1742     1683     1637 
    1622     1633     1653     1653     1636     1615     1584     1566 
    1568     1564     1563     1598     1660     1709     1718     1688 
    1648     1607     1561     1541     1555     1584     1636     1706 
    1763     1775     1736     1680     1629     1571     1513     1463 
    1404     1354     1339     1350     1370     1405     1459     1529 
    1628     1737     1807     1829     1830     1807     1738     1668 
    1659     1692     1729     1756     1765     1732     1663     1605 
    1574     1547     1533     1567     1644     1711     1746     1761 
    1760     1775     1813     1821     1810     1806     1782     1718 
    1618     1498     1395     1340     1310     1279     1267     1301 
    1372     1445     1501     1553     1609     1634     1618     1598 
    1609     1644     1684     1717     1733     1748     1763     1768 
    1750     1703     1645     1615     1618     1640     1660     1672 
    1687     1692     1679     1663     1636     1607     1620     1651 
    1660     1653     1633     1614     1620     1636     1633     1587 
    1522     1494     1490     1486     1517     1584     1648     1690 
    1718     1750     1772     1745     1694     1690     1732     1768 
    1779     1773     1753     1719     1674     1630     1603     1587 
    1576     1557     1540     1544     1561     1576     1594     1625 
    1653     1655     1615     1549     1483     1421     1367     1367 
    1431     1505     1570     1642     1725     1790     1804     1783 
    1767     1746     1698     1641     1609     1594     1576     1557 
    1541     1509     1460     1421     1395     1378     1389     1428 
    1476     1537     1618     1714     1810     1895     1957     1979 
    1977     1957     1908     1840     1779     1732     1686     1642 
    1620     1629     1644     1625     1560     1486     1425     1359 
    1266     1188     1169     1193     1228     1260     1297     1341 
    1390     1453     1548     1655     1726     1761     1787     1779 
    1702     1597     1539     1552     1615     1687     1744     1798 
    1837     1831     1790     1725     1660     1628     1624     1613 
    1611     1648     1684     1674     1655     1683     1755     1848 
    1960     2047     2064     2043     2041     2049     2033     1991 
    1957     1919     1834     1718     1618     1561     1544     1553 
    1587     1659     1752     1829     1864     1857     1836     1829 
    1811     1779     1788     1825     1840     1823     1780     1713 
    1636     1548     1478     1463     1494     1545     1598     1642 
    1656     1595     1466     1345     1279     1255     1293     1412 
    1590     1787     1957     2056     2042     1941     1829     1764 
    1738     1730     1748     1817     1907     1944     1890     1777 
    1661     1557     1470     1416     1410     1449     1505     1549 
    1574     1555     1493     1432     1410     1428     1483     1580 
    1718     1890     2049     2127     2116     2062     1979     1848 
    1678     1512     1371     1270     1242     1302     1418     1539 
    1638     1732     1831     1925     1975     1983     2003     2058 
    2108     2106     2019     1842     1609     1360     1131      972 
     922      966     1050     1159     1320     1499     1642     1721 
    1742     1740     1742     1784     1883     2008     2135     2236 
    2266     2251     2228     2161     2020     1807     1522     1206 
     938      781      761      851     1021     1252     1475     1591 
    1587     1545     1552     1632     1757     1915     2101     2254 
    2311     2261     2123     1973     1908     1904     1873     1792 
    1669     1521     1382     1266     1183     1158     1152     1127 
    1100     1092     1112     1155     1197     1291     1517     1838 
    2172     2467     2673     2756     2725     2582     2344     2053 
    1745     1495     1366     1306     1232     1159     1161     1227 
    1290     1335     1368     1397     1452     1547     1668     1818 
    1973     2064     2066     1987     1810     1545     1278     1115 
    1102     1232     1452     1688     1850     1879     1775     1598 
    1414     1289     1252     1293     1401     1579     1790     1991 
    2158     2249     2253     2222     2170     2064     1880     1634 
    1367     1152     1069     1138     1317     1537     1750     1954 
    2128     2232     2272     2285     2278     2214     2050     1796 
    1532     1286     1015      730      525      465      565      803 
    1108     1406     1674     1906     2068     2126     2137     2173 
    2239     2308     2324     2230     2066     1865     1572     1201 
     870      652      560      588      689      811      940     1100 
    1333     1642     1988     2334     2617     2759     2758     2656 
    2462     2196     1910     1621     1364     1193     1112     1120 
    1198     1301     1455     1709     1989     2180     2231     2154 
    1995     1800     1597     1426     1352     1390     1530     1753 
    1948     1957     1787     1597     1476     1437     1486     1595 
    1721     1840     1926     1945     1880     1718     1472     1223 
    1036      897      807      834      978     1165     1356     1566 
    1821     2106     2323     2397     2346     2218     2023     1771 
    1493     1239     1054      961      943      997     1140     1321 
    1459     1536     1628     1813     2056     2268     2413     2481 
    2470     2390     2222     1933     1555     1174      884      733 
     711      753      787      805      859      984     1158     1371 
    1628     1912     2205     2474     2640     2644     2478     2150 
    1721     1297     1001      915     1000     1179     1401     1605 
    1771     1915     2039     2115     2118     2038     1902     1771 
    1703     1679     1647     1629     1653     1664     1629     1552 
    1428     1294     1239     1304     1482     1769     2118     2404 
    2511     2419     2172     1802     1348      926      666      633 
     804     1123     1491     1810     2031     2166     2255     2319 
    2338     2289     2181     2045     1891     1717     1529     1332 
    1151     1043     1023     1048     1129     1278     1432     1536 
    1575     1547     1503     1501     1555     1672     1829     1976 
    2116     2239     2286     2223     2056     1831     1611     1431 
    1312     1255     1229     1236     1289     1340     1362     1367 
    1368     1409     1524     1669     1831     2014     2166     2234 
    2187     2020     1783     1555     1408     1366     1370     1350 
    1293     1231     1232     1337     1516     1719     1906     2023 
    2053     2010     1915     1846     1892     2002     2069     2062 
    1995     1912     1861     1838     1833     1841     1841     1782 
    1588     1301     1074      935      799      689      714      918 
    1263     1688     2081     2319     2444     2583     2716     2741 
    2632     2432     2232     2130     2116     2089     2003     1861 
    1648     1391     1143      872      584      403      417      585 
     849     1200     1625     2047     2398     2686     2901     2934 
    2760     2471     2143     1783     1404     1092      931      901 
     936      982     1009     1066     1206     1397     1582     1757 
    1926     2088     2204     2232     2180     2060     1911     1784 
    1675     1584     1516     1431     1347     1362     1479     1624 
    1759     1826     1767     1644     1540     1445     1306     1150 
    1078     1134     1277     1489     1761     2037     2247     2359 
    2338     2180     1961     1765     1587     1387     1217     1167 
    1251     1398     1525     1590     1588     1509     1333     1094 
     901      835      876     1044     1393     1799     2064     2137 
    2084     2012     2003     2073     2204     2353     2444     2423 
    2293     2101     1867     1621     1437     1339     1298     1286 
    1296     1327     1370     1417     1467     1513     1563     1634 
    1690     1684     1641     1634     1713     1834     1900     1929 
    1993     2066     2115     2150     2108     1917     1617     1283 
     973      737      596      541      615      855     1185     1494 
    1748     1938     2058     2112     2118     2116     2115     2064 
    1976     1910     1861     1802     1748     1711     1676     1626 
    1532     1391     1301     1337     1475     1629     1728     1782 
    1800     1741     1591     1402     1296     1331     1404     1402 
    1383     1464     1657     1917     2203     2471     2668     2737 
    2627     2308     1821     1336     1007      788      657      680 
     881     1205     1566     1887     2115     2195     2133     1998 
    1853     1710     1570     1487     1498     1556     1609     1660 
    1719     1825     2010     2180     2231     2185     2069     1879 
    1653     1445     1263     1115     1042     1038     1032      996 
     992     1108     1375     1755     2180     2612     2948     2999 
    2693     2188     1692     1314     1092     1007     1019     1102 
    1209     1269     1220     1093     1001     1027     1186     1474 
    1836     2199     2535     2799     2905     2774     2417     1966 
    1526     1125      814      602      468      437      503      606 
     704      837     1097     1497     1935     2344     2733     3105 
    3364     3356     3045     2542     1979     1441      934      413 
     -31     -229     -133      178      608     1077     1544     2010 
    2469     2847     3037     2992     2762     2484     2247     2014 
    1767     1595     1551     1557     1503     1362     1213     1139 
    1152     1244     1379     1520     1632     1647     1583     1536 
    1491     1455     1516     1664     1850     2061     2230     2297 
    2269     2139     1934     1744     1614     1571     1629     1692 
    1649     1480     1197      897      747      804     1003     1289 
    1584     1790     1887     1877     1734     1498     1278     1205 
    1362     1730     2231     2724     3049     3140     2986     2601 
    2012     1313      704      324      163      213      468      861 
    1316     1767     2108     2274     2301     2232     2076     1902 
    1838     1926     2123     2346     2424     2184     1682     1136 
     657      252      -37     -130       31      419      911     1395 
    1829     2204     2486     2651     2724     2709     2573     2340 
    2065     1792     1566     1368     1196     1097     1053      989 
     870      715      637      742      994     1327     1733     2128 
    2408     2560     2585     2515     2473     2467     2351     2077 
    1765     1517     1336     1161      955      758      630      627 
     749      878      923      990     1246     1664     2069     2359 
    2501     2512     2447     2328     2169     1976     1761     1584 
    1452     1278     1046      804      610      541      629      792 
     977     1217     1510     1806     2092     2350     2551     2658 
    2627     2475     2261     1993     1664     1335     1097      946 
     816      745      832     1067     1356     1636     1827     1896 
    1935     1983     1953     1904     1993     2216     2409     2416 
    2197     1867     1578     1383     1244     1147     1124     1161 
    1197     1220     1256     1312     1402     1543     1676     1769 
    1833     1871     1890     1934     2003     2014     1900     1733 
    1568     1344     1090      954     1011     1210     1460     1709 
    1952     2173     2309     2308     2169     1933     1702     1559 
    1470     1394     1381     1455     1503     1421     1291     1278 
    1422     1651     1902     2133     2292     2363     2330     2174 
    1984     1875     1841     1838     1860     1860     1825     1776 
    1687     1522     1328     1192     1190     1324     1470     1529 
    1556     1617     1661     1669     1715     1833     1960     2020 
    2025     2004     1935     1813     1655     1485     1387     1422 
    1544     1702     1829     1852     1792     1714     1614     1489 
    1404     1443     1591     1740     1783     1714     1642     1660 
    1740     1863     2060     2281     2444     2520     2519     2465 
    2354     2184     2012     1881     1752     1606     1482     1395 
    1345     1327     1344     1417     1557     1755     1961     2123 
    2218     2227     2142     2045     2033     2035     1969     1907 
    1910     1952     1976     1927     1802     1621     1424     1306 
    1333     1468     1628     1749     1872     2046     2199     2242 
    2242     2245     2170     2007     1806     1563     1308     1102 
     932      797      773      907     1179     1525     1844     2068 
    2224     2371     2511     2578     2543     2438     2284     2099 
    1888     1598     1252     1009      947     1027     1174     1343 
    1553     1784     1919     1930     1907     1841     1692     1545 
    1501     1545     1628     1742     1891     2047     2142     2123 
    2010     1829     1595     1350     1120      931      835      884 
    1058     1289     1505     1669     1788     1922     2081     2204 
    2265     2277     2215     2056     1830     1588     1390     1294 
    1281     1287     1306     1363     1441     1516     1570     1593 
    1591     1582     1579     1601     1636     1660     1684     1748 
    1834     1868     1856     1865     1860     1776     1649     1541 
    1447     1341     1240     1163     1119     1094     1085     1101 
    1139     1209     1339     1522     1686     1768     1799     1826 
    1854     1876     1867     1825     1806     1848     1926     2000 
    2020     1953     1814     1630     1413     1174      970      869 
     868      940     1117     1412     1744     2011     2181     2270 
    2273     2154     1933     1715     1614     1636     1678     1633 
    1534     1486     1498     1513     1517     1518     1532     1602 
    1750     1942     2073     2050     1917     1782     1674     1584 
    1520     1480     1505     1614     1732     1779     1746     1651 
    1509     1348     1228     1227     1356     1549     1753     1937 
    2042     2043     1989     1923     1813     1634     1468     1409 
    1445     1514     1614     1771     1960     2104     2138     2042 
    1872     1698     1543     1410     1362     1445     1621     1800 
    1938     2034     2097     2123     2097     2030     1899     1667 
    1382     1213     1243     1374     1474     1502     1501     1524 
    1584     1656     1692     1671     1618     1603     1668     1771 
    1834     1817     1744     1705     1719     1707     1659     1657 
    1696     1703     1667     1620     1551     1458     1391     1355 
    1309     1262     1262     1352     1553     1796     1971     2038 
    2035     2014     2003     1996     1960     1899     1852     1809 
    1729     1615     1513     1459     1466     1524     1561     1507 
    1395     1274     1136      994      911      950     1098     1267 
    1424     1587     1740     1834     1860     1863     1864     1826 
    1755     1710     1688     1625     1521     1443     1412     1381 
    1363     1416     1502     1571     1622     1636     1614     1567 
