Origin Time       2025/01/13 21:19:00
Lat.              31.8
Long.             131.6
Depth. (km)       30
Mag.              6.9
Station Code      KGWH03
Station Lat.      34.2700
Station Long.     134.1482
Station Height(m) -50
Record Time       2025/01/13 21:20:53
Sampling Freq(Hz) 100Hz
Duration Time(s)  120
Dir.              3
Scale Factor      3923(gal)/8224838
Max. Acc. (gal)   0.349
Last Correction   2025/01/13 21:20:54
Memo.             
[...]
   11431    11448    11452    11450    11442    11437    11446    11465 
   11477    11476    11470    11470    11462    11456    11464    11462 
   11448    11434    11422    11418    11408    11387    11364    11342 
   11317    11290    11272    11263    11244    11214    11195    11183 
   11164    11149    11148    11156    11165    11176    11184    11191 
   11209    11226    11234    11244    11252    11252    11259    11280 
   11307    11327    11333    11330    11322    11308    11304    11304 
   11302    11306    11307    11307    11315    11318    11325    11348 
   11362    11360    11365    11387    11412    11425    11430    11450 
   11473    11488    11506    11515    11516    11529    11537    11520 
   11493    11480    11487    11503    11510    11504    11496    11492 
   11492    11496    11493    11487    11475    11465    11461    11445 
   11412    11384    11373    11379    11379    11369    11360    11364 
   11375    11379    11380    11396    11425    11446    11456    11460 
   11462    11470    11485    11502    11516    11527    11539    11551 
   11549    11537    11531    11520    11496    11479    11466    11458 
   11448    11427    11414    11415    11418    11422    11437    11457 
   11479    11504    11519    11518    11514    11524    11541    11546 
   11543    11535    11518    11503    11507    11515    11522    11530 
   11531    11524    11527    11538    11535    11523    11519    11518 
   11514    11506    11488    11470    11454    11443    11448    11456 
   11461    11468    11473    11483    11493    11492    11485    11488 
   11496    11496    11489    11481    11473    11470    11475    11479 
   11483    11489    11489    11491    11507    11531    11546    11542 
   11527    11519    11516    11507    11497    11507    11512    11502 
   11485    11475    11480    11504    11535    11543    11527    11514 
   11510    11504    11502    11500    11499    11504    11506    11500 
   11495    11492    11491    11488    11481    11472    11462    11454 
   11443    11435    11430    11427    11433    11445    11446    11449 
   11460    11472    11481    11483    11481    11485    11483    11475 
   11466    11460    11453    11448    11449    11449    11443    11438 
   11445    11460    11475    11487    11497    11510    11523    11538 
   11558    11591    11614    11620    11627    11639    11655    11673 
   11685    11691    11686    11680    11680    11688    11697    11719 
   11758    11793    11809    11817    11821    11824    11836    11861 
   11881    11884    11878    11880    11871    11848    11834    11832 
   11824    11803    11772    11745    11722    11707    11700    11691 
   11677    11661    11645    11631    11612    11599    11596    11584 
   11572    11569    11560    11545    11533    11511    11484    11473 
   11473    11470    11460    11443    11430    11415    11396    11379 
   11360    11338    11319    11304    11288    11267    11245    11223 
   11196    11178    11171    11157    11141    11134    11129    11114 
   11102    11110    11115    11098    11080    11074    11071    11063 
   11057    11068    11087    11099    11118    11141    11151    11157 
   11163    11157    11155    11171    11190    11198    11206    11221 
   11242    11277    11307    11326    11349    11371    11380    11387 
   11394    11406    11429    11443    11450    11457    11457    11458 
   11479    11497    11504    11504    11500    11495    11483    11468 
   11462    11461    11456    11449    11441    11437    11433    11430 
   11437    11445    11454    11473    11483    11476    11480    11484 
   11469    11457    11461    11457    11441    11426    11415    11402 
   11392    11388    11384    11380    11377    11369    11358    11349 
   11349    11352    11348    11345    11348    11349    11357    11375 
   11392    11399    11403    11411    11422    11434    11450    11462 
   11462    11456    11449    11446    11448    11453    11458    11456 
   11443    11438    11437    11429    11423    11422    11422    11423 
   11419    11403    11392    11380    11372    11377    11373    11356 
   11349    11350    11345    11344    11345    11341    11337    11338 
   11341    11344    11342    11334    11330    11334    11340    11337 
   11329    11327    11334    11341    11348    11348    11338    11340 
   11345    11344    11345    11353    11352    11348    11342    11329 
   11315    11313    11314    11304    11290    11283    11283    11279 
   11269    11268    11269    11268    11271    11272    11273    11290 
   11314    11334    11342    11348    11367    11385    11400    11415 
   11425    11426    11429    11437    11443    11446    11448    11453 
   11464    11472    11473    11473    11473    11476    11475    11472 
   11479    11495    11508    11515    11519    11527    11542    11562 
   11581    11600    11619    11630    11632    11646    11673    11686 
   11688    11691    11692    11695    11701    11708    11711    11707 
   11700    11689    11680    11677    11672    11657    11638    11627 
   11628    11632    11631    11628    11624    11622    11619    11614 
   11610    11611    11616    11619    11612    11607    11608    11610 
   11610    11608    11603    11595    11577    11556    11534    11506 
   11475    11449    11421    11396    11385    11376    11361    11349 
   11334    11321    11307    11288    11276    11271    11264    11259 
   11253    11250    11252    11254    11250    11241    11232    11222 
   11213    11205    11202    11205    11206    11209    11214    11222 
   11232    11238    11240    11238    11241    11252    11264    11275 
   11280    11280    11286    11296    11296    11295    11308    11325 
   11334    11353    11379    11395    11411    11431    11441    11449 
   11466    11475    11475    11480    11493    11510    11523    11527 
   11524    11515    11507    11512    11514    11511    11512    11512 
   11507    11511    11526    11539    11550    11566    11583    11591 
   11600    11614    11626    11628    11626    11619    11601    11580 
   11565    11553    11542    11531    11507    11480    11466    11456 
   11443    11435    11431    11429    11429    11437    11456    11473 
   11496    11522    11538    11562    11592    11607    11612    11618 
   11614    11612    11622    11637    11651    11659    11655    11642 
   11624    11615    11601    11578    11547    11514    11479    11446 
   11416    11385    11356    11329    11295    11260    11234    11219 
   11202    11183    11167    11153    11141    11122    11102    11097 
   11101    11099    11101    11107    11115    11132    11140    11141 
   11151    11157    11159    11176    11203    11218    11234    11257 
   11275    11296    11330    11358    11383    11407    11425    11443 
   11472    11500    11520    11542    11564    11578    11588    11592 
   11599    11614    11623    11626    11627    11631    11634    11645 
   11662    11673    11673    11677    11685    11691    11697    11700 
   11691    11691    11700    11704    11700    11695    11693    11691 
   11685    11685    11699    11709    11705    11700    11705    11718 
   11728    11732    11736    11736    11730    11723    11715    11704 
   11691    11670    11643    11615    11587    11560    11534    11511 
   11493    11479    11469    11461    11449    11435    11422    11411 
   11402    11381    11358    11344    11329    11307    11292    11284 
   11265    11237    11219    11209    11187    11165    11146    11130 
   11119    11114    11111    11110    11109    11105    11099    11101 
   11106    11109    11106    11105    11111    11118    11121    11122 
   11125    11133    11149    11165    11178    11187    11196    11218 
   11250    11280    11306    11331    11354    11380    11410    11435 
   11461    11491    11512    11529    11543    11560    11587    11616 
   11641    11670    11699    11723    11757    11796    11828    11847 
   11861    11869    11882    11901    11915    11916    11915    11917 
   11923    11921    11911    11905    11900    11892    11889    11888 
   11881    11874    11865    11850    11835    11824    11811    11796 
   11778    11762    11747    11735    11731    11732    11730    11723 
   11712    11700    11686    11669    11651    11634    11612    11589 
   11562    11537    11516    11497    11476    11460    11443    11421 
   11402    11398    11395    11385    11376    11369    11358    11345 
   11331    11321    11314    11304    11291    11280    11271    11260 
   11253    11248    11242    11236    11233    11236    11237    11248 
   11275    11294    11306    11323    11338    11346    11362    11381 
   11392    11407    11427    11445    11462    11473    11480    11492 
   11508    11522    11533    11545    11556    11569    11587    11600 
   11610    11616    11620    11624    11630    11623    11608    11592 
   11569    11541    11503    11462    11426    11392    11357    11323 
   11287    11248    11209    11171    11133    11097    11064    11043 
   11030    11018    11003    10991    10989    10993    11006    11025 
   11048    11082    11119    11142    11160    11186    11213    11244 
   11280    11317    11353    11388    11419    11453    11488    11518 
   11545    11572    11601    11627    11649    11669    11682    11689 
   11695    11699    11696    11686    11682    11677    11659    11642 
   11626    11605    11588    11577    11562    11538    11515    11495 
   11470    11452    11433    11407    11383    11365    11352    11333 
   11304    11279    11260    11240    11218    11198    11178    11157 
   11140    11128    11115    11095    11078    11070    11064    11053 
   11047    11038    11030    11033    11041    11044    11047    11056 
   11060    11065    11086    11110    11133    11161    11183    11198 
   11219    11238    11250    11260    11272    11283    11291    11299 
   11311    11326    11337    11346    11353    11362    11375    11387 
   11407    11434    11464    11497    11529    11550    11569    11589 
   11611    11627    11638    11649    11662    11673    11677    11684 
   11695    11697    11689    11685    11684    11669    11649    11642 
   11638    11634    11628    11623    11620    11614    11603    11588 
   11569    11558    11556    11547    11543    11542    11543    11553 
   11566    11573    11577    11584    11587    11589    11595    11604 
   11615    11623    11626    11630    11635    11637    11639    11643 
   11641    11641    11641    11635    11631    11631    11624    11615 
   11603    11580    11558    11547    11541    11530    11516    11502 
   11485    11466    11446    11425    11407    11388    11367    11346 
   11329    11310    11291    11279    11276    11272    11264    11261 
   11264    11269    11275    11275    11279    11290    11296    11308 
   11327    11346    11361    11376    11394    11411    11429    11453 
   11477    11502    11524    11545    11566    11593    11620    11641 
   11661    11685    11708    11720    11727    11739    11750    11755 
   11758    11753    11736    11716    11693    11666    11637    11612 
   11589    11562    11534    11512    11500    11492    11484    11472 
   11472    11480    11484    11487    11485    11481    11485    11485 
   11470    11457    11450    11439    11425    11414    11400    11385 
   11377    11373    11365    11358    11356    11356    11358    11364 
   11368    11377    11389    11396    11407    11423    11438    11454 
   11475    11493    11504    11506    11507    11508    11512    11518 
   11518    11512    11508    11508    11510    11511    11515    11518 
   11522    11527    11537    11546    11553    11564    11578    11589 
   11604    11624    11639    11645    11643    11641    11642    11643 
   11642    11634    11630    11628    11627    11626    11630    11630 
   11628    11634    11631    11622    11619    11612    11596    11589 
   11585    11578    11577    11574    11569    11572    11578    11588 
   11596    11600    11604    11597    11585    11576    11569    11556 
   11533    11514    11500    11487    11470    11464    11461    11460 
   11464    11473    11481    11495    11510    11520    11529    11531 
   11533    11538    11543    11546    11546    11547    11554    11558 
   11560    11561    11565    11572    11572    11569    11562    11551 
   11545    11534    11516    11497    11476    11449    11429    11414 
   11388    11358    11337    11317    11291    11261    11233    11213 
   11192    11165    11144    11125    11095    11065    11043    11021 
   11003    10997    10987    10972    10967    10964    10955    10947 
   10945    10943    10939    10940    10945    10952    10963    10976 
   10989    10999    11010    11030    11052    11068    11095    11129 
   11151    11182    11226    11264    11294    11317    11337    11358 
   11381    11402    11429    11457    11472    11480    11500    11519 
   11529    11546    11566    11581    11597    11615    11632    11655 
   11681    11708    11731    11753    11770    11777    11781    11786 
   11793    11790    11781    11776    11774    11762    11747    11735 
   11716    11688    11661    11632    11601    11572    11545    11511 
   11470    11435    11404    11377    11353    11325    11291    11257 
   11229    11200    11173    11152    11132    11106    11080    11060 
   11040    11013    10984    10951    10910    10871    10841    10813 
   10782    10756    10737    10724    10719    10717    10721    10732 
   10751    10782    10808    10824    10848    10875    10898    10924 
   10951    10976    11002    11030    11065    11107    11153    11205 
   11253    11295    11340    11385    11427    11473    11518    11557 
   11595    11631    11668    11693    11708    11727    11740    11743 
   11742    11739    11731    11724    11723    11719    11708    11695 
   11678    11664    11655    11646    11632    11618    11603    11584 
   11561    11541    11527    11511    11496    11480    11466    11458 
   11452    11450    11456    11466    11480    11492    11506    11526 
   11553    11580    11604    11620    11635    11651    11659    11661 
   11664    11666    11664    11655    11646    11631    11604    11577 
   11550    11522    11493    11465    11426    11387    11354    11318 
   11275    11237    11202    11171    11142    11110    11088    11080 
   11076    11078    11080    11086    11098    11114    11129    11141 
   11155    11169    11187    11203    11219    11240    11259    11273 
   11288    11306    11326    11352    11376    11402    11435    11470 
   11504    11546    11584    11616    11646    11666    11681    11699 
   11709    11722    11740    11750    11747    11745    11746    11757 
   11770    11784    11800    11812    11824    11838    11844    11846 
   11848    11846    11839    11836    11830    11817    11812    11812 
   11807    11792    11774    11751    11728    11707    11684    11668 
   11658    11638    11615    11605    11592    11572    11558    11547 
   11538    11526    11507    11488    11476    11468    11466    11466 
   11458    11448    11442    11433    11423    11414    11396    11381 
   11376    11369    11361    11357    11350    11338    11326    11315 
   11304    11295    11281    11268    11257    11245    11226    11206 
   11195    11187    11175    11169    11167    11159    11151    11146 
   11142    11144    11137    11126    11122    11124    11125    11129 
   11136    11141    11146    11161    11175    11184    11205    11229 
   11254    11283    11304    11321    11342    11365    11387    11404 
   11412    11412    11418    11423    11431    11439    11437    11427 
   11415    11404    11391    11379    11372    11365    11357    11357 
   11364    11369    11376    11388    11408    11431    11446    11452 
   11461    11476    11493    11512    11534    11550    11558    11570 
   11577    11574    11574    11576    11574    11577    11574    11561 
   11554    11550    11542    11530    11519    11514    11510    11504 
   11502    11508    11520    11534    11554    11584    11608    11630 
   11659    11691    11716    11742    11766    11784    11803    11824 
   11842    11855    11861    11863    11874    11884    11890    11907 
   11921    11931    11943    11952    11962    11966    11966    11971 
   11974    11969    11966    11959    11943    11927    11912    11896 
   11882    11870    11859    11848    11836    11820    11807    11801 
   11799    11799    11801    11805    11813    11826    11838    11840 
   11839    11838    11831    11821    11813    11801    11788    11777 
   11759    11736    11716    11697    11673    11647    11622    11599 
   11580    11561    11543    11527    11519    11520    11522    11524 
   11535    11543    11553    11572    11588    11599    11611    11620 
   11627    11632    11637    11639    11642    11650    11657    11661 
   11665    11664    11659    11659    11655    11641    11623    11610 
   11593    11573    11560    11538    11507    11483    11458    11429 
   11402    11379    11358    11342    11327    11319    11317    11317 
   11314    11313    11313    11315    11317    11315    11317    11317 
   11307    11296    11288    11279    11273    11269    11263    11256 
   11248    11234    11217    11200    11187    11175    11157    11141 
   11132    11125    11119    11125    11133    11138    11145    11157 
   11173    11198    11225    11256    11287    11314    11338    11368 
   11404    11434    11462    11493    11523    11547    11574    11601 
   11622    11641    11659    11669    11676    11685    11691    11693 
   11699    11704    11708    11708    11708    11713    11715    11711 
   11711    11707    11688    11665    11642    11619    11596    11570 
   11543    11515    11487    11469    11453    11429    11411    11389 
   11369    11354    11334    11311    11295    11277    11254    11230 
   11213    11196    11175    11156    11142    11122    11106    11097 
   11082    11063    11047    11037    11030    11024    11017    11011 
   11003    10995    10993    10991    10987    10982    10978    10964 
   10951    10949    10944    10929    10916    10906    10894    10882 
   10868    10855    10843    10833    10824    10813    10809    10810 
   10810    10812    10818    10831    10848    10874    10902    10936 
   10974    11016    11064    11114    11163    11207    11253    11304 
   11350    11394    11437    11473    11506    11538    11576    11615 
   11654    11686    11712    11732    11753    11777    11801    11824 
   11843    11857    11875    11900    11919    11932    11948    11966 
   11983    12004    12027    12044    12058    12073    12085    12091 
   12097    12104    12109    12110    12104    12096    12087    12073 
   12048    12028    12002    11966    11929    11888    11835    11789 
   11745    11691    11637    11585    11533    11483    11439    11394 
   11342    11299    11265    11236    11211    11191    11167    11137 
   11113    11098    11082    11067    11053    11045    11043    11041 
   11043    11045    11052    11061    11074    11086    11098    11113 
   11132    11153    11171    11190    11209    11222    11232    11244 
   11256    11264    11269    11273    11272    11265    11261    11263 
