Origin Time       2025/01/13 21:19:00
Lat.              31.8
Long.             131.6
Depth. (km)       30
Mag.              6.9
Station Code      KGWH02
Station Lat.      34.1980
Station Long.     133.7081
Station Height(m) 5
Record Time       2025/01/13 21:20:28
Sampling Freq(Hz) 100Hz
Duration Time(s)  146
Dir.              4
Scale Factor      7845(gal)/8223790
Max. Acc. (gal)   5.453
Last Correction   2025/01/13 21:20:28
Memo.             
[...]
   -3258    -3250    -3234    -3156    -3053    -3006    -3051    -3188 
   -3396    -3642    -3958    -4398    -4878    -5178    -5142    -4820 
   -4407    -4054    -3815    -3690    -3634    -3592    -3553    -3514 
   -3454    -3365    -3258    -3140    -2978    -2736    -2439    -2158 
   -1962    -1910    -2046    -2353    -2741    -3134    -3485    -3781 
   -4032    -4294    -4617    -4932    -5096    -5053    -4855    -4565 
   -4224    -3901    -3670    -3512    -3353    -3192    -3105    -3137 
   -3288    -3516    -3734    -3843    -3831    -3755    -3623    -3453 
   -3384    -3537    -3866    -4214    -4463    -4583    -4623    -4664 
   -4752    -4824    -4760    -4480    -4017    -3493    -3011    -2589 
   -2241    -2074    -2218    -2659    -3199    -3622    -3866    -3987 
   -4067    -4168    -4295    -4394    -4450    -4525    -4645    -4729 
   -4658    -4402    -4035    -3697    -3512    -3474    -3497    -3524 
   -3505    -3385    -3191    -2995    -2855    -2818    -2910    -3109 
   -3396    -3754    -4114    -4388    -4531    -4563    -4504    -4371 
   -4237    -4176    -4185    -4247    -4364    -4487    -4538    -4423 
   -4083    -3599    -3134    -2817    -2705    -2798    -3060    -3430 
   -3817    -4149    -4392    -4507    -4457    -4259    -3940    -3530 
   -3107    -2768    -2556    -2470    -2482    -2551    -2671    -2887 
   -3234    -3650    -4008    -4229    -4324    -4329    -4261    -4136 
   -3990    -3882    -3912    -4167    -4573    -4870    -4811    -4322 
   -3539    -2760    -2274    -2168    -2323    -2612    -2976    -3366 
   -3670    -3781    -3692    -3505    -3335    -3213    -3086    -2901 
   -2668    -2478    -2452    -2660    -3117    -3827    -4707    -5563 
   -6227    -6577    -6520    -6103    -5498    -4845    -4239    -3793 
   -3574    -3519    -3569    -3755    -4072    -4369    -4467    -4348 
   -4131    -3917    -3789    -3823    -4005    -4168    -4104    -3771 
   -3333    -2967    -2748    -2641    -2567    -2486    -2463    -2598 
   -2886    -3183    -3393    -3584    -3854    -4180    -4428    -4476 
   -4321    -4036    -3689    -3356    -3079    -2836    -2631    -2562 
   -2705    -3001    -3296    -3488    -3603    -3728    -3852    -3866 
   -3711    -3451    -3230    -3172    -3370    -3844    -4471    -5000 
   -5213    -5039    -4595    -4144    -3937    -4036    -4274    -4437 
   -4473    -4441    -4386    -4315    -4191    -3948    -3620    -3365 
   -3304    -3366    -3400    -3372    -3361    -3410    -3450    -3388 
   -3226    -3052    -2952    -2983    -3192    -3566    -4009    -4401 
   -4618    -4569    -4291    -3960    -3707    -3514    -3380    -3366 
   -3519    -3824    -4136    -4222    -3983    -3542    -3152    -3022 
   -3153    -3327    -3352    -3271    -3262    -3375    -3499    -3530 
   -3481    -3431    -3433    -3456    -3460    -3484    -3616    -3877 
   -4180    -4426    -4592    -4691    -4718    -4662    -4534    -4374 
   -4214    -4028    -3775    -3511    -3356    -3376    -3537    -3763 
   -4014    -4282    -4560    -4812    -4951    -4887    -4633    -4321 
   -4066    -3866    -3640    -3353    -3069    -2936    -3068    -3441 
   -3889    -4240    -4413    -4436    -4372    -4279    -4145    -3889 
   -3478    -2997    -2596    -2435    -2613    -3060    -3591    -4085 
   -4499    -4726    -4622    -4162    -3492    -2830    -2362    -2170 
   -2230    -2455    -2785    -3196    -3649    -4077    -4436    -4676 
   -4723    -4569    -4293    -3948    -3609    -3415    -3451    -3673 
   -3955    -4170    -4251    -4202    -4043    -3762    -3383    -3014 
   -2810    -2899    -3288    -3793    -4147    -4228    -4124    -4001 
   -3920    -3819    -3655    -3451    -3242    -3059    -2933    -2898 
   -2937    -2999    -3055    -3087    -3084    -3052    -2978    -2824 
   -2608    -2470    -2552    -2852    -3264    -3709    -4135    -4515 
   -4904    -5370    -5902    -6381    -6640    -6592    -6278    -5768 
   -5125    -4460    -3904    -3522    -3300    -3217    -3256    -3397 
   -3593    -3757    -3828    -3867    -3942    -4006    -3971    -3759 
   -3353    -2889    -2623    -2683    -2990    -3362    -3650    -3781 
   -3773    -3689    -3576    -3462    -3387    -3364    -3375    -3415 
   -3470    -3478    -3368    -3127    -2810    -2532    -2459    -2678 
   -3078    -3447    -3663    -3770    -3901    -4160    -4534    -4874 
   -5054    -5086    -5053    -5005    -4914    -4685    -4320    -3927 
   -3628    -3507    -3569    -3740    -3910    -4044    -4185    -4386 
   -4642    -4870    -4942    -4787    -4449    -4036    -3643    -3322 
   -3113    -3075    -3268    -3682    -4205    -4633    -4772    -4545 
   -4052    -3518    -3137    -2965    -2964    -3114    -3403    -3723 
   -3952    -4087    -4139    -4044    -3782    -3451    -3163    -2948 
   -2785    -2651    -2563    -2582    -2748    -3018    -3284    -3437 
   -3438    -3353    -3291    -3289    -3296    -3237    -3110    -2998 
   -2975    -3011    -3055    -3127    -3314    -3677    -4171    -4680 
   -5112    -5447    -5688    -5810    -5769    -5579    -5287    -4950 
   -4608    -4279    -3993    -3769    -3585    -3426    -3338    -3366 
   -3466    -3578    -3732    -3983    -4307    -4595    -4773    -4850 
   -4861    -4808    -4676    -4450    -4139    -3793    -3508    -3306 
   -3115    -2886    -2641    -2447    -2398    -2566    -2871    -3100 
   -3099    -2905    -2682    -2578    -2629    -2779    -2971    -3219 
   -3555    -3906    -4159    -4303    -4361    -4291    -4059    -3717 
   -3361    -3052    -2852    -2798    -2826    -2862    -2859    -2798 
   -2705    -2636    -2659    -2859    -3300    -3947    -4676    -5313 
   -5741    -5957    -5999    -5902    -5761    -5710    -5810    -5998 
   -6149    -6127    -5842    -5321    -4681    -4040    -3505    -3179 
   -3136    -3361    -3676    -3878    -3942    -3986    -4040    -3981 
   -3684    -3127    -2428    -1803    -1372    -1070     -795     -560 
    -473     -625    -1012    -1543    -2029    -2288    -2339    -2373 
   -2551    -2903    -3348    -3758    -4071    -4284    -4419    -4534 
   -4699    -4942    -5292    -5771    -6307    -6759    -7025    -7076 
   -6972    -6787    -6519    -6154    -5721    -5248    -4780    -4396 
   -4152    -4021    -3947    -3879    -3747    -3515    -3238    -3003 
   -2887    -2937    -3091    -3202    -3179    -3079    -2984    -2894 
   -2745    -2489    -2138    -1795    -1590    -1559    -1638    -1790 
   -2042    -2428    -2911    -3396    -3790    -4016    -4017    -3805 
   -3430    -2963    -2520    -2235    -2205    -2444    -2871    -3358 
   -3808    -4164    -4418    -4560    -4560    -4386    -4035    -3546 
   -3044    -2691    -2558    -2570    -2637    -2749    -2943    -3234 
   -3634    -4167    -4781    -5302    -5601    -5721    -5786    -5857 
   -5921    -5925    -5827    -5647    -5435    -5223    -5005    -4761 
   -4459    -4114    -3798    -3568    -3439    -3426    -3493    -3569 
   -3609    -3612    -3578    -3514    -3453    -3408    -3350    -3288 
   -3264    -3311    -3410    -3495    -3546    -3608    -3696    -3797 
   -3915    -4048    -4167    -4226    -4198    -4086    -3893    -3630 
   -3327    -3048    -2875    -2867    -3019    -3273    -3522    -3688 
   -3775    -3835    -3937    -4136    -4394    -4618    -4773    -4905 
   -5053    -5170    -5196    -5096    -4847    -4449    -3964    -3500 
   -3179    -3088    -3207    -3466    -3834    -4251    -4581    -4696 
   -4564    -4267    -3959    -3727    -3546    -3349    -3083    -2789 
   -2594    -2583    -2763    -3115    -3582    -4043    -4378    -4517 
   -4428    -4140    -3738    -3262    -2736    -2277    -2058    -2122 
   -2351    -2623    -2880    -3078    -3164    -3148    -3088    -3037 
   -3009    -3001    -2998    -2965    -2887    -2836    -2944    -3279 
   -3815    -4429    -4962    -5340    -5564    -5651    -5607    -5414 
   -5070    -4676    -4411    -4375    -4519    -4716    -4868    -4989 
   -5155    -5341    -5431    -5328    -5047    -4703    -4411    -4199 
   -4035    -3877    -3693    -3465    -3183    -2829    -2415    -2033 
   -1826    -1864    -2106    -2428    -2697    -2855    -2926    -2960 
   -2997    -3060    -3168    -3326    -3512    -3699    -3859    -3967 
   -4032    -4089    -4139    -4156    -4118    -3985    -3736    -3424 
   -3114    -2822    -2554    -2346    -2247    -2280    -2462    -2795 
   -3226    -3685    -4121    -4498    -4788    -4954    -4945    -4747 
   -4437    -4151    -3964    -3824    -3665    -3508    -3387    -3275 
   -3142    -3028    -3002    -3094    -3271    -3497    -3798    -4190 
   -4603    -4936    -5142    -5242    -5293    -5352    -5421    -5436 
   -5332    -5116    -4888    -4742    -4658    -4557    -4450    -4409 
   -4463    -4577    -4696    -4780    -4792    -4718    -4610    -4526 
   -4452    -4363    -4284    -4249    -4241    -4233    -4216    -4156 
   -4000    -3747    -3437    -3064    -2605    -2100    -1614    -1178 
    -826     -629     -635     -803    -1044    -1281    -1440    -1491 
   -1474    -1428    -1356    -1305    -1355    -1533    -1776    -2018 
   -2251    -2494    -2718    -2876    -2948    -2949    -2898    -2828 
   -2775    -2768    -2836    -3001    -3281    -3684    -4178    -4711 
   -5235    -5726    -6146    -6428    -6548    -6561    -6498    -6316 
   -5980    -5520    -5027    -4627    -4415    -4388    -4483    -4644 
   -4835    -5013    -5111    -5069    -4878    -4619    -4409    -4307 
   -4282    -4241    -4128    -3996    -3925    -3919    -3898    -3811 
   -3653    -3445    -3202    -2948    -2691    -2415    -2126    -1883 
   -1755    -1760    -1869    -2045    -2265    -2528    -2829    -3134 
   -3414    -3651    -3823    -3917    -3974    -4047    -4148    -4267 
   -4417    -4581    -4710    -4753    -4700    -4573    -4392    -4191 
   -4025    -3936    -3925    -3974    -4086    -4297    -4580    -4837 
   -4996    -5061    -5054    -5015    -4982    -4939    -4819    -4584 
   -4271    -3924    -3532    -3073    -2590    -2151    -1803    -1580 
   -1505    -1555    -1694    -1921    -2239    -2625    -3041    -3450 
   -3821    -4132    -4361    -4473    -4469    -4409    -4365    -4353 
   -4357    -4394    -4479    -4580    -4661    -4726    -4795    -4834 
   -4774    -4591    -4283    -3842    -3315    -2789    -2330    -1984 
   -1804    -1799    -1945    -2195    -2463    -2678    -2808    -2852 
   -2841    -2822    -2816    -2825    -2872    -3003    -3258    -3619 
   -4020    -4378    -4630    -4791    -4893    -4916    -4841    -4687 
   -4502    -4302    -4077    -3867    -3751    -3721    -3713    -3716 
   -3736    -3740    -3703    -3673    -3726    -3886    -4121    -4382 
   -4652    -4951    -5285    -5583    -5746    -5742    -5607    -5413 
   -5219    -5031    -4823    -4584    -4340    -4128    -3948    -3805 
   -3723    -3705    -3717    -3690    -3574    -3370    -3119    -2852 
   -2570    -2274    -1998    -1817    -1794    -1921    -2104    -2226 
   -2216    -2118    -2012    -1930    -1869    -1836    -1837    -1879 
   -1981    -2137    -2312    -2502    -2749    -3075    -3433    -3754 
   -4009    -4216    -4392    -4542    -4676    -4816    -4988    -5184 
   -5377    -5526    -5601    -5593    -5526    -5421    -5277    -5077 
   -4835    -4604    -4436    -4321    -4207    -4077    -3973    -3921 
   -3881    -3811    -3692    -3518    -3327    -3176    -3076    -3015 
   -2990    -2997    -3017    -3045    -3073    -3084    -3091    -3134 
   -3230    -3357    -3476    -3570    -3600    -3477    -3159    -2705 
   -2245    -1904    -1734    -1701    -1763    -1914    -2168    -2513 
   -2889    -3218    -3477    -3690    -3919    -4213    -4573    -4976 
   -5371    -5698    -5948    -6143    -6237    -6134    -5814    -5359 
   -4899    -4526    -4263    -4102    -4047    -4105    -4252    -4445 
   -4627    -4765    -4877    -5007    -5157    -5305    -5441    -5556 
   -5628    -5602    -5445    -5202    -4974    -4814    -4673    -4465 
   -4174    -3863    -3601    -3384    -3154    -2876    -2604    -2434 
   -2405    -2488    -2620    -2743    -2817    -2820    -2775    -2727 
   -2683    -2619    -2521    -2404    -2303    -2274    -2340    -2454 
   -2554    -2621    -2681    -2754    -2828    -2903    -2999    -3115 
   -3242    -3341    -3370    -3333    -3268    -3225    -3248    -3327 
   -3418    -3500    -3613    -3785    -4005    -4267    -4561    -4861 
   -5146    -5405    -5616    -5755    -5814    -5802    -5741    -5645 
   -5537    -5449    -5366    -5240    -5042    -4774    -4432    -4016 
   -3569    -3157    -2821    -2567    -2393    -2301    -2277    -2274 
   -2238    -2146    -2015    -1864    -1719    -1613    -1543    -1509 
   -1520    -1566    -1620    -1661    -1699    -1756    -1826    -1875 
   -1880    -1869    -1896    -1980    -2087    -2199    -2351    -2605 
   -2986    -3451    -3946    -4464    -5036    -5659    -6301    -6945 
   -7569    -8120    -8538    -8807    -8942    -8966    -8887    -8721 
   -8517    -8305    -8059    -7731    -7322    -6887    -6400    -5800 
   -5213    -4741    -4288    -3910    -3740    -3755    -3921    -4158 
   -4338    -4446    -4492    -4473    -4386    -4210    -3967    -3713 
   -3491    -3298    -3094    -2844    -2558    -2245    -1894    -1478 
    -982     -433      116      634     1102     1498     1791     1956 
    1973     1836     1557     1173      742      341       32     -160 
    -270     -356     -471     -668     -988    -1440    -1993    -2594 
   -3192    -3757    -4286    -4807    -5351    -5913    -6469    -6987 
   -7420    -7766    -8066    -8321    -8495    -8571    -8550    -8444 
   -8283    -8144    -8083    -8062    -8004    -7890    -7732    -7545 
   -7333    -7086    -6786    -6430    -6037    -5620    -5181    -4741 
   -4330    -3977    -3680    -3416    -3180    -2991    -2884    -2875 
   -2934    -3015    -3076    -3071    -2956    -2728    -2417    -2046 
   -1632    -1223     -882     -638     -498     -473     -553     -711 
    -911    -1123    -1329    -1533    -1755    -1981    -2155    -2254 
   -2308    -2359    -2451    -2609    -2835    -3114    -3427    -3761 
   -4086    -4380    -4644    -4876    -5050    -5132    -5112    -5015 
   -4891    -4758    -4598    -4371    -4081    -3805    -3619    -3534 
   -3499    -3441    -3327    -3165    -2964    -2728    -2466    -2224 
   -2045    -1922    -1864    -1930    -2119    -2346    -2589    -2868 
   -3142    -3365    -3489    -3503    -3446    -3372    -3325    -3306 
   -3288    -3268    -3268    -3311    -3418    -3572    -3715    -3786 
   -3770    -3707    -3665    -3696    -3807    -3958    -4126    -4329 
   -4572    -4812    -5028    -5248    -5498    -5768    -6027    -6255 
   -6442    -6579    -6660    -6687    -6644    -6498    -6253    -5977 
   -5745    -5570    -5429    -5313    -5254    -5286    -5363    -5366 
   -5267    -5135    -4920    -4602    -4268    -3920    -3553    -3208 
   -2891    -2650    -2512    -2428    -2369    -2349    -2393    -2502 
   -2602    -2604    -2473    -2209    -1822    -1337     -810     -325 
      39      249      309      237       71     -152     -429     -769 
   -1162    -1580    -1983    -2340    -2652    -2938    -3217    -3503 
   -3797    -4090    -4369    -4611    -4799    -4939    -5040    -5100 
   -5101    -5026    -4880    -4693    -4498    -4336    -4241    -4229 
   -4329    -4583    -4990    -5485    -5976    -6411    -6767    -7052 
   -7287    -7460    -7530    -7468    -7265    -6948    -6573    -6177 
   -5767    -5339    -4923    -4569    -4282    -4013    -3748    -3495 
   -3249    -3019    -2817    -2639    -2469    -2288    -2103    -1941 
   -1790    -1634    -1497    -1381    -1247    -1084     -909     -735 
    -571     -445     -390     -396     -427     -453     -499     -611 
    -807    -1082    -1424    -1800    -2192    -2602    -3024    -3426 
   -3827    -4260    -4727    -5205    -5655    -6008    -6226    -6334 
   -6372    -6338    -6199    -5956    -5672    -5425    -5258    -5162 
   -5090    -4990    -4858    -4730    -4614    -4480    -4313    -4145 
   -4044    -4041    -4101    -4160    -4171    -4132    -4083    -4060 
   -4063    -4081    -4093    -4091    -4063    -3996    -3873    -3703 
   -3511    -3337    -3213    -3164    -3192    -3289    -3476    -3761 
   -4075    -4345    -4563    -4754    -4935    -5098    -5240    -5348 
   -5420    -5474    -5524    -5559    -5562    -5521    -5437    -5310 
   -5150    -5001    -4920    -4893    -4860    -4787    -4702    -4617 
   -4540    -4488    -4441    -4357    -4240    -4116    -3989    -3847 
   -3692    -3553    -3458    -3411    -3387    -3364    -3349    -3358 
   -3372    -3335    -3215    -3021    -2775    -2511    -2263    -2080 
   -1984    -1985    -2087    -2274    -2519    -2778    -2990    -3095 
   -3044    -2840    -2539    -2170    -1752    -1351    -1057     -924 
    -938    -1016    -1111    -1247    -1453    -1699    -1930    -2097 
   -2174    -2166    -2093    -1962    -1819    -1767    -1896    -2241 
   -2756    -3368    -4027    -4702    -5346    -5899    -6301    -6524 
   -6602    -6620    -6646    -6704    -6763    -6808    -6863    -6930 
   -6956    -6912    -6798    -6606    -6330    -5995    -5656    -5358 
   -5127    -4986    -4926    -4899    -4896    -4950    -5066    -5190 
   -5256    -5209    -5032    -4734    -4356    -3964    -3630    -3383 
   -3211    -3091    -3005    -2936    -2880    -2836    -2782    -2678 
   -2504    -2278    -2042    -1821    -1625    -1466    -1341    -1247 
   -1190    -1174    -1185    -1188    -1152    -1069     -932     -730 
    -472     -194       81      324      487      534      459      284 
      39     -267     -615     -990    -1393    -1822    -2265    -2725 
   -3233    -3780    -4329    -4866    -5391    -5881    -6307    -6650 
   -6890    -7021    -7068    -7071    -7055    -7014    -6941    -6870 
   -6835    -6848    -6906    -6983    -7044    -7071    -7051    -6952 
   -6747    -6432    -6038    -5597    -5134    -4671    -4249    -3924 
   -3720    -3626    -3615    -3673    -3774    -3866    -3896    -3846 
   -3738    -3635    -3601    -3655    -3782    -3942    -4082    -4162 
   -4166    -4083    -3915    -3686    -3431    -3177    -2949    -2758 
   -2592    -2454    -2374    -2377    -2450    -2567    -2720    -2886 
   -3048    -3186    -3284    -3343    -3377    -3389    -3404    -3449 
   -3539    -3678    -3851    -4043    -4249    -4465    -4677    -4866 
   -5008    -5080    -5078    -5039    -4997    -4955    -4903    -4845 
   -4791    -4758    -4756    -4762    -4757    -4723    -4676    -4634 
   -4581    -4513    -4415    -4266    -4067    -3863    -3707    -3645 
   -3699    -3854    -4085    -4341    -4556    -4692    -4729    -4627 
   -4374    -4001    -3569    -3141    -2776    -2512    -2347    -2258 
   -2204    -2157    -2108    -2043    -1960    -1885    -1850    -1861 
   -1918    -1998    -2060    -2093    -2130    -2203    -2309    -2421 
   -2515    -2574    -2606    -2616    -2598    -2551    -2481    -2409 
   -2336    -2253    -2182    -2149    -2147    -2182    -2263    -2390 
   -2546    -2709    -2849    -2952    -3010    -3030    -3042    -3090 
