Origin Time       2025/01/13 21:19:00
Lat.              31.8
Long.             131.6
Depth. (km)       30
Mag.              6.9
Station Code      KGWH03
Station Lat.      34.2700
Station Long.     134.1482
Station Height(m) 50
Record Time       2025/01/13 21:20:53
Sampling Freq(Hz) 100Hz
Duration Time(s)  120
Dir.              5
Scale Factor      7845(gal)/8223790
Max. Acc. (gal)   0.500
Last Correction   2025/01/13 21:20:54
Memo.             
[...]
   -6446    -6500    -6548    -6548    -6509    -6492    -6508    -6527 
   -6538    -6536    -6544    -6582    -6625    -6647    -6635    -6585 
   -6539    -6544    -6583    -6615    -6616    -6583    -6554    -6577 
   -6633    -6667    -6663    -6635    -6604    -6585    -6565    -6543 
   -6543    -6566    -6571    -6559    -6551    -6551    -6556    -6565 
   -6598    -6659    -6698    -6712    -6720    -6717    -6706    -6708 
   -6721    -6728    -6718    -6714    -6721    -6712    -6694    -6708 
   -6743    -6760    -6755    -6760    -6781    -6791    -6791    -6771 
   -6740    -6725    -6720    -6717    -6718    -6716    -6709    -6708 
   -6717    -6721    -6723    -6727    -6706    -6671    -6662    -6666 
   -6658    -6651    -6643    -6623    -6605    -6604    -6598    -6573 
   -6531    -6496    -6493    -6535    -6583    -6590    -6555    -6520 
   -6528    -6574    -6612    -6635    -6648    -6632    -6590    -6573 
   -6600    -6651    -6689    -6685    -6658    -6660    -6694    -6724 
   -6723    -6694    -6664    -6656    -6673    -6697    -6706    -6710 
   -6728    -6739    -6721    -6691    -6679    -6697    -6718    -6725 
   -6724    -6725    -6732    -6736    -6735    -6732    -6727    -6720 
   -6733    -6747    -6723    -6689    -6675    -6674    -6667    -6658 
   -6659    -6670    -6681    -6683    -6690    -6717    -6736    -6718 
   -6702    -6702    -6701    -6704    -6702    -6679    -6658    -6642 
   -6613    -6597    -6616    -6625    -6609    -6604    -6604    -6600 
   -6612    -6624    -6631    -6647    -6646    -6629    -6635    -6643 
   -6625    -6606    -6608    -6617    -6608    -6573    -6540    -6539 
   -6566    -6588    -6575    -6544    -6517    -6490    -6474    -6481 
   -6481    -6454    -6442    -6463    -6496    -6517    -6513    -6481 
   -6454    -6457    -6477    -6501    -6515    -6508    -6500    -6507 
   -6509    -6498    -6498    -6516    -6536    -6552    -6561    -6565 
   -6578    -6590    -6597    -6624    -6656    -6659    -6663    -6691 
   -6706    -6706    -6720    -6736    -6745    -6733    -6686    -6640 
   -6644    -6679    -6690    -6664    -6646    -6651    -6658    -6674 
   -6704    -6693    -6625    -6567    -6563    -6590    -6615    -6619 
   -6616    -6610    -6604    -6610    -6635    -6650    -6629    -6581 
   -6555    -6578    -6600    -6592    -6601    -6625    -6623    -6600 
   -6585    -6586    -6601    -6604    -6594    -6590    -6590    -6583 
   -6567    -6570    -6598    -6612    -6602    -6606    -6627    -6640 
   -6654    -6675    -6679    -6666    -6673    -6685    -6662    -6629 
   -6631    -6646    -6625    -6597    -6608    -6636    -6644    -6637 
   -6624    -6615    -6627    -6636    -6623    -6601    -6598    -6623 
   -6644    -6648    -6651    -6651    -6636    -6632    -6659    -6687 
   -6693    -6693    -6690    -6670    -6655    -6656    -6635    -6597 
   -6592    -6606    -6610    -6617    -6635    -6648    -6658    -6663 
   -6655    -6644    -6651    -6647    -6633    -6647    -6670    -6679 
   -6685    -6679    -6662    -6642    -6623    -6616    -6610    -6583 
   -6544    -6528    -6540    -6550    -6552    -6559    -6573    -6586 
   -6582    -6573    -6581    -6593    -6577    -6548    -6538    -6561 
   -6601    -6616    -6602    -6601    -6612    -6615    -6615    -6625 
   -6660    -6690    -6682    -6671    -6682    -6694    -6705    -6713 
   -6716    -6727    -6763    -6798    -6805    -6805    -6806    -6797 
   -6787    -6779    -6768    -6762    -6747    -6708    -6669    -6652 
   -6648    -6660    -6690    -6694    -6666    -6640    -6639    -6651 
   -6663    -6663    -6647    -6644    -6663    -6671    -6675    -6689 
   -6685    -6669    -6671    -6667    -6633    -6600    -6581    -6570 
   -6575    -6604    -6632    -6640    -6643    -6656    -6677    -6698 
   -6713    -6716    -6702    -6696    -6702    -6701    -6689    -6687 
   -6682    -6660    -6643    -6629    -6615    -6608    -6601    -6577 
   -6552    -6552    -6552    -6534    -6525    -6535    -6542    -6548 
   -6552    -6555    -6573    -6594    -6600    -6594    -6586    -6579 
   -6582    -6590    -6597    -6606    -6616    -6596    -6558    -6540 
   -6551    -6570    -6585    -6582    -6569    -6579    -6617    -6648 
   -6646    -6628    -6621    -6624    -6629    -6639    -6636    -6608 
   -6582    -6579    -6581    -6574    -6566    -6575    -6597    -6606 
   -6612    -6635    -6652    -6652    -6648    -6644    -6632    -6620 
   -6613    -6616    -6616    -6598    -6585    -6586    -6600    -6613 
   -6612    -6620    -6646    -6654    -6642    -6619    -6586    -6578 
   -6596    -6598    -6579    -6556    -6542    -6546    -6565    -6574 
   -6566    -6552    -6547    -6559    -6570    -6570    -6559    -6555 
   -6571    -6594    -6602    -6600    -6609    -6629    -6629    -6617 
   -6624    -6637    -6635    -6636    -6647    -6648    -6655    -6667 
   -6669    -6677    -6704    -6720    -6712    -6696    -6689    -6696 
   -6712    -6735    -6751    -6762    -6782    -6790    -6770    -6750 
   -6740    -6736    -6747    -6747    -6724    -6720    -6740    -6752 
   -6755    -6752    -6747    -6750    -6762    -6770    -6768    -6771 
   -6781    -6789    -6790    -6787    -6778    -6774    -6777    -6760 
   -6733    -6727    -6728    -6724    -6712    -6690    -6678    -6682 
   -6675    -6663    -6673    -6691    -6702    -6710    -6724    -6735 
   -6725    -6691    -6656    -6648    -6662    -6677    -6691    -6705 
   -6708    -6694    -6682    -6686    -6690    -6682    -6666    -6655 
   -6651    -6658    -6679    -6694    -6686    -6677    -6677    -6667 
   -6646    -6628    -6608    -6579    -6566    -6559    -6542    -6529 
   -6531    -6528    -6515    -6505    -6507    -6498    -6477    -6462 
   -6459    -6466    -6484    -6496    -6494    -6497    -6511    -6524 
   -6546    -6574    -6594    -6612    -6629    -6627    -6616    -6609 
   -6605    -6600    -6596    -6597    -6604    -6616    -6627    -6631 
   -6632    -6624    -6609    -6617    -6652    -6681    -6691    -6696 
   -6694    -6694    -6691    -6675    -6664    -6675    -6687    -6681 
   -6671    -6670    -6671    -6671    -6667    -6664    -6674    -6691 
   -6709    -6710    -6712    -6732    -6748    -6744    -6732    -6721 
   -6710    -6700    -6701    -6741    -6791    -6794    -6777    -6782 
   -6783    -6772    -6772    -6766    -6748    -6743    -6750    -6752 
   -6745    -6731    -6713    -6710    -6718    -6723    -6718    -6706 
   -6700    -6709    -6712    -6696    -6682    -6675    -6662    -6639 
   -6624    -6624    -6628    -6637    -6648    -6646    -6633    -6625 
   -6613    -6601    -6600    -6597    -6582    -6571    -6565    -6559 
   -6569    -6585    -6582    -6562    -6552    -6556    -6558    -6555 
   -6554    -6547    -6539    -6529    -6516    -6498    -6490    -6505 
   -6521    -6524    -6529    -6532    -6531    -6546    -6563    -6555 
   -6542    -6535    -6531    -6534    -6544    -6559    -6573    -6569 
   -6548    -6538    -6542    -6550    -6544    -6525    -6515    -6523 
   -6532    -6536    -6536    -6534    -6539    -6563    -6593    -6601 
   -6585    -6567    -6569    -6586    -6606    -6628    -6658    -6669 
   -6647    -6633    -6639    -6631    -6616    -6612    -6605    -6605 
   -6624    -6648    -6659    -6664    -6673    -6674    -6667    -6664 
   -6664    -6663    -6660    -6658    -6659    -6667    -6682    -6691 
   -6682    -6669    -6663    -6654    -6639    -6620    -6590    -6566 
   -6566    -6581    -6590    -6583    -6566    -6550    -6550    -6559 
   -6556    -6554    -6567    -6586    -6600    -6610    -6609    -6605 
   -6619    -6642    -6644    -6639    -6642    -6633    -6617    -6612 
   -6608    -6598    -6579    -6548    -6525    -6525    -6528    -6502 
   -6466    -6448    -6453    -6465    -6480    -6500    -6513    -6509 
   -6501    -6505    -6520    -6538    -6540    -6534    -6544    -6559 
   -6558    -6554    -6556    -6573    -6592    -6596    -6601    -6617 
   -6629    -6639    -6651    -6652    -6648    -6659    -6677    -6697 
   -6731    -6756    -6756    -6744    -6735    -6732    -6733    -6733 
   -6723    -6702    -6681    -6666    -6663    -6669    -6673    -6678 
   -6678    -6677    -6677    -6671    -6662    -6652    -6651    -6663 
   -6679    -6691    -6708    -6713    -6700    -6679    -6662    -6659 
   -6660    -6643    -6608    -6585    -6583    -6583    -6579    -6575 
   -6573    -6565    -6555    -6554    -6562    -6574    -6590    -6609 
   -6613    -6596    -6577    -6574    -6597    -6619    -6613    -6600 
   -6588    -6561    -6543    -6558    -6583    -6602    -6612    -6610 
   -6600    -6588    -6581    -6579    -6579    -6578    -6570    -6546 
   -6517    -6497    -6489    -6484    -6471    -6448    -6431    -6421 
   -6420    -6428    -6426    -6405    -6393    -6401    -6416    -6419 
   -6407    -6390    -6385    -6394    -6417    -6458    -6497    -6508 
   -6505    -6516    -6532    -6543    -6558    -6575    -6589    -6602 
   -6610    -6615    -6624    -6636    -6652    -6667    -6669    -6674 
   -6704    -6744    -6767    -6771    -6768    -6770    -6771    -6777 
   -6786    -6790    -6777    -6758    -6760    -6785    -6798    -6793 
   -6777    -6750    -6729    -6731    -6740    -6740    -6728    -6718 
   -6718    -6710    -6691    -6679    -6671    -6652    -6624    -6602 
   -6596    -6594    -6589    -6575    -6567    -6573    -6585    -6608 
   -6636    -6652    -6660    -6677    -6691    -6702    -6713    -6724 
   -6727    -6728    -6748    -6778    -6799    -6820    -6840    -6845 
   -6835    -6820    -6817    -6840    -6871    -6891    -6907    -6924 
   -6943    -6957    -6966    -6971    -6982    -6995    -7010    -7017 
   -7003    -6974    -6945    -6921    -6905    -6899    -6894    -6879 
   -6866    -6859    -6849    -6848    -6864    -6880    -6882    -6876 
   -6876    -6889    -6903    -6918    -6928    -6934    -6957    -6993 
   -7010    -7018    -7030    -7036    -7030    -7017    -7002    -6982 
   -6947    -6898    -6862    -6833    -6806    -6789    -6771    -6745 
   -6721    -6696    -6671    -6652    -6637    -6619    -6601    -6588 
   -6571    -6547    -6528    -6524    -6517    -6494    -6471    -6459 
   -6455    -6462    -6481    -6496    -6494    -6492    -6508    -6538 
   -6559    -6566    -6573    -6596    -6625    -6648    -6673    -6693 
   -6700    -6697    -6698    -6713    -6728    -6736    -6736    -6737 
   -6741    -6743    -6731    -6724    -6736    -6748    -6739    -6712 
   -6693    -6678    -6652    -6628    -6615    -6593    -6570    -6556 
   -6554    -6550    -6531    -6496    -6465    -6455    -6455    -6450 
   -6446    -6446    -6434    -6407    -6386    -6382    -6386    -6394 
   -6404    -6404    -6397    -6388    -6384    -6390    -6404    -6401 
   -6385    -6369    -6354    -6347    -6354    -6361    -6367    -6381 
   -6389    -6389    -6397    -6404    -6400    -6394    -6394    -6399 
   -6405    -6419    -6434    -6443    -6443    -6442    -6447    -6466 
   -6492    -6502    -6501    -6505    -6515    -6520    -6525    -6532 
   -6535    -6524    -6512    -6508    -6508    -6513    -6531    -6551 
   -6567    -6582    -6604    -6629    -6656    -6679    -6691    -6696 
   -6698    -6701    -6705    -6712    -6714    -6714    -6718    -6732 
   -6747    -6751    -6741    -6727    -6712    -6706    -6706    -6691 
   -6667    -6655    -6655    -6650    -6642    -6637    -6642    -6644 
   -6642    -6642    -6652    -6663    -6670    -6677    -6675    -6664 
   -6659    -6654    -6654    -6666    -6687    -6706    -6723    -6744 
   -6756    -6752    -6752    -6762    -6767    -6771    -6778    -6774 
   -6755    -6733    -6727    -6733    -6733    -6721    -6720    -6740 
   -6766    -6781    -6789    -6799    -6799    -6793    -6789    -6787 
   -6790    -6798    -6799    -6797    -6795    -6806    -6818    -6825 
   -6831    -6833    -6843    -6867    -6891    -6899    -6901    -6917 
   -6951    -6974    -6966    -6948    -6944    -6944    -6943    -6940 
   -6939    -6934    -6925    -6917    -6917    -6916    -6913    -6914 
   -6918    -6921    -6922    -6926    -6934    -6945    -6964    -6970 
   -6953    -6939    -6933    -6924    -6922    -6928    -6917    -6897 
   -6882    -6871    -6862    -6849    -6835    -6826    -6825    -6820 
   -6814    -6821    -6844    -6870    -6878    -6875    -6879    -6883 
   -6879    -6872    -6862    -6848    -6828    -6795    -6770    -6752 
   -6735    -6720    -6702    -6673    -6643    -6619    -6590    -6565 
   -6561    -6570    -6581    -6589    -6598    -6612    -6633    -6660 
   -6679    -6683    -6685    -6701    -6724    -6732    -6728    -6720 
   -6710    -6704    -6706    -6712    -6708    -6701    -6705    -6709 
   -6698    -6682    -6671    -6667    -6677    -6683    -6678    -6671 
   -6660    -6635    -6600    -6574    -6562    -6555    -6550    -6531 
   -6502    -6485    -6477    -6467    -6459    -6450    -6439    -6428 
   -6417    -6409    -6396    -6369    -6340    -6318    -6292    -6280 
   -6282    -6278    -6258    -6243    -6239    -6238    -6241    -6253 
   -6258    -6254    -6250    -6243    -6230    -6227    -6234    -6239 
   -6245    -6246    -6246    -6250    -6247    -6232    -6218    -6212 
   -6214    -6210    -6195    -6177    -6162    -6160    -6158    -6143 
   -6133    -6137    -6141    -6141    -6142    -6130    -6112    -6106 
   -6106    -6106    -6106    -6104    -6111    -6124    -6133    -6139 
   -6146    -6151    -6160    -6169    -6178    -6196    -6220    -6249 
   -6280    -6307    -6334    -6366    -6394    -6415    -6439    -6469 
   -6493    -6517    -6547    -6579    -6610    -6635    -6655    -6670 
   -6681    -6694    -6714    -6740    -6759    -6767    -6767    -6763 
   -6759    -6752    -6736    -6718    -6708    -6701    -6694    -6687 
   -6687    -6698    -6705    -6709    -6725    -6751    -6781    -6814 
   -6835    -6836    -6835    -6841    -6844    -6847    -6840    -6820 
   -6806    -6813    -6822    -6825    -6817    -6797    -6771    -6747 
   -6725    -6712    -6706    -6708    -6712    -6727    -6754    -6775 
   -6787    -6801    -6822    -6848    -6875    -6899    -6917    -6930 
   -6943    -6948    -6940    -6929    -6921    -6913    -6909    -6902 
   -6887    -6867    -6844    -6822    -6818    -6824    -6820    -6808 
   -6799    -6794    -6789    -6786    -6789    -6785    -6774    -6770 
   -6779    -6795    -6808    -6804    -6790    -6778    -6764    -6751 
   -6741    -6731    -6720    -6702    -6673    -6652    -6643    -6629 
   -6617    -6615    -6617    -6627    -6639    -6644    -6646    -6648 
   -6646    -6640    -6642    -6644    -6644    -6640    -6639    -6642 
   -6648    -6646    -6631    -6606    -6577    -6555    -6550    -6544 
   -6524    -6498    -6480    -6467    -6459    -6447    -6435    -6426 
   -6417    -6413    -6413    -6411    -6401    -6392    -6381    -6366 
   -6353    -6347    -6350    -6357    -6357    -6350    -6342    -6336 
   -6335    -6332    -6330    -6330    -6338    -6357    -6386    -6419 
   -6457    -6502    -6554    -6609    -6666    -6713    -6752    -6787 
   -6821    -6848    -6871    -6886    -6891    -6890    -6889    -6883 
   -6878    -6874    -6867    -6856    -6841    -6836    -6839    -6835 
   -6829    -6829    -6825    -6816    -6804    -6787    -6771    -6764 
   -6762    -6755    -6740    -6724    -6718    -6729    -6736    -6732 
   -6721    -6704    -6683    -6660    -6629    -6600    -6577    -6558 
   -6546    -6535    -6524    -6517    -6513    -6515    -6521    -6520 
   -6505    -6497    -6498    -6504    -6515    -6524    -6523    -6513 
   -6507    -6498    -6485    -6475    -6477    -6475    -6478    -6488 
   -6494    -6497    -6507    -6520    -6538    -6548    -6544    -6542 
   -6548    -6552    -6558    -6562    -6563    -6570    -6582    -6594 
   -6615    -6639    -6647    -6647    -6658    -6671    -6673    -6664 
   -6666    -6677    -6685    -6677    -6659    -6646    -6643    -6652 
   -6664    -6677    -6686    -6685    -6671    -6656    -6651    -6651 
   -6642    -6629    -6624    -6621    -6617    -6619    -6625    -6627 
   -6625    -6628    -6633    -6635    -6633    -6635    -6635    -6635 
   -6642    -6652    -6659    -6660    -6660    -6663    -6666    -6663 
   -6658    -6660    -6669    -6666    -6654    -6647    -6644    -6639 
   -6639    -6644    -6646    -6647    -6651    -6651    -6651    -6652 
   -6642    -6628    -6617    -6596    -6573    -6558    -6544    -6529 
   -6515    -6509    -6513    -6516    -6512    -6497    -6474    -6463 
   -6463    -6466    -6471    -6474    -6480    -6492    -6501    -6511 
   -6520    -6521    -6517    -6504    -6485    -6473    -6463    -6448 
   -6442    -6444    -6443    -6438    -6434    -6435    -6444    -6455 
   -6465    -6474    -6488    -6504    -6517    -6538    -6567    -6594 
   -6610    -6619    -6632    -6655    -6681    -6709    -6743    -6772 
   -6804    -6835    -6858    -6879    -6901    -6917    -6926    -6941 
   -6957    -6967    -6968    -6967    -6964    -6967    -6971    -6964 
   -6951    -6936    -6922    -6912    -6905    -6897    -6891    -6885 
   -6878    -6876    -6872    -6863    -6855    -6848    -6836    -6825 
   -6817    -6805    -6794    -6787    -6781    -6772    -6774    -6772 
   -6764    -6759    -6756    -6760    -6772    -6786    -6787    -6794 
   -6812    -6826    -6831    -6836    -6848    -6858    -6863    -6874 
   -6887    -6893    -6894    -6886    -6868    -6858    -6852    -6836 
   -6809    -6777    -6752    -6735    -6718    -6705    -6693    -6678 
   -6663    -6646    -6619    -6592    -6583    -6583    -6578    -6567 
   -6556    -6540    -6516    -6489    -6461    -6435    -6420    -6411 
   -6394    -6377    -6370    -6372    -6377    -6390    -6405    -6411 
   -6407    -6405    -6400    -6384    -6367    -6361    -6357    -6343 
   -6330    -6328    -6335    -6343    -6346    -6354    -6361    -6351 
   -6334    -6322    -6315    -6318    -6322    -6315    -6313    -6331 
   -6351    -6363    -6372    -6386    -6400    -6404    -6413    -6440 
   -6470    -6490    -6505    -6516    -6528    -6543    -6559    -6575 
   -6593    -6605    -6608    -6601    -6590    -6585    -6586    -6592 
   -6594    -6596    -6594    -6596    -6608    -6613    -6608    -6608 
   -6615    -6619    -6624    -6629    -6631    -6639    -6647    -6643 
   -6642    -6651    -6656    -6656    -6662    -6670    -6678    -6689 
   -6704    -6714    -6720    -6728    -6732    -6725    -6717    -6717 
   -6717    -6720    -6728    -6727    -6713    -6702    -6694    -6687 
   -6681    -6663    -6640    -6628    -6620    -6601    -6570    -6536 
   -6509    -6497    -6494    -6488    -6485    -6496    -6515    -6529 
   -6548    -6573    -6592    -6597    -6605    -6620    -6631    -6640 
   -6652    -6669    -6690    -6717    -6743    -6763    -6779    -6790 
   -6791    -6786    -6787    -6794    -6804    -6810    -6813    -6814 
   -6816    -6821    -6822    -6814    -6806    -6802    -6798    -6793 
   -6785    -6774    -6759    -6740    -6720    -6700    -6679    -6667 
   -6664    -6658    -6650    -6651    -6655    -6647    -6629    -6609 
   -6588    -6573    -6569    -6570    -6571    -6569    -6571    -6579 
