Origin Time       2025/01/13 21:19:00
Lat.              31.8
Long.             131.6
Depth. (km)       30
Mag.              6.9
Station Code      KGWH01
Station Lat.      34.2186
Station Long.     133.9493
Station Height(m) -27
Record Time       2025/01/13 21:20:46
Sampling Freq(Hz) 100Hz
Duration Time(s)  120
Dir.              1
Scale Factor      2942(gal)/8224139
Max. Acc. (gal)   0.475
Last Correction   2025/01/13 21:20:47
Memo.             
[...]
  -80516   -80481   -80414   -80342   -80246   -80144   -80109   -80137 
  -80190   -80281   -80361   -80356   -80295   -80246   -80235   -80248 
  -80272   -80307   -80315   -80287   -80273   -80302   -80329   -80326 
  -80323   -80304   -80222   -80153   -80133   -80092   -80057   -80079 
  -80115   -80160   -80199   -80203   -80208   -80229   -80226   -80227 
  -80254   -80250   -80225   -80238   -80283   -80329   -80380   -80407 
  -80389   -80360   -80364   -80392   -80401   -80393   -80420   -80507 
  -80604   -80659   -80671   -80676   -80689   -80713   -80712   -80653 
  -80568   -80493   -80414   -80364   -80400   -80438   -80418   -80414 
  -80422   -80395   -80377   -80365   -80334   -80347   -80401   -80426 
  -80419   -80401   -80376   -80373   -80399   -80403   -80357   -80279 
  -80229   -80249   -80277   -80266   -80235   -80164   -80082   -80045 
  -80019   -80006   -80037   -80060   -80082   -80126   -80145   -80148 
  -80171   -80191   -80187   -80185   -80215   -80258   -80293   -80333 
  -80357   -80334   -80300   -80264   -80215   -80202   -80235   -80264 
  -80285   -80291   -80275   -80318   -80422   -80480   -80464   -80424 
  -80411   -80435   -80481   -80546   -80601   -80593   -80557   -80553 
  -80547   -80511   -80466   -80435   -80454   -80507   -80523   -80496 
  -80441   -80364   -80314   -80316   -80343   -80362   -80354   -80329 
  -80349   -80443   -80553   -80584   -80554   -80561   -80604   -80623 
  -80620   -80617   -80643   -80696   -80731   -80763   -80812   -80815 
  -80769   -80727   -80700   -80707   -80739   -80723   -80653   -80612 
  -80593   -80519   -80427   -80399   -80397   -80383   -80400   -80446 
  -80450   -80407   -80345   -80285   -80277   -80304   -80292   -80258 
  -80264   -80271   -80264   -80280   -80284   -80262   -80266   -80273 
  -80246   -80214   -80208   -80218   -80217   -80196   -80175   -80177 
  -80222   -80292   -80342   -80349   -80346   -80369   -80401   -80392 
  -80329   -80273   -80276   -80300   -80303   -80307   -80316   -80318 
  -80346   -80423   -80507   -80541   -80535   -80561   -80609   -80627 
  -80649   -80686   -80704   -80715   -80740   -80777   -80804   -80805 
  -80798   -80796   -80789   -80808   -80863   -80887   -80858   -80815 
  -80769   -80746   -80775   -80831   -80863   -80866   -80865   -80860 
  -80858   -80854   -80821   -80792   -80794   -80781   -80746   -80724 
  -80690   -80643   -80628   -80627   -80596   -80554   -80520   -80473 
  -80414   -80369   -80349   -80337   -80316   -80281   -80258   -80285 
  -80341   -80349   -80334   -80372   -80419   -80410   -80393   -80380 
  -80349   -80337   -80333   -80307   -80292   -80308   -80314   -80302 
  -80319   -80358   -80360   -80327   -80314   -80293   -80200   -80092 
  -80069   -80100   -80122   -80148   -80187   -80225   -80249   -80261 
  -80296   -80364   -80424   -80460   -80466   -80470   -80482   -80470 
  -80443   -80435   -80419   -80389   -80393   -80433   -80449   -80423 
  -80399   -80383   -80360   -80345   -80341   -80327   -80312   -80325 
  -80352   -80373   -80408   -80428   -80392   -80376   -80416   -80420 
  -80391   -80399   -80416   -80393   -80352   -80318   -80281   -80230 
  -80194   -80198   -80179   -80094   -80011   -79971   -79925   -79887 
  -79890   -79906   -79913   -79888   -79849   -79874   -79953   -80042 
  -80130   -80169   -80169   -80206   -80246   -80245   -80250   -80272 
  -80307   -80383   -80481   -80582   -80671   -80719   -80735   -80751 
  -80778   -80805   -80820   -80847   -80877   -80859   -80840   -80860 
  -80860   -80874   -80928   -80955   -80968   -80968   -80905   -80827 
  -80790   -80754   -80708   -80681   -80659   -80615   -80550   -80493 
  -80450   -80400   -80338   -80279   -80246   -80237   -80230   -80223 
  -80223   -80200   -80157   -80133   -80121   -80110   -80102   -80096 
  -80098   -80084   -80072   -80121   -80196   -80246   -80315   -80416 
  -80509   -80580   -80647   -80704   -80719   -80697   -80689   -80705 
  -80713   -80713   -80723   -80742   -80755   -80730   -80682   -80640 
  -80596   -80565   -80546   -80493   -80445   -80437   -80435   -80404 
  -80345   -80295   -80273   -80252   -80237   -80246   -80260   -80275 
  -80279   -80256   -80238   -80253   -80280   -80284   -80260   -80221 
  -80192   -80203   -80235   -80226   -80190   -80181   -80176   -80138 
  -80104   -80079   -80037   -80019   -80050   -80084   -80110   -80138 
  -80141   -80115   -80114   -80136   -80133   -80119   -80110   -80100 
  -80104   -80131   -80176   -80215   -80221   -80198   -80195   -80210 
  -80202   -80179   -80177   -80177   -80140   -80087   -80050   -80034 
  -80026   -80005   -79967   -79944   -79926   -79875   -79828   -79832 
  -79832   -79780   -79745   -79756   -79768   -79785   -79833   -79897 
  -79947   -79988   -80037   -80096   -80164   -80218   -80231   -80250 
  -80310   -80361   -80401   -80464   -80514   -80542   -80574   -80577 
  -80557   -80553   -80549   -80538   -80555   -80582   -80584   -80592 
  -80623   -80634   -80605   -80565   -80522   -80473   -80441   -80424 
  -80406   -80397   -80397   -80393   -80397   -80396   -80376   -80373 
  -80393   -80414   -80423   -80428   -80458   -80503   -80535   -80559 
  -80580   -80588   -80582   -80569   -80562   -80572   -80576   -80584 
  -80626   -80658   -80674   -80701   -80712   -80709   -80727   -80747 
  -80761   -80779   -80786   -80781   -80771   -80758   -80739   -80692 
  -80638   -80632   -80631   -80584   -80536   -80507   -80478   -80461 
  -80434   -80373   -80289   -80222   -80199   -80191   -80175   -80177 
  -80202   -80211   -80198   -80191   -80210   -80218   -80187   -80145 
  -80107   -80069   -80037   -80017   -80023   -80040   -80006   -79944 
  -79920   -79917   -79902   -79898   -79918   -79947   -79967   -79986 
  -80018   -80046   -80057   -80077   -80131   -80194   -80233   -80246 
  -80264   -80314   -80358   -80369   -80383   -80399   -80412   -80437 
  -80462   -80496   -80549   -80580   -80578   -80595   -80634   -80671 
  -80698   -80705   -80716   -80762   -80801   -80802   -80794   -80811 
  -80846   -80878   -80900   -80904   -80890   -80896   -80919   -80904 
  -80871   -80889   -80940   -80964   -80951   -80928   -80908   -80878 
  -80840   -80817   -80802   -80766   -80716   -80684   -80677   -80651 
  -80581   -80503   -80446   -80381   -80322   -80299   -80273   -80221 
  -80164   -80102   -80042   -80005   -79994   -79990   -79957   -79902 
  -79853   -79802   -79753   -79709   -79651   -79590   -79548   -79523 
  -79523   -79536   -79537   -79521   -79516   -79552   -79606   -79637 
  -79695   -79797   -79888   -79978   -80075   -80154   -80231   -80310 
  -80360   -80399   -80461   -80531   -80586   -80646   -80720   -80779 
  -80801   -80809   -80843   -80908   -80975   -81025   -81045   -81055 
  -81078   -81090   -81072   -81066   -81098   -81122   -81132   -81162 
  -81184   -81171   -81147   -81139   -81159   -81176   -81156   -81122 
  -81113   -81101   -81076   -81054   -81012   -80937   -80865   -80802 
  -80725   -80634   -80559   -80512   -80457   -80368   -80272   -80187 
  -80083   -79978   -79903   -79829   -79752   -79690   -79627   -79570 
  -79532   -79512   -79504   -79486   -79458   -79451   -79448   -79452 
  -79496   -79542   -79583   -79659   -79728   -79771   -79828   -79897 
  -79974   -80052   -80121   -80202   -80298   -80380   -80460   -80547 
  -80611   -80662   -80723   -80786   -80865   -80966   -81056   -81136 
  -81209   -81257   -81279   -81279   -81271   -81283   -81305   -81307 
  -81299   -81271   -81211   -81136   -81066   -81014   -80970   -80893 
  -80802   -80738   -80673   -80601   -80553   -80505   -80439   -80383 
  -80320   -80242   -80171   -80118   -80087   -80072   -80040   -79995 
  -79975   -79979   -80003   -80061   -80121   -80144   -80160   -80212 
  -80284   -80333   -80368   -80428   -80503   -80566   -80638   -80715 
  -80767   -80793   -80786   -80750   -80705   -80670   -80659   -80650 
  -80622   -80617   -80654   -80677   -80650   -80604   -80580   -80570 
  -80562   -80576   -80607   -80613   -80603   -80599   -80593   -80595 
  -80623   -80658   -80674   -80688   -80712   -80735   -80755   -80784 
  -80816   -80865   -80927   -80986   -81055   -81132   -81182   -81184 
  -81152   -81120   -81105   -81083   -81033   -80975   -80939   -80924 
  -80913   -80905   -80892   -80881   -80881   -80859   -80821   -80821 
  -80844   -80856   -80869   -80867   -80846   -80828   -80794   -80736 
  -80690   -80651   -80601   -80554   -80499   -80433   -80362   -80283 
  -80219   -80176   -80119   -80053   -79979   -79890   -79820   -79780 
  -79743   -79702   -79681   -79689   -79713   -79732   -79749   -79767 
  -79770   -79768   -79776   -79776   -79755   -79726   -79716   -79718 
  -79713   -79717   -79740   -79753   -79767   -79799   -79803   -79779 
  -79787   -79818   -79844   -79890   -79963   -80022   -80050   -80076 
  -80126   -80176   -80192   -80198   -80215   -80230   -80234   -80242 
  -80249   -80254   -80275   -80316   -80376   -80439   -80484   -80520 
  -80576   -80627   -80662   -80717   -80790   -80829   -80848   -80878 
  -80890   -80879   -80890   -80921   -80928   -80908   -80900   -80906 
  -80898   -80862   -80812   -80766   -80725   -80715   -80727   -80703 
  -80642   -80596   -80563   -80524   -80482   -80430   -80358   -80295 
  -80244   -80176   -80095   -80005   -79906   -79828   -79760   -79671 
  -79590   -79550   -79515   -79469   -79442   -79436   -79459   -79493 
  -79500   -79512   -79556   -79587   -79609   -79660   -79740   -79817 
  -79867   -79905   -79948   -79969   -79986   -80026   -80073   -80129 
  -80191   -80239   -80273   -80303   -80347   -80399   -80428   -80466 
  -80524   -80554   -80572   -80597   -80605   -80596   -80576   -80557 
  -80559   -80563   -80554   -80557   -80568   -80569   -80558   -80534 
  -80509   -80487   -80455   -80424   -80392   -80362   -80339   -80310 
  -80266   -80215   -80172   -80154   -80160   -80164   -80169   -80188 
  -80214   -80233   -80257   -80291   -80310   -80322   -80357   -80393 
  -80411   -80419   -80416   -80410   -80401   -80377   -80349   -80318 
  -80281   -80257   -80231   -80195   -80168   -80158   -80160   -80175 
  -80195   -80227   -80275   -80335   -80408   -80469   -80504   -80536 
  -80584   -80653   -80719   -80754   -80770   -80809   -80862   -80878 
  -80858   -80835   -80811   -80801   -80817   -80836   -80843   -80832 
  -80802   -80775   -80746   -80700   -80647   -80599   -80546   -80489 
  -80435   -80385   -80349   -80329   -80299   -80250   -80192   -80123 
  -80059   -80009   -79945   -79875   -79826   -79797   -79789   -79787 
  -79767   -79753   -79768   -79775   -79749   -79725   -79706   -79677 
  -79645   -79640   -79655   -79678   -79686   -79670   -79644   -79620 
  -79604   -79600   -79586   -79555   -79542   -79546   -79528   -79504 
  -79494   -79490   -79479   -79446   -79401   -79377   -79392   -79429 
  -79466   -79501   -79552   -79612   -79663   -79695   -79716   -79744 
  -79789   -79830   -79868   -79905   -79928   -79953   -80015   -80096 
  -80167   -80238   -80308   -80360   -80414   -80482   -80547   -80609 
  -80678   -80728   -80752   -80794   -80854   -80912   -80970   -81018 
  -81052   -81085   -81110   -81128   -81136   -81129   -81135   -81166 
  -81191   -81201   -81202   -81184   -81157   -81147   -81113   -81039 
  -80968   -80905   -80831   -80757   -80685   -80620   -80561   -80501 
  -80442   -80387   -80338   -80306   -80281   -80253   -80226   -80195 
  -80146   -80098   -80065   -80032   -79987   -79956   -79937   -79922 
  -79934   -79960   -79960   -79955   -79967   -79979   -79975   -79967 
  -79972   -79983   -79987   -80001   -80003   -79991   -80010   -80073 
  -80142   -80196   -80248   -80323   -80416   -80504   -80604   -80719 
  -80805   -80874   -80947   -81018   -81095   -81172   -81237   -81313 
  -81387   -81441   -81484   -81504   -81483   -81446   -81421   -81387 
  -81346   -81318   -81287   -81251   -81237   -81237   -81224   -81201 
  -81180   -81163   -81155   -81136   -81098   -81074   -81067   -81064 
  -81074   -81078   -81071   -81086   -81120   -81128   -81128   -81156 
  -81183   -81202   -81228   -81234   -81230   -81244   -81245   -81225 
  -81216   -81205   -81172   -81136   -81110   -81089   -81055   -81008 
  -80967   -80928   -80869   -80805   -80758   -80719   -80657   -80596 
  -80562   -80520   -80457   -80410   -80369   -80331   -80300   -80264 
  -80235   -80219   -80196   -80183   -80183   -80181   -80187   -80203 
  -80222   -80238   -80245   -80249   -80258   -80245   -80203   -80156 
  -80114   -80077   -80072   -80087   -80094   -80102   -80123   -80141 
  -80158   -80198   -80235   -80249   -80253   -80254   -80253   -80248 
  -80245   -80249   -80246   -80217   -80172   -80138   -80110   -80084 
  -80079   -80087   -80095   -80110   -80129   -80141   -80157   -80175 
  -80185   -80196   -80204   -80208   -80222   -80227   -80208   -80200 
  -80215   -80222   -80225   -80229   -80215   -80200   -80192   -80183 
  -80177   -80172   -80158   -80148   -80149   -80157   -80192   -80253 
  -80308   -80356   -80401   -80445   -80493   -80554   -80609   -80665 
  -80738   -80794   -80828   -80889   -80962   -81025   -81109   -81170 
  -81180   -81207   -81255   -81292   -81326   -81346   -81361   -81386 
  -81400   -81398   -81396   -81405   -81409   -81409   -81418   -81438 
  -81471   -81508   -81537   -81556   -81591   -81641   -81675   -81687 
  -81706   -81730   -81743   -81742   -81712   -81665   -81621   -81567 
  -81495   -81442   -81419   -81399   -81349   -81272   -81199   -81143 
  -81076   -81001   -80933   -80862   -80779   -80704   -80631   -80546 
  -80464   -80396   -80334   -80271   -80219   -80179   -80140   -80107 
  -80079   -80049   -80040   -80040   -80028   -80023   -80041   -80059 
  -80076   -80092   -80099   -80111   -80127   -80133   -80119   -80087 
  -80045   -79996   -79940   -79880   -79816   -79744   -79686   -79656 
  -79628   -79581   -79546   -79536   -79510   -79465   -79440   -79438 
  -79429   -79424   -79429   -79440   -79461   -79497   -79529   -79542 
  -79550   -79554   -79550   -79554   -79571   -79602   -79654   -79702 
  -79729   -79766   -79825   -79871   -79903   -79944   -79984   -80005 
  -79996   -79979   -79972   -79965   -79936   -79890   -79845   -79805 
  -79751   -79686   -79635   -79589   -79533   -79489   -79461   -79423 
  -79382   -79348   -79316   -79294   -79284   -79286   -79308   -79342 
  -79384   -79424   -79456   -79500   -79567   -79640   -79712   -79801 
  -79891   -79961   -80014   -80057   -80103   -80160   -80222   -80284 
  -80337   -80381   -80428   -80481   -80528   -80570   -80609   -80639 
  -80649   -80639   -80623   -80603   -80569   -80547   -80555   -80554 
  -80536   -80534   -80528   -80501   -80488   -80503   -80519   -80516 
  -80500   -80478   -80466   -80470   -80476   -80464   -80434   -80399 
  -80380   -80372   -80349   -80326   -80316   -80302   -80283   -80266 
  -80244   -80229   -80219   -80194   -80168   -80138   -80086   -80038 
  -79992   -79930   -79876   -79837   -79801   -79775   -79749   -79740 
  -79762   -79786   -79802   -79829   -79853   -79876   -79914   -79951 
  -79992   -80056   -80119   -80181   -80249   -80307   -80368   -80443 
  -80524   -80615   -80697   -80771   -80863   -80944   -81001   -81062 
  -81128   -81195   -81265   -81318   -81351   -81373   -81392   -81398 
  -81384   -81360   -81345   -81333   -81303   -81279   -81274   -81257 
  -81238   -81229   -81205   -81179   -81182   -81187   -81182   -81171 
  -81144   -81114   -81091   -81062   -81027   -80985   -80936   -80882 
  -80816   -80744   -80694   -80654   -80592   -80519   -80462   -80420 
  -80384   -80352   -80334   -80323   -80303   -80285   -80275   -80264 
  -80266   -80288   -80311   -80333   -80361   -80397   -80431   -80443 
  -80438   -80430   -80431   -80446   -80461   -80453   -80427   -80392 
  -80356   -80325   -80281   -80226   -80173   -80102   -80013   -79949 
  -79907   -79880   -79868   -79852   -79825   -79799   -79766   -79732 
  -79714   -79706   -79695   -79699   -79717   -79740   -79763   -79791 
  -79834   -79878   -79918   -79979   -80050   -80103   -80142   -80187 
  -80225   -80248   -80260   -80276   -80296   -80296   -80288   -80292 
  -80289   -80279   -80273   -80258   -80229   -80207   -80198   -80192 
  -80181   -80167   -80148   -80127   -80100   -80068   -80038   -80015 
  -79988   -79965   -79967   -79980   -79974   -79957   -79963   -79978 
  -79987   -80001   -80033   -80069   -80087   -80099   -80125   -80157 
  -80202   -80261   -80302   -80308   -80325   -80368   -80424   -80488 
  -80541   -80568   -80585   -80615   -80654   -80689   -80713   -80743 
  -80785   -80824   -80865   -80904   -80932   -80958   -80989   -81018 
  -81041   -81054   -81066   -81082   -81098   -81110   -81118   -81126 
  -81130   -81116   -81091   -81079   -81072   -81060   -81056   -81063 
  -81074   -81081   -81076   -81064   -81041   -81010   -80991   -80986 
  -80975   -80963   -80963   -80970   -80975   -80987   -81010   -81016 
  -80995   -80982   -80978   -80967   -80943   -80908   -80877   -80863 
  -80842   -80812   -80796   -80782   -80744   -80701   -80676   -80658 
  -80624   -80582   -80555   -80546   -80549   -80561   -80576   -80601 
  -80642   -80686   -80731   -80765   -80794   -80844   -80900   -80951 
  -81004   -81037   -81056   -81063   -81047   -81029   -81021   -81004 
  -80971   -80927   -80871   -80819   -80759   -80700   -80653   -80605 
  -80559   -80528   -80496   -80457   -80438   -80437   -80433   -80428 
  -80419   -80403   -80403   -80411   -80418   -80426   -80437   -80451 
  -80480   -80503   -80511   -80509   -80505   -80511   -80535   -80565 
  -80582   -80592   -80600   -80628   -80684   -80731   -80754   -80771 
  -80801   -80842   -80883   -80935   -80985   -81017   -81044   -81071 
  -81091   -81109   -81124   -81121   -81117   -81122   -81116   -81094 
  -81074   -81048   -81005   -80950   -80892   -80848   -80824   -80789 
  -80734   -80684   -80638   -80595   -80562   -80539   -80522   -80499 
  -80461   -80439   -80439   -80442   -80455   -80464   -80451   -80451 
  -80460   -80443   -80418   -80396   -80377   -80370   -80365   -80337 
  -80306   -80276   -80246   -80217   -80175   -80140   -80138   -80138 
  -80111   -80072   -80036   -80009   -79978   -79942   -79917   -79899 
  -79870   -79829   -79794   -79766   -79733   -79701   -79675   -79645 
  -79609   -79577   -79547   -79517   -79485   -79465   -79470   -79479 
  -79475   -79463   -79451   -79431   -79411   -79401   -79402   -79405 
  -79413   -79419   -79413   -79415   -79427   -79447   -79469   -79483 
  -79496   -79523   -79554   -79578   -79616   -79668   -79705   -79731 
  -79770   -79822   -79878   -79928   -79967   -80003   -80046   -80087 
  -80123   -80156   -80183   -80207   -80222   -80218   -80202   -80181 
  -80164   -80145   -80118   -80092   -80080   -80076   -80075   -80079 
  -80090   -80104   -80134   -80187   -80239   -80280   -80319   -80366 
  -80414   -80462   -80512   -80559   -80612   -80667   -80711   -80738 
  -80757   -80763   -80767   -80770   -80759   -80742   -80727   -80711 
  -80686   -80663   -80639   -80607   -80585   -80582   -80584   -80578 
  -80565   -80549   -80534   -80520   -80515   -80514   -80511   -80511 
