Origin Time       2025/01/13 21:19:00
Lat.              31.8
Long.             131.6
Depth. (km)       30
Mag.              6.9
Station Code      KGWH01
Station Lat.      34.2186
Station Long.     133.9493
Station Height(m) 90
Record Time       2025/01/13 21:20:46
Sampling Freq(Hz) 100Hz
Duration Time(s)  120
Dir.              6
Scale Factor      7845(gal)/8223790
Max. Acc. (gal)   1.199
Last Correction   2025/01/13 21:20:47
Memo.             
[...]
   -4627    -4587    -4565    -4540    -4503    -4468    -4428    -4382 
   -4347    -4344    -4374    -4413    -4475    -4560    -4618    -4642 
   -4635    -4583    -4536    -4538    -4553    -4536    -4484    -4429 
   -4402    -4394    -4402    -4442    -4486    -4483    -4446    -4425 
   -4415    -4414    -4436    -4461    -4488    -4521    -4522    -4500 
   -4502    -4513    -4504    -4476    -4460    -4490    -4517    -4503 
   -4484    -4464    -4442    -4441    -4450    -4472    -4517    -4545 
   -4540    -4530    -4558    -4619    -4660    -4664    -4646    -4608 
   -4560    -4540    -4533    -4517    -4531    -4572    -4575    -4563 
   -4568    -4548    -4496    -4465    -4460    -4455    -4463    -4502 
   -4556    -4604    -4638    -4646    -4631    -4603    -4580    -4577 
   -4591    -4607    -4619    -4598    -4553    -4540    -4546    -4517 
   -4465    -4430    -4429    -4448    -4468    -4499    -4533    -4533 
   -4526    -4550    -4595    -4629    -4635    -4634    -4657    -4695 
   -4702    -4676    -4660    -4644    -4602    -4573    -4587    -4583 
   -4533    -4472    -4413    -4363    -4347    -4340    -4307    -4275 
   -4322    -4446    -4550    -4610    -4669    -4691    -4654    -4608 
   -4568    -4513    -4456    -4440    -4463    -4487    -4519    -4577 
   -4602    -4563    -4514    -4484    -4442    -4384    -4345    -4326 
   -4330    -4390    -4500    -4606    -4661    -4677    -4681    -4658 
   -4596    -4553    -4548    -4531    -4494    -4479    -4513    -4576 
   -4623    -4645    -4652    -4646    -4622    -4576    -4536    -4527 
   -4529    -4511    -4492    -4499    -4526    -4537    -4509    -4463 
   -4438    -4457    -4498    -4523    -4538    -4552    -4548    -4503 
   -4429    -4351    -4297    -4275    -4288    -4334    -4421    -4548 
   -4649    -4673    -4676    -4704    -4702    -4631    -4550    -4504 
   -4459    -4371    -4302    -4320    -4357    -4353    -4360    -4410 
   -4445    -4446    -4456    -4502    -4565    -4598    -4594    -4579 
   -4564    -4554    -4534    -4476    -4438    -4483    -4550    -4580 
   -4604    -4648    -4661    -4612    -4538    -4504    -4538    -4603 
   -4668    -4710    -4718    -4695    -4644    -4571    -4510    -4487 
   -4477    -4460    -4449    -4442    -4418    -4386    -4378    -4422 
   -4529    -4654    -4746    -4788    -4784    -4730    -4633    -4510 
   -4379    -4271    -4207    -4187    -4217    -4298    -4410    -4522 
   -4600    -4639    -4677    -4685    -4629    -4550    -4498    -4487 
   -4525    -4564    -4567    -4558    -4560    -4564    -4571    -4568 
   -4554    -4545    -4529    -4495    -4449    -4421    -4441    -4492 
   -4517    -4482    -4399    -4321    -4264    -4213    -4183    -4209 
   -4272    -4338    -4406    -4476    -4537    -4564    -4545    -4504 
   -4472    -4433    -4365    -4295    -4282    -4332    -4388    -4432 
   -4480    -4517    -4525    -4526    -4552    -4615    -4675    -4685 
   -4672    -4637    -4556    -4467    -4403    -4355    -4359    -4418 
   -4465    -4472    -4450    -4406    -4349    -4299    -4302    -4387 
   -4488    -4540    -4565    -4603    -4654    -4684    -4668    -4635 
   -4607    -4567    -4509    -4472    -4484    -4521    -4550    -4581 
   -4614    -4623    -4615    -4617    -4611    -4594    -4604    -4627 
   -4595    -4519    -4467    -4472    -4510    -4530    -4531    -4537 
   -4523    -4484    -4457    -4445    -4434    -4436    -4438    -4434 
   -4430    -4441    -4473    -4511    -4527    -4529    -4533    -4550 
   -4577    -4611    -4642    -4657    -4646    -4622    -4584    -4541 
   -4527    -4560    -4599    -4617    -4639    -4661    -4639    -4588 
   -4564    -4581    -4608    -4631    -4653    -4661    -4635    -4596 
   -4567    -4538    -4503    -4461    -4429    -4436    -4455    -4453 
   -4465    -4506    -4550    -4591    -4615    -4610    -4598    -4596 
   -4595    -4568    -4531    -4523    -4552    -4575    -4577    -4590 
   -4607    -4599    -4575    -4583    -4612    -4600    -4541    -4467 
   -4407    -4382    -4380    -4398    -4421    -4430    -4445    -4457 
   -4433    -4401    -4399    -4402    -4386    -4368    -4374    -4391 
   -4398    -4409    -4430    -4441    -4467    -4518    -4557    -4581 
   -4614    -4639    -4621    -4557    -4518    -4536    -4550    -4541 
   -4544    -4575    -4614    -4629    -4619    -4607    -4581    -4531 
   -4472    -4422    -4396    -4407    -4423    -4437    -4488    -4550 
   -4556    -4514    -4482    -4473    -4465    -4444    -4450    -4510 
   -4576    -4607    -4617    -4635    -4650    -4631    -4591    -4554 
   -4529    -4498    -4449    -4415    -4419    -4442    -4476    -4530 
   -4588    -4612    -4588    -4529    -4464    -4402    -4349    -4332 
   -4363    -4430    -4488    -4525    -4565    -4603    -4625    -4648 
   -4675    -4684    -4679    -4662    -4629    -4580    -4525    -4453 
   -4374    -4325    -4309    -4305    -4321    -4368    -4429    -4482 
   -4538    -4610    -4669    -4702    -4725    -4739    -4737    -4733 
   -4742    -4753    -4764    -4761    -4726    -4683    -4644    -4604 
   -4561    -4521    -4509    -4523    -4527    -4523    -4561    -4638 
   -4696    -4725    -4739    -4726    -4666    -4580    -4488    -4405 
   -4329    -4259    -4213    -4218    -4286    -4410    -4537    -4612 
   -4642    -4646    -4615    -4549    -4480    -4429    -4375    -4315 
   -4303    -4355    -4419    -4469    -4522    -4577    -4580    -4523 
   -4461    -4392    -4291    -4217    -4218    -4266    -4332    -4423 
   -4525    -4604    -4645    -4622    -4557    -4498    -4461    -4428 
   -4374    -4307    -4278    -4284    -4283    -4287    -4340    -4423 
   -4495    -4530    -4542    -4557    -4548    -4507    -4477    -4473 
   -4472    -4473    -4491    -4545    -4644    -4746    -4814    -4846 
   -4845    -4818    -4792    -4783    -4768    -4712    -4631    -4568 
   -4536    -4517    -4515    -4548    -4583    -4567    -4515    -4483 
   -4463    -4414    -4357    -4340    -4363    -4413    -4487    -4563 
   -4602    -4600    -4563    -4504    -4475    -4479    -4477    -4475 
   -4506    -4571    -4634    -4668    -4695    -4743    -4753    -4645 
   -4463    -4318    -4243    -4195    -4186    -4287    -4484    -4653 
   -4715    -4692    -4635    -4564    -4486    -4411    -4348    -4290 
   -4232    -4187    -4194    -4256    -4348    -4448    -4518    -4563 
   -4622    -4691    -4715    -4703    -4700    -4731    -4766    -4780 
   -4779    -4753    -4683    -4568    -4445    -4371    -4344    -4325 
   -4324    -4369    -4444    -4507    -4569    -4649    -4684    -4618 
   -4494    -4367    -4270    -4230    -4251    -4328    -4441    -4509 
   -4500    -4486    -4483    -4459    -4423    -4428    -4492    -4598 
   -4677    -4707    -4714    -4722    -4703    -4607    -4452    -4324 
   -4276    -4282    -4321    -4409    -4585    -4838    -5042    -5082 
   -4996    -4860    -4699    -4558    -4476    -4453    -4496    -4546 
   -4537    -4511    -4525    -4579    -4665    -4733    -4746    -4731 
   -4637    -4429    -4243    -4190    -4234    -4337    -4490    -4641 
   -4698    -4629    -4484    -4305    -4128    -4055    -4164    -4406 
   -4646    -4780    -4795    -4722    -4584    -4410    -4248    -4159 
   -4186    -4263    -4302    -4338    -4430    -4519    -4537    -4522 
   -4529    -4563    -4612    -4671    -4706    -4671    -4560    -4434 
   -4387    -4449    -4598    -4779    -4887    -4839    -4662    -4429 
   -4224    -4141    -4212    -4391    -4627    -4834    -4935    -4897 
   -4738    -4525    -4336    -4185    -4071    -4032    -4077    -4164 
   -4247    -4298    -4328    -4390    -4522    -4669    -4739    -4733 
   -4704    -4668    -4626    -4598    -4592    -4583    -4525    -4425 
   -4297    -4170    -4145    -4274    -4500    -4753    -4951    -5040 
   -5022    -4909    -4719    -4491    -4278    -4137    -4098    -4114 
   -4171    -4309    -4490    -4646    -4752    -4746    -4642    -4549 
   -4502    -4473    -4477    -4509    -4513    -4477    -4432    -4413 
   -4446    -4531    -4673    -4850    -4973    -4988    -4897    -4723 
   -4514    -4324    -4180    -4124    -4176    -4283    -4390    -4495 
   -4612    -4743    -4889    -5016    -5070    -5003    -4820    -4580 
   -4337    -4121    -3994    -4037    -4221    -4441    -4629    -4716 
   -4681    -4600    -4531    -4460    -4387    -4329    -4307    -4336 
   -4422    -4558    -4671    -4687    -4653    -4610    -4531    -4459 
   -4459    -4498    -4519    -4514    -4486    -4455    -4456    -4507 
   -4575    -4615    -4625    -4630    -4618    -4572    -4531    -4498 
   -4411    -4297    -4239    -4249    -4293    -4347    -4398    -4473 
   -4615    -4824    -5049    -5192    -5202    -5090    -4865    -4563 
   -4283    -4114    -4075    -4145    -4276    -4433    -4590    -4698 
   -4743    -4735    -4672    -4568    -4421    -4243    -4145    -4193 
   -4340    -4541    -4780    -5003    -5116    -5035    -4800    -4502 
   -4185    -3936    -3851    -3924    -4110    -4342    -4515    -4607 
   -4673    -4704    -4660    -4590    -4568    -4571    -4537    -4456 
   -4359    -4272    -4224    -4236    -4306    -4413    -4550    -4691 
   -4787    -4861    -4928    -4912    -4753    -4499    -4260    -4120 
   -4082    -4104    -4156    -4229    -4310    -4395    -4511    -4683 
   -4868    -4996    -5034    -4965    -4807    -4614    -4429    -4278 
   -4167    -4105    -4132    -4247    -4403    -4588    -4737    -4731 
   -4596    -4437    -4282    -4201    -4278    -4477    -4687    -4784 
   -4731    -4621    -4515    -4414    -4336    -4301    -4315    -4386 
   -4456    -4480    -4496    -4519    -4517    -4506    -4500    -4507 
   -4523    -4519    -4486    -4425    -4334    -4236    -4151    -4078 
   -4040    -4068    -4180    -4386    -4671    -4935    -5066    -5031 
   -4872    -4633    -4378    -4212    -4201    -4314    -4448    -4568 
   -4702    -4796    -4814    -4785    -4720    -4657    -4603    -4522 
   -4413    -4321    -4295    -4349    -4437    -4536    -4646    -4693 
   -4627    -4499    -4399    -4384    -4446    -4537    -4602    -4634 
   -4665    -4677    -4585    -4357    -4122    -4054    -4166    -4359 
   -4564    -4758    -4923    -4997    -4927    -4746    -4538    -4344 
   -4212    -4213    -4374    -4604    -4774    -4846    -4847    -4765 
   -4595    -4411    -4263    -4167    -4149    -4207    -4303    -4414 
   -4553    -4715    -4864    -4973    -5013    -4920    -4687    -4419 
   -4230    -4133    -4102    -4124    -4222    -4363    -4455    -4483 
   -4484    -4467    -4461    -4484    -4509    -4540    -4595    -4685 
   -4811    -4934    -4988    -4941    -4773    -4484    -4159    -3943 
   -3913    -4047    -4293    -4596    -4919    -5184    -5302    -5265 
   -5107    -4828    -4476    -4164    -3962    -3879    -3924    -4082 
   -4263    -4368    -4434    -4537    -4623    -4619    -4583    -4573 
   -4587    -4645    -4753    -4834    -4874    -4900    -4837    -4649 
   -4419    -4232    -4149    -4225    -4450    -4737    -4965    -5057 
   -5015    -4895    -4761    -4649    -4568    -4504    -4406    -4247 
   -4090    -4020    -4081    -4280    -4565    -4814    -4966    -5047 
   -5039    -4893    -4673    -4479    -4328    -4226    -4225    -4336 
   -4500    -4617    -4619    -4580    -4561    -4499    -4351    -4197 
   -4121    -4116    -4147    -4228    -4369    -4531    -4683    -4807 
   -4858    -4816    -4718    -4580    -4414    -4282    -4228    -4225 
   -4239    -4268    -4324    -4453    -4696    -4973    -5100    -5016 
   -4793    -4510    -4276    -4195    -4251    -4399    -4603    -4777 
   -4839    -4756    -4612    -4538    -4514    -4469    -4394    -4297 
   -4252    -4347    -4514    -4645    -4769    -4935    -4997    -4803 
   -4459    -4189    -4047    -3986    -4058    -4263    -4514    -4770 
   -4966    -5020    -4928    -4743    -4585    -4503    -4418    -4324 
   -4283    -4284    -4318    -4399    -4494    -4561    -4590    -4572 
   -4546    -4544    -4549    -4568    -4608    -4645    -4660    -4662 
   -4639    -4546    -4398    -4271    -4194    -4168    -4225    -4353 
   -4471    -4534    -4549    -4531    -4534    -4602    -4681    -4685 
   -4603    -4494    -4405    -4359    -4361    -4387    -4442    -4502 
   -4471    -4369    -4320    -4392    -4579    -4776    -4847    -4783 
   -4657    -4499    -4314    -4178    -4176    -4287    -4409    -4526 
   -4661    -4758    -4800    -4822    -4796    -4720    -4654    -4611 
   -4567    -4517    -4487    -4461    -4394    -4334    -4361    -4413 
   -4380    -4288    -4217    -4198    -4236    -4340    -4515    -4687 
   -4784    -4795    -4692    -4507    -4392    -4436    -4580    -4719 
   -4764    -4720    -4653    -4576    -4480    -4367    -4243    -4112 
   -4035    -4099    -4288    -4483    -4629    -4758    -4895    -4969 
   -4896    -4714    -4568    -4496    -4423    -4341    -4260    -4174 
   -4124    -4117    -4124    -4187    -4378    -4657    -4881    -4968 
   -4985    -4984    -4905    -4715    -4471    -4228    -4035    -3952 
   -4035    -4278    -4556    -4770    -4981    -5185    -5292    -5281 
   -5147    -4851    -4465    -4144    -3956    -3897    -3950    -4071 
   -4232    -4421    -4591    -4741    -4888    -5007    -5088    -5098 
   -4958    -4650    -4248    -3834    -3487    -3337    -3485    -3893 
   -4456    -5069    -5564    -5772    -5680    -5371    -4916    -4434 
   -4070    -3894    -3898    -4043    -4282    -4550    -4754    -4868 
   -4946    -4978    -4899    -4733    -4549    -4344    -4136    -4054 
   -4167    -4388    -4631    -4866    -5005    -4950    -4756    -4556 
   -4368    -4180    -4105    -4193    -4324    -4411    -4463    -4482 
   -4492    -4509    -4506    -4502    -4536    -4606    -4710    -4826 
   -4907    -4938    -4903    -4788    -4645    -4500    -4328    -4153 
   -4060    -4071    -4148    -4297    -4581    -4988    -5302    -5310 
   -5093    -4854    -4634    -4421    -4259    -4176    -4197    -4317 
   -4487    -4664    -4793    -4816    -4752    -4656    -4519    -4364 
   -4241    -4139    -4067    -4095    -4220    -4386    -4580    -4808 
   -5036    -5167    -5104    -4853    -4544    -4278    -4105    -4075 
   -4164    -4324    -4534    -4684    -4704    -4696    -4698    -4642 
   -4510    -4333    -4179    -4110    -4143    -4270    -4468    -4689 
   -4877    -4984    -4993    -4946    -4874    -4754    -4604    -4495 
   -4463    -4479    -4459    -4384    -4349    -4380    -4434    -4515 
   -4629    -4727    -4777    -4776    -4706    -4561    -4401    -4272 
   -4160    -4083    -4105    -4239    -4465    -4760    -5038    -5193 
   -5190    -5016    -4700    -4359    -4104    -3943    -3861    -3910 
   -4141    -4445    -4635    -4661    -4581    -4425    -4264    -4247 
   -4406    -4617    -4764    -4812    -4766    -4668    -4607    -4629 
   -4644    -4575    -4469    -4395    -4349    -4314    -4310    -4375 
   -4479    -4538    -4519    -4453    -4401    -4407    -4448    -4476 
   -4492    -4541    -4619    -4675    -4684    -4660    -4633    -4610 
   -4546    -4417    -4264    -4152    -4114    -4128    -4171    -4259 
   -4357    -4455    -4544    -4572    -4536    -4490    -4441    -4403 
   -4401    -4419    -4455    -4538    -4648    -4698    -4683    -4675 
   -4671    -4622    -4538    -4465    -4422    -4410    -4421    -4418 
   -4336    -4199    -4135    -4162    -4205    -4261    -4355    -4469 
   -4553    -4572    -4579    -4585    -4519    -4371    -4214    -4131 
   -4172    -4305    -4432    -4502    -4511    -4460    -4383    -4336 
   -4337    -4379    -4450    -4521    -4568    -4599    -4598    -4529 
   -4391    -4241    -4176    -4244    -4411    -4612    -4729    -4679 
   -4518    -4330    -4133    -3964    -3908    -3952    -4017    -4129 
   -4363    -4644    -4831    -4881    -4846    -4747    -4587    -4387 
   -4167    -3981    -3894    -3890    -3962    -4117    -4288    -4421 
   -4496    -4475    -4402    -4380    -4411    -4448    -4455    -4391 
   -4260    -4117    -4000    -3939    -3952    -4064    -4321    -4679 
   -5004    -5196    -5224    -5139    -5011    -4845    -4621    -4376 
   -4176    -4062    -4056    -4163    -4369    -4626    -4850    -5005 
   -5089    -5082    -4993    -4853    -4691    -4533    -4423    -4378 
   -4363    -4387    -4494    -4666    -4845    -4997    -5117    -5175 
   -5130    -4984    -4773    -4540    -4356    -4272    -4271    -4290 
   -4306    -4364    -4477    -4569    -4619    -4692    -4779    -4827 
   -4835    -4804    -4735    -4662    -4600    -4533    -4464    -4414 
   -4403    -4417    -4460    -4571    -4706    -4784    -4815    -4823 
   -4791    -4707    -4607    -4541    -4499    -4452    -4428    -4475 
   -4595    -4737    -4846    -4895    -4874    -4788    -4684    -4634 
   -4644    -4652    -4618    -4561    -4507    -4471    -4484    -4563 
   -4675    -4772    -4803    -4716    -4527    -4294    -4058    -3894 
   -3888    -4029    -4260    -4526    -4766    -4924    -4974    -4943 
   -4835    -4612    -4318    -4083    -3981    -4016    -4162    -4341 
   -4482    -4552    -4558    -4531    -4518    -4549    -4607    -4634 
   -4594    -4525    -4482    -4456    -4433    -4459    -4526    -4565 
   -4569    -4583    -4595    -4564    -4507    -4509    -4596    -4684 
   -4735    -4781    -4806    -4796    -4753    -4666    -4567    -4513 
   -4499    -4488    -4488    -4549    -4649    -4711    -4710    -4684 
   -4644    -4569    -4473    -4422    -4430    -4419    -4361    -4348 
   -4418    -4487    -4482    -4428    -4401    -4434    -4476    -4498 
   -4540    -4633    -4752    -4827    -4807    -4716    -4606    -4456 
   -4275    -4139    -4091    -4129    -4263    -4479    -4711    -4860 
   -4845    -4707    -4557    -4452    -4394    -4378    -4384    -4410 
   -4449    -4486    -4510    -4526    -4521    -4465    -4410    -4433 
   -4492    -4496    -4455    -4440    -4482    -4537    -4563    -4565 
   -4557    -4498    -4368    -4229    -4152    -4168    -4284    -4457 
   -4604    -4700    -4757    -4754    -4712    -4681    -4661    -4619 
   -4568    -4525    -4488    -4452    -4413    -4378    -4378    -4417 
   -4473    -4525    -4527    -4494    -4495    -4526    -4529    -4486 
   -4432    -4425    -4473    -4541    -4615    -4684    -4729    -4719 
   -4652    -4565    -4504    -4456    -4386    -4320    -4313    -4367 
   -4441    -4519    -4584    -4603    -4600    -4631    -4693    -4762 
   -4812    -4841    -4827    -4723    -4549    -4382    -4280    -4295 
   -4406    -4540    -4657    -4737    -4756    -4716    -4634    -4549 
   -4513    -4511    -4496    -4468    -4432    -4395    -4405    -4469 
   -4544    -4581    -4573    -4577    -4662    -4788    -4851    -4830 
   -4769    -4685    -4584    -4484    -4396    -4352    -4390    -4479 
   -4538    -4541    -4531    -4544    -4553    -4546    -4519    -4463 
   -4409    -4369    -4324    -4291    -4283    -4311    -4394    -4490 
   -4531    -4519    -4488    -4456    -4423    -4395    -4386    -4430 
   -4534    -4644    -4673    -4603    -4504    -4434    -4392    -4375 
   -4361    -4342    -4349    -4379    -4409    -4446    -4495    -4498 
