Origin Time       2025/01/13 21:19:00
Lat.              31.8
Long.             131.6
Depth. (km)       30
Mag.              6.9
Station Code      KGWH02
Station Lat.      34.1980
Station Long.     133.7081
Station Height(m) 5
Record Time       2025/01/13 21:20:28
Sampling Freq(Hz) 100Hz
Duration Time(s)  146
Dir.              6
Scale Factor      7845(gal)/8223790
Max. Acc. (gal)   2.613
Last Correction   2025/01/13 21:20:28
Memo.             
[...]
   -9873    -9645    -9436    -9333    -9302    -9339    -9433    -9536 
   -9595    -9579    -9508    -9405    -9263    -9096    -8954    -8865 
   -8810    -8811    -8919    -9117    -9306    -9413    -9433    -9347 
   -9188    -9047    -8947    -8878    -8872    -8896    -8907    -8908 
   -8888    -8839    -8789    -8735    -8658    -8607    -8657    -8795 
   -8958    -9080    -9108    -9020    -8853    -8699    -8631    -8615 
   -8590    -8554    -8521    -8473    -8428    -8451    -8580    -8792 
   -9004    -9128    -9162    -9155    -9159    -9229    -9366    -9460 
   -9450    -9370    -9300    -9312    -9409    -9528    -9663    -9788 
   -9810    -9733    -9655    -9618    -9657    -9779    -9913   -10019 
  -10064   -10004    -9873    -9734    -9598    -9416    -9182    -8945 
   -8772    -8726    -8779    -8857    -8954    -9039    -9057    -9035 
   -9007    -8966    -8923    -8903    -8943    -9024    -9046    -8995 
   -8924    -8857    -8846    -8904    -8964    -9012    -9066    -9101 
   -9103    -9055    -8976    -8939    -8981    -9055    -9103    -9121 
   -9134    -9138    -9175    -9288    -9396    -9479    -9606    -9753 
   -9871    -9956    -9938    -9834    -9749    -9666    -9551    -9460 
   -9433    -9455    -9501    -9521    -9472    -9390    -9308    -9213 
   -9159    -9184    -9227    -9247    -9239    -9193    -9161    -9184 
   -9217    -9242    -9255    -9197    -9054    -8899    -8754    -8640 
   -8642    -8731    -8803    -8853    -8861    -8791    -8679    -8564 
   -8491    -8514    -8634    -8804    -8964    -9019    -8942    -8780 
   -8617    -8553    -8656    -8877    -9104    -9289    -9435    -9539 
   -9602    -9628    -9645    -9684    -9691    -9586    -9386    -9171 
   -9012    -8946    -8954    -8991    -9053    -9170    -9315    -9431 
   -9498    -9482    -9387    -9315    -9321    -9375    -9440    -9482 
   -9455    -9358    -9212    -9059    -8977    -8981    -9027    -9117 
   -9209    -9221    -9175    -9101    -9032    -9066    -9175    -9285 
   -9425    -9535    -9555    -9567    -9563    -9494    -9454    -9470 
   -9460    -9431    -9378    -9256    -9086    -8912    -8739    -8602 
   -8532    -8527    -8576    -8652    -8723    -8780    -8827    -8854 
   -8854    -8845    -8829    -8800    -8785    -8773    -8718    -8630 
   -8552    -8505    -8479    -8471    -8506    -8595    -8714    -8820 
   -8858    -8823    -8765    -8734    -8780    -8895    -9004    -9111 
   -9267    -9436    -9513    -9477    -9400    -9348    -9310    -9293 
   -9324    -9373    -9402    -9401    -9358    -9289    -9221    -9148 
   -9088    -9104    -9192    -9310    -9468    -9645    -9818    -9979 
  -10081   -10135   -10193   -10224   -10219   -10211   -10173   -10100 
  -10035    -9963    -9845    -9720    -9593    -9424    -9250    -9143 
   -9082    -9035    -9034    -9097    -9184    -9220    -9193    -9157 
   -9132    -9100    -9050    -8966    -8846    -8738    -8692    -8667 
   -8621    -8579    -8534    -8502    -8487    -8438    -8398    -8440 
   -8542    -8684    -8831    -8928    -9004    -9096    -9167    -9215 
   -9292    -9398    -9498    -9599    -9682    -9670    -9564    -9421 
   -9246    -9077    -8949    -8833    -8711    -8610    -8537    -8509 
   -8519    -8559    -8635    -8706    -8710    -8675    -8633    -8583 
   -8588    -8711    -8928    -9186    -9414    -9555    -9607    -9580 
   -9487    -9344    -9147    -8961    -8850    -8781    -8746    -8777 
   -8857    -8946    -8997    -9023    -9089    -9177    -9244    -9344 
   -9483    -9597    -9686    -9794    -9887    -9917    -9890    -9803 
   -9663    -9502    -9335    -9181    -9061    -9003    -9027    -9089 
   -9162    -9277    -9400    -9466    -9483    -9471    -9447    -9431 
   -9433    -9440    -9431    -9396    -9302    -9147    -8964    -8783 
   -8675    -8676    -8719    -8748    -8748    -8710    -8644    -8588 
   -8580    -8653    -8802    -8974    -9151    -9309    -9402    -9443 
   -9497    -9558    -9589    -9620    -9687    -9764    -9815    -9836 
   -9848    -9841    -9761    -9610    -9464    -9358    -9274    -9223 
   -9189    -9120    -9034    -8949    -8831    -8723    -8699    -8714 
   -8739    -8800    -8846    -8839    -8843    -8905    -9022    -9162 
   -9263    -9290    -9289    -9271    -9213    -9170    -9200    -9262 
   -9317    -9327    -9254    -9144    -9043    -8938    -8862    -8837 
   -8808    -8758    -8735    -8765    -8834    -8914    -9013    -9159 
   -9313    -9459    -9601    -9695    -9740    -9809    -9913    -9985 
  -10029   -10077   -10088   -10031    -9921    -9780    -9664    -9582 
   -9495    -9444    -9447    -9447    -9428    -9390    -9301    -9174 
   -9043    -8927    -8834    -8775    -8772    -8830    -8904    -8953 
   -8969    -8949    -8868    -8761    -8711    -8712    -8733    -8775 
   -8769    -8672    -8553    -8463    -8397    -8375    -8399    -8464 
   -8619    -8835    -9020    -9167    -9256    -9258    -9243    -9246 
   -9209    -9159    -9161    -9209    -9302    -9443    -9602    -9718 
   -9756    -9763    -9756    -9715    -9698    -9724    -9745    -9756 
   -9741    -9720    -9765    -9863    -9942    -9996   -10000    -9907 
   -9764    -9645    -9574    -9539    -9535    -9559    -9594    -9609 
   -9585    -9540    -9498    -9416    -9290    -9170    -9026    -8835 
   -8648    -8464    -8279    -8110    -7935    -7777    -7686    -7634 
   -7624    -7713    -7834    -7898    -7939    -7960    -7939    -7921 
   -7955    -8050    -8206    -8391    -8556    -8692    -8815    -8922 
   -9008    -9092    -9159    -9196    -9227    -9251    -9250    -9252 
   -9290    -9348    -9429    -9516    -9549    -9526    -9481    -9436 
   -9439    -9490    -9548    -9634    -9744    -9809    -9844    -9895 
   -9927    -9919    -9899    -9879    -9867    -9880    -9909    -9919 
   -9890    -9856    -9861    -9872    -9846    -9791    -9722    -9660 
   -9618    -9582    -9570    -9586    -9586    -9558    -9528    -9478 
   -9360    -9175    -8976    -8800    -8645    -8496    -8378    -8298 
   -8229    -8172    -8152    -8154    -8147    -8143    -8187    -8274 
   -8357    -8461    -8621    -8797    -8941    -9047    -9139    -9219 
   -9301    -9401    -9493    -9544    -9562    -9553    -9547    -9566 
   -9607    -9693    -9836    -9985   -10100   -10177   -10203   -10174 
  -10084    -9946    -9815    -9684    -9524    -9375    -9239    -9070 
   -8919    -8820    -8711    -8575    -8463    -8395    -8379    -8395 
   -8392    -8353    -8301    -8224    -8122    -8043    -8002    -7971 
   -7942    -7915    -7869    -7777    -7642    -7504    -7414    -7371 
   -7304    -7245    -7287    -7348    -7388    -7491    -7612    -7771 
   -8013    -8272    -8552    -8831    -9084    -9332    -9518    -9599 
   -9633    -9676    -9728    -9759    -9767    -9764    -9747    -9714 
   -9675    -9629    -9552    -9467    -9425    -9429    -9462    -9536 
   -9655    -9794    -9957   -10141   -10316   -10480   -10619   -10717 
  -10791   -10836   -10831   -10790   -10735   -10683   -10629   -10548 
  -10453   -10381   -10305   -10161    -9945    -9710    -9470    -9235 
   -9035    -8881    -8765    -8661    -8546    -8438    -8351    -8286 
   -8253    -8259    -8299    -8365    -8451    -8554    -8640    -8691 
   -8743    -8810    -8872    -8941    -9022    -9092    -9127    -9144 
   -9181    -9243    -9308    -9364    -9387    -9374    -9386    -9451 
   -9535    -9616    -9694    -9744    -9752    -9749    -9756    -9786 
   -9842    -9903    -9953    -9983    -9961    -9925    -9911    -9911 
   -9923    -9949    -9960    -9934    -9890    -9871    -9883    -9892 
   -9895    -9891    -9867    -9841    -9815    -9749    -9636    -9481 
   -9288    -9127    -9015    -8897    -8785    -8719    -8688    -8671 
   -8641    -8592    -8544    -8494    -8417    -8307    -8195    -8095 
   -8032    -8021    -8040    -8074    -8116    -8127    -8098    -8064 
   -8062    -8114    -8222    -8361    -8536    -8758    -8986    -9202 
   -9424    -9603    -9710    -9782    -9845    -9913   -10003   -10111 
  -10215   -10330   -10454   -10527   -10551   -10546   -10490   -10392 
  -10274   -10142   -10012    -9907    -9822    -9744    -9668    -9572 
   -9433    -9282    -9143    -9004    -8860    -8727    -8610    -8456 
   -8244    -8052    -7902    -7749    -7619    -7562    -7527    -7472 
   -7411    -7357    -7334    -7369    -7439    -7534    -7639    -7750 
   -7866    -7973    -8120    -8309    -8456    -8594    -8748    -8880 
   -9026    -9186    -9352    -9539    -9751    -9996   -10235   -10443 
  -10648   -10831   -10937   -10970   -10966   -10962   -10956   -10925 
  -10863   -10812   -10766   -10670   -10505   -10287   -10058    -9883 
   -9772    -9720    -9707    -9688    -9637    -9555    -9452    -9358 
   -9309    -9289    -9281    -9298    -9306    -9261    -9163    -9023 
   -8854    -8708    -8607    -8532    -8464    -8411    -8375    -8340 
   -8306    -8294    -8314    -8382    -8502    -8652    -8784    -8868 
   -8895    -8883    -8861    -8868    -8891    -8895    -8888    -8893 
   -8893    -8881    -8870    -8858    -8842    -8811    -8766    -8710 
   -8619    -8513    -8426    -8361    -8320    -8321    -8371    -8479 
   -8644    -8843    -9085    -9364    -9630    -9845   -10033   -10208 
  -10338   -10432   -10524   -10596   -10636   -10644   -10589   -10454 
  -10278   -10100    -9937    -9795    -9660    -9521    -9387    -9252 
   -9100    -8947    -8827    -8742    -8679    -8648    -8638    -8607 
   -8561    -8513    -8441    -8352    -8271    -8198    -8129    -8066 
   -8013    -7977    -7948    -7919    -7879    -7828    -7771    -7731 
   -7747    -7843    -8023    -8245    -8445    -8608    -8750    -8872 
   -8992    -9128    -9271    -9421    -9543    -9602    -9630    -9660 
   -9663    -9637    -9590    -9502    -9383    -9244    -9080    -8950 
   -8887    -8839    -8816    -8872    -8984    -9111    -9244    -9351 
   -9406    -9443    -9495    -9579    -9702    -9845    -9979   -10056 
  -10023    -9902    -9732    -9520    -9317    -9148    -8973    -8811 
   -8689    -8577    -8471    -8380    -8299    -8241    -8222    -8248 
   -8328    -8476    -8677    -8862    -8995    -9096    -9165    -9193 
   -9211    -9248    -9316    -9377    -9378    -9331    -9259    -9197 
   -9182    -9213    -9275    -9335    -9360    -9375    -9390    -9394 
   -9432    -9526    -9641    -9752    -9857    -9946   -10035   -10134 
  -10220   -10280   -10322   -10324   -10261   -10197   -10174   -10143 
  -10096   -10061   -10035   -10012   -10002   -10003   -10010   -10030 
  -10038    -9985    -9888    -9776    -9641    -9506    -9391    -9269 
   -9119    -8953    -8754    -8538    -8337    -8131    -7909    -7715 
   -7547    -7381    -7222    -7083    -6955    -6824    -6712    -6648 
   -6637    -6678    -6771    -6924    -7117    -7337    -7589    -7867 
   -8154    -8463    -8785    -9059    -9286    -9508    -9702    -9867 
  -10022   -10143   -10241   -10339   -10408   -10453   -10504   -10524 
  -10485   -10405   -10289   -10152   -10027    -9921    -9849    -9867 
   -9975   -10143   -10345   -10551   -10746   -10914   -11030   -11099 
  -11167   -11246   -11298   -11283   -11198   -11045   -10862   -10692 
  -10528   -10349   -10149    -9945    -9752    -9553    -9356    -9189 
   -9040    -8907    -8810    -8727    -8626    -8503    -8368    -8235 
   -8114    -8006    -7906    -7816    -7739    -7662    -7558    -7429 
   -7291    -7157    -7049    -7005    -7063    -7219    -7441    -7684 
   -7925    -8135    -8278    -8363    -8419    -8473    -8544    -8623 
   -8718    -8839    -8981    -9131    -9279    -9414    -9514    -9555 
   -9572    -9620    -9690    -9778    -9896   -10023   -10129   -10197 
  -10206   -10166   -10098    -9985    -9850    -9732    -9603    -9466 
   -9337    -9189    -9022    -8881    -8777    -8710    -8689    -8707 
   -8766    -8866    -8977    -9089    -9202    -9305    -9398    -9482 
   -9544    -9601    -9649    -9674    -9693    -9729    -9764    -9776 
   -9774    -9764    -9718    -9633    -9549    -9470    -9362    -9228 
   -9089    -8968    -8872    -8780    -8699    -8627    -8526    -8419 
   -8353    -8286    -8214    -8186    -8182    -8168    -8179    -8208 
   -8229    -8294    -8409    -8540    -8702    -8878    -9024    -9165 
   -9296    -9371    -9383    -9348    -9275    -9181    -9080    -8978 
   -8901    -8878    -8896    -8924    -8939    -8941    -8937    -8914 
   -8861    -8808    -8772    -8746    -8743    -8791    -8892    -9018 
   -9144    -9283    -9433    -9560    -9649    -9705    -9742    -9783 
   -9841    -9933   -10045   -10131   -10169   -10177   -10157   -10091 
   -9999    -9913    -9830    -9753    -9687    -9618    -9543    -9462 
   -9396    -9375    -9397    -9436    -9497    -9586    -9683    -9787 
   -9903   -10006   -10077   -10110   -10073    -9953    -9774    -9578 
   -9391    -9213    -9035    -8880    -8773    -8692    -8625    -8595 
   -8573    -8529    -8483    -8452    -8426    -8403    -8390    -8382 
   -8359    -8293    -8195    -8095    -8000    -7911    -7851    -7816 
   -7774    -7705    -7605    -7488    -7383    -7311    -7271    -7267 
   -7327    -7446    -7603    -7805    -8044    -8270    -8463    -8660 
   -8880    -9123    -9383    -9648    -9910   -10165   -10401   -10629 
  -10848   -11044   -11221   -11383   -11514   -11618   -11715   -11792 
  -11854   -11897   -11892   -11850   -11781   -11678   -11562   -11448 
  -11322   -11179   -11010   -10829   -10650   -10470   -10324   -10228 
  -10162   -10125   -10095   -10049    -9991    -9922    -9853    -9811 
   -9790    -9774    -9740    -9663    -9545    -9402    -9238    -9050 
   -8839    -8633    -8461    -8321    -8209    -8131    -8087    -8073 
   -8074    -8093    -8128    -8163    -8202    -8245    -8290    -8340 
   -8382    -8394    -8397    -8405    -8422    -8460    -8498    -8513 
   -8521    -8525    -8529    -8568    -8631    -8699    -8776    -8850 
   -8901    -8954    -9026    -9116    -9221    -9317    -9383    -9436 
   -9462    -9460    -9466    -9462    -9408    -9315    -9188    -9018 
   -8845    -8711    -8591    -8483    -8418    -8370    -8343    -8372 
   -8434    -8511    -8618    -8742    -8870    -9005    -9158    -9347 
   -9579    -9805    -9964   -10056   -10085   -10037    -9918    -9736 
   -9520    -9323    -9153    -9001    -8866    -8712    -8523    -8334 
   -8156    -7973    -7805    -7676    -7577    -7485    -7388    -7307 
   -7267    -7261    -7306    -7398    -7485    -7543    -7587    -7630 
   -7696    -7809    -7970    -8147    -8317    -8484    -8634    -8743 
   -8833    -8930    -9034    -9151    -9288    -9435    -9607    -9813 
  -10023   -10218   -10377   -10484   -10547   -10586   -10617   -10666 
  -10731   -10768   -10759   -10727   -10675   -10605   -10532   -10461 
  -10389   -10319   -10242   -10156   -10045    -9925    -9828    -9745 
   -9670    -9595    -9497    -9364    -9221    -9082    -8958    -8866 
   -8800    -8729    -8649    -8577    -8522    -8461    -8387    -8309 
   -8245    -8229    -8243    -8233    -8218    -8247    -8295    -8340 
   -8424    -8560    -8702    -8819    -8905    -8961    -9016    -9084 
   -9117    -9101    -9069    -9020    -8947    -8891    -8865    -8847 
   -8834    -8804    -8739    -8671    -8613    -8545    -8473    -8417 
   -8387    -8386    -8413    -8475    -8567    -8673    -8802    -8941 
   -9045    -9109    -9153    -9178    -9198    -9219    -9244    -9285 
   -9346    -9429    -9524    -9609    -9679    -9741    -9809    -9879 
   -9926    -9965   -10033   -10119   -10210   -10293   -10365   -10436 
  -10503   -10536   -10525   -10481   -10419   -10345   -10246   -10112 
   -9940    -9760    -9603    -9421    -9204    -9013    -8856    -8702 
   -8581    -8513    -8476    -8483    -8523    -8550    -8561    -8579 
   -8602    -8618    -8622    -8635    -8679    -8757    -8850    -8914 
   -8946    -8980    -9008    -9016    -9016    -9026    -9043    -9072 
   -9127    -9194    -9254    -9323    -9410    -9471    -9481    -9458 
   -9417    -9360    -9296    -9250    -9220    -9184    -9134    -9070 
   -8976    -8869    -8796    -8768    -8779    -8826    -8889    -8939 
   -8996    -9053    -9084    -9127    -9198    -9243    -9261    -9283 
   -9289    -9258    -9223    -9209    -9229    -9283    -9354    -9429 
   -9489    -9517    -9537    -9571    -9616    -9660    -9684    -9699 
   -9736    -9775    -9791    -9787    -9778    -9774    -9783    -9786 
   -9787    -9788    -9761    -9706    -9666    -9655    -9645    -9612 
   -9562    -9499    -9440    -9396    -9344    -9289    -9263    -9262 
   -9269    -9285    -9294    -9285    -9263    -9231    -9204    -9186 
   -9143    -9073    -9008    -8938    -8860    -8810    -8784    -8750 
   -8694    -8598    -8453    -8295    -8170    -8091    -8070    -8089 
   -8128    -8210    -8325    -8434    -8569    -8762    -8965    -9135 
   -9296    -9455    -9583    -9693    -9825    -9965   -10079   -10158 
  -10184   -10165   -10118   -10030    -9938    -9845    -9690    -9495 
   -9335    -9188    -9042    -8934    -8872    -8834    -8803    -8765 
   -8726    -8680    -8614    -8550    -8527    -8536    -8560    -8604 
   -8671    -8749    -8819    -8878    -8932    -8965    -8969    -8980 
   -9007    -9012    -8997    -8986    -8954    -8881    -8802    -8738 
   -8694    -8668    -8671    -8712    -8762    -8795    -8816    -8827 
   -8829    -8833    -8846    -8873    -8915    -8957    -8974    -8997 
   -9053    -9128    -9229    -9360    -9483    -9571    -9640    -9693 
   -9733    -9783    -9834    -9869    -9902    -9945    -9972    -9965 
   -9936    -9898    -9846    -9788    -9753    -9729    -9675    -9589 
   -9491    -9378    -9246    -9112    -8989    -8888    -8795    -8698 
   -8611    -8552    -8506    -8469    -8441    -8429    -8424    -8421 
   -8424    -8432    -8444    -8463    -8490    -8533    -8591    -8650 
   -8714    -8780    -8822    -8845    -8868    -8884    -8901    -8928 
   -8961    -9009    -9047    -9055    -9076    -9094    -9076    -9073 
   -9113    -9167    -9242    -9352    -9474    -9572    -9678    -9784 
   -9840    -9852    -9852    -9841    -9822    -9787    -9738    -9714 
   -9730    -9751    -9752    -9737    -9691    -9620    -9571    -9556 
   -9535    -9509    -9521    -9575    -9639    -9679    -9698    -9747 
   -9828    -9891    -9915    -9923    -9927    -9910    -9864    -9823 
   -9776    -9683    -9568    -9455    -9319    -9157    -9032    -8969 
   -8918    -8861    -8804    -8729    -8656    -8625    -8614    -8610 
   -8621    -8626    -8619    -8629    -8641    -8650    -8695    -8746 
   -8765    -8777    -8812    -8866    -8934    -9023    -9120    -9193 
   -9242    -9275    -9300    -9325    -9324    -9285    -9252    -9242 
   -9235    -9240    -9251    -9252    -9248    -9254    -9258    -9247 
   -9221    -9184    -9132    -9066    -8974    -8869    -8756    -8623 
   -8476    -8334    -8208    -8125    -8110    -8131    -8159    -8195 
   -8239    -8301    -8397    -8509    -8627    -8765    -8914    -9055 
   -9189    -9316    -9428    -9545    -9676    -9799    -9909   -10012 
  -10088   -10134   -10146   -10091    -9991    -9896    -9818    -9744 
