Origin Time       2025/01/13 21:19:00
Lat.              31.8
Long.             131.6
Depth. (km)       30
Mag.              6.9
Station Code      KGWH01
Station Lat.      34.2186
Station Long.     133.9493
Station Height(m) 90
Record Time       2025/01/13 21:20:46
Sampling Freq(Hz) 100Hz
Duration Time(s)  120
Dir.              4
Scale Factor      7845(gal)/8223790
Max. Acc. (gal)   1.751
Last Correction   2025/01/13 21:20:47
Memo.             
[...]
    -130      -58       32       97      141      207      291      349 
     371      365      351      309      228      137       31     -116 
    -272     -399     -488     -527     -507     -446     -364     -253 
    -121        1       95      162      176      145      110       81 
      45       37       95      202      315      415      486      506 
     496      473      411      287      143       49       24       13 
     -31     -109     -187     -221     -221     -229     -234     -205 
    -162     -105       12      149      228      268      330      403 
     450      461      437      372      292      234      197      174 
     170      151       86        8      -56     -116     -172     -224 
    -252     -249     -248     -245     -202     -114      -14       90 
     186      248      259      221      151       83       48       40 
      44       52       41      -16     -126     -271     -398     -463 
    -469     -418     -302     -148      -10       86      162      244 
     330      423      527      612      652      669      658      592 
     475      305       86     -117     -255     -330     -357     -338 
    -292     -243     -193     -143      -79       -2       58       94 
     121      137      145      175      226      256      232      168 
      98       41        2      -17        2       75      162      236 
     319      396      417      390      352      302      237      186 
     144       89       32        8       31      103      168      176 
     171      178      149       87       24      -62     -170     -233 
    -225     -160      -62       39      124      182      226      282 
     319      303      270      255      248      247      225      143 
      36      -32      -59      -68      -64      -63      -89     -110 
     -87      -40       21      130      257      342      367      334 
     255      139        4     -117     -214     -299     -332     -263 
    -132        5      140      252      315      329      313      294 
     274      237      206      197      159       64      -32      -66 
     -47      -25      -28      -47      -66      -64      -29       17 
      55       97      156      206      221      202      156       85 
       4      -71     -140     -180     -167     -118      -63        4 
      86      132      129      136      148      125       79       39 
       6      -12      -27      -60      -91      -62       13       68 
      85      106      147      195      272      365      423      430 
     400      364      344      324      267      176      103       56 
       0      -76     -160     -247     -305     -313     -286     -253 
    -216     -157      -72       28      137      241      333      426 
     506      538      531      498      445      410      403      413 
     407      356      278      187       62      -86     -222     -352 
    -449     -473     -433     -348     -217      -56       76      151 
     190      205      172      116       74       48       41       55 
      94      178      291      390      457      514      568      606 
     594      523      426      324      209       82      -54     -170 
    -243     -286     -321     -349     -357     -348     -341     -338 
    -321     -278     -217     -147      -64       27      125      224 
     302      355      405      461      521      562      567      546 
     500      384      187      -31     -226     -394     -514     -564 
    -560     -525     -454     -373     -314     -264     -189      -94 
       6      136      272      349      363      357      318      230 
     133       48      -33      -98     -126     -118      -83      -58 
     -62      -68      -54      -24       13       51       71       39 
     -52     -168     -275     -333     -305     -198      -51      108 
     220      260      276      284      255      191      125       51 
       1       31      110      178      211      189       99      -16 
    -112     -157     -155     -148     -152     -137     -102      -62 
      36      217      395      500      530      479      373      282 
     236      203      176      163      160      163      163      155 
     132       76        8      -21      -13      -13      -43      -76 
     -85      -74      -40       37      137      229      318      384 
     383      341      299      248      170       66      -54     -157 
    -211     -218     -197     -179     -191     -226     -244     -217 
    -160      -79       44      201      314      337      319      309 
     261      143       18      -39      -17       56      148      221 
     237      171       56      -37      -81      -87      -72      -48 
     -29      -14        9       24       10      -14       -9       43 
     124      195      243      263      241      179       89      -22 
    -122     -153     -149     -168     -176     -135      -82      -36 
      52      197      346      454      510      527      546      580 
     592      579      571      545      446      268       47     -178 
    -363     -499     -608     -664     -598     -410     -171       39 
     159      156       47      -93     -191     -252     -345     -459 
    -488     -403     -268     -106       94      306      491      608 
     627      552      410      245      129       72       18      -66 
    -155     -199     -189     -168     -163     -124      -25       68 
      93       60       39       55      102      183      295      414 
     498      526      518      513      487      376      170     -102 
    -390     -567     -530     -306        5      249      295      170 
     -32     -256     -453     -604     -684     -612     -388     -116 
     141      383      631      903     1143     1233     1139      901 
     567      220      -41     -225     -391     -564     -760     -969 
   -1081    -1000     -750     -368       86      476      679      679 
     545      387      302      298      280      187       71       21 
      64      187      334      423      426      391      342      211 
     -41     -353     -650     -859     -913     -823     -630     -344 
     -21      197      248      187       82       -4      -45      -68 
     -49       70      292      549      734      774      691      537 
     334      129      -16      -67      -24       63      147      218 
     253      222      151       68      -60     -253     -415     -430 
    -272        8      313      531      603      537      340       32 
    -232     -268     -118       44      191      365      535      643 
     637      499      324      174      -29     -314     -567     -688 
    -677     -567     -378     -168      -51      -39      -14       86 
     233      379      511      646      758      737      557      334 
     130      -89     -313     -506     -706     -935    -1094    -1067 
    -854     -540     -217       45      193      209      179      207 
     280      369      507      638      652      576      508      476 
     454      390      236       54      -33      -24        0       27 
      63       45      -28      -81      -79      -24       56      125 
     187      211      125      -14      -91     -120     -151     -136 
     -58       31       82       63       -9      -51      -20       63 
     202      405      610      699      594      328        6     -263 
    -406     -406     -333     -280     -315     -417     -472     -398 
    -206       12      171      268      345      425      525      604 
     571      430      322      322      368      332      126     -202 
    -526     -737     -807     -789     -715     -529     -189      233 
     588      768      769      645      436      172     -102     -311 
    -387     -345     -217      -31       98       76       20      101 
     297      461      495      411      288      176       78       -2 
     -59      -93     -108      -91       -9      149      328      448 
     494      492      450      371      275      153      -36     -305 
    -607     -878    -1001     -897     -614     -202      310      785 
    1051     1054      845      546      283       37     -236     -434 
    -442     -268       14      336      604      695      564      315 
      75     -116     -261     -342     -311     -137      120      336 
     434      419      334      238      174      139       99       18 
     -89     -179     -287     -457     -627     -683     -565     -345 
    -163      -67       12      128      228      244      236      287 
     353      340      263      201      174      152      162      244 
     352      359      230      102       58      -14     -209     -460 
    -634     -661     -557     -363     -126       87      274      461 
     656      837      927      824      556      270       33     -170 
    -274     -241     -180     -151      -94      -31      -43     -110 
    -149     -144     -118      -52       93      307      500      545 
     430      310      265      199        1     -305     -591     -745 
    -703     -448      -71      264      472      561      579      581 
     576      469      205     -105     -311     -394     -398     -329 
    -167       66      310      487      522      409      209       -5 
    -152     -163      -52       56       51      -18       -4      137 
     315      444      494      506      541      565      500      379 
     221      -68     -484     -835     -978     -928     -742     -487 
    -218       48      346      681      938      996      905      746 
     507      282      225      278      286      245      121     -179 
    -569     -869    -1065    -1225    -1316    -1251    -1019     -706 
    -422     -205        6      243      459      626      757      851 
     953     1100     1201     1131      897      587      271       16 
    -153     -333     -587     -832     -977    -1011     -943     -785 
    -571     -301       64      527      965     1181     1100      811 
     449      114     -139     -272     -245      -66      228      568 
     810      849      761      646      488      245      -72     -437 
    -770     -932     -855     -579     -194      129      257      244 
     232      261      305      340      365      376      360      307 
     216      109       66      160      334      452      510      548 
     514      429      371      310      201      112       52      -98 
    -368     -638     -870    -1108    -1286    -1247     -932     -438 
     116      646     1085     1404     1586     1578     1341      961 
     567      224      -12      -94     -130     -244     -390     -502 
    -583     -619     -611     -612     -616     -535     -325      -59 
     116      145      125      183      357      607      837      920 
     827      643      461      328      253      197       91      -90 
    -333     -583     -765     -816     -708     -476     -224      -62 
      -1       63      203      344      419      461      456      411 
     422      525      638      677      600      446      291      129 
     -90     -344     -511     -526     -480     -491     -567     -665 
    -750     -788     -787     -754     -643     -386       40      490 
     765      864      893      839      656      461      390      383 
     330      244      160       54      -52     -137     -256     -432 
    -625     -756     -685     -407     -117       36      101      191 
     315      398      438      507      614      673      603      406 
     155      -31      -91     -153     -301     -403     -395     -379 
    -364     -249      -47      153      315      421      450      438 
     449      454      344       78     -260     -534     -625     -537 
    -373     -229     -162     -103      114      537     1012     1389 
    1584     1570     1386     1093      666       87     -525     -955 
   -1104    -1074     -984     -797     -479     -176      -52     -106 
    -260     -452     -587     -592     -468     -207      199      653 
    1012     1247     1354     1298     1124      868      476      -47 
    -541     -857    -1034    -1174    -1246    -1147     -886     -541 
    -155      222      511      687      792      814      742      688 
     724      768      757      741      731      658      544      460 
     330       64     -245     -506     -696     -723     -479      -28 
     461      843     1001      904      607      179     -236     -481 
    -542     -498     -415     -353     -314     -280     -306     -434 
    -612     -772     -815     -637     -229      275      704      967 
    1140     1302     1351     1163      792      365      -31     -311 
    -444     -495     -508     -449     -274      -31      149      216 
     195       40     -251     -502     -607     -639     -604     -411 
     -79      274      588      885     1115     1171     1082      936 
     711      379       22     -298     -534     -556     -380     -206 
    -108      -27       55      155      291      436      540      599 
     652      699      653      486      283      121        6      -45 
     -17       76      129       60      -47     -108     -163     -211 
    -221     -255     -288     -180       58      301      558      847 
    1013      963      793      580      348      164       58      -32 
    -175     -388     -638     -868    -1053    -1212    -1317    -1250 
    -912     -394       82      406      677     1028     1451     1809 
    1899     1633     1127      562       72     -294     -580     -837 
   -1067    -1228    -1248    -1123     -922     -669     -387     -170 
     -71      -14       95      243      373      540      761      905 
     872      724      552      355      137      -48     -149     -167 
    -153     -163     -205     -287     -464     -702     -845     -804 
    -589     -203      302      807     1202     1389     1283      924 
     476       75     -237     -448     -558     -599     -592     -542 
    -450     -348     -226      -37      197      384      433      333 
     162        2     -125     -275     -469     -658     -791     -847 
    -772     -562     -338     -194      -95       37      216      351 
     400      440      518      602      662      685      675      625 
     496      279       10     -256     -459     -535     -476     -351 
    -257     -226     -225     -245     -270     -260     -213     -164 
    -126      -72       37      224      399      469      487      529 
     557      526      469      392      193     -174     -600     -990 
   -1300    -1426    -1305     -985     -514       31      465      699 
     811      823      718      567      386      162      -32     -187 
    -355     -490     -557     -603     -606     -507     -334     -144 
      39      195      303      373      403      338      178        8 
    -126     -247     -314     -280     -170      -41       43       67 
      81      124      178      205      167       81       -1      -59 
     -93     -101      -91      -68      -12      113      272      378 
     386      336      264      145      -22     -168     -243     -238 
    -145       33      248      390      390      297      189      110 
      91      121      195      349      542      649      610      457 
     237      -22     -270     -430     -464     -409     -310     -156 
      54      279      464      521      410      211       85       85 
     126      174      255      338      392      433      469      495 
     448      257      -35     -336     -583     -712     -707     -641 
    -573     -494     -388     -268     -155      -90      -74      -39 
      62      187      288      405      618      945     1286     1497 
    1451     1109      565        1     -461     -822    -1069    -1173 
   -1128     -940     -664     -386     -129      148      444      664 
     734      707      665      600      480      333      199       97 
      81      218      490      785      967      939      711      383 
      45     -265     -552     -770     -838     -743     -558     -341 
    -145      -21       43       93      171      309      461      538 
     562      641      720      637      371       64     -159     -268 
    -338     -457     -540     -437     -197       25      155      168 
      85       13       56      170      207      166      170      222 
     197       29     -224     -414     -400     -184      114      371 
     511      527      498      486      434      233     -118     -475 
    -642     -583     -456     -373     -292     -164      -32       27 
     -35     -193     -368     -502     -533     -432     -230        2 
     233      423      571      706      799      805      781      758 
     669      502      334      189       56       -6       -4      -39 
    -151     -292     -442     -585     -677     -693     -634     -488 
    -276      -40      213      527      892     1173     1254     1169 
    1015      835      621      344       14     -298     -537     -650 
    -615     -511     -425     -345     -217      -41      121      214 
     225      191      157      128       62      -70     -238     -361 
    -372     -297     -222     -180     -118        2      143      245 
     264      147      -79     -284     -375     -353     -278     -216 
    -168     -101       -4       98      184      240      243      159 
      -8     -170     -255     -302     -341     -345     -314     -259 
    -179      -83       22      151      275      357      409      432 
     396      340      310      305      288      240      170      103 
      72      103      160      153       68      -29     -101     -167 
    -264     -369     -407     -330     -152       62      226      332 
     418      472      479      467      436      342      206      114 
     101      114      135      218      352      419      356      220 
      91       -8     -102     -171     -189     -217     -325     -442 
    -442     -309     -108      102      284      409      480      519 
     525      461      321      164       66       24       10       18 
      37       45       62      103      130      116       68        9 
     -35      -33      -31      -68      -98      -97     -122     -175 
    -178      -74       97      282      490      704      824      819 
     784      749      666      558      467      378      291      243 
     214      155       35     -155     -394     -630     -789     -819 
    -735     -610     -484     -340     -183      -58       20       45 
      16      -45      -99     -108      -44       79      199      275 
     313      328      325      291      184       28     -140     -367 
    -634     -804     -789     -622     -365      -76      193      402 
     507      526      522      506      442      352      294      305 
     364      415      423      395      334      245      156      109 
      89       71       63       55       10      -58     -108     -160 
    -292     -488     -623     -656     -652     -600     -440     -213 
      -4      189      396      581      692      716      681      602 
     472      295      114      -25     -121     -164     -157     -113 
     -44       25       67       79       49      -18      -85     -118 
    -102      -44      -17      -47      -39       71      228      342 
