Origin Time       2025/01/13 21:19:00
Lat.              31.8
Long.             131.6
Depth. (km)       30
Mag.              6.9
Station Code      KGWH03
Station Lat.      34.2700
Station Long.     134.1482
Station Height(m) -50
Record Time       2025/01/13 21:20:53
Sampling Freq(Hz) 100Hz
Duration Time(s)  120
Dir.              1
Scale Factor      3923(gal)/8224838
Max. Acc. (gal)   0.483
Last Correction   2025/01/13 21:20:54
Memo.             
[...]
  -37003   -36996   -36987   -36988   -37004   -37010   -37008   -37018 
  -37029   -37042   -37065   -37091   -37107   -37099   -37084   -37100 
  -37127   -37126   -37125   -37141   -37168   -37197   -37214   -37219 
  -37223   -37234   -37242   -37228   -37201   -37183   -37169   -37150 
  -37130   -37112   -37098   -37085   -37075   -37075   -37072   -37062 
  -37061   -37066   -37069   -37085   -37120   -37157   -37165   -37160 
  -37172   -37189   -37191   -37199   -37223   -37245   -37250   -37250 
  -37255   -37266   -37274   -37272   -37269   -37264   -37254   -37254 
  -37264   -37278   -37284   -37272   -37255   -37247   -37245   -37246 
  -37257   -37274   -37293   -37312   -37318   -37314   -37324   -37354 
  -37377   -37386   -37403   -37413   -37405   -37396   -37393   -37400 
  -37403   -37390   -37373   -37362   -37345   -37318   -37304   -37305 
  -37297   -37276   -37251   -37228   -37204   -37191   -37195   -37183 
  -37152   -37135   -37131   -37122   -37108   -37100   -37089   -37071 
  -37049   -37026   -37012   -37023   -37037   -37026   -36996   -36968 
  -36949   -36938   -36942   -36965   -36987   -36998   -37014   -37030 
  -37045   -37077   -37120   -37154   -37173   -37179   -37181   -37200 
  -37227   -37250   -37277   -37285   -37269   -37266   -37280   -37296 
  -37315   -37330   -37339   -37339   -37318   -37295   -37289   -37289 
  -37285   -37276   -37262   -37249   -37234   -37215   -37187   -37162 
  -37150   -37145   -37143   -37143   -37134   -37115   -37096   -37080 
  -37069   -37075   -37085   -37084   -37083   -37087   -37081   -37077 
  -37084   -37084   -37085   -37103   -37111   -37102   -37098   -37102 
  -37100   -37098   -37103   -37114   -37122   -37126   -37127   -37120 
  -37102   -37080   -37066   -37064   -37076   -37089   -37089   -37088 
  -37092   -37089   -37087   -37085   -37085   -37092   -37087   -37066 
  -37048   -37039   -37041   -37037   -37021   -37004   -36996   -36999 
  -37010   -37004   -36985   -36988   -37000   -37004   -37008   -37007 
  -37011   -37029   -37042   -37052   -37057   -37048   -37035   -37029 
  -37026   -37029   -37014   -36984   -36963   -36950   -36941   -36940 
  -36960   -36983   -36991   -36994   -36996   -37003   -37021   -37049 
  -37081   -37110   -37125   -37142   -37170   -37200   -37233   -37261 
  -37272   -37284   -37297   -37300   -37301   -37303   -37291   -37284 
  -37287   -37284   -37277   -37272   -37266   -37269   -37272   -37273 
  -37274   -37277   -37282   -37287   -37293   -37303   -37309   -37304 
  -37300   -37311   -37326   -37341   -37350   -37339   -37330   -37335 
  -37338   -37338   -37328   -37304   -37293   -37297   -37289   -37277 
  -37265   -37247   -37231   -37224   -37219   -37212   -37206   -37204 
  -37203   -37195   -37192   -37199   -37204   -37200   -37193   -37184 
  -37169   -37150   -37142   -37139   -37127   -37115   -37114   -37103 
  -37088   -37087   -37087   -37076   -37069   -37058   -37035   -37025 
  -37018   -36999   -36975   -36949   -36927   -36923   -36921   -36911 
  -36898   -36886   -36877   -36868   -36860   -36864   -36871   -36880 
  -36891   -36894   -36896   -36919   -36952   -36980   -37003   -37021 
  -37029   -37031   -37038   -37054   -37069   -37077   -37080   -37076 
  -37079   -37089   -37103   -37106   -37098   -37083   -37066   -37057 
  -37060   -37062   -37049   -37023   -37004   -37010   -37026   -37037 
  -37039   -37035   -37030   -37042   -37075   -37107   -37134   -37146 
  -37141   -37133   -37135   -37143   -37153   -37165   -37181   -37197 
  -37211   -37231   -37257   -37280   -37296   -37303   -37309   -37322 
  -37339   -37350   -37346   -37339   -37335   -37326   -37315   -37314 
  -37311   -37295   -37276   -37269   -37281   -37299   -37299   -37300 
  -37300   -37281   -37270   -37282   -37288   -37274   -37272   -37280 
  -37274   -37260   -37247   -37241   -37238   -37235   -37222   -37201 
  -37191   -37200   -37216   -37223   -37219   -37206   -37193   -37181 
  -37169   -37168   -37173   -37168   -37153   -37143   -37134   -37123 
  -37116   -37118   -37118   -37114   -37110   -37110   -37115   -37127 
  -37138   -37139   -37137   -37133   -37129   -37118   -37104   -37096 
  -37096   -37100   -37111   -37116   -37104   -37095   -37095   -37085 
  -37076   -37075   -37061   -37037   -37019   -37011   -37002   -36988 
  -36983   -36988   -36985   -36980   -36987   -37000   -37011   -37014 
  -37010   -37014   -37030   -37046   -37054   -37058   -37056   -37046 
  -37030   -37007   -36988   -36975   -36963   -36960   -36958   -36944 
  -36922   -36907   -36892   -36880   -36877   -36882   -36894   -36907 
  -36929   -36963   -36996   -37018   -37034   -37052   -37076   -37120 
  -37172   -37214   -37246   -37272   -37289   -37307   -37322   -37334 
  -37341   -37331   -37315   -37309   -37322   -37343   -37363   -37373 
  -37370   -37366   -37363   -37370   -37386   -37409   -37438   -37466 
  -37489   -37511   -37532   -37551   -37566   -37584   -37608   -37628 
  -37632   -37621   -37593   -37558   -37535   -37511   -37476   -37450 
  -37430   -37400   -37365   -37334   -37307   -37281   -37247   -37215 
  -37192   -37177   -37165   -37157   -37158   -37165   -37164   -37158 
  -37156   -37149   -37138   -37122   -37104   -37089   -37071   -37052 
  -37039   -37029   -37015   -36996   -36967   -36941   -36936   -36936 
  -36929   -36915   -36904   -36910   -36923   -36937   -36957   -36979 
  -36995   -37008   -37017   -37035   -37065   -37095   -37123   -37143 
  -37152   -37164   -37181   -37196   -37207   -37222   -37242   -37260 
  -37270   -37280   -37291   -37288   -37282   -37284   -37292   -37307 
  -37311   -37308   -37322   -37335   -37332   -37331   -37342   -37353 
  -37354   -37350   -37341   -37331   -37326   -37328   -37334   -37334 
  -37320   -37307   -37293   -37289   -37303   -37315   -37322   -37326 
  -37330   -37332   -37331   -37327   -37318   -37301   -37278   -37261 
  -37251   -37245   -37231   -37219   -37208   -37192   -37173   -37161 
  -37153   -37137   -37119   -37110   -37107   -37100   -37083   -37058 
  -37037   -37025   -37021   -37025   -37026   -37015   -36991   -36965 
  -36942   -36927   -36918   -36917   -36937   -36960   -36973   -36988 
  -36998   -37004   -37015   -37035   -37060   -37079   -37084   -37089 
  -37100   -37111   -37127   -37152   -37168   -37187   -37218   -37237 
  -37241   -37249   -37258   -37262   -37269   -37270   -37269   -37278 
  -37288   -37291   -37296   -37303   -37312   -37323   -37324   -37322 
  -37328   -37341   -37346   -37346   -37351   -37359   -37369   -37380 
  -37378   -37372   -37369   -37372   -37378   -37389   -37396   -37392 
  -37380   -37368   -37353   -37339   -37331   -37330   -37335   -37334 
  -37326   -37327   -37335   -37332   -37328   -37327   -37331   -37343 
  -37347   -37331   -37307   -37287   -37273   -37266   -37258   -37242 
  -37223   -37204   -37192   -37192   -37197   -37208   -37219   -37218 
  -37215   -37219   -37215   -37199   -37185   -37177   -37170   -37156 
  -37130   -37092   -37048   -37012   -36983   -36957   -36934   -36910 
  -36891   -36872   -36845   -36818   -36799   -36780   -36763   -36753 
  -36748   -36745   -36749   -36753   -36768   -36790   -36801   -36801 
  -36809   -36825   -36844   -36872   -36900   -36914   -36915   -36913 
  -36911   -36919   -36931   -36944   -36946   -36944   -36944   -36948 
  -36957   -36979   -37000   -37014   -37030   -37049   -37068   -37093 
  -37126   -37160   -37199   -37231   -37253   -37269   -37288   -37304 
  -37305   -37305   -37316   -37326   -37328   -37330   -37330   -37326 
  -37326   -37327   -37323   -37314   -37300   -37289   -37281   -37268 
  -37247   -37212   -37173   -37145   -37107   -37049   -36985   -36931 
  -36892   -36861   -36826   -36796   -36779   -36763   -36748   -36745 
  -36761   -36776   -36782   -36788   -36807   -36828   -36838   -36849 
  -36867   -36883   -36898   -36919   -36946   -36963   -36957   -36944 
  -36933   -36919   -36899   -36875   -36850   -36829   -36810   -36790 
  -36775   -36767   -36761   -36767   -36788   -36815   -36840   -36868 
  -36903   -36940   -36979   -37026   -37080   -37127   -37165   -37196 
  -37215   -37224   -37243   -37265   -37276   -37274   -37258   -37238 
  -37220   -37201   -37185   -37168   -37143   -37129   -37131   -37143 
  -37156   -37158   -37152   -37139   -37122   -37106   -37091   -37076 
  -37062   -37044   -37023   -37014   -37012   -37019   -37034   -37045 
  -37048   -37054   -37065   -37071   -37073   -37083   -37093   -37100 
  -37098   -37087   -37081   -37081   -37084   -37091   -37104   -37116 
  -37134   -37152   -37158   -37165   -37173   -37185   -37211   -37234 
  -37247   -37254   -37260   -37273   -37297   -37324   -37350   -37368 
  -37376   -37384   -37390   -37395   -37399   -37401   -37399   -37395 
  -37397   -37407   -37416   -37417   -37416   -37416   -37412   -37407 
  -37404   -37397   -37390   -37381   -37365   -37339   -37303   -37261 
  -37219   -37183   -37156   -37131   -37104   -37079   -37057   -37034 
  -37011   -36988   -36967   -36963   -36963   -36946   -36923   -36903 
  -36892   -36896   -36917   -36936   -36950   -36965   -36980   -36996 
  -37015   -37044   -37076   -37103   -37125   -37145   -37161   -37172 
  -37189   -37216   -37242   -37270   -37297   -37316   -37334   -37346 
  -37353   -37372   -37395   -37417   -37438   -37450   -37455   -37455 
  -37449   -37444   -37449   -37454   -37461   -37465   -37469   -37474 
  -37478   -37471   -37461   -37457   -37455   -37438   -37422   -37413 
  -37401   -37384   -37365   -37341   -37318   -37291   -37257   -37227 
  -37206   -37180   -37149   -37114   -37077   -37044   -37018   -36994 
  -36967   -36938   -36918   -36909   -36909   -36904   -36891   -36882 
  -36876   -36860   -36834   -36815   -36796   -36775   -36757   -36740 
  -36722   -36715   -36720   -36734   -36764   -36792   -36818   -36838 
  -36850   -36872   -36900   -36927   -36952   -36969   -36977   -36985 
  -36998   -37019   -37049   -37072   -37088   -37095   -37093   -37095 
  -37099   -37103   -37103   -37093   -37077   -37061   -37052   -37060 
  -37069   -37060   -37044   -37021   -36991   -36967   -36934   -36890 
  -36848   -36801   -36738   -36679   -36636   -36606   -36575   -36537 
  -36498   -36464   -36433   -36405   -36378   -36350   -36323   -36292 
  -36263   -36244   -36239   -36238   -36236   -36235   -36236   -36234 
  -36231   -36234   -36231   -36231   -36242   -36250   -36259   -36271 
  -36289   -36308   -36324   -36339   -36362   -36398   -36432   -36464 
  -36508   -36548   -36580   -36614   -36643   -36671   -36710   -36756 
  -36805   -36856   -36900   -36934   -36961   -36992   -37030   -37071 
  -37112   -37143   -37172   -37204   -37237   -37269   -37300   -37322 
  -37345   -37369   -37392   -37419   -37447   -37474   -37500   -37534 
  -37575   -37617   -37656   -37696   -37731   -37767   -37798   -37828 
  -37851   -37863   -37870   -37878   -37876   -37871   -37871   -37867 
  -37855   -37839   -37825   -37813   -37797   -37777   -37758   -37747 
  -37733   -37713   -37697   -37683   -37679   -37685   -37690   -37689 
  -37692   -37696   -37700   -37701   -37697   -37693   -37696   -37705 
  -37708   -37701   -37694   -37687   -37685   -37686   -37692   -37704 
  -37720   -37732   -37740   -37751   -37766   -37785   -37805   -37820 
  -37832   -37841   -37837   -37825   -37817   -37808   -37795   -37786 
  -37770   -37748   -37733   -37719   -37698   -37683   -37669   -37658 
  -37658   -37655   -37633   -37609   -37594   -37581   -37570   -37558 
  -37532   -37496   -37467   -37440   -37413   -37390   -37366   -37338 
  -37300   -37251   -37197   -37147   -37104   -37064   -37018   -36973 
  -36936   -36911   -36898   -36887   -36884   -36888   -36902   -36925 
  -36950   -36972   -37000   -37034   -37069   -37114   -37161   -37210 
  -37264   -37308   -37336   -37363   -37389   -37411   -37439   -37469 
  -37489   -37509   -37519   -37520   -37531   -37554   -37570   -37582 
  -37597   -37617   -37642   -37665   -37677   -37682   -37683   -37682 
  -37686   -37690   -37681   -37659   -37633   -37612   -37588   -37559 
  -37530   -37494   -37450   -37401   -37353   -37304   -37258   -37201 
  -37129   -37053   -36981   -36910   -36840   -36774   -36709   -36641 
  -36578   -36522   -36467   -36413   -36374   -36347   -36316   -36286 
  -36262   -36246   -36242   -36244   -36252   -36255   -36258   -36270 
  -36285   -36296   -36302   -36308   -36316   -36333   -36362   -36387 
  -36409   -36432   -36458   -36487   -36528   -36582   -36640   -36693 
  -36747   -36807   -36863   -36907   -36952   -37004   -37064   -37120 
  -37169   -37214   -37257   -37295   -37331   -37372   -37415   -37453 
  -37481   -37509   -37539   -37571   -37606   -37642   -37685   -37735 
  -37778   -37812   -37848   -37891   -37939   -37984   -38025   -38063 
  -38087   -38107   -38124   -38129   -38125   -38117   -38103   -38083 
  -38064   -38043   -38021   -38007   -38002   -38001   -37997   -37993 
  -37987   -37979   -37974   -37974   -37974   -37970   -37966   -37957 
  -37935   -37910   -37894   -37876   -37858   -37828   -37779   -37731 
  -37682   -37628   -37569   -37500   -37423   -37345   -37282   -37233 
  -37174   -37114   -37061   -37012   -36960   -36909   -36861   -36809 
  -36753   -36694   -36630   -36574   -36522   -36468   -36417   -36371 
  -36325   -36281   -36242   -36212   -36194   -36177   -36163   -36157 
  -36147   -36146   -36162   -36180   -36193   -36216   -36247   -36286 
  -36337   -36391   -36444   -36494   -36535   -36574   -36620   -36666 
  -36713   -36751   -36778   -36813   -36859   -36899   -36925   -36940 
  -36956   -36973   -36995   -37021   -37042   -37061   -37075   -37071 
  -37061   -37056   -37045   -37026   -37004   -36988   -36972   -36948 
  -36926   -36907   -36876   -36841   -36814   -36792   -36774   -36752 
  -36721   -36688   -36657   -36637   -36637   -36636   -36624   -36621 
  -36620   -36614   -36616   -36620   -36625   -36643   -36666   -36682 
  -36690   -36702   -36730   -36767   -36799   -36829   -36867   -36918 
  -36979   -37037   -37087   -37133   -37174   -37212   -37247   -37285 
  -37327   -37366   -37405   -37442   -37474   -37511   -37551   -37585 
  -37617   -37652   -37685   -37714   -37748   -37777   -37794   -37813 
  -37833   -37847   -37852   -37854   -37854   -37848   -37835   -37822 
  -37808   -37787   -37766   -37741   -37717   -37690   -37654   -37608 
  -37562   -37521   -37481   -37447   -37422   -37393   -37363   -37345 
  -37327   -37307   -37288   -37266   -37243   -37222   -37208   -37197 
  -37188   -37180   -37174   -37165   -37154   -37141   -37126   -37115 
  -37104   -37081   -37052   -37029   -37008   -36979   -36948   -36931 
  -36925   -36911   -36895   -36888   -36884   -36880   -36877   -36880 
  -36891   -36903   -36914   -36915   -36910   -36900   -36894   -36886 
  -36875   -36865   -36859   -36850   -36841   -36833   -36823   -36809 
  -36794   -36780   -36769   -36768   -36772   -36779   -36786   -36788 
  -36790   -36798   -36810   -36819   -36822   -36826   -36836   -36855 
  -36868   -36865   -36864   -36872   -36872   -36869   -36873   -36876 
  -36879   -36883   -36896   -36913   -36921   -36915   -36907   -36906 
  -36909   -36909   -36907   -36899   -36887   -36876   -36865   -36859 
  -36857   -36853   -36844   -36840   -36837   -36830   -36828   -36823 
  -36818   -36819   -36825   -36829   -36840   -36859   -36871   -36882 
  -36898   -36907   -36917   -36936   -36952   -36953   -36950   -36946 
  -36944   -36946   -36942   -36925   -36911   -36909   -36909   -36907 
  -36900   -36895   -36899   -36906   -36902   -36896   -36894   -36883 
  -36869   -36864   -36860   -36856   -36861   -36876   -36892   -36914 
  -36937   -36963   -36991   -37014   -37031   -37065   -37114   -37157 
  -37191   -37227   -37264   -37301   -37341   -37381   -37423   -37466 
  -37496   -37519   -37542   -37561   -37573   -37585   -37597   -37601 
  -37602   -37606   -37602   -37590   -37581   -37571   -37558   -37536 
  -37509   -37482   -37461   -37438   -37409   -37377   -37343   -37311 
  -37280   -37254   -37234   -37211   -37179   -37154   -37138   -37126 
  -37119   -37118   -37120   -37131   -37138   -37149   -37169   -37191 
  -37210   -37233   -37258   -37287   -37314   -37343   -37381   -37412 
  -37439   -37474   -37517   -37555   -37584   -37602   -37623   -37644 
  -37663   -37685   -37708   -37729   -37751   -37767   -37775   -37778 
  -37779   -37783   -37786   -37789   -37797   -37806   -37814   -37820 
  -37817   -37820   -37837   -37858   -37879   -37909   -37933   -37953 
  -37975   -37993   -38007   -38021   -38032   -38041   -38045   -38040 
  -38029   -38020   -38011   -37999   -37984   -37968   -37947   -37918 
  -37886   -37854   -37813   -37771   -37732   -37687   -37644   -37604 
  -37563   -37520   -37480   -37440   -37404   -37372   -37336   -37301 
  -37268   -37237   -37207   -37180   -37156   -37130   -37098   -37064 
  -37031   -37000   -36972   -36948   -36917   -36888   -36869   -36852 
  -36832   -36815   -36803   -36796   -36791   -36782   -36771   -36760 
  -36751   -36744   -36745   -36755   -36755   -36744   -36728   -36707 
  -36691   -36678   -36661   -36643   -36628   -36620   -36612   -36597 
  -36589   -36591   -36602   -36614   -36632   -36661   -36697   -36733 
  -36772   -36811   -36850   -36891   -36927   -36969   -37017   -37065 
  -37110   -37146   -37183   -37222   -37258   -37291   -37323   -37357 
  -37393   -37419   -37439   -37466   -37494   -37525   -37555   -37578 
  -37598   -37613   -37625   -37640   -37650   -37648   -37644   -37642 
  -37638   -37635   -37627   -37611   -37597   -37586   -37574   -37569 
  -37562   -37548   -37535   -37521   -37503   -37480   -37453   -37428 
  -37413   -37395   -37361   -37316   -37266   -37223   -37189   -37160 
  -37134   -37104   -37068   -37031   -36991   -36944   -36903   -36868 
  -36833   -36795   -36760   -36725   -36690   -36656   -36617   -36579 
  -36556   -36536   -36513   -36487   -36455   -36424   -36404   -36390 
  -36379   -36374   -36373   -36378   -36389   -36402   -36424   -36451 
  -36475   -36498   -36524   -36555   -36589   -36621   -36651   -36683 
  -36714   -36747   -36780   -36806   -36832   -36871   -36914   -36952 
  -36984   -37010   -37033   -37057   -37077   -37093   -37108   -37125 
  -37149   -37176   -37200   -37222   -37241   -37260   -37282   -37300 
  -37307   -37312   -37323   -37327   -37323   -37318   -37307   -37297 
  -37292   -37281   -37258   -37234   -37208   -37184   -37168   -37160 
  -37147   -37131   -37114   -37099   -37099   -37111   -37120   -37130 
  -37147   -37173   -37211   -37255   -37295   -37327   -37359   -37388 
  -37411   -37436   -37462   -37481   -37500   -37517   -37524   -37521 
  -37508   -37488   -37470   -37455   -37446   -37436   -37413   -37381 
  -37359   -37349   -37345   -37343   -37350   -37358   -37361   -37366 
  -37374   -37380   -37388   -37399   -37399   -37397   -37395   -37392 
  -37385   -37373   -37363   -37359   -37350   -37338   -37334   -37334 
  -37330   -37319   -37301   -37277   -37255   -37231   -37201   -37172 
  -37146   -37119   -37093   -37077   -37066   -37053   -37039   -37027 
  -37018   -37012   -37014   -37015   -37023   -37035   -37048   -37060 
