Origin Time       2025/01/13 21:19:00
Lat.              31.8
Long.             131.6
Depth. (km)       30
Mag.              6.9
Station Code      KGWH01
Station Lat.      34.2186
Station Long.     133.9493
Station Height(m) -27
Record Time       2025/01/13 21:20:46
Sampling Freq(Hz) 100Hz
Duration Time(s)  120
Dir.              2
Scale Factor      2942(gal)/8224139
Max. Acc. (gal)   0.521
Last Correction   2025/01/13 21:20:47
Memo.             
[...]
  -43255   -43222   -43276   -43341   -43383   -43398   -43362   -43306 
  -43262   -43205   -43164   -43183   -43224   -43229   -43198   -43150 
  -43127   -43177   -43268   -43313   -43287   -43239   -43186   -43141 
  -43132   -43167   -43220   -43275   -43348   -43426   -43449   -43410 
  -43376   -43368   -43335   -43272   -43225   -43195   -43135   -43040 
  -42969   -42957   -42989   -43032   -43090   -43159   -43202   -43228 
  -43287   -43384   -43464   -43480   -43453   -43429   -43395   -43328 
  -43232   -43132   -43067   -43073   -43116   -43147   -43163   -43170 
  -43175   -43214   -43285   -43325   -43357   -43440   -43544   -43611 
  -43653   -43667   -43618   -43533   -43449   -43356   -43268   -43214 
  -43210   -43248   -43289   -43312   -43356   -43418   -43443   -43409 
  -43367   -43379   -43464   -43579   -43669   -43700   -43671   -43621 
  -43586   -43537   -43463   -43402   -43360   -43335   -43362   -43445 
  -43524   -43565   -43609   -43648   -43619   -43557   -43526   -43488 
  -43414   -43366   -43351   -43306   -43245   -43254   -43328   -43401 
  -43449   -43483   -43487   -43453   -43386   -43283   -43164   -43078 
  -43051   -43058   -43055   -43035   -43039   -43070   -43093   -43109 
  -43137   -43166   -43201   -43247   -43285   -43301   -43297   -43278 
  -43271   -43287   -43312   -43332   -43336   -43312   -43282   -43256 
  -43182   -43065   -43012   -43070   -43181   -43294   -43384   -43437 
  -43457   -43445   -43394   -43337   -43333   -43378   -43432   -43482 
  -43544   -43614   -43642   -43617   -43548   -43413   -43271   -43248 
  -43332   -43401   -43413   -43420   -43425   -43384   -43321   -43290 
  -43237   -43113   -43004   -42989   -43038   -43093   -43123   -43137 
  -43200   -43302   -43380   -43430   -43456   -43409   -43320   -43295 
  -43349   -43406   -43443   -43471   -43498   -43532   -43587   -43648 
  -43699   -43741   -43748   -43696   -43640   -43613   -43590   -43560 
  -43546   -43583   -43683   -43787   -43839   -43861   -43858   -43787 
  -43672   -43584   -43537   -43533   -43555   -43530   -43455   -43379 
  -43310   -43241   -43198   -43198   -43218   -43240   -43274   -43313 
  -43340   -43353   -43367   -43384   -43402   -43407   -43393   -43374 
  -43382   -43410   -43422   -43438   -43506   -43588   -43610   -43569 
  -43506   -43441   -43417   -43463   -43534   -43579   -43583   -43552 
  -43511   -43490   -43467   -43425   -43429   -43495   -43546   -43559 
  -43572   -43595   -43619   -43653   -43677   -43672   -43644   -43606 
  -43560   -43509   -43484   -43524   -43578   -43565   -43525   -43541 
  -43576   -43563   -43538   -43569   -43627   -43634   -43564   -43451 
  -43344   -43275   -43251   -43247   -43249   -43281   -43326   -43298 
  -43168   -43056   -43059   -43139   -43231   -43312   -43356   -43330 
  -43254   -43181   -43163   -43221   -43310   -43345   -43298   -43255 
  -43301   -43382   -43410   -43401   -43390   -43370   -43348   -43336 
  -43345   -43394   -43459   -43514   -43569   -43602   -43568   -43495 
  -43457   -43486   -43556   -43580   -43514   -43438   -43411   -43402 
  -43414   -43447   -43429   -43370   -43336   -43305   -43239   -43191 
  -43201   -43229   -43237   -43190   -43083   -42971   -42923   -42947 
  -42997   -43040   -43092   -43137   -43135   -43112   -43121   -43133 
  -43106   -43052   -43006   -42977   -42973   -42994   -42996   -42946 
  -42886   -42873   -42912   -42982   -43052   -43101   -43135   -43160 
  -43177   -43197   -43217   -43227   -43248   -43282   -43294   -43285 
  -43281   -43267   -43213   -43159   -43148   -43151   -43141   -43146 
  -43167   -43193   -43224   -43240   -43220   -43156   -43083   -43082 
  -43155   -43222   -43245   -43227   -43177   -43112   -43051   -43002 
  -42978   -42982   -42970   -42909   -42824   -42757   -42720   -42703 
  -42692   -42711   -42755   -42773   -42754   -42742   -42741   -42709 
  -42654   -42610   -42592   -42607   -42649   -42699   -42730   -42727 
  -42723   -42743   -42750   -42731   -42719   -42714   -42718   -42747 
  -42778   -42799   -42831   -42862   -42862   -42857   -42869   -42867 
  -42832   -42797   -42776   -42753   -42757   -42796   -42835   -42871 
  -42923   -42978   -43028   -43097   -43193   -43272   -43285   -43231 
  -43160   -43120   -43121   -43139   -43132   -43098   -43063   -43056 
  -43089   -43119   -43096   -43075   -43114   -43160   -43135   -43044 
  -42954   -42904   -42880   -42854   -42839   -42865   -42911   -42957 
  -43024   -43113   -43168   -43173   -43162   -43147   -43128   -43117 
  -43109   -43102   -43123   -43175   -43235   -43272   -43298   -43322 
  -43337   -43343   -43337   -43313   -43290   -43298   -43335   -43349 
  -43321   -43287   -43285   -43306   -43330   -43359   -43391   -43432 
  -43467   -43463   -43421   -43390   -43387   -43382   -43362   -43335 
  -43309   -43286   -43259   -43236   -43239   -43268   -43313   -43348 
  -43357   -43351   -43348   -43351   -43364   -43402   -43443   -43457 
  -43460   -43470   -43478   -43478   -43456   -43414   -43391   -43413 
  -43467   -43542   -43626   -43668   -43638   -43603   -43634   -43698 
  -43745   -43764   -43754   -43729   -43706   -43665   -43584   -43507 
  -43478   -43476   -43475   -43482   -43501   -43514   -43511   -43515 
  -43540   -43571   -43594   -43605   -43592   -43548   -43471   -43384 
  -43317   -43274   -43256   -43283   -43322   -43340   -43355   -43353 
  -43322   -43303   -43309   -43317   -43324   -43336   -43347   -43341 
  -43310   -43274   -43240   -43195   -43147   -43114   -43106   -43129 
  -43159   -43166   -43191   -43248   -43266   -43224   -43183   -43162 
  -43135   -43110   -43110   -43133   -43173   -43206   -43209   -43205 
  -43227   -43249   -43259   -43291   -43351   -43389   -43375   -43337 
  -43349   -43428   -43495   -43502   -43480   -43429   -43343   -43268 
  -43232   -43213   -43201   -43205   -43217   -43212   -43197   -43175 
  -43127   -43074   -43056   -43055   -43027   -42988   -42974   -42982 
  -42985   -42990   -43019   -43058   -43097   -43127   -43129   -43117 
  -43119   -43127   -43129   -43141   -43160   -43168   -43173   -43210 
  -43264   -43272   -43231   -43205   -43251   -43337   -43375   -43348 
  -43325   -43329   -43326   -43317   -43320   -43333   -43335   -43320 
  -43318   -43336   -43360   -43389   -43406   -43414   -43416   -43403 
  -43375   -43335   -43299   -43293   -43287   -43249   -43218   -43232 
  -43259   -43270   -43267   -43256   -43251   -43254   -43260   -43252 
  -43225   -43205   -43221   -43256   -43295   -43351   -43425   -43484 
  -43503   -43497   -43486   -43487   -43509   -43546   -43587   -43619 
  -43649   -43669   -43680   -43706   -43729   -43733   -43745   -43761 
  -43749   -43740   -43753   -43735   -43676   -43630   -43592   -43538 
  -43502   -43494   -43461   -43426   -43443   -43445   -43387   -43351 
  -43398   -43471   -43501   -43487   -43437   -43383   -43380   -43424 
  -43474   -43519   -43540   -43536   -43560   -43613   -43618   -43569 
  -43532   -43532   -43546   -43538   -43506   -43483   -43491   -43502 
  -43472   -43440   -43452   -43494   -43537   -43580   -43592   -43568 
  -43557   -43582   -43614   -43645   -43676   -43681   -43669   -43660 
  -43641   -43621   -43617   -43599   -43538   -43455   -43387   -43367 
  -43397   -43441   -43471   -43472   -43461   -43480   -43511   -43502 
  -43474   -43464   -43461   -43465   -43499   -43541   -43565   -43590 
  -43621   -43642   -43645   -43634   -43615   -43600   -43609   -43637 
  -43668   -43698   -43718   -43719   -43699   -43679   -43649   -43583 
  -43495   -43420   -43352   -43286   -43228   -43187   -43151   -43104 
  -43065   -43052   -43031   -42970   -42920   -42921   -42939   -42935 
  -42932   -42925   -42873   -42812   -42800   -42812   -42830   -42873 
  -42927   -42958   -42962   -42947   -42930   -42942   -42973   -42986 
  -43008   -43059   -43112   -43156   -43185   -43148   -43089   -43067 
  -43044   -42997   -42998   -43067   -43119   -43119   -43101   -43081 
  -43062   -43047   -43028   -43028   -43069   -43117   -43146   -43162 
  -43159   -43108   -43027   -42962   -42907   -42866   -42865   -42862 
  -42834   -42826   -42839   -42843   -42861   -42909   -42955   -43002 
  -43066   -43127   -43158   -43144   -43112   -43120   -43170   -43201 
  -43202   -43197   -43168   -43132   -43133   -43160   -43174   -43193 
  -43229   -43236   -43227   -43243   -43255   -43248   -43258   -43286 
  -43302   -43301   -43289   -43274   -43262   -43260   -43282   -43320 
  -43351   -43356   -43348   -43355   -43360   -43356   -43374   -43405 
  -43421   -43437   -43467   -43507   -43544   -43575   -43610   -43630 
  -43626   -43625   -43627   -43621   -43606   -43580   -43560   -43555 
  -43553   -43542   -43524   -43498   -43482   -43487   -43490   -43459 
  -43416   -43401   -43398   -43374   -43337   -43306   -43279   -43255 
  -43228   -43195   -43164   -43141   -43116   -43087   -43085   -43116 
  -43154   -43167   -43174   -43179   -43158   -43113   -43079   -43085 
  -43123   -43150   -43139   -43117   -43102   -43086   -43077   -43092 
  -43123   -43151   -43181   -43208   -43216   -43225   -43275   -43349 
  -43409   -43447   -43464   -43478   -43502   -43525   -43546   -43592 
  -43646   -43688   -43730   -43756   -43762   -43777   -43789   -43779 
  -43773   -43788   -43792   -43780   -43762   -43744   -43733   -43734 
  -43731   -43741   -43779   -43816   -43843   -43868   -43893   -43924 
  -43951   -43954   -43951   -43970   -43987   -43981   -43976   -43974 
  -43974   -44000   -44035   -44032   -43981   -43924   -43881   -43831 
  -43760   -43692   -43653   -43633   -43607   -43576   -43540   -43484 
  -43411   -43341   -43259   -43163   -43092   -43035   -42974   -42936 
  -42915   -42894   -42881   -42858   -42812   -42769   -42726   -42687 
  -42673   -42681   -42689   -42689   -42695   -42714   -42723   -42714 
  -42730   -42786   -42853   -42925   -43004   -43052   -43067   -43087 
  -43131   -43174   -43208   -43241   -43271   -43294   -43313   -43326 
  -43351   -43386   -43376   -43333   -43310   -43310   -43318   -43339 
  -43370   -43401   -43407   -43398   -43405   -43425   -43441   -43468 
  -43509   -43549   -43580   -43590   -43583   -43586   -43591   -43590 
  -43587   -43587   -43582   -43572   -43567   -43556   -43541   -43529 
  -43521   -43513   -43498   -43494   -43521   -43551   -43569   -43602 
  -43636   -43649   -43654   -43664   -43661   -43640   -43629   -43640 
  -43656   -43673   -43688   -43695   -43702   -43706   -43710   -43726 
  -43741   -43731   -43702   -43687   -43692   -43688   -43665   -43640 
  -43622   -43619   -43621   -43614   -43591   -43551   -43492   -43433 
  -43402   -43382   -43349   -43317   -43297   -43285   -43282   -43281 
  -43268   -43260   -43254   -43231   -43206   -43187   -43170   -43162 
  -43160   -43156   -43164   -43193   -43216   -43221   -43232   -43254 
  -43263   -43252   -43239   -43243   -43270   -43291   -43285   -43285 
  -43312   -43349   -43375   -43383   -43391   -43406   -43401   -43386 
  -43391   -43409   -43413   -43411   -43410   -43390   -43366   -43364 
  -43366   -43359   -43363   -43367   -43352   -43335   -43340   -43345 
  -43333   -43339   -43371   -43393   -43411   -43467   -43544   -43603 
  -43644   -43681   -43704   -43704   -43706   -43703   -43659   -43578 
  -43510   -43459   -43393   -43297   -43181   -43056   -42950   -42853 
  -42765   -42697   -42639   -42579   -42522   -42484   -42476   -42489 
  -42492   -42484   -42481   -42496   -42535   -42592   -42657   -42719 
  -42772   -42823   -42886   -42952   -43009   -43059   -43120   -43195 
  -43287   -43401   -43507   -43582   -43632   -43667   -43707   -43775 
  -43831   -43850   -43860   -43869   -43858   -43835   -43830   -43830 
  -43808   -43772   -43745   -43717   -43668   -43614   -43579   -43561 
  -43545   -43524   -43506   -43492   -43463   -43402   -43325   -43260 
  -43217   -43179   -43133   -43078   -43017   -42966   -42940   -42932 
  -42921   -42916   -42924   -42920   -42896   -42885   -42888   -42884 
  -42885   -42900   -42912   -42911   -42919   -42928   -42912   -42894 
  -42898   -42896   -42885   -42898   -42911   -42894   -42890   -42924 
  -42954   -42970   -42989   -43000   -43002   -43019   -43060   -43119 
  -43170   -43204   -43225   -43244   -43267   -43293   -43318   -43341 
  -43366   -43395   -43440   -43490   -43514   -43519   -43526   -43530 
  -43525   -43519   -43529   -43546   -43545   -43530   -43525   -43521 
  -43517   -43528   -43534   -43524   -43524   -43537   -43530   -43492 
  -43447   -43406   -43360   -43309   -43287   -43290   -43281   -43259 
  -43220   -43144   -43066   -43020   -42978   -42927   -42894   -42867 
  -42830   -42804   -42805   -42823   -42838   -42844   -42842   -42828 
  -42819   -42828   -42847   -42847   -42832   -42838   -42859   -42867 
  -42863   -42854   -42843   -42823   -42790   -42773   -42781   -42796 
  -42805   -42808   -42809   -42830   -42865   -42896   -42923   -42950 
  -42981   -43035   -43096   -43137   -43178   -43233   -43279   -43310 
  -43348   -43390   -43422   -43449   -43480   -43515   -43544   -43557 
  -43560   -43564   -43563   -43548   -43529   -43515   -43503   -43501 
  -43509   -43521   -43545   -43592   -43636   -43668   -43706   -43764 
  -43839   -43918   -43980   -44015   -44038   -44074   -44143   -44234 
  -44297   -44328   -44377   -44460   -44545   -44598   -44628   -44658 
  -44691   -44718   -44744   -44766   -44771   -44757   -44734   -44713 
  -44679   -44618   -44544   -44470   -44396   -44312   -44219   -44118 
  -44000   -43872   -43740   -43618   -43513   -43426   -43348   -43275 
  -43197   -43106   -43024   -42952   -42876   -42820   -42796   -42772 
  -42751   -42759   -42763   -42739   -42715   -42708   -42712   -42734 
  -42774   -42819   -42863   -42903   -42940   -42998   -43063   -43108 
  -43147   -43200   -43255   -43317   -43387   -43434   -43470   -43529 
  -43588   -43613   -43622   -43648   -43686   -43719   -43750   -43780 
  -43804   -43831   -43848   -43843   -43842   -43853   -43854   -43846 
  -43853   -43864   -43843   -43800   -43757   -43710   -43667   -43638 
  -43606   -43567   -43541   -43521   -43482   -43428   -43387   -43367 
  -43336   -43297   -43272   -43247   -43200   -43147   -43108   -43089 
  -43089   -43096   -43101   -43086   -43051   -43016   -42977   -42931 
  -42905   -42920   -42938   -42943   -42962   -42975   -42957   -42925 
  -42907   -42894   -42880   -42874   -42889   -42908   -42923   -42943 
  -42967   -42982   -42981   -42986   -43021   -43069   -43102   -43141 
  -43201   -43262   -43318   -43390   -43460   -43497   -43492   -43472 
  -43461   -43478   -43507   -43529   -43548   -43568   -43572   -43553 
  -43510   -43444   -43386   -43359   -43340   -43317   -43310   -43306 
  -43270   -43220   -43186   -43154   -43127   -43117   -43105   -43085 
  -43071   -43054   -43040   -43052   -43075   -43083   -43082   -43087 
  -43101   -43113   -43112   -43100   -43096   -43106   -43112   -43098 
  -43085   -43083   -43078   -43058   -43048   -43060   -43086   -43123 
  -43163   -43208   -43249   -43274   -43299   -43343   -43391   -43447 
  -43506   -43548   -43571   -43591   -43606   -43613   -43634   -43683 
  -43738   -43789   -43821   -43849   -43895   -43938   -43978   -44035 
  -44085   -44108   -44130   -44176   -44228   -44274   -44320   -44344 
  -44329   -44305   -44294   -44290   -44280   -44244   -44194   -44146 
  -44100   -44055   -44015   -43969   -43929   -43900   -43876   -43852 
  -43835   -43829   -43812   -43775   -43740   -43726   -43718   -43700 
  -43669   -43626   -43573   -43510   -43437   -43359   -43285   -43221 
  -43160   -43104   -43055   -43006   -42951   -42898   -42844   -42781 
  -42715   -42655   -42588   -42530   -42499   -42487   -42488   -42507 
  -42549   -42611   -42689   -42773   -42854   -42942   -43048   -43170 
  -43294   -43416   -43542   -43676   -43799   -43900   -43991   -44062 
  -44105   -44143   -44174   -44184   -44188   -44208   -44226   -44217 
  -44184   -44134   -44076   -44018   -43969   -43935   -43899   -43856 
  -43812   -43767   -43721   -43683   -43661   -43654   -43644   -43627 
  -43623   -43632   -43649   -43679   -43699   -43703   -43702   -43690 
  -43672   -43657   -43641   -43615   -43582   -43555   -43544   -43528 
  -43487   -43441   -43399   -43353   -43312   -43275   -43235   -43202 
  -43177   -43148   -43120   -43108   -43104   -43086   -43054   -43023 
  -42998   -42982   -42974   -42961   -42942   -42939   -42927   -42894 
  -42881   -42885   -42877   -42870   -42880   -42884   -42886   -42907 
  -42934   -42946   -42961   -43001   -43054   -43100   -43143   -43171 
  -43189   -43205   -43220   -43231   -43240   -43236   -43214   -43187 
  -43159   -43124   -43085   -43063   -43070   -43083   -43082   -43074 
  -43074   -43085   -43097   -43110   -43129   -43146   -43152   -43162 
  -43175   -43168   -43150   -43135   -43116   -43083   -43052   -43029 
  -43001   -42973   -42957   -42943   -42927   -42919   -42924   -42952 
  -42985   -43009   -43035   -43071   -43114   -43171   -43243   -43314 
  -43378   -43436   -43495   -43546   -43592   -43636   -43660   -43654 
  -43632   -43587   -43524   -43468   -43437   -43410   -43355   -43281 
  -43218   -43173   -43123   -43056   -42985   -42928   -42881   -42828 
  -42780   -42749   -42723   -42696   -42670   -42653   -42662   -42688 
  -42708   -42741   -42792   -42831   -42846   -42855   -42862   -42870 
  -42889   -42916   -42943   -42973   -43001   -43033   -43073   -43102 
  -43116   -43127   -43140   -43160   -43182   -43190   -43179   -43168 
  -43160   -43147   -43136   -43129   -43120   -43097   -43060   -43040 
  -43050   -43079   -43113   -43137   -43143   -43141   -43150   -43160 
  -43163   -43170   -43181   -43182   -43168   -43144   -43116   -43100 
  -43105   -43116   -43121   -43132   -43146   -43146   -43136   -43120 
  -43094   -43063   -43023   -42970   -42917   -42870   -42826   -42790 
  -42765   -42745   -42732   -42726   -42727   -42735   -42732   -42735 
  -42762   -42801   -42847   -42911   -42988   -43062   -43110   -43140 
  -43171   -43198   -43209   -43216   -43240   -43278   -43312   -43329 
  -43335   -43339   -43344   -43340   -43341   -43356   -43376   -43399 
  -43426   -43445   -43463   -43486   -43497   -43488   -43478   -43461 
  -43429   -43380   -43313   -43240   -43166   -43082   -43002   -42943 
  -42897   -42862   -42844   -42839   -42836   -42835   -42831   -42828 
  -42828   -42817   -42800   -42805   -42840   -42878   -42907   -42934 
  -42973   -43019   -43065   -43113   -43175   -43240   -43295   -43353 
  -43430   -43519   -43596   -43663   -43740   -43815   -43873   -43920 
  -43964   -43992   -44005   -44015   -44010   -43980   -43935   -43902 
  -43883   -43858   -43827   -43810   -43796   -43789   -43810   -43842 
  -43868   -43896   -43931   -43968   -44000   -44034   -44077   -44115 
  -44142   -44173   -44199   -44201   -44203   -44231   -44267   -44288 
  -44308   -44338   -44348   -44352   -44385   -44427   -44459   -44479 
  -44490   -44487   -44470   -44446   -44431   -44408   -44366   -44316 
  -44259   -44205   -44163   -44111   -44043   -43978   -43907   -43834 
  -43779   -43733   -43683   -43641   -43611   -43580   -43534   -43474 
