Origin Time       2025/01/13 21:19:00
Lat.              31.8
Long.             131.6
Depth. (km)       30
Mag.              6.9
Station Code      KGWH02
Station Lat.      34.1980
Station Long.     133.7081
Station Height(m) -195
Record Time       2025/01/13 21:20:28
Sampling Freq(Hz) 100Hz
Duration Time(s)  146
Dir.              1
Scale Factor      2942(gal)/8224139
Max. Acc. (gal)   0.985
Last Correction   2025/01/13 21:20:28
Memo.             
[...]
   58634    58652    58719    58747    58656    58468    58280    58163 
   58133    58174    58259    58386    58531    58660    58785    58954 
   59188    59455    59675    59795    59836    59829    59795    59761 
   59718    59655    59576    59493    59422    59340    59227    59188 
   59312    59520    59707    59836    59900    59957    60061    60189 
   60270    60258    60157    60018    59886    59776    59698    59676 
   59706    59745    59795    59894    60012    60064    60025    59976 
   59965    59940    59864    59782    59745    59719    59664    59598 
   59555    59552    59568    59564    59529    59443    59296    59147 
   59054    59030    59059    59101    59089    59005    58889    58757 
   58658    58654    58698    58722    58765    58843    58897    58900 
   58905    58974    59093    59197    59263    59289    59290    59320 
   59394    59466    59512    59532    59526    59485    59405    59340 
   59327    59319    59277    59242    59267    59327    59367    59377 
   59360    59343    59368    59429    59462    59428    59346    59220 
   59057    58896    58764    58660    58571    58488    58446    58455 
   58448    58429    58494    58664    58812    58850    58823    58789 
   58769    58785    58815    58812    58773    58725    58711    58749 
   58816    58909    59017    59117    59205    59293    59355    59324 
   59200    59080    59034    59046    59081    59127    59194    59274 
   59339    59352    59335    59383    59526    59671    59778    59881 
   59971    60000    59968    59902    59825    59760    59733    59776 
   59873    59953    59980    59956    59872    59744    59620    59525 
   59468    59462    59501    59528    59501    59436    59371    59335 
   59332    59360    59439    59533    59557    59481    59350    59228 
   59154    59092    58972    58819    58710    58668    58723    58865 
   58984    59026    59051    59108    59177    59224    59235    59211 
   59152    59069    58992    58950    58947    58976    58995    58995 
   59049    59150    59219    59263    59305    59336    59383    59431 
   59439    59420    59394    59348    59242    59097    59022    59053 
   59134    59232    59308    59332    59348    59409    59491    59540 
   59545    59555    59607    59722    59888    60058    60201    60297 
   60335    60335    60326    60335    60355    60380    60415    60385 
   60226    60031    59917    59877    59852    59795    59741    59721 
   59703    59634    59509    59382    59343    59409    59486    59472 
   59367    59255    59212    59211    59173    59090    58985    58884 
   58824    58789    58726    58650    58603    58561    58506    58461 
   58446    58429    58390    58347    58314    58290    58284    58325 
   58413    58531    58658    58773    58858    58928    59028    59163 
   59274    59309    59300    59323    59421    59564    59719    59879 
   60004    60072    60131    60224    60326    60420    60517    60624 
   60750    60897    61038    61142    61199    61218    61225    61234 
   61229    61199    61159    61103    61025    60928    60822    60731 
   60654    60548    60394    60235    60142    60131    60157    60156 
   60079    59945    59826    59761    59732    59707    59682    59647 
   59602    59549    59459    59308    59136    58995    58881    58807 
   58758    58672    58531    58361    58213    58153    58163    58168 
   58186    58261    58371    58488    58585    58603    58533    58440 
   58369    58336    58345    58384    58441    58518    58608    58710 
   58801    58847    58842    58847    58904    59005    59128    59242 
   59319    59354    59375    59422    59509    59610    59721    59838 
   59890    59825    59701    59586    59497    59433    59394    59366 
   59343    59325    59302    59273    59273    59341    59449    59525 
   59560    59598    59667    59763    59842    59869    59879    59902 
   59908    59867    59772    59657    59570    59516    59502    59540 
   59587    59582    59533    59470    59400    59351    59340    59327 
   59286    59225    59139    59055    58993    58938    58920    58982 
   59082    59167    59235    59282    59298    59302    59323    59351 
   59385    59444    59522    59601    59682    59773    59861    59918 
   59961    60015    60066    60097    60104    60085    60056    60043 
   60070    60133    60199    60227    60218    60214    60231    60234 
   60192    60111    60012    59907    59815    59753    59702    59648 
   59609    59563    59468    59350    59266    59219    59152    59053 
   58951    58860    58776    58712    58671    58629    58592    58610 
   58683    58742    58750    58733    58699    58650    58610    58583 
   58548    58503    58483    58510    58558    58614    58679    58741 
   58804    58877    58957    59044    59112    59148    59202    59300 
   59424    59557    59667    59741    59794    59807    59787    59779 
   59802    59826    59815    59778    59765    59787    59790    59771 
   59768    59760    59702    59584    59429    59297    59200    59105 
   59023    58969    58912    58837    58756    58693    58650    58590 
   58511    58464    58445    58432    58445    58507    58618    58750 
   58889    59038    59190    59313    59363    59346    59321    59328 
   59374    59462    59555    59607    59628    59651    59680    59710 
   59767    59886    60066    60274    60462    60602    60694    60766 
   60828    60871    60898    60907    60893    60841    60754    60690 
   60693    60700    60660    60604    60534    60451    60370    60259 
   60095    59929    59825    59780    59748    59714    59679    59643 
   59611    59560    59444    59274    59113    59008    58912    58779 
   58612    58422    58221    58024    57838    57727    57746    57823 
   57883    57946    58025    58070    58059    58047    58055    58062 
   58063    58054    58047    58085    58164    58229    58252    58274 
   58351    58463    58564    58662    58777    58904    59034    59159 
   59285    59416    59539    59651    59760    59857    59937    60003 
   60060    60138    60243    60339    60412    60488    60593    60712 
   60809    60872    60924    60970    60993    60991    60974    60937 
   60882    60798    60670    60517    60393    60277    60099    59877 
   59706    59584    59449    59304    59169    59016    58842    58681 
   58541    58418    58329    58283    58301    58376    58467    58552 
   58612    58634    58645    58661    58669    58683    58726    58788 
   58849    58903    58951    59022    59135    59275    59432    59618 
   59832    60076    60353    60620    60856    61082    61265    61375 
   61433    61441    61381    61279    61152    61014    60906    60831 
   60755    60654    60528    60376    60200    60033    59883    59728 
   59584    59470    59363    59260    59173    59065    58900    58708 
   58536    58409    58317    58222    58108    58002    57936    57889 
   57831    57753    57640    57478    57307    57192    57145    57138 
   57159    57223    57333    57454    57550    57600    57613    57605 
   57580    57554    57547    57576    57653    57800    58018    58259 
   58473    58664    58847    59015    59140    59212    59258    59321 
   59437    59614    59834    60085    60381    60698    60979    61183 
   61304    61356    61376    61399    61431    61477    61539    61601 
   61622    61581    61499    61383    61236    61074    60917    60767 
   60623    60484    60318    60110    59913    59761    59628    59493 
   59360    59247    59171    59105    58988    58814    58649    58531 
   58438    58347    58259    58175    58124    58151    58216    58243 
   58230    58213    58197    58189    58186    58176    58166    58174 
   58203    58247    58309    58407    58541    58681    58810    58931 
   59036    59119    59189    59240    59238    59177    59096    59023 
   58984    59000    59059    59135    59212    59269    59294    59297 
   59298    59297    59274    59240    59217    59189    59136    59069 
   59004    58963    58973    59032    59112    59192    59278    59373 
   59433    59416    59346    59274    59204    59108    58982    58861 
   58799    58822    58909    59039    59211    59410    59606    59760 
   59867    59953    60070    60237    60420    60598    60804    61041 
   61258    61420    61550    61665    61758    61815    61836    61835 
   61809    61766    61735    61728    61719    61696    61657    61597 
   61524    61439    61345    61267    61229    61190    61092    60944 
   60772    60563    60304    60011    59698    59386    59096    58831 
   58608    58442    58320    58233    58162    58075    57962    57805 
   57601    57395    57219    57084    56984    56903    56835    56797 
   56812    56864    56943    57053    57211    57416    57634    57844 
   58059    58276    58487    58692    58888    59053    59186    59323 
   59482    59653    59800    59903    59977    60064    60170    60278 
   60384    60494    60594    60667    60704    60675    60589    60494 
   60421    60358    60299    60232    60147    60073    60041    60037 
   60022    59981    59925    59867    59833    59832    59825    59787 
   59752    59749    59772    59800    59800    59737    59629    59520 
   59429    59352    59274    59198    59127    59067    59053    59096 
   59155    59192    59211    59236    59265    59292    59314    59316 
   59287    59247    59193    59116    59032    58946    58846    58752 
   58702    58712    58741    58725    58646    58553    58498    58509 
   58598    58743    58896    59038    59193    59355    59502    59648 
   59787    59899    59994    60080    60149    60188    60180    60143 
   60129    60138    60133    60112    60092    60072    60037    59977 
   59900    59840    59815    59800    59769    59715    59652    59597 
   59570    59586    59620    59640    59663    59719    59823    59931 
   59987    60004    60019    60011    59949    59849    59729    59601 
   59482    59379    59287    59197    59109    59054    59047    59088 
   59155    59219    59286    59373    59468    59556    59610    59611 
   59593    59590    59613    59638    59621    59545    59460    59404 
   59356    59287    59177    59031    58878    58739    58621    58530 
   58446    58351    58271    58220    58186    58164    58135    58090 
   58048    58017    57977    57906    57817    57750    57708    57661 
   57624    57618    57646    57703    57770    57850    57954    58050 
   58126    58207    58274    58311    58359    58441    58560    58698 
   58804    58889    59004    59121    59206    59278    59344    59390 
   59424    59463    59508    59570    59668    59806    59958    60106 
   60220    60312    60424    60552    60643    60671    60648    60608 
   60569    60523    60481    60474    60525    60633    60793    60991 
   61217    61420    61561    61609    61549    61396    61202    60991 
   60766    60525    60284    60056    59848    59659    59479    59304 
   59146    59027    58941    58864    58787    58716    58648    58573 
   58507    58469    58467    58486    58502    58511    58499    58432 
   58293    58099    57883    57670    57488    57379    57366    57430 
   57550    57708    57855    57970    58067    58152    58210    58245 
   58270    58288    58295    58295    58303    58299    58268    58233 
   58230    58276    58359    58460    58576    58711    58862    59023 
   59189    59350    59497    59637    59778    59914    60050    60205 
   60376    60546    60717    60903    61103    61294    61449    61555 
   61628    61692    61750    61789    61789    61758    61715    61663 
   61608    61560    61507    61438    61349    61226    61065    60887 
   60718    60575    60446    60320    60191    60056    59914    59763 
   59621    59508    59401    59304    59273    59304    59335    59339 
   59333    59332    59323    59289    59221    59143    59058    58977 
   58914    58854    58789    58746    58746    58769    58764    58719 
   58650    58568    58492    58421    58347    58283    58234    58190 
   58145    58114    58118    58166    58259    58391    58507    58575 
   58622    58662    58689    58725    58789    58888    59013    59158 
   59293    59391    59459    59506    59532    59544    59549    59552 
   59551    59548    59545    59537    59524    59509    59497    59489 
   59474    59452    59427    59386    59321    59243    59144    59000 
   58834    58673    58510    58345    58202    58101    58060    58077 
   58104    58109    58124    58160    58170    58122    58040    57942 
   57836    57773    57775    57819    57897    58028    58193    58353 
   58499    58623    58712    58772    58814    58861    58950    59088 
   59220    59314    59390    59474    59572    59674    59775    59886 
   59998    60099    60199    60305    60426    60559    60682    60764 
   60805    60813    60808    60813    60843    60890    60930    60964 
   61017    61088    61153    61187    61184    61184    61215    61252 
   61263    61258    61261    61268    61261    61231    61183    61132 
   61091    61041    60948    60841    60772    60727    60669    60604 
   60551    60511    60474    60432    60392    60372    60361    60340 
   60312    60277    60228    60157    60050    59918    59782    59632 
   59456    59262    59058    58845    58652    58490    58336    58160 
   57958    57753    57573    57414    57260    57114    56983    56866 
   56774    56708    56654    56629    56650    56702    56781    56876 
   56974    57056    57107    57136    57183    57250    57327    57419 
   57526    57630    57717    57802    57931    58132    58375    58612 
   58842    59082    59324    59547    59732    59880    60014    60138 
   60224    60288    60370    60478    60583    60670    60714    60716 
   60700    60671    60615    60548    60508    60496    60493    60496 
   60516    60561    60613    60671    60741    60822    60910    60993 
   61056    61076    61049    61007    60970    60939    60917    60882 
   60802    60690    60582    60484    60378    60274    60201    60174 
   60170    60161    60139    60110    60049    59946    59834    59734 
   59634    59533    59437    59347    59240    59109    58973    58850 
   58750    58676    58615    58560    58507    58446    58375    58306 
   58253    58210    58179    58163    58135    58075    58020    57982 
   57940    57885    57827    57778    57751    57751    57761    57775 
   57790    57794    57805    57840    57901    57971    58044    58122 
   58210    58315    58432    58542    58645    58749    58874    59028 
   59198    59368    59524    59652    59742    59803    59841    59854 
   59867    59918    60010    60112    60208    60286    60331    60358 
   60374    60367    60326    60258    60184    60106    60022    59933 
   59834    59726    59624    59540    59455    59359    59258    59148 
   59049    58990    58974    58980    58989    59007    59050    59120 
   59196    59269    59339    59409    59495    59593    59672    59730 
   59786    59834    59873    59922    59981    60034    60076    60116 
   60157    60189    60231    60286    60330    60353    60361    60357 
   60351    60346    60300    60199    60087    59995    59910    59822 
   59756    59721    59684    59647    59624    59597    59566    59548 
   59520    59459    59379    59305    59259    59248    59258    59278 
   59308    59339    59356    59360    59366    59371    59371    59378 
   59398    59435    59483    59528    59556    59589    59630    59660 
   59679    59697    59709    59715    59728    59737    59737    59730 
   59718    59676    59602    59512    59400    59265    59123    58999 
   58903    58823    58756    58708    58684    58666    58633    58600 
   58611    58657    58692    58719    58756    58781    58789    58799 
   58810    58814    58824    58851    58889    58931    58965    58986 
   59011    59062    59146    59240    59336    59414    59449    59448 
   59451    59455    59444    59432    59422    59412    59404    59397 
   59381    59371    59382    59401    59413    59417    59413    59402 
   59390    59377    59360    59333    59294    59262    59250    59248 
   59250    59262    59302    59358    59391    59395    59390    59377 
   59363    59351    59336    59316    59287    59259    59240    59224 
   59197    59162    59109    59034    58954    58895    58864    58862 
   58895    58942    58978    59008    59030    59042    59071    59152 
   59259    59360    59454    59509    59494    59427    59351    59270 
   59184    59109    59061    59032    59020    59028    59054    59084 
   59107    59130    59159    59206    59274    59341    59389    59416 
   59436    59458    59467    59466    59468    59448    59374    59282 
   59221    59179    59136    59101    59081    59078    59108    59165 
   59225    59292    59375    59472    59566    59628    59649    59644 
   59611    59551    59472    59381    59286    59196    59109    59031 
   58980    58965    58955    58923    58873    58808    58725    58625 
   58531    58469    58433    58407    58396    58415    58450    58482 
   58502    58533    58600    58689    58776    58858    58935    59007 
   59070    59131    59198    59260    59327    59422    59526    59614 
   59686    59742    59787    59826    59859    59892    59941    59995 
   60035    60054    60064    60066    60075    60100    60124    60131 
   60115    60072    60019    59973    59929    59877    59819    59753 
   59692    59653    59630    59618    59613    59610    59597    59576 
   59564    59568    59563    59516    59452    59414    59386    59347 
   59313    59285    59246    59211    59204    59228    59267    59309 
   59341    59367    59393    59401    59405    59435    59485    59532 
   59580    59621    59641    59665    59718    59791    59861    59925 
   59992    60066    60147    60214    60246    60251    60253    60251 
   60232    60201    60181    60156    60116    60077    60043    60004 
   59957    59911    59879    59854    59836    59821    59790    59736 
   59655    59548    59427    59314    59228    59158    59086    59022 
   58970    58904    58803    58685    58572    58477    58407    58364 
   58355    58386    58450    58529    58592    58638    58683    58739 
   58808    58868    58903    58926    58959    59004    59054    59115 
   59202    59321    59436    59524    59602    59697    59792    59881 
   59979    60080    60176    60257    60309    60335    60339    60319 
   60282    60241    60200    60161    60112    60043    59973    59926 
   59881    59822    59763    59721    59684    59628    59537    59431 
   59333    59255    59192    59131    59097    59111    59159    59215 
   59250    59259    59274    59301    59317    59314    59313    59313 
   59298    59274    59254    59244    59246    59232    59196    59169 
   59167    59169    59150    59101    59023    58945    58881    58838 
   58827    58842    58853    58841    58807    58774    58768    58791 
   58828    58870    58916    58965    59013    59047    59046    59011 
   58970    58936    58899    58849    58797    58762    58739    58720 
   58688    58637    58576    58518    58469    58441    58430    58418 
   58407    58418    58449    58477    58499    58521    58549    58587 
