Origin Time       2025/01/13 21:19:00
Lat.              31.8
Long.             131.6
Depth. (km)       30
Mag.              6.9
Station Code      KGWH03
Station Lat.      34.2700
Station Long.     134.1482
Station Height(m) 50
Record Time       2025/01/13 21:20:53
Sampling Freq(Hz) 100Hz
Duration Time(s)  120
Dir.              6
Scale Factor      7845(gal)/8223790
Max. Acc. (gal)   0.339
Last Correction   2025/01/13 21:20:54
Memo.             
[...]
     749      756      753      749      742      734      733      727 
     716      707      695      675      654      642      633      619 
     610      603      594      587      584      584      588      584 
     573      560      546      531      521      513      506      495 
     492      495      491      484      477      472      465      459 
     446      438      438      440      436      430      429      427 
     425      423      427      430      427      426      430      436 
     436      434      440      450      460      469      480      484 
     483      495      518      537      548      562      581      603 
     619      629      641      652      656      661      666      672 
     689      710      723      742      766      781      795      811 
     822      828      832      830      828      828      830      830 
     828      826      832      839      835      827      824      823 
     824      823      816      811      804      795      788      776 
     762      747      739      742      743      737      727      722 
     718      714      708      703      697      692      683      670 
     660      648      635      625      612      602      599      594 
     583      571      561      556      548      537      533      534 
     535      533      529      519      506      495      486      480 
     479      481      480      475      469      472      481      496 
     513      527      537      544      554      567      580      591 
     599      602      604      608      611      616      623      623 
     625      630      635      642      645      641      641      649 
     657      662      668      675      679      677      670      657 
     642      627      607      584      572      567      556      538 
     523      504      481      461      445      432      417      406 
     399      394      387      386      382      380      380      390 
     409      423      430      444      459      467      477      492 
     500      511      533      554      573      589      608      627 
     639      648      657      670      684      700      716      730 
     741      747      747      749      750      735      715      699 
     689      684      680      665      650      642      637      630 
     623      602      575      560      552      542      537      533 
     523      515      507      492      479      471      461      449 
     442      438      432      426      423      417      407      398 
     388      379      378      382      386      388      398      405 
     406      406      410      413      421      433      450      471 
     484      492      502      510      513      514      517      522 
     526      526      530      540      549      560      572      583 
     588      592      600      612      633      660      677      684 
     692      702      710      716      718      716      720      729 
     733      738      743      739      730      724      720      714 
     706      703      703      707      706      702      700      692 
     680      669      657      649      650      654      656      657 
     657      658      661      658      653      649      648      650 
     652      657      662      664      664      665      660      656 
     657      661      662      665      665      662      660      660 
     657      653      648      641      633      627      629      629 
     623      616      604      592      583      573      560      548 
     538      530      525      522      521      517      511      508 
     507      508      517      522      526      530      530      527 
     535      549      564      580      589      599      610      618 
     625      634      646      660      673      687      700      714 
     723      729      734      737      739      747      754      754 
     750      749      749      739      724      710      692      670 
     653      642      637      627      608      591      583      581 
     587      591      594      598      603      600      592      585 
     584      584      584      583      581      579      575      573 
     567      558      556      558      560      564      569      572 
     571      573      580      589      600      610      619      626 
     626      625      633      643      650      652      650      650 
     648      641      638      639      635      630      630      633 
     631      630      629      626      623      623      623      630 
     642      656      661      665      673      680      679      672 
     669      670      672      676      677      679      684      685 
     685      689      692      688      680      672      666      658 
     648      637      629      629      630      631      637      645 
     649      654      661      668      668      662      652      646 
     646      642      634      625      616      612      608      604 
     604      608      618      626      637      653      665      675 
     679      675      672      672      666      664      664      661 
     668      681      688      691      688      676      666      664 
     658      649      638      626      614      602      594      585 
     577      571      562      549      531      519      510      498 
     484      472      457      437      419      405      388      378 
     368      357      349      349      349      345      346      349 
     342      338      344      349      352      357      365      378 
     392      398      398      406      419      423      430      444 
     459      475      494      514      535      552      564      575 
     580      580      579      581      594      608      623      631 
     637      645      653      653      653      657      665      675 
     688      706      718      727      739      750      751      749 
     745      739      738      738      735      731      729      726 
     719      712      704      691      675      657      639      625 
     611      595      577      562      548      533      521      508 
     494      481      469      454      441      437      438      430 
     419      413      405      388      372      356      334      314 
     297      278      264      261      257      249      249      255 
     261      271      286      295      305      317      328      337 
     344      353      364      379      398      417      438      463 
     488      514      535      557      577      596      616      641 
     660      679      697      711      722      730      734      739 
     747      746      738      729      719      712      707      702 
     699      695      688      683      677      669      658      649 
     641      630      623      618      612      608      604      603 
     599      594      595      599      603      614      629      639 
     653      669      679      688      696      703      707      712 
     718      723      722      712      700      689      679      673 
     669      660      645      629      611      595      579      564 
     548      527      507      487      469      457      445      430 
     419      418      423      426      429      433      440      449 
     457      463      468      473      480      484      492      506 
     515      523      535      549      561      576      598      618 
     631      649      668      687      708      729      742      753 
     758      758      756      750      743      741      741      741 
     742      749      762      772      776      777      777      777 
     774      772      770      768      764      760      761      764 
     764      760      751      743      737      729      712      695 
     685      683      683      680      677      676      670      656 
     641      630      621      611      604      599      595      596 
     596      595      591      583      580      580      572      564 
     558      553      548      542      537      531      521      513 
     508      500      496      496      492      484      480      476 
     468      457      450      449      449      450      453      453 
     453      449      442      444      440      436      438      442 
     442      442      446      450      457      469      480      490 
     496      503      517      534      546      558      571      576 
     580      584      587      589      589      588      588      595 
     599      595      588      577      569      569      568      565 
     569      572      575      584      595      606      615      623 
     630      633      635      643      650      654      658      666 
     673      670      664      661      661      662      664      665 
     664      660      653      650      649      642      631      626 
     625      630      637      645      653      662      677      695 
     710      722      734      747      760      769      778      787 
     791      792      795      797      800      801      800      800 
     803      810      816      820      824      830      827      826 
     834      838      835      831      824      815      808      804 
     799      793      789      781      772      766      764      761 
     757      757      760      761      765      769      772      780 
     785      788      787      784      784      780      772      766 
     762      751      743      737      731      724      711      693 
     679      669      661      657      654      650      648      646 
     646      649      652      657      666      676      683      693 
     706      704      699      700      696      691      692      696 
     704      712      714      706      699      695      685      676 
     666      660      654      643      627      611      594      579 
     565      553      542      534      526      519      514      510 
     506      504      504      506      513      519      519      521 
     525      523      515      507      504      506      504      502 
     506      513      510      508      506      495      486      481 
     475      472      468      464      467      469      471      475 
     481      488      498      508      525      541      552      558 
     562      569      579      594      610      625      643      660 
     670      683      695      700      706      711      712      716 
     719      716      716      720      723      723      720      722 
     722      719      712      707      700      689      675      657 
     637      621      608      594      583      580      575      567 
     562      554      545      535      523      513      506      502 
     499      490      479      469      463      457      448      438 
     436      432      425      417      411      402      395      390 
     386      384      382      379      376      375      371      367 
     359      351      344      337      333      330      325      317 
     311      305      299      295      291      288      287      287 
     288      291      294      298      309      319      336      352 
     367      384      410      438      465      491      515      542 
     567      584      600      619      635      650      666      684 
     697      715      734      746      756      766      774      778 
     784      791      795      801      811      820      827      832 
     839      845      855      870      881      886      891      897 
     900      899      903      907      907      911      915      916 
     911      897      881      862      838      815      792      768 
     743      720      699      680      661      634      603      577 
     556      535      521      511      499      487      479      472 
     463      452      436      419      409      403      402      403 
     405      406      407      406      405      411      419      425 
     432      437      441      449      461      468      472      477 
     484      490      492      494      496      498      496      495 
     492      491      490      487      484      480      476      476 
     471      461      453      440      429      422      415      409 
     403      394      386      379      371      360      355      352 
     346      341      338      333      325      319      317      315 
     313      315      324      330      336      341      349      355 
     356      364      378      386      396      410      422      438 
     457      471      490      513      534      550      565      577 
     587      591      589      595      604      608      607      604 
     604      606      606      607      608      607      604      604 
     600      596      595      592      587      576      568      558 
     546      537      530      517      500      487      468      446 
     430      418      405      388      376      368      356      342 
     337      333      325      318      319      321      324      329 
     333      337      348      363      373      384      398      410 
     425      444      459      475      500      526      550      571 
     583      594      608      626      639      652      661      673 
     689      711      733      754      778      799      814      830 
     847      862      876      891      903      912      923      935 
     943      946      950      953      947      938      927      911 
     895      880      865      849      831      816      801      781 
     756      730      706      683      664      649      638      630 
     623      619      622      626      630      633      634      638 
     643      650      658      668      677      687      695      700 
     703      706      711      718      723      726      733      739 
     746      757      765      770      776      780      787      799 
     808      818      827      830      830      835      835      826 
     820      819      819      822      827      831      837      843 
     847      850      851      851      853      855      859      864 
     866      866      865      862      861      858      855      854 
     851      846      838      832      830      824      819      814 
     801      784      766      749      731      711      697      687 
     673      653      631      607      581      558      540      521 
     504      490      476      463      454      450      442      432 
     419      407      400      394      383      375      368      365 
     364      357      349      345      340      332      330      334 
     334      333      333      334      336      338      342      344 
     346      351      355      360      363      367      376      384 
     388      395      405      418      432      444      457      469 
     480      491      499      506      515      527      538      548 
     556      562      571      579      581      588      595      594 
     592      592      592      594      602      607      611      616 
     626      634      635      633      631      626      619      611 
     596      583      576      573      565      558      557      557 
     558      561      561      564      565      565      565      565 
     567      571      569      569      573      579      581      581 
     580      584      588      591      596      602      606      614 
     625      633      639      648      653      658      669      681 
     692      703      711      718      724      729      734      738 
     738      731      727      726      724      723      722      715 
     707      703      704      707      704      706      711      714 
     715      724      735      747      757      765      778      791 
     796      801      807      810      810      804      799      797 
     796      789      785      780      769      761      754      745 
     730      714      700      687      672      656      639      625 
     611      598      583      568      552      537      523      508 
     495      484      472      463      454      449      446      446 
     446      448      448      446      446      448      445      446 
     452      459      467      476      488      498      507      517 
     526      535      541      548      557      565      571      581 
     591      595      607      623      633      642      656      666 
     676      685      689      692      700      707      714      719 
     723      730      738      743      750      751      749      754 
     761      765      772      777      777      774      770      769 
     768      764      761      761      757      746      737      729 
     718      703      687      673      661      642      623      612 
     603      591      577      569      562      554      550      548 
     544      544      544      538      531      526      522      515 
     511      508      504      503      500      500      502      499 
     492      486      477      471      465      460      457      457 
     456      457      461      467      473      481      488      496 
     504      518      531      545      557      567      579      591 
     604      621      637      646      656      665      669      673 
     679      680      680      679      676      676      669      660 
     656      653      645      641      638      629      618      610 
     600      591      583      573      565      561      557      549 
     540      527      517      508      503      499      492      484 
     481      476      467      463      460      457      456      454 
     448      440      430      425      422      417      409      403 
     396      388      387      387      383      379      378      375 
     367      357      351      342      334      328      318      307 
     302      301      302      303      306      309      311      313 
     317      324      333      341      348      357      365      375 
     392      410      425      446      465      480      498      518 
     534      553      575      596      616      635      652      665 
     675      683      692      700      708      719      729      735 
     742      749      756      760      761      765      774      784 
     788      791      800      805      803      803      801      797 
     795      797      796      793      793      791      785      783 
     783      785      787      787      789      793      792      789 
     788      787      780      770      764      757      751      750 
     747      743      742      743      741      734      727      724 
     720      711      703      699      693      685      677      672 
     666      660      649      635      625      621      618      612 
     606      603      598      591      587      577      569      564 
     556      546      541      534      525      517      511      506 
     496      488      484      484      484      484      486      487 
     492      495      494      492      492      494      498      503 
     510      518      530      545      558      575      588      596 
     603      614      625      630      637      650      662      670 
