Origin Time       2025/01/13 21:19:00
Lat.              31.8
Long.             131.6
Depth. (km)       30
Mag.              6.9
Station Code      KGWH03
Station Lat.      34.2700
Station Long.     134.1482
Station Height(m) -50
Record Time       2025/01/13 21:20:53
Sampling Freq(Hz) 100Hz
Duration Time(s)  120
Dir.              2
Scale Factor      3923(gal)/8224838
Max. Acc. (gal)   0.470
Last Correction   2025/01/13 21:20:54
Memo.             
[...]
  -22897   -22871   -22846   -22828   -22837   -22870   -22891   -22890 
  -22890   -22905   -22923   -22939   -22956   -22985   -23020   -23047 
  -23083   -23120   -23116   -23075   -23041   -23043   -23072   -23098 
  -23091   -23062   -23052   -23074   -23097   -23117   -23136   -23143 
  -23143   -23137   -23120   -23112   -23112   -23106   -23099   -23085 
  -23064   -23060   -23066   -23082   -23130   -23194   -23236   -23253 
  -23257   -23257   -23267   -23282   -23301   -23322   -23337   -23338 
  -23325   -23303   -23298   -23330   -23369   -23388   -23400   -23414 
  -23417   -23414   -23415   -23426   -23442   -23450   -23448   -23438 
  -23430   -23425   -23415   -23409   -23417   -23419   -23414   -23387 
  -23344   -23325   -23319   -23302   -23288   -23275   -23248   -23206 
  -23167   -23153   -23168   -23171   -23151   -23132   -23133   -23133 
  -23114   -23078   -23035   -23005   -23002   -23024   -23060   -23091 
  -23091   -23062   -23045   -23059   -23095   -23147   -23184   -23184 
  -23179   -23201   -23237   -23269   -23292   -23305   -23301   -23294 
  -23298   -23301   -23295   -23306   -23318   -23310   -23303   -23313 
  -23336   -23367   -23391   -23399   -23386   -23357   -23333   -23326 
  -23336   -23349   -23363   -23376   -23383   -23383   -23376   -23363 
  -23356   -23359   -23359   -23357   -23353   -23349   -23355   -23361 
  -23363   -23356   -23345   -23342   -23348   -23352   -23352   -23353 
  -23342   -23317   -23294   -23263   -23226   -23213   -23215   -23213 
  -23214   -23207   -23180   -23157   -23159   -23175   -23178   -23167 
  -23166   -23174   -23180   -23186   -23187   -23186   -23182   -23172 
  -23147   -23102   -23066   -23062   -23080   -23090   -23076   -23053 
  -23029   -22999   -22974   -22951   -22925   -22904   -22905   -22928 
  -22935   -22923   -22901   -22867   -22852   -22863   -22879   -22898 
  -22901   -22889   -22887   -22886   -22878   -22885   -22909   -22948 
  -22993   -23014   -23025   -23043   -23068   -23095   -23128   -23167 
  -23197   -23215   -23241   -23261   -23269   -23269   -23276   -23290 
  -23291   -23279   -23269   -23267   -23269   -23276   -23279   -23276 
  -23280   -23280   -23280   -23286   -23282   -23251   -23203   -23172 
  -23167   -23171   -23186   -23206   -23206   -23187   -23175   -23184 
  -23201   -23203   -23184   -23157   -23141   -23132   -23121   -23132 
  -23163   -23166   -23141   -23122   -23112   -23105   -23095   -23099 
  -23116   -23124   -23121   -23109   -23098   -23103   -23107   -23098 
  -23099   -23114   -23132   -23155   -23176   -23186   -23195   -23214 
  -23242   -23251   -23229   -23218   -23229   -23222   -23199   -23199 
  -23224   -23238   -23238   -23240   -23238   -23225   -23206   -23184 
  -23160   -23153   -23170   -23191   -23207   -23205   -23194   -23184 
  -23184   -23202   -23230   -23245   -23242   -23233   -23232   -23234 
  -23229   -23218   -23206   -23203   -23217   -23224   -23210   -23199 
  -23202   -23214   -23226   -23233   -23241   -23253   -23257   -23252 
  -23247   -23251   -23267   -23284   -23288   -23276   -23249   -23218 
  -23206   -23211   -23202   -23176   -23161   -23149   -23125   -23098 
  -23089   -23094   -23091   -23080   -23085   -23114   -23141   -23134 
  -23106   -23075   -23059   -23070   -23094   -23109   -23116   -23114 
  -23105   -23101   -23113   -23140   -23171   -23190   -23203   -23218 
  -23229   -23245   -23272   -23301   -23328   -23357   -23386   -23396 
  -23392   -23395   -23411   -23427   -23438   -23450   -23465   -23472 
  -23452   -23409   -23371   -23344   -23322   -23317   -23321   -23313 
  -23292   -23274   -23261   -23252   -23238   -23222   -23210   -23210 
  -23207   -23203   -23217   -23226   -23222   -23237   -23256   -23248 
  -23228   -23205   -23176   -23153   -23159   -23179   -23190   -23188 
  -23187   -23194   -23214   -23236   -23251   -23257   -23264   -23275 
  -23282   -23279   -23282   -23287   -23276   -23260   -23247   -23226 
  -23217   -23217   -23194   -23159   -23134   -23122   -23107   -23094 
  -23090   -23090   -23089   -23082   -23072   -23074   -23101   -23128 
  -23132   -23130   -23133   -23134   -23136   -23140   -23145   -23155 
  -23156   -23125   -23078   -23055   -23070   -23093   -23102   -23094 
  -23078   -23082   -23107   -23128   -23133   -23133   -23133   -23144 
  -23164   -23172   -23161   -23144   -23122   -23103   -23097   -23091 
  -23090   -23105   -23116   -23116   -23126   -23151   -23176   -23195 
  -23203   -23201   -23193   -23188   -23194   -23193   -23176   -23166 
  -23164   -23167   -23164   -23166   -23179   -23194   -23195   -23191 
  -23186   -23174   -23163   -23157   -23149   -23133   -23106   -23082 
  -23066   -23047   -23032   -23032   -23035   -23044   -23056   -23055 
  -23049   -23047   -23044   -23052   -23078   -23094   -23098   -23110 
  -23133   -23143   -23137   -23144   -23166   -23180   -23186   -23193 
  -23199   -23206   -23221   -23233   -23249   -23280   -23301   -23302 
  -23298   -23287   -23284   -23301   -23322   -23341   -23357   -23380 
  -23402   -23402   -23391   -23391   -23398   -23414   -23427   -23417 
  -23402   -23403   -23404   -23407   -23415   -23419   -23422   -23429 
  -23430   -23431   -23440   -23446   -23449   -23454   -23461   -23461 
  -23464   -23476   -23479   -23465   -23458   -23458   -23454   -23440 
  -23418   -23398   -23382   -23357   -23336   -23325   -23321   -23319 
  -23326   -23337   -23341   -23333   -23314   -23298   -23299   -23310 
  -23318   -23332   -23345   -23342   -23326   -23313   -23311   -23321 
  -23330   -23333   -23333   -23330   -23328   -23323   -23315   -23307 
  -23303   -23290   -23274   -23263   -23249   -23233   -23206   -23176 
  -23156   -23132   -23097   -23076   -23063   -23037   -23006   -22990 
  -22979   -22963   -22954   -22940   -22924   -22923   -22929   -22933 
  -22933   -22932   -22939   -22962   -22985   -23006   -23035   -23066 
  -23083   -23091   -23094   -23098   -23101   -23098   -23099   -23113 
  -23125   -23130   -23126   -23112   -23099   -23097   -23110   -23141 
  -23170   -23187   -23205   -23225   -23240   -23242   -23240   -23247 
  -23260   -23278   -23292   -23295   -23286   -23280   -23290   -23302 
  -23306   -23307   -23314   -23326   -23338   -23348   -23360   -23372 
  -23375   -23376   -23387   -23394   -23384   -23375   -23387   -23410 
  -23417   -23409   -23414   -23427   -23430   -23433   -23442   -23446 
  -23441   -23441   -23450   -23450   -23442   -23434   -23425   -23415 
  -23411   -23411   -23409   -23399   -23395   -23395   -23377   -23350 
  -23330   -23309   -23284   -23278   -23269   -23248   -23238   -23240 
  -23228   -23215   -23211   -23205   -23203   -23205   -23195   -23178 
  -23157   -23134   -23120   -23120   -23128   -23122   -23102   -23082 
  -23072   -23067   -23062   -23055   -23040   -23022   -23008   -22989 
  -22964   -22944   -22936   -22944   -22964   -22979   -22987   -22994 
  -23010   -23031   -23044   -23051   -23060   -23064   -23062   -23064 
  -23060   -23058   -23059   -23051   -23033   -23017   -23008   -22998 
  -22986   -22971   -22956   -22944   -22939   -22933   -22931   -22935 
  -22947   -22972   -23002   -23024   -23028   -23032   -23045   -23063 
  -23091   -23128   -23152   -23161   -23156   -23152   -23166   -23178 
  -23179   -23180   -23187   -23199   -23213   -23226   -23236   -23248 
  -23257   -23257   -23263   -23275   -23280   -23280   -23286   -23284 
  -23282   -23290   -23305   -23314   -23318   -23315   -23310   -23298 
  -23276   -23251   -23229   -23211   -23190   -23170   -23157   -23147 
  -23125   -23101   -23079   -23063   -23055   -23062   -23078   -23085 
  -23085   -23086   -23093   -23112   -23141   -23172   -23195   -23210 
  -23213   -23201   -23186   -23178   -23167   -23147   -23116   -23087 
  -23066   -23045   -23021   -22991   -22962   -22941   -22928   -22917 
  -22914   -22918   -22902   -22867   -22855   -22871   -22896   -22917 
  -22933   -22954   -22971   -22972   -22970   -22981   -23006   -23039 
  -23060   -23080   -23106   -23126   -23140   -23148   -23156   -23166 
  -23178   -23201   -23234   -23272   -23307   -23332   -23341   -23340 
  -23332   -23333   -23346   -23350   -23336   -23317   -23298   -23290 
  -23284   -23276   -23276   -23278   -23274   -23267   -23253   -23238 
  -23228   -23226   -23237   -23256   -23278   -23303   -23317   -23311 
  -23305   -23296   -23292   -23301   -23303   -23287   -23276   -23276 
  -23267   -23249   -23241   -23234   -23218   -23205   -23187   -23166 
  -23149   -23145   -23151   -23160   -23159   -23144   -23133   -23147 
  -23170   -23174   -23167   -23157   -23133   -23106   -23099   -23102 
  -23110   -23133   -23151   -23141   -23122   -23117   -23117   -23120 
  -23128   -23124   -23102   -23074   -23051   -23036   -23021   -22998 
  -22966   -22925   -22891   -22869   -22850   -22827   -22802   -22781 
  -22767   -22763   -22759   -22750   -22734   -22711   -22697   -22701 
  -22724   -22762   -22790   -22800   -22810   -22825   -22842   -22866 
  -22898   -22928   -22956   -22974   -22983   -22998   -23018   -23047 
  -23090   -23132   -23167   -23207   -23253   -23294   -23321   -23349 
  -23380   -23403   -23429   -23460   -23487   -23498   -23492   -23492 
  -23504   -23512   -23519   -23519   -23499   -23473   -23461   -23463 
  -23467   -23456   -23434   -23417   -23400   -23375   -23346   -23319 
  -23296   -23271   -23241   -23220   -23198   -23171   -23157   -23155 
  -23148   -23145   -23152   -23166   -23182   -23198   -23221   -23251 
  -23279   -23299   -23317   -23336   -23349   -23360   -23373   -23392 
  -23417   -23445   -23472   -23481   -23480   -23483   -23498   -23522 
  -23550   -23569   -23587   -23611   -23639   -23666   -23692   -23723 
  -23753   -23784   -23818   -23834   -23832   -23824   -23818   -23818 
  -23819   -23819   -23827   -23824   -23814   -23804   -23792   -23788 
  -23797   -23797   -23782   -23774   -23776   -23777   -23781   -23788 
  -23791   -23800   -23818   -23832   -23843   -23861   -23877   -23888 
  -23897   -23900   -23893   -23873   -23831   -23788   -23745   -23695 
  -23649   -23619   -23581   -23526   -23473   -23422   -23365   -23317 
  -23282   -23248   -23220   -23193   -23164   -23137   -23114   -23091 
  -23059   -23026   -22997   -22963   -22937   -22935   -22939   -22937 
  -22941   -22947   -22958   -22979   -22998   -23009   -23025   -23058 
  -23093   -23120   -23144   -23170   -23193   -23214   -23240   -23267 
  -23291   -23309   -23326   -23345   -23353   -23352   -23357   -23379 
  -23400   -23400   -23384   -23365   -23345   -23317   -23286   -23260 
  -23241   -23218   -23195   -23179   -23161   -23130   -23085   -23037 
  -23005   -22989   -22971   -22955   -22943   -22927   -22900   -22870 
  -22847   -22836   -22832   -22817   -22801   -22794   -22777   -22756 
  -22756   -22765   -22758   -22742   -22728   -22713   -22698   -22686 
  -22673   -22667   -22674   -22678   -22670   -22661   -22657   -22658 
  -22662   -22667   -22675   -22682   -22693   -22709   -22725   -22739 
  -22746   -22756   -22786   -22827   -22867   -22891   -22902   -22914 
  -22933   -22952   -22970   -22987   -22997   -22994   -22991   -22999 
  -23009   -23017   -23028   -23039   -23049   -23064   -23087   -23118 
  -23147   -23171   -23193   -23210   -23226   -23247   -23261   -23275 
  -23290   -23303   -23317   -23332   -23342   -23352   -23361   -23360 
  -23357   -23367   -23376   -23371   -23348   -23323   -23307   -23287 
  -23269   -23263   -23260   -23256   -23248   -23242   -23245   -23247 
  -23248   -23253   -23253   -23248   -23240   -23230   -23230   -23241 
  -23253   -23267   -23286   -23311   -23332   -23340   -23355   -23375 
  -23394   -23413   -23423   -23426   -23425   -23419   -23422   -23425 
  -23411   -23398   -23395   -23398   -23409   -23421   -23429   -23433 
  -23437   -23442   -23450   -23469   -23492   -23506   -23511   -23517 
  -23526   -23535   -23548   -23561   -23576   -23595   -23622   -23647 
  -23668   -23684   -23704   -23730   -23754   -23761   -23757   -23751 
  -23751   -23750   -23743   -23745   -23751   -23749   -23747   -23755 
  -23757   -23753   -23764   -23776   -23777   -23782   -23793   -23804 
  -23815   -23828   -23834   -23827   -23818   -23808   -23800   -23795 
  -23789   -23778   -23761   -23742   -23723   -23707   -23691   -23669 
  -23650   -23639   -23631   -23625   -23626   -23637   -23649   -23658 
  -23662   -23665   -23665   -23658   -23650   -23643   -23631   -23614 
  -23593   -23568   -23541   -23519   -23496   -23467   -23431   -23390 
  -23346   -23310   -23268   -23229   -23213   -23203   -23190   -23174 
  -23164   -23166   -23175   -23193   -23215   -23234   -23256   -23280 
  -23303   -23326   -23348   -23357   -23355   -23349   -23348   -23348 
  -23345   -23338   -23323   -23305   -23290   -23278   -23267   -23265 
  -23269   -23271   -23279   -23280   -23264   -23236   -23206   -23176 
  -23161   -23149   -23124   -23091   -23063   -23037   -23010   -22987 
  -22970   -22950   -22923   -22897   -22875   -22848   -22813   -22778 
  -22742   -22708   -22674   -22639   -22612   -22577   -22528   -22486 
  -22447   -22415   -22395   -22380   -22364   -22349   -22330   -22311 
  -22299   -22297   -22306   -22323   -22345   -22361   -22376   -22391 
  -22392   -22389   -22400   -22416   -22424   -22428   -22428   -22420 
  -22404   -22387   -22369   -22351   -22341   -22333   -22315   -22291 
  -22270   -22246   -22222   -22210   -22210   -22207   -22200   -22203 
  -22212   -22218   -22225   -22235   -22243   -22253   -22270   -22287 
  -22304   -22330   -22364   -22396   -22428   -22464   -22512   -22566 
  -22612   -22655   -22698   -22740   -22782   -22828   -22889   -22956 
  -23014   -23067   -23113   -23155   -23191   -23226   -23268   -23310 
  -23344   -23375   -23396   -23407   -23409   -23406   -23399   -23388 
  -23377   -23364   -23349   -23337   -23326   -23309   -23296   -23301 
  -23315   -23336   -23364   -23396   -23415   -23426   -23441   -23461 
  -23481   -23503   -23515   -23523   -23535   -23539   -23537   -23529 
  -23514   -23490   -23458   -23427   -23400   -23384   -23371   -23353 
  -23340   -23337   -23337   -23342   -23359   -23382   -23415   -23468 
  -23519   -23557   -23598   -23637   -23666   -23699   -23730   -23749 
  -23764   -23774   -23776   -23772   -23765   -23750   -23730   -23716 
  -23707   -23696   -23684   -23672   -23653   -23633   -23619   -23608 
  -23596   -23579   -23557   -23541   -23539   -23548   -23542   -23525 
  -23510   -23495   -23477   -23467   -23461   -23452   -23440   -23418 
  -23386   -23353   -23329   -23307   -23287   -23269   -23257   -23252 
  -23249   -23244   -23237   -23224   -23213   -23213   -23217   -23222 
  -23225   -23221   -23218   -23222   -23224   -23221   -23207   -23188 
  -23171   -23160   -23149   -23130   -23105   -23080   -23048   -23009 
  -22967   -22929   -22896   -22862   -22836   -22815   -22797   -22785 
  -22771   -22755   -22729   -22698   -22677   -22661   -22646   -22636 
  -22626   -22613   -22605   -22600   -22594   -22593   -22596   -22605 
  -22620   -22640   -22669   -22709   -22761   -22810   -22873   -22951 
  -23024   -23089   -23155   -23224   -23291   -23359   -23426   -23485 
  -23537   -23581   -23620   -23649   -23673   -23693   -23704   -23704 
  -23699   -23691   -23688   -23681   -23670   -23657   -23641   -23612 
  -23580   -23553   -23526   -23499   -23475   -23453   -23431   -23411 
  -23399   -23396   -23399   -23398   -23383   -23361   -23340   -23305 
  -23265   -23234   -23202   -23170   -23140   -23106   -23074   -23045 
  -23018   -22998   -22979   -22958   -22944   -22943   -22947   -22951 
  -22954   -22958   -22960   -22960   -22952   -22939   -22932   -22932 
  -22933   -22928   -22925   -22939   -22955   -22956   -22960   -22972 
  -22983   -22991   -22998   -22999   -22997   -23001   -23013   -23026 
  -23036   -23043   -23053   -23067   -23076   -23090   -23103   -23113 
  -23129   -23148   -23161   -23176   -23194   -23206   -23199   -23187 
  -23180   -23171   -23161   -23159   -23163   -23170   -23174   -23172 
  -23163   -23156   -23156   -23161   -23172   -23174   -23168   -23174 
  -23176   -23180   -23194   -23207   -23218   -23230   -23244   -23260 
  -23275   -23284   -23291   -23295   -23306   -23323   -23328   -23325 
  -23323   -23321   -23307   -23295   -23290   -23290   -23288   -23275 
  -23260   -23245   -23225   -23207   -23198   -23191   -23186   -23184 
  -23179   -23175   -23174   -23170   -23171   -23175   -23167   -23152 
  -23147   -23141   -23130   -23114   -23091   -23071   -23060   -23049 
  -23035   -23016   -22997   -22981   -22968   -22960   -22950   -22939 
  -22928   -22912   -22902   -22909   -22917   -22918   -22918   -22913 
  -22906   -22904   -22893   -22887   -22893   -22891   -22887   -22886 
  -22889   -22896   -22904   -22909   -22914   -22921   -22927   -22935 
  -22956   -22986   -23016   -23041   -23059   -23078   -23106   -23137 
  -23175   -23224   -23271   -23318   -23373   -23431   -23472   -23510 
  -23550   -23585   -23619   -23652   -23680   -23703   -23718   -23726 
  -23735   -23749   -23755   -23757   -23762   -23764   -23765   -23769 
  -23774   -23777   -23776   -23770   -23765   -23760   -23753   -23749 
  -23743   -23734   -23718   -23696   -23670   -23641   -23611   -23588 
  -23565   -23541   -23525   -23506   -23483   -23464   -23450   -23444 
  -23442   -23431   -23426   -23438   -23452   -23465   -23484   -23506 
  -23527   -23549   -23569   -23587   -23606   -23619   -23625   -23625 
  -23620   -23611   -23598   -23581   -23558   -23529   -23495   -23465 
  -23441   -23415   -23387   -23355   -23315   -23271   -23226   -23187 
  -23159   -23137   -23117   -23093   -23066   -23040   -23004   -22960 
  -22929   -22912   -22894   -22871   -22847   -22820   -22796   -22783 
  -22788   -22792   -22788   -22788   -22786   -22775   -22765   -22751 
  -22738   -22727   -22712   -22694   -22682   -22678   -22675   -22666 
  -22658   -22653   -22647   -22632   -22620   -22611   -22597   -22584 
  -22574   -22563   -22558   -22566   -22582   -22605   -22631   -22651 
  -22671   -22696   -22731   -22779   -22825   -22860   -22896   -22933 
  -22967   -23001   -23039   -23074   -23103   -23125   -23133   -23136 
  -23136   -23137   -23139   -23136   -23129   -23128   -23124   -23118 
  -23116   -23110   -23107   -23106   -23109   -23121   -23132   -23143 
  -23161   -23174   -23174   -23178   -23188   -23207   -23222   -23225 
  -23236   -23259   -23278   -23295   -23314   -23330   -23345   -23356 
  -23360   -23367   -23368   -23365   -23367   -23369   -23369   -23363 
  -23352   -23334   -23313   -23295   -23276   -23251   -23224   -23198 
  -23176   -23148   -23109   -23071   -23041   -23018   -22999   -22986 
  -22979   -22979   -22986   -23001   -23022   -23039   -23053   -23075 
  -23098   -23120   -23137   -23155   -23179   -23203   -23230   -23269 
  -23302   -23330   -23360   -23383   -23403   -23423   -23446   -23468 
  -23485   -23491   -23491   -23495   -23502   -23510   -23519   -23526 
  -23535   -23545   -23545   -23539   -23537   -23530   -23518   -23500 
  -23477   -23450   -23427   -23406   -23384   -23363   -23344   -23322 
  -23299   -23274   -23242   -23209   -23180   -23151   -23128   -23116 
