Origin Time       2025/01/13 21:19:00
Lat.              31.8
Long.             131.6
Depth. (km)       30
Mag.              6.9
Station Code      KGWH03
Station Lat.      34.2700
Station Long.     134.1482
Station Height(m) 50
Record Time       2025/01/13 21:20:53
Sampling Freq(Hz) 100Hz
Duration Time(s)  120
Dir.              4
Scale Factor      7845(gal)/8223790
Max. Acc. (gal)   0.500
Last Correction   2025/01/13 21:20:54
Memo.             
[...]
    4418     4422     4422     4402     4378     4392     4428     4421 
    4380     4359     4380     4413     4436     4457     4463     4449 
    4445     4446     4453     4471     4460     4418     4398     4407 
    4421     4433     4459     4484     4482     4463     4457     4472 
    4495     4504     4490     4469     4456     4448     4446     4463 
    4484     4488     4487     4491     4488     4484     4483     4487 
    4502     4521     4533     4546     4556     4563     4585     4623 
    4626     4583     4546     4538     4537     4536     4526     4522 
    4538     4556     4565     4572     4575     4567     4558     4550 
    4537     4533     4540     4534     4525     4525     4511     4484 
    4464     4461     4468     4461     4438     4432     4432     4423 
    4419     4418     4414     4418     4419     4411     4398     4403 
    4440     4480     4503     4515     4523     4537     4553     4550 
    4533     4514     4495     4486     4486     4484     4471     4461 
    4452     4438     4437     4445     4430     4413     4419     4426 
    4419     4425     4440     4432     4413     4413     4419     4410 
    4396     4398     4410     4418     4415     4388     4359     4364 
    4396     4422     4430     4422     4409     4390     4367     4360 
    4361     4355     4342     4320     4291     4295     4307     4310 
    4328     4357     4380     4384     4368     4355     4374     4396 
    4402     4422     4441     4426     4417     4436     4446     4448 
    4472     4487     4468     4460     4486     4510     4514     4511 
    4511     4511     4522     4541     4549     4557     4563     4557 
    4563     4588     4617     4629     4614     4588     4565     4542 
    4522     4507     4492     4477     4469     4457     4441     4432 
    4434     4441     4444     4438     4418     4390     4368     4369 
    4392     4405     4391     4376     4360     4340     4340     4356 
    4375     4395     4401     4395     4396     4401     4402     4413 
    4426     4444     4468     4488     4500     4509     4499     4479 
    4477     4492     4495     4492     4496     4499     4500     4500 
    4496     4492     4488     4477     4463     4460     4468     4467 
    4464     4471     4475     4471     4473     4477     4479     4479 
    4476     4476     4482     4484     4487     4492     4498     4492 
    4475     4464     4464     4463     4465     4476     4477     4479 
    4502     4522     4525     4541     4571     4580     4569     4558 
    4552     4550     4560     4567     4557     4550     4550     4541 
    4531     4537     4538     4534     4530     4514     4500     4504 
    4518     4531     4549     4575     4595     4591     4584     4595 
    4606     4598     4575     4550     4537     4522     4500     4488 
    4488     4486     4472     4453     4450     4455     4448     4437 
    4423     4405     4392     4387     4382     4380     4384     4386 
    4387     4394     4406     4411     4406     4403     4399     4391 
    4395     4411     4415     4411     4415     4415     4407     4396 
    4380     4372     4384     4399     4406     4402     4387     4376 
    4371     4368     4375     4375     4364     4363     4374     4388 
    4395     4395     4414     4434     4437     4445     4457     4456 
    4446     4437     4430     4428     4426     4438     4450     4448 
    4448     4457     4467     4475     4484     4498     4502     4494 
    4491     4495     4499     4503     4510     4509     4500     4504 
    4515     4529     4553     4565     4560     4573     4600     4602 
    4588     4580     4573     4584     4607     4608     4596     4594 
    4591     4585     4585     4580     4573     4575     4576     4557 
    4527     4514     4515     4515     4510     4509     4511     4504 
    4494     4496     4509     4513     4504     4494     4487     4483 
    4487     4499     4514     4525     4523     4507     4502     4525 
    4537     4519     4506     4500     4495     4503     4514     4499 
    4471     4448     4437     4441     4453     4463     4469     4464 
    4457     4460     4455     4445     4441     4418     4386     4376 
    4384     4392     4395     4387     4368     4359     4369     4376 
    4375     4383     4388     4378     4376     4396     4419     4425 
    4413     4396     4388     4390     4396     4395     4390     4387 
    4384     4392     4415     4430     4436     4442     4446     4445 
    4444     4446     4459     4476     4477     4456     4432     4417 
    4406     4410     4425     4434     4434     4430     4432     4446 
    4469     4486     4486     4486     4487     4477     4469     4475 
    4477     4473     4471     4464     4456     4459     4467     4469 
    4477     4488     4494     4498     4492     4484     4475     4469 
    4483     4499     4506     4522     4542     4545     4544     4553 
    4563     4563     4557     4564     4572     4556     4538     4534 
    4515     4486     4476     4482     4490     4510     4522     4519 
    4525     4536     4541     4550     4568     4588     4602     4603 
    4607     4618     4617     4607     4608     4612     4610     4607 
    4604     4596     4583     4568     4553     4527     4495     4483 
    4480     4471     4456     4426     4391     4379     4371     4351 
    4341     4351     4359     4365     4371     4376     4388     4396 
    4383     4355     4330     4320     4325     4341     4351     4345 
    4326     4313     4306     4291     4268     4252     4234     4217 
    4218     4229     4234     4239     4247     4266     4295     4322 
    4330     4337     4355     4368     4369     4374     4386     4399 
    4402     4407     4432     4456     4461     4459     4457     4450 
    4437     4422     4418     4437     4460     4472     4486     4509 
    4530     4544     4553     4556     4550     4546     4549     4553 
    4575     4612     4627     4615     4608     4614     4610     4590 
    4568     4550     4534     4519     4507     4507     4522     4522 
    4498     4473     4461     4455     4452     4444     4425     4411 
    4415     4428     4426     4409     4399     4398     4391     4379 
    4374     4376     4383     4388     4391     4386     4374     4363 
    4367     4374     4368     4365     4374     4380     4398     4413 
    4409     4402     4401     4394     4394     4399     4403     4399 
    4386     4374     4372     4383     4396     4399     4395     4401 
    4411     4421     4426     4430     4423     4423     4448     4465 
    4465     4469     4477     4486     4494     4498     4494     4492 
    4491     4490     4506     4531     4546     4552     4548     4538 
    4530     4522     4529     4544     4553     4561     4569     4571 
    4564     4549     4530     4506     4483     4476     4475     4472 
    4467     4461     4464     4471     4472     4460     4441     4429 
    4418     4399     4392     4391     4388     4391     4392     4398 
    4414     4425     4423     4423     4428     4418     4401     4395 
    4401     4399     4388     4382     4384     4388     4390     4390 
    4384     4378     4371     4351     4344     4363     4378     4376 
    4374     4368     4367     4372     4374     4378     4383     4383 
    4382     4382     4374     4365     4371     4386     4399     4399 
    4392     4388     4384     4378     4378     4387     4399     4418 
    4445     4465     4468     4460     4463     4469     4464     4460 
    4445     4418     4414     4428     4434     4441     4459     4467 
    4463     4460     4460     4468     4491     4517     4540     4560 
    4576     4591     4608     4612     4614     4626     4633     4633 
    4641     4650     4660     4676     4681     4673     4665     4660 
    4648     4633     4622     4614     4611     4612     4607     4591 
    4583     4577     4573     4576     4577     4564     4545     4538 
    4544     4538     4526     4521     4518     4510     4506     4500 
    4488     4483     4480     4461     4444     4440     4430     4417 
    4418     4418     4406     4403     4409     4405     4392     4387 
    4391     4391     4388     4382     4375     4371     4369     4367 
    4369     4375     4386     4403     4421     4441     4471     4502 
    4530     4568     4608     4634     4648     4661     4671     4675 
    4676     4669     4664     4660     4642     4622     4618     4615 
    4608     4607     4604     4596     4590     4584     4577     4569 
    4558     4550     4554     4573     4599     4614     4629     4654 
    4672     4677     4679     4668     4646     4625     4600     4573 
    4552     4534     4522     4511     4494     4469     4445     4425 
    4411     4399     4384     4371     4371     4379     4391     4401 
    4410     4426     4445     4461     4471     4471     4472     4473 
    4472     4472     4461     4442     4429     4429     4441     4463 
    4483     4500     4521     4538     4545     4549     4549     4549 
    4546     4534     4517     4513     4519     4522     4521     4525 
    4534     4536     4526     4515     4513     4519     4522     4519 
    4522     4518     4499     4482     4468     4449     4434     4430 
    4423     4415     4409     4395     4383     4384     4394     4394 
    4379     4363     4348     4333     4324     4317     4315     4326 
    4349     4372     4382     4384     4383     4368     4352     4347 
    4342     4342     4347     4345     4344     4349     4363     4376 
    4386     4402     4429     4456     4473     4484     4494     4506 
    4523     4542     4560     4577     4594     4603     4603     4594 
    4588     4594     4606     4617     4622     4615     4599     4585 
    4573     4558     4536     4509     4484     4461     4444     4444 
    4457     4460     4441     4419     4402     4384     4360     4334 
    4315     4302     4295     4293     4288     4280     4275     4278 
    4282     4280     4275     4278     4286     4297     4305     4309 
    4313     4324     4326     4325     4326     4333     4342     4344 
    4347     4369     4392     4402     4411     4432     4446     4449 
    4456     4469     4486     4503     4519     4529     4537     4558 
    4584     4596     4602     4608     4614     4621     4625     4618 
    4603     4592     4592     4599     4604     4612     4633     4656 
    4668     4665     4657     4658     4666     4666     4646     4617 
    4587     4561     4542     4537     4538     4541     4537     4529 
    4522     4519     4519     4514     4494     4472     4453     4438 
    4442     4467     4484     4484     4480     4482     4490     4500 
    4509     4513     4515     4511     4509     4517     4538     4563 
    4577     4594     4619     4650     4688     4725     4758     4784 
    4796     4801     4803     4808     4827     4841     4841     4854 
    4876     4887     4895     4905     4914     4920     4924     4928 
    4931     4935     4938     4939     4943     4951     4957     4957 
    4947     4934     4915     4899     4880     4858     4847     4843 
    4824     4789     4762     4742     4727     4710     4685     4661 
    4642     4626     4608     4585     4552     4526     4509     4496 
    4492     4486     4465     4445     4426     4403     4387     4376 
    4359     4340     4328     4315     4299     4288     4280     4267 
    4247     4228     4209     4187     4167     4148     4136     4129 
    4121     4112     4108     4105     4108     4116     4124     4126 
    4128     4135     4145     4149     4149     4156     4166     4168 
    4170     4176     4180     4179     4180     4185     4186     4194 
    4201     4193     4182     4180     4182     4180     4180     4187 
    4193     4198     4202     4198     4198     4209     4218     4226 
    4233     4233     4228     4216     4199     4189     4179     4167 
    4158     4143     4121     4110     4108     4108     4118     4135 
    4147     4163     4180     4191     4201     4212     4214     4212 
    4210     4213     4218     4218     4218     4230     4252     4271 
    4283     4287     4294     4313     4334     4357     4383     4406 
    4422     4433     4448     4469     4496     4530     4563     4592 
    4619     4644     4662     4676     4684     4679     4658     4639 
    4623     4600     4569     4541     4515     4495     4476     4450 
    4426     4406     4383     4356     4332     4314     4299     4284 
    4272     4266     4257     4247     4240     4245     4253     4263 
    4264     4249     4228     4212     4203     4191     4172     4155 
    4151     4153     4162     4175     4178     4172     4175     4186 
    4202     4216     4229     4252     4286     4325     4369     4417 
    4455     4479     4504     4544     4594     4648     4691     4727 
    4760     4785     4816     4847     4866     4882     4904     4923 
    4941     4954     4959     4966     4977     4981     4970     4949 
    4936     4934     4926     4905     4884     4868     4857     4858 
    4860     4850     4833     4807     4781     4762     4735     4703 
    4668     4627     4590     4564     4541     4511     4482     4463 
    4448     4428     4403     4383     4368     4355     4344     4332 
    4317     4305     4297     4290     4283     4274     4260     4243 
    4222     4198     4170     4141     4113     4086     4058     4027 
    3996     3970     3955     3951     3948     3940     3937     3946 
    3956     3975     3993     4005     4018     4035     4040     4033 
    4024     4018     4016     4018     4024     4027     4029     4035 
    4037     4043     4059     4077     4089     4104     4125     4148 
    4178     4220     4260     4297     4334     4376     4417     4457 
    4502     4540     4560     4569     4580     4600     4622     4639 
    4661     4681     4703     4731     4764     4800     4837     4860 
    4870     4885     4904     4922     4939     4958     4972     4981 
    4982     4980     4977     4973     4965     4951     4934     4916 
    4897     4877     4858     4826     4784     4749     4718     4693 
    4685     4677     4660     4642     4625     4611     4606     4595 
    4569     4540     4519     4513     4511     4506     4503     4496 
    4490     4494     4502     4509     4518     4521     4525     4536 
    4550     4565     4577     4591     4612     4637     4661     4685 
    4699     4698     4695     4702     4716     4735     4753     4757 
    4750     4745     4739     4735     4734     4733     4722     4708 
    4702     4702     4692     4675     4660     4638     4610     4583 
    4554     4527     4511     4490     4455     4421     4398     4378 
    4363     4352     4341     4330     4320     4309     4290     4268 
    4245     4221     4198     4178     4158     4139     4124     4116 
    4109     4101     4093     4089     4086     4086     4093     4098 
    4099     4105     4121     4136     4145     4160     4182     4198 
    4216     4244     4276     4309     4344     4369     4383     4399 
    4410     4414     4426     4434     4434     4441     4455     4465 
    4475     4482     4483     4477     4480     4488     4495     4500 
    4513     4525     4537     4553     4569     4587     4607     4621 
    4625     4634     4649     4653     4642     4638     4642     4639 
    4637     4638     4638     4635     4630     4621     4611     4604 
    4606     4608     4615     4622     4627     4637     4650     4653 
    4646     4642     4645     4652     4654     4652     4650     4644 
    4627     4614     4604     4596     4588     4576     4564     4560 
    4564     4565     4564     4563     4561     4564     4573     4583 
    4587     4584     4583     4580     4579     4576     4568     4552 
    4548     4561     4579     4584     4581     4576     4573     4577 
    4588     4591     4590     4595     4600     4599     4604     4615 
    4619     4618     4621     4622     4622     4619     4615     4611 
    4603     4595     4585     4576     4569     4565     4563     4563 
    4561     4557     4563     4576     4583     4581     4581     4587 
    4600     4606     4594     4585     4583     4581     4584     4584 
    4587     4594     4599     4606     4617     4621     4618     4615 
    4610     4596     4577     4558     4538     4515     4496     4488 
    4487     4479     4456     4426     4401     4378     4351     4324 
    4303     4291     4272     4253     4247     4248     4241     4233 
    4229     4229     4228     4226     4229     4234     4244     4257 
    4274     4284     4291     4307     4333     4355     4375     4399 
    4419     4437     4459     4479     4492     4503     4515     4523 
    4531     4538     4544     4552     4553     4544     4527     4509 
    4492     4479     4459     4433     4409     4383     4355     4330 
    4309     4290     4268     4248     4236     4221     4198     4180 
    4175     4175     4175     4170     4160     4151     4140     4131 
    4121     4112     4106     4106     4105     4106     4108     4108 
    4110     4108     4101     4102     4104     4093     4072     4058 
    4043     4028     4014     4002     3990     3981     3977     3974 
    3974     3975     3983     3996     4004     4010     4021     4035 
    4051     4075     4099     4121     4143     4170     4197     4221 
    4247     4276     4307     4330     4342     4356     4375     4395 
    4413     4430     4449     4467     4488     4511     4523     4525 
    4533     4549     4564     4581     4602     4617     4633     4650 
    4664     4672     4681     4688     4687     4687     4689     4687 
    4681     4679     4681     4685     4692     4696     4687     4677 
    4680     4689     4702     4723     4742     4752     4760     4765 
    4765     4765     4769     4776     4773     4758     4738     4722 
    4700     4672     4639     4607     4584     4567     4545     4525 
    4509     4490     4469     4446     4421     4398     4382     4368 
    4348     4326     4310     4294     4274     4260     4251     4241 
    4230     4217     4203     4190     4180     4178     4182     4185 
    4183     4186     4195     4206     4218     4232     4243     4251 
    4257     4260     4263     4268     4270     4278     4294     4307 
    4318     4336     4359     4380     4394     4405     4415     4436 
    4473     4513     4536     4550     4565     4580     4596     4610 
    4619     4639     4665     4687     4706     4729     4753     4769 
    4777     4784     4796     4810     4816     4819     4823     4827 
    4837     4853     4858     4854     4851     4846     4831     4811 
    4785     4758     4737     4719     4707     4700     4693     4683 
    4669     4654     4639     4619     4594     4567     4548     4536 
    4530     4518     4496     4483     4476     4469     4460     4446 
    4433     4428     4426     4419     4411     4406     4398     4387 
    4379     4376     4374     4376     4386     4396     4403     4409 
    4423     4440     4452     4461     4460     4456     4463     4480 
    4492     4498     4506     4509     4503     4502     4499     4491 
    4479     4463     4442     4425     4407     4383     4353     4322 
