Origin Time       2025/01/13 21:19:00
Lat.              31.8
Long.             131.6
Depth. (km)       30
Mag.              6.9
Station Code      KGWH02
Station Lat.      34.1980
Station Long.     133.7081
Station Height(m) -195
Record Time       2025/01/13 21:20:28
Sampling Freq(Hz) 100Hz
Duration Time(s)  146
Dir.              3
Scale Factor      2942(gal)/8224139
Max. Acc. (gal)   1.365
Last Correction   2025/01/13 21:20:28
Memo.             
[...]
   18084    18176    18295    18438    18596    18755    18901    19014 
   19068    19070    19047    19010    18991    19020    19059    19063 
   19043    19029    19051    19113    19182    19218    19217    19171 
   19062    18893    18715    18585    18538    18558    18594    18612 
   18621    18616    18566    18511    18470    18397    18287    18200 
   18168    18184    18231    18287    18341    18361    18346    18338 
   18330    18296    18266    18264    18293    18351    18405    18430 
   18424    18408    18369    18288    18207    18157    18111    18087 
   18118    18153    18153    18141    18146    18158    18153    18152 
   18202    18296    18370    18387    18374    18347    18266    18127 
   18010    17969    17976    17994    18031    18067    18077    18108 
   18192    18301    18401    18432    18381    18314    18295    18318 
   18355    18407    18465    18500    18515    18517    18478    18396 
   18324    18297    18287    18268    18242    18208    18150    18053 
   17945    17910    17955    18007    18042    18064    18046    17995 
   17973    17998    18023    18058    18141    18212    18215    18196 
   18195    18211    18231    18269    18355    18480    18581    18611 
   18573    18536    18540    18540    18511    18477    18450    18397 
   18293    18173    18091    18061    18076    18118    18161    18218 
   18304    18374    18395    18399    18434    18496    18547    18562 
   18558    18551    18527    18478    18447    18463    18495    18526 
   18577    18659    18729    18740    18728    18740    18758    18774 
   18805    18844    18864    18835    18778    18760    18765    18723 
   18665    18646    18627    18566    18476    18376    18284    18215 
   18184    18202    18243    18272    18283    18284    18268    18200 
   18085    17988    17942    17901    17842    17818    17841    17880 
   17925    17961    17977    17982    17961    17915    17890    17915 
   17983    18076    18154    18180    18192    18239    18314    18377 
   18436    18503    18565    18643    18762    18878    18948    18990 
   19021    19033    19030    19030    19033    19024    19014    19059 
   19148    19214    19225    19191    19138    19113    19125    19161 
   19194    19210    19222    19232    19213    19176    19144    19116 
   19080    19009    18916    18863    18843    18781    18694    18635 
   18576    18503    18478    18504    18512    18481    18442    18415 
   18404    18389    18351    18277    18166    18058    17976    17888 
   17803    17771    17771    17767    17757    17741    17736    17732 
   17697    17637    17558    17460    17379    17325    17289    17304 
   17402    17550    17679    17772    17844    17880    17878    17864 
   17851    17825    17795    17799    17860    17946    18037    18131 
   18223    18314    18407    18465    18480    18495    18527    18547 
   18543    18550    18585    18621    18630    18611    18604    18624 
   18652    18684    18708    18698    18657    18625    18642    18681 
   18693    18702    18747    18792    18814    18836    18841    18871 
   19002    19191    19323    19372    19398    19421    19419    19426 
   19468    19516    19539    19518    19440    19325    19213    19120 
   19033    18967    18929    18887    18827    18781    18747    18678 
   18574    18499    18470    18441    18365    18245    18100    17957 
   17852    17806    17813    17841    17872    17875    17852    17849 
   17891    17941    17957    17926    17867    17821    17811    17807 
   17788    17778    17783    17793    17799    17787    17764    17767 
   17798    17842    17888    17937    18006    18094    18183    18269 
   18326    18349    18377    18423    18481    18557    18621    18648 
   18682    18747    18804    18832    18848    18871    18906    18924 
   18895    18843    18793    18740    18661    18553    18449    18368 
   18300    18239    18198    18192    18223    18258    18268    18252 
   18229    18226    18245    18268    18292    18316    18310    18273 
   18264    18307    18365    18426    18472    18465    18414    18365 
   18326    18284    18249    18229    18212    18188    18160    18123 
   18088    18075    18063    18026    17992    17977    17969    17967 
   17967    17955    17940    17929    17919    17911    17899    17891 
   17905    17934    17957    17971    17976    17963    17934    17913 
   17901    17884    17887    17948    18063    18176    18260    18345 
   18451    18546    18607    18647    18684    18704    18708    18706 
   18693    18675    18684    18725    18769    18781    18778    18812 
   18881    18935    18941    18937    18962    19002    19040    19057 
   19036    18985    18927    18848    18750    18658    18580    18505 
   18427    18334    18231    18131    18042    17961    17879    17793 
   17718    17659    17590    17525    17496    17477    17444    17423 
   17406    17392    17382    17366    17358    17359    17328    17261 
   17193    17153    17142    17143    17139    17134    17151    17227 
   17351    17496    17648    17771    17847    17895    17937    17979 
   17992    17987    18036    18142    18281    18477    18728    18987 
   19217    19430    19653    19862    20009    20100    20177    20252 
   20324    20397    20457    20493    20521    20549    20559    20534 
   20484    20421    20349    20278    20210    20133    20042    19928 
   19776    19600    19442    19292    19137    18986    18843    18727 
   18666    18630    18580    18530    18463    18387    18326    18241 
   18107    17994    17915    17826    17732    17648    17555    17458 
   17379    17312    17258    17224    17194    17161    17138    17143 
   17163    17167    17135    17088    17073    17092    17115    17138 
   17182    17248    17298    17308    17296    17294    17297    17282 
   17278    17329    17409    17474    17540    17629    17729    17840 
   17982    18166    18370    18559    18736    18905    19056    19195 
   19326    19440    19538    19614    19646    19631    19592    19554 
   19514    19461    19404    19322    19205    19090    18990    18883 
   18783    18708    18638    18561    18496    18443    18388    18349 
   18347    18355    18343    18328    18342    18389    18457    18534 
   18605    18646    18666    18715    18787    18862    18927    18963 
   18976    18995    19032    19091    19164    19222    19269    19309 
   19314    19314    19381    19504    19633    19766    19911    20040 
   20148    20231    20275    20263    20210    20159    20123    20094 
   20071    20051    20023    19971    19901    19839    19792    19754 
   19728    19692    19638    19596    19572    19533    19489    19448 
   19383    19298    19206    19107    19022    18955    18887    18825 
   18782    18746    18693    18623    18540    18447    18342    18245 
   18172    18094    17995    17902    17817    17728    17629    17508 
   17377    17271    17200    17147    17115    17100    17084    17057 
   17008    16910    16794    16715    16677    16656    16636    16609 
   16606    16642    16696    16757    16837    16920    16977    17011 
   17039    17062    17062    17032    16992    16973    16968    16947 
   16926    16935    16973    17014    17049    17077    17091    17086 
   17059    17007    16946    16908    16918    16978    17064    17153 
   17257    17378    17498    17608    17712    17790    17825    17837 
   17867    17930    18007    18073    18141    18220    18304    18389 
   18468    18540    18620    18708    18787    18831    18824    18798 
   18781    18756    18711    18671    18692    18752    18801    18839 
   18878    18910    18947    18975    18970    18935    18883    18835 
   18821    18835    18852    18873    18891    18902    18920    18943 
   18956    18955    18936    18905    18868    18828    18783    18752 
   18732    18713    18690    18650    18600    18554    18522    18495 
   18465    18423    18353    18250    18141    18045    17949    17852 
   17772    17709    17659    17626    17625    17663    17713    17739 
   17756    17788    17829    17882    17941    17998    18053    18111 
   18168    18238    18334    18441    18528    18588    18648    18727 
   18798    18859    18928    19010    19079    19136    19203    19257 
   19268    19237    19183    19136    19113    19101    19086    19068 
   19057    19071    19117    19191    19276    19348    19377    19361 
   19319    19269    19219    19171    19126    19056    18943    18832 
   18758    18682    18584    18470    18341    18223    18138    18067 
   17994    17917    17821    17721    17633    17559    17481    17385 
   17280    17200    17162    17163    17199    17262    17346    17436 
   17528    17618    17678    17695    17698    17701    17699    17701 
   17703    17713    17733    17733    17703    17680    17676    17687 
   17721    17771    17811    17845    17894    17953    17983    17964 
   17930    17921    17922    17909    17906    17957    18050    18158 
   18291    18443    18581    18696    18806    18921    19025    19090 
   19120    19149    19182    19209    19257    19356    19471    19554 
   19618    19677    19722    19747    19746    19705    19631    19542 
   19454    19380    19313    19229    19125    19012    18891    18765 
   18646    18549    18465    18391    18333    18300    18292    18300 
   18308    18288    18256    18256    18274    18279    18273    18287 
   18319    18353    18396    18476    18592    18716    18814    18873 
   18921    18968    18991    18985    18958    18931    18921    18927 
   18951    18983    19003    19017    19055    19111    19163    19190 
   19187    19160    19130    19118    19129    19156    19197    19246 
   19298    19341    19376    19403    19413    19399    19367    19330 
   19305    19282    19249    19206    19159    19099    19028    18959 
   18886    18805    18733    18681    18635    18574    18492    18418 
   18372    18335    18297    18262    18225    18189    18168    18168 
   18156    18115    18079    18064    18038    17987    17925    17867 
   17829    17810    17787    17755    17736    17729    17720    17710 
   17698    17672    17644    17632    17632    17640    17660    17671 
   17651    17618    17593    17570    17558    17567    17590    17631 
   17695    17761    17813    17875    17956    18038    18111    18176 
   18247    18312    18358    18407    18468    18516    18536    18535 
   18524    18493    18439    18385    18339    18296    18268    18269 
   18293    18345    18423    18507    18586    18670    18744    18809 
   18881    18971    19066    19149    19218    19284    19354    19419 
   19473    19531    19597    19666    19746    19828    19889    19926 
   19943    19916    19832    19714    19584    19419    19205    18962 
   18706    18454    18239    18065    17895    17706    17502    17305 
   17118    16923    16722    16536    16384    16267    16179    16119 
   16081    16058    16028    15981    15925    15873    15836    15831 
   15854    15896    15970    16073    16186    16318    16478    16652 
   16835    17026    17216    17400    17572    17733    17901    18092 
   18293    18480    18654    18828    18986    19125    19253    19377 
   19494    19596    19691    19803    19923    20044    20173    20291 
   20385    20466    20540    20592    20602    20572    20525    20467 
   20395    20314    20217    20101    19982    19877    19755    19606 
   19448    19290    19121    18936    18736    18530    18315    18095 
   17886    17693    17509    17340    17205    17103    17028    16989 
   16961    16927    16916    16929    16943    16980    17045    17119 
   17212    17339    17500    17680    17863    18038    18216    18407 
   18594    18770    18929    19076    19219    19349    19444    19506 
   19545    19560    19562    19558    19538    19504    19468    19431 
   19375    19282    19182    19086    18978    18856    18720    18581 
   18472    18381    18289    18193    18095    18011    17968    17952 
   17948    17960    17983    18009    18036    18067    18098    18129 
   18162    18202    18233    18247    18260    18285    18320    18364 
   18405    18441    18465    18488    18524    18580    18634    18678 
   18713    18735    18738    18712    18666    18621    18590    18570 
   18558    18569    18601    18635    18674    18725    18767    18794 
   18820    18854    18890    18920    18933    18937    18944    18952 
   18964    18982    18994    18989    18974    18947    18916    18894 
   18893    18900    18879    18810    18709    18593    18474    18366 
   18262    18138    17995    17856    17726    17602    17490    17397 
   17317    17250    17197    17158    17124    17100    17107    17147 
   17209    17292    17409    17544    17674    17797    17923    18040 
   18137    18227    18315    18387    18445    18512    18588    18667 
   18752    18835    18924    19021    19101    19156    19213    19286 
   19363    19442    19533    19615    19665    19680    19678    19661 
   19624    19603    19608    19606    19565    19507    19467    19445 
   19417    19363    19292    19210    19106    18990    18877    18763 
   18628    18463    18287    18114    17940    17760    17572    17373 
   17158    16927    16681    16425    16183    15963    15765    15601 
   15473    15361    15249    15130    15006    14885    14778    14693 
   14635    14600    14585    14596    14646    14735    14860    15009 
   15168    15330    15493    15660    15838    16027    16204    16368 
   16544    16742    16947    17132    17290    17432    17568    17694 
   17810    17928    18046    18152    18245    18339    18430    18523 
   18631    18752    18874    18983    19072    19156    19229    19273 
   19295    19309    19321    19334    19354    19377    19392    19396 
   19408    19423    19417    19388    19363    19342    19311    19278 
   19264    19265    19259    19241    19225    19218    19230    19265 
   19318    19376    19413    19418    19429    19462    19507    19562 
   19626    19666    19676    19687    19705    19715    19726    19758 
   19807    19847    19865    19872    19882    19900    19926    19962 
   20012    20082    20171    20254    20328    20401    20457    20499 
   20526    20538    20544    20538    20510    20475    20441    20406 
   20367    20312    20241    20163    20093    20031    19955    19854 
   19741    19624    19498    19360    19224    19093    18964    18831 
   18692    18558    18422    18283    18157    18044    17923    17795 
   17666    17535    17401    17273    17149    17031    16930    16850 
   16795    16752    16708    16664    16629    16606    16584    16578 
   16610    16677    16754    16826    16903    17007    17135    17269 
   17398    17529    17660    17798    17946    18096    18250    18418 
   18588    18748    18901    19052    19188    19296    19402    19515 
   19616    19692    19768    19849    19896    19882    19834    19773 
   19700    19611    19515    19429    19372    19332    19288    19248 
   19214    19178    19129    19076    19018    18955    18895    18846 
   18796    18743    18696    18659    18643    18643    18646    18647 
   18654    18662    18665    18663    18663    18663    18657    18639 
   18619    18597    18570    18535    18495    18447    18400    18351 
   18291    18211    18133    18060    17999    17957    17918    17874 
   17836    17803    17764    17710    17641    17568    17509    17469 
   17436    17401    17388    17413    17464    17508    17544    17582 
   17614    17626    17624    17613    17620    17649    17679    17709 
   17744    17776    17803    17830    17867    17907    17936    17957 
   17987    18014    18038    18079    18146    18218    18273    18311 
   18334    18355    18387    18415    18434    18446    18470    18504 
   18515    18507    18517    18544    18563    18574    18580    18576 
   18567    18565    18567    18565    18547    18522    18496    18477 
   18458    18434    18412    18395    18374    18351    18337    18328 
   18323    18320    18318    18307    18289    18288    18316    18354 
   18395    18441    18477    18492    18500    18511    18509    18482 
   18441    18403    18362    18306    18231    18161    18108    18061 
   18015    17977    17938    17883    17813    17734    17664    17620 
   17587    17552    17524    17502    17473    17435    17405    17389 
   17393    17405    17410    17420    17442    17467    17504    17536 
   17541    17531    17535    17550    17550    17550    17578    17632 
   17680    17720    17749    17780    17820    17868    17938    18022 
   18090    18158    18266    18408    18547    18658    18744    18829 
   18921    18999    19056    19111    19175    19224    19261    19299 
   19322    19319    19303    19265    19206    19138    19083    19040 
   18998    18949    18898    18851    18790    18709    18627    18561 
   18509    18473    18449    18446    18469    18500    18526    18536 
   18528    18513    18509    18523    18549    18555    18539    18520 
   18500    18463    18426    18399    18384    18376    18370    18360 
   18335    18308    18280    18242    18192    18153    18138    18129 
   18125    18146    18191    18238    18295    18373    18468    18565 
   18655    18746    18843    18944    19045    19148    19246    19317 
   19353    19372    19391    19408    19410    19384    19352    19329 
   19296    19242    19183    19132    19082    19026    18978    18932 
   18870    18801    18731    18648    18562    18501    18463    18430 
   18395    18360    18339    18333    18310    18261    18212    18187 
   18176    18164    18150    18135    18133    18149    18166    18195 
   18253    18326    18388    18438    18474    18489    18490    18478 
   18453    18430    18424    18424    18419    18420    18439    18461 
   18470    18468    18465    18463    18461    18458    18453    18449 
   18451    18453    18441    18426    18415    18404    18389    18360 
   18319    18287    18256    18211    18145    18075    18021    17971 
   17915    17865    17822    17772    17713    17652    17589    17529 
   17482    17423    17343    17263    17190    17119    17054    17015 
   17001    16992    16980    16984    17014    17050    17074    17096 
   17124    17158    17217    17305    17397    17482    17564    17641 
   17718    17799    17892    17999    18121    18256    18392    18523 
   18650    18778    18897    18999    19078    19136    19183    19226 
   19265    19299    19321    19332    19332    19322    19309    19287 
   19268    19255    19229    19178    19106    19018    18924    18837 
   18759    18686    18623    18574    18532    18478    18420    18382 
   18365    18345    18328    18346    18392    18436    18459    18470 
   18499    18549    18600    18657    18712    18754    18792    18823 
   18846    18860    18856    18851    18863    18874    18867    18855 
   18848    18836    18802    18752    18704    18673    18655    18625 
   18582    18546    18516    18480    18436    18400    18381    18372 
   18368    18373    18382    18381    18378    18395    18423    18438 
   18442    18451    18468    18503    18544    18565    18567    18586 
