Origin Time       2025/01/13 21:19:00
Lat.              31.8
Long.             131.6
Depth. (km)       30
Mag.              6.9
Station Code      KGWH02
Station Lat.      34.1980
Station Long.     133.7081
Station Height(m) 5
Record Time       2025/01/13 21:20:28
Sampling Freq(Hz) 100Hz
Duration Time(s)  146
Dir.              5
Scale Factor      7845(gal)/8223790
Max. Acc. (gal)   4.447
Last Correction   2025/01/13 21:20:28
Memo.             
[...]
    1418     1098      961      976     1061     1156     1250     1331 
    1385     1413     1390     1277     1069      789      473      136 
    -180     -417     -545     -591     -565     -429     -163      162 
     425      545      502      357      226      136       21     -149 
    -337     -499     -619     -691     -708     -706     -716     -697 
    -576     -330      -28      233      461      746     1080     1381 
    1602     1703     1665     1502     1221      851      467      129 
    -139     -311     -353     -275     -130       27      202      434 
     699      878      901      816      718      652      608      592 
     656      850     1147     1456     1705     1864     1952     1980 
    1892     1586     1038      398      -95     -301     -260     -120 
       8      116      203      234      202      151      132      189 
     314      413      402      305      214      186      193      174 
      91      -56     -238     -417     -596     -784     -942    -1024 
   -1017     -923     -747     -571     -491     -521     -579     -571 
    -413      -63      432      913     1198     1259     1235     1259 
    1336     1417     1466     1475     1459     1399     1254     1012 
     730      487      325      247      236      295      448      692 
     966     1186     1305     1341     1366     1445     1599     1817 
    2056     2262     2377     2315     2025     1568     1094      737 
     531      430      360      270      174      130      170      270 
     376      483      656      904     1143     1247     1120      739 
     194     -367     -857    -1237    -1478    -1564    -1537    -1433 
   -1267    -1077     -899     -699     -425      -99      221      521 
     796     1000     1042      876      577      303      178      225 
     356      454      522      625      761      853      822      711 
     675      799      984     1080     1030      857      633      461 
     391      392      445      560      706      838      976     1127 
    1275     1455     1738     2124     2506     2747     2744     2481 
    2035     1539     1116      826      676      688      835      966 
     930      710      369       -8     -349     -599     -765     -928 
   -1159    -1432    -1649    -1745    -1709    -1566    -1362    -1154 
    -986     -869     -797     -764     -745     -697     -589     -459 
    -372     -344     -348     -371     -395     -386     -326     -224 
     -71      163      500      920     1341     1676     1915     2120 
    2334     2529     2644     2631     2470     2219     1989     1845 
    1756     1678     1614     1566     1487     1345     1154      954 
     793      702      666      665      673      665      633      612 
     633      685      757      842      901      884      750      514 
     268      147      195      352      537      707      812      797 
     637      372      112      -47      -93      -63       36      220 
     437      603      666      646      589      558      594      691 
     801      888      942      930      781      490      152     -130 
    -315     -411     -446     -434     -372     -232       16      346 
     697     1021     1316     1590     1807     1906     1875     1750 
    1567     1340     1086      818      558      351      209      103 
      14      -18       49      220      440      676      897     1067 
    1183     1252     1227     1077      857      612      329       -1 
    -324     -577     -747     -855     -927    -1017    -1167    -1344 
   -1479    -1544    -1530    -1424    -1202     -870     -467      -81 
     194      336      368      284       60     -260     -571     -776 
    -847     -799     -634     -345       27      386      652      797 
     826      778      711      660      607      538      503      568 
     719      896     1057     1212     1377     1503     1510     1362 
    1100      812      591      479      460      487      540      643 
     810     1003     1173     1281     1310     1270     1175     1046 
     912      831      839      926     1061     1198     1269     1231 
    1119      986      859      749      673      648      689      780 
     862      918      953      947      897      838      783      707 
     604      510      432      360      333      384      494      625 
     758      862      886      788      557      228     -124     -425 
    -641     -743     -704     -521     -218      118      369      456 
     395      282      183      122      118      176      249      253 
     156        4     -122     -163      -95       60      253      391 
     436      434      438      468      581      820     1119     1352 
    1464     1479     1451     1439     1466     1526     1620     1729 
    1834     1910     1921     1831     1638     1389     1144      930 
     727      498      205     -144     -476     -722     -884     -993 
   -1044    -1021     -943     -835     -722     -648     -616     -577 
    -492     -388     -303     -260     -256     -275     -303     -332 
    -309     -164      128      503      847     1096     1256     1378 
    1501     1634     1771     1894     1996     2064     2083     2053 
    1995     1923     1836     1726     1597     1452     1317     1223 
    1162     1093      985      818      581      280      -83     -540 
   -1097    -1680    -2178    -2531    -2732    -2799    -2759    -2654 
   -2508    -2367    -2286    -2278    -2296    -2288    -2234    -2143 
   -2003    -1788    -1518    -1242     -986     -774     -631     -569 
    -565     -576     -575     -538     -414     -139      288      805 
    1347     1877     2397     2859     3163     3258     3200     3087 
    2999     2963     2955     2965     2987     3024     3092     3186 
    3257     3275     3231     3149     3053     2941     2810     2675 
    2529     2335     2077     1784     1507     1266     1043      815 
     569      299       -4     -340     -675     -965    -1166    -1244 
   -1213    -1128    -1038     -969     -920     -882     -862     -872 
    -915     -972     -977     -864     -637     -373     -149        9 
     110      163      180      198      264      418      665      966 
    1262     1516     1736     1933     2085     2138     2073     1929 
    1752     1587     1470     1439     1534     1740     1941     2004 
    1896     1683     1448     1244     1088      965      872      824 
     830      881      958     1039     1105     1139     1120     1054 
     959      830      650      429      211       60       37      147 
     317      475      626      778      892      926      889      799 
     657      480      288       90     -114     -315     -496     -645 
    -789     -962    -1139    -1286    -1386    -1422    -1370    -1251 
   -1134    -1036     -938     -846     -797     -816     -901    -1020 
   -1131    -1205    -1225    -1189    -1093     -924     -687     -396 
     -59      353      873     1467     2054     2573     2992     3292 
    3454     3481     3393     3222     2991     2713     2393     2034 
    1629     1204      820      546      415      422      544      746 
     978     1198     1390     1529     1568     1493     1343     1175 
    1034      918      803      681      567      472      403      355 
     307      255      211      197      228      318      460      618 
     758      880      981     1026      985      870      727      589 
     486      423      403      449      548      660      764      820 
     793      676      508      359      247      143       29      -72 
    -132     -129      -81      -40      -54     -120     -226     -355 
    -481     -587     -658     -696     -719     -749     -828     -988 
   -1208    -1436    -1620    -1722    -1737    -1664    -1501    -1262 
    -999     -773     -621     -544     -533     -569     -625     -679 
    -684     -581     -351      -20      367      764     1117     1382 
    1539     1593     1580     1548     1509     1452     1372     1264 
    1139     1042     1009     1032     1086     1175     1316     1499 
    1715     1949     2180     2392     2566     2644     2581     2401 
    2180     1980     1818     1672     1501     1279     1027      781 
     542      322      175      129      155      218      301      376 
     426      461      521      612      700      743      735      675 
     537      298      -44     -441     -808    -1104    -1339    -1534 
   -1703    -1836    -1911    -1914    -1852    -1750    -1617    -1429 
   -1178     -872     -523     -168      135      360      525      666 
     801      924     1011     1026      940      754      467       85 
    -357     -815    -1233    -1551    -1721    -1734    -1611    -1358 
    -965     -461       89      633     1119     1499     1775     1977 
    2137     2269     2373     2446     2496     2524     2506     2419 
    2239     1981     1699     1441     1256     1200     1266     1408 
    1583     1756     1895     1987     2031     2015     1954     1896 
    1865     1848     1834     1807     1728     1568     1347     1094 
     832      587      372      201      101       87      151      276 
     425      550      642      704      735      737      697      607 
     484      357      230      109       -1     -101     -183     -249 
    -290     -280     -238     -206     -206     -230     -264     -282 
    -276     -278     -318     -396     -486     -583     -718     -891 
   -1048    -1105    -1017     -814     -557     -305      -94       41 
      64      -40     -253     -515     -749     -891     -927     -873 
    -747     -560     -317      -21      313      662      992     1266 
    1459     1555     1552     1486     1409     1375     1417     1536 
    1695     1860     2006     2106     2146     2135     2085     2010 
    1919     1813     1680     1516     1308     1065      828      641 
     508      403      306      240      199      129        5     -164 
    -382     -630     -866    -1046    -1161    -1223    -1224    -1151 
   -1016     -854     -688     -502     -275        0      310      618 
     859      999     1059     1081     1074     1050     1048     1108 
    1208     1314     1409     1491     1555     1609     1659     1688 
    1669     1593     1455     1262     1031      772      495      228 
     -13     -238     -477     -720     -913    -1017    -1023     -934 
    -766     -533     -244       85      427      733      943     1035 
    1040     1019      994      957      895      827      762      683 
     584      469      357      295      322      442      629      842 
    1053     1263     1464     1629     1755     1863     1996     2180 
    2367     2484     2493     2439     2376     2327     2303     2296 
    2286     2245     2150     1995     1788     1576     1412     1309 
    1254     1246     1289     1375     1463     1499     1468     1406 
    1351     1308     1262     1194     1101      973      769      463 
      82     -305     -638     -901    -1100    -1243    -1347    -1422 
   -1471    -1483    -1433    -1302    -1117     -936     -807     -761 
    -805     -928    -1086    -1229    -1323    -1355    -1323    -1233 
   -1104     -935     -735     -519     -321     -140       51      272 
     499      666      708      623      444      190     -110     -418 
    -676     -830     -853     -762     -579     -288      132      657 
    1201     1647     1929     2047     2019     1842     1537     1152 
     742      356       17     -268     -508     -710     -849     -886 
    -834     -716     -537     -307      -79       86      184      251 
     310      369      438      492      496      432      299       95 
    -147     -352     -457     -429     -253       52      445      862 
    1251     1567     1794     1931     1989     1987     1944     1872 
    1776     1678     1610     1580     1575     1575     1552     1483 
    1363     1210     1061      939      842      726      545      280 
     -31     -338     -616     -872    -1100    -1281    -1410    -1510 
   -1598    -1678    -1757    -1817    -1831    -1791    -1706    -1591 
   -1455    -1301    -1152    -1027     -918     -816     -708     -576 
    -429     -305     -222     -174     -130      -66       41      210 
     456      765     1094     1391     1622     1782     1876     1912 
    1921     1939     1993     2095     2263     2500     2782     3083 
    3369     3600     3751     3834     3881     3923     3944     3929 
    3888     3832     3761     3655     3512     3339     3150     2947 
    2724     2466     2168     1827     1478     1159      886      656 
     479      361      295      264      253      234      174       59 
     -98     -271     -436     -573     -677     -761     -845     -954 
   -1090    -1240    -1383    -1503    -1564    -1533    -1412    -1237 
   -1062     -946     -918     -962    -1054    -1194    -1394    -1618 
   -1810    -1927    -1975    -1969    -1925    -1861    -1776    -1641 
   -1441    -1178     -850     -448       35      599     1220     1871 
    2527     3154     3713     4168     4499     4703     4801     4827 
    4801     4746     4675     4591     4484     4310     4036     3651 
    3171     2643     2122     1641     1227      896      649      472 
     338      217       79      -75     -238     -400     -583     -842 
   -1213    -1663    -2130    -2585    -3019    -3412    -3738    -3973 
   -4112    -4160    -4124    -3997    -3790    -3504    -3138    -2718 
   -2269    -1794    -1302     -826     -396      -40      245      486 
     692      884     1073     1244     1383     1487     1534     1502 
    1383     1204     1019      884      820      814      849      924 
    1032     1132     1183     1179     1140     1085     1016      927 
     820      718      661      666      738      881     1097     1364 
    1655     1945     2235     2513     2737     2878     2921     2867 
    2728     2533     2299     2043     1796     1564     1333     1092 
     838      572      313       78     -129     -313     -472     -610 
    -745     -889    -1046    -1208    -1352    -1467    -1561    -1628 
   -1637    -1587    -1497    -1389    -1298    -1266    -1308    -1413 
   -1559    -1732    -1927    -2133    -2324    -2484    -2598    -2641 
   -2593    -2457    -2261    -2027    -1760    -1476    -1205     -953 
    -702     -425      -87      314      774     1285     1836     2405 
    2940     3373     3690     3913     4067     4185     4284     4375 
    4461     4534     4591     4637     4669     4688     4696     4680 
    4644     4592     4502     4344     4117     3847     3542     3184 
    2751     2232     1641     1013      398     -172     -696    -1173 
   -1595    -1956    -2247    -2457    -2566    -2565    -2462    -2276 
   -2019    -1705    -1350     -984     -645     -356     -137      -20 
      -5      -72     -193     -330     -464     -562     -591     -541 
    -432     -275      -82      145      402      657      889     1086 
    1246     1389     1521     1598     1579     1459     1244      950 
     592      194     -195     -515     -703     -739     -668     -557 
    -464     -410     -387     -384     -388     -380     -351     -295 
    -216     -120        0      159      348      541      720      859 
     938      951      907      820      697      542      372      221 
     133      120      175      313      540      835     1177     1543 
    1927     2338     2767     3186     3549     3828     4009     4099 
    4128     4114     4068     3985     3858     3689     3465     3153 
    2732     2212     1657     1142      693      306      -12     -230 
    -338     -373     -394     -436     -537     -714     -947    -1217 
   -1512    -1802    -2061    -2270    -2424    -2524    -2567    -2551 
   -2478    -2343    -2145    -1894    -1606    -1300     -992     -665 
    -279      186      726     1316     1902     2413     2789     2991 
    3013     2875     2617     2296     1962     1652     1385     1173 
     986      788      571      329       58     -229     -514     -774 
    -986    -1134    -1225    -1286    -1331    -1368    -1398    -1404 
   -1378    -1339    -1304    -1247    -1123     -926     -689     -440 
    -171      129      461      812     1158     1471     1742     1991 
    2246     2513     2774     2999     3169     3258     3262     3200 
    3082     2903     2664     2362     2007     1638     1301     1005 
     739      479      207      -64     -318     -553     -778     -992 
   -1183    -1343    -1451    -1490    -1458    -1368    -1240    -1097 
    -963     -858     -799     -768     -731     -662     -546     -383 
    -168       79      321      534      719      877     1013     1125 
    1215     1282     1316     1308     1263     1190     1115     1061 
    1031     1017     1012      999      974      936      878      801 
     708      612      522      444      390      378      419      495 
     584      669      729      765      819      908     1028     1183 
    1355     1498     1579     1588     1529     1426     1339     1296 
    1282     1269     1246     1210     1174     1148     1142     1161 
    1225     1345     1509     1672     1779     1784     1696     1560 
    1405     1228     1016      760      456      118     -230     -589 
    -961    -1337    -1687    -1968    -2151    -2245    -2265    -2219 
   -2096    -1895    -1656    -1437    -1273    -1159    -1078    -1015 
    -965     -923     -874     -815     -738     -627     -475     -298 
    -135      -12       70      103       87       51       35       70 
     183      392      679      989     1263     1479     1651     1787 
    1877     1944     2010     2083     2168     2274     2409     2565 
    2713     2830     2907     2929     2893     2812     2702     2578 
    2454     2358     2301     2266     2231     2203     2203     2222 
    2222     2169     2039     1822     1534     1212      886      591 
     356      199      112       75       59       31      -47     -190 
    -372     -560     -733     -892    -1044    -1178    -1281    -1366 
   -1452    -1543    -1629    -1696    -1729    -1713    -1663    -1595 
   -1513    -1397    -1252    -1093     -912     -676     -384      -75 
     216      471      693      900     1085     1228     1327     1394 
    1451     1509     1575     1642     1707     1773     1838     1885 
    1884     1800     1624     1383     1138      918      727      567 
     440      356      303      253      175       49     -116     -291 
    -445     -557     -623     -645     -622     -560     -469     -365 
    -264     -172      -91      -10       75      167      272      382 
     477      549      618      704      814      940     1081     1242 
    1420     1597     1742     1826     1833     1775     1663     1506 
    1321     1131      953      787      627      480      349      244 
     179      159      195      298      444      599      737      830 
     873      897      953     1042     1132     1192     1208     1197 
    1155     1050      865      623      368      130      -75     -230 
    -319     -325     -244     -112       14      113      174      197 
     193      174      152      137      140      168      205      232 
