Origin Time       2025/01/13 21:19:00
Lat.              31.8
Long.             131.6
Depth. (km)       30
Mag.              6.9
Station Code      KMMH03
Station Lat.      32.9984
Station Long.     130.8301
Station Height(m) 178
Record Time       2025/01/13 21:19:56
Sampling Freq(Hz) 100Hz
Duration Time(s)  155
Dir.              4
Scale Factor      7845(gal)/8223790
Max. Acc. (gal)   25.251
Last Correction   2025/01/13 21:19:57
Memo.             
[...]
    4934     5113     5401     5749     6038     6083     5773     5151 
    4329     3435     2677     2272     2270     2590     3132     3747 
    4280     4691     5028     5363     5769     6242     6631     6786 
    6728     6552     6288     5927     5525     5107     4615     4101 
    3750     3647     3709     3817     3856     3694     3304     2806 
    2317     1885     1567     1422     1379     1297     1174     1139 
    1296     1686     2245     2797     3186     3373     3411     3360 
    3298     3325     3476     3705     3998     4351     4715     5051 
    5344     5567     5688     5657     5429     5001     4452     4006 
    3946     4349     5032     5765     6386     6770     6906     6871 
    6687     6401     6177     6088     6041     5973     5908     5864 
    5821     5714     5429     4912     4228     3492     2821     2311 
    2003     1908     2061     2470     3075     3731     4247     4483 
    4410     4098     3659     3207     2876     2806     3037     3480 
    3950     4237     4186     3802     3307     2970     2863     2926 
    3115     3353     3508     3527     3531     3700     4058     4515 
    5003     5427     5643     5641     5597     5675     5904     6241 
    6601     6858     6885     6609     6065     5374     4693     4174 
    3890     3797     3788     3831     3944     4110     4315     4552 
    4727     4708     4521     4330     4259     4261     4224     4147 
    4131     4174     4128     3840     3292     2647     2127     1890 
    1988     2371     2876     3296     3514     3537     3435     3264 
    3075     2983     3118     3489     3989     4523     5030     5455 
    5771     5946     5944     5768     5476     5152     4885     4738 
    4677     4602     4452     4229     3960     3716     3572     3568 
    3669     3717     3572     3331     3227     3397     3861     4583 
    5424     6153     6558     6556     6226     5729     5206     4715 
    4337     4225     4449     4932     5553     6172     6628     6843 
    6853     6712     6453     6124     5768     5360     4873     4405 
    4125     4094     4294     4718     5269     5746     6002     5992 
    5755     5305     4623     3754     2835     2008     1426     1198 
    1321     1698     2178     2605     2897     3065     3141     3146 
    3133     3188     3403     3789     4272     4785     5254     5574 
    5703     5656     5429     5067     4679     4380     4253     4294 
    4407     4492     4471     4270     3896     3512     3329     3453 
    3854     4405     4914     5161     5057     4726     4363     4113 
    4050     4148     4337     4550     4730     4864     4957     4992 
    4969     4873     4642     4245     3716     3133     2587     2165 
    1880     1684     1547     1439     1290     1081      926      911 
     969      984      905      706      376        5     -230     -210 
      85      621     1296     1953     2484     2857     3065     3137 
    3133     3096     3082     3127     3264     3532     3956     4492 
    5043     5545     6016     6507     7051     7665     8374     9200 
   10098    10924    11518    11792    11758    11493    11047    10439 
    9751     9136     8752     8640     8722     8904     9084     9104 
    8833     8276     7543     6717     5865     5078     4384     3778 
    3276     2853     2389     1756      980      187     -567    -1269 
   -1896    -2475    -3032    -3522    -3896    -4148    -4261    -4197 
   -3971    -3615    -3136    -2612    -2126    -1702    -1377    -1169 
    -970     -614      -37      746     1740     2872     4016     5078 
    5980     6681     7233     7722     8199     8637     9015     9394 
    9775    10104    10369    10530    10534    10419    10220     9915 
    9533     9169     8901     8772     8750     8770     8799     8811 
    8781     8707     8610     8476     8235     7808     7177     6411 
    5621     4899     4309     3904     3697     3674     3796     4023 
    4328     4662     4932     5027     4876     4504     4023     3524 
    3115     2921     2983     3204     3491     3843     4271     4758 
    5352     6079     6762     7153     7152     6783     6062     5092 
    4141     3443     3042     2889     2926     3073     3277     3585 
    4036     4560     5050     5433     5609     5508     5174     4714 
    4222     3778     3429     3184     3021     2909     2818     2741 
    2732     2884     3206     3616     3975     4106     3883     3306 
    2481     1613      882      317     -126     -429     -584     -634 
    -535     -180      436     1217     2060     2837     3457     3921 
    4253     4432     4413     4164     3713     3153     2565     2002 
    1544     1244     1075      997     1003     1044     1013      808 
     437      -17     -491     -897    -1159    -1304    -1378    -1320 
   -1024     -476      298     1328     2533     3694     4710     5611 
    6403     7098     7709     8159     8356     8324     8224     8225 
    8364     8608     8951     9354     9763    10169    10578    10990 
   11399    11770    12028    12070    11858    11419    10797    10114 
    9549     9150     8874     8680     8460     8162     7862     7599 
    7348     7117     6887     6581     6214     5899     5710     5675 
    5799     6022     6268     6421     6324     5900     5227     4401 
    3534     2751     2145     1740     1509     1414     1408     1390 
    1277     1031      595      -79     -919    -1729    -2331    -2743 
   -3065    -3319    -3524    -3721    -3879    -3942    -3878    -3607 
   -3060    -2316    -1485     -587      310     1070     1674     2182 
    2563     2830     3146     3603     4128     4688     5292     5815 
    6095     6093     5875     5528     5157     4842     4608     4473 
    4449     4436     4324     4108     3797     3410     3078     2948 
    3064     3439     4068     4816     5514     6108     6600     6966 
    7238     7491     7731     7917     8024     8035     7916     7630 
    7210     6774     6409     6174     6165     6409     6770     7075 
    7219     7101     6666     5967     5080     4106     3225     2571 
    2115     1790     1625     1669     1945     2502     3362     4468 
    5776     7234     8696    10010    11082    11861    12321    12448 
   12245    11751    11028    10243     9591     9103     8793     8752 
    8934     9140     9174     8951     8506     7859     6994     6007 
    5067     4228     3472     2845     2382     2052     1807     1590 
    1333     1061      824      596      333       35     -303     -672 
    -940     -926     -562      124     1108     2297     3497     4553 
    5435     6153     6659     6879     6787     6409     5806     5104 
    4417     3731     2974     2119     1181      141     -982    -2073 
   -3011    -3777    -4364    -4720    -4801    -4554    -4010    -3321 
   -2512    -1547     -545      348     1057     1529     1867     2188 
    2439     2593     2667     2627     2521     2461     2438     2467 
    2631     2949     3419     4041     4756     5525     6389     7368 
    8440     9541    10551    11403    12167    12893    13536    14108 
   14658    15086    15277    15213    14832    14046    12843    11264 
    9418     7458     5491     3690     2323     1605     1579     2096 
    2916     3848     4725     5389     5795     5991     6054     6039 
    5918     5628     5169     4610     4033     3458     2887     2377 
    2037     1944     2068     2319     2617     2886     3032     3009 
    2903     2871     2987     3175     3283     3226     3005     2658 
    2239     1767     1193      495     -218     -812    -1242    -1524 
   -1672    -1669    -1501    -1189     -762     -211      494     1355 
    2282     3113     3773     4264     4483     4361     4158     4251 
    4835     5865     7136     8361     9296     9794     9830     9478 
    8858     8052     7113     6124     5177     4263     3373     2592 
    1969     1455      953      384     -276     -965    -1566    -1993 
   -2191    -2095    -1736    -1263     -791     -311      210      776 
    1383     2012     2587     3063     3497     3975     4531     5182 
    5910     6612     7168     7520     7677     7649     7462     7180 
    6813     6335     5794     5273     4796     4410     4190     4175 
    4367     4764     5340     6021     6740     7476     8187     8827 
    9391     9836    10065    10062     9857     9440     8826     8100 
    7369     6723     6237     5954     5875     5960     6146     6381 
    6631     6902     7204     7445     7468     7196     6667     5938 
    5090     4237     3454     2745     2116     1617     1278     1124 
    1225     1618     2254     3029     3788     4380     4745     4868 
    4760     4518     4274     4071     3861     3595     3268     2918 
    2608     2378     2238     2207     2315     2543     2876     3310 
    3784     4207     4510     4623     4533     4294     3997     3766 
    3723     3919     4317     4800     5205     5414     5397     5179 
    4789     4261     3704     3246     2941     2789     2774     2840 
    2914     2999     3102     3129     2988     2704     2338     1921 
    1474     1057      722      453      198      -35     -187     -220 
    -109      207      764     1475     2215     2907     3543     4180 
    4865     5609     6444     7327     8068     8472     8469     8073 
    7392     6623     5937     5431     5161     5128     5254     5448 
    5719     6114     6615     7182     7784     8390     8931     9333 
    9576     9676     9648     9521     9302     8999     8662     8351 
    8162     8209     8496     8908     9273     9474     9491     9342 
    9070     8746     8379     7977     7546     7044     6421     5617 
    4581     3366     2107      909     -176    -1131    -1945    -2612 
   -3113    -3430    -3558    -3539    -3456    -3362    -3271    -3160 
   -2980    -2701    -2354    -1989    -1637    -1306     -997     -689 
    -305      245      970     1768     2527     3167     3623     3898 
    4066     4228     4488     4914     5498     6199     6934     7638 
    8320     8997     9630    10135    10409    10363     9999     9421 
    8756     8116     7627     7362     7329     7515     7834     8133 
    8326     8395     8338     8160     7886     7577     7273     6957 
    6601     6228     5869     5506     5108     4642     4050     3294 
    2439     1551      643     -249    -1086    -1813    -2353    -2660 
   -2755    -2667    -2407    -1988    -1431     -787     -164      322 
     603      693      689      729      907     1242     1672     2100 
    2459     2778     3132     3569     4110     4785     5572     6342 
    6978     7488     7917     8290     8641     8954     9159     9166 
    8958     8679     8526     8549     8680     8835     8924     8876 
    8665     8314     7885     7433     7005     6620     6253     5890 
    5564     5271     5017     4876     4846     4833     4765     4615 
    4401     4160     3904     3628     3339     3017     2625     2154 
    1633     1138      756      544      540      753     1147     1692 
    2367     3100     3797     4382     4810     5065     5144     5077 
    4947     4857     4876     5067     5466     6015     6588     7071 
    7396     7580     7685     7712     7584     7231     6635     5805 
    4769     3619     2521     1613      949      549      426      556 
     849     1202     1555     1865     2108     2292     2373     2272 
    1992     1617     1171      665      176     -234     -562     -758 
    -773     -680     -569     -419     -205      -25       27      -39 
    -174     -286     -267      -89      238      726     1356     2043 
    2691     3248     3712     4093     4410     4699     4993     5316 
    5671     6034     6400     6779     7156     7527     7936     8399 
    8911     9459     9976    10413    10785    11087    11296    11412 
   11411    11256    10986    10663    10296     9872     9374     8775 
    8062     7225     6243     5155     4051     2995     2023     1171 
     433     -175     -575     -720     -645     -361      145      878 
    1788     2781     3807     4849     5819     6594     7117     7395 
    7456     7285     6903     6435     6008     5674     5404     5162 
    4918     4650     4361     4060     3762     3508     3360     3352 
    3497     3792     4180     4603     5008     5337     5525     5539 
    5425     5260     5097     4950     4827     4764     4766     4792 
    4858     5001     5213     5454     5676     5803     5755     5516 
    5138     4664     4106     3516     2995     2567     2165     1771 
    1443     1208      999      754      510      306       85     -214 
    -595    -1038    -1494    -1961    -2500    -3107    -3735    -4347 
   -4841    -5101    -5107    -4884    -4464    -3925    -3385    -2882 
   -2335    -1622     -703      365     1512     2673     3817     4950 
    6060     7134     8247     9431    10605    11708    12750    13737 
   14638    15388    15913    16154    16119    15901    15620    15421 
   15365    15425    15666    16073    16398    16648    17086    17658 
   18152    18586    18914    18999    18833    18362    17589    16649 
   15498    14110    12668    11209     9694     8224     6839     5489 
    4121     2713     1267     -213    -1714    -3225    -4706    -6081 
   -7380    -8700    -9981   -11105   -12135   -13223   -14463   -15866 
  -17312   -18694   -19986   -21084   -21864   -22199   -22106   -21875 
  -21581   -20987   -20056   -18792   -17104   -15211   -13220   -10832 
   -8118    -5416    -2847     -444     1958     4347     6428     8457 
   10781    13142    15529    18115    20487    22353    23799    24794 
   25303    25353    25116    24825    24406    23819    23172    22341 
   21208    19944    18786    17813    16926    16114    15530    15121 
   14744    14476    14318    14025    13456    12645    11605    10334 
    8860     7280     5691     4075     2419      761     -862    -2371 
   -3630    -4507    -5036    -5374    -5632    -5918    -6376    -7036 
   -7804    -8610    -9452   -10276   -10959   -11406   -11523   -11160 
  -10176    -8538    -6403    -4028    -1580      793     2798     4141 
    4777     4874     4637     4268     3967     3812     3820     4132 
    4907     6151     7753     9607    11639    13676    15503    17043 
   18308    19238    19757    19881    19699    19298    18743    18053 
   17254    16341    15277    14122    13012    11973    10978     9996 
    8884     7510     5953     4407     2953     1591      423     -483 
   -1215    -1838    -2332    -2678    -2898    -3046    -3187    -3391 
   -3731    -4266    -4926    -5603    -6278    -6975    -7655    -8213 
   -8623    -8969    -9262    -9464    -9551    -9522    -9391    -9113 
   -8695    -8198    -7570    -6756    -5760    -4550    -3227    -1976 
    -796      319     1298     2235     3231     4244     5281     6353 
    7437     8604     9953    11496    13209    14993    16694    18215 
   19498    20557    21489    22272    22833    23198    23336    23172 
   22752    22152    21447    20790    20247    19666    18879    17828 
   16393    14463    12047     9377     6944     5001     3430     2162 
    1171      409     -174     -658    -1054    -1352    -1603    -1876 
   -2196    -2524    -2767    -2925    -3068    -3127    -3041    -2926 
   -2884    -2925    -3001    -3025    -2990    -2914    -2760    -2504 
   -2161    -1757    -1281     -693       17      851     1791     2732 
    3516     4067     4375     4414     4168     3738     3312     3028 
    2893     2871     2933     3099     3416     3908     4594     5464 
    6470     7554     8618     9532    10247    10816    11295    11754 
   12285    12931    13644    14311    14839    15188    15313    15117 
   14527    13513    12042    10119     7805     5219     2562       60 
   -2141    -3981    -5463    -6651    -7643    -8509    -9212    -9729 
  -10099   -10309   -10262    -9876    -9252    -8552    -7753    -6984 
   -6424    -5779    -4954    -4045    -2624     -723     1050     2656 
    4148     5325     6234     6940     7472     7938     8328     8714 
    9228     9720    10116    10534    10879    11070    11238    11402 
   11395    11200    10928    10577    10095     9494     8750     7839 
    6831     5809     4855     4063     3433     2968     2735     2718 
    2844     3056     3337     3684     4085     4545     5105     5728 
    6308     6810     7226     7519     7676     7695     7546     7271 
    6966     6629     6234     5837     5459     5035     4563     4074 
    3578     3106     2704     2365     2058     1771     1480     1127 
     688      211     -265     -704    -1026    -1197    -1181     -888 
    -245      710     1848     3034     4158     5080     5701     6034 
    6130     5999     5692     5343     5035     4760     4526     4401 
    4405     4522     4777     5167     5578     5899     6135     6292 
    6313     6201     6023     5811     5566     5304     5036     4758 
    4492     4256     4066     3942     3910     3983     4132     4311 
    4503     4716     4957     5194     5417     5683     6007     6351 
    6717     7140     7630     8172     8691     9092     9319     9350 
    9162     8770     8186     7425     6589     5782     5004     4268 
    3628     3086     2558     1975     1366      805      336       17 
     -91        2      256      619     1039     1459     1827     2153 
    2463     2728     2921     3059     3121     3105     3056     2999 
    2947     2933     2965     3075     3307     3657     4089     4571 
    5027     5408     5711     5925     6033     6025     5895     5644 
    5292     4895     4514     4201     4021     4014     4178     4514 
    4995     5559     6184     6840     7456     7955     8252     8303 
    8143     7819     7414     7025     6702     6448     6216     5940 
    5570     5058     4402     3638     2782     1845      865     -124 
   -1073    -1888    -2490    -2837    -2872    -2515    -1776     -793 
     318     1501     2597     3446     4071     4542     4818     4923 
    4996     5086     5174     5275     5386     5494     5632     5822 
    6052     6322     6615     6890     7111     7265     7381     7495 
    7603     7674     7646     7447     7082     6602     6029     5387 
    4739     4104     3480     2894     2380     1948     1601     1350 
    1215     1189     1215     1258     1355     1529     1773     2119 
    2575     3088     3634     4189     4719     5231     5709     6122 
    6446     6631     6637     6484     6212     5872     5502     5121 
    4743     4355     3950     3569     3222     2906     2644     2447 
    2276     2074     1782     1379      920      445       -5     -367 
    -612     -707     -573     -191      426     1252     2200     3164 
    4094     4968     5736     6359     6837     7225     7564     7863 
    8170     8503     8826     9130     9432     9760    10119    10516 
   10949    11364    11673    11796    11677    11337    10825    10143 
    9306     8414     7533     6650     5819     5115     4495     3900 
    3292     2656     2027     1429      843      298     -180     -631 
   -1053    -1395    -1657    -1829    -1861    -1775    -1594    -1313 
