Origin Time       2025/01/13 21:19:00
Lat.              31.8
Long.             131.6
Depth. (km)       30
Mag.              6.9
Station Code      KMMH15
Station Lat.      32.1704
Station Long.     130.3647
Station Height(m) 15
Record Time       2025/01/13 21:19:52
Sampling Freq(Hz) 100Hz
Duration Time(s)  233
Dir.              4
Scale Factor      7845(gal)/8223790
Max. Acc. (gal)   5.493
Last Correction   2025/01/13 21:19:53
Memo.             
[...]
   35329    35374    35302    35158    34994    34851    34735    34624 
   34496    34358    34244    34183    34173    34202    34275    34362 
   34393    34342    34223    34059    33886    33713    33519    33343 
   33268    33324    33466    33617    33733    33810    33864    33895 
   33889    33844    33770    33664    33488    33199    32807    32347 
   31858    31409    31066    30828    30681    30631    30677    30797 
   30931    30975    30831    30461    29961    29516    29235    29139 
   29222    29384    29498    29559    29609    29671    29808    30055 
   30391    30755    31032    31106    30948    30591    30136    29735 
   29506    29512    29749    30153    30654    31205    31722    32109 
   32327    32406    32433    32463    32474    32428    32333    32240 
   32197    32225    32327    32489    32706    32995    33363    33768 
   34140    34411    34577    34708    34879    35109    35395    35702 
   35950    36092    36150    36197    36288    36408    36493    36444 
   36220    35887    35517    35131    34769    34487    34303    34237 
   34315    34497    34711    34869    34889    34759    34572    34420 
   34344    34312    34252    34090    33814    33470    33139    32886 
   32707    32583    32526    32567    32683    32790    32764    32571 
   32289    32032    31866    31785    31789    31923    32186    32487 
   32686    32679    32481    32197    31943    31789    31726    31714 
   31746    31847    32040    32320    32652    32980    33253    33443 
   33567    33648    33683    33670    33625    33562    33496    33466 
   33486    33504    33482    33458    33488    33601    33768    33925 
   34040    34122    34176    34188    34121    33948    33720    33521 
   33378    33235    32998    32620    32165    31779    31595    31641 
   31796    31907    31915    31858    31791    31733    31635    31436 
   31126    30793    30547    30458    30532    30735    31001    31264 
   31495    31696    31864    31976    32053    32132    32266    32498 
   32798    33048    33157    33122    33025    32985    33107    33399 
   33791    34207    34620    35070    35617    36232    36782    37111 
   37147    36921    36528    36116    35854    35845    36065    36377 
   36571    36540    36360    36189    36107    36074    35972    35708 
   35301    34852    34468    34198    34074    34141    34403    34777 
   35109    35248    35143    34869    34550    34258    33988    33706 
   33407    33142    32984    32941    32958    32953    32853    32625 
   32273    31843    31406    31001    30655    30397    30227    30127 
   30100    30140    30191    30206    30146    30010    29851    29737 
   29728    29860    30114    30395    30580    30623    30592    30605 
   30751    31035    31376    31669    31885    32078    32332    32686 
   33069    33335    33415    33377    33347    33419    33612    33863 
   34099    34304    34519    34804    35187    35641    36078    36375 
   36440    36265    35888    35361    34731    34047    33370    32764 
   32282    31968    31820    31753    31644    31437    31148    30829 
   30547    30327    30159    30026    29921    29829    29749    29690 
   29670    29729    29884    30111    30372    30654    30975    31380 
   31882    32435    32977    33455    33825    34096    34306    34479 
   34616    34674    34626    34510    34391    34311    34279    34264 
   34248    34271    34404    34684    35077    35525    35988    36441 
   36871    37235    37469    37544    37521    37482    37459    37470 
   37528    37629    37778    37951    38087    38122    38034    37848 
   37619    37388    37164    36956    36795    36715    36721    36751 
   36702    36514    36198    35793    35344    34898    34468    34015 
   33504    32954    32443    32047    31780    31581    31380    31145 
   30897    30646    30356    30001    29605    29227    28929    28734 
   28629    28575    28539    28514    28516    28551    28610    28679 
   28730    28744    28719    28676    28620    28549    28467    28385 
   28312    28270    28274    28313    28368    28421    28468    28525 
   28603    28717    28898    29214    29710    30339    30979    31519 
   31911    32173    32373    32556    32733    32918    33123    33324 
   33471    33551    33620    33741    33947    34218    34479    34628 
   34608    34420    34136    33878    33745    33741    33789    33806 
   33767    33727    33733    33758    33731    33608    33392    33135 
   32911    32784    32773    32837    32930    33027    33124    33246 
   33435    33681    33929    34165    34407    34670    34946    35193 
   35355    35417    35452    35567    35824    36204    36617    36965 
   37197    37299    37281    37192    37102    37044    37012    36967 
   36834    36576    36216    35803    35391    35041    34789    34635 
   34545    34483    34457    34528    34770    35170    35598    35908 
   36022    35947    35742    35472    35193    34939    34724    34523 
   34290    34003    33683    33373    33112    32895    32688    32470 
   32243    32017    31797    31573    31329    31078    30883    30804 
   30829    30888    30896    30815    30661    30495    30376    30316 
   30277    30190    29986    29675    29382    29230    29257    29438 
   29706    29980    30202    30349    30391    30333    30248    30203 
   30204    30215    30175    30061    29913    29813    29825    29941 
   30100    30244    30345    30441    30601    30866    31205    31567 
   31912    32224    32495    32729    32913    33035    33116    33180 
   33239    33300    33335    33311    33228    33124    33050    33043 
   33107    33223    33370    33536    33714    33902    34101    34303 
   34485    34632    34749    34855    34975    35136    35338    35556 
   35777    35993    36175    36288    36310    36277    36274    36350 
   36467    36563    36589    36514    36356    36151    35924    35718 
   35590    35580    35665    35776    35841    35818    35726    35641 
   35606    35617    35631    35610    35530    35390    35174    34885 
   34566    34283    34105    34067    34148    34264    34314    34249 
   34083    33856    33621    33432    33299    33205    33151    33157 
   33208    33242    33192    33035    32813    32607    32491    32464 
   32471    32474    32462    32429    32381    32320    32243    32155 
   32069    31995    31935    31904    31911    31932    31932    31884 
   31789    31662    31494    31284    31050    30790    30518    30267 
   30069    29940    29867    29812    29751    29683    29620    29583 
   29598    29695    29909    30213    30511    30717    30793    30761 
   30713    30730    30823    30971    31151    31363    31633    31981 
   32389    32799    33156    33436    33660    33862    34063    34241 
   34339    34337    34269    34194    34167    34213    34302    34384 
   34430    34447    34468    34527    34649    34830    35059    35298 
   35490    35584    35577    35523    35476    35446    35429    35398 
   35337    35262    35220    35252    35382    35592    35829    36059 
   36282    36493    36678    36817    36887    36891    36845    36765 
   36667    36549    36401    36205    35938    35579    35128    34622 
   34118    33659    33253    32884    32525    32170    31841    31569 
   31391    31313    31314    31371    31464    31554    31603    31599 
   31549    31450    31301    31131    30978    30844    30709    30561 
   30403    30264    30172    30153    30219    30379    30620    30908 
   31199    31488    31799    32140    32497    32830    33091    33251 
   33304    33262    33184    33149    33214    33377    33604    33859 
   34098    34273    34357    34333    34218    34071    33957    33893 
   33843    33793    33745    33706    33690    33691    33673    33610 
   33523    33440    33381    33327    33231    33075    32891    32714 
   32562    32468    32435    32437    32441    32393    32255    32055 
   31881    31823    31916    32148    32474    32814    33100    33307 
   33419    33432    33365    33234    33046    32850    32692    32587 
   32525    32478    32383    32200    31939    31679    31513    31496 
   31623    31827    32038    32219    32390    32597    32864    33184 
   33528    33870    34176    34426    34608    34719    34747    34705 
   34619    34484    34277    33991    33635    33266    32975    32822 
   32815    32917    33052    33143    33146    33060    32926    32800 
   32717    32649    32560    32431    32271    32104    31946    31816 
   31722    31669    31671    31718    31800    31901    31997    32054 
   32042    31965    31854    31738    31645    31591    31561    31542 
   31530    31522    31527    31561    31629    31734    31885    32073 
   32269    32452    32617    32765    32898    32991    33029    33023 
   33007    33019    33084    33177    33247    33278    33273    33231 
   33160    33077    33008    32945    32869    32768    32652    32530 
   32405    32278    32165    32077    32026    32020    32086    32246 
   32494    32795    33102    33381    33620    33812    33963    34088 
   34215    34372    34557    34731    34863    34944    34981    34992 
   35013    35086    35237    35464    35733    35986    36170    36262 
   36282    36277    36297    36373    36497    36633    36744    36802 
   36807    36778    36729    36652    36533    36366    36167    35970 
   35789    35615    35429    35217    34983    34762    34595    34504 
   34499    34547    34599    34604    34542    34425    34265    34053 
   33786    33486    33195    32949    32779    32698    32691    32741 
   32834    32946    33045    33095    33081    33023    32949    32884 
   32834    32764    32652    32522    32402    32293    32167    31996 
   31804    31649    31553    31506    31482    31445    31399    31368 
   31363    31405    31492    31595    31691    31770    31819    31831 
   31824    31824    31846    31889    31930    31927    31858    31722 
   31518    31260    30981    30719    30488    30276    30053    29809 
   29559    29326    29114    28911    28713    28549    28458    28467 
   28591    28800    29053    29323    29597    29870    30145    30442 
   30780    31149    31536    31918    32266    32562    32811    33008 
   33138    33204    33227    33226    33228    33265    33357    33489 
   33621    33721    33791    33872    34005    34187    34395    34615 
   34839    35063    35271    35438    35564    35679    35811    35953 
   36074    36155    36213    36279    36358    36421    36432    36387 
   36316    36244    36194    36162    36131    36104    36084    36047 
   35985    35899    35783    35622    35399    35105    34762    34415 
   34107    33867    33693    33571    33498    33461    33427    33372 
   33284    33169    33054    32948    32834    32686    32490    32270 
   32073    31927    31843    31811    31796    31757    31665    31536 
   31415    31342    31310    31286    31264    31276    31383    31619 
   31953    32306    32632    32927    33226    33547    33858    34088 
   34195    34186    34103    34005    33920    33853    33797    33747 
   33696    33627    33531    33404    33249    33093    32969    32883 
   32815    32742    32661    32594    32574    32599    32636    32633 
   32571    32454    32312    32170    32024    31850    31621    31344 
   31068    30847    30712    30663    30661    30666    30689    30751 
   30861    30998    31128    31225    31275    31276    31237    31179 
   31132    31108    31094    31079    31078    31128    31244    31394 
   31537    31648    31733    31822    31911    31982    32032    32082 
   32157    32259    32360    32437    32499    32578    32713    32926 
   33193    33459    33682    33853    33978    34042    34025    33926 
   33775    33600    33421    33264    33122    32991    32879    32795 
   32746    32740    32759    32784    32814    32877    33014    33234 
   33517    33817    34087    34285    34396    34422    34376    34284 
   34160    34001    33808    33605    33428    33301    33238    33224 
   33247    33304    33394    33508    33621    33710    33755    33736 
   33658    33558    33471    33408    33372    33373    33434    33562 
   33754    33988    34241    34500    34766    35017    35216    35330 
   35355    35307    35220    35122    35029    34943    34857    34774 
   34720    34711    34753    34836    34942    35055    35172    35290 
   35398    35482    35530    35536    35509    35464    35414    35364 
   35324    35282    35221    35133    35002    34819    34588    34333 
   34092    33907    33797    33748    33728    33702    33654    33579 
   33492    33413    33355    33315    33272    33203    33106    32999 
   32903    32840    32833    32875    32930    32969    32960    32892 
   32798    32711    32645    32591    32544    32506    32476    32455 
   32424    32371    32306    32259    32265    32343    32479    32648 
   32817    32964    33085    33185    33258    33292    33272    33181 
   33030    32856    32695    32557    32437    32323    32206    32115 
   32078    32109    32205    32360    32559    32763    32937    33045 
   33064    33006    32914    32825    32756    32715    32679    32609 
   32483    32293    32034    31695    31251    30694    30045    29354 
   28696    28140    27726    27469    27364    27372    27430    27490 
   27526    27544    27560    27591    27622    27615    27553    27461 
   27380    27352    27405    27533    27711    27919    28155    28428 
   28746    29131    29585    30078    30591    31129    31688    32244 
   32783    33286    33744    34172    34577    34958    35311    35634 
   35931    36209    36459    36671    36842    36988    37123    37251 
   37361    37434    37461    37457    37462    37504    37579    37647 
   37660    37609    37516    37409    37318    37234    37141    37021 
   36856    36643    36379    36077    35756    35460    35225    35051 
   34917    34797    34661    34504    34331    34140    33926    33681 
   33405    33127    32877    32674    32516    32381    32238    32086 
   31942    31827    31769    31758    31764    31792    31865    31997 
   32193    32436    32694    32964    33254    33543    33808    34042 
   34227    34357    34446    34515    34576    34624    34639    34607 
   34534    34464    34454    34551    34794    35201    35737    36331 
   36899    37354    37662    37841    37929    37947    37885    37717 
   37440    37085    36707    36355    36046    35765    35490    35212 
   34939    34672    34403    34138    33895    33700    33575    33538 
   33581    33677    33787    33879    33924    33901    33805    33632 
   33389    33091    32742    32351    31930    31488    31058    30674 
   30372    30164    30041    29979    29951    29937    29943    29990 
   30090    30240    30414    30577    30694    30740    30696    30558 
   30342    30091    29853    29666    29551    29521    29589    29760 
   30019    30333    30654    30943    31183    31372    31515    31617 
   31681    31722    31773    31864    32007    32194    32391    32547 
   32630    32647    32621    32586    32570    32576    32580    32553 
   32472    32336    32175    32013    31860    31718    31594    31503 
   31457    31463    31518    31602    31683    31735    31754    31754 
   31753    31761    31765    31746    31698    31625    31544    31471 
   31428    31421    31436    31465    31515    31592    31718    31900 
   32123    32375    32668    33006    33394    33829    34283    34734 
   35181    35621    36057    36477    36853    37164    37400    37543 
   37581    37503    37296    36958    36499    35957    35383    34819 
   34296    33844    33471    33200    33056    33049    33162    33335 
   33502    33628    33710    33782    33871    33975    34072    34134 
   34153    34142    34118    34092    34059    33991    33880    33720 
   33502    33234    32919    32580    32248    31957    31731    31581 
   31488    31414    31325    31209    31070    30924    30782    30655 
   30545    30453    30383    30333    30316    30357    30465    30651 
   30925    31279    31693    32154    32652    33166    33655    34092 
   34487    34842    35152    35410    35592    35680    35673    35579 
   35422    35241    35060    34902    34777    34685    34630    34614 
   34638    34700    34797    34920    35051    35189    35341    35498 
   35657    35823    35981    36117    36229    36302    36329    36333 
   36331    36315    36271    36189    36059    35889    35679    35430 
   35144    34839    34537    34250    33986    33756    33559    33380 
   33216    33066    32913    32744    32563    32387    32232    32108 
   32031    32013    32058    32162    32329    32560    32848    33185 
   33555    33917    34241    34516    34749    34936    35063    35118 
   35094    34994    34850    34697    34550    34404    34249    34078 
   33905    33760    33664    33605    33555    33486    33378    33218 
   32996    32726    32413    32053    31654    31233    30800    30361 
   29938    29550    29211    28935    28726    28574    28476    28435 
   28449    28533    28690    28903    29150    29390    29596    29759 
   29872    29928    29928    29878    29797    29713    29627    29528 
   29416    29295    29182    29127    29147    29249    29411    29593 
   29767    29918    30037    30132    30219    30308    30402    30504 
   30623    30763    30916    31072    31218    31336    31419    31480 
   31527    31571    31627    31706    31803    31920    32067    32240 
   32436    32647    32863    33075    33285    33498    33725    33970 
   34226    34492    34781    35087    35394    35679    35927    36140 
   36324    36477    36591    36664    36701    36710    36699    36679 
   36660    36634    36589    36506    36387    36258    36146    36049 
   35947    35819    35649    35445    35240    35066    34940    34857 
   34788    34711    34624    34538    34461    34404    34372    34353 
   34344    34358    34396    34443    34497    34562    34632    34701 
   34771    34843    34912    34983    35054    35124    35190    35252 
   35326    35436    35595    35814    36085    36382    36667    36903 
   37073    37174    37207    37156    36998    36726    36366    35969 
   35565    35175    34800    34427    34061    33731    33462    33272 
   33139    33022    32887    32718    32516    32293    32065    31839 
   31608    31371    31133    30910    30690    30464    30223    29964 
   29691    29420    29160    28918    28713    28567    28480    28451 
   28467    28512    28570    28630    28699    28791    28927    29126 
   29388    29706    30057    30424    30790    31139    31460    31743 
   31980    32167    32310    32413    32468    32476    32456    32439 
   32448    32501    32593    32717    32871    33035    33184    33289 
   33345    33367    33370    33350    33311    33249    33173    33123 
   33126    33173    33253    33343    33421    33490    33559    33635 
   33723    33824    33930    34048    34172    34281    34360    34412 
   34452    34500    34570    34666    34786    34924    35070    35221 
   35365    35495    35608    35711    35793    35854    35887    35851 
   35733    35545    35301    35029    34761    34506    34273    34059 
