Origin Time       2025/01/13 21:19:00
Lat.              31.8
Long.             131.6
Depth. (km)       30
Mag.              6.9
Station Code      KMMH14
Station Lat.      32.6345
Station Long.     130.7521
Station Height(m) -40
Record Time       2025/01/13 21:19:52
Sampling Freq(Hz) 100Hz
Duration Time(s)  197
Dir.              3
Scale Factor      2942(gal)/8224139
Max. Acc. (gal)   6.274
Last Correction   2025/01/13 21:19:52
Memo.             
[...]
  -10516   -10255    -9975    -9830    -9883   -10137   -10621   -11396 
  -12434   -13555   -14542   -15313   -15952   -16588   -17192   -17605 
  -17755   -17693   -17448   -17027   -16498   -15943   -15399   -14890 
  -14442   -14091   -13900   -13925   -14169   -14562   -14924   -15094 
  -15079   -15001   -15021   -15290   -15839   -16517   -17055   -17240 
  -17028   -16528   -15915   -15340   -14914   -14685   -14597   -14519 
  -14304   -13925   -13443   -12861   -12183   -11465   -10716    -9859 
   -8823    -7723    -6867    -6486    -6519    -6772    -7098    -7395 
   -7600    -7713    -7843    -8116    -8584    -9221    -9875   -10270 
  -10278    -9994    -9548    -8989    -8387    -7948    -7852    -8037 
   -8355    -8789    -9328    -9803   -10061   -10099    -9999    -9891 
   -9906   -10079   -10393   -10863   -11485   -12141   -12636   -12854 
  -12911   -13046   -13369   -13825   -14342   -14804   -15032   -14955 
  -14665   -14314   -14026   -13938   -14226   -14986   -16070   -17146 
  -17976   -18550   -18999   -19433   -19890   -20390   -20947   -21536 
  -22092   -22559   -22890   -22999   -22785   -22256   -21546   -20839 
  -20281   -19858   -19419   -18870   -18225   -17532   -16841   -16186 
  -15562   -14949   -14223   -13267   -12189   -11222   -10520   -10069 
   -9715    -9304    -8676    -7774    -6710    -5602    -4627    -4020 
   -3915    -4334    -5112    -5919    -6561    -7101    -7676    -8374 
   -9205   -10053   -10721   -11037   -10905   -10357    -9508    -8529 
   -7641    -6930    -6349    -5842    -5431    -5225    -5375    -5908 
   -6644    -7326    -7825    -8162    -8437    -8745    -9057    -9250 
   -9202    -8838    -8197    -7419    -6602    -5823    -5152    -4650 
   -4386    -4353    -4475    -4747    -5188    -5772    -6500    -7366 
   -8294    -9120    -9644    -9775    -9641    -9467    -9499    -9946 
  -10785   -11765   -12626   -13231   -13562   -13705   -13822   -14026 
  -14287   -14547   -14771   -14910   -14967   -15001   -15030   -14980 
  -14779   -14472   -14149   -13864   -13598   -13306   -12992   -12704 
  -12459   -12181   -11735   -11034   -10146    -9243    -8428    -7650 
   -6879    -6292    -6174    -6612    -7439    -8406    -9297    -9987 
  -10444   -10771   -11160   -11696   -12307   -12950   -13590   -14131 
  -14453   -14469   -14231   -13927   -13737   -13725   -13846   -14073 
  -14438   -14887   -15275   -15503   -15547   -15357   -14855   -14071 
  -13188   -12391   -11705   -11137   -10771   -10565   -10404   -10262 
  -10129    -9964    -9744    -9560    -9632   -10138   -11002   -11934 
  -12715   -13277   -13579   -13564   -13242   -12831   -12596   -12619 
  -12854   -13247   -13714   -14040   -14079   -13973   -13844   -13701 
  -13548   -13373   -13213   -13115   -12988   -12707   -12264   -11654 
  -10859   -10037    -9417    -9120    -9155    -9462    -9979   -10670 
  -11479   -12256   -12799   -13042   -13069   -12957   -12771   -12571 
  -12378   -12195   -12012   -11855   -11835   -12078   -12613   -13394 
  -14292   -15091   -15678   -16074   -16295   -16367   -16325   -16155 
  -15831   -15360   -14829   -14388   -14131   -14062   -14073   -14013 
  -13875   -13760   -13763   -13919   -14183   -14419   -14485   -14289 
  -13838   -13274   -12729   -12204   -11734   -11377   -11107   -10905 
  -10802   -10864   -11152   -11676   -12418   -13319   -14238   -15048 
  -15610   -15776   -15581   -15267   -15055   -15003   -15064   -15269 
  -15662   -16101   -16389   -16459   -16324   -16048   -15738   -15503 
  -15395   -15353   -15321   -15326   -15349   -15277   -15012   -14589 
  -14199   -14046   -14141   -14401   -14874   -15508   -16024   -16222 
  -16156   -16032   -15981   -15912   -15685   -15273   -14751   -14193 
  -13578   -12889   -12217   -11692   -11357   -11142   -10974   -10881 
  -10928   -11072   -11210   -11281   -11238   -11040   -10677   -10180 
   -9613    -9049    -8579    -8274    -8101    -7952    -7703    -7245 
   -6563    -5694    -4675    -3603    -2646    -1900    -1324     -851 
    -548     -548     -939    -1740    -2859    -4135    -5408    -6525 
   -7466    -8340    -9213   -10103   -11028   -11974   -12899   -13756 
  -14505   -15126   -15610   -15982   -16330   -16749   -17307   -18034 
  -18767   -19278   -19564   -19699   -19680   -19543   -19307   -18995 
  -18743   -18640   -18624   -18609   -18567   -18436   -18115   -17597 
  -16977   -16384   -15885   -15381   -14717   -13900   -13107   -12425 
  -11746   -10917    -9957    -9054    -8301    -7662    -7190    -6983 
   -7063    -7311    -7593    -7951    -8465    -9062    -9626   -10065 
  -10300   -10330   -10162    -9740    -9057    -8247    -7496    -6917 
   -6482    -6112    -5783    -5456    -5055    -4621    -4253    -3975 
   -3781    -3667    -3586    -3481    -3333    -3194    -3192    -3392 
   -3738    -4144    -4549    -4966    -5476    -6070    -6677    -7300 
   -7958    -8627    -9265    -9819   -10293   -10725   -11140   -11530 
  -11867   -12110   -12285   -12487   -12765   -13123   -13657   -14462 
  -15515   -16686   -17779   -18663   -19302   -19662   -19712   -19476 
  -19055   -18535   -17907   -17101   -16087   -14913   -13674   -12479 
  -11438   -10651   -10173    -9964    -9922    -9930    -9909    -9880 
   -9937   -10127   -10444   -10866   -11352   -11870   -12424   -13015 
  -13663   -14346   -14991   -15587   -16183   -16829   -17552   -18292 
  -18924   -19344   -19465   -19261   -18783   -18088   -17240   -16344 
  -15511   -14798   -14215   -13753   -13382   -13049   -12676   -12245 
  -11772   -11276   -10817   -10428   -10080    -9740    -9460    -9336 
   -9317    -9292    -9255    -9217    -9196    -9269    -9478    -9798 
  -10216   -10697   -11092   -11283   -11257   -11086   -10917   -10875 
  -11005   -11308   -11701   -12124   -12611   -13224   -13979   -14801 
  -15581   -16294   -16953   -17486   -17801   -17840   -17622   -17223 
  -16742   -16267   -15755   -15107   -14327   -13495   -12704   -12021 
  -11466   -11048   -10727   -10417   -10062    -9675    -9279    -8926 
   -8671    -8496    -8417    -8456    -8586    -8846    -9225    -9639 
  -10000   -10197   -10274   -10393   -10598   -10860   -11160   -11475 
  -11807   -12150   -12490   -12864   -13317   -13834   -14385   -14967 
  -15587   -16225   -16822   -17339   -17753   -18038   -18247   -18397 
  -18415   -18284   -18063   -17852   -17733   -17685   -17653   -17587 
  -17412   -17130   -16811   -16487   -16146   -15762   -15330   -14885 
  -14473   -14098   -13736   -13396   -13086   -12764   -12387   -11947 
  -11411   -10754    -9996    -9193    -8365    -7495    -6543    -5514 
   -4490    -3597    -2945    -2651    -2775    -3276    -4067    -5044 
   -6096    -7156    -8236    -9336   -10419   -11511   -12656   -13834 
  -15016   -16140   -17138   -17946   -18520   -18895   -19111   -19134 
  -18937   -18527   -17942   -17235   -16432   -15518   -14509   -13474 
  -12486   -11627   -10971   -10503   -10176    -9968    -9846    -9753 
   -9624    -9423    -9147    -8792    -8365    -7939    -7627    -7466 
   -7402    -7366    -7339    -7354    -7461    -7677    -7938    -8167 
   -8359    -8518    -8637    -8739    -8896    -9175    -9563    -9990 
  -10392   -10744   -11079   -11434   -11821   -12264   -12725   -13120 
  -13427   -13630   -13702   -13641   -13467   -13215   -12935   -12660 
  -12424   -12241   -12056   -11828   -11560   -11267   -10995   -10719 
  -10346    -9823    -9139    -8376    -7641    -6959    -6338    -5837 
   -5552    -5506    -5620    -5798    -6038    -6335    -6598    -6821 
   -7074    -7379    -7709    -8020    -8307    -8621    -8999    -9477 
  -10026   -10612   -11268   -12015   -12833   -13636   -14304   -14778 
  -15037   -15070   -14926   -14755   -14698   -14769   -14816   -14712 
  -14449   -14058   -13612   -13223   -12968   -12881   -12987   -13254 
  -13621   -14040   -14450   -14775   -14953   -15025   -15098   -15259 
  -15537   -15924   -16376   -16837   -17261   -17617   -17906   -18157 
  -18389   -18585   -18706   -18729   -18635   -18459   -18281   -18108 
  -17902   -17647   -17331   -16934   -16418   -15707   -14783   -13747 
  -12734   -11859   -11128   -10490    -9941    -9494    -9148    -8896 
   -8712    -8550    -8337    -7985    -7426    -6685    -5880    -5161 
   -4662    -4399    -4309    -4407    -4726    -5225    -5822    -6423 
   -6943    -7331    -7630    -7936    -8318    -8772    -9224    -9599 
   -9884   -10126   -10401   -10727   -11040   -11331   -11634   -11963 
  -12321   -12665   -12920   -12989   -12777   -12275   -11585   -10817 
  -10044    -9359    -8816    -8388    -8046    -7749    -7461    -7140 
   -6717    -6224    -5768    -5441    -5312    -5359    -5560    -5915 
   -6365    -6825    -7250    -7630    -7936    -8163    -8365    -8611 
   -8932    -9339    -9850   -10435   -11034   -11626   -12160   -12622 
  -13015   -13311   -13543   -13790   -14040   -14251   -14455   -14648 
  -14750   -14725   -14608   -14449   -14296   -14183   -14121   -14075 
  -13961   -13741   -13470   -13196   -12911   -12638   -12415   -12225 
  -12051   -11928   -11897   -11943   -12016   -12109   -12221   -12305 
  -12313   -12252   -12178   -12136   -12112   -12093   -12114   -12145 
  -12118   -12008   -11823   -11627   -11508   -11470   -11465   -11468 
  -11487   -11572   -11767   -12040   -12345   -12673   -13027   -13405 
  -13797   -14231   -14739   -15263   -15753   -16179   -16492   -16683 
  -16781   -16815   -16822   -16865   -16995   -17184   -17356   -17489 
  -17597   -17685   -17787   -17944   -18137   -18368   -18636   -18894 
  -19095   -19207   -19251   -19311   -19418   -19512   -19537   -19444 
  -19221   -18937   -18679   -18490   -18374   -18272   -18118   -17875 
  -17532   -17103   -16617   -16129   -15678   -15256   -14859   -14463 
  -14025   -13551   -13068   -12625   -12291   -12048   -11821   -11570 
  -11288   -11001   -10735   -10470   -10176    -9875    -9644    -9570 
   -9633    -9730    -9838    -9983   -10104   -10127   -10096   -10066 
  -10035   -10084   -10287   -10590   -10963   -11404   -11909   -12495 
  -13124   -13698   -14172   -14558   -14870   -15103   -15242   -15314 
  -15396   -15516   -15615   -15610   -15472   -15272   -15066   -14821 
  -14489   -14068   -13624   -13196   -12735   -12248   -11800   -11427 
  -11119   -10855   -10631   -10488   -10417   -10350   -10207    -9967 
   -9694    -9490    -9405    -9416    -9487    -9606    -9756    -9887 
   -9919    -9836    -9698    -9564    -9463    -9393    -9308    -9154 
   -8887    -8479    -7959    -7426    -6929    -6426    -5877    -5301 
   -4715    -4155    -3620    -3041    -2397    -1776    -1255     -862 
    -618     -526     -533     -614     -776    -1009    -1337    -1780 
   -2286    -2845    -3478    -4178    -4958    -5837    -6794    -7823 
   -8924   -10072   -11233   -12357   -13351   -14148   -14724   -15106 
  -15372   -15581   -15745   -15842   -15880   -15873   -15800   -15624 
  -15358   -15016   -14570   -14000   -13346   -12684   -12106   -11664 
  -11361   -11188   -11111   -11097   -11128   -11211   -11365   -11576 
  -11797   -12025   -12310   -12704   -13194   -13697   -14146   -14517 
  -14793   -14994   -15179   -15367   -15556   -15762   -15984   -16229 
  -16515   -16839   -17204   -17616   -18091   -18617   -19151   -19634 
  -20027   -20310   -20497   -20601   -20642   -20609   -20467   -20208 
  -19855   -19419   -18904   -18349   -17782   -17235   -16758   -16281 
  -15674   -14889   -13946   -12926   -11890   -10854    -9842    -8900 
   -8083    -7450    -7032    -6791    -6671    -6633    -6662    -6763 
   -6925    -7095    -7222    -7261    -7209    -7078    -6899    -6723 
   -6594    -6565    -6682    -6912    -7210    -7593    -8067    -8599 
   -9134    -9624   -10066   -10459   -10770   -11009   -11221   -11392 
  -11480   -11479   -11443   -11443   -11452   -11452   -11538   -11722 
  -11917   -12150   -12429   -12714   -13039   -13386   -13667   -13868 
  -14042   -14274   -14590   -14899   -15094   -15145   -15091   -15039 
  -15091   -15276   -15595   -16015   -16467   -16908   -17313   -17653 
  -17890   -18009   -17984   -17797   -17478   -17115   -16806   -16598 
  -16484   -16470   -16579   -16772   -16938   -16996   -16961   -16896 
  -16843   -16779   -16656   -16479   -16241   -15911   -15495   -15064 
  -14686   -14381   -14134   -13932   -13765   -13616   -13482   -13360 
  -13223   -13041   -12791   -12430   -11954   -11411   -10866   -10373 
   -9958    -9614    -9336    -9148    -9011    -8833    -8565    -8213 
   -7771    -7206    -6497    -5690    -4876    -4106    -3383    -2716 
   -2142    -1682    -1328    -1054     -797     -514     -211       83 
     324      480      573      595      560      575      691      892 
    1128     1306     1389     1398     1317     1134      873      558 
     232      -90     -463     -953    -1620    -2458    -3433    -4518 
   -5657    -6748    -7735    -8680    -9676   -10651   -11512   -12359 
  -13269   -14223   -15263   -16339   -17347   -18300   -19213   -20081 
  -20891   -21614   -22250   -22816   -23317   -23746   -24074   -24248 
  -24229   -23990   -23554   -22972   -22311   -21624   -20907   -20131 
  -19309   -18473   -17678   -17000   -16467   -16038   -15692   -15464 
  -15368   -15392   -15547   -15839   -16271   -16848   -17567   -18442 
  -19498   -20710   -22027   -23394   -24749   -26015   -27113   -28003 
  -28686   -29181   -29490   -29589   -29446   -29050   -28439   -27635 
  -26608   -25348   -23976   -22665   -21428   -20194   -19001   -17863 
  -16748   -15700   -14731   -13814   -12941   -12071   -11165   -10281 
   -9522    -8904    -8460    -8255    -8240    -8329    -8449    -8527 
   -8556    -8561    -8557    -8568    -8618    -8696    -8797    -8970 
   -9231    -9555    -9883   -10141   -10311   -10389   -10322   -10080 
   -9703    -9263    -8789    -8294    -7800    -7299    -6770    -6268 
   -5888    -5683    -5686    -5913    -6353    -6975    -7701    -8438 
   -9147    -9826   -10455   -11010   -11519   -12028   -12553   -13092 
  -13583   -13965   -14234   -14401   -14470   -14484   -14524   -14624 
  -14746   -14825   -14813   -14679   -14426   -14067   -13632   -13153 
  -12619   -12019   -11377   -10716   -10042    -9367    -8695    -8070 
   -7534    -7068    -6671    -6373    -6147    -5973    -5853    -5761 
   -5718    -5760    -5853    -5964    -6072    -6173    -6274    -6351 
   -6423    -6540    -6737    -7044    -7511    -8195    -9054    -9975 
  -10910   -11821   -12657   -13432   -14141   -14751   -15245   -15518 
  -15503   -15302   -14893   -14149   -13188   -12160   -11056    -9931 
   -8870    -7916    -7132    -6574    -6257    -6103    -6027    -6061 
   -6218    -6465    -6820    -7304    -7898    -8587    -9339   -10115 
  -10908   -11723   -12557   -13374   -14137   -14801   -15331   -15708 
  -15911   -15923   -15750   -15414   -14943   -14412   -13907   -13493 
  -13225   -13138   -13205   -13343   -13482   -13724   -14114   -14476 
  -14715   -14874   -14921   -14831   -14627   -14301   -13856   -13317 
  -12708   -12060   -11419   -10841   -10392   -10123   -10026   -10057 
  -10181   -10363   -10586   -10875   -11272   -11794   -12421   -13105 
  -13786   -14386   -14856   -15191   -15407   -15520   -15526   -15446 
  -15331   -15194   -15010   -14771   -14523   -14355   -14319   -14405 
  -14570   -14763   -14967   -15194   -15453   -15727   -16035   -16483 
  -17070   -17662   -18265   -18925   -19560   -20142   -20664   -21061 
  -21348   -21556   -21674   -21708   -21649   -21470   -21163   -20757 
  -20277   -19734   -19165   -18623   -18125   -17693   -17317   -16949 
  -16534   -16029   -15431   -14755   -14015   -13198   -12297   -11371 
  -10442    -9474    -8473    -7479    -6550    -5768    -5143    -4599 
   -4105    -3740    -3489    -3221    -2883    -2461    -1972    -1460 
    -928     -378      201      805     1377     1894     2384     2785 
    3057     3269     3319     3069     2640     2068     1305      498 
    -311    -1183    -2058    -2913    -3742    -4538    -5329    -6073 
   -6716    -7300    -7861    -8428    -9082    -9837   -10663   -11562 
  -12506   -13419   -14219   -14855   -15334   -15700   -15979   -16202 
  -16426   -16730   -17134   -17555   -17932   -18315   -18756   -19224 
  -19660   -20023   -20318   -20596   -20879   -21143   -21378   -21559 
  -21656   -21645   -21516   -21293   -21024   -20677   -20183   -19579 
  -18910   -18169   -17367   -16526   -15673   -14841   -14034   -13284 
  -12649   -12198   -11954   -11813   -11699   -11643   -11627   -11622 
  -11595   -11475   -11303   -11113   -10881   -10686   -10581   -10543 
  -10558   -10575   -10547   -10458   -10312   -10111    -9872    -9601 
   -9281    -8901    -8480    -8104    -7881    -7744    -7547    -7353 
   -7263    -7171    -7042    -6957    -6883    -6783    -6681    -6602 
   -6559    -6519    -6484    -6490    -6538    -6627    -6781    -7005 
   -7315    -7703    -8129    -8598    -9116    -9659   -10218   -10816 
  -11442   -12059   -12626   -13131   -13567   -13903   -14108   -14212 
  -14243   -14197   -14067   -13836   -13516   -13124   -12687   -12256 
  -11920   -11777   -11816   -11946   -12096   -12210   -12244   -12194 
  -12075   -11917   -11753   -11592   -11460   -11391   -11348   -11250 
  -11095   -10893   -10662   -10512   -10498   -10601   -10816   -11095 
  -11372   -11615   -11807   -11958   -12081   -12133   -12102   -12035 
  -11927   -11765   -11588   -11427   -11269   -11110   -10968   -10917 
  -10993   -11168   -11442   -11826   -12278   -12783   -13359   -13963 
  -14539   -15090   -15620   -16136   -16646   -17143   -17590   -17969 
  -18281   -18531   -18746   -18960   -19170   -19334   -19435   -19483 
  -19489   -19467   -19407   -19280   -19068   -18794   -18497   -18180 
  -17836   -17473   -17108   -16795   -16609   -16573   -16657   -16831 
  -17074   -17342   -17614   -17890   -18130   -18312   -18434   -18496 
  -18504   -18463   -18350   -18175   -17964   -17707   -17389   -17003 
  -16565   -16121   -15701   -15304   -14917   -14519   -14089   -13589 
  -13009   -12384   -11736   -11105   -10525   -10006    -9555    -9173 
   -8851    -8567    -8271    -7921    -7518    -7096    -6694    -6312 
   -5929    -5555    -5228    -4934    -4677    -4502    -4402    -4357 
   -4367    -4409    -4496    -4639    -4823    -5065    -5375    -5737 
   -6145    -6615    -7102    -7519    -7831    -8064    -8239    -8360 
   -8432    -8448    -8406    -8338    -8263    -8172    -8082    -8019 
   -8014    -8102    -8272    -8511    -8818    -9169    -9541    -9942 
  -10368   -10824   -11296   -11743   -12183   -12645   -13120   -13618 
  -14103   -14526   -14877   -15133   -15267   -15276   -15172   -14985 
  -14720   -14327   -13797   -13176   -12514   -11863   -11234   -10640 
  -10161    -9845    -9670    -9567    -9491    -9444    -9429    -9452 
   -9520    -9599    -9678    -9807   -10012   -10274   -10581   -10908 
  -11250   -11628   -12010   -12366   -12688   -12969   -13247   -13579 
  -13941   -14295   -14619   -14872   -15066   -15221   -15331   -15430 
  -15530   -15626   -15731   -15819   -15855   -15823   -15689   -15446 
  -15124   -14769   -14413   -14069   -13755   -13478   -13246   -13073 
