Origin Time       2025/01/13 21:19:00
Lat.              31.8
Long.             131.6
Depth. (km)       30
Mag.              6.9
Station Code      KMMH18
Station Lat.      33.0031
Station Long.     131.0071
Station Height(m) 932
Record Time       2025/01/13 21:19:56
Sampling Freq(Hz) 100Hz
Duration Time(s)  223
Dir.              5
Scale Factor      7845(gal)/8223790
Max. Acc. (gal)   11.101
Last Correction   2025/01/13 21:19:56
Memo.             
[...]
   -8352    -8152    -7952    -7713    -7415    -7092    -6771    -6493 
   -6323    -6284    -6358    -6548    -6849    -7249    -7742    -8284 
   -8819    -9332    -9845   -10354   -10827   -11240   -11583   -11851 
  -12052   -12183   -12252   -12275   -12251   -12187   -12102   -12012 
  -11935   -11892   -11863   -11807   -11692   -11506   -11237   -10906 
  -10550   -10215    -9952    -9817    -9832    -9981   -10230   -10531 
  -10841   -11141   -11419   -11673   -11927   -12199   -12471   -12703 
  -12884   -12985   -12981   -12857   -12590   -12175   -11638   -11021 
  -10377    -9756    -9205    -8777    -8527    -8445    -8453    -8457 
   -8398    -8229    -7905    -7415    -6801    -6138    -5533    -5100 
   -4927    -5077    -5543    -6232    -6998    -7680    -8164    -8399 
   -8374    -8108    -7665    -7142    -6664    -6354    -6273    -6403 
   -6667    -6957    -7137    -7107    -6872    -6521    -6166    -5894 
   -5740    -5717    -5849    -6168    -6647    -7214    -7788    -8286 
   -8649    -8907    -9119    -9296    -9404    -9420    -9309    -9027 
   -8564    -7960    -7271    -6548    -5868    -5300    -4885    -4622 
   -4461    -4345    -4253    -4198    -4218    -4348    -4581    -4878 
   -5196    -5501    -5775    -5995    -6133    -6185    -6164    -6050 
   -5795    -5350    -4696    -3867    -2960    -2116    -1474    -1138 
   -1155    -1490    -2052    -2749    -3501    -4233    -4884    -5435 
   -5910    -6365    -6858    -7407    -7975    -8487    -8861    -9046 
   -9018    -8796    -8455    -8087    -7788    -7605    -7520    -7480 
   -7437    -7346    -7173    -6889    -6497    -6049    -5613    -5247 
   -4989    -4861    -4873    -5020    -5250    -5502    -5755    -6035 
   -6384    -6836    -7412    -8125    -8968    -9913   -10932   -12013 
  -13099   -14100   -14959   -15664   -16220   -16633   -16869   -16852 
  -16538   -16025   -15458   -14824   -14014   -13081   -12224   -11581 
  -11079   -10632   -10378   -10399   -10554   -10712   -10829   -11024 
  -11425   -11890   -12295   -12699   -13069   -13333   -13532   -13674 
  -13730   -13759   -13802   -13802   -13694   -13471   -13140   -12731 
  -12276   -11807   -11399   -11155   -11134   -11323   -11588   -11807 
  -11965   -12009   -11848   -11510   -11113   -10716   -10316    -9930 
   -9583    -9308    -9162    -9174    -9316    -9539    -9779    -9979 
  -10111   -10168   -10181   -10216   -10324   -10517   -10787   -11114 
  -11426   -11642   -11739   -11731   -11632   -11460   -11209   -10870 
  -10485   -10131    -9864    -9683    -9551    -9420    -9262    -9080 
   -8904    -8764    -8672    -8658    -8780    -9034    -9356    -9687 
   -9952   -10061    -9942    -9568    -8966    -8202    -7361    -6509 
   -5710    -5017    -4441    -3975    -3616    -3322    -3019    -2674 
   -2331    -2073    -1956    -1996    -2165    -2416    -2732    -3117 
   -3535    -3929    -4249    -4445    -4460    -4267    -3893    -3399 
   -2864    -2385    -2057    -1896    -1873    -1979    -2199    -2506 
   -2914    -3474    -4197    -5020    -5895    -6778    -7619    -8375 
   -8996    -9428    -9649    -9682    -9579    -9401    -9202    -8988 
   -8737    -8449    -8132    -7782    -7407    -7045    -6772    -6652 
   -6689    -6851    -7118    -7492    -7982    -8556    -9148    -9702 
  -10174   -10547   -10777   -10787   -10582   -10239    -9823    -9383 
   -8988    -8688    -8514    -8478    -8572    -8757    -9023    -9417 
   -9998   -10794   -11785   -12895   -14050   -15194   -16229   -17047 
  -17579   -17803   -17726   -17366   -16758   -15950   -14974   -13867 
  -12679   -11449   -10216    -9090    -8203    -7630    -7375    -7369 
   -7503    -7711    -7970    -8225    -8418    -8563    -8739    -8977 
   -9240    -9475    -9614    -9644    -9620    -9570    -9485    -9360 
   -9236    -9150    -9069    -8954    -8854    -8808    -8808    -8877 
   -9023    -9215    -9417    -9614    -9822   -10053   -10309   -10616 
  -10967   -11327   -11647   -11855   -11898   -11753   -11408   -10902 
  -10295    -9606    -8872    -8167    -7535    -6964    -6443    -5971 
   -5517    -5080    -4693    -4394    -4193    -4052    -3877    -3611 
   -3254    -2814    -2311    -1790    -1285     -823     -432     -108 
     174      418      573      556      318     -144     -811    -1641 
   -2606    -3649    -4660    -5547    -6268    -6789    -7098    -7217 
   -7186    -7041    -6820    -6570    -6367    -6301    -6447    -6826 
   -7415    -8159    -9012    -9929   -10881   -11854   -12810   -13687 
  -14457   -15098   -15588   -15885   -15915   -15600   -14906   -13871 
  -12598   -11230    -9915    -8775    -7906    -7348    -7064    -6983 
   -7033    -7137    -7195    -7140    -6961    -6697    -6450    -6359 
   -6523    -6963    -7646    -8510    -9462   -10316   -10933   -11327 
  -11531   -11583   -11599   -11693   -11950   -12399   -12916   -13374 
  -13795   -14156   -14355   -14396   -14359   -14269   -14104   -13910 
  -13751   -13590   -13387   -13169   -12879   -12441   -11901   -11323 
  -10754   -10228    -9718    -9285    -9103    -9190    -9463    -9917 
  -10544   -11240   -11867   -12298   -12420   -12220   -11784   -11199 
  -10554    -9957    -9455    -9019    -8644    -8380    -8251    -8226 
   -8267    -8344    -8418    -8440    -8378    -8220    -7952    -7561 
   -7041    -6421    -5767    -5128    -4502    -3867    -3218    -2556 
   -1898    -1283     -774     -432     -349     -625    -1279    -2234 
   -3379    -4603    -5802    -6924    -7948    -8843    -9571   -10146 
  -10613   -10994   -11283   -11488   -11623   -11661   -11524   -11146 
  -10517    -9647    -8577    -7415    -6299    -5350    -4660    -4303 
   -4307    -4644    -5252    -6037    -6876    -7673    -8349    -8865 
   -9216    -9427    -9549    -9653    -9792    -9976   -10173   -10346 
  -10474   -10543   -10544   -10498   -10451   -10434   -10449   -10490 
  -10566   -10640   -10654   -10546   -10282    -9863    -9355    -8876 
   -8506    -8280    -8210    -8286    -8483    -8756    -9007    -9198 
   -9367    -9567    -9846   -10247   -10777   -11377   -11993   -12615 
  -13244   -13856   -14396   -14820   -15114   -15277   -15323   -15294 
  -15215   -15141   -15147   -15237   -15367   -15525   -15664   -15676 
  -15529   -15269   -14910   -14435   -13844   -13123   -12297   -11470 
  -10714   -10018    -9381    -8824    -8317    -7811    -7277    -6670 
   -5961    -5184    -4392    -3628    -2921    -2276    -1678    -1101 
    -542      -22      454      843     1036      986      683      116 
    -637    -1448    -2220    -2963    -3765    -4611    -5437    -6266 
   -7145    -8037    -8822    -9425    -9913   -10277   -10376   -10177 
   -9815    -9413    -9023    -8691    -8452    -8321    -8299    -8370 
   -8503    -8669    -8833    -8970    -9116    -9329    -9606    -9876 
  -10075   -10143   -10018    -9672    -9135    -8444    -7641    -6786 
   -5935    -5167    -4565    -4162    -3979    -4055    -4383    -4905 
   -5582    -6396    -7312    -8293    -9315   -10327   -11271   -12117 
  -12812   -13250   -13365   -13150   -12653   -11961   -11129   -10204 
   -9286    -8453    -7720    -7123    -6681    -6386    -6243    -6245 
   -6363    -6561    -6781    -6987    -7140    -7196    -7141    -7003 
   -6839    -6693    -6590    -6575    -6708    -7033    -7568    -8278 
   -9093    -9941   -10763   -11491   -12032   -12363   -12550   -12654 
  -12676   -12594   -12390   -12108   -11839   -11632   -11475   -11325 
  -11165   -10976   -10729   -10385    -9880    -9185    -8334    -7375 
   -6386    -5452    -4591    -3819    -3204    -2783    -2563    -2556 
   -2727    -3005    -3346    -3712    -4051    -4337    -4590    -4833 
   -5073    -5300    -5521    -5783    -6131    -6583    -7113    -7666 
   -8203    -8702    -9154    -9597   -10056   -10547   -11055   -11506 
  -11826   -11998   -12058   -12037   -11940   -11750   -11460   -11102 
  -10747   -10443   -10224   -10158   -10309   -10692   -11263   -11935 
  -12587   -13092   -13343   -13279   -12916   -12322   -11584   -10779 
   -9963    -9169    -8460    -7882    -7435    -7103    -6860    -6696 
   -6619    -6621    -6690    -6841    -7095    -7450    -7871    -8328 
   -8788    -9220    -9628   -10007   -10323   -10573   -10797   -11020 
  -11256   -11515   -11796   -12113   -12478   -12858   -13186   -13370 
  -13362   -13224   -13034   -12758   -12388   -12029   -11747   -11491 
  -11253   -11109   -11072   -11051   -10859   -10350    -9657    -8995 
   -8298    -7599    -7179    -6986    -6677    -6274    -6003    -5849 
   -5784    -5892    -6130    -6423    -6844    -7410    -7974    -8460 
   -8857    -9088    -9112    -8992    -8783    -8537    -8337    -8216 
   -8136    -8082    -8044    -8014    -7990    -7952    -7857    -7681 
   -7410    -6994    -6426    -5742    -4986    -4226    -3550    -3005 
   -2613    -2419    -2466    -2760    -3261    -3900    -4603    -5343 
   -6091    -6789    -7385    -7855    -8197    -8430    -8579    -8665 
   -8688    -8641    -8541    -8409    -8229    -7989    -7722    -7493 
   -7335    -7261    -7253    -7242    -7176    -7013    -6673    -6099 
   -5359    -4591    -3906    -3375    -3063    -3026    -3254    -3677 
   -4249    -4980    -5865    -6883    -7975    -9026    -9938   -10713 
  -11335   -11728   -11875   -11827   -11600   -11187   -10640   -10044 
   -9456    -8930    -8491    -8148    -7936    -7890    -8021    -8345 
   -8861    -9524   -10282   -11098   -11917   -12691   -13412   -14111 
  -14823   -15577   -16360   -17101   -17741   -18261   -18631   -18810 
  -18817   -18678   -18346   -17798   -17092   -16278   -15336   -14207 
  -12877   -11484   -10222    -9124    -8206    -7595    -7263    -7022 
   -6852    -6855    -7007    -7222    -7480    -7763    -8010    -8239 
   -8478    -8638    -8622    -8438    -8117    -7696    -7296    -7029 
   -6897    -6890    -7017    -7263    -7580    -7913    -8230    -8505 
   -8714    -8853    -8923    -8942    -8927    -8860    -8711    -8506 
   -8284    -8039    -7744    -7388    -6979    -6559    -6162    -5819 
   -5583    -5487    -5537    -5707    -5942    -6185    -6407    -6596 
   -6739    -6833    -6895    -6941    -6968    -6964    -6939    -6951 
   -7040    -7161    -7271    -7380    -7508    -7645    -7774    -7867 
   -7900    -7888    -7852    -7780    -7636    -7414    -7133    -6810 
   -6450    -6003    -5422    -4752    -4048    -3304    -2559    -1933 
   -1503    -1290    -1304    -1536    -1925    -2419    -2986    -3577 
   -4133    -4634    -5055    -5351    -5526    -5632    -5683    -5714 
   -5768    -5863    -6043    -6336    -6687    -7041    -7400    -7782 
   -8183    -8595    -9019    -9436    -9830   -10235   -10689   -11195 
  -11757   -12356   -12947   -13490   -13948   -14280   -14480   -14575 
  -14570   -14447   -14233   -13960   -13633   -13251   -12806   -12298 
  -11767   -11254   -10746   -10212    -9688    -9261    -8984    -8841 
   -8812    -8935    -9239    -9688   -10234   -10835   -11466   -12125 
  -12762   -13262   -13552   -13625   -13497   -13211   -12810   -12290 
  -11664   -10999   -10343    -9703    -9062    -8402    -7767    -7230 
   -6758    -6296    -5865    -5530    -5343    -5281    -5310    -5490 
   -5888    -6482    -7227    -8127    -9169   -10250   -11225   -11973 
  -12430   -12571   -12417   -11998   -11331   -10473    -9513    -8529 
   -7589    -6741    -5985    -5331    -4826    -4537    -4494    -4683 
   -5054    -5513    -5945    -6297    -6585    -6845    -7126    -7472 
   -7882    -8310    -8708    -9065    -9382    -9656    -9880   -10045 
  -10147   -10203   -10241   -10260   -10219   -10127   -10046   -10037 
  -10119   -10281   -10501   -10764   -11014   -11180   -11307   -11484 
  -11704   -11907   -12093   -12322   -12657   -13082   -13521   -13940 
  -14312   -14532   -14528   -14316   -13911   -13332   -12614   -11792 
  -10926   -10056    -9147    -8193    -7258    -6378    -5533    -4756 
   -4141    -3759    -3589    -3576    -3665    -3805    -3969    -4158 
   -4374    -4610    -4816    -5003    -5260    -5609    -6002    -6435 
   -6890    -7344    -7774    -8143    -8411    -8571    -8625    -8549 
   -8286    -7796    -7113    -6281    -5305    -4220    -3140    -2180 
   -1367     -677     -126      237      382      345      202      -36 
    -429     -996    -1729    -2660    -3792    -5051    -6388    -7785 
   -9167   -10453   -11608   -12646   -13576   -14386   -15070   -15618 
  -16001   -16225   -16283   -16114   -15703   -15098   -14328   -13473 
  -12631   -11815   -11006   -10258    -9618    -9108    -8746    -8560 
   -8546    -8688    -8988    -9435    -9960   -10485   -10964   -11377 
  -11742   -12037   -12177   -12155   -12077   -11966   -11750   -11462 
  -11221   -11064   -10968   -10921   -10924   -10987   -11136   -11341 
  -11542   -11720   -11885   -12033   -12168   -12244   -12177   -11915 
  -11402   -10621    -9645    -8571    -7474    -6428    -5481    -4677 
   -4056    -3609    -3291    -3048    -2822    -2573    -2315    -2080 
   -1891    -1815    -1921    -2220    -2720    -3400    -4191    -5061 
   -6039    -7153    -8317    -9386   -10314   -11179   -12021   -12729 
  -13281   -13884   -14624   -15350   -16021   -16722   -17419   -18023 
  -18509   -18855   -18987   -18816   -18316   -17556   -16548   -15210 
  -13493   -11429    -9108    -6674    -4244    -1969      -99     1219 
    2081     2675     3001     2822     2101     1185      410     -276 
   -1166    -2235    -3234    -4128    -4949    -5740    -6628    -7541 
   -8325    -9050    -9788   -10426   -10848   -11082   -11234   -11362 
  -11373   -11119   -10643   -10100    -9508    -8800    -8019    -7269 
   -6610    -6052    -5605    -5308    -5202    -5297    -5549    -5907 
   -6380    -6956    -7522    -7992    -8415    -8841    -9242    -9624 
  -10033   -10447   -10825   -11182   -11566   -12012   -12556   -13221 
  -13981   -14773   -15530   -16171   -16603   -16814   -16838   -16657 
  -16282   -15801   -15263   -14681   -14085   -13470   -12808   -12118 
  -11466   -10908   -10467   -10174   -10042   -10007   -10006    -9998 
   -9907    -9645    -9169    -8500    -7693    -6802    -5896    -5042 
   -4288    -3666    -3159    -2731    -2373    -2092    -1884    -1748 
   -1714    -1809    -2016    -2319    -2694    -3111    -3531    -3928 
   -4318    -4720    -5119    -5512    -5934    -6415    -6972    -7609 
   -8256    -8822    -9281    -9622    -9814    -9884    -9925    -9971 
   -9998   -10025   -10095   -10216   -10366   -10476   -10431   -10184 
   -9771    -9198    -8424    -7473    -6482    -5579    -4835    -4318 
   -4079    -4140    -4463    -4969    -5570    -6187    -6759    -7254 
   -7692    -8109    -8575    -9153    -9813   -10501   -11202   -11869 
  -12437   -12900   -13248   -13471   -13571   -13517   -13247   -12729 
  -11982   -11045    -9961    -8779    -7578    -6439    -5432    -4629 
   -4072    -3742    -3576    -3519    -3541    -3634    -3797    -4035 
   -4361    -4797    -5332    -5918    -6502    -7032    -7470    -7803 
   -7993    -8048    -8094    -8262    -8533    -8845    -9263    -9892 
  -10678   -11485   -12306   -13165   -13983   -14704   -15273   -15665 
  -16023   -16339   -16636   -17055   -17116   -16775   -16648   -16394 
  -15934   -15642   -14866   -13626   -12730   -11886   -10733    -9548 
   -8313    -6955    -5653    -4479    -3449    -2608    -1885    -1327 
   -1075    -1127    -1401    -1903    -2705    -3744    -4877    -6115 
   -7472    -8887   -10316   -11685   -12914   -13957   -14782   -15358 
  -15661   -15691   -15423   -14789   -13811   -12586   -11179    -9701 
   -8249    -6844    -5540    -4391    -3373    -2501    -1891    -1571 
   -1391    -1274    -1285    -1452    -1750    -2128    -2497    -2816 
   -3084    -3229    -3211    -3099    -2943    -2785    -2700    -2716 
   -2855    -3173    -3645    -4214    -4903    -5724    -6664    -7709 
   -8806    -9899   -10914   -11773   -12461   -13004   -13406   -13693 
  -13896   -14058   -14210   -14353   -14490   -14605   -14678   -14742 
  -14816   -14909   -15022   -15120   -15192   -15286   -15399   -15472 
  -15460   -15344   -15098   -14704   -14181   -13571   -12911   -12224 
  -11511   -10790   -10114    -9454    -8745    -8002    -7263    -6550 
   -5919    -5406    -4995    -4668    -4479    -4491    -4689    -5011 
   -5393    -5780    -6118    -6392    -6662    -6987    -7371    -7794 
   -8268    -8775    -9244    -9634    -9896    -9996   -10014   -10002 
   -9923    -9834    -9828    -9918   -10053   -10158   -10154    -9988 
   -9656    -9202    -8706    -8252    -7915    -7720    -7650    -7701 
   -7847    -8044    -8270    -8491    -8650    -8731    -8723    -8588 
   -8326    -7973    -7534    -7005    -6409    -5773    -5123    -4487 
   -3865    -3277    -2778    -2390    -2124    -1995    -2010    -2149 
   -2359    -2610    -2903    -3225    -3545    -3843    -4135    -4422 
   -4672    -4903    -5201    -5598    -6064    -6621    -7314    -8147 
   -9143   -10258   -11362   -12391   -13286   -13938   -14362   -14624 
  -14679   -14494   -14111   -13590   -13026   -12517   -12083   -11669 
  -11250   -10883   -10604   -10405   -10250   -10080    -9898    -9726 
   -9533    -9319    -9134    -8962    -8734    -8411    -8004    -7553 
   -7125    -6751    -6466    -6340    -6415    -6720    -7296    -8120 
   -9116   -10200   -11303   -12414   -13514   -14550   -15495   -16332 
  -17037   -17594   -17959   -18057   -17860   -17398   -16725   -15907 
  -15026   -14138   -13281   -12479   -11740   -11040   -10349    -9668 
   -9009    -8371    -7780    -7263    -6813    -6420    -6069    -5740 
   -5429    -5148    -4895    -4672    -4494    -4368    -4291    -4248 
   -4218    -4210    -4260    -4414    -4714    -5169    -5780    -6552 
   -7469    -8451    -9404   -10326   -11233   -12075   -12745   -13153 
  -13308   -13300   -13138   -12827   -12449   -11998   -11408   -10758 
  -10145    -9562    -9032    -8569    -8074    -7466    -6740    -5915 
   -5070    -4266    -3449    -2570    -1745    -1086     -557     -179 
       1        2     -182     -526     -909    -1287    -1696    -2108 
   -2477    -2817    -3144    -3472    -3855    -4328    -4845    -5308 
   -5697    -6084    -6524    -7022    -7572    -8149    -8777    -9462 
  -10138   -10752   -11275   -11661   -11924   -12110   -12235   -12320 
  -12367   -12361   -12330   -12295   -12259   -12240   -12210   -12116 
  -11963   -11772   -11502   -11133   -10710   -10285    -9872    -9460 
   -9036    -8599    -8167    -7769    -7408    -7109    -6934    -6952 
   -7190    -7620    -8178    -8800    -9443   -10058   -10623   -11145 
  -11643   -12120   -12572   -12987   -13329   -13543   -13582   -13424 
  -13076   -12568   -11928   -11194   -10423    -9672    -8988    -8413 
   -7977    -7686    -7515    -7430    -7418    -7458    -7557    -7753 
   -8081    -8541    -9104    -9725   -10335   -10866   -11280   -11574 
  -11734   -11740   -11605   -11381   -11119   -10860   -10648   -10542 
  -10554   -10613   -10646   -10633   -10542   -10316    -9965    -9566 
   -9146    -8694    -8235    -7761    -7227    -6671    -6149    -5663 
   -5242    -4908    -4665    -4533    -4515    -4594    -4746    -4938 
