Origin Time       2025/01/13 21:19:00
Lat.              31.8
Long.             131.6
Depth. (km)       30
Mag.              6.9
Station Code      KMMH11
Station Lat.      32.2918
Station Long.     130.5777
Station Height(m) 100
Record Time       2025/01/13 21:19:50
Sampling Freq(Hz) 100Hz
Duration Time(s)  175
Dir.              6
Scale Factor      7845(gal)/8223790
Max. Acc. (gal)   5.242
Last Correction   2025/01/13 21:19:51
Memo.             
[...]
    5258     5278     5305     5356     5435     5539     5657     5761 
    5819     5817     5772     5701     5603     5479     5333     5182 
    5046     4928     4828     4766     4760     4804     4887     4988 
    5097     5208     5301     5363     5390     5385     5341     5285 
    5251     5254     5270     5279     5282     5269     5246     5235 
    5255     5316     5416     5521     5582     5579     5526     5456 
    5405     5377     5344     5287     5202     5086     4957     4860 
    4826     4851     4912     4982     5049     5132     5258     5431 
    5618     5755     5769     5643     5437     5251     5142     5108 
    5117     5140     5155     5140     5088     5017     4972     4978 
    5016     5016     4923     4731     4491     4257     4079     3983 
    3977     4037     4131     4228     4338     4479     4604     4681 
    4733     4781     4820     4850     4892     4978     5105     5254 
    5428     5621     5807     5972     6089     6131     6089     5973 
    5825     5692     5589     5497     5402     5294     5146     4939 
    4692     4440     4229     4110     4121     4272     4536     4835 
    5104     5321     5471     5536     5517     5433     5347     5309 
    5309     5319     5313     5270     5186     5085     4993     4936 
    4930     4954     4980     4997     5020     5059     5120     5185 
    5232     5270     5333     5439     5583     5756     5922     6033 
    6077     6087     6066     5971     5776     5508     5181     4828 
    4525     4322     4229     4226     4306     4455     4631     4781 
    4853     4830     4764     4725     4764     4901     5113     5366 
    5644     5911     6095     6142     6092     6035     6033     6079 
    6119     6119     6089     6021     5908     5802     5751     5745 
    5752     5748     5733     5701     5602     5405     5181     5013 
    4914     4896     4996     5204     5466     5722     5925     6025 
    5981     5767     5390     4922     4457     4075     3804     3619 
    3461     3312     3245     3342     3608     3997     4415     4743 
    4912     4950     4920     4876     4858     4920     5108     5394 
    5665     5821     5823     5675     5422     5155     4950     4831 
    4762     4722     4737     4808     4877     4927     4978     5009 
    4993     4951     4916     4889     4870     4892     4978     5147 
    5387     5655     5896     6061     6137     6158     6110     5934 
    5641     5270     4827     4382     4075     3994     4140     4457 
    4834     5198     5514     5744     5894     5991     5995     5845 
    5530     5090     4623     4221     3924     3786     3874     4159 
    4552     4965     5317     5579     5795     5998     6177     6305 
    6315     6160     5902     5672     5574     5611     5722     5841 
    5926     5962     5964     5996     6116     6254     6270     6137 
    5940     5748     5579     5429     5269     5086     4914     4779 
    4683     4631     4607     4554     4450     4345     4298     4328 
    4421     4550     4665     4711     4696     4657     4598     4546 
    4565     4658     4777     4876     4939     4984     5082     5269 
    5479     5668     5840     5998     6147     6259     6266     6166 
    6034     5915     5814     5733     5663     5556     5368     5096 
    4766     4423     4129     3942     3893     4002     4261     4606 
    4903     5031     4962     4781     4592     4456     4395     4403 
    4432     4410     4297     4148     4052     4032     4083     4175 
    4259     4326     4394     4467     4584     4795     5097     5444 
    5752     5937     5983     5895     5676     5383     5112     4899 
    4784     4833     5019     5213     5325     5350     5321     5290 
    5312     5410     5575     5748     5841     5845     5845     5903 
    5969     5960     5871     5753     5637     5541     5474     5420 
    5390     5410     5460     5464     5364     5151     4882     4665 
    4587     4661     4811     4951     5059     5144     5209     5252 
    5285     5329     5410     5545     5706     5850     5960     5977 
    5852     5640     5431     5265     5144     5042     4976     5003 
    5115     5225     5277     5275     5254     5192     5046     4828 
    4604     4411     4271     4224     4305     4486     4699     4915 
    5148     5386     5572     5651     5574     5329     4986     4654 
    4403     4252     4164     4091     4052     4109     4290     4569 
    4900     5220     5490     5705     5834     5848     5778     5676 
    5584     5518     5440     5296     5119     4962     4838     4762 
    4761     4824     4905     4962     4997     5042     5121     5213 
    5236     5154     5004     4845     4734     4712     4780     4888 
    4961     4954     4872     4758     4664     4621     4644     4760 
    4980     5258     5518     5694     5726     5590     5328     5023 
    4780     4695     4791     4993     5204     5367     5479     5589 
    5765     6018     6286     6504     6600     6536     6334     6053 
    5738     5435     5193     5023     4888     4780     4715     4704 
    4762     4907     5128     5367     5563     5688     5756     5787 
    5775     5701     5617     5634     5791     6016     6211     6301 
    6258     6096     5854     5614     5476     5498     5670     5907 
    6102     6192     6170     6062     5922     5787     5634     5421 
    5140     4827     4553     4376     4310     4334     4425     4546 
    4662     4737     4756     4747     4773     4887     5088     5329 
    5559     5748     5894     5981     5998     5929     5751     5481 
    5197     4966     4791     4639     4499     4376     4302     4291 
    4313     4334     4372     4450     4552     4653     4799     5017 
    5236     5366     5422     5466     5522     5614     5746     5871 
    5930     5929     5891     5817     5686     5494     5301     5151 
    5019     4874     4727     4590     4469     4356     4248     4201 
    4259     4407     4619     4877     5142     5373     5571     5717 
    5740     5606     5377     5124     4874     4652     4482     4356 
    4279     4270     4298     4315     4306     4253     4147     4020 
    3943     3954     4058     4243     4487     4777     5111     5417 
    5617     5726     5814     5919     6046     6187     6304     6339 
    6272     6123     5919     5697     5505     5348     5188     5001 
    4810     4637     4514     4491     4576     4696     4789     4874 
    4968     5047     5073     4993     4801     4573     4406     4368 
    4492     4764     5136     5540     5919     6219     6408     6507 
    6532     6451     6262     6010     5694     5332     5008     4777 
    4637     4572     4585     4702     4901     5097     5201     5167 
    5012     4804     4621     4483     4356     4236     4162     4148 
    4168     4212     4297     4413     4550     4731     4939     5108 
    5185     5174     5112     5063     5073     5121     5190     5297 
    5443     5616     5825     6045     6196     6223     6126     5953 
    5773     5620     5494     5412     5394     5444     5551     5674 
    5730     5655     5437     5104     4738     4433     4239     4139 
    4089     4045     3998     3958     3950     4001     4106     4229 
    4330     4388     4421     4461     4521     4568     4567     4523 
    4500     4576     4774     5046     5327     5580     5798     5972 
    6085     6118     6089     6048     6012     6008     6081     6219 
    6351     6459     6573     6654     6621     6461     6208     5907 
    5637     5476     5437     5520     5702     5904     6049     6080 
    5971     5760     5532     5321     5109     4885     4646     4395 
    4167     4018     3971     4004     4075     4149     4210     4266 
    4314     4345     4345     4317     4313     4361     4422     4457 
    4479     4519     4618     4770     4897     4922     4823     4627 
    4401     4247     4251     4407     4658     4947     5232     5482 
    5653     5686     5567     5370     5170     5009     4904     4830 
    4781     4783     4849     4997     5248     5579     5949     6315 
    6606     6737     6671     6444     6164     5961     5888     5890 
    5890     5837     5699     5495     5300     5184     5171     5244 
    5350     5440     5483     5467     5387     5260     5140     5086 
    5088     5089     5067     5016     4939     4873     4877     4996 
    5209     5451     5651     5761     5795     5792     5800     5845 
    5899     5913     5872     5780     5653     5524     5417     5333 
    5282     5273     5309     5379     5422     5378     5262     5134 
    5019     4905     4777     4626     4480     4402     4414     4479 
    4567     4698     4901     5171     5497     5864     6238     6566 
    6798     6891     6805     6547     6208     5886     5613     5381 
    5148     4877     4619     4461     4442     4567     4772     4978 
    5170     5340     5409     5329     5151     4936     4725     4521 
    4302     4078     3889     3770     3735     3781     3855     3935 
    4040     4185     4356     4549     4747     4892     4926     4866 
    4779     4716     4745     4878     5023     5117     5190     5259 
    5309     5358     5452     5593     5711     5760     5759     5695 
    5555     5395     5274     5170     5071     5015     5022     5049 
    5054     5044     5016     4953     4891     4858     4834     4781 
    4684     4557     4467     4463     4530     4656     4837     5030 
    5163     5221     5243     5292     5405     5544     5599     5505 
    5293     5085     4988     5017     5138     5320     5498     5597 
    5628     5634     5632     5651     5729     5860     6003     6107 
    6138     6087     5968     5809     5643     5516     5460     5447 
    5437     5471     5607     5814     6002     6093     6056     5895 
    5617     5246     4861     4572     4456     4537     4754     5000 
    5190     5316     5409     5501     5587     5663     5738     5814 
    5856     5853     5814     5722     5587     5476     5416     5370 
    5347     5339     5285     5140     4932     4712     4515     4356 
    4271     4318     4530     4891     5321     5719     5988     6077 
    6004     5834     5599     5300     4934     4541     4178     3874 
    3657     3589     3690     3920     4249     4649     5073     5464 
    5734     5795     5636     5298     4874     4476     4176     4002 
    3905     3793     3646     3569     3663     3936     4321     4718 
    5039     5220     5239     5123     4904     4615     4338     4163 
    4143     4309     4619     4968     5287     5563     5745     5840 
    5944     6110     6276     6346     6249     5962     5537     5066 
    4662     4406     4332     4384     4482     4650     4953     5348 
    5775     6207     6548     6674     6570     6315     5998     5695 
    5468     5336     5274     5258     5248     5178     5016     4831 
    4708     4666     4698     4769     4833     4868     4845     4733 
    4611     4594     4692     4888     5192     5560     5872     6027 
    6031     6000     6037     6134     6227     6265     6238     6162 
    6077     5983     5850     5680     5494     5309     5152     4997 
    4792     4610     4581     4723     4986     5337     5691     5949 
    6072     6056     5884     5594     5281     5004     4780     4665 
    4711     4912     5223     5567     5850     6011     6022     5892 
    5699     5543     5416     5247     4999     4691     4429     4328 
    4352     4375     4317     4168     3975     3805     3744     3878 
    4206     4625     5042     5448     5853     6216     6485     6667 
    6797     6894     6926     6818     6532     6138     5741     5406 
    5152     4973     4831     4687     4500     4240     3929     3663 
    3505     3441     3397     3325     3245     3202     3194     3242 
    3384     3635     3943     4147     4144     4037     3943     3875 
    3805     3705     3615     3592     3584     3493     3329     3173 
    3100     3144     3315     3632     4082     4592     5108     5618 
    6069     6369     6454     6313     6018     5713     5498     5371 
    5337     5429     5620     5849     6053     6169     6219     6296 
    6447     6619     6718     6686     6493     6189     5879     5591 
    5286     4985     4819     4911     5247     5665     6006     6158 
    6065     5791     5483     5267     5186     5170     5123     5057 
    5016     5008     5044     5093     5094     5086     5121     5128 
    5100     5148     5273     5356     5358     5301     5243     5251 
    5314     5366     5356     5236     5008     4750     4496     4228 
    3962     3750     3627     3577     3557     3592     3723     3885 
    3954     3883     3740     3600     3491     3431     3457     3574 
    3761     3977     4145     4212     4205     4176     4147     4079 
    3873     3545     3262     3127     3157     3375     3708     4014 
    4226     4364     4448     4502     4538     4540     4499     4407 
    4257     4121     4072     4070     4070     4122     4234     4376 
    4571     4812     5067     5323     5489     5475     5329     5161 
    5047     5061     5220     5483     5786     6035     6135     6060 
    5863     5606     5363     5216     5143     5086     5111     5267 
    5491     5798     6273     6929     7669     8363     8941     9450 
    9917    10277    10497    10613    10648    10602    10515    10431 
   10363    10268    10066     9724     9300     8891     8548     8218 
    7830     7406     7013     6663     6342     6010     5620     5185 
    4784     4480     4260     4114     4085     4189     4386     4607 
    4791     4885     4877     4800     4691     4569     4410     4178 
    3898     3639     3478     3465     3569     3734     3897     3977 
    3956     3917     3947     4067     4209     4322     4434     4579 
    4757     4928     5016     4993     4905     4824     4807     4841 
    4866     4827     4666     4369     3987     3605     3352     3267 
    3213     3095     2959     2878     2907     3088     3431     3909 
    4442     4895     5132     5127     5032     5082     5298     5481 
    5478     5263     4877     4438     4117     4032     4212     4572 
    4935     5157     5201     5085     4868     4629     4399     4156 
    3881     3572     3291     3160     3253     3501     3792     4071 
    4345     4607     4823     4981     5071     5042     4847     4563 
    4317     4147     4087     4207     4444     4676     4931     5263 
    5636     6000     6320     6616     7003     7565     8213     8722 
    8900     8742     8391     7992     7589     7191     6832     6544 
    6262     5887     5445     5063     4826     4731     4699     4662 
    4662     4731     4862     5076     5367     5644     5791     5736 
    5512     5211     4880     4585     4453     4587     4973     5417 
    5679     5691     5530     5271     4993     4777     4669     4645 
    4567     4356     4085     3813     3553     3364     3273     3199 
    3049     2795     2515     2373     2446     2662     2918     3145 
    3284     3326     3329     3357     3456     3676     4021     4409 
    4754     5038     5243     5329     5290     5152     4947     4734 
    4604     4629     4816     5116     5443     5730     5957     6106 
    6134     6026     5853     5729     5728     5846     6003     6087 
    6057     5946     5809     5698     5634     5574     5494     5427 
    5362     5301     5293     5332     5341     5306     5319     5433 
    5640     5960     6370     6771     7161     7558     7911     8214 
    8452     8523     8418     8229     7996     7735     7508     7353 
    7292     7308     7268     7056     6736     6389     6030     5726 
    5544     5404     5185     4876     4515     4172     3956     3921 
    4016     4191     4440     4693     4895     5103     5344     5522 
    5598     5647     5733     5841     5917     5938     5902     5799 
    5653     5517     5408     5328     5285     5290     5341     5393 
    5410     5409     5391     5362     5374     5444     5526     5584 
    5617     5613     5497     5174     4684     4178     3778     3532 
    3406     3299     3160     2997     2860     2771     2647     2403 
    2107     1899     1783     1672     1567     1529     1586     1738 
    2010     2413     2863     3164     3210     3069     2836     2594 
    2415     2303     2254     2277     2320     2349     2365     2381 
    2458     2710     3133     3622     4152     4730     5286     5738 
    6054     6242     6322     6347     6407     6540     6705     6839 
    6909     6903     6825     6696     6551     6404     6247     6129 
    6112     6187     6311     6502     6808     7217     7658     8013 
    8176     8174     8121     8091     8127     8220     8275     8230 
    8136     8077     8055     8017     7992     8109     8410     8746 
    8949     9008     8976     8841     8631     8411     8159     7828 
    7441     7040     6636     6246     5949     5819     5860     6046 
    6331     6619     6828     6943     6967     6891     6681     6339 
    5944     5562     5185     4766     4307     3866     3500     3254 
    3168     3210     3289     3393     3561     3747     3869     3915 
    3912     3852     3740     3574     3349     3114     2934     2813 
    2771     2847     2987     3153     3397     3735     4102     4456 
    4741     4892     4892     4781     4594     4361     4125     3917 
    3723     3538     3395     3329     3358     3489     3709     4001 
    4359     4799     5352     5980     6534     6889     7017     6949 
    6805     6694     6592     6415     6173     5960     5830     5787 
    5803     5844     5868     5853     5822     5841     5921     6006 
    6045     6011     5917     5821     5738     5641     5499     5320 
    5200     5208     5293     5397     5499     5557     5555     5516 
    5444     5340     5240     5175     5143     5140     5174     5211 
    5190     5125     5112     5181     5267     5340     5412     5471 
    5494     5483     5455     5420     5340     5196     5020     4837 
    4644     4473     4352     4320     4430     4656     4866     4973 
    4976     4922     4851     4757     4627     4506     4429     4390 
    4329     4182     3979     3808     3670     3577     3600     3735 
    3878     3967     3983     3883     3694     3520     3406     3337 
    3342     3438     3591     3762     3959     4199     4453     4642 
    4684     4568     4379     4234     4198     4261     4349     4360 
    4259     4070     3835     3634     3557     3630     3831     4101 
    4334     4465     4545     4648     4762     4839     4878     4860 
    4745     4563     4375     4224     4149     4155     4202     4270 
    4382     4587     4927     5405     5971     6548     7068     7507 
    7863     8145     8353     8460     8402     8172     7857     7538 
    7271     7067     6891     6716     6529     6280     5899     5405 
    4918     4576     4467     4576     4785     4955     5009     4966 
    4880     4779     4657     4482     4240     3982     3790     3699 
    3689     3743     3831     3924     4059     4291     4548     4706 
