Origin Time       2025/01/13 21:19:00
Lat.              31.8
Long.             131.6
Depth. (km)       30
Mag.              6.9
Station Code      KMMH10
Station Lat.      32.3151
Station Long.     130.1811
Station Height(m) -142
Record Time       2025/01/13 21:19:55
Sampling Freq(Hz) 100Hz
Duration Time(s)  218
Dir.              3
Scale Factor      2942(gal)/8224139
Max. Acc. (gal)   2.145
Last Correction   2025/01/13 21:19:55
Memo.             
[...]
   20974    20849    20767    20734    20749    20790    20858    20969 
   21100    21222    21347    21490    21633    21757    21855    21933 
   21996    22045    22072    22091    22106    22115    22123    22119 
   22102    22090    22083    22063    22026    21992    21973    21961 
   21941    21902    21864    21852    21864    21878    21861    21824 
   21791    21772    21759    21736    21695    21636    21568    21520 
   21502    21546    21655    21786    21922    22090    22283    22469 
   22628    22739    22819    22893    22947    22975    23001    23035 
   23072    23109    23143    23191    23265    23356    23450    23538 
   23600    23631    23637    23618    23575    23519    23456    23398 
   23386    23422    23441    23403    23333    23245    23129    22982 
   22819    22644    22482    22342    22210    22086    21991    21914 
   21833    21748    21678    21620    21546    21456    21369    21282 
   21211    21161    21103    21020    20906    20746    20560    20368 
   20170    19982    19827    19703    19600    19525    19494    19510 
   19552    19592    19635    19716    19853    20034    20212    20340 
   20397    20405    20401    20410    20440    20494    20568    20636 
   20675    20691    20676    20618    20533    20441    20333    20241 
   20221    20256    20312    20370    20422    20474    20540    20652 
   20818    21011    21197    21354    21483    21617    21779    21972 
   22196    22454    22747    23074    23425    23774    24105    24395 
   24648    24877    25084    25243    25358    25452    25527    25600 
   25694    25793    25868    25901    25901    25895    25880    25847 
   25793    25736    25690    25644    25601    25559    25488    25382 
   25261    25118    24956    24795    24646    24506    24391    24310 
   24247    24189    24128    24046    23943    23820    23674    23521 
   23357    23179    23001    22851    22739    22655    22599    22570 
   22550    22524    22499    22469    22428    22374    22315    22246 
   22160    22057    21938    21825    21744    21691    21647    21593 
   21528    21452    21363    21243    21093    20947    20827    20736 
   20660    20578    20491    20428    20375    20306    20225    20131 
   20000    19855    19747    19691    19646    19576    19475    19360 
   19267    19225    19244    19318    19417    19491    19539    19592 
   19649    19712    19800    19905    20024    20129    20202    20251 
   20283    20322    20395    20513    20691    20933    21205    21467 
   21712    21963    22225    22476    22693    22881    23070    23267 
   23457    23627    23766    23866    23927    23953    23932    23880 
   23845    23849    23892    23981    24104    24223    24324    24436 
   24561    24649    24683    24726    24794    24860    24938    25043 
   25153    25236    25272    25258    25226    25176    25076    24918 
   24730    24526    24305    24078    23863    23668    23502    23360 
   23211    23056    22891    22701    22488    22265    22052    21861 
   21685    21504    21294    21064    20837    20632    20459    20328 
   20233    20163    20113    20085    20063    20029    19962    19855 
   19739    19645    19585    19577    19616    19672    19716    19747 
   19768    19797    19865    19969    20098    20251    20406    20532 
   20618    20676    20721    20780    20877    20997    21135    21288 
   21450    21613    21779    21955    22113    22252    22419    22615 
   22792    22956    23113    23229    23302    23349    23383    23430 
   23488    23521    23517    23484    23441    23403    23360    23299 
   23232    23156    23086    23028    22974    22921    22862    22788 
   22702    22639    22619    22613    22600    22572    22513    22418 
   22311    22227    22162    22091    22013    21946    21886    21838 
   21805    21779    21789    21852    21957    22092    22239    22377 
   22478    22532    22559    22577    22592    22604    22612    22609 
   22597    22581    22550    22495    22427    22360    22288    22211 
   22123    22037    21973    21922    21851    21768    21712    21685 
   21701    21776    21894    22038    22191    22337    22473    22588 
   22653    22653    22617    22570    22495    22381    22250    22123 
   22009    21906    21816    21739    21674    21629    21602    21591 
   21606    21637    21640    21613    21590    21571    21544    21512 
   21473    21429    21392    21358    21319    21280    21239    21178 
   21114    21078    21072    21092    21147    21240    21374    21540 
   21710    21867    22013    22157    22300    22447    22596    22729 
   22846    22956    23064    23168    23284    23422    23553    23670 
   23793    23927    24059    24177    24308    24470    24638    24796 
   24939    25043    25104    25124    25119    25111    25097    25077 
   25046    24985    24902    24831    24787    24768    24776    24783 
   24769    24725    24632    24478    24298    24121    23944    23782 
   23653    23542    23464    23411    23333    23220    23066    22869 
   22658    22449    22245    22050    21886    21762    21672    21591 
   21506    21431    21361    21286    21231    21212    21196    21169 
   21147    21105    21033    20949    20858    20771    20695    20617 
   20540    20471    20417    20359    20271    20147    20002    19862 
   19727    19596    19483    19375    19245    19105    18964    18833 
   18729    18659    18612    18592    18593    18600    18603    18601 
   18608    18648    18739    18871    19029    19211    19413    19622 
   19826    20025    20248    20510    20796    21077    21321    21517 
   21679    21818    21937    22040    22126    22203    22283    22358 
   22422    22477    22528    22566    22580    22576    22563    22554 
   22565    22613    22709    22842    22978    23085    23145    23178 
   23191    23188    23182    23167    23128    23060    22971    22878 
   22783    22678    22577    22497    22428    22362    22292    22211 
   22125    22041    21960    21891    21826    21744    21651    21547 
   21427    21317    21249    21216    21192    21149    21095    21058 
   21062    21101    21168    21247    21344    21474    21632    21807 
   21996    22183    22345    22476    22588    22689    22781    22866 
   22940    22990    22998    22970    22929    22893    22860    22843 
   22854    22904    23002    23151    23329    23525    23734    23935 
   24109    24266    24421    24582    24733    24868    24987    25074 
   25119    25127    25100    25033    24925    24791    24657    24543 
   24456    24395    24331    24240    24136    24034    23919    23792 
   23664    23523    23367    23228    23114    22994    22856    22700 
   22532    22364    22199    22042    21897    21755    21622    21508 
   21400    21305    21258    21269    21316    21392    21501    21645 
   21817    21995    22156    22287    22393    22489    22588    22692 
   22786    22869    22935    22978    22991    22972    22933    22893 
   22860    22828    22798    22778    22770    22778    22806    22844 
   22873    22882    22869    22820    22735    22627    22499    22354 
   22208    22064    21910    21757    21614    21462    21290    21099 
   20902    20698    20487    20271    20059    19850    19656    19500 
   19400    19359    19365    19413    19510    19642    19793    19963 
   20143    20329    20521    20691    20821    20911    20974    21028 
   21087    21154    21213    21259    21307    21371    21446    21529 
   21620    21713    21829    22005    22245    22526    22823    23110 
   23363    23566    23711    23782    23782    23742    23679    23595 
   23503    23411    23318    23228    23155    23097    23051    23013 
   22979    22952    22928    22889    22837    22788    22756    22769 
   22812    22870    22943    23014    23062    23074    23020    22901 
   22746    22570    22384    22185    21969    21751    21550    21370 
   21220    21103    21019    20970    20946    20942    20962    20996 
   21028    21055    21072    21073    21053    21015    20956    20858 
   20729    20596    20461    20313    20152    19978    19792    19602 
   19396    19180    18981    18812    18690    18628    18624    18669 
   18744    18833    18935    19041    19122    19182    19255    19353 
   19465    19576    19668    19741    19809    19890    19993    20113 
   20231    20343    20460    20609    20777    20930    21054    21149 
   21220    21294    21374    21450    21540    21651    21767    21886 
   22013    22145    22275    22408    22554    22705    22855    22999 
   23130    23255    23383    23495    23565    23598    23591    23548 
   23500    23475    23456    23433    23414    23403    23395    23379 
   23353    23325    23282    23213    23124    23021    22912    22800 
   22688    22577    22466    22350    22233    22122    22036    21990 
   21971    21976    22018    22083    22157    22239    22314    22360 
   22376    22361    22324    22281    22230    22183    22165    22179 
   22203    22227    22242    22246    22234    22194    22133    22064 
   21995    21942    21917    21901    21865    21813    21743    21648 
   21541    21429    21305    21172    21039    20918    20823    20775 
   20763    20761    20761    20767    20771    20764    20756    20746 
   20729    20713    20710    20733    20780    20845    20938    21062 
   21205    21344    21473    21593    21703    21807    21921    22054 
   22207    22383    22574    22782    23001    23224    23457    23688 
   23903    24106    24318    24547    24792    25041    25289    25544 
   25783    25979    26134    26256    26337    26373    26373    26329 
   26235    26103    25944    25776    25623    25494    25390    25323 
   25284    25247    25203    25153    25081    24969    24823    24651 
   24451    24232    24008    23795    23589    23387    23195    23021 
   22863    22720    22574    22422    22275    22134    21988    21856 
   21748    21647    21547    21443    21320    21186    21062    20957 
   20871    20800    20736    20684    20653    20642    20659    20686 
   20704    20715    20715    20703    20698    20718    20753    20780 
   20785    20761    20698    20595    20468    20331    20181    20020 
   19839    19641    19429    19206    18972    18738    18531    18376 
   18274    18233    18252    18326    18443    18585    18754    18952 
   19172    19408    19662    19935    20212    20472    20715    20947 
   21166    21386    21618    21863    22111    22362    22605    22817 
   22998    23152    23278    23376    23449    23507    23552    23569 
   23554    23510    23449    23390    23333    23288    23267    23261 
   23259    23265    23294    23333    23379    23429    23460    23454 
   23415    23342    23232    23094    22945    22792    22648    22527 
   22422    22324    22243    22167    22080    21982    21890    21811 
   21739    21668    21612    21564    21516    21473    21435    21412 
   21412    21439    21494    21575    21670    21766    21864    21967 
   22069    22169    22258    22331    22411    22507    22616    22746 
   22885    23029    23170    23294    23399    23481    23523    23512 
   23438    23296    23099    22874    22632    22381    22145    21934 
   21736    21547    21392    21285    21235    21243    21289    21363 
   21469    21589    21699    21802    21909    22014    22121    22225 
   22314    22388    22443    22486    22519    22530    22516    22485 
   22451    22427    22420    22432    22464    22504    22547    22596 
   22661    22734    22792    22840    22875    22874    22846    22800 
   22742    22681    22627    22576    22523    22482    22453    22423 
   22397    22384    22389    22426    22501    22603    22724    22862 
   23009    23155    23295    23429    23561    23693    23815    23912 
   23989    24054    24096    24108    24094    24070    24057    24057 
   24061    24073    24088    24093    24097    24108    24104    24073 
   24028    23977    23934    23904    23876    23846    23824    23803 
   23778    23750    23720    23701    23692    23679    23662    23637 
   23598    23544    23479    23411    23337    23244    23128    23001 
   22867    22734    22619    22527    22446    22383    22360    22362 
   22357    22349    22327    22287    22266    22262    22249    22223 
   22179    22107    22014    21906    21783    21654    21517    21367 
   21205    21053    20915    20783    20644    20494    20339    20189 
   20066    19970    19872    19757    19627    19468    19282    19076 
   18852    18609    18364    18123    17887    17671    17489    17320 
   17166    17035    16910    16791    16688    16602    16551    16540 
   16568    16645    16764    16904    17045    17169    17271    17355 
   17416    17470    17529    17586    17637    17687    17747    17813 
   17882    17956    18042    18137    18230    18334    18461    18596 
   18736    18895    19076    19282    19514    19776    20051    20321 
   20578    20822    21050    21255    21444    21627    21803    21975 
   22144    22292    22404    22489    22553    22594    22638    22693 
   22758    22839    22943    23082    23267    23494    23747    24023 
   24317    24621    24923    25208    25463    25694    25910    26096 
   26258    26408    26538    26654    26761    26860    26963    27075 
   27190    27302    27414    27531    27656    27774    27888    27990 
   28070    28115    28113    28055    27949    27785    27554    27261 
   26931    26572    26180    25779    25385    25008    24661    24351 
   24062    23788    23554    23360    23195    23080    23008    22950 
   22901    22851    22788    22705    22600    22481    22364    22246 
   22135    22042    21964    21902    21865    21853    21855    21875 
   21910    21952    22005    22061    22107    22142    22167    22177 
   22179    22164    22138    22114    22100    22102    22115    22127 
   22123    22096    22053    22006    21965    21940    21932    21932 
   21940    21961    21986    22005    22007    21984    21937    21861 
   21766    21668    21566    21452    21335    21212    21080    20937 
   20792    20649    20517    20405    20325    20266    20208    20144 
   20066    19954    19818    19677    19542    19419    19314    19225 
   19155    19103    19076    19075    19089    19116    19159    19224 
   19317    19417    19503    19580    19657    19722    19770    19816 
   19865    19913    19971    20047    20137    20237    20344    20463 
   20596    20744    20902    21061    21216    21361    21483    21593 
   21683    21748    21794    21822    21830    21822    21806    21784 
   21767    21751    21735    21728    21725    21722    21725    21737 
   21753    21767    21780    21803    21832    21855    21878    21905 
   21942    21998    22071    22148    22206    22237    22245    22234 
   22196    22127    22040    21942    21841    21732    21609    21475 
   21340    21219    21109    20988    20849    20706    20557    20413 
   20274    20140    20023    19921    19838    19785    19753    19745 
   19765    19809    19892    20008    20135    20275    20437    20615 
   20815    21037    21274    21531    21810    22111    22430    22763 
   23105    23450    23784    24098    24394    24660    24903    25141 
   25374    25604    25833    26063    26291    26501    26678    26829 
   26963    27074    27172    27283    27388    27461    27513    27538 
   27527    27492    27432    27346    27238    27108    26962    26805 
   26640    26478    26319    26156    25988    25813    25618    25409 
   25196    24969    24721    24462    24192    23924    23683    23461 
   23252    23067    22902    22742    22597    22472    22343    22219 
   22111    22006    21905    21806    21703    21597    21490    21379 
   21267    21153    21037    20922    20811    20703    20583    20452 
   20333    20225    20131    20073    20055    20061    20081    20116 
   20170    20240    20316    20397    20486    20569    20645    20721 
   20798    20871    20946    21028    21130    21249    21375    21504 
   21628    21729    21795    21828    21834    21811    21767    21713 
   21643    21552    21448    21335    21201    21055    20906    20746 
   20580    20417    20250    20081    19935    19822    19737    19677 
   19641    19624    19619    19620    19634    19654    19676    19704 
   19746    19795    19853    19919    19985    20066    20170    20291 
   20440    20613    20806    21020    21238    21446    21672    21922 
   22153    22357    22573    22796    23002    23203    23392    23566 
   23734    23896    24052    24205    24351    24487    24611    24722 
   24825    24912    24985    25045    25099    25158    25218    25267 
   25311    25348    25374    25386    25386    25385    25384    25371 
   25339    25281    25197    25085    24956    24815    24657    24482 
   24325    24192    24058    23940    23836    23733    23637    23552 
   23465    23382    23301    23224    23149    23066    22970    22860 
   22739    22612    22473    22314    22149    22000    21876    21749 
   21601    21459    21317    21161    21019    20883    20748    20637 
   20549    20484    20447    20426    20412    20391    20353    20297 
   20223    20142    20069    20009    19966    19936    19923    19942 
   19998    20090    20212    20360    20528    20702    20873    21047 
   21226    21401    21582    21762    21929    22076    22203    22320 
   22430    22528    22619    22705    22781    22848    22914    22968 
   22998    23004    22987    22954    22900    22821    22727    22617 
   22496    22374    22257    22138    22034    21946    21845    21743 
   21656    21566    21478    21405    21339    21292    21271    21270 
   21296    21339    21389    21446    21502    21554    21610    21668 
   21721    21782    21860    21949    22044    22140    22235    22327 
   22415    22501    22597    22701    22804    22896    22979    23045 
   23097    23136    23157    23163    23157    23139    23097    23035 
   22959    22869    22769    22670    22570    22462    22362    22269 
   22171    22069    21963    21841    21701    21552    21400    21240 
   21082    20927    20780    20648    20529    20418    20314    20220 
   20140    20067    19993    19921    19850    19773    19700    19635 
   19591    19572    19570    19572    19575    19611    19685    19758 
   19831    19939    20056    20171    20301    20428    20544    20661 
   20780    20899    21020    21146    21267    21385    21496    21581 
   21636    21691    21747    21783    21828    21898    21975    22068 
   22171    22262    22343    22411    22454    22484    22513    22530 
   22530    22531    22531    22528    22531    22538    22550    22567 
   22589    22616    22646    22673    22705    22766    22844    22914 
   22989    23070    23139    23202    23261    23317    23369    23417 
   23465    23521    23585    23654    23720    23782    23831    23868 
   23893    23897    23889    23872    23846    23820    23788    23753 
   23716    23670    23623    23575    23512    23444    23377    23307 
   23237    23168    23095    23016    22932    22848    22762    22678 
   22603    22528    22450    22383    22324    22269    22214    22154 
