Origin Time       2025/01/13 21:19:00
Lat.              31.8
Long.             131.6
Depth. (km)       30
Mag.              6.9
Station Code      KMMH16
Station Lat.      32.7967
Station Long.     130.8199
Station Height(m) 55
Record Time       2025/01/13 21:19:54
Sampling Freq(Hz) 100Hz
Duration Time(s)  213
Dir.              5
Scale Factor      7845(gal)/8223790
Max. Acc. (gal)   24.346
Last Correction   2025/01/13 21:19:54
Memo.             
[...]
    1308     1769     1715     1069     -143    -1723    -3348    -4747 
   -5756    -6347    -6631    -6656    -6428    -6023    -5547    -5090 
   -4730    -4522    -4507    -4638    -4822    -4968    -4984    -4797 
   -4402    -3897    -3447    -3194    -3229    -3584    -4244    -5167 
   -6187    -7038    -7603    -7928    -8141    -8419    -8877    -9497 
  -10127   -10559   -10616   -10228    -9510    -8633    -7681    -6693 
   -5705    -4797    -4101    -3761    -3931    -4672    -5921    -7491 
   -9063   -10357   -11227   -11620   -11566   -11144   -10422    -9435 
   -8226    -6906    -5616    -4442    -3462    -2759    -2396    -2396 
   -2709    -3215    -3798    -4353    -4803    -5182    -5587    -6083 
   -6670    -7263    -7693    -7830    -7685    -7348    -6898    -6442 
   -6076    -5838    -5722    -5663    -5567    -5379    -5059    -4627 
   -4209    -3991    -4151    -4812    -5962    -7393    -8835   -10064 
  -10947   -11449   -11568   -11275   -10559    -9463    -8031    -6340 
   -4615    -3146    -2108    -1544    -1409    -1591    -1952    -2377 
   -2841    -3357    -3915    -4476    -4936    -5174    -5151    -4914 
   -4549    -4155    -3777    -3422    -3171    -3177    -3555    -4341 
   -5508    -6898    -8267    -9383   -10027   -10007    -9289    -8029 
   -6512    -5050    -3909    -3221    -2949    -2918    -2913    -2835 
   -2756    -2803    -3018    -3392    -3920    -4579    -5274    -5883 
   -6351    -6682    -6824    -6677    -6185    -5306    -4066    -2651 
   -1269      -93      704     1020      828      168     -831    -2007 
   -3195    -4234    -5019    -5548    -5888    -6073    -6076    -5881 
   -5552    -5229    -5088    -5248    -5715    -6393    -7122    -7720 
   -8051    -8116    -8009    -7812    -7566    -7307    -6998    -6551 
   -5945    -5201    -4382    -3593    -2936    -2484    -2292    -2357 
   -2674    -3246    -4009    -4823    -5517    -5931    -5956    -5572 
   -4891    -4109    -3446    -3069    -3019    -3241    -3653    -4135 
   -4550    -4806    -4870    -4746    -4429    -3964    -3424    -2891 
   -2465    -2223    -2174    -2253    -2327    -2250    -2000    -1652 
   -1335    -1254    -1580    -2373    -3604    -5155    -6813    -8359 
   -9666   -10708   -11500   -12043   -12309   -12224   -11705   -10787 
   -9655    -8526    -7550    -6741    -5999    -5201    -4291    -3304 
   -2376    -1684    -1362    -1435    -1836    -2408    -2987    -3456 
   -3713    -3697    -3411    -2891    -2184    -1335     -356      700 
    1705     2505     2970     3014     2608     1752      500    -1066 
   -2903    -4973    -7179    -9369   -11407   -13171   -14455   -15043 
  -14851   -13927   -12415   -10554    -8625    -6816    -5196    -3794 
   -2639    -1744    -1173    -1040    -1385    -2155    -3294    -4718 
   -6291    -7894    -9433   -10808   -11947   -12831   -13473   -13910 
  -14143   -14104   -13749   -13103   -12217   -11171   -10022    -8788 
   -7445    -5968    -4361    -2691    -1105      237     1256     1906 
    2157     2077     1776     1325      747       37     -805    -1792 
   -2922    -4122    -5238    -6126    -6736    -7099    -7271    -7295 
   -7206    -6990    -6604    -6056    -5412    -4776    -4279    -4004 
   -3970    -4132    -4388    -4639    -4815    -4853    -4752    -4571 
   -4388    -4302    -4430    -4885    -5718    -6890    -8297    -9803 
  -11256   -12484   -13362   -13873   -14048   -13926   -13582   -13057 
  -12352   -11488   -10473    -9279    -7913    -6443    -4985    -3688 
   -2678    -2058    -1926    -2266    -2951    -3877    -4965    -6097 
   -7146    -8016    -8677    -9155    -9491    -9734    -9886    -9865 
   -9572    -8946    -8010    -6855    -5571    -4217    -2814    -1408 
    -105      969     1705     1995     1810     1254      502     -237 
    -818    -1173    -1243    -1078     -901     -924    -1291    -2087 
   -3257    -4634    -6010    -7184    -8079    -8730    -9188    -9499 
   -9722    -9873    -9890    -9680    -9173    -8334    -7202    -5830 
   -4287    -2725    -1335     -280      236       10    -1028    -2820 
   -5240    -8068   -11018   -13819   -16254   -18138   -19325   -19749 
  -19449   -18500   -16953   -14891   -12441    -9711    -6835    -3981 
   -1290     1127     3164     4702     5580     5719     5221     4266 
    3100     2038     1296      899      800      973     1377     1952 
    2614     3238     3720     4006     4047     3829     3395     2783 
    2014     1092       39    -1093    -2253    -3366    -4332    -4997 
   -5213    -4953    -4279    -3321    -2246    -1165     -179      588 
    1066     1225     1044      514     -379    -1606    -3096    -4770 
   -6521    -8275   -10021   -11742   -13428   -15052   -16506   -17649 
  -18382   -18663   -18477   -17810   -16714   -15294   -13612   -11684 
   -9562    -7337    -5121    -3033    -1169      384     1547     2280 
    2538     2269     1529      421     -996    -2633    -4356    -6008 
   -7425    -8530    -9243    -9421    -9012    -8044    -6590    -4823 
   -3015    -1425     -179      693     1183     1306     1104      654 
      48     -645    -1360    -2066    -2751    -3369    -3839    -4031 
   -3863    -3395    -2705    -1899    -1163     -688     -626    -1084 
   -2097    -3666    -5728    -8098   -10569   -12954   -15040   -16590 
  -17402   -17370   -16471   -14748   -12343    -9455    -6292    -3053 
      82     2890     5120     6621     7331     7234     6416     5000 
    3091      835    -1613    -4194    -6791    -9174   -11178   -12658 
  -13474   -13670   -13378   -12667   -11645   -10450    -9121    -7717 
   -6340    -5012    -3743    -2660    -1911    -1575    -1647    -2081 
   -2754    -3466    -4102    -4652    -5136    -5598    -6048    -6461 
   -6851    -7273    -7797    -8425    -9103    -9853   -10747   -11792 
  -12938   -14112   -15237   -16236   -17019   -17493   -17597   -17246 
  -16314   -14755   -12630   -10089    -7345    -4603    -2046      193 
    2031     3392     4190     4342     3797     2579      791    -1393 
   -3815    -6363    -8889   -11227   -13250   -14835   -15927   -16519 
  -16622   -16329   -15726   -14809   -13635   -12291   -10882    -9576 
   -8506    -7753    -7377    -7346    -7582    -8019    -8553    -9093 
   -9551    -9747    -9493    -8731    -7457    -5706    -3634    -1486 
     522     2214     3420     4017     3952     3233     1960      318 
   -1541    -3542    -5601    -7572    -9273   -10579   -11408   -11669 
  -11313   -10377    -8941    -7132    -5111    -3019     -972      951 
    2655     4031     4973     5395     5317     4835     4039     3049 
    2031     1089      279     -364     -876    -1309    -1703    -2115 
   -2542    -2925    -3204    -3325    -3292    -3190    -3106    -3140 
   -3407    -3978    -4850    -5954    -7164    -8318    -9281    -9972 
  -10312   -10269    -9948    -9501    -9061    -8760    -8623    -8577 
   -8581    -8610    -8614    -8561    -8444    -8255    -8008    -7758 
   -7577    -7580    -7842    -8280    -8761    -9113    -9127    -8684 
   -7784    -6477    -4899    -3256    -1804     -754     -202     -178 
    -633    -1379    -2158    -2787    -3171    -3304    -3300    -3260 
   -3231    -3215    -3091    -2756    -2222    -1529     -758        8 
     681     1136     1298     1182      784       76     -915    -2127 
   -3473    -4824    -6060    -7069    -7727    -7958    -7816    -7466 
   -7134    -6995    -7096    -7399    -7785    -8122    -8364    -8550 
   -8746    -8977    -9196    -9359    -9432    -9348    -9074    -8629 
   -8002    -7177    -6196    -5116    -3977    -2856    -1880    -1161 
    -742     -580     -592     -706     -830     -900     -924     -926 
    -935     -977    -1086    -1287    -1537    -1773    -1957    -2064 
   -2103    -2120    -2176    -2324    -2581    -2929    -3349    -3838 
   -4388    -4934    -5389    -5719    -5935    -6092    -6311    -6690 
   -7254    -8014    -8976   -10093   -11284   -12465   -13572   -14559 
  -15373   -15962   -16263   -16198   -15705   -14786   -13486   -11896 
  -10187    -8511    -6921    -5495    -4307    -3337    -2613    -2143 
   -1784    -1399     -896     -233      507     1196     1742     2115 
    2307     2312     2118     1690     1027      206     -684    -1572 
   -2424    -3279    -4195    -5175    -6149    -7033    -7749    -8255 
   -8627    -8939    -9140    -9155    -8966    -8652    -8299    -7956 
   -7653    -7375    -7125    -6966    -6912    -6894    -6804    -6531 
   -6015    -5313    -4558    -3900    -3461    -3307    -3439    -3820 
   -4398    -5113    -5867    -6565    -7156    -7576    -7716    -7485 
   -6820    -5719    -4368    -3028    -1841     -851      -70      490 
     796      838      604       87     -641    -1466    -2346    -3250 
   -4082    -4716    -5066    -5092    -4793    -4221    -3474    -2644 
   -1813    -1096     -612     -445     -679    -1327    -2295    -3476 
   -4768    -6075    -7334    -8507    -9525   -10305   -10827   -11079 
  -11041   -10756   -10304    -9767    -9246    -8820    -8502    -8249 
   -8009    -7746    -7438    -7076    -6689    -6342    -6104    -6053 
   -6266    -6756    -7479    -8336    -9174    -9842   -10199   -10152 
   -9660    -8699    -7327    -5678    -3901    -2191     -734      328 
     924     1044      756      191     -526    -1324    -2201    -3238 
   -4423    -5653    -6837    -7863    -8613    -9042    -9192    -9135 
   -8927    -8641    -8371    -8191    -8168    -8332    -8661    -9116 
   -9647   -10191   -10617   -10790   -10643   -10147    -9306    -8160 
   -6790    -5285    -3759    -2340    -1129     -228      294      465 
     297     -217     -990    -1892    -2813    -3678    -4457    -5154 
   -5751    -6243    -6662    -7042    -7407    -7767    -8104    -8352 
   -8418    -8256    -7924    -7489    -6983    -6480    -6038    -5634 
   -5243    -4857    -4406    -3819    -3110    -2326    -1506     -762 
    -224       56       71     -210     -788    -1625    -2697    -3958 
   -5283    -6534    -7596    -8368    -8802    -8947    -8895    -8683 
   -8289    -7699    -6924    -5984    -4927    -3846    -2857    -2053 
   -1449     -990     -607     -267       33      234      228      -55 
    -623    -1425    -2317    -3171    -3933    -4568    -5051    -5398 
   -5614    -5688    -5598    -5319    -4874    -4332    -3796    -3389 
   -3200    -3252    -3496    -3831    -4168    -4473    -4726    -4914 
   -5084    -5310    -5645    -6069    -6536    -7017    -7464    -7857 
   -8181    -8392    -8483    -8468    -8341    -8102    -7778    -7407 
   -7076    -6880    -6802    -6805    -6928    -7155    -7426    -7743 
   -8093    -8410    -8633    -8731    -8691    -8502    -8174    -7707 
   -7101    -6415    -5710    -5040    -4499    -4166    -4041    -4101 
   -4334    -4745    -5312    -5973    -6687    -7442    -8185    -8795 
   -9169    -9251    -9059    -8668    -8121    -7473    -6770    -5984 
   -5155    -4402    -3788    -3375    -3215    -3314    -3681    -4307 
   -5131    -6087    -7083    -8002    -8775    -9354    -9706    -9860 
   -9829    -9618    -9243    -8689    -7978    -7187    -6388    -5678 
   -5140    -4769    -4509    -4284    -4024    -3726    -3429    -3176 
   -3024    -2990    -3040    -3107    -3102    -2987    -2805    -2616 
   -2496    -2482    -2531    -2609    -2704    -2789    -2879    -3015 
   -3188    -3391    -3647    -3958    -4320    -4739    -5244    -5873 
   -6617    -7433    -8283    -9088    -9760   -10223   -10401   -10265 
   -9802    -9000    -7912    -6677    -5437    -4282    -3262    -2382 
   -1607     -892     -186      537     1267     1964     2571     3060 
    3426     3658     3735     3659     3488     3289     3084     2886 
    2748     2686     2640     2521     2276     1890     1324      549 
    -415    -1578    -2901    -4314    -5796    -7302    -8731   -10021 
  -11129   -11969   -12429   -12495   -12210   -11587   -10651    -9474 
   -8128    -6706    -5325    -4112    -3144    -2428    -1914    -1561 
   -1389    -1425    -1687    -2218    -3044    -4167    -5571    -7173 
   -8888   -10619   -12214   -13495   -14296   -14517   -14134   -13167 
  -11701    -9902    -7963    -6062    -4391    -3090    -2145    -1476 
   -1023     -704     -438     -114      395     1158     2180     3435 
    4833     6165     7256     8067     8584     8780     8675     8274 
    7569     6556     5186     3420     1289    -1152    -3843    -6635 
   -9327   -11743   -13730   -15161   -15915   -15927   -15222   -13888 
  -12108   -10143    -8276    -6741    -5691    -5194    -5255    -5813 
   -6745    -7913    -9194   -10494   -11720   -12748   -13436   -13671 
  -13400   -12654   -11580   -10399    -9356    -8631    -8341    -8567 
   -9331   -10625   -12399   -14457   -16513   -18414   -20121   -21558 
  -22607   -23159   -23164   -22613   -21486   -19795   -17620   -15088 
  -12303    -9346    -6384    -3622    -1221      684     2014     2705 
    2739     2193     1165     -201    -1684    -3086    -4203    -4881 
   -5116    -4968    -4465    -3732    -2959    -2189    -1397     -553 
     399     1485     2682     3927     5113     6141     6947     7511 
    7813     7867     7777     7676     7631     7636     7619     7439 
    6972     6133     4839     3042      735    -2081    -5350    -8949 
  -12696   -16337   -19689   -22685   -25255   -27356   -28992   -30144 
  -30765   -30775   -30082   -28688   -26651   -24012   -20877   -17431 
  -13836   -10272    -6968    -4094    -1787     -213      603      800 
     569      144     -199     -221      108      631     1243     1838 
    2301     2548     2424     1914     1231      465     -290     -897 
   -1377    -1737    -1975    -2147    -2326    -2624    -3161    -3974 
   -5050    -6295    -7535    -8586    -9282    -9516    -9316    -8792 
   -8000    -7001    -5926    -4881    -3915    -3051    -2262    -1499 
    -804     -209      357      866     1177     1255     1154      870 
     367     -317    -1073    -1807    -2450    -2983    -3464    -3924 
   -4325    -4645    -4899    -5081    -5231    -5385    -5474    -5451 
   -5359    -5220    -5047    -4869    -4706    -4560    -4422    -4294 
   -4145    -3910    -3566    -3153    -2717    -2278    -1922    -1725 
   -1682    -1867    -2424    -3403    -4747    -6386    -8253   -10187 
  -11969   -13468   -14571   -15153   -15195   -14756   -13902   -12694 
  -11206    -9483    -7549    -5440    -3248    -1112      855     2578 
    3990     5105     5991     6644     7025     7137     6944     6353 
    5370     4097     2600      946     -805    -2655    -4579    -6509 
   -8375   -10100   -11611   -12831   -13703   -14216   -14354   -14095 
  -13498   -12668   -11661   -10493    -9197    -7823    -6435    -5124 
   -3971    -3053    -2416    -2066    -2011    -2272    -2866    -3786 
   -4973    -6335    -7790    -9227   -10497   -11480   -12073   -12197 
  -11869   -11171   -10146    -8892    -7546    -6211    -5007    -4086 
   -3528    -3296    -3321    -3539    -3843    -4135    -4348    -4410 
   -4280    -3964    -3484    -2887    -2250    -1607     -972     -382 
     125      541      857     1047     1081      908      480     -206 
   -1125    -2250    -3539    -4918    -6289    -7569    -8694    -9645 
  -10480   -11182   -11682   -12015   -12222   -12299   -12286   -12232 
  -12164   -12123   -12108   -12066   -11974   -11831   -11658   -11477 
  -11273   -11037   -10777   -10521   -10357   -10345   -10473   -10687 
  -10899   -11013   -10990   -10847   -10600   -10291    -9979    -9656 
   -9305    -8939    -8559    -8127    -7564    -6835    -5933    -4842 
   -3618    -2353    -1102       59     1021     1709     2150     2393 
    2420     2234     1912     1472      896      264     -268     -596 
    -714     -631     -357       62      585     1212     1977     2857 
    3754     4585     5296     5798     6042     5994     5616     4930 
    4016     2982     1958     1032      216     -515    -1175    -1746 
   -2231    -2675    -3090    -3487    -3942    -4541    -5308    -6241 
   -7325    -8472    -9575   -10571   -11392   -11939   -12160   -12060 
  -11646   -10913    -9917    -8785    -7628    -6536    -5607    -4884 
   -4394    -4170    -4174    -4351    -4696    -5166    -5698    -6241 
   -6750    -7194    -7550    -7807    -7905    -7801    -7487    -6930 
   -6111    -5051    -3786    -2408    -1075       72      963     1559 
    1788     1599     1008       67    -1154    -2583    -4155    -5810 
   -7507    -9205   -10924   -12717   -14571   -16447   -18310   -20081 
  -21656   -22931   -23789   -24125   -23900   -23141   -21892   -20235 
  -18304   -16221   -14079   -11997   -10045    -8155    -6262    -4483 
   -2934    -1552     -342      565     1124     1281      961      202 
    -934    -2316    -3727    -5027    -6102    -6837    -7213    -7223 
   -6849    -6129    -5193    -4214    -3288    -2463    -1796    -1290 
    -954     -820     -858     -976    -1105    -1196    -1213    -1132 
    -884     -398      314     1182     2080     2852     3377     3554 
    3299     2600     1513      110    -1549    -3364    -5206    -6990 
   -8656   -10162   -11431   -12316   -12718   -12610   -11966   -10810 
   -9215    -7275    -5140    -2906     -618     1497     3198     4432 
    5144     5277     4900     4126     3067     1863      654     -442 
   -1359    -2079    -2614    -3007    -3303    -3500    -3569    -3524 
   -3396    -3194    -2955    -2713    -2479    -2311    -2295    -2471 
   -2882    -3619    -4660    -5784    -6794    -7609    -8163    -8391 
   -8289    -7983    -7670    -7456    -7357    -7375    -7499    -7700 
   -7940    -8218    -8503    -8711    -8766    -8644    -8370    -8005 
   -7614    -7237    -6897    -6588    -6313    -6118    -6026    -6079 
   -6349    -6843    -7520    -8322    -9173   -10045   -10890   -11637 
  -12248   -12648   -12843   -12920   -12891   -12806   -12706   -12556 
  -12384   -12240   -12105   -11927   -11682   -11383   -11034   -10642 
  -10211    -9755    -9290    -8807    -8274    -7662    -6956    -6143 
   -5228    -4228    -3142    -1985     -839      193     1034     1578 
    1715     1425      756     -213    -1354    -2542    -3705    -4777 
   -5715    -6538    -7236    -7782    -8182    -8421    -8449    -8275 
   -7959    -7566    -7179    -6860    -6619    -6455    -6386    -6374 
   -6374    -6394    -6426    -6447    -6480    -6520    -6550    -6583 
   -6616    -6596    -6539    -6512    -6513    -6481    -6345    -6057 
   -5625    -5051    -4329    -3497    -2597    -1633     -657      255 
    1063     1744     2301     2779     3203     3589     3947     4236 
    4401     4419     4274     3958     3500     2934     2313     1694 
    1107      534      -51     -652    -1274    -1950    -2690    -3501 
   -4391    -5339    -6326    -7326    -8298    -9207   -10026   -10723 
  -11277   -11669   -11893   -11990   -11981   -11851   -11569   -11102 
  -10450    -9675    -8864    -8098    -7485    -7132    -7086    -7362 
   -7942    -8727    -9591   -10411   -11090   -11568   -11777   -11668 
  -11217   -10435    -9343    -7983    -6457    -4854    -3250    -1763 
    -486      558     1350     1911     2284     2465     2446     2187 
