Origin Time       2025/01/13 21:19:00
Lat.              31.8
Long.             131.6
Depth. (km)       30
Mag.              6.9
Station Code      KMMH09
Station Lat.      32.4901
Station Long.     130.9046
Station Height(m) 520
Record Time       2025/01/13 21:19:49
Sampling Freq(Hz) 100Hz
Duration Time(s)  167
Dir.              5
Scale Factor      7845(gal)/8223790
Max. Acc. (gal)   52.381
Last Correction   2025/01/13 21:19:49
Memo.             
[...]
  -18084   -16980   -15043   -13070   -11778   -11259   -10945   -10342 
   -9560    -9159    -9277    -9144    -7886    -5194    -1202     3469 
    7747    10728    12098    11977    10470     7582     3653     -660 
   -4745    -8132   -10754   -13116   -15890   -19388   -23125   -25967 
  -27228   -27162   -26284   -25122   -24268   -23866   -23527   -22945 
  -21937   -20233   -17687   -14169    -9589    -4550     -109     3383 
    6417     9406    12314    14864    16472    16482    14852    12253 
    9734     8216     7689     7214     5702     2435    -2635    -8941 
  -15545   -21289   -25550   -28678   -31000   -32335   -32742   -32563 
  -31800   -30327   -28255   -25708   -22786   -19703   -16884   -14937 
  -14184   -14195   -13930   -12441    -9675    -6485    -3959    -2693 
   -2191    -1124     1379     4934     8309    10203     9863     7561 
    4345     1274     -854    -1765    -2184    -3107    -4747    -6909 
   -9433   -11843   -13460   -13884   -13045   -11148    -8667    -6174 
   -4229    -3271    -3350    -4027    -4711    -5189    -5790    -7011 
   -9039   -11460   -13502   -14570   -14555   -14011   -13792   -14157 
  -14562   -14283   -13074   -11225    -8862    -5695    -1740     2394 
    6004     8343     8556     6439     2906     -797    -4167    -7364 
  -10508   -13717   -17136   -20258   -21928   -21466   -19134   -15646 
  -12067    -9495    -8257    -7893    -7518    -6173    -3647     -800 
    1374     2520     2648     1883      599     -826    -2278    -3657 
   -4752    -5491    -6080    -7014    -8656   -10597   -11924   -12044 
  -10974    -9405    -8525    -9022   -10539   -12509   -14249   -14852 
  -14149   -12665   -10728    -8676    -7153    -6397    -6115    -5995 
   -5360    -3426     -418     2724     4996     5541     4288     1772 
   -1431    -4617    -7273    -9252   -10516   -11195   -11377   -11105 
  -10698   -10516   -10577   -10376    -9348    -7639    -5846    -4356 
   -3217    -2106     -595     1298     3028     3757     2751      -97 
   -4253    -9107   -14104   -18648   -22126   -24186   -24943   -24318 
  -22515   -20505   -18866   -17745   -16924   -15766   -13996   -11578 
   -8972    -7026    -5890    -5436    -5447    -5308    -4914    -4557 
   -4442    -4762    -5356    -5734    -5405    -4145    -2235     -152 
    1721     3118     3804     3537     2123     -436    -3669    -6467 
   -7820    -7751    -6840    -5729    -5221    -5404    -5791    -6498 
   -7726    -9369   -11331   -13120   -14118   -14440   -14708   -15290 
  -16283   -17606   -18733   -19392   -20106   -21076   -21760   -21513 
  -19662   -15969   -11055    -5927    -1386     2362     5611     8456 
   10455    11265    10889     9383     7076     4446     1640    -1389 
   -4681    -8144   -11372   -14058   -16318   -18384   -20574   -22721 
  -23836   -23125   -20422   -16390   -12461    -9664    -8293    -8143 
   -8417    -8322    -7654    -6508    -4845    -2598       86     2809 
    4907     5865     5898     5495     4815     3996     3001     1281 
   -1331    -4110    -6104    -6816    -6598    -6525    -7510    -9721 
  -12846   -16163   -18740   -20393   -21532   -22222   -22484   -22500 
  -22019   -20838   -19218   -17271   -15053   -12718   -10253    -7932 
   -6542    -6768    -8710   -11574   -14106   -15360   -14827   -12698 
   -9840    -7018    -4542    -2280       -4     2127     3796     4773 
    4986     4660     4274     4298     4779     5393     5819     5686 
    4679     2893      764    -1310    -3294    -5328    -7344    -9066 
  -10345   -11421   -12788   -14638   -16757   -18832   -20441   -21109 
  -20692   -19588   -18466   -17559   -16555   -15334   -14266   -13760 
  -13830   -13968   -13706   -13165   -12545   -11925   -11404   -10442 
   -8186    -4710     -742     3009     5948     7836     8622     8181 
    6562     3951      560    -3184    -6789    -9988   -12648   -14638 
  -15952   -16588   -16470   -15765   -14918   -14189   -13486   -12540 
  -11121    -9308    -7681    -6947    -7307    -8386    -9410    -9495 
   -8253    -5838    -2702      271     2123     2457     1406     -596 
   -2932    -5143    -7260    -9424   -11453   -13000   -13748   -13799 
  -14037   -15367   -17875   -20923   -23549   -24848   -24486   -22941 
  -20947   -18904   -16725   -13902   -10158    -5923    -1869     1383 
    3511     4720     5310     5331     4552     2511     -893    -4972 
   -8743   -11545   -13009   -12862   -11101    -8144    -4584    -1067 
    1690     3010     2516      457    -2485    -5617    -8320   -10303 
  -11715   -12563   -12483   -11271    -9155    -6768    -5063    -4711 
   -5468    -6461    -6998    -7106    -7350    -8109    -9136    -9853 
   -9805    -8892    -7464    -6042    -4864    -3971    -3484    -3315 
   -2980    -2242    -1493     -984     -530     -226     -378     -868 
   -1363    -1841    -2454    -3246    -4417    -6092    -7858    -9431 
  -11072   -12931   -14744   -16109   -16892   -17373   -18040   -19545 
  -22063   -24413   -25000   -23252   -19133   -12565    -4352     3649 
   10033    14409    16538    16299    14185    11106     7862     4826 
    2030     -788    -3843    -6709    -8830   -10265   -11422   -12833 
  -15007   -17766   -20391   -22335   -23202   -22859   -21552   -19492 
  -16831   -13848   -10897    -8467    -7090    -6936    -7636    -8598 
   -9169    -8753    -7312    -5383    -3553    -2169    -1213     -544 
    -271     -553    -1410    -2663    -3792    -4322    -4191    -3501 
   -2620    -2366    -3261    -5144    -7604    -9954   -11379   -11747 
  -11603   -11416   -11526   -12306   -13914   -16148   -18624   -20846 
  -22322   -22758   -22191   -21116   -20133   -19330   -18463   -17412 
  -16117   -14635   -13153   -11539    -9369    -6516    -3321     -268 
    2231     3923     5005     6138     7628     9093     9946     9772 
    8684     7260     5800     4158     1941    -1371    -5768   -10393 
  -14287   -16891   -18094   -18200   -17687   -16972   -16312   -15734 
  -15113   -14388   -13613   -12787   -11734   -10345    -8779    -7137 
   -5285    -3225    -1197      627     2178     3198     3295     2435 
    1124      179      240     1188     2261     2555     1279    -1707 
   -5462    -8779   -11279   -13454   -16044   -19336   -22908   -25996 
  -27780   -27724   -26042   -23496   -20768   -18063   -15229   -12226 
   -9283    -6940    -5794    -5792    -6257    -6632    -6651    -6075 
   -4874    -3508    -2330    -1051      738     3177     6151     9051 
   10894    10955     8945     5143      587    -3538    -6663    -8966 
  -11144   -13856   -17161   -20542   -23410   -25358   -26060   -25489 
  -24109   -22345   -20305   -18161   -16193   -14558   -13373   -12698 
  -12317   -11956   -11354   -10044    -7848    -5103    -2074      954 
    3530     5398     6525     6866     6427     5313     3682     1864 
     275     -895    -1761    -2668    -4006    -5888    -8105   -10146 
  -11415   -11641   -10997    -9890    -8688    -7661    -6933    -6374 
   -5846    -5441    -5435    -6249    -8116   -10725   -13382   -15298 
  -15870   -15113   -13802   -12933   -12919   -13420   -13729   -13027 
  -10902    -7958    -5279    -3543    -2907    -3115    -3680    -4212 
   -4457    -4280    -3789    -3267    -3069    -3654    -5436    -8297 
  -11416   -13929   -15466   -15986   -15634   -14775   -13705   -12433 
  -10863    -8829    -6203    -3356    -1059      195      349     -476 
   -1894    -3207    -3812    -3580    -2829    -2039    -1563    -1509 
   -1767    -2227    -2959    -4009    -5386    -7034    -8642    -9887 
  -10754   -11499   -12652   -14700   -17390   -19710   -20692   -19985 
  -17740   -14395   -10588    -6955    -3985    -1999    -1162    -1509 
   -2764    -4279    -5340    -5576    -5138    -4426    -3732    -3146 
   -2732    -2783    -3754    -5894    -9069   -12688   -15876   -17825 
  -18004   -16398   -13743   -11109    -9234    -8428    -8737    -9958 
  -11677   -13517   -15273   -16665   -17163   -16295   -13956   -10467 
   -6532    -2952     -160     1899     3458     4584     5154     5146 
    4853     4612     4482     4236     3458     1644    -1327    -4881 
   -8117   -10300   -11178   -11005   -10179    -9059    -8009    -7271 
   -6987    -7275    -8014    -8959    -9990   -10991   -11804   -12235 
  -11870   -10388    -7981    -5042    -1919      865     2770     3631 
    3574     2713     1182     -739    -2797    -4999    -7591   -10847 
  -14667   -18274   -20587   -20943   -19500   -16961   -14143   -11851 
  -10677   -10756   -11944   -14073   -16753   -19214   -20649   -20475 
  -18511   -15228   -11514    -8127    -5520    -3750    -2558    -1830 
   -1756    -2486    -3928    -5841    -7915    -9795   -11142   -11750 
  -11529   -10471    -8691    -6419    -3985    -1732       94     1337 
    1941     1865      973     -735    -2955    -5362    -7676    -9485 
  -10504   -10777   -10515   -10061    -9764    -9717    -9740    -9478 
   -8607    -7200    -5692    -4680    -4693    -5682    -7052    -8189 
   -8613    -8148    -6974    -5304    -3480    -2014    -1163     -815 
    -768     -882    -1205    -2033    -3744    -6458    -9798   -13051 
  -15535   -16911   -17269   -17062   -16843   -16799   -16694   -16303 
  -15593   -14593   -13404   -12224   -11284   -10652   -10044    -9101 
   -7680    -5791    -3666    -1636      102     1289     1659     1300 
     476     -623    -1753    -2596    -2920    -2710    -2334    -2424 
   -3373    -5135    -7368    -9474   -10841   -11383   -11646   -12218 
  -13184   -14277   -15105   -15214   -14404   -12897   -11036    -9067 
   -7233    -5695    -4490    -3663    -3334    -3700    -4912    -6925 
   -9613   -12833   -16321   -19674   -22333   -23715   -23458   -21431 
  -17894   -13568    -9258    -5541    -2720     -724      750     1908 
    2670     2886     2516     1572      311     -712    -1169    -1196 
   -1193    -1578    -2589    -4283    -6631    -9379   -11966   -13836 
  -14831   -15190   -15321   -15566   -15907   -15996   -15516   -14308 
  -12366    -9999    -7816    -6324    -5499    -4899    -4180    -3221 
   -2003     -692      450     1200     1309      584     -945    -2961 
   -5067    -7094    -8973   -10547   -11804   -12830   -13552   -13806 
  -13589   -13167   -12964   -13254   -13967   -14746   -15114   -14547 
  -12658    -9506    -5657    -1921      922     2278     1890      -62 
   -2949    -5913    -8324   -10042   -11198   -11959   -12560   -13078 
  -13159   -12359   -10737    -8830    -7101    -5745    -4893    -4536 
   -4340    -3974    -3379    -2635    -1864    -1255    -1089    -1660 
   -3018    -4907    -6921    -8719   -10125   -11210   -12352   -13842 
  -15394   -16384   -16444   -15538   -13894   -12090   -10777   -10095 
   -9767    -9543    -9263    -9012    -9126    -9666   -10291   -10719 
  -10881   -10773   -10382    -9672    -8498    -6729    -4599    -2674 
   -1394     -693     -140      619     1795     3437     5123     6223 
    6579     6517     6397     6324     6062     5179     3370      661 
   -2712    -6484   -10346   -13946   -16985   -19287   -20823   -21744 
  -22341   -22929   -23788   -25008   -26352   -27382   -27703   -27094 
  -25483   -22958   -19888   -16626   -12982    -8661    -3956      504 
    4060     6131     6670     6246     5617     5398     5771     6265 
    6212     5552     4733     4124     3917     4099     4413     4507 
    4106     3225     2027      456    -1674    -4500    -8079   -12225 
  -16545   -20484   -23404   -25077   -25613   -24938   -23021   -20254 
  -17205   -14332   -11988   -10388    -9428    -8745    -7935    -6708 
   -5055    -3285    -1740     -596      179      778     1237     1325 
     820     -432    -2536    -5350    -8509   -11578   -14121   -15916 
  -17081   -17774   -18106   -18306   -18554   -18731   -18530   -17721 
  -16310   -14561   -12897   -11680   -11056   -10991   -11360   -11792 
  -11626   -10316    -7800    -4367     -542     3011     5759     7443 
    8087     7786     6431     3792     -221    -5313   -10578   -14886 
  -17668   -19138   -19992   -20858   -21826   -22572   -22738   -22042 
  -20443   -18192   -15696   -13363   -11350    -9684    -8536    -7812 
   -7156    -6430    -5364    -3616    -1409     1019     3743     6520 
    9182    11897    14418    16254    17248    17444    16958    15962 
   14493    12424     9725     6669     3466       -2    -3781    -7661 
  -11557   -15338   -18702   -21668   -24606   -27819   -31433   -35251 
  -38635   -40848   -41446   -40335   -37633   -33561   -28463   -22879 
  -17352   -12155    -7265    -2452     2519     7592    12474    16895 
   20596    23391    25428    26960    28031    28510    27959    25758 
   21635    15757     8730     1458    -5359   -11357   -16513   -21186 
  -25597   -29513   -32694   -35075   -36595   -37268   -37228   -36629 
  -35627   -34242   -32387   -30202   -27903   -25448   -22635   -19314 
  -15357   -10640    -5151     1034     7510    13414    18152    21589 
   23616    24200    23661    22743    21992    21394    21016    21014 
   21270    21431    20949    19325    16220    11425     5120    -2180 
  -10021   -17932   -25277   -31658   -37123   -41769   -45596   -48583 
  -50716   -52153   -53121   -53642   -53553   -52679   -50855   -47930 
  -44103   -40080   -36410   -32863   -28917   -24248   -18532   -11643 
   -3996     3723    11080    17994    24317    29974    35193    39920 
   43715    46246    47235    46464    44134    40682    36355    31135 
   24768    17038     8108    -1528   -11230   -20367   -28556   -35676 
  -41694   -46716   -50762   -53380   -54112   -53146   -51042   -48203 
  -44860   -41175   -37076   -32397   -27288   -22179   -17269   -12371 
   -7339    -2165     3260     8984    14760    20079    24398    27260 
   28136    26586    22693    16961    10004     2691    -3896    -9072 
  -12675   -14696   -15291   -14914   -14160   -13628   -13776   -14737 
  -16411   -18551   -20672   -22168   -22508   -21362   -18720   -14804 
  -10010    -4785      492     5389     9572    12938    15337    16594 
   16548    15152    12741     9892     7195     5096     3596     2367 
    1147     -288    -2043    -3958    -5865    -7628    -9216   -10912 
  -12953   -15402   -18485   -22306   -26620   -31207   -35648   -39102 
  -41052   -41478   -40136   -36693   -31480   -25231   -18353   -11159 
   -4371     1179     5104     7388     8087     7511     6318     4928 
    3488     2168      857     -788    -2783    -4892    -6978    -8757 
   -9857   -10174    -9817    -9130    -8486    -7906    -7407    -6991 
   -6309    -5209    -3990    -2916    -2173    -1964    -2303    -2955 
   -3607    -4028    -4089    -3781    -3262    -2637    -1783     -765 
     198     1158     2015     2324     1745      -91    -3478    -8086 
  -13159   -17967   -21867   -24567   -26161   -26819   -26844   -26758 
  -26950   -27544   -28593   -29971   -31178   -31565   -30582   -27801 
  -23167   -17093   -10146    -2878     4082    10199    15141    18511 
   19954    19530    17529    14308    10559     7052     4118     1900 
     510     -229     -564     -702    -1003    -1721    -2886    -4648 
   -7285   -10762   -14624   -18419   -21878   -24710   -26665   -27787 
  -28198   -27803   -26516   -24264   -21033   -17275   -13695   -10748 
   -8586    -6957    -5433    -3836    -2112     -194     1860     4024 
    6327     8583    10459    11682    12024    11443    10122     8259 
    6122     3989     1842     -533    -3196    -6084    -9007   -11538 
  -13458   -15017   -16429   -17830   -19546   -21681   -23819   -25348 
  -25787   -24889   -22694   -19585   -16038   -12368    -8900    -5761 
   -2744       -4     2079     3554     4407     4599     4573     4573 
    4522     4534     4536     4149     3113     1237    -1568    -5135 
   -9094   -12958   -16173   -18261   -19133   -19194   -18937   -18823 
  -19318   -20413   -21558   -22229   -21980   -20314   -17221   -13243 
   -8834    -4430     -606     2339     4314     5196     5204     4811 
    4321     4004     3956     3951     3774     3215     2054      268 
   -2268    -5753   -10133   -15236   -20590   -25262   -28544   -30311 
  -30640   -29716   -27938   -25691   -23149   -20524   -18085   -15939 
  -14126   -12695   -11534   -10284    -8550    -6212    -3345      -71 
    3307     6496     9418    11989    14030    15399    15916    15402 
   13782    11075     7464     3353     -847    -4787    -8004   -10127 
  -11118   -11057   -10169    -8957    -7919    -7488    -8009    -9487 
  -11708   -14378   -17095   -19472   -21274   -22320   -22330   -21031 
  -18405   -14679   -10450    -6751    -4563    -4287    -5759    -8444 
  -11512   -14071   -15627   -16198   -16090   -15653   -15020   -14103 
  -12816   -11213    -9405    -7472    -5475    -3480    -1536      275 
    1763     2682     2917     2485     1466       22    -1794    -4108 
   -6941   -10044   -12906   -14974   -15919   -15757   -14796   -13431 
  -12069   -11041   -10444   -10274   -10488   -10897   -11360   -11807 
  -12083   -12009   -11460   -10284    -8364    -5792    -2840      147 
    2729     4502     5354     5537     5391     5105     4723     4224 
    3622     3002     2370     1617      670     -522    -2050    -3893 
   -5973    -8267   -10652   -12980   -15178   -17069   -18442   -19207 
  -19332   -18877   -18036   -17016   -16015   -15152   -14400   -13618 
  -12652   -11371    -9794    -8217    -6951    -6076    -5586    -5508 
   -5832    -6486    -7384    -8395    -9356   -10110   -10451   -10237 
   -9381    -7800    -5617    -3194     -832     1248     2822     3723 
    3739     2623      363    -2737    -6158    -9162   -11037   -11506 
  -10709    -9045    -7065    -5259    -3990    -3585    -4279    -6210 
   -9282   -13024   -16884   -20433   -23183   -24683   -24715   -23274 
  -20522   -16748   -12340    -7781    -3514      180     3150     5278 
    6494     6804     6276     5026     3177      870    -1688    -4224 
   -6400    -7884    -8534    -8460    -7800    -6686    -5470    -4688 
   -4727    -5671    -7338    -9358   -11480   -13603   -15562   -17203 
  -18358   -18828   -18536   -17482   -15757   -13556   -11029    -8395 
   -6011    -4234    -3325    -3294    -3854    -4622    -5344    -5988 
   -6767    -7923    -9347   -10612   -11364   -11395   -10625    -9211 
   -7510    -5956    -4881    -4426    -4587    -5152    -5757    -6147 
   -6301    -6299    -6214    -6124    -6054    -5908    -5621    -5265 
   -4965    -4876    -5179    -5961    -7172    -8689   -10253   -11589 
  -12660   -13548   -14258   -14779   -15102   -15110   -14634   -13683 
  -12445   -11021    -9339    -7379    -5258    -3181    -1509     -580 
    -448     -947    -1887    -3145    -4654    -6300    -7885    -9175 
   -9937   -10019    -9571    -8959    -8424    -7985    -7588    -7149 
   -6720    -6625    -7248    -8704   -10786   -13136   -15427   -17443 
  -18995   -19907   -20066   -19452   -18135   -16332   -14319   -12322 
  -10461    -8777    -7318    -6112    -5061    -3978    -2775    -1456 
    -101     1162     2282     3262     4035     4460     4347     3550 
    2120      294    -1552    -3041    -4075    -4828    -5468    -6106 
   -6843    -7705    -8698    -9864   -11182   -12452   -13313   -13459 
