Origin Time       2025/01/13 21:19:00
Lat.              31.8
Long.             131.6
Depth. (km)       30
Mag.              6.9
Station Code      KMMH07
Station Lat.      32.6234
Station Long.     130.5584
Station Height(m) -278
Record Time       2025/01/13 21:19:54
Sampling Freq(Hz) 100Hz
Duration Time(s)  181
Dir.              2
Scale Factor      2942(gal)/8224139
Max. Acc. (gal)   4.111
Last Correction   2025/01/13 21:19:54
Memo.             
[...]
  191716   191670   191565   191521   191592   191798   192113   192422 
  192651   192894   193247   193631   193962   194296   194665   194931 
  194977   194890   194782   194609   194339   194078   193868   193556 
  193018   192375   191763   191130   190406   189711   189228   189018 
  189008   189074   189125   189135   189132   189175   189275   189355 
  189387   189465   189646   189885   190152   190493   190921   191392 
  191848   192240   192514   192653   192738   192854   192962   193006 
  193044   193159   193305   193410   193527   193731   193936   194005 
  193961   193915   193893   193819   193607   193222   192690   192106 
  191577   191142   190822   190680   190699   190710   190601   190445 
  190327   190220   190093   189938   189710   189386   189098   189008 
  189085   189214   189436   189822   190281   190691   191095   191543 
  191909   192079   192152   192260   192408   192618   192991   193503 
  193951   194235   194428   194540   194501   194341   194171   194040 
  193941   193865   193812   193734   193571   193320   193025   192743 
  192493   192308   192210   192191   192230   192308   192369   192375 
  192383   192454   192534   192535   192496   192530   192661   192816 
  192939   192991   192951   192873   192856   192925   193002   193039 
  193072   193149   193293   193530   193838   194111   194296   194475 
  194726   195004   195216   195336   195396   195393   195322   195226 
  195147   195095   195085   195156   195259   195280   195226   195222 
  195231   195126   194977   194938   194967   194890   194630   194263 
  193930   193742   193757   193955   194240   194532   194822   195079 
  195224   195249   195257   195361   195554   195720   195754   195636 
  195419   195219   195141   195183   195266   195308   195261   195127 
  194922   194641   194352   194175   194105   194039   193972   193988 
  194120   194282   194378   194432   194528   194657   194715   194616 
  194386   194140   193911   193630   193303   193051   192946   192955 
  193031   193132   193207   193234   193213   193124   192958   192762 
  192569   192334   192032   191708   191388   191041   190684   190355 
  190015   189603   189180   188874   188707   188603   188520   188497 
  188584   188801   189149   189576   189999   190409   190856   191328 
  191717   191943   192080   192257   192505   192762   193009   193333 
  193739   194059   194134   193974   193710   193442   193229   193085 
  192975   192882   192827   192809   192765   192628   192439   192323 
  192321   192362   192419   192515   192655   192819   192959   193033 
  193077   193141   193201   193189   193129   193094   193068   193008 
  192933   192816   192564   192217   191951   191856   191845   191802 
  191698   191544   191351   191157   190993   190795   190470   190088 
  189823   189730   189733   189742   189707   189631   189561   189576 
  189734   190028   190447   190981   191608   192279   192923   193469 
  193912   194263   194501   194613   194645   194703   194838   195034 
  195272   195558   195893   196269   196634   196916   197067   197046 
  196800   196364   195887   195482   195119   194729   194328   193976 
  193649   193299   192966   192674   192358   191944   191461   191015 
  190629   190236   189838   189530   189373   189333   189341   189367 
  189400   189434   189472   189545   189653   189785   190003   190354 
  190760   191095   191322   191484   191608   191700   191795   191938 
  192105   192241   192345   192437   192516   192554   192541   192505 
  192493   192526   192572   192561   192478   192412   192451   192599 
  192750   192827   192866   192978   193234   193598   193982   194351 
  194664   194830   194826   194732   194595   194414   194215   194034 
  193868   193712   193581   193502   193495   193558   193668   193803 
  193959   194150   194378   194610   194800   194922   194991   195050 
  195135   195232   195286   195257   195133   194900   194568   194200 
  193845   193500   193171   192892   192673   192489   192307   192078 
  191795   191517   191299   191138   190981   190784   190574   190397 
  190271   190243   190363   190556   190688   190773   190945   191241 
  191587   191916   192173   192304   192291   192159   191955   191722 
  191497   191307   191181   191130   191155   191272   191463   191678 
  191864   191986   192044   192076   192150   192306   192503   192667 
  192807   192964   193090   193067   192861   192557   192271   192060 
  191951   191974   192134   192399   192746   193143   193514   193847 
  194225   194713   195273   195833   196387   196939   197429   197822 
  198143   198378   198441   198315   198092   197849   197580   197251 
  196865   196495   196211   196029   195910   195793   195623   195409 
  195211   195050   194911   194790   194686   194603   194529   194441 
  194371   194386   194543   194883   195393   195974   196497   196898 
  197189   197411   197604   197756   197850   197947   198096   198227 
  198270   198261   198261   198263   198209   198030   197673   197156 
  196554   195914   195214   194448   193703   193081   192613   192283 
  192079   191986   191948   191890   191781   191627   191455   191284 
  191119   190953   190764   190520   190197   189808   189411   189086 
  188882   188808   188855   189008   189224   189452   189656   189828 
  189961   190031   190053   190034   189943   189747   189445   189063 
  188653   188260   187952   187817   187843   187947   188099   188316 
  188581   188839   189067   189274   189502   189807   190185   190575 
  190926   191215   191473   191733   191952   192076   192122   192115 
  192061   192011   192064   192298   192701   193152   193515   193720 
  193768   193689   193529   193337   193153   192982   192804   192636 
  192522   192451   192389   192322   192237   192087   191824   191417 
  190891   190331   189868   189561   189392   189394   189630   190058 
  190543   191031   191548   192096   192640   193153   193614   193976 
  194209   194348   194443   194476   194420   194316   194243   194197 
  194100   193900   193637   193392   193191   192983   192742   192505 
  192323   192171   191983   191768   191612   191552   191544   191531 
  191498   191450   191401   191413   191529   191713   191893   192042 
  192157   192235   192289   192318   192281   192194   192159   192249 
  192443   192693   192983   193293   193583   193816   193986   194124 
  194270   194433   194605   194769   194900   194967   194937   194829 
  194729   194676   194601   194441   194235   194030   193810   193538 
  193221   192912   192673   192568   192626   192821   193099   193401 
  193657   193801   193803   193684   193499   193295   193066   192782 
  192466   192204   192056   192006   192019   192072   192107   192063 
  191932   191771   191663   191648   191708   191826   191983   192127 
  192225   192258   192194   192024   191820   191683   191643   191644 
  191633   191621   191629   191656   191678   191673   191679   191770 
  191967   192230   192519   192825   193152   193463   193711   193870 
  193945   193957   193935   193926   193942   193947   193919   193884 
  193843   193780   193679   193550   193423   193325   193253   193199 
  193133   192996   192769   192496   192233   192010   191872   191860 
  191964   192142   192366   192632   192919   193199   193491   193822 
  194170   194489   194755   194967   195100   195104   194992   194833 
  194691   194590   194489   194314   194065   193807   193571   193320 
  193024   192689   192339   191998   191683   191427   191231   191066 
  190931   190880   190923   190989   191026   191039   191038   191034 
  191069   191172   191317   191459   191551   191558   191477   191367 
  191300   191316   191421   191604   191812   191947   191982   191983 
  191978   191957   191957   192041   192191   192315   192350   192298 
  192171   191976   191740   191484   191219   190956   190723   190582 
  190553   190595   190680   190852   191161   191586   192038   192469 
  192892   193274   193569   193819   194074   194305   194459   194516 
  194499   194448   194401   194371   194324   194239   194143   194105 
  194192   194391   194637   194880   195122   195385   195693   196047 
  196420   196789   197132   197422   197653   197814   197892   197910 
  197866   197758   197623   197490   197322   197082   196777   196435 
  196080   195720   195365   195021   194674   194336   194051   193857 
  193757   193725   193725   193702   193587   193371   193151   193013 
  192935   192881   192877   192942   193017   193035   193029   193090 
  193220   193341   193423   193519   193669   193838   193946   193946 
  193866   193754   193608   193398   193148   192905   192658   192404 
  192196   192073   192011   191965   191924   191894   191859   191810 
  191741   191600   191317   190896   190421   189982   189643   189433 
  189318   189232   189166   189170   189270   189449   189687   189978 
  190305   190630   190917   191147   191342   191520   191658   191698 
  191651   191579   191500   191357   191142   190939   190823   190810 
  190891   191030   191153   191230   191303   191394   191470   191497 
  191473   191377   191204   191014   190852   190713   190603   190560 
  190590   190671   190786   190956   191176   191393   191604   191844 
  192115   192387   192627   192835   193024   193202   193372   193548 
  193742   193945   194089   194124   194078   194022   193969   193888 
  193795   193766   193799   193812   193779   193757   193791   193862 
  193924   193938   193911   193893   193932   194009   194065   194081 
  194082   194050   193935   193762   193585   193413   193193   192920 
  192672   192492   192361   192281   192262   192279   192299   192331 
  192415   192591   192886   193278   193696   194061   194331   194509 
  194625   194711   194784   194852   194933   195037   195126   195164 
  195160   195131   195048   194888   194667   194422   194196   193985 
  193773   193576   193438   193365   193336   193338   193382   193456 
  193552   193673   193799   193888   193941   193997   194062   194073 
  194004   193909   193824   193723   193595   193483   193402   193297 
  193151   193054   193068   193167   193299   193434   193536   193572 
  193565   193568   193594   193596   193542   193436   193271   193029 
  192755   192539   192410   192316   192215   192113   192029   191952 
  191856   191732   191587   191436   191317   191276   191292   191295 
  191259   191224   191211   191205   191219   191277   191351   191407 
  191450   191493   191527   191519   191450   191347   191255   191205 
  191205   191241   191274   191292   191315   191392   191539   191729 
  191918   192068   192177   192276   192388   192504   192608   192697 
  192786   192867   192928   192925   192809   192596   192350   192129 
  191990   191975   192072   192234   192406   192577   192800   193108 
  193469   193834   194179   194508   194800   195042   195284   195570 
  195879   196183   196466   196707   196893   197052   197190   197278 
  197309   197348   197459   197606   197707   197750   197785   197814 
  197776   197642   197440   197190   196884   196528   196167   195808 
  195427   195031   194638   194255   193923   193695   193588   193598 
  193695   193841   194009   194163   194255   194298   194377   194540 
  194746   194927   195069   195184   195273   195354   195463   195610 
  195775   195917   196009   196032   195951   195764   195539   195324 
  195127   194946   194778   194586   194321   193949   193479   192958 
  192458   192030   191656   191293   190958   190683   190445   190212 
  189982   189774   189576   189349   189074   188765   188446   188157 
  187944   187844   187861   187961   188104   188279   188474   188667 
  188829   188963   189089   189217   189342   189456   189553   189634 
  189703   189764   189831   189915   190020   190167   190360   190560 
  190702   190769   190761   190660   190502   190378   190313   190273 
  190250   190271   190350   190460   190606   190794   190968   191039 
  190992   190853   190655   190452   190317   190240   190178   190147 
  190181   190246   190298   190363   190458   190506   190448   190336 
  190242   190119   189893   189585   189257   188954   188689   188476 
  188327   188218   188068   187826   187498   187142   186838   186653 
  186624   186775   187105   187529   187972   188487   189087   189700 
  190298   190904   191539   192218   192946   193714   194498   195276 
  196044   196782   197467   198126   198794   199449   200059   200632 
  201163   201617   201984   202269   202456   202539   202541   202501 
  202427   202275   202036   201748   201428   201074   200724   200422 
  200172   199968   199843   199824   199898   200022   200163   200327 
  200530   200754   200974   201174   201334   201459   201571   201671 
  201758   201861   201972   202041   202063   202059   202028   201960 
  201829   201615   201309   200897   200404   199899   199403   198875 
  198278   197613   196854   195948   194869   193644   192323   190991 
  189731   188601   187645   186885   186340   186039   186001   186187 
  186518   186965   187537   188219   188974   189737   190421   190973 
  191390   191677   191828   191845   191743   191559   191336   191088 
  190822   190586   190458   190478   190628   190861   191103   191265 
  191274   191085   190713   190185   189488   188600   187558   186430 
  185283   184195   183240   182451   181857   181510   181422   181572 
  181912   182378   182893   183408   183895   184347   184808   185342 
  185969   186696   187564   188572   189679   190867   192107   193321 
  194401   195296   196034   196638   197083   197361   197500   197515 
  197395   197186   196989   196861   196786   196773   196839   196959 
  197066   197137   197187   197194   197117   196971   196788   196561 
  196306   196061   195848   195652   195442   195215   195014   194856 
  194694   194508   194314   194098   193828   193517   193156   192690 
  192082   191376   190647   189915   189176   188480   187899   187454 
  187119   186894   186810   186860   186968   187074   187209   187405 
  187668   187998   188389   188815   189232   189625   190000   190370 
  190737   191091   191407   191682   191934   192186   192423   192634 
  192819   192990   193155   193317   193475   193648   193873   194170 
  194478   194688   194767   194751   194680   194590   194498   194439 
  194440   194483   194524   194522   194479   194421   194373   194351 
  194352   194316   194198   194007   193777   193568   193417   193342 
  193356   193442   193564   193699   193855   194054   194300   194576 
  194844   195050   195161   195178   195130   195048   194960   194890 
  194848   194826   194817   194815   194827   194860   194913   194985 
  195077   195124   195057   194865   194610   194362   194148   193973 
  193841   193758   193716   193703   193723   193791   193899   194031 
  194178   194341   194514   194668   194767   194791   194733   194606 
  194447   194282   194127   193992   193853   193658   193390   193075 
  192736   192370   191992   191633   191336   191134   191011   190935 
  190903   190881   190844   190830   190891   191014   191141   191235 
  191296   191336   191381   191447   191502   191496   191435   191390 
  191377   191353   191313   191292   191288   191274   191259   191292 
  191390   191513   191631   191760   191905   192029   192132   192240 
  192373   192534   192705   192890   193102   193338   193587   193815 
  193961   194024   194055   194054   193978   193806   193541   193187 
  192761   192291   191798   191324   190908   190564   190297   190115 
  190026   190027   190102   190244   190460   190750   191069   191353 
  191563   191679   191704   191668   191606   191529   191465   191439 
  191459   191528   191643   191790   191980   192223   192500   192770 
  193005   193203   193391   193594   193807   193982   194097   194166 
  194182   194127   193997   193804   193579   193341   193081   192790 
  192478   192173   191914   191689   191466   191258   191107   191041 
  191037   191072   191164   191312   191494   191675   191839   192011 
  192208   192397   192574   192789   193045   193297   193523   193733 
  193930   194094   194196   194239   194240   194208   194148   194054 
  193918   193747   193540   193307   193070   192824   192585   192387 
  192250   192188   192199   192273   192403   192573   192748   192916 
  193093   193313   193600   193980   194441   194944   195432   195866 
  196236   196542   196761   196863   196852   196785   196722   196677 
  196658   196686   196770   196879   196981   197043   197047   196969 
  196804   196592   196353   196078   195763   195400   194973   194508 
  194044   193608   193221   192910   192697   192569   192485   192419 
  192379   192373   192372   192360   192375   192433   192491   192510 
  192516   192528   192524   192505   192508   192543   192622   192754 
  192923   193105   193305   193522   193741   193915   194026   194115 
  194204   194289   194398   194560   194751   194935   195116   195307 
  195469   195546   195521   195413   195210   194894   194491   194051 
  193612   193195   192838   192576   192400   192292   192254   192277 
  192325   192366   192419   192497   192600   192736   192893   193056 
  193217   193353   193452   193517   193568   193660   193828   194043 
  194244   194402   194509   194553   194549   194543   194570   194610 
  194621   194578   194476   194317   194111   193864   193565   193214 
  192832   192451   192079   191710   191357   191045   190761   190490 
  190252   190089   189999   189940   189873   189788   189703   189614 
  189479   189282   189070   188870   188635   188329   187986   187645 
  187305   186972   186652   186333   186008   185699   185445   185272 
  185210   185261   185409   185652   185985   186390   186833   187284 
  187745   188234   188716   189129   189444   189672   189855   190040 
  190250   190494   190764   191016   191234   191455   191702   191957 
  192240   192561   192859   193090   193272   193438   193611   193799 
  194016   194277   194547   194780   194968   195096   195153   195146 
  195108   195077   195043   194983   194917   194860   194795   194721 
  194649   194605   194601   194645   194721   194768   194741   194657 
  194562   194478   194410   194382   194404   194458   194545   194670 
  194814   194972   195141   195332   195571   195833   196080   196304 
  196492   196628   196739   196843   196902   196892   196824   196712 
  196539   196299   196026   195766   195534   195361   195274   195250 
  195232   195183   195092   194972   194846   194748   194679   194616 
  194544   194468   194368   194209   193984   193710   193403   193094 
  192811   192574   192400   192260   192109   191947   191779   191608 
  191417   191170   190865   190544   190208   189859   189575   189409 
  189355   189409   189584   189861   190175   190479   190759   190991 
  191146   191242   191319   191373   191373   191312   191200   191031 
  190814   190594   190422   190323   190278   190269   190278   190310 
  190379   190502   190682   190880   191054   191226   191434   191705 
  192042   192441   192901   193391   193862   194301   194715   195106 
