Origin Time       2025/01/13 21:19:00
Lat.              31.8
Long.             131.6
Depth. (km)       30
Mag.              6.9
Station Code      KMMH14
Station Lat.      32.6345
Station Long.     130.7521
Station Height(m) 70
Record Time       2025/01/13 21:19:52
Sampling Freq(Hz) 100Hz
Duration Time(s)  197
Dir.              4
Scale Factor      7845(gal)/8223790
Max. Acc. (gal)   34.465
Last Correction   2025/01/13 21:19:52
Memo.             
[...]
  -15072   -14357   -13716   -13454   -13680   -14334   -15265   -16218 
  -16869   -16958   -16335   -14991   -13085   -10789    -8249    -5746 
   -3657    -2288    -1792    -2228    -3645    -5884    -8419   -10604 
  -12009   -12486   -12155   -11342   -10430    -9695    -9281    -9297 
   -9737   -10277   -10489   -10249    -9674    -8857    -7936    -7142 
   -6504    -5853    -5119    -4371    -3723    -3268    -3092    -3219 
   -3538    -3927    -4318    -4633    -4930    -5414    -6120    -6840 
   -7474    -8129    -8777    -9217    -9391    -9369    -9147    -8753 
   -8237    -7539    -6571    -5324    -3929    -2677    -1804    -1409 
   -1533    -2068    -2752    -3404    -3865    -3960    -3796    -3684 
   -3750    -3970    -4332    -4758    -5165    -5514    -5780    -6016 
   -6345    -6885    -7773    -9151   -11132   -13618   -16252   -18736 
  -20962   -22781   -24021   -24672   -24844   -24636   -24135   -23434 
  -22634   -21871   -21223   -20642   -20159   -20015   -20420   -21286 
  -22318   -23261   -24009   -24537   -24772   -24632   -24174   -23476 
  -22435   -20912   -18924   -16567   -13950   -11222    -8559    -6180 
   -4332    -3159    -2697    -2976    -3954    -5471    -7337    -9366 
  -11356   -13134   -14631   -15842   -16744   -17309   -17512   -17346 
  -16900   -16339   -15828   -15489   -15307   -15152   -14847   -14162 
  -12895   -10960    -8338    -5065    -1329     2540     6251     9632 
   12669    15425    17860    19911    21544    22628    23021    22751 
   21871    20375    18362    16035    13578    11155     8912     6878 
    4920     2863      540    -2209    -5506    -9302   -13356   -17365 
  -20985   -23973   -26265   -27858   -28911   -29651   -30175   -30570 
  -30866   -30964   -30750   -30115   -28980   -27206   -24695   -21620 
  -18320   -15094   -12174    -9801    -8182    -7365    -7249    -7669 
   -8460    -9470   -10600   -11794   -12911   -13717   -14072   -13906 
  -13221   -12251   -11298   -10519   -10095   -10249   -11005   -12232 
  -13832   -15695   -17587   -19271   -20572   -21308   -21366   -20857 
  -20023   -19010   -17833   -16564   -15249   -13736   -11858    -9594 
   -7005    -4249    -1579      723     2448     3564     4121     4191 
    3906     3368     2668     1966     1366      815      210     -507 
   -1405    -2628    -4220    -6052    -8023   -10003   -11734   -13038 
  -13940   -14559   -15052   -15504   -15975   -16505   -16945   -17088 
  -16887   -16367   -15627   -14854   -14179   -13691   -13421   -13259 
  -13085   -12800   -12347   -11740   -10998   -10110    -9182    -8456 
   -8071    -7960    -7979    -8024    -8044    -8028    -7974    -7950 
   -8128    -8623    -9328    -9976   -10255    -9909    -8878    -7326 
   -5564    -3996    -2952    -2598    -2902    -3608    -4401    -5071 
   -5497    -5613    -5490    -5327    -5283    -5436    -5891    -6700 
   -7740    -8873   -10027   -11130   -12051   -12668   -12966   -13069 
  -13186   -13486   -14069   -14949   -16055   -17284   -18457   -19349 
  -19869   -19927   -19273   -17795   -15715   -13392   -11121    -9139 
   -7653    -6706    -6111    -5628    -5162    -4797    -4793    -5435 
   -6785    -8723   -11041   -13455   -15728   -17755   -19492   -20946 
  -22198   -23288   -24124   -24567   -24448   -23577   -21964   -19884 
  -17670   -15664   -14296   -13906   -14422   -15485   -16779   -18054 
  -19002   -19313   -18850   -17647   -15797   -13473   -10936    -8472 
   -6350    -4749    -3707    -3195    -3161    -3497    -4068    -4774 
   -5540    -6204    -6566    -6625    -6589    -6617    -6791    -7230 
   -7974    -8827    -9513    -9825    -9612    -8847    -7650    -6150 
   -4459    -2745    -1232      -63      765     1385     1977     2620 
    3271     3905     4457     4747     4661     4232     3537     2639 
    1680      842      243     -132     -426     -832    -1533    -2636 
   -4091    -5767    -7580    -9516   -11522   -13516   -15435   -17173 
  -18501   -19197   -19170   -18481   -17282   -15797   -14258   -12775 
  -11311    -9857    -8444    -7076    -5772    -4626    -3711    -2970 
   -2308    -1682    -1094     -618     -388     -561    -1260    -2509 
   -4232    -6305    -8614   -11025   -13373   -15546   -17536   -19396 
  -21165   -22836   -24430   -26007   -27521   -28841   -29862   -30460 
  -30518   -30026   -29089   -27878   -26553   -25223   -23982   -22896 
  -21945   -21047   -20113   -19032   -17760   -16393   -15045   -13801 
  -12719   -11774   -10851    -9872    -8850    -7851    -6984    -6382 
   -6153    -6349    -6905    -7638    -8372    -8989    -9406    -9607 
   -9629    -9543    -9414    -9247    -9019    -8727    -8372    -7928 
   -7381    -6724    -5952    -5175    -4622    -4455    -4707    -5319 
   -6183    -7129    -7939    -8468    -8708    -8703    -8514    -8284 
   -8101    -7862    -7420    -6671    -5544    -4079    -2374     -513 
    1340     2922     4044     4666     4824     4600     4186     3824 
    3688     3812     4041     4056     3527     2301      419    -1923 
   -4398    -6652    -8456    -9790   -10814   -11739   -12798   -14164 
  -15850   -17737   -19622   -21168   -22011   -22026   -21344   -20101 
  -18428   -16546   -14700   -13089   -11799   -10793   -10056    -9563 
   -9227    -9013    -8947    -9051    -9362    -9900   -10617   -11399 
  -12129   -12781   -13392   -13973   -14476   -14802   -14879   -14661 
  -14152   -13498   -12906   -12530   -12484   -12825   -13545   -14581 
  -15808   -17130   -18472   -19665   -20509   -20900   -20814   -20302 
  -19542   -18755   -18096   -17617   -17227   -16721   -15911   -14755 
  -13329   -11777   -10334    -9238    -8583    -8318    -8290    -8305 
   -8216    -7951    -7496    -6867    -6118    -5354    -4650    -4014 
   -3453    -2995    -2679    -2536    -2593    -2884    -3383    -4010 
   -4718    -5481    -6332    -7376    -8652   -10102   -11681   -13311 
  -14818   -16033   -16915   -17523   -17838   -17853   -17679   -17362 
  -16856   -16185   -15322   -14161   -12695   -10968    -9023    -6934 
   -4774    -2620     -585     1171     2516     3368     3680     3466 
    2855     1983      922     -232    -1391    -2574    -3843    -5238 
   -6737    -8306    -9965   -11688   -13300   -14625   -15593   -16160 
  -16294   -16031   -15480   -14716   -13783   -12788   -11836   -10982 
  -10243    -9572    -8889    -8143    -7302    -6427    -5690    -5229 
   -5084    -5263    -5732    -6335    -6916    -7395    -7743    -7986 
   -8162    -8274    -8361    -8498    -8685    -8891    -9115    -9369 
   -9672   -10114   -10762   -11593   -12577   -13637   -14612   -15410 
  -16015   -16364   -16413   -16202   -15770   -15188   -14600   -14041 
  -13441   -12808   -12253   -11898   -11834   -12091   -12685   -13617 
  -14785   -15963   -16892   -17389   -17385   -16919   -16170   -15367 
  -14628   -14018   -13621   -13429   -13370   -13381   -13344   -13116 
  -12622   -11870   -10903    -9850    -8946    -8429    -8434    -8958 
   -9822   -10766   -11562   -12083   -12305   -12285   -12112   -11881 
  -11619   -11264   -10794   -10330   -10004    -9855    -9837    -9872 
   -9855    -9698    -9366    -8878    -8290    -7622    -6845    -5989 
   -5161    -4428    -3859    -3541    -3493    -3676    -4005    -4351 
   -4583    -4666    -4621    -4383    -3866    -3071    -2029     -819 
     345     1248     1756     1815     1497      972      415      -64 
    -494    -1035    -1852    -3015    -4519    -6293    -8221   -10173 
  -12060   -13828   -15431   -16862   -18138   -19298   -20413   -21535 
  -22647   -23691   -24584   -25227   -25508   -25315   -24594   -23426 
  -21948   -20263   -18515   -16891   -15508   -14412   -13622   -13092 
  -12718   -12411   -12123   -11816   -11499   -11219   -11016   -10922 
  -10952   -11076   -11264   -11523   -11873   -12306   -12808   -13348 
  -13869   -14347   -14775   -15107   -15321   -15453   -15498   -15421 
  -15228   -14906   -14362   -13547   -12523   -11385   -10177    -8962 
   -7851    -6885    -6008    -5175    -4298    -3226    -1890     -334 
    1310     2868     4122     4880     5061     4726     3994     3002 
    1956     1078      487      159      -25     -230     -567    -1080 
   -1806    -2797    -4075    -5616    -7352    -9181   -11003   -12723 
  -14224   -15373   -16065   -16259   -16036   -15530   -14864   -14157 
  -13441   -12664   -11785   -10767    -9598    -8341    -7088    -5958 
   -5098    -4648    -4711    -5320    -6397    -7817    -9456   -11172 
  -12877   -14555   -16140   -17520   -18652   -19534   -20146   -20490 
  -20679   -20919   -21313   -21805   -22310   -22729   -22875   -22567 
  -21780   -20552   -18927   -17020   -15047   -13254   -11816   -10810 
  -10282   -10212   -10493   -11016   -11720   -12550   -13417   -14231 
  -14928   -15437   -15741   -15935   -16143   -16406   -16707   -16989 
  -17181   -17205   -16946   -16367   -15596   -14812   -14089   -13412 
  -12715   -11911   -10887    -9572    -8010    -6323    -4679    -3264 
   -2145    -1235     -398      557     1844     3518     5456     7415 
    9084    10183    10574    10291     9464     8279     6939     5628 
    4460     3456     2542     1605      546     -653    -1908    -3080 
   -4058    -4801    -5340    -5763    -6199    -6724    -7342    -8000 
   -8568    -8939    -9143    -9278    -9428    -9675   -10042   -10462 
  -10856   -11191   -11469   -11723   -11997   -12326   -12758   -13327 
  -14006   -14735   -15473   -16204   -16897   -17498   -17987   -18405 
  -18781   -19063   -19175   -19084   -18796   -18247   -17379   -16262 
  -15002   -13684   -12449   -11385   -10457    -9576    -8611    -7442 
   -6092    -4685    -3356    -2254    -1539    -1277    -1387    -1749 
   -2297    -3010    -3929    -5171    -6813    -8845   -11211   -13809 
  -16418   -18790   -20807   -22422   -23560   -24183   -24294   -23901 
  -23062   -21829   -20231   -18312   -16162   -13868   -11531    -9279 
   -7269    -5652    -4509    -3858    -3696    -3928    -4392    -4980 
   -5676    -6544    -7705    -9285   -11349   -13864   -16719   -19751 
  -22754   -25505   -27800   -29482   -30480   -30817   -30597   -29902 
  -28787   -27372   -25783   -24048   -22158   -20121   -17918   -15525 
  -12999   -10444    -7931    -5520    -3287    -1279      459     1872 
    2921     3545     3661     3238     2319     1024     -488    -2068 
   -3500    -4526    -5000    -4961    -4496    -3678    -2658    -1626 
    -722        8      527      730      531       -2     -797    -1814 
   -2922    -3943    -4787    -5482    -6103    -6720    -7380    -8105 
   -8888    -9687   -10397   -10891   -11084   -10906   -10303    -9320 
   -8139    -6983    -6021    -5422    -5344    -5844    -6912    -8448 
  -10253   -12168   -14137   -16039   -17728   -19167   -20316   -21046 
  -21301   -21120   -20590   -19861   -19094   -18338   -17508   -16552 
  -15476   -14245   -12838   -11323    -9834    -8465    -7233    -6103 
   -4968    -3639    -2026     -157     1869     3886     5648     6912 
    7483     7234     6154     4333     1871    -1102    -4361    -7686 
  -10964   -14104   -16980   -19512   -21713   -23589   -25078   -26069 
  -26522   -26482   -25998   -25154   -24128   -23072   -22007   -20856 
  -19541   -18006   -16191   -14096   -11836    -9605    -7631    -6119 
   -5165    -4719    -4644    -4800    -5078    -5402    -5761    -6241 
   -6997    -8166    -9815   -11911   -14291   -16730   -18968   -20785 
  -22107   -22944   -23299   -23215   -22773   -22026   -20979   -19614 
  -17949   -15993   -13691   -11005    -8013    -4873    -1736     1259 
    3985     6338     8255     9687    10551    10705    10052     8602 
    6467     3851     1081    -1412    -3269    -4352    -4703    -4433 
   -3674    -2623    -1471     -272     1036     2462     3925     5310 
    6482     7303     7639     7348     6377     4762     2536     -268 
   -3581    -7242   -11025   -14752   -18300   -21509   -24179   -26208 
  -27646   -28533   -28823   -28540   -27859   -27049   -26352   -25897 
  -25654   -25537   -25515   -25490   -25304   -24983   -24736   -24764 
  -25166   -25897   -26798   -27688   -28343   -28563   -28301   -27629 
  -26658   -25470   -24090   -22539   -20804   -18835   -16629   -14256 
  -11881    -9734    -8024    -6898    -6417    -6543    -7156    -8025 
   -8860    -9474    -9780    -9671    -9140    -8320    -7315    -6164 
   -4919    -3626    -2282     -885      561     2076     3620     5089 
    6423     7596     8591     9424    10120    10735    11338    11979 
   12711    13587    14584    15597    16517    17242    17633    17560 
   16978    15923    14476    12756    10852     8795     6631     4429 
    2192      -79    -2322    -4479    -6538    -8433   -10072   -11438 
  -12549   -13421   -14143   -14823   -15491   -16189   -17039   -18149 
  -19465   -20923   -22585   -24457   -26400   -28329   -30307   -32335 
  -34310   -36161   -37825   -39239   -40389   -41270   -41886   -42253 
  -42349   -42136   -41559   -40524   -39039   -37216   -35116   -32857 
  -30724   -28945   -27594   -26696   -26246   -26131   -26203   -26337 
  -26395   -26264   -25872   -25208   -24321   -23255   -22061   -20792 
  -19434   -17968   -16394   -14682   -12739   -10524    -8159    -5756 
   -3294     -765     1784     4360     6951     9501    12021    14494 
   16784    18785    20518    22037    23314    24305    25039    25575 
   25928    26077    26023    25832    25529    25034    24295    23318 
   21987    20124    17683    14754    11481     8074     4769     1764 
    -810    -2968    -4865    -6600    -8187    -9710   -11245   -12688 
  -13913   -14881   -15541   -15971   -16337   -16646   -16942   -17408 
  -18191   -19325   -20764   -22476   -24410   -26399   -28231   -29775 
  -30921   -31544   -31598   -31079   -30080   -28837   -27507   -26191 
  -24966   -23791   -22663   -21660   -20792   -20074   -19554   -19246 
  -19156   -19260   -19457   -19657   -19850   -20031   -20160   -20221 
  -20204   -20073   -19789   -19322   -18665   -17818   -16772   -15522 
  -14084   -12503   -10854    -9211    -7650    -6272    -5166    -4321 
   -3690    -3253    -2949    -2727    -2629    -2728    -3033    -3569 
   -4391    -5449    -6527    -7396    -7981    -8264    -8221    -7905 
   -7488    -7136    -6924    -6876    -6990    -7184    -7387    -7585 
   -7751    -7866    -7975    -8093    -8172    -8183    -8087    -7785 
   -7163    -6216    -5063    -3786    -2447    -1194     -189      526 
     973     1194     1244     1124      750       14    -1173    -2802 
   -4773    -6966    -9269   -11549   -13670   -15522   -17050   -18245 
  -19113   -19651   -19909   -19980   -19916   -19754   -19534   -19229 
  -18802   -18296   -17752   -17128   -16401   -15634   -14897   -14195 
  -13529   -12887   -12194   -11419   -10616    -9832    -9063    -8337 
   -7719    -7280    -7053    -6955    -6860    -6710    -6412    -5810 
   -4806    -3430    -1822     -172     1318     2473     3199     3519 
    3474     3098     2462     1611      527     -818    -2416    -4237 
   -6215    -8249   -10214   -12009   -13581   -14862   -15812   -16452 
  -16852   -17070   -17150   -17123   -16991   -16742   -16416   -16114 
  -15931   -15923   -16144   -16617   -17262   -17950   -18608   -19219 
  -19774   -20277   -20779   -21354   -22023   -22779   -23581   -24321 
  -24911   -25296   -25365   -25018   -24202   -22837   -20884   -18431 
  -15645   -12727    -9937    -7473    -5428    -3870    -2801    -2066 
   -1499    -1009     -503       60      615     1055     1306     1314 
    1085      685      187     -334     -816    -1216    -1539    -1830 
   -2124    -2447    -2851    -3403    -4051    -4635    -5078    -5378 
   -5532    -5567    -5584    -5736    -6118    -6750    -7616    -8646 
   -9693   -10585   -11198   -11497   -11531   -11376   -11101   -10744 
  -10349    -9968    -9636    -9382    -9254    -9294    -9518    -9965 
  -10652   -11543   -12564   -13576   -14451   -15107   -15450   -15434 
  -15144   -14694   -14191   -13728   -13417   -13359   -13521   -13760 
  -14023   -14332   -14669   -15013   -15373   -15687   -15850   -15826 
  -15637   -15276   -14723   -14023   -13250   -12425   -11581   -10741 
   -9909    -9143    -8476    -7854    -7287    -6867    -6646    -6625 
   -6772    -6970    -7049    -6863    -6328    -5454    -4334    -3088 
   -1815     -612      434     1329     2155     2956     3732     4518 
    5317     6031     6555     6833     6786     6318     5412     4095 
    2411      432    -1748    -4025    -6269    -8325   -10104   -11673 
  -13178   -14729   -16429   -18369   -20549   -22850   -25107   -27186 
  -28952   -30295   -31218   -31818   -32174   -32341   -32324   -32082 
  -31572   -30747   -29593   -28142   -26476   -24748   -23085   -21487 
  -19900   -18350   -16949   -15772   -14789   -13973   -13367   -12992 
  -12779   -12637   -12528   -12397   -12182   -11901   -11600   -11242 
  -10787   -10237    -9508    -8467    -7111    -5549    -3901    -2307 
    -897      240     1109     1763     2259     2670     3038     3353 
    3608     3788     3851     3808     3742     3705     3716     3807 
    3991     4240     4461     4522     4325     3855     3136     2216 
    1201      224     -642    -1389    -2026    -2601    -3184    -3820 
   -4541    -5381    -6320    -7291    -8218    -9027    -9655   -10080 
  -10334   -10471   -10523   -10509   -10494   -10581   -10886   -11537 
  -12668   -14381   -16640   -19283   -22119   -24908   -27406   -29430 
  -30873   -31706   -31966   -31738   -31126   -30267   -29297   -28333 
  -27450   -26709   -26119   -25616   -25092   -24451   -23625   -22605 
  -21451   -20201   -18844   -17409   -15988   -14609   -13228   -11858 
  -10558    -9352    -8245    -7265    -6444    -5776    -5231    -4779 
   -4379    -3994    -3623    -3295    -3051    -2899    -2833    -2837 
   -2824    -2716    -2485    -2080    -1505     -880     -336       45 
     166      -41     -530    -1205    -2035    -2965    -3881    -4729 
   -5509    -6193    -6758    -7234    -7653    -8027    -8359    -8618 
   -8772    -8806    -8658    -8282    -7730    -7076    -6351    -5622 
   -4981    -4479    -4148    -4048    -4202    -4573    -5132    -5860 
   -6702    -7593    -8502    -9410   -10323   -11254   -12193   -13128 
  -14077   -15012   -15908   -16811   -17763   -18767   -19826   -20898 
  -21888   -22669   -23109   -23114   -22635   -21672   -20283   -18567 
  -16611   -14501   -12330   -10180    -8135    -6301    -4757    -3523 
   -2587    -1918    -1487    -1221    -1009     -792     -579     -421 
    -396     -591    -1063    -1821    -2813    -3987    -5328    -6828 
   -8480   -10289   -12251   -14314   -16379   -18330   -20039   -21373 
  -22243   -22640   -22585   -22107   -21286   -20202   -18887   -17402 
  -15828   -14193   -12557   -11003    -9517    -8089    -6778    -5614 
   -4583    -3711    -3033    -2565    -2300    -2226    -2332    -2601 
   -3002    -3457    -3862    -4136    -4228    -4133    -3910    -3650 
   -3453    -3443    -3748    -4411    -5374    -6535    -7773    -8959 
  -10003   -10820   -11361   -11631   -11682   -11595   -11442   -11233 
  -10975   -10733   -10562   -10469   -10473   -10597   -10844   -11195 
