Origin Time       2025/01/13 21:19:00
Lat.              31.8
Long.             131.6
Depth. (km)       30
Mag.              6.9
Station Code      KMMH14
Station Lat.      32.6345
Station Long.     130.7521
Station Height(m) 70
Record Time       2025/01/13 21:19:52
Sampling Freq(Hz) 100Hz
Duration Time(s)  197
Dir.              6
Scale Factor      7845(gal)/8223790
Max. Acc. (gal)   18.039
Last Correction   2025/01/13 21:19:52
Memo.             
[...]
    2790     2791     2793     2791     2787     2785     2787     2787 
    2783     2783     2787     2789     2790     2791     2791     2794 
    2790     2785     2785     2786     2789     2791     2790     2789 
    2790     2789     2787     2789     2789     2789     2789     2790 
    2791     2789     2789     2789     2786     2786     2790     2791 
    2790     2789     2789     2789     2790     2789     2789     2791 
    2790     2786     2786     2789     2787     2786     2787     2791 
    2793     2791     2790     2791     2789     2785     2783     2785 
    2785     2785     2786     2790     2795     2795     2790     2786 
    2786     2786     2787     2791     2793     2787     2783     2785 
    2789     2791     2790     2789     2789     2789     2786     2785 
    2790     2794     2791     2790     2791     2787     2785     2785 
    2782     2781     2787     2793     2795     2795     2795     2793 
    2790     2787     2786     2787     2787     2786     2786     2786 
    2786     2790     2794     2794     2793     2791     2787     2785 
    2783     2787     2786     2782     2786     2790     2790     2789 
    2786     2785     2786     2785     2782     2781     2781     2781 
    2781     2779     2779     2778     2774     2770     2763     2759 
    2758     2755     2759     2774     2794     2817     2844     2871 
    2895     2911     2911     2893     2856     2810     2756     2697 
    2637     2583     2540     2517     2525     2571     2651     2756 
    2875     2991     3088     3156     3188     3179     3121     3028 
    2911     2782     2659     2560     2492     2458     2463     2497 
    2543     2597     2664     2751     2860     2984     3091     3153 
    3159     3099     2991     2860     2728     2600     2486     2392 
    2323     2292     2311     2384     2504     2650     2787     2887 
    2944     2959     2948     2930     2903     2868     2836     2808 
    2787     2763     2725     2670     2605     2546     2517     2542 
    2617     2729     2848     2944     3003     3009     2944     2814 
    2651     2497     2384     2304     2227     2147     2076     2029 
    2033     2104     2234     2413     2628     2863     3113     3369 
    3595     3723     3701     3527     3237     2899     2589     2358 
    2239     2257     2400     2629     2894     3145     3342     3465 
    3510     3503     3481     3447     3357     3140     2764     2261 
    1705     1202      861      749      884     1243     1786     2488 
    3333     4270     5177     5890     6246     6162     5664     4861 
    3916     2988     2184     1541     1044      680      487      538 
     862     1399     2047     2721     3356     3916     4384     4723 
    4864     4715     4199     3341     2328     1432      831      546 
     483      527      668      994     1599     2473     3496     4480 
    5205     5548     5541     5300     4927     4469     3923     3296 
    2674     2161     1780     1472     1200     1031     1090     1443 
    2052     2821     3600     4225     4596     4666     4402     3813 
    2995     2069     1185      533      303      583     1298     2232 
    3117     3734     3962     3831     3531     3288     3218     3294 
    3415     3520     3646     3848     4090     4189     3892     3078 
    1935      918      459      699     1421     2208     2655     2531 
    1930     1224      827      962     1556     2312     2943     3311 
    3431     3430     3450     3495     3403     3002     2288     1494 
     977      967     1410     1989     2358     2378     2242     2301 
    2785     3628     4517     5093     5201     4942     4573     4329 
    4264     4218     3925     3233     2251     1252      464      -10 
    -155       29      564     1497     2789     4244     5621     6696 
    7191     6867     5728     4020     2110      380     -870    -1441 
   -1233     -328     1019     2512     3902     4982     5580     5630 
    5239     4644     4097     3773     3715     3858     4029     4013 
    3674     3024     2200     1455     1098     1336     2128     3227 
    4311     5123     5448     5119     4156     2825     1493      492 
      59      251      901     1694     2296     2448     2066     1362 
     745      589     1057     2064     3368     4666     5722     6427 
    6732     6593     6016     5066     3894     2725     1725      999 
     679      827     1308     1836     2095     1948     1532     1111 
     932     1161     1806     2710     3604     4190     4290     3920 
    3235     2434     1684     1128      901     1063     1549     2195 
    2747     2928     2587     1826     1051      832     1544     3127 
    5138     6920     7870     7661     6373     4491     2627     1173 
     210     -344     -507     -108     1034     2803     4750     6309 
    7103     7109     6566     5741     4780     3719     2523     1171 
    -220    -1435    -2258    -2542    -2239    -1362      109     2145 
    4456     6453     7587     7757     7199     6127     4679     3017 
    1389      118     -467     -156     1026     2803     4716     6265 
    7075     7009     6124     4571     2633      760     -625    -1343 
   -1464    -1097     -186     1372     3400     5262     6173     5760 
    4382     2887     1953     1738     2000     2308     2253     1713 
     949      360      170      297      421      313      170      498 
    1669     3600     5755     7362     7848     7231     6011     4834 
    4230     4367     4897     5170     4723     3569     2042      438 
   -1059    -2157    -2500    -1991     -839      661     2312     3912 
    5121     5491     4691     2847      677     -830     -877      788 
    3716     6941     9436    10534    10103     8428     5971     3169 
     284    -2485    -4742    -5962    -5788    -4228    -1668     1260 
    3927     5977     7371     8236     8885     9609    10304    10412 
    9217     6362     2216    -2262    -6007    -8263    -8797    -7754 
   -5412    -2083     1923     6230    10235    13209    14526    13861 
   11415     7924     4267     1050    -1428    -3021    -3635    -3288 
   -2185     -648     1020     2571     3807     4592     4966     5098 
    5107     4907     4299     3227     1875      571     -290     -394 
     319     1651     3300     4954     6304     7118     7253     6647 
    5281     3233      803    -1455    -2860    -2984    -1942     -194 
    1787     3662     5273     6617     7681     8228     7839     6299 
    3912     1426     -319     -846     -276      819     1849     2482 
    2686     2646     2646     2868     3303     3831     4276     4538 
    4703     4826     4691     4020     2825     1452      352      -86 
     373     1671     3376     4945     6048     6561     6355     5304 
    3491     1318     -660    -1917    -2157    -1590     -738       40 
     731     1489     2432     3511     4525     5298     5759     5917 
    5894     5903     6095     6297     6057     5070     3464     1679 
     252     -438     -413      -72      116       35       31      603 
    1952     3777     5425     6357     6523     6285     6043     5942 
    5776     5131     3744     1768     -345    -2174    -3466    -4081 
   -3960    -3157    -1771      153     2582     5260     7682     9381 
   10169    10080     9175     7528     5290     2621     -236    -2835 
   -4665    -5470    -5368    -4676    -3554    -1856      714     4156 
    7935    11213    13271    13783    12796    10697     8059     5242 
    2268     -820    -3694    -5848    -6876    -6660    -5387    -3469 
   -1291      972     3271     5576     7807     9715    10976    11302 
   10463     8473     5753     2882      240    -1989    -3659    -4503 
   -4222    -2760     -340     2650     5595     7754     8756     8845 
    8406     7553     6309     4869     3539     2593     2215     2405 
    2853     3024     2508     1378      153     -515     -172     1186 
    3160     5202     6768     7488     7339     6535     5325     3927 
    2466     1062     -130     -940    -1227     -947     -228      653 
    1418     1925     2114     2058     2110     2698     3852     5136 
    5907     5697     4633     3311     2208     1478     1102      958 
     943     1167     1807     2806     3763     4155     3739     2663 
    1246     -109     -945     -976     -210     1132     2718     4259 
    5567     6478     6783     6280     4920     2922      716    -1156 
   -2222    -2309    -1629     -552      645     1885     3277     4903 
    6666     8344     9698    10535    10690    10021     8418     5887 
    2636     -845    -3878    -5869    -6547    -5903    -4075    -1324 
    2060     5833     9567    12541    14056    13632    11134     7125 
    2737     -997    -3554    -4939    -5597    -5890    -5752    -4926 
   -3187     -591     2309     4745     6291     6956     6940     6629 
    6458     6420     6012     4777     2779      637     -827    -1065 
     -81     1549     3052     3948     4236     4253     4394     4789 
    5275     5541     5310     4577     3647     2810     2007      965 
    -437    -2080    -3685    -4738    -4584    -2907       49     3688 
    7207     9803    11010    10779     9312     7056     4563     2201 
     190    -1201    -1740    -1344      -45     1937     4132     5981 
    6983     6905     6057     5080     4438     4291     4484     4526 
    3881     2374      301    -1721    -2992    -3059    -1935      -82 
    1869     3406     4306     4648     4590     4090     3048     1664 
     434     -155      120     1156     2574     3813     4383     4139 
    3437     2891     2911     3489     4298     4919     5050     4623 
    3771     2714     1652      703      -12     -317      -40      961 
    2655     4677     6442     7434     7407     6434     4808     2934 
    1286      268       43      475     1302     2355     3489     4426 
    4927     4966     4652     4203     3906     3854     3966     4158 
    4230     3858     2867     1413     -152    -1514    -2602    -3600 
   -4557    -5132    -4828    -3376     -884     2255     5490     8190 
    9925    10741    11010    11025    10758     9958     8484     6447 
    4151     2088      724      264      641     1584     2751     3946 
    5116     6089     6453     5800     4135     1911     -278    -1948 
   -2829    -2887    -2286    -1366     -360      803     2155     3451 
    4371     4680     4282     3292     2034     1042      842     1580 
    2980     4671     6332     7707     8673     9132     8824     7426 
    4816     1294    -2544    -6026    -8498    -9553    -9229    -7866 
   -5822    -3337     -545     2489     5629     8469    10450    11238 
   10847     9499     7496     5131     2674      465    -1116    -1779 
   -1279      496     3265     6305     8777    10122    10284     9504 
    8067     6358     4730     3202     1568     -237    -1960    -3133 
   -3420    -2786    -1501      -56     1151     2097     2978     3936 
    4942     5717     5876     5266     4093     2779     1800     1487 
    1846     2597     3410     4104     4560     4635     4301     3667 
    2871     2135     1707     1655     1956     2569     3283     3750 
    3659     2876     1564      216     -549     -309      903     2597 
    4221     5579     6728     7558     7726     7036     5701     4257 
    3184     2571     2223     1975     1695     1296      869      591 
     594     1007     1958     3458     5254     6754     7219     6239 
    4039     1285    -1372    -3449    -4549    -4369    -2883     -479 
    2147     4272     5405     5510     4973     4309     3871     3751 
    3832     3933     3921     3673     3129     2442     1819     1345 
    1066     1035     1389     2435     4305     6529     8230     8671 
    7609     5524     3385     1966     1490     1687     1971     1883 
    1452      972      594      190     -540    -1726    -3011    -3723 
   -3285    -1444     1576     5112     8363    10660    11649    11365 
   10104     8208     5985     3720     1691      260     -211      384 
    1810     3580     5069     5742     5533     4783     3789     2651 
    1309     -364    -2297    -4113    -5339    -5570    -4617    -2616 
     114     3233     6345     8964    10605    11038    10327     8627 
    6091     2941     -446    -3462    -5259    -5213    -3380     -371 
    3060     6276     8797    10189    10162     8851     6681     4101 
    1625     -290    -1455    -1807    -1308     -172     1089     1957 
    2041     1269       70     -811     -773      274     1925     3684 
    5258     6498     7335     7790     7901     7587     6727     5400 
    3939     2712     1977     1867     2303     2933     3269     3029 
    2390     1811     1694     2189     3102     3974     4344     4002 
    3129     2119     1279      699      260     -210     -726    -1183 
   -1460    -1351     -626      733     2469     4272     5971     7496 
    8745     9487     9435     8434     6496     3774      765    -1761 
   -3307    -3915    -3929    -3676    -3258    -2486    -1127      770 
    3010     5443     7916    10292    12403    13883    14200    13007 
   10419     6944     3183     -429    -3640    -6193    -7798    -8249 
   -7357    -4978    -1306     3045     7252    10628    12839    13687 
   12930    10512     6721     2060    -2866    -7375   -10763   -12499 
  -12294   -10014    -5833     -297     5857    11838    16912    20406 
   21698    20487    16966    11735     5632     -410    -5479    -8858 
  -10341   -10251    -9005    -6866    -4050     -661     3219     7136 
   10342    12268    12667    11680     9722     7248     4861     3106 
    1931      897     -241    -1377    -2145    -2212    -1539     -414 
     627     1242     1580     2074     3157     4958     6998     8382 
    8314     6454     3213     -261    -2821    -3982    -3901    -3042 
   -1761     -182     1671     3850     6293     8476     9703     9787 
    9023     7817     6525     5314     4117     2604      473    -1953 
   -3840    -4429    -3245     -251     3827     7735    10528    12054 
   12641    12478    11391     9250     6326     3075     -126    -2879 
   -4860    -6111    -6901    -7335    -7268    -6469    -4761    -2074 
    1436     5320     8949    11773    13389    13439    11682     8255 
    3820     -696    -4645    -7692    -9379    -9293    -7474    -4268 
    -203     4078     8086    11168    12561    12270    10852     8654 
    6016     3466     1385     -172    -1362    -2235    -2628    -2336 
   -1244      527     2628     4718     6517     7889     8981     9819 
   10134     9659     8167     5665     2604     -579    -3699    -6496 
   -8519    -9460    -9312    -8225    -6355    -3682     -163     3877 
    7749    10713    12297    12417    11342     9404     6910     4326 
    2057      193    -1281    -2432    -3426    -4278    -4590    -3731 
   -1370     2157     5998     9306    11657    12976    13316    12829 
   11615     9420     5919     1510    -2691    -5607    -6561    -5386 
   -2590      892     4149     6517     7861     8638     9238     9433 
    8748     6970     4402     1884      261     -275     -156      -59 
    -708    -2417    -4631    -6237    -6336    -4827    -2455     -270 
    1073     1545     1520     1548     2018     2764     3314     3443 
    3321     3354     3898     4783     5228     4437     2191    -1019 
   -4166    -6091    -6143    -4461    -1755      928     2735     3654 
    4338     5424     7041     8675     9560     9275     7904     5903 
    3931     2400     1221      110    -1094    -2205    -2578    -1553 
    1005     4703     8833    12459    14600    14752    13170    10496 
    7315     4101     1177    -1223    -2764    -3180    -2605    -1439 
      -4     1548     3127     4598     5854     6963     7962     8684 
    8928     8642     7888     6700     5200     3854     3153     3137 
    3581     4239     4720     4702     4121     3025     1648      444 
    -117      176      958     1502     1404      776       64     -106 
     523     1467     2026     1879     1101       27     -996    -1811 
   -2415    -2837    -3181    -3578    -4010    -4311    -4375    -4294 
   -4259    -4352    -4595    -4990    -5292    -4988    -3646    -1215 
    1854     4827     7099     8409     8808     8457     7420     5694 
    3364      769    -1567    -3055    -3084    -1536      834     2956 
    4122     4261     4023     4334     5682     7839    10025    11354 
   11375    10208     8317     6095     3682     1248     -912    -2513 
   -3268    -2998    -1792      120     2424     4644     6382     7587 
    8429     9146     9950    10916    11940    12802    13181    12761 
   11435     9418     7140     5028     3338     2097     1221      612 
     270      429     1459     3524     6276     8884    10624    11353 
   11331    10917    10331     9423     7846     5374     2064    -1630 
   -4996    -7307    -7994    -6841    -4064     -166     4255     8590 
   12175    14303    14488    12706     9363     5167      908    -2864 
   -5899    -8039    -9185    -9370    -8692    -7277    -5466    -3724 
   -2173     -633      999     2656     4106     5055     5452     5433 
    4990     4058     2857     1796     1190     1201     1775     2655 
    3719     5007     6378     7477     8033     8001     7511     6885 
    6538     6646     7029     7273     6895     5710     3924     1782 
    -518    -2652    -4224    -4834    -4147    -2241      291     2775 
    4677     5505     5074     3720     1919       -5    -1721    -2762 
   -2701    -1379      994     3943     6835     9026    10058     9871 
    8780     7277     5825     4704     3886     3059     1857      245 
   -1318    -2205    -2097    -1107      552     2779     5406     8009 
   10118    11388    11508    10264     7695     4185      469    -2648 
   -4634    -5313    -4797    -3391    -1472      589     2488     4113 
    5649     7240     8711     9660     9699     8675     6820     4590 
    2312       27    -2365    -4733    -6651    -7693    -7558    -6068 
   -3361       79     3684     6909     9313    10698    11028    10247 
    8340     5421     1777    -2003    -5192    -7350    -8345    -8201 
   -7109    -5279    -2793      251     3565     6701     9225    10855 
   11489    11207    10130     8376     6118     3561      958    -1286 
   -2762    -3314    -3073    -2254    -1000      629     2531     4530 
    6504     8290     9522     9888     9373     8097     6137     3661 
    1020    -1358    -3109    -3981    -3821    -2741    -1208      175 
    1030     1300     1167     1035     1282     1871     2450     2666 
    2192      922     -741    -2231    -3352    -4094    -4288    -3707 
   -2269     -114     2377     4683     6428     7379     7307     6365 
    5123     3920     2744     1556      346     -706    -1175     -874 
     -66      970     2056     2948     3493     3755     3932     4266 
    4818     5333     5458     5050     4257     3356     2587     2115 
    2000     2199     2571     2951     3342     3943     4768     5636 
    6405     6968     7267     7425     7693     8166     8607     8734 
    8545     8168     7587     6670     5348     3771     2362     1572 
    1653     2658     4384     6340     8001     9081     9510     9258 
