Origin Time       2025/01/13 21:19:00
Lat.              31.8
Long.             131.6
Depth. (km)       30
Mag.              6.9
Station Code      KMMH09
Station Lat.      32.4901
Station Long.     130.9046
Station Height(m) 420
Record Time       2025/01/13 21:19:49
Sampling Freq(Hz) 100Hz
Duration Time(s)  167
Dir.              2
Scale Factor      3923(gal)/8224838
Max. Acc. (gal)   9.547
Last Correction   2025/01/13 21:19:49
Memo.             
[...]
   72000    72582    72870    73005    73033    72978    72976    73118 
   73325    73525    73711    73788    73576    73147    72867    72886 
   72917    72752    72532    72331    71983    71486    71146    71200 
   71568    72048    72555    72987    73151    73037    72906    72994 
   73280    73561    73758    74015    74397    74753    75014    75251 
   75459    75512    75392    75201    74866    74142    73067    72049 
   71328    70698    69946    69130    68293    67425    66726    66437 
   66457    66394    66069    65709    65558    65682    66101    66765 
   67560    68484    69570    70592    71163    71263    71313    71655 
   72184    72588    72747    72831    73013    73257    73479    73738 
   74139    74634    75043    75127    74723    73874    72769    71606 
   70502    69499    68617    67841    67115    66429    65869    65468 
   65148    64870    64654    64470    64346    64305    64237    64083 
   63964    64034    64347    64787    65211    65597    65843    65727 
   65296    64902    64827    65083    65524    66008    66490    66973 
   67493    68216    69314    70761    72360    73853    75087    76069 
   76771    77099    77156    77124    76917    76334    75481    74727 
   74223    73765    73299    73137    73425    73926    74439    74938 
   75290    75309    75132    75016    74818    74312    73757    73512 
   73398    73013    72385    71791    71280    70811    70528    70498 
   70507    70353    70147    70035    69923    69759    69784    70155 
   70646    70949    70987    70808    70457    70093    69985    70272 
   70823    71474    72238    73087    73805    74282    74580    74772 
   74877    74925    74973    74908    74461    73695    72997    72509 
   72073    71687    71502    71474    71408    71288    71217    71186 
   71203    71477    72049    72569    72805    73001    73350    73591 
   73485    73299    73379    73650    73830    73831    73710    73435 
   73008    72604    72399    72343    72335    72435    72787    73419 
   74182    74885    75415    75718    75805    75774    75712    75582 
   75284    74830    74407    74155    73969    73730    73583    73720 
   74090    74455    74595    74443    74104    73639    72943    71988 
   70958    69931    68841    67782    66939    66336    65905    65641 
   65522    65488    65500    65583    65769    65997    66197    66405 
   66665    66931    67082    67053    66968    66996    67123    67217 
   67271    67421    67759    68250    68860    69565    70291    71045 
   71914    72877    73795    74599    75284    75768    75980    76080 
   76204    76100    75459    74412    73417    72792    72516    72427 
   72365    72187    71894    71618    71319    70754    69947    69345 
   69236    69313    69180    68917    68737    68621    68530    68597 
   68985    69628    70218    70645    71135    71647    71814    71625 
   71439    71329    70997    70326    69535    68823    68193    67655 
   67321    67347    67802    68611    69572    70448    71118    71666 
   72237    72796    73148    73182    73074    73102    73337    73711 
   74231    74881    75474    75798    75848    75712    75421    75028 
   74633    74318    74105    73940    73778    73589    73369    73191 
   73138    73209    73338    73468    73526    73372    72856    71990 
   70916    69768    68715    67915    67301    66699    66117    65720 
   65572    65497    65308    65040    64774    64454    64093    63899 
   63983    64233    64577    65038    65570    66043    66429    66968 
   67890    69060    70119    70949    71741    72636    73516    74154 
   74471    74637    74904    75401    76063    76707    77222    77711 
   78347    79081    79632    79803    79645    79281    78690    77846 
   76854    75741    74382    72847    71544    70734    70193    69630 
   69153    68906    68675    68296    67965    67786    67483    66906 
   66363    66102    65928    65704    65688    66109    66810    67524 
   68188    68773    69238    69705    70221    70507    70321    69855 
   69492    69269    68962    68594    68478    68723    69080    69300 
   69462    69832    70375    70741    70835    70983    71400    71909 
   72331    72798    73418    73969    74254    74468    74835    75154 
   75064    74548    73870    73133    72169    70933    69716    68850 
   68434    68293    68049    67454    66706    66212    66052    65889 
   65466    65017    64868    64886    64737    64458    64350    64558 
   64980    65492    66082    66780    67535    68253    68816    69145 
   69240    69168    69088    69190    69510    69919    70308    70715 
   71280    71968    72513    72759    72767    72608    72361    72126 
   71919    71783    71876    72322    73049    73823    74390    74694 
   74900    75220    75770    76482    77128    77488    77526    77407 
   77260    76982    76443    75747    75119    74687    74351    73900 
   73376    73198    73570    74142    74605    75033    75378    75411 
   75204    75085    75105    74980    74583    74019    73226    72090 
   70900    70102    69712    69576    69861    70672    71609    72227 
   72567    72847    72968    72787    72574    72628    72833    73079 
   73592    74479    75398    75971    76208    76275    76049    75367 
   74487    73732    72966    72087    71466    71350    71494    71683 
   72011    72454    72679    72523    72254    72095    71868    71367 
   70779    70426    70276    70148    70173    70497    70920    71221 
   71446    71674    71788    71651    71313    70904    70498    70190 
   70110    70286    70536    70726    70912    71080    71051    70798 
   70524    70360    70162    69765    69287    68952    68845    68980 
   69327    69723    70002    70159    70266    70298    70101    69557 
   68759    68013    67594    67452    67269    66899    66557    66407 
   66285    66013    65659    65325    65033    64851    64855    64975 
   65090    65183    65300    65458    65697    66101    66649    67255 
   67900    68567    69192    69817    70549    71373    72162    72783 
   73213    73560    73907    74247    74560    74869    75165    75338 
   75323    75289    75470    75872    76266    76420    76283    75971 
   75606    75259    75034    75089    75500    76068    76486    76732 
   76924    76925    76596    76176    75872    75481    74795    73940 
   73098    72322    71716    71405    71307    71192    70965    70667 
   70290    69853    69498    69299    69129    68902    68771    68855 
   69007    69072    69094    69120    69028    68673    68122    67629 
   67387    67360    67398    67459    67683    68143    68634    68952 
   69222    69627    70101    70529    71015    71712    72544    73329 
   73998    74509    74682    74421    73869    73157    72270    71173 
   69947    68832    68034    67533    67306    67425    67795    68172 
   68399    68451    68396    68339    68364    68499    68732    69001 
   69195    69250    69206    69088    68897    68709    68620    68605 
   68643    68860    69367    70058    70826    71748    72859    73963 
   74864    75568    76046    76071    75632    75119    74854    74781 
   74777    74933    75290    75591    75593    75369    75066    74633 
   74036    73435    72933    72462    72006    71640    71389    71262 
   71281    71379    71367    71140    70823    70564    70286    69867 
   69425    69155    69091    69225    69597    70119    70495    70503 
   70205    69799    69326    68732    68134    67747    67651    67778 
   68042    68396    68863    69503    70274    71047    71802    72612 
   73392    73857    73885    73703    73510    73226    72789    72405 
   72249    72180    72034    71923    72009    72234    72442    72662 
   73056    73653    74322    74879    75139    75074    74814    74455 
   74000    73442    72805    72165    71564    70929    70259    69776 
   69612    69646    69828    70281    70976    71653    72121    72424 
   72640    72670    72351    71706    70934    70143    69294    68442 
   67775    67382    67219    67259    67467    67684    67792    67909 
   68206    68611    68909    69007    68918    68650    68341    68258 
   68461    68716    68897    69126    69483    69867    70217    70632 
   71167    71721    72245    72848    73539    74119    74444    74623 
   74837    75051    75109    75037    75031    75169    75359    75548 
   75780    76038    76272    76543    76904    77215    77322    77279 
   77275    77348    77313    77052    76697    76385    76096    75843 
   75718    75752    75826    75814    75720    75589    75389    75042 
   74490    73728    72860    72056    71406    70870    70417    70148 
   70136    70225    70213    70054    69768    69341    68802    68291 
   67896    67551    67163    66727    66260    65835    65560    65450 
   65396    65326    65294    65334    65371    65384    65504    65831 
   66255    66609    66885    67196    67576    67986    68449    69044 
   69719    70302    70719    71031    71275    71460    71671    71946 
   72138    72131    72031    72023    72131    72268    72428    72690 
   73043    73383    73653    73855    73996    74071    74090    74089 
   74137    74279    74472    74644    74757    74769    74614    74286 
   73900    73569    73264    72943    72694    72596    72570    72476 
   72288    72142    72095    72036    71941    71926    71987    71973 
   71787    71442    71016    70603    70240    69870    69471    69137 
   68941    68836    68818    69017    69462    69916    70123    70102 
   70009    69884    69630    69169    68701    68617    68951    69352 
   69716    70232    70947    71759    72612    73481    74271    74858 
   75195    75312    75255    75027    74634    74101    73468    72802 
   72152    71518    70933    70453    70081    69749    69445    69249 
   69188    69148    68956    68555    68029    67421    66710    65966 
   65395    65172    65302    65686    66245    66920    67640    68347 
   69009    69593    70077    70445    70650    70686    70657    70648 
   70587    70399    70202    70136    70137    70083    70047    70148 
   70355    70638    71069    71590    72002    72247    72495    72867 
   73263    73530    73654    73650    73488    73210    72979    72885 
   72870    72912    73066    73290    73448    73480    73402    73170 
   72732    72164    71594    71093    70700    70480    70461    70578 
   70730    70837    70837    70696    70484    70272    70040    69811 
   69724    69820    70025    70325    70690    70938    70918    70727 
   70561    70363    69907    69214    68617    68349    68311    68316 
   68355    68547    68947    69530    70275    71154    72095    72966 
   73576    73796    73668    73332    72917    72549    72349    72330 
   72343    72269    72168    72119    72069    71921    71668    71378 
   71082    70772    70441    70135    69920    69831    69850    69940 
   70077    70282    70571    70876    71085    71115    70933    70555 
   70029    69429    68791    68145    67562    67186    67126    67377 
   67873    68536    69282    70066    70911    71869    72929    74020 
   75115    76243    77369    78337    78956    79146    78966    78510 
   77869    77168    76489    75811    75138    74548    74120    73836 
   73618    73402    73160    72850    72424    71917    71394    70889 
   70402    69896    69310    68627    67922    67319    66879    66548 
   66245    65970    65797    65800    66024    66494    67184    67994 
   68796    69506    70117    70665    71199    71786    72468    73164 
   73755    74250    74745    75262    75695    75972    76118    76164 
   76107    75996    75976    76157    76496    76878    77229    77508 
   77668    77649    77413    76960    76334    75590    74761    73909 
   73157    72539    71992    71524    71194    71039    71104    71324 
   71460    71321    70954    70490    69912    69168    68353    67622 
   66989    66371    65781    65330    65049    64855    64696    64679 
   64914    65330    65811    66340    66888    67336    67564    67552 
   67387    67188    67076    67177    67541    68092    68690    69256 
   69803    70359    70866    71194    71223    70922    70379    69765 
   69182    68580    67846    66976    66078    65269    64581    64064 
   63842    63969    64369    65014    65912    66912    67792    68569 
   69430    70345    71061    71509    71821    72038    72144    72292 
   72732    73419    74097    74746    75539    76426    77237    78025 
   78935    79928    80898    81823    82611    83035    83033    82819 
   82458    81768    80775    79701    78603    77400    76096    74742 
   73319    71853    70525    69523    68974    68922    69245    69747 
   70348    70977    71474    71772    71984    72223    72461    72615 
   72678    72724    72835    73049    73319    73560    73724    73793 
   73778    73684    73471    73159    72848    72623    72477    72358 
   72299    72426    72774    73210    73575    73823    73966    73948 
   73673    73099    72312    71467    70683    70011    69439    68978 
   68766    68875    69195    69765    70654    71527    72100    72566 
   73036    73307    73426    73699    74160    74619    75042    75586 
   76335    77166    77950    78702    79402    79957    80385    80809 
   81236    81500    81481    81187    80580    79574    78212    76563 
   74572    72310    70004    67652    65200    62924    61024    59306 
   57589    56014    54718    53549    52443    51660    51312    51250 
   51451    51980    52766    53740    54901    56172    57472    58884 
   60536    62368    64174    65897    67651    69446    71163    72729 
   74155    75448    76630    77789    79002    80092    80842    81328 
   81538    81267    80698    80233    79863    79386    78802    78209 
   77565    76748    75790    74800    73776    72679    71591    70594 
   69626    68589    67513    66490    65566    64777    64169    63732 
   63397    63193    63116    62846    62218    61766    61816    61885 
   61916    62464    63547    64732    65950    67433    69124    70592 
   71683    72592    73310    73633    73656    73726    73981    74321 
   74740    75319    76045    76851    77764    78790    79798    80682 
   81450    82124    82655    83010    83241    83398    83467    83408 
   83235    82961    82526    81872    81054    80165    79224    78214 
   77244    76466    75813    75115    74402    73780    73179    72457 
   71624    70748    69749    68527    67204    65988    64967    64083 
   63242    62563    62210    62029    61834    61699    61650    61541 
   61357    61264    61317    61411    61595    62085    62896    63841 
   64849    65973    67128    68127    68970    69834    70656    71184 
   71513    71955    72500    72962    73381    73920    74525    75001 
   75342    75683    76003    76175    76214    76303    76584    77026 
   77546    78100    78624    78999    79115    78900    78302    77318 
   76032    74621    73278    72123    71219    70578    70148    69831 
   69526    69159    68654    67923    66943    65850    64805    63834 
   62931    62202    61782    61662    61763    62074    62592    63170 
   63620    63969    64395    64905    65361    65751    66185    66698 
   67266    67948    68816    69826    70864    71890    72924    73940 
   74842    75520    75913    76087    76210    76341    76338    76088 
   75682    75251    74753    74077    73354    72839    72497    72073 
   71524    71035    70710    70480    70274    70163    70252    70511 
   70881    71351    71851    72311    72721    73009    73025    72778 
   72497    72350    72284    72220    72212    72304    72447    72655 
   73057    73714    74480    75184    75756    76137    76254    76141 
   75913    75636    75298    74887    74445    74052    73711    73330 
   72839    72330    71945    71664    71409    71248    71304    71544 
   71826    72106    72432    72736    72862    72782    72574    72245 
   71764    71212    70746    70399    70097    69816    69600    69458 
   69377    69373    69454    69600    69774    69973    70225    70545 
   70939    71408    71903    72324    72601    72721    72704    72559 
   72323    72081    71892    71707    71467    71224    71103    71139 
   71231    71232    71058    70691    70143    69385    68497    67767 
   67309    66904    66526    66411    66495    66521    66529    66646 
   66738    66604    66317    66097    65982    65939    66070    66434 
   66914    67460    68149    68953    69749    70525    71392    72346 
   73257    74062    74791    75450    75992    76407    76711    76918 
   77060    77211    77448    77795    78217    78628    78935    79111 
   79193    79186    79015    78592    77922    77075    76125    75120 
   74135    73268    72536    71857    71180    70529    69908    69287 
   68662    68087    67605    67186    66795    66433    66117    65869 
   65685    65508    65263    64918    64542    64223    64008    63914 
   63973    64233    64740    65511    66467    67451    68324    69010 
   69434    69518    69238    68701    68089    67552    67216    67189 
   67491    68038    68729    69492    70235    70865    71377    71801 
   72088    72176    72102    71983    71911    71930    72090    72407 
   72819    73234    73630    74039    74464    74893    75355    75863 
   76393    76931    77472    77967    78359    78657    78856    78898 
   78827    78702    78460    78075    77595    77039    76388    75689 
   75057    74557    74170    73886    73691    73506    73228    72819 
   72312    71744    71142    70575    70101    69695    69319    68985 
   68654    68233    67644    66887    66035    65202    64469    63907 
   63647    63798    64346    65196    66287    67593    69026    70502 
   71961    73253    74236    74910    75243    75242    75092    74945 
   74800    74652    74536    74463    74386    74239    73986    73634 
   73198    72728    72292    71896    71512    71153    70858    70633 
   70440    70260    70162    70209    70347    70453    70510    70592 
   70725    70870    71024    71213    71428    71605    71697    71725 
   71737    71752    71749    71717    71717    71810    71976    72160 
   72319    72432    72507    72580    72688    72792    72787    72613 
   72295    71874    71367    70806    70271    69834    69502    69290 
   69245    69326    69390    69365    69364    69487    69664    69804 
   69924    70028    70043    69911    69649    69290    68877    68516 
   68312    68277    68382    68623    68978    69398    69854    70359 
   70908    71455    71964    72411    72723    72804    72651    72342 
   71968    71612    71325    71128    71015    70980    71053    71251 
   71541    71874    72196    72477    72673    72698    72511    72156 
   71707    71204    70659    70158    69826    69692    69676    69708 
   69789    69935    70125    70351    70630    70930    71135    71180 
   71103    70934    70663    70317    69934    69502    69028    68596 
   68315    68226    68300    68480    68692    68877    69013    69084 
   69057    68945    68845    68810    68785    68697    68532    68310 
   68060    67828    67671    67612    67612    67640    67737    67933 
   68185    68443    68733    69086    69481    69897    70326    70723 
