Origin Time       2025/01/13 21:19:00
Lat.              31.8
Long.             131.6
Depth. (km)       30
Mag.              6.9
Station Code      KMMH15
Station Lat.      32.1704
Station Long.     130.3647
Station Height(m) 15
Record Time       2025/01/13 21:19:52
Sampling Freq(Hz) 100Hz
Duration Time(s)  233
Dir.              5
Scale Factor      7845(gal)/8223790
Max. Acc. (gal)   5.159
Last Correction   2025/01/13 21:19:53
Memo.             
[...]
    2303     2191     2188     2296     2419     2479     2452     2354 
    2253     2216     2246     2308     2382     2439     2471     2515 
    2567     2575     2525     2428     2272     2083     1952     1954 
    2101     2336     2574     2744     2812     2770     2659     2540 
    2432     2320     2205     2135     2130     2155     2157     2089 
    1934     1745     1615     1621     1791     2089     2415     2651 
    2722     2628     2425     2251     2235     2362     2504     2527 
    2371     2116     1933     1937     2097     2304     2471     2577 
    2650     2710     2754     2760     2741     2713     2659     2551 
    2382     2174     1985     1899     1956     2080     2170     2200 
    2192     2178     2200     2276     2403     2569     2768     2999 
    3245     3441     3491     3345     3013     2571     2149     1888 
    1845     1944     2043     2033     1885     1676     1520     1471 
    1493     1522     1560     1664     1888     2230     2616     2933 
    3090     3079     3013     3024     3122     3240     3312     3294 
    3187     3046     2911     2772     2635     2488     2254     1885 
    1451     1086      888      893     1104     1439     1756     1965 
    2065     2106     2155     2258     2397     2533     2646     2731 
    2802     2856     2894     2926     2952     2955     2920     2839 
    2706     2509     2230     1868     1458     1085      872      892 
    1104     1377     1580     1669     1703     1811     2079     2475 
    2898     3249     3465     3547     3562     3569     3562     3496 
    3337     3100     2863     2698     2598     2501     2331     2056 
    1730     1466     1337     1358     1474     1583     1603     1568 
    1597     1759     2035     2361     2627     2754     2771     2782 
    2862     3001     3134     3198     3144     2970     2712     2430 
    2187     2008     1885     1844     1922     2120     2392     2655 
    2820     2818     2670     2447     2226     2064     2020     2112 
    2292     2484     2624     2694     2718     2729     2739     2743 
    2741     2722     2683     2640     2598     2512     2331     2062 
    1777     1553     1456     1528     1761     2108     2520     2952 
    3327     3568     3667     3669     3569     3333     2978     2578 
    2200     1906     1779     1873     2128     2400     2556     2565 
    2485     2378     2243     2038     1763     1490     1329     1347 
    1506     1705     1873     2022     2154     2246     2312     2398 
    2497     2566     2620     2706     2817     2906     2934     2883 
    2776     2666     2573     2450     2269     2066     1891     1786 
    1795     1926     2115     2257     2259     2106     1872     1664 
    1545     1513     1543     1622     1749     1925     2149     2423 
    2722     3015     3296     3546     3696     3659     3412     3040 
    2704     2521     2512     2619     2758     2828     2748     2523 
    2245     2025     1929     1976     2134     2319     2431     2428 
    2357     2290     2277     2359     2563     2830     3055     3184 
    3194     3060     2826     2610     2497     2467     2434     2331 
    2139     1908     1737     1706     1825     2027     2215     2326 
    2344     2289     2184     2047     1922     1867     1942     2173 
    2504     2814     3017     3103     3133     3165     3222     3271 
    3264     3192     3090     2978     2876     2820     2821     2845 
    2856     2837     2801     2774     2795     2898     3060     3190 
    3214     3140     3029     2938     2884     2836     2727     2532 
    2311     2135     2014     1923     1872     1891     1998     2182 
    2389     2508     2435     2164     1780     1413     1152     1024 
    1012     1084     1231     1444     1683     1879     1969     1953 
    1885     1829     1853     1988     2200     2421     2583     2660 
    2708     2801     2930     3040     3078     3010     2847     2643 
    2455     2301     2174     2052     1914     1763     1610     1502 
    1486     1567     1723     1938     2181     2408     2605     2764 
    2839     2754     2496     2161     1883     1721     1633     1545 
    1421     1286     1215     1277     1476     1756     2027     2216 
    2297     2270     2157     1977     1750     1505     1310     1248 
    1354     1607     1939     2270     2544     2747     2891     3033 
    3215     3404     3528     3549     3454     3273     3068     2867 
    2654     2409     2143     1879     1656     1521     1494     1548 
    1651     1779     1891     1944     1929     1873     1846     1926 
    2130     2398     2632     2772     2809     2759     2679     2648 
    2689     2766     2839     2893     2926     2933     2899     2812 
    2666     2482     2281     2089     1942     1865     1872     1939 
    2020     2066     2057     2014     1971     1935     1914     1921 
    1966     2080     2285     2552     2828     3049     3164     3176 
    3136     3087     3048     3028     3030     3032     2999     2906 
    2749     2540     2289     1996     1686     1385     1119      911 
     778      715      727      831     1026     1296     1638     2034 
    2436     2818     3160     3410     3516     3480     3362     3235 
    3150     3109     3057     2925     2698     2461     2324     2320 
    2392     2466     2484     2409     2292     2203     2170     2174 
    2193     2209     2215     2236     2313     2463     2655     2837 
    2987     3117     3233     3337     3423     3469     3437     3300 
    3071     2810     2617     2569     2639     2712     2681     2513 
    2277     2081     1989     1977     1984     1960     1891     1779 
    1651     1561     1568     1715     2016     2419     2812     3082 
    3157     3051     2851     2674     2616     2681     2798     2890 
    2920     2879     2786     2674     2567     2469     2365     2242 
    2097     1956     1845     1768     1728     1729     1753     1790 
    1836     1884     1931     1989     2058     2160     2324     2540 
    2756     2906     2943     2875     2763     2662     2597     2562 
    2509     2382     2176     1919     1668     1479     1382     1381 
    1447     1548     1686     1899     2195     2524     2824     3076 
    3291     3468     3580     3589     3474     3250     2990     2781 
    2663     2614     2558     2419     2199     1976     1860     1919 
    2133     2401     2616     2714     2705     2636     2558     2489 
    2419     2330     2204     2046     1888     1746     1642     1605 
    1649     1761     1904     2038     2116     2092     1948     1722 
    1499     1382     1441     1663     1953     2201     2355     2431 
    2498     2636     2875     3159     3373     3437     3369     3254 
    3163     3105     3083     3095     3119     3129     3095     2991 
    2824     2637     2471     2338     2238     2173     2137     2122 
    2138     2182     2246     2332     2451     2601     2763     2893 
    2922     2799     2544     2262     2069     2025     2116     2280 
    2415     2448     2378     2251     2111     1984     1873     1777 
    1691     1609     1549     1563     1655     1782     1888     1934 
    1930     1937     2014     2170     2350     2473     2512     2511 
    2540     2629     2762     2894     2980     3017     3030     3056 
    3105     3163     3198     3175     3082     2947     2821     2725 
    2650     2573     2477     2359     2255     2215     2257     2339 
    2386     2346     2215     2033     1860     1734     1652     1601 
    1591     1651     1767     1877     1918     1879     1796     1740 
    1768     1864     1960     2014     2033     2033     2035     2054 
    2084     2123     2182     2263     2334     2365     2350     2300 
    2227     2169     2165     2234     2354     2470     2533     2544 
    2536     2558     2633     2748     2853     2882     2786     2573 
    2313     2096     1968     1917     1918     1950     2006     2065 
    2106     2107     2070     2027     2006     2023     2096     2235 
    2421     2628     2817     2956     3060     3173     3306     3403 
    3396     3261     3037     2798     2620     2524     2477     2459 
    2477     2528     2605     2681     2721     2710     2663     2605 
    2544     2461     2323     2100     1795     1479     1251     1185 
    1271     1440     1625     1784     1910     2026     2169     2355 
    2567     2778     2949     3052     3080     3042     2940     2768 
    2565     2416     2380     2421     2475     2497     2490     2478 
    2485     2506     2529     2536     2527     2520     2524     2527 
    2493     2382     2199     1999     1845     1753     1687     1590 
    1445     1304     1231     1286     1483     1787     2151     2520 
    2818     2995     3045     2967     2775     2523     2276     2054 
    1827     1561     1260      978      805      820     1042     1437 
    1927     2403     2767     2983     3046     2968     2779     2527 
    2284     2124     2076     2104     2158     2204     2255     2370 
    2586     2866     3119     3260     3242     3065     2767     2420 
    2099     1857     1726     1714     1782     1883     2006     2157 
    2319     2452     2513     2496     2412     2269     2106     1996 
    1987     2092     2292     2531     2752     2918     2984     2926 
    2766     2528     2238     1942     1696     1529     1428     1368 
    1331     1312     1341     1487     1779     2146     2479     2722 
    2867     2936     2983     3056     3121     3084     2897     2608 
    2334     2174     2151     2220     2319     2412     2474     2504 
    2504     2452     2308     2062     1760     1467     1254     1183 
    1275     1498     1783     2041     2188     2197     2150     2150 
    2238     2388     2539     2620     2592     2485     2394     2393 
    2461     2521     2484     2311     2084     1933     1950     2118 
    2277     2259     2012     1621     1251     1084     1166     1397 
    1653     1898     2168     2516     2955     3429     3816     4024 
    4048     3959     3851     3809     3854     3923     3913     3748 
    3446     3079     2722     2412     2138     1883     1675     1561 
    1578     1755     2110     2589     3057     3368     3445     3294 
    3011     2759     2648     2689     2809     2916     2944     2883 
    2782     2701     2621     2463     2195     1869     1603     1506 
    1614     1876     2146     2265     2180     1992     1848     1834 
    1968     2216     2502     2744     2882     2871     2717     2520 
    2415     2466     2639     2855     3015     3021     2855     2606 
    2398     2295     2322     2415     2440     2317     2049     1688 
    1355     1179     1227     1466     1814     2173     2461     2629 
    2697     2704     2698     2705     2735     2764     2740     2602 
    2331     1935     1476     1098      943     1050     1329     1606 
    1729     1663     1510     1426     1501     1721     1992     2184 
    2212     2096     1954     1883     1868     1830     1732     1618 
    1578     1671     1894     2166     2373     2428     2326     2154 
    2033     2026     2118     2219     2220     2128     2115     2346 
    2802     3292     3619     3686     3508     3184     2826     2517 
    2300     2216     2285     2466     2694     2926     3137     3265 
    3233     3028     2708     2369     2115     2019     2084     2261 
    2489     2700     2825     2839     2770     2658     2525     2405 
    2320     2261     2192     2120     2092     2134     2232     2366 
    2494     2567     2570     2512     2446     2461     2619     2901 
    3234     3558     3827     3993     4029     3958     3839     3734 
    3685     3699     3735     3715     3561     3240     2787     2274 
    1775     1323      942      687      614      739     1027     1382 
    1706     1938     2073     2134     2141     2107     2079     2088 
    2151     2319     2593     2864     3025     3042     2960     2841 
    2732     2659     2632     2621     2578     2469     2265     1958 
    1628     1398     1354     1512     1813     2114     2300     2366 
    2385     2435     2560     2751     2978     3214     3435     3607 
    3707     3748     3785     3867     4018     4222     4384     4376 
    4121     3631     3014     2440     2052     1911     2000     2219 
    2432     2546     2567     2575     2617     2686     2782     2911 
    3044     3098     2984     2671     2218     1763     1444     1277 
    1161     1015      820      553      218     -110     -373     -564 
    -722     -891    -1046    -1171    -1304    -1447    -1574    -1682 
   -1741    -1707    -1599    -1482    -1425    -1475    -1613    -1759 
   -1822    -1742    -1548    -1354    -1220    -1081     -889     -688 
    -525     -438     -464     -535     -495     -218      297      934 
    1489     1815     1945     2033     2246     2625     3036     3277 
    3253     3018     2709     2443     2281     2224     2216     2207 
    2238     2366     2587     2864     3167     3460     3724     3994 
    4298     4604     4838     4918     4833     4660     4531     4561 
    4765     5057     5313     5463     5524     5529     5535     5617 
    5771     5929     6056     6154     6235     6300     6331     6318 
    6285     6274     6338     6498     6723     6960     7161     7298 
    7404     7535     7674     7763     7747     7578     7236     6768 
    6308     5944     5655     5422     5282     5213     5162     5144 
    5233     5435     5667     5821     5832     5694     5429     5057 
    4604     4118     3630     3173     2803     2563     2469     2490 
    2565     2636     2674     2698     2763     2897     3045     3118 
    3083     2940     2686     2338     1979     1717     1564     1441 
    1289     1084      815      518      256       44     -164     -364 
    -507     -599     -680     -730     -706     -615     -529     -526 
    -634     -788     -895     -897     -788     -608     -448     -411 
    -508     -652     -793     -951    -1094    -1173    -1188    -1177 
   -1167    -1169    -1194    -1256    -1343    -1441    -1576    -1768 
   -1979    -2157    -2297    -2431    -2574    -2652    -2544    -2185 
   -1603     -901     -237      284      684     1035     1378     1757 
    2199     2691     3198     3650     3966     4124     4099     3850 
    3442     3010     2628     2312     2050     1861     1815     1980 
    2385     2995     3684     4286     4704     4931     5009     5031 
    5108     5308     5605     5896     6123     6330     6552     6743 
    6844     6822     6669     6432     6193     5958     5668     5293 
    4855     4386     3923     3518     3219     3051     2986     3005 
    3094     3172     3159     3057     2928     2826     2776     2770 
    2764     2702     2550     2295     1926     1460      973      552 
     218      -51     -267     -446     -621     -805     -974    -1063 
   -1039     -935     -801     -662     -511     -322      -94      126 
     291      399      503      669      903     1138     1301     1363 
    1366     1371     1385     1363     1294     1169      974      739 
     535      419      425      577      901     1375     1888     2315 
    2608     2798     2952     3157     3427     3696     3908     4066 
    4193     4299     4368     4376     4344     4314     4364     4598 
    5020     5494     5845     5956     5790     5410     4892     4278 
    3618     2995     2493     2174     2070     2151     2319     2482 
    2624     2756     2884     3018     3146     3199     3126     2938 
    2695     2489     2397     2415     2452     2421     2280     2061 
    1879     1813     1841     1884     1857     1701     1447     1240 
    1242     1512     1972     2512     3044     3501     3861     4148 
    4387     4577     4679     4652     4517     4361     4267     4252 
    4266     4264     4214     4091     3865     3489     2951     2332 
    1757     1300      967      750      642      652      754      862 
     870      716      410       41     -275     -507     -687     -847 
    -988    -1085    -1132    -1144    -1129    -1058     -916     -749 
    -657     -734     -966    -1202    -1266    -1090     -753     -417 
    -225     -191     -172        5      391      911     1478     2045 
    2625     3234     3823     4287     4537     4502     4171     3663 
    3165     2790     2552     2403     2254     2042     1795     1602 
    1516     1487     1452     1393     1308     1219     1206     1314 
    1482     1630     1734     1815     1921     2095     2362     2698 
    3026     3280     3460     3628     3865     4195     4571     4889 
    5042     5007     4858     4704     4637     4693     4842     5016 
    5159     5246     5310     5427     5607     5782     5865     5815 
    5660     5456     5217     4919     4552     4098     3551     2987 
    2469     2011     1647     1412     1306     1306     1375     1494 
    1664     1900     2218     2592     2978     3345     3680     3990 
    4268     4472     4576     4573     4465     4268     4016     3736 
    3443     3153     2903     2736     2660     2656     2679     2682 
    2654     2613     2601     2606     2538     2326     2015     1688 
    1381     1136     1005      992     1077     1240     1458     1719 
    2020     2342     2660     2940     3142     3248     3250     3156 
    3014     2884     2794     2728     2660     2581     2508     2461 
    2446     2477     2563     2687     2847     3034     3219     3362 
    3435     3426     3350     3221     3025     2733     2354     1933 
    1510     1086      673      311       28     -168     -278     -299 
    -234      -95       87      270      383      373      247       41 
    -194     -375     -432     -399     -380     -449     -596     -743 
    -807     -749     -611     -487     -423     -371     -253      -37 
     271      621      926     1148     1325     1513     1736     1962 
    2124     2172     2135     2115     2177     2319     2490     2648 
    2776     2909     3091     3329     3573     3757     3823     3746 
    3558     3319     3080     2878     2705     2502     2251     2006 
    1834     1777     1852     2029     2253     2486     2720     2945 
    3150     3346     3551     3743     3848     3829     3717     3596 
    3542     3611     3808     4087     4406     4766     5152     5502 
    5772     5935     5962     5836     5543     5121     4668     4259 
    3924     3647     3423     3271     3226     3329     3555     3838 
    4106     4305     4425     4523     4668     4876     5089     5201 
    5127     4874     4552     4275     4081     3916     3699     3385 
    3003     2635     2362     2208     2146     2139     2149     2134 
    2089     2057     2056     2066     2064     2008     1873     1659 
    1379     1067      770      522      333      213      171      199 
     292      457      662      855     1008     1132     1255     1355 
    1372     1246      946      502       16     -403     -716     -927 
   -1034    -1035     -945     -785     -581     -373     -210     -109 
     -41       27       85      103       67      -25     -137     -224 
