Origin Time       2025/01/13 21:19:00
Lat.              31.8
Long.             131.6
Depth. (km)       30
Mag.              6.9
Station Code      KMMH08
Station Lat.      32.6501
Station Long.     131.0251
Station Height(m) 347
Record Time       2025/01/13 21:19:50
Sampling Freq(Hz) 100Hz
Duration Time(s)  183
Dir.              2
Scale Factor      3923(gal)/8224838
Max. Acc. (gal)   6.280
Last Correction   2025/01/13 21:19:50
Memo.             
[...]
   22464    22728    22572    21964    21111    20294    19687    19435 
   19720    20432    21091    21379    21456    21563    21730    21905 
   22100    22376    22650    22680    22364    21870    21390    21073 
   21031    21286    21724    22115    22291    22291    22242    22230 
   22306    22540    22975    23460    23735    23684    23345    22875 
   22536    22476    22530    22500    22432    22427    22391    22204 
   21925    21674    21570    21705    21968    22144    22188    22153 
   21991    21659    21249    20916    20817    21045    21512    21980 
   22295    22438    22432    22337    22199    22068    22032    22054 
   22010    21905    21834    21857    22025    22280    22438    22445 
   22416    22431    22443    22312    21991    21627    21308    21019 
   20841    20842    21033    21401    21775    21924    21872    21855 
   21973    22087    22042    21830    21554    21363    21361    21478 
   21578    21660    21805    22000    22196    22381    22562    22716 
   22809    22885    23060    23355    23616    23762    23849    23876 
   23804    23707    23697    23850    24169    24529    24791    24961 
   25126    25294    25377    25303    25111    24906    24757    24665 
   24601    24552    24509    24420    24316    24329    24466    24521 
   24345    23951    23418    22900    22585    22524    22607    22746 
   22927    23149    23444    23809    24092    24100    23812    23337 
   22771    22077    21189    20206    19322    18627    18106    17737 
   17595    17768    18169    18619    18997    19226    19314    19369 
   19431    19425    19279    19003    18658    18260    17767    17242 
   16914    16951    17211    17347    17215    16966    16789    16710 
   16714    16885    17305    17880    18415    18798    19125    19545 
   19970    20187    20213    20260    20436    20645    20807    20980 
   21231    21520    21733    21783    21716    21683    21783    21972 
   22130    22176    22098    21902    21644    21481    21525    21753 
   22156    22723    23328    23788    23963    23777    23264    22515 
   21554    20418    19273    18272    17431    16795    16498    16563 
   16808    17068    17377    17853    18468    19062    19588    20214 
   21066    22036    22967    23801    24528    25173    25752    26218 
   26535    26705    26688    26414    25930    25458    25147    24933 
   24683    24382    24094    23830    23585    23453    23572    23978 
   24506    24925    25150    25204    25105    24853    24408    23768 
   23067    22431    21837    21274    20895    20833    21030    21509 
   22297    23067    23531    23679    23481    23051    22615    22204 
   21780    21402    21112    20933    20919    21088    21366    21675 
   21965    22222    22495    22805    23018    23105    23230    23372 
   23456    23626    23857    24070    24394    24908    25497    25945 
   26200    26370    26428    26381    26342    26337    26364    26433 
   26514    26524    26275    25625    24676    23646    22686    21941 
   21532    21443    21573    21834    22199    22642    23072    23377 
   23527    23553    23480    23364    23282    23238    23186    23075 
   22910    22744    22615    22503    22389    22266    22037    21510 
   20615    19488    18341    17356    16615    16101    15858    16023 
   16591    17379    18171    18819    19287    19507    19396    19076 
   18756    18569    18558    18646    18747    18852    18941    19009 
   19102    19197    19148    18874    18434    17914    17432    17180 
   17205    17406    17716    18114    18592    19116    19489    19498 
   19209    18924    18864    19022    19240    19417    19554    19656 
   19727    19834    20025    20237    20441    20763    21235    21624 
   21697    21485    21207    21055    21116    21361    21591    21544 
   21190    20772    20536    20536    20672    20879    21197    21633 
   22063    22351    22489    22597    22832    23224    23626    23924 
   24182    24489    24815    25116    25332    25326    24981    24285 
   23390    22643    22280    22148    22050    21972    21801    21483 
   21251    21285    21637    22360    23333    24229    24734    24664 
   24097    23341    22732    22501    22707    23210    23788    24301 
   24798    25444    26265    27016    27483    27739    27930    27974 
   27637    26887    26011    25235    24471    23580    22623    21729 
   20958    20416    20309    20626    21045    21362    21594    21649 
   21454    21177    20939    20722    20505    20225    19873    19521 
   19249    19203    19392    19612    19712    19630    19318    18819 
   18171    17517    17145    17051    16924    16657    16397    16263 
   16305    16501    16737    16965    17253    17608    17938    18231 
   18570    18954    19288    19597    19957    20283    20401    20240 
   19858    19446    19138    18813    18489    18391    18418    18395 
   18314    18071    17729    17498    17343    17169    16895    16386 
   15731    15241    15132    15398    15888    16437    16918    17235 
   17398    17564    17896    18377    18924    19575    20436    21560 
   22852    24121    25294    26356    27157    27575    27708    27799 
   27966    28129    28252    28416    28606    28721    28710    28620 
   28536    28489    28485    28583    28872    29434    30295    31361 
   32425    33247    33621    33496    32995    32205    31153    29974 
   28853    27845    26937    26133    25390    24673    23998    23363 
   22720    22038    21293    20464    19507    18385    17208    16190 
   15557    15450    15720    16074    16499    17101    17770    18310 
   18663    18894    19071    19167    19121    18982    18948    19171 
   19575    20069    20717    21583    22555    23333    23668    23618 
   23427    23264    23170    23161    23260    23394    23456    23525 
   23792    24329    25047    25772    26369    26788    26960    26838 
   26504    26052    25477    24767    23946    23089    22342    21856 
   21570    21197    20615    20029    19546    19045    18559    18166 
   17703    17038    16195    15299    14565    14142    14049    14137 
   14242    14372    14462    14445    14447    14546    14739    15061 
   15441    15773    16112    16594    17312    18301    19491    20841 
   22411    24069    25639    27155    28556    29698    30543    31091 
   31374    31396    31121    30589    29906    29119    28185    27112 
   26121    25479    25189    25026    24813    24538    24228    23816 
   23311    22859    22512    22160    21725    21239    20711    20067 
   19265    18350    17398    16506    15763    15175    14693    14388 
   14463    15012    15876    16907    18112    19535    21141    22781 
   24281    25594    26781    27864    28742    29284    29508    29550 
   29528    29484    29377    29153    28784    28223    27508    26812 
   26214    25714    25365    25166    25057    24985    24872    24679 
   24428    24179    23985    23777    23431    22955    22457    21998 
   21579    21211    20912    20615    20186    19549    18739    17892 
   17182    16713    16438    16264    16131    15950    15649    15356 
   15271    15365    15516    15696    15797    15618    15268    15060 
   15076    15302    15753    16339    17012    17767    18462    18937 
   19159    19255    19349    19380    19252    19024    18831    18736 
   18713    18701    18650    18574    18504    18465    18562    18928 
   19569    20393    21307    22214    23013    23608    23978    24220 
   24491    24889    25415    26007    26561    26954    27147    27193 
   27152    27060    26954    26854    26740    26593    26435    26295 
   26202    26203    26310    26420    26434    26400    26423    26569 
   26854    27198    27488    27658    27691    27611    27460    27251 
   27024    26875    26840    26827    26707    26403    25928    25339 
   24665    23924    23176    22445    21693    20904    20069    19161 
   18233    17351    16507    15697    15060    14740    14724    14898 
   15178    15519    15886    16262    16629    16939    17082    17058 
   17049    17143    17242    17290    17301    17213    16973    16626 
   16255    15904    15564    15205    14864    14631    14563    14700 
   15057    15608    16283    17014    17728    18362    18932    19511 
   20119    20675    21116    21487    21884    22373    22933    23465 
   23880    24181    24412    24598    24808    25132    25547    25938 
   26229    26331    26138    25662    25077    24530    24025    23538 
   23058    22612    22258    21976    21672    21331    20995    20730 
   20623    20663    20763    20898    21064    21213    21371    21672 
   22184    22806    23400    23908    24287    24463    24379    24055 
   23581    23118    22815    22746    22968    23535    24408    25423 
   26365    27040    27332    27276    27045    26801    26611    26504 
   26485    26545    26662    26790    26855    26789    26527    26037 
   25340    24503    23612    22709    21837    21105    20623    20413 
   20403    20456    20490    20578    20838    21296    21843    22362 
   22773    23021    23083    22997    22850    22680    22428    22053 
   21591    21135    20738    20368    19975    19549    19133    18829 
   18721    18825    19138    19650    20326    21084    21845    22635 
   23500    24394    25182    25718    25965    26001    25867    25563 
   25141    24682    24216    23728    23247    22851    22585    22396 
   22206    21976    21721    21520    21456    21531    21721    22071 
   22620    23329    24109    24833    25331    25478    25278    24802 
   24093    23199    22179    21120    20163    19413    18852    18427 
   18135    18013    18054    18192    18384    18689    19194    19909 
   20761    21655    22477    23102    23485    23697    23836    23966 
   24070    24074    23954    23745    23490    23203    22842    22333 
   21640    20861    20179    19623    19071    18496    18014    17710 
   17559    17432    17209    16908    16640    16530    16656    17004 
   17540    18181    18816    19457    20144    20738    21074    21141 
   20973    20634    20243    19830    19391    19048    18877    18852 
   18985    19210    19396    19487    19427    19199    18874    18508 
   18137    17809    17568    17467    17517    17609    17601    17483 
   17351    17266    17274    17404    17594    17747    17806    17825 
   17976    18428    19191    20146    21127    21925    22412    22665 
   22817    22925    23006    23122    23380    23850    24453    25011 
   25401    25604    25621    25477    25204    24850    24506    24268 
   24185    24244    24375    24462    24430    24268    23973    23606 
   23305    23161    23168    23259    23338    23341    23263    23167 
   23121    23122    23152    23249    23456    23718    23947    24101 
   24158    24113    23970    23728    23409    23112    22933    22883 
   22947    23129    23434    23838    24308    24807    25277    25643 
   25807    25706    25393    25007    24660    24451    24416    24472 
   24509    24482    24391    24304    24325    24493    24741    24937 
   24960    24792    24503    24190    23949    23835    23836    23909 
   24024    24124    24062    23714    23117    22438    21818    21308 
   20856    20368    19805    19237    18782    18509    18416    18422 
   18428    18405    18381    18393    18496    18706    18981    19282 
   19581    19846    20094    20348    20542    20557    20309    19800 
   19121    18407    17830    17550    17616    17936    18365    18813 
   19224    19500    19588    19502    19272    18917    18468    17984 
   17577    17382    17452    17744    18219    18832    19456    19966 
   20349    20719    21195    21755    22287    22715    23039    23379 
   23873    24524    25276    26088    26847    27432    27816    27999 
   27977    27824    27666    27550    27452    27352    27143    26653 
   25957    25326    24842    24502    24352    24320    24259    24102 
   23850    23521    23099    22543    21906    21323    20857    20561 
   20525    20665    20822    20960    21026    20996    20947    20906 
   20887    20903    20916    20938    21018    21150    21285    21346 
   21258    20964    20420    19647    18751    17864    17051    16276 
   15531    14870    14351    13984    13718    13532    13479    13590 
   13834    14161    14515    14887    15311    15739    16100    16425 
   16757    17046    17242    17342    17392    17470    17637    17933 
   18419    19140    20048    21037    22007    22866    23506    23873 
   23997    23953    23808    23550    23117    22585    22162    22023 
   22177    22507    22893    23301    23708    24051    24335    24660 
   25069    25506    25934    26389    26929    27558    28217    28868 
   29477    29987    30329    30450    30402    30273    30146    30122 
   30285    30640    31109    31639    32273    32983    33636    34160 
   34565    34836    34956    34951    34843    34611    34244    33770 
   33189    32476    31666    30846    30042    29227    28414    27627 
   26871    26156    25470    24799    24248    23980    24021    24275 
   24615    24892    24988    24885    24594    24085    23295    22214 
   20973    19788    18820    18158    17788    17591    17439    17250 
   16985    16602    16015    15159    14094    12996    12058    11387 
   11017    10960    11219    11728    12309    12765    12977    12914 
   12590    12054    11360    10544     9683     8981     8653     8681 
    8862     9084     9377     9769    10253    10800    11384    12048 
   12876    13849    14840    15724    16476    17136    17736    18291 
   18829    19391    19963    20422    20623    20551    20277    19872 
   19454    19167    18964    18782    18735    18800    18847    18975 
   19256    19631    20094    20533    20729    20684    20569    20455 
   20386    20409    20436    20503    20772    21246    21879    22640 
   23440    24198    24871    25475    26056    26638    27282    28021 
   28811    29610    30350    30919    31251    31337    31168    30789 
   30295    29751    29223    28799    28501    28262    28027    27783 
   27572    27472    27510    27638    27810    28028    28345    28783 
   29270    29695    30022    30271    30424    30473    30460    30447 
   30483    30545    30551    30414    30114    29687    29095    28227 
   27137    26001    24873    23761    22716    21768    21004    20580 
   20495    20545    20632    20807    20972    20983    20931    20930 
   20983    21143    21433    21783    22164    22493    22599    22377 
   21782    20815    19587    18239    16884    15649    14659    13965 
   13491    13113    12802    12619    12592    12685    12860    13046 
   13196    13348    13559    13855    14287    14926    15777    16706 
   17517    18096    18449    18644    18701    18563    18246    17852 
   17437    16988    16467    15838    15106    14310    13479    12649 
   11928    11492    11472    11896    12722    13868    15223    16675 
   18117    19457    20660    21748    22758    23707    24590    25385 
   26098    26775    27506    28325    29083    29547    29636    29389 
   28838    28062    27234    26562    26165    26057    26202    26557 
   27098    27780    28476    29068    29555    29975    30306    30518 
   30620    30676    30763    30923    31125    31298    31342    31193 
   30820    30207    29362    28324    27125    25791    24370    22910 
   21479    20147    18976    18000    17212    16594    16127    15762 
   15472    15280    15206    15233    15379    15687    16136    16654 
   17178    17617    17895    18036    18156    18362    18647    18939 
   19215    19477    19737    20013    20309    20645    21026    21374 
   21651    21868    22002    22068    22157    22322    22569    22905 
   23251    23463    23518    23483    23394    23296    23268    23375 
   23629    23980    24337    24621    24795    24852    24756    24491 
   24127    23753    23402    23085    22790    22478    22098    21635 
   21099    20563    20108    19712    19295    18819    18307    17772 
   17212    16669    16202    15846    15622    15519    15485    15472 
   15473    15543    15751    16094    16503    16918    17348    17838 
   18396    19022    19741    20579    21527    22499    23352    23988 
   24391    24580    24563    24328    23905    23399    22952    22647 
   22457    22337    22314    22437    22692    22967    23152    23241 
   23278    23245    23121    22947    22763    22582    22400    22198 
   21988    21841    21791    21829    21926    22026    22090    22149 
   22230    22339    22530    22802    23070    23322    23546    23727 
   23909    24017    24009    24013    24008    23954    23927    23909 
   23849    23680    23336    22859    22358    21883    21444    21084 
   20900    20974    21285    21737    22248    22751    23151    23396 
   23557    23776    24167    24714    25326    25895    26333    26603 
   26725    26705    26536    26250    25898    25501    25022    24455 
   23881    23419    23151    23094    23225    23460    23695    23876 
   23980    23985    23959    23988    24005    23911    23765    23688 
   23681    23691    23666    23568    23390    23107    22659    22049 
   21358    20698    20155    19751    19435    19174    18963    18801 
   18659    18493    18253    17945    17632    17336    17074    16887 
   16748    16573    16344    16131    16031    16114    16441    16983 
   17599    18207    18678    18875    18893    18871    18827    18774 
   18717    18655    18601    18547    18570    18779    19174    19692 
   20263    20818    21332    21814    22273    22694    23001    23105 
   23059    23010    23005    23028    23099    23240    23456    23714 
   23920    24003    23926    23674    23265    22720    22061    21343 
   20650    20066    19650    19431    19386    19469    19629    19793 
   19893    19912    19901    19967    20171    20521    21049    21772 
   22627    23529    24406    25145    25627    25812    25736    25473 
   25058    24507    23869    23217    22590    21999    21478    21099 
   20885    20792    20792    20871    20984    21103    21212    21321 
   21514    21875    22397    23053    23823    24648    25458    26198 
   26817    27328    27795    28243    28642    28975    29255    29493 
   29639    29625    29412    28988    28355    27561    26689    25786 
   24838    23839    22820    21832    20918    20104    19444    19022 
   18894    19044    19376    19765    20137    20484    20785    21008 
   21145    21185    21109    20925    20688    20484    20349    20263 
   20214    20178    20097    19940    19723    19487    19263    19020 
   18720    18396    18129    17986    18033    18338    18904    19614 
   20317    20935    21431    21766    21918    21905    21811    21751 
   21747    21724    21612    21401    21103    20718    20224    19647 
   19080    18631    18357    18238    18202    18193    18230    18324 
   18438    18526    18582    18603    18559    18445    18258    18017 
   17764    17570    17491    17531    17641    17760    17805    17744 
   17629    17509    17406    17350    17342    17335    17315    17316 
   17350    17393    17431    17491    17632    17899    18272    18705 
