Origin Time       2025/01/13 21:19:00
Lat.              31.8
Long.             131.6
Depth. (km)       30
Mag.              6.9
Station Code      KMMH07
Station Lat.      32.6234
Station Long.     130.5584
Station Height(m) 22
Record Time       2025/01/13 21:19:54
Sampling Freq(Hz) 100Hz
Duration Time(s)  181
Dir.              5
Scale Factor      7845(gal)/8223790
Max. Acc. (gal)   16.640
Last Correction   2025/01/13 21:19:54
Memo.             
[...]
    9391     9582     9767     9860     9913    10211    10937    11800 
   12260    12094    11591    11248    11210    11034    10184     8748 
    7407     6717     6659     6781     6615     6026     5290     4819 
    4874     5485     6424     7334     7962     8229     8133     7793 
    7508     7527     7870     8356     8714     8764     8579     8437 
    8553     8868     9177     9275     9020     8584     8328     8347 
    8448     8433     8264     8073     7869     7429     6690     5975 
    5613     5549     5436     5069     4691     4735     5304     6118 
    6831     7246     7400     7493     7705     8082     8527     8835 
    8910     8866     8827     8776     8635     8338     7867     7281 
    6733     6407     6316     6300     6273     6354     6704     7238 
    7608     7632     7565     7771     8278     8807     9186     9549 
   10011    10380    10377    10021     9640     9522     9628     9706 
    9517     8922     8048     7308     7003     7088     7287     7307 
    7037     6656     6453     6570     6870     6988     6698     6166 
    5769     5782     6254     6993     7700     8216     8622     9154 
    9936    10797    11399    11535    11261    10860    10612    10509 
   10311     9829     9086     8291     7669     7371     7468     7983 
    8915    10052    10920    11187    11030    10943    11175    11477 
   11411    10810     9848     8689     7312     5746     4272     3296 
    3159     3900     5158     6319     6820     6515     5842     5408 
    5398     5518     5452     5323     5651     6795     8519    10139 
   10970    10794    10103     9722    10087    10929    11620    11808 
   11704    11709    11927    12123    11951    11218    10087     8978 
    8286     8129     8280     8461     8749     9397    10357    11269 
   11699    11385    10585     9892     9721    10193    11094    11908 
   12251    12078    11605    11188    10984    10841    10627    10388 
   10191     9965     9490     8596     7400     6297     5697     5634 
    5718     5610     5321     5073     5067     5281     5564     6010 
    6848     7994     9066     9779    10096    10116     9954     9707 
    9585     9819    10301    10554    10230     9436     8567     7890 
    7334     6747     6197     5900     5918     6065     6083     5861 
    5525     5298     5285     5458     5791     6296     7037     7963 
    8780     9255     9445     9553     9676     9718     9649     9676 
    9875     9923     9393     8102     6309     4729     4035     4276 
    4986     5649     6021     6285     6795     7528     8102     8334 
    8425     8645     8986     9180     9026     8619     8237     8067 
    8048     7966     7631     7026     6372     5980     5960     6154 
    6336     6417     6555     6968     7666     8428     8958     9104 
    8935     8646     8379     8155     8031     8194     8814     9819 
   10824    11469    11772    11979    12301    12756    13142    13297 
   13317    13278    13039    12483    11639    10696    10003     9830 
   10066    10266     9961     9061     8000     7349     7256     7333 
    7119     6574     6104     6069     6324     6378     5898     5042 
    4303     4020     4112     4298     4460     4783     5505     6583 
    7646     8290     8365     7997     7434     6917     6571     6355 
    6147     5880     5657     5714     6196     6934     7588     8063 
    8669     9760    11288    12783    13736    13994    13826    13612 
   13455    13194    12714    12074    11387    10621     9597     8253 
    6774     5432     4428     3785     3396     3208     3288     3708 
    4430     5243     5900     6328     6635     6948     7238     7314 
    7036     6478     5927     5728     5971     6377     6594     6519 
    6358     6469     7018     7815     8611     9306     9802    10022 
   10025     9938     9902     9940     9859     9483     8974     8715 
    8954     9576    10180    10426    10315    10018     9633     9198 
    8795     8523     8476     8722     9252     9925    10524    10947 
   11280    11691    12248    12885    13479    13976    14416    14769 
   14801    14223    12978    11311     9591     8102     6934     6003 
    5250     4769     4684     4926     5251     5549     5987     6767 
    7882     8991     9505     9045     7885     6745     6147     6076 
    6103     5759     4938     3963     3264     3034     3163     3379 
    3468     3422     3426     3603     3858     4056     4288     4885 
    6095     7713     9155     9934     9972     9532     9027     8766 
    8807     8970     8957     8564     7865     7099     6498     6247 
    6531     7441     8783    10142    11194    11892    12325    12475 
   12244    11665    10930    10287     9844     9474     8959     8139 
    7065     6115     5736     6130     7175     8513     9799    10925 
   11963    13027    14168    15310    16302    17042    17514    17693 
   17440    16641    15394    13984    12726    11820    11284    10975 
   10689    10234     9531     8753     8248     8203     8471     8758 
    8888     8842     8741     8671     8540     8235     7809     7454 
    7389     7682     8125     8340     8073     7396     6637     6102 
    5921     6079     6454     6872     7138     7134     6961     6883 
    7063     7425     7782     8043     8252     8442     8552     8505 
    8298     8027     7834     7753     7611     7160     6335     5344 
    4492     3923     3611     3496     3499     3576     3740     3989 
    4290     4585     4781     4899     5143     5698     6535     7462 
    8270     8824     9109     9252     9479     9899    10396    10746 
   10781    10471     9990     9625     9583     9819    10060     9996 
    9509     8683     7732     6918     6407     6270     6589     7373 
    8453     9562    10482    11141    11578    11848    12035    12237 
   12432    12401    11925    11018     9926     8924     8176     7713 
    7499     7410     7214     6774     6131     5451     4930     4646 
    4584     4779     5213     5705     6004     5948     5533     4959 
    4542     4514     4857     5341     5730     5992     6253     6512 
    6563     6289     5887     5713     5917     6311     6631     6806 
    6956     7207     7577     7956     8210     8324     8430     8687 
    9120     9630    10127    10617    11071    11283    11010    10293 
    9536     9243     9684    10732    11982    13047    13684    13782 
   13417    12827    12214    11637    11111    10700    10374     9917 
    9084     7821     6323     4947     4004     3592     3666     4108 
    4703     5240     5687     6164     6712     7236     7685     8152 
    8764     9552    10363    10982    11321    11381    11160    10678 
    9988     9151     8274     7545     7198     7342     7848     8399 
    8716     8758     8685     8671     8791     9078     9593    10316 
   11118    11836    12287    12314    11897    11180    10362     9568 
    8808     8051     7252     6330     5229     4025     2903     2093 
    1792     2093     2967     4217     5495     6486     7099     7485 
    7938     8594     9288     9744     9786     9404     8734     7928 
    7078     6278     5657     5306     5201     5165     5046     4997 
    5370     6347     7740     9127    10191    10922    11415    11645 
   11547    11222    10925    10920    11273    11794    12150    12070 
   11535    10783    10158     9906    10006    10226    10326    10212 
    9921     9502     9012     8579     8382     8519     8926     9441 
    9887    10110    10099     9983     9861     9693     9336     8653 
    7627     6446     5471     5107     5512     6508     7759     8934 
    9790    10218    10183     9711     8981     8289     7852     7649 
    7400     6754     5556     3975     2417     1264      653      531 
     823     1453     2290     3094     3620     3831     3951     4297 
    5016     6018     7115     8175     9143    10000    10685    11124 
   11357    11523    11716    11920    12001    11804    11333    10786 
   10390    10216    10108     9828     9282     8590     7950     7553 
    7488     7681     7973     8229     8364     8324     8139     7992 
    8164     8827     9880    11003    11831    12106    11796    11087 
   10304     9778     9699    10012    10423    10540    10133     9258 
    8198     7277     6714     6565     6721     7013     7327     7620 
    7817     7877     7894     8048     8460     9124     9853    10347 
   10444    10270    10120    10188    10438    10721    10952    11167 
   11435    11765    12078    12286    12325    12143    11708    11099 
   10488     9969     9455     8878     8428     8410     8970     9950 
   10964    11668    11979    12004    11836    11475    10889    10106 
    9186     8195     7277     6610     6220     5946     5582     5049 
    4482     4055     3790     3638     3640     3906     4480     5302 
    6238     7087     7574     7504     7015     6577     6589     7028 
    7561     7924     8083     8093     7987     7767     7418     6955 
    6438     5948     5530     5132     4650     4054     3434     2959 
    2775     2991     3646     4602     5578     6339     6912     7519 
    8280     9040     9551     9742     9803     9987    10393    10920 
   11333    11466    11299    10941    10563    10287    10100     9907 
    9659     9400     9189     9028     8901     8780     8641     8514 
    8448     8465     8568     8743     8954     9161     9300     9316 
    9228     9076     8887     8727     8691     8845     9189     9593 
    9826     9768     9494     9128     8749     8415     8205     8174 
    8295     8413     8306     7867     7256     6755     6515     6478 
    6517     6551     6562     6544     6480     6386     6324     6322 
    6366     6480     6748     7203     7732     8182     8507     8754 
    9031     9393     9802    10258    10813    11410    11875    12070 
   11969    11650    11218    10720    10152     9513     8866     8343 
    8016     7815     7566     7146     6610     6196     6156     6534 
    7176     7877     8486     8951     9352     9794    10277    10683 
   10894    10921    10902    10908    10787    10326     9505     8546 
    7753     7288     7119     7152     7318     7587     7952     8372 
    8746     8999     9100     9089     9057     9035     8949     8730 
    8424     8186     8191     8480     8911     9290     9536     9726 
    9995    10385    10793    11021    10906    10459     9833     9154 
    8451     7705     6903     6112     5518     5306     5439     5638 
    5630     5363     5003     4799     4874     5166     5543     5911 
    6258     6593     6868     6979     6871     6644     6496     6552 
    6801     7118     7362     7491     7555     7608     7689     7892 
    8287     8807     9277     9513     9443     9143     8742     8317 
    7892     7460     7063     6806     6793     7063     7553     8124 
    8715     9390    10210    11130    11970    12517    12742    12865 
   13126    13531    13805    13632    12982    12135    11411    10898 
   10393     9606     8407     6960     5632     4685     4114     3777 
    3569     3496     3638     3970     4280     4396     4380     4492 
    4955     5779     6760     7618     8194     8499     8603     8595 
    8584     8681     9038     9726    10592    11385    11989    12464 
   12958    13576    14296    14975    15404    15435    15095    14582 
   14092    13652    13161    12552    11870    11234    10723    10304 
    9899     9513     9263     9281     9576     9969    10177    10046 
    9657     9244     9054     9200     9597    10044    10301    10180 
    9691     9034     8455     8110     7970     7846     7565     7091 
    6473     5807     5225     4896     4972     5472     6235     6999 
    7512     7649     7496     7287     7236     7408     7665     7751 
    7523     7060     6536     6011     5462     4972     4747     4876 
    5219     5572     5800     5859     5819     5809     5914     6156 
    6470     6737     6872     6859     6747     6608     6502     6470 
    6534     6679     6853     6928     6783     6443     6065     5796 
    5649     5505     5243     4866     4484     4205     4036     3916 
    3824     3823     4008     4390     4868     5347     5845     6467 
    7335     8444     9595    10550    11203    11592    11770    11753 
   11560    11244    10828    10334     9803     9242     8671     8222 
    8037     8129     8371     8584     8700     8816     9073     9462 
    9844    10096    10203    10231    10233    10111     9701     8958 
    7969     6916     6045     5489     5170     4891     4444     3716 
    2751     1730      935      635      931     1678     2600     3438 
    4035     4368     4530     4711     5150     6027     7364     9020 
   10741    12263    13416    14215    14813    15369    15984    16692 
   17460    18195    18797    19238    19568    19822    19939    19805 
   19363    18715    18121    17805    17840    18129    18441    18563 
   18407    17952    17258    16492    15795    15245    14905    14751 
   14706    14721    14754    14742    14634    14473    14399    14507 
   14751    14971    14971    14604    13894    13005    12097    11209 
   10268     9159     7834     6319     4676     2957     1198     -544 
   -2160    -3550    -4679    -5575    -6292    -6855    -7250    -7469 
   -7528    -7474    -7396    -7399    -7574    -7956    -8476    -8935 
   -9084    -8753    -7902    -6605    -4984    -3159    -1173     1011 
    3412     5900     8209    10100    11462    12278    12615    12602 
   12383    12069    11704    11313    10964    10777    10868    11299 
   12102    13335    14959    16810    18640    20143    21077    21375 
   21085    20313    19246    18091    16974    15939    14979    14127 
   13497    13132    12976    12970    13062    13174    13227    13096 
   12617    11713    10503     9201     7978     6932     6089     5458 
    5128     5256     5914     7013     8311     9509    10408    10971 
   11186    11016    10463     9572     8413     7103     5730     4326 
    2974     1829     1030      616      588      947     1652     2625 
    3727     4698     5275     5381     5096     4588     4060     3639 
    3369     3288     3395     3646     4041     4619     5382     6318 
    7411     8621     9846    10908    11584    11731    11353    10598 
    9695     8839     8140     7636     7281     6943     6556     6170 
    5872     5736     5784     6007     6421     7014     7665     8217 
    8586     8816     9081     9520    10115    10785    11435    11947 
   12232    12259    12058    11767    11591    11655    11927    12225 
   12353    12209    11784    11095    10107     8811     7342     5942 
    4846     4180     3917     3959     4270     4854     5649     6501 
    7222     7724     8075     8395     8742     9113     9440     9620 
    9555     9151     8378     7346     6265     5377     4876     4801 
    5013     5283     5408     5328     5154     5043     5117     5402 
    5810     6211     6524     6760     6979     7206     7435     7705 
    8110     8758     9629    10561    11394    12047    12536    12939 
   13315    13675    14018    14308    14497    14571    14580    14600 
   14700    14906    15219    15630    16114    16627    17065    17294 
   17277    17103    16893    16688    16428    16027    15438    14675 
   13779    12727    11426     9834     8010     6130     4429     3038 
    1891      853     -121     -957    -1518    -1694    -1502    -1081 
    -579     -129      210      506      838     1213     1593     1953 
    2295     2579     2709     2605     2261     1750     1251     1013 
    1225     1857     2706     3574     4407     5298     6386     7685 
    9049    10270    11190    11773    12132    12464    12945    13597 
   14278    14840    15209    15380    15395    15268    14966    14466 
   13815    13103    12393    11691    10962    10165     9313     8478 
    7744     7142     6655     6262     5969     5813     5846     6111 
    6606     7317     8232     9302    10369    11175    11477    11192 
   10422     9400     8415     7685     7242     6967     6727     6474 
    6224     6006     5838     5732     5691     5715     5724     5548 
    5086     4379     3561     2801     2251     1965     1930     2143 
    2621     3372     4380     5579     6841     7997     8937     9686 
   10322    10868    11281    11519    11610    11599    11522    11454 
   11481    11616    11784    11884    11881    11827    11805    11855 
   11925    11940    11850    11620    11248    10781    10274     9742 
    9165     8548     7947     7442     7082     6874     6794     6759 
    6667     6512     6403     6447     6704     7211     7990     8995 
   10122    11217    12116    12750    13198    13575    13946    14319 
   14640    14787    14650    14179    13405    12469    11543    10767 
   10238     9998    10018    10203    10440    10642    10773    10852 
   10882    10783    10417     9690     8617     7326     5957     4604 
    3322     2141     1104      280     -265     -525     -525     -270 
     280     1161     2344     3734     5196     6571     7709     8557 
    9163     9576     9794     9745     9401     8877     8387     8105 
    8025     7994     7942     7994     8320     8951     9729    10400 
   10798    10952    11005    11040    11005    10810    10463    10114 
    9949    10056    10373    10775    11179    11595    12046    12469 
   12723    12665    12267    11688    11202    11029    11171    11441 
   11637    11672    11577    11438    11331    11272    11230    11191 
   11178    11221    11322    11373    11180    10636     9823     8914 
    8077     7384     6771     6141     5454     4733     4028     3384 
    2841     2458     2292     2384     2717     3183     3634     3954 
    4099     4105     4014     3846     3603     3279     2872     2415 
    1980     1684     1588     1641     1746     1825     1867     1950 
    2154     2459     2785     3095     3441     3881     4402     4930 
    5390     5755     6061     6377     6747     7180     7678     8224 
    8781     9290     9680     9930    10087    10257    10558    11065 
   11765    12528    13194    13689    14011    14200    14274    14229 
   14085    13899    13713    13525    13297    12978    12550    12039 
   11499    11006    10643    10447    10350    10195     9833     9209 
    8399     7584     6944     6586     6502     6566     6640     6658 
    6551     6285     5927     5607     5475     5647     6122     6774 
    7423     7913     8186     8330     8527     8895     9429    10042 
   10600    10982    11152    11161    11110    11078    11098    11149 
   11200    11275    11414    11607    11797    11938    12013    12044 
   12063    12105    12197    12370    12641    12974    13300    13541 
   13625    13497    13147    12609    11921    11156    10413     9792 
    9331     8973     8583     7997     7123     6006     4776     3582 
    2524     1647      963      481      202      118      207      399 
     560      581      495      476      695     1186     1836     2459 
    2932     3238     3473     3739     4048     4340     4615     4949 
    5393     5933     6529     7157     7823     8536     9262     9940 
