Origin Time       2025/01/13 21:19:00
Lat.              31.8
Long.             131.6
Depth. (km)       30
Mag.              6.9
Station Code      KMMH18
Station Lat.      33.0031
Station Long.     131.0071
Station Height(m) 854.038
Record Time       2025/01/13 21:19:56
Sampling Freq(Hz) 100Hz
Duration Time(s)  223
Dir.              1
Scale Factor      3923(gal)/8224838
Max. Acc. (gal)   5.572
Last Correction   2025/01/13 21:19:56
Memo.             
[...]
  -11952   -12028   -12032   -11955   -11839   -11749   -11718   -11739 
  -11800   -11861   -11861   -11749   -11495   -11103   -10619   -10119 
   -9682    -9359    -9157    -9024    -8893    -8722    -8511    -8316 
   -8191    -8159    -8232    -8429    -8738    -9101    -9435    -9686 
   -9871   -10021   -10106   -10093   -10012    -9914    -9845    -9848 
   -9952   -10168   -10466   -10791   -11098   -11335   -11465   -11499 
  -11491   -11480   -11475   -11488   -11534   -11604   -11665   -11684 
  -11639   -11531   -11375   -11206   -11052   -10909   -10751   -10542 
  -10266    -9930    -9564    -9202    -8872    -8606    -8434    -8352 
   -8302    -8235    -8128    -7975    -7780    -7565    -7368    -7225 
   -7152    -7142    -7177    -7221    -7264    -7325    -7412    -7519 
   -7638    -7734    -7765    -7722    -7628    -7499    -7294    -6987 
   -6628    -6288    -6002    -5776    -5621    -5563    -5626    -5796 
   -6039    -6347    -6733    -7191    -7673    -8125    -8523    -8858 
   -9115    -9292    -9389    -9416    -9401    -9383    -9373    -9358 
   -9344    -9348    -9370    -9387    -9381    -9363    -9367    -9424 
   -9528    -9648    -9751    -9838    -9937   -10065   -10218   -10366 
  -10493   -10601   -10709   -10793   -10818   -10806   -10817   -10893 
  -11041   -11222   -11383   -11508   -11611   -11654   -11583   -11387 
  -11092   -10719   -10285    -9806    -9301    -8793    -8316    -7915 
   -7604    -7364    -7168    -7006    -6879    -6809    -6817    -6920 
   -7125    -7418    -7749    -8059    -8313    -8529    -8754    -8995 
   -9234    -9463    -9667    -9828    -9941   -10038   -10145   -10273 
  -10431   -10639   -10898   -11184   -11452   -11661   -11789   -11835 
  -11792   -11665   -11485   -11295   -11101   -10903   -10716   -10527 
  -10335   -10172   -10049    -9960    -9907    -9888    -9883    -9863 
   -9798    -9678    -9522    -9370    -9246    -9147    -9077    -9040 
   -9034    -9045    -9031    -8955    -8826    -8681    -8557    -8456 
   -8365    -8270    -8181    -8124    -8127    -8202    -8344    -8518 
   -8714    -8935    -9173    -9396    -9566    -9649    -9636    -9532 
   -9359    -9180    -9054    -8982    -8942    -8928    -8920    -8877 
   -8752    -8498    -8110    -7634    -7121    -6619    -6189    -5908 
   -5834    -5994    -6376    -6922    -7553    -8208    -8858    -9482 
  -10053   -10532   -10893   -11110   -11184   -11159   -11099   -11072 
  -11121   -11250   -11434   -11643   -11843   -12006   -12131   -12236 
  -12347   -12480   -12621   -12715   -12721   -12625   -12451   -12243 
  -12020   -11777   -11512   -11226   -10953   -10760   -10659   -10593 
  -10507   -10373   -10206   -10050    -9956    -9961   -10085   -10301 
  -10577   -10902   -11246   -11533   -11693   -11726   -11659   -11512 
  -11272   -10949   -10597   -10289   -10083   -10002   -10014   -10068 
  -10142   -10238   -10343   -10431   -10492   -10547   -10625   -10731 
  -10856   -10990   -11114   -11211   -11259   -11238   -11156   -11036 
  -10903   -10771   -10639   -10489   -10289   -10012    -9659    -9246 
   -8806    -8365    -7959    -7626    -7362    -7175    -7092    -7137 
   -7322    -7653    -8093    -8583    -9101    -9647   -10207   -10756 
  -11277   -11773   -12237   -12644   -12980   -13234   -13382   -13394 
  -13284   -13084   -12808   -12459   -12077   -11704   -11381   -11142 
  -10987   -10878   -10778   -10673   -10539   -10351   -10129    -9934 
   -9784    -9655    -9517    -9347    -9138    -8915    -8706    -8510 
   -8305    -8068    -7824    -7628    -7541    -7601    -7819    -8185 
   -8667    -9175    -9603    -9902   -10075   -10161   -10180   -10141 
  -10064    -9979    -9927    -9942   -10015   -10092   -10134   -10153 
  -10192   -10266   -10369   -10497   -10648   -10837   -11084   -11380 
  -11709   -12048   -12357   -12631   -12884   -13108   -13277   -13373 
  -13371   -13240   -12973   -12625   -12258   -11913   -11619   -11376 
  -11160   -10949   -10737   -10521   -10314   -10133   -10002    -9926 
   -9907    -9953   -10035   -10111   -10145   -10111    -9988    -9759 
   -9445    -9099    -8749    -8436    -8163    -7900    -7642    -7402 
   -7160    -6905    -6636    -6376    -6166    -6012    -5871    -5742 
   -5664    -5625    -5576    -5493    -5362    -5204    -5071    -4963 
   -4830    -4664    -4490    -4333    -4232    -4201    -4241    -4361 
   -4567    -4845    -5147    -5433    -5706    -5948    -6085    -6066 
   -5898    -5637    -5352    -5082    -4843    -4644    -4503    -4455 
   -4526    -4727    -5053    -5471    -5940    -6417    -6879    -7326 
   -7789    -8293    -8819    -9317    -9740   -10061   -10261   -10319 
  -10220    -9985    -9674    -9355    -9080    -8864    -8687    -8525 
   -8375    -8244    -8137    -8051    -7986    -7955    -7975    -8033 
   -8120    -8233    -8343    -8383    -8325    -8156    -7897    -7608 
   -7338    -7121    -6991    -6975    -7072    -7264    -7523    -7804 
   -8086    -8379    -8669    -8920    -9121    -9283    -9420    -9541 
   -9643    -9695    -9690    -9667    -9664    -9690    -9736    -9795 
   -9853    -9894    -9898    -9848    -9745    -9629    -9559    -9578 
   -9693    -9882   -10114   -10365   -10620   -10855   -11059   -11252 
  -11456   -11661   -11827   -11921   -11962   -11994   -12037   -12086 
  -12121   -12114   -12069   -12000   -11915   -11839   -11804   -11847 
  -11988   -12190   -12409   -12623   -12796   -12895   -12931   -12955 
  -13016   -13153   -13370   -13633   -13890   -14068   -14110   -14019 
  -13834   -13605   -13389   -13231   -13158   -13181   -13270   -13397 
  -13541   -13674   -13767   -13829   -13878   -13927   -13980   -14017 
  -14019   -13991   -13941   -13880   -13837   -13821   -13802   -13726 
  -13589   -13428   -13279   -13151   -13046   -12961   -12889   -12829 
  -12777   -12729   -12706   -12727   -12762   -12791   -12808   -12829 
  -12891   -13041   -13301   -13657   -14044   -14381   -14597   -14640 
  -14520   -14301   -14052   -13840   -13699   -13593   -13452   -13244 
  -12919   -12398   -11678   -10808    -9842    -8878    -8025    -7318 
   -6768    -6411    -6251    -6276    -6471    -6817    -7283    -7847 
   -8482    -9126    -9710   -10212   -10646   -10993   -11207   -11290 
  -11272   -11178   -11032   -10860   -10671   -10440   -10138    -9744 
   -9250    -8673    -8059    -7442    -6833    -6243    -5682    -5143 
   -4629    -4171    -3809    -3554    -3366    -3210    -3083    -3001 
   -2944    -2825    -2563    -2145    -1587     -931     -234      448 
    1050     1498     1759     1861     1881     1872     1849     1791 
    1669     1482     1233      916      548      182     -133     -398 
    -629     -841    -1069    -1374    -1803    -2338    -2943    -3609 
   -4332    -5069    -5786    -6451    -7030    -7506    -7904    -8270 
   -8631    -8996    -9339    -9607    -9761    -9792    -9715    -9552 
   -9342    -9151    -9045    -9058    -9201    -9456    -9774   -10099 
  -10407   -10698   -10970   -11232   -11488   -11732   -11943   -12116 
  -12248   -12336   -12384   -12402   -12406   -12414   -12432   -12451 
  -12467   -12488   -12517   -12553   -12596   -12636   -12688   -12771 
  -12885   -13009   -13101   -13111   -13015   -12799   -12463   -12043 
  -11624   -11291   -11092   -11044   -11118   -11264   -11427   -11565 
  -11653   -11691   -11697   -11713   -11778   -11911   -12117   -12379 
  -12646   -12854   -12950   -12922   -12779   -12529   -12208   -11871 
  -11574   -11349   -11198   -11119   -11125   -11214   -11364   -11547 
  -11746   -11966   -12221   -12511   -12830   -13173   -13518   -13821 
  -14029   -14100   -14017   -13811   -13555   -13300   -13090   -12927 
  -12779   -12644   -12503   -12293   -12016   -11723   -11462   -11294 
  -11230   -11245   -11322   -11426   -11527   -11616   -11670   -11711 
  -11793   -11944   -12175   -12451   -12703   -12904   -13045   -13134 
  -13170   -13119   -12978   -12783   -12536   -12236   -11898   -11553 
  -11226   -10910   -10585   -10238    -9879    -9518    -9157    -8780 
   -8376    -7955    -7566    -7268    -7086    -7022    -7074    -7226 
   -7453    -7751    -8110    -8483    -8837    -9175    -9520    -9892 
  -10299   -10719   -11124   -11488   -11785   -11988   -12090   -12102 
  -12032   -11909   -11774   -11635   -11446   -11180   -10864   -10539 
  -10241    -9999    -9821    -9706    -9649    -9630    -9628    -9636 
   -9667    -9738    -9856   -10014   -10200   -10389   -10531   -10577 
  -10493   -10272    -9929    -9491    -8972    -8368    -7680    -6932 
   -6181    -5481    -4868    -4368    -3990    -3738    -3620    -3624 
   -3719    -3862    -4027    -4225    -4482    -4795    -5167    -5621 
   -6147    -6709    -7279    -7824    -8301    -8681    -8981    -9261 
   -9585    -9973   -10420   -10906   -11387   -11823   -12201   -12506 
  -12715   -12834   -12883   -12860   -12768   -12615   -12402   -12140 
  -11863   -11597   -11352   -11110   -10856   -10612   -10419   -10315 
  -10314   -10400   -10538   -10690   -10813   -10868   -10831   -10685 
  -10426   -10081    -9713    -9387    -9119    -8892    -8679    -8459 
   -8228    -7993    -7753    -7492    -7202    -6885    -6579    -6365 
   -6284    -6303    -6354    -6389    -6390    -6369    -6339    -6315 
   -6297    -6285    -6297    -6349    -6431    -6528    -6647    -6787 
   -6943    -7106    -7263    -7400    -7506    -7574    -7604    -7616 
   -7623    -7642    -7688    -7753    -7813    -7848    -7846    -7821 
   -7807    -7807    -7825    -7865    -7898    -7911    -7890    -7836 
   -7766    -7708    -7670    -7645    -7623    -7607    -7580    -7528 
   -7458    -7385    -7326    -7299    -7312    -7345    -7361    -7348 
   -7299    -7196    -7030    -6820    -6596    -6384    -6200    -6060 
   -5980    -5995    -6127    -6353    -6623    -6880    -7072    -7202 
   -7304    -7427    -7614    -7846    -8081    -8289    -8449    -8561 
   -8626    -8653    -8684    -8756    -8868    -9024    -9231    -9478 
   -9768   -10143   -10627   -11223   -11917   -12650   -13355   -13992 
  -14542   -14997   -15375   -15700   -15993   -16275   -16571   -16875 
  -17128   -17281   -17327   -17282   -17176   -17041   -16899   -16762 
  -16633   -16451   -16139   -15695   -15153   -14539   -13886   -13252 
  -12715   -12314   -12031   -11839   -11719   -11642   -11597   -11573 
  -11573   -11632   -11788   -12039   -12339   -12630   -12888   -13100 
  -13257   -13342   -13342   -13271   -13146   -12958   -12706   -12379 
  -11967   -11497   -11017   -10565   -10170    -9873    -9713    -9688 
   -9767    -9898   -10041   -10165   -10245   -10250   -10153    -9952 
   -9670    -9344    -9019    -8745    -8563    -8496    -8522    -8581 
   -8648    -8704    -8746    -8783    -8822    -8869    -8915    -8955 
   -9000    -9030    -9018    -8969    -8904    -8842    -8803    -8796 
   -8834    -8918    -9032    -9153    -9252    -9300    -9283    -9208 
   -9078    -8915    -8762    -8652    -8581    -8544    -8541    -8564 
   -8596    -8637    -8699    -8795    -8908    -8986    -8999    -8935 
   -8807    -8642    -8479    -8334    -8216    -8128    -8050    -7952 
   -7830    -7693    -7573    -7496    -7474    -7489    -7527    -7608 
   -7736    -7890    -8064    -8260    -8480    -8748    -9059    -9401 
   -9742   -10025   -10181   -10181   -10017    -9711    -9321    -8905 
   -8506    -8143    -7820    -7535    -7321    -7211    -7241    -7420 
   -7742    -8189    -8723    -9283    -9822   -10312   -10729   -11044 
  -11248   -11361   -11406   -11411   -11419   -11453   -11500   -11533 
  -11530   -11484   -11402   -11319   -11265   -11259   -11307   -11402 
  -11541   -11719   -11907   -12083   -12255   -12417   -12552   -12638 
  -12641   -12536   -12325   -12044   -11736   -11429   -11126   -10835 
  -10566   -10341   -10161   -10029    -9956    -9952   -10030   -10195 
  -10424   -10709   -11045   -11404   -11740   -12008   -12166   -12199 
  -12127   -11969   -11755   -11531   -11279   -10966   -10639   -10264 
   -9796    -9360    -8976    -8615    -8363    -8182    -8004    -7881 
   -7785    -7651    -7524    -7430    -7339    -7253    -7176    -7102 
   -7010    -6886    -6709    -6477    -6226    -5989    -5803    -5730 
   -5786    -5940    -6178    -6478    -6794    -7119    -7468    -7850 
   -8257    -8660    -9015    -9290    -9458    -9533    -9532    -9439 
   -9251    -9007    -8748    -8499    -8264    -8040    -7828    -7628 
   -7449    -7307    -7229    -7238    -7323    -7446    -7572    -7678 
   -7765    -7838    -7920    -8037    -8222    -8505    -8892    -9366 
   -9900   -10455   -10975   -11435   -11827   -12170   -12507   -12868 
  -13248   -13655   -14087   -14532   -14979   -15403   -15759   -16027 
  -16217   -16355   -16468   -16571   -16638   -16656   -16645   -16629 
  -16625   -16661   -16764   -16945   -17176   -17394   -17537   -17556 
  -17423   -17154   -16781   -16317   -15786   -15277   -14845   -14488 
  -14169   -13826   -13435   -13009   -12536   -12002   -11434   -10852 
  -10276    -9724    -9194    -8689    -8230    -7828    -7488    -7221 
   -7009    -6836    -6724    -6687    -6717    -6787    -6874    -6959 
   -7025    -7049    -7001    -6874    -6704    -6515    -6322    -6151 
   -6007    -5880    -5740    -5536    -5231    -4793    -4216    -3520 
   -2752    -1972    -1233     -581      -47      386      765     1116 
    1439     1709     1904     2019     2061     2033     1927     1696 
    1323      882      440       10     -383     -718    -1009    -1287 
   -1552    -1825    -2153    -2547    -3030    -3635    -4351    -5140 
   -5956    -6741    -7477    -8156    -8768    -9321    -9821   -10278 
  -10710   -11109   -11442   -11681   -11820   -11866   -11821   -11695 
  -11519   -11341   -11195   -11090   -11001   -10887   -10735   -10532 
  -10287   -10030    -9815    -9693    -9678    -9753    -9899   -10087 
  -10295   -10521   -10759   -11010   -11302   -11647   -12052   -12522 
  -13066   -13691   -14391   -15144   -15924   -16704   -17470   -18226 
  -18954   -19591   -20096   -20474   -20736   -20877   -20896   -20785 
  -20545   -20197   -19768   -19272   -18727   -18169   -17626   -17092 
  -16553   -16016   -15475   -14937   -14439   -14008   -13702   -13583 
  -13652   -13867   -14161   -14461   -14700   -14832   -14850   -14787 
  -14701   -14640   -14625   -14656   -14724   -14797   -14844   -14847 
  -14766   -14592   -14377   -14152   -13905   -13656   -13396   -13082 
  -12721   -12322   -11894   -11446   -10978   -10490   -10007    -9556 
   -9144    -8760    -8386    -7998    -7572    -7092    -6558    -5979 
   -5383    -4764    -4120    -3522    -3037    -2663    -2398    -2258 
   -2243    -2328    -2477    -2633    -2749    -2814    -2818    -2743 
   -2614    -2486    -2386    -2327    -2293    -2236    -2128    -1972 
   -1759    -1506    -1291    -1188    -1233    -1443    -1803    -2272 
   -2795    -3327    -3834    -4280    -4656    -4978    -5273    -5562 
   -5854    -6131    -6363    -6504    -6524    -6440    -6293    -6126 
   -5977    -5876    -5859    -5953    -6156    -6431    -6732    -7005 
   -7222    -7391    -7522    -7636    -7744    -7835    -7884    -7854 
   -7734    -7554    -7366    -7210    -7083    -6999    -6997    -7094 
   -7288    -7581    -7979    -8494    -9123    -9845   -10596   -11311 
  -11986   -12649   -13304   -13934   -14540   -15115   -15620   -16036 
  -16372   -16626   -16814   -16943   -17005   -16987   -16889   -16726 
  -16537   -16333   -16093   -15803   -15453   -15013   -14489   -13946 
  -13443   -13009   -12669   -12424   -12249   -12113   -11971   -11812 
  -11678   -11618   -11650   -11790   -12060   -12447   -12911   -13406 
  -13873   -14276   -14598   -14851   -15037   -15145   -15178   -15180 
  -15218   -15323   -15469   -15647   -15862   -16070   -16231   -16330 
  -16351   -16285   -16137   -15913   -15615   -15252   -14827   -14349 
  -13809   -13192   -12522   -11838   -11160   -10515    -9926    -9375 
   -8849    -8341    -7819    -7284    -6779    -6354    -6057    -5910 
   -5896    -6010    -6222    -6474    -6720    -6916    -7022    -7026 
   -6924    -6717    -6438    -6114    -5771    -5439    -5130    -4849 
   -4602    -4396    -4256    -4191    -4206    -4295    -4459    -4689 
   -4977    -5321    -5718    -6123    -6497    -6828    -7091    -7233 
   -7244    -7203    -7173    -7107    -6983    -6924    -6951    -6982 
   -7069    -7192    -7287    -7403    -7491    -7522    -7537    -7510 
   -7429    -7303    -7103    -6810    -6446    -6052    -5663    -5296 
   -4970    -4719    -4557    -4498    -4550    -4707    -4955    -5289 
   -5721    -6251    -6837    -7469    -8136    -8777    -9362    -9921 
  -10469   -11005   -11515   -11982   -12380   -12673   -12887   -13070 
  -13169   -13165   -13157   -13136   -13097   -13070   -13011   -12923 
  -12822   -12692   -12540   -12337   -12066   -11751   -11426   -11111 
  -10821   -10578   -10401   -10301   -10282   -10342   -10459   -10600 
  -10720   -10801   -10848   -10860   -10841   -10831   -10862   -10939 
  -11043   -11137   -11191   -11198   -11169   -11113   -11040   -10972 
  -10922   -10883   -10844   -10779   -10658   -10462   -10206    -9904 
   -9585    -9281    -9011    -8764    -8521    -8263    -7986    -7705 
   -7439    -7218    -7076    -7021    -7047    -7144    -7311    -7564 
   -7928    -8428    -9059    -9784   -10535   -11237   -11812   -12213 
  -12436   -12511   -12495   -12438   -12359   -12280   -12229   -12191 
  -12168   -12187   -12239   -12305   -12397   -12514   -12668   -12877 
  -13144   -13462   -13787   -14067   -14283   -14423   -14469   -14405 
  -14241   -13994   -13678   -13343   -13023   -12727   -12496   -12361 
  -12294   -12263   -12252   -12243   -12231   -12218   -12190   -12128 
  -12029   -11882   -11672   -11403   -11084   -10701   -10255    -9759 
   -9220    -8653    -8068    -7469    -6883    -6330    -5810    -5340 
   -4946    -4631    -4369    -4126    -3883    -3651    -3438    -3223 
   -2984    -2728    -2485    -2299    -2197    -2174    -2216    -2351 
   -2604    -2952    -3383    -3904    -4494    -5144    -5853    -6581 
   -7296    -7974    -8594    -9148    -9616    -9973   -10226   -10390 
  -10485   -10519   -10504   -10466   -10419   -10366   -10323   -10274 
  -10195   -10084    -9917    -9680    -9405    -9096    -8762    -8417 
   -8032    -7582    -7051    -6420    -5737    -5062    -4419    -3820 
   -3298    -2886    -2619    -2525    -2583    -2756    -3021    -3370 
   -3804    -4311    -4884    -5509    -6166    -6852    -7554    -8245 
   -8928    -9613   -10301   -10997   -11697   -12393   -13065   -13691 
  -14261   -14783   -15260   -15681   -16029   -16302   -16503   -16623 
  -16638   -16555   -16403   -16185   -15924   -15661   -15419   -15213 
  -15033   -14881   -14779   -14713   -14648   -14611   -14611   -14643 
  -14717   -14821   -14921   -15014   -15091   -15142   -15171   -15163 
  -15102   -15003   -14891   -14786   -14692   -14625   -14621   -14665 
  -14735   -14816   -14866   -14878   -14874   -14837   -14744   -14609 
  -14458   -14287   -14083   -13833   -13522   -13155   -12730   -12243 
  -11719   -11179   -10628   -10075    -9516    -8941    -8340    -7735 
