Origin Time       2025/01/13 21:19:00
Lat.              31.8
Long.             131.6
Depth. (km)       30
Mag.              6.9
Station Code      KMMH09
Station Lat.      32.4901
Station Long.     130.9046
Station Height(m) 420
Record Time       2025/01/13 21:19:49
Sampling Freq(Hz) 100Hz
Duration Time(s)  167
Dir.              1
Scale Factor      3923(gal)/8224838
Max. Acc. (gal)   6.123
Last Correction   2025/01/13 21:19:49
Memo.             
[...]
    5813     5914     5971     5921     5803     5680     5513     5273 
    5040     4882     4746     4585     4475     4492     4583     4676 
    4801     5011     5286     5645     6137     6660     7015     7115 
    6956     6516     5880     5321     5051     5055     5240     5611 
    6102     6475     6562     6401     6088     5709     5408     5293 
    5300     5298     5262     5221     5142     4986     4855     4900 
    5144     5444     5645     5703     5680     5660     5701     5819 
    5996     6177     6265     6174     5927     5667     5521     5470 
    5373     5171     4982     4943     5066     5262     5440     5574 
    5641     5621     5556     5525     5509     5356     4961     4410 
    3919     3646     3611     3832     4311     4843     5170     5316 
    5478     5663     5722     5674     5711     5896     6166     6519 
    6899     7052     6801     6320     5954     5842     5769     5454 
    4946     4630     4779     5283     5875     6374     6691     6778 
    6714     6713     6975     7473     7971     8306     8453     8432 
    8388     8553     8870     8982     8722     8333     8048     7821 
    7647     7693     7944     8125     8137     8136     8073     7794 
    7528     7538     7651     7705     7831     7994     7967     7850 
    8001     8430     8796     8972     9023     8780     8025     6952 
    5933     5066     4336     3862     3685     3635     3512     3141 
    2443     1674     1202     1032      877      564      167      -68 
      27      467     1181     2020     2818     3520     4056     4249 
    4105     3904     3821     3765     3700     3827     4286     4842 
    5128     5081     4912     4787     4687     4519     4286     4078 
    3933     3778     3545     3295     3210     3392     3635     3574 
    3122     2570     2188     1934     1645     1405     1493     1926 
    2412     2864     3402     3937     4367     4818     5429     6207 
    7083     7900     8413     8523     8487     8603     8810     8887 
    8857     8877     8910     8788     8581     8648     9200     9944 
   10318    10087     9549     9100     8793     8554     8478     8514 
    8289     7663     7045     6693     6226     5279     4116     3075 
    2069     1047      271     -201     -549     -718     -568     -249 
      81      479     1007     1613     2214     2763     3213     3565 
    3997     4679     5462     6080     6570     7059     7408     7528 
    7615     7812     8024     8172     8324     8549     8814     8980 
    8951     8721     8283     7661     6926     6133     5355     4741 
    4347     4075     3923     4035     4390     4722     4845     4834 
    4762     4521     4082     3676     3474     3403     3329     3325 
    3624     4348     5336     6250     6880     7260     7439     7398 
    7229     7130     7150     7156     7082     7029     7125     7392 
    7732     8033     8272     8491     8725     8955     9036     8734 
    7920     6640     5157     3892     3159     2930     2932     2872 
    2687     2482     2263     1945     1597     1382     1285     1161 
     997      934     1058     1270     1525     2058     2951     3678 
    3808     3646     3569     3539     3474     3443     3577     3885 
    4325     4932     5630     6234     6737     7198     7530     7672 
    7753     7946     8239     8487     8618     8708     8888     9212 
    9649    10172    10732    11157    11299    11287    11360    11379 
   10971    10323    10041    10079     9919     9553     9229     8865 
    8287     7622     7150     6936     6790     6523     6041     5405 
    4857     4573     4430     4237     4077     4067     4020     3697 
    3226     2928     2844     2779     2736     2901     3292     3730 
    3987     3897     3643     3669     4012     4309     4507     4935 
    5663     6403     7069     7825     8513     8657     8202     7645 
    7303     6995     6546     6089     5688     5202     4633     4071 
    3383     2434     1463      873      792     1050     1428     1734 
    1730     1328      774      346      125      156      406      594 
     537      464      662     1063     1355     1485     1715     2145 
    2608     3044     3493     3844     3967     4014     4243     4591 
    4865     5182     5649     6049     6320     6702     7210     7562 
    7670     7784     8023     8182     8148     8087     8128     8203 
    8257     8297     8244     7977     7487     6902     6369     5926 
    5487     4969     4430     3920     3308     2493     1672     1173 
    1096     1344     1840     2559     3469     4479     5436     6195 
    6712     7048     7285     7430     7434     7322     7184     7024 
    6763     6404     6069     5861     5705     5421     5004     4700 
    4722     4974     5143     5055     4864     4806     5019     5618 
    6671     7936     8954     9566    10011    10400    10471    10003 
    9173     8347     7751     7487     7677     8409     9483    10434 
   10898    10932    10817    10606    10110     9317     8494     7828 
    7314     7051     7284     7978     8688     9050     9038     8661 
    7892     6922     6037     5312     4672     4037     3319     2448 
    1495      557     -427    -1586    -2779    -3588    -3793    -3674 
   -3564    -3434    -3154    -2833    -2631    -2436    -2046    -1483 
    -878     -213      542     1242     1706     1960     2128     2272 
    2592     3451     4826     6216     7388     8526     9725    10856 
   11838    12594    12885    12528    11736    10910    10181     9486 
    8833     8210     7541     6841     6222     5768     5556     5634 
    5908     6146     6224     6220     6176     6011     5705     5310 
    4783     4108     3468     2999     2639     2423     2538     2956 
    3429     3882     4455     5157     5859     6554     7362     8325 
    9379    10476    11496    12274    12820    13269    13531    13367 
   12862    12405    12133    11848    11487    11222    11087    10820 
   10149     9030     7619     6177     4936     3956     3200     2760 
    2747     3003     3156     3076     3040     3271     3565     3604 
    3406     3207     3098     3025     3019     3217     3726     4558 
    5575     6494     7024     7103     6925     6561     5934     5186 
    4585     4193     3985     4093     4541     5038     5375     5683 
    6045     6247     6080     5602     5030     4552     4274     4224 
    4374     4710     5204     5710     6026     5976     5502     4788 
    4056     3352     2728     2349     2315     2585     3048     3557 
    4014     4437     4857     5235     5544     5845     6227     6735 
    7414     8329     9427    10400    10899    10863    10535    10135 
    9705     9261     8870     8546     8259     8068     8040     8064 
    8000     7878     7740     7452     6944     6447     6164     5940 
    5563     5140     4884     4811     4904     5190     5521     5686 
    5738     5790     5736     5460     5107     4963     5148     5509 
    5873     6218     6484     6494     6216     5842     5529     5289 
    5109     4972     4820     4669     4621     4758     5039     5333 
    5526     5509     5123     4352     3373     2232      953      -98 
    -594     -630     -368      182      882     1476     1946     2500 
    3152     3655     3924     4132     4352     4484     4480     4314 
    3858     3132     2431     2037     2018     2338     2921     3650 
    4423     5200     5975     6716     7353     7863     8256     8434 
    8213     7530     6558     5566     4756     4205     3910     3855 
    3925     3936     3828     3708     3666     3639     3543     3437 
    3441     3578     3765     3905     3931     3778     3441     3072 
    2863     2754     2581     2439     2424     2334     2085     1969 
    2200     2627     3032     3396     3693     3813     3824     3921 
    4133     4372     4654     4989     5240     5313     5323     5404 
    5537     5697     5929     6228     6579     7063     7727     8402 
    8822     8885     8677     8293     7800     7315     6926     6621 
    6420     6439     6721     7194     7777     8365     8791     8947 
    8953     9076     9397     9732     9921     9991     9984     9846 
    9501     8966     8329     7643     6929     6250     5705     5367 
    5188     4973     4561     3985     3356     2710     2092     1637 
    1452     1474     1559     1684     1950     2403     2936     3412 
    3805     4190     4645     5177     5699     6107     6373     6536 
    6600     6505     6234     5829     5323     4781     4317     3970 
    3694     3532     3662     4099     4540     4770     4941     5196 
    5400     5452     5499     5637     5725     5710     5782     6054 
    6423     6756     7003     7122     7096     6972     6758     6339 
    5713     5150     4920     4923     4878     4761     4714     4735 
    4766     4880     5208     5728     6228     6593     6913     7203 
    7346     7349     7373     7500     7651     7739     7763     7789 
    7873     7982     8020     7900     7607     7233     6831     6309 
    5603     4850     4236     3778     3391     3068     2880     2805 
    2725     2633     2619     2670     2709     2770     2921     3096 
    3144     3010     2822     2748     2802     2874     2898     2901 
    2948     3082     3268     3449     3573     3612     3566     3484 
    3480     3719     4287     5089     5983     6945     7974     8942 
    9718    10270    10658    10984    11294    11518    11562    11402 
   11082    10593     9842     8835     7722     6648     5672     4838 
    4276     4070     4141     4309     4399     4305     4001     3524 
    2965     2419     1973     1655     1395     1166     1034     1035 
    1120     1266     1470     1661     1749     1769     1837     1975 
    2131     2276     2376     2355     2200     2077     2196     2587 
    3111     3688     4405     5302     6156     6736     7157     7645 
    8209     8793     9443    10164    10820    11290    11595    11807 
   11969    12100    12133    11875    11194    10192     9040     7782 
    6486     5395     4723     4449     4440     4633     4961     5262 
    5435     5528     5602     5633     5651     5725     5765     5709 
    5746     5964     6131     6092     5964     5837     5568     4995 
    4163     3233     2305     1478      915      737      930     1377 
    1896     2347     2758     3199     3650     4144     4796     5594 
    6382     7044     7510     7684     7533     7171     6768     6442 
    6223     6083     5961     5811     5707     5778     5926     5864 
    5571     5377     5433     5521     5444     5289     5232     5305 
    5479     5810     6293     6779     7130     7395     7681     7985 
    8282     8541     8649     8518     8214     7888     7584     7253 
    6922     6666     6453     6196     5884     5537     5159     4765 
    4388     4043     3705     3337     2936     2594     2458     2625 
    3100     3851     4816     5819     6594     6988     7013     6764 
    6390     5961     5435     4819     4183     3570     3001     2484 
    2061     1838     1880     2092     2266     2307     2285     2253 
    2189     2176     2353     2646     2879     3051     3262     3535 
    3870     4333     4905     5436     5850     6237     6655     6986 
    7080     6968     6816     6724     6686     6723     6914     7195 
    7383     7464     7462     7253     6781     6184     5591     5044 
    4622     4469     4649     5086     5688     6390     7146     7929 
    8718     9431     9944    10137     9956     9464     8803     8078 
    7344     6593     5811     5074     4467     3977     3565     3231 
    2978     2789     2679     2697     2817     2928     3007     3141 
    3338     3512     3609     3609     3437     3044     2532     2074 
    1764     1617     1645     1834     2074     2211     2205     2158 
    2139     2114     2068     2115     2452     3168     4162     5274 
    6416     7553     8622     9518    10183    10646    10952    11091 
   11061    10972    10959    11048    11164    11187    11029    10716 
   10281     9613     8653     7565     6509     5544     4797     4399 
    4324     4409     4517     4587     4598     4573     4600     4726 
    4860     4868     4731     4536     4325     4060     3738     3431 
    3145     2797     2394     2101     2043     2170     2392     2716 
    3167     3694     4229     4714     5081     5308     5472     5655 
    5854     6054     6292     6606     6979     7377     7769     8050 
    8094     7908     7642     7414     7210     6979     6725     6447 
    6077     5595     5067     4521     3951     3442     3138     3067 
    3173     3457     3923     4479     4955     5252     5406     5460 
    5410     5290     5170     5040     4808     4463     4144     4000 
    4054     4261     4606     5054     5489     5775     5880     5853 
    5724     5497     5279     5250     5436     5672     5799     5767 
    5583     5281     4881     4374     3753     3122     2650     2351 
    2135     2042     2164     2403     2612     2835     3159     3491 
    3720     3875     3932     3770     3384     2890     2288     1458 
     438     -545    -1385    -2162    -2886    -3407    -3609    -3518 
   -3160    -2455    -1368       22     1656     3489     5385     7133 
    8654    10057    11423    12665    13730    14712    15655    16488 
   17181    17730    18046    18157    18235    18249    18040    17702 
   17389    17061    16721    16443    16173    15790    15265    14646 
   13886    12796    11356     9783     8113     6224     4220     2282 
     419    -1381    -2952    -4120    -4936    -5526    -5838    -5756 
   -5296    -4572    -3643    -2458     -992      631     2214     3640 
    4934     6129     7217     8203     9088     9817    10353    10714 
   10933    11009    10949    10787    10528    10152     9674     9167 
    8707     8301     7839     7173     6286     5263     4087     2729 
    1360      149     -938    -1840    -2322    -2405    -2289    -1950 
   -1448    -1059     -722     -238      213      463      622      847 
    1217     1748     2479     3445     4581     5817     7072     8216 
    9170     9913    10368    10488    10390    10386    10666    11017 
   11329    11986    13038    13775    13855    13676    13293    12249 
   10524     8553     6448     4144     2007      388     -861    -1863 
   -2450    -2625    -2650    -2671    -2559    -2245    -1935    -1809 
   -1752    -1661    -1578    -1417     -973     -178      882     2154 
    3599     5042     6319     7446     8406     9069     9526     9998 
   10357    10485    10754    11404    12162    12854    13626    14428 
   14877    14812    14453    13829    12719    11182     9544     7977 
    6419     4851     3364     1969      610     -646    -1659    -2370 
   -2752    -2824    -2803    -2932    -3056    -2867    -2508    -2218 
   -1656     -488     1036     2654     4442     6471     8499    10192 
   11530    12625    13336    13501    13207    12549    11523    10272 
    9053     7955     6956     6142     5638     5443     5432     5503 
    5625     5714     5674     5541     5386     5177     4897     4649 
    4457     4232     3951     3642     3235     2701     2137     1594 
    1046      546      264      313      679     1364     2396     3628 
    4833     5977     7160     8291     9072     9413     9555     9522 
    9030     8044     6885     5775     4745     3866     3229     2793 
    2498     2400     2569     2947     3419     3908     4330     4585 
    4634     4465     4036     3375     2620     1903     1329      982 
     832      768      800     1021     1409     1906     2596     3554 
    4664     5728     6671     7534     8332     8988     9397     9567 
    9583     9456     9197     8939     8789     8704     8611     8507 
    8361     8066     7595     7063     6516     5890     5200     4527 
    3873     3210     2609     2189     1946     1800     1760     1929 
    2357     2991     3770     4648     5560     6489     7480     8527 
    9535    10413    11144    11669    11866    11705    11302    10758 
   10091     9344     8618     7974     7403     6885     6453     6172 
    6103     6227     6407     6489     6434     6338     6257     6102 
    5780     5312     4781     4286     3836     3334     2760     2192 
    1594      888      194     -297     -549     -599     -467     -234 
      -2      214      463      764     1092     1433     1821     2316 
    2984     3865     4977     6353     7987     9755    11480    13080 
   14535    15781    16698    17258    17500    17408    16976    16295 
   15454    14489    13464    12465    11511    10538     9525     8588 
    7796     6991     6080     5219     4499     3861     3323     2947 
    2650     2320     1996     1806     1779     1819     1826     1772 
    1657     1498     1364     1343     1486     1784     2161     2505 
    2682     2563     2176     1702     1300     1008      839      815 
     900     1011     1129     1355     1744     2230     2774     3411 
    4105     4743     5312     5865     6380     6751     6943     7056 
    7187     7354     7593     7867     7970     7851     7697     7470 
    7014     6502     6214     6173     6228     6274     6389     6616 
    6843     7011     7118     7091     6876     6519     6122     5778 
    5464     5105     4718     4367     4021     3619     3172     2725 
    2276     1783     1204      526     -232    -1046    -1885    -2716 
   -3484    -4106    -4484    -4568    -4361    -3902    -3231    -2361 
   -1328     -199      985     2209     3415     4510     5414     6116 
    6643     7021     7277     7492     7750     8062     8398     8783 
    9256     9802    10332    10778    11145    11423    11531    11426 
   11176    10870    10573    10358    10288    10365    10536    10760 
   11032    11367    11767    12178    12515    12766    12977    13166 
   13311    13389    13413    13409    13369    13255    13057    12760 
   12330    11732    10989    10181     9389     8626     7878     7161 
    6523     6022     5697     5520     5417     5327     5200     4965 
    4548     3955     3279     2554     1728      805     -106     -935 
   -1694    -2357    -2862    -3368    -4048    -4689    -5082    -5339 
   -5516    -5467    -5107    -4495    -3763    -2982    -2145    -1273 
    -396      483     1383     2358     3476     4719     5979     7140 
    8114     8891     9572    10274    11024    11826    12691    13547 
   14227    14594    14655    14474    14056    13389    12513    11481 
   10339     9161     8052     7086     6210     5402     4830     4492 
    4064     3468     2947     2452     1748      924      278     -139 
    -479     -723     -669     -290      245      885     1669     2527 
    3327     4033     4677     5258     5799     6330     6766     6980 
    6943     6721     6404     6050     5749     5664     5864     6232 
    6636     7091     7655     8263     8814     9271     9603     9751 
    9670     9435     9180     8943     8688     8426     8183     7967 
    7793     7651     7501     7311     7063     6760     6417     6060 
    5776     5676     5760     5918     6066     6178     6192     6035 
