Origin Time       2025/01/13 21:19:00
Lat.              31.8
Long.             131.6
Depth. (km)       30
Mag.              6.9
Station Code      KMMH05
Station Lat.      32.9553
Station Long.     131.2207
Station Height(m) 593
Record Time       2025/01/13 21:19:54
Sampling Freq(Hz) 100Hz
Duration Time(s)  188
Dir.              2
Scale Factor      3923(gal)/8224838
Max. Acc. (gal)   9.786
Last Correction   2025/01/13 21:19:54
Memo.             
[...]
   40606    40633    40462    40034    39324    38287    37062    35819 
   34480    33168    32239    31677    31367    31392    31729    32328 
   33147    34009    34780    35460    36055    36536    36871    37049 
   37031    36737    36182    35490    34746    34075    33598    33339 
   33361    33705    34296    35054    35829    36432    36790    36952 
   37119    37411    37732    38097    38576    39074    39515    39862 
   39946    39590    38730    37366    35577    33486    31197    28919 
   26959    25443    24229    23143    22135    21208    20386    19730 
   19252    18951    18929    19380    20464    22253    24659    27426 
   30295    33045    35418    37176    38256    38809    39109    39334 
   39469    39460    39359    39259    39209    39183    39075    38778 
   38268    37605    36934    36374    35951    35694    35603    35664 
   35942    36555    37461    38360    38920    39087    39015    38913 
   38955    39055    39017    38793    38303    37507    36589    35757 
   35121    34632    34133    33674    33415    33339    33412    33690 
   34248    35124    36225    37338    38334    39258    40215    41181 
   41979    42534    42870    42955    42839    42635    42304    41782 
   41111    40304    39307    38074    36564    34828    32907    30780 
   28520    26293    24224    22343    20621    19013    17559    16339 
   15364    14642    14166    13799    13435    13135    12989    13070 
   13446    14135    15126    16320    17605    19005    20532    22106 
   23646    25083    26379    27558    28609    29427    29918    30090 
   29995    29743    29579    29731    30330    31471    32975    34520 
   36003    37396    38634    39667    40470    41099    41669    42236 
   42763    43237    43740    44347    44982    45422    45509    45233 
   44508    43258    41715    40221    38938    37972    37458    37449 
   37948    38886    40097    41351    42395    43214    44088    45049 
   45850    46475    46904    46974    46765    46334    45646    44797 
   43773    42457    40764    38634    36073    33145    30007    26856 
   23812    21022    18607    16650    15299    14594    14408    14659 
   15228    15876    16541    17351    18274    19275    20534    21973 
   23332    24629    25895    27041    27972    28533    28692    28578 
   28266    27799    27305    26890    26647    26721    27143    27876 
   28869    29903    30786    31433    31792    31997    32302    32767 
   33308    33926    34623    35316    35953    36509    36850    36795 
   36359    35730    35063    34333    33551    32911    32305    31534 
   30798    30156    29641    29560    29933    30605    31484    32431 
   33501    34800    36229    37678    39129    40524    41733    42703 
   43432    43864    43991    43941    43835    43686    43405    42835 
   41962    40973    40024    39195    38503    37912    37454    37076 
   36613    36076    35517    34896    34218    33524    32894    32400 
   31924    31251    30288    29137    27988    27022    26441    26327 
   26565    26940    27213    27253    27156    27044    26946    26959 
   27202    27653    28200    28779    29365    29871    30132    30042 
   29641    29038    28377    27832    27537    27525    27730    28026 
   28283    28436    28452    28302    27994    27530    26917    26226 
   25482    24667    23889    23268    22794    22441    22158    21895 
   21693    21474    21136    20961    21103    21366    21867    22715 
   23758    24965    26171    27222    28208    29149    30091    31175 
   32460    33936    35580    37300    38929    40362    41602    42654 
   43413    43762    43798    43583    43109    42658    42360    42057 
   41825    41612    41220    40709    40140    39492    38738    37864 
   36983    36236    35692    35298    34911    34420    33782    32991 
   32081    31187    30466    29988    29766    29748    29845    29963 
   29947    29682    29212    28599    27918    27321    26913    26701 
   26693    26925    27449    28301    29390    30535    31614    32575 
   33404    34160    34863    35455    36018    36749    37480    37993 
   38460    38827    38977    39108    39159    39019    38801    38535 
   38240    37953    37736    37689    37787    37868    37778    37478 
   36975    36265    35448    34678    34022    33480    33027    32649 
   32341    32081    31818    31583    31445    31405    31455    31608 
   31773    31853    31920    32117    32509    33002    33434    33758 
   34005    34240    34555    34944    35262    35384    35293    35058 
   34800    34604    34497    34489    34562    34677    34798    34823 
   34624    34149    33407    32475    31515    30627    29829    29130 
   28580    28236    28040    27926    27909    27949    28004    28161 
   28417    28601    28641    28688    28876    29188    29511    29748 
   30018    30492    31112    31765    32422    33069    33698    34238 
   34560    34561    34258    33829    33394    32927    32452    32139 
   32030    31947    31957    32208    32551    32937    33339    33628 
   33898    34271    34750    35224    35492    35507    35360    35135 
   34928    34824    34857    35004    35216    35455    35716    35926 
   35969    35881    35788    35791    35966    36366    36938    37546 
   38086    38510    38765    38840    38759    38533    38184    37798 
   37470    37289    37293    37422    37581    37771    37990    38165 
   38225    38163    38074    38051    38060    38070    38101    38030 
   37673    37099    36413    35479    34477    33754    33131    32520 
   32077    31676    31185    30523    29619    28617    27630    26643 
   25682    24841    24187    23718    23422    23272    23213    23201 
   23215    23301    23499    23761    24050    24390    24804    25340 
   26032    26923    27985    29068    30095    31060    31811    32103 
   31814    31005    29864    28657    27595    26781    26299    26183 
   26380    26786    27252    27706    28062    28231    28337    28471 
   28541    28653    29008    29593    30354    31355    32607    34024 
   35398    36455    37042    37106    36666    35911    35125    34566 
   34380    34512    34820    35230    35641    35946    36166    36348 
   36462    36504    36498    36378    36225    36374    36836    37477 
   38385    39357    40124    40652    40792    40502    39864    38940 
   37940    37052    36351    35953    35934    36232    36671    36996 
   37027    36742    36142    35248    34210    33214    32340    31563 
   30865    30258    29759    29373    29016    28517    27855    27271 
   26877    26573    26376    26279    26140    25975    25830    25659 
   25475    25304    25151    25062    25054    25037    24875    24579 
   24233    23834    23403    23025    22751    22558    22412    22404 
   22639    23103    23764    24553    25357    26175    27095    28101 
   29018    29639    29948    30057    30013    29875    29789    29886 
   30196    30596    30913    31094    31186    31109    30646    30001 
   29598    29430    29581    30203    31090    32304    33953    35816 
   37721    39506    41022    42253    43272    44131    44752    45080 
   45144    45037    44892    44743    44517    44154    43646    43052 
   42480    42041    41828    41852    42075    42498    43143    43973 
   44853    45616    46186    46568    46757    46731    46429    45794 
   44834    43600    42149    40555    38927    37413    36101    34979 
   34006    33073    32015    30770    29444    28194    27118    26285 
   25752    25551    25697    26195    27029    28073    29134    30117 
   30909    31391    31554    31414    31077    30761    30549    30420 
   30408    30518    30688    30851    30954    31002    31021    30909 
   30569    30068    29539    29074    28692    28391    28244    28305 
   28517    28760    28902    28819    28482    27973    27383    26820 
   26478    26531    27017    27778    28606    29538    30491    31137 
   31448    31461    31205    30983    30932    30996    31309    32020 
   33172    34669    36325    38036    39708    41172    42269    42928 
   43227    43348    43420    43474    43559    43687    43744    43541 
   42940    41856    40274    38317    36112    33731    31303    28983 
   26869    25076    23764    23016    22752    22806    23056    23356 
   23495    23430    23290    23193    23220    23379    23603    23878 
   24248    24729    25289    25894    26535    27183    27781    28336 
   28902    29493    30153    30948    31860    32775    33570    34138 
   34454    34582    34555    34366    34053    33650    33075    32282 
   31348    30310    29197    28127    27112    26084    25095    24233 
   23485    22906    22682    22935    23639    24742    26167    27770 
   29475    31332    33411    35700    38086    40483    42882    45171 
   47193    48894    50224    51048    51259    50888    50056    48911 
   47596    46303    45284    44610    44192    43968    43767    43322 
   42553    41519    40294    39021    37889    37065    36609    36417 
   36390    36428    36336    35970    35270    34252    33007    31652 
   30331    29123    27969    26802    25636    24563    23723    23149 
   22789    22628    22655    22824    23049    23210    23426    23885 
   24333    24614    24784    24640    24223    23679    22964    22318 
   21840    21400    21030    20699    20386    20189    20094    20032 
   20051    20252    20737    21573    22669    23915    25273    26627 
   27895    29103    30260    31375    32487    33520    34329    34813 
   34790    34126    32956    31522    30006    28525    27153    25988 
   25139    24687    24680    25104    25901    26997    28256    29552 
   30817    31973    32979    33944    34992    36115    37300    38560 
   39748    40622    41026    40926    40409    39598    38668    37858 
   37319    37116    37268    37700    38269    38832    39394    39993 
   40547    41084    41705    42352    42989    43609    44053    44186 
   43995    43413    42404    41030    39403    37669    35893    34230 
   32995    32383    32405    32886    33578    34350    35090    35721 
   36296    36871    37527    38383    39495    40842    42299    43673 
   44832    45651    45972    45706    44898    43727    42360    40807 
   39186    37739    36483    35337    34338    33493    32733    32084 
   31606    31186    30692    30076    29328    28483    27510    26438 
   25478    24771    24378    24329    24475    24636    24706    24598 
   24266    23777    23253    22789    22468    22356    22430    22647 
   23048    23722    24703    25907    27217    28512    29648    30535 
   31197    31737    32239    32751    33399    34292    35403    36657 
   37971    39175    40058    40444    40301    39730    38815    37615 
   36381    35414    34723    34260    34033    33774    33216    32405 
   31407    30276    29097    27946    26838    25753    24834    24306 
   24205    24453    24950    25597    26338    27054    27648    28139 
   28578    29108    29921    31068    32582    34460    36501    38457 
   40200    41644    42676    43298    43702    44028    44317    44635 
   44965    45215    45395    45539    45584    45426    44971    44089 
   42731    41058    39289    37507    35745    34071    32491    30973 
   29511    28084    26725    25510    24479    23662    23044    22589 
   22380    22478    22747    23244    24115    25096    26013    26896 
   27673    28410    29124    29755    30383    30997    31456    31602 
   31299    30546    29471    28328    27398    26859    26743    26929 
   27237    27572    27893    28146    28302    28439    28701    29173 
   29844    30715    31810    33064    34283    35299    36128    36780 
   37231    37611    38026    38454    38898    39326    39669    39942 
   40169    40339    40431    40424    40296    40050    39714    39259 
   38705    38196    37785    37426    37184    37052    36825    36483 
   36104    35606    35023    34454    33949    33558    33245    33043 
   33006    33056    33130    33129    32946    32570    31985    31218 
   30380    29629    29084    28748    28552    28382    28155    27909 
   27669    27333    26909    26680    26775    26968    27197    27511 
   27714    27754    27710    27600    27564    27629    27712    27761 
   27731    27642    27442    27083    26585    25961    25336    24865 
   24594    24520    24628    24948    25512    26320    27386    28655 
   30090    31683    33286    34796    36219    37428    38326    38946 
   39317    39528    39671    39764    39868    40058    40289    40502 
   40694    40849    40976    41121    41239    41291    41332    41389 
   41438    41455    41392    41265    41106    40845    40420    39822 
   39066    38207    37322    36445    35526    34614    33863    33126 
   32182    31183    30181    29104    28151    27448    27031    27013 
   27346    27895    28516    29047    29396    29497    29305    28864 
   28282    27652    27039    26534    26230    26110    26034    25933 
   25820    25652    25397    25010    24425    23704    23028    22577 
   22428    22542    22874    23400    24025    24641    25147    25434 
   25444    25161    24625    23986    23404    23013    22952    23311 
   24074    25115    26265    27434    28602    29682    30681    31699 
   32724    33755    34892    36209    37737    39442    41216    42950 
   44583    46117    47583    48961    50186    51193    51956    52490 
   52807    52947    52972    52949    52964    53050    53149    53158 
   52940    52397    51548    50406    48949    47197    45235    43170 
   41091    39089    37189    35382    33875    32879    32167    31534 
   31016    30402    29579    28752    27870    26858    25776    24617 
   23458    22378    21361    20428    19531    18563    17577    16688 
   15948    15426    15233    15396    15840    16503    17388    18453 
   19580    20638    21540    22315    23041    23753    24567    25532 
   26523    27502    28382    28929    29107    28999    28629    28101 
   27523    27001    26659    26505    26500    26640    26900    27207 
   27506    27822    28197    28590    28988    29380    29687    29970 
   30372    30927    31583    32233    32764    33145    33366    33428 
   33345    33147    32957    32958    33270    33891    34763    35839 
   37015    38128    39071    39829    40463    41087    41713    42275 
   42753    43110    43306    43351    43286    43156    42943    42596 
   42161    41692    41195    40752    40425    40224    40180    40271 
   40441    40645    40861    41069    41177    41134    41013    40832 
   40535    40131    39725    39395    39150    38956    38769    38570 
   38396    38206    37901    37442    36799    36018    35226    34508 
   33895    33381    32960    32660    32481    32358    32227    32082 
   31861    31452    30908    30296    29590    28922    28410    27854 
   27229    26730    26250    25760    25326    24879    24526    24306 
   24098    23890    23661    23436    23263    23099    22935    22778 
   22647    22581    22588    22626    22651    22630    22619    22728 
   23010    23542    24382    25446    26657    27927    29137    30273 
   31356    32363    33308    34213    35151    36159    37149    38074 
   38925    39636    40189    40608    40882    41025    41014    40807 
   40435    39903    39231    38510    37814    37185    36612    36067 
   35544    34951    34155    33141    31996    30817    29706    28702 
   27788    26954    26176    25479    24919    24489    24173    23981 
   23870    23791    23780    23905    24194    24669    25305    26009 
   26716    27463    28289    29188    30105    30967    31765    32495 
   33115    33662    34227    34828    35473    36169    36838    37400 
   37818    38092    38272    38402    38512    38664    38893    39210 
   39598    40008    40406    40745    40921    40932    40890    40703 
   40333    39950    39492    38928    38457    38094    37797    37563 
   37327    37066    36819    36597    36363    36124    35932    35806 
   35702    35536    35326    35193    35148    35159    35220    35320 
   35475    35662    35797    35793    35586    35179    34682    34195 
   33732    33295    32864    32401    31887    31317    30701    30056 
   29366    28652    27966    27305    26639    26003    25435    24921 
   24466    24089    23785    23534    23305    23109    22998    23032 
   23220    23552    24078    24821    25720    26720    27734    28691 
   29610    30534    31437    32232    32900    33529    34132    34626 
   35001    35291    35473    35530    35505    35437    35310    35077 
   34767    34477    34227    34024    33859    33666    33400    33080 
   32740    32428    32194    32047    31965    31990    32192    32503 
   32806    33062    33268    33463    33747    34115    34500    34843 
   35095    35316    35602    35926    36208    36420    36553    36659 
   36826    37068    37307    37490    37621    37697    37690    37605 
   37513    37465    37436    37377    37189    36809    36252    35557 
   34709    33737    32783    31938    31180    30504    29860    29242 
   28718    28248    27761    27286    26912    26707    26671    26825 
   27140    27534    28043    28634    29195    29718    30198    30603 
   30954    31232    31423    31558    31665    31739    31788    31858 
   31945    31969    31920    31850    31753    31646    31611    31656 
   31774    32031    32459    33003    33546    34026    34452    34750 
   34823    34623    34150    33536    32985    32578    32306    32159 
   32104    32113    32128    32104    32089    32093    32051    31954 
   31823    31699    31658    31684    31718    31787    31949    32236 
   32626    33050    33447    33783    34071    34295    34366    34223 
   33897    33442    32880    32246    31619    31124    30869    30797 
   30762    30757    30835    30978    31180    31430    31669    31868 
   32059    32289    32580    32899    33185    33457    33754    34038 
   34268    34402    34414    34339    34219    34056    33878    33743 
   33675    33646    33608    33515    33376    33223    33035    32809 
   32568    32298    31974    31598    31113    30447    29717    29093 
   28536    28012    27645    27415    27248    27178    27175    27170 
   27148    27114    27135    27315    27703    28275    29004    29903 
   30924    31947    32938    33940    34906    35762    36522    37197 
   37778    38318    38838    39309    39727    40041    40247    40402 
   40460    40354    40069    39636    39117    38535    37890    37212 
   36576    36081    35797    35676    35592    35495    35421    35328 
   35095    34720    34391    34256    34245    34307    34414    34429 
   34393    34373    34248    34038    33844    33652    33475    33334 
   33162    32894    32575    32304    32128    32085    32147    32223 
   32267    32277    32236    32147    32015    31793    31446    30978 
   30422    29872    29435    29158    29029    28991    29008    29064 
   29103    29072    28972    28848    28736    28644    28553    28470 
   28482    28672    29023    29492    30063    30704    31342    31895 
   32333    32670    32911    33129    33374    33602    33848    34176 
   34558    35020    35544    36073    36630    37146    37494    37674 
