Origin Time       2025/01/13 21:19:00
Lat.              31.8
Long.             131.6
Depth. (km)       30
Mag.              6.9
Station Code      KMMH14
Station Lat.      32.6345
Station Long.     130.7521
Station Height(m) 70
Record Time       2025/01/13 21:19:52
Sampling Freq(Hz) 100Hz
Duration Time(s)  197
Dir.              5
Scale Factor      7845(gal)/8223790
Max. Acc. (gal)   29.160
Last Correction   2025/01/13 21:19:52
Memo.             
[...]
   47429    48813    50761    52864    54673    55804    55892    54710 
   52334    49102    45501    42056    39125    36846    35267    34420 
   34267    34661    35379    36082    36460    36497    36308    35864 
   35241    34827    34974    35658    36587    37458    37976    37908 
   37282    36371    35424    34612    34237    34611    35641    36906 
   38082    39009    39538    39627    39447    39168    38826    38350 
   37681    36850    35981    35220    34696    34520    34823    35719 
   37203    39081    41080    42971    44562    45682    46283    46430 
   46176    45558    44725    44015    43849    44394    45532    47132 
   49084    51128    52878    54006    54384    54068    53208    52078 
   51059    50427    50337    50966    52386    54356    56404    58083 
   59169    59620    59418    58538    57060    55227    53370    51827 
   50834    50414    50350    50292    49950    49179    47999    46689 
   45675    45184    45270    45939    47085    48465    49735    50506 
   50418    49269    47137    44280    40954    37470    34244    31575 
   29524    28108    27423    27588    28647    30577    33319    36549 
   39629    42075    43710    44374    43939    42539    40491    38051 
   35523    33346    31861    31220    31430    32355    33679    35033 
   36263    37397    38392    39168    39684    39969    40220    40655 
   41287    41943    42471    42716    42414    41384    39726    37671 
   35491    33470    31885    31137    31565    33026    35079    37351 
   39494    41181    42298    42911    43087    42909    42526    42109 
   41945    42418    43614    45268    47110    48965    50631    52038 
   53275    54326    55186    56033    56887    57550    57959    58153 
   58086    57707    57037    56151    55156    54118    53040    51925 
   50880    50113    49835    50178    51115    52342    53308    53550 
   53022    52003    50793    49601    48525    47569    46757    46147 
   45679    45207    44675    44109    43524    43029    42846    43100 
   43744    44552    45265    45820    46352    46985    47731    48466 
   48961    49049    48774    48253    47538    46639    45546    44284 
   42979    41720    40454    39143    37785    36281    34510    32489 
   30285    27931    25463    22918    20364    18030    16214    15133 
   14943    15626    16912    18571    20591    22912    25378    27869 
   30296    32606    34801    36875    38865    40806    42599    44131 
   45414    46473    47301    47900    48278    48547    48982    49744 
   50795    52003    53158    54025    54383    54176    53642    53013 
   52486    52269    52481    53223    54507    56197    58098    59915 
   61402    62498    63282    63895    64397    64729    64766    64382 
   63583    62517    61325    60091    58972    58106    57480    57150 
   57335    58078    59162    60413    61636    62461    62621    62071 
   60779    58702    55941    52713    49214    45585    41966    38449 
   35031    31799    28989    26708    24869    23402    22262    21303 
   20331    19318    18411    17718    17315    17316    17739    18492 
   19533    20871    22500    24374    26433    28667    31039    33482 
   35991    38458    40590    42176    43135    43380    42947    42028 
   40821    39475    38152    37127    36670    36887    37790    39351 
   41500    44099    46904    49667    52205    54402    56180    57348 
   57690    57215    56079    54457    52618    50911    49674    49165 
   49438    50291    51367    52300    52801    52780    52384    51796 
   51098    50367    49709    49117    48458    47636    46566    45142 
   43320    41180    38985    37060    35553    34472    33732    33123 
   32462    31797    31405    31542    32319    33744    35749    38186 
   40837    43339    45319    46637    47359    47568    47362    46897 
   46230    45353    44401    43600    43097    42938    43132    43637 
   44331    45063    45702    46232    46732    47267    47860    48524 
   49233    49904    50410    50637    50499    49983    49196    48317 
   47553    46998    46535    45994    45304    44528    43821    43278 
   42912    42724    42727    42888    43154    43517    44059    44856 
   45893    47162    48709    50464    52230    53751    54743    54957 
   54302    52839    50704    48123    45318    42433    39658    37260 
   35384    34078    33461    33582    34245    35128    36000    36733 
   37169    37214    36945    36548    36243    36171    36309    36598 
   37027    37571    38157    38712    39226    39757    40375    41058 
   41689    42144    42333    42238    41935    41503    41087    40919 
   41121    41640    42368    43213    44118    45091    46165    47277 
   48298    49167    49889    50500    51003    51389    51722    52027 
   52258    52455    52699    53017    53435    53970    54503    54823 
   54729    54032    52612    50490    47827    44878    41882    39064 
   36610    34538    32742    31171    29872    28939    28444    28439 
   28954    29959    31288    32705    34024    35176    36175    37046 
   37817    38581    39447    40381    41299    42236    43301    44525 
   45866    47294    48740    50051    51100    51844    52327    52659 
   52910    53104    53300    53545    53835    54141    54450    54702 
   54727    54373    53603    52417    50832    48956    47020    45206 
   43606    42294    41337    40794    40655    40818    41192    41708 
   42256    42715    43005    43050    42844    42493    42132    41941 
   42122    42738    43708    44907    46170    47224    47794    47776 
   47196    46122    44702    43143    41644    40378    39484    39079 
   39141    39483    39896    40203    40221    39895    39371    38882 
   38572    38438    38396    38380    38368    38357    38388    38529 
   38830    39307    39927    40598    41180    41482    41373    40822 
   39858    38632    37451    36578    36130    36124    36498    37154 
   37998    38916    39849    40836    41905    43027    44208    45441 
   46627    47595    48216    48494    48513    48363    48115    47817 
   47479    47075    46630    46291    46259    46674    47548    48782 
   50241    51727    53009    53883    54226    54044    53412    52434 
   51295    50236    49370    48675    48123    47698    47306    46886 
   46462    46067    45777    45752    46140    47004    48328    50009 
   51846    53542    54756    55236    54838    53553    51528    48991 
   46255    43664    41509    39978    39048    38453    37890    37153 
   36139    34866    33455    32159    31279    30940    31132    31851 
   33052    34607    36359    38125    39712    41048    42222    43371 
   44558    45793    47059    48311    49437    50315    50907    51189 
   51113    50723    50102    49307    48473    47776    47289    46966 
   46731    46516    46255    45832    45192    44367    43379    42252 
   41106    40117    39410    39078    39133    39438    39872    40404 
   41034    41762    42583    43494    44460    45360    46062    46503 
   46619    46327    45619    44606    43524    42666    42211    42187 
   42568    43227    43906    44377    44517    44255    43524    42299 
   40736    39151    37810    36857    36387    36363    36587    36873 
   37111    37211    37075    36630    35850    34792    33658    32721 
   32217    32335    33124    34439    36054    37790    39433    40745 
   41663    42272    42684    43020    43436    44103    45107    46392 
   47865    49419    50874    52057    52847    53192    53140    52778 
   52222    51669    51270    50958    50612    50190    49688    49131 
   48562    48054    47736    47671    47827    48200    48736    49252 
   49601    49698    49445    48847    48022    47013    45825    44579 
   43447    42523    41894    41669    41848    42279    42828    43479 
   44231    45033    45895    46885    47945    48968    49885    50579 
   50926    50873    50402    49590    48633    47725    46988    46448 
   46044    45705    45373    44929    44281    43501    42695    41864 
   40938    39887    38724    37440    36053    34666    33389    32265 
   31352    30726    30380    30221    30157    30121    30052    29943 
   29816    29731    29852    30396    31480    33058    34943    36900 
   38740    40362    41724    42846    43784    44559    45142    45535 
   45766    45895    46048    46377    46959    47750    48644    49573 
   50498    51372    52166    52884    53558    54217    54858    55447 
   55971    56471    56941    57292    57441    57335    56918    56209 
   55306    54292    53194    52050    50932    49869    48872    48001 
   47322    46855    46543    46282    45962    45528    45000    44487 
   44145    44109    44454    45169    46159    47254    48244    48926 
   49104    48627    47482    45802    43802    41743    39881    38398 
   37389    36848    36660    36640    36605    36487    36293    36004 
   35595    35086    34527    33944    33374    32896    32567    32393 
   32417    32738    33415    34402    35586    36801    37818    38443 
   38661    38601    38425    38304    38442    39020    40176    41914 
   44011    46179    48231    50072    51694    53131    54345    55236 
   55723    55742    55242    54240    52840    51170    49365    47551 
   45837    44308    43055    42167    41667    41521    41678    42124 
   42908    43976    45115    46143    46924    47332    47316    46940 
   46279    45380    44335    43249    42192    41283    40653    40311 
   40116    39928    39663    39233    38605    37883    37193    36602 
   36146    35816    35573    35429    35464    35749    36261    36919 
   37675    38537    39553    40749    42095    43552    45119    46759 
   48338    49731    50861    51637    52060    52239    52250    52142 
   51919    51506    50838    49900    48741    47551    46560    45900 
   45617    45762    46348    47270    48352    49424    50290    50777 
   50842    50506    49819    48915    47954    47028    46186    45434 
   44721    44008    43301    42570    41692    40568    39221    37778 
   36451    35469    34960    34942    35332    35977    36713    37404 
   37909    38076    37867    37413    36919    36580    36566    36980 
   37859    39163    40783    42627    44586    46464    48081    49318 
   50059    50211    49778    48917    47893    46892    46002    45328 
   44991    45048    45438    46025    46704    47380    47945    48348 
   48628    48805    48806    48517    47868    46855    45600    44292 
   43100    42132    41458    41129    41123    41297    41539    41809 
   42045    42229    42395    42553    42741    43009    43347    43727 
   44155    44639    45215    45985    47005    48250    49688    51267 
   52834    54236    55418    56358    57037    57484    57751    57901 
   57927    57711    57113    56030    54450    52502    50371    48239 
   46309    44695    43382    42268    41193    40009    38701    37363 
   36096    34982    34165    33835    34084    34869    36007    37197 
   38124    38554    38375    37628    36493    35156    33786    32547 
   31534    30786    30377    30388    30844    31710    32921    34420 
   36120    37886    39622    41241    42661    43846    44770    45416 
   45847    46144    46364    46561    46769    46966    47132    47259 
   47317    47304    47281    47305    47353    47339    47117    46564 
   45648    44435    43089    41816    40761    40100    39995    40471 
   41481    42863    44348    45682    46614    46944    46724    46163 
   45404    44575    43799    43102    42527    42151    41978    42028 
   42350    42921    43664    44490    45283    45906    46225    46072 
   45335    44050    42342    40408    38514    36844    35514    34686 
   34423    34595    35028    35590    36131    36520    36737    36788 
   36633    36317    36011    35878    36008    36398    37033    37862 
   38730    39444    39906    40138    40284    40529    41006    41755 
   42790    44099    45609    47252    48952    50558    51934    53077 
   54062    54992    56023    57298    58897    60791    62819    64820 
   66615    67937    68582    68516    67790    66455    64575    62345 
   60022    57767    55679    53827    52280    51121    50382    50014 
   50001    50325    50876    51521    52258    53087    53890    54595 
   55190    55594    55688    55394    54639    53381    51652    49491 
   46950    44201    41473    38897    36513    34317    32301    30480 
   28879    27518    26428    25608    25016    24606    24304    24062 
   23911    23834    23778    23754    23784    23893    24088    24305 
   24494    24669    24841    25000    25151    25299    25412    25456 
   25384    25074    24478    23696    22856    22026    21319    20869 
   20796    21304    22562    24611    27542    31332    35700    40398 
   45179    49736    53778    57021    59394    60920    61581    61551 
   61105    60473    59837    59356    59171    59304    59729    60447 
   61371    62307    63085    63590    63734    63450    62714    61581 
   60214    58811    57543    56563    55979    55790    55946    56436 
   57257    58351    59572    60705    61549    61960    61857    61300 
   60461    59520    58661    57971    57435    57067    56871    56740 
   56550    56238    55772    55084    54095    52779    51105    49041 
   46639    44003    41245    38473    35733    33023    30381    27940 
   25856    24143    22702    21466    20362    19332    18339    17352 
   16370    15387    14435    13675    13266    13240    13587    14272 
   15280    16636    18254    19951    21566    22941    23946    24614 
   25061    25357    25624    25988    26468    27064    27841    28792 
   29918    31287    32925    34807    36976    39475    42210    44986 
   47644    50079    52191    53941    55391    56565    57415    57959 
   58255    58367    58383    58426    58652    59161    59903    60806 
   61835    62900    63906    64901    65959    67080    68310    69665 
   71022    72218    73134    73719    73963    73886    73515    72798 
   71710    70344    68809    67181    65556    64030    62626    61344 
   60193    59174    58283    57485    56694    55834    54834    53593 
   51981    49893    47343    44455    41396    38348    35451    32791 
   30439    28402    26651    25195    24067    23274    22738    22318 
   21919    21483    20964    20359    19705    19066    18562    18324 
   18396    18793    19537    20586    21843    23203    24536    25720 
   26685    27407    27928    28359    28834    29465    30244    31093 
   31908    32570    33091    33523    33895    34285    34708    35149 
   35619    36113    36693    37411    38294    39395    40743    42333 
   44186    46315    48659    51124    53627    56020    58178    60034 
   61542    62703    63535    64044    64331    64520    64651    64773 
   64879    64935    65021    65192    65395    65593    65747    65794 
   65709    65449    64922    64031    62731    61052    59094    56934 
   54631    52312    50078    47904    45742    43591    41480    39502 
   37766    36328    35225    34489    34103    34025    34217    34622 
   35175    35834    36580    37381    38153    38807    39305    39637 
   39803    39876    39970    40142    40360    40582    40824    41134 
   41528    41963    42353    42611    42677    42545    42210    41648 
   40898    40001    38975    37889    36860    35972    35305    34960 
   34969    35267    35799    36548    37493    38595    39819    41111 
   42388    43586    44658    45543    46188    46607    46872    47073 
   47304    47605    47949    48269    48525    48717    48833    48847 
   48774    48621    48367    48006    47572    47131    46746    46481 
   46356    46348    46402    46419    46275    45882    45188    44177 
   42909    41513    40140    38885    37777    36850    36163    35719 
   35506    35556    35845    36282    36796    37300    37686    37891 
   37878    37644    37266    36856    36508    36292    36261    36420 
   36676    36909    37106    37292    37428    37527    37681    37932 
   38263    38669    39144    39640    40112    40563    41003    41422 
   41845    42330    42965    43876    45115    46610    48281    50068 
   51883    53674    55412    57015    58418    59548    60289    60613 
   60601    60307    59753    59007    58162    57261    56303    55262 
   54147    52987    51786    50549    49339    48243    47339    46602 
   45967    45442    45017    44680    44471    44404    44478    44670 
   44886    45021    44995    44740    44227    43518    42770    42149 
   41717    41404    41087    40618    39870    38819    37523    36036 
   34412    32765    31224    29866    28786    28131    28043    28561 
   29604    31050    32745    34445    35935    37119    37939    38400 
   38583    38550    38385    38206    38065    38014    38136    38410 
   38740    39110    39579    40201    40968    41798    42623    43434 
   44247    45052    45796    46460    47005    47379    47611    47781 
   47939    48157    48512    49076    49896    50923    52041    53167 
   54220    55082    55706    56127    56390    56523    56538    56430 
   56184    55794    55278    54685    54075    53447    52778    52068 
   51314    50492    49527    48332    46880    45243    43572    41959 
   40463    39202    38252    37628    37331    37235    37197    37170 
   37089    36903    36621    36232    35765    35290    34839    34442 
   34159    34083    34299    34805    35564    36516    37538    38495 
   39320    40018    40645    41278    41978    42757    43618    44563 
   45605    46739    47910    49088    50303    51556    52790    53924 
   54922    55787    56490    56932    57055    56868    56342    55471 
   54386    53256    52213    51366    50731    50186    49563    48801 
   47914    46873    45634    44221    42703    41176    39769    38584 
   37656    36984    36532    36231    36003    35788    35576    35433 
   35434    35615    36011    36606    37296    37991    38654    39272 
   39815    40228    40529    40761    40832    40594    40031    39217 
   38238    37197    36202    35328    34572    33907    33362    32972 
   32717    32557    32458    32405    32436    32628    33031    33627 
   34362    35149    35854    36379    36710    36899    37065    37359 
   37906    38792    40072    41742    43726    45920    48201    50461 
   52656    54788    56825    58672    60220    61400    62162    62461 
   62307    61767    60947    59917    58733    57451    56138    54851 
   53644    52532    51506    50593    49820    49157    48608    48199 
   47916    47757    47741    47881    48172    48516    48736    48710 
   48374    47659    46592    45335    44073    42904    41823    40837 
   40019    39424    39108    39131    39533    40325    41447    42741 
   44032    45153    45914    46214    46089    45631    44973    44328 
   43889    43704    43750    44032    44479    44979    45457    45760 
   45728    45328    44563    43443    42029    40358    38492    36570 
   34701    32981    31483    30187    29049    28101    27471    27265 
   27507    28179    29246    30631    32279    34138    36123    38148 
   40111    41895    43453    44799    45956    46944    47776    48455 
   48984    49370    49603    49653    49522    49204    48655    47889 
