Origin Time       2025/01/13 21:19:00
Lat.              31.8
Long.             131.6
Depth. (km)       30
Mag.              6.9
Station Code      KMMH08
Station Lat.      32.6501
Station Long.     131.0251
Station Height(m) 347
Record Time       2025/01/13 21:19:50
Sampling Freq(Hz) 100Hz
Duration Time(s)  183
Dir.              1
Scale Factor      3923(gal)/8224838
Max. Acc. (gal)   5.679
Last Correction   2025/01/13 21:19:50
Memo.             
[...]
  -19415   -19242   -19288   -19441   -19654   -19873   -20011   -20020 
  -19893   -19618   -19163   -18503   -17593   -16376   -14885   -13336 
  -12066   -11295   -10974   -10849   -10689   -10493   -10490   -10876 
  -11641   -12625   -13576   -14215   -14389   -14188   -13891   -13770 
  -13882   -14127   -14424   -14624   -14516   -14095   -13617   -13305 
  -13242   -13498   -14134   -15036   -15994   -16927   -17888   -18997 
  -20302   -21639   -22720   -23338   -23452   -23201   -22781   -22241 
  -21535   -20711   -19923   -19260   -18744   -18407   -18277   -18292 
  -18333   -18381   -18512   -18697   -18806   -18779   -18666   -18528 
  -18393   -18270   -18169   -18112   -18165   -18396   -18782   -19192 
  -19515   -19722   -19836   -19954   -20152   -20353   -20457   -20534 
  -20688   -20889   -21010   -20997   -20992   -21138   -21389   -21714 
  -22142   -22648   -23224   -23828   -24381   -24880   -25412   -26073 
  -26920   -27872   -28713   -29214   -29292   -29042   -28602   -28009 
  -27216   -26241   -25168   -24050   -22936   -21892   -20960   -20142 
  -19421   -18805   -18373   -18203   -18312   -18694   -19264   -19840 
  -20255   -20441   -20430   -20259   -19911   -19422   -18943   -18634 
  -18555   -18652   -18783   -18797   -18628   -18304   -17901   -17436 
  -16853   -16047   -14976   -13745   -12602   -11792   -11356   -11111 
  -10855   -10588   -10532   -10886   -11524   -12143   -12633   -13080 
  -13585   -14180   -14800   -15369   -15930   -16533   -17077   -17359 
  -17253   -16758   -15971   -15080   -14280   -13643   -13205   -13135 
  -13589   -14528   -15773   -17139   -18496   -19788   -21024   -22171 
  -23070   -23575   -23697   -23585   -23406   -23215   -22935   -22500 
  -21998   -21540   -21135   -20731   -20329   -19944   -19580   -19300 
  -19192   -19257   -19440   -19730   -20137   -20603   -21003   -21216 
  -21204   -21030   -20842   -20763   -20775   -20796   -20835   -20946 
  -21070   -21015   -20661   -20094   -19399   -18577   -17709   -16939 
  -16379   -16147   -16263   -16538   -16777   -16941   -17055   -17081 
  -16947   -16618   -16147   -15711   -15472   -15411   -15427   -15471 
  -15520   -15537   -15502   -15406   -15219   -14926   -14526   -14019 
  -13433   -12827   -12322   -12094   -12280   -12897   -13844   -14945 
  -15986   -16792   -17288   -17506   -17570   -17601   -17637   -17656 
  -17682   -17778   -17918   -17972   -17882   -17761   -17707   -17635 
  -17417   -17061   -16698   -16436   -16276   -16204   -16271   -16599 
  -17261   -18199   -19263   -20295   -21159   -21737   -21909   -21655 
  -21109   -20456   -19812   -19268   -18891   -18696   -18638   -18689 
  -18859   -19174   -19674   -20370   -21184   -22018   -22797   -23448 
  -23947   -24327   -24636   -24922   -25147   -25149   -24852   -24405 
  -24000   -23647   -23228   -22716   -22238   -21917   -21759   -21714 
  -21744   -21880   -22189   -22604   -22931   -23128   -23337   -23661 
  -24054   -24393   -24561   -24538   -24393   -24185   -23870   -23380 
  -22692   -21825   -20829   -19800   -18851   -18026   -17350   -16860 
  -16519   -16186   -15784   -15380   -15029   -14716   -14442   -14168 
  -13861   -13664   -13699   -13895   -14185   -14617   -15223   -15958 
  -16704   -17350   -17853   -18233   -18547   -18817   -18960   -18921 
  -18754   -18538   -18377   -18404   -18677   -19128   -19620   -20023 
  -20263   -20336   -20218   -19847   -19215   -18397   -17477   -16540 
  -15715   -15094   -14709   -14557   -14528   -14449   -14253   -14002 
  -13801   -13718   -13732   -13822   -14104   -14731   -15660   -16672 
  -17571   -18299   -18921   -19484   -19954   -20321   -20673   -21105 
  -21613   -22049   -22264   -22253   -22111   -21905   -21662   -21393 
  -21118   -20877   -20680   -20502   -20316   -20098   -19867   -19689 
  -19619   -19664   -19770   -19876   -19973   -20088   -20212   -20320 
  -20424   -20584   -20848   -21219   -21676   -22204   -22781   -23359 
  -23862   -24175   -24183   -23870   -23346   -22708   -21967   -21190 
  -20468   -19818   -19246   -18804   -18538   -18474   -18551   -18619 
  -18565   -18428   -18370   -18499   -18760   -19059   -19356   -19669 
  -20019   -20356   -20582   -20642   -20557   -20324   -19905   -19305 
  -18566   -17730   -16843   -15996   -15277   -14774   -14558   -14651 
  -14983   -15422   -15820   -16110   -16356   -16690   -17199   -17860 
  -18535   -19051   -19326   -19414   -19449   -19534   -19661   -19741 
  -19708   -19552   -19278   -18874   -18389   -17968   -17720   -17664 
  -17790   -18084   -18503   -18936   -19273   -19496   -19674   -19880 
  -20108   -20287   -20359   -20348   -20324   -20335   -20410   -20515 
  -20542   -20398   -20021   -19388   -18634   -17992   -17523   -17086 
  -16603   -16167   -15947   -16062   -16459   -16939   -17378   -17830 
  -18346   -18812   -19064   -19026   -18723   -18273   -17799   -17359 
  -16919   -16433   -15927   -15461   -15071   -14774   -14571   -14486 
  -14557   -14767   -15088   -15535   -16065   -16576   -16992   -17250 
  -17344   -17406   -17620   -18080   -18748   -19468   -20081   -20522 
  -20841   -21135   -21427   -21637   -21713   -21683   -21625   -21602 
  -21663   -21820   -22027   -22203   -22289   -22299   -22243   -22094 
  -21822   -21427   -20945   -20460   -20046   -19755   -19618   -19579 
  -19529   -19438   -19309   -19017   -18416   -17496   -16380   -15234 
  -14193   -13311   -12588   -12048   -11713   -11562   -11554   -11680 
  -11940   -12325   -12799   -13297   -13768   -14219   -14710   -15253 
  -15796   -16267   -16583   -16721   -16776   -16891   -17142   -17533 
  -17996   -18434   -18802   -19099   -19282   -19282   -19051   -18605 
  -18060   -17590   -17300   -17234   -17404   -17740   -18123   -18504 
  -18904   -19338   -19797   -20277   -20796   -21382   -22038   -22700 
  -23241   -23556   -23608   -23446   -23160   -22871   -22636   -22431 
  -22256   -22144   -22108   -22149   -22245   -22329   -22315   -22126 
  -21749   -21296   -20926   -20691   -20495   -20264   -20083   -20089 
  -20332   -20761   -21266   -21717   -22052   -22221   -22106   -21649 
  -20929   -20088   -19327   -18859   -18766   -18974   -19341   -19766 
  -20194   -20559   -20790   -20883   -20925   -21031   -21269   -21658 
  -22199   -22832   -23427   -23854   -24036   -23973   -23726   -23367 
  -22870   -22133   -21139   -20015   -18912   -17959   -17257   -16795 
  -16472   -16193   -15907   -15627   -15402   -15230   -15086   -15043 
  -15252   -15774   -16505   -17248   -17852   -18292   -18628   -18931 
  -19230   -19487   -19610   -19566   -19446   -19336   -19210   -18985 
  -18631   -18215   -17842   -17583   -17458   -17462   -17599   -17865 
  -18230   -18654   -19076   -19429   -19674   -19832   -19954   -20058 
  -20094   -20009   -19812   -19558   -19323   -19182   -19149   -19130 
  -18974   -18603   -18052   -17401   -16735   -16131   -15622   -15211 
  -14908   -14733   -14690   -14747   -14875   -15028   -15128   -15144 
  -15132   -15126   -15087   -14989   -14882   -14871   -15091   -15641 
  -16498   -17509   -18489   -19305   -19894   -20250   -20391   -20376 
  -20290   -20216   -20220   -20310   -20436   -20537   -20532   -20333 
  -19931   -19435   -18975   -18562   -18130   -17662   -17240   -16970 
  -16892   -16942   -17028   -17134   -17304   -17514   -17635   -17555 
  -17284   -16906   -16552   -16333   -16283   -16386   -16630   -17000 
  -17458   -17964   -18455   -18851   -19102   -19205   -19183   -19107 
  -19064   -19126   -19367   -19846   -20549   -21384   -22234   -23017 
  -23688   -24213   -24540   -24571   -24275   -23768   -23221   -22743 
  -22346   -21945   -21405   -20665   -19819   -19056   -18523   -18293 
  -18384   -18773   -19425   -20310   -21371   -22547   -23787   -25035 
  -26219   -27245   -28017   -28470   -28610   -28520   -28262   -27893 
  -27526   -27216   -26919   -26639   -26381   -26057   -25614   -25097 
  -24561   -24062   -23626   -23222   -22792   -22316   -21795   -21226 
  -20626   -20007   -19384   -18762   -18111   -17429   -16740   -16039 
  -15369   -14816   -14442   -14301   -14386   -14601   -14850   -15091 
  -15307   -15464   -15512   -15450   -15344   -15249   -15133   -14940 
  -14708   -14511   -14362   -14227   -14071   -13899   -13761   -13664 
  -13559   -13431   -13277   -13078   -12800   -12407   -11911   -11394 
  -10953   -10675   -10621   -10793   -11101   -11408   -11593   -11604 
  -11481   -11300   -11087   -10827   -10536   -10284   -10129   -10134 
  -10358   -10844   -11619   -12681   -13980   -15439   -16953   -18374 
  -19576   -20452   -20992   -21317   -21535   -21643   -21628   -21521 
  -21354   -21123   -20802   -20355   -19818   -19292   -18871   -18624 
  -18596   -18770   -19121   -19668   -20386   -21177   -21945   -22612 
  -23124   -23441   -23521   -23340   -22908   -22277   -21536   -20800 
  -20173   -19699   -19363   -19134   -18954   -18789   -18685   -18697 
  -18794   -18928   -19122   -19381   -19643   -19870   -20070   -20235 
  -20339   -20389   -20417   -20449   -20420   -20241   -19967   -19734 
  -19614   -19622   -19811   -20233   -20850   -21567   -22279   -22877 
  -23314   -23596   -23728   -23724   -23635   -23534   -23499   -23571 
  -23773   -24146   -24714   -25447   -26308   -27260   -28224   -29066 
  -29586   -29594   -29004   -27853   -26277   -24471   -22600   -20783 
  -19141   -17761   -16665   -15838   -15187   -14592   -14054   -13713 
  -13660   -13872   -14284   -14852   -15560   -16379   -17223   -17979 
  -18574   -18991   -19234   -19354   -19437   -19531   -19662   -19854 
  -20081   -20297   -20451   -20479   -20360   -20142   -19861   -19518 
  -19132   -18721   -18300   -17945   -17721   -17595   -17574   -17717 
  -17961   -18202   -18400   -18549   -18617   -18589   -18497   -18377 
  -18227   -18042   -17849   -17671   -17478   -17207   -16835   -16371 
  -15811   -15172   -14508   -13840   -13161   -12494   -11875   -11329 
  -10844   -10413   -10091    -9979   -10138   -10534   -11048   -11549 
  -11973   -12309   -12587   -12870   -13213   -13620   -14077   -14543 
  -14924   -15148   -15244   -15310   -15426   -15622   -15878   -16162 
  -16501   -16957   -17552   -18256   -19001   -19738   -20456   -21162 
  -21844   -22462   -22994   -23458   -23873   -24268   -24725   -25285 
  -25807   -26065   -25994   -25714   -25330   -24864   -24351   -23834 
  -23314   -22781   -22256   -21802   -21465   -21253   -21158   -21120 
  -21077   -21028   -21000   -20977   -20919   -20791   -20587   -20326 
  -20024   -19710   -19425   -19218   -19147   -19232   -19414   -19604 
  -19720   -19703   -19488   -19022   -18387   -17778   -17289   -16875 
  -16491   -16159   -15912   -15773   -15757   -15876   -16113   -16394 
  -16619   -16734   -16787   -16888   -17091   -17383   -17747   -18171 
  -18659   -19219   -19836   -20466   -21060   -21595   -22061   -22450 
  -22762   -22987   -23102   -23078   -22909   -22607   -22176   -21651 
  -21127   -20669   -20268   -19912   -19608   -19368   -19194   -19037 
  -18825   -18528   -18154   -17797   -17655   -17857   -18293   -18797 
  -19318   -19788   -20062   -20078   -19897   -19622   -19361   -19176 
  -19070   -19070   -19248   -19641   -20220   -20895   -21482   -21790 
  -21745   -21433   -20997   -20488   -19905   -19282   -18647   -18002 
  -17385   -16856   -16456   -16198   -16078   -16081   -16182   -16337 
  -16495   -16641   -16823   -17081   -17398   -17748   -18087   -18351 
  -18505   -18565   -18531   -18382   -18108   -17706   -17178   -16540 
  -15863   -15259   -14775   -14378   -13998   -13574   -13115   -12708 
  -12461   -12449   -12696   -13144   -13728   -14434   -15250   -16144 
  -17076   -18007   -18870   -19592   -20150   -20530   -20721   -20790 
  -20860   -21011   -21294   -21735   -22281   -22859   -23413   -23870 
  -24143   -24155   -23897   -23418   -22786   -22064   -21339   -20711 
  -20260   -19986   -19819   -19684   -19545   -19410   -19279   -19122 
  -18937   -18802   -18805   -18962   -19188   -19388   -19512   -19591 
  -19672   -19792   -19961   -20133   -20214   -20142   -19954   -19757 
  -19643   -19620   -19631   -19614   -19529   -19376   -19209   -19089 
  -19022   -18964   -18870   -18750   -18667   -18624   -18519   -18296 
  -18025   -17797   -17663   -17631   -17695   -17886   -18233   -18702 
  -19206   -19657   -20012   -20286   -20514   -20730   -20916   -21027 
  -21028   -20938   -20822   -20745   -20742   -20814   -20943   -21135 
  -21432   -21822   -22233   -22609   -22964   -23333   -23723   -24082 
  -24305   -24309   -24089   -23687   -23172   -22638   -22127   -21608 
  -21027   -20395   -19780   -19186   -18604   -18142   -17836   -17597 
  -17447   -17448   -17527   -17571   -17535   -17412   -17216   -16956 
  -16607   -16139   -15554   -14901   -14226   -13570   -12999   -12567 
  -12271   -12094   -12029   -12058   -12160   -12326   -12492   -12576 
  -12556   -12465   -12372   -12328   -12320   -12317   -12333   -12401 
  -12514   -12640   -12706   -12626   -12325   -11785   -11080   -10381 
   -9882    -9697    -9806   -10116   -10605   -11298   -12140   -13003 
  -13783   -14445   -14975   -15364   -15619   -15751   -15835   -15984 
  -16237   -16559   -16926   -17361   -17905   -18581   -19345   -20094 
  -20738   -21226   -21579   -21884   -22222   -22661   -23276   -24094 
  -25072   -26137   -27214   -28224   -29089   -29759   -30248   -30576 
  -30730   -30676   -30339   -29675   -28755   -27688   -26584   -25579 
  -24798   -24297   -24035   -23896   -23791   -23707   -23664   -23664 
  -23676   -23688   -23708   -23724   -23693   -23576   -23407   -23259 
  -23107   -22821   -22333   -21708   -21033   -20335   -19615   -18889 
  -18210   -17663   -17294   -17085   -17000   -17045   -17231   -17556 
  -17996   -18508   -19040   -19538   -19955   -20251   -20422   -20515 
  -20567   -20555   -20418   -20093   -19558   -18866   -18117   -17420 
  -16827   -16320   -15869   -15462   -15113   -14828   -14609   -14462 
  -14395   -14407   -14512   -14754   -15142   -15634   -16151   -16551 
  -16676   -16495   -16089   -15587   -15099   -14679   -14350   -14094 
  -13829   -13544   -13328   -13207   -13153   -13181   -13336   -13636 
  -14040   -14453   -14827   -15202   -15643   -16154   -16659   -17053 
  -17281   -17338   -17253   -17070   -16825   -16578   -16421   -16420 
  -16596   -16965   -17533   -18281   -19175   -20193   -21297   -22410 
  -23429   -24251   -24829   -25169   -25312   -25324   -25259   -25110 
  -24865   -24526   -24084   -23565   -23021   -22509   -22073   -21709 
  -21367   -20996   -20567   -20098   -19653   -19298   -19062   -18948 
  -18944   -19009   -19098   -19180   -19210   -19141   -18945   -18634 
  -18225   -17721   -17184   -16731   -16452   -16379   -16499   -16744 
  -17035   -17352   -17699   -18060   -18432   -18812   -19184   -19546 
  -19859   -20047   -20090   -20040   -19966   -19936   -19985   -20092 
  -20214   -20333   -20418   -20444   -20412   -20343   -20258   -20162 
  -20039   -19847   -19552   -19174   -18793   -18461   -18203   -18052 
  -18011   -18025   -18004   -17875   -17643   -17367   -17078   -16795 
  -16575   -16484   -16563   -16794   -17127   -17517   -17934   -18351 
  -18748   -19118   -19441   -19689   -19867   -20021   -20206   -20429 
  -20655   -20879   -21138   -21454   -21806   -22164   -22526   -22916 
  -23342   -23774   -24147   -24426   -24634   -24811   -24956   -24987 
  -24798   -24370   -23787   -23166   -22590   -22095   -21637   -21115 
  -20428   -19565   -18615   -17699   -16910   -16289   -15826   -15504 
  -15314   -15223   -15188   -15182   -15186   -15210   -15250   -15273 
  -15242   -15159   -15066   -15020   -15045   -15111   -15182   -15232 
  -15269   -15336   -15446   -15574   -15695   -15803   -15917   -16051 
  -16197   -16357   -16571   -16899   -17356   -17901   -18470   -18993 
  -19407   -19699   -19899   -20040   -20146   -20212   -20212   -20127 
  -19980   -19795   -19579   -19364   -19215   -19182   -19305   -19581 
  -19935   -20272   -20537   -20718   -20829   -20869   -20837   -20726 
  -20522   -20221   -19827   -19356   -18837   -18307   -17793   -17329 
  -16937   -16627   -16406   -16259   -16162   -16112   -16108   -16140 
  -16183   -16220   -16241   -16262   -16310   -16387   -16475   -16567 
  -16645   -16673   -16668   -16703   -16845   -17097   -17437   -17821 
  -18202   -18551   -18850   -19080   -19269   -19507   -19870   -20348 
  -20857   -21315   -21641   -21783   -21759   -21656   -21571   -21556 
  -21593   -21635   -21655   -21645   -21579   -21439   -21261   -21082 
  -20911   -20734   -20537   -20305   -20029   -19719   -19390   -19051 
  -18720   -18419   -18142   -17856   -17518   -17140   -16785   -16487 
  -16252   -16101   -16036   -16009   -15966   -15905   -15873   -15896 
  -15967   -16082   -16241   -16432   -16632   -16831   -17028   -17227 
  -17429   -17648   -17898   -18156   -18361   -18465   -18450   -18343 
  -18215   -18108   -18018   -17968   -18009   -18172   -18445   -18775 
  -19107   -19380   -19552   -19622   -19618   -19569   -19491   -19394 
  -19290   -19174   -19012   -18779   -18492   -18203   -17967   -17799 
  -17705   -17691   -17740   -17806   -17884   -18010   -18220   -18542 
  -18986   -19527   -20102   -20650   -21126   -21493   -21714   -21744 
  -21595   -21357   -21087   -20802   -20542   -20364   -20272   -20218 
  -20120   -19930   -19664   -19359   -19030   -18689   -18364   -18090 
  -17914   -17875   -17969   -18166   -18427   -18697   -18918   -19064 
  -19133   -19134   -19090   -19021   -18935   -18819   -18666   -18482 
  -18279   -18092   -17976   -17956   -17998   -18022   -17968   -17855 
  -17744   -17697   -17732   -17829   -17941   -18038   -18129   -18241 
  -18380   -18534   -18698   -18860   -18972   -18990   -18895   -18700 
  -18461   -18256   -18118   -18037   -18013   -18061   -18210   -18485 
  -18885   -19330   -19704   -19923   -19990   -19974   -19942   -19896 
  -19800   -19666   -19541   -19429   -19313   -19197   -19087   -18983 
  -18877   -18777   -18704   -18706   -18820   -19033   -19284   -19534 
  -19799   -20105   -20433   -20744   -20992   -21153   -21247   -21304 
  -21327   -21312   -21261   -21177   -21069   -20941   -20784   -20553 
  -20217   -19811   -19408   -19078   -18863   -18787   -18827   -18910 
  -18971   -18981   -18944   -18868   -18779   -18731   -18769   -18882 
  -18998   -19047   -19005   -18895   -18747   -18590   -18463   -18389 
  -18364   -18381   -18424   -18451   -18446   -18441   -18478   -18585 
  -18756   -18960   -19147   -19276   -19342   -19379   -19421   -19456 
  -19454   -19411   -19380   -19433   -19560   -19668   -19680   -19570 
  -19357   -19101   -18848   -18616   -18404   -18204   -18002   -17799 
  -17595   -17388   -17190   -17024   -16902   -16799   -16675   -16518 
  -16359   -16229   -16125   -16008   -15865   -15730   -15635   -15589 
  -15591   -15634   -15736   -15919   -16171   -16453   -16734   -17034 
  -17359   -17671   -17930   -18129   -18279   -18423   -18600   -18804 
  -19005   -19170   -19249   -19225   -19116   -18951   -18752   -18546 
  -18355   -18204   -18103   -18037   -17964   -17851   -17718   -17612 
  -17560   -17595   -17725   -17906   -18064   -18157   -18183   -18166 
