Origin Time       2025/01/13 21:19:00
Lat.              31.8
Long.             131.6
Depth. (km)       30
Mag.              6.9
Station Code      KMMH10
Station Lat.      32.3151
Station Long.     130.1811
Station Height(m) 158
Record Time       2025/01/13 21:19:55
Sampling Freq(Hz) 100Hz
Duration Time(s)  218
Dir.              5
Scale Factor      7845(gal)/8223790
Max. Acc. (gal)   4.708
Last Correction   2025/01/13 21:19:55
Memo.             
[...]
   -7285    -7287    -7312    -7381    -7526    -7761    -8075    -8428 
   -8797    -9212    -9694   -10233   -10814   -11399   -11921   -12306 
  -12533   -12629   -12622   -12532   -12349   -12056   -11662   -11203 
  -10747   -10376   -10133   -10033   -10058   -10164   -10300   -10426 
  -10527   -10629   -10741   -10856   -10979   -11111   -11259   -11445 
  -11696   -12025   -12438   -12918   -13440   -13964   -14426   -14766 
  -14958   -15013   -14962   -14844   -14682   -14451   -14134   -13751 
  -13354   -13026   -12822   -12731   -12707   -12702   -12677   -12627 
  -12582   -12546   -12502   -12403   -12206   -11920   -11600   -11299 
  -11041   -10824   -10625   -10442   -10289   -10187   -10158   -10199 
  -10239   -10206   -10100    -9977    -9871    -9801    -9790    -9836 
   -9915   -10006   -10099   -10187   -10265   -10308   -10282   -10197 
  -10106   -10039   -10000   -10000   -10041   -10102   -10177   -10284 
  -10424   -10563   -10647   -10642   -10550   -10392   -10206   -10045 
   -9946    -9903    -9872    -9790    -9624    -9390    -9088    -8716 
   -8313    -7947    -7672    -7495    -7395    -7358    -7380    -7461 
   -7620    -7886    -8263    -8712    -9180    -9621   -10022   -10411 
  -10825   -11263   -11695   -12097   -12451   -12765   -13065   -13355 
  -13586   -13707   -13717   -13633   -13478   -13289   -13096   -12884 
  -12618   -12272   -11857   -11416   -11011   -10675   -10424   -10260 
  -10173   -10156   -10183   -10203   -10174   -10119   -10120   -10250 
  -10535   -10936   -11357   -11688   -11844   -11794   -11585   -11299 
  -10994   -10693   -10388   -10065    -9733    -9427    -9190    -9050 
   -9001    -9003    -9000    -8968    -8916    -8857    -8812    -8833 
   -8953    -9180    -9493    -9860   -10242   -10604   -10937   -11263 
  -11593   -11928   -12260   -12582   -12861   -13076   -13232   -13324 
  -13306   -13149   -12816   -12295   -11631   -10917   -10253    -9713 
   -9335    -9113    -9019    -9027    -9126    -9313    -9594    -9925 
  -10238   -10481   -10627   -10685   -10701   -10729   -10790   -10887 
  -10997   -11097   -11192   -11311   -11458   -11642   -11846   -12012 
  -12082   -12039   -11892   -11678   -11470   -11360   -11379   -11491 
  -11658   -11847   -12004   -12085   -12091   -12051   -11986   -11919 
  -11877   -11869   -11862   -11836   -11801   -11758   -11700   -11622 
  -11516   -11400   -11308   -11240   -11161   -11038   -10841   -10563 
  -10230    -9930    -9778    -9829   -10054   -10355   -10627   -10816 
  -10908   -10930   -10957   -11052   -11214   -11410   -11593   -11711 
  -11751   -11742   -11727   -11750   -11850   -12024   -12221   -12388 
  -12515   -12622   -12729   -12829   -12876   -12822   -12634   -12318 
  -11948   -11628   -11422   -11311   -11234   -11113   -10887   -10525 
  -10054    -9548    -9073    -8653    -8294    -8009    -7832    -7780 
   -7815    -7870    -7885    -7800    -7591    -7300    -7009    -6797 
   -6718    -6781    -6968    -7258    -7639    -8108    -8635    -9178 
   -9691   -10129   -10459   -10712   -10924   -11114   -11283   -11419 
  -11503   -11516   -11449   -11315   -11159   -11028   -10963   -10982 
  -11071   -11191   -11269   -11226   -11029   -10727   -10401   -10108 
   -9887    -9757    -9710    -9732    -9829    -9992   -10195   -10392 
  -10531   -10600   -10633   -10679   -10773   -10924   -11092   -11206 
  -11213   -11109   -10948   -10813   -10771   -10843   -10984   -11125 
  -11221   -11286   -11369   -11516   -11759   -12106   -12522   -12945 
  -13311   -13582   -13757   -13855   -13878   -13837   -13755   -13667 
  -13597   -13552   -13509   -13417   -13244   -12999   -12719   -12461 
  -12245   -12051   -11846   -11604   -11321   -11020   -10741   -10512 
  -10331   -10187   -10061    -9950    -9867    -9807    -9764    -9737 
   -9730    -9753    -9819    -9930   -10062   -10172   -10204   -10137 
  -10012    -9902    -9852    -9872    -9945   -10019   -10049   -10011 
   -9925    -9834    -9784    -9780    -9809    -9840    -9838    -9790 
   -9711    -9645    -9614    -9616    -9641    -9683    -9730    -9771 
   -9811    -9853    -9872    -9856    -9806    -9737    -9666    -9628 
   -9657    -9764    -9925   -10104   -10272   -10401   -10466   -10473 
  -10459   -10467   -10521   -10632   -10795   -10999   -11203   -11346 
  -11389   -11340   -11229   -11084   -10924   -10759   -10606   -10488 
  -10432   -10459   -10582   -10786   -11045   -11338   -11662   -12019 
  -12398   -12772   -13109   -13381   -13555   -13610   -13532   -13327 
  -12996   -12563   -12079   -11612   -11205   -10862   -10554   -10262 
   -9980    -9705    -9451    -9267    -9181    -9182    -9232    -9289 
   -9308    -9278    -9220    -9173    -9155    -9159    -9170    -9163 
   -9130    -9080    -9057    -9109    -9248    -9459    -9725   -10007 
  -10247   -10397   -10449   -10420   -10341   -10250   -10199   -10201 
  -10231   -10230   -10149    -9981    -9756    -9526    -9333    -9182 
   -9045    -8884    -8688    -8480    -8317    -8260    -8365    -8654 
   -9080    -9576   -10072   -10505   -10851   -11122   -11338   -11526 
  -11722   -11952   -12226   -12537   -12861   -13176   -13459   -13693 
  -13860   -13940   -13922   -13807   -13613   -13377   -13124   -12881 
  -12667   -12468   -12260   -12031   -11776   -11502   -11219   -10947 
  -10721   -10567   -10476   -10444   -10484   -10571   -10660   -10723 
  -10762   -10787   -10824   -10878   -10943   -11007   -11064   -11117 
  -11178   -11261   -11373   -11511   -11665   -11821   -11959   -12062 
  -12129   -12160   -12140   -12066   -11929   -11738   -11495   -11175 
  -10763   -10301    -9849    -9475    -9238    -9169    -9243    -9387 
   -9529    -9636    -9737    -9898   -10156   -10490   -10844   -11142 
  -11338   -11439   -11491   -11529   -11587   -11678   -11796   -11917 
  -12040   -12172   -12325   -12495   -12656   -12766   -12791   -12714 
  -12553   -12353   -12163   -12015   -11904   -11792   -11624   -11377 
  -11076   -10777   -10527   -10342   -10199   -10071    -9941    -9819 
   -9748    -9753    -9832    -9949   -10060   -10118   -10112   -10060 
   -9971    -9886    -9855    -9899   -10007   -10157   -10312   -10443 
  -10555   -10690   -10894   -11187   -11524   -11812   -11965   -11952 
  -11789   -11512   -11169   -10793   -10384    -9957    -9576    -9323 
   -9228    -9282    -9439    -9622    -9765    -9841    -9859    -9853 
   -9825    -9742    -9582    -9336    -9022    -8687    -8379    -8128 
   -7933    -7780    -7649    -7553    -7523    -7572    -7680    -7815 
   -7942    -8043    -8120    -8195    -8282    -8364    -8418    -8449 
   -8467    -8478    -8490    -8479    -8390    -8208    -7967    -7720 
   -7518    -7404    -7389    -7464    -7614    -7831    -8129    -8507 
   -8955    -9468   -10034   -10613   -11180   -11723   -12220   -12637 
  -12957   -13192   -13355   -13454   -13502   -13502   -13432   -13285 
  -13062   -12791   -12525   -12285   -12052   -11827   -11620   -11446 
  -11327   -11292   -11348   -11469   -11620   -11784   -11959   -12158 
  -12393   -12652   -12906   -13127   -13292   -13382   -13398   -13358 
  -13285   -13192   -13074   -12928   -12768   -12640   -12594   -12650 
  -12803   -13023   -13271   -13500   -13651   -13694   -13636   -13505 
  -13319   -13104   -12910   -12781   -12748   -12816   -12981   -13234 
  -13541   -13838   -14053   -14160   -14153   -14027   -13802   -13504 
  -13163   -12807   -12437   -12054   -11681   -11326   -10987   -10675 
  -10411   -10222   -10142   -10185   -10335   -10574   -10874   -11194 
  -11497   -11749   -11925   -12029   -12069   -12043   -11958   -11808 
  -11577   -11261   -10879   -10477   -10111    -9825    -9633    -9548 
   -9555    -9628    -9760    -9956   -10212   -10501   -10782   -11020 
  -11192   -11295   -11345   -11381   -11426   -11503   -11612   -11732 
  -11840   -11908   -11896   -11780   -11543   -11191   -10752   -10270 
   -9806    -9416    -9146    -9013    -9016    -9146    -9359    -9614 
   -9900   -10196   -10453   -10611   -10621   -10451   -10098    -9624 
   -9097    -8569    -8098    -7708    -7385    -7122    -6902    -6702 
   -6548    -6458    -6423    -6466    -6627    -6907    -7308    -7815 
   -8387    -8981    -9552   -10056   -10476   -10802   -11013   -11076 
  -10979   -10724   -10330    -9842    -9335    -8878    -8526    -8306 
   -8232    -8290    -8448    -8648    -8846    -9035    -9228    -9455 
   -9715    -9973   -10173   -10272   -10241   -10091    -9873    -9630 
   -9394    -9194    -9062    -9026    -9105    -9286    -9533    -9796 
  -10023   -10177   -10257   -10282   -10270   -10233   -10164   -10062 
   -9937    -9775    -9580    -9378    -9173    -8966    -8768    -8602 
   -8521    -8584    -8818    -9201    -9683   -10184   -10621   -10951 
  -11172   -11302   -11369   -11406   -11427   -11449   -11485   -11553 
  -11670   -11859   -12121   -12433   -12777   -13128   -13456   -13745 
  -13984   -14166   -14284   -14314   -14230   -14018   -13687   -13263 
  -12781   -12274   -11772   -11295   -10876   -10567   -10408   -10396 
  -10519   -10729   -10947   -11113   -11219   -11277   -11318   -11369 
  -11442   -11553   -11713   -11931   -12201   -12488   -12745   -12938 
  -13053   -13109   -13140   -13169   -13209   -13261   -13320   -13377 
  -13412   -13404   -13308   -13089   -12749   -12321   -11854   -11412 
  -11055   -10806   -10667   -10617   -10639   -10710   -10793   -10847 
  -10855   -10818   -10747   -10681   -10670   -10759   -10956   -11230 
  -11533   -11815   -12035   -12171   -12212   -12158   -12027   -11842 
  -11620   -11396   -11196   -11026   -10879   -10743   -10578   -10354 
  -10068    -9745    -9420    -9131    -8920    -8819    -8847    -9008 
   -9292    -9680   -10146   -10662   -11190   -11681   -12083   -12353 
  -12457   -12376   -12125   -11740   -11290   -10854   -10500   -10274 
  -10187   -10215   -10320   -10453   -10566   -10665   -10767   -10874 
  -10975   -11067   -11137   -11175   -11183   -11178   -11167   -11142 
  -11082   -10964   -10804   -10604   -10362   -10089    -9792    -9483 
   -9189    -8923    -8673    -8425    -8158    -7871    -7599    -7375 
   -7229    -7176    -7186    -7238    -7334    -7458    -7631    -7877 
   -8164    -8433    -8649    -8806    -8957    -9186    -9555   -10077 
  -10719   -11389   -11998   -12496   -12883   -13185   -13440   -13663 
  -13845   -13992   -14106   -14176   -14219   -14250   -14250   -14204 
  -14110   -13952   -13706   -13370   -12949   -12457   -11917   -11350 
  -10770   -10170    -9559    -8961    -8401    -7896    -7466    -7125 
   -6883    -6750    -6739    -6870    -7145    -7522    -7938    -8349 
   -8721    -9053    -9385    -9753   -10180   -10666   -11198   -11746 
  -12280   -12765   -13159   -13440   -13602   -13651   -13603   -13464 
  -13216   -12860   -12411   -11893   -11348   -10832   -10374    -9965 
   -9602    -9290    -9032    -8824    -8669    -8561    -8496    -8490 
   -8556    -8702    -8918    -9197    -9541    -9946   -10415   -10957 
  -11572   -12240   -12927   -13587   -14172   -14639   -14960   -15153 
  -15237   -15211   -15082   -14860   -14554   -14179   -13763   -13344 
  -12950   -12576   -12197   -11789   -11342   -10856   -10342    -9813 
   -9297    -8835    -8452    -8170    -8021    -8028    -8186    -8464 
   -8812    -9177    -9536    -9894   -10268   -10683   -11161   -11689 
  -12231   -12737   -13157   -13462   -13644   -13698   -13624   -13435 
  -13144   -12758   -12286   -11740   -11156   -10594   -10100    -9695 
   -9382    -9151    -8985    -8861    -8776    -8735    -8725    -8725 
   -8737    -8765    -8803    -8861    -8947    -9039    -9109    -9151 
   -9186    -9244    -9340    -9487    -9690    -9921   -10146   -10353 
  -10543   -10719   -10867   -10975   -11024   -10987   -10870   -10713 
  -10552   -10407   -10289   -10197   -10135   -10115   -10141   -10222 
  -10372   -10594   -10882   -11211   -11562   -11901   -12195   -12437 
  -12615   -12717   -12738   -12688   -12583   -12453   -12333   -12256 
  -12253   -12322   -12444   -12602   -12780   -12950   -13070   -13089 
  -12982   -12757   -12437   -12050   -11634   -11219   -10816   -10409 
   -9995    -9599    -9243    -8939    -8702    -8545    -8469    -8482 
   -8594    -8816    -9151    -9564    -9998   -10408   -10767   -11044 
  -11227   -11311   -11290   -11178   -10989   -10751   -10520   -10347 
  -10253   -10230   -10261   -10332   -10432   -10538   -10629   -10694 
  -10689   -10584   -10396   -10168    -9941    -9767    -9667    -9628 
   -9636    -9694    -9801    -9961   -10176   -10427   -10704   -11003 
  -11333   -11697   -12086   -12459   -12768   -12982   -13100   -13149 
  -13167   -13194   -13223   -13224   -13180   -13076   -12918   -12718 
  -12476   -12194   -11854   -11439   -10952   -10403    -9811    -9212 
   -8657    -8209    -7901    -7726    -7657    -7659    -7692    -7747 
   -7836    -7966    -8149    -8394    -8681    -9001    -9356    -9742 
  -10137   -10515   -10836   -11053   -11144   -11099   -10940   -10690 
  -10350    -9925    -9440    -8919    -8413    -7974    -7628    -7388 
   -7253    -7214    -7250    -7350    -7506    -7696    -7915    -8162 
   -8429    -8710    -8999    -9293    -9593    -9890   -10181   -10469 
  -10733   -10941   -11091   -11206   -11308   -11434   -11623   -11897 
  -12271   -12733   -13252   -13795   -14322   -14793   -15187   -15483 
  -15664   -15718   -15654   -15488   -15238   -14936   -14616   -14301 
  -13990   -13675   -13352   -13015   -12663   -12321   -12025   -11803 
  -11676   -11638   -11668   -11740   -11832   -11928   -12029   -12125 
  -12201   -12248   -12263   -12252   -12228   -12204   -12178   -12124 
  -12000   -11767   -11415   -10967   -10465    -9954    -9485    -9080 
   -8752    -8507    -8338    -8239    -8214    -8278    -8433    -8679 
   -9005    -9398    -9846   -10347   -10890   -11460   -12032   -12571 
  -13039   -13414   -13686   -13834   -13851   -13764   -13594   -13363 
  -13103   -12831   -12564   -12326   -12140   -12025   -11988   -11988 
  -11969   -11896   -11759   -11565   -11348   -11144   -10968   -10827 
  -10721   -10644   -10594   -10578   -10575   -10561   -10512   -10407 
  -10238   -10025    -9798    -9580    -9381    -9200    -9032    -8864 
   -8694    -8537    -8406    -8317    -8286    -8320    -8428    -8607 
   -8826    -9047    -9242    -9394    -9493    -9539    -9541    -9501 
   -9408    -9263    -9072    -8831    -8542    -8206    -7828    -7422 
   -7009    -6624    -6304    -6076    -5954    -5946    -6048    -6250 
   -6551    -6943    -7395    -7866    -8321    -8737    -9104    -9439 
   -9752   -10041   -10316   -10585   -10841   -11101   -11384   -11684 
  -12009   -12374   -12769   -13178   -13585   -13973   -14334   -14650 
  -14894   -15053   -15117   -15079   -14951   -14758   -14509   -14222 
  -13906   -13575   -13244   -12924   -12615   -12330   -12081   -11881 
  -11751   -11700   -11705   -11749   -11803   -11844   -11863   -11874 
  -11905   -11962   -12035   -12113   -12177   -12220   -12247   -12270 
  -12294   -12310   -12299   -12236   -12104   -11905   -11659   -11384 
  -11091   -10790   -10509   -10265   -10071    -9944    -9883    -9875 
   -9915   -10002   -10120   -10260   -10399   -10521   -10628   -10708 
  -10752   -10767   -10760   -10741   -10708   -10659   -10605   -10551 
  -10508   -10493   -10516   -10567   -10623   -10643   -10596   -10462 
  -10257   -10021    -9799    -9641    -9586    -9640    -9786    -9998 
  -10231   -10457   -10663   -10843   -10994   -11111   -11186   -11215 
  -11214   -11199   -11191   -11207   -11240   -11263   -11238   -11137 
  -10968   -10763   -10547   -10355   -10210   -10110   -10061   -10058 
  -10091   -10143   -10192   -10210   -10183   -10126   -10061   -10019 
  -10037   -10122   -10269   -10461   -10663   -10839   -10967   -11044 
  -11061   -11029   -10975   -10912   -10841   -10779   -10724   -10658 
  -10574   -10485   -10392   -10299   -10214   -10131   -10046    -9950 
   -9837    -9709    -9576    -9445    -9325    -9235    -9193    -9207 
   -9271    -9379    -9524    -9706    -9919   -10150   -10378   -10578 
  -10732   -10816   -10821   -10777   -10709   -10644   -10624   -10658 
  -10729   -10825   -10933   -11032   -11102   -11153   -11192   -11219 
  -11253   -11294   -11329   -11373   -11446   -11566   -11754   -12008 
  -12314   -12634   -12931   -13190   -13412   -13599   -13756   -13884 
  -13980   -14023   -13999   -13900   -13728   -13475   -13134   -12700 
  -12195   -11630   -11024   -10413    -9837    -9324    -8896    -8572 
   -8364    -8267    -8255    -8302    -8392    -8509    -8642    -8796 
   -8970    -9170    -9396    -9630    -9849   -10027   -10143   -10204 
  -10239   -10273   -10330   -10438   -10600   -10791   -10993   -11188 
  -11362   -11497   -11581   -11612   -11607   -11595   -11601   -11631 
  -11670   -11689   -11659   -11572   -11430   -11261   -11097   -10949 
  -10828   -10737   -10682   -10665   -10681   -10704   -10710   -10687 
  -10629   -10559   -10501   -10469   -10471   -10504   -10559   -10638 
  -10736   -10848   -10960   -11065   -11155   -11215   -11248   -11265 
  -11268   -11248   -11192   -11094   -10970   -10844   -10732   -10643 
  -10571   -10500   -10412   -10304   -10181   -10054    -9926    -9795 
   -9659    -9524    -9405    -9321    -9285    -9308    -9386    -9501 
   -9637    -9784    -9933   -10079   -10211   -10316   -10395   -10449 
  -10490   -10543   -10619   -10716   -10812   -10883   -10914   -10894 
  -10840   -10777   -10713   -10652   -10600   -10546   -10484   -10416 
  -10343   -10266   -10176   -10066    -9946    -9834    -9738    -9671 
   -9629    -9602    -9593    -9612    -9671    -9786    -9950   -10154 
  -10382   -10615   -10837   -11052   -11259   -11461   -11659   -11859 
  -12060   -12266   -12472   -12660   -12814   -12931   -13004   -13039 
  -13059   -13062   -13034   -12977   -12892   -12771   -12604   -12388 
  -12116   -11785   -11404   -10991   -10567   -10150    -9757    -9404 
   -9108    -8904    -8810    -8827    -8953    -9158    -9405    -9661 
   -9898   -10107   -10295   -10459   -10601   -10721   -10829   -10935 
  -11038   -11148   -11257   -11357   -11458   -11557   -11638   -11699 
  -11734   -11740   -11724   -11691   -11643   -11576   -11483   -11371 
  -11234   -11078   -10908   -10720   -10497   -10238    -9937    -9590 
   -9220    -8858    -8529    -8255    -8062    -7966    -7970    -8071 
   -8268    -8550    -8916    -9370    -9892   -10465   -11067   -11672 
  -12251   -12784   -13265   -13679   -14019   -14281   -14449   -14511 
  -14472   -14345   -14148   -13903   -13633   -13359   -13093   -12835 
  -12577   -12306   -12016   -11712   -11407   -11121   -10867   -10648 
  -10462   -10307   -10193   -10125   -10108   -10137   -10195   -10270 
  -10351   -10416   -10453   -10451   -10408   -10328   -10230   -10133 
  -10035    -9938    -9829    -9697    -9540    -9359    -9154    -8928 
   -8691    -8448    -8216    -8021    -7893    -7844    -7877    -7971 
   -8095    -8222    -8341    -8453    -8576    -8737    -8957    -9247 
   -9605   -10018   -10463   -10920   -11362   -11766   -12116   -12402 
  -12619   -12776   -12879   -12926   -12930   -12904   -12850   -12768 
