Origin Time       2025/01/13 21:19:00
Lat.              31.8
Long.             131.6
Depth. (km)       30
Mag.              6.9
Station Code      KMMH16
Station Lat.      32.7967
Station Long.     130.8199
Station Height(m) -197
Record Time       2025/01/13 21:19:54
Sampling Freq(Hz) 100Hz
Duration Time(s)  213
Dir.              1
Scale Factor      2942(gal)/8224139
Max. Acc. (gal)   5.467
Last Correction   2025/01/13 21:19:54
Memo.             
[...]
  103453   103486   103582   103650   103611   103414   103076   102695 
  102358   102058   101749   101383   100934   100453   100048    99752 
   99546    99461    99534    99765   100140   100619   101127   101583 
  101957   102312   102739   103261   103855   104487   105085   105580 
  105946   106181   106274   106230   106091   105922   105807   105831 
  106019   106277   106458   106434   106176   105765   105362   105148 
  105241   105592   106065   106539   106920   107172   107302   107295 
  107127   106833   106481   106124   105822   105629   105543   105476 
  105343   105075   104642   104060   103381   102681   102043   101544 
  101229   101143   101312   101671   102096   102498   102853   103161 
  103422   103653   103890   104148   104407   104638   104822   104943 
  105001   105011   105012   105067   105187   105339   105506   105672 
  105810   105889   105889   105815   105723   105694   105806   106112 
  106589   107164   107747   108264   108685   109038   109356   109630 
  109822   109935   110022   110131   110274   110465   110710   110986 
  111240   111416   111478   111442   111323   111123   110863   110586 
  110338   110133   109917   109637   109306   108935   108503   107968 
  107310   106573   105873   105341   105051   104998   105146   105470 
  105908   106381   106852   107314   107744   108133   108441   108606 
  108615   108494   108279   108004   107694   107410   107212   107088 
  106980   106876   106789   106716   106640   106547   106454   106429 
  106552   106834   107234   107700   108162   108541   108788   108901 
  108919   108909   108928   109008   109142   109264   109310   109227 
  108981   108606   108152   107642   107114   106648   106317   106157 
  106173   106343   106605   106876   107092   107234   107318   107364 
  107362   107291   107167   107032   106903   106763   106569   106292 
  105957   105634   105387   105227   105132   105115   105197   105348 
  105509   105632   105698   105688   105576   105343   105011   104661 
  104373   104178   104093   104117   104217   104342   104465   104588 
  104746   104970   105252   105545   105838   106165   106531   106878 
  107150   107299   107265   107015   106601   106137   105679   105196 
  104610   103871   102984   102023   101121   100437   100086   100095 
  100425   100982   101655   102324   102868   103212   103366   103387 
  103310   103160   102953   102679   102344   101985   101634   101309 
  101032   100795   100565   100360   100233   100240   100442   100878 
  101533   102344   103210   104039   104766   105327   105680   105852 
  105885   105807   105629   105351   104977   104539   104063   103557 
  103029   102501   101993   101521   101113   100796   100581   100465 
  100429   100457   100523   100579   100588   100556   100530   100607 
  100874   101348   101968   102647   103312   103918   104440   104859 
  105197   105525   105908   106374   106933   107576   108244   108846 
  109296   109512   109409   108942   108137   107084   105914   104777 
  103821   103133   102730   102587   102651   102861   103146   103424 
  103634   103746   103761   103677   103513   103319   103161   103100 
  103157   103303   103480   103617   103665   103620   103534   103481 
  103524   103686   103948   104287   104692   105160   105696   106282 
  106880   107472   108052   108576   109001   109343   109633   109873 
  110035   110089   110027   109850   109563   109165   108653   108063 
  107445   106834   106286   105902   105745   105826   106118   106596 
  107235   107963   108637   109108   109252   109004   108375   107450 
  106355   105232   104190   103296   102570   102010   101633   101460 
  101514   101795   102249   102803   103428   104098   104800   105559 
  106386   107275   108203   109116   109939   110621   111129   111442 
  111546   111446   111160   110709   110138   109537   108994   108579 
  108326   108225   108233   108305   108441   108681   109032   109451 
  109890   110311   110691   111038   111380   111748   112143   112511 
  112807   112996   113049   112957   112734   112391   111963   111508 
  111084   110743   110506   110366   110285   110208   110083   109875 
  109549   109075   108468   107804   107177   106672   106375   106338 
  106521   106852   107292   107801   108328   108855   109360   109798 
  110128   110301   110268   110037   109653   109170   108660   108205 
  107856   107638   107551   107553   107577   107563   107469   107287 
  107014   106651   106236   105814   105405   105019   104679   104441 
  104357   104426   104616   104907   105278   105727   106259   106845 
  107455   108071   108687   109298   109895   110455   110955   111338 
  111505   111357   110863   110073   109080   108002   106978   106114 
  105467   105051   104853   104839   104974   105231   105568   105922 
  106242   106528   106809   107102   107403   107692   107931   108090 
  108137   108021   107696   107138   106336   105332   104209   103054 
  101954   100982   100194    99623    99269    99087    99022    99044 
   99145    99323    99571    99862   100140   100353   100500   100593 
  100641   100666   100684   100696   100697   100670   100592   100444 
  100211    99927    99631    99353    99103    98886    98702    98547 
   98415    98307    98239    98255    98348    98462    98559    98610 
   98554    98367    98092    97791    97544    97424    97475    97711 
   98103    98559    98982    99328    99611    99883   100229   100716 
  101366   102158   103017   103842   104554   105105   105471   105651 
  105641   105444   105085   104606   104036   103410   102759   102138 
  101595   101147   100813   100639   100651   100859   101252   101761 
  102296   102797   103227   103570   103831   104048   104264   104506 
  104776   105038   105260   105455   105649   105867   106105   106369 
  106654   106920   107119   107210   107169   107019   106801   106559 
  106351   106222   106201   106277   106412   106581   106763   106959 
  107200   107507   107855   108202   108491   108664   108706   108645 
  108567   108581   108751   109071   109518   110026   110505   110894 
  111165   111314   111375   111380   111350   111279   111150   110964 
  110731   110473   110238   110065   109985   110015   110111   110220 
  110315   110370   110350   110231   110018   109705   109314   108900 
  108492   108090   107715   107401   107195   107129   107218   107449 
  107757   108055   108267   108336   108234   107987   107665   107352 
  107130   107053   107144   107406   107817   108333   108893   109455 
  109988   110454   110814   111044   111119   111030   110776   110371 
  109849   109248   108612   107978   107358   106760   106197   105679 
  105214   104843   104619   104604   104835   105314   105988   106803 
  107723   108702   109687   110612   111400   111982   112321   112394 
  112202   111775   111192   110533   109869   109270   108781   108411 
  108156   107989   107867   107759   107661   107574   107491   107415 
  107373   107401   107522   107719   107941   108130   108226   108193 
  108010   107661   107160   106558   105903   105247   104627   104070 
  103601   103233   102945   102708   102485   102250   101988   101718 
  101501   101395   101417   101553   101784   102058   102325   102582 
  102838   103088   103330   103557   103752   103921   104098   104286 
  104445   104550   104602   104598   104553   104514   104515   104562 
  104646   104719   104730   104657   104487   104237   103945   103650 
  103399   103225   103125   103071   103019   102933   102818   102702 
  102610   102555   102536   102567   102672   102875   103175   103542 
  103937   104318   104674   105016   105354   105692   106024   106332 
  106608   106817   106903   106834   106620   106296   105906   105471 
  105009   104545   104083   103617   103144   102663   102200   101776 
  101424   101193   101128   101264   101603   102119   102783   103543 
  104333   105074   105690   106149   106462   106633   106686   106677 
  106672   106732   106879   107086   107329   107586   107812   107968 
  108045   108029   107920   107751   107580   107453   107408   107468 
  107600   107763   107931   108059   108114   108106   108044   107913 
  107712   107447   107131   106774   106369   105898   105372   104835 
  104353   103975   103719   103593   103570   103585   103582   103519 
  103362   103110   102795   102485   102246   102132   102163   102323 
  102582   102907   103268   103650   104036   104403   104727   104986 
  105174   105283   105313   105277   105192   105085   104992   104919 
  104868   104853   104850   104805   104684   104450   104090   103635 
  103150   102686   102265   101893   101564   101281   101056   100877 
  100710   100539   100361   100198   100095   100106   100249   100512 
  100878   101326   101829   102344   102847   103330   103794   104253 
  104695   105081   105379   105574   105676   105738   105813   105918 
  106035   106149   106253   106334   106381   106412   106467   106570 
  106728   106959   107257   107570   107844   108041   108120   108049 
  107871   107674   107531   107496   107596   107827   108156   108523 
  108876   109165   109351   109408   109333   109161   108935   108681 
  108391   108048   107653   107218   106774   106338   105933   105599 
  105374   105274   105310   105483   105757   106057   106316   106510 
  106639   106714   106772   106859   106965   107069   107177   107288 
  107365   107381   107325   107188   106992   106785   106627   106564 
  106608   106741   106936   107168   107446   107786   108179   108576 
  108915   109154   109286   109337   109350   109372   109443   109551 
  109663   109738   109750   109687   109547   109339   109071   108762 
  108421   108039   107626   107183   106693   106159   105584   104966 
  104341   103738   103160   102636   102197   101848   101582   101380 
  101218   101090   101017   101011   101040   101065   101078   101104 
  101178   101333   101571   101853   102162   102498   102840   103162 
  103461   103736   103994   104248   104490   104692   104826   104857 
  104768   104550   104213   103783   103291   102732   102101   101390 
  100575    99661    98706    97776    96924    96225    95742    95517 
   95598    96005    96711    97664    98770    99931   101052   102065 
  102953   103728   104396   104976   105464   105860   106169   106411 
  106617   106840   107125   107474   107862   108240   108569   108843 
  109074   109270   109452   109633   109791   109880   109891   109833 
  109695   109449   109112   108723   108332   108006   107800   107732 
  107809   108041   108438   108993   109676   110432   111186   111869 
  112449   112903   113211   113377   113428   113400   113327   113211 
  113036   112801   112518   112218   111931   111688   111527   111473 
  111531   111673   111834   111935   111939   111817   111564   111207 
  110785   110330   109869   109420   108978   108535   108081   107581 
  107011   106371   105673   104922   104114   103273   102420   101569 
  100731    99918    99134    98393    97717    97135    96672    96326 
   96095    95982    95972    96049    96195    96396    96627    96882 
   97162    97478    97869    98369    98995    99758   100629   101544 
  102448   103300   104095   104861   105613   106346   107048   107686 
  108213   108598   108846   109004   109111   109194   109278   109374 
  109512   109740   110074   110523   111111   111855   112738   113730 
  114789   115847   116826   117661   118320   118782   119051   119149 
  119113   118971   118727   118374   117910   117335   116672   115967 
  115249   114527   113819   113128   112453   111808   111176   110528 
  109850   109124   108303   107346   106245   105027   103743   102458 
  101255   100218    99395    98820    98504    98446    98649    99099 
   99733   100484   101281   102011   102556   102841   102836   102552 
  102049   101412   100715   100008    99307    98617    97956    97337 
   96778    96309    95949    95720    95639    95737    96041    96553 
   97260    98107    99033    99997   100943   101814   102579   103231 
  103769   104198   104515   104723   104854   104958   105086   105278 
  105549   105908   106351   106852   107358   107802   108120   108283 
  108301   108206   108037   107844   107661   107509   107391   107292 
  107200   107091   106945   106755   106496   106138   105692   105210 
  104727   104249   103771   103280   102744   102134   101443   100688 
   99902    99098    98278    97472    96708    95999    95364    94815 
   94359    94005    93741    93538    93403    93364    93453    93717 
   94184    94837    95625    96469    97298    98069    98766    99419 
  100060   100704   101386   102131   102924   103736   104535   105287 
  105964   106563   107110   107631   108160   108722   109291   109825 
  110268   110548   110604   110415   110006   109428   108746   108018 
  107307   106671   106176   105854   105707   105722   105876   106131 
  106447   106802   107187   107603   108052   108529   109007   109447 
  109817   110091   110243   110255   110110   109817   109397   108880 
  108318   107766   107287   106949   106771   106735   106805   106933 
  107083   107200   107231   107167   107030   106857   106699   106614 
  106651   106833   107184   107707   108383   109181   110057   110956 
  111861   112766   113664   114552   115434   116295   117117   117884 
  118565   119141   119628   120051   120409   120694   120899   120999 
  120937   120654   120127   119356   118382   117278   116124   114976 
  113869   112815   111798   110787   109767   108723   107670   106650 
  105715   104895   104211   103693   103358   103195   103161   103207 
  103277   103329   103319   103237   103091   102902   102690   102478 
  102297   102185   102176   102274   102477   102776   103165   103634 
  104174   104769   105402   106045   106633   107095   107362   107396 
  107202   106814   106281   105664   105034   104449   103943   103508 
  103129   102795   102510   102301   102204   102253   102466   102834 
  103329   103894   104457   104939   105293   105495   105560   105526 
  105448   105378   105355   105390   105467   105545   105565   105460 
  105187   104726   104075   103272   102379   101467   100580    99732 
   98930    98201    97583    97101    96768    96604    96614    96762 
   97001    97278    97529    97694    97748    97694    97559    97402 
   97293    97302    97502    97937    98616    99497   100508   101575 
  102628   103621   104553   105449   106339   107239   108156   109063 
  109898   110587   111079   111326   111302   111014   110501   109830 
  109112   108438   107856   107379   106992   106689   106459   106293 
  106184   106104   106014   105891   105734   105571   105443   105394 
  105443   105588   105818   106103   106377   106590   106718   106741 
  106658   106486   106263   106016   105771   105540   105331   105152 
  105012   104922   104893   104928   105012   105136   105301   105510 
  105763   106042   106324   106605   106891   107169   107415   107615 
  107751   107813   107806   107740   107628   107501   107391   107308 
  107268   107288   107364   107466   107578   107684   107770   107843 
  107912   107983   108060   108145   108255   108395   108565   108743 
  108899   108999   109023   108973   108864   108702   108506   108290 
  108047   107794   107536   107266   107005   106766   106540   106319 
  106072   105759   105362   104889   104357   103793   103218   102659 
  102154   101733   101421   101237   101190   101271   101463   101746 
  102104   102506   102901   103242   103507   103670   103729   103709 
  103634   103532   103443   103380   103347   103357   103395   103434 
  103470   103503   103512   103499   103484   103488   103520   103582 
  103670   103779   103920   104105   104342   104619   104912   105202 
  105462   105660   105764   105754   105619   105359   105007   104602 
  104168   103732   103338   103033   102841   102768   102798   102898 
  103040   103207   103374   103520   103638   103727   103774   103765 
  103694   103563   103372   103137   102887   102666   102502   102431 
  102486   102697   103071   103599   104247   104971   105726   106461 
  107137   107730   108217   108589   108854   109035   109142   109185 
  109181   109135   109055   108978   108950   108990   109104   109285 
  109507   109753   110007   110231   110404   110506   110524   110463 
  110355   110250   110178   110146   110149   110164   110162   110111 
  109987   109790   109545   109291   109062   108878   108761   108726 
  108780   108927   109158   109460   109799   110128   110409   110623 
  110772   110866   110910   110905   110852   110774   110682   110577 
  110439   110243   109979   109655   109293   108915   108549   108218 
  107917   107631   107347   107057   106758   106471   106211   105966 
  105741   105543   105376   105239   105135   105059   104990   104905 
  104773   104565   104272   103894   103441   102938   102415   101891 
  101391   100938   100558   100283   100125   100070   100090   100148 
  100214   100276   100323   100348   100341   100287   100182   100037 
   99871    99720    99627    99631    99765   100048   100471   100986 
  101520   102028   102505   102937   103312   103631   103905   104167 
  104438   104719   104996   105243   105440   105565   105607   105578 
  105499   105402   105304   105210   105116   105020   104934   104868 
  104827   104819   104824   104823   104809   104773   104718   104664 
  104634   104631   104638   104643   104629   104585   104523   104461 
  104413   104367   104314   104241   104128   103967   103769   103542 
  103304   103067   102829   102609   102421   102280   102192   102157 
  102168   102215   102273   102321   102350   102358   102370   102432 
  102589   102870   103296   103875   104600   105449   106385   107345 
  108253   109048   109691   110164   110474   110639   110683   110641 
  110548   110439   110344   110282   110255   110242   110200   110100 
  109944   109737   109498   109263   109078   108988   109004   109094 
  109219   109345   109449   109528   109584   109611   109597   109528 
  109397   109196   108913   108554   108139   107703   107275   106863 
  106447   106018   105568   105092   104588   104070   103570   103134 
  102790   102543   102385   102298   102263   102257   102262   102290 
  102361   102493   102693   102946   103226   103522   103820   104103 
  104368   104608   104824   105027   105235   105459   105690   105926 
  106180   106463   106789   107163   107592   108076   108610   109181 
  109771   110350   110898   111410   111892   112359   112818   113251 
  113660   114052   114423   114762   115052   115277   115429   115503 
  115495   115408   115248   115003   114674   114273   113806   113290 
  112760   112222   111673   111118   110558   109985   109399   108815 
  108256   107751   107330   107017   106797   106648   106559   106505 
  106450   106384   106296   106185   106054   105903   105741   105568 
  105364   105116   104807   104430   104004   103561   103153   102825 
  102614   102529   102560   102703   102944   103265   103644   104067 
  104508   104932   105309   105624   105853   105972   105981   105900 
