Origin Time       2025/01/13 21:19:00
Lat.              31.8
Long.             131.6
Depth. (km)       30
Mag.              6.9
Station Code      KMMH07
Station Lat.      32.6234
Station Long.     130.5584
Station Height(m) 22
Record Time       2025/01/13 21:19:54
Sampling Freq(Hz) 100Hz
Duration Time(s)  181
Dir.              6
Scale Factor      7845(gal)/8223790
Max. Acc. (gal)   7.594
Last Correction   2025/01/13 21:19:54
Memo.             
[...]
   -7020    -7770    -8118    -7978    -7442    -6843    -6481    -6403 
   -6481    -6471    -6172    -5611    -4889    -4044    -3184    -2539 
   -2344    -2517    -2548    -2061    -1458    -1615    -2836    -4386 
   -5193    -4858    -3951    -3310    -3267    -3681    -4318    -4905 
   -5175    -5073    -4777    -4618    -4834    -5282    -5518    -5275 
   -4749    -4395    -4472    -4816    -5066    -5066    -4977    -4996 
   -5076    -5038    -4860    -4762    -4950    -5279    -5417    -5354 
   -5416    -5628    -5505    -4702    -3574    -2837    -2855    -3349 
   -3663    -3419    -2884    -2529    -2447    -2509    -2687    -2930 
   -3096    -3198    -3415    -3816    -4222    -4396    -4340    -4256 
   -4341    -4719    -5387    -6057    -6278    -5887    -5219    -4760 
   -4715    -4970    -5223    -5159    -4741    -4340    -4315    -4495 
   -4441    -4071    -3688    -3562    -3724    -4009    -4295    -4739 
   -5598    -6651    -7196    -6863    -6064    -5532    -5630    -6045 
   -6073    -5421    -4606    -4318    -4608    -4919    -4814    -4511 
   -4564    -5088    -5570    -5414    -4518    -3381    -2747    -2999 
   -3867    -4645    -4720    -4055    -3226    -2918    -3348    -4140 
   -4675    -4556    -3904    -3223    -2984    -3223    -3550    -3505 
   -2978    -2330    -2058    -2304    -2725    -2965    -3103    -3453 
   -4104    -4827    -5293    -5422    -5441    -5526    -5636    -5574 
   -5053    -4055    -3064    -2509    -2394    -2621    -3092    -3657 
   -4202    -4625    -4936    -5359    -5838    -5881    -5273    -4426 
   -3931    -4024    -4396    -4472    -4089    -3694    -3736    -4106 
   -4324    -4093    -3607    -3356    -3611    -4075    -4313    -4352 
   -4477    -4637    -4479    -3780    -2716    -1804    -1421    -1436 
   -1564    -1848    -2457    -3208    -3647    -3638    -3655    -4176 
   -5007    -5502    -5339    -4934    -5026    -5753    -6451    -6542 
   -6187    -5890    -5846    -5850    -5564    -4939    -4422    -4334 
   -4360    -4108    -3690    -3495    -3642    -3790    -3527    -2949 
   -2589    -2739    -3048    -2889    -2127    -1475    -1752    -2893 
   -4041    -4511    -4391    -4290    -4572    -4889    -4710    -4063 
   -3527    -3585    -4137    -4641    -4656    -4264    -3948    -3981 
   -4094    -3929    -3493    -3082    -2983    -3233    -3634    -3985 
   -4194    -4249    -4259    -4369    -4592    -4783    -4800    -4668 
   -4553    -4639    -4954    -5309    -5459    -5316    -4977    -4550 
   -4068    -3584    -3214    -3130    -3406    -3717    -3585    -3078 
   -2728    -2806    -3110    -3257    -2980    -2389    -1987    -2168 
   -2791    -3352    -3442    -3183    -3241    -4141    -5570    -6654 
   -6817    -6247    -5738    -5975    -6852    -7627    -7770    -7461 
   -7257    -7427    -7649    -7412    -6677    -5967    -5769    -6015 
   -6278    -6274    -6012    -5648    -5304    -4993    -4704    -4510 
   -4455    -4402    -4225    -4041    -4048    -4224    -4284    -3979 
   -3435    -3113    -3295    -3709    -3809    -3472    -3196    -3491 
   -4270    -5035    -5505    -5844    -6312    -6835    -7041    -6731 
   -6169    -5852    -6004    -6355    -6436    -6081    -5562    -5256 
   -5271    -5420    -5525    -5601    -5686    -5707    -5570    -5215 
   -4625    -3924    -3333    -2932    -2623    -2347    -2119    -1965 
   -2010    -2382    -2997    -3601    -4066    -4457    -4900    -5395 
   -5732    -5769    -5756    -5984    -6335    -6432    -6099    -5584 
   -5381    -5636    -5942    -5891    -5516    -5092    -4789    -4545 
   -4209    -3801    -3520    -3450    -3416    -3206    -2818    -2462 
   -2376    -2628    -3041    -3337    -3350    -3196    -3190    -3442 
   -3684    -3622    -3326    -3118    -3188    -3416    -3476    -3157 
   -2690    -2609    -3171    -4045    -4615    -4530    -3997    -3646 
   -4008    -4901    -5498    -5169    -4098    -3053    -2700    -3118 
   -3817    -4209    -4112    -3839    -3856    -4352    -5123    -5834 
   -6242    -6328    -6296    -6301    -6312    -6266    -6220    -6265 
   -6399    -6544    -6585    -6436    -6201    -6124    -6311    -6601 
   -6766    -6689    -6378    -5977    -5686    -5568    -5501    -5300 
   -4907    -4465    -4229    -4284    -4449    -4598    -4792    -5036 
   -5185    -5080    -4714    -4324    -4202    -4361    -4482    -4251 
   -3717    -3221    -3095    -3464    -4144    -4729    -4934    -4830 
   -4718    -4864    -5286    -5652    -5543    -4909    -4094    -3443 
   -3076    -2930    -2822    -2601    -2311    -2079    -1923    -1858 
   -1958    -2189    -2369    -2343    -2164    -2011    -1939    -1792 
   -1356     -658      -86       32     -202     -519     -776     -958 
   -1202    -1668    -2250    -2652    -2776    -2790    -2889    -3150 
   -3510    -3809    -3958    -3982    -3888    -3623    -3175    -2686 
   -2434    -2575    -2957    -3296    -3504    -3709    -3996    -4202 
   -4121    -3856    -3796    -4113    -4549    -4754    -4637    -4441 
   -4519    -4958    -5512    -5857    -5857    -5663    -5514    -5448 
   -5339    -5097    -4723    -4301    -3985    -3881    -3989    -4257 
   -4577    -4793    -4882    -4977    -5208    -5613    -6122    -6582 
   -6790    -6619    -6146    -5570    -5040    -4638    -4383    -4191 
   -3954    -3700    -3577    -3636    -3739    -3775    -3856    -4158 
   -4671    -5219    -5620    -5803    -5809    -5725    -5630    -5567 
   -5576    -5652    -5661    -5485    -5188    -5001    -5097    -5360 
   -5543    -5609    -5661    -5690    -5664    -5656    -5724    -5821 
   -5846    -5760    -5626    -5583    -5674    -5752    -5674    -5529 
   -5475    -5485    -5368    -4961    -4270    -3559    -3208    -3307 
   -3495    -3383    -3034    -2887    -3160    -3557    -3667    -3453 
   -3264    -3484    -4140    -4826    -5161    -5200    -5232    -5367 
   -5460    -5293    -4889    -4569    -4564    -4707    -4617    -4113 
   -3460    -3171    -3528    -4263    -4864    -5163    -5316    -5398 
   -5355    -5159    -4870    -4594    -4357    -4045    -3616    -3222 
   -2998    -2879    -2732    -2609    -2637    -2764    -2843    -2793 
   -2623    -2440    -2415    -2673    -3194    -3794    -4257    -4490 
   -4581    -4703    -4884    -5011    -5023    -5015    -5154    -5502 
   -5913    -6164    -6181    -6069    -5977    -5981    -6042    -6039 
   -5861    -5475    -4997    -4612    -4395    -4270    -4155    -4060 
   -4066    -4224    -4452    -4615    -4665    -4657    -4652    -4664 
   -4669    -4657    -4649    -4652    -4614    -4484    -4240    -3924 
   -3665    -3572    -3618    -3757    -4008    -4344    -4638    -4853 
   -5130    -5586    -6111    -6430    -6413    -6238    -6134    -6111 
   -6014    -5741    -5385    -5138    -5046    -4928    -4596    -4125 
   -3852    -4031    -4471    -4660    -4360    -3986    -4095    -4584 
   -4810    -4372    -3501    -2833    -2801    -3204    -3538    -3577 
   -3437    -3307    -3311    -3476    -3744    -4018    -4234    -4382 
   -4496    -4630    -4776    -4851    -4804    -4715    -4733    -4943 
   -5324    -5776    -6183    -6440    -6492    -6372    -6189    -6014 
   -5827    -5648    -5609    -5768    -5957    -5944    -5634    -5066 
   -4396    -3831    -3423    -3092    -2770    -2428    -2153    -2031 
   -1977    -1861    -1707    -1607    -1651    -1864    -2124    -2262 
   -2282    -2339    -2554    -2920    -3288    -3507    -3589    -3653 
   -3701    -3572    -3145    -2613    -2382    -2637    -3144    -3532 
   -3650    -3639    -3721    -3989    -4372    -4716    -4888    -4911 
   -4918    -4936    -4862    -4585    -4122    -3635    -3298    -3165 
   -3150    -3082    -2906    -2762    -2768    -2872    -2991    -3167 
   -3497    -3986    -4523    -4935    -5103    -5103    -5119    -5240 
   -5417    -5563    -5628    -5663    -5753    -5881    -5923    -5823 
   -5668    -5583    -5624    -5692    -5570    -5134    -4513    -3970 
   -3620    -3373    -3121    -2868    -2786    -3037    -3488    -3800 
   -3852    -3863    -4102    -4599    -5123    -5398    -5363    -5233 
   -5209    -5219    -5053    -4630    -4120    -3727    -3481    -3310 
   -3196    -3141    -3078    -2886    -2512    -2099    -1931    -2095 
   -2289    -2230    -2003    -1858    -1884    -1996    -2110    -2263 
   -2517    -2816    -3095    -3379    -3692    -4001    -4221    -4297 
   -4311    -4405    -4598    -4760    -4752    -4612    -4538    -4676 
   -5061    -5637    -6211    -6527    -6555    -6550    -6713    -6940 
   -6991    -6755    -6350    -6077    -6089    -6126    -5823    -5186 
   -4527    -4064    -3728    -3392    -3099    -2955    -2949    -2988 
   -3018    -3102    -3342    -3716    -4000    -4012    -3889    -3966 
   -4359    -4810    -4900    -4459    -3798    -3457    -3611    -3932 
   -4023    -3829    -3550    -3349    -3235    -3121    -2956    -2825 
   -2836    -2972    -3110    -3196    -3312    -3522    -3770    -3977 
   -4112    -4199    -4294    -4486    -4824    -5219    -5556    -5868 
   -6210    -6556    -6828    -6945    -6939    -6948    -7057    -7176 
   -7173    -7067    -6979    -6926    -6786    -6444    -5937    -5406 
   -4993    -4730    -4504    -4249    -4091    -4162    -4387    -4548 
   -4484    -4275    -4180    -4322    -4554    -4692    -4716    -4698 
   -4658    -4542    -4295    -4005    -3850    -3848    -3812    -3615 
   -3350    -3140    -2964    -2820    -2793    -2898    -3024    -3057 
   -2959    -2786    -2704    -2841    -3127    -3342    -3404    -3487 
   -3778    -4224    -4573    -4627    -4434    -4243    -4274    -4536 
   -4850    -5040    -5055    -4993    -4992    -5069    -5085    -4919 
   -4592    -4241    -3981    -3817    -3643    -3352    -2972    -2659 
   -2558    -2705    -3003    -3348    -3761    -4334    -5030    -5652 
   -6060    -6280    -6417    -6544    -6690    -6853    -6982    -7001 
   -6871    -6652    -6484    -6435    -6432    -6357    -6153    -5886 
   -5715    -5751    -5884    -5900    -5705    -5385    -5104    -5001 
   -5112    -5281    -5242    -4907    -4488    -4270    -4301    -4411 
   -4396    -4163    -3757    -3315    -2948    -2695    -2546    -2455 
   -2384    -2331    -2331    -2416    -2574    -2768    -2968    -3186 
   -3431    -3661    -3832    -3996    -4226    -4498    -4695    -4764 
   -4806    -4978    -5286    -5522    -5526    -5368    -5179    -4984 
   -4766    -4580    -4519    -4627    -4819    -4957    -4941    -4726 
   -4365    -4035    -3915    -3983    -3990    -3746    -3314    -2933 
   -2862    -3164    -3577    -3704    -3392    -2899    -2641    -2760 
   -2999    -3029    -2805    -2608    -2741    -3226    -3819    -4288 
   -4584    -4853    -5294    -5929    -6516    -6828    -6878    -6795 
   -6663    -6493    -6205    -5724    -5151    -4673    -4306    -3913 
   -3423    -2951    -2762    -3029    -3616    -4175    -4449    -4457 
   -4398    -4426    -4517    -4526    -4351    -3990    -3524    -3052 
   -2643    -2335    -2131    -1965    -1786    -1678    -1738    -1899 
   -2019    -2106    -2312    -2729    -3279    -3743    -3954    -3959 
   -3889    -3819    -3796    -3832    -3920    -4087    -4287    -4352 
   -4221    -4018    -3927    -4028    -4206    -4268    -4176    -4051 
   -3990    -4005    -4060    -4137    -4243    -4364    -4460    -4502 
   -4502    -4486    -4456    -4437    -4477    -4538    -4491    -4260 
   -3929    -3726    -3805    -4079    -4345    -4503    -4606    -4793 
   -5158    -5583    -5836    -5846    -5786    -5823    -5946    -6046 
   -6066    -6025    -5917    -5694    -5374    -5101    -5013    -5077 
   -5155    -5144    -5035    -4865    -4672    -4502    -4426    -4537 
   -4854    -5278    -5647    -5854    -5935    -6011    -6104    -6079 
   -5861    -5572    -5379    -5352    -5440    -5503    -5418    -5208 
   -4973    -4772    -4585    -4392    -4230    -4180    -4225    -4218 
   -4045    -3738    -3503    -3568    -3924    -4299    -4459    -4430 
   -4391    -4425    -4494    -4519    -4475    -4428    -4487    -4689 
   -4951    -5146    -5252    -5425    -5805    -6350    -6941    -7493 
   -7939    -8297    -8669    -9097    -9555   -10015   -10411   -10652 
  -10692   -10528   -10206    -9803    -9391    -8959    -8426    -7697 
   -6763    -5737    -4737    -3804    -2936    -2164    -1551    -1116 
    -818     -612     -552     -726    -1085    -1453    -1691    -1790 
   -1809    -1753    -1522    -1090     -607     -264     -126      -66 
     110      421      658      614      290      -87     -284     -274 
    -195     -164     -240     -463     -789    -1096    -1269    -1287 
   -1273    -1389    -1651    -1902    -1996    -1989    -2038    -2232 
   -2577    -3005    -3379    -3601    -3715    -3815    -3916    -3981 
   -4005    -3975    -3844    -3593    -3311    -3130    -3102    -3180 
   -3331    -3559    -3851    -4174    -4509    -4847    -5196    -5552 
   -5838    -5971    -6014    -6076    -6141    -6124    -5989    -5769 
   -5572    -5503    -5548    -5580    -5445    -5055    -4434    -3701 
   -2988    -2335    -1691     -973     -112      846     1722     2349 
    2654     2636     2362     1969     1593     1269      909      422 
    -195     -873    -1548    -2199    -2790    -3249    -3566    -3819 
   -4085    -4442    -4951    -5570    -6219    -6882    -7549    -8202 
   -8924    -9813   -10789   -11612   -12125   -12325   -12317   -12182 
  -11851   -11232   -10430    -9668    -9103    -8780    -8634    -8530 
   -8403    -8284    -8166    -7975    -7647    -7233    -6918    -6822 
   -6862    -6859    -6704    -6419    -6151    -6039    -6046    -6025 
   -5895    -5737    -5734    -5969    -6320    -6624    -6828    -6955 
   -7024    -6998    -6774    -6322    -5748    -5205    -4769    -4345 
   -3798    -3199    -2739    -2532    -2583    -2803    -3068    -3357 
   -3727    -4152    -4529    -4810    -5000    -5097    -5094    -4990 
   -4845    -4781    -4860    -5077    -5416    -5826    -6265    -6721 
   -7168    -7592    -8035    -8492    -8870    -9130    -9316    -9467 
   -9578    -9620    -9570    -9429    -9192    -8806    -8303    -7865 
   -7603    -7438    -7213    -6859    -6448    -6083    -5773    -5448 
   -5049    -4606    -4228    -3990    -3802    -3503    -3036    -2520 
   -2143    -1952    -1757    -1356     -781     -234      105      256 
     413      679      940     1069     1044      946      843      662 
     313      -66     -234     -141       44       86     -121     -473 
    -733     -738     -549     -338     -229     -272     -457     -716 
    -976    -1213    -1444    -1698    -1995    -2290    -2496    -2608 
   -2762    -3099    -3588    -4048    -4329    -4436    -4533    -4783 
   -5155    -5455    -5520    -5367    -5151    -4970    -4842    -4772 
   -4752    -4743    -4730    -4720    -4743    -4808    -4874    -4860 
   -4704    -4465    -4280    -4202    -4137    -3966    -3689    -3466 
   -3442    -3566    -3643    -3551    -3343    -3200    -3300    -3667 
   -4171    -4653    -5053    -5429    -5869    -6385    -6907    -7398 
   -7861    -8245    -8479    -8615    -8777    -8986    -9165    -9212 
   -9062    -8738    -8355    -8029    -7767    -7457    -7048    -6593 
   -6131    -5699    -5352    -5080    -4819    -4569    -4414    -4391 
   -4411    -4376    -4278    -4122    -3898    -3638    -3407    -3261 
   -3204    -3167    -3096    -3064    -3218    -3574    -3942    -4149 
   -4255    -4392    -4614    -4901    -5182    -5331    -5281    -5120 
   -4986    -4926    -4900    -4869    -4834    -4839    -4908    -4997 
   -5027    -4942    -4754    -4536    -4342    -4170    -3970    -3697 
   -3352    -3033    -2856    -2814    -2841    -2925    -3068    -3261 
   -3504    -3769    -3994    -4121    -4145    -4148    -4190    -4206 
   -4074    -3784    -3456    -3198    -3002    -2771    -2457    -2114 
   -1833    -1632    -1476    -1381    -1359    -1381    -1420    -1487 
   -1618    -1876    -2265    -2650    -2887    -2999    -3125    -3353 
   -3658    -3947    -4147    -4266    -4369    -4530    -4804    -5190 
   -5586    -5852    -5933    -5903    -5879    -5911    -5994    -6091 
   -6170    -6196    -6124    -5938    -5691    -5460    -5255    -5016 
   -4689    -4330    -4032    -3797    -3569    -3352    -3161    -2983 
   -2841    -2741    -2640    -2531    -2473    -2516    -2639    -2775 
   -2889    -2965    -2986    -2964    -2952    -3021    -3213    -3489 
   -3785    -4104    -4494    -4966    -5436    -5772    -5918    -5984 
   -6081    -6154    -6050    -5709    -5236    -4837    -4650    -4679 
   -4788    -4835    -4824    -4881    -5059    -5281    -5439    -5508 
   -5528    -5499    -5375    -5134    -4806    -4410    -3936    -3427 
   -3001    -2789    -2818    -2945    -3007    -3002    -3048    -3248 
   -3570    -3828    -3886    -3808    -3808    -4066    -4487    -4756 
   -4730    -4621    -4730    -5081    -5393    -5390    -5098    -4764 
   -4565    -4492    -4417    -4236    -3963    -3693    -3527    -3537 
   -3712    -3963    -4183    -4330    -4453    -4608    -4784    -4895 
   -4887    -4804    -4722    -4675    -4661    -4649    -4561    -4347 
   -4040    -3739    -3528    -3410    -3306    -3159    -2999    -2902 
   -2901    -2964    -3022    -3055    -3115    -3246    -3454    -3738 
   -4072    -4405    -4683    -4888    -5042    -5166    -5242    -5211 
   -5069    -4908    -4827    -4830    -4873    -4919    -4950    -4965 
   -4976    -5009    -5092    -5220    -5323    -5283    -5094    -4899 
   -4803    -4769    -4671    -4422    -4067    -3736    -3504    -3322 
   -3145    -3036    -3084    -3321    -3676    -4056    -4471    -5016 
   -5719    -6478    -7152    -7643    -7902    -7936    -7794    -7543 
   -7230    -6871    -6466    -6023    -5572    -5144    -4766    -4450 
   -4194    -3990    -3834    -3724    -3645    -3591    -3603    -3709 
   -3863    -3983    -4048    -4129    -4284    -4482    -4637    -4679 
   -4646    -4685    -4882    -5189    -5482    -5647    -5682    -5697 
   -5759    -5799    -5703    -5441    -5098    -4823    -4706    -4708 
   -4729    -4698    -4602    -4455    -4264    -4040    -3792    -3527 
   -3240    -2929    -2614    -2324    -2072    -1868    -1692    -1491 
   -1239    -1001     -908     -988    -1125    -1228    -1306    -1433 
   -1669    -1996    -2343    -2674    -2991    -3300    -3591    -3851 
   -4095    -4391    -4779    -5189    -5520    -5721    -5794    -5790 
   -5819    -5957    -6173    -6397    -6615    -6844    -7090    -7302 
   -7408    -7388    -7308    -7236    -7182    -7114    -7005    -6837 
   -6577    -6174    -5670    -5209    -4972    -4959    -4970    -4839 
   -4553    -4217    -4028    -4101    -4336    -4545    -4650    -4689 
   -4710    -4750    -4795    -4761    -4630    -4486    -4379    -4288 
   -4171    -4013    -3843    -3693    -3582    -3499    -3415    -3318 
   -3202    -3075    -2975    -2926    -2909    -2920    -3007    -3219 
   -3539    -3893    -4224    -4538    -4858    -5161    -5414    -5632 
   -5814    -5926    -5975    -5985    -5958    -5869    -5726    -5563 
   -5391    -5219    -5063    -4918    -4742    -4538    -4352    -4240 
