Origin Time       2025/01/13 21:19:00
Lat.              31.8
Long.             131.6
Depth. (km)       30
Mag.              6.9
Station Code      KMMH05
Station Lat.      32.9553
Station Long.     131.2207
Station Height(m) 693
Record Time       2025/01/13 21:19:54
Sampling Freq(Hz) 100Hz
Duration Time(s)  188
Dir.              5
Scale Factor      7845(gal)/8223790
Max. Acc. (gal)   53.968
Last Correction   2025/01/13 21:19:54
Memo.             
[...]
   38502    39054    39040    38302    36580    33675    29984    26190 
   22673    19661    17427    16021    15283    15020    14987    15063 
   15399    16029    16795    17691    18752    19893    21037    22091 
   22808    22817    21988    20818    20196    20837    23110    27106 
   32412    38199    43733    48338    51309    52196    50858    47359 
   42107    35787    28969    22202    16263    11747     8851     7751 
    8421    10334    13058    16557    20525    24189    26902    28367 
   28503    27423    25444    23095    21018    19683    19299    19896 
   21220    22854    24641    26636    28655    30295    31387    32063 
   32574    33075    33430    33426    33115    32660    32034    31041 
   29631    27892    25844    23529    21085    18746    16958    16129 
   16228    16888    17788    18960    20586    22576    24648    26472 
   27654    28050    27769    26676    24433    21151    17560    14454 
   12136    10592    10026    10831    13212    17059    21930    27175 
   32157    36258    38848    39515    38173    34997    30427    25240 
   20310    16236    13360    11981    12225    13959    16897    20510 
   24043    27010    29272    30646    30944    30069    28051    25216 
   21946    18469    15102    12210    10095     9136     9580    11186 
   13464    16139    19094    22152    25139    27977    30724    33511 
   36186    38211    39078    38626    36909    34153    30643    26601 
   22428    18777    16264    15299    15994    18142    21334    25047 
   28557    31122    32377    32333    31185    29161    26449    23245 
   19807    16521    13860    12151    11585    12217    13865    16376 
   19692    23584    27666    31529    34863    37480    39105    39530 
   38838    37247    35117    32871    30558    27934    24915    21618 
   18158    14800    12040    10262     9683    10544    12908    16567 
   21139    26225    31573    36922    41766    45567    47961    48695 
   47544    44267    38900    32085    24703    17405    10770     5481 
    2147     1121     2459     6019    11198    16929    22320    26928 
   30611    33404    35301    36424    37123    37689    38291    38969 
   39563    40024    40428    40531    39915    38410    36136    33408 
   30601    28066    26131    25093    25127    26130    27696    29376 
   30906    32364    33894    35225    35995    36131    35598    34419 
   32709    30485    27776    24703    21528    18639    16390    15246 
   15628    17243    19183    20668    21313    20922    19360    16854 
   14062    11643     9990     9082     8768     9277    10860    13231 
   15898    18466    20565    21918    22422    22179    21405    20135 
   18355    16372    14581    13192    12195    11338    10557    10228 
   10716    12046    13853    15688    17483    19288    20970    22362 
   23241    23589    23816    24196    24722    25473    26383    27282 
   28254    29362    30541    31880    33502    35397    37372    39172 
   40630    41393    40896    38878    35429    30850    25695    20629 
   16283    13153    11469    11176    11927    13132    14283    15175 
   15707    15871    15967    16359    17190    18423    19865    21189 
   22180    22701    22469    21487    20236    19116    18505    18927 
   20625    23419    26858    30433    33782    36602    38632    39866 
   40489    40815    41210    41868    42826    43966    44983    45557 
   45411    44178    41607    37839    33220    28074    22883    18264 
   14617    12023    10461     9902    10156    10926    12168    14049 
   16632    19903    23710    27680    31450    34659    36973    38234 
   38280    36995    34622    31607    28190    24487    20997    18427 
   16961    16372    16384    16582    16525    16106    15556    15192 
   15271    15935    17352    19764    23097    26991    31228    35433 
   38838    40898    41457    40366    37528    33045    27253    20676 
   13819     6999      608    -4623    -8064    -9552    -9062    -6718 
   -2991     1618     6655    11589    16059    19913    23236    26330 
   29515    33083    37280    42091    47117    51754    55468    57850 
   58714    58175    56423    53581    49767    45141    40032    34847 
   29887    25323    21200    17675    15007    13304    12731    13545 
   15866    19795    25261    31708    38310    44323    49092    52066 
   52964    51822    48941    44787    39762    34292    29007    24241 
   19819    15688    11981     8812     6384     4903     4676     5979 
    8723    12831    18280    24664    31213    37035    41346    43580 
   43329    40423    35120    28131    20353    12640     5714      197 
   -3424    -5125    -5281    -4166    -2146        6     1605     2428 
    2502     1907      886      -93     -689     -916     -951     -846 
    -587     -355     -305     -136      710     2731     6278    11391 
   17798    25114    32830    40432    47574    53997    59594    64417 
   68335    71184    72974    73610    73006    71257    68339    64138 
   58750    52625    46511    40944    35904    31261    27371    24711 
   23207    22511    22296    22056    21579    21173    20972    20761 
   20379    19986    20019    20857    22601    24999    27672    30474 
   33119    34973    35688    35131    32838    28266    21529    13651 
    5846     -961    -5881    -8351    -8455    -6214    -1387     5674 
   13979    22698    31239    38920    45226    49864    52451    52853 
   51466    48510    43787    37489    30358    22820    14821     6674 
    -851    -7465   -13251   -17752   -20667   -22141   -21736   -19080 
  -14565    -8419     -754     7851    16704    25205    32776    39036 
   43796    46951    48477    48524    47501    45742    43360    40471 
   37393    34663    32703    31494    30699    30057    29714    30042 
   31166    32960    35337    38037    40460    42084    42611    41809 
   39534    35818    30948    25421    19854    14928    11209     8885 
    7596     6751     6050     5404     4754     4251     4255     5105 
    6976     9967    14122    19311    25191    31199    36684    41328 
   45287    48743    51819    54851    58071    61387    64578    67130 
   68349    67639    64548    59124    51753    42678    32385    21828 
   11954     3531    -2992    -7642   -10590   -11990   -12047   -10782 
   -8055    -4068      718     6185    12220    18200    23484    27634 
   30369    31675    31386    29189    25397    20903    16591    13161 
   10989     9933     9659    10157    11512    13367    15223    16973 
   18763    20753    22929    24918    26372    27243    27491    26924 
   25444    23245    20699    18260    16379    15364    15396    16406 
   18061    20096    22256    24146    25412    25915    25793    25215 
   24085    22361    20420    18743    17689    17575    18438    20050 
   22318    25205    28502    31968    35357    38516    41655    45091 
   48886    52821    56354    58889    60069    59556    57030    52520 
   46404    39221    31572    24074    17180    11111     6022     2230 
      44     -604      120     2243     5621     9864    14581    19365 
   23697    27068    29281    30366    30113    28219    24956    21061 
   17184    13852    11557    10597    10962    12312    14123    16060 
   18096    20162    22138    24182    26535    29222    32077    34704 
   36528    37265    37014    35734    33281    29924    26231    22615 
   19240    16362    14443    13882    14991    17976    22630    28413 
   34673    40621    45739    49959    53001    54432    54175    52353 
   49225    45063    39816    33594    27083    21001    15745    11511 
    8463     6952     7349     9486    12775    16687    20601    23819 
   26086    27372    27568    26740    25033    22650    20135    18038 
   16501    15457    14870    14655    14705    15111    16002    17230 
   18615    20058    21347    22365    23116    23471    23406    23163 
   22970    22848    22773    22850    23178    23722    24452    25392 
   26477    27525    28305    28671    28709    28730    29050    29921 
   31457    33571    36094    38722    40932    42205    42147    40568 
   37555    33419    28617    23579    18624    14106    10411     7878 
    6701     6718     7512     8891    10922    13522    16474    19715 
   23218    26786    30137    32999    35010    35745    35027    32954 
   29620    25299    20532    15747    11182     7160     4174     2702 
    3001     5117     9067    14847    22095    30001    37791    44906 
   50754    54849    56884    56628    54093    49746    44415    38971 
   33949    29471    25600    22688    21143    20966    21856    23585 
   25874    28200    30176    31742    32837    33367    33401    33150 
   32775    32174    31148    29705    27955    25867    23341    20540 
   17795    15261    13077    11519    10770    10881    11772    13201 
   14976    17047    19386    21910    24420    26734    28852    30546 
   31423    31585    31185    29870    27518    24428    20758    16848 
   13336    10467     8168     6565     5773     5752     6388     7508 
    9140    11308    13498    15248    16806    18455    20123    21801 
   23562    25401    27349    29612    32332    35160    37577    39387 
   40482    40683    39964    38556    36823    35024    33249    31537 
   29871    28040    25701    22646    18889    14581    10216     6621 
    4484     4079     5378     8318    12603    17491    22233    26265 
   29131    30635    30865    30171    29070    27963    27210    27265 
   28406    30559    33399    36583    39757    42412    44163    44898 
   44516    42974    40435    37212    33669    30159    26998    24360 
   22428    21540    21801    22937    24700    26824    28914    30646 
   31737    31888    30954    29027    26364    23279    20052    16845 
   13860    11394     9639     8712     8735     9626    11171    13109 
   15106    16964    18686    20251    21500    22226    22302    21739 
   20625    19105    17513    16291    15709    15880    16826    18436 
   20524    22891    25258    27259    28659    29413    29550    29091 
   28016    26218    23560    20023    15822    11271     6733     2822 
     221     -616      473     3329     7631    13086    19209    25245 
   30537    34703    37520    38994    39444    39259    38650    37805 
   37120    36977    37343    37882    38344    38668    38844    38828 
   38526    37891    37054    36175    35181    33891    32216    30025 
   27203    23755    19664    15009    10187     5749     2258      249 
     144     2269     6793    13568    22138    31716    41203    49478 
   55787    59842    61670    61435    59304    55482    50283    44112 
   37446    30782    24656    19689    16312    14743    15290    18100 
   22851    28987    35876    42687    48527    52766    55039    55001 
   52508    47912    41642    33826    24769    15230     5884    -2808 
  -10116   -15348   -18354   -19134   -17590   -14017    -9135    -3697 
    1599     6143     9510    11551    12447    12607    12414    12108 
   11900    12016    12708    14112    16146    18704    21674    24827 
   28019    31287    34627    37930    41166    44274    46938    48732 
   49435    48975    47271    44261    40012    34956    29739    24784 
   20428    17058    14863    13784    13864    15265    17913    21510 
   25740    30227    34473    38005    40602    42329    43367    43713 
   43105    41311    38410    34732    30407    25371    19789    14054 
    8843     5121     3686     4819     8482    14513    22439    31344 
   40072    47297    51972    53750    52586    48483    41832    33477 
   24356    15277     6852     -604    -6898   -11820   -15381   -17679 
  -18513   -17760   -15678   -12440    -8010    -2373     4321    11496 
   18565    25350    31610    36948    40960    43154    43434    42260 
   40059    37193    34209    31688    29925    28900    28460    28422 
   28642    29151    30125    31588    33504    35818    38107    39877 
   40888    40933    39820    37470    34071    30007    25648    21589 
   18613    17037    16565    16846    17722    19075    20744    22439 
   23841    24865    25458    25436    24923    24356    24048    24115 
   24641    25817    27621    29667    31912    34659    37867    41365 
   45245    49559    53971    58068    61672    64292    64955    62999 
   58444    51460    41990    30310    17512     4923    -6210   -14604 
  -19487   -21081   -19981   -16380   -10739    -4459     1296     6369 
   10719    14165    16873    19240    21444    23421    25010    25899 
   25627    23955    21088    17409    13387     9552     6157     3406 
    1786     1482     2261     4004     6731    10535    15446    21200 
   27324    33351    39043    44124    47883    49775    49755    47835 
   44108    38658    31621    23696    15896     9078     3865      450 
   -1173     -905     1209     4895     9853    15601    21602    27716 
   34001    40269    46094    51074    55038    57969    59660    59618 
   57647    53967    48779    42453    35506    28150    20644    13725 
    7962     3218     -684    -3562    -5358    -6081    -5551    -3624 
    -236     4311     9162    13697    17786    21230    23869    25903 
   27684    29438    31359    33831    36787    39324    41328    43649 
   45763    46603    46533    45967    45000    44018    43000    42051 
   41716    42237    43557    45517    47769    49854    51362    52213 
   52564    52470    51881    50500    47563    42417    35000    25529 
   14354     2236    -9491   -19364   -26550   -30821   -31872   -29515 
  -24146   -16344    -6853     3225    12989    22036    30211    37246 
   42962    47699    51618    54351    55738    55669    53927    50598 
   45778    39588    32663    25920    20031    15499    12771    11867 
   12528    14530    17355    20272    22828    24727    25706    25663 
   24707    23008    20478    16931    12599     8006     3681      206 
   -1830    -1939       12     3500     7815    12650    17659    22011 
   24983    26392    26476    25807    25058    24788    25415    27120 
   29860    33361    37255    41224    44774    47645    50112    52185 
   53622    54564    55174    55183    54124    51675    47649    41756 
   33787    24039    13309     2674    -6903   -14936   -21104   -24921 
  -26098   -24837   -21631   -16929   -10970    -3870     4044    12276 
   20533    28493    35640    41814    47252    51879    55323    57600 
   59046    59879    60218    59992    59030    57545    55912    54209 
   52392    50437    48363    46264    44057    41559    38840    35918 
   32576    28823    24768    20256    15317    10415     6023     2301 
    -719    -2918    -4534    -6272    -8197    -9614   -10270   -10345 
   -9776    -8440    -6188    -2806     1510     6124    10534    14635 
   18511    22140    25319    27866    29921    31862    33952    36227 
   38554    40605    42025    42724    42708    41752    39808    37245 
   34406    31538    28980    26901    25127    23498    22142    20992 
   19595    17948    16640    15970    16025    17018    18819    21169 
   24057    27265    30576    34072    37609    40976    44215    47119 
   49283    50464    50460    49153    46614    43108    39240    35633 
   32525    29916    27834    26476    25983    26030    26134    26017 
   25420    24270    22846    21277    19496    17609    15839    14395 
   13285    12426    11812    11250    10666    10264     9969     9591 
    9304     9464    10282    11924    14422    17219    19566    21271 
   22242    22053    20472    17631    13684     9053     4710     1632 
     324      823     2874     6334    11222    17155    23147    28432 
   33083    37258    40734    43522    45877    47785    49125    49810 
   49640    48388    46036    42709    38453    33315    27610    21822 
   16443    11835     8077     5228     3612     3441     4608     6986 
   10500    14931    19928    25200    30607    36100    41443    46249 
   50353    53711    56106    57431    57927    57820    57118    55863 
   54238    52330    49900    46673    42735    38240    33178    27764 
   22362    17178    12518     8765     6031     4259     3329     2909 
    2486     1605      106    -1950    -4538    -7360    -9709   -11157 
  -11676   -11064    -9036    -5630    -1074     4288     9940    15484 
   20781    25594    29490    32336    34535    36425    38053    39501 
   40711    41435    41582    41210    40296    38735    36553    34010 
   31360    28602    25699    22689    19338    15412    11014     6251 
    1317    -3245    -6801    -8892    -9304    -8012    -5115     -618 
    5543    13080    21536    30596    39815    48590    56327    62613 
   67393    70611    72071    71818    70047    66999    63090    58621 
   53910    49511    45900    43267    41531    40606    40470    40999 
   42020    43155    43876    43945    43445    42371    40531    37991 
   34963    31288    26867    22053    17101    12073     7207     2776 
   -1048    -3916    -5427    -5605    -4846    -3559    -1957     -229 
    1174     1890     2027     1846     1525     1301     1463     2263 
    3771     5849     8513    11854    15553    19143    22437    25350 
   27837    29845    31031    31040    29970    28081    25501    22369 
   19030    15905    13279    11379    10292     9895    10291    11873 
   14651    18172    22081    26195    30298    34246    37914    40953 
   43024    44262    44991    45056    44116    42161    39333    35954 
   32501    29232    26185    23390    21150    19936    19795    20429 
   21622    23255    25257    27333    28845    29447    29301    28487 
   26987    24938    22527    19958    17562    15693    14418    13626 
   13252    13153    13251    13652    14424    15591    17190    19165 
   21466    24258    27523    30771    33760    36674    39388    41697 
   43823    45994    48176    50357    52524    54456    55858    56652 
   56812    56220    54872    52787    49964    46581    42865    38870 
   34649    30391    26180    22177    18912    16538    14612    13022 
   12239    12521    13397    14291    14920    14883    14006    12529 
   10451     7688     4558     1574     -869    -2533    -3283    -3145 
   -2273     -820      935     2860     5158     7738    10096    12104 
   13998    15742    17111    18100    18806    19302    19693    20206 
   21151    22631    24729    27645    31236    35191    39291    43062 
   45979    47758    48188    47232    45211    42504    39370    36085 
   32863    29690    26663    24092    22026    20364    19325    19080 
   19468    20395    21895    23818    25968    28364    30990    33485 
   35455    36846    37810    38398    38569    38306    37524    36115 
   34110    31553    28518    25362    22418    19635    16924    14399 
   12089     9936     7931     5945     3825     1682     -233    -1803 
   -2988    -3651    -3553    -2403     -151     2806     6092     9649 
   13396    16984    20039    22477    24451    26106    27665    29439 
   31557    33993    36725    39660    42562    45220    47452    49167 
   50437    51277    51637    51398    50292    48251    45409    41793 
   37492    32864    28246    23765    19691    16461    14224    12958 
   12861    14108    16672    20259    24250    28100    31534    34430 
   36742    38272    38943    39023    38767    38342    37879    37386 
