Origin Time       2025/01/13 21:19:00
Lat.              31.8
Long.             131.6
Depth. (km)       30
Mag.              6.9
Station Code      KMMH11
Station Lat.      32.2918
Station Long.     130.5777
Station Height(m) -200
Record Time       2025/01/13 21:19:50
Sampling Freq(Hz) 100Hz
Duration Time(s)  175
Dir.              1
Scale Factor      3923(gal)/8224838
Max. Acc. (gal)   3.111
Last Correction   2025/01/13 21:19:51
Memo.             
[...]
  -45646   -45603   -45646   -45855   -46152   -46496   -46882   -47233 
  -47528   -47756   -47907   -48050   -48227   -48398   -48570   -48768 
  -48975   -49181   -49387   -49612   -49910   -50259   -50558   -50749 
  -50843   -50877   -50849   -50737   -50535   -50260   -49994   -49828 
  -49747   -49693   -49669   -49677   -49674   -49661   -49655   -49617 
  -49496   -49293   -49042   -48764   -48443   -48092   -47731   -47352 
  -47005   -46768   -46614   -46488   -46373   -46287   -46264   -46300 
  -46346   -46354   -46280   -46126   -45948   -45765   -45558   -45347 
  -45187   -45080   -44983   -44930   -44876   -44714   -44595   -44558 
  -44432   -44271   -43988   -43498   -43036   -42633   -42265   -42064 
  -41908   -41710   -41625   -41643   -41681   -41763   -41787   -41778 
  -41854   -41845   -41736   -41632   -41358   -41068   -40952   -40725 
  -40559   -40625   -40622   -40755   -41037   -41106   -41215   -41400 
  -41430   -41559   -41783   -41901   -42075   -42284   -42429   -42660 
  -42925   -43128   -43394   -43696   -43915   -44058   -44120   -44111 
  -44096   -44118   -44194   -44242   -44221   -44178   -44088   -44018 
  -44091   -44277   -44541   -44863   -45150   -45370   -45577   -45766 
  -45929   -46060   -46178   -46377   -46685   -47054   -47524   -48043 
  -48500   -48917   -49231   -49376   -49478   -49526   -49518   -49600 
  -49634   -49526   -49418   -49314   -49302   -49238   -48992   -49064 
  -49067   -48752   -49003   -49033   -48663   -49046   -49003   -48658 
  -49222   -49231   -49040   -49712   -49755   -49662   -50256   -50120 
  -49794   -50006   -49588   -48991   -48887   -48420   -47823   -47632 
  -47200   -46413   -45814   -45264   -44562   -44139   -43942   -43544 
  -43333   -43498   -43591   -43735   -44101   -44344   -44425   -44556 
  -44682   -44721   -44674   -44506   -44296   -44089   -43827   -43721 
  -43818   -43760   -43762   -43938   -43750   -43613   -43684   -43251 
  -42959   -42952   -42415   -42147   -42202   -41813   -41875   -42310 
  -42340   -42732   -43286   -43297   -43505   -43804   -43660   -43704 
  -43884   -43756   -43788   -44035   -44154   -44388   -44767   -44969 
  -45141   -45439   -45621   -45774   -46056   -46246   -46414   -46674 
  -46842   -47002   -47233   -47386   -47569   -47787   -47854   -47952 
  -48222   -48427   -48559   -48805   -49017   -49107   -49110   -48867 
  -48814   -48874   -48181   -47876   -48154   -47439   -47104   -47629 
  -47418   -47513   -48281   -48262   -48136   -48622   -48547   -48284 
  -48624   -48489   -48219   -48521   -48459   -48315   -48591   -48517 
  -48249   -48247   -48030   -47738   -47683   -47312   -46931   -46758 
  -46091   -45678   -45652   -45169   -45231   -45511   -45095   -45137 
  -45134   -44676   -44836   -44776   -44474   -44836   -44783   -44377 
  -44633   -44726   -44359   -44421   -44601   -44209   -43929   -44043 
  -43745   -43526   -43777   -43656   -43657   -44135   -44324   -44516 
  -44945   -45075   -44961   -44859   -44552   -44113   -43875   -43741 
  -43659   -43673   -43583   -43370   -43105   -42718   -42306   -41979 
  -41589   -41215   -41089   -40968   -40957   -41392   -41671   -41755 
  -42136   -42414   -42762   -43380   -43726   -44205   -44892   -45188 
  -45477   -45790   -45796   -45855   -45976   -45893   -45636   -45415 
  -45306   -45135   -45141   -45273   -45188   -45357   -45711   -45797 
  -46102   -46508   -46597   -46893   -47333   -47474   -47719   -48051 
  -48089   -48070   -48053   -47896   -47781   -47731   -47641   -47603 
  -47586   -47509   -47533   -47649   -47663   -47768   -48020   -48105 
  -48196   -48451   -48612   -48807   -49052   -49145   -49285   -49374 
  -49312   -49381   -49427   -49341   -49284   -49135   -48911   -48760 
  -48681   -48613   -48546   -48551   -48420   -48081   -47806   -47412 
  -46928   -46631   -46198   -45705   -45428   -44968   -44423   -44131 
  -43738   -43299   -43092   -42812   -42511   -42368   -42169   -42029 
  -42048   -42005   -41995   -42106   -42165   -42180   -42229   -42267 
  -42284   -42375   -42512   -42579   -42642   -42643   -42549   -42639 
  -42765   -42677   -42700   -42772   -42570   -42546   -42750   -42669 
  -42709   -42950   -42781   -42655   -42789   -42638   -42637   -42900 
  -42795   -42742   -42973   -42990   -43096   -43382   -43434   -43594 
  -43954   -44112   -44296   -44551   -44570   -44591   -44721   -44767 
  -44888   -45126   -45339   -45605   -45828   -45862   -45836   -45828 
  -45844   -45951   -46138   -46337   -46529   -46697   -46788   -46878 
  -47077   -47245   -47345   -47515   -47605   -47488   -47420   -47412 
  -47278   -47209   -47299   -47360   -47457   -47637   -47694   -47576 
  -47317   -46957   -46618   -46269   -45966   -45889   -45820   -45779 
  -46090   -46305   -46325   -46681   -46916   -46962   -47353   -47487 
  -47430   -47795   -47877   -47799   -48097   -48068   -47966   -48262 
  -48278   -48246   -48485   -48377   -48150   -48107   -47768   -47351 
  -47208   -47025   -46900   -47077   -47228   -47297   -47542   -47760 
  -47771   -47796   -47791   -47596   -47429   -47367   -47235   -47081 
  -46908   -46635   -46408   -46202   -45909   -45716   -45542   -45135 
  -44767   -44579   -44254   -43902   -43642   -43152   -42687   -42527 
  -42296   -42187   -42431   -42593   -42793   -43182   -43378   -43525 
  -43745   -43734   -43646   -43573   -43297   -42988   -42728   -42369 
  -42072   -41913   -41779   -41781   -41899   -41994   -42145   -42311 
  -42357   -42418   -42542   -42643   -42809   -43067   -43351   -43741 
  -44227   -44675   -45123   -45563   -45918   -46357   -46870   -47171 
  -47344   -47530   -47538   -47399   -47278   -47028   -46687   -46518 
  -46414   -46290   -46373   -46562   -46718   -47007   -47275   -47389 
  -47560   -47680   -47677   -47745   -47733   -47613   -47630   -47687 
  -47729   -47872   -47997   -48100   -48219   -48145   -48018   -48072 
  -47941   -47656   -47669   -47565   -47309   -47464   -47422   -47158 
  -47347   -47304   -47169   -47540   -47522   -47407   -47817   -47858 
  -47829   -48181   -48065   -47817   -47796   -47344   -46858   -46587 
  -46020   -45507   -45149   -44680   -44452   -44394   -44261   -44270 
  -44336   -44348   -44424   -44477   -44508   -44582   -44606   -44625 
  -44690   -44755   -44890   -45121   -45372   -45574   -45706   -45883 
  -46075   -46107   -46160   -46272   -46175   -46097   -46109   -45902 
  -45829   -45922   -45747   -45712   -45774   -45519   -45492   -45578 
  -45364   -45384   -45446   -45234   -45291   -45339   -45142   -45198 
  -45193   -45002   -45073   -45090   -45004   -45150   -45220   -45261 
  -45511   -45746   -46067   -46510   -46849   -47202   -47453   -47687 
  -48096   -48073   -48089   -48517   -48240   -47984   -48196   -47852 
  -47772   -47709   -47160   -47247   -46765   -45970   -46275   -45621 
  -44830   -45253   -44498   -43927   -44536   -43949   -43802   -44594 
  -44123   -44077   -44662   -44034   -43780   -43947   -43154   -42759 
  -42638   -41943   -41793   -41694   -41203   -41295   -41218   -40937 
  -41277   -41351   -41382   -41901   -42053   -42226   -42691   -42819 
  -43137   -43641   -43765   -44205   -44865   -45121   -45592   -46126 
  -46273   -46521   -46741   -46886   -47044   -46928   -47078   -47233 
  -46899   -46990   -46953   -46354   -46381   -46221   -45605   -45739 
  -45611   -45199   -45636   -45806   -45756   -46372   -46602   -46620 
  -47144   -47297   -47375   -47822   -47860   -47950   -48361   -48308 
  -48375   -48714   -48483   -48428   -48691   -48362   -48350   -48679 
  -48375   -48494   -48760   -48367   -48636   -48857   -48330   -48520 
  -48585   -47983   -48050   -48038   -47537   -47540   -47537   -47266 
  -47245   -47197   -47085   -47074   -47059   -47058   -46985   -46935 
  -46872   -46585   -46392   -46259   -45958   -45868   -45808   -45563 
  -45581   -45590   -45431   -45628   -45809   -45758   -46002   -46074 
  -45859   -45978   -45819   -45361   -45389   -45212   -44753   -44744 
  -44505   -44099   -44215   -44062   -43818   -44111   -44026   -43877 
  -44213   -44073   -43902   -44230   -44227   -44274   -44614   -44521 
  -44412   -44487   -44278   -44086   -43958   -43659   -43436   -43233 
  -42943   -42720   -42542   -42404   -42299   -42232   -42292   -42406 
  -42596   -42871   -43004   -43082   -43209   -43213   -43258   -43418 
  -43424   -43456   -43575   -43484   -43486   -43645   -43596   -43653 
  -43842   -43785   -43854   -44046   -44014   -44154   -44378   -44324 
  -44429   -44574   -44506   -44620   -44748   -44770   -44879   -44884 
  -44952   -45052   -45063   -45412   -45654   -45690   -46168   -46349 
  -46307   -46759   -46813   -46743   -47163   -47137   -47110   -47556 
  -47552   -47549   -47880   -47748   -47667   -47915   -47769   -47644 
  -47772   -47584   -47494   -47657   -47552   -47583   -47767   -47602 
  -47560   -47664   -47468   -47375   -47335   -47036   -46938   -46946 
  -46768   -46776   -46830   -46691   -46695   -46728   -46619   -46643 
  -46734   -46684   -46558   -46450   -46311   -46076   -45939   -45859 
  -45662   -45709   -45883   -45844   -46009   -46199   -46165   -46437 
  -46719   -46778   -47113   -47352   -47341   -47587   -47700   -47538 
  -47544   -47441   -47210   -47174   -47005   -46742   -46734   -46645 
  -46418   -46336   -46160   -45894   -45746   -45465   -45100   -44888 
  -44672   -44456   -44285   -44078   -44018   -44023   -43993   -44208 
  -44424   -44516   -44853   -45096   -45195   -45512   -45597   -45542 
  -45702   -45673   -45705   -45943   -45895   -45879   -45967   -45837 
  -45858   -45912   -45777   -45864   -45875   -45571   -45387   -45061 
  -44535   -44194   -43735   -43214   -42969   -42670   -42392   -42348 
  -42198   -42097   -42268   -42410   -42604   -42970   -43240   -43529 
  -43912   -44151   -44321   -44497   -44629   -44841   -45058   -45252 
  -45582   -45859   -46075   -46394   -46552   -46623   -46778   -46769 
  -46791   -46927   -46882   -46903   -47034   -47029   -47120   -47243 
  -47217   -47237   -47191   -47031   -46939   -46754   -46496   -46299 
  -45974   -45628   -45364   -45018   -44767   -44625   -44423   -44351 
  -44334   -44186   -44128   -44128   -44108   -44254   -44427   -44485 
  -44564   -44587   -44504   -44402   -44193   -43888   -43632   -43383 
  -43108   -42901   -42795   -42755   -42846   -43016   -43117   -43271 
  -43537   -43726   -43904   -44096   -44158   -44251   -44404   -44410 
  -44413   -44474   -44433   -44478   -44640   -44672   -44753   -44952 
  -44976   -44979   -45065   -45004   -44979   -45100   -45137   -45253 
  -45515   -45658   -45793   -45963   -45987   -46024   -46098   -46044 
  -46006   -46072   -46145   -46264   -46408   -46507   -46610   -46696 
  -46704   -46689   -46707   -46739   -46773   -46847   -46920   -46958 
  -47056   -47177   -47251   -47412   -47605   -47741   -47957   -48197 
  -48396   -48675   -48897   -48972   -49091   -49181   -49176   -49235 
  -49265   -49192   -49192   -49172   -49059   -49041   -49037   -48944 
  -48926   -48932   -48872   -48917   -49027   -49122   -49311   -49526 
  -49688   -49858   -49941   -49916   -49837   -49666   -49497   -49354 
  -49095   -48820   -48582   -48258   -47938   -47672   -47356   -47062 
  -46795   -46457   -46133   -45850   -45535   -45238   -44975   -44714 
  -44497   -44369   -44329   -44316   -44334   -44443   -44525   -44556 
  -44639   -44635   -44581   -44605   -44520   -44427   -44473   -44443 
  -44420   -44482   -44410   -44332   -44354   -44305   -44280   -44320 
  -44269   -44230   -44243   -44182   -44150   -44154   -44072   -43978 
  -43835   -43573   -43332   -43083   -42796   -42624   -42533   -42483 
  -42596   -42815   -43079   -43459   -43872   -44251   -44631   -44952 
  -45185   -45389   -45557   -45692   -45859   -46080   -46307   -46491 
  -46654   -46764   -46737   -46654   -46561   -46392   -46225   -46059 
  -45821   -45674   -45677   -45740   -45900   -46113   -46313   -46591 
  -46905   -47146   -47353   -47564   -47746   -47893   -47996   -48049 
  -48068   -48033   -47914   -47764   -47582   -47332   -47171   -47093 
  -46931   -46886   -46924   -46785   -46792   -46900   -46824   -46919 
  -47081   -47066   -47205   -47317   -47258   -47295   -47213   -47042 
  -46940   -46660   -46403   -46202   -45868   -45704   -45565   -45324 
  -45301   -45242   -45111   -45173   -45153   -45103   -45254   -45341 
  -45419   -45617   -45682   -45724   -45866   -45895   -45898   -45962 
  -45925   -45839   -45748   -45592   -45468   -45404   -45346   -45335 
  -45299   -45192   -45121   -45011   -44837   -44729   -44572   -44351 
  -44238   -44095   -43902   -43781   -43618   -43461   -43382   -43270 
  -43249   -43332   -43436   -43710   -44045   -44335   -44699   -44980 
  -45179   -45414   -45469   -45395   -45316   -45104   -44913   -44728 
  -44273   -43966   -43885   -43395   -43178   -43471   -43113   -42979 
  -43474   -43155   -43089   -43733   -43514   -43420   -43978   -43823 
  -43641   -43980   -43812   -43541   -43721   -43588   -43317   -43470 
  -43447   -43254   -43470   -43561   -43413   -43625   -43668   -43507 
  -43781   -43795   -43579   -43787   -43676   -43424   -43603   -43416 
  -43113   -43247   -43096   -42873   -42996   -42859   -42750   -43033 
  -43085   -43139   -43618   -43843   -43877   -44334   -44633   -44667 
  -45220   -45736   -45890   -46611   -47436   -47812   -48558   -49461 
  -49913   -50434   -51121   -51517   -51756   -52057   -52192   -52103 
  -51979   -51714   -51244   -50761   -50195   -49507   -48872   -48190 
  -47525   -47038   -46522   -46099   -45879   -45581   -45416   -45463 
  -45414   -45500   -45713   -45748   -45860   -46060   -46151   -46326 
  -46468   -46487   -46661   -46801   -46764   -46880   -46998   -46900 
  -46915   -46977   -46813   -46751   -46826   -46672   -46592   -46718 
  -46647   -46612   -46701   -46508   -46284   -46179   -45851   -45519 
  -45337   -45010   -44680   -44500   -44199   -43841   -43644   -43440 
  -43190   -43098   -43056   -42934   -42947   -43117   -43268   -43501 
  -43841   -44111   -44375   -44733   -45068   -45341   -45604   -45881 
  -46143   -46363   -46589   -46822   -46985   -47169   -47414   -47611 
  -47804   -48018   -48073   -48019   -48020   -47929   -47673   -47456 
  -47208   -46851   -46634   -46503   -46299   -46226   -46264   -46275 
  -46415   -46643   -46785   -46961   -47216   -47405   -47510   -47586 
  -47567   -47425   -47337   -47258   -47083   -47152   -47159   -46769 
  -47028   -47475   -46917   -47175   -47938   -47097   -47178   -47939 
  -46647   -46487   -47113   -45549   -45316   -45963   -44558   -44489 
  -45208   -43997   -43977   -44693   -43717   -43775   -44516   -43811 
  -43964   -44786   -44436   -44662   -45404   -45200   -45331   -45870 
  -45721   -45717   -45982   -45781   -45667   -45783   -45623   -45492 
  -45465   -45227   -45002   -44857   -44652   -44562   -44440   -44057 
  -43822   -43776   -43333   -42919   -43063   -42826   -42444   -42969 
  -43074   -42836   -43740   -44149   -44101   -45254   -45804   -45805 
  -46824   -47162   -47016   -47745   -47800   -47452   -47895   -47821 
  -47506   -47910   -47904   -47687   -47958   -47819   -47522   -47610 
  -47358   -47000   -46938   -46627   -46322   -46296   -46098   -45918 
  -45986   -45999   -46029   -46147   -46245   -46421   -46585   -46676 
  -46781   -46872   -46970   -46907   -46859   -47025   -46683   -46454 
  -46773   -46137   -45747   -46118   -45148   -44732   -45216   -44136 
  -43850   -44470   -43518   -43505   -44289   -43537   -43698   -44497 
  -43803   -43883   -44500   -43853   -43899   -44390   -43792   -43718 
  -44020   -43459   -43275   -43436   -42985   -42842   -43081   -42951 
  -43016   -43476   -43825   -44227   -44783   -45226   -45642   -46039 
  -46294   -46539   -46670   -46561   -46546   -46624   -46471   -46357 
  -46519   -46407   -46175   -46453   -46419   -46089   -46418   -46242 
  -45600   -45796   -45515   -44806   -45041   -44860   -44284   -44649 
  -44724   -44373   -44751   -44923   -44691   -44991   -45184   -45027 
  -45214   -45393   -45373   -45597   -45866   -46017   -46287   -46496 
  -46495   -46481   -46437   -46290   -46155   -46012   -45808   -45620 
  -45439   -45260   -45117   -44911   -44693   -44617   -44531   -44427 
  -44533   -44649   -44643   -44810   -44975   -44841   -44865   -44984 
  -44734   -44695   -44828   -44501   -44442   -44636   -44352   -44367 
  -44628   -44405   -44487   -44787   -44610   -44698   -44955   -44793 
  -44911   -45200   -45131   -45293   -45598   -45679   -46049   -46569 
  -46840   -47210   -47580   -47702   -47876   -48051   -48073   -48134 
  -48163   -48109   -48158   -48200   -48155   -48204   -48261   -48203 
  -48192   -48186   -48031   -47877   -47788   -47571   -47308   -47170 
  -46957   -46646   -46502   -46326   -46044   -45966   -45841   -45574 
  -45522   -45384   -45080   -45006   -44867   -44610   -44612   -44564 
  -44424   -44544   -44660   -44718   -44965   -45156   -45289   -45598 
  -45854   -46029   -46315   -46558   -46734   -46942   -47048   -47077 
  -47110   -47047   -46934   -46805   -46541   -46230   -45978   -45669 
  -45318   -45037   -44780   -44442   -44093   -43864   -43499   -43013 
  -42793   -42419   -41920   -41870   -41656   -41354   -41540   -41486 
  -41413   -41837   -41975   -42088   -42564   -42687   -42785   -43160 
  -43190   -43227   -43495   -43486   -43522   -43727   -43665   -43623 
  -43686   -43522   -43405   -43425   -43317   -43252   -43289   -43232 
  -43204   -43255   -43260   -43316   -43424   -43474   -43568   -43735 
  -43888   -44155   -44563   -44934   -45310   -45777   -46192   -46514 
  -46874   -47205   -47395   -47676   -48068   -48311   -48644   -49099 
  -49357   -49731   -50253   -50545   -50869   -51250   -51356   -51467 
  -51657   -51653   -51656   -51722   -51645   -51595   -51644   -51621 
  -51611   -51636   -51564   -51441   -51278   -50986   -50610   -50209 
  -49781   -49351   -48959   -48600   -48265   -47939   -47633   -47353 
  -47051   -46704   -46368   -46037   -45696   -45396   -45134   -44865 
  -44639   -44478   -44305   -44139   -44038   -43911   -43761   -43714 
  -43638   -43505   -43495   -43451   -43329   -43343   -43320   -43233 
  -43264   -43208   -43050   -42982   -42849   -42662   -42612   -42574 
  -42527   -42587   -42653   -42708   -42822   -42904   -42943   -42998 
  -43033   -43046   -43073   -43101   -43148   -43218   -43278   -43347 
  -43440   -43530   -43640   -43783   -43911   -44037   -44200   -44367 
  -44514   -44682   -44865   -45052   -45284   -45544   -45767   -45986 
  -46226   -46418   -46596   -46792   -46928   -47092   -47322   -47476 
  -47618   -47788   -47825   -47798   -47776   -47622   -47399   -47187 
  -46880   -46512   -46194   -45962   -45945   -45945   -45752   -46030 
  -46484   -46116   -46319   -47007   -46408   -46623   -47433   -46703 
  -47110   -47962   -47236   -47796   -48508   -47729   -48174   -48631 
  -47831   -48100   -48347   -47613   -47746   -47868   -47293   -47348 
  -47426   -47069   -47063   -47078   -46869   -46813   -46758   -46593 
  -46467   -46321   -46179   -46109   -46039   -45964   -45886   -45750 
  -45613   -45476   -45226   -44987   -44864   -44643   -44343   -44246 
