Origin Time       2025/01/13 21:19:00
Lat.              31.8
Long.             131.6
Depth. (km)       30
Mag.              6.9
Station Code      KMMH11
Station Lat.      32.2918
Station Long.     130.5777
Station Height(m) 100
Record Time       2025/01/13 21:19:50
Sampling Freq(Hz) 100Hz
Duration Time(s)  175
Dir.              5
Scale Factor      7845(gal)/8223790
Max. Acc. (gal)   6.241
Last Correction   2025/01/13 21:19:51
Memo.             
[...]
    6793     6686     6569     6450     6270     5968     5575     5209 
    4965     4814     4630     4344     4017     3802     3834     4091 
    4386     4514     4457     4352     4324     4387     4450     4440 
    4383     4344     4328     4261     4091     3886     3757     3724 
    3716     3672     3605     3589     3689     3897     4171     4476 
    4770     5015     5196     5298     5317     5305     5356     5486 
    5625     5724     5787     5863     5938     5910     5706     5358 
    4946     4545     4172     3815     3500     3269     3111     2988 
    2878     2789     2770     2841     2911     2857     2651     2369 
    2119     1930     1788     1710     1718     1825     2030     2311 
    2596     2816     2956     3042     3090     3111     3149     3219 
    3296     3369     3466     3640     3946     4396     4969     5618 
    6246     6728     7025     7182     7269     7339     7387     7376 
    7311     7261     7315     7511     7815     8147     8440     8679 
    8860     8922     8795     8455     7965     7479     7141     6984 
    6917     6812     6619     6405     6241     6073     5794     5422 
    5119     5039     5244     5676     6205     6690     7020     7161 
    7145     7030     6894     6785     6691     6567     6396     6241 
    6153     6115     6064     5945     5773     5620     5525     5468 
    5373     5197     5000     4891     4920     5057     5233     5387 
    5498     5563     5549     5421     5194     4905     4561     4156 
    3740     3399     3169     3024     2921     2860     2848     2833 
    2693     2334     1813     1309      994      920     1021     1196 
    1375     1580     1853     2151     2390     2532     2620     2731 
    2886     3036     3136     3207     3288     3357     3325     3130 
    2812     2479     2230     2097     2069     2101     2169     2258 
    2382     2570     2816     3069     3256     3307     3215     3022 
    2813     2706     2795     3071     3458     3886     4311     4700 
    5015     5228     5328     5305     5175     4990     4816     4738 
    4828     5057     5305     5501     5675     5927     6324     6809 
    7263     7627     7882     8039     8132     8163     8104     7955 
    7780     7654     7607     7578     7481     7249     6853     6355 
    5892     5576     5395     5274     5146     4995     4876     4835 
    4824     4761     4633     4463     4244     3955     3616     3306 
    3106     3034     3026     3002     2955     2952     3046     3208 
    3377     3550     3766     4037     4317     4530     4604     4556 
    4509     4594     4818     5046     5140     5101     4995     4864 
    4734     4642     4615     4635     4639     4596     4531     4507 
    4563     4718     4974     5292     5575     5718     5688     5566 
    5470     5436     5421     5381     5266     5046     4780     4572 
    4456     4371     4224     3993     3731     3496     3321     3210 
    3110     2940     2687     2404     2107     1761     1350      935 
     623      533      710     1065     1420     1607     1590     1507 
    1541     1711     1903     2058     2259     2602     3080     3584 
    4013     4344     4608     4841     5039     5163     5208     5239 
    5333     5499     5694     5892     6100     6300     6435     6484 
    6502     6567     6709     6902     7072     7156     7161     7123 
    7025     6826     6558     6326     6234     6278     6334     6286 
    6166     6073     6043     6033     5967     5827     5674     5586 
    5571     5560     5495     5368     5201     5016     4837     4693 
    4631     4648     4648     4514     4201     3759     3349     3129 
    3107     3159     3171     3136     3111     3125     3160     3194 
    3188     3121     3013     2913     2882     2970     3144     3275 
    3254     3111     2979     3013     3272     3669     4058     4342 
    4525     4664     4815     4999     5194     5390     5616     5875 
    6060     6016     5691     5181     4656     4233     3920     3667 
    3408     3136     2884     2662     2465     2351     2388     2555 
    2724     2756     2617     2390     2207     2192     2443     2968 
    3682     4484     5282     5961     6412     6631     6727     6828 
    6993     7211     7466     7740     8006     8225     8349     8351 
    8228     7998     7715     7457     7258     7086     6876     6628 
    6397     6223     6079     5903     5675     5432     5243     5159 
    5189     5297     5422     5503     5505     5418     5227     4946 
    4642     4369     4162     4031     3944     3835     3650     3381 
    3099     2918     2906     3029     3203     3373     3531     3692 
    3865     4048     4230     4407     4591     4788     4954     4993 
    4847     4572     4298     4133     4132     4315     4672     5152 
    5695     6238     6736     7167     7534     7823     7994     7997 
    7830     7587     7392     7285     7180     6936     6521     6070 
    5726     5537     5462     5395     5231     4928     4500     3970 
    3385     2851     2455     2207     2020     1771     1418     1051 
     808      785      985     1340     1791     2286     2781     3213 
    3534     3739     3850     3852     3711     3429     3086     2799 
    2627     2517     2376     2174     1976     1867     1876     1931 
    1911     1809     1773     1961     2411     3022     3580     3888 
    3889     3709     3557     3586     3856     4342     4989     5733 
    6498     7198     7716     7920     7750     7311     6836     6521 
    6378     6276     6092     5825     5597     5522     5575     5598 
    5451     5109     4661     4212     3844     3642     3655     3870 
    4178     4433     4558     4581     4553     4504     4455     4386 
    4259     4087     3929     3820     3750     3676     3581     3520 
    3564     3730     4004     4347     4687     4965     5169     5321 
    5436     5479     5410     5238     5023     4850     4791     4839 
    4932     5027     5143     5328     5582     5852     6104     6345 
    6571     6789     7033     7304     7553     7716     7742     7608 
    7342     7005     6669     6373     6126     5934     5796     5713 
    5678     5688     5757     5863     5940     5907     5738     5470 
    5167     4870     4599     4372     4222     4155     4093     3950 
    3716     3423     3099     2744     2351     1957     1648     1495 
    1514     1641     1750     1776     1776     1841     1988     2158 
    2265     2263     2177     2095     2104     2243     2489     2751 
    2941     3042     3118     3238     3416     3612     3762     3805 
    3719     3524     3264     2986     2758     2656     2735     2964 
    3233     3406     3415     3308     3210     3225     3366     3572 
    3743     3821     3846     3909     4079     4379     4764     5157 
    5512     5853     6238     6643     6941     7047     7022     6997 
    7030     7095     7115     7057     6953     6855     6771     6651 
    6457     6223     6045     5962     5894     5717     5410     5071 
    4820     4691     4627     4569     4527     4548     4635     4719 
    4734     4702     4695     4752     4833     4850     4768     4653 
    4599     4627     4681     4661     4486     4194     3928     3811 
    3859     3990     4120     4232     4352     4503     4673     4819 
    4880     4828     4707     4587     4526     4526     4530     4484 
    4390     4305     4293     4374     4510     4634     4734     4850 
    4978     5061     5030     4860     4619     4430     4382     4472 
    4627     4772     4887     5001     5113     5163     5117     5019 
    4943     4934     4990     5103     5266     5482     5713     5872 
    5881     5757     5598     5510     5502     5487     5406     5306 
    5270     5324     5435     5529     5533     5398     5128     4792 
    4511     4411     4529     4780     5023     5162     5190     5138 
    5000     4756     4434     4116     3888     3804     3856     3975 
    4090     4170     4237     4306     4348     4361     4384     4448 
    4531     4564     4494     4360     4259     4263     4361     4464 
    4487     4425     4341     4299     4303     4332     4391     4502 
    4656     4831     5000     5130     5211     5277     5374     5525 
    5718     5908     6062     6169     6222     6218     6162     6056 
    5892     5678     5436     5225     5077     4959     4827     4691 
    4602     4584     4621     4680     4752     4837     4931     4995 
    4973     4862     4733     4645     4572     4457     4286     4090 
    3919     3792     3713     3705     3816     4045     4288     4391 
    4260     3936     3557     3235     3002     2822     2667     2562 
    2563     2682     2852     2997     3075     3084     3044     2990 
    2961     2995     3100     3237     3318     3275     3127     2978 
    2902     2890     2901     2940     3069     3311     3599     3854 
    4051     4199     4322     4465     4657     4889     5163     5478 
    5810     6097     6269     6332     6363     6412     6440     6384 
    6234     6041     5844     5649     5471     5337     5274     5297 
    5367     5406     5367     5267     5166     5094     5017     4903 
    4785     4711     4691     4741     4900     5162     5454     5692 
    5830     5861     5822     5778     5760     5755     5741     5725 
    5745     5840     5971     6061     6062     5984     5884     5805 
    5707     5535     5312     5123     5057     5152     5366     5591 
    5761     5896     6039     6183     6268     6222     6026     5768 
    5553     5397     5228     4985     4692     4434     4279     4218 
    4195     4171     4135     4090     4035     3979     3963     3996 
    4040     4078     4140     4251     4388     4490     4503     4442 
    4353     4270     4191     4099     3986     3871     3804     3821 
    3886     3909     3855     3784     3757     3780     3807     3805 
    3812     3897     4074     4257     4337     4284     4170     4067 
    3994     3896     3719     3476     3267     3186     3227     3303 
    3343     3341     3314     3260     3190     3136     3114     3126 
    3140     3123     3078     3045     3095     3267     3542     3871 
    4195     4459     4654     4816     4966     5092     5163     5162 
    5101     5008     4904     4810     4754     4726     4661     4529 
    4387     4355     4519     4861     5293     5742     6154     6469 
    6644     6691     6629     6478     6285     6085     5863     5618 
    5398     5263     5238     5273     5274     5161     4920     4606 
    4287     4008     3777     3585     3415     3237     3032     2794 
    2531     2265     2031     1871     1822     1890     2008     2101 
    2189     2392     2771     3253     3708     4077     4406     4758 
    5125     5443     5638     5691     5655     5632     5695     5826 
    5968     6087     6172     6205     6177     6084     5945     5794 
    5618     5383     5077     4711     4340     4037     3835     3732 
    3730     3825     3989     4162     4282     4338     4394     4525 
    4737     4950     5101     5185     5232     5271     5350     5498 
    5676     5783     5748     5583     5368     5188     5104     5124 
    5184     5198     5154     5107     5098     5121     5127     5104 
    5094     5151     5312     5582     5940     6345     6764     7159 
    7452     7568     7511     7361     7210     7075     6903     6652 
    6351     6052     5771     5476     5136     4756     4390     4101 
    3904     3774     3665     3537     3403     3307     3249     3195 
    3138     3127     3208     3376     3595     3820     4028     4222 
    4406     4553     4617     4587     4499     4382     4266     4186 
    4152     4141     4147     4190     4291     4436     4598     4742 
    4843     4901     4951     5031     5159     5305     5418     5472 
    5468     5414     5325     5204     5042     4843     4631     4423 
    4218     4018     3824     3622     3422     3271     3195     3206 
    3306     3460     3623     3773     3897     4002     4097     4187 
    4261     4306     4314     4286     4245     4237     4287     4391 
    4540     4699     4835     4931     4988     5020     5058     5101 
    5135     5162     5209     5305     5462     5649     5807     5875 
    5838     5738     5629     5498     5274     4915     4472     4072 
    3832     3765     3793     3821     3811     3797     3844     3998 
    4237     4482     4661     4764     4808     4819     4800     4738 
    4627     4491     4378     4317     4317     4386     4533     4735 
    4945     5136     5317     5491     5630     5706     5719     5694 
    5659     5628     5607     5599     5598     5614     5672     5780 
    5918     6065     6224     6430     6716     7076     7452     7777 
    8021     8181     8249     8206     8001     7628     7144     6610 
    6042     5431     4787     4152     3574     3080     2673     2340 
    2083     1911     1826     1798     1795     1798     1799     1809 
    1809     1765     1684     1622     1647     1795     2045     2315 
    2520     2654     2791     3014     3353     3777     4241     4743 
    5316     5991     6744     7470     8062     8469     8725     8897 
    9022     9050     8928     8657     8279     7819     7268     6606 
    5837     5009     4206     3478     2809     2157     1514      905 
     355     -133     -588    -1021    -1406    -1694    -1864    -1929 
   -1904    -1803    -1642    -1447    -1220     -945     -608     -197 
     317      927     1567     2158     2679     3167     3665     4178 
    4666     5092     5427     5664     5822     5933     6041     6181 
    6372     6629     6939     7265     7615     8000     8402     8791 
    9112     9312     9377     9332     9243     9157     9069     8939 
    8733     8455     8145     7838     7507     7098     6594     6075 
    5641     5340     5132     4932     4683     4376     4012     3576 
    3079     2566     2096     1734     1498     1348     1247     1209 
    1277     1476     1783     2141     2490     2782     2991     3117 
    3181     3225     3279     3370     3523     3740     3996     4257 
    4492     4665     4749     4774     4838     5012     5283     5564 
    5757     5845     5887     5964     6112     6316     6521     6677 
    6764     6798     6779     6697     6524     6258     5958     5702 
    5533     5455     5443     5462     5478     5449     5356     5201 
    5004     4814     4662     4544     4432     4278     4052     3778 
    3484     3181     2901     2685     2555     2520     2567     2655 
    2752     2849     2948     3065     3225     3451     3754     4122 
    4546     4996     5436     5821     6095     6222     6203     6064 
    5845     5576     5287     5005     4757     4569     4465     4461 
    4538     4658     4793     4934     5071     5193     5273     5308 
    5323     5348     5391     5437     5439     5347     5167     4961 
    4791     4685     4603     4482     4303     4125     4013     4002 
    4058     4091     4045     3908     3720     3539     3380     3244 
    3168     3207     3380     3654     3947     4176     4299     4309 
    4203     3987     3678     3314     2936     2590     2344     2253 
    2327     2525     2790     3095     3422     3736     3989     4136 
    4182     4187     4210     4293     4442     4633     4845     5105 
    5435     5810     6177     6504     6789     7057     7322     7588 
    7848     8109     8388     8676     8914     9034     9024     8916 
    8758     8559     8291     7952     7592     7276     7034     6833 
    6605     6297     5917     5499     5090     4722     4413     4149 
    3912     3701     3530     3383     3214     2976     2651     2254 
    1822     1414     1111      962      970     1102     1335     1659 
    2035     2416     2778     3115     3410     3609     3669     3593 
    3438     3275     3140     3005     2857     2751     2752     2887 
    3113     3354     3578     3832     4174     4599     5039     5394 
    5621     5749     5848     5949     6031     6061     6041     6007 
    5987     5968     5917     5827     5729     5636     5537     5394 
    5182     4908     4587     4220     3807     3346     2847     2338 
    1877     1521     1313     1275     1394     1642     1984     2354 
    2693     2975     3203     3422     3681     3987     4315     4654 
    5011     5385     5751     6054     6253     6336     6358     6394 
    6482     6601     6696     6714     6633     6480     6318     6212 
    6187     6237     6335     6450     6538     6542     6430     6231 
    5991     5717     5413     5084     4741     4415     4141     3948 
    3843     3790     3719     3588     3399     3181     2984     2867 
    2860     2953     3110     3295     3493     3699     3923     4163 
    4390     4567     4696     4823     4989     5186     5385     5566 
    5730     5873     5994     6085     6154     6226     6311     6396 
    6461     6501     6539     6608     6718     6847     6964     7052 
    7096     7072     6947     6714     6436     6197     6052     5998 
    6007     6058     6123     6149     6064     5829     5468     5050 
    4646     4297     3973     3620     3244     2890     2601     2366 
    2145     1921     1710     1552     1478     1479     1516     1566 
    1621     1674     1715     1753     1804     1900     2079     2357 
    2718     3136     3576     4024     4487     4962     5414     5798 
    6091     6304     6480     6662     6855     7018     7115     7141 
    7107     7044     6970     6882     6786     6696     6633     6583 
    6502     6335     6042     5626     5147     4679     4271     3921 
    3616     3383     3268     3273     3348     3415     3441     3446 
    3454     3473     3503     3531     3565     3638     3769     3935 
    4075     4118     4043     3897     3740     3596     3495     3491 
    3619     3882     4253     4700     5179     5652     6083     6432 
    6683     6855     6982     7083     7146     7142     7065     6953 
    6847     6744     6600     6374     6083     5784     5552     5420 
    5354     5277     5138     4922     4645     4352     4090     3881 
    3709     3537     3330     3090     2844     2619     2443     2347 
    2343     2421     2540     2644     2686     2648     2540     2384 
    2212     2052     1915     1833     1845     1964     2161     2389 
    2616     2822     2991     3115     3202     3288     3424     3665 
    4037     4503     4993     5452     5840     6133     6342     6493 
    6609     6691     6713     6650     6502     6296     6066     5859 
    5702     5586     5486     5379     5254     5124     4995     4862 
    4742     4654     4625     4661     4734     4783     4766     4698 
    4607     4522     4453     4405     4391     4429     4523     4661 
    4837     5040     5259     5478     5679     5836     5921     5931 
    5880     5782     5626     5386     5066     4722     4396     4098 
    3819     3562     3343     3172     3036     2911     2797     2697 
    2621     2569     2533     2529     2587     2724     2920     3115 
    3267     3380     3503     3662     3866     4094     4320     4518 
