Origin Time       2025/01/13 21:19:00
Lat.              31.8
Long.             131.6
Depth. (km)       30
Mag.              6.9
Station Code      KMMH08
Station Lat.      32.6501
Station Long.     131.0251
Station Height(m) 450
Record Time       2025/01/13 21:19:50
Sampling Freq(Hz) 100Hz
Duration Time(s)  183
Dir.              4
Scale Factor      7845(gal)/8223790
Max. Acc. (gal)   14.363
Last Correction   2025/01/13 21:19:50
Memo.             
[...]
  -16039   -15615   -15387   -15303   -15120   -14575   -13666   -12553 
  -11377   -10250    -9278    -8464    -7751    -7207    -6948    -6924 
   -6825    -6230    -4976    -3254    -1421       40      681      531 
      -9     -614    -1036    -1069     -785     -565     -783    -1574 
   -2791    -3987    -4583    -4297    -3404    -2457    -1919    -2027 
   -2682    -3531    -4272    -4882    -5621    -6864    -8822   -11296 
  -13748   -15703   -16996   -17678   -17913   -17909   -17817   -17625 
  -17221   -16525   -15512   -14339   -13338   -12683   -12375   -12378 
  -12410   -12046   -11206   -10265    -9702    -9721   -10119   -10503 
  -10478    -9753    -8279    -6258    -4029    -2000     -498      328 
     515      302       40      -24      118      291      249     -172 
    -985    -2100    -3410    -4762    -6018    -7138    -8114    -9039 
  -10130   -11469   -12954   -14458   -15823   -16934   -17848   -18615 
  -19151   -19452   -19639   -19750   -19772   -19635   -19149   -18230 
  -17050   -15846   -14742   -13771   -12993   -12501   -12255   -12123 
  -12039   -11955   -11824   -11734   -11830   -12108   -12513   -13005 
  -13396   -13400   -12916   -12079   -11115   -10193    -9367    -8611 
   -7902    -7275    -6754    -6262    -5614    -4675    -3557    -2508 
   -1694    -1208    -1094    -1317    -1786    -2377    -2955    -3478 
   -4060    -4801    -5657    -6579    -7650    -8939   -10363   -11772 
  -13073   -14215   -15130   -15822   -16309   -16463   -16106   -15137 
  -13533   -11472    -9309    -7292    -5435    -3736    -2309    -1262 
    -602     -260     -129     -183     -529    -1264    -2346    -3570 
   -4719    -5782    -6889    -7997    -8865    -9315    -9301    -8868 
   -8129    -7265    -6488    -5954    -5853    -6376    -7500    -9053 
  -10833   -12611   -14234   -15624   -16695   -17359   -17587   -17475 
  -17113   -16448   -15469   -14320   -13188   -12247   -11612   -11291 
  -11207   -11238   -11210   -11057   -10844   -10575   -10238    -9900 
   -9585    -9258    -8931    -8603    -8293    -8047    -7886    -7831 
   -7897    -8062    -8310    -8613    -8865    -8896    -8550    -7812 
   -6822    -5790    -4874    -4133    -3572    -3206    -2961    -2709 
   -2409    -2142    -2088    -2376    -2902    -3495    -4071    -4600 
   -5089    -5548    -5987    -6417    -6875    -7360    -7765    -8017 
   -8232    -8576    -9132    -9829   -10459   -10818   -10829   -10581 
  -10246    -9958    -9825    -9895   -10120   -10386   -10570   -10667 
  -10752   -10797   -10767   -10752   -10852   -11117   -11519   -11863 
  -11948   -11826   -11637   -11353   -10891   -10295    -9702    -9217 
   -8829    -8453    -8017    -7442    -6674    -5768    -4877    -4167 
   -3746    -3569    -3538    -3615    -3743    -3928    -4322    -5038 
   -6077    -7406    -8980   -10750   -12607   -14353   -15839   -17099 
  -18243   -19264   -20042   -20453   -20451   -20100   -19622   -19229 
  -18808   -18075   -16981   -15689   -14334   -13001   -11812   -10802 
   -9887    -8985    -8025    -6993    -6076    -5516    -5340    -5346 
   -5320    -5170    -4901    -4725    -4905    -5452    -6273    -7334 
   -8468    -9499   -10407   -11206   -11919   -12567   -13057   -13269 
  -13143   -12638   -11805   -10817    -9801    -8779    -7703    -6500 
   -5115    -3527    -1854     -376      718     1389     1642     1524 
    1066      299     -661    -1723    -2945    -4359    -5869    -7392 
   -8919   -10430   -11873   -13135   -14067   -14620   -14852   -14843 
  -14763   -14805   -14979   -15126   -15122   -14991   -14785   -14431 
  -13786   -12772   -11412    -9803    -8152    -6714    -5614    -4888 
   -4500    -4198    -3746    -3192    -2673    -2305    -2204    -2326 
   -2560    -2890    -3333    -3931    -4689    -5494    -6346    -7387 
   -8572    -9803   -11182   -12822   -14737   -16799   -18685   -20135 
  -21041   -21331   -21050   -20290   -19136   -17793   -16422   -15014 
  -13579   -12187   -10878    -9668    -8583    -7643    -6880    -6278 
   -5790    -5451    -5271    -5169    -5142    -5233    -5394    -5589 
   -5902    -6459    -7304    -8336    -9414   -10430   -11230   -11641 
  -11570   -11130   -10532    -9921    -9428    -9161    -9023    -8814 
   -8455    -8043    -7703    -7476    -7377    -7411    -7581    -7969 
   -8527    -9047    -9468    -9811   -10006   -10044    -9963    -9769 
   -9499    -9211    -8903    -8480    -7896    -7190    -6405    -5571 
   -4703    -3859    -3215    -2952    -3110    -3566    -4158    -4814 
   -5526    -6378    -7528    -8974   -10528   -11952   -12978   -13459 
  -13559   -13622   -13936   -14569   -15302   -15780   -15792   -15344 
  -14500   -13360   -12163   -11137   -10343    -9768    -9364    -9031 
   -8627    -8063    -7434    -6971    -6812    -6928    -7188    -7458 
   -7655    -7711    -7623    -7570    -7774    -8262    -8838    -9293 
   -9553    -9661    -9763    -9941   -10073   -10000    -9717    -9288 
   -8764    -8172    -7541    -6913    -6374    -5972    -5610    -5127 
   -4461    -3709    -3005    -2431    -2064    -1899    -1902    -2119 
   -2604    -3402    -4568    -6045    -7674    -9308   -10741   -11846 
  -12735   -13528   -14196   -14719   -15032   -15099   -15059   -15052 
  -15142   -15376   -15655   -15807   -15812   -15745   -15660   -15593 
  -15538   -15480   -15369   -15088   -14597   -13977   -13298   -12506 
  -11495   -10216    -8668    -6894    -5040    -3275    -1636     -121 
    1132     1969     2378     2417     2123     1483      506     -702 
   -1964    -3092    -3964    -4600    -5119    -5636    -6223    -6909 
   -7619    -8217    -8633    -8887    -9032    -9138    -9292    -9545 
   -9872   -10228   -10559   -10847   -11152   -11473   -11761   -11998 
  -12166   -12305   -12499   -12730   -12973   -13236   -13431   -13447 
  -13267   -12928   -12484   -11865   -10913    -9620    -8148    -6678 
   -5358    -4298    -3561    -3192    -3256    -3798    -4764    -6012 
   -7479    -9136   -10849   -12425   -13737   -14751   -15446   -15782 
  -15781   -15556   -15303   -15213   -15253   -15222   -14982   -14494 
  -13799   -13011   -12179   -11244   -10162    -8973    -7761    -6579 
   -5417    -4284    -3291    -2582    -2218    -2201    -2587    -3406 
   -4561    -5894    -7227    -8330    -9030    -9394    -9618    -9823 
  -10146   -10735   -11569   -12480   -13331   -14040   -14593   -15024 
  -15292   -15348   -15215   -14920   -14550   -14219   -13929   -13586 
  -13105   -12475   -11713   -10790    -9703    -8530    -7322    -6133 
   -5044    -4064    -3165    -2373    -1703    -1132     -684     -429 
    -454     -850    -1574    -2490    -3588    -4892    -6347    -7859 
   -9293   -10492   -11399   -12113   -12822   -13664   -14608   -15423 
  -15885   -15943   -15638   -14975   -13988   -12839   -11716   -10744 
   -9987    -9374    -8769    -8155    -7634    -7299    -7179    -7231 
   -7383    -7587    -7820    -8060    -8264    -8370    -8364    -8317 
   -8306    -8336    -8391    -8513    -8669    -8733    -8650    -8468 
   -8239    -7992    -7685    -7241    -6654    -5984    -5343    -4885 
   -4656    -4563    -4563    -4695    -4955    -5267    -5548    -5756 
   -5922    -6135    -6535    -7292    -8517   -10135   -11917   -13590 
  -14921   -15844   -16409   -16663   -16714   -16704   -16638   -16448 
  -16093   -15481   -14548   -13317   -11838   -10218    -8625    -7186 
   -5950    -4923    -4114    -3537    -3127    -2749    -2309    -1822 
   -1382    -1107    -1012    -1017    -1123    -1393    -1833    -2450 
   -3275    -4290    -5468    -6748    -8047    -9328   -10608   -11896 
  -13167   -14346   -15360   -16168   -16737   -17064   -17209   -17240 
  -17226   -17204   -17161   -17076   -16923   -16633   -16151   -15483 
  -14632   -13501   -12090   -10627    -9281    -8091    -7041    -6019 
   -4982    -4101    -3551    -3392    -3618    -4186    -5034    -6066 
   -7199    -8456    -9892   -11492   -13174   -14781   -16147   -17235 
  -18021   -18520   -18877   -19078   -18999   -18798   -18675   -18619 
  -18576   -18443   -18103   -17575   -16883   -15967   -14769   -13306 
  -11684    -9917    -7928    -5769    -3616    -1680     -120     1090 
    2019     2648     3003     3188     3249     3126     2678     1772 
     383    -1339    -3156    -4849    -6286    -7447    -8283    -8818 
   -9271    -9730   -10068   -10241   -10280   -10215   -10031    -9629 
   -8996    -8218    -7341    -6390    -5359    -4307    -3429    -2766 
   -2197    -1682    -1219     -784     -359       55      386      465 
     166     -403    -1032    -1715    -2544    -3499    -4490    -5456 
   -6465    -7570    -8642    -9601   -10557   -11681   -13039   -14559 
  -16110   -17566   -18887   -20139   -21219   -21809   -21717   -20983 
  -19789   -18355   -16814   -15202   -13616   -12216   -11053   -10035 
   -9084    -8185    -7430    -6903    -6516    -6192    -5968    -5821 
   -5671    -5541    -5586    -5911    -6451    -7024    -7489    -7839 
   -8110    -8287    -8344    -8371    -8565    -9034    -9649   -10245 
  -10768   -11218   -11601   -11913   -12129   -12274   -12397   -12482 
  -12422   -12121   -11572   -10916   -10305    -9730    -9182    -8742 
   -8425    -8178    -7975    -7834    -7831    -8025    -8386    -8923 
   -9744   -10886   -12209   -13460   -14415   -15007   -15338   -15514 
  -15542   -15422   -15190   -14935   -14752   -14634   -14555   -14597 
  -14839   -15307   -15969   -16694   -17285   -17490   -17032   -15753 
  -13703   -11102    -8229    -5337    -2602     -194     1664     2920 
    3788     4465     4927     5057     4834     4368     3782     3107 
    2276     1209      -76    -1498    -3028    -4692    -6434    -8081 
   -9528   -10864   -12251   -13807   -15585   -17533   -19503   -21290 
  -22648   -23387   -23453   -22928   -21964   -20676   -19107   -17274 
  -15229   -13082   -10963    -8986    -7230    -5734    -4525    -3557 
   -2706    -1838     -888      118     1136     2107     2936     3559 
    3870     3711     3098     2168      926     -633    -2380    -4164 
   -5829    -7248    -8459    -9541   -10469   -11157   -11580   -11835 
  -12054   -12278   -12510   -12788   -13170   -13645   -14092   -14366 
  -14450   -14422   -14270   -13884   -13188   -12160   -10810    -9223 
   -7534    -5883    -4341    -2971    -1896    -1243    -1109    -1521 
   -2343    -3410    -4644    -6000    -7422    -8829   -10195   -11596 
  -13123   -14809   -16660   -18588   -20372   -21807   -22747   -23079 
  -22796   -22019   -20943   -19727   -18409   -16978   -15421   -13748 
  -12044   -10409    -8891    -7480    -6201    -5104    -4170    -3364 
   -2668    -1999    -1305     -670     -199       62       74     -132 
    -498    -1096    -1987    -3064    -4193    -5274    -6228    -7022 
   -7641    -8089    -8401    -8625    -8834    -9080    -9335    -9580 
   -9882   -10314   -10893   -11516   -11975   -12143   -12104   -12066 
  -12179   -12464   -12869   -13348   -13851   -14312   -14656   -14827 
  -14841   -14735   -14472   -14040   -13458   -12706   -11789   -10755 
   -9651    -8519    -7357    -6124    -4857    -3669    -2651    -1818 
   -1216     -989    -1237    -1904    -2833    -3898    -5059    -6369 
   -7869    -9475   -11063   -12545   -13832   -14871   -15701   -16366 
  -16889   -17266   -17500   -17628   -17636   -17446   -17068   -16557 
  -15893   -15110   -14369   -13622   -12576   -11180    -9701    -8376 
   -7279    -6242    -5076    -3879    -2783    -1736     -722      133 
     579      480      101     -229     -457     -706    -1080    -1529 
   -1977    -2556    -3429    -4488    -5435    -6157    -6804    -7510 
   -8332    -9205    -9927   -10412   -10700   -10785   -10698   -10535 
  -10336   -10125    -9971    -9903    -9882    -9940   -10179   -10651 
  -11350   -12197   -13078   -13934   -14670   -15160   -15311   -15105 
  -14647   -14053   -13332   -12484   -11547   -10592    -9745    -9089 
   -8684    -8613    -8849    -9269    -9764   -10218   -10490   -10474 
  -10165    -9624    -8932    -8201    -7496    -6895    -6455    -6114 
   -5859    -5786    -5899    -6077    -6234    -6436    -6791    -7217 
   -7626    -8058    -8463    -8779    -9042    -9296    -9648   -10179 
  -10798   -11368   -11811   -12172   -12501   -12768   -12974   -13086 
  -13036   -12804   -12321   -11546   -10566    -9468    -8329    -7261 
   -6409    -5873    -5543    -5181    -4683    -4168    -3838    -3784 
   -4029    -4579    -5377    -6400    -7568    -8664    -9653   -10713 
  -11904   -13169   -14423   -15539   -16443   -17088   -17370   -17265 
  -16873   -16352   -15805   -15182   -14420   -13626   -12927   -12339 
  -11801   -11319   -10998   -10860   -10766   -10540   -10075    -9369 
   -8519    -7668    -6909    -6215    -5560    -5004    -4554    -4218 
   -4009    -3906    -3967    -4236    -4608    -4963    -5304    -5679 
   -6006    -6187    -6342    -6610    -6976    -7354    -7614    -7701 
   -7627    -7333    -6826    -6264    -5836    -5611    -5512    -5476 
   -5528    -5686    -5913    -6068    -6065    -6006    -5989    -5994 
   -5965    -5892    -5849    -5911    -6037    -6141    -6177    -6107 
   -5821    -5165    -4108    -2808    -1532     -460      398      949 
    1077      851      336     -467    -1470    -2647    -3991    -5401 
   -6845    -8351    -9865   -11352   -12785   -14176   -15570   -16934 
  -18207   -19413   -20578   -21706   -22739   -23556   -24046   -24115 
  -23743   -23053   -22187   -21188   -20098   -19029   -18009   -17001 
  -16062   -15225   -14507   -13990   -13655   -13419   -13240   -12939 
  -12401   -11685   -10733    -9531    -8289    -7188    -6311    -5643 
   -5127    -4788    -4671    -4754    -4935    -5085    -5169    -5190 
   -5124    -4974    -4784    -4603    -4457    -4338    -4279    -4374 
   -4684    -5202    -5864    -6635    -7527    -8498    -9468   -10353 
  -11088   -11703   -12233   -12638   -12888   -12997   -13032   -13097 
  -13188   -13234   -13244   -13235   -13130   -12858   -12386   -11716 
  -10914   -10023    -9077    -8168    -7365    -6643    -5953    -5252 
   -4554    -3947    -3441    -2972    -2573    -2319    -2232    -2308 
   -2536    -2905    -3406    -4032    -4637    -5034    -5273    -5549 
   -5958    -6505    -7098    -7634    -8132    -8630    -9088    -9424 
   -9594    -9679    -9790    -9902    -9917    -9817    -9663    -9521 
   -9452    -9485    -9610    -9771    -9872    -9813    -9574    -9248 
   -8986    -8897    -8993    -9223    -9551    -9994   -10517   -11064 
  -11631   -12218   -12804   -13365   -13803   -14022   -14006   -13780 
  -13389   -12911   -12475   -12170   -11981   -11858   -11774   -11722 
  -11637   -11518   -11497   -11614   -11701   -11623   -11349   -10886 
  -10261    -9502    -8725    -8091    -7650    -7360    -7136    -6886 
   -6683    -6624    -6625    -6565    -6355    -5965    -5420    -4714 
   -3877    -3064    -2438    -2110    -2104    -2361    -2830    -3473 
   -4259    -5238    -6413    -7713    -9084   -10440   -11651   -12640 
  -13405   -13950   -14369   -14791   -15138   -15244   -15106   -14790 
  -14384   -13964   -13489   -12949   -12380   -11735   -10993   -10135 
   -9147    -8174    -7298    -6443    -5618    -4862    -4210    -3701 
   -3337    -3153    -3202    -3439    -3780    -4175    -4641    -5173 
   -5786    -6555    -7474    -8499    -9618   -10746   -11786   -12727 
  -13539   -14203   -14716   -15105   -15485   -15801   -15916   -15908 
  -15832   -15680   -15539   -15458   -15438   -15483   -15512   -15442 
  -15217   -14836   -14401   -13946   -13363   -12564   -11537   -10349 
   -9131    -7997    -7006    -6161    -5406    -4653    -3834    -2982 
   -2209    -1630    -1256     -982     -769     -658     -631     -646 
    -737     -974    -1418    -2019    -2628    -3235    -3931    -4699 
   -5536    -6500    -7551    -8604    -9594   -10436   -11124   -11780 
  -12480   -13142   -13618   -13876   -13968   -13917   -13753   -13548 
  -13417   -13477   -13694   -13903   -14003   -13998   -13887   -13652 
  -13339   -12999   -12640   -12255   -11784   -11175   -10493    -9819 
   -9219    -8783    -8542    -8442    -8494    -8689    -8847    -8784 
   -8549    -8252    -7893    -7418    -6752    -5879    -4919    -3989 
   -3100    -2250    -1495     -943     -634     -535     -621     -905 
   -1426    -2145    -2951    -3847    -4905    -6089    -7292    -8421 
   -9481   -10540   -11599   -12592   -13441   -14100   -14585   -14940 
  -15237   -15530   -15790   -15969   -16015   -15871   -15592   -15246 
  -14744   -14068   -13417   -12965   -12725   -12553   -12231   -11731 
  -11159   -10523    -9791    -8969    -8187    -7643    -7280    -6886 
   -6454    -6100    -5888    -5800    -5746    -5702    -5725    -5856 
   -6031    -6115    -6073    -5960    -5802    -5613    -5401    -5185 
   -5008    -4878    -4789    -4787    -4920    -5219    -5694    -6281 
   -6872    -7398    -7824    -8160    -8487    -8901    -9414    -9975 
  -10543   -11082   -11564   -11948   -12210   -12410   -12623   -12850 
  -13043   -13097   -12918   -12495   -11870   -11114   -10305    -9491 
   -8742    -8141    -7705    -7396    -7183    -7061    -7018    -7011 
   -7045    -7173    -7404    -7672    -7898    -8017    -7997    -7865 
   -7682    -7516    -7484    -7686    -8112    -8671    -9265    -9830 
  -10336   -10762   -11117   -11437   -11711   -11905   -11986   -11942 
  -11805   -11622   -11425   -11246   -11057   -10804   -10511   -10220 
   -9927    -9649    -9432    -9277    -9139    -8949    -8648    -8232 
   -7755    -7312    -6998    -6840    -6833    -6971    -7248    -7684 
   -8270    -8923    -9553   -10066   -10390   -10557   -10635   -10671 
  -10686   -10669   -10571   -10343    -9963    -9463    -8924    -8451 
   -8144    -8054    -8114    -8208    -8263    -8259    -8201    -8113 
   -7993    -7815    -7553    -7210    -6852    -6582    -6462    -6500 
   -6685    -6971    -7308    -7659    -7947    -8144    -8337    -8563 
   -8791    -9023    -9252    -9478    -9726   -10007   -10332   -10702 
  -11078   -11416   -11680   -11870   -12001   -12016   -11886   -11696 
  -11527   -11387   -11236   -11024   -10754   -10461   -10154    -9817 
   -9459    -9139    -8889    -8665    -8411    -8149    -8004    -8046 
   -8208    -8402    -8590    -8773    -8958    -9135    -9305    -9443 
   -9547    -9715    -9973   -10189   -10280   -10296   -10297   -10316 
  -10323   -10299   -10304   -10377   -10465   -10471   -10326   -10095 
   -9891    -9733    -9586    -9409    -9204    -8985    -8677    -8199 
   -7608    -7034    -6582    -6289    -6158    -6204    -6423    -6771 
   -7160    -7512    -7852    -8241    -8695    -9197    -9678   -10066 
  -10359   -10544   -10631   -10652   -10620   -10563   -10494   -10427 
  -10389   -10353   -10265   -10134    -9946    -9703    -9468    -9261 
   -9020    -8710    -8326    -7873    -7398    -6963    -6570    -6214 
   -5903    -5628    -5364    -5112    -4895    -4752    -4685    -4669 
   -4712    -4827    -4999    -5211    -5454    -5773    -6258    -6913 
   -7649    -8428    -9288   -10149   -10862   -11429   -11911   -12291 
  -12541   -12623   -12588   -12540   -12417   -12133   -11693   -11125 
