Origin Time       2025/01/13 21:19:00
Lat.              31.8
Long.             131.6
Depth. (km)       30
Mag.              6.9
Station Code      KMMH03
Station Lat.      32.9984
Station Long.     130.8301
Station Height(m) -22
Record Time       2025/01/13 21:19:56
Sampling Freq(Hz) 100Hz
Duration Time(s)  155
Dir.              2
Scale Factor      2942(gal)/8224139
Max. Acc. (gal)   4.863
Last Correction   2025/01/13 21:19:57
Memo.             
[...]
   37374    37396    37392    37359    37338    37358    37428    37539 
   37658    37751    37812    37843    37847    37821    37759    37662 
   37528    37353    37137    36898    36670    36474    36321    36220 
   36174    36184    36250    36358    36481    36594    36686    36767 
   36846    36909    36929    36884    36776    36643    36529    36454 
   36425    36462    36560    36699    36863    37050    37249    37434 
   37586    37702    37781    37825    37848    37862    37870    37872 
   37871    37862    37848    37843    37841    37831    37809    37793 
   37802    37847    37916    37982    38017    38020    38020    38021 
   38010    37980    37916    37801    37651    37494    37342    37201 
   37096    37057    37087    37158    37245    37335    37415    37447 
   37424    37388    37369    37372    37385    37390    37384    37373 
   37361    37332    37282    37227    37176    37107    36977    36778 
   36543    36333    36207    36177    36219    36310    36451    36648 
   36892    37149    37370    37525    37611    37647    37656    37632 
   37562    37462    37362    37274    37196    37131    37088    37085 
   37123    37187    37257    37326    37389    37446    37496    37546 
   37615    37709    37808    37882    37922    37937    37925    37870 
   37770    37644    37528    37455    37450    37512    37619    37739 
   37843    37926    38014    38126    38234    38284    38252    38149 
   38006    37841    37656    37463    37289    37162    37095    37087 
   37115    37133    37111    37039    36934    36830    36756    36730 
   36763    36846    36949    37050    37161    37277    37385    37480 
   37548    37575    37531    37397    37189    36925    36630    36342 
   36092    35899    35776    35735    35785    35899    36040    36192 
   36351    36521    36695    36875    37069    37284    37504    37697 
   37833    37891    37879    37818    37727    37620    37513    37422 
   37353    37315    37322    37396    37543    37741    37966    38202 
   38433    38615    38712    38723    38658    38547    38437    38346 
   38273    38198    38086    37897    37621    37273    36896    36536 
   36219    35969    35797    35710    35710    35789    35939    36153 
   36425    36747    37100    37446    37754    37995    38146    38215 
   38218    38159    38024    37794    37457    37037    36602    36198 
   35860    35610    35460    35415    35468    35603    35796    36028 
   36273    36508    36711    36875    37000    37107    37214    37336 
   37465    37557    37593    37597    37579    37548    37505    37447 
   37401    37413    37504    37678    37924    38218    38545    38901 
   39266    39572    39757    39798    39703    39492    39201    38880 
   38580    38330    38134    37976    37843    37723    37605    37496 
   37408    37338    37277    37222    37183    37173    37201    37280 
   37395    37508    37600    37642    37609    37501    37324    37104 
   36899    36753    36683    36667    36683    36724    36782    36834 
   36857    36845    36809    36774    36756    36760    36782    36807 
   36833    36883    36979    37111    37261    37401    37503    37552 
   37548    37494    37403    37296    37188    37083    36995    36957 
   36994    37099    37262    37458    37654    37806    37887    37910 
   37894    37845    37782    37721    37670    37627    37588    37550 
   37515    37490    37497    37558    37670    37801    37918    38009 
   38057    38057    38011    37926    37810    37673    37508    37312 
   37103    36915    36772    36684    36652    36676    36760    36887 
   37017    37118    37184    37241    37314    37412    37534    37671 
   37797    37872    37871    37806    37698    37548    37350    37127 
   36907    36703    36537    36440    36417    36464    36591    36784 
   36998    37189    37318    37354    37323    37265    37200    37162 
   37181    37247    37331    37417    37501    37579    37639    37666 
   37663    37640    37606    37552    37459    37330    37179    37026 
   36907    36860    36888    36941    36981    37017    37044    37054 
   37054    37046    37041    37044    37037    37011    36942    36794 
   36585    36383    36243    36186    36209    36301    36432    36571 
   36698    36799    36876    36953    37030    37095    37160    37226 
   37277    37320    37376    37450    37519    37558    37566    37582 
   37652    37752    37817    37801    37694    37503    37268    37044 
   36850    36698    36606    36575    36597    36653    36707    36728 
   36714    36691    36671    36657    36659    36683    36733    36813 
   36911    37018    37157    37338    37528    37689    37797    37851 
   37864    37837    37759    37642    37500    37351    37197    37023 
   36833    36653    36532    36498    36559    36705    36906    37118 
   37296    37416    37478    37500    37503    37507    37532    37590 
   37665    37717    37717    37660    37596    37586    37654    37747 
   37800    37801    37768    37709    37629    37547    37481    37462 
   37512    37613    37735    37849    37921    37943    37929    37876 
   37782    37662    37523    37357    37169    36990    36860    36802 
   36809    36868    36972    37098    37227    37355    37482    37590 
   37654    37656    37597    37501    37400    37316    37276    37297 
   37376    37486    37615    37754    37897    38026    38146    38263 
   38365    38446    38484    38449    38354    38238    38126    38024 
   37925    37837    37773    37743    37760    37813    37868    37895 
   37894    37893    37924    37984    38028    38007    37925    37806 
   37671    37532    37393    37247    37110    37011    36957    36938 
   36946    36973    37021    37091    37170    37247    37323    37381 
   37412    37427    37422    37400    37372    37349    37342    37343 
   37332    37318    37307    37289    37272    37270    37272    37264 
   37234    37179    37135    37135    37162    37184    37184    37165 
   37146    37137    37131    37135    37149    37154    37141    37134 
   37181    37315    37513    37720    37902    38038    38105    38107 
   38078    38021    37928    37802    37673    37569    37496    37455 
   37447    37449    37439    37428    37424    37415    37376    37308 
   37237    37188    37172    37179    37200    37235    37293    37358 
   37400    37407    37366    37272    37134    36976    36834    36741 
   36697    36703    36780    36917    37060    37170    37218    37185 
   37114    37056    36996    36917    36823    36714    36594    36467 
   36317    36171    36066    36023    36059    36151    36243    36300 
   36300    36258    36229    36252    36308    36367    36427    36502 
   36620    36780    36979    37227    37527    37840    38097    38238 
   38265    38225    38140    38002    37822    37623    37432    37277 
   37166    37098    37065    37060    37071    37092    37123    37170 
   37243    37343    37463    37597    37696    37709    37640    37550 
   37484    37434    37372    37303    37239    37199    37199    37231 
   37291    37372    37450    37504    37539    37577    37632    37710 
   37794    37866    37928    37983    38005    37989    37951    37893 
   37813    37716    37597    37476    37373    37276    37161    37033 
   36896    36765    36656    36566    36489    36440    36445    36505 
   36612    36760    36950    37176    37407    37605    37756    37858 
   37909    37926    37924    37887    37800    37677    37543    37415 
   37295    37179    37091    37084    37192    37396    37640    37879 
   38071    38205    38284    38304    38259    38159    38029    37886 
   37762    37678    37623    37581    37544    37513    37505    37524 
   37543    37552    37569    37585    37590    37605    37655    37746 
   37866    37984    38067    38091    38056    37974    37836    37627 
   37362    37098    36876    36722    36656    36661    36715    36834 
   37018    37249    37500    37744    37956    38136    38294    38442 
   38556    38591    38542    38429    38267    38056    37791    37498 
   37230    37017    36860    36768    36745    36779    36859    36992 
   37170    37355    37513    37625    37678    37693    37708    37736 
   37741    37702    37628    37547    37465    37365    37247    37134 
   37022    36906    36805    36747    36742    36786    36826    36814 
   36764    36722    36725    36788    36936    37169    37457    37754 
   37998    38136    38159    38086    37943    37781    37629    37480 
   37332    37180    37014    36872    36790    36756    36751    36783 
   36856    36942    36988    36954    36871    36790    36725    36676 
   36660    36688    36751    36826    36910    37014    37145    37299 
   37476    37692    37953    38267    38622    38967    39237    39401 
   39449    39387    39216    38956    38672    38425    38249    38151 
   38119    38140    38206    38290    38350    38360    38313    38227 
   38134    38049    37978    37933    37916    37913    37920    37925 
   37914    37885    37841    37795    37778    37828    37944    38086 
   38222    38352    38465    38549    38596    38616    38624    38641 
   38674    38718    38763    38797    38815    38838    38890    38965 
   39043    39110    39150    39144    39087    38975    38803    38553 
   38234    37881    37535    37224    36977    36834    36811    36883 
   37019    37208    37434    37675    37906    38094    38219    38276 
   38276    38241    38171    38037    37829    37561    37268    36987 
   36738    36501    36250    35986    35714    35456    35247    35100 
   35008    34948    34888    34793    34661    34491    34285    34041 
   33766    33467    33149    32823    32516    32233    31963    31708 
   31496    31365    31334    31417    31590    31799    32008    32189 
   32329    32429    32502    32560    32630    32748    32925    33129 
   33312    33466    33606    33728    33809    33841    33836    33814 
   33789    33772    33782    33837    33956    34119    34300    34497 
   34727    34998    35303    35610    35892    36150    36378    36575 
   36747    36914    37112    37362    37654    37986    38367    38766 
   39148    39486    39764    39982    40163    40335    40504    40667 
   40818    40936    40996    40987    40890    40701    40447    40142 
   39766    39325    38853    38383    37945    37569    37260    37019 
   36857    36775    36760    36828    36980    37173    37355    37498 
   37585    37624    37646    37681    37741    37829    37941    38086 
   38256    38442    38646    38873    39121    39393    39680    39969 
   40247    40489    40666    40756    40748    40649    40490    40305 
   40109    39924    39777    39653    39523    39371    39202    39032 
   38869    38711    38564    38429    38311    38222    38176    38180 
   38236    38321    38419    38541    38716    38966    39291    39687 
   40144    40649    41177    41682    42117    42456    42674    42762 
   42732    42597    42380    42129    41878    41636    41419    41242 
   41102    40975    40837    40682    40514    40338    40159    39995 
   39860    39766    39750    39826    39969    40143    40324    40493 
   40636    40765    40880    40942    40919    40826    40694    40548 
   40400    40244    40073    39861    39604    39312    38985    38619 
   38233    37836    37419    36968    36494    36027    35599    35213 
   34848    34491    34148    33840    33590    33396    33247    33143 
   33092    33093    33137    33210    33309    33428    33562    33717 
   33879    34025    34144    34221    34241    34194    34080    33893 
   33628    33300    32927    32520    32084    31622    31159    30731 
   30360    30055    29810    29602    29430    29300    29207    29138 
   29089    29081    29151    29315    29574    29929    30373    30892 
   31472    32098    32757    33431    34094    34716    35276    35761 
   36180    36548    36855    37089    37274    37438    37593    37735 
   37855    37955    38047    38152    38279    38387    38437    38441 
   38433    38427    38421    38411    38411    38439    38502    38595 
   38719    38885    39094    39343    39633    39969    40352    40774 
   41212    41640    42055    42460    42855    43224    43548    43816 
   44031    44204    44336    44439    44523    44601    44672    44739 
   44797    44817    44768    44651    44473    44219    43885    43498 
   43075    42626    42164    41712    41292    40925    40614    40335 
   40045    39703    39318    38931    38569    38253    37994    37794 
   37640    37524    37426    37334    37257    37203    37147    37058 
   36921    36732    36502    36254    36004    35752    35494    35216 
   34902    34554    34173    33756    33296    32803    32310    31828 
   31353    30878    30387    29878    29377    28903    28466    28063 
   27689    27329    26975    26647    26365    26146    26014    25987 
   26075    26285    26608    27022    27514    28073    28688    29355 
   30084    30879    31725    32587    33438    34254    35013    35676 
   36207    36583    36802    36877    36840    36732    36609    36513 
   36460    36463    36525    36644    36806    36998    37216    37446 
   37663    37856    38022    38165    38315    38512    38782    39137 
   39596    40188    40913    41737    42611    43499    44388    45258 
   46090    46872    47601    48294    48969    49604    50145    50550 
   50808    50924    50907    50747    50450    50040    49561    49037 
   48463    47821    47115    46368    45605    44857    44155    43525 
   42962    42464    42039    41701    41461    41307    41212    41156 
   41135    41173    41285    41458    41658    41858    42043    42203 
   42331    42419    42442    42375    42198    41905    41521    41088 
   40633    40177    39734    39305    38869    38410    37899    37332 
   36736    36121    35496    34866    34221    33578    32972    32429 
   31961    31583    31313    31158    31085    31044    30997    30929 
   30847    30770    30723    30721    30790    30948    31214    31585 
   32058    32621    33237    33847    34398    34842    35154    35316 
   35320    35176    34915    34560    34148    33732    33358    33073 
   32902    32821    32795    32803    32836    32880    32927    32981 
   33041    33093    33138    33192    33285    33442    33673    33970 
   34334    34765    35245    35741    36209    36620    36965    37255 
   37512    37756    38017    38313    38654    39044    39475    39937 
   40413    40890    41347    41766    42128    42410    42583    42619 
   42522    42307    42024    41712    41395    41083    40786    40483 
   40149    39788    39430    39087    38754    38433    38132    37839 
   37548    37282    37049    36849    36682    36541    36420    36310 
   36215    36119    36007    35868    35706    35523    35325    35100 
   34847    34569    34265    33929    33555    33133    32684    32260 
   31908    31648    31494    31457    31515    31621    31733    31820 
   31865    31868    31847    31824    31811    31820    31878    32009 
   32228    32537    32923    33365    33849    34350    34838    35283 
   35660    35966    36217    36427    36601    36763    36931    37103 
   37268    37413    37540    37639    37690    37681    37601    37451 
   37253    37031    36807    36590    36375    36165    35969    35804 
   35684    35630    35657    35753    35903    36100    36332    36590 
   36853    37110    37369    37636    37917    38225    38576    38985 
   39457    39965    40474    40956    41384    41743    42025    42213 
   42306    42306    42226    42114    41999    41878    41754    41627 
   41486    41324    41154    41004    40891    40813    40745    40653 
   40508    40297    40042    39779    39525    39271    39019    38773 
   38546    38358    38226    38152    38134    38165    38236    38345 
   38485    38653    38834    38983    39060    39052    38979    38863 
   38708    38529    38333    38118    37899    37702    37525    37368 
   37237    37115    36984    36855    36729    36610    36512    36450 
   36402    36336    36227    36066    35880    35695    35527    35378 
   35229    35062    34870    34668    34472    34296    34165    34099 
   34092    34123    34179    34257    34344    34435    34527    34615 
   34704    34793    34873    34950    35027    35101    35170    35237 
   35321    35436    35591    35787    36012    36248    36479    36680 
   36836    36942    37010    37052    37081    37096    37119    37170 
   37239    37307    37370    37415    37422    37397    37363    37336 
   37314    37293    37270    37230    37184    37169    37211    37305 
   37439    37604    37812    38065    38342    38615    38878    39143 
   39418    39703    39973    40203    40394    40558    40682    40756 
   40787    40776    40724    40633    40509    40375    40273    40215 
   40200    40225    40288    40373    40462    40545    40628    40697 
   40751    40806    40868    40934    41006    41077    41137    41187 
   41231    41266    41292    41297    41266    41203    41106    40963 
   40764    40502    40186    39856    39541    39262    39027    38821 
   38610    38377    38125    37858    37588    37319    37044    36748 
   36428    36103    35785    35480    35197    34950    34759    34651 
   34628    34677    34774    34889    35004    35113    35214    35299 
   35372    35438    35492    35523    35526    35483    35394    35267 
   35102    34904    34704    34527    34381    34263    34157    34065 
   33998    33966    33964    33983    34007    34026    34033    34034 
   34053    34110    34196    34311    34466    34663    34886    35128 
   35397    35694    36013    36348    36661    36919    37119    37266 
   37355    37378    37353    37303    37249    37196    37135    37052 
   36923    36733    36483    36186    35865    35544    35237    34959 
   34738    34597    34535    34546    34619    34738    34878    35021 
   35147    35239    35295    35324    35332    35338    35372    35452 
   35583    35769    35997    36254    36522    36792    37057    37307 
   37535    37746    37936    38105    38233    38314    38368    38421 
   38488    38562    38616    38635    38611    38531    38388    38187 
   37926    37612    37265    36911    36566    36240    35950    35703 
   35503    35348    35230    35152    35127    35163    35240    35336 
   35444    35550    35664    35785    35891    35969    36020    36045 
   36047    36035    36012    35988    35985    36024    36117    36266 
   36451    36639    36803    36941    37058    37147    37200    37231 
   37260    37297    37357    37438    37534    37644    37768    37922 
   38114    38322    38541    38773    39005    39220    39405    39552 
   39676    39799    39919    40028    40107    40132    40097    40011 
   39881    39729    39575    39457    39418    39469    39595    39765 
   39955    40159    40371    40578    40767    40918    41017    41068 
   41089    41100    41122    41173    41262    41380    41509    41639 
   41760    41883    42016    42160    42313    42475    42638    42792 
   42921    43027    43106    43151    43150    43097    42981    42803 
   42570    42294    41979    41635    41283    40945    40635    40356 
