Origin Time       2025/01/13 21:19:00
Lat.              31.8
Long.             131.6
Depth. (km)       30
Mag.              6.9
Station Code      KMMH09
Station Lat.      32.4901
Station Long.     130.9046
Station Height(m) 420
Record Time       2025/01/13 21:19:49
Sampling Freq(Hz) 100Hz
Duration Time(s)  167
Dir.              3
Scale Factor      3923(gal)/8224838
Max. Acc. (gal)   7.345
Last Correction   2025/01/13 21:19:49
Memo.             
[...]
  -18613   -18604   -19186   -20235   -21439   -22445   -23041   -23295 
  -23491   -23747   -23870   -23764   -23616   -23674   -24067   -24673 
  -25178   -25266   -24726   -23645   -22423   -21421   -20779   -20514 
  -20514   -20653   -20915   -21215   -21385   -21313   -20892   -20162 
  -19461   -19149   -19444   -20314   -21358   -22223   -23036   -24073 
  -25228   -26057   -26292   -25979   -25351   -24888   -25035   -25825 
  -27094   -28580   -29762   -30088   -29362   -27831   -26025   -24325 
  -22774   -21427   -20561   -20326   -20599   -21235   -22061   -22832 
  -23368   -23581   -23454   -22977   -22225   -21550   -21257   -21335 
  -21737   -22350   -22902   -23313   -23685   -24059   -24374   -24414 
  -24003   -23264   -22432   -21612   -20927   -20580   -20628   -21081 
  -21995   -23215   -24410   -25207   -25259   -24637   -23836   -23206 
  -22752   -22345   -21793   -21015   -20282   -19927   -19944   -20196 
  -20568   -20830   -20834   -20606   -20151   -19608   -19272   -19300 
  -19657   -20129   -20545   -21096   -21994   -22933   -23413   -23357 
  -23159   -23267   -23782   -24412   -24896   -25304   -25756   -26206 
  -26565   -26874   -27221   -27616   -27957   -28163   -28356   -28634 
  -28825   -28584   -27737   -26627   -25872   -25672   -25780   -25998 
  -26246   -26411   -26368   -26063   -25659   -25438   -25353   -25046 
  -24406   -23649   -23080   -22983   -23296   -23643   -23773   -23568 
  -23037   -22543   -22477   -22783   -23066   -22883   -22057   -20898 
  -19931   -19454   -19511   -19912   -20286   -20383   -20279   -20316 
  -20742   -21352   -21855   -22302   -22816   -23344   -23854   -24390 
  -24887   -25317   -25876   -26595   -27182   -27486   -27538   -27430 
  -27306   -27124   -26649   -25776   -24733   -23967   -23699   -23670 
  -23564   -23314   -22878   -22177   -21312   -20529   -20113   -20267 
  -20876   -21563   -22063   -22373   -22640   -22906   -23085   -23103 
  -22894   -22497   -22179   -22071   -22054   -21979   -21714   -21321 
  -21027   -20869   -20807   -20873   -21080   -21529   -22210   -22800 
  -23141   -23311   -23260   -22927   -22368   -21683   -21109   -20883 
  -20927   -21043   -21142   -21128   -20985   -20912   -21045   -21223 
  -21114   -20528   -19693   -19035   -18769   -18790   -18856   -18798 
  -18554   -18157   -17770   -17535   -17491   -17645   -17988   -18594 
  -19591   -20946   -22519   -24120   -25448   -26269   -26584   -26453 
  -25932   -25247   -24663   -24298   -24217   -24447   -24813   -25061 
  -25095   -24880   -24364   -23599   -22739   -21933   -21328   -21050 
  -21114   -21447   -22005   -22788   -23696   -24432   -24815   -24962 
  -25026   -25108   -25277   -25470   -25581   -25627   -25756   -26042 
  -26343   -26522   -26531   -26346   -26001   -25550   -25072   -24767 
  -24780   -25066   -25571   -26269   -26954   -27284   -27186   -26898 
  -26531   -26094   -25716   -25371   -24892   -24271   -23669   -23333 
  -23341   -23431   -23242   -22580   -21521   -20421   -19653   -19249 
  -18959   -18616   -18250   -17919   -17691   -17662   -17936   -18634 
  -19746   -21006   -22172   -23211   -24105   -24823   -25434   -26033 
  -26669   -27364   -28085   -28707   -29015   -28856   -28287   -27479 
  -26590   -25798   -25192   -24761   -24632   -24916   -25355   -25482 
  -25000   -23923   -22566   -21358   -20518   -19890   -19197   -18453 
  -17903   -17709   -17821   -18015   -18007   -17671   -17188   -16912 
  -17070   -17647   -18443   -19153   -19530   -19645   -19851   -20337 
  -20983   -21632   -22072   -22094   -21766   -21342   -21089   -21273 
  -21933   -22796   -23523   -23951   -24258   -24761   -25429   -25868 
  -25867   -25648   -25519   -25546   -25701   -26056   -26643   -27368 
  -27999   -28208   -27841   -27078   -26096   -24883   -23534   -22310 
  -21382   -20899   -20993   -21616   -22551   -23518   -24217   -24545 
  -24629   -24537   -24281   -23986   -23784   -23656   -23620   -23665 
  -23587   -23295   -22950   -22586   -22079   -21514   -21192   -21307 
  -21807   -22389   -22689   -22636   -22422   -22137   -21794   -21560 
  -21597   -21776   -21867   -21903   -22133   -22669   -23404   -24112 
  -24595   -24833   -24910   -24988   -25231   -25529   -25536   -25057 
  -24167   -23098   -22222   -21766   -21555   -21462   -21602   -21941 
  -22284   -22557   -22778   -22831   -22441   -21532   -20401   -19440 
  -18920   -18960   -19450   -20128   -20754   -21159   -21200   -20864 
  -20405   -20074   -19809   -19431   -18900   -18330   -17952   -17907 
  -18088   -18323   -18451   -18308   -18023   -18041   -18565   -19380 
  -20241   -21069   -21867   -22624   -23217   -23449   -23294   -22982 
  -22856   -23028   -23248   -23282   -23188   -23257   -23750   -24644 
  -25714   -26765   -27616   -28131   -28350   -28459   -28647   -28930 
  -29011   -28503   -27382   -26102   -25155   -24632   -24322   -24048 
  -23662   -23099   -22562   -22335   -22357   -22337   -22152   -21901 
  -21714   -21649   -21743   -22117   -22820   -23681   -24482   -25029 
  -25211   -25203   -25212   -25114   -24718   -24069   -23368   -22877 
  -22723   -22806   -23048   -23492   -24031   -24310   -24054   -23336 
  -22522   -22033   -22061   -22439   -22894   -23253   -23372   -23118 
  -22442   -21475   -20520   -19861   -19630   -19809   -20359   -21247 
  -22245   -23004   -23453   -23785   -24155   -24522   -24692   -24576 
  -24416   -24466   -24582   -24498   -24285   -24077   -23769   -23180 
  -22280   -21285   -20520   -20100   -19935   -19880   -19827   -19785 
  -19830   -19932   -19928   -19699   -19302   -18804   -18210   -17637 
  -17317   -17362   -17674   -18172   -18831   -19498   -20011   -20356 
  -20518   -20424   -20032   -19415   -18755   -18264   -18069   -18231 
  -18765   -19562   -20440   -21330   -22204   -22856   -23067   -22854 
  -22366   -21818   -21379   -20988   -20645   -20637   -21114   -21897 
  -22766   -23521   -23959   -24109   -24131   -24019   -23768   -23579 
  -23631   -23917   -24345   -24761   -25019   -25112   -25178   -25249 
  -25070   -24489   -23780   -23247   -22997   -23163   -23703   -24177 
  -24178   -23793   -23387   -23072   -22697   -22216   -21708   -21181 
  -20657   -20309   -20309   -20695   -21463   -22518   -23565   -24345 
  -24877   -25350   -25840   -26258   -26589   -26954   -27400   -27888 
  -28399   -28860   -29149   -29255   -29170   -28718   -27685   -26114 
  -24335   -22713   -21531   -20939   -20848   -20969   -21061   -20966 
  -20632   -20255   -20154   -20374   -20677   -20864   -21015   -21397 
  -22171   -23278   -24587   -25991   -27325   -28291   -28675   -28625 
  -28422   -28192   -28039   -28070   -28204   -28273   -28189   -27950 
  -27645   -27419   -27319   -27183   -26801   -26113   -25164   -24025 
  -22789   -21559   -20399   -19325   -18409   -17756   -17361   -17093 
  -16800   -16418   -16074   -15961   -16120   -16441   -16839   -17379 
  -18161   -19095   -19978   -20769   -21547   -22226   -22615   -22712 
  -22700   -22785   -23147   -23760   -24372   -24791   -24965   -24891 
  -24652   -24328   -23851   -23198   -22500   -21895   -21435   -21076 
  -20757   -20515   -20379   -20314   -20264   -20139   -19980   -19932 
  -19959   -19853   -19585   -19361   -19346   -19560   -19955   -20378 
  -20579   -20482   -20233   -19963   -19808   -19969   -20479   -21128 
  -21730   -22279   -22832   -23421   -24000   -24394   -24394   -24035 
  -23583   -23294   -23232   -23299   -23357   -23334   -23275   -23238 
  -23224   -23222   -23238   -23267   -23287   -23296   -23302   -23236 
  -23058   -22885   -22801   -22805   -22928   -23207   -23684   -24379 
  -25174   -25891   -26441   -26817   -27039   -27128   -27090   -26913 
  -26624   -26303   -26010   -25803   -25743   -25802   -25841   -25681 
  -25191   -24372   -23368   -22401   -21662   -21185   -20895   -20749 
  -20726   -20706   -20561   -20263   -19818   -19282   -18796   -18466 
  -18405   -18732   -19395   -20227   -21120   -21992   -22755   -23360 
  -23801   -24101   -24310   -24495   -24644   -24610   -24304   -23915 
  -23784   -24059   -24629   -25246   -25708   -25969   -25992   -25698 
  -25230   -24857   -24614   -24383   -24206   -24197   -24410   -24795 
  -25112   -25060   -24544   -23718   -22775   -21843   -21100   -20780 
  -20918   -21336   -21813   -22171   -22300   -22248   -22184   -22179 
  -22156   -22096   -22030   -21965   -21914   -21895   -21891   -21874 
  -21864   -21946   -22191   -22512   -22686   -22657   -22635   -22777 
  -23004   -23268   -23635   -24025   -24293   -24409   -24399   -24351 
  -24355   -24359   -24339   -24414   -24663   -25056   -25478   -25768 
  -25852   -25772   -25587   -25305   -24948   -24680   -24711   -25019 
  -25363   -25548   -25579   -25563   -25502   -25343   -25131   -24935 
  -24721   -24341   -23630   -22609   -21524   -20575   -19836   -19369 
  -19224   -19359   -19624   -19877   -20075   -20229   -20376   -20582 
  -20877   -21169   -21305   -21247   -21174   -21334   -21803   -22434 
  -23020   -23452   -23697   -23761   -23642   -23376   -23009   -22530 
  -21963   -21405   -20912   -20517   -20233   -20023   -19854   -19714 
  -19542   -19334   -19201   -19182   -19225   -19326   -19483   -19599 
  -19620   -19637   -19762   -20040   -20425   -20775   -20969   -21054 
  -21141   -21205   -21173   -21092   -21111   -21354   -21871   -22620 
  -23440   -24154   -24711   -25104   -25259   -25169   -24941   -24702 
  -24544   -24544   -24776   -25261   -25948   -26711   -27340   -27648 
  -27639   -27446   -27128   -26677   -26121   -25513   -24906   -24305 
  -23687   -23094   -22566   -22013   -21358   -20673   -20004   -19340 
  -18774   -18432   -18346   -18462   -18688   -18914   -19120   -19369 
  -19673   -19967   -20262   -20583   -20842   -20987   -21131   -21358 
  -21601   -21760   -21813   -21814   -21840   -21905   -21969   -22014 
  -22084   -22246   -22569   -23064   -23646   -24221   -24709   -25030 
  -25174   -25169   -25039   -24799   -24464   -24148   -24043   -24251 
  -24684   -25142   -25434   -25512   -25407   -25118   -24725   -24387 
  -24142   -23947   -23866   -24011   -24425   -25045   -25667   -26015 
  -25945   -25547   -24997   -24416   -23843   -23279   -22721   -22233 
  -21891   -21699   -21595   -21496   -21325   -21089   -20850   -20626 
  -20394   -20200   -20096   -20055   -20043   -20108   -20291   -20537 
  -20772   -20991   -21226   -21529   -21899   -22261   -22570   -22812 
  -22924   -22832   -22539   -22156   -21825   -21690   -21817   -22119 
  -22474   -22869   -23286   -23673   -24030   -24383   -24737   -25112 
  -25483   -25771   -25968   -26187   -26504   -26836   -27031   -27045 
  -26913   -26631   -26223   -25791   -25375   -24931   -24476   -24108 
  -23886   -23774   -23751   -23834   -23920   -23828   -23525   -23107 
  -22674   -22288   -22009   -21934   -22134   -22561   -23110   -23672 
  -24105   -24273   -24139   -23780   -23298   -22821   -22472   -22296 
  -22264   -22345   -22547   -22836   -23121   -23280   -23186   -22852 
  -22458   -22145   -21956   -21902   -21953   -22092   -22388   -22877 
  -23512   -24219   -24841   -25191   -25191   -24912   -24451   -23889 
  -23332   -22821   -22334   -21956   -21789   -21739   -21698   -21708 
  -21730   -21639   -21421   -21145   -20893   -20807   -20949   -21278 
  -21833   -22661   -23647   -24565   -25227   -25589   -25706   -25650 
  -25451   -25135   -24768   -24389   -23904   -23233   -22391   -21455 
  -20502   -19557   -18648   -17874   -17371   -17267   -17585   -18187 
  -18867   -19468   -19946   -20335   -20617   -20742   -20744   -20714 
  -20722   -20879   -21346   -22134   -23060   -23944   -24676   -25196 
  -25602   -26068   -26562   -26894   -26968   -26784   -26407   -26015 
  -25776   -25706   -25647   -25408   -24965   -24426   -23886   -23423 
  -23083   -22833   -22612   -22362   -22063   -21720   -21303   -20790 
  -20250   -19746   -19286   -18874   -18558   -18462   -18779   -19577 
  -20709   -21961   -23186   -24291   -25200   -25849   -26198   -26258 
  -26092   -25775   -25394   -25037   -24759   -24591   -24525   -24474 
  -24349   -24154   -23895   -23508   -22940   -22219   -21431   -20682 
  -20042   -19515   -19083   -18740   -18436   -18087   -17705   -17443 
  -17415   -17563   -17780   -18056   -18419   -18813   -19148   -19461 
  -19905   -20556   -21338   -22121   -22813   -23445   -24185   -25092 
  -25998   -26725   -27199   -27422   -27396   -27108   -26589   -25910 
  -25141   -24386   -23770   -23375   -23241   -23367   -23677   -24038 
  -24406   -24896   -25596   -26455   -27388   -28279   -28968   -29339 
  -29381   -29139   -28633   -27866   -26902   -25829   -24744   -23770 
  -22983   -22339   -21756   -21209   -20686   -20135   -19488   -18774 
  -18177   -17844   -17809   -18111   -18751   -19623   -20606   -21660 
  -22771   -23861   -24899   -25963   -27066   -28175   -29284   -30329 
  -31190   -31766   -32031   -32054   -31942   -31747   -31450   -31009 
  -30433   -29754   -29025   -28348   -27753   -27124   -26320   -25289 
  -24066   -22734   -21390   -20137   -19017   -18009   -17096   -16330 
  -15790   -15504   -15417   -15484   -15718   -16102   -16609   -17254 
  -18033   -18920   -19878   -20852   -21797   -22712   -23575   -24351 
  -25034   -25604   -26014   -26239   -26275   -26142   -25878   -25471 
  -24880   -24113   -23211   -22167   -20906   -19381   -17625   -15723 
  -13794   -11965   -10374    -9128    -8247    -7701    -7468    -7526 
   -7851    -8406    -9175   -10169   -11403   -12918   -14708   -16687 
  -18729   -20677   -22427   -23942   -25195   -26202   -26971   -27419 
  -27502   -27301   -26931   -26484   -25994   -25461   -24891   -24337 
  -23877   -23488   -23147   -22944   -22897   -22954   -23072   -23187 
  -23302   -23461   -23666   -23881   -24031   -24078   -24090   -24140 
  -24246   -24428   -24787   -25388   -26130   -26892   -27608   -28192 
  -28591   -28845   -28987   -29030   -28999   -28960   -28964   -28991 
  -28979   -28823   -28432   -27820   -27076   -26277   -25494   -24745 
  -23944   -23043   -22167   -21474   -20989   -20688   -20591   -20692 
  -20923   -21189   -21450   -21728   -22034   -22377   -22790   -23279 
  -23809   -24412   -25168   -26095   -27120   -28147   -29116   -29948 
  -30600   -31118   -31558   -31881   -32024   -32042   -31946   -31635 
  -31012   -30045   -28802   -27394   -25945   -24563   -23272   -22052 
  -20923   -19931   -19056   -18256   -17548   -16999   -16605   -16271 
  -15938   -15615   -15369   -15267   -15340   -15568   -15904   -16393 
  -17112   -18045   -19157   -20414   -21737   -23053   -24285   -25358 
  -26250   -26939   -27392   -27625   -27696   -27691   -27706   -27787 
  -27909   -28057   -28196   -28232   -28097   -27765   -27191   -26346 
  -25278   -24124   -22998   -21934   -20954   -20085   -19375   -18901 
  -18619   -18368   -18088   -17856   -17748   -17813   -18088   -18624 
  -19492   -20645   -21926   -23271   -24653   -25972   -27139   -28059 
  -28597   -28718   -28561   -28285   -27931   -27456   -26851   -26191 
  -25605   -25165   -24804   -24426   -23993   -23499   -22917   -22252 
  -21585   -20983   -20429   -19897   -19365   -18819   -18299   -17875 
  -17582   -17413   -17354   -17410   -17590   -17915   -18416   -19098 
  -19859   -20540   -21099   -21595   -22034   -22403   -22751   -23132 
  -23548   -23989   -24439   -24887   -25309   -25640   -25799   -25728 
  -25385   -24783   -24028   -23269   -22557   -21918   -21451   -21204 
  -21109   -21112   -21158   -21172   -21143   -21100   -21006   -20839 
  -20672   -20590   -20626   -20803   -21108   -21474   -21838   -22198 
  -22535   -22801   -22997   -23206   -23450   -23699   -23965   -24258 
  -24590   -24960   -25230   -25231   -24961   -24528   -24061   -23681 
  -23469   -23431   -23512   -23633   -23661   -23517   -23263   -22981 
  -22713   -22435   -22079   -21652   -21213   -20808   -20439   -20048 
  -19639   -19284   -19028   -18905   -18944   -19165   -19561   -20050 
  -20540   -21006   -21448   -21834   -22130   -22380   -22673   -23010 
  -23356   -23728   -24142   -24628   -25292   -26176   -27116   -27908 
  -28487   -28860   -29054   -29114   -29065   -28907   -28647   -28325 
  -28011   -27765   -27569   -27334   -27012   -26573   -25990   -25334 
  -24729   -24256   -23950   -23792   -23765   -23859   -24034   -24266 
  -24532   -24717   -24757   -24694   -24521   -24256   -24013   -23834 
  -23687   -23560   -23414   -23163   -22750   -22199   -21568   -20885 
  -20164   -19489   -18962   -18584   -18326   -18211   -18234   -18380 
  -18685   -19163   -19784   -20551   -21431   -22300   -23052   -23650 
  -24090   -24364   -24456   -24433   -24409   -24447   -24548   -24675 
  -24752   -24723   -24552   -24212   -23778   -23342   -22891   -22381 
  -21794   -21116   -20360   -19623   -19035   -18688   -18632   -18874 
  -19379   -20069   -20838   -21577   -22202   -22688   -23056   -23333 
  -23483   -23483   -23426   -23427   -23530   -23723   -23944   -24094 
  -24129   -24066   -23947   -23809   -23696   -23643   -23630   -23589 
  -23503   -23396   -23236   -22983   -22705   -22453   -22206   -21952 
  -21655   -21271   -20857   -20505   -20241   -20056   -19935   -19836 
  -19711   -19542   -19365   -19195   -19048   -18986   -19055   -19207 
  -19348   -19415   -19457   -19570   -19747   -19907   -20028   -20139 
  -20282   -20466   -20630   -20779   -20956   -21135   -21249   -21230 
  -21062   -20834   -20668   -20610   -20628   -20696   -20853   -21091 
  -21332   -21539   -21712   -21886   -22131   -22523   -23060   -23703 
  -24409   -25100   -25678   -26061   -26204   -26175   -26076   -25942 
  -25772   -25600   -25512   -25601   -25868   -26210   -26499   -26673 
  -26752   -26720   -26551   -26365   -26312   -26397   -26563   -26778 
  -26994   -27151   -27221   -27202   -27064   -26771   -26358   -25894 
  -25393   -24877   -24403   -24005   -23688   -23415   -23116   -22778 
  -22478   -22237   -21994   -21740   -21544   -21432   -21355   -21207 
  -20898   -20472   -19997   -19454   -18854   -18239   -17672   -17258 
  -17037   -16961   -17001   -17135   -17315   -17487   -17609   -17693 
  -17779   -17856   -17930   -18081   -18414   -18956   -19606   -20264 
  -20930   -21613   -22299   -22971   -23646   -24341   -25026   -25629 
  -26103   -26458   -26811   -27221   -27575   -27765   -27787   -27654 
  -27418   -27152   -26882   -26599   -26334   -26127   -25937   -25701 
  -25439   -25174   -24871   -24463   -23946   -23371   -22801   -22342 
  -22106   -22072   -22156   -22319   -22532   -22783   -23053   -23296 
  -23488   -23641   -23765   -23870   -23953   -24012   -24055   -24097 
  -24123   -24100   -24031   -23913   -23758   -23603   -23440   -23256 
  -23094   -22990   -22948   -22918   -22843   -22754   -22708   -22685 
  -22592   -22392   -22150   -21953   -21853   -21844   -21843   -21797 
  -21714   -21606   -21479   -21348   -21224   -21131   -21074   -21030 
  -20989   -20958   -20952   -20964   -20961   -20939   -20938   -20993 
  -21108   -21297   -21571   -21906   -22272   -22636   -22958   -23242 
  -23533   -23831   -24109   -24337   -24497   -24632   -24795   -24987 
  -25205   -25446   -25650   -25756   -25764   -25698   -25593   -25516 
