Origin Time       2025/01/13 21:19:00
Lat.              31.8
Long.             131.6
Depth. (km)       30
Mag.              6.9
Station Code      KMMH07
Station Lat.      32.6234
Station Long.     130.5584
Station Height(m) 22
Record Time       2025/01/13 21:19:54
Sampling Freq(Hz) 100Hz
Duration Time(s)  181
Dir.              4
Scale Factor      7845(gal)/8223790
Max. Acc. (gal)   10.370
Last Correction   2025/01/13 21:19:54
Memo.             
[...]
   11009    10419     9454     8649     8355     8361     8282     8075 
    7959     8033     8118     7986     7732     7739     8286     9263 
   10199    10586    10346     9886     9722    10046    10584    10975 
   11233    11632    12316    13150    13790    13967    13761    13475 
   13352    13389    13313    12892    12163    11364    10762    10453 
   10347    10368    10524    10847    11290    11693    11940    12112 
   12380    12758    13047    13069    12914    12899    13298    13980 
   14395    14173    13566    13163    13359    13992    14462    14365 
   13894    13591    13786    14262    14459    13954    12808    11551 
   10781    10652    10824    10909    10901    11101    11693    12460 
   12985    13086    12984    13043    13369    13637    13414    12633 
   11632    10775    10180     9813     9657     9741    10030    10369 
   10562    10494    10224     9960     9956    10424    11452    12852 
   14185    15051    15323    15124    14654    14084    13528    13126 
   12992    13045    13003    12575    11678    10589     9822     9714 
   10122    10555    10593    10224     9757     9447     9367     9498 
    9801    10253    10763    11107    11113    10828    10474    10300 
   10511    11175    12114    13003    13554    13629    13248    12557 
   11782    11205    11037    11303    11803    12293    12671    12965 
   13278    13670    14010    14131    14006    13659    13115    12429 
   11624    10750     9923     9229     8683     8206     7704     7281 
    7198     7543     8116     8691     9306    10191    11429    12787 
   13884    14513    14713    14624    14297    13676    12798    11932 
   11425    11406    11662    11786    11535    11074    10849    11187 
   11958    12629    12700    12156    11452    11059    11026    10971 
   10517     9688     8869     8459     8548     8893     9189     9328 
    9424     9618     9938    10274    10430    10295     9998     9759 
    9639     9491     9135     8530     7817     7245     7007     7150 
    7628     8397     9420    10667    12078    13537    14920    16206 
   17485    18778    19909    20556    20549    20144    19769    19541 
   19225    18590    17604    16389    15136    13990    12968    12031 
   11230    10755    10706    10889    10971    10797    10516    10435 
   10647    10903    10902    10509     9822     9169     8826     8772 
    8827     8949     9251     9828    10652    11605    12573    13549 
   14580    15619    16544    17254    17705    17876    17771    17513 
   17317    17280    17342    17350    17050    16229    14970    13695 
   12903    12787    13042    13119    12704    11916    11059    10309 
    9630     8993     8567     8514     8756     9030     9144     9108 
    9024     8986     9053     9232     9501     9872    10358    10901 
   11398    11820    12251    12722    13109    13286    13279    13263 
   13402    13610    13590    13138    12287    11211    10015     8650 
    7084     5529     4345     3798     3927     4536     5313     6070 
    6845     7753     8856    10125    11425    12553    13306    13587 
   13508    13286    13055    12864    12776    12874    13155    13537 
   13932    14301    14675    15072    15449    15799    16158    16511 
   16750    16673    16162    15381    14708    14440    14571    14818 
   14868    14565    13967    13313    12842    12629    12579    12511 
   12280    11861    11395    11101    11107    11369    11709    11966 
   12079    12087    11998    11743    11300    10743    10176     9725 
    9429     9232     9043     8746     8276     7740     7318     7032 
    6700     6224     5809     5745     6084     6566     6918     7153 
    7480     8052     8829     9559     9988    10085    10021     9949 
    9872     9721     9562     9610     9988    10538    10979    11241 
   11507    11917    12395    12739    12802    12644    12494    12509 
   12665    12826    12865    12823    12856    13034    13271    13428 
   13510    13687    14087    14682    15318    15762    15834    15507 
   14895    14222    13774    13679    13815    13969    14023    14007 
   13995    13941    13757    13537    13516    13799    14270    14701 
   14856    14559    13775    12650    11483    10609    10197    10150 
   10282    10436    10440    10173     9640     9016     8617     8729 
    9406    10443    11518    12348    12808    12912    12754    12474 
   12195    12006    11954    11939    11773    11395    10894    10420 
   10147    10189    10528    11016    11433    11655    11763    11907 
   12120    12307    12345    12156    11736    11136    10446     9757 
    9130     8653     8442     8496     8650     8721     8704     8799 
    9217    10007    11053    12183    13277    14260    14968    15186 
   14854    14196    13651    13606    14057    14605    14763    14346 
   13632    13046    12806    12864    13058    13317    13675    14060 
   14226    13936    13189    12251    11438    10951    10781    10708 
   10450     9882     9094     8357     7985     8105     8621     9320 
    9963    10432    10764    11059    11446    11996    12687    13452 
   14096    14362    14139    13522    12765    12108    11681    11550 
   11639    11713    11620    11383    11064    10714    10409    10297 
   10538    11129    11854    12413    12583    12386    12123    12113 
   12456    13019    13579    14017    14312    14403    14187    13679 
   13099    12781    12881    13185    13281    12907    12145    11349 
   10870    10870    11268    11830    12383    12901    13331    13531 
   13427    13149    12933    12946    13185    13454    13513    13284 
   12879    12456    12059    11620    11128    10714    10528    10538 
   10623    10721    10862    11074    11304    11438    11373    11128 
   10925    11013    11414    11927    12318    12494    12557    12664 
   12854    13050    13212    13379    13567    13686    13585    13204 
   12694    12282    12073    11996    11866    11572    11207    10976 
   10979    11102    11153    11083    11036    11171    11480    11812 
   12027    12097    12121    12240    12472    12664    12633    12351 
   11951    11593    11375    11329    11407    11472    11362    11028 
   10623    10378    10366    10477    10547    10489    10373    10336 
   10439    10609    10727    10783    10910    11186    11550    11888 
   12100    12097    11790    11218    10628    10323    10319    10363 
   10291    10199    10280    10592    11029    11456    11813    12118 
   12410    12741    13100    13309    13192    12857    12587    12536 
   12623    12688    12633    12460    12221    12025    11973    12042 
   12097    11983    11618    11036    10392     9860     9529     9344 
    9213     9174     9409    10018    10805    11406    11627    11634 
   11723    11981    12262    12447    12564    12687    12850    13070 
   13339    13616    13824    13923    13984    14152    14500    14936 
   15263    15287    14894    14076    12958    11777    10731     9861 
    9101     8368     7626     6920     6315     5837     5506     5350 
    5397     5661     6142     6824     7701     8730     9775    10682 
   11373    11888    12334    12764    13093    13251    13266    13225 
   13192    13161    13074    12864    12517    12131    11844    11718 
   11680    11642    11596    11570    11533    11429    11303    11286 
   11437    11689    11904    11935    11712    11300    10832    10454 
   10299    10408    10696    11070    11541    12185    12976    13728 
   14297    14727    15130    15554    15970    16298    16437    16351 
   16098    15793    15496    15172    14798    14434    14181    14121 
   14230    14380    14424    14339    14235    14234    14316    14350 
   14207    13857    13423    13053    12766    12449    11988    11387 
   10814    10462    10388    10484    10606    10696    10786    10897 
   10962    10908    10750    10608    10596    10747    10999    11180 
   11110    10758    10273     9853     9632     9628     9717     9679 
    9374     8895     8475     8244     8112     7919     7631     7344 
    7180     7241     7518     7848     8075     8185     8270     8417 
    8661     9035     9566    10215    10889    11523    12121    12695 
   13220    13663    14011    14249    14338    14291    14164    13960 
   13662    13294    12923    12610    12363    12133    11928    11836 
   11932    12201    12517    12715    12735    12665    12699    12980 
   13421    13755    13774    13458    12972    12534    12245    12019 
   11707    11276    10871    10648    10567    10422    10071     9624 
    9400     9644    10312    11097    11630    11763    11631    11439 
   11273    11088    10809    10444    10099     9879     9784     9711 
    9578     9396     9247     9235     9373     9591     9890    10403 
   11226    12221    13066    13486    13447    13103    12664    12309 
   12105    12039    12139    12447    12934    13454    13837    14033 
   14150    14358    14758    15304    15854    16245    16407    16429 
   16457    16557    16708    16826    16814    16629    16289    15839 
   15357    14937    14594    14265    13894    13463    13031    12698 
   12492    12348    12197    12019    11863    11785    11742    11638 
   11445    11176    10856    10497    10054     9483     8826     8182 
    7663     7326     7133     7014     6988     7167     7616     8263 
    8934     9491     9931    10349    10840    11423    12025    12506 
   12756    12800    12803    12892    13053    13247    13493    13799 
   14125    14403    14562    14519    14192    13579    12776    11880 
   10957    10091     9342     8712     8164     7676     7284     7053 
    7010     7146     7438     7807     8145     8422     8754     9336 
   10261    11385    12391    13031    13271    13239    13103    12978 
   12889    12796    12586    12083    11159     9852     8368     7001 
    6002     5449     5223     5055     4715     4166     3503     2787 
    2058     1431     1096     1201     1745     2589     3562     4587 
    5718     7071     8688    10485    12302    14022    15549    16788 
   17737    18489    19167    19857    20528    21042    21285    21246 
   20991    20588    20058    19426    18770    18171    17671    17271 
   16950    16681    16459    16312    16254    16228    16185    16110 
   16032    16008    16078    16314    16823    17628    18577    19419 
   19988    20302    20525    20818    21235    21694    21998    21938 
   21388    20278    18596    16456    14129    11961    10185     8785 
    7562     6361     5128     3901     2836     2160     2034     2417 
    3080     3788     4438     5053     5711     6512     7500     8626 
    9779    10868    11839    12644    13185    13355    13166    12748 
   12275    11893    11658    11572    11585    11635    11718    11863 
   12102    12490    13055    13753    14465    15066    15520    15876 
   16167    16353    16306    15924    15226    14370    13574    13008 
   12691    12449    12060    11466    10782    10141     9610     9211 
    8889     8533     8059     7527     7095     6913     7029     7373 
    7825     8272     8626     8829     8876     8837     8797     8789 
    8826     8959     9189     9429     9580     9552     9324     8984 
    8644     8387     8252     8221     8271     8367     8422     8343 
    8091     7690     7256     6956     6851     6898     7090     7491 
    8202     9278    10611    11970    13161    14096    14806    15341 
   15722    15992    16186    16297    16322    16225    15927    15404 
   14743    14064    13462    12922    12307    11578    10901    10480 
   10416    10682    11107    11502    11784    11917    11913    11838 
   11705    11550    11461    11445    11422    11331    11138    10876 
   10694    10701    10864    11137    11493    11894    12287    12549 
   12546    12297    11901    11484    11140    10858    10588    10330 
   10083     9811     9502     9155     8761     8338     7970     7753 
    7782     8104     8657     9354    10125    10902    11646    12344 
   12989    13632    14362    15201    16094    16976    17730    18220 
   18430    18512    18648    18912    19241    19511    19592    19364 
   18794    17968    16995    16024    15310    15020    15083    15261 
   15288    15061    14669    14256    13941    13815    13879    14029 
   14154    14162    13988    13651    13252    12942    12842    12915 
   12988    12955    12839    12703    12560    12332    11938    11369 
   10660     9841     8923     7896     6808     5817     5093     4741 
    4783     5117     5525     5848     6124     6507     7075     7778 
    8456     8984     9359     9694    10139    10756    11472    12190 
   12879    13554    14223    14863    15419    15826    16046    16071 
   15940    15718    15417    14975    14320    13460    12523    11658 
   10905    10191     9393     8409     7273     6160     5244     4568 
    4066     3692     3495     3539     3807     4189     4557     4845 
    5105     5444     5888     6415     7003     7611     8208     8808 
    9402     9929    10295    10458    10492    10470    10431    10449 
   10569    10735    10848    10822    10682    10571    10602    10814 
   11160    11491    11677    11723    11727    11800    11978    12253 
   12625    13103    13691    14365    15061    15726    16318    16854 
   17419    18110    18956    19900    20815    21585    22160    22524 
   22643    22501    22122    21551    20885    20210    19508    18679 
   17672    16552    15479    14575    13824    13157    12545    11988 
   11530    11260    11236    11449    11832    12314    12862    13444 
   13986    14366    14476    14305    13933    13439    12883    12272 
   11601    10924    10293     9715     9173     8661     8226     7958 
    7947     8222     8715     9305     9853    10242    10420    10370 
   10062     9520     8866     8276     7869     7654     7561     7492 
    7342     7038     6631     6308     6320     6820     7713     8733 
    9641    10319    10740    10952    11051    11126    11245    11457 
   11762    12108    12452    12771    13036    13243    13410    13531 
   13549    13466    13327    13139    12858    12482    12056    11597 
   11097    10569    10027     9502     9089     8880     8911     9123 
    9352     9448     9362     9142     8887     8658     8472     8361 
    8371     8483     8637     8777     8888     9018     9240     9590 
   10031    10447    10704    10770    10767    10851    11074    11396 
   11761    12112    12436    12753    13065    13348    13593    13836 
   14142    14521    14877    15087    15105    14976    14763    14503 
   14222    13927    13603    13242    12912    12776    12933    13297 
   13660    13861    13900    13887    13888    13865    13721    13392 
   12927    12459    12071    11707    11237    10643    10083     9786 
    9828    10046    10206    10207    10161    10237    10492    10855 
   11223    11603    12104    12816    13705    14628    15434    16033 
   16452    16831    17320    17944    18607    19186    19600    19831 
   19892    19780    19464    18894    18072    17081    16027    14953 
   13845    12695    11551    10484     9535     8704     7982     7364 
    6837     6423     6203     6257     6579     7067     7588     8060 
    8469     8851     9265     9745    10293    10878    11454    11946 
   12258    12337    12189    11859    11438    11033    10694    10412 
   10089     9589     8865     8023     7254     6748     6605     6824 
    7319     7977     8699     9397     9980    10417    10777    11184 
   11753    12463    13165    13707    14044    14218    14314    14361 
   14320    14139    13810    13377    12914    12487    12132    11869 
   11707    11614    11533    11442    11371    11364    11437    11568 
   11730    11873    11958    11993    12008    12029    12066    12101 
   12117    12118    12078    11947    11742    11562    11526    11704 
   12052    12429    12707    12843    12856    12788    12676    12546 
   12422    12336    12353    12517    12781    13051    13246    13332 
   13311    13181    12945    12629    12283    11931    11568    11213 
   10916    10659    10385    10085     9796     9585     9531     9672 
    9976    10359    10741    11088    11418    11723    11966    12136 
   12253    12371    12572    12884    13251    13598    13876    14108 
   14351    14623    14886    15061    15051    14770    14179    13312 
   12321    11425    10804    10509    10447    10446    10363    10158 
    9886     9667     9641     9873    10312    10810    11210    11433 
   11503    11462    11303    10993    10527     9919     9235     8579 
    8014     7501     6987     6508     6200     6173     6374     6636 
    6820     6876     6853     6866     7017     7368     7932     8661 
    9477    10307    11107    11875    12642    13425    14181    14841 
   15353    15669    15746    15552    15097    14454    13764    13174 
   12754    12475    12248    11948    11492    10894    10258     9738 
    9456     9443     9643     9960    10307    10659    11060    11580 
   12256    13050    13879    14655    15317    15816    16094    16131 
   15986    15772    15584    15434    15282    15124    15013    14999 
   15079    15184    15241    15241    15240    15288    15390    15477 
   15458    15296    15039    14777    14554    14343    14103    13848 
   13653    13576    13597    13640    13624    13509    13312    13059 
   12752    12364    11892    11372    10871    10439    10049     9613 
    9104     8583     8145     7874     7767     7773     7858     8019 
    8248     8529     8811     9043     9208     9325     9429     9529 
    9634     9780    10008    10315    10619    10805    10824    10728 
   10625    10621    10743    10894    10936    10825    10662    10621 
   10821    11223    11688    12118    12522    12950    13406    13825 
   14125    14295    14392    14472    14534    14530    14435    14312 
   14262    14314    14418    14473    14393    14191    13940    13726 
   13599    13556    13583    13644    13671    13602    13428    13178 
   12888    12583    12309    12081    11867    11649    11415    11180 
   10964    10781    10628    10497    10382    10308    10316    10450 
   10709    11018    11286    11470    11595    11715    11842    11938 
   11978    11977    11978    12006    12028    11978    11826    11593 
   11360    11232    11271    11426    11561    11589    11539    11470 
   11389    11250    10990    10574    10045     9508     9073     8803 
    8695     8737     8938     9294     9765    10269    10747    11192 
   11628    12087    12569    13028    13425    13763    14071    14359 
   14597    14705    14655    14501    14307    14077    13778    13365 
   12838    12255    11669    11091    10507     9896     9290     8776 
    8418     8233     8167     8127     8024     7838     7607     7395 
    7256     7230     7323     7515     7784     8131     8544     8982 
    9373     9640     9783     9884    10037    10273    10557    10841 
   11124    11431    11794    12222    12695    13140    13497    13751 
   13915    14010    14042    14007    13914    13795    13686    13622 
   13612    13640    13705    13795    13865    13853    13711    13451 
