Origin Time       2025/01/13 21:19:00
Lat.              31.8
Long.             131.6
Depth. (km)       30
Mag.              6.9
Station Code      KMMH17
Station Lat.      32.9873
Station Long.     130.5608
Station Height(m) 55
Record Time       2025/01/13 21:19:58
Sampling Freq(Hz) 100Hz
Duration Time(s)  167
Dir.              4
Scale Factor      7845(gal)/8223790
Max. Acc. (gal)   4.685
Last Correction   2025/01/13 21:19:59
Memo.             
[...]
    2660     2722     2744     2724     2660     2570     2506     2511 
    2581     2702     2855     3010     3138     3196     3169     3071 
    2921     2747     2582     2446     2377     2407     2504     2605 
    2685     2762     2852     2933     2951     2867     2691     2488 
    2339     2301     2396     2579     2748     2817     2772     2670 
    2583     2555     2571     2583     2562     2559     2658     2851 
    3046     3138     3069     2883     2674     2504     2385     2304 
    2234     2164     2147     2245     2444     2667     2829     2887 
    2862     2789     2700     2625     2569     2505     2432     2392 
    2416     2490     2565     2593     2578     2567     2602     2679 
    2778     2883     3011     3177     3352     3443     3384     3198 
    2980     2813     2721     2701     2727     2776     2851     2952 
    3065     3148     3138     3002     2756     2462     2193     2010 
    1914     1861     1792     1683     1588     1605     1773     2033 
    2254     2320     2223     2058     1948     1964     2092     2245 
    2330     2327     2285     2253     2254     2289     2331     2358 
    2373     2369     2340     2284     2199     2097     2018     1991 
    2041     2168     2346     2531     2660     2697     2664     2632 
    2651     2732     2860     3009     3142     3217     3195     3083 
    2922     2736     2543     2384     2313     2340     2427     2531 
    2628     2706     2772     2820     2836     2822     2799     2782 
    2771     2729     2624     2475     2319     2165     2020     1918 
    1880     1908     1999     2122     2224     2265     2235     2165 
    2108     2091     2099     2111     2115     2116     2134     2197 
    2307     2424     2519     2605     2689     2756     2798     2829 
    2883     2983     3122     3287     3447     3559     3604     3604 
    3605     3647     3732     3838     3936     4009     4056     4086 
    4099     4101     4122     4182     4257     4318     4347     4337 
    4314     4288     4245     4171     4068     3936     3781     3643 
    3559     3532     3549     3604     3669     3700     3690     3639 
    3535     3377     3186     2999     2841     2706     2601     2554 
    2589     2664     2713     2716     2705     2702     2701     2695 
    2674     2629     2594     2609     2701     2871     3087     3289 
    3435     3530     3620     3739     3858     3910     3844     3653 
    3399     3184     3063     3001     2941     2855     2752     2670 
    2619     2579     2538     2488     2430     2381     2350     2340 
    2358     2392     2401     2366     2317     2289     2293     2344 
    2463     2648     2859     3046     3160     3168     3079     2922 
    2751     2605     2470     2328     2191     2081     2034     2060 
    2149     2269     2382     2470     2555     2679     2844     2995 
    3071     3051     2971     2898     2856     2803     2673     2440 
    2166     1957     1891     1972     2150     2374     2624     2880 
    3100     3215     3181     3014     2758     2470     2207     1972 
    1748     1543     1402     1354     1394     1501     1637     1753 
    1809     1794     1738     1702     1713     1760     1818     1876 
    1958     2106     2327     2560     2705     2693     2539     2327 
    2137     1999     1931     1930     1965     2020     2096     2192 
    2278     2312     2266     2160     2058     2026     2101     2273 
    2478     2659     2774     2791     2728     2639     2550     2452 
    2317     2118     1860     1578     1329     1182     1159     1227 
    1333     1432     1495     1528     1570     1655     1769     1864 
    1895     1841     1744     1679     1698     1796     1938     2081 
    2208     2312     2382     2403     2376     2313     2251     2228 
    2270     2369     2488     2582     2624     2610     2551     2482 
    2438     2435     2481     2562     2648     2720     2794     2879 
    2968     3048     3103     3130     3138     3132     3115     3086 
    3045     3014     3017     3055     3129     3246     3399     3568 
    3736     3898     4037     4145     4230     4302     4361     4411 
    4432     4406     4353     4318     4338     4418     4521     4598 
    4603     4522     4382     4233     4122     4078     4104     4190 
    4309     4428     4498     4477     4330     4055     3692     3302 
    2967     2767     2710     2749     2841     2953     3064     3154 
    3198     3180     3114     3025     2955     2932     2933     2910 
    2797     2560     2236     1911     1675     1566     1561     1625 
    1726     1857     2022     2197     2361     2519     2685     2852 
    3013     3146     3233     3264     3256     3223     3176     3111 
    3049     3013     2998     2984     2955     2902     2828     2751 
    2697     2691     2751     2880     3064     3264     3441     3559 
    3604     3589     3543     3484     3411     3306     3157     2978 
    2797     2646     2533     2459     2413     2389     2369     2316 
    2203     2041     1863     1722     1656     1637     1605     1521 
    1391     1275     1243     1321     1495     1745     2046     2350 
    2597     2764     2856     2887     2874     2832     2786     2744 
    2690     2617     2527     2446     2413     2434     2485     2543 
    2575     2550     2482     2435     2478     2632     2841     3006 
    3073     3057     2992     2920     2880     2898     2965     3072 
    3198     3314     3395     3437     3454     3462     3462     3435 
    3377     3291     3169     3015     2857     2722     2600     2477 
    2358     2265     2226     2261     2374     2539     2694     2776 
    2774     2713     2627     2555     2552     2648     2818     3014 
    3187     3337     3476     3595     3673     3711     3720     3726 
    3750     3794     3829     3823     3750     3616     3461     3327 
    3219     3106     2944     2705     2411     2118     1873     1707 
    1648     1705     1856     2064     2282     2458     2543     2509 
    2344     2079     1775     1507     1316     1196     1123     1074 
    1032     1013     1046     1148     1310     1497     1690     1896 
    2118     2350     2590     2816     2998     3111     3142     3109 
    3048     2986     2934     2895     2860     2810     2732     2631 
    2523     2425     2353     2324     2349     2409     2462     2470 
    2439     2408     2427     2525     2685     2832     2893     2837 
    2698     2532     2382     2254     2114     1944     1752     1571 
    1451     1428     1490     1597     1695     1755     1775     1772 
    1764     1759     1752     1722     1652     1543     1418     1300 
    1205     1136     1077     1017      957      903      855      818 
     820      905     1084     1329     1603     1876     2139     2398 
    2659     2910     3140     3339     3515     3681     3834     3954 
    4018     4023     3985     3950     3963     4040     4159     4276 
    4372     4433     4452     4430     4374     4276     4140     4002 
    3913     3912     4016     4194     4391     4554     4649     4668 
    4622     4518     4374     4225     4110     4047     4008     3950 
    3842     3686     3518     3381     3311     3298     3294     3242 
    3118     2921     2701     2531     2451     2442     2471     2517 
    2577     2674     2843     3098     3418     3754     4039     4206 
    4213     4060     3789     3468     3163     2920     2744     2608 
    2482     2369     2282     2245     2274     2366     2486     2593 
    2663     2722     2812     2945     3099     3240     3331     3361 
    3322     3217     3063     2871     2625     2319     1975     1647 
    1398     1270     1269     1355     1478     1607     1741     1890 
    2065     2246     2390     2473     2512     2539     2566     2596 
    2623     2633     2612     2563     2501     2412     2269     2074 
    1863     1699     1637     1682     1792     1918     2019     2091 
    2150     2204     2246     2250     2199     2108     2006     1919 
    1884     1906     1958     2010     2041     2056     2073     2111 
    2168     2249     2351     2478     2636     2818     3014     3208 
    3375     3512     3647     3784     3915     4017     4063     4052 
    4005     3958     3927     3900     3848     3762     3647     3530 
    3446     3415     3418     3418     3384     3319     3257     3215 
    3198     3188     3165     3115     3060     3028     3019     3009 
    2972     2903     2822     2774     2787     2848     2916     2957 
    2944     2874     2762     2624     2469     2295     2112     1938 
    1775     1629     1516     1444     1428     1460     1493     1485 
    1426     1339     1259     1240     1309     1456     1660     1888 
    2091     2226     2296     2320     2320     2313     2309     2308 
    2292     2249     2191     2141     2111     2116     2161     2224 
    2296     2367     2436     2501     2577     2673     2774     2857 
    2913     2945     2975     3019     3079     3138     3180     3186 
    3146     3080     3007     2934     2870     2821     2813     2870 
    2967     3057     3119     3165     3214     3279     3348     3402 
    3438     3465     3487     3511     3531     3545     3565     3604 
    3663     3731     3775     3778     3734     3636     3499     3342 
    3203     3110     3057     3022     2994     2967     2932     2884 
    2826     2770     2717     2664     2608     2554     2494     2430 
    2361     2296     2253     2241     2239     2223     2173     2085 
    1981     1885     1813     1771     1755     1763     1802     1876 
    1988     2131     2292     2461     2620     2745     2820     2853 
    2849     2816     2768     2729     2710     2725     2781     2864 
    2949     3003     3007     2953     2844     2687     2500     2316 
    2178     2099     2053     2008     1948     1863     1773     1710 
    1674     1630     1549     1424     1275     1142     1067     1067 
    1128     1236     1371     1493     1568     1587     1548     1476 
    1406     1354     1323     1328     1387     1491     1630     1794 
    1954     2089     2189     2234     2204     2128     2056     2023 
    2056     2142     2245     2320     2344     2323     2289     2284 
    2315     2362     2398     2411     2415     2443     2506     2601 
    2716     2848     3002     3188     3412     3663     3929     4209 
    4495     4773     5015     5186     5262     5225     5093     4923 
    4762     4607     4442     4256     4043     3820     3618     3458 
    3339     3244     3156     3079     3025     3006     3013     3026 
    3014     2941     2806     2646     2502     2412     2394     2446 
    2546     2678     2837     3001     3132     3208     3237     3245 
    3261     3299     3364     3445     3518     3572     3609     3632 
    3646     3661     3685     3715     3740     3750     3735     3705 
    3678     3676     3699     3732     3763     3794     3842     3897 
    3946     3967     3947     3890     3802     3681     3532     3373 
    3213     3064     2941     2841     2752     2666     2570     2440 
    2266     2057     1834     1620     1426     1264     1128     1016 
     930      866      812      765      730      715      711      706 
     724      789      909     1089     1320     1567     1783     1938 
    2038     2116     2203     2322     2463     2601     2722     2833 
    2953     3102     3295     3546     3854     4199     4544     4849 
    5082     5239     5328     5370     5383     5383     5375     5356 
    5325     5279     5216     5130     5026     4911     4781     4630 
    4463     4301     4159     4037     3916     3765     3564     3319 
    3056     2798     2544     2290     2031     1761     1490     1237 
    1030      899      835      810      787      753      707      662 
     634      637      679      757      853      935      978      974 
     905      762      545      279        0     -245     -425     -530 
    -580     -599     -607     -616     -633     -646     -650     -627 
    -549     -394     -141      201      592      997     1383     1723 
    2007     2239     2428     2575     2686     2782     2887     3001 
    3106     3195     3256     3275     3246     3173     3060     2917 
    2774     2660     2590     2563     2560     2567     2582     2605 
    2643     2695     2762     2833     2907     2998     3125     3295 
    3497     3713     3925     4122     4301     4455     4583     4684 
    4750     4784     4788     4765     4719     4669     4642     4652 
    4700     4791     4924     5096     5313     5583     5899     6226 
    6528     6790     6994     7123     7165     7111     6966     6755 
    6500     6216     5903     5548     5155     4747     4364     4050 
    3811     3627     3483     3379     3330     3346     3418     3508 
    3562     3545     3457     3339     3256     3235     3260     3295 
    3304     3265     3183     3076     2957     2820     2659     2488 
    2326     2192     2101     2047     2006     1961     1895     1795 
    1668     1520     1336     1124      901      679      473      298 
     145        9     -114     -221     -321     -425     -521     -585 
    -607     -591     -556     -527     -514     -513     -523     -550 
    -608     -715     -868    -1058    -1273    -1498    -1707    -1884 
   -2026    -2127    -2191    -2216    -2178    -2038    -1788    -1453 
   -1066     -656     -244      163      549      900     1216     1493 
    1723     1925     2104     2265     2417     2571     2721     2859 
    2991     3127     3276     3453     3667     3906     4139     4341 
    4492     4583     4626     4638     4631     4610     4573     4519 
    4445     4341     4198     4024     3850     3723     3680     3719 
    3812     3928     4051     4183     4314     4423     4490     4521 
    4542     4595     4706     4873     5077     5297     5508     5701 
    5869     5996     6046     5984     5791     5485     5111     4716 
    4334     3979     3662     3400     3199     3053     2957     2897 
    2849     2809     2767     2722     2683     2654     2625     2590 
    2555     2523     2474     2381     2223     1992     1710     1418 
    1171     1009      947      962     1012     1061     1088     1108 
    1135     1174     1237     1331     1449     1591     1738     1864 
    1962     2035     2100     2192     2328     2498     2682     2853 
    2986     3065     3103     3125     3154     3188     3202     3168 
    3082     2955     2814     2685     2585     2519     2485     2478 
    2508     2586     2718     2890     3080     3261     3403     3487 
    3530     3558     3586     3622     3662     3697     3713     3694 
    3630     3531     3423     3327     3258     3233     3257     3315 
    3370     3400     3395     3368     3348     3354     3395     3454 
    3503     3518     3472     3353     3177     2970     2745     2517 
    2293     2076     1879     1725     1642     1640     1698     1792 
    1899     1995     2065     2122     2196     2303     2448     2633 
    2830     3010     3156     3246     3254     3167     3001     2806 
    2639     2535     2509     2555     2655     2785     2917     3032 
    3105     3106     3011     2822     2569     2282     2004     1771 
    1598     1498     1470     1491     1528     1555     1567     1568 
    1570     1584     1613     1652     1706     1772     1842     1929 
    2042     2181     2335     2489     2629     2756     2863     2934 
    2978     3003     3021     3045     3068     3067     3022     2928 
    2808     2701     2635     2613     2620     2631     2624     2613 
    2621     2660     2729     2817     2899     2960     2988     2975 
    2924     2845     2744     2635     2554     2525     2552     2631 
    2743     2860     2978     3096     3213     3322     3408     3460 
    3487     3507     3531     3555     3558     3526     3462     3381 
    3299     3241     3215     3221     3267     3350     3460     3570 
    3672     3753     3797     3794     3761     3708     3628     3519 
    3384     3240     3111     3036     3024     3060     3111     3146 
    3150     3134     3129     3149     3186     3219     3233     3214 
    3150     3056     2957     2868     2782     2687     2563     2393 
    2178     1934     1676     1435     1216     1011      812      627 
     456      315      224      190      217      292      399      526 
     672      850     1069     1335     1648     1999     2363     2702 
    2987     3213     3391     3547     3708     3867     3998     4077 
    4082     4008     3871     3707     3534     3352     3169     2999 
    2859     2756     2673     2587     2496     2408     2339     2285 
    2220     2123     1991     1830     1653     1479     1310     1147 
    1001      882      800      747      707      660      591      513 
     460      460      519      631      777      947     1119     1266 
    1370     1426     1451     1464     1491     1559     1686     1883 
    2149     2461     2790     3114     3415     3688     3935     4153 
    4338     4494     4621     4726     4819     4909     5000     5092 
    5193     5297     5398     5494     5580     5644     5671     5668 
    5648     5614     5567     5512     5441     5347     5224     5067 
    4891     4718     4565     4433     4309     4190     4079     3981 
    3901     3836     3759     3647     3495     3314     3113     2907 
    2697     2478     2268     2080     1921     1802     1729     1705 
    1729     1799     1904     2031     2157     2263     2340     2376 
    2373     2343     2301     2261     2239     2247     2301     2400 
    2523     2652     2764     2835     2849     2820     2766     2713 
    2654     2575     2489     2409     2347     2309     2286     2263 
    2218     2133     2025     1922     1841     1796     1795     1825 
    1867     1902     1910     1891     1861     1841     1840     1867 
    1919     1987     2058     2115     2141     2137     2120     2111 
    2130     2191     2274     2349     2380     2361     2308     2242 
    2174     2106     2020     1911     1802     1719     1684     1711 
    1786     1880     1973     2058     2128     2174     2199     2216 
    2251     2315     2400     2497     2590     2663     2710     2739 
    2754     2756     2745     2721     2682     2637     2601     2586 
    2593     2610     2635     2674     2736     2832     2965     3127 
    3302     3466     3603     3690     3731     3744     3754     3770 
    3800     3839     3881     3915     3925     3902     3848     3773 
    3690     3634     3619     3638     3681     3735     3788     3854 
    3936     4018     4078     4101     4095     4075     4047     4004 
    3939     3851     3748     3642     3545     3461     3384     3300 
    3186     3024     2809     2548     2270     2002     1748     1513 
    1304     1124      989      907      868      851      847      853 
     873      935     1051     1221     1431     1648     1841     1985 
    2069     2095     2061     1989     1911     1853     1840     1885 
    1995     2158     2359     2578     2785     2948     3055     3105 
