Origin Time       2025/01/13 21:19:00
Lat.              31.8
Long.             131.6
Depth. (km)       30
Mag.              6.9
Station Code      KMMH15
Station Lat.      32.1704
Station Long.     130.3647
Station Height(m) 15
Record Time       2025/01/13 21:19:52
Sampling Freq(Hz) 100Hz
Duration Time(s)  233
Dir.              6
Scale Factor      7845(gal)/8223790
Max. Acc. (gal)   3.265
Last Correction   2025/01/13 21:19:53
Memo.             
[...]
  -23005   -23441   -23893   -24228   -24390   -24327   -24020   -23565 
  -23112   -22750   -22531   -22470   -22489   -22499   -22477   -22442 
  -22410   -22368   -22327   -22435   -22802   -23294   -23769   -24216 
  -24517   -24514   -24247   -23880   -23533   -23268   -23109   -23103 
  -23248   -23472   -23755   -24104   -24435   -24675   -24844   -24969 
  -25054   -25145   -25258   -25305   -25182   -24853   -24383   -23947 
  -23715   -23737   -24001   -24464   -25026   -25525   -25799   -25839 
  -25722   -25466   -25141   -24902   -24783   -24738   -24718   -24664 
  -24583   -24529   -24499   -24474   -24479   -24509   -24545   -24659 
  -24923   -25270   -25563   -25740   -25844   -25932   -25991   -25983 
  -25917   -25839   -25786   -25789   -25849   -25953   -26094   -26249 
  -26404   -26520   -26527   -26416   -26266   -26111   -25955   -25886 
  -25999   -26179   -26219   -26040   -25686   -25296   -25070   -25134 
  -25483   -25986   -26447   -26797   -27074   -27278   -27394   -27475 
  -27562   -27618   -27572   -27421   -27217   -26979   -26711   -26427 
  -26119   -25794   -25528   -25398   -25400   -25496   -25671   -25906 
  -26123   -26241   -26227   -26088   -25878   -25681   -25575   -25578 
  -25621   -25652   -25697   -25782   -25920   -26127   -26376   -26596 
  -26754   -26831   -26767   -26496   -26071   -25631   -25246   -24876 
  -24462   -24015   -23643   -23467   -23566   -23951   -24486   -24987 
  -25385   -25694   -25886   -25913   -25802   -25605   -25373   -25151 
  -24956   -24791   -24663   -24571   -24482   -24341   -24165   -24057 
  -24078   -24200   -24405   -24687   -24943   -24992   -24750   -24302 
  -23792   -23359   -23155   -23263   -23607   -23981   -24240   -24410 
  -24583   -24802   -25014   -25092   -24965   -24711   -24475   -24358 
  -24408   -24578   -24752   -24845   -24830   -24733   -24649   -24665 
  -24802   -25074   -25467   -25870   -26165   -26316   -26318   -26221 
  -26104   -25987   -25910   -25945   -26057   -26172   -26310   -26522 
  -26794   -27060   -27207   -27109   -26708   -26103   -25520   -25189 
  -25219   -25497   -25767   -25855   -25739   -25475   -25178   -25003 
  -25042   -25243   -25413   -25366   -25047   -24613   -24355   -24452 
  -24777   -25034   -25047   -24827   -24480   -24139   -23915   -23882 
  -24046   -24279   -24376   -24227   -23877   -23456   -23144   -23101 
  -23309   -23573   -23700   -23630   -23440   -23278   -23274   -23410 
  -23549   -23557   -23413   -23257   -23226   -23328   -23525   -23777 
  -23980   -24016   -23842   -23530   -23269   -23188   -23226   -23252 
  -23198   -23064   -22943   -22993   -23279   -23707   -24119   -24366 
  -24393   -24298   -24212   -24196   -24254   -24335   -24372   -24363 
  -24358   -24428   -24595   -24794   -24935   -25003   -25076   -25258 
  -25563   -25909   -26194   -26323   -26238   -26002   -25753   -25574 
  -25496   -25546   -25726   -25961   -26122   -26165   -26131   -26068 
  -26030   -26065   -26146   -26200   -26264   -26469   -26887   -27440 
  -27938   -28252   -28399   -28405   -28302   -28192   -28097   -27972 
  -27808   -27637   -27475   -27321   -27151   -26948   -26746   -26570 
  -26423   -26352   -26408   -26585   -26879   -27290   -27734   -28088 
  -28282   -28332   -28294   -28151   -27828   -27333   -26775   -26285 
  -25942   -25739   -25616   -25509   -25394   -25266   -25111   -24937 
  -24742   -24555   -24435   -24363   -24271   -24140   -23985   -23826 
  -23696   -23633   -23654   -23739   -23853   -23942   -23924   -23764 
  -23517   -23283   -23121   -23008   -22889   -22754   -22651   -22651 
  -22816   -23126   -23480   -23781   -23997   -24125   -24159   -24125 
  -24094   -24121   -24142   -24024   -23751   -23421   -23106   -22867 
  -22766   -22777   -22815   -22833   -22820   -22788   -22767   -22786 
  -22844   -22945   -23072   -23147   -23102   -22955   -22777   -22659 
  -22694   -22896   -23180   -23472   -23755   -24023   -24262   -24482 
  -24684   -24848   -24976   -25097   -25222   -25374   -25579   -25829 
  -26117   -26419   -26693   -26896   -27001   -27037   -27066   -27091 
  -27087   -27064   -27016   -26920   -26786   -26670   -26647   -26742 
  -26898   -27032   -27052   -26886   -26568   -26234   -26021   -25995 
  -26154   -26387   -26520   -26472   -26307   -26188   -26248   -26492 
  -26819   -27047   -27018   -26748   -26377   -26037   -25810   -25710 
  -25656   -25564   -25432   -25324   -25334   -25504   -25783   -26044 
  -26183   -26187   -26111   -26015   -25926   -25841   -25783   -25795 
  -25878   -25980   -26061   -26076   -25995   -25856   -25740   -25658 
  -25554   -25411   -25270   -25141   -24993   -24862   -24795   -24775 
  -24757   -24715   -24630   -24498   -24325   -24139   -23992   -23935 
  -24017   -24220   -24416   -24464   -24379   -24270   -24231   -24325 
  -24549   -24775   -24885   -24887   -24819   -24705   -24561   -24429 
  -24337   -24274   -24177   -24012   -23827   -23710   -23703   -23789 
  -23928   -24077   -24212   -24347   -24503   -24678   -24829   -24952 
  -25031   -25037   -24976   -24879   -24727   -24502   -24216   -23917 
  -23696   -23647   -23792   -24054   -24322   -24479   -24460   -24316 
  -24135   -23967   -23832   -23747   -23700   -23639   -23568   -23546 
  -23611   -23774   -24047   -24412   -24799   -25101   -25236   -25240 
  -25245   -25338   -25483   -25578   -25546   -25373   -25139   -24980 
  -24984   -25115   -25289   -25475   -25677   -25870   -25994   -25991 
  -25855   -25648   -25465   -25353   -25304   -25296   -25343   -25473 
  -25663   -25855   -25983   -26009   -25932   -25790   -25635   -25516 
  -25463   -25463   -25461   -25407   -25257   -25004   -24726   -24541 
  -24517   -24634   -24813   -24973   -25085   -25138   -25087   -24922 
  -24740   -24660   -24734   -24910   -25093   -25257   -25409   -25502 
  -25494   -25416   -25308   -25234   -25288   -25461   -25621   -25702 
  -25733   -25753   -25812   -25953   -26150   -26329   -26477   -26642 
  -26854   -27097   -27297   -27379   -27353   -27274   -27184   -27116 
  -27070   -27049   -27101   -27240   -27402   -27521   -27549   -27449 
  -27234   -26978   -26755   -26569   -26357   -26096   -25857   -25726 
  -25706   -25763   -25836   -25813   -25614   -25280   -24894   -24544 
  -24310   -24213   -24210   -24248   -24275   -24255   -24202   -24160 
  -24140   -24120   -24089   -24043   -23982   -23912   -23815   -23670 
  -23500   -23336   -23188   -23101   -23112   -23195   -23311   -23427 
  -23508   -23525   -23471   -23387   -23341   -23391   -23552   -23768 
  -23938   -24039   -24152   -24339   -24605   -24915   -25177   -25321 
  -25377   -25398   -25402   -25394   -25408   -25486   -25629   -25780 
  -25894   -25967   -25992   -25942   -25813   -25639   -25471   -25350 
  -25311   -25380   -25510   -25593   -25567   -25447   -25267   -25100 
  -25030   -25053   -25060   -24969   -24813   -24683   -24638   -24709 
  -24918   -25209   -25458   -25597   -25650   -25655   -25651   -25654 
  -25647   -25587   -25442   -25228   -25010   -24825   -24657   -24486 
  -24352   -24309   -24347   -24425   -24530   -24661   -24792   -24875 
  -24860   -24725   -24491   -24206   -23934   -23728   -23612   -23557 
  -23507   -23433   -23348   -23276   -23234   -23202   -23166   -23157 
  -23191   -23230   -23256   -23294   -23380   -23514   -23661   -23791 
  -23890   -23940   -23942   -23943   -23971   -24027   -24160   -24413 
  -24700   -24896   -24968   -24962   -24933   -24927   -24991   -25114 
  -25234   -25290   -25261   -25157   -25022   -24918   -24885   -24926 
  -25010   -25122   -25269   -25417   -25481   -25408   -25226   -25006 
  -24846   -24826   -24927   -25054   -25130   -25159   -25197   -25265 
  -25299   -25254   -25174   -25111   -25088   -25135   -25242   -25331 
  -25336   -25245   -25070   -24869   -24734   -24740   -24902   -25143 
  -25338   -25420   -25442   -25474   -25540   -25658   -25837   -26046 
  -26244   -26430   -26622   -26824   -27000   -27082   -27076   -27005 
  -26840   -26631   -26522   -26573   -26734   -26944   -27128   -27211 
  -27238   -27301   -27442   -27661   -27900   -28040   -28008   -27815 
  -27498   -27110   -26728   -26397   -26125   -25868   -25581   -25290 
  -25092   -25064   -25220   -25540   -25925   -26200   -26252   -26103 
  -25876   -25689   -25613   -25654   -25752   -25814   -25755   -25528 
  -25178   -24822   -24541   -24364   -24304   -24343   -24436   -24541 
  -24637   -24698   -24700   -24611   -24433   -24217   -24008   -23845 
  -23780   -23822   -23904   -23974   -24019   -24020   -23976   -23911 
  -23854   -23834   -23866   -23943   -24062   -24233   -24447   -24691 
  -24937   -25123   -25203   -25197   -25166   -25159   -25204   -25281 
  -25324   -25292   -25180   -24992   -24752   -24506   -24285   -24106 
  -23978   -23905   -23873   -23843   -23814   -23818   -23832   -23822 
  -23800   -23785   -23791   -23835   -23909   -23966   -23988   -23986 
  -23954   -23897   -23854   -23859   -23930   -24051   -24181   -24260 
  -24248   -24151   -24061   -24061   -24167   -24370   -24615   -24794 
  -24833   -24763   -24665   -24603   -24598   -24657   -24803   -25020 
  -25236   -25394   -25478   -25481   -25435   -25412   -25459   -25560 
  -25675   -25793   -25934   -26115   -26338   -26605   -26892   -27097 
  -27170   -27189   -27233   -27295   -27363   -27429   -27430   -27314 
  -27094   -26806   -26489   -26190   -25961   -25837   -25806   -25817 
  -25855   -25930   -26019   -26082   -26075   -25960   -25744   -25494 
  -25274   -25122   -25042   -25010   -25002   -24992   -24941   -24834 
  -24682   -24497   -24304   -24150   -24074   -24086   -24148   -24229 
  -24325   -24444   -24590   -24745   -24896   -25058   -25216   -25330 
  -25366   -25296   -25115   -24902   -24741   -24665   -24675   -24745 
  -24829   -24900   -24962   -24995   -24979   -24939   -24918   -24910 
  -24899   -24883   -24838   -24752   -24668   -24624   -24594   -24553 
  -24487   -24405   -24362   -24402   -24509   -24628   -24705   -24719 
  -24690   -24632   -24544   -24464   -24459   -24516   -24551   -24522 
  -24452   -24362   -24255   -24163   -24119   -24121   -24165   -24240 
  -24333   -24414   -24475   -24524   -24540   -24470   -24294   -24059 
  -23847   -23749   -23788   -23903   -24021   -24140   -24278   -24452 
  -24667   -24919   -25215   -25535   -25812   -25992   -26069   -26037 
  -25913   -25735   -25513   -25245   -24981   -24810   -24776   -24871 
  -25042   -25204   -25293   -25317   -25316   -25299   -25270   -25246 
  -25236   -25270   -25371   -25520   -25693   -25849   -25938   -25953 
  -25915   -25820   -25677   -25528   -25415   -25346   -25334   -25384 
  -25458   -25493   -25458   -25377   -25304   -25299   -25380   -25517 
  -25675   -25832   -25992   -26171   -26361   -26554   -26736   -26879 
  -26958   -26983   -26995   -27013   -27010   -26935   -26761   -26518 
  -26284   -26130   -26059   -26005   -25920   -25817   -25759   -25789 
  -25880   -25967   -25982   -25902   -25766   -25624   -25505   -25443 
  -25458   -25527   -25605   -25660   -25677   -25645   -25562   -25451 
  -25350   -25242   -25095   -24921   -24767   -24664   -24646   -24721 
  -24834   -24902   -24881   -24776   -24618   -24456   -24344   -24312 
  -24316   -24278   -24190   -24144   -24237   -24479   -24786   -25046 
  -25199   -25253   -25276   -25315   -25371   -25425   -25459   -25455 
  -25389   -25258   -25084   -24907   -24757   -24630   -24532   -24472 
  -24440   -24420   -24422   -24449   -24482   -24511   -24538   -24575 
  -24628   -24684   -24756   -24871   -25020   -25145   -25181   -25119 
  -24997   -24868   -24781   -24745   -24730   -24694   -24628   -24545 
  -24464   -24403   -24393   -24444   -24534   -24646   -24777   -24929 
  -25103   -25323   -25605   -25926   -26234   -26472   -26593   -26574 
  -26458   -26347   -26319   -26379   -26473   -26530   -26484   -26326 
  -26111   -25909   -25753   -25628   -25510   -25415   -25366   -25377 
  -25447   -25554   -25681   -25806   -25890   -25902   -25856   -25787 
  -25725   -25672   -25600   -25471   -25290   -25065   -24796   -24502 
  -24237   -24058   -23963   -23892   -23811   -23749   -23733   -23772 
  -23872   -24005   -24139   -24266   -24372   -24444   -24474   -24462 
  -24429   -24417   -24433   -24459   -24470   -24456   -24405   -24308 
  -24185   -24079   -24030   -24054   -24146   -24271   -24383   -24464 
  -24525   -24567   -24567   -24507   -24409   -24301   -24200   -24121 
  -24081   -24081   -24112   -24177   -24305   -24495   -24688   -24814 
  -24841   -24779   -24667   -24548   -24468   -24455   -24503   -24571 
  -24607   -24588   -24510   -24417   -24387   -24476   -24665   -24875 
  -25024   -25087   -25061   -24970   -24860   -24753   -24653   -24565 
  -24516   -24509   -24532   -24568   -24609   -24657   -24710   -24748 
  -24752   -24703   -24574   -24376   -24165   -23976   -23828   -23731 
  -23669   -23608   -23541   -23506   -23537   -23637   -23804   -24019 
  -24252   -24468   -24638   -24749   -24803   -24822   -24833   -24835 
  -24818   -24777   -24733   -24690   -24651   -24628   -24626   -24619 
  -24574   -24501   -24447   -24429   -24457   -24545   -24694   -24877 
  -25053   -25203   -25346   -25510   -25725   -26019   -26410   -26856 
  -27284   -27627   -27869   -28032   -28163   -28289   -28390   -28431 
  -28391   -28294   -28190   -28139   -28158   -28235   -28344   -28458 
  -28532   -28521   -28431   -28304   -28181   -28075   -27988   -27897 
  -27772   -27619   -27480   -27394   -27380   -27427   -27508   -27599 
  -27677   -27726   -27739   -27711   -27627   -27500   -27357   -27216 
  -27090   -26997   -26923   -26817   -26642   -26404   -26152   -25934 
  -25776   -25666   -25566   -25429   -25224   -24949   -24649   -24363 
  -24100   -23881   -23734   -23670   -23692   -23780   -23903   -24046 
  -24216   -24410   -24590   -24730   -24838   -24942   -25061   -25199 
  -25343   -25473   -25567   -25627   -25662   -25702   -25743   -25745 
  -25701   -25614   -25494   -25370   -25267   -25182   -25101   -25008 
  -24879   -24718   -24556   -24393   -24224   -24084   -23986   -23938 
  -23934   -23946   -23932   -23893   -23839   -23791   -23800   -23895 
  -24052   -24220   -24337   -24364   -24291   -24142   -23988   -23895 
  -23868   -23886   -23928   -23946   -23923   -23913   -23976   -24136 
  -24386   -24646   -24823   -24884   -24834   -24718   -24591   -24479 
  -24389   -24325   -24289   -24258   -24214   -24166   -24105   -24031 
  -23982   -23978   -24007   -24081   -24200   -24351   -24526   -24696 
  -24819   -24887   -24919   -24961   -25058   -25197   -25321   -25394 
  -25420   -25389   -25307   -25212   -25108   -24976   -24829   -24683 
  -24544   -24406   -24275   -24165   -24086   -24054   -24093   -24193 
  -24302   -24385   -24443   -24502   -24586   -24687   -24775   -24814 
  -24795   -24723   -24611   -24471   -24309   -24135   -23980   -23868 
  -23796   -23761   -23728   -23658   -23561   -23460   -23372   -23329 
  -23364   -23472   -23607   -23710   -23753   -23749   -23730   -23720 
  -23728   -23750   -23778   -23819   -23870   -23920   -23977   -24047 
  -24133   -24244   -24370   -24503   -24667   -24849   -25031   -25189 
  -25282   -25304   -25267   -25195   -25122   -25060   -24997   -24943 
  -24916   -24935   -25012   -25165   -25404   -25718   -26075   -26435 
  -26770   -27060   -27286   -27449   -27583   -27716   -27854   -28000 
  -28142   -28251   -28317   -28352   -28374   -28401   -28431   -28444 
  -28432   -28391   -28320   -28239   -28152   -28043   -27896   -27700 
  -27476   -27264   -27095   -26974   -26904   -26893   -26937   -27024 
  -27129   -27203   -27202   -27101   -26897   -26635   -26377   -26167 
  -26013   -25893   -25775   -25655   -25544   -25471   -25448   -25471 
  -25536   -25629   -25725   -25806   -25879   -25948   -25991   -26001 
  -25986   -25964   -25938   -25910   -25863   -25780   -25686   -25610 
  -25554   -25506   -25470   -25456   -25475   -25516   -25551   -25569 
  -25564   -25510   -25382   -25184   -24935   -24668   -24401   -24133 
  -23872   -23631   -23431   -23282   -23183   -23143   -23149   -23171 
  -23183   -23174   -23144   -23107   -23089   -23097   -23132   -23172 
  -23203   -23230   -23261   -23310   -23387   -23484   -23580   -23656 
  -23704   -23727   -23716   -23670   -23615   -23568   -23531   -23508 
  -23479   -23427   -23367   -23292   -23183   -23026   -22831   -22623 
  -22442   -22311   -22235   -22199   -22188   -22212   -22281   -22400 
  -22558   -22732   -22908   -23078   -23236   -23377   -23503   -23622 
  -23747   -23880   -24009   -24143   -24295   -24468   -24653   -24830 
  -24970   -25070   -25141   -25193   -25246   -25308   -25380   -25450 
  -25513   -25562   -25585   -25579   -25556   -25546   -25570   -25617 
  -25659   -25664   -25610   -25501   -25377   -25274   -25195   -25122 
  -25037   -24941   -24854   -24808   -24822   -24883   -24958   -25031 
  -25073   -25064   -25002   -24918   -24849   -24811   -24810   -24831 
  -24857   -24877   -24895   -24925   -24984   -25070   -25169   -25273 
  -25375   -25474   -25564   -25651   -25737   -25818   -25883   -25938 
  -25976   -26006   -26045   -26083   -26104   -26107   -26083   -26038 
  -25986   -25928   -25870   -25828   -25810   -25822   -25868   -25932 
  -25986   -26015   -26001   -25940   -25872   -25826   -25799   -25775 
  -25736   -25682   -25631   -25594   -25573   -25570   -25586   -25624 
  -25690   -25795   -25928   -26059   -26175   -26276   -26379   -26500 
  -26650   -26824   -27001   -27176   -27344   -27494   -27607   -27661 
  -27635   -27535   -27391   -27234   -27070   -26887   -26685   -26468 
  -26250   -26050   -25863   -25674   -25473   -25259   -25050   -24880 
  -24792   -24803   -24892   -25011   -25114   -25174   -25207   -25239 
  -25297   -25386   -25488   -25573   -25623   -25636   -25616   -25579 
  -25546   -25521   -25508   -25509   -25531   -25575   -25639   -25702 
  -25756   -25795   -25812   -25805   -25774   -25712   -25628   -25533 
  -25436   -25351   -25282   -25218   -25155   -25107   -25065   -25018 
  -24949   -24837   -24684   -24528   -24398   -24300   -24208   -24097 
  -23954   -23805   -23701   -23665   -23689   -23746   -23792   -23799 
  -23785   -23772   -23760   -23749   -23720   -23673   -23627   -23602 
  -23606   -23626   -23646   -23668   -23695   -23727   -23772   -23822 
  -23872   -23923   -23976   -24027   -24067   -24088   -24082   -24062 
  -24048   -24077   -24173   -24339   -24545   -24757   -24943   -25095 
  -25208   -25293   -25373   -25451   -25510   -25548   -25571   -25574 
  -25559   -25535   -25502   -25467   -25432   -25393   -25343   -25265 
  -25155   -25047   -24969   -24926   -24923   -24957   -25027   -25137 
  -25270   -25409   -25544   -25667   -25779   -25875   -25932   -25925 
  -25852   -25744   -25633   -25539   -25470   -25428   -25408   -25388 
  -25353   -25288   -25188   -25074   -24987   -24948   -24949   -24968 
  -24970   -24948   -24906   -24850   -24773   -24694   -24618   -24547 
  -24491   -24468   -24460   -24451   -24441   -24444   -24470   -24520 
  -24582   -24638   -24682   -24705   -24702   -24682   -24641   -24578 
  -24513   -24460   -24414   -24370   -24322   -24270   -24223   -24182 
