Origin Time       2025/01/13 21:19:00
Lat.              31.8
Long.             131.6
Depth. (km)       30
Mag.              6.9
Station Code      KMMH16
Station Lat.      32.7967
Station Long.     130.8199
Station Height(m) -197
Record Time       2025/01/13 21:19:54
Sampling Freq(Hz) 100Hz
Duration Time(s)  213
Dir.              3
Scale Factor      2942(gal)/8224139
Max. Acc. (gal)   3.084
Last Correction   2025/01/13 21:19:54
Memo.             
[...]
  202598   202544   202578   202666   202788   202915   202994   203022 
  203040   203049   203058   203121   203245   203378   203482   203561 
  203607   203602   203546   203470   203434   203480   203640   203918 
  204252   204520   204612   204488   204205   203901   203747   203855 
  204263   204927   205702   206375   206824   207085   207247   207364 
  207462   207509   207419   207133   206652   206016   205286   204561 
  203949   203513   203281   203312   203619   204080   204537   204935 
  205314   205699   206072   206420   206717   206964   207210   207476 
  207694   207738   207497   206950   206143   205202   204303   203555 
  202975   202554   202246   201970   201714   201536   201501   201618 
  201877   202296   202848   203445   204022   204562   205013   205303 
  205438   205498   205517   205480   205372   205175   204863   204438 
  203949   203469   203014   202586   202284   202248   202498   202902 
  203328   203748   204198   204701   205243   205780   206275   206682 
  206918   206946   206837   206647   206356   205945   205478   205073 
  204805   204685   204668   204693   204707   204678   204641   204681 
  204896   205301   205843   206479   207137   207698   208056   208130 
  207910   207495   207009   206500   205941   205289   204507   203619 
  202714   201922   201366   201090   201055   201251   201706   202408 
  203281   204219   205067   205675   206014   206147   206124   205984 
  205806   205637   205430   205141   204792   204418   204052   203786 
  203704   203774   203913   204076   204230   204292   204195   203974 
  203764   203708   203856   204221   204751   205352   205956   206508 
  206953   207268   207412   207322   206987   206500   205920   205287 
  204650   203998   203300   202605   202034   201692   201615   201799 
  202221   202824   203484   204103   204638   205056   205367   205630 
  205902   206180   206393   206470   206410   206290   206180   206073 
  205912   205668   205397   205210   205154   205160   205148   205070 
  204900   204673   204491   204457   204539   204631   204691   204731 
  204741   204657   204475   204307   204238   204264   204367   204493 
  204564   204508   204300   203947   203503   203061   202702   202471 
  202379   202394   202478   202608   202780   203013   203262   203450 
  203543   203567   203585   203678   203897   204210   204531   204797 
  204977   205067   205092   205048   204927   204772   204678   204749 
  205054   205551   206037   206309   206325   206209   206091   205985 
  205846   205641   205401   205195   205065   205032   205092   205220 
  205421   205679   205957   206184   206280   206239   206161   206161 
  206293   206493   206633   206589   206273   205735   205096   204435 
  203854   203436   203218   203175   203261   203480   203855   204358 
  204904   205336   205494   205356   205032   204631   204263   204036 
  203978   204029   204114   204165   204106   203920   203693   203509 
  203362   203242   203179   203173   203173   203156   203156   203268 
  203592   204067   204506   204815   205016   205131   205181   205221 
  205305   205389   205410   205395   205403   205448   205505   205564 
  205679   205900   206157   206316   206321   206178   205850   205312 
  204615   203886   203272   202837   202571   202477   202549   202740 
  203034   203432   203916   204493   205202   206008   206757   207277 
  207485   207351   206880   206226   205644   205309   205260   205470 
  205818   206131   206327   206385   206250   205903   205402   204839 
  204350   204056   203936   203899   203921   204033   204299   204804 
  205545   206355   206972   207212   207063   206612   205966   205245 
  204538   203912   203431   203158   203133   203334   203715   204206 
  204743   205344   206050   206825   207501   207839   207690   207107 
  206267   205329   204418   203693   203272   203161   203257   203376 
  203345   203123   202852   202707   202716   202842   203123   203548 
  203951   204205   204398   204647   204942   205222   205425   205510 
  205445   205187   204757   204180   203528   202927   202452   202204 
  202266   202558   202959   203389   203770   204020   204155   204326 
  204614   204959   205309   205611   205777   205757   205636   205594 
  205767   206165   206664   207087   207291   207184   206766   206145 
  205457   204823   204352   204111   204067   204099   204126   204199 
  204408   204731   205078   205428   205799   206212   206678   207176 
  207665   208079   208368   208516   208450   208062   207395   206644 
  206007   205568   205247   204966   204704   204415   204138   204040 
  204246   204666   205110   205480   205695   205667   205449   205191 
  205005   204861   204603   204155   203582   202992   202468   202038 
  201725   201646   201947   202603   203397   204121   204685   205048 
  205214   205321   205497   205669   205708   205607   205374   204947 
  204342   203688   203056   202444   201946   201752   201911   202300 
  202743   203110   203373   203577   203713   203747   203751   203868 
  204110   204379   204657   204948   205182   205294   205260   205114 
  204928   204768   204673   204608   204476   204194   203751   203273 
  202992   203065   203450   203963   204453   204896   205316   205687 
  205995   206305   206660   207044   207423   207721   207806   207611 
  207235   206803   206307   205767   205216   204612   203975   203478 
  203254   203204   203189   203238   203384   203578   203817   204082 
  204273   204372   204437   204458   204365   204148   203879   203658 
  203574   203598   203577   203449   203322   203315   203428   203553 
  203597   203571   203517   203450   203353   203231   203111   203019 
  203013   203049   202961   202710   202435   202278   202351   202736 
  203404   204191   204873   205306   205461   205322   204919   204350 
  203697   203058   202629   202544   202707   202884   202948   202903 
  202805   202743   202806   203065   203536   204151   204831   205507 
  206107   206568   206842   206963   207044   207153   207296   207516 
  207854   208230   208525   208727   208853   208853   208695   208408 
  208048   207628   207123   206539   205942   205456   205152   205029 
  205055   205183   205376   205560   205679   205785   205926   206058 
  206173   206328   206556   206774   206807   206560   206084   205483 
  204797   204051   203316   202643   202035   201513   201094   200778 
  200600   200601   200792   201109   201457   201757   201972   202119 
  202223   202274   202333   202525   202840   203133   203269   203215 
  203029   202851   202819   202983   203280   203586   203781   203864 
  203894   203841   203611   203191   202722   202419   202420   202730 
  203268   203993   204885   205838   206685   207269   207540   207528 
  207307   206990   206659   206325   205977   205667   205486   205463 
  205560   205645   205578   205379   205195   205127   205147   205210 
  205390   205731   206116   206405   206570   206617   206540   206413 
  206348   206332   206288   206211   206130   206069   206045   206107 
  206315   206608   206834   206856   206617   206153   205569   205032 
  204708   204643   204735   204827   204801   204643   204423   204213 
  204022   203836   203661   203500   203335   203145   202954   202822 
  202772   202770   202780   202857   203067   203396   203777   204141 
  204453   204662   204682   204434   203899   203177   202441   201861 
  201553   201549   201795   202190   202602   202941   203188   203339 
  203419   203496   203607   203754   203933   204101   204144   203971 
  203617   203261   203080   203123   203335   203607   203852   204060 
  204240   204356   204340   204195   204003   203837   203774   203863 
  204030   204128   204079   203924   203742   203612   203605   203762 
  204012   204195   204233   204161   204021   203813   203594   203477 
  203500   203627   203805   203989   204095   204052   203917   203836 
  203866   204012   204252   204481   204581   204560   204514   204483 
  204439   204372   204280   204156   204025   203901   203759   203592 
  203422   203230   202952   202660   202517   202594   202906   203407 
  203910   204217   204292   204267   204260   204296   204373   204475 
  204472   204229   203791   203308   202887   202622   202564   202702 
  202995   203368   203756   204124   204441   204726   205042   205401 
  205775   206126   206392   206554   206655   206714   206705   206617 
  206456   206228   205964   205704   205530   205503   205572   205605 
  205498   205255   204977   204774   204722   204847   205093   205362 
  205599   205775   205881   205956   206058   206193   206296   206325 
  206335   206383   206455   206528   206612   206660   206560   206242 
  205777   205287   204822   204438   204237   204282   204556   204951 
  205335   205634   205872   206112   206373   206667   207037   207489 
  207937   208287   208514   208635   208630   208457   208117   207679 
  207246   206853   206475   206109   205785   205567   205482   205490 
  205499   205406   205236   205129   205197   205482   205966   206562 
  207131   207565   207819   207908   207860   207673   207346   206945 
  206529   206118   205756   205488   205336   205332   205502   205779 
  206077   206394   206712   206921   206913   206710   206463   206277 
  206188   206190   206220   206242   206297   206382   206440   206464 
  206454   206354   206154   205946   205819   205812   205965   206255 
  206597   206980   207481   208066   208561   208824   208870   208746 
  208431   207935   207312   206591   205781   204900   204020   203283 
  202778   202458   202230   202097   202095   202194   202354   202518 
  202647   202721   202703   202621   202537   202444   202311   202123 
  201876   201576   201286   201082   200969   200902   200853   200817 
  200812   200819   200819   200789   200730   200688   200676   200696 
  200843   201164   201588   202018   202433   202826   203122   203245 
  203197   203010   202726   202423   202166   201996   201926   201931 
  201974   202051   202181   202387   202686   203079   203561   204101 
  204647   205152   205582   205908   206091   206105   205977   205738 
  205397   204990   204612   204361   204284   204379   204624   205006 
  205505   206045   206494   206779   206977   207188   207393   207569 
  207747   207918   208016   208024   207994   207948   207833   207611 
  207280   206898   206567   206289   205919   205374   204712   204014 
  203295   202585   201982   201561   201328   201294   201468   201756 
  202004   202138   202174   202178   202188   202194   202205   202271 
  202440   202705   202994   203224   203372   203477   203601   203801 
  204060   204252   204269   204128   203858   203470   203035   202657 
  202409   202312   202382   202655   203081   203542   203976   204396 
  204797   205132   205367   205509   205564   205548   205475   205345 
  205173   204985   204797   204591   204341   204106   203991   203993 
  204029   204070   204136   204249   204372   204456   204506   204520 
  204465   204325   204134   203948   203806   203717   203666   203629 
  203550   203353   202991   202466   201823   201132   200504   200063 
  199875   199953   200269   200765   201360   201957   202517   203096 
  203717   204304   204761   205082   205325   205502   205591   205605 
  205542   205414   205299   205302   205474   205808   206263   206768 
  207273   207797   208363   208894   209305   209605   209853   210072 
  210259   210401   210474   210474   210413   210296   210138   209973 
  209822   209661   209443   209169   208890   208622   208363   208140 
  207931   207685   207404   207138   206917   206709   206460   206182 
  205931   205746   205619   205548   205517   205445   205270   205021 
  204770   204539   204302   204059   203810   203544   203265   202995 
  202787   202698   202748   202930   203200   203489   203727   203837 
  203774   203550   203223   202841   202450   202127   201911   201749 
  201553   201298   201037   200816   200650   200565   200603   200778 
  201060   201406   201773   202111   202397   202653   202876   203042 
  203177   203355   203605   203922   204315   204751   205182   205613 
  206059   206482   206776   206852   206694   206321   205795   205198 
  204592   204037   203620   203411   203427   203632   203955   204349 
  204817   205370   205964   206518   206991   207382   207697   207944 
  208157   208368   208592   208851   209135   209398   209584   209684 
  209699   209610   209397   209065   208650   208198   207731   207254 
  206801   206439   206205   206043   205880   205722   205607   205556 
  205588   205730   205949   206154   206292   206371   206408   206419 
  206428   206424   206424   206506   206668   206837   207006   207233 
  207551   207898   208159   208269   208211   208012   207744   207439 
  207092   206710   206325   205976   205676   205409   205143   204881 
  204676   204568   204529   204481   204373   204256   204187   204140 
  204090   204032   203955   203874   203802   203748   203708   203636 
  203544   203461   203370   203257   203077   202772   202343   201860 
  201418   201054   200734   200453   200256   200192   200298   200576 
  200982   201444   201901   202333   202737   203106   203430   203679 
  203796   203766   203624   203347   202932   202396   201727   200986 
  200222   199453   198728   198069   197491   196994   196570   196254 
  196091   196095   196242   196515   196933   197499   198173   198876 
  199516   200059   200527   200934   201286   201617   201966   202315 
  202602   202795   202891   202894   202795   202585   202285   201997 
  201837   201834   201960   202213   202595   203065   203566   204033 
  204461   204857   205243   205648   206051   206406   206690   206907 
  207057   207129   207131   207068   206963   206847   206734   206640 
  206552   206459   206359   206235   206066   205869   205715   205648 
  205710   205969   206404   206872   207238   207451   207517   207473 
  207395   207328   207265   207162   206977   206747   206543   206365 
  206186   206024   205918   205893   205964   206139   206379   206608 
  206783   206894   206941   206925   206840   206722   206617   206540 
  206481   206427   206378   206302   206176   206058   206022   206069 
  206134   206151   206096   205950   205717   205430   205137   204882 
  204711   204661   204736   204911   205159   205478   205861   206259 
  206597   206833   206960   206992   206942   206828   206689   206540 
  206375   206208   206041   205861   205684   205542   205476   205495 
  205590   205729   205853   205933   205972   205962   205892   205749 
  205564   205402   205283   205209   205143   205039   204909   204793 
  204699   204608   204516   204439   204388   204345   204283   204209 
  204169   204221   204367   204565   204799   205058   205337   205641 
  205934   206154   206253   206242   206185   206143   206139   206176 
  206232   206286   206320   206339   206371   206459   206649   206940 
  207269   207559   207756   207844   207837   207748   207617   207501 
  207443   207463   207543   207661   207805   207955   208118   208311 
  208515   208684   208788   208813   208751   208589   208315   207913 
  207395   206803   206188   205618   205183   204943   204886   204962 
  205135   205349   205534   205656   205740   205826   205924   206037 
  206178   206342   206481   206554   206540   206437   206247   205984 
  205661   205321   205024   204780   204568   204383   204228   204103 
  203998   203895   203790   203698   203658   203700   203804   203909 
  203982   204033   204079   204120   204122   204033   203835   203551 
  203239   202941   202641   202297   201892   201444   201010   200651 
  200410   200329   200407   200601   200875   201190   201480   201687 
  201803   201866   201874   201788   201583   201275   200888   200441 
  199984   199601   199338   199197   199153   199188   199297   199476 
  199709   199987   200322   200723   201164   201623   202101   202595 
  203116   203706   204379   205056   205661   206174   206612   206991 
  207331   207627   207859   208006   208057   208003   207875   207725 
  207604   207519   207441   207339   207192   206984   206718   206417 
  206123   205892   205741   205654   205638   205679   205723   205710 
  205592   205372   205071   204718   204327   203922   203548   203230 
  202961   202711   202486   202350   202328   202385   202491   202649 
  202872   203146   203432   203701   203925   204088   204190   204267 
  204348   204422   204473   204520   204591   204692   204808   204920 
  204994   205019   205015   205019   205027   205012   204985   204992 
  205052   205144   205255   205371   205468   205545   205607   205642 
  205610   205494   205335   205186   205056   204919   204749   204550 
  204367   204250   204195   204157   204114   204051   203976   203944 
  203986   204105   204272   204448   204620   204789   204952   205146 
  205424   205795   206207   206610   206961   207184   207246   207176 
  207021   206821   206626   206490   206401   206320   206242   206161 
  206046   205899   205742   205578   205406   205274   205189   205127 
  205090   205094   205163   205301   205472   205646   205783   205869 
  205911   205911   205868   205787   205675   205555   205416   205245 
  205066   204901   204750   204620   204562   204624   204784   204948 
  205066   205120   205105   205056   205035   205033   205013   204990 
  205031   205140   205264   205375   205463   205486   205432   205345 
  205281   205272   205303   205335   205325   205259   205156   205051 
  204977   204946   204951   204979   205005   205009   205016   205025 
  204989   204888   204751   204610   204473   204358   204280   204234 
  204236   204321   204495   204701   204874   204981   205023   205017 
  204994   204973   204913   204784   204614   204448   204284   204120 
  203958   203812   203697   203623   203558   203446   203276   203083 
  202915   202786   202678   202589   202531   202518   202570   202706 
  202925   203195   203482   203756   204005   204238   204468   204701 
  204952   205227   205495   205725   205888   205954   205920   205838 
  205737   205594   205371   205067   204714   204334   203940   203534 
  203111   202695   202332   202049   201862   201806   201887   202062 
  202284   202539   202821   203095   203330   203540   203743   203904 
  203968   203918   203766   203548   203332   203161   203033   202953 
  202937   202968   203017   203041   203004   202900   202725   202482 
  202193   201885   201588   201339   201182   201163   201279   201492 
  201779   202143   202599   203153   203760   204367   204965   205565 
  206165   206760   207308   207744   208039   208214   208296   208294 
  208197   208020   207809   207607   207408   207175   206925   206713 
  206536   206388   206277   206227   206255   206343   206459   206604 
  206776   206963   207161   207385   207631   207881   208120   208353 
  208583   208803   209027   209264   209474   209613   209699   209761 
  209780   209748   209687   209595   209448   209237   208971   208662 
  208332   208020   207759   207562   207441   207399   207382   207350 
  207292   207219   207160   207144   207164   207177   207157   207102 
