Origin Time       2025/01/13 21:19:00
Lat.              31.8
Long.             131.6
Depth. (km)       30
Mag.              6.9
Station Code      KMMH11
Station Lat.      32.2918
Station Long.     130.5777
Station Height(m) 100
Record Time       2025/01/13 21:19:50
Sampling Freq(Hz) 100Hz
Duration Time(s)  175
Dir.              4
Scale Factor      7845(gal)/8223790
Max. Acc. (gal)   5.707
Last Correction   2025/01/13 21:19:51
Memo.             
[...]
  -14257   -14357   -14485   -14621   -14763   -14883   -14933   -14881 
  -14736   -14561   -14415   -14273   -14084   -13853   -13612   -13400 
  -13262   -13225   -13293   -13429   -13549   -13585   -13555   -13516 
  -13516   -13597   -13755   -13946   -14158   -14401   -14654   -14894 
  -15129   -15342   -15498   -15573   -15577   -15574   -15610   -15650 
  -15670   -15678   -15714   -15843   -16087   -16395   -16698   -16893 
  -16864   -16598   -16171   -15619   -14980   -14376   -13915   -13616 
  -13429   -13315   -13288   -13402   -13683   -14092   -14536   -14913 
  -15152   -15203   -15064   -14823   -14589   -14415   -14319   -14341 
  -14500   -14732   -14936   -15051   -15060   -14999   -14941   -14929 
  -14949   -14964   -14964   -14960   -14995   -15153   -15461   -15857 
  -16243   -16502   -16513   -16243   -15800   -15341   -14901   -14449 
  -14017   -13676   -13455   -13301   -13122   -12866   -12518   -12145 
  -11894   -11830   -11907   -12047   -12174   -12236   -12231   -12178 
  -12116   -12063   -12019   -11979   -11932   -11865   -11788   -11713 
  -11651   -11615   -11611   -11627   -11639   -11642   -11645   -11645 
  -11659   -11739   -11934   -12263   -12695   -13161   -13594   -13975 
  -14301   -14534   -14648   -14690   -14727   -14817   -15018   -15365 
  -15844   -16416   -17014   -17525   -17861   -18015   -18021   -17934 
  -17782   -17540   -17209   -16821   -16375   -15854   -15288   -14791 
  -14482   -14377   -14418   -14500   -14481   -14273   -13953   -13682 
  -13571   -13635   -13802   -13952   -13964   -13829   -13641   -13487 
  -13412   -13419   -13436   -13367   -13182   -12941   -12723   -12577 
  -12517   -12569   -12758   -13065   -13448   -13838   -14168   -14418 
  -14619   -14787   -14931   -15057   -15156   -15198   -15187   -15133 
  -15003   -14805   -14563   -14299   -14064   -13911   -13832   -13775 
  -13667   -13487   -13319   -13257   -13304   -13409   -13539   -13667 
  -13794   -13975   -14270   -14650   -14997   -15215   -15294   -15269 
  -15186   -15113   -15103   -15133   -15157   -15178   -15225   -15318 
  -15448   -15553   -15565   -15477   -15330   -15149   -14940   -14736 
  -14567   -14389   -14154   -13899   -13698   -13593   -13610   -13748 
  -13936   -14064   -14100   -14099   -14115   -14168   -14285   -14469 
  -14634   -14708   -14719   -14697   -14644   -14584   -14527   -14435 
  -14308   -14226   -14266   -14467   -14802   -15169   -15439   -15531 
  -15434   -15188   -14867   -14527   -14172   -13761   -13306   -12901 
  -12652   -12586   -12649   -12733   -12735   -12633   -12492   -12420 
  -12472   -12598   -12679   -12603   -12349   -12000   -11672   -11445 
  -11333   -11302   -11306   -11323   -11398   -11601   -11909   -12210 
  -12405   -12452   -12372   -12221   -12071   -11986   -11982   -12043 
  -12189   -12433   -12752   -13103   -13440   -13722   -13933   -14060 
  -14080   -13986   -13809   -13633   -13566   -13648   -13844   -14084 
  -14326   -14548   -14740   -14890   -14998   -15060   -15060   -15003 
  -14933   -14912   -14995   -15195   -15445   -15641   -15736   -15741 
  -15670   -15560   -15468   -15456   -15573   -15819   -16110   -16332 
  -16443   -16484   -16499   -16524   -16563   -16563   -16479   -16372 
  -16306   -16240   -16112   -15923   -15705   -15510   -15398   -15385 
  -15435   -15500   -15557   -15618   -15678   -15727   -15762   -15749 
  -15646   -15485   -15341   -15256   -15215   -15184   -15145   -15095 
  -15044   -14982   -14872   -14692   -14442   -14156   -13868   -13603 
  -13382   -13212   -13081   -12980   -12912   -12872   -12862   -12923 
  -13054   -13190   -13293   -13387   -13464   -13468   -13382   -13211 
  -12955   -12668   -12424   -12244   -12083   -11874   -11605   -11329 
  -11111   -11010   -11036   -11167   -11380   -11661   -11975   -12294 
  -12591   -12818   -12957   -13039   -13092   -13128   -13189   -13317 
  -13479   -13581   -13585   -13548   -13549   -13606   -13668   -13695 
  -13706   -13743   -13840   -13977   -14069   -14054   -13954   -13815 
  -13663   -13531   -13463   -13459   -13462   -13446   -13412   -13362 
  -13320   -13305   -13286   -13209   -13043   -12816   -12606   -12522 
  -12640   -12945   -13348   -13752   -14069   -14233   -14242   -14162 
  -14049   -13938   -13863   -13819   -13784   -13763   -13790   -13873 
  -14003   -14172   -14361   -14553   -14774   -15052   -15334   -15539 
  -15649   -15696   -15723   -15761   -15819   -15896   -15984   -16078 
  -16168   -16229   -16264   -16293   -16291   -16233   -16110   -15935 
  -15707   -15425   -15136   -14901   -14754   -14728   -14856   -15113 
  -15406   -15672   -15904   -16100   -16254   -16326   -16244   -15997 
  -15654   -15315   -15093   -15061   -15172   -15299   -15325   -15182 
  -14904   -14594   -14296   -14002   -13701   -13377   -13028   -12696 
  -12430   -12263   -12198   -12225   -12348   -12586   -12931   -13363 
  -13832   -14254   -14571   -14748   -14762   -14648   -14485   -14324 
  -14161   -13979   -13791   -13644   -13579   -13602   -13683   -13780 
  -13863   -13918   -13932   -13892   -13822   -13751   -13683   -13622 
  -13574   -13505   -13389   -13223   -13023   -12818   -12649   -12561 
  -12569   -12637   -12723   -12834   -13000   -13174   -13279   -13282 
  -13200   -13104   -13053   -13072   -13176   -13323   -13398   -13339 
  -13216   -13136   -13162   -13289   -13456   -13610   -13720   -13778 
  -13799   -13822   -13865   -13926   -14008   -14084   -14115   -14115 
  -14112   -14084   -14000   -13890   -13826   -13872   -14050   -14347 
  -14682   -14968   -15182   -15352   -15526   -15726   -15907   -15969 
  -15869   -15665   -15452   -15327   -15325   -15379   -15395   -15304 
  -15109   -14855   -14597   -14374   -14193   -14010   -13805   -13629 
  -13562   -13653   -13883   -14158   -14351   -14386   -14284   -14125 
  -13960   -13779   -13522   -13143   -12677   -12236   -11943   -11866 
  -11981   -12205   -12460   -12691   -12872   -13020   -13162   -13284 
  -13325   -13262   -13134   -13004   -12895   -12776   -12586   -12294 
  -11942   -11610   -11375   -11276   -11298   -11414   -11627   -11954 
  -12378   -12831   -13236   -13562   -13768   -13811   -13722   -13578 
  -13423   -13271   -13127   -13001   -12957   -13066   -13333   -13670 
  -13992   -14256   -14430   -14516   -14530   -14494   -14453   -14474 
  -14634   -14933   -15286   -15593   -15805   -15923   -15978   -15989 
  -15973   -15963   -15955   -15900   -15784   -15646   -15526   -15477 
  -15519   -15573   -15579   -15553   -15546   -15591   -15688   -15797 
  -15903   -16013   -16148   -16322   -16529   -16734   -16904   -17018 
  -17086   -17126   -17127   -17076   -16964   -16789   -16551   -16274 
  -16013   -15819   -15696   -15600   -15485   -15333   -15132   -14855 
  -14554   -14343   -14280   -14343   -14509   -14769   -15103   -15483 
  -15842   -16102   -16221   -16214   -16124   -15961   -15716   -15426 
  -15149   -14909   -14674   -14435   -14219   -14052   -13952   -13900 
  -13833   -13703   -13501   -13242   -12982   -12795   -12702   -12660 
  -12614   -12533   -12428   -12318   -12193   -12044   -11894   -11738 
  -11542   -11304   -11068   -10878   -10744   -10659   -10633   -10686 
  -10821   -11020   -11233   -11399   -11519   -11659   -11878   -12182 
  -12559   -12974   -13387   -13768   -14089   -14319   -14443   -14504 
  -14535   -14503   -14386   -14218   -14030   -13884   -13861   -13994 
  -14223   -14455   -14678   -14935   -15248   -15589   -15897   -16108 
  -16185   -16154   -16081   -16040   -16092   -16218   -16335   -16379 
  -16339   -16221   -16058   -15892   -15708   -15441   -15055   -14585 
  -14114   -13737   -13529   -13486   -13555   -13683   -13824   -13927 
  -13983   -14015   -14045   -14069   -14089   -14135   -14249   -14428 
  -14617   -14731   -14715   -14588   -14431   -14334   -14331   -14411 
  -14551   -14737   -14987   -15334   -15773   -16274   -16800   -17271 
  -17597   -17743   -17720   -17579   -17388   -17161   -16860   -16441 
  -15908   -15330   -14787   -14301   -13864   -13489   -13185   -12965 
  -12839   -12803   -12818   -12852   -12881   -12879   -12837   -12804 
  -12833   -12920   -13039   -13151   -13228   -13270   -13339   -13481 
  -13648   -13732   -13653   -13425   -13126   -12845   -12638   -12525 
  -12509   -12572   -12657   -12718   -12758   -12815   -12911   -13039 
  -13149   -13185   -13163   -13162   -13247   -13427   -13639   -13782 
  -13782   -13649   -13462   -13320   -13288   -13381   -13533   -13632 
  -13620   -13518   -13360   -13163   -12920   -12602   -12190   -11705 
  -11182   -10669   -10234    -9933    -9769    -9711    -9736    -9846 
  -10050   -10346   -10727   -11164   -11631   -12133   -12671   -13203 
  -13664   -13992   -14146   -14134   -14013   -13855   -13710   -13598 
  -13525   -13518   -13618   -13846   -14197   -14639   -15122   -15595 
  -16017   -16363   -16610   -16717   -16641   -16393   -16033   -15620 
  -15206   -14828   -14480   -14126   -13759   -13385   -13050   -12812 
  -12690   -12665   -12704   -12772   -12853   -12945   -13061   -13217 
  -13419   -13662   -13953   -14312   -14736   -15202   -15669   -16094 
  -16465   -16803   -17128   -17444   -17714   -17911   -18048   -18150 
  -18231   -18279   -18258   -18148   -17950   -17680   -17373   -17066 
  -16794   -16576   -16397   -16218   -16023   -15815   -15591   -15356 
  -15124   -14856   -14531   -14199   -13892   -13594   -13304   -13030 
  -12789   -12617   -12538   -12556   -12629   -12706   -12773   -12843 
  -12918   -12991   -13070   -13130   -13116   -13000   -12791   -12557 
  -12391   -12309   -12264   -12225   -12182   -12132   -12087   -12059 
  -12050   -12037   -12001   -11939   -11857   -11770   -11726   -11796 
  -12040   -12471   -13047   -13693   -14341   -14952   -15504   -15969 
  -16341   -16659   -16941   -17172   -17346   -17478   -17541   -17504 
  -17375   -17188   -16966   -16711   -16413   -16081   -15747   -15469 
  -15283   -15165   -15061   -14962   -14848   -14690   -14467   -14154 
  -13743   -13281   -12834   -12424   -12062   -11782   -11612   -11580 
  -11730   -12077   -12556   -13069   -13541   -13938   -14264   -14539 
  -14759   -14901   -14963   -14974   -14962   -14953   -14990   -15106 
  -15311   -15589   -15888   -16129   -16267   -16303   -16272   -16216 
  -16123   -15952   -15691   -15356   -15006   -14693   -14423   -14181 
  -13937   -13657   -13335   -12972   -12599   -12247   -11912   -11599 
  -11329   -11115   -10964   -10872   -10816   -10764   -10712   -10669 
  -10665   -10756   -10991   -11364   -11821   -12320   -12830   -13335 
  -13837   -14327   -14748   -15030   -15157   -15152   -15072   -14999 
  -14995   -15059   -15160   -15269   -15373   -15472   -15584   -15731 
  -15908   -16077   -16208   -16289   -16318   -16322   -16345   -16429 
  -16584   -16768   -16924   -17000   -16950   -16779   -16534   -16259 
  -15988   -15732   -15473   -15192   -14906   -14617   -14289   -13898 
  -13460   -13003   -12557   -12156   -11826   -11577   -11411   -11356 
  -11427   -11607   -11865   -12158   -12406   -12553   -12609   -12599 
  -12521   -12380   -12218   -12078   -12000   -12031   -12191   -12459 
  -12784   -13082   -13279   -13360   -13389   -13451   -13572   -13736 
  -13918   -14092   -14243   -14397   -14584   -14810   -15053   -15267 
  -15406   -15426   -15295   -15033   -14708   -14382   -14100   -13865 
  -13652   -13455   -13274   -13089   -12900   -12761   -12731   -12825 
  -13026   -13302   -13617   -13942   -14256   -14550   -14828   -15093 
  -15314   -15439   -15448   -15371   -15230   -15024   -14778   -14538 
  -14342   -14233   -14231   -14311   -14434   -14558   -14635   -14632 
  -14558   -14430   -14246   -14000   -13716   -13437   -13213   -13096 
  -13116   -13247   -13427   -13608   -13775   -13942   -14111   -14276 
  -14420   -14519   -14575   -14624   -14696   -14787   -14863   -14866 
  -14763   -14577   -14343   -14099   -13840   -13544   -13209   -12853 
  -12510   -12241   -12113   -12139   -12247   -12344   -12370   -12325 
  -12270   -12282   -12414   -12665   -12969   -13235   -13412   -13497 
  -13506   -13485   -13477   -13490   -13514   -13545   -13582   -13633 
  -13713   -13795   -13842   -13860   -13878   -13907   -13934   -13959 
  -13996   -14065   -14181   -14341   -14530   -14743   -14979   -15221 
  -15449   -15653   -15847   -16024   -16156   -16236   -16266   -16252 
  -16220   -16183   -16136   -16074   -16008   -15981   -16040   -16193 
  -16417   -16646   -16803   -16849   -16780   -16656   -16560   -16497 
  -16414   -16266   -16024   -15712   -15381   -15055   -14706   -14322 
  -13910   -13501   -13146   -12846   -12545   -12202   -11832   -11480 
  -11209   -11070   -11064   -11145   -11269   -11412   -11576   -11766 
  -11990   -12251   -12537   -12850   -13208   -13608   -14030   -14439 
  -14783   -15005   -15084   -15047   -14928   -14751   -14538   -14315 
  -14084   -13825   -13532   -13221   -12916   -12641   -12393   -12164 
  -11931   -11657   -11346   -11044   -10797   -10636   -10566   -10552 
  -10561   -10569   -10578   -10617   -10714   -10875   -11061   -11227 
  -11354   -11458   -11557   -11666   -11797   -11938   -12062   -12162 
  -12268   -12411   -12588   -12779   -12949   -13090   -13235   -13423 
  -13689   -14048   -14469   -14912   -15345   -15765   -16204   -16700 
  -17265   -17848   -18395   -18862   -19228   -19485   -19658   -19784 
  -19884   -19970   -20046   -20073   -20009   -19869   -19689   -19489 
  -19294   -19129   -19012   -18927   -18829   -18677   -18427   -18050 
  -17547   -16961   -16352   -15773   -15268   -14877   -14624   -14504 
  -14482   -14511   -14540   -14524   -14418   -14177   -13791   -13292 
  -12754   -12258   -11842   -11510   -11237   -10993   -10779   -10632 
  -10571   -10586   -10646   -10741   -10889   -11105   -11402   -11769 
  -12163   -12549   -12906   -13215   -13455   -13609   -13675   -13652 
  -13576   -13518   -13521   -13591   -13733   -13937   -14177   -14413 
  -14611   -14774   -14920   -15051   -15148   -15194   -15188   -15147 
  -15070   -14951   -14804   -14647   -14486   -14315   -14133   -13929 
  -13683   -13401   -13109   -12819   -12532   -12255   -11993   -11755 
  -11556   -11404   -11314   -11294   -11341   -11441   -11574   -11730 
  -11893   -12066   -12255   -12472   -12726   -13007   -13286   -13540 
  -13756   -13934   -14098   -14272   -14462   -14656   -14850   -15040 
  -15256   -15539   -15876   -16208   -16464   -16591   -16583   -16480 
  -16312   -16116   -15948   -15811   -15697   -15650   -15681   -15769 
  -15911   -16077   -16204   -16268   -16279   -16240   -16160   -16063 
  -15959   -15823   -15638   -15411   -15163   -14925   -14715   -14526 
  -14338   -14125   -13879   -13612   -13342   -13120   -12984   -12930 
  -12938   -12981   -13022   -13049   -13084   -13138   -13200   -13262 
  -13312   -13335   -13319   -13277   -13258   -13308   -13435   -13609 
  -13783   -13914   -13984   -14004   -14014   -14045   -14100   -14161 
  -14208   -14235   -14258   -14295   -14353   -14407   -14430   -14428 
  -14430   -14451   -14489   -14521   -14526   -14486   -14393   -14264 
  -14139   -14031   -13923   -13801   -13649   -13478   -13309   -13151 
  -12995   -12842   -12704   -12606   -12584   -12658   -12808   -12984 
  -13146   -13266   -13329   -13336   -13316   -13325   -13382   -13455 
  -13494   -13462   -13356   -13201   -13019   -12826   -12641   -12494 
  -12424   -12456   -12607   -12879   -13239   -13652   -14087   -14504 
  -14870   -15163   -15364   -15473   -15515   -15519   -15523   -15543 
  -15576   -15603   -15608   -15584   -15533   -15458   -15353   -15213 
  -15045   -14887   -14770   -14701   -14690   -14737   -14816   -14909 
  -15028   -15153   -15242   -15268   -15210   -15068   -14886   -14721 
  -14590   -14484   -14403   -14368   -14395   -14480   -14600   -14724 
  -14808   -14817   -14735   -14554   -14312   -14065   -13844   -13672 
  -13575   -13551   -13581   -13637   -13670   -13624   -13483   -13265 
  -13009   -12749   -12514   -12339   -12260   -12303   -12460   -12692 
  -12951   -13190   -13371   -13479   -13518   -13491   -13408   -13305 
  -13224   -13171   -13153   -13173   -13203   -13208   -13193   -13178 
  -13178   -13204   -13257   -13324   -13402   -13486   -13562   -13618 
  -13648   -13645   -13605   -13541   -13466   -13392   -13339   -13328 
  -13362   -13427   -13512   -13603   -13689   -13743   -13734   -13643 
  -13508   -13401   -13393   -13528   -13794   -14134   -14476   -14766 
  -15006   -15230   -15454   -15669   -15846   -15932   -15903   -15768 
  -15565   -15336   -15109   -14893   -14702   -14538   -14401   -14300 
  -14233   -14202   -14218   -14266   -14335   -14419   -14511   -14589 
  -14636   -14638   -14588   -14482   -14339   -14191   -14073   -14002 
  -13950   -13902   -13855   -13809   -13751   -13667   -13563   -13477 
  -13436   -13462   -13571   -13752   -13948   -14110   -14246   -14378 
  -14505   -14640   -14786   -14914   -15005   -15048   -15047   -15022 
  -14998   -14972   -14916   -14798   -14628   -14446   -14305   -14250 
  -14288   -14380   -14480   -14597   -14760   -14982   -15248   -15542 
  -15838   -16109   -16335   -16513   -16638   -16692   -16687   -16637 
  -16532   -16366   -16159   -15925   -15668   -15407   -15148   -14901 
  -14704   -14570   -14481   -14408   -14326   -14235   -14154   -14091 
  -14034   -13976   -13909   -13815   -13686   -13514   -13292   -13039 
  -12798   -12583   -12387   -12212   -12051   -11904   -11772   -11657 
  -11570   -11504   -11429   -11325   -11203   -11088   -11011   -10979 
  -10963   -10926   -10867   -10805   -10760   -10758   -10816   -10929 
  -11068   -11183   -11250   -11284   -11327   -11422   -11589   -11804 
  -12028   -12240   -12422   -12572   -12708   -12834   -12949   -13062 
  -13178   -13296   -13428   -13582   -13741   -13880   -13992   -14077 
  -14134   -14176   -14218   -14256   -14262   -14223   -14158   -14106 
  -14091   -14123   -14202   -14307   -14405   -14465   -14472   -14420 
  -14315   -14168   -13988   -13801   -13625   -13493   -13439   -13479 
  -13594   -13732   -13852   -13942   -14015   -14098   -14207   -14350 
  -14543   -14789   -15060   -15325   -15558   -15751   -15898   -16011 
  -16101   -16174   -16244   -16355   -16506   -16661   -16810   -16949 
  -17058   -17142   -17227   -17331   -17451   -17583   -17695   -17741 
  -17695   -17563   -17385   -17215   -17065   -16930   -16784   -16607 
  -16386   -16123   -15828   -15539   -15287   -15072   -14863   -14625 
  -14341   -14015   -13683   -13385   -13153   -13008   -12962   -13004 
  -13089   -13166   -13193   -13159   -13077   -12977   -12901   -12887 
  -12946   -13058   -13188   -13313   -13444   -13594   -13759   -13926 
  -14085   -14231   -14369   -14492   -14588   -14651   -14679   -14673 
  -14628   -14546   -14449   -14368   -14308   -14265   -14246   -14249 
  -14272   -14315   -14369   -14415   -14446   -14461   -14442   -14372 
  -14253   -14103   -13957   -13857   -13822   -13848   -13919   -14021 
  -14126   -14212   -14274   -14295   -14261   -14185   -14088   -13986 
  -13894   -13826   -13784   -13760   -13741   -13718   -13698   -13691 
  -13687   -13666   -13616   -13544   -13447   -13332   -13225   -13146 
