Origin Time       2025/01/13 21:19:00
Lat.              31.8
Long.             131.6
Depth. (km)       30
Mag.              6.9
Station Code      KMMH16
Station Lat.      32.7967
Station Long.     130.8199
Station Height(m) 55
Record Time       2025/01/13 21:19:54
Sampling Freq(Hz) 100Hz
Duration Time(s)  213
Dir.              4
Scale Factor      7845(gal)/8223790
Max. Acc. (gal)   19.166
Last Correction   2025/01/13 21:19:54
Memo.             
[...]
    8222     8198     7908     7406     6747     6043     5439     5005 
    4729     4563     4450     4344     4197     4002     3798     3626 
    3443     3171     2744     2138     1390      556     -361    -1375 
   -2443    -3535    -4634    -5668    -6488    -6928    -6862    -6215 
   -5001    -3349    -1482      372     2060     3495     4629     5439 
    5868     5845     5378     4531     3370     2012      616     -672 
   -1780    -2706    -3493    -4135    -4588    -4854    -4918    -4691 
   -4141    -3316    -2280    -1144      -49      874     1529     1911 
    2076     2079     1965     1802     1626     1409     1090      658 
      91     -672    -1645    -2743    -3902    -5112    -6312    -7395 
   -8256    -8823    -9062    -8969    -8580    -8002    -7344    -6627 
   -5791    -4803    -3688    -2484    -1244      -67      919     1630 
    2068     2255     2191     1900     1497     1071      648      275 
      37       -8      179      649     1350     2095     2691     3042 
    3114     2910     2501     2000     1480      965      475       22 
    -378     -691     -850     -769     -388      260     1102     2103 
    3231     4398     5506     6428     6970     6970     6339     5063 
    3230     1004    -1428    -3883    -6147    -7978    -9161    -9589 
   -9242    -8194    -6646    -4865    -3138    -1695     -627       76 
     476      664      680      504      117     -450    -1129    -1881 
   -2674    -3408    -4006    -4471    -4812    -4995    -4985    -4801 
   -4402    -3647    -2430     -780     1151     3146     4951     6366 
    7281     7620     7329     6451     5132     3527     1759      -41 
   -1753    -3346    -4858    -6327    -7740    -9008   -10026   -10697 
  -10893   -10521    -9651    -8457    -7146    -5938    -4989    -4330 
   -3893    -3511    -3049    -2493    -1830     -963      167     1537 
    3082     4733     6426     8036     9373    10303    10768    10719 
   10120     8996     7416     5494     3376     1236     -770    -2542 
   -3991    -5077    -5773    -6058    -5930    -5385    -4434    -3159 
   -1713     -268     1044     2170     3098     3812     4330     4731 
    5059     5336     5582     5776     5906     5921     5761     5460 
    5092     4673     4155     3431     2408     1036     -687    -2675 
   -4719    -6521    -7801    -8361    -8091    -7001    -5192    -2840 
    -226     2353     4680     6588     7989     8864     9169     8920 
    8235     7236     6041     4810     3708     2826     2201     1815 
    1559     1294      961      544       12     -623    -1333    -2111 
   -2911    -3665    -4353    -5011    -5636    -6211    -6754    -7248 
   -7600    -7699    -7469    -6878    -5913    -4542    -2751     -615 
    1728     4160     6556     8708    10361    11311    11479    10920 
    9741     8078     6151     4263     2583     1163       54     -761 
   -1286    -1483    -1385    -1040     -522       36      530      920 
    1217     1474     1773     2209     2870     3766     4795     5852 
    6891     7817     8569     9171     9613     9842     9817     9494 
    8893     8097     7198     6259     5305     4340     3360     2336 
    1258      194     -749    -1512    -2047    -2342    -2404    -2230 
   -1877    -1467    -1115     -900     -853     -974    -1219    -1478 
   -1656    -1761    -1865    -2020    -2273    -2647    -3083    -3497 
   -3861    -4135    -4203    -4014    -3591    -2910    -2018    -1030 
     -67      700     1143     1189      799       28     -982    -2116 
   -3300    -4455    -5485    -6328    -6948    -7311    -7384    -7115 
   -6477    -5436    -3973    -2165     -139     1945     3875     5455 
    6565     7121     7009     6156     4585     2369     -333    -3330 
   -6416    -9290   -11657   -13327   -14235   -14416   -13953   -12943 
  -11445    -9537    -7337    -4909    -2347      197     2589     4671 
    6291     7356     7813     7684     7045     5992     4657     3141 
    1491     -241    -1976    -3628    -5128    -6473    -7704    -8839 
   -9868   -10767   -11488   -11948   -12089   -11900   -11403   -10635 
   -9628    -8382    -6902    -5148    -3059     -685     1846     4403 
    6759     8629     9786    10137     9710     8572     6809     4573 
    2084     -459    -2866    -4941    -6588    -7782    -8488    -8743 
   -8637    -8257    -7697    -6967    -6015    -4816    -3372    -1688 
     195     2187     4099     5719     6906     7596     7754     7433 
    6759     5883     4982     4228     3703     3414     3315     3376 
    3568     3823     4089     4338     4560     4752     4895     4969 
    4968     4904     4779     4521     4059     3384     2498     1447 
     321     -816    -1917    -2875    -3622    -4171    -4534    -4715 
   -4737    -4660    -4542    -4371    -4109    -3736    -3195    -2455 
   -1547     -514      568     1595     2469     3118     3478     3531 
    3325     2913     2343     1683      988      290     -384    -1011 
   -1536    -1868    -1927    -1687    -1170     -418      546     1669 
    2845     4052     5363     6809     8351     9860    11129    11985 
   12359    12228    11641    10724     9639     8565     7641     6909 
    6346     5925     5617     5377     5171     5007     4851     4633 
    4279     3742     2986     2007      822     -553    -2073    -3666 
   -5285    -6835    -8171    -9173    -9761    -9902    -9637    -9015 
   -8027    -6652    -4936    -2975     -900     1143     3046     4725 
    6091     7113     7839     8299     8549     8691     8718     8548 
    8114     7354     6232     4725     2874      859    -1129    -2932 
   -4384    -5383    -5884    -5910    -5582    -5074    -4565    -4148 
   -3838    -3612    -3402    -3114    -2694    -2119    -1372     -450 
     621     1794     2968     3978     4671     4935     4700     3956 
    2736     1113     -774    -2771    -4731    -6550    -8156    -9498 
  -10532   -11272   -11757   -11970   -11905   -11562   -10939   -10072 
   -9020    -7831    -6527    -5139    -3719    -2253     -791      550 
    1765     2795     3516     3921     4004     3797     3434     3022 
    2640     2359     2180     2043     1872     1580     1120      502 
    -265    -1154    -2068    -2911    -3612    -4102    -4340    -4287 
   -3933    -3319    -2498    -1529     -441      766     2084     3449 
    4792     6079     7230     8110     8604     8642     8210     7345 
    6114     4610     2918     1124     -646    -2258    -3589    -4544 
   -5066    -5162    -4931    -4544    -4153    -3862    -3728    -3780 
   -3952    -4078    -4043    -3823    -3380    -2712    -1852     -805 
     367     1620     2967     4376     5783     7128     8320     9270 
    9906    10196    10169     9887     9443     8891     8209     7371 
    6369     5193     3825     2323      820     -584    -1804    -2745 
   -3334    -3549    -3397    -2894    -2101    -1100       49     1225 
    2288     3138     3699     3885     3640     2959     1867      423 
   -1260    -3087    -4950    -6724    -8316    -9682   -10781   -11577 
  -12113   -12429   -12557   -12518   -12302   -11961   -11557   -11102 
  -10675   -10330   -10042    -9788    -9479    -9016    -8324    -7322 
   -5977    -4313    -2408     -399     1513     3121     4294     4949 
    5066     4727     4021     3086     2097     1183      403     -222 
    -676     -939    -1013     -895     -534      137     1108     2300 
    3620     4957     6189     7206     7916     8270     8222     7757 
    6913     5773     4471     3167     1984      977      175     -382 
    -727     -955    -1115    -1244    -1417    -1709    -2138    -2678 
   -3312    -3998    -4621    -5050    -5205    -5054    -4606    -3886 
   -2932    -1821     -634      584     1818     3053     4268     5424 
    6470     7360     8066     8559     8779     8722     8445     7994 
    7425     6812     6234     5784     5521     5401     5344     5300 
    5224     5071     4777     4295     3638     2859     2022     1186 
     388     -333     -926    -1379    -1741    -2104    -2556    -3122 
   -3758    -4361    -4810    -4977    -4777    -4214    -3399    -2462 
   -1505     -627       72      540      751      706      395     -170 
    -949    -1876    -2879    -3865    -4792    -5659    -6426    -7037 
   -7450    -7595    -7406    -6851    -5933    -4725    -3362    -1993 
    -742      311     1125     1682     1996     2145     2246     2363 
    2494     2628     2731     2759     2721     2639     2532     2435 
    2369     2336     2335     2357     2415     2550     2744     2920 
    3007     2937     2650     2127     1397      517     -425    -1306 
   -2016    -2523    -2832    -2949    -2899    -2700    -2355    -1887 
   -1328     -726     -139      373      739      839      599       60 
    -716    -1675    -2728    -3794    -4799    -5686    -6413    -6918 
   -7138    -7044    -6627    -5894    -4866    -3582    -2093     -496 
    1086     2567     3897     5042     5983     6766     7412     7862 
    8091     8110     7905     7514     6984     6304     5440     4367 
    3087     1617      -28    -1779    -3535    -5248    -6880    -8378 
   -9720   -10901   -11900   -12677   -13201   -13455   -13455   -13231 
  -12779   -12064   -11079    -9850    -8417    -6804    -5088    -3396 
   -1840     -521      484     1152     1499     1605     1594     1570 
    1640     1912     2415     3111     3969     4938     5906     6772 
    7474     7955     8162     8048     7601     6852     5856     4699 
    3451     2151      827     -473    -1675    -2704    -3460    -3843 
   -3792    -3226    -2095     -422     1709     4190     6863     9531 
   11998    14108    15761    16906    17535    17668    17328    16584 
   15553    14331    13022    11736    10519     9360     8267     7257 
    6359     5609     5004     4521     4132     3763     3310     2729 
    2030     1213      311     -602    -1459    -2241    -2922    -3424 
   -3712    -3812    -3754    -3586    -3383    -3184    -3021    -2921 
   -2882    -2889    -2970    -3183    -3603    -4295    -5301    -6609 
   -8139    -9779   -11446   -13007   -14314   -15296   -15903   -16087 
  -15850   -15155   -13991   -12437   -10605    -8625    -6620    -4702 
   -2959    -1476     -299      579     1174     1529     1719     1818 
    1887     1956     2083     2354     2783     3311     3873     4430 
    4914     5242     5410     5471     5472     5481     5559     5745 
    6057     6490     7017     7570     8091     8521     8814     8957 
    8928     8691     8201     7435     6420     5213     3908     2602 
    1363      222     -843    -1876    -2880    -3848    -4781    -5671 
   -6454    -7006    -7307    -7454    -7511    -7577    -7854    -8414 
   -9186   -10062   -10891   -11549   -11912   -11863   -11350   -10326 
   -8779    -6821    -4600    -2236      121     2309     4201     5701 
    6721     7248     7272     6729     5644     4147     2366      414 
   -1590    -3528    -5308    -6843    -8048    -8880    -9343    -9417 
   -9049    -8230    -7033    -5549    -3858    -2058     -299     1313 
    2783     4090     5147     5933     6454     6663     6528     6103 
    5493     4815     4198     3754     3539     3537     3666     3846 
    3974     3936     3632     2997     2033      816     -542    -1908 
   -3198    -4399    -5549    -6691    -7857    -9032   -10130   -11032 
  -11657   -11908   -11684   -10989    -9894    -8496    -6916    -5250 
   -3577    -2058     -854       24      517      503       68     -688 
   -1703    -2751    -3680    -4398    -4774    -4783    -4429    -3727 
   -2758    -1611     -399      742     1756     2673     3528     4318 
    5050     5753     6431     7080     7661     8100     8325     8256 
    7882     7279     6529     5732     5051     4658     4615     4900 
    5424     6069     6732     7271     7607     7727     7568     7121 
    6453     5594     4606     3605     2710     1995     1478     1159 
    1027     1055     1217     1553     2134     2976     4081     5387 
    6741     7979     8972     9587     9742     9459     8834     7963 
    6937     5868     4854     3921     3048     2249     1483      688 
    -105     -885    -1652    -2392    -3167    -3956    -4677    -5302 
   -5772    -6000    -5930    -5537    -4864    -3970    -2897    -1664 
    -253     1374     3219     5198     7195     9096    10731    11944 
   12692    12960    12788    12298    11530    10461     9070     7314 
    5213     2897      460    -2029    -4444    -6683    -8743   -10611 
  -12255   -13698   -14975   -16073   -17010   -17809   -18432   -18874 
  -19178   -19311   -19198   -18796   -18033   -16815   -15113   -12918 
  -10201    -7003    -3456      292     4078     7692    10905    13549 
   15591    17008    17724    17775    17284    16291    14856    13080 
   11065     8912     6679     4414     2155      -98    -2245    -4159 
   -5857    -7385    -8764   -10004   -11086   -11992   -12684   -13122 
  -13279   -13146   -12762   -12182   -11395   -10388    -9159    -7673 
   -5891    -3854    -1647      623     2801     4700     6185     7179 
    7596     7435     6801     5795     4538     3141     1672      220 
   -1135    -2346    -3356    -4136    -4691    -5042    -5277    -5529 
   -5884    -6393    -7094    -7935    -8814    -9617   -10158   -10230 
   -9680    -8394    -6335    -3603     -400     3079     6687    10153 
   13185    15727    17786    19248    20023    20089    19440    18125 
   16206    13741    10840     7676     4430     1275    -1628    -4117 
   -6057    -7387    -8121    -8289    -7909    -7036    -5807    -4423 
   -3051    -1815     -846     -186      244      564      897     1370 
    2053     2941     3958     4992     5961     6754     7221     7288 
    7009     6444     5672     4822     3982     3168     2363     1507 
     576     -419    -1502    -2679    -3901    -5076    -6127    -7013 
   -7689    -8101    -8202    -7989    -7493    -6778    -5861    -4666 
   -3211    -1653      -20     1719     3469     5119     6575     7785 
    8753     9479     9975    10273    10388    10316    10034     9529 
    8796     7863     6778     5557     4214     2729     1070     -699 
   -2524    -4422    -6304    -8024    -9501   -10638   -11357   -11638 
  -11507   -11071   -10444    -9738    -9057    -8437    -7913    -7524 
   -7238    -6984    -6736    -6489    -6203    -5876    -5536    -5175 
   -4795    -4418    -4062    -3705    -3318    -2933    -2637    -2469 
   -2451    -2621    -2984    -3537    -4306    -5296    -6396    -7470 
   -8530    -9601   -10509   -11102   -11412   -11402   -10901    -9880 
   -8446    -6594    -4293    -1659     1167     4085     6987     9772 
   12333    14566    16422    17874    18874    19396    19452    19076 
   18330    17251    15858    14210    12383    10453     8519     6646 
    4873     3264     1840      579     -530    -1514    -2396    -3160 
   -3778    -4274    -4668    -4939    -5067    -5065    -4934    -4595 
   -3969    -3067    -1934     -598      881     2384     3770     4924 
    5772     6280     6407     6129     5476     4544     3424     2173 
     916     -144     -957    -1593    -2026    -2176    -2070    -1852 
   -1599    -1309    -1070     -990    -1043    -1201    -1501    -1863 
   -2177    -2436    -2647    -2774    -2762    -2550    -2104    -1426 
    -519      585     1796     3049     4336     5634     6913     8124 
    9170     9965    10454    10585    10343     9765     8881     7742 
    6446     5086     3747     2486     1281      148     -795    -1472 
   -1864    -1995    -1908    -1609    -1152     -676     -271       40 
     259      384      446      560      795     1073     1305     1466 
    1517     1429     1152      595     -183    -1100    -2224    -3500 
   -4824    -6211    -7577    -8853   -10044   -11101   -11985   -12694 
  -13196   -13423   -13336   -12947   -12272   -11314   -10089    -8695 
   -7292    -5984    -4823    -3871    -3177    -2776    -2652    -2717 
   -2894    -3133    -3375    -3596    -3840    -4104    -4318    -4523 
   -4762    -4947    -5028    -5011    -4861    -4569    -4158    -3649 
   -3094    -2573    -2145    -1799    -1512    -1271    -1027     -684 
    -199      392     1097     1942     2879     3873     4901     5896 
    6791     7533     8029     8216     8112     7727     7078     6258 
    5355     4410     3505     2694     1968     1354      924      737 
     800     1112     1648     2371     3275     4324     5447     6589 
    7709     8738     9601    10270    10701    10828    10650    10156 
    9340     8279     7051     5706     4314     2922     1534      153 
   -1182    -2440    -3585    -4577    -5420    -6123    -6677    -7059 
   -7258    -7284    -7146    -6866    -6482    -6035    -5563    -5107 
   -4657    -4176    -3680    -3198    -2708    -2208    -1719    -1259 
    -862     -530     -253      -78        8       43       25       -5 
     -31      -59      -37       68      233      461      751     1059 
    1336     1536     1648     1723     1776     1784     1822     1927 
    2052     2236     2517     2857     3254     3670     4059     4402 
    4615     4635     4455     4062     3453     2632     1630      560 
    -469    -1436    -2339    -3148    -3875    -4552    -5144    -5614 
   -5929    -6049    -5945    -5589    -4976    -4149    -3148    -1987 
    -689      702     2147     3611     5030     6335     7422     8214 
    8733     8981     8912     8518     7862     7010     6027     4986 
    3966     3044     2255     1622     1190      961      932     1152 
    1649     2407     3349     4406     5516     6594     7560     8349 
    8915     9258     9378     9247     8870     8303     7591     6777 
    5930     5067     4183     3295     2386     1458      549     -353 
   -1291    -2242    -3181    -4099    -4966    -5768    -6512    -7213 
   -7879    -8510    -9072    -9524    -9815    -9907    -9774    -9374 
   -8700    -7782    -6674    -5479    -4278    -3061    -1895     -935 
    -271       62       10     -422    -1189    -2231    -3443    -4664 
   -5786    -6747    -7425    -7743    -7732    -7388    -6744    -5902 
   -4918    -3861    -2840    -1921    -1162     -612     -333     -392 
    -818    -1553    -2512    -3622    -4768    -5827    -6729    -7423 
   -7913    -8225    -8321    -8208    -7946    -7557    -7072    -6554 
   -6052    -5609    -5252    -4966    -4723    -4498    -4248    -3946 
   -3580    -3149    -2677    -2188    -1679    -1142     -546      121 
     846     1642     2521     3431     4293     5066     5721     6226 
    6566     6706     6660     6478     6180     5805     5393     4953 
    4495     4037     3597     3227     2986     2913     3044     3379 
    3885     4537     5260     5960     6604     7153     7538     7731 
    7732     7554     7226     6779     6276     5783     5347     4999 
    4773     4702     4779     4959     5182     5391     5526     5526 
    5367     5043     4577     4020     3375     2636     1853     1046 
     221     -579    -1296    -1883    -2285    -2466    -2447    -2258 
   -1934    -1557    -1227    -1013     -949    -1048    -1329    -1780 
   -2374    -3083    -3859    -4649    -5414    -6108    -6663    -7017 
