Origin Time       2025/01/13 21:19:00
Lat.              31.8
Long.             131.6
Depth. (km)       30
Mag.              6.9
Station Code      KMMH09
Station Lat.      32.4901
Station Long.     130.9046
Station Height(m) 520
Record Time       2025/01/13 21:19:49
Sampling Freq(Hz) 100Hz
Duration Time(s)  167
Dir.              4
Scale Factor      7845(gal)/8223790
Max. Acc. (gal)   55.370
Last Correction   2025/01/13 21:19:49
Memo.             
[...]
  -19210   -20717   -24036   -28424   -32435   -34500   -33774   -30437 
  -25450   -20337   -16799   -16046   -18157   -21891   -25467   -27625 
  -27685   -25787   -23427   -22265   -22804   -24676   -26821   -27695 
  -26346   -23176   -19743   -17771   -18108   -20613   -24440   -28177 
  -30106   -29014   -25230   -20340   -15905   -13109   -12781   -14864 
  -18334   -21907   -24403   -25047   -24233   -23187   -22654   -22674 
  -23156   -23955   -24683   -24989   -25050   -25224   -25392   -25332 
  -25254   -25303   -25201   -24630   -23660   -22470   -20914   -19087 
  -17678   -17091   -17128   -17589   -18239   -18482   -17965   -17257 
  -17204   -18158   -20162   -23184   -26852   -30146   -31607   -30358 
  -26847   -22335   -18376   -16522   -17363   -19930   -22646   -24416 
  -24764   -23788   -22279   -21478   -22315   -24835   -28366   -31826 
  -33917   -33745   -31599   -28722   -26462   -25871   -27156   -29278 
  -30819   -30946   -29473   -26889   -24208   -22072   -20556   -19800 
  -19823   -20193   -20391   -20125   -19465   -18863   -18748   -19156 
  -19824   -20430   -20885   -21274   -21483   -21390   -21425   -22239 
  -23834   -25794   -27970   -30149   -31706   -32016   -30866   -28555 
  -25629   -22653   -20549   -20383   -22416   -25921   -29656   -32335 
  -33158   -32059   -29648   -26917   -24625   -23136   -22580   -22586 
  -22299   -21267   -19855   -18459   -17078   -15657   -14206   -12757 
  -11454   -10443    -9783    -9506    -9576   -10112   -11499   -13914 
  -17081   -20325   -22821   -24135   -24356   -24073   -24243   -25473 
  -27749   -30840   -34149   -36725   -38030   -38192   -37584   -36412 
  -34902   -33724   -33282   -33030   -32528   -32015   -31322   -29830 
  -27691   -25724   -24279   -23072   -21924   -21034   -20495   -20039 
  -19365   -18273   -16634   -14642   -12725   -11053    -9359    -7503 
   -5952    -5350    -6033    -8185   -11708   -16040   -20633   -24842 
  -27704   -28980   -29317   -29193   -29002   -29320   -30288   -31696 
  -33484   -35537   -37584   -39217   -39796   -38832   -36216   -32224 
  -27818   -24004   -21199   -19751   -19782   -20557   -20958   -20263 
  -18419   -16000   -14045   -13652   -15159   -17698   -19853   -20656 
  -19805   -17379   -14037   -11175   -10187   -11380   -13883   -16796 
  -19796   -22546   -24583   -25936   -26940   -27587   -27943   -28516 
  -29632   -31145   -32722   -33999   -34862   -35741   -36975   -38199 
  -38969   -38946   -37585   -34415   -29412   -23226   -17184   -12739 
  -10881   -11697   -14303   -17351   -19626   -20363   -19542   -17996 
  -16960   -17170   -18484   -20509   -22769   -24541   -25531   -26041 
  -26493   -27164   -27857   -27978   -27054   -25004   -22160   -19205 
  -17119   -16680   -18049   -20831   -24048   -26628   -27846   -27233 
  -25072   -22404   -20135   -18828   -18586   -18839   -18751   -17712 
  -15643   -13038   -10513    -8621    -7959    -8822   -10833   -13427 
  -16495   -20050   -23553   -26501   -29192   -31761   -33728   -34920 
  -35364   -34963   -34126   -33697   -34177   -35337   -36243   -35876 
  -34079   -31735   -29698   -28001   -26640   -25886   -25220   -24004 
  -22491   -20671   -18308   -16101   -14677   -13699   -13076   -13085 
  -13510   -14220   -15384   -16799   -18007   -18542   -18045   -16544 
  -14581   -13078   -12721   -13905   -17024   -21300   -24927   -27145 
  -27942   -27735   -27993   -29817   -33326   -38167   -43433   -48033 
  -50677   -50145   -46376   -40508   -34261   -29403   -26892   -26545 
  -27243   -27502   -26275   -23275   -19079   -14712   -10964    -8677 
   -8455    -9882   -12280   -15134   -17598   -18933   -18879   -17577 
  -15811   -14686   -15034   -17220   -20753   -24386   -27193   -28938 
  -29458   -28906   -27936   -26739   -25220   -23765   -22636   -21772 
  -21196   -20885   -20979   -21841   -23523   -25694   -27715   -28841 
  -28933   -28347   -27461   -26626   -26063   -25972   -26285   -26403 
  -25852   -24551   -22723   -21119   -20672   -21636   -23130   -23807 
  -23066   -21250   -19037   -17251   -16721   -17841   -20202   -22805 
  -24783   -25585   -24919   -23087   -20945   -19529   -19507   -20649 
  -22349   -24367   -26597   -28580   -29687   -29646   -28563   -26730 
  -24687   -23180   -22669   -22808   -22847   -22337   -21042   -18967 
  -16605   -14617   -13532   -13707   -15180   -17570   -20198   -22145 
  -22535   -21039   -18121   -15014   -12984   -12499   -13539   -16032 
  -19584   -23197   -25914   -27849   -29641   -31256   -32409   -33127 
  -33080   -31441   -27963   -23666   -20061   -18077   -18115   -20212 
  -23548   -26669   -28665   -29662   -30435   -31743   -33805   -36451 
  -39259   -41388   -41976   -40671   -37669   -33687   -29899   -27349 
  -26038   -24861   -23130   -21389   -20174   -19290   -18423   -17253 
  -15412   -12771    -9498    -6335    -4525    -4760    -6691    -9517 
  -12430   -14895   -16772   -18196   -19488   -20968   -22608   -24132 
  -25390   -26500   -27484   -28048   -28111   -28150   -28528   -29023 
  -29377   -29612   -29678   -29516   -29392   -29646   -30202   -30580 
  -30343   -29440   -28024   -26208   -24227   -22578   -21695   -21598 
  -22014   -22539   -22725   -22242   -20981   -19152   -17325   -16105 
  -15745   -16105   -16861   -17581   -17784   -17122   -15545   -13431 
  -11403    -9937    -9439   -10389   -12796   -15962   -19036   -21459 
  -22821   -22719   -21163   -18937   -17169   -16854   -18823   -23530 
  -30677   -39029   -46732   -52073   -54116   -52776   -48651   -43079 
  -38006   -34824   -33536   -33232   -32660   -30748   -27324   -23025 
  -18748   -15252   -12671   -10412    -7796    -4623    -1067     2489 
    5221     5822     3469    -1178    -6686   -12208   -17262   -21046 
  -23160   -24305   -25542   -27634   -30906   -34959   -39009   -42527 
  -45119   -46533   -46904   -46433   -45087   -42786   -39577   -35833 
  -32030   -28333   -24953   -22426   -21089   -20787   -21120   -21509 
  -21158   -19498   -16665   -13281    -9960    -7148    -5152    -4247 
   -4665    -6215    -8175    -9832   -10866   -11358   -11588   -11761 
  -12224   -13612   -16218   -19831   -24259   -28965   -32811   -35266 
  -36769   -37604   -37621   -36996   -36369   -36225   -36591   -37311 
  -38109   -38400   -37631   -35819   -33421   -30654   -27405   -23858 
  -20394   -17034   -13678   -10444    -7489    -4936    -3025    -2147 
   -2597    -4298    -6940   -10017   -12835   -14967   -16488   -17887 
  -19839   -22809   -26750   -31141   -35226   -38381   -40304   -40942 
  -40517   -39430   -38051   -36687   -35572   -34719   -33855   -32549 
  -30634   -28456   -26581   -25447   -25485   -26982   -29424   -31423 
  -31599   -29444   -25400   -20277   -14990   -10840    -8899    -8900 
   -9694   -10369   -10280    -9121    -7427    -6382    -7128   -10115 
  -14914   -20343   -24887   -27542   -28398   -28441   -28717   -29799 
  -32004   -35116   -37967   -39194   -38410   -36329   -34069   -32568 
  -32215   -32636   -32953   -32036   -29093   -24506   -19588   -15773 
  -14065   -14497   -16164   -17822   -18436   -17710   -16179   -14764 
  -14301   -15169   -17332   -20487   -24027   -27179   -29278   -30154 
  -30161   -29570   -28582   -27517   -26464   -25528   -25205   -25806 
  -27047   -28521   -29987   -31145   -31639   -31295   -30173   -28340 
  -25867   -23094   -20449   -18071   -16038   -14535   -13676   -13629 
  -14490   -15955   -17456   -18343   -18198   -17212   -15975   -15302 
  -16101   -18589   -22044   -25512   -28127   -29087   -28024   -25532 
  -22742   -20407   -19001   -18855   -19708   -20845   -21667   -22019 
  -22221   -22592   -23164   -23895   -24694   -25404   -26015   -26673 
  -27506   -28524   -29585   -30487   -30950   -30572   -29130   -26908 
  -24547   -22697   -21930   -22584   -24345   -26293   -27442   -27117 
  -25170   -22095   -18809   -16194   -14814   -14910   -16397   -18778 
  -21230   -22951   -23556   -23182   -22345   -21682   -21606   -22164 
  -23234   -24601   -25809   -26380   -26109   -25172   -24100   -23492 
  -23618   -24402   -25682   -27332   -29096   -30485   -31198   -31399 
  -31310   -30817   -29639   -27670   -24983   -21685   -18064   -14629 
  -11911   -10293   -10022   -11171   -13365   -15685   -17298   -18056 
  -18281   -18455   -19246   -21270   -24568   -28580   -32470   -35306 
  -36251   -34888   -31464   -26921   -22545   -19345   -17855   -18273 
  -20294   -23022   -25273   -26014   -24784   -21913   -18416   -15554 
  -14341   -15184   -17752   -21267   -24981   -28239   -30438   -31268 
  -30848   -29451   -27460   -25543   -24285   -23750   -23669   -23824 
  -24142   -24524   -24907   -25434   -26204   -27072   -27876   -28576 
  -29137   -29511   -29763   -30083   -30523   -30797   -30404   -28838 
  -25875   -21860   -17493   -13463   -10616    -9733   -10709   -12692 
  -14806   -16254   -16501   -15723   -14656   -14094   -14589   -16271 
  -18719   -21107   -22584   -22562   -21064   -18945   -17402   -17355 
  -19356   -23449   -28987   -34877   -39958   -43252   -44266   -43079 
  -40271   -36799   -33606   -31194   -29546   -28387   -27429   -26372 
  -24957   -23153   -21190   -19418   -18115   -17324   -16970   -17088 
  -17759   -18918   -20285   -21487   -22322   -22662   -22302   -21276 
  -20110   -19418   -19608   -20907   -23160   -25704   -27629   -28139 
  -26881   -24106   -20532   -17127   -14894   -14489   -15687   -17393 
  -18597   -19044   -18864   -18353   -18183   -18993   -20740   -22851 
  -24656   -25498   -25142   -24058   -22956   -22329   -22485   -23554 
  -25174   -26650   -27730   -28679   -29670   -30770   -32042   -33247 
  -33801   -33076   -30932   -27945   -24895   -22268   -20298   -18968 
  -17923   -16788   -15566   -14570   -14227   -15006   -17147   -20430 
  -24205   -27669   -30078   -30905   -30129   -28291   -26106   -24082 
  -22589   -21986   -22293   -23014   -23564   -23585   -22870   -21436 
  -19630   -18000   -17127   -17448   -19083   -21622   -24147   -25744 
  -26014   -25142   -23743   -22632   -22577   -24038   -26798   -29916 
  -32184   -32714   -31224   -28077   -24159   -20487   -17683   -15942 
  -15269   -15356   -15606   -15541   -15087   -14620   -14688   -15685 
  -17821   -20939   -24382   -27423   -29682   -30919   -31020   -30204 
  -28841   -27257   -25774   -24709   -24291   -24532   -25307   -26468 
  -27675   -28513   -28810   -28572   -27849   -26689   -25172   -23510 
  -21910   -20447   -19267   -18677   -18958   -20137   -21853   -23525 
  -24644   -24934   -24356   -23140   -21911   -21469   -22125   -23568 
  -25238   -26461   -26752   -26325   -25861   -25893   -26617   -27891 
  -29189   -29880   -29551   -28162   -26086   -23950   -22311   -21350 
  -20811   -20333   -19653   -18536   -17039   -15655   -14840   -14701 
  -15144   -15990   -16984   -17852   -18505   -19111   -19851   -20740 
  -21797   -23195   -24970   -26793   -28269   -29242   -29660   -29424 
  -28568   -27356   -26034   -24725   -23541   -22593   -21851   -21220 
  -20783   -20752   -21161   -21857   -22773   -23909   -25220   -26605 
  -27805   -28404   -28131   -26946   -24949   -22480   -20083   -18185 
  -17049   -16958   -18085   -20278   -23122   -26168   -29019   -31230 
  -32382   -32456   -31936   -31442   -31280   -31468   -31938   -32243 
  -31603   -29720   -27025   -24190   -21767   -20187   -19646   -19813 
  -19989   -19476   -17836   -15186   -12183    -9532    -7759    -7204 
   -7782    -9022   -10470   -12012   -13710   -15568   -17575   -19862 
  -22511   -25246   -27600   -29423   -30846   -31891   -32501   -32756 
  -32881   -33103   -33447   -33782   -33959   -33839   -33322   -32386 
  -31045   -29342   -27349   -25215   -23199   -21539   -20227   -19033 
  -17756   -16332   -14814   -13559   -13236   -14350   -16769   -19755 
  -22457   -24274   -25012   -24895   -24320   -23700   -23454   -23710 
  -24106   -24138   -23681   -23121   -22873   -23075   -23728   -24636 
  -25355   -25528   -25020   -23886   -22426   -20988   -19813   -19159 
  -19236   -19986   -21120   -22326   -23529   -24884   -26630   -28979 
  -31847   -34805   -37307   -38770   -38592   -36320   -32036   -26519 
  -20804   -15676   -11620    -9092    -8425    -9485   -11711   -14418 
  -16947   -18847   -20008   -20610   -20969   -21456   -22446   -23899 
  -25207   -25936   -26200   -26140   -25803   -25532   -25678   -26169 
  -26805   -27522   -28177   -28571   -28651   -28443   -27810   -26542 
  -24848   -23332   -22508   -22690   -24062   -26391   -28906   -30808 
  -31764   -31739   -30805   -29196   -27267   -25330   -23500   -21635 
  -19491   -17057   -14651   -12676   -11452   -11272   -12459   -15168 
  -19086   -23587   -28220   -32814   -37179   -40954   -43795   -45454 
  -45561   -43667   -39865   -34854   -29234   -23483   -18328   -14253 
  -11102    -8499    -6042    -3373     -437     2581     5359     7422 
    8459     8561     7925     6718     5071     2758     -662    -5309 
  -11055   -17749   -24861   -31394   -36533   -40043   -42252   -43899 
  -45728   -48116   -51069   -54326   -57311   -59293   -59914   -59374 
  -58131   -56590   -54846   -52735   -50049   -46538   -41918   -36007 
  -28845   -20700   -12005    -3331     4792    12078    18351    23384 
   26964    29010    29465    28271    25712    22378    18550    14023 
    8534     1952    -5807   -14790   -24746   -34939   -44533   -53045 
  -60158   -65665   -69813   -73259   -76372   -78935   -80677   -81411 
  -80736   -78379   -74395   -68760   -61350   -52273   -41945   -30955 
  -19907    -9467     -402     6824    12264    16124    18717    20641 
   22438    24205    25708    26671    26757    25552    22785    18314 
   12247     5038    -2824   -10835   -18412   -25243   -31240   -36236 
  -40243   -43575   -46680   -49998   -53739   -57902   -62444   -67112 
  -71385   -74583   -76027   -75201   -71910   -66479   -59533   -51617 
  -43235   -34811   -26611   -18848   -11664    -5339     -256     3577 
    6484     8868    11184    13612    16082    18598    20914    22415 
   22577    20962    17356    12078     5533    -1952    -9720   -17189 
  -24360   -31234   -37485   -42873   -47358   -50882   -53362   -54845 
  -55637   -56323   -57352   -58637   -59803   -60458   -59994   -57855 
  -54097   -49152   -43560   -38142   -33536   -29722   -26356   -22927 
  -18825   -13806    -8168    -2484     2552     6268     8503     9788 
   10687    11434    12082    12421    11974    10488     7978     4490 
     198    -4598    -9705   -15241   -21481   -28339   -35286   -41670 
  -46974   -51039   -54006   -56031   -57242   -57839   -58016   -57771 
  -56886   -55139   -52556   -49447   -46075   -42408   -38183   -33201 
  -27585   -21637   -15731   -10426    -6332    -3785    -2592    -2137 
   -1765     -872      977     3477     5780     7383     8017     7087 
    4297      141    -4884   -10642   -16837   -23126   -29301   -35149 
  -40613   -45544   -49520   -52251   -53630   -53615   -52402   -50367 
  -47925   -45445   -43135   -41030   -38902   -36462   -33732   -30923 
  -28178   -25656   -23502   -21558   -19275   -16078   -11823    -6941 
   -2180     1776     4409     5259     4243     1895    -1055    -4000 
   -6372    -7946    -9115   -10523   -12653   -15857   -20287   -25648 
  -31364   -36906   -41712   -45108   -46631   -46272   -44460   -41897 
  -39306   -37357   -36601   -37102   -38396   -39850   -40686   -40099 
  -37719   -33836   -29076   -23909   -18754   -14222   -10609    -7722 
   -5425    -3584    -1941     -390     1038     2166     2789     2864 
    2231      595    -2066    -5657    -9992   -14544   -18833   -22701 
  -26019   -28742   -31093   -33392   -35870   -38639   -41675   -44748 
  -47413   -49262   -50182   -50256   -49665   -48552   -46789   -44122 
  -40533   -36261   -31542   -26557   -21753   -17906   -15507   -14423 
  -14264   -14608   -14879   -14435   -12927   -10571    -8035    -6138 
   -5599    -6887   -10088   -14634   -19410   -23276   -25299   -24950 
  -22472   -18809   -14894   -11291    -8567    -6980    -6222    -6312 
   -7611   -10100   -13693   -18330   -23573   -28742   -33177   -36455 
  -38426   -39050   -38608   -37731   -36845   -36107   -35746   -35939 
  -36509   -37006   -36994   -36096   -34003   -30921   -27506   -24209 
  -21344   -19176   -17663   -16561   -15633   -14832   -14374   -14377 
  -14716   -15257   -15796   -16033   -15842   -15325   -14847   -14999 
  -16325   -19044   -22970   -27568   -32063   -35604   -37625   -38043 
  -37084   -35218   -33085   -31164   -29664   -28645   -27945   -27375 
  -27001   -26816   -26538   -25948   -24938   -23328   -20949   -17822 
  -14241   -10775    -8036    -6486    -6399    -7677    -9848   -12355 
  -14683   -16416   -17490   -18254   -19126   -20308   -21787   -23417 
  -24898   -26063   -27179   -28606   -30481   -32775   -35257   -37571 
  -39313   -40142   -39981   -39108   -37925   -36763   -35895   -35410 
  -35109   -34716   -34048   -33062   -31808   -30253   -28306   -26037 
  -23707   -21519   -19519   -17775   -16294   -14904   -13518   -12232 
  -11161   -10419   -10030    -9860    -9713    -9478    -9202    -9073 
   -9339   -10341   -12355   -15228   -18465   -21671   -24592   -26960 
  -28671   -29853   -30645   -31149   -31436   -31468   -31330   -31276 
  -31401   -31568   -31523   -30959   -29616   -27328   -24074   -20166 
  -16147   -12442    -9278    -6829    -5194    -4280    -3888    -3912 
   -4526    -5940    -8054   -10681   -13760   -17089   -20308   -23187 
  -25693   -27850   -29623   -30874   -31533   -31676   -31463   -31139 
  -31050   -31536   -32733   -34595   -36926   -39235   -40930   -41685 
  -41427   -40166   -38084   -35654   -33303   -31191   -29419   -28019 
  -26990   -26443   -26423   -26762   -27271   -27735   -27855   -27417 
  -26408   -25010   -23434   -21741   -19936   -18094   -16183   -14052 
  -11691    -9223    -6822    -4756    -3167    -2103    -1786    -2428 
   -4005    -6327    -9147   -12144   -14806   -16694   -17903   -18862 
  -19934   -21501   -23905   -27171   -30947   -34657   -37774   -40045 
  -41482   -42309   -42827   -43232   -43545   -43590   -43056   -41813 
  -39982   -37713   -35166   -32609   -30198   -27796   -25188   -22288 
  -19129   -15920   -13062   -10855    -9212    -7844    -6639    -5593 
   -4656    -4000    -4016    -4868    -6426    -8484   -10885   -13603 
  -16652   -20007   -23619   -27210   -30342   -32767   -34362   -35037 
  -34931   -34439   -33959   -33637   -33336   -32823   -31941   -30662 
  -29134   -27612   -26310   -25351   -24719   -24197   -23458   -22270 
  -20617   -18607   -16436   -14492   -13182   -12625   -12822   -13826 
  -15464   -17296   -18986   -20401   -21478   -22253   -22932   -23773 
  -24810   -25779   -26388   -26559   -26337   -25740   -24900   -24220 
  -24197   -25045   -26580   -28517   -30657   -32644   -33890   -33991 
  -33053   -31469   -29569   -27581   -25774   -24252   -22869   -21493 
  -20167   -19008   -18137   -17579   -17240   -17026   -16903   -16893 
  -17109   -17721   -18823   -20302   -21841   -23043   -23620   -23508 
  -22948   -22473   -22627   -23696   -25598   -27916   -30119   -31733 
  -32328   -31753   -30345   -28668   -27136   -25951   -25186   -24736 
