Origin Time       2025/01/13 21:19:00
Lat.              31.8
Long.             131.6
Depth. (km)       30
Mag.              6.9
Station Code      KMMH15
Station Lat.      32.1704
Station Long.     130.3647
Station Height(m) -95
Record Time       2025/01/13 21:19:52
Sampling Freq(Hz) 100Hz
Duration Time(s)  233
Dir.              2
Scale Factor      3923(gal)/8224838
Max. Acc. (gal)   4.064
Last Correction   2025/01/13 21:19:53
Memo.             
[...]
   -6694    -6817    -6901    -6961    -7006    -7021    -6993    -6937 
   -6872    -6802    -6724    -6640    -6571    -6555    -6581    -6605 
   -6633    -6685    -6751    -6806    -6843    -6867    -6874    -6852 
   -6820    -6799    -6798    -6794    -6774    -6745    -6729    -6736 
   -6766    -6808    -6840    -6852    -6848    -6831    -6791    -6733 
   -6686    -6675    -6683    -6690    -6698    -6708    -6705    -6687 
   -6660    -6629    -6598    -6561    -6507    -6457    -6448    -6492 
   -6550    -6582    -6597    -6620    -6659    -6717    -6798    -6891 
   -6967    -7018    -7060    -7096    -7106    -7068    -6983    -6852 
   -6674    -6488    -6339    -6239    -6184    -6188    -6249    -6332 
   -6412    -6489    -6561    -6623    -6669    -6697    -6720    -6750 
   -6802    -6874    -6930    -6951    -6945    -6928    -6876    -6778 
   -6660    -6563    -6492    -6438    -6386    -6328    -6265    -6215 
   -6189    -6193    -6216    -6243    -6257    -6262    -6286    -6359 
   -6482    -6643    -6814    -6978    -7110    -7180    -7173    -7118 
   -7057    -7001    -6929    -6835    -6751    -6709    -6683    -6627 
   -6546    -6466    -6407    -6374    -6378    -6427    -6507    -6583 
   -6651    -6732    -6825    -6901    -6955    -7011    -7083    -7142 
   -7168    -7173    -7179    -7194    -7219    -7254    -7290    -7291 
   -7217    -7086    -6940    -6795    -6667    -6558    -6467    -6415 
   -6407    -6446    -6532    -6635    -6720    -6786    -6847    -6914 
   -6987    -7059    -7101    -7080    -7007    -6929    -6872    -6825 
   -6767    -6706    -6650    -6573    -6470    -6374    -6311    -6289 
   -6309    -6363    -6440    -6509    -6556    -6593    -6621    -6624 
   -6596    -6556    -6513    -6471    -6443    -6434    -6424    -6405 
   -6386    -6381    -6382    -6392    -6411    -6432    -6444    -6435 
   -6409    -6384    -6365    -6355    -6376    -6448    -6577    -6729 
   -6880    -7014    -7095    -7103    -7047    -6953    -6849    -6740 
   -6613    -6467    -6326    -6216    -6143    -6093    -6065    -6064 
   -6102    -6160    -6192    -6188    -6172    -6150    -6106    -6050 
   -6041    -6103    -6224    -6388    -6594    -6840    -7080    -7257 
   -7346    -7353    -7288    -7175    -7038    -6882    -6697    -6504 
   -6345    -6214    -6083    -5962    -5876    -5821    -5792    -5819 
   -5913    -6052    -6197    -6319    -6412    -6478    -6517    -6544 
   -6574    -6623    -6723    -6889    -7091    -7277    -7420    -7515 
   -7555    -7518    -7411    -7296    -7214    -7161    -7129    -7122 
   -7136    -7138    -7101    -7048    -7025    -7034    -7032    -6983 
   -6905    -6826    -6763    -6710    -6659    -6593    -6516    -6448 
   -6405    -6404    -6448    -6517    -6573    -6588    -6563    -6531 
   -6507    -6477    -6439    -6419    -6423    -6435    -6447    -6477 
   -6536    -6604    -6648    -6670    -6659    -6593    -6473    -6335 
   -6211    -6104    -6030    -6007    -6033    -6092    -6177    -6273 
   -6365    -6450    -6523    -6571    -6562    -6480    -6373    -6284 
   -6218    -6183    -6191    -6235    -6291    -6345    -6413    -6485 
   -6529    -6534    -6513    -6492    -6489    -6507    -6524    -6524 
   -6512    -6504    -6498    -6502    -6535    -6575    -6577    -6521 
   -6447    -6384    -6319    -6235    -6126    -5994    -5841    -5671 
   -5489    -5310    -5162    -5062    -5007    -4981    -4984    -5031 
   -5121    -5233    -5354    -5482    -5629    -5798    -5988    -6196 
   -6389    -6529    -6609    -6632    -6605    -6565    -6555    -6586 
   -6637    -6681    -6698    -6696    -6700    -6718    -6745    -6786 
   -6840    -6905    -6991    -7094    -7198    -7285    -7366    -7457 
   -7549    -7624    -7677    -7690    -7655    -7580    -7492    -7416 
   -7364    -7338    -7331    -7326    -7300    -7254    -7207    -7176 
   -7153    -7123    -7079    -7018    -6955    -6903    -6867    -6818 
   -6748    -6681    -6652    -6687    -6774    -6889    -7010    -7122 
   -7206    -7264    -7327    -7420    -7531    -7623    -7668    -7670 
   -7665    -7663    -7647    -7607    -7564    -7545    -7541    -7524 
   -7477    -7408    -7333    -7246    -7152    -7071    -7029    -7026 
   -7040    -7060    -7083    -7098    -7109    -7125    -7141    -7140 
   -7113    -7076    -7045    -7020    -6983    -6939    -6901    -6871 
   -6852    -6858    -6880    -6893    -6875    -6845    -6824    -6779 
   -6670    -6497    -6289    -6073    -5886    -5769    -5744    -5795 
   -5918    -6118    -6380    -6652    -6895    -7080    -7196    -7253 
   -7261    -7237    -7194    -7144    -7109    -7090    -7051    -6974 
   -6876    -6787    -6714    -6658    -6636    -6651    -6669    -6662 
   -6636    -6609    -6588    -6559    -6515    -6459    -6394    -6331 
   -6280    -6261    -6273    -6304    -6349    -6396    -6430    -6444 
   -6454    -6469    -6489    -6509    -6525    -6546    -6570    -6608 
   -6681    -6785    -6891    -6978    -7045    -7110    -7171    -7202 
   -7194    -7152    -7076    -6972    -6855    -6744    -6654    -6586 
   -6546    -6539    -6542    -6523    -6488    -6453    -6424    -6404 
   -6401    -6409    -6423    -6443    -6470    -6489    -6493    -6490 
   -6492    -6493    -6488    -6492    -6513    -6536    -6558    -6583 
   -6602    -6600    -6575    -6547    -6529    -6501    -6450    -6390 
   -6334    -6276    -6201    -6099    -5979    -5867    -5787    -5752 
   -5768    -5834    -5933    -6050    -6173    -6282    -6365    -6431 
   -6504    -6596    -6698    -6793    -6856    -6887    -6889    -6848 
   -6764    -6651    -6524    -6407    -6303    -6211    -6127    -6045 
   -5973    -5923    -5892    -5876    -5879    -5904    -5941    -5977 
   -6021    -6088    -6178    -6266    -6338    -6403    -6470    -6529 
   -6571    -6602    -6627    -6628    -6619    -6639    -6706    -6791 
   -6870    -6941    -7003    -7052    -7084    -7099    -7082    -7022 
   -6949    -6891    -6856    -6851    -6887    -6970    -7072    -7142 
   -7148    -7111    -7055    -6968    -6843    -6702    -6600    -6544 
   -6500    -6457    -6439    -6453    -6484    -6528    -6579    -6625 
   -6655    -6652    -6616    -6550    -6469    -6407    -6393    -6421 
   -6466    -6507    -6524    -6502    -6427    -6304    -6164    -6033 
   -5926    -5857    -5849    -5911    -6018    -6134    -6250    -6374 
   -6504    -6643    -6795    -6947    -7088    -7234    -7392    -7551 
   -7692    -7812    -7908    -7956    -7940    -7871    -7773    -7659 
   -7530    -7380    -7218    -7047    -6856    -6646    -6434    -6253 
   -6124    -6043    -6003    -6004    -6042    -6111    -6207    -6324 
   -6461    -6597    -6709    -6785    -6809    -6768    -6670    -6528 
   -6363    -6201    -6056    -5941    -5869    -5834    -5834    -5876 
   -5941    -5989    -6016    -6045    -6076    -6085    -6057    -6007 
   -5964    -5952    -5973    -6026    -6118    -6247    -6393    -6527 
   -6625    -6696    -6754    -6802    -6833    -6840    -6821    -6779 
   -6735    -6704    -6686    -6669    -6644    -6621    -6605    -6604 
   -6621    -6647    -6662    -6656    -6635    -6608    -6592    -6593 
   -6619    -6667    -6735    -6817    -6918    -7028    -7128    -7200 
   -7233    -7223    -7186    -7144    -7113    -7086    -7052    -7011 
   -6961    -6890    -6804    -6732    -6686    -6646    -6602    -6577 
   -6575    -6596    -6617    -6617    -6593    -6552    -6508    -6462 
   -6405    -6340    -6284    -6247    -6242    -6289    -6388    -6501 
   -6597    -6686    -6778    -6863    -6925    -6963    -6975    -6961 
   -6941    -6941    -6978    -7040    -7115    -7199    -7267    -7303 
   -7325    -7352    -7387    -7403    -7381    -7325    -7240    -7129 
   -6994    -6851    -6735    -6651    -6601    -6601    -6654    -6735 
   -6813    -6864    -6895    -6912    -6913    -6898    -6868    -6832 
   -6801    -6782    -6783    -6802    -6821    -6821    -6795    -6747 
   -6677    -6593    -6517    -6474    -6471    -6484    -6481    -6463 
   -6434    -6397    -6354    -6320    -6313    -6326    -6339    -6345 
   -6346    -6347    -6336    -6308    -6280    -6272    -6285    -6315 
   -6351    -6378    -6381    -6361    -6346    -6354    -6385    -6430 
   -6480    -6528    -6561    -6571    -6567    -6559    -6555    -6570 
   -6597    -6628    -6660    -6700    -6755    -6818    -6862    -6874 
   -6862    -6824    -6739    -6609    -6455    -6292    -6141    -6048 
   -6035    -6095    -6210    -6359    -6527    -6702    -6885    -7059 
   -7196    -7281    -7326    -7356    -7361    -7314    -7209    -7072 
   -6943    -6836    -6758    -6710    -6700    -6713    -6725    -6728 
   -6725    -6724    -6727    -6743    -6771    -6806    -6870    -6970 
   -7082    -7191    -7314    -7465    -7634    -7785    -7892    -7927 
   -7866    -7705    -7469    -7210    -6966    -6758    -6602    -6525 
   -6534    -6598    -6669    -6714    -6737    -6758    -6795    -6848 
   -6902    -6948    -6983    -7009    -7028    -7051    -7082    -7126 
   -7188    -7272    -7362    -7438    -7484    -7496    -7479    -7427 
   -7337    -7210    -7057    -6876    -6683    -6509    -6372    -6282 
   -6269    -6350    -6500    -6669    -6805    -6879    -6891    -6843 
   -6744    -6637    -6554    -6492    -6455    -6462    -6507    -6563 
   -6617    -6670    -6718    -6750    -6747    -6716    -6674    -6636 
   -6615    -6616    -6631    -6646    -6669    -6710    -6771    -6839 
   -6901    -6944    -6976    -7006    -7032    -7042    -7029    -6987 
   -6934    -6901    -6890    -6895    -6932    -7024    -7152    -7275 
   -7366    -7407    -7360    -7209    -6991    -6775    -6600    -6486 
   -6465    -6534    -6650    -6782    -6933    -7101    -7248    -7349 
   -7404    -7414    -7383    -7361    -7395    -7461    -7495    -7497 
   -7515    -7539    -7541    -7522    -7487    -7429    -7327    -7183 
   -6994    -6741    -6417    -6069    -5761    -5544    -5432    -5432 
   -5537    -5710    -5898    -6061    -6185    -6265    -6291    -6274 
   -6245    -6226    -6215    -6180    -6111    -6039    -5967    -5861 
   -5717    -5553    -5389    -5244    -5140    -5082    -5059    -5051 
   -5053    -5076    -5127    -5219    -5352    -5503    -5643    -5760 
   -5854    -5926    -5965    -5973    -5980    -6023    -6115    -6242 
   -6363    -6444    -6481    -6497    -6539    -6648    -6832    -7067 
   -7307    -7522    -7676    -7734    -7673    -7495    -7231    -6964 
   -6768    -6659    -6600    -6573    -6574    -6598    -6642    -6697 
   -6736    -6728    -6666    -6575    -6471    -6372    -6315    -6338 
   -6443    -6609    -6813    -7029    -7211    -7319    -7344    -7306 
   -7223    -7123    -7045    -6994    -6953    -6926    -6906    -6878 
   -6845    -6860    -6960    -7126    -7281    -7361    -7349    -7250 
   -7086    -6898    -6760    -6704    -6735    -6844    -7010    -7200 
   -7392    -7569    -7722    -7820    -7852    -7857    -7873    -7908 
   -7950    -7985    -7985    -7923    -7803    -7670    -7561    -7461 
   -7341    -7194    -7051    -6936    -6871    -6860    -6889    -6926 
   -6943    -6920    -6853    -6774    -6717    -6694    -6702    -6747 
   -6828    -6929    -7015    -7052    -7014    -6897    -6706    -6467 
   -6210    -5960    -5749    -5597    -5491    -5409    -5352    -5328 
   -5350    -5427    -5559    -5713    -5861    -5991    -6111    -6212 
   -6262    -6247    -6192    -6156    -6191    -6291    -6403    -6474 
   -6481    -6431    -6334    -6199    -6035    -5860    -5691    -5557 
   -5482    -5451    -5429    -5390    -5333    -5282    -5248    -5235 
   -5250    -5325    -5481    -5699    -5962    -6254    -6544    -6772 
   -6897    -6918    -6862    -6743    -6594    -6471    -6415    -6434 
   -6502    -6554    -6540    -6469    -6392    -6354    -6362    -6431 
   -6579    -6779    -6968    -7110    -7195    -7221    -7188    -7125 
   -7051    -6966    -6879    -6810    -6754    -6697    -6646    -6633 
   -6673    -6713    -6714    -6673    -6596    -6489    -6366    -6258 
   -6185    -6129    -6081    -6060    -6046    -5998    -5906    -5792 
   -5678    -5587    -5533    -5512    -5528    -5580    -5636    -5660 
   -5638    -5590    -5535    -5482    -5433    -5409    -5433    -5518 
   -5678    -5918    -6214    -6521    -6810    -7059    -7252    -7366 
   -7388    -7337    -7238    -7128    -7056    -7029    -7015    -7032 
   -7129    -7317    -7573    -7871    -8183    -8490    -8789    -9103 
   -9427    -9715    -9933   -10129   -10370   -10660   -10987   -11345 
  -11719   -12064   -12318   -12456   -12507   -12510   -12464   -12371 
  -12291   -12289   -12320   -12275   -12141   -12044   -12012   -11909 
  -11726   -11583   -11511   -11454   -11379   -11319   -11303   -11256 
  -11083   -10827   -10608   -10484   -10405   -10309   -10185   -10045 
   -9896    -9737    -9555    -9346    -9127    -8919    -8703    -8430 
   -8060    -7618    -7155    -6694    -6250    -5869    -5607    -5447 
   -5305    -5124    -4904    -4645    -4352    -4041    -3701    -3304 
   -2852    -2397    -2010    -1725    -1548    -1463    -1449    -1490 
   -1557    -1610    -1602    -1509    -1339    -1108     -828     -518 
    -207       79      330      538      714      847      900      870 
     799      715      642      630      710      872     1073     1279 
    1489     1678     1807     1863     1864     1814     1682     1445 
    1132      799      492      233       22     -141     -257     -337 
    -418     -541     -729     -978    -1270    -1605    -1987    -2367 
   -2687    -2965    -3264    -3601    -3932    -4198    -4402    -4598 
   -4812    -5024    -5208    -5375    -5557    -5779    -6046    -6365 
   -6735    -7146    -7557    -7909    -8201    -8476    -8750    -8992 
   -9180    -9343    -9526    -9721    -9895   -10072   -10282   -10513 
  -10768   -11052   -11353   -11645   -11893   -12086   -12220   -12297 
  -12347   -12406   -12484   -12572   -12660   -12761   -12885   -13028 
  -13174   -13315   -13464   -13621   -13764   -13915   -14121   -14364 
  -14570   -14671   -14642   -14505   -14307   -14077   -13822   -13524 
  -13185   -12838   -12517   -12235   -11973   -11701   -11425   -11140 
  -10828   -10490   -10153    -9860    -9636    -9471    -9344    -9243 
   -9157    -9054    -8901    -8685    -8415    -8113    -7771    -7356 
   -6852    -6274    -5655    -5043    -4455    -3894    -3406    -3036 
   -2783    -2625    -2542    -2523    -2559    -2621    -2683    -2727 
   -2731    -2694    -2643    -2590    -2531    -2458    -2380    -2297 
   -2209    -2141    -2101    -2068    -2033    -2035    -2114    -2278 
   -2501    -2741    -2971    -3184    -3391    -3604    -3836    -4097 
   -4384    -4688    -4996    -5312    -5651    -6014    -6392    -6771 
   -7156    -7547    -7927    -8262    -8538    -8776    -8993    -9184 
   -9337    -9468    -9595    -9721    -9845    -9956   -10048   -10141 
  -10253   -10396   -10585   -10800   -10983   -11082   -11087   -11030 
  -10928   -10770   -10546   -10268    -9973    -9667    -9320    -8928 
   -8545    -8212    -7917    -7638    -7380    -7142    -6903    -6659 
   -6423    -6207    -6021    -5848    -5674    -5502    -5356    -5267 
   -5240    -5220    -5161    -5049    -4899    -4753    -4646    -4583 
   -4563    -4576    -4600    -4626    -4650    -4685    -4746    -4827 
   -4908    -4985    -5047    -5090    -5117    -5117    -5082    -5019 
   -4947    -4885    -4851    -4861    -4928    -5067    -5277    -5536 
   -5818    -6081    -6289    -6404    -6408    -6349    -6293    -6258 
   -6228    -6195    -6169    -6161    -6145    -6093    -6033    -6003 
   -5984    -5918    -5787    -5630    -5506    -5421    -5346    -5266 
   -5201    -5171    -5184    -5229    -5290    -5371    -5474    -5590 
   -5722    -5857    -5972    -6037    -6030    -5973    -5917    -5879 
   -5850    -5849    -5922    -6104    -6374    -6696    -7048    -7411 
   -7757    -8062    -8326    -8560    -8776    -8980    -9155    -9281 
   -9369    -9467    -9630    -9873   -10164   -10454   -10719   -10937 
  -11099   -11210   -11283   -11337   -11375   -11376   -11356   -11335 
  -11299   -11221   -11111   -10991   -10852   -10685   -10516   -10397 
  -10327   -10258   -10162   -10064    -9990    -9936    -9869    -9767 
   -9643    -9497    -9288    -9008    -8726    -8492    -8297    -8120 
   -7944    -7763    -7585    -7434    -7319    -7240    -7165    -7076 
   -6966    -6821    -6636    -6421    -6195    -5973    -5768    -5594 
   -5468    -5404    -5379    -5360    -5331    -5305    -5285    -5247 
   -5171    -5054    -4900    -4737    -4580    -4411    -4212    -3962 
   -3649    -3302    -2979    -2704    -2469    -2278    -2153    -2119 
   -2169    -2265    -2370    -2466    -2555    -2636    -2678    -2673 
   -2656    -2664    -2702    -2766    -2853    -2971    -3100    -3217 
   -3321    -3422    -3515    -3600    -3684    -3777    -3873    -3963 
   -4055    -4164    -4297    -4455    -4642    -4857    -5076    -5278 
   -5466    -5653    -5837    -5967    -5999    -5937    -5818    -5688 
   -5574    -5481    -5427    -5427    -5483    -5587    -5726    -5875 
   -5998    -6062    -6066    -6014    -5906    -5751    -5586    -5452 
   -5370    -5335    -5339    -5394    -5508    -5655    -5814    -5980 
   -6164    -6366    -6570    -6751    -6905    -7044    -7177    -7287 
   -7360    -7398    -7427    -7480    -7573    -7701    -7836    -7959 
   -8082    -8203    -8306    -8387    -8449    -8500    -8559    -8627 
   -8695    -8750    -8793    -8818    -8824    -8845    -8888    -8932 
   -8970    -9009    -9042    -9054    -9062    -9103    -9170    -9250 
   -9344    -9454    -9574    -9705    -9846   -10003   -10168   -10309 
  -10393   -10409   -10374   -10305   -10204   -10068    -9929    -9825 
   -9760    -9707    -9653    -9610    -9609    -9651    -9683    -9655 
   -9567    -9440    -9288    -9123    -8942    -8750    -8560    -8379 
   -8224    -8098    -7989    -7889    -7798    -7712    -7636    -7543 
   -7410    -7237    -7033    -6802    -6555    -6304    -6061    -5822 
   -5593    -5383    -5193    -5005    -4827    -4664    -4517    -4396 
   -4315    -4275    -4264    -4263    -4271    -4290    -4314    -4333 
   -4340    -4347    -4363    -4378    -4376    -4344    -4274    -4186 
   -4117    -4093    -4117    -4167    -4206    -4209    -4153    -4035 
   -3866    -3659    -3419    -3152    -2851    -2512    -2138    -1753 
   -1389    -1086     -886     -811     -842     -934    -1074    -1294 
   -1609    -2012    -2484    -2961    -3393    -3763    -4085    -4379 
   -4658    -4943    -5240    -5537    -5832    -6111    -6358    -6573 
   -6758    -6897    -7002    -7088    -7152    -7203    -7263    -7352 
   -7464    -7581    -7692    -7801    -7909    -8013    -8121    -8233 
   -8330    -8405    -8465    -8546    -8665    -8808    -8965    -9150 
   -9370    -9607    -9856   -10100   -10304   -10463   -10600   -10713 
  -10783   -10795   -10760   -10708   -10659   -10627   -10615   -10621 
  -10629   -10625   -10619   -10619   -10628   -10631   -10620   -10623 
  -10639   -10654   -10656   -10624   -10544   -10430   -10295   -10146 
