Origin Time       2025/01/13 21:19:00
Lat.              31.8
Long.             131.6
Depth. (km)       30
Mag.              6.9
Station Code      KMMH03
Station Lat.      32.9984
Station Long.     130.8301
Station Height(m) -22
Record Time       2025/01/13 21:19:56
Sampling Freq(Hz) 100Hz
Duration Time(s)  155
Dir.              1
Scale Factor      2942(gal)/8224139
Max. Acc. (gal)   3.257
Last Correction   2025/01/13 21:19:57
Memo.             
[...]
 -120823  -120758  -120711  -120668  -120653  -120715  -120845  -120969 
 -121026  -120995  -120912  -120830  -120762  -120699  -120645  -120607 
 -120584  -120590  -120642  -120733  -120830  -120920  -121012  -121117 
 -121221  -121288  -121301  -121266  -121194  -121108  -121024  -120906 
 -120712  -120463  -120201  -119959  -119765  -119646  -119623  -119696 
 -119820  -119938  -120023  -120081  -120148  -120255  -120398  -120563 
 -120725  -120857  -120951  -121027  -121096  -121107  -120985  -120735 
 -120441  -120183  -119977  -119809  -119672  -119574  -119553  -119641 
 -119809  -120005  -120214  -120456  -120711  -120942  -121142  -121316 
 -121482  -121660  -121841  -121964  -121983  -121915  -121794  -121636 
 -121437  -121189  -120906  -120648  -120487  -120455  -120542  -120667 
 -120717  -120657  -120544  -120442  -120375  -120333  -120316  -120345 
 -120422  -120507  -120572  -120631  -120676  -120690  -120691  -120699 
 -120698  -120658  -120569  -120441  -120317  -120256  -120294  -120418 
 -120582  -120727  -120811  -120823  -120771  -120652  -120487  -120324 
 -120210  -120164  -120162  -120206  -120299  -120386  -120440  -120511 
 -120636  -120796  -120960  -121088  -121165  -121208  -121231  -121223 
 -121162  -121059  -120945  -120811  -120641  -120429  -120182  -119912 
 -119646  -119437  -119338  -119358  -119446  -119549  -119653  -119740 
 -119809  -119869  -119927  -120010  -120135  -120268  -120374  -120455 
 -120559  -120700  -120841  -120934  -120968  -120950  -120904  -120852 
 -120788  -120707  -120618  -120514  -120374  -120209  -120031  -119842 
 -119645  -119462  -119326  -119280  -119333  -119454  -119631  -119847 
 -120082  -120305  -120467  -120530  -120529  -120528  -120565  -120642 
 -120737  -120837  -120927  -120978  -120977  -120914  -120799  -120654 
 -120486  -120271  -120035  -119853  -119777  -119796  -119886  -120046 
 -120260  -120502  -120742  -120945  -121088  -121176  -121230  -121262 
 -121279  -121298  -121317  -121313  -121277  -121201  -121050  -120789 
 -120449  -120085  -119740  -119466  -119310  -119265  -119323  -119477 
 -119703  -119961  -120208  -120409  -120565  -120691  -120785  -120847 
 -120858  -120799  -120680  -120560  -120472  -120407  -120339  -120248 
 -120133  -120013  -119888  -119769  -119686  -119643  -119616  -119589 
 -119543  -119488  -119442  -119388  -119306  -119188  -119055  -118928 
 -118839  -118798  -118781  -118768  -118763  -118775  -118806  -118867 
 -118971  -119105  -119229  -119337  -119442  -119529  -119573  -119568 
 -119496  -119348  -119151  -118967  -118849  -118841  -118959  -119194 
 -119500  -119809  -120070  -120266  -120406  -120510  -120590  -120644 
 -120671  -120684  -120663  -120591  -120484  -120334  -120136  -119896 
 -119638  -119396  -119188  -119016  -118883  -118801  -118775  -118817 
 -118935  -119130  -119404  -119753  -120145  -120523  -120837  -121093 
 -121305  -121460  -121563  -121625  -121640  -121625  -121614  -121614 
 -121633  -121690  -121770  -121828  -121852  -121871  -121900  -121949 
 -122025  -122115  -122208  -122319  -122467  -122655  -122886  -123163 
 -123466  -123782  -124093  -124357  -124545  -124642  -124634  -124524 
 -124344  -124121  -123869  -123599  -123314  -122998  -122656  -122312 
 -121986  -121697  -121447  -121232  -121057  -120935  -120872  -120823 
 -120731  -120571  -120368  -120172  -120025  -119952  -119961  -120029 
 -120118  -120193  -120237  -120259  -120270  -120259  -120206  -120116 
 -120012  -119902  -119769  -119605  -119406  -119168  -118929  -118747 
 -118650  -118644  -118728  -118895  -119142  -119456  -119807  -120152 
 -120464  -120731  -120938  -121090  -121228  -121365  -121464  -121513 
 -121520  -121501  -121471  -121425  -121362  -121300  -121261  -121243 
 -121239  -121224  -121178  -121095  -120977  -120846  -120721  -120592 
 -120455  -120312  -120154  -119998  -119875  -119793  -119749  -119749 
 -119792  -119875  -120012  -120190  -120379  -120557  -120712  -120852 
 -120999  -121182  -121402  -121639  -121865  -122064  -122222  -122328 
 -122366  -122338  -122268  -122195  -122138  -122088  -122025  -121926 
 -121786  -121602  -121365  -121054  -120668  -120218  -119712  -119141 
 -118513  -117864  -117251  -116722  -116291  -115960  -115742  -115643 
 -115643  -115708  -115794  -115871  -115924  -115944  -115950  -115938 
 -115904  -115869  -115858  -115878  -115923  -115971  -116016  -116071 
 -116166  -116326  -116553  -116833  -117138  -117414  -117617  -117740 
 -117790  -117774  -117703  -117599  -117472  -117339  -117228  -117178 
 -117217  -117320  -117429  -117524  -117609  -117703  -117833  -118004 
 -118200  -118404  -118602  -118804  -119030  -119296  -119585  -119877 
 -120175  -120471  -120746  -120992  -121205  -121393  -121564  -121720 
 -121856  -121967  -122045  -122102  -122129  -122110  -122052  -121984 
 -121934  -121922  -121954  -122010  -122084  -122204  -122380  -122596 
 -122840  -123109  -123406  -123711  -124001  -124271  -124526  -124779 
 -125022  -125226  -125370  -125460  -125528  -125602  -125682  -125741 
 -125760  -125745  -125710  -125662  -125593  -125485  -125320  -125084 
 -124783  -124441  -124089  -123754  -123475  -123263  -123124  -123068 
 -123111  -123244  -123441  -123672  -123897  -124083  -124221  -124316 
 -124371  -124383  -124330  -124175  -123901  -123507  -122995  -122392 
 -121734  -121042  -120329  -119632  -118974  -118359  -117796  -117293 
 -116827  -116380  -115943  -115511  -115082  -114637  -114165  -113687 
 -113243  -112855  -112549  -112355  -112307  -112428  -112692  -113050 
 -113447  -113840  -114203  -114521  -114793  -115022  -115207  -115364 
 -115534  -115739  -115977  -116264  -116637  -117096  -117616  -118160 
 -118685  -119168  -119595  -119936  -120197  -120440  -120714  -121005 
 -121278  -121524  -121734  -121903  -122029  -122118  -122187  -122260 
 -122347  -122453  -122573  -122704  -122823  -122895  -122921  -122935 
 -122959  -122997  -123055  -123130  -123209  -123303  -123426  -123561 
 -123703  -123855  -124005  -124148  -124297  -124456  -124632  -124833 
 -125057  -125290  -125516  -125709  -125853  -125953  -126017  -126050 
 -126058  -126030  -125961  -125871  -125767  -125651  -125528  -125394 
 -125250  -125091  -124895  -124659  -124375  -124035  -123646  -123223 
 -122777  -122339  -121930  -121554  -121212  -120922  -120679  -120464 
 -120253  -120027  -119777  -119519  -119248  -118945  -118605  -118220 
 -117803  -117383  -116973  -116595  -116274  -116014  -115825  -115724 
 -115720  -115805  -115958  -116154  -116364  -116556  -116703  -116780 
 -116762  -116646  -116446  -116176  -115866  -115558  -115273  -114998 
 -114727  -114459  -114196  -113948  -113752  -113652  -113657  -113755 
 -113904  -114089  -114315  -114573  -114841  -115103  -115356  -115592 
 -115778  -115892  -115938  -115943  -115929  -115890  -115820  -115751 
 -115727  -115759  -115842  -115970  -116133  -116326  -116552  -116806 
 -117085  -117383  -117686  -117987  -118297  -118631  -119021  -119520 
 -120145  -120885  -121718  -122607  -123485  -124276  -124916  -125396 
 -125709  -125853  -125865  -125791  -125674  -125540  -125397  -125253 
 -125123  -125007  -124918  -124860  -124815  -124779  -124741  -124694 
 -124663  -124665  -124687  -124748  -124888  -125115  -125392  -125663 
 -125891  -126041  -126084  -126025  -125861  -125579  -125169  -124630 
 -124002  -123334  -122655  -122008  -121452  -121026  -120750  -120642 
 -120687  -120850  -121096  -121402  -121730  -122030  -122243  -122322 
 -122235  -121975  -121555  -121007  -120366  -119677  -119002  -118382 
 -117825  -117323  -116881  -116502  -116185  -115929  -115732  -115591 
 -115511  -115495  -115541  -115643  -115789  -115951  -116109  -116257 
 -116401  -116540  -116649  -116702  -116703  -116691  -116696  -116729 
 -116787  -116877  -117003  -117170  -117379  -117618  -117876  -118146 
 -118428  -118746  -119124  -119554  -119989  -120384  -120733  -121031 
 -121278  -121481  -121652  -121809  -121952  -122080  -122197  -122296 
 -122359  -122384  -122376  -122341  -122287  -122206  -122100  -121986 
 -121869  -121764  -121686  -121649  -121679  -121780  -121941  -122148 
 -122384  -122634  -122886  -123144  -123411  -123670  -123894  -124069 
 -124198  -124299  -124390  -124491  -124621  -124780  -124961  -125145 
 -125305  -125432  -125518  -125566  -125594  -125617  -125631  -125608 
 -125524  -125365  -125136  -124869  -124582  -124279  -123969  -123654 
 -123344  -123037  -122721  -122386  -122037  -121690  -121362  -121081 
 -120866  -120704  -120572  -120457  -120337  -120197  -120044  -119880 
 -119711  -119546  -119379  -119223  -119128  -119111  -119155  -119232 
 -119334  -119454  -119589  -119735  -119869  -119969  -120020  -120013 
 -119943  -119807  -119619  -119416  -119219  -119030  -118841  -118639 
 -118405  -118130  -117822  -117521  -117255  -117022  -116823  -116650 
 -116491  -116351  -116236  -116140  -116037  -115904  -115747  -115589 
 -115453  -115373  -115375  -115447  -115574  -115755  -115993  -116260 
 -116540  -116831  -117147  -117494  -117864  -118234  -118559  -118828 
 -119051  -119227  -119365  -119470  -119549  -119588  -119564  -119488 
 -119403  -119323  -119268  -119260  -119314  -119442  -119620  -119805 
 -119983  -120158  -120325  -120490  -120649  -120806  -120973  -121147 
 -121305  -121436  -121536  -121591  -121608  -121620  -121644  -121680 
 -121761  -121915  -122125  -122369  -122632  -122894  -123149  -123387 
 -123593  -123749  -123853  -123913  -123939  -123935  -123904  -123838 
 -123738  -123622  -123492  -123337  -123152  -122952  -122754  -122578 
 -122432  -122304  -122188  -122092  -122022  -121979  -121934  -121845 
 -121690  -121471  -121197  -120873  -120522  -120163  -119793  -119407 
 -119014  -118633  -118282  -117969  -117703  -117506  -117390  -117356 
 -117405  -117504  -117602  -117653  -117633  -117562  -117474  -117382 
 -117278  -117167  -117085  -117063  -117096  -117157  -117244  -117351 
 -117448  -117513  -117531  -117498  -117429  -117340  -117238  -117127 
 -117015  -116907  -116818  -116776  -116804  -116912  -117105  -117385 
 -117738  -118143  -118589  -119072  -119574  -120067  -120532  -120954 
 -121331  -121674  -122006  -122347  -122705  -123052  -123356  -123608 
 -123796  -123892  -123871  -123723  -123462  -123110  -122696  -122254 
 -121819  -121405  -121011  -120641  -120305  -120008  -119759  -119561 
 -119412  -119304  -119218  -119146  -119105  -119106  -119141  -119200 
 -119284  -119384  -119492  -119611  -119759  -119955  -120195  -120468 
 -120739  -120985  -121203  -121396  -121571  -121728  -121865  -121995 
 -122115  -122229  -122341  -122453  -122561  -122663  -122743  -122783 
 -122775  -122697  -122536  -122300  -122007  -121670  -121290  -120881 
 -120474  -120101  -119780  -119526  -119349  -119254  -119237  -119287 
 -119380  -119487  -119595  -119705  -119815  -119931  -120051  -120147 
 -120204  -120221  -120205  -120167  -120123  -120086  -120069  -120081 
 -120136  -120233  -120348  -120463  -120556  -120599  -120584  -120526 
 -120445  -120363  -120297  -120255  -120251  -120293  -120372  -120486 
 -120627  -120780  -120930  -121053  -121112  -121073  -120926  -120687 
 -120374  -120004  -119600  -119207  -118867  -118594  -118389  -118265 
 -118234  -118291  -118409  -118552  -118682  -118789  -118878  -118952 
 -119005  -119032  -119030  -119011  -119009  -119053  -119148  -119291 
 -119469  -119666  -119874  -120059  -120185  -120239  -120193  -120024 
 -119745  -119402  -119049  -118719  -118435  -118226  -118106  -118084 
 -118174  -118372  -118674  -119070  -119519  -119971  -120399  -120800 
 -121169  -121491  -121759  -121968  -122111  -122183  -122192  -122170 
 -122142  -122129  -122138  -122173  -122243  -122358  -122526  -122742 
 -122983  -123238  -123499  -123757  -124012  -124263  -124497  -124710 
 -124911  -125111  -125304  -125477  -125609  -125694  -125732  -125713 
 -125628  -125482  -125275  -125015  -124706  -124362  -123998  -123633 
 -123271  -122925  -122597  -122288  -121983  -121667  -121348  -121042 
 -120764  -120548  -120414  -120352  -120357  -120424  -120514  -120602 
 -120673  -120706  -120683  -120603  -120482  -120347  -120217  -120098 
 -120000  -119954  -119981  -120067  -120178  -120297  -120417  -120534 
 -120661  -120799  -120922  -121011  -121053  -121032  -120943  -120796 
 -120582  -120287  -119929  -119535  -119122  -118706  -118301  -117911 
 -117537  -117181  -116868  -116625  -116441  -116286  -116156  -116073 
 -116036  -116033  -116043  -116046  -116055  -116100  -116205  -116382 
 -116618  -116892  -117175  -117439  -117656  -117810  -117892  -117919 
 -117925  -117926  -117933  -117967  -118031  -118104  -118173  -118238 
 -118287  -118320  -118353  -118395  -118432  -118451  -118453  -118444 
 -118449  -118494  -118601  -118773  -119002  -119280  -119593  -119919 
 -120247  -120571  -120876  -121153  -121404  -121635  -121849  -122053 
 -122251  -122466  -122716  -123007  -123345  -123732  -124170  -124656 
 -125159  -125641  -126088  -126500  -126881  -127233  -127552  -127826 
 -128023  -128121  -128136  -128082  -127969  -127820  -127651  -127458 
 -127221  -126906  -126511  -126036  -125474  -124823  -124089  -123306 
 -122516  -121744  -121015  -120334  -119688  -119076  -118507  -117980 
 -117505  -117093  -116731  -116406  -116094  -115773  -115441  -115098 
 -114747  -114390  -114025  -113649  -113277  -112908  -112536  -112172 
 -111846  -111578  -111387  -111294  -111312  -111449  -111715  -112101 
 -112583  -113163  -113813  -114482  -115145  -115788  -116383  -116905 
 -117344  -117713  -118037  -118342  -118652  -118999  -119404  -119867 
 -120366  -120876  -121396  -121925  -122446  -122929  -123346  -123678 
 -123932  -124124  -124287  -124455  -124656  -124920  -125259  -125662 
 -126106  -126551  -126956  -127287  -127508  -127589  -127508  -127265 
 -126905  -126459  -125950  -125420  -124911  -124449  -124043  -123712 
 -123488  -123388  -123414  -123562  -123834  -124221  -124707  -125281 
 -125923  -126589  -127232  -127805  -128258  -128533  -128598  -128448 
 -128109  -127619  -127012  -126338  -125640  -124957  -124308  -123691 
 -123102  -122540  -121996  -121458  -120908  -120333  -119745  -119157 
 -118590  -118073  -117634  -117300  -117077  -116964  -116958  -117032 
 -117153  -117312  -117498  -117683  -117838  -117926  -117914  -117802 
 -117598  -117296  -116907  -116456  -115973  -115493  -115053  -114685 
 -114431  -114335  -114431  -114736  -115245  -115925  -116725  -117576 
 -118419  -119192  -119832  -120293  -120555  -120619  -120518  -120302 
 -120010  -119686  -119354  -119033  -118746  -118497  -118284  -118100 
 -117948  -117836  -117772  -117768  -117825  -117934  -118100  -118312 
 -118543  -118775  -119006  -119240  -119466  -119680  -119869  -120023 
 -120129  -120193  -120221  -120226  -120225  -120225  -120236  -120271 
 -120333  -120418  -120529  -120653  -120776  -120893  -120988  -121063 
 -121149  -121269  -121450  -121707  -122044  -122451  -122909  -123379 
 -123838  -124274  -124665  -124997  -125253  -125432  -125551  -125612 
 -125624  -125616  -125589  -125556  -125547  -125568  -125587  -125568 
 -125496  -125359  -125140  -124843  -124480  -124063  -123603  -123129 
 -122674  -122258  -121869  -121493  -121116  -120725  -120306  -119875 
 -119443  -119010  -118586  -118203  -117873  -117616  -117447  -117371 
 -117394  -117506  -117670  -117859  -118065  -118265  -118449  -118620 
 -118790  -118963  -119128  -119279  -119414  -119508  -119537  -119487 
 -119333  -119071  -118714  -118295  -117840  -117371  -116910  -116476 
 -116083  -115746  -115470  -115246  -115067  -114917  -114763  -114562 
 -114300  -113983  -113622  -113247  -112892  -112590  -112368  -112248 
 -112249  -112382  -112653  -113054  -113560  -114137  -114752  -115393 
 -116046  -116685  -117309  -117907  -118470  -119014  -119550  -120077 
 -120592  -121082  -121527  -121933  -122307  -122647  -122960  -123237 
 -123461  -123631  -123738  -123763  -123708  -123584  -123403  -123182 
 -122932  -122662  -122386  -122125  -121892  -121693  -121529  -121410 
 -121343  -121343  -121416  -121554  -121741  -121960  -122184  -122393 
 -122574  -122724  -122855  -122991  -123141  -123304  -123465  -123610 
 -123749  -123885  -124031  -124204  -124394  -124587  -124775  -124935 
 -125045  -125078  -125019  -124872  -124656  -124395  -124114  -123831 
 -123542  -123242  -122953  -122692  -122451  -122237  -122065  -121932 
 -121822  -121740  -121702  -121713  -121776  -121891  -122073  -122330 
 -122629  -122933  -123213  -123435  -123591  -123676  -123685  -123639 
 -123557  -123446  -123317  -123179  -123036  -122889  -122732  -122562 
 -122380  -122181  -121965  -121736  -121497  -121257  -121032  -120845 
 -120696  -120579  -120480  -120395  -120310  -120193  -120020  -119780 
 -119461  -119072  -118635  -118172  -117711  -117298  -116959  -116704 
 -116541  -116476  -116510  -116635  -116824  -117047  -117275  -117479 
 -117647  -117779  -117882  -117965  -118044  -118122  -118210  -118326 
 -118494  -118725  -119025  -119394  -119812  -120255  -120699  -121136 
 -121558  -121942  -122268  -122504  -122638  -122682  -122663  -122592 
 -122485  -122359  -122211  -122041  -121855  -121652  -121431  -121190 
 -120943  -120700  -120471  -120266  -120090  -119931  -119778  -119616 
 -119437  -119254  -119083  -118929  -118808  -118732  -118705  -118717 
 -118771  -118864  -118984  -119110  -119219  -119303  -119353  -119367 
 -119346  -119302  -119242  -119165  -119080  -118997  -118924  -118874 
 -118862  -118890  -118949  -119032  -119138  -119269  -119431  -119624 
 -119827  -120010  -120154  -120243  -120267  -120218  -120106  -119938 
 -119719  -119477  -119246  -119044  -118879  -118758  -118683  -118660 
 -118697  -118798  -118963  -119156  -119348  -119514  -119634  -119705 
 -119735  -119711  -119646  -119580  -119549  -119573  -119661  -119809 
 -120017  -120262  -120501  -120715  -120897  -121036  -121128  -121173 
 -121174  -121153  -121120  -121084  -121045  -121008  -120984  -120973 
 -120954  -120914  -120834  -120700  -120525  -120325  -120110  -119902 
 -119720  -119577  -119483  -119448  -119468  -119537  -119650  -119799 
 -119965  -120135  -120289  -120425  -120552  -120668  -120769  -120852 
 -120910  -120943  -120953  -120950  -120935  -120899  -120846  -120792 
 -120764  -120785  -120862  -120991  -121142  -121281  -121393  -121475 
 -121529  -121558  -121562  -121549  -121514  -121432  -121304  -121131 
 -120908  -120641  -120345  -120025  -119700  -119388  -119113  -118887 
 -118716  -118584  -118474  -118389  -118335  -118320  -118355  -118450 
 -118605  -118821  -119106  -119457  -119848  -120263  -120681  -121078 
 -121436  -121745  -121984  -122137  -122200  -122183  -122088  -121927 
 -121730  -121524  -121335  -121193  -121115  -121097  -121140  -121238 
 -121375  -121540  -121711  -121867  -121994  -122084  -122142  -122183 
 -122222  -122256  -122288  -122316  -122339  -122343  -122310  -122234 
 -122111  -121945  -121748  -121535  -121316  -121105  -120908  -120729 
 -120588  -120494  -120433  -120405  -120407  -120436  -120484  -120540 
 -120587  -120613  -120594  -120513  -120372  -120179  -119947  -119677 
 -119373  -119038  -118687  -118343  -118015  -117720  -117470  -117277 
