Origin Time       2025/01/13 21:19:00
Lat.              31.8
Long.             131.6
Depth. (km)       30
Mag.              6.9
Station Code      KMMH10
Station Lat.      32.3151
Station Long.     130.1811
Station Height(m) -142
Record Time       2025/01/13 21:19:55
Sampling Freq(Hz) 100Hz
Duration Time(s)  218
Dir.              2
Scale Factor      2942(gal)/8224139
Max. Acc. (gal)   1.913
Last Correction   2025/01/13 21:19:55
Memo.             
[...]
  109831   109961   110127   110346   110613   110903   111214   111541 
  111844   112089   112249   112313   112279   112179   112051   111889 
  111654   111330   110963   110627   110378   110231   110176   110203 
  110300   110454   110664   110937   111230   111480   111680   111866 
  112072   112311   112572   112845   113098   113298   113435   113524 
  113579   113620   113676   113765   113853   113873   113792   113624 
  113420   113238   113078   112949   112889   112924   113032   113186 
  113381   113626   113923   114245   114567   114868   115107   115252 
  115323   115368   115402   115399   115356   115292   115186   114993 
  114713   114399   114093   113806   113528   113278   113097   113004 
  112977   112978   112997   113053   113155   113252   113274   113204 
  113074   112911   112714   112483   112233   111996   111767   111539 
  111356   111298   111402   111643   111978   112363   112756   113124 
  113479   113876   114334   114794   115182   115495   115782   116063 
  116310   116511   116694   116864   116984   117024   116997   116932 
  116838   116695   116494   116282   116105   115965   115893   115920 
  116023   116186   116406   116667   116957   117250   117540   117848 
  118137   118341   118447   118488   118498   118496   118466   118395 
  118293   118165   118023   117886   117744   117553   117286   116946 
  116571   116214   115927   115732   115607   115511   115425   115354 
  115318   115312   115331   115398   115506   115616   115707   115805 
  115940   116091   116185   116145   115973   115709   115395   115052 
  114708   114403   114172   114023   113938   113887   113854   113863 
  113933   114056   114192   114318   114439   114569   114690   114781 
  114839   114856   114806   114687   114534   114400   114288   114166 
  114033   113896   113767   113653   113559   113499   113493   113524 
  113575   113628   113634   113570   113441   113260   113049   112850 
  112689   112557   112433   112298   112128   111919   111693   111492 
  111346   111256   111203   111168   111144   111129   111113   111117 
  111172   111271   111387   111507   111639   111789   111951   112101 
  112239   112395   112585   112799   113026   113274   113520   113722 
  113876   114003   114112   114196   114253   114291   114299   114277 
  114253   114257   114301   114372   114440   114509   114600   114720 
  114853   114970   115057   115134   115210   115263   115268   115219 
  115128   115003   114845   114682   114577   114555   114588   114642 
  114717   114839   115010   115211   115425   115649   115866   116046 
  116152   116183   116185   116185   116186   116189   116181   116151 
  116112   116102   116133   116194   116299   116475   116696   116905 
  117059   117155   117234   117339   117482   117622   117707   117701 
  117602   117432   117215   116985   116773   116592   116440   116311 
  116230   116232   116306   116415   116533   116656   116780   116881 
  116939   116949   116911   116834   116743   116676   116652   116661 
  116665   116641   116587   116510   116403   116259   116102   115965 
  115824   115669   115512   115352   115171   114939   114648   114326 
  113999   113695   113422   113186   112995   112807   112594   112391 
  112244   112163   112131   112125   112156   112229   112338   112465 
  112592   112722   112868   113020   113173   113325   113482   113629 
  113749   113811   113795   113732   113667   113605   113537   113448 
  113316   113165   113044   112974   112932   112880   112807   112725 
  112625   112507   112384   112276   112190   112110   112024   111931 
  111842   111765   111704   111681   111700   111740   111809   111902 
  111974   112004   112001   111987   111996   112047   112131   112216 
  112252   112224   112156   112089   112041   112024   112051   112116 
  112197   112275   112349   112426   112490   112534   112607   112769 
  113035   113375   113755   114158   114569   114944   115260   115524 
  115744   115906   116021   116117   116210   116307   116402   116469 
  116468   116371   116181   115916   115591   115230   114866   114523 
  114207   113921   113688   113543   113486   113490   113543   113648 
  113792   113940   114056   114145   114218   114258   114242   114176 
  114092   114014   113958   113902   113814   113706   113601   113514 
  113451   113405   113370   113339   113321   113314   113329   113377 
  113460   113583   113740   113895   114027   114151   114277   114415 
  114566   114732   114926   115145   115373   115597   115797   115943 
  116025   116066   116097   116128   116156   116182   116217   116276 
  116349   116391   116390   116368   116328   116243   116100   115904 
  115686   115474   115300   115192   115141   115115   115110   115134 
  115194   115276   115350   115427   115537   115666   115763   115776 
  115712   115623   115539   115458   115366   115265   115153   115013 
  114851   114704   114597   114512   114424   114336   114280   114270 
  114278   114253   114176   114073   113979   113927   113949   114056 
  114238   114492   114802   115142   115472   115765   116017   116220 
  116349   116417   116460   116492   116488   116433   116353   116271 
  116186   116100   116036   116010   116000   115974   115940   115928 
  115946   115963   115951   115901   115815   115707   115603   115507 
  115414   115310   115168   114978   114778   114612   114496   114412 
  114332   114246   114146   114012   113826   113602   113378   113181 
  113003   112815   112615   112426   112264   112136   112045   111993 
  111971   111981   112016   112060   112104   112118   112074   111977 
  111869   111785   111721   111651   111569   111488   111410   111318 
  111199   111063   110934   110814   110686   110547   110405   110276 
  110172   110106   110095   110147   110259   110424   110623   110833 
  111075   111366   111700   112056   112415   112765   113086   113355 
  113571   113759   113948   114154   114363   114565   114755   114937 
  115111   115276   115423   115560   115716   115896   116070   116213 
  116317   116403   116494   116602   116749   116935   117155   117371 
  117509   117525   117452   117343   117224   117089   116954   116853 
  116783   116714   116614   116488   116371   116270   116160   116041 
  115928   115838   115786   115784   115820   115877   115947   116024 
  116083   116104   116074   115996   115878   115724   115537   115330 
  115144   114995   114874   114779   114727   114728   114774   114818 
  114843   114837   114791   114733   114693   114669   114669   114681 
  114687   114702   114733   114779   114841   114926   115044   115167 
  115263   115327   115369   115389   115377   115323   115246   115167 
  115090   115003   114901   114781   114644   114496   114351   114218 
  114088   113969   113881   113837   113833   113869   113937   114016 
  114075   114092   114092   114108   114127   114123   114085   114035 
  114007   114008   114026   114062   114126   114218   114330   114426 
  114486   114540   114620   114716   114779   114755   114633   114454 
  114259   114075   113903   113751   113613   113489   113390   113310 
  113244   113190   113139   113071   112986   112893   112806   112725 
  112657   112629   112661   112738   112826   112909   113000   113109 
  113204   113256   113271   113251   113201   113151   113127   113138 
  113189   113281   113412   113547   113655   113729   113780   113821 
  113864   113913   113979   114061   114160   114270   114397   114550 
  114721   114864   114947   114967   114924   114820   114673   114502 
  114318   114108   113854   113567   113294   113069   112915   112849 
  112869   112973   113130   113273   113382   113494   113640   113798 
  113930   114037   114141   114245   114347   114446   114516   114532 
  114498   114466   114465   114478   114490   114515   114577   114677 
  114781   114872   114948   114987   114967   114913   114867   114856 
  114872   114887   114897   114903   114899   114874   114831   114785 
  114755   114756   114801   114890   115007   115129   115240   115338 
  115431   115531   115636   115746   115858   115971   116087   116203 
  116330   116490   116687   116899   117094   117254   117360   117408 
  117405   117364   117305   117251   117197   117128   117047   116968 
  116904   116861   116824   116777   116710   116614   116498   116380 
  116251   116078   115851   115600   115348   115094   114829   114571 
  114355   114174   113995   113795   113582   113378   113201   113061 
  112976   112949   112943   112934   112915   112903   112896   112869 
  112822   112770   112726   112692   112671   112656   112639   112622 
  112606   112591   112581   112583   112594   112615   112634   112623 
  112583   112531   112469   112394   112317   112249   112207   112206 
  112236   112288   112376   112491   112621   112779   112989   113250 
  113520   113741   113898   114000   114084   114193   114350   114536 
  114723   114886   115013   115122   115236   115361   115506   115673 
  115843   115983   116062   116083   116068   116028   115966   115894 
  115823   115750   115677   115616   115584   115582   115601   115615 
  115609   115584   115545   115495   115422   115307   115177   115090 
  115078   115128   115204   115292   115399   115530   115663   115776 
  115855   115893   115877   115800   115669   115504   115318   115117 
  114929   114760   114608   114477   114357   114224   114075   113930 
  113829   113779   113763   113768   113810   113900   114012   114126 
  114245   114366   114470   114544   114579   114570   114524   114471 
  114434   114409   114393   114377   114363   114351   114353   114385 
  114458   114571   114702   114832   114964   115087   115172   115218 
  115260   115325   115416   115524   115646   115773   115905   116047 
  116174   116267   116321   116334   116332   116334   116329   116326 
  116344   116372   116415   116483   116567   116645   116681   116672 
  116644   116613   116581   116546   116495   116422   116334   116245 
  116178   116144   116139   116148   116152   116122   116027   115852 
  115614   115327   115014   114691   114390   114131   113925   113776 
  113682   113638   113626   113633   113649   113663   113670   113663 
  113641   113614   113586   113563   113545   113508   113433   113328 
  113201   113069   112943   112834   112749   112673   112568   112422 
  112271   112153   112067   111998   111947   111927   111928   111932 
  111943   111987   112087   112241   112417   112581   112720   112847 
  112980   113127   113286   113449   113614   113775   113906   113991 
  114039   114065   114066   114033   113971   113903   113861   113856 
  113872   113900   113935   113958   113949   113904   113840   113780 
  113741   113709   113659   113586   113487   113371   113260   113177 
  113131   113124   113147   113169   113175   113192   113239   113324 
  113436   113562   113678   113768   113849   113942   114046   114153 
  114245   114303   114331   114330   114305   114274   114242   114211 
  114195   114185   114161   114123   114084   114060   114049   114049 
  114060   114084   114124   114164   114184   114208   114270   114376 
  114509   114659   114821   114997   115180   115366   115551   115734 
  115893   115997   116041   116036   116004   115951   115873   115780 
  115701   115662   115663   115695   115753   115838   115956   116116 
  116309   116527   116784   117082   117391   117672   117900   118077 
  118208   118282   118297   118273   118223   118142   118041   117963 
  117927   117913   117909   117904   117890   117867   117850   117852 
  117872   117895   117911   117936   117984   118060   118143   118226 
  118307   118378   118431   118453   118440   118393   118319   118215 
  118065   117864   117632   117402   117197   117030   116912   116838 
  116770   116675   116541   116391   116232   116044   115828   115609 
  115385   115128   114816   114470   114131   113811   113513   113240 
  112993   112772   112579   112419   112295   112206   112148   112112 
  112081   112039   111990   111942   111896   111847   111786   111708 
  111619   111526   111429   111310   111149   110948   110732   110525 
  110342   110177   110041   109954   109918   109903   109880   109850 
  109841   109875   109954   110074   110232   110408   110582   110748 
  110920   111106   111306   111511   111699   111848   111943   111982 
  112004   112045   112108   112172   112225   112255   112253   112216 
  112148   112062   111969   111881   111807   111751   111728   111732 
  111758   111816   111920   112058   112220   112410   112621   112826 
  113000   113124   113206   113260   113283   113275   113255   113243 
  113236   113223   113186   113134   113081   113040   113008   112984 
  112958   112914   112839   112742   112635   112533   112440   112361 
  112328   112355   112440   112564   112712   112880   113047   113193 
  113283   113302   113270   113216   113159   113121   113120   113155 
  113220   113312   113431   113589   113790   114008   114205   114365 
  114493   114586   114655   114725   114818   114951   115126   115334 
  115565   115813   116079   116357   116635   116901   117136   117331 
  117512   117690   117853   118006   118152   118291   118416   118512 
  118567   118604   118628   118643   118660   118686   118717   118751 
  118781   118809   118852   118920   119006   119107   119217   119330 
  119443   119556   119668   119757   119805   119808   119755   119638 
  119480   119314   119159   119017   118886   118773   118683   118613 
  118548   118488   118436   118408   118416   118465   118543   118646 
  118758   118845   118874   118837   118743   118596   118403   118179 
  117950   117740   117540   117339   117146   116966   116793   116614 
  116414   116201   115979   115750   115519   115287   115059   114859 
  114700   114565   114454   114372   114288   114184   114061   113919 
  113768   113620   113486   113373   113274   113169   113046   112887 
  112675   112406   112093   111762   111457   111219   111065   110995 
  111005   111084   111210   111352   111478   111569   111635   111690 
  111740   111794   111856   111939   112051   112171   112279   112372 
  112441   112467   112457   112441   112436   112438   112430   112402 
  112365   112333   112314   112315   112347   112403   112475   112548 
  112617   112675   112723   112756   112764   112747   112719   112683 
  112645   112610   112569   112513   112444   112356   112255   112156 
  112082   112055   112090   112189   112333   112510   112710   112924 
  113138   113320   113463   113578   113682   113787   113904   114038 
  114201   114397   114608   114808   114968   115078   115142   115176 
  115184   115169   115137   115103   115079   115056   115017   114951 
  114867   114764   114631   114459   114246   113987   113676   113332 
  112986   112661   112383   112172   112018   111902   111824   111780 
  111771   111794   111840   111898   111970   112079   112241   112437 
  112648   112868   113090   113298   113489   113657   113800   113921 
  114021   114110   114216   114365   114544   114737   114932   115115 
  115291   115453   115609   115784   115963   116121   116256   116363 
  116426   116442   116434   116410   116363   116301   116228   116154 
  116110   116094   116094   116110   116132   116122   116073   116010 
  115950   115898   115866   115858   115859   115844   115797   115727 
  115654   115600   115584   115616   115700   115824   115967   116116 
  116245   116348   116438   116515   116564   116587   116590   116568 
  116517   116432   116324   116195   116040   115858   115662   115454 
  115237   115017   114799   114586   114384   114205   114069   113987 
  113953   113954   113977   114018   114084   114176   114282   114403 
  114539   114693   114866   115044   115219   115387   115534   115659 
  115767   115851   115905   115928   115911   115855   115766   115649 
  115512   115368   115211   115037   114859   114696   114532   114349 
  114133   113899   113675   113466   113271   113111   112986   112870 
  112760   112666   112583   112500   112426   112374   112349   112361 
  112417   112504   112623   112774   112942   113119   113294   113445 
  113579   113703   113802   113877   113927   113952   113972   113991 
  114003   114010   114003   113976   113931   113856   113737   113567 
  113360   113147   112943   112764   112606   112464   112336   112209 
  112079   111966   111873   111801   111755   111742   111763   111820 
  111904   112002   112105   112224   112372   112556   112777   113036 
  113319   113590   113840   114081   114328   114581   114839   115101 
  115357   115600   115821   116031   116240   116451   116667   116874 
  117066   117231   117355   117439   117487   117494   117475   117435 
  117362   117262   117147   117023   116905   116799   116689   116571 
  116455   116352   116263   116191   116128   116056   115958   115828 
  115676   115500   115296   115048   114752   114419   114069   113718 
  113386   113092   112830   112610   112455   112359   112301   112271 
  112247   112221   112187   112143   112094   112047   112008   111979 
  111933   111877   111829   111792   111775   111789   111828   111893 
  111986   112101   112218   112338   112488   112673   112882   113101 
  113321   113547   113767   113969   114149   114307   114448   114594 
  114750   114912   115084   115252   115392   115501   115580   115626 
  115650   115661   115655   115632   115600   115546   115460   115357 
  115249   115134   115030   114949   114874   114798   114731   114671 
  114625   114593   114573   114561   114534   114482   114423   114354 
  114278   114195   114092   113969   113841   113733   113655   113621 
  113638   113697   113787   113914   114045   114162   114285   114407 
  114509   114588   114637   114658   114669   114685   114701   114714 
  114725   114733   114756   114806   114875   114955   115057   115199 
  115376   115581   115824   116101   116392   116688   116978   117259 
  117521   117753   117956   118111   118215   118280   118308   118316 
  118335   118374   118422   118463   118493   118520   118555   118588 
  118625   118669   118702   118717   118708   118667   118589   118477 
  118336   118158   117926   117653   117355   117019   116641   116267 
  115928   115632   115385   115186   115015   114875   114766   114655 
  114529   114394   114246   114070   113864   113626   113359   113073 
  112770   112460   112164   111892   111647   111424   111204   110982 
  110763   110551   110346   110158   109998   109868   109767   109688 
  109640   109626   109647   109707   109804   109922   110042   110154 
  110251   110334   110390   110417   110415   110389   110365   110355 
  110366   110411   110501   110644   110844   111094   111380   111684 
  111982   112256   112498   112706   112885   113044   113190   113316 
  113413   113487   113548   113605   113670   113737   113791   113827 
  113852   113854   113832   113788   113724   113641   113539   113422 
  113312   113217   113136   113069   113017   112990   112981   112977 
  112972   112970   112982   113023   113082   113150   113225   113313 
  113410   113516   113626   113748   113883   114029   114183   114345 
