Origin Time       2025/01/13 21:19:00
Lat.              31.8
Long.             131.6
Depth. (km)       30
Mag.              6.9
Station Code      KMMH09
Station Lat.      32.4901
Station Long.     130.9046
Station Height(m) 520
Record Time       2025/01/13 21:19:49
Sampling Freq(Hz) 100Hz
Duration Time(s)  167
Dir.              6
Scale Factor      7845(gal)/8223790
Max. Acc. (gal)   13.045
Last Correction   2025/01/13 21:19:49
Memo.             
[...]
     149      797      480     -805    -2458    -3821    -4472    -4050 
   -2798    -1699    -1242     -978     -364      735     1930     2578 
    2544     2191     1823     1740     2311     3392     3990     3103 
     832    -1775    -3993    -5958    -7869    -9481   -10615   -11252 
  -11188   -10295    -8765    -6826    -4405    -1354     1779     3932 
    4727     4941     5724     7033     7281     5344     1879    -1682 
   -4402    -5961    -6158    -5155    -3883    -3269    -3515    -4237 
   -4625    -3800    -1606     1148     3453     4783     5028     4409 
    3310     1641     -581    -2315    -2635    -1861     -878     -371 
    -669    -1524    -2025    -1838    -1729    -1933    -1896    -1455 
   -1019    -1139    -1815    -2539    -2875    -2539    -1764    -1258 
   -1204    -1074     -438      757     2085     2762     2666     2693 
    3666     5148     5481     3709      927    -1210    -1796     -649 
    1255     2674     3469     3773     3489     2519      519    -2272 
   -4932    -7051    -8733   -10156   -11210   -11319   -10165    -7750 
   -4151     -294     2425     3557     3504     2975     2754     3092 
    3634     3997     3878     2967     1219    -1077    -3516    -5795 
   -7632    -8723    -8838    -7771    -5833    -3545    -1120      691 
    1192      592     -765    -2228    -3056    -3299    -3420    -3642 
   -3716    -3388    -2687    -1555     -125     1125     1694     1081 
    -638    -2772    -4924    -6901    -8028    -7770    -6708    -5674 
   -4708    -3765    -2876    -1701      -13     1887     3373     3873 
    3404     2899     3539     5263     6682     6754     5495     3528 
    1571     -249    -2095    -3747    -5020    -6161    -7636    -9331 
  -10251    -9784    -8085    -5634    -3222    -1458     -697     -915 
   -1445    -1849    -2118    -2204    -1930    -1077      202     1377 
    1961     1809     1026     -430    -2543    -4511    -4939    -3200 
    -356     1768     2029      508    -1372    -1715      -12     2446 
    4093     4617     4804     5252     5971     6508     6087     4140 
     841    -2860    -5890    -7480    -7527    -6964    -6562    -6021 
   -5043    -3717    -1903      465     2918     4779     5481     4656 
    2656      600     -742    -1695    -3130    -5448    -8028    -9606 
   -9466    -8070    -6277    -4638    -3496    -3103    -3501    -4037 
   -3429    -1192     1696     4087     5366     5333     4542     3651 
    2451      666    -1366    -3369    -5138    -6093    -6073    -5848 
   -5845    -5594    -5004    -4433    -3866    -3258    -2521    -1209 
     808     2887     4365     5252     5618     5190     3812     1545 
   -1040    -2759    -2956    -2265    -1831    -2191    -3183    -4770 
   -6616    -7306    -5913    -3312     -805     1040     2138     2566 
    2401     1642      229    -1817    -4072    -5649    -5707    -4180 
   -1992     -384       59     -130      -32      464      891     1208 
    1563     1586      969      205       20      434      819      564 
    -606    -2408    -3897    -4135    -2830     -132     3385     6158 
    6544     4850     2968     2065     1980     2084     1618      247 
   -1475    -2655    -2668    -1707     -949    -1317    -2500    -3603 
   -4056    -3823    -3142    -2112     -531     1611     3537     4006 
    2479     -135    -2241    -3265    -4147    -5985    -8699   -11151 
  -12332   -12066   -10648    -8478    -6102    -4108    -2760    -1675 
      18     2786     5910     8025     8395     7284     5327     3134 
    1247     -234    -1771    -3484    -4924    -5979    -6920    -7803 
   -8236    -7631    -6050    -4432    -3450    -2855    -1968     -307 
    1844     3573     4306     4234     3824     3190     2004       27 
   -2415    -4599    -6039    -6783    -6833    -5683    -3137     -182 
    1710     1991     1358      800      761     1251     2061     2837 
    3271     3007     1804     -128    -2432    -4831    -6932    -8176 
   -8010    -6408    -4197    -2425    -1493     -980     -291      477 
     649      211       32      558     1290     1692     1887     2292 
    2849     2901     2043      623     -854    -1911    -2020    -1262 
    -267      600     1151     1140      665      101     -318     -468 
    -295      -41      -74     -383     -545     -297      137      473 
     822     1404     2251     3254     4108     4371     3871     2716 
    1040     -706    -1954    -2655    -2857    -2502    -1972    -1676 
   -1659    -1968    -2466    -2843    -3302    -4290    -5583    -6388 
   -5983    -4004     -762     2567     4758     5397     4556     2405 
    -529    -3514    -5868    -6943    -6519    -5300    -4307    -3846 
   -3500    -2895    -2097    -1574    -1744    -2322    -2443    -1372 
     810     3003     4234     4669     4822     4673     4120     3277 
    2106      425    -1718    -4164    -6797    -9242   -10849   -11358 
  -11024   -10061    -8561    -6687    -4800    -3350    -2501    -1995 
   -1451     -793     -321     -310     -496     -108     1351     3504 
    5447     6338     5722     3831     1614      -75    -1148    -1768 
   -2114    -2700    -3890    -5317    -6242    -6270    -5745    -5321 
   -5232    -5377    -5707    -6076    -6043    -5178    -3559    -1811 
    -706     -751    -1814    -3204    -4232    -4436    -3693    -2405 
   -1360    -1151    -1512    -1497     -623      672     1891     2909 
    3558     3686     3487     3161     2620     1865     1318     1601 
    2893     4490     5371     5198     4271     2824      846    -1738 
   -4712    -7287    -8688    -8949    -8517    -7468    -5825    -3997 
   -2471    -1497     -992     -441      662     2259     3881     4876 
    4749     3889     3088     2434     1584      405     -980    -2307 
   -3450    -4309    -4514    -3778    -2236     -418     1031     1850 
    2293     2731     3121     2943     1900      286    -1440    -2685 
   -2817    -1857     -405      938     1516      896     -591    -2128 
   -3148    -3650    -3952    -4344    -4680    -4437    -3451    -2178 
   -1200     -796     -784     -729     -380      221      922     1503 
    1706     1425      733     -275    -1503    -2740    -3619    -3889 
   -3771    -3847    -4383    -4961    -4927    -4077    -2898    -2092 
   -1844    -1821    -1669    -1297     -918     -837    -1128    -1799 
   -2871    -4106    -5147    -5795    -5908    -5292    -3767    -1378 
    1475     4144     5941     6328     5265     3360     1425       18 
    -681     -923    -1123    -1447    -1864    -2393    -2902    -3082 
   -2928    -2647    -2235    -1692    -1194     -823     -554     -395 
    -342     -463     -880    -1513    -2025    -2147    -2035    -2305 
   -3443    -5112    -6270    -6073    -4671    -2835    -1048      365 
     893      422     -459    -1123    -1393    -1449    -1653    -2093 
   -2220    -1540     -299      926     1776     2066     1640      542 
    -756    -1605    -1686    -1066     -101      591      544     -178 
   -1296    -2556    -3527    -3780    -3346    -2631    -2015    -1626 
   -1435    -1414    -1413    -1058     -189      750     1196     1019 
     284     -913    -2276    -3503    -4492    -5084    -5142    -4899 
   -4615    -4230    -3736    -3318    -3013    -2608    -1879     -885 
      -1      382      162     -514    -1507    -2694    -3811    -4475 
   -4413    -3788    -3171    -2964    -3030    -3057    -2909    -2381 
   -1100     1090     3751     5964     7003     6880     6002     4623 
    2905     1116     -406    -1491    -2281    -3025    -3825    -4669 
   -5386    -5557    -4818    -3316    -1722     -727     -481     -504 
    -222      480     1266     1733     1768     1525     1140      592 
    -105     -734     -994     -808     -427     -225     -369     -729 
   -1036    -1136     -923     -261      783     1822     2474     2641 
    2363     1630      461     -885    -1881    -2178    -2030    -1962 
   -2145    -2257    -2035    -1742    -1840    -2469    -3395    -4145 
   -4247    -3588    -2463    -1219      -82      681      793      178 
   -1074    -2762    -4504    -5938    -6933    -7395    -7094    -6007 
   -4556    -3160    -1822     -403     1082     2486     3576     4290 
    4729     4799     4355     3530     2550     1587      900      594 
     283     -495    -1750    -3102    -4052    -4294    -4029    -3705 
   -3496    -3245    -2674    -1551      121     1966     3385     4017 
    3947     3427     2528     1155     -522    -1884    -2525    -2736 
   -2974    -3433    -4174    -5194    -6346    -7246    -7383    -6559 
   -5036    -3156    -1165      580     1615     1698      980      -93 
    -801     -533      477     1274     1254      488     -849    -2602 
   -4369    -5660    -6343    -6623    -6640    -6358    -5621    -4279 
   -2458     -546     1136     2448     3408     4054     4229     3703 
    2565     1278      282     -319     -708    -1155    -1772    -2342 
   -2559    -2382    -1903    -1100      -66      858     1355     1274 
     658     -256    -1235    -2099    -2678    -3038    -3468    -4052 
   -4537    -4557    -3902    -2678    -1279     -116      661     1161 
    1537     1825     1927     1638      745     -769    -2714    -4795 
   -6658    -7996    -8652    -8600    -7929    -6717    -5022    -3076 
   -1201      391     1532     2146     2428     2606     2554     2002 
    1063       89     -859    -1892    -2932    -3742    -4148    -4209 
   -4108    -3877    -3469    -2976    -2481    -1881    -1102     -261 
     527     1286     1895     1976     1274       24    -1213    -2041 
   -2440    -2617    -2725    -2772    -2677    -2268    -1443     -511 
      91      263       41     -573    -1432    -2249    -2825    -3167 
   -3418    -3612    -3511    -2897    -1923     -938     -159      295 
     449      608      988     1339     1378     1248     1113      845 
     409      -89     -606    -1050    -1516    -2334    -3528    -4827 
   -6083    -7111    -7372    -6393    -4450    -2380     -857      -43 
     311      491      584      641      805     1216     1996     3167 
    4482     5595     6280     6390     5768     4384     2467      415 
   -1406    -2979    -4467    -5718    -6353    -6273    -5753    -5031 
   -4170    -3330    -2651    -2035    -1408     -897     -579     -371 
    -367     -757    -1474    -2288    -3026    -3665    -4303    -4984 
   -5557    -5692    -4978    -3287    -1093      908     2370     3234 
    3523     3411     3225     3137     2911     2188      920     -602 
   -1981    -2918    -3240    -2951    -2415    -2218    -2675    -3581 
   -4356    -4554    -4131    -3323    -2562    -2093    -1706    -1192 
    -666     -291      -36      271      687     1007     1135     1204 
    1213      993      572      151     -210     -564     -899    -1275 
   -1740    -2101    -2087    -1474      -71     2018     4160     5575 
    6023     5810     5271     4482     3281     1557     -631    -3233 
   -6118    -8900   -10978   -11770   -11145    -9609    -7893    -6349 
   -4858    -3245    -1541      149     1745     3102     4017     4446 
    4494     4054     2870      990    -1198    -3267    -4969    -6305 
   -7425    -8424    -9211    -9707    -9906    -9605    -8572    -6917 
   -5055    -3353    -1873     -496      861     2205     3500     4681 
    5722     6631     7389     7898     7982     7542     6505     4618 
    1660    -2111    -6002    -9348   -11696   -12702   -12537   -11913 
  -11152   -10130    -8892    -7419    -5678    -4027    -2694    -1479 
    -197     1105     2104     2342     1750      781     -171    -1139 
   -2231    -3352    -4367    -5170    -5502    -4963    -3441    -1375 
     589     2143     3330     4205     4762     5090     5378     5769 
    6162     6151     5366     3780     1615     -851    -3311    -5425 
   -6936    -7788    -8170    -8359    -8471    -8374    -7817    -6763 
   -5397    -3731    -1772      175     1883     3368     4695     5938 
    6974     7553     7807     8105     8571     9170     9796    10268 
   10446    10119     9219     8110     6980     5493     3515     1304 
   -1084    -3592    -5782    -7334    -8237    -8441    -8190    -7828 
   -7059    -5859    -4870    -4121    -3315    -2632    -2145    -1590 
    -680      648     2214     3869     5493     6781     7279     6713 
    5273     3283      862    -1872    -4606    -6971    -8665    -9463 
   -9329    -8451    -7150    -5772    -4452    -3237    -2417    -2234 
   -2593    -3393    -4653    -6215    -7653    -8449    -8232    -7007 
   -5221    -3443    -2002     -938     -240      -54     -529    -1458 
   -2238    -2390    -2042    -1624    -1267     -892     -560     -267 
     257     1104     1917     2394     2515     2326     2020     1714 
    1302      858      433     -202    -1258    -2767    -4537    -6185 
   -7470    -8405    -9198   -10172   -11376   -12507   -13194   -13066 
  -11967   -10042    -7543    -4796    -2162       44     1590     2489 
    3076     3684     4334     4808     4916     4662     4147     3423 
    2562     1756     1301     1264     1441     1717     2081     2478 
    2836     2903     2351     1328      406      -55      -85       20 
     -17     -179     -379     -670    -1233    -2382    -4193    -6122 
   -7570    -8441    -8911    -9274    -9825   -10554   -11114   -11048 
  -10037    -7974    -5043    -1684     1750     5143     8356    10997 
   12436    12297    10868     8760     6347     3717      823    -2242 
   -5024    -6968    -7875    -7916    -7284    -6172    -4930    -3842 
   -2990    -2442    -2207    -2081    -1906    -1748    -1602    -1363 
   -1136    -1165    -1660    -2655    -3819    -4565    -4518    -3807 
   -2893    -2084    -1339     -500      411     1217     1829     2227 
    2454     2651     2833     2921     2945     2910     2714     2263 
    1644     1161     1009     1105     1186      943      272     -646 
   -1609    -2469    -3245    -4140    -5151    -5984    -6403    -6361 
   -5876    -5011    -3932    -2864    -1987    -1306     -710     -106 
     618     1466     2277     2991     3522     3519     2749     1420 
     -99    -1532    -2662    -3368    -3619    -3365    -2586    -1467 
    -403      288      584      673      756      869      845      542 
      75     -409     -961    -1603    -2174    -2650    -3172    -3663 
   -3944    -4021    -3844    -3314    -2650    -2339    -2728    -3640 
   -4500    -4808    -4279    -2870     -842     1401     3400     4633 
    4847     4275     3350     2334     1267      291     -317     -479 
    -446     -562     -916    -1416    -2045    -2798    -3558    -4112 
   -4232    -3834    -2979    -1818     -603      361      859      845 
     490      -17     -765    -1948    -3503    -5015    -6057    -6593 
   -6810    -6886    -7060    -7389    -7526    -7103    -6103    -4768 
   -3395    -2166    -1015      124     1107     1902     2625     3144 
    3076     2207      760     -903    -2559    -3993    -4986    -5530 
   -5736    -5575    -5026    -4217    -3321    -2342    -1177      149 
    1476     2718     3856     4866     5672     6064     5915     5331 
    4357     2886      957    -1035    -2749    -4171    -5221    -5794 
   -5992    -5880    -5508    -4982    -4368    -3688    -2953    -2270 
   -1777    -1383     -913     -480     -399     -787    -1429    -2007 
   -2231    -1926    -1147     -140      835     1651     2263     2639 
    2836     2998     3122     3011     2424     1197     -546    -2369 
   -3812    -4615    -4696    -4164    -3350    -2660    -2251    -1939 
   -1578    -1282    -1233    -1499    -1977    -2388    -2493    -2284 
   -1831    -1189     -494       66      392      422       97     -452 
    -981    -1402    -1723    -1957    -2095    -1964    -1345     -288 
     936     2038     2778     3111     3177     3083     2837     2434 
    1918     1337      607     -382    -1575    -2752    -3651    -4014 
   -3697    -2902    -2104    -1518     -881       60     1221     2265 
    2867     2960     2725     2268     1526      535     -395     -936 
   -1054    -1009    -1132    -1429    -1576    -1480    -1312    -1144 
    -966     -773     -611     -625    -1036    -1934    -3100    -4205 
   -5046    -5580    -5819    -5764    -5516    -5289    -5152    -4958 
   -4475    -3578    -2376    -1127      -16      870     1437     1590 
    1316      684     -299    -1719    -3531    -5414    -6920    -7812 
   -8056    -7647    -6709    -5435    -3942    -2392     -981      195 
    1100     1733     2134     2331     2398     2505     2695     2770 
    2546     1983     1138      101    -1084    -2285    -3110    -3107 
   -2193     -864      338     1324     2166     2797     3146     3233 
    3132     2948     2776     2639     2451     2134     1622      834 
    -147    -1051    -1756    -2440    -3326    -4321    -5078    -5389 
   -5335    -5103    -4826    -4515    -4193    -3967    -3711    -3072 
   -2042    -1124     -819    -1102    -1520    -1701    -1591    -1277 
    -900     -664     -700    -1008    -1435    -1732    -1742    -1507 
   -1220    -1082    -1166    -1416    -1719    -1937    -1935    -1786 
   -1738    -1887    -2073    -2216    -2385    -2566    -2552    -2235 
   -1818    -1495    -1275    -1189    -1251    -1417    -1759    -2284 
   -2841    -3249    -3384    -3284    -3044    -2652    -2066    -1232 
    -221      733     1545     2266     2712     2552     1679      344 
    -988    -2045    -2903    -3662    -4179    -4218    -3689    -2741 
   -1626     -437      846     2191     3369     4048     4074     3515 
    2567     1456      265     -955    -2070    -3014    -3792    -4293 
   -4402    -4183    -3732    -3061    -2184    -1182     -210      535 
     899      824      344     -487    -1645    -3109    -4707    -6073 
   -6876    -6945    -6285    -5150    -3897    -2714    -1680     -912 
    -363      191      873     1582     2069     2127     1763     1088 
     178     -919    -2110    -3208    -4004    -4363    -4263    -3747 
   -2929    -1969    -1080     -517     -376     -463     -587     -738 
    -886     -891     -656     -195      388      940     1325     1379 
     999      413       37       48      319      592      588      183 
    -514    -1302    -2061    -2797    -3539    -4230    -4797    -5179 
   -5263    -4980    -4367    -3499    -2529    -1694    -1169    -1047 
   -1355    -1991    -2687    -3125    -3179    -2998    -2851    -2840 
   -2809    -2625    -2369    -2103    -1783    -1424     -993     -419 
     186      658      976     1170     1240     1171      932      507 
    -101     -846    -1553    -1995    -2083    -1906    -1652    -1476 
   -1409    -1395    -1389    -1356    -1228     -864     -209      575 
    1291     1865     2288     2496     2347     1821     1105      423 
     -89     -445     -796    -1215    -1556    -1613    -1279     -643 
      86      722     1092     1109      905      654      352      -12 
    -333     -639    -1108    -1763    -2419    -2948    -3387    -3739 
   -3970    -4147    -4305    -4251    -3778    -2943    -1969    -1050 
    -338      108      378      541      584      483      240      -83 
    -361     -545     -724    -1042    -1576    -2232    -2735    -2878 
