Origin Time       2025/01/13 21:19:00
Lat.              31.8
Long.             131.6
Depth. (km)       30
Mag.              6.9
Station Code      KMMH16
Station Lat.      32.7967
Station Long.     130.8199
Station Height(m) 55
Record Time       2025/01/13 21:19:54
Sampling Freq(Hz) 100Hz
Duration Time(s)  213
Dir.              6
Scale Factor      7845(gal)/8223790
Max. Acc. (gal)   11.013
Last Correction   2025/01/13 21:19:54
Memo.             
[...]
   -5877    -5876    -5875    -5876    -5865    -5842    -5829    -5841 
   -5865    -5877    -5863    -5846    -5848    -5849    -5842    -5840 
   -5849    -5861    -5867    -5869    -5869    -5863    -5852    -5850 
   -5857    -5863    -5863    -5860    -5852    -5840    -5836    -5846 
   -5867    -5883    -5886    -5872    -5853    -5841    -5830    -5823 
   -5829    -5846    -5864    -5875    -5873    -5872    -5875    -5871 
   -5861    -5856    -5854    -5852    -5852    -5853    -5842    -5842 
   -5857    -5860    -5846    -5841    -5850    -5868    -5886    -5883 
   -5856    -5830    -5834    -5850    -5861    -5865    -5868    -5872 
   -5871    -5867    -5853    -5836    -5827    -5830    -5844    -5865 
   -5875    -5871    -5868    -5859    -5848    -5850    -5860    -5864 
   -5859    -5845    -5840    -5850    -5865    -5867    -5853    -5853 
   -5867    -5869    -5854    -5845    -5854    -5860    -5854    -5854 
   -5859    -5861    -5865    -5869    -5865    -5853    -5845    -5846 
   -5857    -5856    -5842    -5838    -5849    -5860    -5861    -5860 
   -5868    -5884    -5880    -5853    -5832    -5830    -5844    -5856 
   -5856    -5857    -5869    -5875    -5867    -5856    -5856    -5863 
   -5864    -5863    -5856    -5841    -5836    -5849    -5860    -5860 
   -5857    -5857    -5864    -5871    -5864    -5850    -5841    -5834 
   -5842    -5861    -5867    -5871    -5881    -5877    -5856    -5842 
   -5837    -5834    -5846    -5865    -5868    -5856    -5854    -5860 
   -5860    -5860    -5861    -5854    -5850    -5846    -5837    -5838 
   -5853    -5868    -5875    -5873    -5871    -5865    -5854    -5841 
   -5838    -5846    -5854    -5863    -5864    -5856    -5849    -5853 
   -5859    -5861    -5864    -5864    -5856    -5849    -5849    -5848 
   -5844    -5845    -5857    -5869    -5876    -5877    -5875    -5871 
   -5861    -5854    -5853    -5848    -5837    -5827    -5827    -5845 
   -5875    -5891    -5881    -5857    -5838    -5832    -5837    -5854 
   -5868    -5871    -5876    -5873    -5861    -5853    -5852    -5853 
   -5853    -5844    -5837    -5848    -5859    -5859    -5861    -5863 
   -5861    -5857    -5848    -5845    -5853    -5860    -5861    -5868 
   -5867    -5850    -5852    -5868    -5869    -5867    -5868    -5863 
   -5857    -5860    -5857    -5845    -5841    -5846    -5854    -5867 
   -5876    -5875    -5868    -5863    -5865    -5872    -5871    -5867 
   -5860    -5842    -5821    -5814    -5813    -5817    -5832    -5845 
   -5848    -5853    -5865    -5879    -5892    -5904    -5914    -5925 
   -5929    -5918    -5903    -5879    -5845    -5823    -5810    -5791 
   -5769    -5751    -5744    -5751    -5763    -5780    -5807    -5840 
   -5869    -5891    -5907    -5907    -5888    -5872    -5867    -5865 
   -5875    -5895    -5904    -5898    -5879    -5863    -5854    -5842 
   -5822    -5807    -5810    -5826    -5846    -5872    -5902    -5922 
   -5927    -5913    -5890    -5879    -5880    -5891    -5911    -5942 
   -5981    -6021    -6050    -6039    -5973    -5879    -5803    -5764 
   -5745    -5741    -5738    -5711    -5678    -5674    -5725    -5823 
   -5944    -6072    -6203    -6332    -6458    -6552    -6575    -6511 
   -6378    -6226    -6097    -6003    -5927    -5864    -5799    -5719 
   -5643    -5599    -5602    -5661    -5783    -5962    -6166    -6326 
   -6367    -6270    -6070    -5865    -5757    -5764    -5813    -5819 
   -5745    -5605    -5452    -5341    -5290    -5292    -5351    -5441 
   -5539    -5614    -5624    -5555    -5455    -5398    -5433    -5562 
   -5749    -5923    -6037    -6099    -6139    -6170    -6180    -6124 
   -5981    -5782    -5563    -5344    -5162    -5071    -5084    -5186 
   -5354    -5545    -5733    -5913    -6080    -6219    -6312    -6330 
   -6246    -6073    -5865    -5683    -5560    -5485    -5412    -5312 
   -5192    -5101    -5142    -5408    -5898    -6497    -7041    -7393 
   -7492    -7376    -7137    -6851    -6523    -6124    -5682    -5309 
   -5113    -5134    -5344    -5637    -5895    -6045    -6066    -5991 
   -5869    -5783    -5842    -6099    -6473    -6754    -6733    -6376 
   -5842    -5370    -5134    -5178    -5459    -5886    -6358    -6801 
   -7145    -7294    -7176    -6818    -6320    -5769    -5198    -4627 
   -4198    -4128    -4530    -5329    -6284    -7090    -7515    -7499 
   -7142    -6623    -6076    -5566    -5154    -4934    -4977    -5258 
   -5651    -5992    -6142    -6010    -5574    -4931    -4297    -3898 
   -3902    -4338    -5063    -5829    -6388    -6619    -6573    -6399 
   -6219    -6106    -6081    -6156    -6326    -6586    -6926    -7290 
   -7572    -7653    -7403    -6736    -5675    -4403    -3233    -2485 
   -2336    -2741    -3496    -4356    -5109    -5671    -6100    -6478 
   -6839    -7206    -7574    -7901    -8128    -8232    -8228    -8118 
   -7861    -7371    -6585    -5567    -4490    -3555    -2933    -2745 
   -3056    -3840    -4957    -6143    -7075    -7499    -7346    -6762 
   -6034    -5451    -5162    -5165    -5348    -5572    -5759    -5881 
   -5899    -5779    -5520    -5125    -4606    -4028    -3554    -3393 
   -3694    -4469    -5589    -6817    -7836    -8398    -8460    -8141 
   -7585    -6918    -6277    -5782    -5505    -5456    -5590    -5811 
   -6010    -6110    -6088    -5967    -5768    -5529    -5321    -5215 
   -5244    -5427    -5744    -6099    -6307    -6197    -5759    -5157 
   -4626    -4392    -4557    -5046    -5690    -6380    -7098    -7807 
   -8372    -8625    -8471    -7989    -7364    -6763    -6286    -5933 
   -5636    -5360    -5117    -4922    -4729    -4452    -4072    -3704 
   -3518    -3650    -4108    -4784    -5583    -6492    -7487    -8433 
   -9061    -9084    -8411    -7236    -5937    -4893    -4257    -3940 
   -3774    -3646    -3526    -3478    -3584    -3832    -4144    -4429 
   -4634    -4779    -4958    -5347    -6116    -7275    -8627    -9909 
  -10905   -11457   -11461   -10886    -9801    -8410    -7018    -5884 
   -5100    -4583    -4136    -3553    -2708    -1647     -546      409 
    1086     1371     1125      236    -1296    -3303    -5547    -7857 
  -10131   -12275   -14115   -15330   -15512   -14438   -12298    -9597 
   -6882    -4542    -2785    -1711    -1345    -1595    -2280    -3181 
   -4098    -4926    -5665    -6322    -6878    -7349    -7832    -8467 
   -9285   -10061   -10393    -9952    -8704    -6905    -5005    -3492 
   -2602    -2241    -2181    -2308    -2608    -3052    -3638    -4441 
   -5497    -6708    -7890    -8851    -9512    -9891   -10046   -10007 
   -9690    -8939    -7646    -5906    -4072    -2581    -1701    -1431 
   -1549    -1818    -2141    -2579    -3249    -4168    -5266    -6494 
   -7862    -9293   -10530   -11223   -11113   -10166    -8579    -6602 
   -4452    -2369     -596      684     1329     1306      715     -324 
   -1790    -3748    -6165    -8783   -11176   -12927   -13809   -13830 
  -13151   -11969   -10405    -8537    -6544    -4750    -3404    -2484 
   -1776    -1156     -702     -606    -1017    -1925    -3160    -4526 
   -5923    -7314    -8541    -9359    -9648    -9487    -9047    -8464 
   -7742    -6814    -5691    -4537    -3642    -3281    -3534    -4216 
   -5030    -5755    -6342    -6831    -7192    -7337    -7265    -7096 
   -6921    -6760    -6646    -6571    -6463    -6300    -6172    -6181 
   -6369    -6712    -7160    -7662    -8101    -8236    -7843    -6934 
   -5803    -4810    -4189    -3969    -3951    -3850    -3477    -2887 
   -2339    -2103    -2313    -2975    -3959    -5078    -6181    -7109 
   -7643    -7585    -6914    -5894    -4916    -4261    -4047    -4244 
   -4679    -5170    -5676    -6257    -6971    -7753    -8359    -8526 
   -8154    -7345    -6297    -5177    -4082    -3078    -2211    -1544 
   -1162    -1113    -1350    -1764    -2327    -3141    -4310    -5840 
   -7605    -9360   -10825   -11830   -12326   -12307   -11713   -10459 
   -8573    -6373    -4403    -3087    -2450    -2201    -2046    -1911 
   -1938    -2297    -3032    -4021    -5050    -6010    -7040    -8345 
   -9892   -11361   -12375   -12721   -12361   -11349    -9810    -7925 
   -5900    -3882    -2012     -523      356      554      124     -877 
   -2446    -4527    -6901    -9189   -10970   -11909   -11909   -11164 
   -9994    -8673    -7425    -6362    -5471    -4753    -4241    -3902 
   -3639    -3368    -3100    -2932    -3001    -3465    -4380    -5636 
   -7015    -8264    -9220    -9826   -10004    -9713    -9072    -8299 
   -7564    -6879    -6174    -5404    -4554    -3630    -2725    -2052 
   -1795    -1922    -2227    -2523    -2755    -3030    -3501    -4224 
   -5116    -5999    -6673    -7021    -7017    -6756    -6461    -6335 
   -6434    -6694    -6926    -6851    -6268    -5200    -3908    -2739 
   -1949    -1668    -1980    -2899    -4293    -5900    -7458    -8779 
   -9698   -10107   -10052    -9674    -9089    -8341    -7435    -6427 
   -5463    -4752    -4413    -4388    -4531    -4742    -5031    -5468 
   -6048    -6610    -6940    -6922    -6655    -6380    -6273    -6355 
   -6527    -6625    -6516    -6180    -5671    -5120    -4743    -4673 
   -4909    -5436    -6185    -6978    -7632    -8050    -8182    -8046 
   -7742    -7342    -6812    -6079    -5123    -4048    -3115    -2648 
   -2841    -3673    -4949    -6351    -7543    -8324    -8684    -8676 
   -8325    -7697    -6941    -6272    -5818    -5547    -5364    -5196 
   -4973    -4680    -4353    -4013    -3651    -3383    -3472    -4137 
   -5398    -6999    -8453    -9269    -9228    -8494    -7445    -6403 
   -5459    -4506    -3442    -2380    -1559    -1167    -1274    -1871 
   -2916    -4342    -5976    -7489    -8533    -8932    -8750    -8167 
   -7383    -6602    -5945    -5410    -4986    -4684    -4487    -4353 
   -4276    -4342    -4660    -5242    -6026    -6917    -7801    -8545 
   -9011    -9080    -8707    -7942    -6928    -5806    -4653    -3538 
   -2612    -2100    -2204    -2971    -4270    -5819    -7272    -8368 
   -9020    -9263    -9177    -8861    -8442    -8079    -7904    -7948 
   -8112    -8183    -7975    -7423    -6593    -5692    -4976    -4569 
   -4446    -4583    -4981    -5552    -6087    -6384    -6351    -6029 
   -5543    -5054    -4727    -4649    -4738    -4824    -4796    -4584 
   -4125    -3433    -2660    -2042    -1707    -1555    -1404    -1225 
   -1163    -1480    -2454    -4160    -6376    -8726   -10868   -12536 
  -13567   -13906   -13525   -12405   -10631    -8486    -6376    -4585 
   -3168    -2093    -1379    -1062    -1147    -1529    -1985    -2334 
   -2660    -3268    -4395    -6011    -7820    -9400   -10446   -10910 
  -10887   -10527   -10025    -9506    -8946    -8278    -7503    -6674 
   -5853    -5096    -4473    -4060    -3798    -3503    -3078    -2625 
   -2286    -2127    -2220    -2667    -3477    -4596    -5989    -7589 
   -9220   -10601   -11456   -11658   -11188   -10007    -8183    -6061 
   -4114    -2617    -1548     -706       59      664      858      422 
    -726    -2477    -4536    -6578    -8457   -10176   -11637   -12573 
  -12783   -12325   -11433   -10295    -9050    -7790    -6485    -5082 
   -3636    -2282    -1177     -453     -187     -415    -1138    -2301 
   -3682    -4946    -5913    -6593    -7161    -7913    -9003   -10268 
  -11341   -11888   -11769   -11071    -9999    -8673    -7078    -5225 
   -3257    -1418      -29      631      460     -417    -1686    -3001 
   -4152    -5111    -5991    -6921    -7952    -9038    -9925   -10245 
   -9841    -8905    -7797    -6835    -6185    -5860    -5772    -5764 
   -5680    -5475    -5179    -4864    -4614    -4463    -4355    -4243 
   -4137    -4066    -4047    -4104    -4221    -4374    -4553    -4796 
   -5202    -5895    -6930    -8247    -9599   -10627   -11097   -10947 
  -10180    -8883    -7245    -5497    -3834    -2373    -1206     -422 
     -78     -222     -892    -1999    -3302    -4495    -5362    -5937 
   -6470    -7177    -8039    -8807    -9239    -9352    -9385    -9499 
   -9620    -9489    -8829    -7576    -5999    -4548    -3586    -3184 
   -3191    -3495    -4087    -4915    -5773    -6411    -6747    -6903 
   -7056    -7379    -7979    -8766    -9498    -9971   -10084    -9782 
   -9031    -7873    -6453    -4977    -3630    -2519    -1711    -1333 
   -1534    -2301    -3424    -4600    -5537    -6057    -6161    -5998 
   -5725    -5394    -5057    -4868    -4992    -5408    -5832    -5910 
   -5494    -4750    -4093    -3944    -4409    -5225    -6043    -6693 
   -7267    -7888    -8483    -8861    -8869    -8467    -7703    -6642 
   -5350    -3927    -2578    -1638    -1413    -1923    -2802    -3505 
   -3731    -3645    -3736    -4428    -5756    -7406    -8961   -10166 
  -10999   -11539   -11781   -11599   -10868    -9547    -7677    -5452 
   -3225    -1453     -584     -808    -1941    -3541    -5080    -6130 
   -6532    -6424    -6080    -5788    -5722    -5880    -6147    -6385 
   -6534    -6660    -6822    -6955    -6916    -6640    -6176    -5545 
   -4803    -4216    -4136    -4716    -5834    -7188    -8473    -9458 
   -9956    -9848    -9158    -8013    -6552    -4934    -3366    -2065 
   -1150     -596     -398     -629    -1318    -2428    -3960    -5919 
   -8117   -10125   -11520   -12148   -12121   -11655   -10898    -9910 
   -8675    -7092    -5031    -2484      340     3015     4974     5688 
    4893     2609     -827    -4765    -8461   -11379   -13270   -14108 
  -14015   -13254   -12171   -10989    -9714    -8349    -7017    -5845 
   -4851    -4063    -3573    -3372    -3341    -3362    -3321    -3063 
   -2540    -2003    -1941    -2691    -4120    -5729    -6999    -7597 
   -7434    -6674    -5606    -4519    -3646    -3188    -3303    -3963 
   -4855    -5518    -5601    -5069    -4287    -3882    -4337    -5668 
   -7514    -9450   -11155   -12413   -13093   -13150   -12712   -12101 
  -11546   -10859    -9544    -7277    -4295    -1296      974     2039 
    1749      271    -1841    -3852    -5320    -6251    -6840    -7214 
   -7452    -7681    -7973    -8267    -8395    -8141    -7399    -6299 
   -5124    -4153    -3570    -3429    -3693    -4256    -4888    -5316 
   -5447    -5410    -5406    -5579    -5972    -6484    -6859    -6718 
   -5790    -4207    -2548    -1518    -1556    -2647    -4368    -6118 
   -7387    -7908    -7736    -7177    -6647    -6544    -7052    -7927 
   -8654    -8865    -8523    -7754    -6686    -5449    -4116    -2666 
   -1150      198     1093     1323      720     -819    -3217    -6089 
   -8853   -11001   -12264   -12656   -12410   -11759   -10701    -9070 
   -6817    -4251    -2006     -621     -232     -696    -1771    -3134 
   -4476    -5671    -6843    -8140    -9491   -10690   -11610   -12167 
  -12172   -11402    -9848    -7766    -5549    -3597    -2106    -1082 
    -517     -386     -604    -1115    -1953    -3213    -4965    -7179 
   -9651   -12008   -13790   -14600   -14311   -13090   -11223    -9076 
   -7069    -5424    -4033    -2759    -1726    -1229    -1383    -2012 
   -2872    -3823    -4777    -5675    -6502    -7236    -7758    -7920 
   -7641    -6957    -5987    -4874    -3746    -2736    -1996    -1551 
   -1220     -846     -608    -1001    -2440    -4860    -7736   -10439 
  -12441   -13355   -12970   -11375    -8968    -6342    -4116    -2670 
   -1987    -1849    -2101    -2729    -3856    -5533    -7506    -9366 
  -10797   -11665   -11988   -11839   -11195    -9965    -8233    -6313 
   -4525    -2980    -1665     -533      413      986      911      103 
   -1258    -2929    -4793    -6810    -8775   -10350   -11399   -12098 
  -12669   -13136   -13379   -13220   -12510   -11257    -9676    -8013 
   -6415    -5007    -3978    -3407    -3099    -2775    -2268    -1522 
    -637       60      109     -727    -2230    -3975    -5636    -7060 
   -8209    -8973    -9182    -8870    -8334    -7924    -7843    -8071 
   -8441    -8737    -8739    -8240    -7159    -5644    -3989    -2502 
   -1440     -939     -988    -1490    -2336    -3389    -4456    -5320 
   -5728    -5454    -4517    -3165    -1713     -488      218      238 
    -500    -1985    -4051    -6396    -8626   -10273   -11003   -10887 
  -10288    -9536    -8795    -8114    -7541    -7069    -6592    -6079 
   -5645    -5331    -5020    -4684    -4525    -4838    -5732    -7067 
   -8617   -10147   -11358   -11974   -11954   -11457   -10581    -9332 
   -7803    -6196    -4664    -3316    -2365    -2034    -2369    -3217 
   -4301    -5301    -5979    -6242    -6146    -5973    -6116    -6683 
   -7422    -7960    -7987    -7342    -6141    -4823    -3877    -3472 
   -3493    -3863    -4630    -5852    -7379    -8762    -9582    -9801 
   -9636    -9177    -8293    -6893    -5147    -3400    -2002    -1197 
   -1040    -1285    -1583    -1864    -2258    -2759    -3160    -3304 
   -3323    -3624    -4603    -6274    -8154    -9591   -10233   -10075 
   -9294    -8110    -6737    -5402    -4295    -3532    -3168    -3123 
   -3191    -3289    -3649    -4491    -5664    -6785    -7547    -7765 
   -7458    -6963    -6743    -7056    -7817    -8714    -9355    -9331 
   -8336    -6345    -3730    -1236      352      719      106    -1065 
   -2533    -4263    -6255    -8417   -10613   -12656   -14196   -14835 
  -14370   -12964   -10890    -8351    -5567    -2833     -433     1366 
    2289     2166      999    -1088    -3863    -6979    -9991   -12429 
  -13959   -14482   -14068   -12881   -11213    -9369    -7466    -5524 
   -3608    -1884     -611       -2     -113     -880    -2205    -3952 
   -5875    -7669    -9134   -10183   -10812   -11064   -10886   -10157 
   -8885    -7223    -5370    -3568    -2106    -1229    -1043    -1485 
   -2458    -3888    -5609    -7334    -8745    -9606    -9838    -9491 
   -8698    -7672    -6670    -5906    -5409    -5020    -4594    -4122 
   -3732    -3611    -3840    -4392    -5290    -6496    -7727    -8642 
   -9097    -9139    -8918    -8668    -8546    -8467    -8213    -7686 
   -6988    -6289    -5718    -5356    -5235    -5319    -5525    -5737 
   -5891    -6004    -6065    -5999    -5786    -5476    -5081    -4610 
   -4251    -4239    -4550    -4884    -4873    -4367    -3559    -2876 
   -2760    -3469    -4919    -6705    -8299    -9290    -9567    -9297 
   -8768    -8197    -7635    -7037    -6366    -5574    -4637    -3636 
   -2751    -2181    -2035    -2232    -2582    -2952    -3339    -3894 
   -4735    -5715    -6608    -7344    -7861    -8055    -8017    -7998 
   -8124    -8272    -8244    -7965    -7464    -6808    -6120    -5537 
   -5058    -4634    -4282    -4000    -3736    -3461    -3235    -3179 
   -3302    -3512    -3766    -4044    -4280    -4442    -4634    -4995 
   -5505    -6029    -6461    -6718    -6725    -6440    -5896    -5270 
   -4800    -4590    -4557    -4510    -4284    -3834    -3208    -2542 
   -2014    -1844    -2130    -2727    -3451    -4317    -5394    -6613 
   -7819    -8950    -9977   -10787   -11275   -11368   -10952    -9992 
   -8680    -7349    -6165    -4999    -3626    -2020     -419      842 
    1537     1603     1102      171    -1086    -2628    -4338    -6004 
