Origin Time       2025/01/13 21:19:00
Lat.              31.8
Long.             131.6
Depth. (km)       30
Mag.              6.9
Station Code      KMMH17
Station Lat.      32.9873
Station Long.     130.5608
Station Height(m) -45
Record Time       2025/01/13 21:19:58
Sampling Freq(Hz) 100Hz
Duration Time(s)  167
Dir.              3
Scale Factor      3923(gal)/8224838
Max. Acc. (gal)   2.474
Last Correction   2025/01/13 21:19:59
Memo.             
[...]
  -17082   -17147   -17235   -17312   -17381   -17446   -17490   -17506 
  -17498   -17458   -17374   -17258   -17124   -16972   -16787   -16563 
  -16313   -16058   -15799   -15535   -15277   -15057   -14895   -14789 
  -14754   -14821   -14976   -15179   -15427   -15722   -16013   -16279 
  -16497   -16642   -16729   -16767   -16750   -16688   -16576   -16445 
  -16351   -16299   -16271   -16266   -16274   -16267   -16213   -16110 
  -15985   -15869   -15784   -15735   -15718   -15736   -15801   -15900 
  -16015   -16140   -16276   -16422   -16559   -16668   -16758   -16861 
  -16974   -17076   -17155   -17197   -17196   -17167   -17122   -17057 
  -16987   -16919   -16845   -16760   -16695   -16669   -16650   -16633 
  -16633   -16638   -16640   -16654   -16699   -16779   -16895   -17028 
  -17150   -17258   -17378   -17506   -17599   -17635   -17629   -17610 
  -17586   -17554   -17516   -17482   -17454   -17444   -17469   -17501 
  -17504   -17482   -17448   -17389   -17300   -17211   -17136   -17072 
  -17023   -16973   -16911   -16864   -16864   -16908   -16964   -17008 
  -17051   -17092   -17104   -17061   -16961   -16835   -16711   -16607 
  -16529   -16459   -16394   -16348   -16322   -16308   -16298   -16290 
  -16271   -16232   -16191   -16175   -16182   -16193   -16205   -16228 
  -16256   -16272   -16298   -16345   -16390   -16411   -16401   -16353 
  -16281   -16201   -16117   -16029   -15950   -15882   -15809   -15738 
  -15693   -15681   -15681   -15682   -15676   -15661   -15658   -15682 
  -15734   -15815   -15925   -16059   -16181   -16262   -16316   -16360 
  -16397   -16437   -16486   -16536   -16595   -16668   -16731   -16768 
  -16784   -16777   -16752   -16713   -16646   -16555   -16471   -16406 
  -16344   -16283   -16228   -16170   -16120   -16090   -16079   -16078 
  -16075   -16063   -16043   -16013   -15978   -15950   -15921   -15892 
  -15886   -15924   -15990   -16085   -16217   -16378   -16544   -16695 
  -16819   -16911   -16978   -17032   -17085   -17131   -17154   -17167 
  -17182   -17178   -17130   -17041   -16933   -16819   -16713   -16615 
  -16519   -16437   -16386   -16366   -16347   -16313   -16267   -16214 
  -16168   -16121   -16038   -15923   -15813   -15714   -15614   -15526 
  -15445   -15369   -15311   -15276   -15283   -15325   -15376   -15431 
  -15487   -15526   -15539   -15530   -15504   -15458   -15388   -15315 
  -15267   -15257   -15288   -15350   -15439   -15556   -15693   -15835 
  -15957   -16054   -16120   -16155   -16185   -16208   -16204   -16179 
  -16163   -16166   -16186   -16217   -16247   -16266   -16285   -16318 
  -16355   -16395   -16461   -16556   -16656   -16750   -16833   -16892 
  -16931   -16958   -16964   -16950   -16933   -16914   -16893   -16891 
  -16916   -16956   -16991   -17022   -17049   -17065   -17085   -17115 
  -17142   -17159   -17189   -17244   -17313   -17401   -17535   -17703 
  -17875   -18052   -18227   -18378   -18501   -18586   -18617   -18590 
  -18511   -18374   -18180   -17940   -17663   -17377   -17116   -16888 
  -16690   -16526   -16410   -16339   -16303   -16291   -16295   -16308 
  -16320   -16320   -16297   -16245   -16171   -16096   -16021   -15947 
  -15893   -15876   -15877   -15886   -15913   -15969   -16056   -16155 
  -16247   -16351   -16480   -16603   -16690   -16740   -16772   -16803 
  -16839   -16881   -16919   -16949   -16977   -17014   -17051   -17069 
  -17066   -17051   -17038   -17039   -17055   -17070   -17076   -17085 
  -17105   -17118   -17111   -17093   -17057   -17003   -16969   -16965 
  -16961   -16960   -16983   -17011   -17023   -17023   -17005   -16966 
  -16902   -16810   -16702   -16582   -16449   -16309   -16151   -15966 
  -15761   -15542   -15310   -15087   -14891   -14719   -14570   -14459 
  -14388   -14366   -14401   -14472   -14569   -14704   -14863   -15030 
  -15196   -15346   -15479   -15599   -15701   -15792   -15885   -15979 
  -16059   -16121   -16170   -16205   -16231   -16259   -16276   -16260 
  -16221   -16191   -16171   -16136   -16094   -16065   -16055   -16062 
  -16078   -16104   -16146   -16205   -16270   -16336   -16403   -16486 
  -16613   -16777   -16956   -17140   -17313   -17463   -17601   -17718 
  -17797   -17840   -17863   -17865   -17857   -17851   -17847   -17838 
  -17817   -17783   -17739   -17682   -17612   -17531   -17439   -17332 
  -17211   -17080   -16950   -16827   -16708   -16596   -16505   -16420 
  -16324   -16220   -16116   -16008   -15898   -15789   -15703   -15653 
  -15638   -15658   -15720   -15830   -15984   -16178   -16403   -16645 
  -16870   -17062   -17227   -17366   -17450   -17482   -17491   -17482 
  -17451   -17405   -17343   -17262   -17149   -16999   -16826   -16642 
  -16438   -16228   -16033   -15878   -15772   -15695   -15637   -15616 
  -15627   -15650   -15697   -15782   -15898   -16038   -16200   -16368 
  -16522   -16661   -16780   -16872   -16958   -17066   -17190   -17308 
  -17410   -17510   -17604   -17678   -17725   -17734   -17716   -17690 
  -17672   -17653   -17618   -17570   -17516   -17459   -17396   -17332 
  -17275   -17227   -17196   -17182   -17176   -17181   -17196   -17199 
  -17177   -17126   -17045   -16947   -16831   -16696   -16544   -16368 
  -16189   -16029   -15882   -15730   -15580   -15444   -15311   -15190 
  -15087   -14994   -14916   -14870   -14854   -14856   -14877   -14909 
  -14959   -15040   -15148   -15277   -15418   -15550   -15668   -15772 
  -15847   -15888   -15911   -15915   -15882   -15816   -15738   -15655 
  -15568   -15477   -15373   -15242   -15083   -14910   -14743   -14584 
  -14440   -14341   -14291   -14272   -14280   -14330   -14418   -14535 
  -14659   -14782   -14914   -15051   -15167   -15248   -15306   -15361 
  -15406   -15431   -15453   -15476   -15508   -15557   -15622   -15712 
  -15843   -16009   -16189   -16374   -16567   -16756   -16945   -17153 
  -17386   -17636   -17878   -18088   -18260   -18391   -18478   -18504 
  -18473   -18411   -18328   -18230   -18129   -18034   -17952   -17880 
  -17814   -17745   -17676   -17610   -17537   -17467   -17428   -17416 
  -17431   -17497   -17608   -17747   -17911   -18095   -18287   -18480 
  -18665   -18841   -19009   -19144   -19233   -19295   -19333   -19332 
  -19299   -19246   -19172   -19079   -18974   -18859   -18740   -18621 
  -18496   -18353   -18208   -18077   -17944   -17783   -17598   -17410 
  -17228   -17046   -16869   -16704   -16545   -16390   -16248   -16114 
  -15993   -15896   -15815   -15731   -15653   -15597   -15569   -15566 
  -15599   -15665   -15759   -15869   -15993   -16140   -16295   -16445 
  -16592   -16735   -16868   -16993   -17092   -17149   -17189   -17230 
  -17251   -17253   -17238   -17208   -17157   -17072   -16950   -16808 
  -16654   -16488   -16314   -16150   -15996   -15838   -15685   -15562 
  -15481   -15438   -15425   -15438   -15476   -15529   -15584   -15639 
  -15712   -15795   -15858   -15897   -15935   -15993   -16078   -16181 
  -16287   -16406   -16532   -16650   -16765   -16881   -16985   -17081 
  -17192   -17312   -17428   -17535   -17631   -17724   -17805   -17840 
  -17822   -17759   -17647   -17485   -17275   -17030   -16764   -16479 
  -16178   -15866   -15545   -15228   -14931   -14671   -14454   -14272 
  -14138   -14077   -14088   -14154   -14265   -14423   -14619   -14821 
  -15014   -15214   -15421   -15615   -15790   -15965   -16152   -16345 
  -16541   -16741   -16922   -17073   -17196   -17278   -17316   -17334 
  -17340   -17331   -17307   -17286   -17288   -17309   -17325   -17324 
  -17316   -17304   -17284   -17259   -17242   -17216   -17176   -17140 
  -17128   -17126   -17103   -17070   -17058   -17064   -17058   -17045 
  -17031   -17007   -16968   -16914   -16837   -16746   -16668   -16610 
  -16578   -16579   -16611   -16680   -16779   -16888   -17003   -17122 
  -17226   -17305   -17346   -17355   -17346   -17320   -17282   -17244 
  -17197   -17145   -17097   -17050   -16991   -16916   -16831   -16760 
  -16711   -16669   -16630   -16611   -16613   -16630   -16661   -16703 
  -16744   -16775   -16800   -16816   -16816   -16799   -16780   -16767 
  -16734   -16676   -16592   -16488   -16370   -16232   -16075   -15909 
  -15736   -15560   -15390   -15234   -15088   -14948   -14810   -14678 
  -14557   -14454   -14376   -14320   -14281   -14272   -14285   -14310 
  -14354   -14422   -14488   -14547   -14600   -14650   -14701   -14746 
  -14786   -14835   -14881   -14925   -14979   -15029   -15075   -15132 
  -15187   -15246   -15327   -15429   -15560   -15722   -15890   -16063 
  -16248   -16434   -16609   -16772   -16927   -17086   -17250   -17413 
  -17574   -17721   -17848   -17957   -18031   -18061   -18056   -18013 
  -17926   -17795   -17631   -17446   -17251   -17057   -16872   -16710 
  -16583   -16491   -16428   -16395   -16395   -16418   -16456   -16507 
  -16567   -16630   -16702   -16785   -16887   -17004   -17131   -17259 
  -17370   -17454   -17506   -17524   -17505   -17463   -17413   -17352 
  -17294   -17251   -17209   -17162   -17128   -17111   -17092   -17070 
  -17051   -17034   -17030   -17034   -17027   -17004   -16966   -16916 
  -16866   -16821   -16772   -16725   -16679   -16633   -16596   -16561 
  -16513   -16451   -16374   -16278   -16170   -16047   -15913   -15788 
  -15685   -15601   -15550   -15537   -15553   -15589   -15649   -15724 
  -15807   -15886   -15959   -16031   -16110   -16181   -16237   -16305 
  -16371   -16417   -16453   -16487   -16507   -16510   -16509   -16509 
  -16505   -16498   -16486   -16467   -16451   -16441   -16416   -16362 
  -16275   -16164   -16043   -15921   -15801   -15689   -15593   -15519 
  -15473   -15448   -15433   -15435   -15461   -15498   -15543   -15610 
  -15699   -15807   -15924   -16042   -16166   -16295   -16414   -16509 
  -16582   -16637   -16675   -16690   -16687   -16661   -16606   -16528 
  -16441   -16352   -16259   -16163   -16077   -16008   -15951   -15897 
  -15835   -15762   -15676   -15569   -15449   -15321   -15199   -15098 
  -15026   -14995   -15012   -15067   -15148   -15260   -15408   -15584 
  -15762   -15936   -16104   -16260   -16407   -16548   -16668   -16769 
  -16873   -16993   -17119   -17243   -17371   -17506   -17644   -17784 
  -17930   -18090   -18261   -18438   -18628   -18837   -19039   -19225 
  -19400   -19550   -19661   -19737   -19777   -19781   -19757   -19714 
  -19650   -19569   -19480   -19396   -19321   -19230   -19114   -18986 
  -18846   -18689   -18513   -18323   -18127   -17934   -17753   -17590 
  -17431   -17274   -17127   -16988   -16845   -16696   -16546   -16397 
  -16254   -16121   -16005   -15901   -15812   -15735   -15672   -15611 
  -15558   -15506   -15442   -15367   -15290   -15217   -15148   -15086 
  -15040   -15013   -15005   -15026   -15067   -15109   -15148   -15174 
  -15182   -15174   -15137   -15078   -15010   -14931   -14840   -14744 
  -14634   -14508   -14388   -14274   -14157   -14054   -13968   -13890 
  -13840   -13818   -13795   -13782   -13791   -13811   -13841   -13891 
  -13959   -14033   -14111   -14193   -14273   -14351   -14416   -14476 
  -14557   -14642   -14721   -14817   -14940   -15080   -15218   -15348 
  -15485   -15616   -15734   -15844   -15951   -16051   -16139   -16222 
  -16299   -16356   -16387   -16409   -16433   -16451   -16457   -16449 
  -16418   -16371   -16322   -16274   -16220   -16168   -16136   -16133 
  -16163   -16220   -16297   -16389   -16506   -16654   -16816   -16984 
  -17158   -17332   -17491   -17641   -17782   -17903   -17998   -18068 
  -18111   -18126   -18122   -18114   -18096   -18073   -18061   -18064 
  -18068   -18080   -18103   -18125   -18144   -18164   -18179   -18177 
  -18153   -18106   -18046   -17975   -17894   -17810   -17722   -17622 
  -17516   -17408   -17292   -17163   -17035   -16910   -16781   -16660 
  -16548   -16452   -16380   -16326   -16291   -16293   -16339   -16416 
  -16519   -16656   -16810   -16962   -17109   -17238   -17324   -17371 
  -17388   -17375   -17339   -17281   -17197   -17096   -16981   -16852 
  -16707   -16557   -16410   -16275   -16166   -16079   -16005   -15952 
  -15932   -15935   -15951   -15985   -16032   -16092   -16152   -16198 
  -16222   -16217   -16183   -16124   -16031   -15905   -15761   -15600 
  -15423   -15242   -15074   -14936   -14837   -14786   -14787   -14837 
  -14933   -15071   -15229   -15375   -15514   -15643   -15755   -15843 
  -15898   -15919   -15912   -15881   -15824   -15736   -15626   -15510 
  -15390   -15273   -15174   -15097   -15045   -15022   -15029   -15072 
  -15148   -15246   -15364   -15499   -15643   -15788   -15931   -16062 
  -16174   -16276   -16366   -16440   -16501   -16545   -16563   -16544 
  -16479   -16367   -16206   -15994   -15750   -15489   -15222   -14963 
  -14719   -14493   -14301   -14156   -14050   -13986   -13964   -13976 
  -14011   -14069   -14157   -14274   -14420   -14575   -14723   -14877 
  -15048   -15206   -15341   -15468   -15585   -15687   -15777   -15855 
  -15924   -15989   -16056   -16129   -16208   -16293   -16379   -16467 
  -16568   -16676   -16773   -16860   -16927   -16969   -16988   -16992 
  -16988   -16978   -16968   -16960   -16957   -16969   -16995   -17026 
  -17065   -17118   -17177   -17240   -17308   -17385   -17463   -17533 
  -17605   -17689   -17771   -17847   -17941   -18053   -18176   -18312 
  -18468   -18639   -18833   -19055   -19290   -19529   -19782   -20051 
  -20322   -20594   -20846   -21062   -21240   -21393   -21514   -21605 
  -21668   -21705   -21709   -21685   -21640   -21573   -21475   -21357 
  -21219   -21061   -20892   -20719   -20545   -20374   -20206   -20043 
  -19888   -19737   -19583   -19429   -19271   -19117   -18976   -18855 
  -18744   -18636   -18532   -18443   -18365   -18281   -18184   -18069 
  -17937   -17788   -17622   -17448   -17270   -17084   -16896   -16715 
  -16545   -16390   -16256   -16144   -16059   -15994   -15936   -15880 
  -15828   -15788   -15750   -15711   -15666   -15601   -15526   -15437 
  -15323   -15202   -15091   -14990   -14909   -14859   -14831   -14813 
  -14804   -14797   -14791   -14785   -14770   -14748   -14737   -14735 
  -14733   -14728   -14708   -14674   -14634   -14563   -14466   -14370 
  -14284   -14199   -14127   -14087   -14088   -14131   -14207   -14319 
  -14473   -14642   -14810   -14990   -15172   -15333   -15476   -15603 
  -15692   -15759   -15816   -15849   -15859   -15865   -15857   -15834 
  -15800   -15757   -15715   -15681   -15649   -15619   -15587   -15550 
  -15512   -15479   -15448   -15412   -15375   -15341   -15309   -15277 
  -15250   -15232   -15223   -15228   -15244   -15267   -15295   -15331 
  -15376   -15415   -15445   -15471   -15485   -15488   -15487   -15476 
  -15464   -15454   -15437   -15425   -15433   -15452   -15472   -15503 
  -15552   -15620   -15714   -15839   -16005   -16216   -16472   -16779 
  -17127   -17506   -17909   -18322   -18725   -19107   -19454   -19759 
  -20016   -20206   -20325   -20379   -20370   -20295   -20171   -20013 
  -19831   -19634   -19435   -19241   -19048   -18859   -18674   -18493 
  -18316   -18148   -17987   -17837   -17699   -17575   -17469   -17388 
  -17325   -17281   -17253   -17235   -17231   -17230   -17223   -17205 
  -17172   -17130   -17084   -17031   -16983   -16935   -16887   -16841 
  -16795   -16742   -16684   -16619   -16546   -16465   -16383   -16299 
  -16221   -16152   -16100   -16066   -16046   -16031   -16016   -15986 
  -15939   -15874   -15786   -15669   -15523   -15357   -15182   -15016 
  -14868   -14746   -14648   -14570   -14501   -14436   -14380   -14323 
  -14249   -14168   -14081   -13995   -13921   -13856   -13801   -13760 
  -13734   -13732   -13744   -13771   -13825   -13906   -14010   -14145 
  -14303   -14480   -14688   -14922   -15164   -15408   -15660   -15920 
  -16178   -16421   -16649   -16862   -17051   -17204   -17319   -17397 
  -17447   -17471   -17477   -17467   -17443   -17413   -17386   -17361 
  -17336   -17317   -17309   -17316   -17332   -17363   -17413   -17469 
  -17536   -17617   -17695   -17768   -17833   -17888   -17938   -17986 
  -18025   -18049   -18061   -18057   -18038   -18009   -17972   -17921 
  -17857   -17779   -17687   -17589   -17487   -17382   -17274   -17163 
  -17049   -16926   -16794   -16650   -16498   -16345   -16195   -16044 
  -15900   -15773   -15662   -15565   -15489   -15434   -15387   -15352 
  -15334   -15329   -15334   -15348   -15367   -15391   -15418   -15452 
  -15493   -15541   -15596   -15668   -15758   -15863   -15970   -16074 
  -16178   -16282   -16380   -16471   -16557   -16634   -16702   -16757 
  -16792   -16798   -16784   -16760   -16718   -16650   -16568   -16486 
  -16405   -16326   -16252   -16190   -16128   -16060   -16004   -15961 
  -15919   -15877   -15842   -15808   -15769   -15724   -15677   -15634 
  -15600   -15589   -15604   -15635   -15678   -15738   -15807   -15886 
  -15970   -16055   -16136   -16205   -16260   -16309   -16352   -16382 
  -16397   -16403   -16406   -16410   -16409   -16406   -16411   -16428 
  -16451   -16478   -16499   -16511   -16513   -16503   -16490   -16474 
  -16455   -16436   -16424   -16421   -16422   -16434   -16460   -16497 
  -16544   -16602   -16672   -16760   -16862   -16973   -17088   -17201 
  -17312   -17417   -17508   -17585   -17647   -17695   -17730   -17753 
  -17771   -17790   -17822   -17864   -17905   -17949   -18003   -18049 
  -18080   -18099   -18098   -18075   -18034   -17975   -17894   -17795 
  -17680   -17554   -17417   -17282   -17155   -17037   -16926   -16827 
  -16742   -16676   -16632   -16605   -16591   -16591   -16610   -16646 
  -16692   -16740   -16789   -16841   -16883   -16911   -16930   -16942 
  -16945   -16941   -16937   -16935   -16941   -16951   -16964   -16988 
  -17023   -17050   -17062   -17062   -17050   -17022   -16972   -16904 
  -16825   -16742   -16664   -16590   -16534   -16501   -16478   -16470 
  -16472   -16478   -16480   -16486   -16495   -16506   -16514   -16524 
  -16536   -16549   -16571   -16598   -16621   -16640   -16660   -16687 
  -16715   -16741   -16767   -16795   -16819   -16838   -16849   -16842 
  -16821   -16792   -16762   -16726   -16686   -16648   -16607   -16563 
  -16515   -16471   -16428   -16394   -16370   -16360   -16360   -16374 
  -16405   -16444   -16491   -16548   -16602   -16648   -16688   -16718 
  -16737   -16750   -16761   -16765   -16762   -16756   -16740   -16718 
  -16691   -16654   -16614   -16571   -16513   -16437   -16352   -16264 
  -16178   -16096   -16027   -15982   -15959   -15951   -15959   -15979 
  -16001   -16023   -16039   -16043   -16036   -16023   -16006   -15986 
  -15962   -15938   -15921   -15919   -15927   -15950   -15988   -16043 
  -16105   -16170   -16244   -16326   -16416   -16513   -16614   -16713 
  -16811   -16906   -16997   -17084   -17162   -17231   -17282   -17317 
  -17346   -17361   -17361   -17347   -17320   -17292   -17266   -17240 
  -17220   -17208   -17194   -17181   -17163   -17139   -17119   -17108 
  -17104   -17104   -17105   -17104   -17099   -17085   -17057   -17015 
  -16977   -16950   -16930   -16923   -16946   -16996   -17065   -17161 
  -17274   -17393   -17509   -17616   -17701   -17759   -17783   -17772 
  -17721   -17631   -17508   -17371   -17231   -17093   -16962   -16833 
  -16713   -16609   -16503   -16395   -16290   -16182   -16067   -15951 
