Origin Time       2025/01/13 21:19:00
Lat.              31.8
Long.             131.6
Depth. (km)       30
Mag.              6.9
Station Code      KMMH07
Station Lat.      32.6234
Station Long.     130.5584
Station Height(m) -278
Record Time       2025/01/13 21:19:54
Sampling Freq(Hz) 100Hz
Duration Time(s)  181
Dir.              3
Scale Factor      2942(gal)/8224139
Max. Acc. (gal)   4.177
Last Correction   2025/01/13 21:19:54
Memo.             
[...]
  124330   124201   123997   123745   123601   123660   123826   123970 
  124081   124178   124229   124237   124313   124541   124902   125343 
  125814   126301   126810   127273   127603   127762   127695   127410 
  127105   126932   126779   126535   126301   126168   126065   125899 
  125664   125424   125285   125339   125529   125689   125749   125757 
  125790   125923   126131   126283   126292   126142   125836   125410 
  124938   124476   124086   123812   123626   123450   123314   123353 
  123585   123803   123823   123680   123543   123520   123562   123574 
  123549   123549   123611   123700   123715   123574   123345   123213 
  123277   123546   124047   124753   125466   125944   126099   126011 
  125836   125751   125820   125948   126036   126056   126011   125949 
  125888   125760   125525   125257   125039   124872   124744   124671 
  124596   124382   124017   123630   123313   123052   122852   122790 
  122887   123033   123115   123133   123153   123207   123255   123222 
  123039   122678   122216   121821   121653   121787   122241   122947 
  123695   124244   124524   124646   124779   125035   125416   125822 
  126165   126465   126782   127052   127101   126852   126350   125674 
  124947   124329   123943   123830   123892   123947   123913   123847 
  123797   123745   123639   123453   123219   123051   123072   123356 
  123876   124488   124988   125239   125277   125208   125145   125215 
  125470   125799   126053   126199   126272   126265   126122   125845 
  125548   125329   125200   125166   125239   125325   125270   125053 
  124804   124618   124511   124503   124613   124791   124949   125054 
  125132   125223   125323   125393   125433   125491   125525   125471 
  125356   125180   124830   124227   123449   122723   122249   122062 
  122062   122142   122270   122422   122567   122740   123003   123358 
  123716   123970   124033   123865   123502   123041   122577   122193 
  121987   122018   122256   122616   122998   123304   123516   123708 
  123965   124259   124497   124718   125037   125444   125832   126099 
  126202   126177   126131   126179   126423   126883   127438   127926 
  128250   128341   128137   127669   127116   126661   126322   126002 
  125686   125442   125307   125280   125351   125491   125676   125896 
  126134   126388   126619   126721   126646   126414   126057   125659 
  125362   125286   125419   125595   125660   125604   125490   125393 
  125369   125420   125562   125791   126023   126195   126293   126269 
  126129   125934   125667   125297   124919   124661   124571   124644 
  124872   125239   125672   126041   126233   126245   126214   126291 
  126446   126547   126574   126546   126435   126246   125975   125555 
  124992   124434   124060   123935   124033   124357   124856   125382 
  125784   125972   125982   125952   125937   125864   125667   125429 
  125298   125281   125257   125128   124866   124517   124173   123931 
  123809   123773   123812   123946   124193   124532   124877   125169 
  125491   125964   126566   127159   127645   128002   128193   128177 
  128002   127738   127419   127129   126940   126798   126615   126385 
  126157   125938   125702   125435   125169   124985   124938   124962 
  124951   124908   124869   124802   124687   124572   124513   124552 
  124752   125161   125749   126392   126920   127248   127404   127392 
  127238   127120   127161   127290   127394   127421   127305   127041 
  126746   126496   126273   126058   125905   125872   125967   126104 
  126137   125942   125568   125155   124758   124384   124071   123831 
  123615   123381   123132   122897   122706   122627   122704   122863 
  122986   123025   122983   122866   122661   122376   122075   121837 
  121702   121651   121622   121551   121440   121324   121205   121089 
  121030   121063   121174   121350   121564   121775   121965   122142 
  122314   122476   122607   122720   122858   123013   123105   123068 
  122945   122809   122685   122594   122557   122580   122696   122941 
  123307   123731   124136   124457   124667   124745   124634   124325 
  123904   123473   123113   122893   122835   122905   123068   123313 
  123626   123965   124264   124456   124487   124387   124235   124052 
  123843   123647   123488   123373   123288   123164   123007   122944 
  123028   123241   123581   123997   124437   124877   125212   125339 
  125332   125340   125423   125556   125703   125822   125876   125857 
  125821   125811   125798   125753   125691   125604   125471   125282 
  125057   124872   124773   124730   124725   124803   125024   125386 
  125842   126358   126922   127510   128042   128393   128514   128455 
  128275   128047   127818   127573   127283   126981   126754   126635 
  126544   126392   126152   125856   125598   125452   125389   125342 
  125281   125135   124827   124418   124035   123699   123380   123084 
  122802   122509   122218   121961   121736   121502   121254   121018 
  120772   120475   120140   119815   119534   119327   119213   119190 
  119280   119495   119823   120247   120739   121261   121783   122289 
  122724   123028   123196   123257   123236   123178   123128   123070 
  122983   122918   122949   123083   123300   123615   124032   124479 
  124888   125261   125616   125956   126220   126339   126353   126358 
  126355   126337   126350   126403   126470   126554   126654   126766 
  126908   127117   127442   127839   128213   128567   128960   129354 
  129639   129720   129614   129416   129203   129030   128970   129042 
  129177   129290   129343   129335   129281   129216   129243   129440 
  129740   130018   130227   130395   130527   130600   130627   130677 
  130789   130916   130999   130986   130821   130489   130007   129385 
  128642   127840   127084   126468   126017   125686   125423   125238 
  125177   125216   125294   125402   125548   125693   125782   125806 
  125766   125643   125446   125197   124911   124629   124393   124224 
  124128   124070   123971   123758   123410   122993   122634   122432 
  122396   122470   122611   122801   123032   123280   123511   123712 
  123896   124043   124121   124135   124119   124090   124052   124012 
  123950   123865   123813   123840   123923   124023   124131   124241 
  124374   124541   124696   124781   124788   124725   124591   124413 
  124214   123982   123691   123323   122886   122419   121990   121647 
  121402   121258   121217   121255   121356   121537   121780   122004 
  122188   122376   122567   122720   122814   122863   122901   122949 
  122999   123055   123141   123304   123561   123839   124016   124055 
  124008   123919   123817   123728   123662   123626   123638   123700 
  123778   123832   123865   123948   124141   124410   124683   124949 
  125239   125568   125895   126175   126377   126474   126473   126400 
  126261   126076   125895   125756   125635   125464   125226   124941 
  124675   124491   124386   124317   124278   124310   124434   124622 
  124842   125084   125342   125620   125894   126107   126239   126310 
  126311   126243   126099   125853   125527   125192   124912   124731 
  124659   124656   124667   124661   124625   124556   124475   124402 
  124329   124222   124093   123973   123862   123757   123653   123545 
  123452   123391   123375   123414   123498   123585   123612   123530 
  123365   123187   123057   122982   122928   122891   122912   123024 
  123218   123488   123842   124260   124672   124991   125177   125266 
  125280   125200   125039   124838   124633   124438   124279   124193 
  124193   124254   124366   124542   124775   125005   125165   125255 
  125323   125342   125235   124958   124517   123992   123502   123099 
  122767   122509   122350   122270   122237   122273   122419   122663 
  122958   123238   123456   123610   123728   123836   123957   124094 
  124229   124355   124486   124619   124722   124768   124777   124806 
  124879   124995   125130   125228   125244   125189   125099   125005 
  124923   124858   124826   124865   125004   125177   125246   125155 
  124960   124726   124522   124422   124463   124629   124838   125012 
  125128   125163   125107   125016   124956   124945   124988   125084 
  125199   125269   125248   125185   125163   125213   125343   125570 
  125871   126208   126546   126864   127182   127530   127913   128275 
  128517   128596   128536   128356   128082   127770   127458   127159 
  126873   126590   126307   126015   125743   125537   125423   125389 
  125452   125606   125809   126025   126238   126446   126636   126775 
  126862   126921   126967   126979   126958   126931   126916   126867 
  126754   126604   126458   126327   126214   126125   126063   125994 
  125879   125734   125601   125459   125251   124965   124656   124374 
  124147   123979   123878   123866   123952   124117   124357   124646 
  124922   125155   125367   125574   125757   125879   125915   125861 
  125732   125575   125427   125297   125219   125228   125311   125439 
  125625   125861   126068   126165   126160   126118   126084   126094 
  126166   126283   126401   126542   126769   127070   127377   127683 
  128012   128339   128579   128686   128683   128596   128433   128221 
  128008   127838   127714   127585   127421   127225   126985   126696 
  126404   126144   125899   125641   125352   125022   124683   124372 
  124069   123762   123500   123292   123087   122875   122694   122539 
  122399   122308   122288   122320   122381   122488   122665   122855 
  122980   123013   122966   122859   122696   122473   122219   121995 
  121846   121765   121728   121743   121822   121981   122268   122708 
  123276   123894   124491   125026   125470   125820   126099   126343 
  126567   126773   126971   127152   127322   127518   127708   127815 
  127818   127755   127678   127607   127527   127426   127291   127118 
  126939   126762   126566   126374   126227   126125   126054   126000 
  125917   125775   125574   125305   124957   124549   124131   123726 
  123358   123048   122785   122569   122416   122335   122314   122299 
  122245   122138   122002   121876   121792   121755   121779   121876 
  122002   122102   122177   122262   122413   122670   123010   123369 
  123726   124109   124528   124919   125227   125459   125645   125778 
  125825   125770   125620   125402   125151   124902   124679   124499 
  124370   124290   124254   124245   124260   124320   124484   124760 
  125077   125397   125714   125996   126212   126389   126586   126831 
  127084   127326   127568   127774   127877   127831   127630   127307 
  126912   126472   126022   125589   125182   124794   124386   123950 
  123526   123137   122798   122534   122368   122324   122407   122561 
  122725   122881   123040   123205   123342   123403   123369   123277 
  123164   123043   122933   122841   122732   122566   122361   122177 
  122042   121944   121879   121867   121906   121973   122061   122168 
  122269   122351   122424   122509   122625   122802   123074   123450 
  123894   124348   124788   125204   125562   125815   125942   125937 
  125818   125645   125505   125452   125473   125516   125567   125641 
  125733   125834   125929   126003   126034   125999   125891   125739 
  125560   125373   125199   125051   124941   124858   124795   124775 
  124798   124852   124965   125154   125390   125604   125737   125809 
  125879   125979   126107   126206   126218   126154   126084   126058 
  126067   126065   126048   126053   126096   126158   126231   126320 
  126397   126420   126365   126238   126065   125868   125659   125459 
  125262   125050   124837   124663   124555   124514   124528   124560 
  124592   124623   124671   124780   124969   125157   125266   125273 
  125169   124951   124663   124375   124164   124055   124013   124023 
  124104   124264   124478   124708   124946   125185   125409   125614 
  125818   126034   126254   126470   126663   126810   126939   127083 
  127251   127442   127638   127830   128046   128293   128518   128671 
  128746   128771   128742   128644   128487   128295   128090   127919 
  127803   127714   127620   127510   127356   127147   126902   126643 
  126405   126203   126006   125793   125574   125350   125131   124941 
  124773   124638   124556   124524   124507   124468   124379   124240 
  124052   123804   123511   123187   122836   122467   122112   121806 
  121605   121543   121591   121703   121856   122052   122314   122627 
  122924   123167   123354   123492   123584   123638   123672   123703 
  123719   123691   123610   123496   123357   123182   122968   122725 
  122473   122219   121971   121755   121586   121456   121365   121309 
  121296   121342   121459   121659   121960   122373   122863   123352 
  123784   124175   124556   124920   125251   125533   125740   125841 
  125836   125741   125555   125263   124902   124530   124202   123943 
  123739   123546   123342   123122   122885   122634   122389   122184 
  122027   121868   121645   121335   120947   120529   120155   119882 
  119719   119655   119680   119758   119832   119838   119742   119562 
  119337   119099   118868   118671   118538   118473   118457   118471 
  118521   118632   118814   119067   119400   119804   120232   120663 
  121126   121633   122148   122681   123304   124063   124935   125890 
  126910   127985   129100   130216   131288   132308   133259   134092 
  134790   135365   135820   136159   136398   136518   136494   136351 
  136134   135885   135662   135472   135261   134977   134613   134212 
  133799   133393   133030   132713   132399   132073   131758   131469 
  131194   130929   130690   130491   130307   130106   129888   129678 
  129466   129220   128904   128486   127961   127352   126706   126073 
  125459   124839   124222   123639   123106   122617   122193   121860 
  121643   121560   121628   121844   122175   122555   122905   123188 
  123434   123689   123967   124260   124569   124887   125174   125419 
  125655   125918   126208   126507   126804   127099   127399   127739 
  128155   128637   129146   129631   130054   130422   130756   131082 
  131410   131720   131993   132227   132417   132552   132602   132565 
  132484   132379   132229   131981   131575   130989   130237   129366 
  128426   127452   126496   125626   124866   124185   123564   122987 
  122420   121810   121095   120253   119352   118447   117545   116698 
  115978   115380   114885   114507   114257   114122   114080   114116 
  114210   114335   114481   114631   114762   114866   114928   114934 
  114893   114831   114779   114779   114889   115117   115411   115726 
  116059   116419   116833   117337   117946   118631   119362   120116 
  120835   121473   122002   122430   122758   122955   123036   123059 
  123044   123002   122939   122844   122716   122555   122327   122000 
  121598   121144   120657   120183   119773   119442   119169   118929 
  118720   118539   118355   118160   117950   117709   117444   117194 
  116973   116791   116650   116537   116486   116529   116652   116847 
  117127   117475   117859   118265   118673   119043   119368   119693 
  120051   120455   120908   121398   121918   122476   123076   123703 
  124329   124942   125536   126114   126658   127160   127664   128204 
  128781   129393   130032   130675   131319   131985   132678   133358 
  133978   134504   134928   135264   135529   135726   135878   136028 
  136182   136317   136404   136424   136372   136242   136032   135754 
  135422   135075   134751   134419   134040   133624   133204   132810 
  132460   132173   131953   131784   131650   131530   131407   131292 
  131203   131107   130951   130698   130343   129915   129466   129010 
  128542   128098   127715   127390   127105   126851   126625   126405 
  126164   125906   125636   125361   125104   124875   124676   124517 
  124394   124275   124120   123896   123604   123279   122952   122640 
  122354   122100   121867   121606   121288   120923   120523   120096 
  119658   119225   118805   118411   118083   117829   117603   117391 
  117211   117061   116939   116857   116839   116911   117055   117255 
  117508   117794   118091   118389   118682   118956   119192   119384 
  119534   119665   119805   119973   120163   120374   120603   120830 
  121030   121212   121392   121568   121756   121986   122256   122548 
  122854   123176   123538   123943   124370   124814   125284   125761 
  126210   126593   126897   127113   127228   127225   127126   126971 
  126808   126670   126588   126573   126612   126669   126700   126688 
  126642   126558   126445   126320   126211   126121   126042   125979 
  125928   125895   125906   125968   126079   126235   126428   126651 
  126895   127143   127369   127576   127768   127947   128096   128200 
  128267   128335   128406   128456   128468   128449   128417   128383 
  128371   128398   128456   128526   128592   128652   128710   128772 
  128833   128895   128937   128922   128841   128704   128552   128416 
  128295   128181   128059   127919   127754   127562   127346   127107 
  126835   126528   126214   125926   125658   125389   125147   124980 
  124861   124749   124645   124557   124472   124379   124276   124167 
  124039   123888   123742   123633   123570   123560   123611   123738 
  123923   124139   124360   124578   124781   124956   125113   125273 
  125404   125481   125513   125487   125397   125267   125122   124962 
  124811   124686   124594   124544   124536   124567   124648   124779 
  124941   125115   125280   125405   125487   125541   125558   125523 
  125454   125388   125343   125308   125258   125182   125085   124965 
  124818   124646   124459   124270   124109   124001   123948   123954 
  124035   124182   124387   124634   124897   125153   125374   125543 
  125637   125656   125602   125477   125298   125069   124777   124426 
  124056   123726   123468   123272   123129   123024   122940   122866 
  122789   122716   122666   122642   122654   122719   122821   122956 
  123126   123323   123530   123753   124017   124344   124730   125155 
  125585   125973   126301   126577   126796   126963   127106   127238 
  127363   127457   127488   127430   127280   127028   126682   126291 
  125894   125506   125146   124839   124602   124436   124349   124326 
  124321   124299   124282   124293   124324   124360   124405   124467 
  124528   124576   124623   124669   124703   124726   124730   124702 
  124644   124560   124452   124312   124119   123874   123607   123342 
  123094   122868   122663   122485   122332   122208   122123   122081 
  122094   122169   122304   122485   122702   122944   123187   123394 
  123533   123610   123647   123654   123630   123591   123556   123531 
  123518   123502   123487   123489   123520   123591   123728   123947 
  124236   124576   124933   125262   125533   125740   125874   125955 
  126025   126108   126204   126303   126392   126459   126507   126535 
  126550   126553   126538   126492   126411   126296   126141   125934 
  125678   125400   125134   124908   124742   124641   124599   124617 
  124688   124810   124983   125205   125469   125745   126010   126264 
  126515   126767   127002   127191   127326   127404   127426   127395 
