Origin Time       2025/01/13 21:19:00
Lat.              31.8
Long.             131.6
Depth. (km)       30
Mag.              6.9
Station Code      KMMH11
Station Lat.      32.2918
Station Long.     130.5777
Station Height(m) -200
Record Time       2025/01/13 21:19:50
Sampling Freq(Hz) 100Hz
Duration Time(s)  175
Dir.              3
Scale Factor      3923(gal)/8224838
Max. Acc. (gal)   2.951
Last Correction   2025/01/13 21:19:51
Memo.             
[...]
    3406     3437     3457     3492     3454     3277     3034     2844 
    2764     2781     2840     2891     2889     2774     2535     2227 
    1917     1656     1467     1331     1260     1293     1382     1435 
    1449     1499     1611     1702     1649     1472     1297     1196 
    1148     1080      972      870      773      627      459      359 
     409      618      912     1215     1517     1852     2197     2498 
    2749     2961     3106     3125     2961     2668     2403     2263 
    2250     2347     2520     2713     2903     3084     3260     3427 
    3535     3550     3503     3445     3395     3369     3385     3416 
    3445     3429     3288     3119     3082     3159     3362     3613 
    3694     3573     3342     3084     2835     2590     2338     2088 
    1918     1831     1777     1730     1682     1657     1669     1701 
    1761     1827     1898     1992     2006     1956     1954     1944 
    1960     2068     2188     2295     2347     2300     2205     2092 
    1941     1792     1715     1722     1795     1927     2091     2226 
    2280     2215     2020     1760     1524     1306     1086      919 
     819      765      772      804      858      958     1092     1204 
    1198     1038      849      814      989     1329     1748     2138 
    2435     2621     2694     2687     2612     2417     2131     1833 
    1529     1264     1094      984      903      882      932     1004 
    1100     1364     1626     1702     2014     2281     2120     2220 
    2353     2290     2632     3034     3453     4162     4714     5017 
    5211     5223     5107     4957     4783     4587     4430     4375 
    4402     4495     4707     5050     5475     5918     6247     6539 
    6951     7365     7767     8149     8374     8480     8492     8456 
    8472     8496     8573     8688     8694     8660     8692     8653 
    8429     8131     7840     7492     7194     7029     6714     6231 
    5842     5346     4818     4531     4202     3925     3856     3739 
    3646     3578     3349     3002     2571     2045     1468      876 
     324     -116     -410     -517     -392      -97      222      421 
     481      464      426      419      376      253      197      305 
     594     1046     1537     1964     2266     2435     2535     2556 
    2470     2363     2255     2060     1849     1769     1786     1804 
    1844     1865     1761     1534     1302     1524     1863     1568 
    1830     2583     2474     2366     2409     2181     1931     1702 
    1595     1223      945      993     1013     1286     1682     2083 
    2435     2598     2604     2401     2143     1857     1505     1179 
     936      823      745      885     1262     1482     1813     2173 
    2155     2219     2258     2073     2008     1849     1620     1383 
    1024      936     1134     1312     1455     1717     2126     2249 
    2239     2597     2710     2531     2818     3230     3546     3909 
    4136     4251     4233     4241     4243     4070     3954     3867 
    3766     3694     3663     3775     3994     4266     4436     4417 
    4345     4261     4163     4136     4267     4471     4638     4783 
    4707     4414     4213     3932     3518     3269     3168     3157 
    3073     2797     2548     2259     1896     1705     1645     1559 
    1370     1221     1252     1223     1235     1431     1506     1543 
    1516     1251     1015      812      576      457      425      445 
     615      872     1065     1204     1305     1394     1490     1557 
    1644     1775     1939     2133     2253     2203     1995     1756 
    1579     1416     1351     1509     1723     1917     2170     2405 
    2575     2631     2573     2533     2470     2385     2386     2420 
    2466     2571     2754     2990     3195     3391     3547     3564 
    3547     3524     3505     3592     3627     3543     3464     3446 
    3582     3904     4326     4787     5254     5674     6039     6355 
    6562     6605     6481     6292     6170     6070     5952     5871 
    5832     5825     5822     5773     5718     5613     5460     5328 
    5173     5023     4854     4627     4450     4302     4120     4079 
    4221     4255     4252     4409     4490     4531     4676     4758 
    4768     4731     4594     4442     4297     4089     3917     3812 
    3630     3333     2967     2574     2228     1989     1867     1841 
    1904     2052     2220     2343     2431     2531     2637     2781 
    3017     3287     3474     3537     3473     3277     2970     2635 
    2277     1841     1387      978      652      425      133     -302 
    -781    -1287    -1800    -2169    -2390    -2543    -2521    -2381 
   -2289    -2154    -1953    -1813    -1756    -1803    -1907    -1910 
   -1826    -1729    -1536    -1387    -1343    -1054     -664     -460 
    -129      259      488      804     1111     1287     1574     1902 
    2154     2340     2417     2455     2532     2632     2766     2953 
    3195     3439     3616     3712     3759     3815     3871     3916 
    4008     4139     4280     4491     4735     4932     5134     5348 
    5478     5539     5589     5637     5749     5904     6075     6311 
    6540     6725     6929     7002     6824     6656     6681     6740 
    6849     7125     7358     7512     7708     7782     7716     7635 
    7507     7416     7416     7414     7438     7537     7662     7770 
    7830     7867     7890     7861     7754     7543     7187     6686 
    6106     5510     4941     4479     4163     3948     3802     3694 
    3566     3402     3225     3040     2849     2658     2446     2247 
    2091     1950     1858     1777     1557     1209      876      576 
     317      175       91      -29     -114     -164     -265     -342 
    -376     -465     -599     -757     -945    -1102    -1209    -1298 
   -1394    -1470    -1447    -1267     -963     -618     -307      -52 
     189      427      626      923     1474     1995     2317     2709 
    2947     2849     2884     2956     2891     3015     3223     3468 
    3894     4299     4611     4884     5039     5140     5269     5367 
    5425     5405     5302     5275     5346     5455     5584     5621 
    5587     5536     5382     5171     4981     4838     4769     4730 
    4684     4626     4538     4422     4287     4151     4060     4040 
    4068     4086     4036     3986     4055     4118     3991     3765 
    3528     3167     2806     2631     2467     2301     2209     2041 
    1871     1784     1653     1530     1471     1412     1360     1312 
    1244     1201     1197     1189     1169     1170     1239     1366 
    1502     1655     1804     1890     1911     1883     1845     1807 
    1665     1426     1188      853      561      383      -29     -307 
    -294     -465     -503     -411     -318      -94     -202     -140 
     229      -67     -244       44     -190     -268       22      -48 
     -25      145       82        2      -29      -83      -68       44 
     195      322      436      615      812      866      899     1019 
     980      928     1077     1035      965     1142     1235     1390 
    1698     1949     2282     2648     2983     3366     3645     3778 
    4018     4299     4425     4600     4854     5043     5115     5125 
    5373     5605     5610     5911     6232     6231     6451     6647 
    6547     6586     6609     6513     6548     6585     6578     6636 
    6683     6666     6558     6316     5907     5329     4707     4183 
    3704     3265     3026     2902     2714     2636     2667     2520 
    2417     2478     2344     2266     2358     2245     2165     2087 
    1875     1883     1867     1749     1821     1869     1836     1879 
    2003     2130     2166     2236     2336     2246     2199     2359 
    2457     2592     2849     3001     3150     3334     3379     3364 
    3318     3226     3195     3223     3260     3334     3406     3431 
    3512     3601     3608     3690     3767     3699     3632     3481 
    3248     3180     3161     3091     3160     3308     3430     3642 
    3839     3975     4147     4193     4212     4315     4283     4183 
    4194     4264     4342     4425     4510     4522     4422     4301 
    4099     3782     3546     3393     3234     3156     3118     3075 
    3087     3076     3002     2928     2835     2743     2691     2647 
    2610     2604     2598     2606     2614     2502     2288     2060 
    1784     1571     1489     1374     1255     1264     1331     1397 
    1464     1507     1611     1826     2064     2339     2654     2990 
    3331     3631     3952     4199     4325     4557     4719     4749 
    4972     5103     5084     5270     5366     5370     5522     5574 
    5544     5549     5485     5389     5305     5224     5193     5254 
    5385     5545     5756     5949     6016     5992     5856     5613 
    5347     5069     4870     4770     4639     4476     4259     3951 
    3622     3298     2971     2693     2469     2258     2115     2070 
    2083     2114     2133     2116     2041     1962     1892     1717 
    1548     1502     1431     1402     1467     1428     1398     1418 
    1301     1158     1057      984     1061     1250     1432     1599 
    1738     1844     1938     2002     1979     1856     1683     1470 
    1228     1021      905      919     1007     1096     1215     1360 
    1486     1566     1593     1613     1660     1707     1741     1725 
    1701     1786     1865     1883     2053     2266     2376     2594 
    2862     3110     3468     3812     4086     4294     4375     4415 
    4422     4384     4376     4342     4293     4299     4295     4286 
    4372     4432     4368     4290     4162     3987     3862     3762 
    3716     3747     3798     3881     4010     4121     4141     4059 
    3878     3616     3329     3072     2894     2812     2772     2704 
    2625     2629     2708     2758     2787     2841     2809     2691 
    2598     2459     2254     2027     1745     1505     1363     1269 
    1237     1247     1267     1310     1335     1337     1321     1289 
    1324     1428     1491     1512     1532     1522     1514     1514 
    1485     1467     1479     1507     1583     1691     1780     1833 
    1853     1863     1884     1923     1996     2130     2309     2465 
    2508     2461     2446     2516     2650     2806     2976     3206 
    3462     3717     3950     4041     4051     4128     4225     4307 
    4391     4426     4425     4455     4468     4430     4394     4367 
    4353     4392     4428     4449     4522     4587     4603     4622 
    4594     4476     4284     3987     3639     3362     3159     2980 
    2814     2674     2589     2558     2556     2565     2600     2685 
    2771     2801     2785     2737     2659     2574     2484     2389 
    2303     2215     2158     2173     2204     2214     2185     2108 
    2050     2042     2004     1921     1852     1806     1756     1672 
    1539     1395     1259     1104      990      943      872      777 
     707      638      571      502      378      199       28      -85 
    -103      -36       97      291      499      687      876     1082 
    1271     1389     1420     1417     1404     1355     1316     1305 
    1254     1185     1156     1147     1155     1196     1242     1285 
    1397     1634     1925     2215     2536     2884     3233     3565 
    3797     3902     3960     3950     3877     3881     3964     4099 
    4298     4464     4571     4664     4723     4746     4761     4754 
    4702     4602     4483     4374     4278     4183     4101     4060 
    4098     4214     4355     4477     4583     4675     4758     4843 
    4900     4888     4846     4822     4787     4727     4673     4639 
    4622     4594     4529     4440     4357     4270     4149     4004 
    3866     3771     3747     3763     3753     3732     3739     3730 
    3726     3773     3834     3910     3994     4056     4137     4271 
    4414     4503     4515     4487     4444     4374     4284     4209 
    4168     4163     4148     4098     4045     4018     4020     4058 
    4139     4236     4276     4297     4345     4336     4330     4356 
    4317     4334     4401     4388     4371     4333     4236     4113 
    3942     3757     3577     3369     3240     3129     2952     2893 
    2867     2766     2712     2637     2560     2535     2465     2328 
    2114     1809     1463     1117      823      602      432      297 
     184       70      -54     -191     -340     -486     -642     -816 
    -982    -1135    -1289    -1432    -1549    -1661    -1779    -1872 
   -1961    -2060    -2088    -2049    -1957    -1790    -1630    -1521 
   -1405    -1252    -1035     -769     -506     -271     -112       -4 
     130      236      298      364      387      407      463      483 
     463      417      372      359      326      226      251      409 
     302      224      410      260       59       94      -82     -179 
     -66      -18       82      322      622      841     1024     1252 
    1389     1526     1729     1864     2015     2168     2214     2328 
    2492     2555     2722     2928     3061     3316     3558     3742 
    4006     4189     4306     4452     4533     4594     4715     4885 
    5128     5443     5792     6197     6606     6912     7188     7520 
    7769     7916     8187     8456     8499     8602     8756     8764 
    8888     9040     9005     8934     8819     8608     8333     7997 
    7595     7087     6521     5950     5410     4989     4658     4388 
    4222     4118     4082     4194     4365     4568     4861     5148 
    5431     5729     5953     6168     6388     6540     6659     6741 
    6770     6801     6871     6999     7186     7361     7537     7804 
    8102     8309     8479     8648     8718     8703     8685     8549 
    8286     8009     7600     7040     6461     5802     5081     4407 
    3784     3207     2675     2174     1679     1165      619       64 
    -434     -874    -1302    -1678    -1944    -2112    -2181    -2173 
   -2119    -1987    -1813    -1637    -1408    -1181    -1028     -918 
    -876     -938    -1096    -1327    -1539    -1688    -1806    -1848 
   -1788    -1721    -1663    -1547    -1386    -1209     -988     -765 
    -588     -378     -110      112      351      642      888     1102 
    1327     1503     1655     1830     2042     2266     2459     2589 
    2647     2687     2745     2762     2736     2732     2735     2776 
    2863     2933     3103     3219     3148     3483     3831     3434 
    3537     3975     3445     3256     3385     2808     2567     2485 
    2093     1987     1975     1945     2066     2232     2385     2517 
    2590     2555     2446     2309     2191     2161     2199     2268 
    2378     2494     2593     2668     2683     2647     2594     2509 
    2389     2266     2128     1983     1888     1822     1725     1593 
    1401     1209     1131     1048      866      874     1092     1055 
     950     1232     1340     1171     1395     1499     1312     1464 
    1533     1466     1649     1769     1871     2092     2266     2419 
    2528     2509     2425     2315     2139     1931     1746     1583 
    1453     1371     1325     1316     1339     1390     1456     1512 
    1545     1574     1597     1606     1610     1620     1629     1598 
    1489     1360     1255     1107      953      885      896      919 
     837      876     1078      918      951     1362     1209     1255 
    1674     1607     1829     2242     2269     2462     2687     2720 
    2859     3024     3095     3223     3381     3515     3693     3865 
    3998     4121     4206     4275     4363     4452     4542     4683 
    4926     5301     5806     6366     6902     7395     7844     8213 
    8468     8613     8679     8681     8561     8359     8224     8109 
    7905     7763     7749     7635     7456     7470     7402     7117 
    7064     6926     6486     6227     5837     5229     4812     4341 
    3850     3553     3262     3001     2856     2695     2498     2276 
    1961     1601     1244      895      585      313       64     -159 
    -392     -629     -822     -978    -1134    -1289    -1410    -1483 
   -1522    -1557    -1586    -1586    -1543    -1459    -1297    -1047 
    -797     -523     -153      164      352      600      949     1251 
    1606     2085     2448     2755     3125     3304     3414     3601 
    3653     3676     3750     3747     3734     3717     3628     3519 
    3383     3196     3019     2864     2735     2694     2748     2859 
    3005     3183     3411     3694     3986     4241     4450     4630 
    4791     4897     4938     4942     4907     4811     4695     4608 
    4486     4310     4197     4141     4043     3958     3916     3804 
    3642     3526     3404     3230     3102     2991     2794     2628 
    2525     2411     2382     2417     2450     2543     2656     2770 
    2928     3082     3221     3373     3499     3589     3681     3763 
    3811     3801     3721     3593     3431     3237     3040     2886 
    2786     2718     2662     2608     2554     2489     2401     2323 
    2261     2164     2061     2006     1933     1777     1595     1447 
    1266     1032      908      810      677      772      920      992 
    1232     1444     1593     1834     2000     2104     2220     2288 
    2340     2408     2494     2614     2766     2922     3105     3330 
    3573     3825     4070     4290     4498     4666     4779     4843 
    4850     4787     4666     4506     4341     4191     4051     3919 
    3815     3731     3646     3592     3570     3539     3537     3597 
    3657     3674     3705     3753     3755     3761     3808     3777 
    3724     3753     3728     3696     3700     3628     3547     3499 
    3454     3460     3500     3565     3678     3838     4033     4248 
    4457     4656     4841     5007     5166     5327     5490     5671 
    5865     6048     6222     6394     6548     6669     6770     6853 
    6912     6928     6886     6817     6782     6758     6712     6675 
    6655     6606     6534     6471     6389     6281     6180     6043 
    5837     5629     5424     5178     4954     4746     4500     4278 
    4060     3796     3501     3164     2781     2390     2025     1695 
    1402     1142      924      745      596      506      491      526 
     589      642      634      548      388      168      -85     -348 
    -603     -858    -1139    -1448    -1740    -1995    -2222    -2394 
   -2489    -2532    -2535    -2482    -2403    -2334    -2262    -2200 
   -2170    -2135    -2056    -1944    -1795    -1602    -1399    -1193 
    -969     -772     -622     -507     -441     -405     -352     -260 
    -114       71      286      546      853     1197     1571     1954 
    2376     2898     3353     3588     4093     4737     4733     5032 
    5725     5628     5894     6419     6326     6596     6789     6716 
    6832     6720     6575     6426     6154     5977     5799     5578 
    5485     5422     5242     5116     4974     4738     4583     4403 
    4194     4048     3862     3650     3435     3191     2945     2701 
    2457     2195     1892     1591     1314     1044      788      523 
