Origin Time       2025/01/13 21:19:00
Lat.              31.8
Long.             131.6
Depth. (km)       30
Mag.              6.9
Station Code      KMMH10
Station Lat.      32.3151
Station Long.     130.1811
Station Height(m) 158
Record Time       2025/01/13 21:19:55
Sampling Freq(Hz) 100Hz
Duration Time(s)  218
Dir.              6
Scale Factor      7845(gal)/8223790
Max. Acc. (gal)   3.721
Last Correction   2025/01/13 21:19:55
Memo.             
[...]
  -27172   -27417   -27684   -27854   -27900   -27864   -27772   -27621 
  -27425   -27274   -27240   -27309   -27410   -27495   -27540   -27518 
  -27398   -27195   -27018   -26971   -27059   -27176   -27222   -27194 
  -27152   -27130   -27126   -27152   -27261   -27459   -27639   -27685 
  -27579   -27413   -27292   -27218   -27140   -27078   -27060   -27056 
  -26991   -26829   -26622   -26461   -26387   -26384   -26445   -26573 
  -26766   -26981   -27156   -27270   -27326   -27313   -27207   -27033 
  -26847   -26696   -26595   -26539   -26541   -26605   -26681   -26686 
  -26628   -26590   -26635   -26750   -26856   -26905   -26929   -26981 
  -27054   -27116   -27152   -27179   -27238   -27326   -27386   -27395 
  -27376   -27355   -27344   -27324   -27268   -27206   -27162   -27117 
  -27054   -26983   -26916   -26848   -26809   -26820   -26869   -26923 
  -26933   -26889   -26843   -26828   -26815   -26782   -26762   -26800 
  -26890   -26963   -26974   -26960   -26956   -26954   -26986   -27132 
  -27394   -27691   -27930   -28066   -28116   -28117   -28100   -28093 
  -28156   -28325   -28525   -28642   -28644   -28580   -28505   -28436 
  -28374   -28324   -28296   -28282   -28223   -28054   -27800   -27564 
  -27430   -27405   -27422   -27425   -27384   -27287   -27130   -26925 
  -26746   -26713   -26860   -27085   -27263   -27364   -27449   -27540 
  -27585   -27560   -27534   -27607   -27784   -27972   -28055   -28007 
  -27893   -27766   -27612   -27448   -27359   -27419   -27614   -27838 
  -27988   -28036   -28038   -28030   -27973   -27834   -27689   -27625 
  -27627   -27603   -27487   -27280   -27055   -26878   -26761   -26686 
  -26654   -26650   -26632   -26532   -26292   -25948   -25604   -25335 
  -25169   -25099   -25097   -25108   -25078   -24976   -24825   -24711 
  -24713   -24834   -25033   -25247   -25428   -25556   -25647   -25745 
  -25883   -26060   -26264   -26480   -26661   -26752   -26732   -26653 
  -26622   -26696   -26852   -27045   -27252   -27481   -27747   -27999 
  -28146   -28140   -28008   -27811   -27591   -27361   -27147   -26997 
  -26908   -26811   -26658   -26465   -26279   -26161   -26142   -26185 
  -26246   -26319   -26415   -26515   -26588   -26644   -26725   -26858 
  -27037   -27203   -27294   -27299   -27253   -27202   -27183   -27195 
  -27218   -27234   -27232   -27240   -27288   -27373   -27476   -27580 
  -27668   -27735   -27778   -27776   -27749   -27789   -27953   -28181 
  -28372   -28486   -28539   -28564   -28595   -28632   -28653   -28660 
  -28686   -28755   -28842   -28902   -28930   -28927   -28873   -28737 
  -28510   -28250   -28046   -27938   -27889   -27839   -27753   -27621 
  -27438   -27230   -27072   -27048   -27164   -27338   -27457   -27456 
  -27330   -27110   -26871   -26715   -26673   -26680   -26644   -26512 
  -26296   -26057   -25833   -25645   -25544   -25577   -25708   -25855 
  -25982   -26126   -26318   -26512   -26644   -26700   -26719   -26742 
  -26761   -26761   -26747   -26736   -26739   -26771   -26820   -26844 
  -26811   -26738   -26671   -26596   -26499   -26412   -26385   -26446 
  -26547   -26604   -26603   -26597   -26600   -26577   -26515   -26443 
  -26416   -26438   -26472   -26478   -26484   -26566   -26754   -26994 
  -27222   -27391   -27491   -27534   -27549   -27584   -27685   -27866 
  -28102   -28325   -28459   -28483   -28445   -28417   -28445   -28521 
  -28621   -28703   -28744   -28736   -28659   -28499   -28291   -28085 
  -27922   -27816   -27761   -27735   -27723   -27711   -27665   -27546 
  -27349   -27122   -26958   -26906   -26947   -27027   -27090   -27087 
  -26985   -26781   -26514   -26260   -26113   -26102   -26165   -26191 
  -26111   -25955   -25775   -25605   -25479   -25458   -25570   -25791 
  -26052   -26283   -26449   -26557   -26632   -26708   -26847   -27093 
  -27409   -27711   -27940   -28073   -28094   -28023   -27913   -27853 
  -27901   -28031   -28146   -28178   -28127   -28012   -27855   -27683 
  -27540   -27483   -27525   -27622   -27699   -27693   -27611   -27496 
  -27386   -27325   -27359   -27490   -27665   -27797   -27791   -27610 
  -27329   -27072   -26932   -26927   -27008   -27109   -27162   -27106 
  -26928   -26681   -26464   -26358   -26384   -26491   -26605   -26669 
  -26669   -26608   -26512   -26431   -26422   -26503   -26651   -26825 
  -26998   -27166   -27302   -27363   -27349   -27319   -27305   -27280 
  -27217   -27126   -27048   -27012   -27013   -26991   -26898   -26752 
  -26635   -26615   -26689   -26825   -27005   -27220   -27433   -27573 
  -27588   -27503   -27399   -27338   -27319   -27310   -27297   -27299 
  -27305   -27275   -27217   -27187   -27244   -27386   -27548   -27658 
  -27715   -27749   -27783   -27815   -27838   -27837   -27816   -27788 
  -27729   -27618   -27473   -27336   -27236   -27172   -27116   -27033 
  -26919   -26785   -26653   -26538   -26451   -26393   -26358   -26354 
  -26370   -26362   -26306   -26221   -26150   -26113   -26088   -26056 
  -26010   -25957   -25909   -25855   -25787   -25722   -25693   -25713 
  -25735   -25701   -25610   -25516   -25466   -25477   -25554   -25681 
  -25834   -25980   -26072   -26098   -26098   -26157   -26334   -26619 
  -26936   -27191   -27328   -27345   -27288   -27203   -27144   -27180 
  -27344   -27614   -27904   -28119   -28215   -28212   -28154   -28092 
  -28043   -28005   -27972   -27949   -27927   -27877   -27776   -27652 
  -27554   -27503   -27480   -27467   -27453   -27467   -27535   -27633 
  -27723   -27814   -27918   -28031   -28151   -28251   -28316   -28391 
  -28532   -28719   -28885   -28985   -29034   -29070   -29085   -29050 
  -28985   -28937   -28925   -28915   -28860   -28756   -28653   -28588 
  -28540   -28458   -28335   -28224   -28155   -28097   -27994   -27839 
  -27662   -27488   -27310   -27128   -26974   -26859   -26736   -26530 
  -26227   -25902   -25667   -25586   -25628   -25756   -25945   -26145 
  -26283   -26327   -26315   -26334   -26451   -26654   -26867   -27039 
  -27143   -27186   -27184   -27163   -27156   -27189   -27238   -27248 
  -27201   -27144   -27143   -27220   -27338   -27430   -27453   -27414 
  -27338   -27264   -27222   -27214   -27236   -27286   -27334   -27351 
  -27332   -27314   -27338   -27423   -27544   -27654   -27730   -27766 
  -27773   -27773   -27773   -27785   -27831   -27916   -28011   -28086 
  -28139   -28196   -28285   -28377   -28399   -28324   -28179   -28001 
  -27803   -27581   -27355   -27144   -26948   -26730   -26478   -26229 
  -26019   -25860   -25737   -25647   -25598   -25604   -25667   -25785 
  -25921   -26048   -26148   -26215   -26234   -26204   -26145   -26091 
  -26069   -26071   -26073   -26069   -26071   -26083   -26109   -26136 
  -26161   -26217   -26322   -26455   -26589   -26690   -26751   -26792 
  -26809   -26775   -26678   -26545   -26410   -26296   -26202   -26129 
  -26094   -26103   -26130   -26153   -26172   -26204   -26262   -26343 
  -26437   -26563   -26752   -26981   -27194   -27351   -27444   -27503 
  -27553   -27596   -27629   -27631   -27585   -27494   -27353   -27163 
  -26948   -26754   -26601   -26466   -26318   -26141   -25956   -25814 
  -25735   -25699   -25686   -25702   -25766   -25870   -25996   -26156 
  -26357   -26604   -26902   -27220   -27492   -27689   -27827   -27915 
  -27943   -27935   -27930   -27950   -28008   -28116   -28258   -28425 
  -28624   -28834   -29010   -29114   -29137   -29089   -28999   -28907 
  -28841   -28799   -28767   -28721   -28649   -28552   -28453   -28381 
  -28335   -28281   -28179   -28023   -27831   -27645   -27495   -27388 
  -27332   -27322   -27357   -27426   -27506   -27585   -27675   -27778 
  -27895   -28009   -28105   -28169   -28171   -28094   -27950   -27764 
  -27560   -27364   -27180   -26994   -26793   -26570   -26315   -26038 
  -25774   -25556   -25423   -25398   -25489   -25655   -25868   -26123 
  -26400   -26670   -26921   -27167   -27415   -27630   -27750   -27735 
  -27595   -27369   -27116   -26894   -26728   -26585   -26437   -26273 
  -26102   -25933   -25775   -25641   -25566   -25581   -25667   -25791 
  -25956   -26199   -26534   -26910   -27248   -27503   -27681   -27831 
  -27980   -28112   -28219   -28316   -28410   -28475   -28472   -28402 
  -28328   -28314   -28371   -28453   -28540   -28634   -28723   -28777 
  -28788   -28773   -28761   -28788   -28854   -28910   -28918   -28887 
  -28834   -28765   -28664   -28544   -28452   -28417   -28413   -28385 
  -28293   -28135   -27949   -27773   -27615   -27494   -27437   -27450 
  -27513   -27580   -27591   -27503   -27341   -27180   -27087   -27066 
  -27089   -27120   -27130   -27110   -27058   -26975   -26878   -26781 
  -26708   -26686   -26715   -26779   -26874   -26989   -27102   -27187 
  -27228   -27210   -27141   -27043   -26931   -26823   -26742   -26704 
  -26701   -26707   -26703   -26685   -26659   -26623   -26577   -26549 
  -26565   -26638   -26763   -26914   -27063   -27179   -27243   -27245 
  -27195   -27108   -27009   -26929   -26883   -26842   -26762   -26657 
  -26581   -26559   -26581   -26616   -26630   -26616   -26589   -26568 
  -26584   -26630   -26663   -26670   -26661   -26640   -26609   -26558 
  -26491   -26443   -26439   -26478   -26553   -26658   -26797   -26954 
  -27097   -27202   -27270   -27318   -27387   -27507   -27676   -27862 
  -28031   -28185   -28340   -28475   -28555   -28578   -28570   -28570 
  -28610   -28690   -28782   -28884   -29012   -29157   -29285   -29377 
  -29424   -29420   -29358   -29223   -28999   -28694   -28347   -27985 
  -27616   -27261   -26940   -26671   -26455   -26266   -26079   -25878 
  -25671   -25481   -25326   -25211   -25145   -25126   -25150   -25197 
  -25259   -25339   -25434   -25529   -25625   -25724   -25834   -25948 
  -26048   -26130   -26200   -26258   -26295   -26304   -26293   -26273 
  -26258   -26258   -26272   -26285   -26292   -26306   -26319   -26310 
  -26265   -26198   -26144   -26122   -26141   -26207   -26308   -26418 
  -26499   -26511   -26430   -26281   -26133   -26049   -26055   -26131 
  -26252   -26389   -26539   -26697   -26850   -27008   -27199   -27427 
  -27662   -27851   -27957   -27972   -27909   -27789   -27641   -27494 
  -27379   -27336   -27364   -27409   -27430   -27440   -27475   -27557 
  -27688   -27855   -28023   -28167   -28287   -28383   -28447   -28464 
  -28456   -28453   -28451   -28414   -28331   -28210   -28088   -27981 
  -27878   -27749   -27585   -27436   -27344   -27319   -27369   -27504 
  -27703   -27907   -28067   -28171   -28246   -28333   -28448   -28583 
  -28719   -28814   -28818   -28698   -28478   -28225   -27993   -27805 
  -27660   -27522   -27379   -27224   -27048   -26881   -26761   -26700 
  -26688   -26712   -26759   -26828   -26914   -27000   -27056   -27079 
  -27076   -27068   -27066   -27067   -27066   -27059   -27039   -27000 
  -26948   -26896   -26851   -26816   -26789   -26752   -26685   -26595 
  -26496   -26400   -26323   -26273   -26250   -26264   -26308   -26361 
  -26403   -26428   -26445   -26487   -26589   -26761   -26989   -27240 
  -27490   -27719   -27905   -28031   -28100   -28132   -28150   -28163 
  -28159   -28101   -27962   -27735   -27445   -27145   -26875   -26643 
  -26460   -26339   -26265   -26204   -26144   -26094   -26086   -26148 
  -26288   -26477   -26673   -26848   -26994   -27117   -27210   -27265 
  -27283   -27271   -27230   -27166   -27068   -26933   -26785   -26676 
  -26646   -26697   -26804   -26952   -27145   -27383   -27643   -27882 
  -28075   -28233   -28354   -28409   -28394   -28336   -28269   -28173 
  -28004   -27731   -27359   -26933   -26516   -26148   -25875   -25731 
  -25685   -25681   -25677   -25672   -25699   -25797   -25972   -26217 
  -26512   -26824   -27109   -27341   -27503   -27607   -27688   -27765 
  -27853   -27950   -28039   -28096   -28104   -28050   -27927   -27742 
  -27538   -27368   -27259   -27187   -27117   -27022   -26902   -26788 
  -26698   -26635   -26604   -26619   -26665   -26692   -26663   -26565 
  -26397   -26190   -25992   -25845   -25752   -25697   -25667   -25658 
  -25656   -25664   -25702   -25802   -25979   -26225   -26515   -26813 
  -27085   -27291   -27396   -27402   -27342   -27256   -27151   -27028 
  -26894   -26759   -26631   -26530   -26468   -26445   -26445   -26462 
  -26505   -26574   -26651   -26720   -26790   -26873   -26954   -27013 
  -27054   -27095   -27148   -27198   -27221   -27211   -27190   -27179 
  -27179   -27175   -27155   -27122   -27090   -27059   -27020   -26975 
  -26937   -26931   -26973   -27047   -27118   -27166   -27195   -27205 
  -27183   -27147   -27133   -27172   -27282   -27449   -27650   -27855 
  -28030   -28142   -28194   -28209   -28213   -28219   -28220   -28227 
  -28264   -28347   -28451   -28559   -28667   -28780   -28921   -29087 
  -29257   -29415   -29552   -29666   -29752   -29809   -29844   -29872 
  -29891   -29891   -29862   -29801   -29708   -29581   -29421   -29234 
  -29027   -28822   -28628   -28441   -28263   -28101   -27966   -27865 
  -27811   -27805   -27846   -27920   -27996   -28035   -28030   -28003 
  -27996   -28016   -28051   -28102   -28177   -28254   -28310   -28341 
  -28345   -28318   -28267   -28217   -28198   -28215   -28243   -28258 
  -28250   -28220   -28173   -28098   -28001   -27888   -27773   -27668 
  -27560   -27425   -27259   -27071   -26860   -26638   -26412   -26188 
  -25964   -25731   -25475   -25182   -24867   -24575   -24336   -24142 
  -23970   -23795   -23620   -23468   -23352   -23275   -23271   -23360 
  -23523   -23720   -23924   -24135   -24375   -24640   -24911   -25182 
  -25444   -25677   -25855   -25955   -25980   -25963   -25932   -25899 
  -25860   -25801   -25714   -25605   -25492   -25407   -25397   -25496 
  -25694   -25961   -26264   -26581   -26900   -27224   -27571   -27947 
  -28329   -28680   -28961   -29147   -29224   -29177   -29014   -28767 
  -28471   -28151   -27822   -27518   -27265   -27079   -26964   -26910 
  -26890   -26892   -26909   -26954   -27029   -27118   -27198   -27267 
  -27310   -27295   -27224   -27120   -27001   -26889   -26798   -26727 
  -26678   -26655   -26646   -26639   -26642   -26678   -26759   -26873 
  -27009   -27153   -27301   -27450   -27604   -27746   -27869   -27966 
  -28008   -27970   -27865   -27718   -27550   -27379   -27217   -27079 
  -26975   -26900   -26854   -26844   -26881   -26964   -27097   -27278 
  -27494   -27734   -27988   -28240   -28475   -28675   -28826   -28919 
  -28961   -28977   -28995   -29011   -29014   -29010   -29010   -29002 
  -28954   -28852   -28714   -28580   -28466   -28356   -28237   -28109 
  -27985   -27868   -27747   -27637   -27541   -27472   -27448   -27477 
  -27544   -27626   -27714   -27803   -27881   -27930   -27939   -27924 
  -27909   -27905   -27891   -27823   -27683   -27490   -27270   -27037 
  -26800   -26569   -26361   -26185   -26034   -25901   -25787   -25702 
  -25663   -25683   -25759   -25867   -26001   -26163   -26339   -26512 
  -26661   -26781   -26883   -26983   -27081   -27159   -27211   -27229 
  -27203   -27149   -27098   -27062   -27045   -27055   -27108   -27210 
  -27372   -27584   -27810   -28005   -28170   -28320   -28467   -28601 
  -28721   -28833   -28945   -29046   -29100   -29096   -29058   -29022 
  -29010   -29016   -29014   -28984   -28938   -28876   -28768   -28599 
  -28379   -28136   -27909   -27707   -27513   -27322   -27140   -26981 
  -26848   -26739   -26636   -26536   -26443   -26356   -26268   -26161 
  -26013   -25834   -25658   -25496   -25343   -25196   -25058   -24929 
  -24802   -24695   -24624   -24599   -24628   -24707   -24823   -24945 
  -25042   -25111   -25166   -25231   -25320   -25412   -25485   -25531 
  -25558   -25578   -25600   -25625   -25683   -25789   -25909   -25999 
  -26040   -26036   -26017   -26011   -26014   -25998   -25961   -25937 
  -25942   -25971   -26019   -26095   -26207   -26352   -26515   -26686 
  -26862   -27045   -27233   -27417   -27585   -27734   -27857   -27953 
  -28042   -28139   -28243   -28328   -28372   -28371   -28340   -28289 
  -28228   -28166   -28112   -28075   -28050   -28021   -27981   -27923 
  -27846   -27764   -27683   -27596   -27500   -27398   -27301   -27211 
  -27121   -27016   -26902   -26786   -26662   -26539   -26426   -26325 
  -26245   -26203   -26211   -26272   -26376   -26528   -26728   -26959 
  -27203   -27444   -27681   -27926   -28175   -28432   -28686   -28931 
  -29161   -29344   -29454   -29481   -29431   -29328   -29205   -29081 
  -28954   -28815   -28669   -28516   -28345   -28167   -28000   -27847 
  -27704   -27581   -27487   -27425   -27406   -27429   -27480   -27554 
  -27650   -27753   -27843   -27905   -27946   -27978   -27988   -27970 
  -27920   -27827   -27688   -27510   -27298   -27076   -26873   -26696 
  -26538   -26389   -26248   -26125   -26029   -25947   -25863   -25783 
  -25713   -25664   -25636   -25608   -25562   -25500   -25428   -25353 
  -25272   -25203   -25174   -25193   -25259   -25370   -25517   -25690 
  -25867   -26022   -26137   -26223   -26304   -26383   -26454   -26528 
  -26595   -26632   -26631   -26586   -26519   -26460   -26423   -26411 
  -26419   -26457   -26534   -26632   -26719   -26777   -26823   -26878 
  -26940   -26994   -27043   -27083   -27117   -27152   -27186   -27224 
  -27287   -27384   -27507   -27645   -27780   -27900   -28004   -28093 
  -28175   -28252   -28321   -28383   -28441   -28483   -28507   -28512 
  -28482   -28413   -28305   -28161   -28004   -27859   -27735   -27643 
  -27587   -27558   -27544   -27529   -27513   -27504   -27498   -27486 
  -27469   -27454   -27436   -27407   -27365   -27307   -27245   -27186 
  -27121   -27049   -26973   -26898   -26825   -26757   -26696   -26651 
  -26635   -26655   -26703   -26762   -26811   -26838   -26848   -26839 
  -26805   -26762   -26725   -26708   -26727   -26785   -26877   -26989 
  -27110   -27234   -27351   -27453   -27538   -27604   -27654   -27684 
  -27687   -27664   -27616   -27557   -27498   -27437   -27372   -27310 
  -27252   -27183   -27099   -27012   -26940   -26909   -26928   -26985 
  -27055   -27122   -27171   -27186   -27156   -27097   -27035   -26986 
  -26956   -26950   -26962   -26978   -26993   -26995   -26973   -26937 
  -26909   -26904   -26928   -26973   -27018   -27064   -27113   -27152 
  -27178   -27205   -27251   -27324   -27418   -27513   -27579   -27608 
  -27608   -27602   -27599   -27608   -27637   -27695   -27783   -27889 
  -27993   -28089   -28185   -28283   -28377   -28458   -28518   -28551 
  -28560   -28549   -28517   -28470   -28422   -28381   -28343   -28300 
  -28243   -28170   -28080   -27970   -27846   -27714   -27583   -27449 
  -27310   -27164   -27013   -26865   -26734   -26636   -26584   -26576 
  -26601   -26658   -26742   -26847   -26963   -27078   -27187   -27290 
  -27387   -27471   -27538   -27584   -27603   -27591   -27550   -27484 
  -27403   -27315   -27224   -27137   -27063   -27000   -26947   -26900 
  -26854   -26804   -26750   -26688   -26631   -26593   -26584   -26603 
  -26653   -26723   -26790   -26829   -26833   -26808   -26761   -26696 
  -26623   -26545   -26453   -26358   -26275   -26206   -26160   -26137 
  -26123   -26118   -26114   -26103   -26092   -26087   -26094   -26125 
  -26184   -26257   -26337   -26426   -26531   -26653   -26777   -26887 
