Origin Time       2025/01/13 21:19:00
Lat.              31.8
Long.             131.6
Depth. (km)       30
Mag.              6.9
Station Code      KMMH18
Station Lat.      33.0031
Station Long.     131.0071
Station Height(m) 932
Record Time       2025/01/13 21:19:56
Sampling Freq(Hz) 100Hz
Duration Time(s)  223
Dir.              6
Scale Factor      7845(gal)/8223790
Max. Acc. (gal)   4.920
Last Correction   2025/01/13 21:19:56
Memo.             
[...]
   -4718    -4614    -4492    -4359    -4236    -4141    -4082    -4039 
   -3963    -3809    -3561    -3226    -2848    -2474    -2145    -1896 
   -1761    -1740    -1802    -1902    -2029    -2235    -2559    -2943 
   -3325    -3688    -4005    -4264    -4438    -4476    -4384    -4209 
   -3962    -3672    -3364    -3071    -2879    -2766    -2664    -2643 
   -2736    -2856    -2951    -3005    -2983    -2882    -2731    -2566 
   -2447    -2424    -2504    -2678    -2930    -3221    -3530    -3820 
   -4039    -4201    -4336    -4418    -4417    -4353    -4245    -4095 
   -3908    -3686    -3423    -3137    -2880    -2693    -2573    -2504 
   -2501    -2594    -2786    -3010    -3181    -3234    -3148    -2967 
   -2752    -2509    -2230    -1938    -1671    -1459    -1335    -1310 
   -1402    -1613    -1930    -2344    -2829    -3322    -3767    -4128 
   -4383    -4530    -4569    -4523    -4428    -4290    -4097    -3851 
   -3570    -3285    -3036    -2848    -2722    -2640    -2581    -2542 
   -2525    -2527    -2535    -2521    -2446    -2315    -2173    -2080 
   -2087    -2192    -2351    -2502    -2592    -2594    -2520    -2404 
   -2272    -2133    -2012    -1933    -1904    -1931    -2011    -2142 
   -2309    -2496    -2686    -2848    -2948    -2976    -2916    -2736 
   -2439    -2068    -1713    -1459    -1358    -1422    -1613    -1848 
   -2053    -2180    -2239    -2265    -2265    -2226    -2116    -1914 
   -1648    -1398    -1221    -1132    -1116    -1155    -1248    -1422 
   -1678    -1953    -2188    -2357    -2465    -2542    -2629    -2770 
   -2974    -3221    -3488    -3732    -3906    -3994    -3997    -3917 
   -3735    -3407    -2938    -2392    -1841    -1381    -1096    -1030 
   -1190    -1545    -2031    -2585    -3145    -3636    -3996    -4189 
   -4178    -3979    -3667    -3331    -3032    -2776    -2582    -2494 
   -2548    -2737    -2990    -3203    -3302    -3258    -3084    -2833 
   -2562    -2304    -2087    -1902    -1719    -1543    -1394    -1294 
   -1237    -1200    -1166    -1138    -1113    -1088    -1061    -1044 
   -1054    -1074    -1088    -1102    -1109    -1082    -1047    -1048 
   -1080    -1150    -1305    -1564    -1937    -2392    -2859    -3275 
   -3566    -3708    -3744    -3717    -3658    -3592    -3489    -3319 
   -3109    -2914    -2791    -2782    -2897    -3153    -3537    -3987 
   -4448    -4864    -5194    -5418    -5518    -5497    -5351    -5077 
   -4710    -4337    -4060    -3956    -4036    -4257    -4549    -4819 
   -4988    -5004    -4854    -4567    -4176    -3758    -3375    -3033 
   -2748    -2547    -2420    -2358    -2347    -2380    -2467    -2594 
   -2733    -2875    -3002    -3117    -3221    -3272    -3231    -3111 
   -2934    -2744    -2587    -2496    -2500    -2623    -2859    -3163 
   -3474    -3751    -3975    -4126    -4195    -4179    -4101    -4020 
   -3973    -3944    -3925    -3898    -3836    -3723    -3570    -3403 
   -3260    -3167    -3107    -3052    -3010    -2990    -2983    -2986 
   -2994    -2997    -2948    -2805    -2583    -2340    -2110    -1890 
   -1698    -1547    -1421    -1336    -1309    -1304    -1301    -1328 
   -1398    -1479    -1560    -1687    -1891    -2177    -2504    -2791 
   -3044    -3312    -3605    -3882    -4093    -4228    -4274    -4167 
   -3896    -3547    -3180    -2790    -2396    -2037    -1729    -1480 
   -1332    -1298    -1336    -1425    -1566    -1691    -1757    -1792 
   -1811    -1822    -1858    -1946    -2100    -2292    -2455    -2565 
   -2652    -2768    -2955    -3221    -3554    -3932    -4311    -4664 
   -4986    -5265    -5502    -5697    -5837    -5913    -5899    -5767 
   -5512    -5130    -4612    -3991    -3321    -2643    -2006    -1445 
    -988     -665     -499     -480     -584     -793    -1077    -1393 
   -1706    -1989    -2227    -2435    -2631    -2816    -2980    -3106 
   -3179    -3206    -3200    -3203    -3268    -3431    -3663    -3883 
   -4032    -4074    -3987    -3778    -3441    -2984    -2462    -1946 
   -1516    -1250    -1193    -1331    -1583    -1846    -2041    -2127 
   -2120    -2064    -1983    -1885    -1772    -1636    -1489    -1367 
   -1290    -1254    -1244    -1255    -1300    -1421    -1644    -1960 
   -2355    -2812    -3280    -3704    -4052    -4309    -4472    -4569 
   -4627    -4637    -4606    -4544    -4461    -4409    -4421    -4483 
   -4561    -4617    -4617    -4541    -4395    -4214    -4017    -3788 
   -3520    -3261    -3046    -2856    -2667    -2486    -2280    -2020 
   -1740    -1453    -1152     -864     -592     -346     -141       67 
     305      537      729      857      931      962      919      801 
     654      473      224      -55     -267     -382     -434     -448 
    -445     -472     -554     -715     -969    -1298    -1696    -2187 
   -2758    -3387    -4048    -4700    -5248    -5578    -5688    -5647 
   -5478    -5219    -4896    -4514    -4120    -3771    -3507    -3377 
   -3395    -3519    -3694    -3875    -4031    -4114    -4112    -4064 
   -3998    -3927    -3897    -3927    -4014    -4152    -4282    -4369 
   -4419    -4402    -4282    -4056    -3739    -3372    -2999    -2660 
   -2394    -2207    -2101    -2092    -2162    -2263    -2347    -2366 
   -2297    -2158    -1972    -1752    -1524    -1302    -1109     -973 
    -905     -907     -990    -1163    -1425    -1746    -2087    -2420 
   -2758    -3115    -3474    -3800    -4077    -4309    -4477    -4564 
   -4585    -4579    -4548    -4499    -4444    -4365    -4239    -4082 
   -3928    -3790    -3650    -3473    -3258    -3006    -2718    -2438 
   -2212    -2066    -2015    -2070    -2219    -2412    -2592    -2710 
   -2735    -2650    -2459    -2173    -1811    -1401     -989     -622 
    -338     -153      -71     -117     -302     -588     -953    -1378 
   -1815    -2227    -2616    -2990    -3338    -3659    -3955    -4220 
   -4461    -4677    -4849    -4976    -5062    -5100    -5093    -5067 
   -5042    -5032    -5046    -5065    -5074    -5043    -4924    -4693 
   -4361    -3967    -3564    -3186    -2837    -2511    -2200    -1908 
   -1656    -1466    -1344    -1267    -1231    -1278    -1425    -1652 
   -1961    -2347    -2779    -3231    -3655    -3978    -4153    -4180 
   -4097    -3951    -3769    -3580    -3427    -3345    -3356    -3465 
   -3626    -3781    -3889    -3909    -3812    -3574    -3194    -2698 
   -2138    -1594    -1154     -874     -777     -839     -997    -1196 
   -1401    -1591    -1767    -1939    -2103    -2247    -2378    -2489 
   -2560    -2601    -2620    -2612    -2565    -2471    -2331    -2160 
   -1995    -1884    -1838    -1863    -1977    -2168    -2377    -2556 
   -2695    -2809    -2880    -2899    -2902    -2901    -2848    -2737 
   -2608    -2459    -2281    -2084    -1872    -1707    -1648    -1610 
   -1526    -1455    -1408    -1325    -1251    -1281    -1401    -1551 
   -1730    -1921    -2072    -2209    -2327    -2361    -2353    -2370 
   -2363    -2296    -2242    -2243    -2280    -2357    -2431    -2451 
   -2515    -2721    -2990    -3235    -3480    -3726    -3935    -4082 
   -4141    -4093    -3916    -3616    -3230    -2789    -2309    -1827 
   -1391    -1004     -679     -499     -542     -808    -1239    -1756 
   -2292    -2799    -3233    -3553    -3724    -3746    -3657    -3485 
   -3262    -3048    -2902    -2848    -2890    -3009    -3199    -3441 
   -3681    -3875    -3997    -4023    -3951    -3794    -3566    -3291 
   -2984    -2681    -2438    -2286    -2251    -2343    -2535    -2781 
   -3030    -3241    -3388    -3460    -3437    -3316    -3129    -2898 
   -2629    -2361    -2160    -2031    -1933    -1852    -1773    -1672 
   -1560    -1475    -1414    -1383    -1418    -1534    -1706    -1922 
   -2192    -2506    -2830    -3113    -3307    -3389    -3339    -3156 
   -2878    -2578    -2336    -2227    -2300    -2548    -2933    -3406 
   -3910    -4347    -4629    -4766    -4770    -4619    -4329    -3947 
   -3527    -3154    -2870    -2658    -2542    -2552    -2668    -2848 
   -3053    -3256    -3415    -3469    -3403    -3267    -3088    -2898 
   -2695    -2452    -2227    -2061    -1915    -1836    -1892    -2043 
   -2266    -2542    -2810    -3056    -3295    -3503    -3680    -3850 
   -3967    -3989    -3956    -3898    -3797    -3645    -3456    -3256 
   -3071    -2868    -2614    -2312    -1971    -1613    -1282    -1011 
    -805     -677     -648     -735     -939    -1237    -1584    -1926 
   -2216    -2434    -2585    -2700    -2799    -2879    -2932    -2941 
   -2897    -2809    -2682    -2519    -2342    -2176    -2034    -1933 
   -1885    -1877    -1902    -1973    -2092    -2241    -2415    -2609 
   -2809    -3007    -3217    -3445    -3693    -3954    -4216    -4465 
   -4680    -4853    -4982    -5038    -5019    -4957    -4847    -4688 
   -4502    -4278    -3981    -3611    -3199    -2766    -2328    -1971 
   -1756    -1701    -1814    -2083    -2465    -2922    -3400    -3839 
   -4209    -4471    -4587    -4553    -4384    -4106    -3753    -3364 
   -3011    -2760    -2625    -2604    -2670    -2781    -2899    -3019 
   -3144    -3249    -3295    -3257    -3146    -3009    -2882    -2744 
   -2583    -2446    -2381    -2417    -2548    -2743    -2983    -3253 
   -3512    -3721    -3851    -3890    -3858    -3777    -3673    -3585 
   -3541    -3554    -3639    -3774    -3910    -4009    -4055    -4027 
   -3909    -3719    -3466    -3153    -2821    -2524    -2272    -2049 
   -1854    -1680    -1534    -1421    -1313    -1178    -1015     -843 
    -680     -533     -432     -426     -534     -735    -1008    -1341 
   -1711    -2079    -2396    -2628    -2781    -2867    -2889    -2876 
   -2862    -2855    -2878    -2937    -2998    -3061    -3159    -3308 
   -3500    -3726    -3974    -4214    -4396    -4480    -4456    -4336 
   -4126    -3824    -3422    -2933    -2405    -1900    -1451    -1036 
    -654     -319      -47      144      245      261      195       41 
    -197     -510     -886    -1312    -1767    -2251    -2782    -3345 
   -3925    -4548    -5215    -5887    -6511    -7047    -7460    -7720 
   -7808    -7732    -7543    -7295    -7045    -6833    -6640    -6423 
   -6157    -5825    -5409    -4909    -4355    -3755    -3119    -2470 
   -1833    -1237     -722     -313      -33      130      179      110 
     -45     -253     -495     -758    -1054    -1398    -1803    -2239 
   -2637    -2971    -3244    -3465    -3667    -3871    -4035    -4089 
   -3979    -3715    -3345    -2911    -2450    -1989    -1521    -1048 
    -592     -159      230      572      861     1074     1198     1220 
    1124      954      751      504      207     -140     -542     -959 
   -1336    -1665    -1966    -2247    -2547    -2922    -3389    -3910 
   -4440    -4949    -5406    -5802    -6133    -6381    -6555    -6674 
   -6748    -6786    -6801    -6787    -6717    -6585    -6421    -6238 
   -5995    -5664    -5256    -4795    -4303    -3808    -3338    -2918 
   -2558    -2268    -2034    -1827    -1640    -1451    -1233     -996 
    -753     -510     -274      -47      175      382      549      635 
     587      375       20     -452    -1030    -1659    -2280    -2868 
   -3380    -3740    -3933    -3983    -3919    -3778    -3599    -3427 
   -3311    -3268    -3307    -3446    -3699    -4023    -4334    -4564 
   -4679    -4669    -4537    -4299    -4037    -3827    -3657    -3511 
   -3424    -3422    -3493    -3596    -3678    -3717    -3694    -3616 
   -3505    -3357    -3140    -2880    -2636    -2450    -2355    -2328 
   -2313    -2347    -2509    -2732    -2945    -3184    -3424    -3576 
   -3642    -3666    -3666    -3632    -3515    -3331    -3204    -3122 
   -2990    -2909    -2992    -3123    -3181    -3215    -3229    -3126 
   -2897    -2581    -2196    -1749    -1232     -689     -189      263 
     623      812      847      789      604      291      -87     -517 
    -943    -1282    -1545    -1773    -1972    -2160    -2380    -2648 
   -2933    -3241    -3599    -3959    -4270    -4529    -4739    -4896 
   -4978    -4988    -4939    -4841    -4702    -4541    -4349    -4132 
   -3913    -3726    -3604    -3524    -3445    -3379    -3337    -3280 
   -3172    -3018    -2806    -2508    -2149    -1806    -1505    -1254 
   -1107    -1070    -1100    -1178    -1274    -1345    -1386    -1385 
   -1325    -1255    -1231    -1258    -1335    -1476    -1692    -1987 
   -2334    -2683    -2999    -3268    -3493    -3658    -3740    -3753 
   -3723    -3676    -3645    -3654    -3707    -3800    -3900    -3950 
   -3931    -3846    -3686    -3447    -3149    -2813    -2450    -2069 
   -1682    -1320    -1053     -916     -909    -1040    -1309    -1669 
   -2054    -2431    -2808    -3156    -3447    -3705    -3948    -4199 
   -4477    -4769    -5082    -5412    -5728    -6006    -6219    -6339 
   -6339    -6193    -5931    -5616    -5275    -4934    -4650    -4456 
   -4324    -4237    -4201    -4210    -4256    -4305    -4314    -4252 
   -4113    -3915    -3672    -3402    -3130    -2883    -2679    -2531 
   -2434    -2365    -2300    -2232    -2170    -2118    -2069    -2018 
   -1977    -1952    -1934    -1948    -2003    -2092    -2196    -2261 
   -2253    -2169    -1999    -1750    -1448    -1101     -723     -341 
      18      344      648      963     1285     1582     1829     2031 
    2208     2340     2369     2259     2026     1701     1302      845 
     360     -128     -622    -1124    -1606    -2041    -2471    -2905 
   -3319    -3717    -4058    -4429    -4792    -4899    -5053    -5487 
   -5718    -5741    -5983    -6274    -6347    -6381    -6372    -6104 
   -5775    -5532    -5198    -4810    -4441    -4017    -3595    -3265 
   -2967    -2648    -2376    -2222    -2181    -2191    -2208    -2232 
   -2249    -2257    -2288    -2363    -2512    -2718    -2929    -3138 
   -3350    -3520    -3654    -3765    -3819    -3825    -3819    -3805 
   -3793    -3801    -3855    -3959    -4074    -4176    -4272    -4328 
   -4313    -4218    -4009    -3713    -3424    -3164    -2891    -2625 
   -2415    -2261    -2158    -2135    -2207    -2347    -2556    -2813 
   -3048    -3240    -3392    -3488    -3543    -3578    -3584    -3541 
   -3418    -3194    -2886    -2524    -2128    -1719    -1310     -927 
    -591     -306      -98       14       58       68       54       24 
      -1      -35     -109     -225     -369     -552     -797    -1124 
   -1507    -1888    -2236    -2546    -2814    -3055    -3289    -3541 
   -3812    -4090    -4341    -4514    -4596    -4603    -4492    -4234 
   -3902    -3537    -3123    -2717    -2358    -2030    -1764    -1632 
   -1645    -1783    -2046    -2431    -2911    -3465    -4054    -4621 
   -5146    -5611    -5957    -6146    -6192    -6130    -5980    -5771 
   -5530    -5293    -5085    -4923    -4822    -4789    -4818    -4858 
   -4876    -4861    -4800    -4681    -4502    -4284    -4067    -3851 
   -3630    -3415    -3210    -3015    -2837    -2674    -2532    -2417 
   -2295    -2122    -1894    -1641    -1399    -1215    -1123    -1117 
   -1165    -1251    -1366    -1485    -1561    -1566    -1482    -1324 
   -1123     -928     -780     -679     -614     -600     -677     -862 
   -1136    -1455    -1776    -2095    -2409    -2702    -2979    -3257 
   -3505    -3657    -3711    -3740    -3777    -3781    -3750    -3711 
   -3650    -3613    -3662    -3746    -3824    -3916    -3991    -4043 
   -4113    -4153    -4106    -4036    -3944    -3755    -3497    -3231 
   -2953    -2674    -2415    -2162    -1902    -1648    -1413    -1192 
    -980     -796     -661     -608     -650     -749     -882    -1059 
   -1246    -1402    -1534    -1629    -1678    -1713    -1769    -1868 
   -2018    -2184    -2366    -2587    -2821    -3055    -3294    -3505 
   -3674    -3801    -3869    -3908    -3960    -4032    -4121    -4228 
   -4320    -4383    -4426    -4450    -4455    -4445    -4425    -4388 
   -4345    -4297    -4229    -4131    -4000    -3836    -3663    -3504 
   -3361    -3245    -3184    -3186    -3230    -3296    -3358    -3393 
   -3381    -3329    -3269    -3218    -3154    -3067    -2961    -2857 
   -2751    -2644    -2570    -2527    -2448    -2300    -2107    -1903 
   -1687    -1467    -1318    -1251    -1188    -1144    -1197    -1298 
   -1364    -1391    -1386    -1366    -1355    -1329    -1317    -1399 
   -1541    -1682    -1846    -2033    -2188    -2300    -2376    -2398 
   -2381    -2351    -2296    -2222    -2150    -2047    -1923    -1837 
   -1806    -1833    -1910    -2003    -2120    -2311    -2589    -2913 
   -3240    -3547    -3834    -4097    -4310    -4463    -4569    -4604 
   -4560    -4475    -4357    -4220    -4102    -4017    -3940    -3856 
   -3761    -3635    -3472    -3280    -3056    -2782    -2454    -2083 
   -1692    -1314     -972     -669     -429     -290     -270     -359 
    -540     -800    -1131    -1507    -1899    -2269    -2581    -2808 
   -2934    -2956    -2902    -2799    -2674    -2562    -2490    -2471 
   -2529    -2689    -2926    -3188    -3433    -3631    -3761    -3811 
   -3790    -3705    -3566    -3404    -3248    -3115    -3029    -2992 
   -3010    -3079    -3172    -3269    -3354    -3404    -3414    -3407 
   -3402    -3410    -3449    -3528    -3647    -3801    -3981    -4185 
   -4403    -4607    -4762    -4843    -4838    -4756    -4606    -4380 
   -4101    -3812    -3545    -3307    -3102    -2932    -2772    -2604 
   -2457    -2335    -2224    -2119    -2003    -1864    -1723    -1601 
   -1510    -1462    -1437    -1443    -1490    -1583    -1737    -1960 
   -2222    -2484    -2721    -2936    -3152    -3369    -3555    -3682 
   -3734    -3742    -3735    -3688    -3578    -3454    -3346    -3229 
   -3084    -2940    -2829    -2736    -2639    -2529    -2365    -2142 
   -1919    -1692    -1453    -1246    -1092     -982     -946     -961 
    -969    -1028    -1197    -1383    -1543    -1714    -1875    -2004 
   -2139    -2277    -2377    -2466    -2583    -2708    -2820    -2926 
   -2988    -2963    -2879    -2786    -2671    -2525    -2376    -2234 
   -2111    -2007    -1912    -1860    -1853    -1852    -1856    -1856 
   -1844    -1845    -1838    -1819    -1846    -1930    -2038    -2168 
   -2307    -2457    -2643    -2853    -3065    -3285    -3522    -3732 
   -3896    -4036    -4149    -4216    -4236    -4229    -4199    -4145 
   -4077    -4018    -3983    -3962    -3946    -3952    -3982    -3987 
   -3948    -3890    -3828    -3773    -3732    -3701    -3686    -3701 
   -3744    -3797    -3834    -3829    -3781    -3663    -3470    -3244 
   -3032    -2853    -2720    -2641    -2633    -2701    -2825    -2995 
   -3211    -3451    -3670    -3832    -3936    -3985    -3960    -3863 
   -3712    -3538    -3361    -3180    -3018    -2883    -2754    -2648 
   -2590    -2555    -2543    -2558    -2567    -2555    -2516    -2452 
   -2374    -2301    -2245    -2207    -2177    -2158    -2165    -2199 
   -2258    -2330    -2401    -2484    -2582    -2721    -2932    -3199 
   -3483    -3755    -4005    -4233    -4446    -4639    -4795    -4881 
   -4900    -4864    -4769    -4600    -4371    -4081    -3717    -3302 
