Origin Time       2025/01/13 21:19:00
Lat.              31.8
Long.             131.6
Depth. (km)       30
Mag.              6.9
Station Code      KMMH03
Station Lat.      32.9984
Station Long.     130.8301
Station Height(m) -22
Record Time       2025/01/13 21:19:56
Sampling Freq(Hz) 100Hz
Duration Time(s)  155
Dir.              3
Scale Factor      2942(gal)/8224139
Max. Acc. (gal)   2.280
Last Correction   2025/01/13 21:19:57
Memo.             
[...]
  -31043   -31189   -31220   -31164   -31118   -31140   -31203   -31253 
  -31256   -31234   -31229   -31260   -31276   -31221   -31136   -31106 
  -31158   -31295   -31509   -31742   -31935   -32062   -32147   -32247 
  -32373   -32449   -32428   -32309   -32144   -32017   -31942   -31823 
  -31621   -31394   -31174   -30982   -30866   -30846   -30890   -30962 
  -31025   -31041   -31018   -31018   -31078   -31190   -31334   -31506 
  -31716   -31954   -32152   -32290   -32421   -32559   -32655   -32682 
  -32660   -32616   -32552   -32471   -32382   -32329   -32364   -32467 
  -32560   -32603   -32620   -32618   -32552   -32408   -32238   -32047 
  -31797   -31525   -31295   -31125   -30996   -30874   -30723   -30524 
  -30306   -30119   -30002   -29979   -30061   -30215   -30399   -30589 
  -30763   -30905   -31001   -31040   -31036   -31000   -30950   -30932 
  -30963   -31014   -31085   -31191   -31310   -31459   -31680   -31946 
  -32179   -32364   -32501   -32568   -32626   -32746   -32900   -33034 
  -33107   -33065   -32896   -32645   -32359   -32059   -31756   -31456 
  -31179   -30943   -30736   -30541   -30358   -30229   -30211   -30314 
  -30451   -30573   -30688   -30807   -30927   -31062   -31226   -31411 
  -31604   -31787   -31903   -31916   -31831   -31672   -31440   -31135 
  -30821   -30591   -30487   -30549   -30759   -31023   -31244   -31415 
  -31583   -31777   -31970   -32109   -32175   -32190   -32159   -32081 
  -31961   -31803   -31622   -31457   -31344   -31272   -31160   -30952 
  -30728   -30586   -30534   -30555   -30639   -30744   -30820   -30852 
  -30859   -30854   -30859   -30913   -31008   -31117   -31236   -31355 
  -31441   -31496   -31534   -31537   -31475   -31356   -31217   -31077 
  -30919   -30717   -30515   -30376   -30311   -30307   -30372   -30478 
  -30584   -30666   -30744   -30851   -30971   -31039   -31035   -31014 
  -31035   -31101   -31167   -31167   -31098   -31039   -31060   -31128 
  -31186   -31270   -31448   -31703   -31984   -32278   -32590   -32859 
  -33004   -33022   -32968   -32898   -32859   -32846   -32805   -32707 
  -32580   -32413   -32200   -31997   -31827   -31671   -31540   -31434 
  -31361   -31347   -31399   -31492   -31580   -31633   -31658   -31664 
  -31646   -31608   -31538   -31403   -31207   -30981   -30757   -30592 
  -30528   -30543   -30592   -30635   -30645   -30613   -30593   -30622 
  -30653   -30612   -30480   -30307   -30165   -30098   -30126   -30233 
  -30387   -30580   -30827   -31118   -31396   -31595   -31681   -31666 
  -31564   -31383   -31172   -31000   -30846   -30666   -30507   -30449 
  -30516   -30697   -30966   -31272   -31536   -31700   -31768   -31743 
  -31637   -31484   -31314   -31133   -30963   -30831   -30724   -30626 
  -30522   -30399   -30261   -30127   -30018   -29997   -30105   -30300 
  -30549   -30851   -31166   -31448   -31703   -31934   -32136   -32320 
  -32493   -32675   -32868   -33023   -33087   -33034   -32876   -32660 
  -32464   -32347   -32316   -32368   -32505   -32699   -32896   -33042 
  -33089   -33034   -32913   -32755   -32574   -32394   -32242   -32116 
  -31999   -31888   -31803   -31768   -31796   -31874   -31992   -32158 
  -32366   -32583   -32771   -32915   -33021   -33085   -33100   -33070 
  -33010   -32927   -32838   -32765   -32719   -32702   -32698   -32688 
  -32679   -32683   -32692   -32683   -32647   -32593   -32522   -32440 
  -32368   -32337   -32344   -32373   -32425   -32499   -32574   -32621 
  -32621   -32587   -32535   -32455   -32341   -32205   -32057   -31896 
  -31703   -31479   -31255   -31071   -30958   -30898   -30844   -30755 
  -30636   -30523   -30430   -30358   -30327   -30337   -30360   -30385 
  -30450   -30581   -30742   -30878   -30969   -31032   -31091   -31168 
  -31253   -31303   -31315   -31315   -31325   -31360   -31428   -31513 
  -31595   -31665   -31723   -31776   -31843   -31912   -31946   -31932 
  -31891   -31820   -31725   -31612   -31507   -31425   -31383   -31395 
  -31456   -31537   -31588   -31577   -31513   -31423   -31329   -31220 
  -31083   -30916   -30721   -30510   -30315   -30169   -30075   -30041 
  -30090   -30222   -30416   -30628   -30813   -30924   -30913   -30769 
  -30519   -30198   -29857   -29547   -29285   -29069   -28896   -28759 
  -28656   -28611   -28644   -28740   -28875   -29020   -29154   -29249 
  -29292   -29282   -29230   -29141   -29054   -29026   -29084   -29236 
  -29478   -29758   -30007   -30214   -30391   -30512   -30550   -30511 
  -30395   -30223   -30041   -29864   -29695   -29548   -29415   -29286 
  -29158   -29033   -28927   -28872   -28884   -28953   -29065   -29205 
  -29343   -29469   -29614   -29803   -30015   -30219   -30424   -30631 
  -30785   -30847   -30856   -30865   -30867   -30854   -30842   -30846 
  -30866   -30901   -30943   -30955   -30929   -30889   -30852   -30817 
  -30759   -30651   -30484   -30273   -30033   -29781   -29532   -29290 
  -29083   -28953   -28918   -28957   -29081   -29303   -29594   -29933 
  -30325   -30757   -31206   -31648   -32040   -32368   -32663   -32961 
  -33277   -33609   -33928   -34191   -34389   -34515   -34557   -34539 
  -34487   -34414   -34300   -34145   -33984   -33860   -33774   -33713 
  -33658   -33598   -33555   -33544   -33531   -33498   -33473   -33467 
  -33459   -33428   -33404   -33409   -33438   -33475   -33494   -33465 
  -33392   -33280   -33115   -32908   -32690   -32485   -32296   -32109 
  -31924   -31737   -31550   -31399   -31305   -31233   -31126   -30955 
  -30747   -30551   -30372   -30187   -30022   -29916   -29893   -29972 
  -30161   -30450   -30823   -31260   -31722   -32158   -32543   -32865 
  -33108   -33254   -33316   -33328   -33313   -33291   -33274   -33272 
  -33301   -33385   -33527   -33683   -33825   -33945   -34042   -34103 
  -34129   -34130   -34098   -34036   -33998   -34030   -34106   -34176 
  -34249   -34339   -34410   -34419   -34381   -34341   -34312   -34302 
  -34330   -34392   -34462   -34528   -34573   -34553   -34423   -34182 
  -33845   -33442   -33025   -32647   -32333   -32103   -31941   -31799 
  -31648   -31483   -31314   -31153   -31024   -30971   -31029   -31174 
  -31371   -31591   -31799   -31976   -32111   -32189   -32196   -32136 
  -32040   -31934   -31824   -31708   -31583   -31448   -31306   -31153 
  -30990   -30836   -30712   -30605   -30504   -30414   -30318   -30176 
  -29983   -29762   -29523   -29273   -29022   -28779   -28560   -28393 
  -28291   -28231   -28192   -28182   -28210   -28244   -28255   -28267 
  -28313   -28399   -28525   -28691   -28868   -29020   -29141   -29223 
  -29259   -29247   -29212   -29188   -29177   -29153   -29114   -29074 
  -29022   -28969   -28952   -28961   -28957   -28904   -28810   -28711 
  -28647   -28622   -28626   -28644   -28655   -28649   -28633   -28621 
  -28617   -28611   -28582   -28512   -28418   -28324   -28225   -28125 
  -28044   -28005   -28021   -28075   -28146   -28250   -28383   -28494 
  -28539   -28512   -28428   -28306   -28155   -27988   -27832   -27723 
  -27684   -27719   -27838   -28051   -28348   -28705   -29114   -29570 
  -30052   -30534   -31006   -31461   -31895   -32321   -32742   -33137 
  -33502   -33860   -34211   -34543   -34828   -35033   -35147   -35172 
  -35104   -34939   -34719   -34495   -34283   -34092   -33939   -33804 
  -33678   -33565   -33461   -33353   -33222   -33050   -32845   -32629 
  -32393   -32104   -31764   -31417   -31093   -30793   -30524   -30314 
  -30163   -30060   -30022   -30061   -30186   -30375   -30577   -30750 
  -30874   -30933   -30948   -30954   -30970   -31009   -31079   -31167 
  -31256   -31356   -31479   -31584   -31633   -31633   -31606   -31540 
  -31409   -31216   -30958   -30649   -30327   -30055   -29870   -29791 
  -29820   -29945   -30144   -30396   -30681   -30973   -31244   -31464 
  -31604   -31688   -31761   -31845   -31947   -32061   -32165   -32251 
  -32354   -32494   -32671   -32894   -33164   -33438   -33681   -33891 
  -34063   -34173   -34230   -34260   -34302   -34375   -34488   -34638 
  -34800   -34940   -35051   -35128   -35170   -35171   -35108   -34950 
  -34677   -34298   -33879   -33477   -33089   -32707   -32355   -32047 
  -31797   -31630   -31549   -31507   -31455   -31405   -31386   -31394 
  -31409   -31415   -31409   -31395   -31413   -31494   -31623   -31757 
  -31869   -31947   -31997   -32040   -32093   -32144   -32189   -32232 
  -32278   -32333   -32404   -32491   -32595   -32713   -32846   -32985 
  -33100   -33174   -33211   -33226   -33216   -33145   -32995   -32790 
  -32548   -32273   -31988   -31729   -31531   -31425   -31418   -31490 
  -31590   -31677   -31738   -31770   -31770   -31731   -31662   -31588 
  -31509   -31410   -31287   -31141   -30987   -30840   -30720   -30649 
  -30622   -30611   -30605   -30600   -30569   -30495   -30384   -30262 
  -30138   -29999   -29833   -29637   -29427   -29236   -29099   -29031 
  -29016   -29029   -29076   -29168   -29312   -29496   -29682   -29847 
  -29988   -30115   -30230   -30334   -30445   -30584   -30757   -30933 
  -31083   -31187   -31252   -31288   -31303   -31314   -31351   -31419 
  -31509   -31579   -31596   -31557   -31490   -31414   -31326   -31234 
  -31166   -31140   -31137   -31144   -31153   -31148   -31094   -30987 
  -30832   -30643   -30443   -30262   -30118   -30017   -29970   -29978 
  -30038   -30133   -30248   -30372   -30480   -30550   -30578   -30568 
  -30526   -30481   -30465   -30493   -30573   -30713   -30897   -31081 
  -31243   -31391   -31530   -31660   -31793   -31943   -32094   -32239 
  -32402   -32583   -32752   -32890   -33014   -33138   -33262   -33394 
  -33540   -33693   -33832   -33949   -34034   -34074   -34056   -33978 
  -33853   -33708   -33535   -33330   -33124   -32946   -32784   -32618 
  -32444   -32251   -32028   -31779   -31511   -31229   -30943   -30673 
  -30423   -30171   -29902   -29627   -29369   -29150   -28971   -28826 
  -28740   -28709   -28710   -28730   -28769   -28834   -28937   -29080 
  -29270   -29508   -29772   -30041   -30288   -30491   -30655   -30802 
  -30939   -31050   -31114   -31117   -31074   -31032   -31025   -31039 
  -31045   -31041   -31047   -31097   -31197   -31324   -31453   -31558 
  -31627   -31648   -31607   -31510   -31374   -31225   -31095   -31005 
  -30956   -30947   -30958   -30967   -30990   -31055   -31164   -31294 
  -31415   -31503   -31548   -31553   -31530   -31488   -31428   -31341 
  -31229   -31105   -30982   -30850   -30699   -30531   -30350   -30149 
  -29936   -29717   -29500   -29300   -29149   -29064   -29052   -29122 
  -29296   -29551   -29832   -30109   -30370   -30593   -30766   -30883 
  -30925   -30869   -30730   -30553   -30393   -30283   -30240   -30267 
  -30365   -30526   -30712   -30890   -31058   -31207   -31324   -31419 
  -31514   -31611   -31712   -31810   -31885   -31939   -31976   -31997 
  -32009   -32024   -32047   -32067   -32073   -32076   -32081   -32084 
  -32076   -32054   -32036   -32049   -32096   -32171   -32267   -32367 
  -32454   -32508   -32516   -32482   -32412   -32300   -32140   -31939 
  -31714   -31486   -31253   -31023   -30829   -30700   -30642   -30653 
  -30734   -30878   -31079   -31328   -31584   -31795   -31930   -31995 
  -32007   -31978   -31922   -31850   -31773   -31710   -31673   -31664 
  -31669   -31676   -31680   -31691   -31725   -31777   -31838   -31884 
  -31923   -31988   -32088   -32201   -32312   -32404   -32468   -32521 
  -32574   -32606   -32606   -32586   -32564   -32533   -32475   -32402 
  -32328   -32247   -32152   -32036   -31895   -31739   -31585   -31453 
  -31353   -31279   -31213   -31160   -31122   -31090   -31044   -30983 
  -30919   -30867   -30824   -30790   -30778   -30769   -30743   -30697 
  -30628   -30542   -30449   -30361   -30291   -30252   -30248   -30280 
  -30343   -30422   -30496   -30555   -30589   -30600   -30601   -30609 
  -30638   -30696   -30801   -30970   -31197   -31453   -31718   -31978 
  -32221   -32447   -32652   -32795   -32850   -32825   -32740   -32602 
  -32420   -32177   -31858   -31487   -31089   -30673   -30249   -29833 
  -29435   -29069   -28756   -28480   -28219   -27972   -27754   -27565 
  -27409   -27288   -27205   -27147   -27116   -27129   -27191   -27283 
  -27388   -27523   -27697   -27897   -28101   -28294   -28476   -28655 
  -28849   -29081   -29354   -29668   -30034   -30435   -30851   -31279 
  -31719   -32151   -32563   -32949   -33296   -33593   -33847   -34044 
  -34180   -34272   -34338   -34395   -34450   -34499   -34531   -34535 
  -34495   -34407   -34279   -34103   -33879   -33600   -33272   -32904 
  -32503   -32089   -31703   -31375   -31106   -30900   -30738   -30599 
  -30493   -30426   -30380   -30348   -30339   -30357   -30388   -30423 
  -30478   -30566   -30677   -30781   -30852   -30890   -30901   -30871 
  -30792   -30689   -30609   -30562   -30541   -30559   -30640   -30781 
  -30977   -31209   -31446   -31685   -31941   -32204   -32440   -32624 
  -32751   -32836   -32895   -32954   -33030   -33123   -33231   -33362 
  -33507   -33643   -33756   -33835   -33875   -33871   -33821   -33739 
  -33644   -33538   -33404   -33255   -33110   -32965   -32822   -32683 
  -32533   -32370   -32209   -32051   -31878   -31685   -31488   -31298 
  -31095   -30875   -30650   -30418   -30171   -29925   -29700   -29482 
  -29254   -29018   -28779   -28521   -28250   -27976   -27688   -27361 
  -27002   -26643   -26312   -26021   -25758   -25508   -25281   -25095 
  -24980   -24953   -25008   -25124   -25286   -25492   -25724   -25987 
  -26289   -26623   -26982   -27378   -27832   -28355   -28934   -29554 
  -30194   -30840   -31491   -32135   -32744   -33304   -33813   -34263 
  -34638   -34939   -35167   -35318   -35405   -35425   -35376   -35264 
  -35101   -34894   -34657   -34389   -34101   -33814   -33542   -33291 
  -33069   -32869   -32684   -32520   -32370   -32224   -32077   -31931 
  -31770   -31567   -31301   -30981   -30627   -30237   -29809   -29374 
  -28962   -28575   -28224   -27939   -27735   -27607   -27553   -27561 
  -27610   -27680   -27780   -27920   -28088   -28273   -28491   -28749 
  -29034   -29350   -29718   -30142   -30601   -31062   -31503   -31919 
  -32312   -32676   -33011   -33318   -33581   -33790   -33953   -34059 
  -34087   -34042   -33944   -33818   -33710   -33637   -33602   -33616 
  -33689   -33805   -33959   -34141   -34330   -34515   -34693   -34847 
  -34954   -35012   -35014   -34929   -34761   -34522   -34194   -33822 
  -33442   -33039   -32651   -32293   -31976   -31719   -31504   -31310 
  -31124   -30927   -30731   -30553   -30379   -30207   -30045   -29911 
  -29829   -29808   -29852   -29967   -30134   -30337   -30564   -30778 
  -30962   -31116   -31233   -31322   -31384   -31425   -31472   -31527 
  -31592   -31664   -31722   -31761   -31770   -31733   -31644   -31513 
  -31360   -31199   -31047   -30932   -30877   -30898   -31014   -31214 
  -31472   -31752   -32015   -32244   -32431   -32580   -32703   -32790 
  -32823   -32811   -32765   -32684   -32579   -32467   -32351   -32235 
  -32111   -31973   -31816   -31641   -31444   -31207   -30925   -30613 
  -30294   -29986   -29687   -29405   -29162   -28972   -28831   -28744 
  -28702   -28683   -28674   -28696   -28755   -28830   -28919   -29029 
  -29145   -29253   -29358   -29469   -29585   -29718   -29874   -30055 
  -30267   -30504   -30762   -31043   -31347   -31679   -32057   -32486 
  -32954   -33444   -33929   -34388   -34813   -35194   -35523   -35806 
  -36020   -36166   -36269   -36327   -36331   -36283   -36188   -36058 
  -35901   -35711   -35487   -35220   -34908   -34549   -34132   -33670 
  -33189   -32706   -32229   -31762   -31307   -30888   -30524   -30214 
  -29938   -29685   -29451   -29238   -29052   -28907   -28813   -28756 
  -28734   -28737   -28755   -28796   -28856   -28922   -28989   -29045 
  -29085   -29124   -29177   -29239   -29320   -29428   -29550   -29677 
  -29814   -29968   -30144   -30350   -30591   -30870   -31183   -31511 
  -31839   -32165   -32471   -32741   -32969   -33160   -33322   -33447 
  -33538   -33596   -33620   -33604   -33551   -33451   -33313   -33154 
  -32989   -32827   -32683   -32566   -32476   -32427   -32420   -32458 
  -32553   -32709   -32919   -33188   -33511   -33871   -34267   -34689 
  -35110   -35496   -35839   -36136   -36379   -36566   -36698   -36769 
  -36778   -36738   -36648   -36501   -36308   -36072   -35792   -35480 
  -35133   -34743   -34321   -33890   -33455   -33018   -32584   -32158 
  -31745   -31348   -30952   -30543   -30125   -29721   -29338   -28966 
  -28617   -28296   -27997   -27726   -27484   -27263   -27062   -26889 
  -26754   -26665   -26627   -26640   -26698   -26784   -26870   -26933 
  -26974   -27001   -27025   -27056   -27087   -27122   -27193   -27325 
  -27523   -27788   -28117   -28491   -28888   -29300   -29718   -30126 
  -30511   -30861   -31158   -31405   -31612   -31777   -31905   -31999 
  -32055   -32097   -32123   -32117   -32077   -32004   -31908   -31806 
  -31696   -31576   -31446   -31309   -31172   -31050   -30933   -30808 
  -30677   -30541   -30402   -30281   -30207   -30172   -30157   -30146 
  -30136   -30129   -30127   -30122   -30110   -30092   -30071   -30063 
  -30083   -30123   -30176   -30238   -30302   -30358   -30420   -30493 
  -30578   -30667   -30748   -30843   -30979   -31148   -31334   -31556 
  -31814   -32082   -32335   -32545   -32698   -32796   -32849   -32876 
  -32902   -32940   -32999   -33102   -33249   -33420   -33601   -33781 
  -33940   -34060   -34125   -34126   -34075   -33982   -33860   -33717 
  -33558   -33382   -33196   -33010   -32829   -32645   -32443   -32205 
  -31927   -31623   -31325   -31064   -30842   -30658   -30527   -30453 
  -30430   -30466   -30553   -30680   -30842   -31029   -31234   -31450 
  -31677   -31907   -32117   -32277   -32373   -32414   -32401   -32337 
  -32252   -32165   -32074   -31986   -31896   -31800   -31710   -31617 
  -31509   -31386   -31260   -31139   -31013   -30888   -30765   -30631 
  -30487   -30338   -30190   -30041   -29894   -29756   -29627   -29513 
  -29428   -29362   -29295   -29211   -29110   -28993   -28871   -28749 
  -28629   -28509   -28393   -28289   -28201   -28132   -28090   -28077 
  -28082   -28092   -28101   -28115   -28129   -28139   -28136   -28132 
  -28135   -28161   -28219   -28301   -28395   -28502   -28620   -28750 
  -28888   -29029   -29174   -29327   -29493   -29671   -29844   -30011 
  -30180   -30348   -30518   -30693   -30882   -31079   -31275   -31468 
  -31662   -31861   -32071   -32302   -32562   -32833   -33093   -33323 
  -33513   -33669   -33787   -33871   -33929   -33959   -33960   -33936 
  -33882   -33799   -33697   -33586   -33477   -33377   -33293   -33230 
  -33172   -33099   -33002   -32883   -32752   -32621   -32498   -32378 
  -32258   -32138   -32030   -31939   -31865   -31803   -31768   -31781 
  -31843   -31943   -32077   -32232   -32401   -32586   -32776   -32958 
  -33138   -33319   -33507   -33694   -33863   -33999   -34105   -34186 
  -34227   -34221   -34176   -34086   -33937   -33748   -33542   -33324 
  -33100   -32872   -32626   -32363   -32096   -31820   -31540   -31253 
  -30948   -30639   -30356   -30107   -29899   -29736   -29604   -29490 
  -29382   -29281   -29200   -29142   -29096   -29060   -29023   -28977 
