Origin Time       2025/01/13 21:19:00
Lat.              31.8
Long.             131.6
Depth. (km)       30
Mag.              6.9
Station Code      KMMH10
Station Lat.      32.3151
Station Long.     130.1811
Station Height(m) 158
Record Time       2025/01/13 21:19:55
Sampling Freq(Hz) 100Hz
Duration Time(s)  218
Dir.              4
Scale Factor      7845(gal)/8223790
Max. Acc. (gal)   5.916
Last Correction   2025/01/13 21:19:55
Memo.             
[...]
   -4831    -4648    -4391    -4070    -3705    -3338    -3009    -2741 
   -2552    -2450    -2455    -2586    -2829    -3129    -3392    -3553 
   -3640    -3758    -4013    -4463    -5073    -5757    -6420    -6991 
   -7458    -7866    -8228    -8525    -8745    -8887    -8964    -8972 
   -8874    -8657    -8365    -8079    -7861    -7716    -7578    -7361 
   -7003    -6509    -5938    -5383    -4903    -4492    -4093    -3643 
   -3126    -2567    -2029    -1561    -1152     -785     -465     -195 
      13      147      220      234      159      -43     -373     -805 
   -1279    -1748    -2227    -2759    -3366    -4035    -4716    -5375 
   -6018    -6667    -7325    -7954    -8488    -8877    -9113    -9247 
   -9348    -9467    -9597    -9690    -9709    -9657    -9560    -9441 
   -9328    -9211    -9066    -8900    -8726    -8554    -8398    -8251 
   -8086    -7869    -7561    -7141    -6627    -6079    -5568    -5166 
   -4914    -4788    -4726    -4654    -4533    -4365    -4185    -4037 
   -3935    -3823    -3640    -3373    -3033    -2644    -2232    -1817 
   -1420    -1098     -918     -904    -1059    -1371    -1799    -2289 
   -2793    -3265    -3670    -3982    -4183    -4271    -4263    -4191 
   -4086    -3950    -3771    -3543    -3256    -2928    -2608    -2351 
   -2187    -2119    -2133    -2211    -2335    -2489    -2678    -2924 
   -3204    -3461    -3657    -3786    -3858    -3875    -3834    -3724 
   -3580    -3474    -3470    -3608    -3878    -4230    -4617    -4981 
   -5273    -5482    -5652    -5852    -6142    -6507    -6878    -7202 
   -7454    -7623    -7690    -7636    -7464    -7186    -6793    -6270 
   -5629    -4923    -4228    -3619    -3153    -2857    -2697    -2609 
   -2520    -2376    -2187    -1998    -1837    -1713    -1649    -1687 
   -1868    -2188    -2585    -2982    -3327    -3609    -3846    -4051 
   -4225    -4351    -4409    -4391    -4313    -4228    -4210    -4303 
   -4495    -4742    -4992    -5204    -5351    -5406    -5362    -5229 
   -5039    -4837    -4656    -4518    -4437    -4395    -4361    -4341 
   -4357    -4441    -4618    -4869    -5151    -5424    -5668    -5869 
   -6041    -6215    -6403    -6571    -6674    -6678    -6610    -6542 
   -6534    -6613    -6759    -6925    -7088    -7231    -7326    -7360 
   -7322    -7184    -6944    -6612    -6210    -5769    -5341    -4966 
   -4699    -4599    -4680    -4907    -5216    -5521    -5753    -5896 
   -5950    -5926    -5819    -5598    -5243    -4776    -4261    -3796 
   -3443    -3213    -3079    -3029    -3052    -3141    -3288    -3462 
   -3601    -3657    -3631    -3557    -3483    -3445    -3420    -3365 
   -3250    -3078    -2886    -2745    -2722    -2847    -3094    -3395 
   -3681    -3917    -4120    -4326    -4540    -4715    -4803    -4769 
   -4591    -4280    -3881    -3458    -3087    -2821    -2670    -2610 
   -2616    -2659    -2733    -2830    -2949    -3119    -3368    -3677 
   -3978    -4201    -4324    -4379    -4419    -4490    -4614    -4800 
   -5059    -5373    -5697    -5995    -6232    -6407    -6559    -6718 
   -6893    -7091    -7294    -7454    -7539    -7555    -7537    -7500 
   -7441    -7331    -7134    -6841    -6481    -6066    -5599    -5084 
   -4530    -3982    -3500    -3122    -2852    -2677    -2556    -2438 
   -2290    -2118    -1938    -1780    -1669    -1618    -1625    -1688 
   -1800    -1919    -2015    -2097    -2200    -2380    -2691    -3138 
   -3669    -4224    -4783    -5360    -5984    -6647    -7296    -7850 
   -8232    -8403    -8368    -8189    -7950    -7736    -7607    -7562 
   -7555    -7539    -7488    -7383    -7207    -6941    -6563    -6069 
   -5498    -4915    -4365    -3882    -3493    -3207    -3006    -2868 
   -2789    -2762    -2764    -2767    -2733    -2625    -2436    -2212 
   -2010    -1876    -1846    -1929    -2122    -2404    -2744    -3095 
   -3395    -3611    -3753    -3856    -3975    -4139    -4334    -4549 
   -4770    -4978    -5148    -5233    -5205    -5076    -4876    -4645 
   -4419    -4220    -4078    -4012    -4009    -4045    -4104    -4160 
   -4210    -4266    -4334    -4415    -4521    -4668    -4868    -5134 
   -5472    -5841    -6189    -6466    -6623    -6646    -6551    -6347 
   -6043    -5663    -5259    -4897    -4645    -4540    -4558    -4654 
   -4784    -4904    -4969    -4957    -4860    -4691    -4475    -4249 
   -4066    -3947    -3875    -3809    -3717    -3604    -3514    -3497 
   -3592    -3821    -4179    -4627    -5115    -5575    -5956    -6223 
   -6366    -6405    -6393    -6367    -6328    -6245    -6087    -5846 
   -5567    -5316    -5142    -5034    -4950    -4838    -4664    -4428 
   -4152    -3863    -3582    -3316    -3048    -2751    -2431    -2137 
   -1941    -1904    -2033    -2281    -2608    -2986    -3403    -3844 
   -4286    -4692    -5044    -5341    -5598    -5854    -6137    -6435 
   -6716    -6956    -7156    -7327    -7500    -7678    -7827    -7890 
   -7828    -7642    -7362    -7045    -6731    -6417    -6089    -5740 
   -5374    -5019    -4699    -4414    -4163    -3935    -3708    -3485 
   -3281    -3080    -2866    -2651    -2461    -2322    -2263    -2303 
   -2420    -2578    -2735    -2867    -2990    -3130    -3291    -3447 
   -3570    -3640    -3653    -3618    -3577    -3597    -3721    -3955 
   -4272    -4630    -4984    -5310    -5572    -5717    -5713    -5563 
   -5292    -4959    -4654    -4432    -4291    -4198    -4109    -4012 
   -3944    -3967    -4122    -4418    -4823    -5277    -5710    -6083 
   -6361    -6524    -6578    -6539    -6435    -6311    -6200    -6111 
   -6011    -5873    -5671    -5402    -5100    -4810    -4564    -4380 
   -4257    -4190    -4162    -4147    -4143    -4163    -4220    -4325 
   -4476    -4627    -4733    -4783    -4795    -4804    -4873    -5047 
   -5317    -5643    -5965    -6223    -6393    -6478    -6490    -6451 
   -6380    -6282    -6149    -5941    -5641    -5273    -4873    -4486 
   -4151    -3892    -3705    -3574    -3453    -3300    -3107    -2901 
   -2728    -2624    -2577    -2551    -2524    -2508    -2538    -2646 
   -2839    -3099    -3384    -3638    -3823    -3929    -3981    -4017 
   -4059    -4081    -4064    -4005    -3917    -3844    -3820    -3867 
   -4012    -4253    -4561    -4895    -5209    -5463    -5649    -5787 
   -5884    -5934    -5918    -5818    -5634    -5400    -5159    -4963 
   -4849    -4837    -4920    -5076    -5255    -5408    -5494    -5501 
   -5437    -5327    -5188    -5017    -4796    -4518    -4195    -3848 
   -3500    -3183    -2921    -2731    -2597    -2485    -2374    -2265 
   -2160    -2081    -2060    -2111    -2235    -2417    -2614    -2812 
   -3025    -3260    -3515    -3778    -4033    -4278    -4522    -4772 
   -5026    -5275    -5512    -5733    -5941    -6133    -6280    -6357 
   -6354    -6277    -6150    -6018    -5902    -5788    -5649    -5447 
   -5155    -4792    -4415    -4104    -3913    -3854    -3905    -4008 
   -4098    -4149    -4148    -4101    -4044    -4028    -4089    -4239 
   -4471    -4757    -5062    -5363    -5648    -5907    -6133    -6331 
   -6500    -6633    -6732    -6786    -6793    -6768    -6712    -6612 
   -6474    -6308    -6129    -5950    -5769    -5578    -5381    -5170 
   -4942    -4708    -4486    -4284    -4102    -3921    -3735    -3570 
   -3474    -3493    -3627    -3839    -4089    -4337    -4564    -4757 
   -4895    -4955    -4915    -4737    -4414    -3990    -3538    -3134 
   -2837    -2641    -2517    -2446    -2417    -2428    -2477    -2562 
   -2671    -2783    -2875    -2960    -3063    -3199    -3384    -3608 
   -3866    -4162    -4494    -4858    -5251    -5647    -6029    -6404 
   -6774    -7123    -7429    -7669    -7843    -7977    -8083    -8160 
   -8199    -8187    -8120    -8004    -7842    -7622    -7348    -7052 
   -6777    -6563    -6420    -6307    -6164    -5948    -5653    -5323 
   -5032    -4838    -4741    -4706    -4680    -4635    -4584    -4553 
   -4553    -4561    -4552    -4517    -4457    -4375    -4271    -4149 
   -4029    -3931    -3867    -3839    -3815    -3758    -3650    -3504 
   -3362    -3271    -3241    -3244    -3229    -3164    -3059    -2956 
   -2898    -2906    -2984    -3107    -3254    -3424    -3620    -3844 
   -4091    -4349    -4585    -4773    -4919    -5039    -5163    -5323 
   -5518    -5717    -5881    -5983    -6006    -5950    -5818    -5614 
   -5348    -5050    -4764    -4518    -4329    -4206    -4133    -4093 
   -4071    -4068    -4098    -4171    -4278    -4387    -4476    -4542 
   -4610    -4696    -4801    -4904    -4990    -5055    -5104    -5131 
   -5121    -5049    -4904    -4685    -4394    -4044    -3672    -3312 
   -2999    -2768    -2647    -2646    -2764    -2982    -3256    -3551 
   -3852    -4163    -4475    -4768    -5034    -5260    -5437    -5574 
   -5674    -5718    -5688    -5571    -5359    -5066    -4719    -4344 
   -3952    -3547    -3117    -2650    -2153    -1641    -1148     -710 
    -348      -93       21      -31     -270     -693    -1281    -1977 
   -2704    -3381    -3963    -4437    -4804    -5076    -5265    -5385 
   -5471    -5580    -5746    -5983    -6291    -6650    -7009    -7302 
   -7489    -7558    -7506    -7344    -7090    -6756    -6349    -5895 
   -5437    -5011    -4629    -4294    -4009    -3765    -3550    -3361 
   -3204    -3086    -3013    -2994    -3044    -3172    -3391    -3708 
   -4094    -4477    -4781    -4959    -5009    -4959    -4872    -4787 
   -4707    -4622    -4519    -4410    -4309    -4234    -4209    -4226 
   -4271    -4330    -4413    -4529    -4695    -4932    -5231    -5551 
   -5854    -6122    -6336    -6508    -6662    -6833    -7068    -7398 
   -7807    -8233    -8610    -8897    -9078    -9167    -9186    -9124 
   -8976    -8734    -8401    -7994    -7545    -7078    -6613    -6150 
   -5680    -5209    -4765    -4371    -4028    -3723    -3441    -3159 
   -2862    -2550    -2228    -1911    -1634    -1440    -1378    -1495 
   -1830    -2394    -3154    -4043    -4972    -5859    -6655    -7329 
   -7865    -8245    -8441    -8436    -8244    -7915    -7523    -7140 
   -6798    -6507    -6258    -6043    -5842    -5625    -5370    -5057 
   -4679    -4267    -3858    -3469    -3119    -2817    -2558    -2357 
   -2232    -2193    -2253    -2419    -2691    -3059    -3499    -3962 
   -4396    -4770    -5070    -5320    -5572    -5849    -6133    -6404 
   -6640    -6825    -6970    -7078    -7130    -7091    -6913    -6566 
   -6070    -5483    -4876    -4311    -3828    -3424    -3092    -2803 
   -2543    -2322    -2135    -1962    -1764    -1503    -1159     -751 
    -325       70      400      649      815      905      926      872 
     719      442       22     -530    -1177    -1881    -2600    -3304 
   -3998    -4676    -5321    -5914    -6413    -6799    -7074    -7265 
   -7435    -7647    -7921    -8235    -8515    -8692    -8733    -8635 
   -8414    -8089    -7662    -7137    -6539    -5915    -5305    -4739 
   -4220    -3731    -3269    -2833    -2435    -2115    -1896    -1792 
   -1804    -1899    -2034    -2169    -2268    -2305    -2269    -2150 
   -1957    -1723    -1489    -1305    -1236    -1324    -1591    -2043 
   -2639    -3316    -4017    -4681    -5273    -5772    -6143    -6358 
   -6408    -6303    -6080    -5791    -5475    -5169    -4896    -4671 
   -4510    -4421    -4399    -4432    -4517    -4654    -4839    -5050 
   -5252    -5414    -5512    -5529    -5481    -5385    -5271    -5170 
   -5100    -5077    -5111    -5189    -5292    -5413    -5535    -5652 
   -5780    -5937    -6115    -6318    -6536    -6721    -6828    -6840 
   -6767    -6650    -6524    -6417    -6323    -6218    -6093    -5976 
   -5888    -5857    -5896    -5987    -6120    -6308    -6531    -6755 
   -6968    -7122    -7155    -7082    -6936    -6735    -6497    -6222 
   -5906    -5570    -5250    -4996    -4838    -4761    -4723    -4684 
   -4611    -4486    -4311    -4113    -3897    -3659    -3414    -3177 
   -2963    -2789    -2660    -2571    -2512    -2477    -2459    -2462 
   -2498    -2573    -2682    -2813    -2968    -3145    -3337    -3545 
   -3762    -3973    -4194    -4445    -4733    -5071    -5474    -5917 
   -6353    -6728    -7007    -7177    -7252    -7250    -7184    -7063 
   -6890    -6673    -6416    -6123    -5776    -5364    -4897    -4391 
   -3865    -3357    -2909    -2565    -2378    -2373    -2540    -2859 
   -3281    -3743    -4193    -4587    -4881    -5023    -4988    -4791 
   -4465    -4064    -3657    -3289    -2970    -2682    -2416    -2174 
   -1971    -1819    -1732    -1699    -1688    -1678    -1671    -1664 
   -1659    -1672    -1723    -1827    -1995    -2222    -2484    -2762 
   -3052    -3358    -3699    -4098    -4564    -5085    -5652    -6239 
   -6822    -7388    -7909    -8370    -8757    -9055    -9255    -9343 
   -9325    -9228    -9081    -8910    -8727    -8526    -8282    -7967 
   -7574    -7109    -6590    -6060    -5563    -5135    -4792    -4541 
   -4382    -4306    -4309    -4376    -4491    -4652    -4855    -5098 
   -5362    -5607    -5805    -5941    -6008    -6018    -5989    -5945 
   -5910    -5890    -5872    -5863    -5872    -5900    -5927    -5922 
   -5867    -5761    -5624    -5483    -5351    -5211    -5028    -4754 
   -4351    -3812    -3167    -2469    -1764    -1098     -494       58 
     562     1008     1362     1570     1575     1343      891      279 
    -403    -1084    -1728    -2343    -2957    -3595    -4247    -4866 
   -5413    -5868    -6223    -6493    -6717    -6914    -7079    -7195 
   -7248    -7202    -7032    -6760    -6434    -6081    -5729    -5390 
   -5044    -4673    -4278    -3861    -3434    -3014    -2608    -2227 
   -1894    -1632    -1466    -1410    -1449    -1539    -1636    -1738 
   -1876    -2068    -2324    -2647    -3024    -3445    -3913    -4429 
   -4972    -5499    -5953    -6277    -6439    -6420    -6243    -5948 
   -5555    -5093    -4598    -4110    -3680    -3341    -3103    -2953 
   -2860    -2799    -2768    -2778    -2833    -2959    -3167    -3445 
   -3767    -4101    -4414    -4696    -4942    -5146    -5290    -5360 
   -5359    -5312    -5275    -5308    -5440    -5657    -5934    -6238 
   -6548    -6852    -7137    -7372    -7524    -7584    -7555    -7430 
   -7210    -6906    -6536    -6126    -5698    -5263    -4826    -4388 
   -3966    -3595    -3327    -3199    -3218    -3361    -3592    -3874 
   -4190    -4538    -4899    -5233    -5522    -5779    -6035    -6336 
   -6716    -7168    -7655    -8129    -8533    -8830    -9008    -9040 
   -8903    -8595    -8140    -7585    -6999    -6435    -5930    -5506 
   -5161    -4895    -4706    -4590    -4549    -4569    -4623    -4693 
   -4774    -4869    -4970    -5046    -5069    -5024    -4914    -4765 
   -4623    -4521    -4473    -4467    -4475    -4480    -4483    -4475 
   -4450    -4406    -4333    -4225    -4093    -3939    -3763    -3573 
   -3369    -3137    -2882    -2632    -2401    -2196    -2026    -1903 
   -1827    -1804    -1841    -1937    -2089    -2286    -2504    -2737 
   -3001    -3300    -3645    -4045    -4499    -4990    -5491    -5958 
   -6354    -6658    -6856    -6955    -6963    -6886    -6744    -6567 
   -6378    -6197    -6050    -5945    -5879    -5850    -5834    -5802 
   -5744    -5656    -5537    -5408    -5279    -5154    -5027    -4876 
   -4673    -4396    -4024    -3553    -3006    -2424    -1850    -1336 
    -915     -599     -392     -303     -328     -432     -575     -706 
    -776     -756     -642     -449     -217        8      182      252 
     176      -62     -459    -1000    -1644    -2332    -3033    -3735 
   -4414    -5057    -5674    -6270    -6825    -7319    -7738    -8066 
   -8298    -8436    -8494    -8483    -8399    -8253    -8047    -7765 
   -7408    -6993    -6538    -6069    -5620    -5224    -4896    -4638 
   -4452    -4333    -4290    -4345    -4503    -4749    -5046    -5341 
   -5593    -5779    -5900    -5975    -6018    -6033    -6021    -5996 
   -5980    -5989    -6035    -6111    -6208    -6299    -6355    -6369 
   -6340    -6261    -6123    -5913    -5614    -5240    -4819    -4372 
   -3916    -3483    -3096    -2785    -2579    -2500    -2546    -2700 
   -2925    -3175    -3412    -3603    -3719    -3753    -3712    -3613 
   -3489    -3379    -3306    -3292    -3338    -3426    -3526    -3609 
   -3666    -3686    -3670    -3628    -3570    -3508    -3441    -3366 
   -3295    -3240    -3215    -3245    -3349    -3528    -3792    -4139 
   -4563    -5054    -5593    -6151    -6705    -7225    -7686    -8077 
   -8387    -8608    -8734    -8760    -8704    -8606    -8492    -8371 
   -8240    -8082    -7890    -7661    -7387    -7064    -6689    -6262 
   -5790    -5287    -4772    -4267    -3800    -3387    -3028    -2728 
   -2511    -2384    -2351    -2419    -2575    -2787    -3033    -3296 
   -3562    -3817    -4050    -4251    -4425    -4580    -4727    -4884 
   -5053    -5236    -5432    -5610    -5749    -5838    -5880    -5898 
   -5907    -5904    -5859    -5730    -5483    -5111    -4652    -4162 
   -3700    -3298    -2953    -2675    -2475    -2353    -2308    -2344 
   -2440    -2555    -2641    -2654    -2579    -2436    -2247    -2052 
   -1888    -1783    -1760    -1838    -2025    -2307    -2670    -3098 
   -3566    -4045    -4521    -4984    -5431    -5852    -6234    -6566 
   -6833    -7038    -7198    -7323    -7425    -7501    -7550    -7562 
   -7534    -7472    -7396    -7311    -7211    -7098    -6974    -6840 
   -6701    -6548    -6372    -6151    -5873    -5541    -5170    -4777 
   -4390    -4027    -3693    -3384    -3080    -2775    -2475    -2191 
   -1922    -1672    -1439    -1208     -982     -787     -649     -583 
    -596     -687     -830    -1013    -1233    -1501    -1846    -2282 
   -2810    -3415    -4070    -4750    -5433    -6103    -6744    -7319 
   -7786    -8129    -8344    -8433    -8421    -8338    -8194    -7989 
   -7720    -7406    -7072    -6744    -6435    -6127    -5787    -5395 
   -4947    -4448    -3925    -3416    -2945    -2528    -2191    -1965 
   -1881    -1968    -2227    -2621    -3098    -3611    -4116    -4587 
   -5024    -5432    -5806    -6143    -6457    -6764    -7079    -7395 
   -7699    -7950    -8108    -8160    -8108    -7958    -7730    -7438 
   -7096    -6714    -6299    -5863    -5427    -5001    -4596    -4221 
   -3870    -3523    -3179    -2848    -2532    -2251    -2046    -1937 
   -1934    -2056    -2299    -2647    -3076    -3537    -3969    -4333 
   -4617    -4823    -4959    -5034    -5039    -4968    -4823    -4630 
   -4407    -4186    -3994    -3832    -3712    -3658    -3676    -3757 
   -3888    -4040    -4186    -4317    -4460    -4633    -4826    -5022 
   -5192    -5309    -5375    -5409    -5429    -5456    -5490    -5514 
   -5506    -5451    -5351    -5219    -5062    -4887    -4691    -4469 
   -4225    -3971    -3724    -3493    -3292    -3134    -3014    -2929 
   -2872    -2836    -2812    -2799    -2814    -2872    -2986    -3167 
   -3404    -3681    -3990    -4325    -4675    -5036    -5408    -5771 
   -6102    -6378    -6594    -6759    -6890    -6994    -7063    -7086 
