Origin Time       2025/01/13 21:19:00
Lat.              31.8
Long.             131.6
Depth. (km)       30
Mag.              6.9
Station Code      KMMH18
Station Lat.      33.0031
Station Long.     131.0071
Station Height(m) 854.038
Record Time       2025/01/13 21:19:56
Sampling Freq(Hz) 100Hz
Duration Time(s)  223
Dir.              2
Scale Factor      3923(gal)/8224838
Max. Acc. (gal)   4.560
Last Correction   2025/01/13 21:19:56
Memo.             
[...]
   25112    25181    25197    25162    25066    24926    24777    24649 
   24561    24530    24551    24605    24671    24745    24838    24961 
   25107    25242    25315    25282    25153    25008    24939    24970 
   25057    25155    25245    25307    25312    25239    25107    24976 
   24907    24921    24997    25101    25216    25332    25442    25529 
   25582    25605    25602    25569    25515    25462    25402    25332 
   25269    25220    25149    25018    24822    24588    24376    24248 
   24212    24240    24286    24321    24340    24333    24277    24177 
   24090    24069    24131    24273    24478    24718    24958    25158 
   25288    25317    25243    25115    24976    24833    24684    24556 
   24464    24412    24391    24385    24375    24340    24277    24194 
   24105    24008    23922    23874    23882    23919    23934    23890 
   23781    23630    23508    23477    23569    23766    24012    24236 
   24410    24545    24655    24738    24800    24858    24916    24961 
   25006    25076    25154    25199    25193    25157    25100    25033 
   24970    24923    24891    24877    24889    24918    24935    24925 
   24880    24817    24726    24597    24422    24205    23974    23800 
   23728    23727    23738    23742    23743    23762    23850    24044 
   24313    24602    24885    25151    25365    25482    25505    25454 
   25347    25209    25084    24995    24943    24903    24837    24741 
   24646    24583    24571    24618    24715    24857    25030    25211 
   25363    25451    25452    25392    25311    25205    25057    24889 
   24768    24750    24835    24966    25080    25142    25137    25057 
   24912    24741    24601    24532    24526    24576    24656    24702 
   24671    24595    24522    24457    24376    24277    24194    24178 
   24241    24340    24425    24478    24505    24516    24533    24576 
   24641    24729    24835    24957    25101    25263    25421    25562 
   25663    25716    25736    25748    25776    25820    25839    25797 
   25682    25505    25294    25074    24850    24619    24375    24125 
   23904    23750    23674    23677    23749    23861    23976    24062 
   24115    24170    24283    24468    24686    24867    24970    25003 
   24968    24887    24791    24692    24590    24493    24424    24381 
   24337    24286    24233    24209    24244    24327    24413    24459 
   24424    24309    24187    24119    24093    24070    24021    23922 
   23772    23627    23557    23595    23730    23922    24132    24318 
   24448    24517    24536    24521    24490    24453    24417    24382 
   24339    24295    24259    24236    24251    24305    24374    24449 
   24518    24568    24605    24641    24680    24709    24702    24646 
   24571    24524    24543    24632    24776    24960    25145    25277 
   25319    25272    25180    25107    25099    25170    25303    25469 
   25636    25749    25772    25720    25629    25535    25452    25373 
   25269    25105    24884    24672    24537    24494    24514    24537 
   24509    24409    24263    24117    24008    23951    23949    23971 
   23967    23889    23745    23589    23494    23508    23650    23903 
   24244    24636    25003    25286    25485    25616    25671    25641 
   25542    25401    25255    25132    25042    25000    25014    25053 
   25089    25114    25116    25093    25050    25006    25003    25073 
   25199    25331    25424    25461    25471    25509    25591    25717 
   25870    26022    26150    26227    26223    26134    25995    25867 
   25786    25740    25683    25585    25431    25222    24999    24822 
   24723    24676    24633    24549    24412    24231    24046    23900 
   23792    23693    23623    23608    23641    23704    23793    23890 
   23973    24028    24047    24020    23924    23750    23518    23264 
   23017    22794    22615    22491    22454    22538    22709    22912 
   23103    23274    23409    23510    23610    23738    23892    24039 
   24147    24229    24327    24463    24619    24756    24841    24883 
   24923    24993    25103    25236    25350    25390    25323    25150 
   24900    24641    24429    24285    24213    24233    24340    24498 
   24675    24841    24970    25045    25060    25027    24987    24989 
   25068    25201    25320    25363    25328    25234    25122    25038 
   25012    25045    25108    25191    25319    25500    25690    25843 
   25933    25949    25903    25829    25753    25695    25694    25770 
   25902    26042    26134    26134    26033    25874    25731    25663 
   25675    25728    25771    25764    25674    25494    25245    24954 
   24671    24433    24260    24152    24096    24077    24104    24187 
   24302    24409    24475    24476    24436    24416    24462    24599 
   24833    25101    25293    25338    25230    25014    24761    24547 
   24412    24347    24321    24318    24329    24345    24374    24406 
   24425    24416    24370    24295    24227    24193    24197    24227 
   24270    24328    24378    24394    24383    24364    24332    24278 
   24212    24148    24085    24025    23993    24015    24089    24196 
   24297    24364    24403    24448    24521    24621    24727    24788 
   24784    24729    24637    24518    24387    24254    24142    24079 
   24069    24106    24182    24263    24340    24436    24565    24727 
   24916    25107    25266    25375    25425    25428    25421    25421 
   25398    25328    25203    25007    24761    24524    24302    24052 
   23755    23461    23249    23171    23240    23449    23750    24065 
   24333    24526    24645    24725    24831    24999    25205    25397 
   25524    25577    25575    25523    25429    25309    25143    24911 
   24625    24348    24156    24074    24070    24094    24106    24075 
   23989    23862    23724    23606    23526    23502    23546    23661 
   23843    24077    24325    24537    24651    24611    24417    24139 
   23877    23701    23629    23645    23735    23888    24069    24217 
   24297    24318    24314    24308    24312    24335    24370    24409 
   24471    24606    24818    25051    25254    25396    25465    25459 
   25402    25293    25114    24869    24619    24451    24422    24544 
   24767    25019    25240    25402    25504    25543    25510    25409 
   25265    25107    24948    24802    24679    24565    24432    24256 
   24039    23804    23583    23429    23388    23467    23642    23899 
   24220    24549    24837    25091    25340    25594    25853    26086 
   26250    26329    26349    26347    26333    26293    26239    26184 
   26115    26015    25882    25725    25543    25328    25080    24817 
   24568    24359    24187    24069    24030    24067    24151    24279 
   24445    24615    24777    24956    25147    25305    25416    25528 
   25682    25864    26014    26082    26050    25932    25755    25551 
   25334    25126    24952    24826    24780    24853    25041    25293 
   25533    25705    25798    25826    25789    25668    25478    25257 
   25026    24787    24534    24279    24067    23950    23926    23936 
   23917    23850    23758    23673    23623    23615    23641    23718 
   23862    24039    24208    24339    24425    24494    24572    24668 
   24764    24826    24830    24773    24672    24559    24464    24382 
   24260    24077    23866    23676    23552    23557    23728    24019 
   24331    24614    24894    25197    25516    25836    26161    26491 
   26788    26979    27009    26874    26604    26260    25915    25597 
   25301    25034    24808    24655    24601    24602    24564    24449 
   24308    24225    24246    24324    24376    24354    24246    24077 
   23866    23620    23384    23206    23109    23089    23116    23176 
   23287    23454    23650    23803    23823    23656    23313    22879 
   22458    22135    21969    21956    22033    22142    22254    22365 
   22492    22661    22894    23190    23500    23768    23976    24136 
   24267    24379    24471    24517    24470    24304    24070    23889 
   23849    23990    24316    24781    25311    25830    26311    26744 
   27108    27403    27634    27761    27761    27649    27437    27147 
   26850    26615    26457    26361    26316    26307    26268    26146 
   25986    25882    25879    25948    26001    25937    25709    25357 
   24964    24615    24328    24039    23688    23292    22913    22592 
   22357    22245    22283    22468    22783    23171    23539    23831 
   24044    24219    24394    24597    24819    25030    25201    25335 
   25447    25575    25733    25893    26036    26161    26246    26260 
   26204    26103    25955    25736    25463    25181    24921    24706 
   24540    24408    24317    24295    24368    24545    24803    25100 
   25367    25524    25529    25419    25278    25199    25195    25209 
   25180    25072    24900    24722    24578    24457    24345    24252 
   24201    24192    24221    24306    24478    24759    25130    25537 
   25922    26200    26304    26230    26033    25775    25493    25200 
   24880    24507    24092    23707    23429    23269    23183    23121 
   23063    23014    22998    23020    23045    23032    22966    22879 
   22831    22878    23028    23244    23487    23724    23920    24048 
   24127    24200    24301    24430    24580    24715    24781    24765 
   24721    24702    24725    24769    24791    24745    24633    24493 
   24382    24360    24464    24676    24927    25184    25442    25672 
   25840    25921    25911    25816    25651    25417    25077    24621 
   24115    23673    23376    23236    23199    23209    23226    23236 
   23236    23234    23237    23268    23355    23498    23677    23849 
   23965    24031    24101    24206    24316    24374    24359    24267 
   24113    23951    23847    23823    23869    23967    24089    24202 
   24289    24375    24514    24726    24973    25222    25461    25674 
   25852    25987    26056    26056    26010    25928    25794    25633 
   25515    25466    25448    25398    25263    25037    24760    24502 
   24324    24246    24252    24295    24343    24417    24574    24833 
   25178    25552    25852    26022    26098    26119    26080    25999 
   25932    25937    26044    26234    26453    26662    26860    27059 
   27248    27410    27535    27585    27506    27270    26919    26541 
   26215    25983    25870    25861    25898    25938    25951    25905 
   25825    25763    25735    25702    25617    25454    25216    24937 
   24679    24484    24362    24322    24358    24436    24528    24618 
   24692    24741    24786    24844    24930    25065    25276    25585 
   25971    26401    26827    27152    27309    27319    27253    27166 
   27090    27064    27122    27245    27394    27530    27622    27652 
   27623    27541    27400    27220    27060    26982    27002    27103 
   27243    27357    27398    27337    27182    26963    26719    26487 
   26288    26126    25999    25886    25728    25477    25134    24738 
   24344    23984    23664    23382    23125    22887    22667    22453 
   22227    22010    21845    21744    21706    21751    21878    22056 
   22246    22403    22501    22561    22574    22505    22353    22138 
   21906    21705    21554    21456    21405    21371    21339    21330 
   21355    21397    21438    21496    21570    21637    21710    21820 
   21975    22157    22342    22532    22736    22937    23102    23225 
   23326    23423    23545    23700    23858    23973    24023    24040 
   24066    24092    24089    24057    24019    23994    23981    23959 
   23915    23854    23788    23724    23681    23680    23719    23773 
   23805    23768    23645    23446    23184    22879    22561    22242 
   21930    21633    21361    21109    20865    20619    20370    20101 
   19809    19519    19249    18994    18742    18512    18343    18266 
   18272    18327    18431    18612    18867    19164    19465    19743 
   19989    20205    20407    20632    20891    21180    21508    21874 
   22273    22689    23101    23500    23881    24208    24440    24543 
   24520    24405    24233    24042    23874    23761    23697    23672 
   23670    23680    23693    23719    23774    23884    24050    24260 
   24501    24753    25002    25263    25571    25936    26339    26754 
   27148    27498    27804    28085    28345    28576    28755    28867 
   28929    28973    29023    29077    29097    29043    28925    28760 
   28551    28300    28028    27756    27490    27228    27000    26860 
   26874    27058    27372    27735    28063    28316    28522    28719 
   28929    29166    29416    29628    29756    29771    29691    29575 
   29484    29459    29528    29686    29910    30159    30422    30726 
   31112    31583    32071    32479    32736    32832    32817    32769 
   32728    32680    32613    32508    32364    32216    32085    31969 
   31864    31764    31662    31550    31423    31288    31149    31002 
   30844    30682    30516    30325    30092    29808    29475    29151 
   28871    28622    28381    28125    27841    27510    27136    26748 
   26362    25982    25629    25323    25060    24830    24607    24386 
   24166    23955    23773    23649    23593    23615    23712    23868 
   24046    24197    24277    24243    24062    23733    23282    22756 
   22216    21714    21278    20907    20587    20291    19980    19626 
   19248    18871    18488    18081    17647    17205    16799    16457 
   16177    15936    15719    15507    15314    15174    15122    15190 
   15372    15623    15916    16247    16605    16989    17404    17829 
   18229    18582    18901    19178    19390    19539    19645    19723 
   19811    19939    20093    20224    20308    20341    20322    20256 
   20164    20036    19853    19639    19448    19299    19191    19121 
   19099    19133    19211    19321    19440    19556    19677    19800 
   19927    20073    20235    20386    20506    20594    20650    20690 
   20754    20896    21134    21448    21791    22125    22435    22724 
   22998    23265    23517    23733    23903    24052    24225    24433 
   24661    24914    25208    25536    25878    26229    26565    26886 
   27234    27637    28075    28517    28937    29328    29690    30041 
   30408    30769    31075    31311    31488    31621    31715    31774 
   31808    31833    31853    31854    31814    31730    31625    31522 
   31423    31305    31162    31006    30835    30670    30547    30474 
   30461    30528    30667    30862    31109    31399    31735    32103 
   32459    32752    32930    32954    32836    32591    32227    31758 
   31193    30541    29840    29131    28460    27843    27265    26727 
   26221    25755    25370    25092    24896    24746    24602    24428 
   24204    23932    23633    23342    23072    22808    22531    22231 
   21905    21575    21281    21042    20866    20760    20714    20741 
   20856    21058    21347    21705    22068    22364    22523    22497 
   22284    21941    21535    21109    20676    20250    19858    19531 
   19302    19198    19221    19318    19418    19476    19483    19469 
   19494    19569    19685    19822    19942    20031    20123    20241 
   20389    20568    20779    21006    21223    21421    21589    21735 
   21878    22023    22180    22341    22478    22577    22636    22662 
   22678    22701    22720    22715    22658    22543    22418    22356 
   22389    22512    22698    22904    23091    23256    23403    23572 
   23830    24212    24714    25281    25855    26396    26886    27344 
   27820    28340    28894    29458    29992    30450    30804    31039 
   31163    31213    31220    31179    31082    30925    30735    30569 
   30496    30581    30839    31216    31630    32005    32286    32464 
   32578    32664    32746    32829    32884    32865    32722    32404 
   31903    31284    30634    30013    29458    28992    28624    28358 
   28205    28159    28185    28247    28298    28285    28165    27939 
   27657    27375    27126    26912    26707    26470    26164    25785 
   25338    24841    24328    23828    23371    22993    22701    22491 
   22365    22302    22279    22292    22314    22295    22184    21932 
   21531    21041    20524    20038    19666    19465    19421    19481 
   19592    19710    19827    19959    20120    20304    20498    20692 
   20880    21054    21201    21323    21424    21506    21566    21591 
   21578    21519    21406    21246    21050    20822    20548    20235 
   19897    19543    19201    18893    18632    18459    18396    18412 
   18459    18485    18446    18364    18300    18323    18474    18732 
   19048    19383    19718    20056    20403    20740    21053    21385 
   21799    22349    23044    23841    24675    25492    26257    26955 
   27568    28070    28437    28657    28744    28713    28593    28401 
   28129    27807    27488    27187    26902    26655    26451    26288 
   26190    26200    26349    26647    27068    27538    27984    28362 
   28652    28848    28960    28983    28908    28745    28543    28348 
   28200    28104    28031    27947    27854    27764    27688    27635 
   27598    27564    27545    27556    27591    27606    27523    27292 
   26920    26445    25921    25401    24918    24502    24178    23930 
   23724    23549    23384    23214    23052    22914    22801    22709 
   22613    22499    22380    22287    22210    22111    21959    21739 
   21460    21143    20826    20545    20339    20235    20237    20326 
   20476    20641    20802    20977    21181    21406    21645    21871 
   22030    22102    22086    21976    21778    21521    21253    21015 
   20815    20602    20308    19899    19398    18873    18395    17996 
   17671    17392    17127    16876    16675    16575    16614    16807 
   17139    17560    18022    18519    19076    19719    20466    21293 
   22162    23035    23853    24586    25246    25878    26536    27236 
   27932    28566    29124    29641    30132    30601    31047    31450 
   31811    32132    32408    32632    32786    32834    32764    32599 
   32379    32136    31892    31630    31303    30906    30477    30038 
   29617    29261    28966    28674    28340    27939    27480    27022 
   26634    26345    26141    25965    25756    25490    25185    24880 
   24625    24448    24343    24275    24220    24185    24200    24305 
   24522    24841    25235    25699    26214    26731    27189    27535 
   27762    27882    27899    27803    27612    27349    27024    26657 
   26292    25974    25717    25520    25380    25281    25207    25151 
   25108    25077    25085    25165    25311    25478    25600    25618 
   25513    25311    25065    24834    24644    24483    24341    24227 
   24146    24097    24081    24106    24162    24223    24268    24281 
   24231    24115    23955    23796    23660    23537    23422    23325 
   23279    23315    23436    23604    23789    23978    24146    24281 
   24394    24502    24607    24706    24800    24906    25020    25141 
   25278    25448    25643    25829    25995    26141    26253    26335 
   26407    26465    26511    26558    26608    26661    26720    26794 
   26875    26950    27027    27117    27224    27352    27494    27630 
   27749    27841    27893    27877    27756    27502    27098    26573 
