Origin Time       2025/01/13 21:19:00
Lat.              31.8
Long.             131.6
Depth. (km)       30
Mag.              6.9
Station Code      KMMH03
Station Lat.      32.9984
Station Long.     130.8301
Station Height(m) 178
Record Time       2025/01/13 21:19:56
Sampling Freq(Hz) 100Hz
Duration Time(s)  155
Dir.              6
Scale Factor      7845(gal)/8223790
Max. Acc. (gal)   3.803
Last Correction   2025/01/13 21:19:57
Memo.             
[...]
  -19049   -18991   -19180   -19400   -19568   -19792   -20104   -20326 
  -20259   -19842   -19188   -18523   -18071   -17911   -17996   -18247 
  -18565   -18819   -18885   -18729   -18458   -18196   -17990   -17848 
  -17805   -17851   -17871   -17807   -17790   -17964   -18260   -18446 
  -18400   -18175   -17907   -17736   -17717   -17783   -17801   -17653 
  -17378   -17255   -17608   -18432   -19356   -19899   -19772   -19089 
  -18326   -17938   -17998   -18219   -18258   -17979   -17539   -17269 
  -17458   -18123   -18932   -19440   -19442   -19036   -18458   -17984 
  -17825   -17990   -18265   -18343   -18084   -17705   -17582   -17865 
  -18395   -18898   -19183   -19209   -19094   -18986   -18887   -18713 
  -18446   -18161   -17882   -17594   -17378   -17396   -17728   -18238 
  -18631   -18640   -18189   -17436   -16727   -16409   -16567   -17058 
  -17791   -18713   -19618   -20235   -20453   -20360   -20124   -19861 
  -19602   -19386   -19307   -19452   -19799   -20159   -20247   -19904 
  -19248   -18530   -17952   -17617   -17558   -17768   -18144   -18523 
  -18781   -18816   -18582   -18181   -17795   -17583   -17670   -18088 
  -18709   -19291   -19666   -19819   -19820   -19759   -19678   -19556 
  -19345   -19022   -18632   -18307   -18192   -18310   -18596   -18955 
  -19272   -19422   -19318   -18998   -18654   -18505   -18677   -19116 
  -19599   -19907   -19948   -19804   -19673   -19676   -19707   -19579 
  -19232   -18747   -18295   -18060   -18111   -18330   -18534   -18650 
  -18715   -18751   -18742   -18701   -18697   -18781   -18877   -18794 
  -18427   -17928   -17610   -17655   -17952   -18249   -18391   -18405 
  -18407   -18368   -18144   -17745   -17396   -17261   -17335   -17547 
  -17801   -17999   -18115   -18198   -18279   -18303   -18211   -18007 
  -17748   -17513   -17394   -17433   -17568   -17729   -17936   -18230 
  -18598   -18941   -19125   -19107   -18924   -18632   -18377   -18293 
  -18366   -18490   -18567   -18601   -18705   -18897   -19022   -18951 
  -18727   -18607   -18816   -19253   -19602   -19622   -19272   -18744 
  -18303   -18083   -18018   -17945   -17783   -17591   -17487   -17541 
  -17718   -17969   -18297   -18661   -18939   -19078   -19126   -19109 
  -19014   -18806   -18400   -17790   -17149   -16719   -16646   -16888 
  -17251   -17524   -17621   -17563   -17382   -17123   -16891   -16767 
  -16723   -16641   -16447   -16195   -15990   -15892   -15901   -16009 
  -16232   -16595   -17085   -17620   -18085   -18393   -18547   -18636 
  -18706   -18715   -18616   -18447   -18304   -18243   -18239   -18238 
  -18198   -18069   -17826   -17482   -17099   -16822   -16848   -17277 
  -17991   -18725   -19264   -19506   -19460   -19295   -19232   -19302 
  -19333   -19209   -18970   -18632   -18162   -17641   -17297   -17296 
  -17525   -17697   -17651   -17458   -17265   -17135   -17022   -16902 
  -16895   -17157   -17668   -18206   -18542   -18662   -18708   -18787 
  -18874   -18895   -18841   -18766   -18731   -18740   -18743   -18728 
  -18773   -18933   -19213   -19550   -19820   -19924   -19863   -19681 
  -19414   -19128   -18924   -18928   -19197   -19516   -19549   -19192 
  -18685   -18358   -18397   -18746   -19203   -19588   -19847   -20008 
  -20073   -20056   -20035   -20066   -20139   -20194   -20132   -19912 
  -19677   -19643   -19839   -20035   -19973   -19622   -19151   -18720 
  -18368   -18052   -17720   -17342   -16900   -16409   -15971   -15757 
  -15912   -16488   -17356   -18168   -18631   -18810   -18985   -19344 
  -19807   -20070   -19935   -19558   -19244   -19089   -18971   -18835 
  -18787   -18943   -19275   -19649   -19866   -19796   -19512   -19207 
  -18952   -18663   -18272   -17861   -17540   -17302   -17116   -17024 
  -17077   -17228   -17379   -17520   -17784   -18300   -19032   -19765 
  -20243   -20389   -20421   -20595   -20866   -20996   -20923   -20795 
  -20767   -20873   -20985   -20929   -20699   -20368   -19932   -19433 
  -18956   -18503   -18094   -17861   -17890   -18115   -18334   -18320 
  -17991   -17415   -16814   -16484   -16607   -17172   -18037   -18997 
  -19874   -20521   -20822   -20768   -20402   -19819   -19244   -18951 
  -19068   -19488   -19948   -20189   -20092   -19714   -19202   -18678 
  -18202   -17809   -17555   -17475   -17514   -17541   -17460   -17296 
  -17150   -17043   -16935   -16889   -16984   -17185   -17417   -17617 
  -17766   -17859   -17874   -17849   -17874   -17963   -18081   -18187 
  -18225   -18195   -18127   -18067   -18071   -18102   -18073   -17946 
  -17695   -17302   -16846   -16486   -16305   -16244   -16202   -16120 
  -16024   -15981   -16012   -16069   -16127   -16259   -16563   -16995 
  -17409   -17749   -18071   -18458   -18927   -19387   -19727   -19869 
  -19750   -19367   -18852   -18441   -18274   -18293   -18304   -18135 
  -17745   -17235   -16753   -16405   -16208   -16074   -15862   -15510 
  -15082   -14721   -14539   -14590   -14875   -15304   -15722   -16043 
  -16341   -16704   -17105   -17464   -17724   -17861   -17888   -17848 
  -17847   -18009   -18368   -18792   -19117   -19311   -19435   -19554 
  -19742   -20004   -20240   -20387   -20483   -20552   -20576   -20576 
  -20586   -20629   -20683   -20641   -20414   -20051   -19700   -19461 
  -19323   -19207   -19030   -18742   -18362   -18003   -17771   -17724 
  -17905   -18225   -18426   -18346   -18094   -17865   -17759   -17780 
  -17922   -18195   -18584   -19022   -19427   -19753   -20004   -20177 
  -20224   -20071   -19691   -19175   -18666   -18293   -18107   -18021 
  -17894   -17653   -17311   -16941   -16602   -16320   -16235   -16494 
  -16997   -17496   -17868   -18202   -18673   -19344   -20043   -20520 
  -20677   -20574   -20299   -19926   -19440   -18840   -18215   -17662 
  -17275   -17142   -17189   -17220   -17182   -17143   -17101   -17030 
  -16991   -17053   -17204   -17362   -17521   -17814   -18326   -18967 
  -19580   -20067   -20437   -20752   -21027   -21242   -21415   -21582 
  -21658   -21438   -20856   -20104   -19394   -18837   -18492   -18370 
  -18482   -18775   -19080   -19192   -19024   -18735   -18650   -18941 
  -19438   -19764   -19649   -19145   -18551   -18142   -17996   -17990 
  -17923   -17753   -17612   -17610   -17761   -17995   -18206   -18335 
  -18420   -18520   -18640   -18702   -18654   -18590   -18675   -19013 
  -19548   -20081   -20449   -20605   -20537   -20299   -20043   -19917 
  -19921   -19880   -19633   -19251   -18906   -18654   -18480   -18397 
  -18439   -18551   -18588   -18454   -18234   -18138   -18307   -18642 
  -18928   -19008   -18819   -18409   -17964   -17671   -17582   -17660 
  -17905   -18318   -18756   -18945   -18767   -18397   -18085   -17915 
  -17820   -17728   -17625   -17518   -17425   -17396   -17425   -17451 
  -17466   -17544   -17695   -17840   -17922   -17969   -18018   -18034 
  -17968   -17872   -17811   -17791   -17809   -17811   -17703   -17491 
  -17323   -17343   -17566   -17875   -18122   -18222   -18229   -18262 
  -18346   -18385   -18307   -18137   -17999   -17999   -18079   -18104 
  -18100   -18193   -18381   -18524   -18542   -18484   -18472   -18615 
  -18929   -19317   -19645   -19804   -19724   -19440   -19089   -18832 
  -18747   -18793   -18851   -18824   -18665   -18378   -18040   -17737 
  -17459   -17120   -16694   -16221   -15776   -15466   -15414   -15701 
  -16297   -17061   -17832   -18512   -19037   -19371   -19535   -19583 
  -19500   -19271   -18997   -18860   -18975   -19327   -19809   -20250 
  -20488   -20452   -20146   -19674   -19240   -19024   -19091   -19376 
  -19708   -19932   -20024   -20055   -20096   -20128   -20061   -19839 
  -19550   -19323   -19194   -19128   -19113   -19153   -19207   -19206 
  -19071   -18736   -18241   -17743   -17361   -17068   -16807   -16607 
  -16551   -16691   -16992   -17296   -17431   -17386   -17274   -17180 
  -17101   -17041   -17072   -17223   -17342   -17266   -17061   -16974 
  -17193   -17680   -18239   -18643   -18755   -18605   -18333   -18075 
  -17918   -17901   -18003   -18173   -18330   -18418   -18453   -18472 
  -18495   -18553   -18688   -18886   -19055   -19080   -18927   -18646 
  -18376   -18249   -18291   -18392   -18419   -18360   -18339   -18451 
  -18631   -18702   -18571   -18304   -17988   -17668   -17386   -17207 
  -17223   -17498   -17963   -18428   -18725   -18770   -18616   -18462 
  -18469   -18627   -18870   -19084   -19079   -18787   -18416   -18238 
  -18330   -18530   -18613   -18493   -18289   -18158   -18139   -18196 
  -18272   -18293   -18220   -18058   -17791   -17408   -17014   -16800 
  -16868   -17173   -17598   -18009   -18318   -18507   -18580   -18547 
  -18453   -18364   -18292   -18203   -18073   -17948   -17940   -18146 
  -18526   -18944   -19319   -19646   -19905   -20016   -19894   -19553 
  -19110   -18701   -18384   -18129   -17867   -17591   -17355   -17196 
  -17072   -16922   -16819   -16920   -17251   -17683   -18085   -18419 
  -18720   -19006   -19201   -19207   -19024   -18785   -18694   -18841 
  -19094   -19255   -19300   -19361   -19523   -19700   -19716   -19527 
  -19267   -19071   -18948   -18828   -18662   -18451   -18260   -18160 
  -18189   -18335   -18546   -18756   -18932   -19051   -19076   -18944 
  -18613   -18148   -17705   -17452   -17464   -17670   -17925   -18139 
  -18293   -18420   -18607   -18877   -19105   -19172   -19110   -19018 
  -18947   -18910   -18920   -18975   -19071   -19206   -19334   -19369 
  -19236   -18960   -18701   -18586   -18582   -18551   -18424   -18272 
  -18219   -18311   -18466   -18585   -18636   -18619   -18512   -18306 
  -18061   -17895   -17852   -17882   -17934   -18009   -18091   -18121 
  -18058   -17906   -17697   -17525   -17508   -17674   -17925   -18117 
  -18161   -18099   -18026   -17972   -17945   -18022   -18258   -18607 
  -18974   -19296   -19550   -19715   -19749   -19593   -19222   -18696 
  -18162   -17801   -17701   -17821   -18068   -18373   -18693   -18991 
  -19194   -19201   -18998   -18689   -18393   -18173   -18021   -17888 
  -17778   -17747   -17815   -17928   -17996   -17982   -17934   -17936 
  -17964   -17910   -17714   -17435   -17197   -17082   -17051   -16981 
  -16816   -16625   -16460   -16293   -16102   -15965   -15981   -16179 
  -16529   -16938   -17301   -17591   -17824   -18000   -18142   -18249 
  -18293   -18283   -18280   -18372   -18638   -19070   -19589   -20125 
  -20591   -20850   -20831   -20611   -20339   -20110   -19923   -19705 
  -19437   -19153   -18874   -18607   -18387   -18289   -18368   -18561 
  -18743   -18801   -18670   -18393   -18083   -17784   -17493   -17239 
  -17066   -16997   -17042   -17172   -17347   -17604   -17998   -18465 
  -18846   -19033   -19053   -19020   -19010   -19003   -18981   -18967 
  -18952   -18912   -18875   -18874   -18893   -18895   -18854   -18725 
  -18517   -18291   -18108   -18003   -17977   -18000   -18054   -18154 
  -18285   -18387   -18431   -18477   -18604   -18793   -18954   -19032 
  -19022   -18931   -18785   -18632   -18509   -18472   -18584   -18810 
  -19044   -19237   -19408   -19564   -19670   -19674   -19558   -19352 
  -19101   -18877   -18756   -18777   -18890   -19002   -19056   -19057 
  -19028   -18991   -18975   -18944   -18821   -18617   -18434   -18328 
  -18277   -18226   -18100   -17853   -17514   -17176   -16926   -16796 
  -16775   -16833   -16918   -16915   -16735   -16416   -16069   -15781 
  -15584   -15464   -15388   -15345   -15323   -15360   -15545   -15869 
  -16193   -16455   -16764   -17221   -17788   -18393   -18945   -19288 
  -19352   -19232   -19044   -18858   -18705   -18607   -18594   -18689 
  -18854   -18999   -19075   -19109   -19174   -19294   -19469   -19677 
  -19816   -19786   -19606   -19422   -19345   -19340   -19323   -19275 
  -19178   -19002   -18781   -18581   -18374   -18094   -17774   -17506 
  -17398   -17444   -17527   -17691   -17946   -18069   -18044   -18015 
  -17942   -17833   -17774   -17764   -17790   -17751   -17478   -17058 
  -16708   -16510   -16499   -16664   -16903   -17139   -17323   -17460 
  -17671   -18013   -18382   -18663   -18831   -18933   -18970   -18909 
  -18877   -18955   -19075   -19299   -19743   -20337   -20846   -21062 
  -21238   -21633   -21826   -21655   -21428   -21072   -20618   -20281 
  -19904   -19446   -19044   -18646   -18308   -18122   -17848   -17500 
  -17473   -17689   -17925   -18337   -18901   -19315   -19461   -19433 
  -19333   -19292   -19332   -19233   -18952   -18617   -18230   -17851 
  -17505   -17037   -16455   -15984   -15726   -15651   -15704   -15844 
  -16132   -16514   -16899   -17365   -17868   -18274   -18605   -18871 
  -19074   -19269   -19391   -19404   -19487   -19761   -20162   -20555 
  -20771   -20673   -20256   -19618   -18939   -18427   -18152   -17999 
  -17828   -17590   -17336   -17192   -17232   -17444   -17780   -18160 
  -18511   -18787   -18921   -18945   -19082   -19522   -20163   -20694 
  -20964   -21064   -21109   -21208   -21344   -21296   -20938   -20347 
  -19637   -18959   -18447   -18095   -17799   -17458   -17043   -16603 
  -16187   -15835   -15620   -15615   -15855   -16248   -16583   -16733 
  -16772   -16808   -16875   -16980   -17109   -17193   -17192   -17161 
  -17178   -17227   -17224   -17120   -16910   -16679   -16594   -16681 
  -16843   -17092   -17456   -17856   -18195   -18439   -18621   -18828 
  -19137   -19552   -20023   -20533   -21060   -21519   -21822   -21987 
  -22086   -22176   -22287   -22387   -22410   -22291   -22037   -21757 
  -21455   -21069   -20695   -20359   -19920   -19384   -18887   -18528 
  -18368   -18361   -18377   -18338   -18272   -18281   -18388   -18486 
  -18515   -18473   -18334   -18139   -17963   -17771   -17498   -17153 
  -16772   -16410   -16146   -16011   -15925   -15754   -15480   -15241 
  -15152   -15186   -15222   -15195   -15191   -15313   -15650   -16303 
  -17189   -18013   -18504   -18592   -18509   -18469   -18443   -18454 
  -18627   -18927   -19241   -19620   -20086   -20455   -20575   -20526 
  -20478   -20480   -20494   -20449   -20328   -20182   -20007   -19750 
  -19417   -19041   -18658   -18330   -18126   -18063   -18129   -18306 
  -18528   -18721   -18879   -19057   -19323   -19720   -20231   -20764 
  -21203   -21493   -21636   -21647   -21568   -21508   -21539   -21633 
  -21716   -21702   -21527   -21231   -20943   -20718   -20499   -20218 
  -19843   -19372   -18877   -18461   -18162   -17972   -17832   -17641 
  -17382   -17130   -16916   -16738   -16592   -16510   -16548   -16722 
  -16954   -17107   -17091   -16942   -16742   -16568   -16453   -16360 
  -16266   -16233   -16301   -16403   -16488   -16571   -16675   -16776 
  -16827   -16779   -16654   -16656   -16887   -17134   -17397   -17857 
  -18373   -18790   -18982   -18841   -18673   -18665   -18692   -18756 
  -18881   -19032   -19201   -19337   -19326   -19149   -18960   -18800 
  -18609   -18435   -18279   -18121   -17999   -17887   -17801   -17788 
  -17767   -17613   -17329   -17049   -16899   -16869   -16876   -16868 
  -16821   -16749   -16708   -16754   -16916   -17173   -17450   -17701 
  -17950   -18199   -18407   -18570   -18721   -18891   -19097   -19294 
  -19394   -19384   -19314   -19207   -19049   -18847   -18613   -18331 
  -17995   -17675   -17479   -17450   -17535   -17637   -17702   -17761 
  -17853   -17971   -18121   -18289   -18443   -18627   -18928   -19344 
  -19805   -20263   -20703   -21116   -21444   -21595   -21525   -21257 
  -20872   -20495   -20201   -20015   -19905   -19839   -19820   -19807 
  -19692   -19407   -18956   -18415   -17876   -17409   -17030   -16777 
  -16711   -16838   -17120   -17478   -17768   -17914   -17965   -17975 
  -17945   -17888   -17798   -17662   -17547   -17574   -17795   -18145 
  -18504   -18796   -19014   -19171   -19271   -19325   -19363   -19391 
  -19345   -19194   -19020   -18931   -18948   -18983   -18902   -18674 
  -18388   -18094   -17820   -17618   -17505   -17446   -17425   -17424 
  -17397   -17342   -17325   -17405   -17577   -17807   -18067   -18311 
  -18497   -18625   -18715   -18752   -18740   -18692   -18608   -18482 
  -18320   -18144   -18002   -17918   -17847   -17725   -17527   -17253 
  -16965   -16749   -16633   -16602   -16641   -16729   -16860   -17045 
  -17262   -17458   -17578   -17622   -17644   -17686   -17772   -17892 
  -17987   -18018   -17982   -17892   -17756   -17547   -17257   -16943 
  -16680   -16524   -16487   -16533   -16638   -16822   -17074   -17366 
  -17668   -17945   -18188   -18422   -18639   -18846   -19072   -19311 
  -19558   -19849   -20170   -20441   -20598   -20619   -20537   -20425 
  -20295   -20074   -19745   -19381   -19083   -18920   -18877   -18864 
  -18814   -18732   -18650   -18593   -18574   -18616   -18770   -19068 
  -19429   -19720   -19842   -19772   -19588   -19368   -19126   -18890 
  -18723   -18674   -18751   -18908   -19091   -19249   -19350   -19396 
  -19386   -19340   -19311   -19336   -19384   -19383   -19280   -19101 
  -18900   -18711   -18528   -18355   -18222   -18154   -18154   -18188 
  -18208   -18199   -18188   -18229   -18366   -18589   -18810   -18974 
  -19072   -19109   -19087   -19024   -18917   -18766   -18570   -18323 
  -18022   -17685   -17329   -16976   -16663   -16455   -16417   -16551 
  -16775   -16964   -17042   -17015   -16960   -16997   -17197   -17485 
  -17759   -17988   -18179   -18327   -18411   -18382   -18250   -18110 
  -18050   -18090   -18200   -18331   -18439   -18542   -18651   -18727 
  -18733   -18700   -18708   -18817   -19047   -19363   -19681   -19927 
  -20069   -20102   -20052   -19963   -19899   -19909   -19973   -20009 
  -19980   -19888   -19786   -19719   -19639   -19502   -19327   -19179 
  -19068   -18970   -18870   -18747   -18567   -18334   -18050   -17714 
  -17373   -17104   -16916   -16812   -16853   -17019   -17203   -17394 
  -17626   -17871   -18134   -18432   -18739   -19048   -19311   -19446 
  -19484   -19503   -19508   -19481   -19380   -19191   -19012   -18944 
  -18958   -18966   -18928   -18882   -18870   -18889   -18944   -19062 
  -19259   -19515   -19761   -19899   -19890   -19762   -19565   -19368 
  -19224   -19125   -19037   -18951   -18862   -18755   -18627   -18504 
  -18422   -18393   -18411   -18441   -18407   -18260   -18014   -17693 
  -17338   -17038   -16876   -16881   -17068   -17412   -17824   -18208 
  -18549   -18867   -19171   -19422   -19558   -19572   -19484   -19314 
  -19087   -18856   -18678   -18567   -18497   -18422   -18320   -18204 
  -18092   -17969   -17784   -17514   -17203   -16939   -16785   -16714 
  -16683   -16700   -16768   -16853   -16924   -16991   -17085   -17251 
  -17504   -17793   -18041   -18219   -18370   -18563   -18806   -19059 
  -19271   -19376   -19333   -19160   -18913   -18652   -18392   -18139 
  -17899   -17652   -17406   -17186   -17012   -16910   -16892   -16926 
  -16983   -17061   -17149   -17203   -17216   -17239   -17321   -17502 
  -17772   -18054   -18270   -18396   -18434   -18412   -18382   -18380 
  -18389   -18395   -18414   -18468   -18540   -18600   -18642   -18688 
  -18746   -18823   -18910   -18967   -18967   -18927   -18889   -18886 
  -18894   -18852   -18774   -18716   -18701   -18747   -18859   -19018 
  -19203   -19364   -19418   -19336   -19172   -19003   -18879   -18806 
