Origin Time       2025/01/13 21:19:00
Lat.              31.8
Long.             131.6
Depth. (km)       30
Mag.              6.9
Station Code      KMMH05
Station Lat.      32.9553
Station Long.     131.2207
Station Height(m) 593
Record Time       2025/01/13 21:19:54
Sampling Freq(Hz) 100Hz
Duration Time(s)  188
Dir.              1
Scale Factor      3923(gal)/8224838
Max. Acc. (gal)   9.122
Last Correction   2025/01/13 21:19:54
Memo.             
[...]
    4149     4148     4031     3940     4078     4475     4909     5243 
    5472     5536     5440     5400     5593     5896     6061     6065 
    6066     6103     6095     5973     5778     5595     5493     5570 
    5846     6099     6095     5779     5235     4672     4307     4160 
    4027     3713     3215     2674     2351     2425     2736     2975 
    3095     3260     3523     3793     4008     4221     4526     4876 
    5124     5211     5109     4780     4225     3631     3373     3636 
    4202     4766     5161     5283     5080     4630     4220     4116 
    4338     4824     5462     6021     6377     6497     6280     5844 
    5578     5643     5845     6093     6459     6841     6979     6740 
    6331     6014     5717     5341     4968     4602     4392     4594 
    5042     5366     5481     5443     5246     4936     4657     4455 
    4252     4008     3769     3611     3559     3535     3443     3354 
    3366     3402     3389     3352     3329     3360     3458     3608 
    3738     3805     3935     4206     4448     4426     4037     3400 
    2878     2717     2876     3400     4429     5780     7021     7839 
    8220     8326     8280     8156     8106     8189     8240     8067 
    7584     6799     5860     5032     4530     4432     4666     5027 
    5325     5483     5663     6161     6937     7647     8132     8471 
    8784     9146     9556     9926    10035     9730     9074     8143 
    6995     5911     5196     4804     4588     4579     4691     4656 
    4314     3750     3327     3349     3634     3947     4310     4723 
    5147     5525     5833     6151     6551     7044     7458     7437 
    6860     5960     5003     4232     3800     3569     3331     3071 
    2837     2629     2508     2573     2752     2909     3014     3014 
    2933     2918     3015     3294     3754     4222     4695     5140 
    5352     5292     5051     4734     4496     4403     4340     4098 
    3505     2624     1753     1337     1663     2509     3543     4563 
    5147     5155     4966     4857     4853     4846     4818     4872 
    4931     4918     4801     4441     3935     3603     3516     3524 
    3580     3750     3971     4098     4166     4299     4456     4564 
    4680     4799     4737     4438     4194     4264     4542     4841 
    5186     5605     5987     6291     6594     6874     7018     7076 
    7141     7152     7128     7210     7414     7604     7649     7554 
    7407     7245     7156     7225     7400     7554     7585     7464 
    7169     6696     6129     5590     5175     4949     4854     4823 
    4931     5216     5514     5683     5809     6015     6173     6114 
    5900     5575     5023     4437     4209     4291     4414     4585 
    4828     4942     4810     4540     4201     3819     3576     3635 
    3829     3834     3550     3173     2914     2755     2587     2459 
    2417     2474     2782     3458     4344     5125     5617     5846 
    5977     6046     5894     5525     5202     5077     5047     4970 
    4878     4876     4857     4585     4110     3757     3720     4035 
    4658     5405     6102     6675     7025     7064     6924     6870 
    6966     7030     6993     7013     7072     6907     6548     6285 
    6116     5802     5286     4650     3902     3145     2547     2079 
    1717     1632     1841     2181     2597     3095     3655     4275 
    4803     4995     4810     4475     4270     4256     4337     4554 
    4965     5456     5949     6385     6651     6766     6809     6741 
    6567     6443     6455     6571     6740     6826     6764     6729 
    6774     6748     6679     6620     6519     6401     6238     5992 
    5772     5671     5690     5707     5491     4995     4418     3878 
    3375     2991     2775     2659     2621     2643     2709     2857 
    3015     3061     3034     2851     2470     2220     2218     2309 
    2513     2836     3269     3850     4533     5157     5482     5535 
    5605     5802     6088     6497     7063     7707     8175     8310 
    8264     8127     7813     7403     7049     6732     6409     6147 
    5917     5555     5038     4487     4006     3746     3821     4054 
    4213     4375     4614     4841     5142     5726     6534     7229 
    7547     7599     7689     7847     7863     7688     7362     6870 
    6234     5451     4561     3834     3501     3570     3900     4267 
    4541     4706     4727     4658     4654     4814     5131     5580 
    6052     6328     6291     5984     5510     5022     4726     4716 
    4901     5148     5373     5520     5601     5705     5890     6026 
    5937     5645     5332     5167     5194     5401     5756     6169 
    6543     6770     6747     6547     6319     6004     5479     4808 
    4151     3653     3414     3396     3530     3851     4309     4587 
    4491     4206     4021     4041     4175     4347     4584     4870 
    5212     5656     6123     6556     7006     7450     7770     7875 
    7735     7371     6774     5960     5154     4664     4487     4403 
    4365     4405     4442     4494     4716     5189     5844     6496 
    7032     7495     7871     8078     8079     7830     7402     6978 
    6538     5972     5387     5020     4973     5175     5464     5722 
    5984     6181     6095     5811     5539     5312     5177     5105 
    5109     5285     5540     5775     5931     5895     5622     5132 
    4441     3555     2609     1887     1549     1498     1634     1929 
    2317     2766     3311     3920     4423     4665     4743     4846 
    4942     4938     4897     4900     4893     4823     4796     4931 
    5189     5475     5687     5741     5645     5471     5348     5408 
    5584     5667     5508     5107     4639     4333     4259     4303 
    4270     3954     3269     2344     1395      573     -109     -731 
   -1252    -1525    -1505    -1252     -778     -117      579     1210 
    1817     2396     2909     3385     3840     4217     4438     4518 
    4573     4602     4619     4877     5387     5944     6605     7470 
    8482     9528    10516    11365    11869    11866    11433    10700 
    9786     8893     8209     7735     7388     7194     7252     7481 
    7627     7479     7006     6365     5664     4881     4064     3333 
    2759     2413     2398     2826     3682     4745     5794     6685 
    7292     7592     7666     7549     7246     6806     6293     5711 
    5011     4170     3265     2382     1642     1227     1198     1507 
    2088     2895     3909     4980     5840     6405     6813     7133 
    7372     7592     7801     7955     8125     8356     8490     8322 
    7823     7032     5880     4320     2550      810     -827    -2338 
   -3653    -4661    -5194    -5173    -4604    -3530    -2161     -778 
     487     1603     2578     3492     4498     5655     6745     7593 
    8289     8772     8818     8449     7920     7389     6859     6338 
    5887     5506     5162     4845     4600     4584     4968     5792 
    6913     8073     9119    10098    11047    11870    12488    12950 
   13367    13714    13853    13725    13344    12711    11808    10570 
    9031     7387     5779     4368     3447     3109     3214     3591 
    4024     4396     4681     4831     4806     4617     4369     4149 
    4000     3996     4129     4283     4417     4507     4504     4448 
    4297     3811     2857     1618      422     -541    -1186    -1386 
    -984      166     1985     4132     6320     8372    10116    11546 
   12726    13664    14366    14705    14494    13707    12425    10867 
    9247     7597     5910     4228     2628     1181     -116    -1301 
   -2388    -3253    -3717    -3775    -3537    -3063    -2413    -1613 
    -718       99      780     1428     2084     2709     3249     3595 
    3688     3537     3180     2767     2513     2496     2613     2793 
    3059     3418     3933     4666     5520     6392     7200     7892 
    8569     9292    10011    10721    11348    11757    11966    12027 
   11881    11523    10993    10255     9317     8276     7225     6196 
    5252     4525     4077     3786     3493     3126     2663     2138 
    1738     1559     1539     1765     2288     2983     3769     4619 
    5593     6723     7844     8835     9688    10365    10845    11141 
   11237    11103    10750    10239     9655     9050     8496     8020 
    7520     6922     6246     5394     4232     2814     1309     -129 
   -1390    -2376    -3034    -3435    -3569    -3357    -2921    -2317 
   -1514     -716     -114      221      255      109     -120     -441 
    -777     -954     -874     -572       27      984     2116     3262 
    4390     5455     6401     7150     7651     7982     8276     8638 
    9134     9815    10759    12008    13470    14910    16116    16974 
   17447    17531    17223    16622    15870    14920    13689    12298 
   10947     9799     8932     8309     7846     7441     6949     6234 
    5198     3892     2461     1051     -164    -1009    -1362    -1185 
    -558      356     1379     2332     3122     3719     4114     4361 
    4550     4792     5143     5493     5718     5896     6153     6474 
    6783     7018     7080     6853     6311     5487     4461     3429 
    2635     2178     1942     1713     1420     1144      961      930 
    1089     1327     1537     1726     1834     1910     2138     2465 
    2791     3169     3516     3794     4124     4469     4680     4673 
    4440     4027     3511     2978     2543     2300     2254     2388 
    2751     3322     3900     4419     5066     5829     6511     7075 
    7539     7924     8276     8503     8502     8347     8113     7831 
    7584     7396     7182     6886     6502     6045     5560     5069 
    4561     4050     3604     3349     3306     3362     3476     3716 
    4102     4577     5121     5757     6507     7339     8154     8862 
    9445     9880    10139    10196    10041     9705     9227     8661 
    8060     7474     6855     6149     5502     4972     4452     4085 
    3989     3935     3856     3877     3967     4074     4171     4306 
    4602     5023     5445     5822     6180     6582     7047     7551 
    8083     8592     8941     9027     8954     8880     8776     8541 
    8148     7599     6932     6235     5567     4976     4542     4305 
    4101     3735     3238     2690     2034     1278      488     -297 
   -1007    -1647    -2293    -2925    -3477    -3910    -4232    -4515 
   -4746    -4806    -4635    -4264    -3726    -3061    -2316    -1510 
    -596      519     1809     3126     4413     5630     6659     7414 
    7920     8305     8689     9101     9525     9903    10191    10432 
   10627    10744    10901    11138    11323    11454    11573    11591 
   11508    11377    11151    10760    10174     9485     8884     8398 
    7928     7503     7191     6932     6637     6334     6141     6058 
    5953     5792     5567     5186     4696     4136     3445     2690 
    1971     1341      911      814     1170     1896     2702     3373 
    3856     4195     4423     4531     4518     4355     3990     3474 
    2991     2710     2632     2646     2650     2521     2195     1786 
    1503     1463     1659     2088     2733     3503     4352     5306 
    6289     7106     7607     7738     7537     7101     6482     5724 
    4909     4124     3466     3052     2895     2932     3051     3115 
    3045     2821     2501     2223     2000     1723     1408     1108 
     823      681      878     1471     2340     3302     4239     5152 
    6097     7065     7959     8695     9254     9740    10341    11148 
   12083    13031    13919    14693    15336    15863    16204    16276 
   16114    15741    15124    14303    13373    12401    11429    10558 
    9872     9379     9099     9012     9008     9012     9015     8942 
    8683     8210     7541     6717     5836     4980     4180     3441 
    2791     2282     1858     1458     1096      739      298     -241 
    -801    -1267    -1513    -1401     -868       40     1252     2606 
    3817     4671     5151     5355     5337     5105     4672     4063 
    3325     2560     1919     1372      672     -171     -953    -1777 
   -2694    -3488    -4122    -4560    -4746    -4756    -4560    -4189 
   -3784    -3404    -3075    -2830    -2687    -2605    -2539    -2489 
   -2378    -2097    -1674    -1198     -631      174     1320     2779 
    4436     6097     7547     8730     9740    10690    11624    12420 
   13005    13505    13969    14439    15001    15574    16073    16507 
   16881    17228    17529    17705    17705    17518    17155    16614 
   15924    15141    14280    13383    12501    11580    10594     9609 
    8669     7812     7096     6513     6039     5663     5286     4785 
    4044     3033     1891      812        0     -372     -341      -51 
     418     1016     1722     2529     3275     3775     4126     4378 
    4379     4195     3954     3662     3369     3013     2589     2176 
    1694     1059      275     -622    -1564    -2490    -3364    -4136 
   -4776    -5279    -5599    -5702    -5653    -5458    -5085    -4646 
   -4261    -3937    -3647    -3389    -3177    -3013    -2808    -2477 
   -2053    -1553     -897      -81      803     1680     2493     3144 
    3609     4032     4558     5283     6323     7696     9267    10912 
   12538    13996    15190    16182    17082    17963    18841    19696 
   20536    21425    22338    23125    23715    24097    24220    24082 
   23669    22863    21590    19855    17714    15342    12965    10733 
    8684     6828     5206     3808     2523     1283      108    -1021 
   -2142    -3200    -4101    -4814    -5336    -5613    -5593    -5312 
   -4846    -4228    -3495    -2739    -2030    -1356     -726     -171 
     311      730     1085     1290     1267     1101      830      521 
     387      386      326      171     -112     -476     -810    -1105 
   -1425    -1814    -2242    -2655    -3063    -3484    -3850    -4063 
   -4087    -3937    -3623    -3153    -2587    -1985    -1351     -668 
      83      936     1885     2795     3497     3981     4290     4484 
    4696     4990     5290     5464     5467     5432     5474     5570 
    5742     6060     6502     7029     7668     8457     9385    10407 
   11435    12366    13108    13635    14033    14366    14617    14769 
   14794    14677    14358    13761    13020    12360    11842    11400 
   11026    10746    10535    10380    10281    10212    10180    10278 
   10558    10924    11284    11616    11836    11871    11774    11616 
   11411    11111    10697    10224     9753     9282     8818     8399 
    8085     7901     7852     7954     8218     8638     9155     9703 
   10266    10777    11110    11259    11319    11306    11151    10773 
   10073     9018     7674     6151     4548     2918     1246     -465 
   -2149    -3780    -5347    -6771    -7981    -8977    -9795   -10450 
  -10906   -11109   -11043   -10729   -10161    -9313    -8225    -6944 
   -5491    -3942    -2353     -739      839     2340     3716     4888 
    5825     6606     7381     8135     8675     8991     9202     9220 
    9049     8980     8982     8887     8738     8380     7701     6852 
    5888     4945     4218     3680     3265     2998     2879     2945 
    3210     3611     4159     4823     5479     6073     6593     7040 
    7429     7701     7836     7921     7982     7896     7622     7240 
    6779     6357     6154     6134     6204     6377     6609     6785 
    6816     6601     6072     5242     4190     3051     1954     1012 
     352       54       49      203      502      984     1505     1903 
    2165     2276     2185     1904     1520     1189     1053     1117 
    1325     1624     1881     1971     1930     1845     1684     1412 
    1077      706      314       25     -108     -175     -170       45 
     433      729      865      965     1008      949      877      865 
     905      994     1210     1687     2482     3541     4808     6322 
    8078     9903    11654    13339    14947    16440    17788    18954 
   19967    20830    21483    21936    22194    22281    22249    22018 
   21489    20583    19152    17224    14976    12529    10092     7971 
    6272     4976     4109     3559     3138     2822     2650     2662 
    2905     3326     3819     4307     4726     5105     5533     5998 
    6462     6929     7358     7715     8025     8279     8428     8457 
    8355     8129     7848     7577     7345     7156     7037     7064 
    7207     7312     7357     7314     7034     6575     6027     5355 
    4585     3667     2551     1296      -64    -1485    -3014    -4693 
   -6338    -7870    -9429   -10959   -12256   -13181   -13609   -13582 
  -13247   -12668   -11951   -11169   -10231    -9111    -7854    -6453 
   -4970    -3520    -2073     -604      795     2126     3431     4623 
    5663     6632     7527     8326     9088     9814    10490    11160 
   11886    12721    13675    14706    15695    16559    17331    18034 
   18652    19153    19461    19453    18982    17953    16444    14629 
   12704    10820     9007     7250     5597     4082     2731     1664 
     993      672      598      702      947     1300     1691     2000 
    2193     2431     2832     3265     3731     4369     5080     5802 
    6501     6999     7283     7354     7222     7030     6889     6858 
    6952     7136     7384     7649     7842     7850     7661     7311 
    6793     6116     5331     4473     3566     2664     1861     1237 
     797      464       98     -414    -1074    -1804    -2486    -2979 
   -3226    -3312    -3335    -3275    -3021    -2457    -1545     -299 
    1262     3010     4746     6332     7765     9132    10455    11678 
   12798    13761    14405    14728    14796    14455    13737    12829 
   11709    10463     9223     7973     6778     5692     4725     3971 
    3505     3339     3489     3943     4618     5414     6259     7056 
    7754     8372     8826     9005     8959     8773     8526     8337 
    8229     8160     8158     8154     7989     7646     7169     6581 
    6025     5606     5292     5179     5389     5914     6717     7696 
    8719     9710    10575    11263    11786    12089    12012    11523 
   10723     9647     8324     6875     5402     3925     2423      895 
    -583    -1961    -3245    -4378    -5292    -6038    -6621    -6964 
   -7059    -6913    -6536    -6000    -5370    -4648    -3910    -3277 
   -2735    -2303    -2126    -2254    -2587    -2938    -3141    -3134 
   -2876    -2390    -1748     -942      -13      886     1691     2458 
    3188     3824     4374     4857     5304     5734     6029     6142 
    6199     6199     6107     5945     5632     5175     4665     4120 
    3620     3258     3076     3130     3462     4047     4780     5532 
    6230     6887     7530     8122     8617     8985     9170     9154 
    8970     8657     8306     7958     7565     7192     6933     6744 
    6582     6477     6427     6403     6426     6586     6960     7564 
    8360     9308    10399    11553    12600    13390    13821    13938 
   13891    13651    13213    12758    12221    11473    10644     9810 
    8942     8006     6944     5799     4658     3582     2635     1826 
