Origin Time       2025/01/13 21:19:00
Lat.              31.8
Long.             131.6
Depth. (km)       30
Mag.              6.9
Station Code      KMMH16
Station Lat.      32.7967
Station Long.     130.8199
Station Height(m) -197
Record Time       2025/01/13 21:19:54
Sampling Freq(Hz) 100Hz
Duration Time(s)  213
Dir.              2
Scale Factor      2942(gal)/8224139
Max. Acc. (gal)   4.162
Last Correction   2025/01/13 21:19:54
Memo.             
[...]
  115528   115431   115379   115314   115168   114913   114552   114120 
  113667   113266   112976   112824   112797   112854   112949   113017 
  113039   113071   113190   113413   113706   113994   114174   114208 
  114156   114108   114127   114218   114324   114419   114517   114642 
  114793   114952   115088   115160   115149   115074   114970   114876 
  114786   114677   114570   114524   114570   114701   114893   115125 
  115379   115638   115855   115962   115902   115670   115312   114880 
  114405   113921   113449   113004   112641   112428   112411   112617 
  113032   113610   114257   114871   115372   115707   115850   115816 
  115663   115438   115163   114845   114500   114158   113859   113624 
  113470   113395   113363   113320   113270   113260   113328   113476 
  113688   113950   114249   114579   114934   115295   115645   115971 
  116301   116680   117119   117545   117823   117848   117606   117153 
  116581   115996   115483   115099   114856   114748   114771   114918 
  115137   115342   115470   115550   115668   115861   116079   116251 
  116351   116383   116368   116345   116334   116328   116309   116271 
  116241   116240   116243   116194   116058   115847   115608   115375 
  115168   115009   114903   114833   114758   114659   114569   114527 
  114551   114621   114693   114708   114601   114335   113933   113476 
  113070   112780   112652   112706   112918   113266   113722   114215 
  114659   114978   115140   115165   115101   114974   114789   114527 
  114177   113759   113323   112965   112770   112762   112882   113051 
  113229   113414   113570   113652   113663   113664   113719   113852 
  114050   114280   114482   114574   114474   114173   113756   113366 
  113116   113047   113111   113190   113194   113119   113011   112914 
  112834   112747   112619   112432   112197   111963   111790   111689 
  111636   111604   111569   111530   111510   111535   111609   111666 
  111595   111388   111142   110924   110732   110523   110241   109867 
  109436   109026   108726   108616   108745   109107   109644   110277 
  110937   111592   112206   112738   113138   113387   113530   113661 
  113850   114114   114415   114663   114766   114702   114505   114242 
  113983   113763   113603   113510   113475   113464   113448   113413 
  113371   113348   113385   113505   113721   114026   114361   114631 
  114783   114818   114774   114679   114543   114384   114227   114091 
  114006   114000   114073   114178   114273   114372   114515   114740 
  115057   115437   115807   116081   116182   116116   115960   115786 
  115604   115379   115087   114755   114450   114205   114010   113840 
  113679   113487   113271   113113   113105   113275   113579   113945 
  114318   114678   115038   115388   115685   115897   116041   116175 
  116364   116621   116897   117144   117313   117358   117281   117094 
  116806   116456   116109   115778   115447   115132   114885   114754 
  114750   114844   115011   115236   115496   115762   116005   116236 
  116465   116673   116846   116995   117132   117256   117362   117443 
  117471   117429   117343   117244   117158   117115   117153   117301 
  117558   117867   118126   118206   118023   117593   117003   116320 
  115589   114870   114207   113610   113076   112599   112186   111879 
  111742   111793   112004   112359   112838   113373   113869   114243 
  114446   114498   114475   114439   114409   114380   114353   114369 
  114457   114594   114733   114871   115044   115279   115574   115931 
  116349   116804   117244   117633   117965   118241   118424   118443 
  118268   117941   117531   117092   116650   116205   115747   115288 
  114843   114407   113977   113571   113243   113058   113031   113135 
  113335   113580   113823   114035   114224   114408   114579   114694 
  114683   114534   114307   114057   113798   113532   113244   112920 
  112560   112168   111755   111352   110990   110706   110559   110614 
  110930   111527   112382   113429   114581   115712   116683   117398 
  117833   118002   117956   117733   117373   116957   116576   116240 
  115929   115674   115523   115476   115474   115473   115483   115551 
  115717   115996   116368   116783   117155   117396   117460   117364 
  117142   116819   116406   115923   115403   114863   114336   113891 
  113589   113432   113389   113402   113406   113317   113054   112590 
  111975   111289   110593   109929   109331   108830   108427   108098 
  107846   107713   107742   107914   108179   108491   108824   109147 
  109437   109699   109937   110147   110332   110475   110570   110660 
  110814   111056   111361   111653   111848   111901   111815   111635 
  111416   111192   110997   110835   110679   110528   110413   110373 
  110423   110570   110843   111269   111844   112533   113285   114057 
  114804   115450   115913   116136   116129   115963   115709   115429 
  115175   115010   114986   115087   115231   115334   115364   115326 
  115233   115098   114932   114748   114548   114355   114231   114228 
  114347   114524   114674   114739   114713   114610   114448   114265 
  114080   113883   113671   113460   113246   112999   112698   112338 
  111959   111631   111411   111308   111271   111223   111119   110980 
  110872   110855   110957   111203   111593   112091   112652   113258 
  113919   114627   115360   116112   116877   117636   118378   119105 
  119790   120356   120733   120928   121004   121020   121008   120962 
  120885   120762   120541   120191   119745   119259   118771   118300 
  117888   117603   117475   117466   117506   117525   117459   117270 
  116946   116519   116071   115674   115356   115129   114988   114903 
  114818   114674   114463   114241   114062   113969   113969   114030 
  114095   114106   114053   113980   113927   113922   113984   114108 
  114262   114412   114528   114594   114625   114651   114702   114829 
  115096   115537   116124   116780   117413   117944   118335   118602 
  118764   118851   118916   119028   119237   119538   119897   120279 
  120650   120950   121119   121123   120991   120780   120529   120258 
  119988   119720   119441   119125   118759   118341   117865   117331 
  116768   116252   115855   115597   115462   115412   115387   115329 
  115218   115063   114876   114650   114355   113992   113610   113256 
  112924   112577   112190   111780   111381   111018   110704   110481 
  110431   110605   110980   111478   112013   112526   112980   113358 
  113663   113921   114158   114366   114515   114610   114673   114704 
  114709   114725   114802   114979   115265   115630   116043   116487 
  116935   117346   117668   117871   117963   117960   117888   117806 
  117764   117768   117784   117771   117702   117567   117359   117073 
  116700   116252   115767   115294   114856   114466   114120   113807 
  113512   113224   112934   112638   112357   112101   111855   111599 
  111327   111034   110725   110425   110170   109985   109854   109718 
  109520   109248   108927   108599   108314   108113   108013   107998 
  108058   108186   108391   108676   108997   109297   109528   109671 
  109710   109645   109517   109398   109335   109325   109355   109431 
  109537   109638   109690   109652   109497   109232   108888   108503 
  108125   107789   107514   107308   107195   107206   107354   107630 
  108018   108510   109098   109776   110512   111264   111975   112585 
  113044   113343   113508   113555   113462   113216   112835   112378 
  111932   111586   111399   111395   111537   111757   112005   112232 
  112372   112384   112243   111942   111546   111173   110943   110943 
  111206   111678   112261   112862   113413   113877   114259   114585 
  114879   115183   115535   115927   116320   116687   117013   117274 
  117452   117553   117576   117517   117385   117209   117031   116895 
  116822   116812   116864   116957   117049   117092   117067   116959 
  116768   116534   116321   116182   116148   116187   116210   116143 
  115956   115678   115372   115114   114963   114937   115033   115236 
  115514   115821   116112   116337   116476   116541   116556   116530 
  116436   116235   115901   115445   114926   114432   114037   113778 
  113670   113705   113859   114112   114436   114790   115123   115412 
  115649   115817   115897   115884   115796   115672   115558   115487 
  115461   115462   115485   115537   115614   115712   115821   115913 
  115948   115879   115707   115480   115242   114998   114743   114485 
  114247   114070   114006   114075   114251   114482   114714   114909 
  115045   115118   115122   115063   114940   114752   114504   114231 
  113992   113834   113791   113872   114057   114324   114644   114974 
  115271   115507   115688   115862   116073   116367   116770   117227 
  117649   117976   118195   118324   118370   118320   118180   117975 
  117725   117433   117115   116783   116437   116075   115701   115349 
  115082   114952   114960   115069   115233   115385   115477   115508 
  115507   115480   115422   115338   115250   115194   115192   115230 
  115257   115226   115126   114956   114702   114359   113945   113486 
  113020   112607   112313   112170   112158   112237   112406   112688 
  113094   113603   114185   114799   115395   115928   116368   116708 
  116970   117173   117324   117428   117468   117416   117265   117040 
  116764   116432   116044   115603   115118   114590   114026   113444 
  112901   112457   112141   111950   111854   111811   111790   111773 
  111744   111703   111650   111592   111542   111512   111511   111526 
  111557   111607   111674   111739   111784   111811   111848   111928 
  112072   112303   112649   113125   113702   114326   114941   115496 
  115943   116237   116388   116446   116464   116473   116494   116536 
  116604   116689   116770   116837   116878   116872   116800   116689 
  116594   116556   116592   116687   116822   116965   117062   117066 
  116985   116847   116664   116418   116093   115696   115265   114836 
  114442   114093   113779   113475   113165   112857   112587   112375 
  112232   112176   112233   112433   112785   113265   113844   114475 
  115094   115635   116073   116398   116614   116731   116757   116706 
  116604   116479   116353   116266   116253   116332   116494   116714 
  116958   117180   117324   117339   117178   116841   116395   115944 
  115549   115227   114972   114739   114469   114137   113760   113373 
  113003   112657   112334   112052   111824   111657   111547   111474 
  111414   111348   111273   111210   111181   111218   111342   111555 
  111827   112125   112422   112685   112881   112974   112938   112776 
  112519   112194   111843   111528   111311   111226   111284   111469 
  111744   112056   112368   112676   113000   113362   113751   114142 
  114504   114791   114974   115044   115003   114876   114709   114562 
  114474   114430   114386   114311   114183   114004   113805   113609 
  113439   113290   113161   113061   112992   112926   112838   112722 
  112584   112440   112325   112282   112334   112499   112784   113152 
  113549   113933   114272   114535   114716   114821   114859   114874 
  114928   115042   115209   115407   115635   115892   116164   116440 
  116687   116866   116931   116857   116662   116382   116059   115754 
  115511   115354   115285   115292   115360   115476   115599   115680 
  115705   115670   115580   115469   115379   115327   115323   115342 
  115346   115321   115280   115241   115211   115188   115168   115144 
  115099   115021   114909   114748   114525   114245   113922   113609 
  113364   113223   113189   113243   113333   113410   113448   113444 
  113405   113355   113324   113341   113432   113617   113908   114292 
  114736   115204   115666   116112   116532   116901   117217   117481 
  117680   117806   117849   117805   117683   117506   117306   117105 
  116907   116702   116467   116168   115801   115380   114926   114466 
  114019   113586   113167   112772   112409   112091   111824   111581 
  111326   111024   110658   110245   109822   109416   109034   108670 
  108321   107986   107667   107370   107106   106883   106731   106675 
  106741   106936   107246   107611   107962   108278   108572   108868 
  109188   109556   109992   110496   111057   111677   112351   113053 
  113737   114351   114849   115215   115449   115561   115573   115523 
  115445   115384   115387   115477   115643   115855   116075   116260 
  116376   116401   116320   116156   115948   115712   115468   115249 
  115092   115017   115052   115233   115564   116028   116614   117259 
  117876   118400   118789   119034   119163   119215   119223   119206 
  119171   119122   119072   119021   118968   118910   118844   118782 
  118736   118704   118674   118651   118632   118590   118511   118431 
  118409   118484   118655   118872   119045   119126   119109   119003 
  118829   118605   118339   118045   117760   117537   117416   117401 
  117452   117499   117477   117337   117078   116712   116256   115719 
  115111   114442   113719   112955   112159   111350   110570   109856 
  109233   108722   108307   107970   107716   107553   107492   107565 
  107817   108263   108884   109683   110679   111865   113212   114660 
  116102   117424   118559   119491   120229   120814   121304   121768 
  122253   122778   123348   123959   124579   125146   125599   125903 
  126038   126011   125834   125509   125061   124524   123940   123340 
  122727   122099   121474   120868   120295   119772   119290   118837 
  118407   117984   117570   117185   116834   116517   116240   115998 
  115784   115584   115373   115126   114841   114539   114264   114054 
  113934   113911   113977   114093   114196   114216   114099   113811 
  113354   112765   112101   111415   110763   110185   109710   109371 
  109177   109092   109073   109062   108980   108784   108502   108144 
  107719   107264   106829   106461   106199   106057   106034   106120 
  106293   106539   106851   107204   107566   107905   108183   108376 
  108510   108618   108720   108830   108951   109111   109340   109649 
  110027   110465   110943   111426   111875   112286   112661   113015 
  113354   113668   113930   114127   114270   114347   114346   114289 
  114196   114069   113908   113702   113422   113049   112557   111944 
  111227   110439   109613   108785   107990   107252   106570   105943 
  105382   104886   104471   104184   104094   104252   104687   105399 
  106358   107499   108743   110000   111179   112214   113067   113706 
  114137   114415   114590   114709   114798   114860   114907   114959 
  115032   115163   115387   115700   116085   116523   117007   117559 
  118204   118944   119758   120586   121363   122060   122648   123102 
  123407   123558   123552   123376   123028   122530   121906   121185 
  120414   119664   119017   118511   118116   117776   117413   116958 
  116383   115696   114903   114012   113062   112105   111202   110397 
  109719   109154   108670   108238   107820   107400   107001   106654 
  106388   106201   106095   106089   106200   106420   106740   107161 
  107692   108356   109167   110116   111171   112283   113400   114482 
  115533   116554   117540   118466   119311   120059   120703   121232 
  121635   121890   121992   121956   121792   121512   121149   120730 
  120252   119722   119161   118598   118030   117445   116861   116316 
  115832   115411   115060   114786   114592   114488   114486   114586 
  114772   115034   115373   115792   116283   116854   117518   118255 
  119009   119712   120324   120804   121124   121284   121286   121128 
  120798   120293   119635   118866   118025   117155   116303   115497 
  114755   114084   113483   112947   112465   111993   111495   110949 
  110365   109777   109243   108792   108437   108179   108002   107885 
  107808   107763   107752   107802   107954   108249   108711   109337 
  110110   110997   111954   112932   113888   114793   115646   116451 
  117217   117949   118638   119265   119813   120260   120596   120815 
  120922   120931   120860   120717   120525   120306   120069   119813 
  119533   119211   118852   118474   118104   117757   117444   117181 
  116962   116757   116557   116378   116228   116104   115996   115874 
  115711   115493   115222   114913   114592   114262   113919   113564 
  113200   112853   112565   112359   112241   112210   112233   112261 
  112249   112162   111970   111659   111226   110691   110115   109571 
  109109   108742   108449   108207   108012   107865   107769   107723 
  107728   107802   107955   108176   108453   108791   109175   109593 
  110042   110521   111040   111618   112240   112862   113447   113956 
  114350   114602   114701   114663   114544   114394   114245   114100 
  113961   113827   113706   113613   113562   113559   113616   113733 
  113895   114061   114185   114247   114246   114191   114092   113977 
  113895   113884   113954   114091   114282   114511   114750   114997 
  115260   115542   115865   116232   116623   117011   117381   117707 
  117971   118152   118245   118254   118193   118075   117910   117717 
  117521   117329   117139   116962   116797   116646   116518   116411 
  116305   116199   116108   116044   116020   116048   116136   116283 
  116492   116754   117069   117440   117860   118315   118785   119246 
  119673   120051   120374   120623   120787   120854   120830   120731 
  120588   120426   120268   120120   119974   119824   119677   119539 
  119398   119226   118998   118696   118316   117853   117305   116683 
  116000   115275   114529   113773   113024   112313   111670   111114 
  110656   110301   110045   109873   109771   109723   109718   109748 
  109798   109849   109892   109933   109976   110025   110072   110106 
  110112   110077   109993   109869   109728   109586   109456   109370 
  109355   109429   109602   109858   110169   110500   110824   111102 
  111298   111384   111343   111172   110899   110590   110315   110116 
  110019   110029   110137   110335   110609   110930   111269   111588 
  111854   112059   112205   112298   112365   112445   112575   112779 
  113035   113305   113553   113749   113875   113935   113962   113998 
  114066   114177   114328   114502   114663   114789   114890   114993 
  115133   115352   115665   116077   116569   117107   117656   118184 
  118647   119009   119259   119396   119438   119425   119396   119383 
  119395   119419   119423   119379   119272   119113   118924   118731 
  118548   118361   118164   117957   117744   117537   117352   117178 
  117001   116811   116596   116370   116152   115960   115815   115734 
  115736   115839   116029   116267   116511   116726   116895   117027 
  117146   117269   117409   117556   117699   117837   117950   117999 
  117945   117767   117467   117058   116573   116058   115551   115080 
  114652   114268   113919   113594   113274   112951   112627   112302 
  111985   111682   111391   111105   110817   110519   110211   109915 
  109653   109436   109274   109183   109169   109225   109351   109513 
  109678   109829   109937   109984   109973   109911   109814   109709 
  109624   109580   109587   109630   109695   109780   109895   110045 
