Origin Time       2025/01/13 21:19:00
Lat.              31.8
Long.             131.6
Depth. (km)       30
Mag.              6.9
Station Code      KMMH17
Station Lat.      32.9873
Station Long.     130.5608
Station Height(m) -45
Record Time       2025/01/13 21:19:58
Sampling Freq(Hz) 100Hz
Duration Time(s)  167
Dir.              1
Scale Factor      3923(gal)/8224838
Max. Acc. (gal)   3.938
Last Correction   2025/01/13 21:19:59
Memo.             
[...]
  -11263   -11271   -11269   -11268   -11271   -11276   -11277   -11275 
  -11263   -11229   -11175   -11115   -11060   -11009   -10971   -10957 
  -10972   -10998   -11018   -11044   -11083   -11122   -11141   -11134 
  -11101   -11032   -10939   -10856   -10810   -10790   -10782   -10787 
  -10808   -10844   -10895   -10957   -11022   -11080   -11138   -11210 
  -11283   -11337   -11373   -11400   -11418   -11410   -11372   -11322 
  -11277   -11238   -11188   -11126   -11079   -11072   -11102   -11141 
  -11183   -11241   -11303   -11342   -11358   -11367   -11372   -11368 
  -11357   -11354   -11372   -11402   -11443   -11488   -11511   -11491 
  -11438   -11381   -11346   -11337   -11329   -11298   -11252   -11219 
  -11200   -11163   -11090   -10995   -10898   -10805   -10721   -10660 
  -10623   -10602   -10597   -10606   -10613   -10612   -10617   -10635 
  -10663   -10705   -10758   -10816   -10858   -10881   -10912   -10972 
  -11063   -11183   -11321   -11439   -11535   -11632   -11735   -11839 
  -11939   -12042   -12143   -12217   -12241   -12231   -12226   -12252 
  -12290   -12312   -12302   -12278   -12272   -12291   -12305   -12297 
  -12280   -12262   -12226   -12185   -12158   -12162   -12181   -12178 
  -12154   -12118   -12073   -12017   -11967   -11919   -11855   -11772 
  -11678   -11576   -11465   -11360   -11269   -11187   -11115   -11053 
  -11001   -10966   -10955   -10972   -11010   -11041   -11048   -11040 
  -11032   -11021   -11011   -11010   -11005   -10989   -10987   -11001 
  -11007   -11044   -11141   -11242   -11318   -11408   -11523   -11627 
  -11711   -11786   -11874   -11970   -12066   -12152   -12214   -12248 
  -12270   -12293   -12312   -12320   -12326   -12328   -12309   -12274 
  -12225   -12163   -12081   -11962   -11820   -11685   -11573   -11469 
  -11357   -11240   -11130   -11017   -10881   -10727   -10579   -10454 
  -10328   -10176   -10004    -9844    -9693    -9532    -9359    -9185 
   -9030    -8896    -8787    -8696    -8608    -8517    -8432    -8361 
   -8310    -8268    -8235    -8217    -8214    -8236    -8283    -8347 
   -8414    -8484    -8561    -8637    -8699    -8762    -8846    -8954 
   -9061    -9158    -9262    -9371    -9477    -9589    -9715    -9837 
   -9944   -10037   -10120   -10196   -10261   -10312   -10378   -10474 
  -10571   -10644   -10692   -10735   -10773   -10779   -10744   -10697 
  -10648   -10592   -10511   -10416   -10320   -10224   -10138   -10081 
  -10057   -10042   -10017    -9980    -9956    -9958    -9985   -10027 
  -10087   -10177   -10299   -10439   -10592   -10744   -10887   -11006 
  -11091   -11153   -11206   -11256   -11306   -11352   -11387   -11412 
  -11426   -11400   -11334   -11261   -11209   -11169   -11124   -11091 
  -11090   -11128   -11205   -11306   -11404   -11484   -11538   -11581 
  -11622   -11655   -11674   -11681   -11669   -11639   -11603   -11566 
  -11541   -11518   -11484   -11431   -11368   -11306   -11260   -11237 
  -11232   -11238   -11246   -11244   -11229   -11205   -11165   -11106 
  -11040   -10999   -11011   -11068   -11145   -11238   -11357   -11496 
  -11638   -11769   -11888   -12006   -12129   -12241   -12328   -12384 
  -12420   -12437   -12459   -12502   -12567   -12631   -12679   -12706 
  -12723   -12731   -12725   -12699   -12653   -12606   -12568   -12540 
  -12514   -12490   -12478   -12479   -12484   -12490   -12496   -12511 
  -12526   -12537   -12552   -12560   -12541   -12490   -12409   -12303 
  -12195   -12091   -11997   -11913   -11834   -11766   -11724   -11708 
  -11712   -11736   -11782   -11847   -11923   -12005   -12094   -12187 
  -12283   -12388   -12495   -12588   -12661   -12712   -12753   -12787 
  -12816   -12852   -12885   -12896   -12891   -12883   -12874   -12860 
  -12827   -12773   -12702   -12630   -12564   -12505   -12444   -12366 
  -12263   -12158   -12075   -12009   -11940   -11873   -11817   -11780 
  -11758   -11739   -11713   -11688   -11661   -11632   -11593   -11530 
  -11446   -11358   -11265   -11171   -11088   -11022   -10959   -10890 
  -10817   -10746   -10669   -10585   -10500   -10409   -10311   -10204 
  -10091    -9960    -9822    -9688    -9558    -9418    -9265    -9107 
   -8954    -8807    -8661    -8514    -8367    -8224    -8085    -7955 
   -7847    -7766    -7713    -7685    -7668    -7658    -7659    -7663 
   -7677    -7707    -7753    -7823    -7923    -8041    -8179    -8336 
   -8502    -8668    -8833    -8996    -9148    -9285    -9402    -9512 
   -9622    -9740    -9848    -9945   -10044   -10138   -10230   -10335 
  -10470   -10647   -10858   -11070   -11252   -11396   -11515   -11631 
  -11742   -11826   -11871   -11886   -11878   -11853   -11820   -11773 
  -11700   -11608   -11516   -11435   -11349   -11254   -11167   -11088 
  -11007   -10909   -10802   -10713   -10651   -10609   -10584   -10577 
  -10586   -10602   -10611   -10601   -10574   -10530   -10478   -10431 
  -10393   -10359   -10327   -10293   -10266   -10257   -10262   -10282 
  -10320   -10369   -10423   -10481   -10552   -10643   -10758   -10898 
  -11067   -11271   -11495   -11708   -11897   -12073   -12247   -12413 
  -12553   -12656   -12719   -12749   -12742   -12696   -12626   -12546 
  -12457   -12359   -12252   -12141   -12031   -11925   -11830   -11745 
  -11677   -11630   -11599   -11566   -11531   -11506   -11485   -11462 
  -11439   -11423   -11411   -11395   -11362   -11308   -11254   -11226 
  -11225   -11227   -11206   -11159   -11087   -10991   -10868   -10717 
  -10547   -10380   -10227   -10099    -9999    -9921    -9864    -9836 
   -9836    -9859    -9902    -9967   -10048   -10137   -10237   -10346 
  -10457   -10561   -10652   -10728   -10782   -10816   -10840   -10872 
  -10914   -10957   -10994   -11032   -11061   -11072   -11061   -11044 
  -11033   -11009   -10952   -10864   -10758   -10633   -10486   -10320 
  -10149    -9976    -9805    -9652    -9540    -9466    -9409    -9360 
   -9344    -9378    -9456    -9575    -9733    -9917   -10111   -10307 
  -10498   -10685   -10860   -11017   -11157   -11292   -11430   -11578 
  -11739   -11913   -12106   -12318   -12525   -12715   -12892   -13063 
  -13219   -13350   -13450   -13528   -13578   -13593   -13581   -13556 
  -13517   -13443   -13320   -13163   -12999   -12841   -12684   -12528 
  -12378   -12233   -12082   -11929   -11788   -11662   -11557   -11468 
  -11387   -11310   -11237   -11169   -11117   -11087   -11072   -11070 
  -11080   -11114   -11172   -11221   -11241   -11249   -11264   -11281 
  -11291   -11295   -11307   -11338   -11394   -11470   -11562   -11669 
  -11797   -11942   -12083   -12204   -12307   -12403   -12492   -12563 
  -12617   -12673   -12745   -12829   -12918   -13004   -13082   -13159 
  -13246   -13343   -13439   -13524   -13609   -13693   -13768   -13836 
  -13890   -13917   -13902   -13844   -13767   -13686   -13589   -13460 
  -13294   -13089   -12852   -12579   -12272   -11943   -11596   -11248 
  -10918   -10611   -10327   -10076    -9857    -9656    -9460    -9273 
   -9103    -8949    -8812    -8696    -8603    -8532    -8479    -8442 
   -8421    -8401    -8361    -8293    -8205    -8116    -8031    -7959 
   -7900    -7857    -7832    -7821    -7808    -7796    -7800    -7834 
   -7885    -7944    -8019    -8114    -8230    -8357    -8506    -8684 
   -8892    -9117    -9343    -9570    -9791   -10002   -10192   -10369 
  -10534   -10669   -10760   -10813   -10825   -10809   -10773   -10719 
  -10658   -10600   -10557   -10520   -10486   -10466   -10467   -10477 
  -10488   -10508   -10544   -10596   -10650   -10705   -10756   -10795 
  -10822   -10844   -10859   -10864   -10855   -10833   -10808   -10785 
  -10763   -10741   -10721   -10716   -10746   -10821   -10930   -11057 
  -11196   -11345   -11493   -11639   -11786   -11942   -12096   -12224 
  -12320   -12376   -12386   -12364   -12326   -12268   -12195   -12118 
  -12040   -11966   -11894   -11830   -11781   -11750   -11738   -11747 
  -11772   -11809   -11858   -11905   -11956   -12016   -12069   -12117 
  -12177   -12241   -12301   -12349   -12402   -12465   -12533   -12584 
  -12610   -12609   -12588   -12549   -12495   -12433   -12363   -12280 
  -12181   -12069   -11965   -11867   -11769   -11659   -11533   -11387 
  -11232   -11065   -10882   -10683   -10480   -10289   -10116    -9965 
   -9830    -9706    -9586    -9478    -9396    -9337    -9293    -9258 
   -9243    -9244    -9254    -9277    -9313    -9355    -9400    -9439 
   -9482    -9552    -9641    -9738    -9844    -9953   -10056   -10158 
  -10261   -10361   -10449   -10516   -10563   -10598   -10635   -10678 
  -10721   -10764   -10818   -10885   -10959   -11044   -11146   -11267 
  -11400   -11538   -11676   -11811   -11935   -12050   -12162   -12280 
  -12402   -12511   -12607   -12688   -12748   -12789   -12822   -12842 
  -12854   -12853   -12819   -12756   -12672   -12577   -12483   -12394 
  -12306   -12226   -12166   -12125   -12098   -12081   -12074   -12079 
  -12094   -12105   -12108   -12100   -12071   -12021   -11955   -11871 
  -11784   -11700   -11616   -11526   -11425   -11311   -11188   -11072 
  -10967   -10874   -10793   -10723   -10658   -10596   -10536   -10482 
  -10434   -10396   -10358   -10314   -10270   -10234   -10195   -10145 
  -10087   -10029    -9968    -9902    -9842    -9782    -9721    -9663 
   -9602    -9532    -9467    -9410    -9366    -9348    -9362    -9391 
   -9440    -9505    -9587    -9684    -9786    -9880    -9975   -10073 
  -10173   -10266   -10359   -10459   -10567   -10671   -10762   -10856 
  -10970   -11092   -11215   -11333   -11449   -11568   -11688   -11808 
  -11924   -12033   -12137   -12232   -12310   -12379   -12437   -12482 
  -12514   -12523   -12506   -12452   -12366   -12256   -12132   -12005 
  -11882   -11763   -11653   -11551   -11449   -11346   -11245   -11145 
  -11044   -10947   -10867   -10810   -10777   -10768   -10783   -10824 
  -10897   -10984   -11074   -11168   -11271   -11387   -11514   -11647 
  -11790   -11943   -12098   -12264   -12444   -12634   -12823   -12991 
  -13130   -13246   -13344   -13424   -13483   -13536   -13587   -13636 
  -13674   -13693   -13699   -13701   -13698   -13703   -13711   -13710 
  -13693   -13641   -13558   -13468   -13392   -13327   -13262   -13192 
  -13112   -13023   -12927   -12835   -12754   -12677   -12596   -12507 
  -12407   -12306   -12214   -12131   -12048   -11962   -11871   -11770 
  -11650   -11512   -11369   -11214   -11034   -10829   -10609   -10362 
  -10081    -9782    -9487    -9208    -8943    -8688    -8455    -8251 
   -8077    -7935    -7842    -7793    -7781    -7803    -7855    -7939 
   -8051    -8186    -8340    -8506    -8675    -8838    -8993    -9144 
   -9305    -9482    -9671    -9860   -10044   -10215   -10368   -10493 
  -10578   -10620   -10627   -10606   -10575   -10543   -10501   -10449 
  -10389   -10326   -10265   -10206   -10145   -10081   -10011    -9929 
   -9834    -9729    -9613    -9495    -9387    -9293    -9215    -9148 
   -9082    -9024    -8980    -8939    -8904    -8877    -8850    -8819 
   -8789    -8768    -8764    -8781    -8816    -8866    -8927    -8996 
   -9081    -9190    -9319    -9464    -9622    -9787    -9958   -10150 
  -10373   -10624   -10893   -11168   -11448   -11719   -11983   -12241 
  -12487   -12718   -12939   -13154   -13360   -13552   -13732   -13895 
  -14037   -14142   -14207   -14235   -14227   -14183   -14103   -14004 
  -13896   -13774   -13626   -13455   -13261   -13046   -12826   -12607 
  -12379   -12129   -11855   -11562   -11248   -10909   -10557   -10201 
   -9850    -9513    -9201    -8923    -8667    -8421    -8183    -7959 
   -7751    -7564    -7399    -7260    -7146    -7059    -6998    -6964 
   -6960    -6983    -7037    -7121    -7236    -7385    -7568    -7777 
   -8019    -8297    -8618    -8984    -9377    -9788   -10219   -10652 
  -11074   -11475   -11854   -12212   -12540   -12837   -13111   -13359 
  -13575   -13760   -13909   -14030   -14138   -14237   -14338   -14455 
  -14584   -14721   -14870   -15024   -15184   -15358   -15549   -15738 
  -15916   -16083   -16239   -16379   -16509   -16633   -16745   -16829 
  -16877   -16891   -16866   -16802   -16684   -16511   -16291   -16032 
  -15739   -15422   -15105   -14798   -14485   -14161   -13836   -13501 
  -13186   -12911   -12596   -12264   -12024   -11836   -11628   -11437 
  -11303   -11219   -11151   -11072   -10994   -10935   -10891   -10852 
  -10816   -10785   -10760   -10739   -10713   -10673   -10612   -10525 
  -10404   -10255   -10093    -9911    -9702    -9468    -9219    -8966 
   -8723    -8488    -8263    -8055    -7873    -7708    -7546    -7389 
   -7238    -7082    -6914    -6732    -6534    -6315    -6068    -5809 
   -5556    -5304    -5042    -4776    -4527    -4313    -4137    -4000 
   -3908    -3869    -3879    -3942    -4059    -4240    -4483    -4762 
   -5062    -5401    -5778    -6168    -6552    -6926    -7279    -7608 
   -7921    -8212    -8480    -8739    -8980    -9192    -9390    -9580 
   -9764    -9941   -10111   -10266   -10405   -10534   -10660   -10793 
  -10937   -11086   -11230   -11377   -11527   -11674   -11824   -11981 
  -12143   -12321   -12514   -12723   -12950   -13185   -13423   -13663 
  -13909   -14150   -14377   -14594   -14812   -15032   -15241   -15425 
  -15592   -15761   -15928   -16082   -16225   -16367   -16507   -16645 
  -16784   -16916   -17041   -17186   -17359   -17550   -17755   -17972 
  -18196   -18432   -18665   -18871   -19055   -19206   -19305   -19342 
  -19321   -19238   -19093   -18891   -18644   -18355   -18025   -17659 
  -17267   -16848   -16405   -15951   -15489   -15025   -14559   -14098 
  -13647   -13209   -12784   -12370   -11967   -11577   -11200   -10841 
  -10507   -10207    -9942    -9705    -9497    -9315    -9151    -8999 
   -8854    -8731    -8640    -8576    -8530    -8483    -8424    -8370 
   -8325    -8282    -8239    -8201    -8174    -8162    -8164    -8172 
   -8168    -8143    -8089    -7996    -7873    -7730    -7557    -7353 
   -7133    -6914    -6713    -6547    -6431    -6367    -6359    -6408 
   -6511    -6663    -6860    -7084    -7325    -7569    -7811    -8044 
   -8267    -8476    -8677    -8869    -9051    -9224    -9391    -9558 
   -9720    -9884   -10061   -10242   -10426   -10623   -10825   -11036 
  -11246   -11446   -11634   -11823   -12012   -12198   -12375   -12537 
  -12680   -12803   -12899   -12964   -13004   -13030   -13046   -13061 
  -13066   -13057   -13022   -12955   -12850   -12715   -12565   -12409 
  -12259   -12121   -11994   -11880   -11770   -11668   -11574   -11496 
  -11435   -11388   -11348   -11321   -11307   -11303   -11300   -11302 
  -11307   -11304   -11284   -11241   -11169   -11082   -10993   -10899 
  -10800   -10692   -10578   -10467   -10355   -10246   -10154   -10079 
  -10010    -9946    -9887    -9833    -9783    -9744    -9707    -9668 
   -9639    -9622    -9617    -9628    -9653    -9687    -9733    -9783 
   -9836    -9906    -9999   -10108   -10241   -10392   -10558   -10741 
  -10937   -11132   -11319   -11500   -11661   -11796   -11912   -12009 
  -12082   -12133   -12168   -12185   -12178   -12148   -12102   -12035 
  -11932   -11803   -11654   -11495   -11340   -11200   -11080   -10984 
  -10910   -10851   -10809   -10786   -10774   -10767   -10770   -10773 
  -10770   -10770   -10775   -10797   -10841   -10908   -10999   -11117 
  -11254   -11404   -11558   -11704   -11834   -11947   -12043   -12124 
  -12194   -12251   -12294   -12326   -12341   -12336   -12313   -12268 
  -12205   -12121   -12012   -11889   -11758   -11616   -11470   -11326 
  -11186   -11057   -10939   -10829   -10743   -10685   -10655   -10658 
  -10693   -10754   -10824   -10895   -10964   -11017   -11055   -11086 
  -11109   -11124   -11130   -11126   -11117   -11111   -11115   -11126 
  -11144   -11164   -11179   -11184   -11187   -11188   -11187   -11180 
  -11157   -11117   -11065   -11001   -10916   -10829   -10755   -10681 
  -10598   -10530   -10485   -10436   -10378   -10335   -10322   -10315 
  -10304   -10293   -10287   -10278   -10253   -10215   -10191   -10177 
  -10154   -10126   -10095   -10060   -10034   -10023   -10018   -10018 
  -10027   -10042   -10045   -10030   -10012    -9999    -9990    -9981 
   -9973    -9965    -9958    -9952    -9946    -9944    -9942    -9950 
   -9976   -10023   -10083   -10143   -10212   -10296   -10399   -10527 
  -10677   -10845   -11047   -11279   -11523   -11781   -12058   -12349 
  -12641   -12922   -13192   -13448   -13676   -13871   -14037   -14175 
  -14276   -14334   -14342   -14296   -14200   -14058   -13868   -13639 
  -13381   -13090   -12775   -12438   -12096   -11761   -11439   -11142 
  -10882   -10663   -10476   -10315   -10188   -10096   -10035   -10006 
   -9999   -10015   -10054   -10111   -10189   -10289   -10411   -10548 
  -10708   -10889   -11087   -11303   -11535   -11780   -12028   -12270 
  -12503   -12725   -12928   -13120   -13306   -13487   -13660   -13818 
  -13949   -14061   -14160   -14241   -14300   -14343   -14373   -14399 
  -14418   -14419   -14399   -14347   -14264   -14158   -14030   -13871 
  -13678   -13441   -13170   -12876   -12557   -12224   -11881   -11534 
  -11183   -10825   -10462   -10107    -9763    -9423    -9084    -8749 
   -8418    -8094    -7780    -7477    -7196    -6945    -6727    -6538 
   -6373    -6237    -6130    -6049    -5994    -5973    -5983    -6011 
   -6048    -6096    -6157    -6230    -6322    -6432    -6562    -6706 
   -6862    -7044    -7258    -7497    -7754    -8036    -8340    -8653 
   -8978    -9306    -9636    -9963   -10284   -10594   -10879   -11141 
  -11380   -11593   -11776   -11917   -12024   -12106   -12167   -12213 
  -12247   -12270   -12283   -12291   -12289   -12266   -12217   -12147 
  -12058   -11950   -11830   -11708   -11599   -11502   -11418   -11356 
  -11319   -11306   -11308   -11329   -11364   -11403   -11449   -11504 
  -11568   -11641   -11718   -11788   -11857   -11925   -11992   -12062 
  -12139   -12217   -12290   -12356   -12413   -12455   -12474   -12465 
  -12441   -12407   -12364   -12318   -12282   -12251   -12226   -12209 
  -12187   -12159   -12128   -12098   -12082   -12078   -12079   -12089 
  -12108   -12129   -12156   -12194   -12232   -12267   -12294   -12313 
  -12325   -12330   -12326   -12321   -12321   -12328   -12332   -12329 
  -12314   -12287   -12247   -12195   -12136   -12077   -12013   -11946 
  -11875   -11808   -11742   -11677   -11611   -11543   -11476   -11404 
  -11326   -11246   -11176   -11110   -11045   -10976   -10902   -10818 
  -10727   -10628   -10524   -10417   -10311   -10193   -10068    -9952 
   -9845    -9741    -9645    -9555    -9468    -9389    -9316    -9259 
   -9219    -9189    -9169    -9161    -9158    -9157    -9153    -9140 
   -9120    -9093    -9063    -9031    -8999    -8969    -8943    -8932 
   -8934    -8943    -8962    -8991    -9022    -9058    -9107    -9174 
   -9267    -9383    -9531    -9714    -9922   -10150   -10401   -10665 
  -10930   -11200   -11470   -11736   -11997   -12255   -12505   -12738 
  -12949   -13131   -13278   -13389   -13464   -13509   -13522   -13513 
  -13486   -13447   -13400   -13346   -13290   -13232   -13166   -13089 
  -12997   -12884   -12756   -12614   -12456   -12289   -12124   -11962 
