Origin Time       2025/01/13 21:19:00
Lat.              31.8
Long.             131.6
Depth. (km)       30
Mag.              6.9
Station Code      KMMH18
Station Lat.      33.0031
Station Long.     131.0071
Station Height(m) 932
Record Time       2025/01/13 21:19:56
Sampling Freq(Hz) 100Hz
Duration Time(s)  223
Dir.              4
Scale Factor      7845(gal)/8223790
Max. Acc. (gal)   10.488
Last Correction   2025/01/13 21:19:56
Memo.             
[...]
    4035     3755     3546     3437     3485     3713     4072     4442 
    4685     4718     4552     4248     3852     3397     2911     2442 
    2074     1890     1922     2158     2523     2884     3138     3246 
    3203     3005     2686     2319     1945     1529     1013      418 
    -166     -641     -938    -1055    -1047     -984     -942     -959 
    -969     -891     -723     -479     -140      290      781     1308 
    1856     2440     3034     3551     3931     4174     4283     4272 
    4164     4002     3881     3863     3925     4033     4131     4160 
    4144     4104     4000     3800     3500     3107     2663     2214 
    1802     1489     1313     1294     1447     1711     1977     2199 
    2390     2533     2609     2639     2664     2732     2855     2998 
    3115     3169     3129     2984     2697     2242     1647      980 
     315     -260     -681     -909     -919     -715     -356       71 
     523     1000     1475     1868     2100     2135     1998     1755 
    1506     1317     1202     1144     1109     1075     1043     1005 
     961      950     1027     1196     1412     1632     1853     2106 
    2408     2760     3156     3600     4124     4726     5339     5869 
    6224     6362     6293     6030     5575     4961     4257     3569 
    2988     2546     2246     2087     2027     2014     1999     1981 
    1996     2046     2100     2118     2074     1983     1857     1706 
    1560     1458     1421     1480     1648     1898     2181     2450 
    2643     2700     2616     2450     2295     2195     2142     2118 
    2116     2108     2054     1930     1722     1432     1102      770 
     456      174      -75     -302     -490     -600     -627     -618 
    -615     -619     -594     -487     -253       90      480      853 
    1169     1424     1645     1848     2011     2120     2160     2111 
    1973     1759     1509     1271     1055      876      747      656 
     588      565      596      653      703      720      704      673 
     673      739      882     1081     1296     1479     1615     1732 
    1872     2057     2273     2490     2708     2940     3186     3434 
    3651     3784     3805     3700     3460     3121     2731     2305 
    1888     1524     1225      973      745      561      473      533 
     751     1063     1370     1637     1894     2153     2347     2421 
    2424     2367     2187     1962     1856     1921     2143     2404 
    2551     2625     2720     2781     2698     2452     2112     1749 
    1332      808      249     -236     -561     -637     -490     -216 
     205      770     1377     1919     2326     2587     2795     2988 
    3113     3172     3273     3473     3747     4056     4340     4513 
    4534     4442     4279     4059     3793     3501     3206     2960 
    2814     2758     2740     2712     2636     2501     2301     2046 
    1769     1518     1314     1140      993      889      812      753 
     718      666      531      305        9     -321     -649     -936 
   -1104    -1096     -935     -689     -453     -307     -271     -314 
    -410     -530     -622     -634     -537     -344     -105      148 
     422      712      986     1210     1356     1428     1474     1551 
    1706     1991     2415     2951     3564     4202     4804     5289 
    5609     5769     5765     5575     5221     4764     4275     3824 
    3454     3173     2994     2953     3069     3329     3686     4086 
    4464     4762     4968     5130     5306     5509     5684     5790 
    5838     5888     5979     6106     6241     6354     6419     6415 
    6345     6195     5933     5567     5143     4693     4214     3719 
    3269     2936     2700     2423     2000     1462      904      429 
      81     -145     -265     -276     -182        8      318      797 
    1464     2290     3186     4020     4665     5055     5184     5089 
    4826     4452     4033     3636     3295     3003     2747     2552 
    2463     2504     2654     2864     3075     3248     3406     3589 
    3788     3987     4210     4434     4585     4598     4437     4113 
    3662     3123     2515     1891     1328      853      450       99 
    -202     -436     -598     -683     -675     -573     -321      109 
     604     1089     1586     2085     2574     3065     3582     4104 
    4540     4849     5066     5224     5346     5432     5437     5292 
    4923     4324     3577     2795     2076     1498     1090      827 
     637      467      295      117      -44     -175     -318     -521 
    -800    -1140    -1493    -1838    -2181    -2463    -2635    -2706 
   -2697    -2643    -2605    -2624    -2716    -2839    -2938    -2945 
   -2766    -2361    -1757    -1036     -317      337      896     1310 
    1563     1683     1714     1721     1744     1760     1744     1688 
    1622     1587     1583     1590     1587     1525     1360     1081 
     679      174     -378     -934    -1482    -2026    -2556    -3036 
   -3416    -3647    -3678    -3477    -3048    -2416    -1628     -749 
     160     1031     1791     2389     2808     3065     3184     3200 
    3180     3183     3242     3346     3446     3508     3512     3420 
    3238     3011     2745     2425     2062     1657     1208      724 
     228     -216     -518     -600     -454     -176      139      375 
     364      120     -198     -525     -799     -907     -819     -575 
    -160      434     1134     1854     2555     3213     3773     4156 
    4338     4380     4353     4284     4194     4155     4252     4465 
    4735     5066     5440     5837     6286     6762     7223     7678 
    8114     8495     8788     8959     9049     9121     9173     9182 
    9132     8985     8743     8463     8208     8006     7827     7627 
    7392     7096     6723     6286     5850     5498     5298     5274 
    5406     5670     6038     6466     6891     7263     7528     7653 
    7614     7389     6984     6434     5776     5088     4461     3956 
    3573     3269     3017     2790     2548     2266     1939     1570 
    1135      618       59     -491    -1021    -1529    -2010    -2452 
   -2825    -3111    -3315    -3434    -3464    -3408    -3264    -3005 
   -2598    -2014    -1242     -326      654     1637     2573     3423 
    4171     4799     5278     5579     5660     5476     5031     4392 
    3654     2889     2137     1421      770      233     -151     -368 
    -436     -386     -279     -202     -191     -253     -372     -467 
    -450     -333     -209     -132      -78      -31       17       72 
      97       78       16      -79     -168     -226     -207      -45 
     257      702     1277     1925     2604     3267     3848     4311 
    4622     4750     4753     4715     4666     4606     4510     4314 
    3993     3570     3068     2505     1898     1242      519     -276 
   -1119    -1961    -2755    -3423    -3910    -4206    -4302    -4261 
   -4185    -4058    -3843    -3535    -3152    -2760    -2369    -1950 
   -1517    -1038     -507        6      429      729      958     1173 
    1366     1567     1827     2096     2278     2377     2466     2562 
    2621     2648     2660     2662     2658     2623     2556     2520 
    2528     2551     2560     2531     2450     2358     2312     2315 
    2338     2396     2517     2679     2855     3078     3358     3665 
    3964     4199     4301     4260     4104     3858     3568     3261 
    2925     2548     2133     1696     1271      854      423       -9 
    -417     -769    -1069    -1350    -1595    -1775    -1891    -1918 
   -1844    -1688    -1437    -1088     -676     -220      272      785 
    1358     2026     2789     3647     4611     5656     6741     7812 
    8765     9498     9988    10242    10239     9987     9525     8897 
    8154     7326     6424     5471     4510     3599     2803     2158 
    1667     1312     1081      992     1011     1078     1183     1300 
    1331     1200      912      513       54     -396     -791    -1109 
   -1329    -1444    -1439    -1304    -1081     -824     -584     -407 
    -292     -218     -172     -116       29      306      668     1050 
    1417     1775     2169     2608     3041     3449     3815     4086 
    4247     4334     4374     4376     4361     4332     4252     4074 
    3775     3361     2870     2369     1923     1540     1193      869 
     572      329      159       79      128      357      776     1344 
    1985     2616     3183     3678     4118     4519     4897     5243 
    5508     5679     5799     5888     5961     6021     6029     5948 
    5765     5483     5135     4749     4337     3927     3528     3129 
    2727     2332     1946     1576     1266     1065      982      989 
    1080     1266     1522     1829     2169     2525     2876     3156 
    3325     3435     3549     3682     3816     3900     3906     3873 
    3894     4048     4260     4415     4560     4799     5107     5478 
    5962     6461     6867     7195     7416     7426     7227     6943 
    6596     6126     5617     5148     4614     4023     3605     3392 
    3169     2857     2477     1973     1348      634     -201    -1105 
   -1973    -2744    -3348    -3777    -4072    -4193    -4077    -3754 
   -3289    -2725    -2115    -1487     -849     -259      237      683 
    1082     1395     1629     1802     1908     1949     1887     1676 
    1309      800      159     -568    -1305    -1987    -2577    -3079 
   -3515    -3898    -4234    -4553    -4876    -5166    -5356    -5402 
   -5282    -4986    -4534    -3935    -3199    -2381    -1522     -614 
     361     1385     2403     3360     4179     4737     4958     4864 
    4527     4074     3609     3180     2829     2605     2475     2355 
    2215     2103     2035     1987     1969     1979     1984     2002 
    2077     2247     2521     2860     3222     3577     3894     4145 
    4301     4369     4383     4367     4356     4363     4360     4345 
    4306     4199     3998     3681     3269     2821     2382     1975 
    1601     1196      730      256     -183     -579     -976    -1378 
   -1614    -1614    -1471    -1192     -824     -425       97      716 
    1372     2138     2990     3816     4569     5240     5815     6238 
    6432     6480     6497     6404     6173     5952     5765     5597 
    5508     5455     5355     5192     4919     4488     3896     3172 
    2400     1680     1109      738      572      615      866     1287 
    1796     2303     2759     3165     3500     3738     3892     3983 
    4020     4000     3909     3732     3488     3206     2883     2517 
    2110     1655     1151      625      128     -286     -585     -768 
    -827     -753     -568     -333      -97      117      306      476 
     630      764      872      942      985     1015     1017      994 
     957      912      873      822      726      594      441      264 
     102       20        1        8       54      118      199      373 
     630      889     1140     1382     1607     1838     2081     2331 
    2567     2782     2941     2988     2932     2803     2600     2343 
    2054     1709     1314      897      496      179      -25     -121 
    -110       -9      175      429      697      945     1151     1286 
    1371     1453     1528     1567     1594     1690     1926     2284 
    2704     3141     3584     4058     4577     5119     5660     6184 
    6632     6920     6987     6853     6594     6285     5957     5610 
    5239     4862     4507     4189     3881     3565     3272     3042 
    2884     2763     2667     2617     2625     2724     2924     3160 
    3380     3565     3684     3670     3451     3037     2515     1989 
    1556     1306     1294     1501     1852     2261     2652     2972 
    3179     3230     3121     2926     2729     2527     2289     2031 
    1750     1433     1101      780      498      294      160       45 
    -108     -373     -781    -1308    -1910    -2527    -3107    -3636 
   -4089    -4479    -4846    -5188    -5470    -5648    -5690    -5586 
   -5340    -4973    -4494    -3912    -3248    -2536    -1853    -1289 
    -865     -571     -403     -369     -441     -537     -591     -594 
    -553     -454     -278      -44      226      576     1044     1613 
    2216     2787     3257     3578     3763     3875     3948     3993 
    4041     4148     4379     4741     5163     5591     6076     6644 
    7211     7697     8051     8245     8307     8295     8322     8463 
    8707     9070     9517     9929    10203    10305    10288    10197 
   10007     9702     9267     8675     7996     7327     6693     6107 
    5617     5243     4931     4623     4359     4191     4102     4072 
    4099     4182     4291     4361     4333     4185     3954     3708 
    3501     3349     3271     3280     3369     3550     3831     4183 
    4571     4963     5285     5452     5451     5341     5177     4982 
    4756     4463     4060     3511     2812     1981     1059      103 
    -819    -1678    -2478    -3233    -3921    -4514    -4972    -5254 
   -5339    -5233    -4978    -4610    -4126    -3510    -2793    -2065 
   -1389     -757     -135      495     1124     1729     2305     2835 
    3269     3582     3796     3951     4062     4075     3942     3663 
    3252     2720     2073     1318      495     -398    -1394    -2475 
   -3612    -4749    -5807    -6755    -7562    -8179    -8592    -8834 
   -8935    -8895    -8719    -8405    -7933    -7353    -6747    -6154 
   -5584    -5038    -4536    -4044    -3473    -2781    -1954     -976 
     112     1259     2457     3685     4865     5907     6787     7558 
    8236     8749     9036     9134     9074     8838     8449     7925 
    7241     6394     5418     4405     3503     2758     2153     1744 
    1448     1061      604      217     -153     -445     -488     -440 
    -425     -226      191      608      996     1530     2300     3215 
    4152     5070     5979     6909     7874     8773     9470     9981 
   10423    10771    10867    10677    10336     9950     9493     8908 
    8263     7707     7252     6812     6388     6019     5699     5389 
    5019     4583     4194     3951     3836     3802     3875     4094 
    4380     4587     4722     4877     5004     5042     5026     4957 
    4838     4702     4518     4280     4000     3642     3192     2695 
    2174     1675     1263      972      797      695      610      538 
     495      464      409      301      182       99       22      -98 
    -252     -410     -552     -646     -692     -706     -645     -459 
    -191       85      346      585      768      851      837      750 
     607      436      287      203      201      292      500      822 
    1190     1525     1755     1825     1705     1417     1031      612 
     189     -205     -523     -749     -866     -904     -950    -1034 
   -1144    -1327    -1615    -1995    -2409    -2833    -3279    -3723 
   -4140    -4471    -4669    -4773    -4808    -4781    -4711    -4581 
   -4405    -4217    -3955    -3570    -3121    -2635    -2123    -1584 
    -994     -413       91      561     1048     1560     2096     2673 
    3352     4178     5088     5998     6876     7678     8324     8756 
    8949     8858     8453     7784     6929     5975     5019     4158 
    3464     2967     2631     2403     2239     2107     1984     1846 
    1683     1510     1340     1178     1042      932      850      828 
     909     1119     1491     2020     2625     3237     3873     4552 
    5273     6025     6755     7430     8086     8710     9228     9614 
    9921    10184    10347    10335    10160     9915     9601     9047 
    8324     7707     7145     6532     5861     5250     5026     4741 
    4023     3350     2570     1668      878     -211    -1466    -2610 
   -3765    -4671    -5204    -5544    -5674    -5468    -4901    -4081 
   -3150    -2165    -1155     -147      880     1980     3111     4149 
    5076     5950     6743     7312     7622     7747     7719     7543 
    7227     6751     6124     5364     4482     3493     2403     1302 
     299     -669    -1674    -2702    -3742    -4745    -5675    -6509 
   -7167    -7599    -7830    -7851    -7663    -7279    -6663    -5844 
   -4877    -3759    -2482    -1081      376     1822     3248     4626 
    5842     6791     7464     7906     8159     8220     8149     8016 
    7785     7429     6976     6466     5980     5551     5161     4831 
    4544     4252     3942     3599     3248     2953     2748     2635 
    2577     2552     2579     2640     2694     2717     2701     2667 
    2640     2609     2543     2436     2312     2150     1904     1598 
    1271      938      619      322        5     -376     -847    -1432 
   -2122    -2882    -3653    -4356    -4954    -5436    -5771    -5941 
   -5960    -5822    -5491    -4985    -4383    -3726    -3051    -2427 
   -1852    -1281     -718     -175      365      918     1486     2049 
    2589     3109     3585     4013     4426     4823     5193     5533 
    5853     6164     6459     6729     6986     7223     7414     7555 
    7661     7707     7654     7506     7312     7117     6912     6682 
    6451     6245     6043     5805     5505     5140     4703     4185 
    3588     2913     2169     1394      645      -31     -627    -1136 
   -1533    -1787    -1867    -1740    -1429    -1001     -492      128 
     889     1733     2552     3302     3996     4660     5290     5840 
    6280     6600     6762     6787     6735     6605     6439     6281 
    6130     6042     6041     6066     6102     6100     5991     5783 
    5491     5113     4692     4240     3746     3253     2739     2157 
    1586     1085      656      307       27     -129      -60      172 
     432      695      993     1291     1537     1706     1795     1813 
    1794     1756     1699     1607     1474     1347     1277     1263 
    1289     1316     1309     1277     1252     1264     1317     1383 
    1428     1417     1275      931      384     -306    -1089    -1925 
   -2771    -3559    -4217    -4726    -5111    -5394    -5599    -5740 
   -5791    -5732    -5548    -5231    -4810    -4334    -3850    -3381 
   -2943    -2539    -2168    -1813    -1437    -1005     -508       13 
     502      931     1317     1702     2092     2435     2701     2909 
    3034     3082     3148     3268     3385     3484     3613     3821 
    4050     4233     4418     4579     4614     4560     4510     4477 
    4446     4425     4456     4564     4691     4789     4847     4841 
    4796     4783     4787     4835     5044     5436     5949     6525 
    7125     7728     8307     8769     9009     9016     8820     8444 
    7982     7542     7129     6718     6319     5941     5636     5436 
    5310     5227     5193     5196     5204     5212     5212     5189 
    5119     4980     4801     4639     4469     4255     4047     3847 
    3568     3202     2802     2361     1899     1458     1009      552 
     132     -202     -423     -537     -556     -475     -301      -85 
     114      275      386      421      364      229       36     -202 
    -475     -754    -1039    -1347    -1669    -1995    -2315    -2579 
   -2724    -2727    -2597    -2353    -2022    -1637    -1219     -793 
