Origin Time       2025/01/13 21:19:00
Lat.              31.8
Long.             131.6
Depth. (km)       30
Mag.              6.9
Station Code      KMMH14
Station Lat.      32.6345
Station Long.     130.7521
Station Height(m) -40
Record Time       2025/01/13 21:19:52
Sampling Freq(Hz) 100Hz
Duration Time(s)  197
Dir.              2
Scale Factor      2942(gal)/8224139
Max. Acc. (gal)   8.274
Last Correction   2025/01/13 21:19:52
Memo.             
[...]
   33621    33114    32347    31392    30431    29617    29020    28667 
   28526    28526    28625    28799    29043    29405    29862    30300 
   30704    31098    31499    31966    32506    33107    33708    34203 
   34569    34784    34886    34982    35098    35287    35592    35969 
   36389    36823    37226    37554    37812    37986    38006    37839 
   37509    37081    36625    36175    35762    35368    34940    34423 
   33729    32846    31885    31002    30322    29847    29542    29365 
   29262    29230    29280    29421    29683    30014    30335    30704 
   31198    31837    32618    33528    34515    35451    36193    36680 
   36929    36981    36844    36490    35911    35163    34369    33662 
   33158    32900    32786    32674    32512    32281    31911    31326 
   30582    29844    29278    28958    28857    28952    29205    29555 
   29948    30250    30354    30280    30032    29582    28927    28069 
   27062    26023    25131    24555    24370    24584    25149    25915 
   26713    27440    28043    28525    28894    29173    29463    29806 
   30169    30531    30856    31095    31201    31152    30974    30686 
   30288    29791    29200    28521    27750    26839    25802    24756 
   23797    22959    22188    21462    20858    20463    20264    20137 
   20007    19890    19836    19901    20071    20291    20530    20858 
   21450    22357    23545    24987    26600    28332    30083    31715 
   33189    34543    35826    37006    38009    38789    39353    39775 
   40058    40215    40266    40167    39970    39681    39239    38631 
   37866    37052    36316    35698    35205    34807    34479    34210 
   33966    33721    33482    33270    33065    32886    32760    32683 
   32667    32683    32721    32817    32964    33130    33299    33482 
   33671    33814    33893    33934    33979    34053    34152    34292 
   34493    34722    34908    34974    34844    34465    33880    33138 
   32225    31209    30172    29128    28140    27261    26496    25856 
   25332    24925    24657    24534    24538    24599    24609    24482 
   24214    23842    23394    22951    22582    22285    22041    21795 
   21552    21373    21304    21419    21741    22222    22809    23419 
   23962    24333    24420    24202    23720    23028    22281    21706 
   21433    21492    21864    22501    23379    24471    25712    27024 
   28333    29590    30794    31949    33019    33980    34858    35703 
   36560    37442    38275    38989    39518    39793    39807    39625 
   39336    38952    38461    37890    37258    36625    36067    35606 
   35236    34902    34546    34119    33610    33124    32744    32508 
   32479    32633    32933    33331    33745    34172    34676    35318 
   36069    36859    37629    38300    38848    39267    39513    39606 
   39618    39592    39506    39320    39012    38533    37848    37017 
   36107    35197    34400    33673    32856    31866    30639    29145 
   27437    25573    23649    21790    20105    18662    17458    16478 
   15719    15190    14928    14924    15103    15425    15869    16360 
   16887    17533    18283    19099    19971    20861    21802    22843 
   23957    25101    26214    27241    28204    29143    30063    30921 
   31708    32420    32987    33312    33332    33076    32656    32159 
   31653    31218    30923    30774    30750    30839    31028    31328 
   31752    32285    32918    33652    34481    35392    36335    37246 
   38102    38888    39595    40224    40782    41293    41801    42307 
   42812    43348    43938    44609    45384    46209    47001    47686 
   48173    48394    48313    47952    47376    46607    45646    44568 
   43438    42259    41033    39752    38398    36969    35480    33955 
   32462    31101    29929    28995    28324    27916    27792    27915 
   28177    28472    28777    29077    29284    29342    29268    29091 
   28814    28455    28059    27639    27189    26720    26191    25564 
   24852    24094    23341    22617    21938    21374    21022    20896 
   20947    21149    21425    21670    21856    21953    21948    21906 
   21838    21739    21622    21501    21406    21351    21280    21145 
   20934    20638    20309    20078    20065    20324    20819    21470 
   22219    22991    23754    24537    25361    26234    27151    28085 
   28985    29837    30661    31455    32228    32996    33759    34470 
   35070    35523    35784    35861    35816    35702    35619    35598 
   35596    35629    35680    35723    35737    35665    35469    35136 
   34713    34279    33883    33561    33305    33068    32765    32370 
   31905    31368    30797    30237    29683    29139    28598    28081 
   27631    27245    26946    26755    26666    26703    26897    27260 
   27778    28397    29092    29870    30738    31700    32678    33535 
   34186    34600    34815    34863    34788    34669    34618    34717 
   34978    35386    35872    36348    36829    37270    37611    37855 
   37928    37787    37451    36895    36101    35068    33844    32525 
   31178    29891    28788    27940    27371    27083    27014    27079 
   27203    27288    27284    27201    27071    26944    26817    26653 
   26422    26107    25764    25471    25281    25249    25359    25546 
   25767    25982    26180    26388    26589    26782    26977    27224 
   27600    28127    28788    29548    30361    31166    31858    32356 
   32648    32730    32622    32359    31988    31572    31195    30898 
   30690    30568    30511    30511    30553    30593    30603    30585 
   30565    30555    30555    30564    30565    30551    30520    30491 
   30487    30532    30608    30649    30611    30460    30208    29897 
   29552    29230    28968    28799    28773    28915    29236    29708 
   30284    30929    31612    32323    33041    33727    34354    34857 
   35190    35351    35343    35208    35024    34844    34672    34523 
   34433    34377    34348    34399    34558    34781    34982    35070 
   34969    34655    34171    33596    32977    32328    31669    31004 
   30335    29685    29045    28372    27672    27000    26412    25941 
   25614    25481    25566    25843    26275    26785    27299    27787 
   28233    28648    29058    29455    29833    30210    30572    30923 
   31286    31665    32094    32547    32935    33193    33246    33085 
   32744    32240    31611    30908    30204    29525    28890    28331 
   27884    27596    27446    27410    27484    27606    27739    27864 
   27946    27994    27957    27797    27517    27109    26613    26086 
   25625    25346    25282    25470    25894    26477    27148    27822 
   28471    29106    29664    30061    30272    30304    30171    29937 
   29652    29331    29010    28687    28372    28124    27978    27962 
   28084    28317    28613    28934    29251    29515    29713    29905 
   30125    30353    30562    30736    30892    31068    31286    31561 
   31911    32344    32895    33565    34296    35035    35726    36375 
   37044    37754    38519    39333    40184    41072    41901    42533 
   42916    43063    42997    42738    42334    41829    41242    40587 
   39818    38885    37820    36661    35483    34380    33388    32501 
   31698    30946    30219    29508    28840    28236    27739    27429 
   27361    27562    27993    28560    29149    29641    30024    30327 
   30568    30770    30932    31059    31187    31340    31536    31810 
   32171    32598    33052    33478    33805    33995    34048    33966 
   33790    33527    33156    32661    31985    31166    30291    29412 
   28636    27999    27483    27099    26828    26663    26590    26581 
   26626    26723    26889    27124    27434    27787    28134    28456 
   28750    29057    29362    29629    29886    30127    30370    30638 
   30890    31082    31186    31193    31077    30838    30465    29951 
   29324    28651    28016    27499    27164    27037    27078    27221 
   27395    27542    27625    27616    27529    27394    27244    27101 
   26923    26657    26314    25897    25421    24935    24470    24086 
   23841    23727    23754    23931    24258    24734    25339    26034 
   26798    27588    28327    28993    29600    30144    30636    31037 
   31332    31540    31650    31700    31729    31719    31661    31545 
   31375    31174    30996    30921    30960    31064    31195    31307 
   31332    31216    30964    30618    30240    29867    29527    29281 
   29131    29107    29273    29600    30079    30734    31531    32443 
   33428    34416    35365    36251    37064    37810    38522    39217 
   39906    40556    41115    41534    41767    41813    41694    41440 
   41125    40747    40257    39627    38846    37913    36832    35635 
   34361    33026    31675    30319    28914    27457    26007    24646 
   23438    22415    21581    20952    20557    20360    20308    20347 
   20445    20605    20796    21035    21355    21774    22330    23021 
   23831    24732    25651    26551    27386    28082    28629    29049 
   29357    29587    29786    29956    30106    30288    30511    30732 
   30896    30956    30910    30789    30646    30528    30458    30453 
   30522    30676    30929    31270    31671    32108    32567    33062 
   33624    34253    34916    35567    36162    36697    37177    37608 
   37993    38329    38616    38863    39039    39106    39059    38935 
   38808    38739    38731    38734    38705    38638    38534    38385 
   38195    37959    37643    37245    36790    36285    35726    35105 
   34423    33716    33015    32362    31804    31378    31121    31059 
   31166    31386    31677    31965    32147    32182    32071    31812 
   31418    30925    30368    29754    29093    28399    27692    26981 
   26256    25546    24881    24282    23776    23373    23071    22874 
   22813    22916    23166    23529    23942    24343    24705    25007 
   25258    25479    25698    25932    26181    26455    26732    26970 
   27155    27275    27349    27441    27581    27778    28043    28366 
   28732    29130    29559    30036    30574    31176    31826    32491 
   33131    33690    34098    34331    34404    34335    34157    33859 
   33417    32844    32162    31390    30538    29610    28615    27599 
   26622    25726    24942    24304    23874    23716    23849    24289 
   24961    25735    26549    27324    27994    28568    29034    29423 
   29799    30198    30651    31172    31764    32416    33107    33810 
   34487    35108    35622    36011    36301    36478    36508    36362 
   36050    35644    35206    34759    34330    33945    33627    33372 
   33149    32949    32764    32576    32391    32198    31976    31685 
   31276    30748    30098    29335    28533    27730    26912    26131 
   25481    24960    24594    24429    24437    24595    24884    25276 
   25756    26310    26912    27531    28156    28783    29424    30098 
   30786    31467    32115    32711    33247    33694    34047    34323 
   34535    34704    34830    34866    34793    34628    34381    34057 
   33664    33218    32764    32355    32017    31753    31538    31320 
   31055    30730    30360    29963    29544    29120    28723    28391 
   28177    28121    28256    28579    29052    29623    30258    30950 
   31683    32436    33200    33957    34665    35280    35806    36247 
   36609    36927    37219    37484    37762    38053    38319    38565 
   38778    38944    39101    39280    39519    39885    40387    40999 
   41706    42498    43363    44259    45126    45948    46715    47372 
   47831    48031    47958    47588    46901    45906    44608    43052 
   41318    39449    37497    35540    33632    31841    30230    28761 
   27340    25887    24335    22662    20881    19033    17220    15566 
   14189    13151    12433    11983    11769    11790    12037    12484 
   13099    13837    14654    15502    16335    17177    18073    19052 
   20144    21347    22630    23944    25245    26465    27503    28321 
   28938    29351    29567    29590    29392    28958    28317    27523 
   26657    25821    25107    24548    24166    23950    23859    23884 
   23993    24139    24297    24460    24640    24840    25078    25366 
   25697    26075    26509    27020    27650    28436    29398    30539 
   31835    33243    34690    36084    37330    38353    39096    39495 
   39542    39271    38711    37910    36945    35881    34754    33588 
   32398    31178    29934    28726    27627    26658    25778    24997 
   24354    23819    23357    22991    22748    22643    22705    22974 
   23429    24040    24787    25631    26523    27421    28316    29216 
   30113    30975    31770    32486    33103    33624    34078    34499 
   34932    35355    35726    36055    36328    36541    36751    36973 
   37187    37359    37451    37419    37251    36960    36579    36165 
   35772    35425    35137    34954    34905    35008    35301    35787 
   36440    37264    38261    39402    40637    41921    43197    44412 
   45532    46504    47302    47946    48436    48770    48929    48859 
   48529    47950    47150    46175    45071    43876    42624    41334 
   40008    38661    37307    35982    34735    33586    32526    31576 
   30730    29971    29301    28665    28024    27359    26601    25745 
   24792    23739    22632    21483    20297    19064    17771    16444 
   15115    13824    12596    11429    10338     9356     8517     7904 
    7591     7565     7867     8561     9610    10949    12529    14245 
   15997    17702    19275    20636    21712    22512    23087    23471 
   23754    24023    24302    24621    24977    25346    25693    25976 
   26194    26391    26630    26946    27332    27788    28337    28965 
   29664    30430    31224    32019    32841    33728    34719    35830 
   37018    38210    39348    40358    41156    41677    41910    41926 
   41790    41589    41422    41305    41253    41296    41451    41743 
   42165    42685    43256    43843    44435    44984    45442    45767 
   45913    45854    45592    45148    44564    43877    43097    42223 
   41238    40128    38884    37484    35950    34334    32655    30954 
   29331    27808    26366    25066    23934    22950    22107    21398 
   20810    20312    19909    19573    19255    18976    18715    18422 
   18079    17690    17290    16885    16513    16235    16066    16035 
   16164    16437    16826    17296    17805    18318    18819    19295 
   19746    20173    20556    20887    21189    21481    21786    22113 
   22411    22650    22817    22898    22909    22869    22823    22817 
   22891    23087    23403    23861    24484    25254    26175    27264 
   28522    29914    31414    33023    34689    36367    38071    39760 
   41374    42870    44219    45418    46449    47295    47981    48539 
   48999    49397    49734    49991    50184    50296    50298    50171 
   49893    49464    48883    48173    47367    46496    45596    44674 
   43730    42755    41736    40687    39603    38470    37328    36248 
   35249    34314    33461    32699    32044    31553    31193    30913 
   30719    30570    30434    30303    30163    30028    29917    29821 
   29714    29577    29386    29118    28737    28206    27530    26735 
   25866    24958    24025    23078    22113    21135    20163    19206 
   18285    17436    16664    15973    15367    14855    14488    14301 
   14287    14427    14688    15020    15406    15824    16254    16731 
   17278    17930    18750    19750    20956    22362    23923    25614 
   27383    29169    30939    32630    34206    35649    36919    37987 
   38853    39492    39888    40034    39933    39679    39379    39039 
   38704    38470    38354    38362    38492    38695    38946    39209 
   39438    39633    39788    39922    40043    40128    40161    40146 
   40084    39974    39843    39722    39633    39607    39646    39744 
   39896    40076    40262    40439    40554    40558    40436    40176 
   39781    39260    38589    37767    36801    35685    34456    33151 
   31834    30562    29357    28237    27205    26265    25443    24742 
   24182    23761    23463    23278    23179    23139    23160    23268 
   23483    23823    24300    24881    25562    26335    27147    27976 
   28777    29511    30186    30774    31255    31622    31843    31935 
   31932    31868    31760    31637    31526    31425    31326    31225 
   31098    30956    30809    30658    30508    30348    30164    29940 
   29644    29249    28752    28170    27535    26902    26320    25821 
   25412    25096    24875    24736    24653    24607    24580    24544 
   24489    24397    24260    24097    23944    23859    23881    24032 
   24298    24645    25039    25417    25732    25972    26145    26275 
   26373    26468    26592    26742    26914    27094    27251    27398 
   27518    27584    27594    27530    27399    27251    27130    27087 
   27180    27436    27839    28363    28971    29651    30384    31159 
   31958    32737    33461    34078    34542    34859    35032    35081 
   35048    34943    34785    34592    34381    34188    34029    33928 
   33914    34005    34200    34496    34884    35338    35846    36351 
   36753    37021    37138    37092    36926    36667    36367    36082 
   35820    35595    35415    35278    35164    35055    34940    34803 
   34622    34404    34168    33890    33532    33085    32539    31936 
   31345    30786    30289    29867    29492    29161    28864    28591 
   28377    28232    28151    28138    28154    28166    28156    28043 
   27776    27346    26739    25990    25146    24241    23329    22446 
   21633    20952    20420    20040    19835    19789    19889    20181 
   20656    21282    22010    22756    23476    24131    24726    25320 
   25951    26685    27568    28547    29574    30618    31610    32524 
   33378    34155    34850    35492    36085    36634    37134    37546 
   37882    38152    38354    38502    38585    38597    38558    38457 
   38272    37997    37613    37145    36613    36015    35380    34716 
   34032    33378    32790    32313    31982    31814    31806    31927 
   32143    32408    32684    32944    33162    33338    33469    33559 
   33616    33636    33639    33632    33600    33551    33494    33439 
   33403    33394    33435    33508    33598    33721    33831    33921 
   34021    34117    34222    34333    34425    34503    34561    34597 
   34604    34585    34547    34458    34288    34037    33713    33318 
   32879    32420    31914    31361    30775    30134    29439    28699 
   27923    27151    26422    25774    25251    24891    24730    24783 
   25029    25455    26034    26727    27492    28274    29016    29678 
   30234    30655    30909    30986    30888    30645    30306    29907 
   29475    29026    28572    28115    27661    27236    26850    26497 
   26154    25817    25493    25154    24779    24356    23873    23342 
   22782    22223    21693    21212    20812    20506    20290    20151 
   20097    20155    20331    20630    21062    21621    22289    23041 
   23854    24700    25564    26423    27252    28036    28771    29448 
   30069    30626    31113    31530    31908    32281    32651    33026 
   33411    33793    34161    34508    34848    35172    35480    35820 
