Origin Time       2025/01/13 21:19:00
Lat.              31.8
Long.             131.6
Depth. (km)       30
Mag.              6.9
Station Code      KMMH08
Station Lat.      32.6501
Station Long.     131.0251
Station Height(m) 450
Record Time       2025/01/13 21:19:50
Sampling Freq(Hz) 100Hz
Duration Time(s)  183
Dir.              6
Scale Factor      7845(gal)/8223790
Max. Acc. (gal)   7.167
Last Correction   2025/01/13 21:19:50
Memo.             
[...]
   -1204     -591     -130      156      349      469      402       95 
    -403     -988    -1433    -1595    -1575    -1495    -1351    -1148 
    -977     -949    -1097    -1343    -1633    -1915    -2025    -1904 
   -1680    -1372     -889     -294      245      625      747      537 
      56     -514    -1026    -1467    -1914    -2330    -2608    -2799 
   -3021    -3273    -3483    -3576    -3442    -2938    -2097    -1152 
    -294      290      369      -86     -857    -1690    -2359    -2597 
   -2224    -1310     -132      976     1796     2228     2188     1687 
    1011      583      496      495      418      313      180      -89 
    -600    -1336    -2164    -2898    -3380    -3542    -3369    -2821 
   -1945     -981     -203      318      702     1046     1404     1831 
    2254     2389     2045     1331      423     -665    -1917    -3123 
   -4067    -4756    -5275    -5454    -5034    -4171    -3289    -2520 
   -1760    -1111     -768     -633     -448     -256     -402    -1042 
   -1869    -2436    -2666    -2795    -2897    -2893    -2803    -2674 
   -2463    -2161    -1796    -1347     -778     -175      216      174 
    -265     -909    -1590    -2170    -2538    -2670    -2620    -2431 
   -2164    -1954    -1956    -2236    -2739    -3345    -3935    -4282 
   -4118    -3462    -2592    -1691     -884     -406     -452     -928 
   -1520    -2011    -2295    -2204    -1699     -967     -112      785 
    1451     1742     1822     1809     1614     1150      486     -232 
   -1011    -2011    -3310    -4806    -6251    -7304    -7628    -7115 
   -5913    -4216    -2211     -170     1615     2965     3827     4210 
    4162     3762     3132     2366     1495      557     -375    -1281 
   -2209    -3146    -3969    -4531    -4776    -4762    -4483    -3743 
   -2523    -1174        9      965     1561     1682     1460     1148 
     826      415      -82     -556     -880     -958     -816     -615 
    -460     -338     -279     -413     -765    -1165    -1445    -1517 
   -1287     -758     -160      199      243       93     -163     -459 
    -631     -602     -490     -342      -85      238      564      997 
    1641     2344     2814     2916     2728     2339     1753     1074 
     526      179     -137     -583    -1080    -1470    -1798    -2173 
   -2502    -2636    -2552    -2231    -1609     -741      182      977 
    1517     1656     1335      730      120     -382     -866    -1410 
   -1958    -2442    -2774    -2820    -2546    -1968    -1104     -122 
     727     1394     1926     2249     2299     2157     1934     1657 
    1287      838      417      121      -32      -81     -156     -535 
   -1405    -2601    -3751    -4509    -4684    -4383    -3813    -3084 
   -2319    -1642    -1181    -1134    -1526    -2074    -2585    -3096 
   -3580    -3937    -4175    -4230    -3946    -3392    -2793    -2224 
   -1706    -1277     -954     -772     -706     -697     -774     -974 
   -1236    -1453    -1682    -2049    -2403    -2443    -2180    -1803 
   -1293     -567      244     1020     1804     2594     3302     3878 
    4324     4638     4815     4865     4799     4638     4353     3808 
    2886     1629      294     -764    -1397    -1787    -2176    -2625 
   -3145    -3793    -4438    -4696    -4410    -3838    -3181    -2423 
   -1740    -1578    -2084    -2848    -3474    -4012    -4596    -5062 
   -5190    -5044    -4761    -4213    -3248    -2047     -951     -148 
     314      394       35     -666    -1426    -1988    -2373    -2816 
   -3420    -4032    -4499    -4806    -4880    -4538    -3731    -2632 
   -1402      -72     1277     2452     3368     4024     4283     3975 
    3176     2154     1127      174     -666    -1306    -1705    -2023 
   -2511    -3257    -4218    -5305    -6332    -7048    -7284    -7033 
   -6354    -5279    -3916    -2512    -1302     -394      218      602 
     847     1070     1345     1633     1826     1891     1910     1956 
    1960     1745     1278      768      352      -90     -616    -1071 
   -1391    -1663    -1787    -1510     -837      -63      602     1132 
    1491     1606     1448     1109      826      785      967     1235 
    1458     1524     1318      824      252     -160     -444     -780 
   -1205    -1629    -2010    -2303    -2370    -2160    -1854    -1649 
   -1528    -1435    -1406    -1458    -1522    -1541    -1517    -1588 
   -1904    -2398    -2866    -3180    -3315    -3240    -2879    -2238 
   -1459     -649      182      959     1560     2008     2403     2683 
    2785     2806     2851     2837     2560     1975     1278      664 
     110     -487    -1140    -1846    -2547    -3045    -3233    -3219 
   -3064    -2700    -2169    -1694    -1487    -1594    -1858    -2068 
   -2097    -1925    -1610    -1258     -913     -633     -511     -558 
    -685     -870    -1162    -1526    -1844    -2006    -1964    -1753 
   -1475    -1204     -940     -692     -519     -494     -618     -845 
   -1202    -1699    -2139    -2344    -2362    -2220    -1817    -1093 
    -132      909     1944     2957     3834     4337     4386     4108 
    3593     2844     1881      819     -178     -990    -1551    -1796 
   -1676    -1217     -554      103      561      764      830      876 
     935     1008     1058     1013      846      607      360      136 
     -62     -305     -684    -1171    -1649    -2022    -2286    -2521 
   -2731    -2856    -2926    -3017    -3186    -3445    -3666    -3654 
   -3339    -2797    -2128    -1520    -1190    -1165    -1305    -1539 
   -1903    -2367    -2771    -3010    -3132    -3213    -3222    -3057 
   -2720    -2276    -1692     -959     -155      627     1273     1671 
    1814     1748     1491     1054      511      -58     -689    -1443 
   -2251    -2978    -3545    -3924    -4031    -3798    -3339    -2802 
   -2216    -1626    -1112     -642     -160      247      449      432 
     305      213      249      348      342      147     -194     -606 
   -1086    -1686    -2380    -3092    -3758    -4278    -4513    -4423 
   -4143    -3792    -3302    -2627    -1952    -1443    -1051     -664 
    -244      193      650     1135     1624     2101     2525     2814 
    2932     2930     2866     2713     2396     1922     1362      757 
     175     -256     -460     -533     -653     -850    -1004    -1102 
   -1286    -1587    -1858    -1998    -2104    -2392    -2953    -3750 
   -4699    -5625    -6273    -6492    -6370    -6115    -5790    -5306 
   -4657    -4012    -3523    -3202    -2980    -2783    -2540    -2201 
   -1745    -1177     -541       93      653     1134     1575     1926 
    2106     2127     2022     1718     1155      399     -432    -1231 
   -1904    -2419    -2747    -2828    -2656    -2311    -1900    -1530 
   -1302    -1293    -1494    -1782    -2033    -2192    -2164    -1831 
   -1251     -581       85      716     1343     1992     2552     2925 
    3129     3161     3001     2725     2477     2323     2193     2019 
    1811     1555     1208      788      372       21     -298     -641 
    -951    -1150    -1250    -1297    -1281    -1170     -994     -810 
    -635     -483     -425     -569     -895    -1286    -1649    -1934 
   -2089    -2088    -1958    -1744    -1480    -1182     -838     -496 
    -247     -118      -93      -94      -47      -17     -182     -615 
   -1221    -1873    -2471    -2916    -3148    -3172    -3009    -2702 
   -2296    -1799    -1258     -789     -499     -357     -252     -147 
     -49       56      162      260      334      332      221      -31 
    -464    -1046    -1711    -2394    -3002    -3406    -3538    -3466 
   -3254    -2902    -2484    -2087    -1707    -1351    -1070     -893 
    -778     -741     -812     -963    -1144    -1344    -1595    -1884 
   -2107    -2188    -2124    -1919    -1532     -955     -310      232 
     550      606      414        9     -523    -1053    -1497    -1837 
   -2065    -2158    -2116    -1931    -1606    -1200     -796     -414 
       4      500     1028     1476     1741     1819     1790     1714 
    1663     1682     1707     1587     1181      521     -190     -764 
   -1147    -1398    -1602    -1818    -2062    -2316    -2556    -2764 
   -2876    -2848    -2739    -2631    -2533    -2424    -2309    -2181 
   -1983    -1672    -1273     -819     -318      180      652     1129 
    1572     1852     1925     1822     1588     1269      909      554 
     241       -8     -186     -364     -634     -953    -1140    -1093 
    -818     -388       81      542      993     1364     1553     1526 
    1336     1032      668      372      255      268      272      195 
      63     -109     -364     -699     -988    -1089    -1001     -850 
    -718     -560     -302       35      372      669      908     1026 
     940      588        6     -626    -1151    -1505    -1609    -1437 
   -1090     -695     -367     -182     -157     -344     -837    -1587 
   -2401    -3164    -3866    -4460    -4857    -5073    -5208    -5270 
   -5206    -5043    -4792    -4388    -3811    -3126    -2374    -1528 
    -596      291      961     1306     1343     1139      795      440 
     197      132      218      363      454      417      189     -260 
    -824    -1332    -1713    -1977    -2118    -2120    -2034    -1957 
   -1979    -2119    -2371    -2779    -3353    -4004    -4581    -4947 
   -5066    -4984    -4729    -4299    -3711    -3028    -2361    -1768 
   -1213     -658     -182       97      174       97     -128     -494 
    -951    -1424    -1856    -2259    -2606    -2789    -2759    -2617 
   -2523    -2525    -2540    -2492    -2394    -2255    -2035    -1738 
   -1443    -1198     -963     -670     -329       -4      279      533 
     714      758      700      591      444      295      193      143 
     139      191      271      303      270      182       12     -340 
    -958    -1787    -2721    -3650    -4374    -4719    -4664    -4239 
   -3474    -2478    -1389     -294      711     1499     1989     2160 
    2018     1613     1098      625      209     -175     -514     -799 
   -1050    -1283    -1495    -1653    -1718    -1748    -1840    -2031 
   -2304    -2624    -2905    -3041    -2980    -2721    -2250    -1561 
    -737       79      799     1377     1736     1818     1656     1310 
     872      500      319      369      657     1131     1676     2153 
    2404     2353     2042     1516      807        4     -791    -1483 
   -1984    -2269    -2351    -2234    -1950    -1628    -1377    -1202 
   -1062     -923     -749     -571     -525     -734    -1151    -1615 
   -2069    -2548    -3055    -3542    -3979    -4344    -4603    -4726 
   -4675    -4349    -3697    -2855    -2020    -1277     -599       43 
     641     1152     1520     1664     1518     1061      380     -330 
    -908    -1323    -1601    -1729    -1684    -1512    -1286    -1034 
    -751     -499     -318     -171      -43       12      -22      -51 
      16      168      351      519      683      873     1078     1259 
    1398     1526     1728     2053     2427     2744     2975     3102 
    3055     2795     2392     1958     1579     1310     1155     1070 
    1004      951      923      870      695      283     -372    -1109 
   -1811    -2461    -2978    -3268    -3316    -3183    -2938    -2625 
   -2281    -1954    -1656    -1375    -1120     -922     -770     -595 
    -345      -10      427      947     1452     1795     1833     1526 
     918       90     -847    -1775    -2525    -3041    -3438    -3804 
   -4135    -4396    -4527    -4491    -4305    -4004    -3647    -3312 
   -3046    -2876    -2782    -2736    -2736    -2809    -2959    -3149 
   -3393    -3724    -4090    -4371    -4500    -4523    -4502    -4375 
   -4087    -3692    -3262    -2867    -2550    -2307    -2138    -2011 
   -1838    -1590    -1345    -1209    -1202    -1313    -1549    -1880 
   -2193    -2342    -2259    -2010    -1659    -1236     -800     -421 
    -156      -47      -89     -259     -568    -1027    -1578    -2079 
   -2369    -2339    -1964    -1347     -708     -190      209      533 
     823     1115     1397     1590     1637     1552     1356     1057 
     700      367       75     -230     -567     -913    -1260    -1543 
   -1706    -1745    -1641    -1363     -935     -409      141      621 
     985     1235     1360     1366     1243      945      526      144 
    -114     -218     -116      216      731     1377     2120     2890 
    3538     3943     4094     4020     3731     3248     2659     2091 
    1613     1227      945      761      562      211     -330    -1063 
   -2007    -3100    -4194    -5158    -5906    -6342    -6374    -6002 
   -5341    -4542    -3701    -2898    -2216    -1665    -1179     -696 
    -164      446     1108     1780     2438     3022     3476     3819 
    4072     4202     4168     3975     3678     3300     2816     2196 
    1431      561     -336    -1225    -2116    -3041    -3994    -4880 
   -5540    -5876    -5896    -5684    -5336    -4920    -4495    -4126 
   -3878    -3759    -3746    -3807    -3906    -4008    -4078    -4055 
   -3871    -3484    -2909    -2199    -1394     -560      198      832 
    1310     1606     1767     1867     1904     1817     1603     1316 
     959      534       51     -484    -1040    -1617    -2278    -3083 
   -4016    -4982    -5876    -6613    -7167    -7584    -7932    -8221 
   -8407    -8446    -8276    -7840    -7161    -6316    -5325    -4233 
   -3144    -2147    -1285     -588      -86      197      272      166 
     -31     -205     -310     -299     -105      251      650      974 
    1175     1246     1190     1071      942      815      679      523 
     356      216      155      162      139       14     -209     -488 
    -761    -1026    -1306    -1549    -1707    -1787    -1753    -1539 
   -1155     -681     -190      292      741     1058     1170     1093 
     918      693      436      182      -40     -236     -386     -456 
    -441     -337     -152      114      477      901     1329     1725 
    2085     2421     2727     2999     3229     3352     3310     3094 
    2686     2068     1281      392     -561    -1528    -2434    -3199 
   -3797    -4299    -4762    -5135    -5319    -5239    -4896    -4360 
   -3678    -2921    -2193    -1545     -939     -330      278      845 
    1298     1560     1601     1441     1125      696      216     -198 
    -471     -608     -596     -415     -109      252      604      903 
    1093     1112      935      564       10     -679    -1456    -2276 
   -3106    -3906    -4603    -5113    -5366    -5343    -5070    -4560 
   -3873    -3114    -2351    -1652    -1073     -666     -508     -615 
    -935    -1397    -1912    -2428    -2918    -3362    -3792    -4189 
   -4500    -4718    -4826    -4769    -4530    -4143    -3604    -2862 
   -1984    -1134     -371      282      785     1116     1279     1308 
    1229     1055      818      537      237      -33     -238     -306 
    -180       79      395      719     1013     1262     1479     1679 
    1829     1880     1837     1698     1429     1040      572       76 
    -396     -831    -1169    -1360    -1437    -1449    -1402    -1246 
    -969     -625     -251      130      496      799      976     1036 
    1016      896      653      259     -267     -830    -1382    -1906 
   -2388    -2841    -3240    -3531    -3720    -3793    -3693    -3397 
   -2974    -2523    -2101    -1779    -1644    -1699    -1873    -2084 
   -2307    -2566    -2825    -3011    -3100    -3087    -2957    -2690 
   -2262    -1674     -901       40     1012     1872     2559     3021 
    3200     3123     2871     2478     1944     1308      619     -122 
    -905    -1640    -2243    -2729    -3136    -3433    -3574    -3568 
   -3468    -3319    -3137    -2916    -2632    -2295    -1950    -1609 
   -1264     -907     -545     -198      116      340      436      436 
     359      221       56     -124     -314     -526     -750     -943 
   -1062    -1039     -845     -530     -136      286      639      839 
     882      843      746      549      272      -44     -392     -766 
   -1148    -1501    -1792    -2012    -2165    -2296    -2431    -2544 
   -2616    -2651    -2683    -2778    -2999    -3350    -3770    -4201 
   -4618    -4984    -5254    -5354    -5204    -4800    -4178    -3353 
   -2366    -1297     -249      706     1518     2100     2400     2471 
    2371     2139     1806     1377      913      514      228       95 
     151      383      774     1262     1755     2222     2614     2844 
    2883     2805     2685     2528     2319     2070     1852     1718 
    1602     1444     1291     1150     1021      951      940     1015 
    1227     1543     1848     2043     2106     2043     1850     1526 
    1085      515     -180     -940    -1661    -2303    -2879    -3381 
   -3753    -3991    -4124    -4112    -3919    -3576    -3129    -2623 
   -2101    -1606    -1154     -727     -318       40      310      504 
     657      739      695      492      159     -224     -608     -984 
   -1336    -1674    -2022    -2385    -2722    -2964    -3080    -3090 
   -3019    -2883    -2708    -2558    -2498    -2524    -2597    -2708 
   -2868    -3082    -3307    -3484    -3585    -3582    -3442    -3202 
   -2940    -2706    -2497    -2313    -2178    -2099    -2073    -2061 
   -2003    -1911    -1817    -1737    -1707    -1757    -1908    -2188 
   -2566    -2949    -3250    -3446    -3574    -3636    -3578    -3379 
   -3067    -2651    -2115    -1483     -841     -252      241      565 
     673      599      384       54     -330     -699    -1030    -1317 
   -1534    -1656    -1705    -1742    -1775    -1753    -1642    -1463 
   -1277    -1104     -893     -607     -248      163      602     1066 
    1556     2043     2500     2909     3226     3397     3415     3299 
    3046     2655     2118     1458      765      117     -484    -1046 
   -1541    -1939    -2230    -2454    -2643    -2752    -2758    -2690 
   -2555    -2361    -2107    -1776    -1367     -916     -459      -12 
     361      577      621      495      197     -247     -773    -1317 
   -1834    -2276    -2552    -2633    -2523    -2232    -1826    -1368 
    -915     -523     -205       49      229      341      394      365 
     203     -144     -657    -1252    -1853    -2389    -2783    -2999 
   -3055    -2974    -2748    -2392    -1966    -1509    -1057     -691 
    -477     -450     -571     -772    -1007    -1231    -1421    -1593 
   -1741    -1838    -1860    -1831    -1802    -1775    -1779    -1836 
   -1908    -1975    -2050    -2126    -2189    -2218    -2153    -2008 
   -1857    -1686    -1444    -1144     -811     -480     -198       -6 
      70       35      -98     -284     -488     -723     -985    -1248 
   -1503    -1728    -1902    -1996    -1968    -1856    -1726    -1587 
   -1431    -1251    -1043     -816     -581     -355     -164      -51 
     -29      -91     -216     -356     -456     -456     -353     -182 
      44      268      411      477      494      476      423      344 
     257      135      -54     -284     -531     -776    -1009    -1212 
   -1324    -1332    -1254    -1119     -947     -739     -540     -419 
