Origin Time       2025/01/13 21:19:00
Lat.              31.8
Long.             131.6
Depth. (km)       30
Mag.              6.9
Station Code      KMMH03
Station Lat.      32.9984
Station Long.     130.8301
Station Height(m) 178
Record Time       2025/01/13 21:19:56
Sampling Freq(Hz) 100Hz
Duration Time(s)  155
Dir.              5
Scale Factor      7845(gal)/8223790
Max. Acc. (gal)   8.455
Last Correction   2025/01/13 21:19:57
Memo.             
[...]
     450      588      980     1485     1934     2234     2359     2347 
    2293     2259     2220     2130     1938     1642     1370     1320 
    1651     2355     3229     3978     4432     4612     4648     4638 
    4644     4638     4538     4310     4016     3736     3512     3331 
    3125     2844     2575     2511     2731     3103     3392     3449 
    3348     3269     3281     3308     3246     3036     2700     2328 
    2057     2016     2259     2714     3240     3692     3979     4104 
    4193     4372     4615     4772     4718     4391     3820     3136 
    2529     2139     1976     1934     1883     1829     1908     2178 
    2565     2961     3254     3400     3507     3696     3916     3986 
    3813     3492     3148     2825     2556     2393     2330     2292 
    2245     2195     2118     1983     1792     1595     1525     1699 
    2053     2452     2874     3349     3850     4305     4642     4792 
    4712     4484     4232     3954     3577     3111     2643     2274 
    2095     2126     2305     2529     2724     2871     3018     3206 
    3418     3595     3670     3612     3431     3186     3009     3059 
    3372     3828     4252     4488     4418     3990     3277     2452 
    1703     1190     1047     1339     2015     2920     3882     4762 
    5432     5759     5698     5344     4845     4298     3757     3248 
    2794     2397     2053     1838     1900     2308     2949     3569 
    3936     3954     3640     3117     2600     2238     1981     1709 
    1409     1178     1123     1308     1728     2296     2859     3253 
    3356     3096     2511     1744      973      388      182      400 
     907     1549     2274     3069     3927     4820     5648     6264 
    6558     6502     6145     5545     4768     3933     3195     2664 
    2384     2261     2115     1852     1555     1398     1509     1884 
    2412     2933     3365     3701     3889     3882     3744     3595 
    3557     3755     4222     4820     5324     5559     5510     5325 
    5188     5165     5194     5105     4714     4024     3244     2567 
    2058     1692     1399     1117      850      645      589      742 
    1035     1335     1539     1590     1471     1206      854      473 
     170      112      456     1233     2284     3329     4168     4704 
    4893     4806     4577     4263     3878     3470     3096     2840 
    2789     2932     3144     3291     3319     3234     3098     3022 
    3090     3300     3605     3916     4102     4078     3856     3528 
    3203     2972     2913     3064     3408     3874     4337     4675 
    4855     4885     4718     4328     3778     3215     2817     2717 
    2936     3410     4068     4830     5576     6181     6548     6593 
    6251     5529     4542     3477     2479     1590      823      247 
     -47      -12      286      673      999     1190     1263     1313 
    1413     1552     1721     1914     2131     2351     2474     2400 
    2134     1791     1533     1495     1686     1979     2232     2386 
    2511     2760     3227     3821     4336     4661     4858     5001 
    5069     4973     4634     4101     3601     3414     3647     4163 
    4698     5055     5178     5111     4928     4664     4318     3944 
    3589     3256     2975     2833     2903     3181     3562     3858 
    3865     3511     2928     2344     1912     1628     1367     1024 
     641      448      707     1493     2598     3622     4197     4213 
    3813     3272     2836     2586     2479     2465     2461     2369 
    2216     2185     2398     2802     3252     3650     3960     4120 
    4062     3771     3253     2550     1817     1293     1140     1321 
    1698     2214     2871     3626     4430     5300     6151     6736 
    6829     6381     5476     4287     3067     2111     1611     1560 
    1809     2166     2451     2593     2691     2868     3106     3261 
    3161     2766     2265     1921     1867     2037     2241     2346 
    2400     2543     2821     3126     3323     3316     3078     2687 
    2282     1972     1802     1749     1794     2010     2498     3215 
    4000     4712     5231     5386     5049     4272     3323     2515 
    2014     1837     1930     2155     2292     2220     2145     2404 
    3073     3869     4432     4571     4328     3951     3673     3515 
    3321     2944     2442     2042     1923     2095     2497     3024 
    3518     3865     4047     4099     4002     3685     3204     2743 
    2417     2191     1953     1672     1470     1470     1638     1848 
    2004     2046     1977     1944     2118     2500     2957     3389 
    3754     4029     4151     4017     3605     3067     2627     2428 
    2475     2691     3015     3441     3989     4627     5220     5549 
    5483     5134     4781     4657     4743     4799     4558     3897 
    2897     1807      903      384      337      731     1455     2363 
    3271     3932     4129     3861     3372     2940     2674     2540 
    2504     2552     2716     3086     3658     4259     4733     4963 
    4818     4261     3456     2695     2280     2300     2596     2945 
    3150     3049     2670     2277     2115     2145     2133     1922 
    1566     1192      872      654      623      828     1275     2002 
    3044     4274     5408     6230     6704     6862     6754     6473 
    6143     5853     5562     5125     4422     3477     2484     1744 
    1485     1660     2011     2315     2454     2432     2384     2479 
    2786     3231     3655     3936     4078     4163     4257     4334 
    4286     4056     3705     3314     2945     2666     2529     2550 
    2693     2886     3011     2949     2643     2099     1437      880 
     608      649      900     1256     1676     2096     2413     2625 
    2875     3264     3715     4075     4195     4013     3662     3433 
    3568     4094     4764     5177     5054     4407     3523     2756 
    2272     2016     1908     1919     2068     2388     2835     3275 
    3582     3711     3720     3743     3861     4072     4333     4548 
    4608     4441     4035     3500     3033     2755     2674     2740 
    2853     2906     2879     2821     2776     2764     2740     2643 
    2470     2295     2245     2444     2845     3237     3453     3487 
    3377     3141     2814     2479     2188     1961     1865     1945 
    2149     2400     2671     2970     3302     3573     3576     3175 
    2424     1559      901      685      930     1414     1858     2247 
    2779     3543     4499     5524     6378     6845     6879     6535 
    5826     4769     3524     2361     1528     1107      996     1040 
    1135     1236     1381     1622     1964     2376     2789     3136 
    3430     3670     3674     3225     2396     1593     1239     1470 
    2062     2644     2976     3103     3260     3635     4240     4942 
    5489     5655     5443     5040     4617     4232     3869     3491 
    3088     2691     2359     2149     2124     2327     2712     3129 
    3379     3369     3234     3218     3379     3499     3348     2863 
    2127     1375      912      865     1088     1339     1541     1841 
    2409     3234     4093     4675     4814     4627     4357     4166 
    4114     4164     4170     4020     3724     3337     2924     2616 
    2531     2670     2924     3154     3262     3248     3188     3145 
    3076     2901     2624     2371     2254     2313     2581     3036 
    3538     3906     3985     3705     3211     2772     2577     2646 
    2901     3215     3512     3800     4109     4351     4352     4023 
    3389     2555     1732     1204     1181     1668     2446     3237 
    3881     4324     4552     4619     4595     4477     4244     3924 
    3630     3526     3693     3997     4136     3861     3172     2315 
    1607     1233     1155     1235     1359     1459     1620     2100 
    2999     4024     4749     4970     4726     4174     3539     3010 
    2633     2343     2038     1702     1466     1456     1657     1953 
    2231     2450     2691     3132     3869     4791     5621     6106 
    6150     5834     5327     4774     4239     3738     3277     2852 
    2502     2316     2381     2739     3380     4166     4792     4941 
    4498     3597     2515     1580     1065     1081     1517     2076 
    2473     2617     2596     2508     2412     2338     2315     2366 
    2502     2652     2682     2502     2100     1568     1078      784 
     766     1011     1370     1705     2074     2652     3461     4333 
    5104     5675     5954     5895     5522     4922     4245     3670 
    3326     3287     3554     4004     4418     4630     4638     4492 
    4172     3674     3110     2598     2176     1872     1692     1587 
    1506     1439     1409     1468     1667     2002     2423     2890 
    3426     4024     4529     4750     4723     4680     4788     5057 
    5364     5474     5177     4492     3669     3061     2920     3184 
    3504     3546     3241     2778     2434     2369     2529     2772 
    3040     3361     3754     4190     4541     4644     4417     3928 
    3348     2897     2768     2975     3311     3553     3667     3811 
    4135     4618     5084     5274     4959     4151     3191     2559 
    2531     3005     3605     3946     3858     3458     3033     2845 
    2995     3335     3609     3693     3642     3559     3503     3423 
    3179     2668     1988     1424     1225     1401     1737     1952 
    1877     1603     1397     1468     1799     2174     2394     2454 
    2515     2774     3333     4126     4878     5232     4986     4216 
    3199     2235     1467      897      469      145      -89     -265 
    -390     -438     -425     -402     -433     -585     -888    -1302 
   -1755    -2165    -2438    -2489    -2322    -2016    -1698    -1449 
   -1229     -908     -413      282     1206     2263     3237     3948 
    4298     4266     3915     3311     2532     1772     1285     1231 
    1587     2158     2706     3117     3400     3609     3794     3991 
    4178     4326     4495     4768     5189     5767     6431     7006 
    7285     7145     6621     5875     5128     4552     4205     4089 
    4174     4417     4787     5223     5656     5995     6174     6223 
    6192     6091     5915     5652     5296     4941     4712     4625 
    4669     4855     5086     5192     5070     4696     4083     3299 
    2412     1455      444     -564    -1503    -2308    -2813    -2880 
   -2516    -1833    -1078     -496     -145       37      202      517 
    1011     1593     2154     2632     3030     3369     3659     3931 
    4243     4661     5211     5806     6327     6710     6999     7279 
    7562     7811     7963     7951     7730     7291     6701     6141 
    5761     5555     5431     5333     5251     5166     5080     5042 
    5085     5182     5274     5278     5135     4889     4610     4274 
    3796     3115     2238     1273      421      -89      -90      432 
    1331     2365     3337     4203     5028     5833     6581     7234 
    7736     8024     8081     7939     7653     7281     6871     6448 
    6002     5479     4839     4083     3235     2382     1680     1240 
    1070     1115     1271     1406     1449     1460     1602     2022 
    2706     3474     4128     4538     4676     4596     4441     4359 
    4402     4494     4496     4286     3831     3215     2598     2130 
    1804     1448      888      114     -750    -1553    -2184    -2589 
   -2737    -2628    -2312    -1860    -1336     -827     -376       22 
     338      526      623      657      568      333       18     -321 
    -622     -799     -830     -746     -592     -415     -191      156 
     642     1182     1652     1952     2029     1868     1479      927 
     373       35       35      321      777     1328     1876     2284 
    2461     2446     2385     2473     2820     3314     3686     3753 
    3555     3307     3217     3392     3816     4318     4712     4961 
    5112     5265     5578     6092     6610     6889     6826     6512 
    6153     5886     5678     5413     4993     4494     4187     4294 
    4776     5433     6065     6547     6898     7195     7443     7569 
    7469     7068     6431     5778     5337     5213     5332     5524 
    5686     5846     6027     6216     6426     6642     6805     6840 
    6650     6243     5784     5421     5254     5316     5474     5556 
    5483     5242     4865     4426     3970     3512     3071     2666 
    2292     1988     1807     1694     1580     1499     1525     1648 
    1740     1626     1200      514     -228     -832    -1210    -1385 
   -1445    -1433    -1333    -1138     -845     -500     -202      -63 
    -199     -649    -1320    -2106    -2918    -3635    -4125    -4309 
   -4193    -3873    -3466    -3011    -2443    -1688     -765      228 
    1123     1737     1992     1911     1543      996      411     -189 
    -882    -1661    -2412    -3046    -3512    -3717    -3619    -3268 
   -2701    -1907     -947       41      959     1818     2694     3627 
    4596     5559     6516     7504     8537     9570    10482    11114 
   11410    11475    11502    11608    11750    11828    11784    11569 
   11219    10855    10477     9948     9228     8391     7453     6440 
    5472     4638     3937     3350     2889     2609     2544     2652 
    2889     3238     3653     4110     4703     5518     6504     7522 
    8499     9421    10235    10903    11433    11789    11942    11863 
   11492    10809     9890     8810     7566     6150     4649     3269 
    2203     1505     1210     1366     1861     2481     3061     3439 
    3531     3419     3190     2837     2349     1753     1116      530 
      87     -137     -113       86      330      550      741      949 
    1262     1709     2203     2621     2924     3130     3241     3279 
    3322     3361     3271     2968     2469     1840     1161      480 
    -197     -930    -1737    -2508    -3063    -3244    -2972    -2327 
   -1453     -473      406      946     1117     1001      638       60 
    -696    -1514    -2232    -2747    -2925    -2670    -2060    -1202 
    -162      959     2010     2844     3418     3790     3973     3947 
    3777     3559     3354     3192     3127     3244     3611     4240 
    5066     5988     6889     7634     8112     8264     8033     7396 
    6466     5483     4657     4050     3686     3596     3761     4164 
    4804     5593     6374     7030     7491     7681     7530     7005 
    6138     5047     3943     3061     2550     2373     2377     2452 
    2570     2732     2976     3350     3738     3900     3713     3268 
    2793     2543     2628     2925     3211     3362     3380     3298 
    3105     2756     2216     1497      707       20     -500     -947 
   -1447    -2077    -2764    -3307    -3581    -3572    -3314    -2895 
   -2377    -1723     -908       14      993     2004     2999     3921 
    4726     5290     5420     5047     4305     3391     2485     1719 
    1155      807      648      577      454      195     -187     -611 
    -936    -1036     -882     -576     -251       58      436     1004 
    1853     2947     4121     5178     5944     6362     6534     6569 
    6500     6349     6130     5805     5394     5004     4726     4612 
    4645     4772     4959     5169     5410     5724     6010     6133 
    6065     5836     5472     4990     4357     3570     2735     1985 
    1363      877      560      423      425      486      544      600 
     731     1034     1516     2084     2647     3130     3503     3829 
    4210     4718     5390     6211     7068     7773     8168     8271 
    8194     8025     7819     7591     7285     6855     6339     5873 
    5597     5539     5633     5805     5956     5976     5849     5644 
    5410     5151     4846     4492     4110     3723     3345     2970 
    2556     2081     1552      999      469       43     -251     -445 
    -541     -521     -445     -425     -502     -649     -841    -1048 
   -1228    -1358    -1408    -1304     -996     -513       27      483 
     810     1038     1227     1497     1973     2698     3589     4457 
    5092     5402     5447     5314     5043     4656     4199     3731 
    3319     3057     3032     3241     3609     4064     4515     4847 
    4965     4837     4490     3970     3334     2648     1999     1468 
    1058      727      484      318      170       36      -20       55 
     313      758     1343     2008     2660     3202     3620     3932 
    4135     4222     4148     3852     3400     2953     2654     2558 
    2656     2884     3141     3318     3429     3605     3929     4391 
    4916     5440     5965     6471     6845     7017     7015     6882 
    6687     6531     6443     6403     6413     6455     6466     6430 
    6351     6200     5999     5807     5637     5474     5287     5042 
    4722     4371     4074     3850     3630     3329     2920     2458 
    2080     1921     1995     2193     2393     2513     2559     2587 
    2617     2629     2632     2685     2839     3121     3559     4143 
    4749     5196     5340     5108     4531     3774     3018     2382 
    1921     1637     1493     1424     1398     1437     1537     1632 
    1655     1568     1364     1047      645      257      -28     -206 
    -301     -309     -234      -85      135      427      784     1177 
    1591     2041     2523     3003     3424     3750     3954     4023 
    4004     4001     4082     4256     4506     4758     4895     4834 
    4585     4205     3751     3249     2704     2178     1765     1506 
    1389     1359     1325     1208     1005      784      567      351 
     153       10      -29       82      319      607      904     1169 
    1333     1398     1468     1653     2006     2548     3241     3967 
    4614     5150     5610     6042     6463     6810     6957     6831 
    6446     5869     5185     4486     3819     3156     2479     1850 
    1359     1059      957     1001     1104     1190     1219     1158 
    1030      893      800      807      938     1181     1518     1907 
    2277     2582     2775     2778     2590     2312     2037     1815 
    1679     1651     1752     1992     2389     2971     3711     4484 
    5162     5702     6137     6475     6720     6879     6966     6963 
    6841     6586     6205     5730     5201     4675     4182     3751 
    3410     3156     2967     2793     2532     2111     1539      884 
     263     -265     -749    -1248    -1788    -2351    -2841    -3153 
   -3295    -3369    -3442    -3462    -3321    -2922    -2220    -1220 
       0     1279     2424     3284     3883     4345     4768     5254 
    5872     6558     7190     7700     8121     8518     8895     9247 
    9620     9984    10233    10350    10384    10320    10118     9822 
    9516     9194     8827     8383     7801     7045     6139     5170 
    4240     3426     2786     2349     2111     2087     2277     2617 
    3034     3435     3726     3875     3909     3861     3781     3700 
    3578     3308     2821     2188     1574     1140      974     1073 
    1328     1602     1865     2197     2652     3226     3874     4518 
    5074     5478     5711     5819     5841     5782     5665     5526 
