Origin Time       2025/01/13 21:19:00
Lat.              31.8
Long.             131.6
Depth. (km)       30
Mag.              6.9
Station Code      KMMH15
Station Lat.      32.1704
Station Long.     130.3647
Station Height(m) -95
Record Time       2025/01/13 21:19:52
Sampling Freq(Hz) 100Hz
Duration Time(s)  233
Dir.              1
Scale Factor      3923(gal)/8224838
Max. Acc. (gal)   3.970
Last Correction   2025/01/13 21:19:53
Memo.             
[...]
   19233    19225    19184    19103    19013    18940    18878    18786 
   18636    18443    18243    18054    17890    17772    17739    17787 
   17861    17922    17992    18114    18281    18449    18576    18648 
   18665    18621    18520    18381    18219    18042    17861    17683 
   17509    17321    17089    16812    16522    16247    15982    15699 
   15369    14975    14527    14062    13620    13231    12928    12733 
   12648    12657    12735    12862    13012    13120    13124    13009 
   12812    12603    12437    12317    12232    12167    12097    11965 
   11731    11441    11173    10948    10752    10600    10485    10368 
   10228    10084     9941     9809     9740     9794     9977    10276 
   10643    11038    11442    11842    12233    12619    12988    13331 
   13668    13995    14288    14534    14727    14878    15014    15149 
   15296    15471    15664    15859    16067    16309    16582    16865 
   17158    17459    17729    17965    18212    18476    18736    19030 
   19380    19746    20116    20503    20875    21178    21393    21492 
   21462    21335    21149    20907    20630    20341    20028    19695 
   19368    19070    18813    18612    18449    18297    18162    18072 
   18026    17992    17956    17937    17957    17998    18007    17950 
   17826    17655    17458    17230    16939    16587    16227    15912 
   15676    15502    15352    15205    15056    14913    14771    14620 
   14472    14357    14291    14270    14300    14386    14528    14725 
   14962    15215    15477    15739    15985    16191    16352    16474 
   16564    16607    16572    16421    16171    15889    15626    15415 
   15290    15257    15296    15371    15465    15568    15650    15687 
   15707    15759    15835    15866    15819    15709    15577    15464 
   15394    15348    15292    15214    15125    15043    14983    14947 
   14920    14882    14827    14762    14688    14584    14443    14297 
   14183    14131    14164    14280    14439    14562    14616    14665 
   14789    15012    15313    15668    16048    16428    16777    17092 
   17390    17667    17888    18048    18173    18292    18400    18474 
   18495    18489    18482    18478    18499    18577    18733    18976 
   19284    19606    19889    20121    20326    20518    20677    20802 
   20910    21015    21108    21177    21223    21234    21188    21082 
   20939    20773    20595    20416    20232    20034    19818    19583 
   19317    19016    18696    18372    18048    17716    17361    16995 
   16636    16294    15963    15620    15242    14835    14412    13973 
   13505    13018    12564    12206    11955    11789    11668    11546 
   11412    11303    11252    11259    11315    11392    11461    11527 
   11612    11738    11927    12178    12438    12650    12819    13018 
   13323    13734    14187    14620    15012    15349    15654    15970 
   16298    16605    16845    17004    17107    17166    17190    17208 
   17223    17213    17190    17155    17073    16923    16721    16483 
   16220    15947    15658    15357    15063    14789    14546    14354 
   14212    14110    14029    13986    14003    14075    14164    14242 
   14301    14339    14350    14345    14338    14338    14353    14391 
   14458    14555    14682    14820    14941    15026    15080    15133 
   15202    15286    15384    15500    15622    15762    15942    16171 
   16465    16831    17254    17695    18133    18570    19008    19440 
   19878    20345    20831    21305    21752    22180    22572    22897 
   23151    23348    23490    23580    23616    23604    23550    23468 
   23402    23406    23485    23599    23696    23741    23722    23649 
   23531    23373    23166    22886    22532    22117    21659    21199 
   20760    20356    19990    19615    19188    18719    18223    17693 
   17093    16430    15755    15106    14485    13879    13292    12735 
   12221    11742    11294    10897    10592    10385    10241    10107 
    9949     9757     9552     9354     9173     9013     8896     8830 
    8803     8800     8815     8831     8837     8824     8802     8787 
    8788     8810     8877     9026     9248     9532     9868    10251 
   10652    11014    11279    11443    11558    11651    11712    11772 
   11871    12000    12117    12225    12357    12536    12779    13089 
   13431    13761    14084    14428    14800    15182    15565    15934 
   16249    16492    16679    16826    16926    16969    16968    16938 
   16881    16814    16779    16799    16860    16931    17001    17078 
   17182    17362    17636    17968    18306    18634    18958    19280 
   19604    19905    20156    20362    20538    20694    20833    20952 
   21038    21089    21109    21114    21108    21087    21041    20976 
   20915    20875    20846    20831    20853    20918    21024    21190 
   21411    21644    21845    21996    22102    22176    22230    22252 
   22215    22106    21938    21721    21455    21153    20833    20488 
   20115    19722    19330    18948    18573    18195    17821    17473 
   17166    16883    16614    16370    16164    15982    15776    15510 
   15195    14868    14543    14191    13790    13356    12922    12519 
   12181    11920    11746    11657    11619    11604    11604    11611 
   11612    11600    11569    11529    11489    11438    11358    11249 
   11119    10987    10862    10743    10633    10554    10520    10536 
   10589    10666    10759    10852    10941    11052    11205    11402 
   11622    11843    12060    12286    12514    12730    12928    13116 
   13317    13541    13780    14017    14238    14439    14615    14766 
   14904    15040    15179    15319    15466    15628    15808    15998 
   16213    16467    16744    17024    17320    17635    17957    18266 
   18561    18851    19145    19440    19734    20004    20217    20374 
   20483    20556    20614    20696    20812    20935    21050    21155 
   21236    21292    21350    21429    21547    21703    21849    21936 
   21957    21917    21816    21676    21521    21366    21230    21123 
   21026    20906    20764    20617    20459    20314    20201    20097 
   19974    19819    19610    19349    19070    18769    18450    18142 
   17868    17629    17428    17273    17158    17057    16951    16838 
   16729    16617    16480    16313    16121    15912    15693    15480 
   15269    15044    14793    14546    14320    14114    13918    13736 
   13568    13414    13273    13143    13034    12946    12874    12806 
   12745    12696    12654    12615    12592    12598    12613    12600 
   12530    12405    12253    12116    12031    12016    12058    12124 
   12182    12229    12293    12384    12483    12584    12712    12884 
   13082    13284    13487    13705    13930    14143    14342    14536 
   14720    14860    14959    15041    15121    15221    15379    15614 
   15900    16201    16509    16823    17131    17437    17764    18102 
   18420    18724    19014    19273    19510    19753    19990    20212 
   20424    20615    20777    20914    21026    21120    21208    21276 
   21311    21325    21331    21344    21377    21419    21459    21489 
   21481    21431    21347    21217    21045    20837    20591    20328 
   20074    19835    19620    19444    19303    19175    19029    18843 
   18621    18384    18122    17817    17463    17074    16683    16302 
   15916    15515    15125    14774    14477    14220    13999    13844 
   13763    13699    13606    13495    13410    13358    13317    13288 
   13292    13328    13367    13387    13404    13435    13477    13510 
   13535    13558    13593    13643    13693    13752    13859    14034 
   14264    14511    14769    15043    15321    15577    15807    16031 
   16264    16499    16708    16884    17037    17158    17234    17271 
   17289    17285    17267    17259    17282    17317    17334    17327 
   17300    17231    17111    16965    16807    16637    16475    16351 
   16233    16082    15907    15734    15566    15414    15283    15155 
   15018    14882    14746    14598    14454    14322    14188    14052 
   13934    13855    13821    13837    13906    14002    14091    14160 
   14226    14314    14423    14551    14701    14864    15022    15179 
   15336    15472    15581    15676    15763    15853    15938    16015 
   16093    16186    16290    16409    16552    16722    16906    17082 
   17242    17363    17417    17398    17311    17158    16958    16750 
   16549    16360    16205    16082    15970    15882    15846    15850 
   15882    15932    15974    16000    16005    15981    15931    15862 
   15761    15622    15433    15207    14979    14767    14588    14467 
   14422    14435    14484    14557    14640    14715    14759    14774 
   14773    14769    14762    14746    14727    14724    14744    14770 
   14805    14858    14924    14999    15079    15167    15268    15377 
   15469    15518    15516    15476    15414    15333    15236    15153 
   15111    15114    15159    15253    15400    15573    15736    15889 
   16042    16189    16326    16465    16610    16750    16873    16968 
   17034    17076    17095    17109    17142    17196    17266    17358 
   17474    17620    17790    17977    18183    18407    18650    18905 
   19172    19452    19731    19997    20256    20525    20812    21099 
   21362    21591    21772    21892    21951    21959    21938    21909 
   21870    21821    21771    21720    21658    21589    21504    21384 
   21228    21054    20872    20694    20529    20359    20159    19932 
   19687    19440    19209    19009    18843    18694    18554    18422 
   18285    18123    17930    17709    17458    17178    16888    16596 
   16313    16046    15805    15600    15427    15276    15142    15028 
   14928    14827    14720    14616    14527    14453    14391    14343 
   14322    14303    14264    14253    14292    14314    14299    14291 
   14292    14265    14192    14091    14004    13927    13814    13659 
   13486    13304    13092    12831    12533    12229    11917    11596 
   11290    11033    10836    10683    10558    10457    10369    10285 
   10206    10158    10161    10201    10265    10346    10443    10544 
   10650    10766    10885    10997    11106    11227    11375    11550 
   11763    12008    12280    12576    12881    13188    13500    13828 
   14166    14507    14850    15206    15579    15948    16305    16653 
   16989    17313    17632    17940    18219    18473    18724    18986 
   19238    19464    19658    19828    19997    20186    20387    20586 
   20781    20970    21146    21317    21501    21683    21840    21941 
   21982    21968    21905    21802    21670    21502    21294    21046 
   20772    20487    20200    19915    19631    19350    19078    18816 
   18582    18388    18225    18099    18011    17941    17880    17826 
   17753    17643    17505    17361    17223    17082    16927    16758 
   16587    16416    16233    16040    15844    15654    15483    15338 
   15229    15161    15125    15095    15056    15025    15022    15049 
   15095    15145    15180    15198    15221    15263    15326    15406 
   15473    15520    15576    15655    15745    15836    15930    16012 
   16073    16106    16101    16050    15947    15785    15566    15311 
   15043    14775    14521    14295    14127    14027    13976    13960 
   13968    13991    14044    14131    14247    14364    14442    14462 
   14428    14355    14239    14075    13867    13624    13346    13053 
   12754    12464    12193    11944    11716    11514    11342    11218 
   11165    11182    11252    11362    11518    11726    11974    12245 
   12536    12850    13180    13509    13826    14133    14435    14727 
   14997    15248    15487    15697    15873    16020    16140    16236 
   16310    16371    16426    16474    16524    16579    16623    16652 
   16669    16668    16642    16603    16556    16495    16422    16359 
   16318    16290    16281    16298    16330    16371    16432    16509 
   16606    16726    16852    16961    17050    17127    17190    17242 
   17286    17320    17339    17355    17377    17405    17440    17483 
   17527    17570    17633    17737    17878    18041    18226    18439 
   18658    18854    19017    19138    19203    19210    19171    19101 
   19003    18890    18775    18686    18643    18638    18661    18698 
   18742    18789    18841    18909    18994    19089    19191    19305 
   19425    19543    19661    19780    19899    20000    20085    20162 
   20237    20306    20366    20417    20463    20486    20464    20383 
   20248    20066    19834    19562    19279    19008    18758    18547 
   18385    18264    18171    18112    18091    18099    18130    18185 
   18250    18301    18335    18347    18339    18301    18226    18107 
   17940    17714    17435    17108    16725    16293    15847    15419 
   15033    14720    14485    14323    14223    14176    14173    14203 
   14256    14324    14405    14492    14588    14700    14818    14931 
   15041    15147    15248    15350    15454    15556    15649    15712 
   15746    15754    15734    15688    15622    15530    15419    15303 
   15188    15070    14943    14812    14677    14528    14359    14170 
   13949    13694    13417    13119    12798    12463    12123    11785 
   11461    11141    10812    10473    10145     9846     9585     9350 
    9112     8854     8645     8559     8502     8379     8278     8240 
    8162     8050     7990     7963     7938     7969     8090     8275 
    8510     8826     9201     9583     9972    10389    10833    11284 
   11751    12236    12708    13155    13586    13981    14331    14656 
   14970    15268    15557    15844    16128    16406    16696    17014 
   17358    17721    18091    18463    18839    19225    19620    20007 
   20379    20726    21031    21296    21531    21741    21934    22117 
   22291    22459    22615    22750    22859    22929    22958    22933 
   22855    22732    22576    22393    22188    21963    21722    21466 
   21189    20885    20557    20210    19853    19492    19147    18831 
   18555    18327    18138    17973    17824    17680    17540    17405 
   17280    17184    17134    17112    17091    17072    17061    17046 
   17026    17011    17015    17031    17047    17073    17131    17239 
   17396    17582    17794    18040    18311    18596    18889    19183 
   19469    19739    19990    20232    20478    20733    20997    21258 
   21500    21713    21886    22021    22119    22172    22171    22113 
   21991    21825    21641    21454    21250    21023    20783    20536 
   20264    19962    19634    19284    18922    18562    18202    17837 
   17466    17092    16717    16332    15944    15572    15222    14905 
   14635    14412    14239    14114    14011    13921    13842    13759 
   13655    13521    13352    13144    12910    12665    12426    12216 
   12043    11893    11761    11654    11570    11507    11452    11402 
   11373    11372    11394    11430    11473    11527    11591    11654 
   11719    11773    11811    11846    11888    11943    12021    12131 
   12276    12445    12621    12792    12964    13142    13316    13464 
   13587    13686    13744    13759    13747    13709    13644    13556 
   13454    13342    13231    13120    13014    12916    12822    12730 
   12671    12660    12706    12822    12995    13201    13432    13675 
   13915    14153    14380    14586    14769    14936    15095    15256 
   15425    15606    15807    16032    16289    16576    16884    17193 
   17496    17788    18041    18237    18391    18490    18530    18538 
   18522    18480    18443    18426    18418    18432    18474    18539 
   18634    18760    18905    19052    19191    19314    19410    19485 
   19541    19562    19558    19548    19525    19491    19446    19383 
   19284    19138    18936    18677    18364    18013    17631    17232 
   16833    16448    16094    15785    15514    15257    15009    14774 
   14546    14323    14102    13883    13664    13444    13224    13023 
   12873    12784    12750    12781    12885    13050    13259    13502 
   13768    14042    14324    14608    14902    15206    15510    15807 
   16087    16336    16560    16772    16970    17155    17339    17527 
   17721    17923    18135    18365    18609    18862    19124    19400 
   19695    20008    20337    20680    21030    21367    21690    21998 
   22268    22486    22655    22770    22823    22805    22721    22576 
   22366    22094    21767    21393    20985    20579    20200    19857 
   19550    19287    19078    18921    18798    18702    18636    18600 
   18574    18542    18504    18453    18376    18285    18218    18184 
   18169    18176    18215    18273    18327    18368    18400    18427 
   18445    18445    18426    18391    18334    18247    18134    17988 
   17805    17586    17338    17049    16725    16436    16202    15897 
   15471    15099    14866    14636    14342    14061    13873    13756 
   13625    13459    13311    13201    13084    12928    12775    12671 
   12596    12513    12425    12370    12353    12341    12322    12309 
   12282    12205    12086    11946    11780    11583    11373    11164 
   10943    10713    10498    10304    10115     9936     9787     9687 
    9634     9616     9618     9644     9687     9742     9803     9882 
    9992    10115    10219    10303    10389    10496    10613    10724 
   10828    10932    11028    11101    11163    11232    11308    11388 
   11483    11604    11762    11965    12212    12495    12820    13192 
   13593    14015    14453    14897    15331    15743    16140    16530 
   16906    17255    17575    17868    18125    18335    18497    18616 
   18696    18744    18774    18792    18809    18844    18897    18964 
   19056    19174    19311    19465    19630    19797    19971    20148 
   20321    20482    20622    20734    20815    20872    20916    20954 
   20997    21043    21084    21122    21162    21209    21267    21327 
   21344    21331    21330    21294    21180    21074    20973    20787 
   20596    20464    20305    20146    20065    20012    19969    19992 
   20052    20105    20177    20259    20305    20333    20360    20351 
   20318    20279    20212    20119    20021    19908    19780    19658 
   19548    19446    19364    19291    19209    19121    19024    18904 
   18767    18620    18439    18218    17960    17662    17332    16988 
   16627    16248    15855    15445    15024    14598    14175    13759 
   13351    12953    12571    12204    11854    11543    11281    11078 
   10935    10863    10875    10968    11125    11331    11572    11826 
   12078    12312    12513    12688    12834    12946    13018    13051 
   13051    13018    12951    12876    12811    12768    12750    12771 
   12845    12977    13157    13375    13625    13891    14150    14388 
   14600    14787    14948    15080    15187    15268    15333    15387 
   15442    15511    15608    15730    15855    15975    16097    16220 
   16343    16460    16576    16702    16841    17000    17188    17401 
   17622    17838    18038    18215    18362    18489    18597    18690 
   18769    18832    18873    18891    18898    18897    18887    18877 
   18855    18808    18738    18648    18538    18405    18265    18130 
