Origin Time       2025/01/13 21:19:00
Lat.              31.8
Long.             131.6
Depth. (km)       30
Mag.              6.9
Station Code      KMMH07
Station Lat.      32.6234
Station Long.     130.5584
Station Height(m) -278
Record Time       2025/01/13 21:19:54
Sampling Freq(Hz) 100Hz
Duration Time(s)  181
Dir.              1
Scale Factor      2942(gal)/8224139
Max. Acc. (gal)   3.665
Last Correction   2025/01/13 21:19:54
Memo.             
[...]
  172858   172816   172845   172885   172854   172770   172656   172534 
  172480   172520   172575   172627   172708   172836   173034   173322 
  173651   173948   174143   174185   174116   174004   173834   173597 
  173381   173237   173118   173029   173074   173254   173450   173577 
  173653   173726   173823   173944   174085   174220   174289   174278 
  174299   174401   174468   174437   174407   174449   174494   174456 
  174322   174135   173969   173882   173865   173904   174000   174091 
  174137   174201   174312   174394   174447   174546   174665   174718 
  174688   174587   174449   174337   174240   174106   174001   174006 
  174046   173983   173839   173742   173762   173897   174108   174324 
  174501   174683   174874   174992   175016   175012   175008   175001 
  175014   175022   175022   175072   175130   175050   174870   174769 
  174785   174850   174942   175026   175026   174934   174815   174708 
  174595   174440   174240   173963   173557   173065   172613   172251 
  171958   171736   171579   171479   171464   171532   171639   171783 
  171984   172195   172403   172651   172935   173202   173441   173611 
  173631   173530   173438   173435   173508   173569   173504   173286 
  172968   172578   172122   171680   171328   171038   170753   170488 
  170289   170170   170101   170041   169969   169886   169827   169804 
  169798   169788   169786   169836   169977   170199   170479   170802 
  171153   171467   171672   171795   171960   172243   172635   173078 
  173499   173819   173988   173986   173820   173527   173207   172978 
  172894   172913   172975   173099   173314   173566   173758   173816 
  173722   173519   173250   172971   172736   172527   172288   172083 
  172039   172164   172346   172525   172721   172935   173115   173254 
  173375   173458   173481   173491   173572   173773   174090   174475 
  174857   175211   175560   175894   176203   176539   176898   177174 
  177294   177309   177286   177253   177222   177168   177066   176940 
  176800   176597   176308   175965   175608   175270   174997   174789 
  174614   174453   174280   174055   173794   173541   173295   173070 
  172849   172530   172073   171614   171281   171054   170896   170803 
  170735   170687   170738   170914   171105   171256   171429   171657 
  171918   172203   172478   172674   172817   173020   173263   173454 
  173628   173828   174019   174182   174324   174465   174649   174868 
  175080   175248   175305   175207   175055   174970   174923   174901 
  174996   175189   175347   175393   175308   175086   174804   174564 
  174378   174252   174253   174370   174474   174518   174575   174685 
  174857   175093   175328   175463   175490   175463   175386   175221 
  175008   174815   174668   174596   174602   174622   174636   174727 
  174912   175061   175080   175026   174999   175026   175047   174984 
  174846   174722   174638   174534   174424   174407   174494   174600 
  174673   174696   174698   174683   174576   174297   173882   173477 
  173203   173070   172994   172906   172802   172720   172670   172636 
  172588   172478   172284   172014   171675   171270   170820   170370 
  169969   169662   169450   169322   169288   169395   169669   170075 
  170536   170977   171347   171610   171748   171755   171657   171517 
  171396   171327   171327   171431   171713   172210   172812   173318 
  173622   173769   173788   173666   173469   173313   173263   173338 
  173515   173728   173939   174152   174345   174471   174541   174595 
  174617   174600   174569   174523   174456   174395   174395   174471 
  174575   174622   174591   174567   174607   174673   174715   174725 
  174694   174638   174617   174636   174653   174641   174564   174418 
  174248   174056   173790   173464   173151   172879   172642   172454 
  172343   172335   172447   172665   172924   173182   173491   173919 
  174445   175018   175587   176080   176469   176770   176971   177068 
  177113   177118   177048   176908   176743   176581   176447   176373 
  176350   176322   176287   176283   176280   176185   175914   175462 
  174931   174437   173996   173577   173187   172810   172411   171992 
  171563   171116   170729   170495   170401   170367   170356   170341 
  170326   170372   170526   170760   171049   171398   171772   172106 
  172396   172686   172990   173295   173615   173947   174241   174444 
  174536   174532   174449   174280   174029   173757   173538   173364 
  173152   172870   172566   172307   172147   172102   172150   172270 
  172451   172679   172930   173155   173295   173338   173308   173217 
  173055   172816   172528   172260   172072   171960   171861   171771 
  171742   171791   171921   172170   172521   172879   173195   173443 
  173554   173523   173427   173283   173036   172705   172369   172079 
  171845   171676   171576   171544   171582   171691   171849   172000 
  172079   172052   171937   171749   171486   171158   170823   170550 
  170415   170459   170640   170887   171132   171281   171305   171312 
  171406   171612   171944   172405   172912   173376   173800   174218 
  174658   175147   175693   176233   176674   176947   177044   176989 
  176814   176565   176258   175861   175354   174803   174305   173882 
  173518   173227   173024   172862   172728   172632   172531   172396 
  172292   172291   172388   172547   172770   173086   173493   173916 
  174291   174625   174908   175107   175230   175317   175414   175585 
  175868   176251   176693   177161   177622   178059   178480   178838 
  179059   179130   179059   178849   178525   178140   177720   177273 
  176797   176289   175784   175344   174969   174606   174253   173934 
  173628   173350   173141   172976   172793   172588   172396   172208 
  172012   171826   171678   171620   171715   171976   172314   172660 
  173056   173526   174020   174506   174973   175358   175613   175778 
  175869   175851   175730   175554   175329   175082   174880   174748 
  174673   174640   174614   174575   174546   174569   174629   174671 
  174684   174695   174725   174771   174803   174804   174796   174800 
  174791   174727   174595   174391   174139   173902   173720   173574 
  173448   173333   173205   173043   172852   172627   172408   172300 
  172363   172555   172833   173202   173624   174004   174294   174494 
  174565   174487   174326   174155   173982   173819   173685   173560 
  173446   173395   173415   173468   173546   173661   173792   173896 
  173966   174040   174139   174243   174290   174224   174033   173732 
  173348   172941   172578   172295   172129   172108   172183   172242 
  172239   172192   172119   172041   171961   171864   171734   171578 
  171390   171136   170811   170448   170071   169673   169267   168897 
  168632   168538   168604   168790   169069   169384   169665   169902 
  170112   170301   170514   170807   171178   171526   171757   171887 
  171990   172087   172188   172318   172486   172681   172898   173155 
  173426   173647   173816   173956   174044   174050   173990   173902 
  173834   173835   173907   174004   174117   174255   174372   174436 
  174486   174555   174600   174550   174393   174177   173958   173754 
  173533   173261   172986   172783   172654   172570   172552   172639 
  172827   173072   173327   173573   173839   174174   174561   174946 
  175319   175670   175948   176116   176187   176188   176125   175992 
  175815   175652   175563   175562   175628   175725   175818   175891 
  175956   176003   176006   175961   175883   175749   175540   175273 
  174954   174582   174174   173761   173340   172901   172486   172142 
  171861   171607   171387   171269   171302   171455   171653   171865 
  172071   172207   172260   172300   172377   172474   172616   172844 
  173130   173408   173620   173732   173758   173761   173767   173755 
  173734   173750   173792   173827   173875   173925   173929   173894 
  173848   173769   173626   173411   173137   172831   172532   172282 
  172096   171979   171946   171985   172042   172057   172054   172088 
  172157   172230   172308   172396   172496   172643   172871   173182 
  173557   173962   174333   174629   174826   174865   174717   174464 
  174225   174029   173854   173704   173607   173572   173600   173673 
  173773   173894   174006   174086   174160   174225   174260   174312 
  174420   174560   174719   174892   175032   175089   175073   174980 
  174780   174511   174286   174159   174110   174120   174183   174294 
  174453   174680   174974   175308   175644   175948   176203   176404 
  176505   176423   176133   175705   175228   174772   174374   174071 
  173894   173848   173916   174082   174316   174563   174750   174864 
  174950   175035   175081   175035   174926   174839   174796   174758 
  174708   174661   174631   174630   174656   174665   174623   174538 
  174437   174343   174268   174195   174113   174063   174094   174201 
  174351   174523   174688   174811   174891   174914   174850   174726 
  174584   174426   174259   174082   173882   173645   173364   173059 
  172790   172613   172530   172513   172547   172620   172701   172768 
  172849   172984   173156   173299   173352   173296   173157   172971 
  172763   172542   172308   172106   171983   171934   171945   172017 
  172125   172179   172114   171979   171868   171832   171865   171949 
  172081   172278   172554   172894   173268   173654   174040   174410 
  174762   175113   175446   175686   175776   175740   175640   175516 
  175360   175155   174946   174808   174760   174741   174710   174668 
  174603   174509   174406   174263   174032   173750   173479   173203 
  172910   172638   172413   172269   172220   172231   172250   172301 
  172412   172524   172602   172682   172750   172727   172612   172462 
  172305   172141   171999   171898   171815   171740   171686   171671 
  171709   171818   172011   172280   172612   172991   173327   173508 
  173529   173476   173408   173335   173245   173099   172891   172667 
  172455   172237   172008   171817   171683   171585   171522   171494 
  171452   171374   171293   171228   171185   171173   171198   171277 
  171406   171553   171676   171760   171833   171896   171940   172006 
  172127   172288   172505   172763   172978   173125   173248   173348 
  173402   173425   173430   173381   173264   173091   172837   172477 
  172049   171629   171279   171023   170874   170866   171022   171325 
  171738   172223   172737   173254   173767   174274   174722   175066 
  175302   175464   175570   175622   175628   175575   175455   175317 
  175211   175124   175054   175024   175043   175113   175228   175342 
  175447   175578   175721   175834   175936   176084   176289   176519 
  176756   176990   177172   177272   177286   177221   177075   176859 
  176598   176299   175949   175570   175211   174911   174696   174561 
  174480   174451   174479   174541   174584   174586   174563   174517 
  174424   174280   174108   173921   173742   173581   173441   173304 
  173132   172894   172590   172220   171807   171408   171093   170901 
  170815   170797   170843   170947   171077   171217   171385   171571 
  171748   171909   172073   172238   172376   172493   172621   172721 
  172755   172750   172719   172631   172469   172254   172004   171730 
  171471   171246   171042   170842   170648   170479   170378   170388 
  170495   170654   170842   171040   171228   171381   171483   171541 
  171595   171659   171715   171780   171850   171872   171845   171836 
  171857   171884   171957   172120   172354   172616   172876   173094 
  173215   173233   173172   173068   172952   172835   172713   172602 
  172516   172432   172330   172227   172135   172046   171990   171992 
  172058   172199   172436   172782   173211   173664   174085   174440 
  174704   174876   174964   174972   174924   174874   174870   174930 
  175015   175072   175107   175163   175258   175352   175402   175416 
  175427   175443   175454   175467   175491   175516   175527   175516 
  175486   175446   175396   175359   175367   175393   175397   175346 
  175215   175018   174788   174569   174413   174348   174345   174371 
  174424   174514   174630   174737   174822   174910   175014   175103 
  175147   175127   175042   174928   174831   174761   174703   174654 
  174619   174604   174610   174636   174679   174737   174788   174804 
  174785   174750   174690   174599   174507   174433   174364   174307 
  174276   174274   174312   174410   174552   174684   174766   174779 
  174710   174563   174334   174020   173639   173225   172797   172365 
  171953   171594   171306   171107   171022   171050   171161   171335 
  171564   171822   172068   172287   172480   172638   172767   172895 
  173043   173206   173375   173514   173554   173442   173191   172859 
  172486   172080   171624   171120   170596   170059   169497   168901 
  168259   167613   167032   166552   166147   165800   165510   165258 
  165042   164889   164812   164805   164889   165088   165383   165766 
  166266   166872   167537   168228   168939   169641   170305   170937 
  171539   172084   172573   173030   173460   173862   174262   174653 
  174984   175228   175460   175768   176131   176507   176887   177225 
  177488   177723   177969   178228   178524   178887   179320   179801 
  180324   180890   181453   181986   182518   183016   183402   183663 
  183782   183694   183385   182902   182270   181507   180638   179647 
  178524   177315   176056   174754   173477   172330   171375   170653 
  170190   169955   169892   169952   170089   170270   170521   170842 
  171197   171598   172038   172458   172840   173202   173483   173619 
  173616   173511   173350   173180   173009   172848   172743   172728 
  172818   173016   173304   173678   174164   174793   175583   176524 
  177545   178530   179377   180030   180477   180738   180825   180771 
  180621   180426   180227   180045   179879   179728   179583   179420 
  179197   178883   178438   177849   177130   176326   175495   174708 
  174009   173427   172979   172628   172330   172087   171911   171805 
  171792   171880   172057   172318   172625   172935   173209   173411 
  173522   173566   173588   173599   173577   173533   173475   173375 
  173233   173078   172851   172500   172119   171730   171198   170525 
  169850   169195   168567   168053   167657   167321   167063   166889 
  166747   166669   166725   166855   166959   167057   167196   167350 
  167494   167676   167929   168205   168442   168651   168860   169037 
  169171   169331   169601   169981   170434   170920   171383   171799 
  172179   172511   172766   172925   172979   172945   172845   172690 
  172516   172351   172215   172135   172125   172176   172282   172426 
  172586   172756   172924   173052   173114   173099   173002   172828 
  172597   172320   172026   171742   171451   171112   170723   170318 
  169940   169634   169442   169402   169541   169869   170355   170938 
  171590   172308   173059   173800   174507   175159   175718   176152 
  176434   176592   176689   176737   176723   176686   176688   176736 
  176812   176870   176850   176733   176557   176357   176146   175949 
  175821   175809   175915   176119   176407   176751   177113   177462 
  177776   178023   178190   178293   178359   178390   178378   178347 
  178314   178274   178216   178158   178105   178071   178090   178195 
  178386   178622   178837   178974   179024   178972   178769   178414 
  177958   177468   177010   176635   176353   176141   175983   175882 
  175833   175817   175809   175783   175722   175636   175552   175468 
  175373   175281   175192   175085   174962   174826   174657   174434 
  174150   173789   173344   172813   172204   171533   170842   170171 
  169558   169011   168512   168048   167636   167286   166969   166631 
  166260   165896   165574   165303   165087   164924   164822   164808 
  164890   165057   165306   165619   165956   166301   166669   167093 
  167549   167980   168354   168683   168986   169277   169597   169967 
  170391   170851   171305   171706   172048   172328   172548   172736 
  172909   173061   173202   173356   173549   173774   174012   174272 
  174567   174881   175208   175556   175909   176227   176477   176636 
  176712   176705   176596   176393   176146   175880   175591   175271 
  174900   174469   174002   173530   173063   172615   172196   171784 
  171382   171030   170745   170545   170463   170540   170780   171131 
  171541   171983   172416   172817   173195   173569   173961   174387 
  174838   175298   175790   176326   176882   177431   177965   178483 
  178995   179491   179945   180316   180593   180810   180993   181145 
  181299   181465   181638   181831   182016   182147   182208   182186 
  182043   181749   181329   180816   180222   179579   178923   178259 
  177596   176952   176315   175676   175062   174492   173967   173489 
  173065   172678   172305   171945   171593   171228   170849   170483 
  170158   169874   169623   169375   169123   168899   168725   168613 
  168566   168575   168652   168789   168952   169148   169385   169630 
  169850   170055   170247   170402   170525   170631   170692   170729 
  170811   170932   171055   171177   171255   171243   171181   171113 
  171027   170915   170807   170681   170500   170276   170044   169825 
  169666   169593   169596   169649   169731   169840   169989   170167 
  170357   170541   170708   170891   171140   171450   171768   172075 
  172362   172609   172833   173064   173306   173565   173867   174182 
  174449   174668   174847   174961   175001   174987   174924   174854 
  174818   174783   174707   174604   174490   174352   174191   174019 
  173873   173800   173803   173838   173848   173816   173758   173705 
  173686   173700   173730   173740   173670   173487   173230   172949 
  172633   172293   171995   171761   171610   171599   171725   171940 
  172206   172508   172854   173246   173718   174282   174895   175537 
  176220   176891   177465   177913   178251   178495   178661   178772 
  178829   178822   178775   178703   178595   178456   178316   178190 
  178062   177913   177746   177562   177350   177091   176773   176397 
  175984   175558   175135   174717   174307   173934   173618   173372 
  173215   173171   173219   173317   173439   173593   173812   174098 
  174417   174711   174951   175113   175166   175097   174950   174749 
  174487   174209   173981   173790   173588   173342   173055   172735 
  172413   172146   171957   171826   171769   171817   171948   172142 
  172389   172650   172889   173099   173275   173421   173539   173622 
  173653   173642   173623   173623   173647   173695   173754   173796 
  173799   173780   173745   173674   173580   173487   173408   173329 
  173213   173041   172871   172739   172615   172527   172493   172444 
  172396   172426   172524   172681   172935   173271   173624   173963 
  174276   174546   174780   174996   175188   175352   175505   175643 
  175744   175799   175795   175716   175571   175373   175108   174771 
  174367   173908   173412   172885   172339   171814   171358   170982 
  170714   170592   170600   170699   170866   171069   171266   171462 
