Origin Time       2025/01/13 21:19:00
Lat.              31.8
Long.             131.6
Depth. (km)       30
Mag.              6.9
Station Code      KMMH15
Station Lat.      32.1704
Station Long.     130.3647
Station Height(m) -95
Record Time       2025/01/13 21:19:52
Sampling Freq(Hz) 100Hz
Duration Time(s)  233
Dir.              3
Scale Factor      3923(gal)/8224838
Max. Acc. (gal)   3.559
Last Correction   2025/01/13 21:19:53
Memo.             
[...]
  -36298   -36088   -35927   -35815   -35721   -35618   -35469   -35243 
  -34971   -34711   -34488   -34304   -34173   -34101   -34051   -33974 
  -33845   -33670   -33471   -33280   -33126   -33045   -33041   -33091 
  -33210   -33403   -33621   -33812   -33972   -34105   -34206   -34307 
  -34458   -34684   -34958   -35240   -35499   -35707   -35861   -35981 
  -36082   -36178   -36281   -36397   -36535   -36664   -36737   -36740 
  -36675   -36549   -36412   -36329   -36346   -36468   -36670   -36869 
  -37003   -37056   -37026   -36933   -36833   -36796   -36848   -36960 
  -37098   -37228   -37315   -37327   -37282   -37203   -37103   -37011 
  -36958   -36975   -37075   -37224   -37380   -37528   -37675   -37820 
  -37970   -38133   -38294   -38425   -38520   -38592   -38662   -38738 
  -38824   -38925   -39046   -39170   -39263   -39283   -39218   -39069 
  -38875   -38730   -38682   -38688   -38700   -38712   -38696   -38643 
  -38593   -38588   -38645   -38767   -38948   -39172   -39424   -39681 
  -39914   -40100   -40221   -40267   -40267   -40259   -40248   -40220 
  -40171   -40096   -39987   -39857   -39733   -39623   -39533   -39488 
  -39509   -39567   -39625   -39646   -39588   -39429   -39212   -39010 
  -38898   -38909   -39028   -39229   -39486   -39750   -39966   -40112 
  -40180   -40166   -40096   -40003   -39887   -39734   -39567   -39410 
  -39274   -39160   -39074   -39001   -38912   -38808   -38730   -38691 
  -38670   -38623   -38522   -38395   -38267   -38138   -38024   -37925 
  -37829   -37731   -37625   -37516   -37403   -37272   -37103   -36890 
  -36648   -36413   -36215   -36076   -36011   -36007   -36020   -36001 
  -35922   -35792   -35656   -35556   -35526   -35581   -35685   -35766 
  -35791   -35781   -35779   -35787   -35779   -35721   -35604   -35478 
  -35419   -35486   -35671   -35915   -36162   -36385   -36559   -36675 
  -36748   -36784   -36787   -36817   -36936   -37141   -37386   -37636 
  -37854   -38013   -38128   -38232   -38360   -38506   -38639   -38766 
  -38925   -39137   -39395   -39671   -39900   -40005   -39941   -39742 
  -39514   -39372   -39363   -39451   -39561   -39626   -39594   -39471 
  -39291   -39093   -38902   -38720   -38524   -38276   -37978   -37689 
  -37480   -37384   -37374   -37395   -37392   -37327   -37200   -37049 
  -36919   -36813   -36703   -36563   -36374   -36139   -35872   -35590 
  -35336   -35139   -34982   -34823   -34632   -34410   -34198   -34040 
  -33940   -33879   -33835   -33787   -33755   -33772   -33843   -33953 
  -34105   -34280   -34435   -34545   -34601   -34622   -34645   -34688 
  -34750   -34817   -34854   -34828   -34759   -34717   -34747   -34842 
  -34969   -35071   -35116   -35124   -35145   -35225   -35365   -35533 
  -35688   -35838   -36028   -36293   -36610   -36914   -37130   -37233 
  -37250   -37246   -37269   -37346   -37449   -37515   -37521   -37503 
  -37493   -37509   -37554   -37633   -37748   -37891   -38064   -38250 
  -38411   -38527   -38615   -38700   -38792   -38911   -39085   -39329 
  -39641   -40004   -40374   -40709   -41002   -41246   -41455   -41666 
  -41885   -42078   -42218   -42302   -42348   -42376   -42385   -42367 
  -42319   -42245   -42124   -41966   -41817   -41694   -41593   -41536 
  -41528   -41561   -41650   -41804   -41987   -42149   -42253   -42288 
  -42259   -42172   -42056   -41929   -41774   -41563   -41291   -40961 
  -40586   -40173   -39714   -39205   -38677   -38178   -37740   -37372 
  -37057   -36763   -36458   -36147   -35834   -35523   -35239   -34994 
  -34776   -34551   -34319   -34098   -33889   -33691   -33504   -33315 
  -33133   -32995   -32956   -33022   -33138   -33268   -33413   -33570 
  -33727   -33902   -34105   -34319   -34511   -34639   -34680   -34649 
  -34587   -34515   -34452   -34383   -34273   -34113   -33937   -33772 
  -33615   -33461   -33322   -33195   -33084   -32998   -32934   -32894 
  -32887   -32929   -33039   -33219   -33438   -33694   -34003   -34344 
  -34682   -35009   -35309   -35576   -35831   -36096   -36389   -36729 
  -37115   -37531   -37959   -38377   -38767   -39118   -39452   -39789 
  -40139   -40497   -40852   -41173   -41432   -41620   -41729   -41775 
  -41789   -41790   -41783   -41759   -41698   -41563   -41346   -41080 
  -40829   -40641   -40535   -40473   -40406   -40323   -40225   -40122 
  -40050   -40027   -40015   -39972   -39887   -39773   -39656   -39564 
  -39518   -39505   -39482   -39434   -39366   -39276   -39182   -39091 
  -39004   -38902   -38777   -38645   -38522   -38406   -38318   -38277 
  -38287   -38361   -38493   -38658   -38823   -38939   -38975   -38952 
  -38897   -38826   -38755   -38682   -38588   -38457   -38288   -38086 
  -37860   -37628   -37411   -37216   -37033   -36844   -36644   -36431 
  -36227   -36069   -35977   -35943   -35950   -35962   -35945   -35900 
  -35857   -35857   -35919   -36020   -36123   -36215   -36298   -36358 
  -36377   -36355   -36289   -36181   -36042   -35899   -35777   -35691 
  -35635   -35608   -35602   -35614   -35653   -35727   -35833   -35958 
  -36094   -36229   -36364   -36508   -36657   -36795   -36873   -36875 
  -36815   -36720   -36618   -36545   -36512   -36489   -36444   -36355 
  -36211   -36028   -35842   -35672   -35527   -35422   -35352   -35305 
  -35280   -35287   -35325   -35395   -35509   -35662   -35841   -36004 
  -36130   -36224   -36313   -36424   -36571   -36734   -36887   -37019 
  -37141   -37265   -37400   -37539   -37678   -37827   -37984   -38149 
  -38313   -38452   -38531   -38549   -38546   -38558   -38585   -38620 
  -38665   -38730   -38812   -38889   -38943   -38946   -38888   -38804 
  -38745   -38722   -38723   -38727   -38716   -38673   -38577   -38426 
  -38236   -38036   -37854   -37689   -37531   -37385   -37264   -37152 
  -37011   -36836   -36649   -36483   -36378   -36369   -36459   -36632 
  -36852   -37075   -37272   -37432   -37552   -37652   -37751   -37862 
  -37976   -38076   -38146   -38188   -38222   -38294   -38423   -38599 
  -38821   -39096   -39409   -39742   -40061   -40333   -40556   -40753 
  -40934   -41099   -41268   -41450   -41607   -41715   -41778   -41775 
  -41692   -41539   -41339   -41137   -40972   -40834   -40689   -40508 
  -40284   -40032   -39783   -39546   -39320   -39079   -38800   -38483 
  -38163   -37874   -37629   -37436   -37291   -37183   -37100   -37018 
  -36910   -36780   -36633   -36464   -36279   -36099   -35927   -35766 
  -35629   -35517   -35413   -35295   -35156   -35005   -34866   -34758 
  -34685   -34642   -34618   -34591   -34546   -34501   -34496   -34560 
  -34701   -34896   -35108   -35313   -35513   -35722   -35945   -36166 
  -36373   -36558   -36734   -36923   -37129   -37347   -37566   -37770 
  -37966   -38157   -38345   -38526   -38673   -38765   -38811   -38820 
  -38794   -38739   -38676   -38620   -38569   -38508   -38427   -38327 
  -38214   -38103   -38017   -37963   -37908   -37818   -37701   -37566 
  -37419   -37301   -37241   -37228   -37238   -37261   -37297   -37331 
  -37353   -37369   -37369   -37332   -37257   -37162   -37071   -36991 
  -36902   -36782   -36640   -36509   -36413   -36355   -36327   -36306 
  -36269   -36207   -36117   -35991   -35829   -35657   -35499   -35357 
  -35229   -35109   -34985   -34840   -34669   -34473   -34254   -34025 
  -33822   -33674   -33586   -33555   -33581   -33675   -33831   -34015 
  -34223   -34450   -34678   -34888   -35070   -35221   -35357   -35496 
  -35658   -35854   -36077   -36300   -36513   -36722   -36913   -37084 
  -37254   -37422   -37571   -37696   -37779   -37818   -37833   -37849 
  -37872   -37908   -37964   -38029   -38094   -38161   -38214   -38236 
  -38227   -38184   -38119   -38079   -38067   -38055   -38034   -37994 
  -37926   -37824   -37693   -37544   -37397   -37265   -37166   -37123 
  -37134   -37165   -37187   -37195   -37192   -37172   -37149   -37153 
  -37206   -37307   -37424   -37520   -37588   -37625   -37652   -37716 
  -37844   -38026   -38249   -38502   -38780   -39067   -39344   -39603 
  -39850   -40072   -40265   -40451   -40671   -40933   -41199   -41427 
  -41584   -41658   -41666   -41651   -41658   -41706   -41782   -41845 
  -41877   -41859   -41774   -41624   -41432   -41220   -40994   -40755 
  -40508   -40254   -40007   -39788   -39604   -39465   -39368   -39275 
  -39144   -38973   -38778   -38585   -38433   -38331   -38264   -38211 
  -38145   -38045   -37920   -37785   -37636   -37482   -37347   -37241 
  -37162   -37112   -37087   -37062   -37021   -36944   -36826   -36684 
  -36528   -36377   -36248   -36140   -36049   -35970   -35904   -35841 
  -35775   -35707   -35642   -35590   -35567   -35579   -35618   -35675 
  -35753   -35856   -35981   -36127   -36281   -36437   -36601   -36772 
  -36937   -37093   -37235   -37334   -37377   -37376   -37330   -37249 
  -37143   -37018   -36873   -36706   -36522   -36331   -36142   -35970 
  -35810   -35648   -35488   -35352   -35252   -35194   -35160   -35133 
  -35095   -35037   -34959   -34878   -34811   -34781   -34786   -34812 
  -34858   -34917   -34969   -35019   -35091   -35205   -35367   -35567 
  -35779   -35977   -36132   -36235   -36304   -36363   -36428   -36521 
  -36656   -36814   -36985   -37162   -37332   -37481   -37600   -37701 
  -37802   -37905   -38016   -38144   -38279   -38419   -38589   -38799 
  -39027   -39262   -39499   -39742   -39992   -40231   -40450   -40643 
  -40798   -40903   -40975   -41010   -40998   -40946   -40884   -40822 
  -40734   -40598   -40413   -40201   -39991   -39789   -39595   -39402 
  -39197   -38978   -38754   -38522   -38283   -38043   -37805   -37579 
  -37386   -37230   -37106   -36996   -36884   -36767   -36645   -36518 
  -36391   -36289   -36232   -36216   -36229   -36265   -36316   -36382 
  -36462   -36541   -36614   -36670   -36703   -36734   -36783   -36863 
  -36967   -37084   -37210   -37326   -37407   -37455   -37469   -37453 
  -37431   -37415   -37405   -37416   -37444   -37492   -37566   -37650 
  -37714   -37744   -37728   -37673   -37613   -37570   -37531   -37485 
  -37416   -37315   -37192   -37066   -36950   -36871   -36833   -36817 
  -36806   -36796   -36787   -36767   -36722   -36660   -36598   -36540 
  -36481   -36424   -36377   -36323   -36258   -36181   -36089   -35977 
  -35847   -35710   -35586   -35502   -35460   -35449   -35455   -35475 
  -35507   -35556   -35631   -35743   -35903   -36100   -36308   -36510 
  -36699   -36856   -36976   -37065   -37122   -37146   -37147   -37139 
  -37138   -37161   -37199   -37215   -37191   -37141   -37093   -37060 
  -37044   -37037   -37041   -37064   -37120   -37219   -37361   -37528 
  -37697   -37851   -37980   -38080   -38149   -38196   -38226   -38237 
  -38240   -38248   -38257   -38265   -38265   -38248   -38215   -38195 
  -38217   -38283   -38385   -38524   -38701   -38913   -39162   -39432 
  -39700   -39934   -40126   -40279   -40400   -40494   -40566   -40606 
  -40614   -40598   -40576   -40562   -40559   -40559   -40540   -40501 
  -40454   -40401   -40350   -40301   -40220   -40085   -39918   -39744 
  -39580   -39444   -39341   -39258   -39182   -39117   -39055   -38983 
  -38900   -38800   -38691   -38593   -38495   -38383   -38257   -38111 
  -37949   -37782   -37604   -37412   -37216   -37023   -36838   -36678 
  -36555   -36471   -36410   -36360   -36316   -36296   -36327   -36416 
  -36545   -36686   -36806   -36898   -36979   -37056   -37139   -37235 
  -37328   -37404   -37465   -37508   -37519   -37496   -37434   -37336 
  -37216   -37091   -36975   -36879   -36809   -36778   -36769   -36768 
  -36774   -36783   -36805   -36848   -36913   -36992   -37075   -37137 
  -37162   -37143   -37079   -36981   -36867   -36742   -36613   -36494 
  -36398   -36321   -36255   -36216   -36220   -36263   -36339   -36454 
  -36601   -36747   -36883   -37019   -37168   -37332   -37523   -37728 
  -37930   -38119   -38299   -38495   -38735   -39006   -39271   -39501 
  -39668   -39768   -39822   -39852   -39854   -39810   -39727   -39627 
  -39515   -39393   -39266   -39137   -39002   -38866   -38730   -38597 
  -38469   -38352   -38245   -38136   -38016   -37891   -37766   -37629 
  -37478   -37323   -37184   -37069   -36964   -36852   -36728   -36595 
  -36463   -36342   -36232   -36127   -36015   -35887   -35750   -35618 
  -35488   -35367   -35276   -35225   -35213   -35228   -35262   -35301 
  -35324   -35333   -35333   -35324   -35314   -35332   -35382   -35459 
  -35556   -35660   -35768   -35878   -35986   -36093   -36198   -36300 
  -36391   -36466   -36510   -36521   -36502   -36468   -36444   -36437 
  -36445   -36456   -36468   -36475   -36478   -36486   -36517   -36580 
  -36680   -36811   -36954   -37083   -37174   -37234   -37285   -37339 
  -37403   -37455   -37463   -37423   -37342   -37230   -37114   -37012 
  -36937   -36890   -36872   -36872   -36876   -36880   -36877   -36848 
  -36791   -36713   -36614   -36506   -36398   -36290   -36182   -36080 
  -35980   -35873   -35748   -35595   -35415   -35228   -35055   -34913 
  -34817   -34765   -34740   -34735   -34744   -34762   -34800   -34871 
  -34975   -35102   -35251   -35409   -35563   -35719   -35874   -36023 
  -36165   -36277   -36348   -36397   -36441   -36502   -36590   -36707 
  -36852   -37000   -37133   -37253   -37359   -37450   -37551   -37698 
  -37909   -38190   -38523   -38890   -39291   -39723   -40196   -40703 
  -41222   -41725   -42202   -42646   -43060   -43444   -43798   -44109 
  -44374   -44593   -44756   -44865   -44940   -44979   -44988   -44977 
  -44945   -44888   -44810   -44703   -44564   -44405   -44228   -44031 
  -43822   -43613   -43407   -43214   -43038   -42870   -42712   -42570 
  -42439   -42315   -42205   -42093   -41952   -41770   -41532   -41231 
  -40891   -40540   -40190   -39850   -39505   -39141   -38772   -38411 
  -38055   -37701   -37357   -37018   -36698   -36406   -36143   -35915 
  -35721   -35553   -35414   -35307   -35230   -35190   -35191   -35239 
  -35334   -35487   -35692   -35923   -36161   -36402   -36643   -36873 
  -37087   -37274   -37439   -37579   -37710   -37836   -37943   -38032 
  -38102   -38141   -38140   -38098   -38017   -37901   -37746   -37558 
  -37354   -37153   -36958   -36768   -36576   -36381   -36185   -35993 
  -35820   -35677   -35572   -35506   -35469   -35437   -35386   -35320 
  -35255   -35210   -35208   -35249   -35326   -35428   -35541   -35673 
  -35838   -36031   -36244   -36456   -36636   -36765   -36846   -36884 
  -36884   -36844   -36769   -36674   -36559   -36431   -36281   -36107 
  -35900   -35656   -35403   -35166   -34954   -34789   -34678   -34631 
  -34651   -34722   -34832   -34978   -35139   -35318   -35533   -35776 
  -36042   -36320   -36590   -36842   -37072   -37270   -37428   -37539 
  -37598   -37613   -37584   -37512   -37415   -37292   -37145   -36998 
  -36863   -36732   -36605   -36490   -36390   -36308   -36252   -36228 
  -36232   -36252   -36288   -36329   -36370   -36400   -36414   -36405 
  -36371   -36320   -36248   -36146   -36004   -35822   -35614   -35403 
  -35202   -35028   -34905   -34838   -34812   -34813   -34821   -34827 
  -34840   -34862   -34888   -34920   -34954   -34992   -35035   -35083 
  -35137   -35193   -35244   -35297   -35351   -35407   -35473   -35557 
  -35656   -35766   -35889   -36031   -36197   -36397   -36632   -36896 
  -37162   -37412   -37644   -37858   -38053   -38233   -38403   -38573 
  -38746   -38931   -39133   -39345   -39553   -39760   -39970   -40198 
  -40450   -40733   -41041   -41353   -41661   -41956   -42228   -42471 
  -42674   -42832   -42966   -43090   -43212   -43332   -43445   -43536 
  -43594   -43617   -43613   -43590   -43544   -43478   -43398   -43293 
  -43158   -42994   -42799   -42561   -42279   -41958   -41619   -41283 
  -40969   -40691   -40450   -40232   -40031   -39830   -39623   -39413 
  -39202   -39000   -38817   -38666   -38556   -38488   -38460   -38462 
  -38488   -38523   -38554   -38591   -38632   -38665   -38685   -38693 
  -38689   -38682   -38684   -38704   -38754   -38831   -38919   -39009 
  -39089   -39135   -39133   -39082   -38979   -38831   -38650   -38442 
  -38214   -37971   -37708   -37417   -37100   -36755   -36390   -36024 
  -35664   -35302   -34942   -34591   -34258   -33959   -33704   -33492 
  -33330   -33223   -33162   -33141   -33169   -33243   -33340   -33450 
  -33567   -33677   -33771   -33849   -33907   -33944   -33956   -33945 
  -33921   -33880   -33810   -33709   -33593   -33465   -33323   -33181 
  -33049   -32934   -32840   -32765   -32717   -32692   -32686   -32692 
  -32709   -32732   -32753   -32778   -32807   -32849   -32910   -32995 
  -33106   -33242   -33409   -33610   -33840   -34091   -34344   -34597 
  -34854   -35105   -35348   -35583   -35796   -35989   -36173   -36363 
  -36578   -36819   -37079   -37343   -37594   -37817   -38017   -38194 
  -38350   -38495   -38623   -38723   -38801   -38855   -38862   -38827 
  -38765   -38662   -38519   -38360   -38196   -38044   -37922   -37827 
  -37754   -37706   -37678   -37655   -37627   -37596   -37575   -37563 
  -37558   -37555   -37547   -37536   -37524   -37521   -37532   -37548 
  -37570   -37600   -37632   -37670   -37719   -37789   -37878   -37983 
  -38109   -38257   -38425   -38591   -38745   -38885   -39001   -39085 
  -39136   -39162   -39175   -39187   -39204   -39225   -39256   -39287 
  -39317   -39344   -39356   -39343   -39301   -39237   -39164   -39105 
  -39066   -39048   -39050   -39058   -39075   -39100   -39125   -39156 
  -39186   -39210   -39233   -39266   -39316   -39378   -39444   -39521 
  -39604   -39698   -39812   -39954   -40122   -40306   -40500   -40691 
  -40879   -41045   -41170   -41253   -41296   -41299   -41264   -41197 
  -41095   -40952   -40778   -40571   -40332   -40069   -39791   -39503 
  -39220   -38955   -38718   -38523   -38369   -38238   -38117   -38002 
  -37891   -37798   -37731   -37696   -37687   -37693   -37702   -37712 
  -37723   -37733   -37747   -37760   -37783   -37822   -37889   -37986 
  -38098   -38225   -38371   -38502   -38600   -38686   -38757   -38807 
  -38851   -38882   -38885   -38862   -38812   -38731   -38620   -38479 
  -38313   -38122   -37913   -37696   -37485   -37289   -37110   -36957 
  -36825   -36690   -36539   -36373   -36198   -36030   -35860   -35683 
  -35492   -35286   -35078   -34884   -34701   -34527   -34362   -34200 
  -34044   -33909   -33801   -33716   -33659   -33624   -33604   -33600 
  -33609   -33629   -33664   -33717   -33794   -33895   -34024   -34183 
  -34369   -34580   -34811   -35062   -35329   -35608   -35901   -36196 
  -36475   -36732   -36956   -37149   -37327   -37498   -37665   -37824 
  -37968   -38098   -38209   -38291   -38353   -38407   -38453   -38489 
  -38518   -38533   -38530   -38516   -38496   -38476   -38468   -38479 
  -38507   -38558   -38632   -38719   -38809   -38905   -39004   -39098 
  -39175   -39224   -39237   -39222   -39187   -39135   -39064   -38978 
  -38875   -38746   -38589   -38418   -38226   -38020   -37812   -37612 
  -37434   -37277   -37133   -36994   -36852   -36709   -36575   -36454 
  -36346   -36255   -36192   -36153   -36127   -36112   -36107   -36113 
  -36136   -36181   -36240   -36308   -36378   -36443   -36486   -36505 
  -36502   -36477   -36435   -36387   -36336   -36274   -36202   -36121 
