Origin Time       2025/01/13 21:19:00
Lat.              31.8
Long.             131.6
Depth. (km)       30
Mag.              6.9
Station Code      KMMH11
Station Lat.      32.2918
Station Long.     130.5777
Station Height(m) -200
Record Time       2025/01/13 21:19:50
Sampling Freq(Hz) 100Hz
Duration Time(s)  175
Dir.              2
Scale Factor      3923(gal)/8224838
Max. Acc. (gal)   3.455
Last Correction   2025/01/13 21:19:51
Memo.             
[...]
   67919    67838    67844    67891    67869    67791    67706    67568 
   67429    67392    67335    67279    67381    67482    67443    67327 
   67154    67053    67140    67284    67370    67463    67571    67666 
   67790    67984    68256    68536    68759    68929    68960    68820 
   68713    68655    68538    68512    68569    68584    68646    68704 
   68705    68727    68760    69032    69157    68855    69385    69951 
   69520    70220    70881    70286    71131    71948    71633    72623 
   73341    73013    73629    74017    73669    74070    74560    74659 
   75182    75789    75991    76125    76168    75844    75433    75166 
   74642    74039    73862    73670    73421    73461    73345    73087 
   73043    72993    72918    72978    73106    73201    73179    73103 
   72955    72539    72056    71829    71533    70965    70699    70684 
   70236    69959    70167    69789    69484    69774    69267    68755 
   68999    68698    68489    68852    68656    68407    68519    68326 
   68184    68354    68376    68308    68285    68122    67824    67518 
   67203    66839    66557    66355    66040    65778    65678    65560 
   65537    65645    65719    65830    65916    65880    65830    65792 
   65747    65705    65657    65701    65851    65927    65992    66179 
   66212    66055    66167    66380    66394    66422    66214    66303 
   66487    65215    64951    66106    65323    65152    66383    65859 
   65392    66332    66791    66869    67925    68823    68705    68985 
   69174    68694    68627    68743    68500    68285    68242    68092 
   68061    68411    68836    69279    69649    70013    70337    70092 
   70139    70467    70033    70201    70677    70336    70650    71126 
   71151    71674    71901    72010    72631    72746    72563    72796 
   72819    72067    71352    71389    70740    69395    69091    68569 
   67531    67721    68115    68084    68547    69144    69322    69450 
   69832    70094    70316    70748    70951    70873    70761    70561 
   70213    69885    69674    69342    68893    68535    68239    67949 
   67846    68084    68123    67878    68026    68002    67555    67533 
   67548    67460    67633    67554    67375    67227    66826    66660 
   66733    66726    66810    67151    67662    67805    67857    68260 
   68323    68528    69234    69453    69642    70040    69908    69893 
   70224    70274    70509    70972    70977    70810    70652    70214 
   69742    69402    69132    68904    68585    68226    67944    67695 
   67502    67440    67446    67370    67313    67312    67042    66696 
   66603    66433    66189    66116    66113    66217    66312    66351 
   66556    66787    66939    67134    67392    67648    67799    68072 
   68442    68639    69032    69468    69570    69776    69888    69716 
   69766    69790    69626    69642    69592    69350    69209    68995 
   68646    68412    68276    68216    68247    68322    68542    68801 
   69001    69277    69503    69607    69736    69850    69962    70031 
   70008    69946    69803    69782    69874    69847    69934    69997 
   69699    69565    69759    69611    69407    69519    69199    68739 
   68796    68670    68381    68403    68239    68007    68087    68069 
   68053    68246    68254    68170    68197    68098    67945    67880 
   67764    67616    67558    67586    67636    67637    67637    67635 
   67517    67452    67613    67826    68033    68254    68327    68212 
   67972    67656    67350    67086    66873    66644    66483    66550 
   66595    66492    66467    66387    66186    66240    66484    66563 
   66645    66741    66556    66299    66191    66135    66222    66513 
   66912    67447    67987    68505    69144    69530    69780    70551 
   71107    71151    71713    72114    71905    72279    72573    72277 
   72563    72879    72775    73155    73495    73399    73519    73557 
   73323    73322    73418    73411    73535    73715    73768    73873 
   74135    74414    74698    74926    74930    74725    74363    73858 
   73407    73109    72809    72515    72256    71933    71628    71373 
   71138    71007    70835    70555    70362    70021    69299    68616 
   68096    67413    66911    66780    66429    66083    66100    65871 
   65565    65600    65480    65362    65580    65692    65766    65982 
   66082    66170    66364    66522    66696    66892    67066    67284 
   67536    67842    68273    68750    69211    69691    70117    70426 
   70695    70935    71111    71285    71458    71497    71382    71192 
   70938    70679    70457    70224    70098    70081    69904    69651 
   69539    69334    69036    68980    68941    68648    68420    68195 
   67734    67451    67352    67100    67019    67131    67072    67047 
   67088    66991    66985    67065    67003    66924    66808    66499 
   66124    65772    65465    65236    64970    64839    65044    65068 
   64974    65496    65934    66037    66888    67640    67809    68625 
   69267    69311    69873    70119    69782    69882    69799    69375 
   69385    69425    69392    69668    69884    69988    70147    70270 
   70387    70345    70191    70035    69639    69263    69067    68839 
   68793    68874    68827    68887    69037    69125    69296    69453 
   69504    69580    69610    69523    69300    68958    68727    68450 
   67856    67479    67409    67028    66822    67077    66947    66804 
   67068    66919    66814    67234    67405    67644    68224    68494 
   68810    69381    69665    69909    70251    70309    70281    70335 
   70330    70364    70438    70482    70501    70510    70609    70723 
   70800    70953    71042    71213    71674    71859    72052    72535 
   72162    72014    72670    72099    71752    72297    71824    71636 
   71558    71118    71668    71200    70731    71937    71227    70528 
   71813    71105    70433    71478    70704    69827    70194    69237 
   68260    68332    67694    67023    67016    66681    66270    66062 
   65855    65843    65576    65308    65560    65296    64964    65307 
   65043    64732    65074    64912    64783    65067    64972    65079 
   65387    65205    65299    65669    65516    65587    66028    66164 
   66190    66151    66240    66209    65730    66006    66372    65838 
   66240    66729    66070    66353    66731    66140    66545    67095 
   66899    67520    68276    68438    69048    69712    69950    70352 
   70760    70943    71084    71111    71173    71231    71032    71054 
   71209    70893    70933    71328    70891    70727    71126    70699 
   70686    71101    70667    70841    71204    70760    70999    71271 
   70846    71035    71439    71371    71392    71541    71516    71149 
   70860    70892    70565    70298    70421    69994    69635    69830 
   69645    69616    69992    69893    69838    70047    69894    69858 
   70017    69831    69788    69866    69537    69426    69462    69144 
   69183    69280    68958    69071    69161    68694    68640    68605 
   68041    67855    67686    67200    67165    67019    66729    67008 
   67081    66968    67323    67491    67397    67562    67726    67714 
   67803    68062    68176    68177    68505    68829    68916    69283 
   69558    69477    69655    69784    69678    69896    70090    70081 
   70255    70290    70168    70249    70221    70121    70224    70121 
   69921    69966    69853    69795    70074    70086    70044    70306 
   70260    70075    70155    70033    69901    70021    69934    69847 
   69946    69855    69727    69716    69753    69665    69480    69622 
   69530    69098    69319    69201    68512    68735    68702    68193 
   68670    68831    68507    68928    69041    68818    69140    69191 
   68991    69199    69272    69171    69408    69615    69623    69857 
   70043    69975    70050    70092    70008    70097    70133    70083 
   70152    70120    69974    69862    69678    69520    69519    69535 
   69581    69669    69646    69581    69614    69660    69627    69676 
   69753    69576    69510    69697    69560    69529    69844    69691 
   69606    69916    69724    69608    69847    69601    69375    69371 
   68948    68532    68284    67814    67508    67459    67254    67090 
   67155    67173    67208    67383    67459    67489    67581    67544 
   67494    67552    67518    67404    67284    67090    66891    66780 
   66723    66668    66721    66951    66995    66846    66974    66977 
   66699    66784    66746    66410    66510    66580    66534    66881 
   67077    67178    67531    67752    68006    68358    68548    68806 
   68982    68949    69117    69217    69107    69246    69322    69215 
   69340    69381    69273    69330    69302    69195    69230    69226 
   69214    69356    69519    69751    70174    70630    71058    71502 
   71880    72083    72142    72227    72256    72017    71806    71726 
   71344    70964    70929    70745    70613    70806    70760    70648 
   70718    70560    70401    70405    70297    70229    70228    70167 
   70123    70024    69957    69997    69928    69855    69835    69628 
   69449    69404    69259    69199    69263    69238    69295    69427 
   69491    69622    69753    69736    69688    69646    69599    69587 
   69588    69619    69660    69654    69664    69684    69672    69700 
   69786    69866    69863    69840    69857    69711    69462    69302 
   69039    68750    68623    68392    68122    68056    67910    67705 
   67720    67720    67701    67879    67905    67783    67879    67880 
   67711    67759    67771    67656    67764    67826    67682    67664 
   67628    67443    67373    67331    67188    67104    67000    66742 
   66548    66465    66290    66121    66089    66087    66190    66417 
   66573    66754    67023    67158    67255    67404    67443    67536 
   67709    67709    67753    67938    67975    67968    68013    67954 
   67971    68102    68165    68369    68751    69047    69404    69861 
   70128    70324    70580    70721    70864    71118    71298    71462 
   71689    71813    71861    71917    71887    71784    71653    71469 
   71296    71216    71190    71113    71014    70964    70812    70503 
   70249    70047    69796    69637    69579    69429    69201    68944 
   68597    68200    67863    67594    67381    67257    67219    67203 
   67257    67428    67528    67568    67757    67871    67856    68000 
   68048    67990    68175    68289    68265    68403    68458    68388 
   68434    68443    68362    68315    68200    68057    68038    68062 
   68096    68196    68260    68239    68222    68239    68293    68347 
   68423    68609    68820    68983    69182    69375    69523    69705 
   69861    69907    69916    69912    69857    69826    69896    69998 
   70079    70168    70218    70170    70141    70175    70158    70158 
   70241    70275    70352    70567    70772    71045    71427    71703 
   71901    72087    72177    72216    72225    72165    72121    72083 
   71965    71802    71620    71402    71161    70942    70779    70652 
   70511    70363    70241    70104    69874    69728    69682    69471 
   69398    69534    69423    69475    69758    69731    69772    69931 
   69811    69718    69687    69592    69546    69406    69331    69269 
   68920    68755    68652    68316    68289    68254    67969    67923 
   67779    67466    67401    67343    67240    67298    67325    67336 
   67466    67612    67783    68025    68214    68323    68420    68520 
   68582    68609    68667    68719    68693    68659    68631    68503 
   68337    68253    68116    67902    67778    67595    67365    67340 
   67319    67211    67232    67289    67355    67500    67621    67744 
   67801    67755    67784    67745    67672    67801    67860    67898 
   68125    68251    68351    68567    68669    68769    68905    68801 
   68917    69327    69016    68863    69472    69001    68548    69188 
   68720    68241    68921    68760    68481    69136    69356    69222 
   69552    69773    69589    69603    69712    69512    69502    69687 
   69552    69626    69874    69701    69784    70029    69889    70097 
   70325    70155    70355    70476    70283    70478    70600    70476 
   70640    70737    70633    70700    70772    70825    70981    70977 
   70974    71273    71402    71296    71667    72107    72038    72373 
   72902    72798    73037    73546    73433    73462    73796    73765 
   73620    73604    73516    73296    73035    72732    72315    71838 
   71323    70745    70151    69466    68781    68264    67698    67135 
   66750    66264    65885    65790    65593    65541    65766    65862 
   66029    66302    66372    66463    66661    66857    67188    67556 
   67896    68384    68843    69103    69429    69815    69962    70054 
   70293    70290    70163    70302    70183    69788    69672    69381 
   68837    68569    68285    67819    67494    67140    66587    66047 
   65508    64864    64330    63975    63595    63302    63212    63113 
   63039    63115    63140    63135    63238    63333    63472    63718 
   63964    64243    64548    64758    64890    65038    65267    65470 
   65572    65762    66012    66055    66039    66091    65990    65854 
   65892    65877    65790    65939    66179    66291    66571    67014 
   67309    67709    68347    68948    69626    70460    71219    71941 
   72717    73422    74032    74648    75222    75597    75851    76087 
   76135    76144    76237    76113    76104    75991    75105    74984 
   75139    73327    72812    73734    71743    70935    72204    70294 
   69358    70553    69057    68233    69087    67945    67076    67452 
   66692    66005    66152    65745    65280    65302    65191    65006 
   65025    65157    65199    65219    65534    65780    65790    66151 
   66545    66603    66984    67547    67841    68380    69090    69496 
   69959    70499    70700    70868    71209    71253    70984    71096 
   71481    71169    70819    71433    71307    70411    70877    70799 
   69591    69962    70044    69001    69375    69568    68820    69043 
   69124    68590    68709    68813    68604    68778    68929    68859 
   68877    68813    68625    68458    68364    68349    68324    68396 
   68577    68639    68754    69012    69141    69284    69496    69518 
   69535    69607    69511    69525    69622    69407    69229    69230 
   69174    69280    69242    69330    69950    69627    69411    70316 
   69612    69249    70503    69696    69317    70515    69649    69313 
   70353    69668    69364    70063    69487    69179    69612    69232 
   68998    69228    68972    68698    68646    68443    68184    67965 
   67857    67755    67617    67772    68015    68077    68299    68503 
   68420    68440    68466    68187    68011    68030    67801    67540 
   67579    67478    67139    67078    67120    66780    66457    66611 
   66437    65901    66241    66388    65792    66231    66492    65905 
   66444    66901    66623    67270    67826    67774    68323    68777 
   68810    69222    69616    69823    70248    70675    71062    71514 
   71915    72334    72686    72891    73145    73360    73438    73570 
   73680    73592    73398    73121    72731    72392    72146    71852 
   71622    71510    71221    70883    70823    70676    70318    70270 
   70286    69892    69657    69681    69209    68820    68952    68546 
   68125    68349    68077    67786    68096    67913    67624    67787 
   67545    67190    67153    66825    66415    66280    66069    65875 
   65912    65950    65932    65958    66002    66008    66027    66102 
   66147    66241    66495    66721    66970    67439    67879    68234 
   68728    69175    69437    69708    69992    70179    70297    70410 
   70533    70532    70397    70322    70164    69766    69464    69219 
   68748    68461    68361    68054    67941    68011    67865    67846 
   67872    67628    67455    67343    67109    67019    67046    67062 
   67211    67464    67707    67934    68150    68386    68617    68827 
   69079    69321    69515    69703    69774    69728    69692    69577 
   69379    69311    69326    69275    69307    69460    69545    69608 
   69784    70020    70146    70191    70417    70474    70202    70289 
   70183    69595    69549    69369    68769    68750    68600    68161 
   68247    68285    68180    68422    68571    68585    68802    68958 
   69010    69153    69272    69304    69314    69309    69277    69179 
   69006    68769    68504    68320    68226    68173    68196    68253 
   68305    68462    68716    68980    69303    69711    70097    70395 
   70679    70966    71127    71169    71302    71504    71613    71840 
   72283    72536    72763    73209    73345    73390    73731    73842 
   73886    74156    74174    74017    73912    73587    73117    72693 
   72208    71698    71292    70968    70696    70482    70299    70106 
   69859    69580    69271    68922    68600    68330    68083    67867 
   67653    67425    67261    67136    66981    66876    66849    66784 
   66715    66756    66816    66827    66923    67078    67138    67186 
   67289    67267    67151    67173    67225    67198    67343    67532 
   67566    67733    67930    67933    67994    68052    67957    67906 
   67867    67747    67647    67548    67402    67244    67089    66954 
   66839    66762    66757    66761    66761    66831    66945    67069 
   67224    67350    67441    67551    67608    67598    67633    67711 
   67786    67937    68179    68432    68719    69063    69379    69654 
   69974    70302    70545    70769    71005    71155    71293    71523 
   71693    71806    71976    72064    72088    72184    72207    72156 
   72125    71991    71779    71567    71285    71001    70784    70579 
   70401    70221    70050    70065    69971    69481    69673    70127 
   69156    69217    70274    68953    68860    70125    68719    68578 
   69502    68206    68019    68489    67558    67394    67633    67203 
   67135    67117    66911    66889    66650    66583    66657    66398 
   66586    66930    66877    67213    67581    67505    67701    67957 
   67891    68010    68223    68180    68173    68238    68148    68075 
   68091    67959    67801    67888    67883    67562    67564    67898 
   67637    67319    67907    67949    67374    68102    68382    67724 
   68484    68728    68056    68667    68808    68326    68778    68943 
   68791    69115    69248    69261    69384    69361    69411    69421 
   69385    69556    69492    69375    69508    69349    69168    69256 
   69102    68962    69052    68964    68872    68904    68763    68615 
   68598    68574    68374    67941    68450    69168    67748    68203 
   70528    68268    68123    71528    69005    68494    71923    69549 
   68901    71579    69658    68982    70792    69473    68808    69935 
   69136    68605    69330    68863    68540    69013    68704    68562 
   68787    68492    68434    68462    68224    68281    68241    68138 
   68341    68338    68349    68619    68696    68805    69057    69051 
   69109    69504    69553    69232    69483    69838    69125    68640 
   69483    69070    67782    69052    69364    67671    69165    69849 
   67950    69233    69835    68019    68832    69230    67825    68258 
