Origin Time       2025/01/13 21:19:00
Lat.              31.8
Long.             131.6
Depth. (km)       30
Mag.              6.9
Station Code      KMMH14
Station Lat.      32.6345
Station Long.     130.7521
Station Height(m) -40
Record Time       2025/01/13 21:19:52
Sampling Freq(Hz) 100Hz
Duration Time(s)  197
Dir.              1
Scale Factor      2942(gal)/8224139
Max. Acc. (gal)   6.964
Last Correction   2025/01/13 21:19:52
Memo.             
[...]
  -23723   -24208   -24800   -25485   -26271   -27056   -27749   -28453 
  -29147   -29727   -30098   -30195   -30180   -30176   -30152   -29984 
  -29505   -28783   -27938   -27047   -26131   -25174   -24270   -23442 
  -22783   -22423   -22356   -22638   -23240   -24148   -25278   -26307 
  -27060   -27434   -27484   -27440   -27352   -27321   -27414   -27506 
  -27473   -27276   -26901   -26346   -25695   -24989   -24281   -23755 
  -23568   -23778   -24263   -24827   -25413   -25972   -26514   -27076 
  -27602   -27986   -28162   -28135   -27950   -27720   -27591   -27616 
  -27811   -28092   -28333   -28441   -28347   -28082   -27730   -27334 
  -26960   -26642   -26435   -26426   -26589   -26839   -27062   -27139 
  -27099   -26990   -26825   -26673   -26539   -26366   -26092   -25689 
  -25182   -24640   -24159   -23734   -23282   -22704   -21887   -20887 
  -19819   -18754   -17815   -17058   -16541   -16297   -16201   -16182 
  -16132   -15916   -15574   -15155   -14671   -14196   -13810   -13601 
  -13653   -13980   -14567   -15435   -16510   -17663   -18801   -19822 
  -20703   -21482   -22204   -22958   -23750   -24462   -24946   -25126 
  -25084   -25014   -25037   -25161   -25438   -25914   -26572   -27468 
  -28614   -29979   -31548   -33150   -34568   -35603   -36173   -36343 
  -36154   -35746   -35237   -34647   -34107   -33666   -33284   -32921 
  -32518   -32135   -31839   -31631   -31496   -31387   -31302   -31180 
  -30989   -30788   -30635   -30665   -30970   -31534   -32294   -33080 
  -33786   -34393   -34909   -35405   -35923   -36474   -37006   -37385 
  -37554   -37527   -37264   -36726   -35919   -34781   -33228   -31345 
  -29261   -27074   -24898   -22823   -20934   -19361   -18184   -17373 
  -16831   -16479   -16235   -16027   -15820   -15585   -15313   -15061 
  -14816   -14534   -14258   -13986   -13725   -13466   -13142   -12842 
  -12645   -12622   -12924   -13587   -14619   -15961   -17440   -18954 
  -20379   -21604   -22605   -23387   -24052   -24753   -25594   -26561 
  -27504   -28289   -28830   -29073   -28976   -28537   -27878   -27143 
  -26358   -25540   -24742   -24040   -23464   -22952   -22431   -21843 
  -21193   -20568   -19986   -19429   -18921   -18519   -18292   -18357 
  -18801   -19546   -20486   -21535   -22593   -23700   -24965   -26373 
  -27847   -29246   -30434   -31353   -32007   -32481   -32884   -33288 
  -33717   -34150   -34508   -34703   -34758   -34673   -34366   -33859 
  -33203   -32412   -31552   -30684   -29893   -29251   -28728   -28313 
  -27965   -27541   -26966   -26275   -25547   -24819   -24135   -23608 
  -23301   -23206   -23267   -23350   -23336   -23101   -22608   -21959 
  -21320   -20861   -20653   -20698   -20992   -21479   -22073   -22693 
  -23267   -23722   -24055   -24301   -24402   -24317   -23984   -23387 
  -22715   -22125   -21721   -21613   -21762   -22110   -22677   -23418 
  -24225   -24999   -25631   -26050   -26266   -26299   -26203   -26015 
  -25706   -25373   -25087   -24798   -24536   -24312   -24116   -24021 
  -24047   -24167   -24379   -24692   -25115   -25627   -26157   -26626 
  -26952   -27035   -26851   -26458   -25956   -25527   -25274   -25246 
  -25408   -25573   -25651   -25609   -25469   -25421   -25613   -26088 
  -26842   -27818   -28873   -29824   -30620   -31249   -31720   -32097 
  -32370   -32529   -32513   -32258   -31811   -31195   -30514   -29840 
  -29093   -28260   -27357   -26461   -25679   -25018   -24491   -24139 
  -23976   -24020   -24216   -24471   -24730   -24927   -25077   -25247 
  -25456   -25737   -26090   -26496   -26968   -27513   -28142   -28846 
  -29590   -30306   -30962   -31631   -32266   -32845   -33403   -33804 
  -34018   -34045   -33837   -33538   -33192   -32813   -32525   -32327 
  -32266   -32412   -32644   -32863   -32952   -32755   -32255   -31521 
  -30632   -29714   -28853   -28085   -27414   -26781   -26171   -25585 
  -24980   -24390   -23847   -23369   -23013   -22747   -22530   -22337 
  -22096   -21841   -21598   -21312   -21004   -20679   -20344   -20027 
  -19696   -19317   -18864   -18387   -17964   -17591   -17270   -17024 
  -16841   -16721   -16688   -16800   -17118   -17668   -18462   -19469 
  -20614   -21805   -22945   -23959   -24756   -25223   -25315   -25077 
  -24601   -23988   -23325   -22636   -21933   -21249   -20555   -19781 
  -18976   -18247   -17631   -17115   -16657   -16254   -15919   -15646 
  -15450   -15322   -15246   -15237   -15304   -15481   -15768   -16162 
  -16648   -17155   -17675   -18220   -18847   -19664   -20704   -21969 
  -23373   -24781   -26130   -27359   -28452   -29461   -30431   -31376 
  -32250   -33027   -33664   -34138   -34495   -34740   -34877   -34948 
  -34978   -34954   -34847   -34659   -34453   -34291   -34164   -34036 
  -33895   -33729   -33544   -33343   -33089   -32764   -32367   -31904 
  -31425   -30947   -30511   -30223   -30109   -30130   -30260   -30454 
  -30681   -30905   -31071   -31159   -31145   -31028   -30863   -30658 
  -30391   -30150   -29988   -29944   -30045   -30171   -30231   -30161 
  -29947   -29668   -29327   -28904   -28417   -27881   -27290   -26635 
  -25947   -25201   -24439   -23718   -23053   -22551   -22223   -22033 
  -21932   -21779   -21590   -21375   -21119   -20888   -20669   -20480 
  -20298   -20031   -19697   -19342   -19062   -18936   -18945   -19101 
  -19354   -19622   -19839   -19931   -19869   -19681   -19456   -19252 
  -19114   -19122   -19271   -19477   -19624   -19615   -19464   -19180 
  -18785   -18341   -17926   -17643   -17510   -17459   -17437   -17444 
  -17527   -17713   -18006   -18400   -18898   -19516   -20263   -21076 
  -21871   -22635   -23338   -23966   -24584   -25204   -25845   -26555 
  -27341   -28235   -29178   -30100   -31031   -31976   -32915   -33809 
  -34601   -35243   -35689   -35957   -36043   -35958   -35799   -35645 
  -35564   -35536   -35434   -35235   -34917   -34423   -33791   -33045 
  -32188   -31286   -30427   -29700   -29108   -28613   -28163   -27677 
  -27116   -26477   -25803   -25092   -24310   -23538   -22835   -22268 
  -21936   -21848   -22021   -22457   -23105   -23944   -24912   -25915 
  -26898   -27843   -28791   -29787   -30866   -32022   -33191   -34298 
  -35198   -35811   -36123   -36115   -35899   -35513   -34965   -34375 
  -33740   -33083   -32432   -31715   -30920   -29994   -28914   -27703 
  -26381   -25049   -23760   -22561   -21467   -20499   -19676   -18909 
  -18212   -17575   -17004   -16599   -16343   -16297   -16461   -16740 
  -17132   -17591   -18115   -18694   -19218   -19614   -19823   -19863 
  -19808   -19739   -19743   -19861   -20106   -20451   -20833   -21174 
  -21440   -21666   -21833   -21937   -21991   -21999   -21995   -21990 
  -22011   -22060   -22075   -22077   -22094   -22087   -22091   -22148 
  -22277   -22524   -22859   -23252   -23695   -24156   -24603   -25008 
  -25367   -25687   -25998   -26299   -26558   -26774   -26917   -26989 
  -26991   -26928   -26858   -26777   -26704   -26674   -26635   -26620 
  -26640   -26659   -26716   -26851   -27098   -27418   -27731   -28015 
  -28269   -28495   -28688   -28867   -29015   -29161   -29382   -29646 
  -29971   -30361   -30727   -31101   -31446   -31684   -31812   -31784 
  -31631   -31441   -31224   -30971   -30673   -30323   -29932   -29555 
  -29241   -29010   -28883   -28854   -28950   -29128   -29311   -29505 
  -29685   -29837   -29976   -30067   -30109   -30052   -29866   -29573 
  -29153   -28644   -28096   -27534   -26998   -26489   -26029   -25633 
  -25285   -24956   -24632   -24305   -23957   -23629   -23336   -23049 
  -22717   -22285   -21798   -21277   -20714   -20148   -19572   -19056 
  -18651   -18316   -18038   -17753   -17467   -17254   -17146   -17188 
  -17419   -17865   -18493   -19201   -19939   -20692   -21502   -22373 
  -23245   -24096   -24888   -25601   -26241   -26823   -27410   -28027 
  -28667   -29317   -29948   -30518   -30981   -31314   -31506   -31569 
  -31552   -31479   -31365   -31225   -31099   -31027   -31012   -31047 
  -31075   -31041   -30933   -30734   -30460   -30134   -29771   -29398 
  -29049   -28764   -28555   -28409   -28317   -28229   -28111   -27947 
  -27739   -27521   -27364   -27301   -27309   -27427   -27699   -28108 
  -28645   -29281   -29968   -30611   -31158   -31630   -31953   -32046 
  -31896   -31471   -30825   -30061   -29223   -28366   -27525   -26682 
  -25837   -24983   -24098   -23205   -22335   -21531   -20803   -20135 
  -19537   -18986   -18436   -17905   -17421   -17003   -16637   -16335 
  -16146   -16063   -16096   -16260   -16528   -16842   -17149   -17436 
  -17668   -17822   -17917   -17940   -17926   -17936   -18015   -18189 
  -18389   -18574   -18756   -18936   -19140   -19380   -19676   -20078 
  -20602   -21246   -22027   -22918   -23862   -24817   -25708   -26488 
  -27194   -27854   -28497   -29169   -29886   -30651   -31426   -32161 
  -32838   -33428   -33907   -34275   -34530   -34665   -34674   -34568 
  -34380   -34161   -33968   -33889   -33953   -34165   -34572   -35112 
  -35689   -36279   -36792   -37234   -37627   -37906   -38075   -38097 
  -37968   -37787   -37566   -37273   -36856   -36282   -35573   -34750 
  -33863   -32937   -32039   -31260   -30609   -30150   -29883   -29724 
  -29636   -29551   -29438   -29257   -28900   -28370   -27675   -26784 
  -25737   -24568   -23319   -22023   -20679   -19333   -18018   -16735 
  -15480   -14206   -12939   -11758   -10687    -9753    -9011    -8471 
   -8100    -7894    -7850    -7997    -8398    -8988    -9705   -10508 
  -11342   -12195   -13054   -13895   -14693   -15434   -16112   -16708 
  -17243   -17658   -17913   -18054   -18081   -18041   -17994   -17971 
  -18077   -18369   -18858   -19535   -20328   -21201   -22156   -23145 
  -24125   -25043   -25867   -26596   -27244   -27801   -28236   -28520 
  -28625   -28526   -28248   -27854   -27411   -26975   -26595   -26303 
  -26109   -25994   -25899   -25772   -25612   -25389   -25096   -24764 
  -24432   -24139   -23928   -23862   -23980   -24308   -24871   -25668 
  -26694   -27903   -29258   -30754   -32298   -33813   -35245   -36489 
  -37498   -38240   -38647   -38720   -38450   -37808   -36819   -35599 
  -34307   -33027   -31792   -30674   -29690   -28827   -28073   -27386 
  -26769   -26244   -25798   -25442   -25153   -24846   -24547   -24313 
  -24077   -23896   -23904   -24046   -24329   -24822   -25458   -26218 
  -27067   -27915   -28736   -29485   -30118   -30620   -30931   -31060 
  -31050   -30901   -30640   -30295   -29856   -29281   -28555   -27737 
  -26901   -26145   -25550   -25147   -24935   -24844   -24819   -24830 
  -24814   -24786   -24771   -24775   -24827   -24925   -25056   -25201 
  -25331   -25459   -25609   -25779   -25972   -26229   -26519   -26777 
  -27052   -27351   -27643   -27955   -28233   -28439   -28617   -28807 
  -29074   -29420   -29798   -30204   -30597   -30936   -31198   -31337 
  -31347   -31255   -31093   -30881   -30623   -30323   -29991   -29640 
  -29305   -29025   -28811   -28659   -28548   -28458   -28371   -28269 
  -28111   -27885   -27608   -27267   -26842   -26345   -25829   -25334 
  -24876   -24480   -24139   -23808   -23453   -23056   -22642   -22225 
  -21798   -21346   -20825   -20210   -19469   -18573   -17550   -16453 
  -15418   -14499   -13641   -12930   -12440   -12144   -12071   -12241 
  -12621   -13209   -14007   -14960   -16050   -17261   -18543   -19878 
  -21211   -22488   -23691   -24715   -25494   -25998   -26140   -25934 
  -25463   -24791   -24073   -23464   -23040   -22869   -22959   -23255 
  -23691   -24208   -24761   -25284   -25717   -26068   -26342   -26561 
  -26761   -26937   -27072   -27179   -27299   -27473   -27760   -28210 
  -28822   -29621   -30589   -31630   -32692   -33735   -34701   -35554 
  -36242   -36733   -37044   -37184   -37168   -37017   -36733   -36359 
  -35964   -35565   -35198   -34923   -34727   -34587   -34504   -34422 
  -34317   -34192   -33975   -33647   -33195   -32548   -31718   -30688 
  -29479   -28181   -26816   -25443   -24086   -22742   -21433   -20112 
  -18781   -17467   -16171   -14963   -13867   -12884   -12100   -11566 
  -11314   -11443   -11959   -12758   -13806   -15026   -16297   -17548 
  -18708   -19745   -20626   -21298   -21762   -21972   -21914   -21654 
  -21178   -20521   -19808   -19125   -18558   -18152   -17869   -17695 
  -17595   -17555   -17593   -17713   -17977   -18422   -19014   -19730 
  -20513   -21319   -22160   -23059   -24046   -25137   -26311   -27504 
  -28653   -29716   -30640   -31403   -32023   -32578   -33134   -33687 
  -34295   -34993   -35754   -36616   -37552   -38497   -39403   -40154 
  -40656   -40844   -40697   -40274   -39638   -38871   -38053   -37223 
  -36431   -35685   -34982   -34315   -33662   -33004   -32328   -31644 
  -30978   -30335   -29698   -29053   -28378   -27606   -26694   -25702 
  -24667   -23538   -22335   -21154   -19963   -18793   -17743   -16731 
  -15751   -14845   -13929   -13068   -12321   -11634   -11067   -10628 
  -10255    -9919    -9602    -9305    -9018    -8745    -8509    -8298 
   -8108    -7956    -7877    -7909    -8091    -8430    -8920    -9586 
  -10427   -11422   -12561   -13821   -15171   -16622   -18164   -19759 
  -21421   -23137   -24883   -26649   -28377   -30037   -31599   -33061 
  -34464   -35757   -36919   -37937   -38808   -39576   -40194   -40687 
  -41116   -41493   -41909   -42311   -42687   -43128   -43544   -43933 
  -44324   -44632   -44857   -44995   -45058   -45098   -45050   -44914 
  -44682   -44273   -43719   -43062   -42250   -41314   -40285   -39175 
  -38076   -37027   -36022   -35040   -34042   -33021   -31980   -30892 
  -29749   -28588   -27442   -26312   -25234   -24169   -23079   -22040 
  -21051   -20119   -19338   -18763   -18384   -18125   -17969   -17923 
  -17890   -17884   -17894   -17803   -17680   -17547   -17355   -17185 
  -16984   -16707   -16402   -16027   -15603   -15167   -14693   -14183 
  -13614   -12970   -12301   -11659   -11098   -10658   -10354   -10207 
  -10233   -10411   -10724   -11138   -11604   -12073   -12463   -12721 
  -12872   -12934   -12951   -12960   -12947   -12997   -13212   -13608 
  -14207   -15001   -15963   -17124   -18426   -19849   -21436   -23114 
  -24871   -26694   -28495   -30268   -31968   -33542   -35005   -36347 
  -37559   -38634   -39567   -40406   -41148   -41685   -41939   -41920 
  -41631   -41077   -40331   -39451   -38503   -37551   -36589   -35662 
  -34813   -34036   -33400   -32940   -32606   -32370   -32194   -32046 
  -31927   -31845   -31795   -31789   -31862   -32004   -32192   -32395 
  -32545   -32591   -32516   -32314   -32007   -31608   -31135   -30615 
  -30064   -29477   -28875   -28269   -27681   -27128   -26570   -26010 
  -25465   -24953   -24522   -24147   -23812   -23527   -23275   -23060 
  -22847   -22586   -22272   -21891   -21465   -21027   -20606   -20197 
  -19800   -19430   -19087   -18797   -18553   -18346   -18220   -18164 
  -18227   -18474   -18852   -19381   -20046   -20753   -21469   -22145 
  -22759   -23325   -23882   -24484   -25104   -25722   -26314   -26832 
  -27274   -27611   -27837   -27945   -27913   -27749   -27445   -26993 
  -26389   -25667   -24898   -24146   -23469   -22879   -22347   -21863 
  -21404   -20961   -20537   -20162   -19858   -19611   -19440   -19387 
  -19476   -19734   -20140   -20632   -21155   -21663   -22129   -22545 
  -22910   -23247   -23556   -23868   -24201   -24530   -24829   -25088 
  -25326   -25542   -25735   -25964   -26217   -26462   -26734   -26989 
  -27238   -27526   -27832   -28182   -28587   -29025   -29500   -30019 
  -30584   -31207   -31895   -32617   -33335   -34013   -34623   -35141 
  -35523   -35765   -35833   -35723   -35464   -35028   -34460   -33812 
  -33107   -32418   -31766   -31183   -30692   -30272   -29947   -29691 
  -29473   -29285   -29107   -28900   -28621   -28283   -27846   -27263 
  -26553   -25697   -24761   -23863   -23044   -22362   -21814   -21371 
  -21055   -20841   -20713   -20657   -20667   -20780   -21022   -21388 
  -21848   -22351   -22855   -23361   -23876   -24354   -24784   -25153 
  -25412   -25556   -25552   -25405   -25157   -24795   -24337   -23831 
  -23278   -22701   -22146   -21605   -21119   -20721   -20389   -20175 
  -20081   -20046   -20096   -20190   -20301   -20448   -20614   -20833 
  -21108   -21385   -21660   -21945   -22239   -22581   -22994   -23449 
  -23978   -24597   -25269   -25996   -26709   -27357   -27912   -28314 
  -28609   -28788   -28841   -28836   -28764   -28629   -28485   -28297 
  -28050   -27808   -27585   -27372   -27190   -26990   -26758   -26507 
  -26196   -25836   -25428   -24960   -24466   -23946   -23384   -22831 
  -22330   -21887   -21568   -21392   -21325   -21375   -21485   -21608 
  -21724   -21782   -21787   -21735   -21635   -21509   -21336   -21166 
  -21026   -20919   -20875   -20903   -21010   -21169   -21373   -21616 
  -21882   -22194   -22539   -22914   -23356   -23842   -24354   -24879 
  -25397   -25897   -26350   -26774   -27191   -27567   -27904   -28167 
  -28297   -28316   -28232   -28086   -27947   -27845   -27854   -28000 
  -28283   -28705   -29185   -29697   -30180   -30569   -30870   -31106 
  -31302   -31467   -31644   -31857   -32073   -32317   -32562   -32783 
  -33012   -33226   -33428   -33629   -33821   -34005   -34140   -34222 
  -34261   -34238   -34156   -34009   -33778   -33457   -33039   -32516 
  -31855   -31056   -30132   -29100   -28003   -26855   -25682   -24520 
  -23383   -22287   -21249   -20278   -19391   -18586   -17857   -17205 
  -16644   -16160   -15728   -15384   -15179   -15097   -15103   -15219 
  -15441   -15673   -15904   -16109   -16233   -16309   -16347   -16370 
  -16444   -16596   -16865   -17231   -17672   -18188   -18725   -19257 
  -19739   -20147   -20498   -20791   -21038   -21240   -21394   -21517 
  -21637   -21807   -22087   -22557   -23242   -24125   -25186   -26349 
  -27554   -28772   -29951   -31058   -32053   -32942   -33731   -34380 
  -34923   -35371   -35695   -35910   -36028   -36084   -36093   -36061 
  -35989   -35857   -35687   -35487   -35239   -34967   -34678   -34404 
  -34168   -33974   -33851   -33764   -33712   -33717   -33681   -33585 
  -33450   -33208   -32887   -32529   -32130   -31743   -31410   -31112 
  -30836   -30551   -30238   -29893   -29478   -28977   -28391   -27696 
  -26927   -26133   -25311   -24518   -23770   -23035   -22356   -21735 
  -21180   -20730   -20371   -20110   -19924   -19765   -19616   -19460 
  -19302   -19133   -18931   -18706   -18473   -18239   -18022   -17863 
  -17795   -17807   -17911   -18102   -18330   -18601   -18895   -19194 
  -19529   -19909   -20339   -20833   -21411   -22065   -22751   -23449 
  -24104   -24675   -25151   -25510   -25770   -25905   -25909   -25820 
  -25625   -25398   -25168   -24912   -24696   -24502   -24336   -24219 
  -24102   -24003   -23899   -23784   -23692   -23608   -23565   -23593 
  -23712   -23940   -24271   -24702   -25222   -25875   -26654   -27517 
  -28474   -29450   -30383   -31243   -31976   -32587   -33046   -33361 
  -33546   -33586   -33528   -33390   -33184   -32906   -32551   -32144 
  -31671   -31167   -30643   -30076   -29504   -28891   -28228   -27534 
  -26790   -26042   -25288   -24513   -23745   -22977   -22215   -21454 
