Origin Time       2025/01/13 21:19:00
Lat.              31.8
Long.             131.6
Depth. (km)       30
Mag.              6.9
Station Code      KMMH17
Station Lat.      32.9873
Station Long.     130.5608
Station Height(m) 55
Record Time       2025/01/13 21:19:58
Sampling Freq(Hz) 100Hz
Duration Time(s)  167
Dir.              6
Scale Factor      7845(gal)/8223790
Max. Acc. (gal)   2.659
Last Correction   2025/01/13 21:19:59
Memo.             
[...]
  -28891   -28934   -29002   -29037   -29058   -29106   -29161   -29192 
  -29200   -29184   -29147   -29128   -29131   -29095   -28984   -28809 
  -28611   -28439   -28300   -28167   -28015   -27858   -27722   -27619 
  -27579   -27630   -27747   -27893   -28080   -28314   -28548   -28713 
  -28796   -28841   -28896   -28941   -28927   -28850   -28736   -28622 
  -28544   -28476   -28420   -28447   -28588   -28760   -28846   -28811 
  -28672   -28456   -28215   -28028   -27962   -28043   -28225   -28417 
  -28556   -28653   -28732   -28782   -28782   -28745   -28729   -28773 
  -28852   -28914   -28972   -29054   -29128   -29147   -29108   -29034 
  -28945   -28863   -28802   -28776   -28798   -28838   -28837   -28803 
  -28800   -28833   -28867   -28888   -28887   -28852   -28813   -28823 
  -28912   -29076   -29262   -29376   -29365   -29299   -29290   -29355 
  -29384   -29282   -29092   -28941   -28925   -29037   -29185   -29255 
  -29209   -29111   -29070   -29108   -29155   -29143   -29049   -28900 
  -28777   -28741   -28786   -28858   -28904   -28892   -28831   -28800 
  -28871   -29000   -29080   -29050   -28948   -28836   -28728   -28613 
  -28506   -28460   -28521   -28669   -28814   -28865   -28803   -28675 
  -28545   -28470   -28467   -28507   -28533   -28520   -28491   -28494 
  -28537   -28578   -28579   -28543   -28501   -28512   -28597   -28707 
  -28775   -28768   -28676   -28521   -28362   -28251   -28206   -28233 
  -28302   -28341   -28306   -28255   -28262   -28340   -28426   -28429 
  -28327   -28201   -28174   -28306   -28552   -28807   -28973   -28989 
  -28850   -28648   -28512   -28506   -28607   -28761   -28895   -28980 
  -29038   -29058   -29003   -28883   -28738   -28622   -28576   -28579 
  -28561   -28518   -28497   -28491   -28467   -28431   -28402   -28381 
  -28379   -28404   -28433   -28449   -28439   -28394   -28344   -28333 
  -28387   -28476   -28532   -28541   -28559   -28630   -28752   -28890 
  -29003   -29083   -29118   -29099   -29030   -28945   -28883   -28873 
  -28925   -28996   -29043   -29054   -29022   -28921   -28760   -28591 
  -28483   -28479   -28556   -28624   -28609   -28532   -28456   -28412 
  -28391   -28363   -28306   -28252   -28231   -28217   -28179   -28115 
  -28048   -28020   -28043   -28089   -28117   -28109   -28082   -28082 
  -28135   -28221   -28274   -28260   -28204   -28135   -28081   -28057 
  -28040   -28005   -27963   -27961   -28036   -28185   -28347   -28463 
  -28522   -28540   -28529   -28505   -28489   -28471   -28425   -28382 
  -28393   -28445   -28486   -28502   -28521   -28564   -28626   -28669 
  -28659   -28617   -28606   -28668   -28788   -28923   -29041   -29104 
  -29096   -29045   -28973   -28903   -28867   -28872   -28896   -28942 
  -28998   -29014   -28981   -28961   -29008   -29089   -29142   -29133 
  -29062   -28985   -28981   -29064   -29172   -29241   -29251   -29235 
  -29234   -29303   -29466   -29674   -29839   -29909   -29889   -29825 
  -29752   -29664   -29555   -29424   -29268   -29083   -28884   -28692 
  -28528   -28418   -28412   -28482   -28552   -28599   -28638   -28682 
  -28730   -28763   -28757   -28722   -28674   -28607   -28503   -28387 
  -28309   -28290   -28298   -28320   -28381   -28478   -28557   -28576 
  -28567   -28598   -28676   -28736   -28752   -28782   -28873   -28975 
  -29004   -28942   -28838   -28775   -28814   -28906   -28952   -28907 
  -28806   -28725   -28717   -28765   -28821   -28863   -28906   -28979 
  -29074   -29147   -29161   -29123   -29057   -28996   -28964   -28934 
  -28881   -28854   -28903   -29002   -29091   -29126   -29093   -29016 
  -28934   -28876   -28858   -28868   -28858   -28810   -28718   -28588 
  -28445   -28321   -28208   -28088   -27945   -27766   -27587   -27479 
  -27475   -27553   -27665   -27753   -27803   -27853   -27920   -28001 
  -28092   -28174   -28229   -28267   -28298   -28325   -28366   -28414 
  -28458   -28501   -28548   -28594   -28624   -28636   -28637   -28624 
  -28599   -28557   -28468   -28343   -28260   -28289   -28383   -28443 
  -28444   -28418   -28402   -28422   -28475   -28540   -28603   -28652 
  -28684   -28717   -28779   -28900   -29077   -29263   -29404   -29443 
  -29378   -29278   -29219   -29209   -29223   -29234   -29241   -29246 
  -29253   -29273   -29303   -29316   -29289   -29216   -29112   -29007 
  -28925   -28857   -28794   -28732   -28672   -28637   -28649   -28676 
  -28675   -28645   -28603   -28548   -28470   -28378   -28300   -28250 
  -28223   -28210   -28223   -28275   -28371   -28495   -28632   -28777 
  -28930   -29087   -29236   -29340   -29354   -29281   -29176   -29073 
  -28973   -28895   -28867   -28876   -28887   -28868   -28800   -28686 
  -28534   -28372   -28252   -28213   -28229   -28260   -28286   -28305 
  -28313   -28305   -28293   -28308   -28348   -28394   -28447   -28513 
  -28601   -28705   -28795   -28858   -28911   -28969   -29022   -29066 
  -29150   -29297   -29435   -29475   -29434   -29384   -29376   -29405 
  -29430   -29401   -29320   -29239   -29196   -29181   -29154   -29103 
  -29052   -29037   -29087   -29172   -29246   -29288   -29285   -29241 
  -29189   -29164   -29157   -29123   -29031   -28902   -28772   -28644 
  -28509   -28379   -28275   -28202   -28167   -28169   -28171   -28135 
  -28070   -28011   -27978   -27981   -27994   -27977   -27935   -27891 
  -27851   -27842   -27857   -27881   -27927   -28011   -28131   -28263 
  -28355   -28375   -28352   -28316   -28279   -28255   -28263   -28278 
  -28252   -28178   -28089   -28015   -27965   -27922   -27849   -27724 
  -27577   -27464   -27425   -27452   -27527   -27627   -27710   -27745 
  -27762   -27819   -27942   -28096   -28213   -28277   -28317   -28340 
  -28316   -28248   -28169   -28104   -28070   -28084   -28138   -28210 
  -28294   -28371   -28431   -28507   -28629   -28767   -28875   -28958 
  -29039   -29123   -29220   -29354   -29525   -29683   -29755   -29713 
  -29617   -29538   -29488   -29454   -29442   -29448   -29451   -29431 
  -29385   -29327   -29282   -29258   -29234   -29207   -29187   -29151 
  -29091   -29057   -29108   -29231   -29393   -29569   -29728   -29847 
  -29920   -29968   -30007   -30036   -30068   -30109   -30133   -30103 
  -30025   -29953   -29928   -29926   -29917   -29879   -29810   -29722 
  -29635   -29574   -29552   -29546   -29498   -29393   -29276   -29182 
  -29083   -28949   -28804   -28690   -28621   -28588   -28583   -28580 
  -28549   -28486   -28406   -28333   -28310   -28336   -28364   -28352 
  -28304   -28259   -28255   -28310   -28429   -28587   -28730   -28818 
  -28845   -28845   -28846   -28853   -28867   -28894   -28944   -29000 
  -29019   -28995   -28981   -29008   -29033   -29010   -28939   -28846 
  -28734   -28590   -28428   -28291   -28200   -28142   -28108   -28105 
  -28121   -28117   -28094   -28096   -28147   -28223   -28279   -28316 
  -28352   -28390   -28420   -28458   -28520   -28579   -28583   -28537 
  -28528   -28630   -28806   -28952   -29011   -28993   -28949   -28934 
  -28988   -29108   -29246   -29347   -29398   -29412   -29400   -29369 
  -29340   -29323   -29286   -29192   -29038   -28867   -28719   -28603 
  -28501   -28398   -28286   -28148   -27980   -27801   -27649   -27541 
  -27490   -27495   -27535   -27599   -27693   -27807   -27920   -28023 
  -28120   -28223   -28308   -28347   -28360   -28389   -28439   -28486 
  -28540   -28622   -28718   -28806   -28873   -28917   -28926   -28898 
  -28845   -28792   -28776   -28825   -28911   -28975   -28980   -28950 
  -28927   -28927   -28938   -28952   -28964   -28964   -28957   -28960 
  -28957   -28911   -28834   -28799   -28856   -28954   -29014   -29026 
  -29030   -29030   -29007   -28965   -28927   -28900   -28864   -28802 
  -28732   -28692   -28732   -28841   -28962   -29054   -29110   -29142 
  -29154   -29168   -29219   -29305   -29376   -29373   -29293   -29187 
  -29115   -29081   -29065   -29049   -29018   -28971   -28919   -28868 
  -28813   -28756   -28719   -28722   -28745   -28742   -28713   -28688 
  -28690   -28726   -28802   -28899   -28969   -28979   -28931   -28841 
  -28732   -28645   -28605   -28593   -28571   -28520   -28448   -28378 
  -28313   -28233   -28151   -28093   -28046   -27963   -27851   -27750 
  -27692   -27670   -27665   -27657   -27631   -27588   -27549   -27533 
  -27546   -27594   -27652   -27700   -27746   -27785   -27797   -27774 
  -27750   -27762   -27824   -27922   -28024   -28108   -28155   -28156 
  -28125   -28100   -28116   -28161   -28215   -28273   -28336   -28433 
  -28586   -28756   -28881   -28945   -28964   -28987   -29039   -29122 
  -29232   -29351   -29452   -29529   -29577   -29586   -29566   -29516 
  -29428   -29323   -29224   -29126   -29006   -28860   -28710   -28588 
  -28510   -28472   -28474   -28513   -28575   -28630   -28657   -28653 
  -28642   -28655   -28687   -28733   -28788   -28837   -28884   -28961 
  -29070   -29185   -29266   -29273   -29207   -29115   -29033   -28958 
  -28895   -28852   -28827   -28825   -28841   -28860   -28854   -28830 
  -28826   -28853   -28890   -28914   -28919   -28922   -28927   -28914 
  -28876   -28823   -28769   -28736   -28740   -28768   -28798   -28810 
  -28799   -28791   -28809   -28842   -28853   -28806   -28706   -28602 
  -28518   -28455   -28408   -28375   -28350   -28335   -28333   -28339 
  -28347   -28356   -28377   -28420   -28474   -28522   -28567   -28601 
  -28614   -28620   -28630   -28653   -28678   -28686   -28672   -28641 
  -28588   -28525   -28479   -28480   -28529   -28583   -28590   -28547 
  -28491   -28449   -28420   -28381   -28317   -28250   -28225   -28254 
  -28294   -28306   -28290   -28274   -28286   -28318   -28359   -28404 
  -28440   -28453   -28467   -28512   -28593   -28687   -28759   -28807 
  -28856   -28891   -28877   -28819   -28756   -28722   -28721   -28733 
  -28730   -28688   -28597   -28485   -28402   -28359   -28332   -28314 
  -28312   -28329   -28335   -28296   -28215   -28104   -27989   -27900 
  -27847   -27834   -27854   -27889   -27931   -27994   -28085   -28189 
  -28283   -28374   -28476   -28599   -28723   -28806   -28836   -28857 
  -28898   -28938   -28968   -29011   -29091   -29193   -29282   -29344 
  -29384   -29415   -29454   -29524   -29636   -29786   -29947   -30087 
  -30190   -30245   -30254   -30242   -30233   -30219   -30200   -30186 
  -30177   -30173   -30161   -30129   -30076   -30019   -29980   -29957 
  -29928   -29853   -29725   -29579   -29458   -29371   -29316   -29280 
  -29228   -29151   -29065   -28971   -28858   -28744   -28657   -28610 
  -28582   -28555   -28529   -28499   -28464   -28440   -28431   -28429 
  -28416   -28372   -28309   -28247   -28200   -28154   -28085   -28000 
  -27936   -27918   -27928   -27942   -27936   -27924   -27942   -27996 
  -28051   -28061   -28020   -27957   -27891   -27838   -27808   -27799 
  -27795   -27774   -27719   -27645   -27567   -27487   -27419   -27365 
  -27324   -27302   -27288   -27268   -27236   -27189   -27143   -27147 
  -27220   -27338   -27469   -27571   -27614   -27603   -27568   -27544 
  -27556   -27603   -27662   -27733   -27827   -27928   -28005   -28069 
  -28134   -28183   -28208   -28228   -28266   -28310   -28348   -28386 
  -28431   -28471   -28506   -28551   -28605   -28638   -28648   -28657 
  -28686   -28726   -28750   -28722   -28644   -28549   -28485   -28460 
  -28468   -28502   -28556   -28624   -28691   -28742   -28783   -28849 
  -28969   -29137   -29315   -29470   -29573   -29609   -29593   -29567 
  -29562   -29570   -29570   -29552   -29531   -29520   -29525   -29538 
  -29540   -29529   -29523   -29529   -29547   -29578   -29609   -29628 
  -29629   -29620   -29602   -29565   -29500   -29420   -29347   -29290 
  -29245   -29204   -29162   -29106   -29035   -28969   -28899   -28818 
  -28742   -28687   -28651   -28628   -28628   -28648   -28661   -28661 
  -28676   -28737   -28826   -28903   -28960   -29002   -29033   -29050 
  -29060   -29070   -29066   -29027   -28958   -28883   -28813   -28756 
  -28702   -28640   -28580   -28525   -28462   -28393   -28332   -28294 
  -28282   -28270   -28247   -28221   -28217   -28247   -28304   -28377 
  -28456   -28533   -28593   -28606   -28570   -28507   -28448   -28398 
  -28344   -28274   -28181   -28063   -27930   -27810   -27742   -27749 
  -27823   -27936   -28043   -28107   -28138   -28169   -28212   -28266 
  -28324   -28374   -28414   -28437   -28436   -28424   -28422   -28431 
  -28421   -28377   -28313   -28258   -28223   -28210   -28229   -28274 
  -28310   -28323   -28325   -28343   -28387   -28468   -28579   -28683 
  -28756   -28799   -28827   -28842   -28848   -28856   -28871   -28880 
  -28867   -28818   -28721   -28576   -28412   -28246   -28077   -27905 
  -27734   -27568   -27423   -27307   -27211   -27140   -27098   -27087 
  -27109   -27159   -27228   -27310   -27405   -27498   -27591   -27683 
  -27769   -27839   -27888   -27927   -27980   -28042   -28097   -28140 
  -28178   -28209   -28227   -28225   -28216   -28209   -28210   -28247 
  -28337   -28452   -28549   -28630   -28710   -28787   -28853   -28898 
  -28908   -28891   -28865   -28856   -28890   -28952   -29004   -29023 
  -29011   -28987   -28973   -28975   -28995   -29039   -29106   -29182 
  -29268   -29340   -29371   -29367   -29374   -29428   -29532   -29666 
  -29798   -29916   -30013   -30103   -30199   -30315   -30464   -30630 
  -30781   -30898   -30989   -31087   -31213   -31342   -31437   -31480 
  -31486   -31476   -31465   -31455   -31445   -31425   -31379   -31317 
  -31245   -31156   -31048   -30928   -30798   -30678   -30584   -30516 
  -30472   -30435   -30391   -30337   -30284   -30235   -30181   -30117 
  -30049   -29994   -29963   -29943   -29891   -29787   -29652   -29527 
  -29424   -29342   -29270   -29193   -29097   -28979   -28856   -28746 
  -28651   -28555   -28462   -28379   -28317   -28269   -28216   -28161 
  -28119   -28096   -28082   -28069   -28057   -28051   -28042   -28007 
  -27942   -27864   -27784   -27715   -27668   -27658   -27680   -27715 
  -27749   -27769   -27772   -27753   -27719   -27700   -27700   -27708 
  -27715   -27719   -27731   -27747   -27751   -27733   -27697   -27649 
  -27596   -27544   -27496   -27461   -27434   -27414   -27415   -27449 
  -27510   -27584   -27670   -27777   -27897   -28021   -28136   -28221 
  -28269   -28297   -28331   -28372   -28413   -28440   -28443   -28424 
  -28395   -28362   -28321   -28269   -28216   -28174   -28151   -28143 
  -28144   -28139   -28120   -28093   -28065   -28044   -28042   -28061 
  -28093   -28129   -28155   -28156   -28147   -28150   -28178   -28223 
  -28258   -28263   -28256   -28252   -28248   -28256   -28281   -28309 
  -28323   -28318   -28296   -28273   -28259   -28244   -28225   -28224 
  -28255   -28316   -28393   -28470   -28548   -28637   -28749   -28890 
  -29056   -29236   -29412   -29569   -29716   -29878   -30055   -30230 
  -30384   -30499   -30570   -30601   -30596   -30543   -30451   -30341 
  -30226   -30119   -30037   -29978   -29926   -29868   -29787   -29668 
  -29517   -29367   -29255   -29193   -29169   -29161   -29153   -29133 
  -29108   -29100   -29120   -29151   -29170   -29161   -29128   -29103 
  -29101   -29112   -29111   -29074   -29014   -28950   -28899   -28861 
  -28826   -28784   -28733   -28683   -28637   -28598   -28567   -28537 
  -28509   -28480   -28445   -28408   -28383   -28386   -28418   -28464 
  -28509   -28532   -28506   -28422   -28305   -28177   -28051   -27935 
  -27827   -27731   -27662   -27642   -27664   -27700   -27714   -27679 
  -27602   -27518   -27453   -27415   -27410   -27422   -27429   -27427 
  -27421   -27419   -27429   -27450   -27487   -27535   -27588   -27649 
  -27716   -27784   -27868   -27976   -28096   -28223   -28354   -28475 
  -28566   -28625   -28671   -28726   -28802   -28888   -28977   -29062 
  -29133   -29164   -29146   -29097   -29046   -29011   -28996   -28988 
  -28977   -28965   -28960   -28961   -28977   -29008   -29052   -29095 
  -29126   -29151   -29189   -29232   -29273   -29311   -29344   -29378 
  -29412   -29448   -29488   -29515   -29509   -29473   -29413   -29343 
  -29274   -29226   -29197   -29169   -29119   -29047   -28968   -28900 
  -28853   -28818   -28788   -28757   -28721   -28671   -28610   -28545 
  -28483   -28428   -28377   -28323   -28271   -28232   -28205   -28189 
  -28182   -28189   -28197   -28202   -28209   -28227   -28244   -28248 
  -28243   -28242   -28258   -28298   -28358   -28406   -28433   -28463 
  -28507   -28555   -28593   -28620   -28647   -28696   -28771   -28846 
  -28910   -28950   -28958   -28933   -28890   -28848   -28821   -28809 
  -28794   -28756   -28698   -28638   -28590   -28556   -28528   -28490 
  -28447   -28416   -28412   -28432   -28443   -28422   -28374   -28316 
  -28259   -28216   -28201   -28220   -28254   -28283   -28312   -28336 
  -28360   -28386   -28416   -28456   -28502   -28534   -28544   -28534 
  -28514   -28501   -28498   -28487   -28464   -28444   -28444   -28462 
  -28490   -28525   -28559   -28588   -28617   -28642   -28648   -28630 
  -28610   -28602   -28611   -28632   -28651   -28668   -28690   -28715 
  -28750   -28794   -28842   -28898   -28953   -29000   -29050   -29107 
  -29162   -29212   -29251   -29280   -29305   -29328   -29344   -29355 
  -29361   -29362   -29359   -29353   -29346   -29350   -29373   -29397 
  -29405   -29409   -29416   -29421   -29412   -29380   -29328   -29265 
  -29201   -29153   -29118   -29092   -29069   -29031   -28983   -28937 
  -28899   -28868   -28837   -28806   -28788   -28791   -28814   -28845 
  -28869   -28888   -28906   -28922   -28931   -28929   -28918   -28904 
  -28887   -28854   -28822   -28810   -28817   -28836   -28863   -28888 
  -28896   -28881   -28863   -28863   -28885   -28910   -28912   -28888 
  -28854   -28815   -28763   -28702   -28657   -28628   -28609   -28606 
  -28615   -28630   -28638   -28640   -28640   -28634   -28630   -28640 
  -28669   -28711   -28753   -28786   -28803   -28807   -28804   -28800 
  -28795   -28798   -28813   -28834   -28865   -28892   -28910   -28912 
  -28904   -28892   -28873   -28846   -28825   -28815   -28802   -28792 
  -28787   -28779   -28771   -28755   -28729   -28705   -28698   -28706 
  -28719   -28733   -28759   -28787   -28804   -28814   -28821   -28818 
  -28806   -28790   -28776   -28767   -28764   -28772   -28786   -28794 
  -28783   -28757   -28733   -28721   -28721   -28726   -28719   -28691 
  -28630   -28539   -28445   -28383   -28352   -28336   -28324   -28321 
  -28323   -28323   -28325   -28337   -28355   -28370   -28371   -28343 
  -28300   -28264   -28250   -28252   -28262   -28285   -28314   -28344 
  -28366   -28377   -28382   -28395   -28422   -28474   -28555   -28642 
  -28719   -28772   -28811   -28860   -28929   -29016   -29110   -29185 
  -29227   -29228   -29197   -29153   -29120   -29104   -29091   -29076 
  -29058   -29042   -29030   -29016   -28993   -28971   -28961   -28976 
  -29003   -29035   -29076   -29118   -29147   -29162   -29160   -29142 
  -29112   -29064   -28996   -28934   -28904   -28917   -28957   -29016 
  -29093   -29178   -29255   -29326   -29392   -29439   -29459   -29454 
  -29432   -29397   -29350   -29289   -29211   -29116   -29012   -28923 
  -28852   -28780   -28699   -28610   -28525   -28451   -28381   -28320 
