Origin Time       2025/01/13 21:19:00
Lat.              31.8
Long.             131.6
Depth. (km)       30
Mag.              6.9
Station Code      KMMH17
Station Lat.      32.9873
Station Long.     130.5608
Station Height(m) -45
Record Time       2025/01/13 21:19:58
Sampling Freq(Hz) 100Hz
Duration Time(s)  167
Dir.              2
Scale Factor      3923(gal)/8224838
Max. Acc. (gal)   3.194
Last Correction   2025/01/13 21:19:59
Memo.             
[...]
   -5751    -5748    -5736    -5730    -5733    -5719    -5676    -5617 
   -5560    -5503    -5428    -5320    -5202    -5103    -5032    -4981 
   -4936    -4897    -4878    -4878    -4897    -4945    -5026    -5136 
   -5265    -5382    -5481    -5564    -5637    -5705    -5778    -5859 
   -5933    -5994    -6049    -6111    -6172    -6219    -6255    -6303 
   -6357    -6403    -6430    -6442    -6459    -6496    -6531    -6528 
   -6480    -6412    -6361    -6339    -6334    -6318    -6281    -6243 
   -6222    -6219    -6232    -6269    -6340    -6450    -6589    -6762 
   -6949    -7129    -7292    -7441    -7561    -7635    -7650    -7616 
   -7570    -7538    -7528    -7537    -7545    -7549    -7561    -7570 
   -7562    -7533    -7499    -7493    -7514    -7538    -7560    -7587 
   -7620    -7658    -7695    -7728    -7771    -7817    -7862    -7908 
   -7952    -7985    -7997    -7983    -7946    -7888    -7808    -7713 
   -7616    -7526    -7452    -7389    -7333    -7280    -7225    -7155 
   -7068    -6983    -6925    -6895    -6872    -6849    -6841    -6859 
   -6889    -6878    -6804    -6690    -6539    -6347    -6151    -5987 
   -5861    -5752    -5633    -5512    -5404    -5316    -5271    -5277 
   -5297    -5313    -5341    -5391    -5444    -5482    -5494    -5489 
   -5481    -5478    -5471    -5456    -5447    -5443    -5445    -5448 
   -5458    -5481    -5518    -5562    -5598    -5624    -5651    -5699 
   -5778    -5872    -5953    -6030    -6146    -6299    -6444    -6554 
   -6635    -6714    -6806    -6901    -6988    -7051    -7065    -7044 
   -6997    -6925    -6836    -6750    -6669    -6579    -6482    -6388 
   -6292    -6189    -6087    -5984    -5883    -5800    -5748    -5729 
   -5729    -5726    -5717    -5703    -5690    -5683    -5680    -5672 
   -5657    -5651    -5656    -5672    -5706    -5755    -5787    -5776 
   -5733    -5698    -5682    -5664    -5630    -5599    -5583    -5567 
   -5547    -5539    -5545    -5551    -5549    -5530    -5487    -5444 
   -5425    -5418    -5410    -5404    -5409    -5428    -5448    -5458 
   -5462    -5471    -5485    -5501    -5525    -5567    -5616    -5657 
   -5683    -5695    -5688    -5675    -5659    -5625    -5572    -5514 
   -5455    -5395    -5328    -5252    -5174    -5092    -4995    -4881 
   -4766    -4653    -4536    -4411    -4280    -4140    -4002    -3871 
   -3747    -3662    -3639    -3628    -3613    -3639    -3690    -3732 
   -3792    -3900    -4045    -4194    -4321    -4450    -4606    -4774 
   -4936    -5090    -5246    -5420    -5616    -5815    -6006    -6188 
   -6367    -6566    -6789    -7006    -7196    -7365    -7526    -7685 
   -7842    -7986    -8110    -8225    -8341    -8455    -8561    -8657 
   -8734    -8795    -8856    -8919    -8964    -8981    -8969    -8931 
   -8866    -8787    -8710    -8646    -8592    -8544    -8502    -8465 
   -8425    -8360    -8260    -8147    -8046    -7955    -7877    -7803 
   -7711    -7612    -7534    -7465    -7384    -7291    -7194    -7103 
   -7022    -6948    -6875    -6793    -6693    -6583    -6480    -6393 
   -6313    -6234    -6162    -6112    -6079    -6046    -6012    -5983 
   -5972    -5989    -6035    -6107    -6205    -6301    -6365    -6401 
   -6430    -6455    -6471    -6459    -6419    -6361    -6300    -6245 
   -6212    -6208    -6235    -6291    -6372    -6492    -6646    -6806 
   -6952    -7080    -7184    -7250    -7279    -7271    -7225    -7149 
   -7059    -6972    -6882    -6783    -6691    -6616    -6546    -6484 
   -6444    -6417    -6373    -6304    -6216    -6100    -5965    -5830 
   -5707    -5610    -5541    -5506    -5505    -5535    -5583    -5633 
   -5670    -5710    -5791    -5929    -6099    -6261    -6399    -6520 
   -6633    -6736    -6818    -6878    -6901    -6889    -6867    -6847 
   -6821    -6794    -6782    -6786    -6801    -6822    -6839    -6835 
   -6812    -6781    -6750    -6723    -6702    -6686    -6678    -6690 
   -6708    -6704    -6677    -6639    -6588    -6512    -6408    -6289 
   -6158    -6010    -5854    -5714    -5595    -5489    -5387    -5292 
   -5205    -5116    -5031    -4955    -4880    -4801    -4730    -4669 
   -4619    -4571    -4534    -4521    -4530    -4549    -4561    -4554 
   -4530    -4491    -4450    -4415    -4382    -4367    -4388    -4441 
   -4502    -4553    -4591    -4630    -4680    -4729    -4768    -4795 
   -4810    -4831    -4870    -4915    -4959    -5003    -5039    -5058 
   -5062    -5069    -5089    -5125    -5174    -5232    -5277    -5297 
   -5306    -5323    -5355    -5402    -5443    -5466    -5485    -5502 
   -5512    -5514    -5516    -5514    -5517    -5528    -5547    -5572 
   -5605    -5640    -5670    -5695    -5734    -5790    -5848    -5895 
   -5933    -5980    -6045    -6110    -6178    -6269    -6390    -6525 
   -6659    -6795    -6937    -7064    -7157    -7202    -7196    -7152 
   -7090    -7026    -6970    -6925    -6902    -6905    -6926    -6967 
   -7022    -7084    -7159    -7254    -7379    -7522    -7666    -7809 
   -7954    -8090    -8221    -8340    -8440    -8522    -8598    -8667 
   -8722    -8770    -8823    -8884    -8953    -9020    -9086    -9170 
   -9262    -9312    -9288    -9205    -9082    -8928    -8743    -8538 
   -8336    -8141    -7935    -7709    -7485    -7280    -7105    -6949 
   -6791    -6628    -6484    -6369    -6266    -6165    -6056    -5946 
   -5850    -5772    -5711    -5670    -5633    -5590    -5537    -5476 
   -5405    -5317    -5206    -5066    -4893    -4702    -4507    -4324 
   -4170    -4060    -3989    -3933    -3867    -3784    -3688    -3589 
   -3500    -3427    -3387    -3385    -3419    -3489    -3595    -3736 
   -3897    -4059    -4210    -4353    -4498    -4648    -4788    -4901 
   -4981    -5028    -5042    -5011    -4947    -4872    -4783    -4672 
   -4550    -4438    -4352    -4307    -4307    -4341    -4405    -4487 
   -4571    -4650    -4731    -4807    -4884    -4978    -5089    -5204 
   -5306    -5394    -5466    -5521    -5555    -5572    -5584    -5594 
   -5601    -5598    -5587    -5584    -5597    -5621    -5655    -5699 
   -5760    -5836    -5925    -6034    -6172    -6327    -6496    -6677 
   -6879    -7101    -7331    -7562    -7789    -8000    -8167    -8282 
   -8370    -8440    -8480    -8486    -8476    -8460    -8429    -8371 
   -8287    -8194    -8112    -8032    -7947    -7879    -7843    -7827 
   -7817    -7809    -7815    -7838    -7859    -7871    -7881    -7893 
   -7904    -7897    -7870    -7838    -7807    -7773    -7731    -7682 
   -7630    -7588    -7553    -7497    -7411    -7304    -7183    -7048 
   -6917    -6804    -6704    -6610    -6531    -6473    -6434    -6407 
   -6386    -6359    -6326    -6305    -6313    -6339    -6358    -6350 
   -6311    -6242    -6137    -6000    -5860    -5726    -5595    -5462 
   -5314    -5136    -4924    -4698    -4475    -4278    -4118    -3997 
   -3912    -3869    -3859    -3873    -3901    -3944    -4012    -4095 
   -4183    -4290    -4432    -4603    -4791    -4978    -5171    -5381 
   -5597    -5805    -6010    -6214    -6404    -6571    -6728    -6897 
   -7064    -7213    -7348    -7473    -7570    -7630    -7658    -7685 
   -7717    -7742    -7747    -7736    -7719    -7692    -7646    -7587 
   -7549    -7555    -7587    -7601    -7588    -7561    -7528    -7489 
   -7437    -7381    -7346    -7326    -7311    -7299    -7283    -7263 
   -7241    -7218    -7187    -7130    -7048    -6957    -6853    -6725 
   -6588    -6462    -6362    -6285    -6232    -6204    -6203    -6232 
   -6289    -6354    -6403    -6428    -6451    -6474    -6482    -6467 
   -6444    -6415    -6369    -6312    -6274    -6272    -6292    -6323 
   -6376    -6458    -6556    -6655    -6751    -6841    -6914    -6959 
   -6976    -6974    -6968    -6963    -6952    -6930    -6895    -6860 
   -6835    -6814    -6794    -6764    -6727    -6679    -6629    -6583 
   -6538    -6484    -6431    -6393    -6367    -6334    -6278    -6208 
   -6127    -6035    -5938    -5836    -5719    -5593    -5445    -5275 
   -5100    -4932    -4774    -4626    -4482    -4332    -4172    -4020 
   -3874    -3717    -3558    -3407    -3254    -3118    -3017    -2957 
   -2943    -2980    -3079    -3225    -3389    -3559    -3738    -3908 
   -4058    -4191    -4328    -4486    -4656    -4820    -4978    -5130 
   -5282    -5444    -5616    -5803    -6006    -6210    -6408    -6597 
   -6778    -6956    -7128    -7280    -7425    -7576    -7727    -7870 
   -8005    -8117    -8190    -8222    -8214    -8176    -8112    -8023 
   -7923    -7824    -7727    -7624    -7519    -7416    -7314    -7206 
   -7101    -7005    -6925    -6870    -6833    -6806    -6779    -6743 
   -6705    -6663    -6606    -6538    -6463    -6381    -6291    -6187 
   -6062    -5929    -5779    -5617    -5451    -5287    -5132    -4986 
   -4860    -4752    -4657    -4583    -4534    -4521    -4537    -4571 
   -4618    -4668    -4711    -4742    -4765    -4783    -4791    -4781 
   -4764    -4758    -4769    -4783    -4797    -4816    -4839    -4876 
   -4932    -5013    -5112    -5227    -5366    -5521    -5676    -5819 
   -5949    -6066    -6174    -6265    -6351    -6439    -6527    -6617 
   -6714    -6817    -6913    -6997    -7076    -7146    -7204    -7242 
   -7254    -7241    -7218    -7199    -7176    -7129    -7059    -6987 
   -6930    -6889    -6862    -6866    -6907    -6988    -7098    -7230 
   -7385    -7551    -7713    -7866    -8005    -8121    -8201    -8232 
   -8218    -8172    -8116    -8055    -7989    -7912    -7842    -7796 
   -7773    -7762    -7751    -7747    -7754    -7755    -7739    -7716 
   -7701    -7693    -7688    -7703    -7744    -7801    -7858    -7905 
   -7935    -7966    -8008    -8056    -8112    -8175    -8240    -8310 
   -8380    -8442    -8495    -8522    -8513    -8475    -8406    -8307 
   -8194    -8070    -7947    -7840    -7755    -7697    -7655    -7616 
   -7562    -7473    -7356    -7222    -7071    -6903    -6737    -6581 
   -6426    -6281    -6151    -6034    -5926    -5823    -5722    -5636 
   -5574    -5526    -5482    -5429    -5374    -5328    -5290    -5252 
   -5221    -5194    -5163    -5140    -5119    -5089    -5058    -5016 
   -4962    -4908    -4855    -4797    -4739    -4687    -4637    -4587 
   -4545    -4517    -4499    -4490    -4484    -4484    -4483    -4483 
   -4491    -4506    -4529    -4571    -4630    -4691    -4754    -4834 
   -4930    -5020    -5096    -5179    -5294    -5427    -5559    -5690 
   -5837    -5998    -6147    -6276    -6382    -6477    -6567    -6656 
   -6751    -6856    -6967    -7082    -7196    -7298    -7368    -7400 
   -7392    -7342    -7240    -7090    -6901    -6698    -6509    -6334 
   -6156    -5980    -5815    -5675    -5552    -5433    -5324    -5223 
   -5127    -5030    -4931    -4833    -4746    -4666    -4585    -4502 
   -4418    -4326    -4222    -4121    -4041    -3982    -3939    -3909 
   -3893    -3890    -3894    -3901    -3916    -3935    -3951    -3970 
   -3989    -4013    -4052    -4098    -4148    -4228    -4349    -4491 
   -4629    -4752    -4855    -4947    -5040    -5130    -5206    -5277 
   -5347    -5410    -5459    -5494    -5529    -5563    -5598    -5641 
   -5697    -5771    -5875    -6002    -6138    -6269    -6385    -6484 
   -6569    -6647    -6723    -6798    -6871    -6937    -7001    -7055 
   -7088    -7101    -7103    -7102    -7098    -7103    -7114    -7122 
   -7128    -7126    -7125    -7136    -7167    -7223    -7310    -7425 
   -7565    -7717    -7870    -8021    -8158    -8271    -8371    -8467 
   -8561    -8657    -8749    -8839    -8930    -9019    -9115    -9220 
   -9339    -9478    -9639    -9815    -9985   -10126   -10234   -10308 
  -10347   -10351   -10318   -10253   -10168   -10060    -9934    -9806 
   -9680    -9566    -9460    -9373    -9302    -9231    -9146    -9027 
   -8866    -8673    -8448    -8195    -7931    -7658    -7372    -7086 
   -6808    -6551    -6326    -6122    -5926    -5738    -5560    -5382 
   -5196    -4988    -4749    -4490    -4222    -3943    -3657    -3377 
   -3118    -2901    -2744    -2648    -2602    -2590    -2610    -2663 
   -2749    -2860    -2980    -3106    -3241    -3379    -3515    -3663 
   -3817    -3971    -4129    -4294    -4456    -4611    -4746    -4853 
   -4942    -5022    -5097    -5186    -5296    -5429    -5603    -5822 
   -6069    -6328    -6581    -6814    -7024    -7196    -7319    -7399 
   -7439    -7443    -7414    -7334    -7194    -7009    -6795    -6562 
   -6315    -6065    -5823    -5598    -5385    -5197    -5049    -4946 
   -4888    -4869    -4873    -4881    -4880    -4876    -4873    -4858 
   -4820    -4762    -4689    -4598    -4484    -4355    -4216    -4074 
   -3923    -3759    -3593    -3439    -3315    -3227    -3172    -3144 
   -3141    -3169    -3223    -3285    -3346    -3403    -3446    -3456 
   -3424    -3362    -3280    -3177    -3057    -2921    -2779    -2621 
   -2444    -2258    -2060    -1864    -1698    -1576    -1506    -1491 
   -1521    -1598    -1729    -1892    -2083    -2316    -2573    -2841 
   -3156    -3518    -3862    -4180    -4527    -4896    -5255    -5628 
   -6027    -6444    -6866    -7272    -7657    -8019    -8361    -8685 
   -9007    -9344    -9691   -10041   -10403   -10768   -11122   -11462 
  -11781   -12075   -12334   -12536   -12677   -12779   -12847   -12885 
  -12899   -12893   -12881   -12868   -12852   -12830   -12812   -12800 
  -12780   -12742   -12688   -12621   -12534   -12417   -12270   -12102 
  -11911   -11689   -11438   -11167   -10885   -10596   -10309   -10027 
   -9736    -9435    -9121    -8792    -8448    -8118    -7805    -7493 
   -7175    -6843    -6496    -6151    -5819    -5501    -5188    -4878 
   -4595    -4356    -4162    -4002    -3870    -3761    -3667    -3581 
   -3501    -3434    -3377    -3327    -3269    -3192    -3098    -2998 
   -2890    -2766    -2625    -2484    -2344    -2211    -2083    -1964 
   -1864    -1787    -1737    -1713    -1702    -1695    -1694    -1695 
   -1705    -1718    -1734    -1763    -1802    -1850    -1911    -1981 
   -2064    -2170    -2309    -2489    -2706    -2947    -3202    -3461 
   -3715    -3960    -4195    -4422    -4649    -4889    -5139    -5386 
   -5624    -5853    -6075    -6300    -6536    -6781    -7038    -7311 
   -7582    -7840    -8077    -8282    -8449    -8571    -8634    -8633 
   -8580    -8494    -8375    -8217    -8024    -7804    -7558    -7291 
   -7014    -6750    -6516    -6316    -6153    -6023    -5922    -5852 
   -5806    -5771    -5753    -5760    -5787    -5841    -5904    -5949 
   -5985    -6033    -6088    -6130    -6161    -6189    -6210    -6223 
   -6242    -6274    -6318    -6367    -6423    -6488    -6573    -6671 
   -6766    -6858    -6960    -7069    -7184    -7307    -7438    -7581 
   -7738    -7905    -8078    -8243    -8397    -8537    -8668    -8781 
   -8873    -8938    -8968    -8955    -8903    -8818    -8704    -8569 
   -8425    -8280    -8128    -7978    -7843    -7722    -7618    -7530 
   -7449    -7373    -7304    -7252    -7219    -7204    -7211    -7248 
   -7312    -7391    -7464    -7516    -7542    -7531    -7484    -7411 
   -7327    -7245    -7171    -7101    -7030    -6960    -6885    -6791 
   -6685    -6575    -6467    -6366    -6270    -6183    -6106    -6039 
   -5977    -5914    -5850    -5783    -5703    -5607    -5498    -5378 
   -5252    -5125    -5003    -4888    -4773    -4650    -4522    -4394 
   -4255    -4101    -3942    -3792    -3665    -3558    -3473    -3416 
   -3392    -3400    -3446    -3534    -3669    -3851    -4075    -4322 
   -4583    -4842    -5089    -5313    -5506    -5659    -5775    -5856 
   -5906    -5940    -5962    -5976    -5992    -6022    -6062    -6103 
   -6143    -6188    -6242    -6307    -6386    -6474    -6566    -6652 
   -6727    -6791    -6852    -6912    -6963    -6998    -7007    -6984 
   -6926    -6831    -6704    -6559    -6403    -6234    -6065    -5899 
   -5730    -5562    -5393    -5220    -5040    -4869    -4718    -4580 
   -4455    -4341    -4230    -4117    -4004    -3888    -3769    -3657 
   -3557    -3472    -3410    -3366    -3346    -3364    -3424    -3531 
   -3688    -3890    -4124    -4382    -4661    -4965    -5289    -5622 
   -5954    -6282    -6605    -6912    -7199    -7466    -7716    -7947 
   -8151    -8341    -8527    -8708    -8876    -9034    -9181    -9321 
   -9458    -9590    -9725    -9867   -10010   -10150   -10287   -10415 
  -10532   -10642   -10733   -10809   -10871   -10924   -10960   -10980 
  -10989   -10987   -10964   -10912   -10835   -10731   -10597   -10436 
  -10249   -10039    -9818    -9583    -9335    -9077    -8804    -8515 
   -8205    -7873    -7535    -7204    -6868    -6529    -6197    -5881 
   -5583    -5283    -4986    -4716    -4471    -4236    -4021    -3831 
   -3666    -3523    -3399    -3291    -3195    -3117    -3049    -2994 
   -2952    -2922    -2918    -2943    -2988    -3059    -3153    -3258 
   -3370    -3493    -3622    -3750    -3865    -3951    -4006    -4050 
   -4087    -4125    -4163    -4197    -4224    -4243    -4248    -4249 
   -4257    -4280    -4324    -4390    -4477    -4580    -4687    -4807 
   -4949    -5104    -5266    -5432    -5599    -5765    -5931    -6092 
   -6243    -6386    -6529    -6675    -6826    -6980    -7140    -7299 
   -7447    -7585    -7722    -7850    -7952    -8035    -8104    -8158 
   -8202    -8240    -8270    -8297    -8313    -8307    -8279    -8232 
   -8160    -8050    -7904    -7728    -7523    -7284    -7021    -6755 
   -6496    -6246    -6007    -5787    -5587    -5402    -5232    -5077 
   -4931    -4808    -4715    -4638    -4572    -4523    -4494    -4473 
   -4450    -4423    -4388    -4348    -4301    -4256    -4228    -4221 
   -4230    -4257    -4293    -4336    -4395    -4461    -4536    -4625 
   -4722    -4830    -4955    -5094    -5242    -5404    -5589    -5792 
   -6004    -6228    -6469    -6718    -6963    -7199    -7430    -7649 
   -7852    -8040    -8205    -8352    -8480    -8579    -8645    -8684 
   -8694    -8664    -8596    -8507    -8403    -8295    -8195    -8106 
   -8033    -7978    -7938    -7913    -7896    -7875    -7852    -7823 
   -7780    -7722    -7650    -7574    -7489    -7396    -7290    -7159 
   -7007    -6843    -6659    -6454    -6238    -6006    -5752    -5481 
   -5194    -4904    -4619    -4344    -4089    -3858    -3651    -3464 
   -3294    -3141    -3014    -2918    -2843    -2776    -2722    -2677 
   -2637    -2612    -2605    -2605    -2617    -2641    -2667    -2686 
   -2706    -2722    -2729    -2733    -2741    -2745    -2749    -2762 
   -2781    -2808    -2849    -2907    -2984    -3088    -3221    -3385 
   -3586    -3819    -4082    -4387    -4720    -5067    -5418    -5765 
   -6100    -6426    -6740    -7045    -7341    -7616    -7867    -8098 
   -8310    -8514    -8714    -8905    -9100    -9309    -9536    -9779 
  -10033   -10288   -10534   -10764   -10982   -11184   -11371   -11535 
  -11668   -11762   -11812   -11819   -11789   -11722   -11622   -11499 
  -11364   -11217   -11053   -10879   -10706   -10535   -10362   -10196 
  -10045    -9902    -9757    -9612    -9474    -9347    -9228    -9109 
