Origin Time       2025/01/13 21:19:00
Lat.              31.8
Long.             131.6
Depth. (km)       30
Mag.              6.9
Station Code      KMMH05
Station Lat.      32.9553
Station Long.     131.2207
Station Height(m) 593
Record Time       2025/01/13 21:19:54
Sampling Freq(Hz) 100Hz
Duration Time(s)  188
Dir.              3
Scale Factor      3923(gal)/8224838
Max. Acc. (gal)   4.401
Last Correction   2025/01/13 21:19:54
Memo.             
[...]
  -17343   -17763   -18080   -18029   -17622   -17045   -16402   -15839 
  -15630   -15927   -16542   -17014   -17019   -16710   -16532   -16843 
  -17564   -18154   -18270   -18172   -18133   -18000   -17575   -17032 
  -16869   -17469   -18639   -19643   -19784   -18960   -17649   -16449 
  -15823   -15984   -16629   -17280   -17725   -17722   -17143   -16326 
  -15641   -15080   -14451   -13910   -13911   -14496   -15264   -15844 
  -16132   -16436   -17203   -18366   -19349   -19738   -19575   -19097 
  -18554   -18052   -17500   -16924   -16472   -16066   -15661   -15458 
  -15539   -15917   -16602   -17437   -18235   -18794   -19047   -19294 
  -19828   -20568   -21118   -20993   -20044   -18607   -17064   -15718 
  -14935   -14962   -15641   -16330   -16470   -16201   -15754   -15153 
  -14655   -14276   -13883   -13710   -13875   -14224   -14621   -14987 
  -15307   -15538   -15670   -15878   -16363   -17072   -17639   -17828 
  -17861   -18084   -18540   -19040   -19265   -18955   -18315   -17833 
  -17685   -17736   -17834   -17851   -17757   -17632   -17533   -17562 
  -17842   -18289   -18615   -18593   -18183   -17535   -16969   -16688 
  -16525   -16197   -15657   -15051   -14613   -14550   -14708   -14723 
  -14553   -14457   -14561   -14827   -15149   -15333   -15317   -15357 
  -15688   -16148   -16421   -16374   -16117   -16013   -16451   -17393 
  -18399   -19124   -19558   -19722   -19461   -18728   -17729   -16671 
  -15789   -15392   -15533   -15928   -16271   -16510   -16825   -17312 
  -17969   -18754   -19373   -19581   -19502   -19375   -19354   -19418 
  -19252   -18565   -17431   -16185   -15086   -14210   -13616   -13493 
  -14065   -15349   -16950   -18272   -18987   -19199   -19145   -18917 
  -18524   -18052   -17725   -17775   -18125   -18423   -18441   -18181 
  -17689   -17028   -16318   -15618   -14937   -14523   -14673   -15187 
  -15552   -15547   -15377   -15385   -15781   -16514   -17336   -18017 
  -18465   -18627   -18450   -17988   -17344   -16607   -15962   -15596 
  -15456   -15383   -15340   -15442   -15928   -16957   -18330   -19670 
  -20795   -21670   -22196   -22229   -21728   -20877   -19896   -18808 
  -17624   -16525   -15742   -15439   -15674   -16293   -16992   -17639 
  -18347   -19098   -19608   -19684   -19395   -18948   -18522   -18122 
  -17698   -17278   -16911   -16618   -16393   -16340   -16623   -17095 
  -17444   -17624   -17563   -17145   -16576   -16166   -16051   -16335 
  -16957   -17618   -18079   -18415   -18759   -18967   -18843   -18395 
  -17760   -17073   -16470   -16048   -15797   -15732   -15828   -15911 
  -16113   -16573   -16865   -16904   -17018   -17213   -17500   -17917 
  -18343   -18666   -18782   -18613   -18134   -17428   -16768   -16424 
  -16394   -16465   -16494   -16528   -16696   -17037   -17371   -17550 
  -17717   -18075   -18582   -19001   -19128   -19028   -18879   -18661 
  -18300   -17845   -17285   -16677   -16210   -15916   -15730   -15649 
  -15637   -15745   -16078   -16518   -16899   -17292   -17779   -18274 
  -18670   -18829   -18582   -17905   -16931   -15824   -14817   -14143 
  -13883   -14035   -14621   -15574   -16646   -17479   -17814   -17656 
  -17177   -16540   -15882   -15415   -15369   -15661   -15924   -15909 
  -15633   -15341   -15315   -15612   -16055   -16379   -16433   -16287 
  -15973   -15402   -14742   -14476   -14832   -15562   -16282   -16761 
  -17005   -17139   -17167   -16989   -16573   -16054   -15623   -15336 
  -15087   -14755   -14338   -14061   -14180   -14638   -15255   -16065 
  -17101   -18171   -19045   -19624   -20001   -20398   -20819   -21034 
  -20981   -20738   -20364   -19931   -19450   -18894   -18355   -17963 
  -17712   -17667   -17977   -18544   -19103   -19499   -19670   -19588 
  -19249   -18760   -18304   -17907   -17485   -17073   -16768   -16602 
  -16521   -16407   -16282   -16347   -16713   -17244   -17701   -18011 
  -18331   -18767   -19249   -19607   -19714   -19608   -19392   -19113 
  -18824   -18627   -18646   -18891   -19172   -19268   -19207   -19120 
  -18886   -18463   -18058   -17579   -16978   -16507   -16055   -15506 
  -15086   -14882   -14812   -14713   -14396   -13887   -13410   -13089 
  -12783   -12316   -11727   -11191   -10863   -10717   -10586   -10494 
  -10746   -11485   -12478   -13343   -13938   -14453   -15083   -15773 
  -16312   -16537   -16533   -16617   -16929   -17177   -17001   -16398 
  -15674   -15113   -14805   -14643   -14446   -14122   -13684   -13246 
  -12954   -12888   -13053   -13405   -13852   -14281   -14573   -14659 
  -14521   -14184   -13778   -13504   -13483   -13706   -14137   -14742 
  -15379   -15898   -16335   -16713   -16853   -16727   -16610   -16633 
  -16676   -16702   -16789   -17004   -17397   -17911   -18315   -18357 
  -18076   -17795   -17745   -17940   -18227   -18306   -18102   -17949 
  -18083   -18360   -18505   -18447   -18310   -18198   -18171   -18308 
  -18625   -19024   -19398   -19593   -19458   -19083   -18628   -18077 
  -17514   -17153   -17000   -17008   -17239   -17626   -17998   -18350 
  -18806   -19380   -19940   -20371   -20613   -20625   -20418   -20093 
  -19743   -19411   -19144   -19049   -19238   -19773   -20580   -21429 
  -22123   -22616   -22904   -22904   -22508   -21787   -20997   -20340 
  -19834   -19406   -19051   -18839   -18759   -18697   -18636   -18689 
  -18862   -18983   -18881   -18476   -17820   -17192   -16929   -17131 
  -17679   -18438   -19341   -20328   -21190   -21658   -21628   -21147 
  -20326   -19296   -18153   -16989   -15897   -14937   -14192   -13757 
  -13643   -13832   -14310   -14928   -15414   -15614   -15588   -15457 
  -15360   -15507   -15998   -16681   -17285   -17566   -17444   -17035 
  -16491   -15866   -15155   -14434   -13832   -13386   -13113   -13070 
  -13225   -13544   -13967   -14250   -14223   -13979   -13633   -13293 
  -13153   -13296   -13653   -14222   -15071   -16175   -17374   -18495 
  -19440   -20197   -20839   -21374   -21670   -21639   -21296   -20731 
  -20005   -19020   -17678   -16098   -14546   -13213   -12071   -11017 
  -10080    -9393    -9011    -8815    -8667    -8492    -8272    -8083 
   -8040    -8155    -8437    -8941    -9626   -10395   -11234   -12177 
  -13211   -14260   -15118   -15535   -15672   -16070   -16842   -17601 
  -18227   -18735   -18971   -18939   -18733   -18463   -18361   -18600 
  -19194   -19951   -20569   -20943   -21084   -20916   -20536   -20204 
  -20047   -20089   -20294   -20428   -20308   -20044   -19832   -19730 
  -19741   -19845   -19892   -19788   -19658   -19573   -19464   -19333 
  -19199   -19074   -19035   -19155   -19283   -19141   -18755   -18474 
  -18486   -18700   -19006   -19251   -19248   -19044   -18831   -18706 
  -18708   -18868   -19130   -19426   -19796   -20221   -20503   -20522 
  -20335   -19961   -19480   -19102   -18878   -18756   -18765   -18890 
  -19151   -19525   -19727   -19645   -19489   -19253   -18943   -18783 
  -18756   -18766   -18781   -18677   -18478   -18229   -17818   -17153 
  -16240   -15179   -14154   -13359   -12874   -12621   -12465   -12340 
  -12212   -12050   -11792   -11303   -10531    -9671    -9069    -9038 
   -9634   -10544   -11411   -12175   -12885   -13522   -14065   -14409 
  -14334   -13888   -13560   -13585   -13479   -12976   -12453   -12054 
  -11773   -11750   -11846   -11979   -12272   -12725   -13377   -14273 
  -15242   -16150   -17030   -17869   -18558   -18962   -18975   -18651 
  -18207   -17849   -17687   -17755   -18056   -18534   -19072   -19568 
  -19944   -20142   -20189   -20196   -20227   -20297   -20371   -20399 
  -20470   -20719   -21081   -21424   -21670   -21721   -21574   -21334 
  -21082   -20934   -21016   -21339   -21726   -21952   -21936   -21753 
  -21521   -21277   -20954   -20479   -19882   -19263   -18713   -18319 
  -18173   -18308   -18679   -19175   -19624   -19886   -19882   -19646 
  -19364   -19199   -19084   -18874   -18530   -18038   -17432   -16854 
  -16316   -15692   -15020   -14443   -14072   -13998   -14157   -14364 
  -14503   -14454   -14145   -13691   -13271   -13031   -12960   -12873 
  -12907   -13390   -14002   -14206   -14177   -14188   -14341   -14862 
  -15580   -16147   -16505   -16657   -16723   -16879   -17182   -17597 
  -17988   -18326   -18766   -19268   -19570   -19553   -19306   -19068 
  -19044   -19141   -19179   -19111   -18819   -18254   -17635   -17112 
  -16638   -16174   -15746   -15369   -15016   -14764   -14778   -15074 
  -15568   -16254   -17072   -17799   -18234   -18342   -18215   -18046 
  -18000   -18064   -18175   -18339   -18543   -18728   -18836   -18833 
  -18739   -18540   -18177   -17689   -17169   -16632   -16063   -15425 
  -14665   -13886   -13236   -12664   -12039   -11340   -10635   -10080 
   -9850   -10012   -10567   -11385   -12123   -12785   -13705   -14666 
  -15356   -15984   -16634   -17235   -17747   -17999   -17976   -17807 
  -17501   -17027   -16437   -15920   -15677   -15768   -16127   -16641 
  -17188   -17690   -18149   -18571   -18898   -19116   -19265   -19303 
  -19202   -18998   -18673   -18226   -17733   -17278   -16906   -16663 
  -16532   -16389   -16152   -15873   -15572   -15138   -14535   -13952 
  -13563   -13396   -13408   -13533   -13733   -13992   -14264   -14507 
  -14716   -14920   -15167   -15444   -15664   -15840   -16093   -16449 
  -16877   -17304   -17590   -17699   -17707   -17682   -17721   -17907 
  -18181   -18391   -18434   -18299   -18037   -17701   -17305   -16865 
  -16479   -16294   -16305   -16413   -16614   -16880   -17138   -17392 
  -17625   -17826   -18036   -18216   -18368   -18592   -18874   -19093 
  -19228   -19273   -19202   -19060   -18941   -18824   -18536   -18187 
  -18130   -18220   -18108   -17810   -17293   -16569   -15900   -15352 
  -14894   -14571   -14318   -14089   -13995   -14119   -14445   -14863 
  -15155   -15261   -15372   -15583   -15847   -16195   -16694   -17371 
  -18210   -19052   -19719   -20194   -20537   -20784   -20957   -21045 
  -21085   -21158   -21222   -21109   -20725   -20127   -19523   -19125 
  -18948   -18913   -18970   -19033   -18994   -18877   -18789   -18809 
  -18949   -19089   -19035   -18731   -18233   -17632   -17065   -16641 
  -16255   -15747   -15241   -14910   -14671   -14486   -14413   -14384 
  -14382   -14457   -14570   -14721   -14958   -15237   -15376   -15218 
  -14855   -14480   -14188   -14061   -14127   -14326   -14615   -14985 
  -15372   -15761   -16241   -16808   -17316   -17689   -17960   -18129 
  -18207   -18304   -18484   -18689   -18875   -19032   -19090   -18998 
  -18732   -18249   -17613   -17008   -16542   -16229   -16116   -16204 
  -16376   -16528   -16607   -16584   -16499   -16428   -16436   -16586 
  -16937   -17440   -17934   -18253   -18311   -18135   -17824   -17464 
  -17096   -16742   -16403   -16105   -15917   -15851   -15866   -15979 
  -16221   -16545   -16914   -17296   -17552   -17568   -17439   -17363 
  -17428   -17447   -17215   -16972   -16960   -16962   -16934   -16968 
  -16907   -16887   -17182   -17709   -18297   -18832   -19256   -19583 
  -19780   -19800   -19707   -19650   -19700   -19804   -19874   -19853 
  -19759   -19612   -19380   -19056   -18623   -18042   -17320   -16507 
  -15699   -15041   -14677   -14674   -14979   -15395   -15727   -15963 
  -16152   -16239   -16158   -15963   -15778   -15715   -15804   -15921 
  -15889   -15650   -15273   -14856   -14455   -14085   -13713   -13325 
  -13093   -13224   -13648   -14041   -14150   -13942   -13524   -13053 
  -12609   -12198   -11924   -11830   -11746   -11562   -11350   -11263 
  -11422   -11871   -12572   -13400   -14247   -15125   -16020   -16896 
  -17763   -18536   -19039   -19170   -18951   -18511   -17925   -17192 
  -16484   -15948   -15472   -14987   -14562   -14195   -13872   -13671 
  -13656   -13834   -14237   -14852   -15506   -16054   -16479   -16795 
  -17059   -17336   -17595   -17775   -17848   -17782   -17560   -17274 
  -17039   -16895   -16858   -17012   -17405   -17923   -18408   -18821 
  -19263   -19872   -20711   -21718   -22715   -23518   -24032   -24285 
  -24393   -24439   -24405   -24298   -24175   -24052   -23890   -23662 
  -23391   -23095   -22785   -22497   -22243   -21972   -21629   -21240 
  -20941   -20868   -21010   -21077   -20764   -20131   -19373   -18561 
  -17802   -17162   -16590   -16143   -15871   -15657   -15375   -14983 
  -14523   -14081   -13757   -13568   -13432   -13332   -13336   -13409 
  -13420   -13329   -13188   -13053   -12984   -12997   -13054   -13140 
  -13266   -13473   -13852   -14413   -15033   -15558   -15917   -16140 
  -16228   -16085   -15712   -15318   -14856   -14130   -13393   -12850 
  -12345   -11901   -11588   -11358   -11211   -11130   -11134   -11267 
  -11558   -12042   -12644   -13232   -13757   -14237   -14698   -15080 
  -15240   -15140   -15002   -15097   -15402   -15792   -16271   -16794 
  -17251   -17552   -17591   -17420   -17212   -17095   -17172   -17455 
  -17810   -18083   -18222   -18285   -18272   -18099   -17805   -17500 
  -17239   -17015   -16741   -16260   -15520   -14710   -14112   -13852 
  -13927   -14299   -14851   -15496   -16206   -16888   -17456   -18004 
  -18639   -19387   -20235   -21045   -21624   -21925   -22054   -22087 
  -21979   -21722   -21346   -20779   -20074   -19464   -19059   -18792 
  -18603   -18477   -18376   -18307   -18365   -18557   -18767   -18951 
  -19113   -19299   -19633   -20166   -20796   -21525   -22473   -23538 
  -24513   -25320   -25879   -26138   -26177   -26125   -26061   -25956 
  -25689   -25166   -24403   -23535   -22700   -21860   -20912   -19835 
  -18659   -17501   -16538   -15831   -15306   -14909   -14621   -14343 
  -13913   -13292   -12607   -11997   -11584   -11435   -11479   -11659 
  -12044   -12580   -13100   -13521   -13810   -14031   -14385   -14906 
  -15537   -16301   -17046   -17514   -17622   -17385   -16934   -16494 
  -16158   -15855   -15516   -15269   -15333   -15512   -15437   -15327 
  -15404   -15457   -15552   -15628   -15360   -14797   -14022   -13144 
  -12426   -11848   -11344   -10993   -10786   -10771   -11102   -11722 
  -12429   -13225   -14187   -15244   -16289   -17258   -18065   -18662 
  -19134   -19542   -19766   -19712   -19512   -19372   -19307   -19228 
  -19072   -18779   -18377   -17975   -17601   -17312   -17226   -17311 
  -17365   -17251   -17019   -16810   -16704   -16686   -16690   -16719 
  -16830   -17008   -17172   -17248   -17262   -17371   -17745   -18400 
  -19195   -19931   -20498   -20884   -21015   -20779   -20267   -19707 
  -19219   -18786   -18307   -17697   -16966   -16222   -15546   -14939 
  -14415   -13979   -13617   -13348   -13201   -13153   -13138   -13081 
  -12964   -12951   -13216   -13691   -14314   -15110   -16012   -16976 
  -18003   -19037   -19978   -20722   -21234   -21487   -21456   -21320 
  -21365   -21658   -22126   -22700   -23245   -23610   -23699   -23449 
  -22837   -21963   -20996   -20025   -19063   -18203   -17486   -16807 
  -16093   -15385   -14740   -14241   -13969   -13879   -13892   -14041 
  -14312   -14598   -14808   -14910   -14985   -15201   -15615   -16101 
  -16490   -16683   -16726   -16822   -17111   -17490   -17793   -17946 
  -17910   -17690   -17390   -17084   -16802   -16657   -16718   -16864 
  -16935   -16879   -16672   -16332   -15897   -15336   -14640   -13933 
  -13327   -12765   -12280   -12047   -11971   -11925   -12073   -12424 
  -12822   -13257   -13755   -14322   -14862   -15268   -15637   -16039 
  -16368   -16680   -17128   -17613   -18011   -18245   -18237   -18106 
  -17882   -17428   -16776   -16058   -15314   -14623   -14110   -13786 
  -13622   -13599   -13589   -13563   -13668   -13918   -14210   -14542 
  -14906   -15277   -15676   -16056   -16397   -16749   -17128   -17554 
  -18011   -18389   -18634   -18817   -19022   -19282   -19602   -19903 
  -20063   -20117   -20205   -20356   -20452   -20379   -20101   -19631 
  -19099   -18669   -18268   -17710   -16943   -16043   -15183   -14516 
  -14026   -13643   -13320   -13051   -12852   -12711   -12726   -13018 
  -13348   -13474   -13621   -13937   -14291   -14766   -15384   -15959 
  -16536   -17188   -17806   -18293   -18621   -18836   -19018   -19210 
  -19415   -19603   -19776   -20015   -20339   -20723   -21151   -21505 
  -21647   -21648   -21640   -21578   -21375   -21033   -20532   -19845 
  -19078   -18387   -17809   -17347   -17032   -16798   -16551   -16248 
  -15893   -15558   -15318   -15172   -15093   -15051   -15012   -14937 
  -14759   -14462   -14098   -13722   -13429   -13305   -13351   -13471 
  -13481   -13356   -13329   -13478   -13720   -14187   -14874   -15614 
  -16482   -17514   -18620   -19776   -20884   -21821   -22532   -22991 
  -23232   -23342   -23404   -23479   -23633   -23908   -24291   -24696 
  -25002   -25124   -25057   -24838   -24522   -24132   -23676   -23225 
  -22877   -22612   -22254   -21689   -21087   -20572   -20032   -19435 
  -18821   -18148   -17398   -16549   -15568   -14524   -13599   -12942 
  -12480   -12069   -11680   -11268   -10805   -10405   -10103    -9814 
   -9589    -9506    -9499    -9540    -9649    -9845   -10303   -11130 
  -12110   -13086   -14099   -15133   -16132   -17093   -18013   -18870 
  -19554   -19989   -20241   -20328   -20225   -20039   -19832   -19550 
  -19157   -18639   -18013   -17393   -16906   -16588   -16406   -16321 
  -16283   -16244   -16186   -16160   -16212   -16291   -16303   -16187 
  -15932   -15570   -15225   -15068   -15094   -15084   -15009   -15055 
  -15225   -15377   -15472   -15441   -15257   -15014   -14798   -14720 
  -14810   -14976   -15178   -15371   -15492   -15606   -15788   -15998 
  -16175   -16306   -16378   -16410   -16482   -16615   -16761   -16920 
  -17151   -17417   -17676   -18006   -18455   -18960   -19480   -19988 
  -20395   -20677   -20873   -20938   -20803   -20510   -20152   -19724 
  -19249   -18883   -18751   -18798   -18916   -19037   -19111   -19091 
  -19013   -18998   -19044   -19087   -19214   -19371   -19375   -19255 
  -19071   -18820   -18573   -18315   -18038   -17868   -17841   -17892 
  -17960   -17929   -17744   -17448   -17108   -16806   -16602   -16510 
  -16544   -16646   -16769   -16973   -17261   -17622   -18104   -18644 
  -19151   -19539   -19657   -19469   -19148   -18787   -18347   -17734 
  -16910   -16033   -15286   -14597   -13832   -13086   -12553   -12243 
  -12129   -12218   -12415   -12664   -12966   -13243   -13493   -13799 
  -14081   -14250   -14397   -14527   -14553   -14534   -14519   -14499 
  -14523   -14640   -14882   -15269   -15723   -16139   -16492   -16849 
  -17284   -17749   -18179   -18567   -18910   -19157   -19306   -19550 
  -19990   -20325   -20412   -20472   -20548   -20579   -20638   -20672 
  -20605   -20474   -20333   -20217   -20082   -19843   -19492   -19035 
  -18453   -17793   -17086   -16348   -15691   -15195   -14750   -14193 
  -13568   -13036   -12656   -12420   -12355   -12429   -12563   -12758 
  -13034   -13323   -13543   -13640   -13683   -13899   -14293   -14627 
  -14899   -15159   -15284   -15319   -15383   -15535   -15888   -16384 
  -16879   -17355   -17807   -18185   -18480   -18693   -18825   -18858 
  -18769   -18585   -18343   -18058   -17757   -17433   -17074   -16708 
  -16399   -16187   -16032   -15866   -15695   -15558   -15507   -15588 
