Origin Time       2025/01/13 21:19:00
Lat.              31.8
Long.             131.6
Depth. (km)       30
Mag.              6.9
Station Code      KMMH05
Station Lat.      32.9553
Station Long.     131.2207
Station Height(m) 693
Record Time       2025/01/13 21:19:54
Sampling Freq(Hz) 100Hz
Duration Time(s)  188
Dir.              6
Scale Factor      7845(gal)/8223790
Max. Acc. (gal)   23.768
Last Correction   2025/01/13 21:19:54
Memo.             
[...]
  -15283   -15280   -15277   -15273   -15272   -15279   -15280   -15276 
  -15275   -15276   -15279   -15279   -15275   -15272   -15275   -15276 
  -15276   -15277   -15273   -15268   -15272   -15277   -15277   -15279 
  -15282   -15283   -15283   -15279   -15276   -15273   -15272   -15275 
  -15277   -15277   -15273   -15273   -15273   -15273   -15276   -15282 
  -15284   -15280   -15275   -15269   -15268   -15273   -15275   -15272 
  -15272   -15276   -15277   -15279   -15280   -15277   -15272   -15273 
  -15277   -15277   -15279   -15280   -15275   -15271   -15273   -15273 
  -15273   -15277   -15277   -15276   -15275   -15275   -15277   -15279 
  -15279   -15280   -15277   -15272   -15273   -15276   -15273   -15276 
  -15283   -15283   -15280   -15280   -15280   -15275   -15271   -15272 
  -15273   -15273   -15277   -15279   -15275   -15275   -15277   -15279 
  -15275   -15275   -15275   -15272   -15271   -15275   -15280   -15284 
  -15286   -15286   -15282   -15276   -15271   -15269   -15271   -15275 
  -15280   -15283   -15280   -15280   -15277   -15272   -15273   -15276 
  -15276   -15280   -15286   -15284   -15279   -15275   -15273   -15273 
  -15275   -15280   -15283   -15283   -15286   -15282   -15277   -15275 
  -15271   -15268   -15271   -15276   -15282   -15282   -15280   -15275 
  -15269   -15269   -15275   -15277   -15280   -15282   -15277   -15276 
  -15279   -15280   -15283   -15282   -15277   -15275   -15272   -15273 
  -15276   -15279   -15280   -15276   -15272   -15271   -15271   -15275 
  -15279   -15280   -15287   -15283   -15275   -15275   -15273   -15273 
  -15277   -15280   -15283   -15284   -15280   -15275   -15271   -15271 
  -15276   -15279   -15280   -15282   -15279   -15273   -15271   -15273 
  -15275   -15273   -15276   -15279   -15276   -15276   -15276   -15273 
  -15273   -15276   -15277   -15280   -15279   -15276   -15276   -15275 
  -15277   -15280   -15282   -15280   -15277   -15276   -15282   -15283 
  -15282   -15283   -15283   -15282   -15279   -15272   -15272   -15275 
  -15273   -15275   -15276   -15277   -15283   -15283   -15282   -15283 
  -15283   -15284   -15288   -15291   -15298   -15298   -15292   -15292 
  -15294   -15286   -15276   -15271   -15265   -15255   -15245   -15234 
  -15222   -15209   -15192   -15171   -15149   -15140   -15140   -15149 
  -15174   -15214   -15271   -15336   -15406   -15479   -15539   -15576 
  -15593   -15585   -15538   -15456   -15348   -15218   -15076   -14933 
  -14805   -14705   -14647   -14647   -14719   -14850   -15028   -15240 
  -15460   -15661   -15823   -15938   -15997   -16001   -15961   -15871 
  -15734   -15562   -15380   -15205   -15055   -14960   -14931   -14960 
  -15045   -15157   -15267   -15352   -15402   -15423   -15429   -15426 
  -15411   -15368   -15292   -15186   -15067   -14967   -14920   -14947 
  -15052   -15206   -15375   -15515   -15585   -15577   -15506   -15398 
  -15290   -15213   -15178   -15186   -15223   -15277   -15342   -15418 
  -15496   -15568   -15628   -15664   -15653   -15583   -15446   -15252 
  -15024   -14789   -14589   -14451   -14382   -14373   -14393   -14431 
  -14493   -14586   -14716   -14906   -15172   -15508   -15896   -16302 
  -16673   -16958   -17112   -17109   -16945   -16649   -16268   -15853 
  -15437   -15025   -14598   -14149   -13705   -13319   -13051   -12943 
  -13014   -13270   -13711   -14310   -15022   -15784   -16497   -17042 
  -17321   -17280   -16945   -16433   -15884   -15387   -14974   -14648 
  -14407   -14251   -14197   -14251   -14399   -14621   -14913   -15259 
  -15615   -15950   -16267   -16579   -16866   -17095   -17192   -17070 
  -16683   -16032   -15159   -14180   -13275   -12653   -12480   -12816 
  -13597   -14666   -15819   -16858   -17648   -18114   -18262   -18135 
  -17759   -17159   -16393   -15564   -14828   -14330   -14142   -14207 
  -14380   -14536   -14611   -14580   -14469   -14316   -14176   -14104 
  -14152   -14339   -14670   -15101   -15560   -15931   -16082   -15905 
  -15377   -14598   -13771   -13116   -12795   -12830   -13119   -13531 
  -13964   -14347   -14679   -15022   -15456   -16015   -16684   -17440 
  -18218   -18894   -19319   -19334   -18841   -17855   -16503   -15005 
  -13575   -12352   -11406   -10798   -10605   -10902   -11719   -13000 
  -14613   -16380   -18091   -19538   -20564   -21096   -21136   -20733 
  -19947   -18846   -17482   -15915   -14269   -12729   -11500   -10771 
  -10648   -11124   -12044   -13136   -14125   -14866   -15350   -15665 
  -15942   -16347   -16997   -17801   -18472   -18700   -18303   -17331 
  -16040   -14733   -13645   -12806   -12083   -11375   -10710   -10241 
  -10173   -10702   -11911   -13657   -15566   -17190   -18216   -18569 
  -18368   -17844   -17319   -17088   -17215   -17506   -17683   -17496 
  -16839   -15820   -14710   -13895   -13724   -14277   -15282   -16240 
  -16617   -16062   -14601   -12661   -10862    -9756    -9703   -10791 
  -12769   -15184   -17591   -19710   -21411   -22584   -23105   -22874 
  -21803   -19889   -17313   -14435   -11695    -9528    -8282    -8090 
   -8765    -9853   -10843   -11376   -11423   -11314   -11508   -12316 
  -13819   -15831   -17925   -19658   -20771   -21216   -21103   -20568 
  -19715   -18648   -17494   -16391   -15519   -15032   -14881   -14835 
  -14681   -14366   -13952   -13551   -13343   -13409   -13670   -13990 
  -14173   -14057   -13602   -12835   -11890   -11063   -10659   -10875 
  -11745   -13090   -14631   -16159   -17643   -19203   -20929   -22712 
  -24255   -25120   -24915   -23446   -20754   -17267   -13768   -11017 
   -9512    -9391   -10335   -11664   -12704   -13107   -13009   -12897 
  -13192   -14042   -15348   -16756   -17788   -18075   -17481   -16067 
  -14133   -12301   -11242   -11350   -12607   -14558   -16532   -17946 
  -18449   -18023   -16987   -15745   -14566   -13529   -12560   -11543 
  -10550    -9876    -9867   -10816   -12987   -16403   -20655   -25026 
  -28663   -30720   -30748   -28858   -25390   -20785   -15653   -10611 
   -6195    -2894    -1094    -1036    -2779    -6061   -10241   -14493 
  -18037   -20352   -21358   -21265   -20409   -19241   -18150   -17290 
  -16602   -15911   -15026   -13906   -12719   -11684   -10940   -10621 
  -10818   -11487   -12476   -13594   -14771   -16044   -17316   -18265 
  -18603   -18368   -17844   -17255   -16660   -16048   -15442   -14944 
  -14640   -14501   -14416   -14258   -14022   -13980   -14478   -15562 
  -16991   -18427   -19472   -19777   -19245   -18092   -16706   -15398 
  -14365   -13720   -13435   -13402   -13481   -13479   -13224   -12654 
  -11994   -11762   -12422   -14030   -16200   -18241   -19484   -19660 
  -18928   -17680   -16387   -15469   -15111   -15083   -14928   -14355 
  -13409   -12430   -11871   -11982   -12599   -13204   -13281   -12707 
  -11808   -11091   -10960   -11634   -13167   -15473   -18235   -20837 
  -22607   -23175   -22546   -21055   -19263   -17579   -16089   -14818 
  -13895   -13373   -13105   -12869   -12654   -12761   -13498   -14936 
  -16868   -18825   -20228   -20667   -20051   -18532   -16367   -14002 
  -11958   -10482    -9578    -9259    -9612   -10605   -11927   -13163 
  -14081   -14586   -14747   -14786   -14852   -14985   -15168   -15315 
  -15376   -15364   -15354   -15570   -16044   -16425   -16402   -15908 
  -15095   -14318   -13817   -13595   -13608   -13787   -14057   -14365 
  -14584   -14667   -14886   -15638   -17109   -19072   -21004   -22428 
  -23095   -22908   -21822   -19919   -17523   -15126   -13208   -12090 
  -11797   -12056   -12503   -12877   -13008   -12854   -12704   -12918 
  -13563   -14570   -15801   -16995   -17980   -18690   -19001   -18823 
  -18085   -16723   -14912   -13004   -11215    -9640    -8338    -7311 
   -6633    -6597    -7474    -9273   -11762   -14536   -17081   -19029 
  -20337   -21141   -21698   -22319   -23022   -23441   -23117   -21736 
  -19305   -16254   -13217   -10783    -9401    -9250   -10139   -11608 
  -13127   -14265   -14929   -15383   -15971   -16846   -17861   -18719 
  -19175   -19074   -18396   -17335   -16150   -14967   -13799   -12754 
  -12109   -12029   -12451   -13263   -14319   -15338   -15938   -15785 
  -14843   -13427   -12039   -11172   -11191   -12197   -13927   -15890 
  -17606   -18708   -19048   -18796   -18312   -18009   -18211   -18921 
  -19757   -20239   -20067   -19159   -17632   -15735   -13733   -11819 
  -10096    -8649    -7492    -6617    -6142    -6296    -7365    -9520 
  -12582   -16097   -19492   -22241   -24059   -24891   -24796   -23961 
  -22632   -21092   -19566   -18041   -16276   -14095   -11664    -9451 
   -7981    -7697    -8764   -10851   -13308   -15499   -16947   -17477 
  -17259   -16694   -16197   -15927   -15751   -15429   -14814   -14002 
  -13220   -12603   -12210   -12167   -12595   -13448   -14586   -15923 
  -17308   -18420   -18972   -18901   -18303   -17307   -15944   -14292 
  -12641   -11395   -10855   -11237   -12722   -15196   -18073   -20617 
  -22324   -23055   -23085   -22860   -22576   -22108   -21270   -19931 
  -17977   -15387   -12409    -9567    -7501    -6648    -6926    -7928 
   -9180   -10268   -11049   -11610   -12025   -12330   -12617   -13093 
  -13973   -15228   -16594   -17774   -18559   -18859   -18651   -17960 
  -16892   -15687   -14647   -14129   -14477   -15716   -17498   -19354 
  -20749   -21273   -20835   -19568   -17694   -15360   -12756   -10346 
   -8613    -7835    -8089    -9209   -10966   -13136   -15337   -17153 
  -18376   -19010   -19265   -19445   -19785   -20268   -20494   -19904 
  -18206   -15523   -12306    -9182    -6871    -5931    -6394    -7888 
  -10025   -12452   -14794   -16735   -18031   -18544   -18381   -17878 
  -17490   -17548   -18069   -18916   -19886   -20618   -20699   -19984 
  -18738   -17494   -16772   -16815   -17459   -18233   -18677   -18509 
  -17695   -16386   -14732   -12897   -11178    -9903    -9240    -9047 
   -9066    -9251    -9648   -10174   -10710   -11298   -12062   -12991 
  -13942   -14874   -15901   -17155   -18661   -20347   -22050   -23417 
  -23989   -23413   -21598   -18789   -15373   -11701    -8140    -5211 
   -3481    -3306    -4704    -7326   -10550   -13710   -16245   -17813 
  -18407   -18310   -17917   -17595   -17636   -18179   -19067   -19916 
  -20320   -19978   -18863   -17280   -15670   -14530   -14342   -15234 
  -16777   -18307   -19251   -19225   -18188   -16484   -14647   -13309 
  -12981   -13738   -15298   -17204   -18879   -19803   -19737   -18850 
  -17589   -16375   -15426   -14744   -14161   -13448   -12476   -11352 
  -10380    -9876    -9910   -10284   -10829   -11476   -12260   -13320 
  -14636   -15957   -17066   -17853   -18231   -18184   -17849   -17493 
  -17343   -17416   -17466   -17232   -16648   -15769   -14755   -13860 
  -13232   -12737   -12058   -10975    -9575    -8209    -7342    -7395 
   -8567   -10775   -13637   -16557   -18972   -20532   -21220   -21409 
  -21577   -21982   -22594   -23074   -22913   -21799   -19746   -17096 
  -14511   -12565   -11403   -10859   -10600   -10278    -9842    -9499 
   -9539   -10211   -11547   -13298   -15064   -16410   -17018   -16870 
  -16201   -15280   -14443   -14079   -14386   -15280   -16448   -17545 
  -18372   -18885   -19251   -19743   -20368   -20844   -20838   -20121 
  -18635   -16557   -14407   -12838   -12194   -12437   -13193   -13919 
  -14339   -14489   -14513   -14577   -14781   -15086   -15322   -15225 
  -14521   -13127   -11314    -9593    -8529    -8665   -10249   -12964 
  -16058   -18835   -20889   -21986   -22096   -21377   -19998   -18230 
  -16414   -14812   -13617   -13005   -13066   -13667   -14453   -15091 
  -15408   -15373   -15101   -14769   -14528   -14499   -14709   -15110 
  -15616   -16058   -16224   -15952   -15192   -14091   -12958   -12106 
  -11803   -12256   -13485   -15209   -16908   -18057   -18249   -17270 
  -15363   -13200   -11500   -10859   -11524   -13178   -15133   -16625 
  -17109   -16567   -15356   -13803   -12128   -10557    -9451    -9325 
  -10566   -13092   -16397   -19812   -22765   -24948   -26291   -26790 
  -26433   -25255   -23369   -20850   -17775   -14440   -11350    -9040 
   -7951    -8203    -9502   -11329   -13096   -14268   -14586   -14142 
  -13336   -12711   -12646   -13186   -14104   -15057   -15820   -16322 
  -16505   -16353   -16031   -15819   -15996   -16679   -17718   -18854 
  -19820   -20332   -20163   -19319   -18144   -17073   -16316   -15894 
  -15678   -15352   -14624   -13464   -12063   -10636    -9265    -7932 
   -6585    -5101    -3447    -1961    -1212    -1665    -3608    -7083 
  -11884   -17674   -23880   -29736   -34506   -37465   -38078   -36290 
  -32530   -27639   -22667   -18449   -15353   -13279   -11813   -10555 
   -9315    -8098    -7011    -6069    -5205    -4554    -4463    -5228 
   -6988    -9643   -12808   -15963   -18594   -20328   -21053   -20915 
  -20233   -19441   -19044   -19491   -20925   -23056   -25205   -26480 
  -26165   -23944   -19920   -14667    -9063    -3977        9     2685 
    4021     3997     2465     -850    -6054   -12854   -20526   -27918 
  -33789   -37237   -37897   -36022   -32335   -27753   -23222   -19430 
  -16389   -13578   -10465    -6844    -2944      684     3407     4779 
    4785     3682     1664    -1206    -4950    -9634   -15228   -21450 
  -27608   -32768   -36148   -37239   -36008   -33018   -29077   -25045 
  -21563   -18736   -16320   -13809   -10490    -6011     -683     4584 
    8446     9639     7555     2555    -4266   -11745   -19057   -25633 
  -31095   -35313   -38250   -39802   -39758   -37785   -33696   -27783 
  -20634   -12896    -5348     1143     5798     8109     7908     5327 
     788    -5109   -11674   -18133   -23619   -27272   -28669   -28034 
  -25852   -22727   -19395   -16738   -15732   -16667   -18679   -20672 
  -21925   -21871   -20305   -17618   -14347   -10860    -7646    -5279 
   -4133    -4527    -6412    -8999   -11546   -13753   -15290   -16008 
  -16047   -15488   -14600   -13872   -13597   -13749   -14114   -14650 
  -15565   -17023   -19074   -21486   -23662   -24906   -24723   -23112 
  -20449   -17230   -14272   -12255   -10955    -9899    -8999    -8190 
   -7360    -6679    -6637    -7663   -10026   -13840   -18696   -23652 
  -27993   -31324   -32950   -32491   -30277   -26364   -20707   -14061 
   -7603    -2481      252      122    -2451    -6524   -10783   -13690 
  -14407   -13441   -11767   -10103    -9244    -9930   -12136   -15128 
  -18285   -21240   -23460   -24819   -25934   -27124   -28254   -29413 
  -30338   -30307   -28972   -26071   -21425   -15534    -9173    -3099 
    1941     5409     6943     6438     4020     -151    -5694   -11988 
  -18333   -23792   -27167   -27745   -25860   -22424   -18570   -15372 
  -13246   -12141   -11934   -12339   -13032   -13697   -14073   -14245 
  -14567   -15241   -16139   -17024   -17864   -18786   -19840   -20823 
  -21220   -20451   -18173   -14673   -11086    -8673    -8025    -9066 
  -11168   -13348   -14721   -14746   -13409   -11389    -9684    -9171 
  -10346   -13111   -16881   -20757   -23706   -25076   -25041   -24393 
  -23700   -22793   -21270   -18943   -15878   -12587    -9757    -7626 
   -6150    -5455    -5651    -6650    -8168    -9836   -11481   -13072 
  -14586   -16125   -17834   -19738   -21606   -23114   -24256   -25069 
  -25270   -24684   -23417   -21513   -18963   -15923   -12744   -10053 
   -8449    -7954    -8218    -8888    -9567    -9971    -9975    -9549 
   -8842    -8297    -8515    -9819   -12259   -15774   -19930   -23998 
  -27305   -29232   -29529   -28517   -26647   -24270   -21575   -18405 
  -14720   -11032    -7992    -5995    -5174    -5551    -6970    -8889 
  -10623   -11940   -13123   -14578   -16661   -19386   -22261   -24551 
  -25274   -23649   -19873   -15025   -10466    -7384    -6266    -6775 
   -8302   -10293   -12112   -13251   -13594   -13351   -13020   -12930 
  -12931   -12897   -13116   -13994   -15672   -17905   -20047   -21396 
  -21739   -21351   -20619   -19828   -19187   -18924   -19134   -19607 
  -19865   -19437   -18260   -16700   -15229   -14239   -13749   -13236 
  -12244   -10791    -9169    -7983    -7917    -9154   -11418   -14131 
  -16447   -17560   -17108   -15444   -13594   -12594   -12869   -14088 
  -15395   -16062   -15871   -14940   -13737   -12957   -12891   -13427 
  -14365   -15210   -15507   -15376   -15198   -15419   -16399   -17928 
  -19476   -20695   -21323   -21224   -20726   -20302   -20128   -20159 
  -20124   -19558   -18164   -15989   -13273   -10245    -7369    -5228 
   -3883    -3245    -3569    -5042    -7792   -11812   -16492   -20927 
  -24417   -26441   -26866   -26061   -24387   -22017   -19205   -16222 
  -13188   -10253    -7778    -6188    -5908    -7357   -10540   -14814 
  -19242   -22982   -25413   -26176   -25257   -22921   -19661   -16187 
  -13144   -10881    -9535    -8977    -8752    -8433    -7960    -7646 
   -7890    -8854   -10447   -12459   -14526   -16298   -17757   -19083 
  -20416   -21856   -23406   -24804   -25567   -25263   -23812   -21438 
  -18382   -14881   -11345    -8249    -5883    -4511    -4469    -5809 
   -8233   -11384   -14980   -18752   -22422   -25699   -28178   -29326 
  -28711   -26252   -22376   -17884   -13377    -9192    -5823    -3686 
   -2905    -3546    -5468    -8293   -11746   -15672   -19788   -23534 
  -26130   -26979   -25974   -23441   -19971   -16221   -12738    -9861 
   -7798    -6930    -7620    -9684   -12507   -15457   -17991   -19670 
  -20144   -19287   -17454   -15433   -14077   -13902   -14917   -16710 
  -18685   -20331   -21227   -20946   -19287   -16519   -13225   -10220 
   -8372    -8063    -9105   -11020   -13161   -14825   -15444   -15021 
  -14110   -13251   -12924   -13455   -14758   -16549   -18277   -19172 
  -18873   -17587   -15901   -14517   -13790   -13620   -13801   -14226 
  -14958   -16104   -17583   -19179   -20680   -21870   -22549   -22581 
  -22060   -21249   -20271   -19170   -17855   -15979   -13468   -10686 
   -8070    -6118    -5228    -5443    -6517    -8028    -9626   -11245 
  -12989   -15009   -17273   -19538   -21651   -23349   -24048   -23363 
  -21340   -18207   -14372   -10446    -7069    -4838    -4106    -4841 
   -6864    -9956   -13684   -17448   -20532   -22293   -22520   -21435 
  -19542   -17440   -15577   -14220   -13437   -13105   -13093   -13301 
  -13667   -14289   -15295   -16511   -17450   -17658   -16977   -15664 
  -14299   -13373   -13020   -13155   -13583   -14129   -14742   -15337 
  -15664   -15493   -14877   -14085   -13450   -13209   -13447   -14096 
  -14966   -15754   -16231   -16572   -17294   -18755   -20879   -23240 
  -25263   -26388   -26221   -24792   -22573   -20120   -17763   -15550 
  -13452   -11456    -9472    -7479    -5632    -4203    -3586    -4136 
   -5881    -8618   -12009   -15516   -18643   -21089   -22446   -22335 
  -20949   -18821   -16398   -14175   -12596   -11816   -11848   -12630 
  -14061   -15962   -17833   -19307   -20676   -22384   -24475   -26555 
  -27919   -27923   -26366   -23449   -19649   -15711   -12444   -10354 
   -9522    -9682   -10338   -11036   -11442   -11291   -10597    -9540 
   -8106    -6412    -4939    -4195    -4585    -6315    -9073   -12221 
  -15091   -17073   -17909   -17793   -17203   -16584   -16090   -15800 
