Origin Time       2025/01/13 21:19:00
Lat.              31.8
Long.             131.6
Depth. (km)       30
Mag.              6.9
Station Code      KMMH10
Station Lat.      32.3151
Station Long.     130.1811
Station Height(m) -142
Record Time       2025/01/13 21:19:55
Sampling Freq(Hz) 100Hz
Duration Time(s)  218
Dir.              1
Scale Factor      2942(gal)/8224139
Max. Acc. (gal)   1.363
Last Correction   2025/01/13 21:19:55
Memo.             
[...]
   61859    62060    62229    62326    62345    62322    62275    62179 
   62006    61792    61611    61534    61551    61603    61657    61719 
   61784    61834    61870    61913    62001    62128    62235    62252 
   62179    62081    62005    61942    61852    61751    61696    61731 
   61832    61940    62031    62108    62144    62102    61963    61774 
   61608    61470    61312    61121    60949    60863    60864    60910 
   60976    61068    61180    61291    61384    61464    61512    61512 
   61462    61381    61299    61248    61244    61277    61319    61335 
   61312    61276    61244    61184    61067    60916    60783    60702 
   60656    60612    60582    60604    60681    60781    60885    60993 
   61109    61222    61299    61333    61350    61384    61423    61420 
   61349    61233    61122    61028    60929    60820    60717    60647 
   60617    60617    60647    60723    60841    60966    61044    61065 
   61060    61059    61071    61095    61134    61198    61300    61435 
   61576    61701    61807    61885    61932    61928    61866    61782 
   61708    61638    61566    61492    61433    61406    61399    61399 
   61407    61422    61430    61416    61399    61398    61404    61387 
   61325    61241    61161    61090    61017    60944    60887    60845 
   60799    60740    60667    60570    60426    60222    60004    59818 
   59667    59553    59512    59557    59653    59738    59796    59881 
   60033    60212    60340    60388    60401    60432    60455    60408 
   60289    60183    60153    60177    60189    60151    60095    60072 
   60061    59992    59865    59745    59699    59734    59791    59829 
   59869    59935    60030    60153    60301    60463    60625    60772 
   60893    60988    61086    61177    61240    61257    61227    61155 
   61041    60878    60687    60534    60484    60558    60716    60916 
   61145    61383    61609    61815    61978    62098    62210    62351 
   62525    62708    62876    63012    63115    63166    63144    63058 
   62974    62955    63005    63070    63117    63158    63200    63235 
   63269    63323    63416    63531    63622    63678    63726    63791 
   63869    63933    63949    63909    63818    63688    63551    63444 
   63373    63316    63265    63219    63175    63121    63051    62977 
   62903    62797    62623    62370    62081    61819    61611    61454 
   61369    61380    61480    61604    61674    61655    61592    61523 
   61454    61380    61312    61279    61258    61194    61080    60956 
   60852    60789    60764    60766    60809    60909    61056    61215 
   61346    61415    61423    61391    61338    61296    61299    61379 
   61555    61823    62141    62479    62802    63094    63356    63593 
   63798    63971    64107    64188    64192    64106    63953    63769 
   63566    63350    63116    62851    62567    62276    61966    61639 
   61331    61074    60889    60762    60671    60606    60539    60442 
   60322    60214    60131    60068    60016    59994    60007    60033 
   60031    59987    59914    59852    59822    59805    59755    59655 
   59520    59364    59196    59040    58928    58872    58837    58756 
   58608    58441    58315    58255    58255    58311    58433    58610 
   58806    58993    59159    59305    59454    59616    59794    59973 
   60131    60251    60347    60448    60596    60797    61029    61269 
   61496    61705    61900    62074    62225    62378    62541    62695 
   62816    62922    63051    63211    63356    63464    63533    63574 
   63589    63558    63481    63379    63261    63123    62966    62808 
   62673    62569    62479    62391    62286    62152    61996    61828 
   61647    61452    61258    61101    60984    60885    60777    60647 
   60508    60361    60208    60072    59973    59903    59829    59759 
   59738    59788    59872    59934    59958    59975    60021    60104 
   60210    60322    60453    60613    60798    60972    61113    61223 
   61312    61373    61385    61341    61246    61115    60968    60831 
   60723    60663    60671    60750    60885    61052    61215    61344 
   61430    61495    61558    61641    61744    61859    61969    62054 
   62131    62224    62336    62453    62565    62681    62812    62962 
   63111    63219    63263    63255    63227    63197    63162    63107 
   63034    62959    62897    62847    62784    62685    62559    62426 
   62301    62182    62060    61939    61821    61707    61599    61500 
   61416    61345    61279    61198    61106    61025    60939    60789 
   60555    60277    60003    59760    59541    59331    59132    58976 
   58876    58824    58828    58907    59061    59270    59509    59746 
   59957    60126    60246    60328    60404    60490    60583    60669 
   60740    60812    60890    60975    61063    61149    61246    61356 
   61456    61530    61589    61641    61678    61699    61709    61724 
   61757    61817    61912    62041    62191    62318    62390    62418 
   62433    62468    62538    62641    62772    62928    63090    63234 
   63337    63379    63340    63246    63134    63027    62922    62810 
   62711    62662    62667    62703    62765    62862    62997    63140 
   63248    63301    63289    63219    63109    62981    62860    62754 
   62641    62507    62368    62247    62174    62159    62187    62229 
   62256    62241    62187    62125    62077    62021    61940    61840 
   61746    61689    61686    61730    61788    61835    61861    61865 
   61846    61796    61727    61665    61628    61611    61599    61573 
   61535    61503    61485    61487    61518    61574    61627    61659 
   61688    61740    61851    62017    62198    62363    62511    62645 
   62739    62765    62727    62654    62573    62496    62415    62320 
   62220    62108    61966    61798    61623    61435    61214    60960 
   60702    60467    60269    60100    59952    59825    59719    59634 
   59557    59493    59462    59459    59467    59489    59532    59595 
   59668    59752    59865    60021    60197    60347    60436    60474 
   60493    60513    60532    60547    60577    60646    60741    60820 
   60863    60882    60889    60882    60860    60843    60852    60879 
   60902    60906    60893    60872    60847    60814    60779    60750 
   60714    60648    60555    60459    60377    60300    60210    60095 
   59948    59765    59559    59333    59107    58905    58725    58546 
   58369    58209    58095    58044    58047    58085    58133    58198 
   58298    58433    58579    58703    58789    58834    58837    58807 
   58762    58725    58715    58758    58889    59135    59483    59891 
   60308    60694    61025    61300    61527    61711    61863    61998 
   62118    62220    62310    62421    62573    62769    62989    63205 
   63409    63621    63840    64048    64235    64401    64544    64643 
   64696    64724    64743    64746    64716    64642    64539    64420 
   64278    64137    64022    63933    63853    63772    63680    63571 
   63421    63224    63012    62803    62584    62343    62085    61832 
   61615    61450    61353    61310    61298    61310    61344    61391 
   61441    61474    61484    61466    61442    61442    61470    61495 
   61491    61466    61443    61425    61407    61396    61399    61407 
   61407    61385    61337    61285    61271    61308    61395    61515 
   61659    61825    62014    62225    62440    62658    62884    63107 
   63319    63516    63701    63873    64023    64131    64192    64216 
   64235    64257    64257    64199    64060    63864    63656    63440 
   63188    62896    62592    62307    62062    61844    61651    61500 
   61398    61317    61217    61074    60917    60786    60689    60612 
   60556    60536    60542    60544    60529    60515    60512    60502 
   60459    60362    60216    60041    59832    59587    59336    59105 
   58901    58719    58565    58452    58390    58371    58382    58425 
   58519    58658    58800    58905    58962    58988    59005    59028 
   59069    59150    59292    59478    59672    59848    60007    60158 
   60285    60369    60419    60475    60573    60704    60852    61026 
   61226    61422    61581    61705    61811    61911    62008    62093 
   62156    62209    62264    62324    62379    62425    62456    62482 
   62519    62567    62610    62638    62665    62714    62788    62864 
   62927    63001    63119    63274    63435    63572    63682    63764 
   63803    63783    63701    63545    63323    63050    62745    62445 
   62195    62014    61905    61865    61859    61857    61848    61846 
   61827    61773    61685    61581    61480    61377    61269    61167 
   61087    61038    61024    61026    61044    61082    61125    61156 
   61183    61215    61257    61314    61373    61418    61437    61411 
   61341    61248    61153    61064    60990    60941    60932    60941 
   60917    60841    60756    60712    60709    60721    60739    60777 
   60848    60955    61075    61190    61299    61388    61438    61438 
   61391    61311    61209    61083    60939    60789    60643    60521 
   60450    60442    60494    60596    60727    60871    61002    61094 
   61141    61157    61149    61121    61098    61094    61114    61157 
   61202    61237    61261    61279    61284    61271    61253    61246 
   61242    61244    61257    61269    61273    61269    61283    61349 
   61477    61645    61809    61951    62089    62240    62406    62572 
   62729    62872    63005    63140    63270    63385    63482    63551 
   63579    63575    63567    63579    63614    63657    63694    63722 
   63747    63756    63741    63710    63666    63606    63536    63463 
   63410    63400    63421    63432    63406    63358    63288    63167 
   62991    62776    62548    62310    62066    61815    61572    61349 
   61138    60936    60751    60601    60489    60411    60376    60377 
   60384    60357    60292    60203    60093    59954    59784    59595 
   59424    59297    59208    59151    59135    59158    59196    59229 
   59265    59317    59389    59470    59549    59618    59683    59736 
   59775    59814    59864    59935    60042    60174    60323    60473 
   60588    60642    60642    60594    60513    60421    60335    60258 
   60204    60200    60265    60392    60555    60732    60910    61080 
   61225    61337    61426    61496    61539    61550    61523    61464 
   61385    61306    61238    61182    61140    61115    61107    61128 
   61172    61231    61299    61366    61423    61472    61530    61614 
   61712    61804    61879    61939    61983    62016    62041    62064 
   62079    62083    62074    62051    62019    61975    61905    61794 
   61647    61476    61300    61145    61026    60963    60957    60995 
   61056    61125    61191    61252    61308    61372    61458    61580 
   61708    61816    61890    61940    61985    62027    62062    62114 
   62203    62318    62430    62518    62572    62599    62594    62542 
   62446    62328    62206    62094    62005    61951    61925    61916 
   61906    61885    61847    61801    61753    61700    61636    61554 
   61441    61298    61140    60976    60806    60639    60493    60378 
   60288    60212    60138    60058    59988    59929    59876    59840 
   59821    59817    59817    59806    59780    59757    59746    59755 
   59778    59810    59846    59884    59922    59956    59980    59995 
   60011    60037    60087    60166    60254    60338    60434    60555 
   60697    60836    60963    61091    61241    61396    61531    61646 
   61765    61894    62020    62117    62183    62247    62314    62374 
   62424    62463    62483    62476    62422    62334    62249    62189 
   62137    62083    62036    62017    62037    62079    62113    62141 
   62189    62266    62356    62441    62511    62563    62594    62617 
   62641    62657    62658    62656    62649    62622    62561    62459 
   62344    62260    62212    62185    62174    62183    62214    62249 
   62270    62291    62329    62371    62403    62419    62419    62391 
   62336    62268    62201    62143    62098    62064    62039    62013 
   61981    61929    61846    61750    61673    61630    61626    61653 
   61697    61755    61830    61921    62021    62120    62212    62301 
   62391    62479    62545    62584    62613    62637    62645    62637 
   62617    62588    62561    62542    62510    62449    62370    62286 
   62197    62098    61983    61850    61707    61551    61393    61257 
   61153    61079    61025    60980    60939    60894    60843    60794 
   60767    60759    60751    60720    60663    60596    60539    60511 
   60507    60505    60488    60454    60408    60355    60315    60311 
   60346    60396    60431    60430    60382    60316    60254    60200 
   60161    60142    60142    60164    60216    60304    60408    60505 
   60592    60681    60801    60959    61140    61346    61584    61821 
   62029    62190    62291    62355    62402    62418    62395    62341 
   62274    62198    62105    62005    61927    61879    61862    61873 
   61915    61981    62054    62109    62139    62147    62127    62087 
   62037    61971    61882    61777    61673    61578    61485    61375 
   61244    61105    60963    60814    60662    60511    60386    60315 
   60293    60301    60319    60331    60330    60324    60331    60347 
   60359    60351    60309    60214    60043    59792    59474    59124 
   58785    58475    58199    57964    57778    57655    57600    57609 
   57666    57748    57838    57923    58004    58097    58228    58399 
   58604    58831    59074    59325    59576    59825    60070    60301 
   60509    60683    60808    60876    60891    60867    60820    60767 
   60725    60705    60721    60790    60907    61065    61254    61461 
   61659    61828    61973    62100    62209    62305    62401    62518 
   62661    62803    62928    63023    63067    63067    63040    62992 
   62924    62826    62681    62498    62297    62098    61925    61789 
   61703    61670    61684    61736    61817    61915    62020    62129 
   62235    62317    62367    62386    62383    62367    62349    62328 
   62309    62309    62334    62363    62367    62338    62282    62202 
   62094    61944    61782    61651    61570    61530    61526    61555 
   61615    61696    61801    61938    62114    62328    62569    62830 
   63092    63354    63606    63815    63968    64072    64149    64219 
   64292    64359    64413    64449    64451    64405    64307    64168 
   63990    63776    63549    63332    63136    62962    62808    62685 
   62603    62561    62544    62517    62465    62413    62376    62359 
   62365    62392    62448    62544    62664    62777    62861    62904 
   62905    62870    62791    62669    62517    62344    62156    61955 
   61750    61564    61395    61241    61128    61075    61078    61096 
   61083    61025    60947    60863    60782    60705    60633    60574 
   60531    60488    60442    60412    60401    60392    60386    60393 
   60428    60488    60552    60620    60694    60771    60840    60875 
   60870    60826    60751    60650    60538    60424    60315    60205 
   60087    59964    59840    59717    59605    59513    59455    59443 
   59470    59517    59587    59688    59830    60003    60185    60363 
   60528    60669    60762    60787    60747    60643    60478    60258 
   60004    59751    59520    59320    59146    59004    58888    58785 
   58695    58615    58542    58472    58399    58325    58255    58183 
   58116    58068    58055    58086    58167    58297    58473    58688 
   58911    59115    59302    59490    59672    59838    59980    60093 
   60192    60276    60332    60349    60338    60338    60370    60444 
   60573    60763    60994    61218    61380    61443    61425    61364 
   61290    61217    61152    61094    61036    60966    60875    60768 
   60664    60581    60515    60457    60401    60343    60291    60258 
   60264    60324    60444    60616    60828    61061    61302    61528 
   61731    61905    62047    62163    62266    62364    62472    62598 
   62731    62851    62934    62974    62981    62972    62959    62947 
   62951    62991    63074    63204    63366    63539    63725    63938 
   64174    64397    64559    64629    64608    64520    64396    64253 
   64104    63975    63853    63722    63593    63487    63423    63393 
   63377    63358    63340    63324    63302    63266    63202    63117 
   63030    62958    62918    62918    62947    62996    63049    63084 
   63084    63040    62972    62895    62820    62738    62635    62511 
   62374    62245    62148    62074    62010    61944    61862    61763 
   61653    61531    61419    61334    61288    61292    61350    61461 
   61615    61804    62019    62255    62506    62756    62978    63165 
   63310    63410    63463    63475    63455    63408    63332    63232 
   63120    63008    62881    62730    62572    62438    62334    62245 
   62166    62118    62116    62144    62190    62244    62318    62426 
   62552    62658    62727    62738    62664    62509    62291    62028 
   61730    61402    61057    60716    60384    60062    59760    59490 
   59251    59026    58806    58603    58430    58284    58158    58056 
   58000    58004    58070    58172    58294    58430    58577    58722 
   58861    58980    59049    59057    59007    58918    58818    58727 
   58677    58685    58738    58812    58899    59008    59148    59305 
   59462    59599    59728    59861    59994    60122    60249    60365 
   60465    60546    60594    60606    60588    60542    60477    60403 
   60346    60326    60338    60385    60488    60647    60851    61082 
   61325    61573    61831    62079    62311    62534    62749    62943 
   63105    63227    63302    63317    63266    63143    62946    62702 
   62438    62170    61902    61649    61411    61188    60980    60785 
   60600    60438    60299    60178    60070    59984    59935    59929 
   59965    60046    60170    60335    60540    60770    61013    61267 
   61537    61827    62125    62409    62660    62865    63016    63112 
   63159    63182    63198    63217    63235    63243    63238    63216 
   63188    63157    63128    63119    63151    63217    63281    63304 
   63259    63142    62957    62723    62457    62195    61960    61744 
   61535    61329    61125    60936    60770    60623    60493    60385 
   60304    60258    60246    60266    60323    60409    60507    60606 
   60698    60774    60821    60831    60804    60754    60689    60608 
   60507    60388    60253    60096    59919    59734    59555    59391 
   59250    59132    59039    58963    58899    58847    58806    58765 
   58731    58711    58711    58741    58795    58860    58927    58993 
   59065    59152    59274    59443    59653    59891    60149    60415 
   60685    60964    61257    61570    61896    62210    62488    62725 
   62916    63063    63167    63234    63279    63331    63379    63409 
   63416    63405    63390    63390    63400    63406    63408    63402 
   63390    63371    63342    63309    63292    63289    63292    63294 
   63304    63309    63301    63282    63262    63254    63270    63313 
   63374    63444    63506    63553    63582    63591    63593    63610 
