Origin Time       2025/01/13 21:19:00
Lat.              31.8
Long.             131.6
Depth. (km)       30
Mag.              6.9
Station Code      KMMH05
Station Lat.      32.9553
Station Long.     131.2207
Station Height(m) 693
Record Time       2025/01/13 21:19:54
Sampling Freq(Hz) 100Hz
Duration Time(s)  188
Dir.              4
Scale Factor      7845(gal)/8223790
Max. Acc. (gal)   56.079
Last Correction   2025/01/13 21:19:54
Memo.             
[...]
  -26657   -22242   -17840   -13702   -10079    -7257    -5732    -6111 
   -8600   -12771   -17794   -22708   -26655   -29246   -30669   -31368 
  -31673   -31780   -31826   -31796   -31579   -31050   -30114   -28868 
  -27683   -26947   -26865   -27469   -28661   -30230   -31842   -33103 
  -33836   -34009   -33594   -32792   -32043   -31703   -31861   -32273 
  -32547   -32339   -31218   -28987   -26063   -23156   -20862   -19645 
  -19799   -21172   -23102   -24943   -26264   -26676   -26019   -24381 
  -22003   -19446   -17425   -16468   -16825   -18393   -20707   -23190 
  -25435   -27156   -28264   -29047   -29818   -30784   -32238   -34298 
  -36744   -39129   -40849   -41528   -41180   -39758   -37106   -33340 
  -29025   -24808   -21076   -18076   -15988   -14746   -14301   -14816 
  -16471   -19280   -22940   -26967   -30966   -34439   -36821   -37768 
  -37050   -34659   -31114   -27098   -23130   -19683   -17242   -16148 
  -16345   -17447   -19025   -20765   -22674   -24962   -27653   -30611 
  -33600   -36163   -37778   -38084   -37006   -34668   -31330   -27550 
  -23998   -21163   -19396   -18875   -19500   -20933   -22690   -24368 
  -25731   -26666   -27253   -27611   -27845   -28167   -28760   -29663 
  -30777   -31908   -32945   -33799   -34338   -34516   -34248   -33365 
  -31869   -29959   -27911   -25956   -24193   -22636   -21251   -20074 
  -19215   -18697   -18543   -18898   -19912   -21681   -24175   -27014 
  -29656   -31881   -33532   -34304   -34091   -33000   -31256   -29247 
  -27410   -26149   -25648   -25650   -25691   -25394   -24443   -22601 
  -19834   -16432   -12943   -10006    -8228    -7970    -9332   -12168 
  -16051   -20542   -25269   -29952   -34684   -39488   -43987   -47798 
  -50568   -51957   -51903   -50548   -48153   -44899   -40821   -36209 
  -31525   -27008   -23016   -20089   -18361   -17626   -17648   -18122 
  -18817   -19589   -20403   -21586   -23444   -25824   -28301   -30311 
  -31490   -31788   -31241   -30156   -28989   -27984   -27199   -26489 
  -25563   -24148   -22098   -19539   -16756   -14299   -13026   -13432 
  -15543   -19174   -23629   -27996   -31787   -34705   -36564   -37461 
  -37642   -37678   -38276   -39479   -40695   -41211   -40387   -38068 
  -34711   -30950   -27346   -24312   -22006   -20472   -19793   -19766 
  -19796   -19627   -19556   -19714   -20109   -20935   -22256   -24038 
  -26229   -28499   -30572   -32336   -33604   -34362   -34865   -35257 
  -35464   -35256   -34298   -32224   -28817   -24158   -18603   -12815 
   -7774    -4352    -3052    -4027    -6961   -11178   -15916   -20391 
  -24092   -26917   -28713   -29397   -29251   -28489   -27306   -26269 
  -25909   -26258   -26869   -27280   -27476   -27631   -27938   -28696 
  -30119   -32286   -35032   -37908   -40589   -42755   -43978   -44205 
  -43599   -42211   -40273   -38138   -36065   -34366   -33308   -32834 
  -32510   -31725   -30208   -28071   -25417   -22431   -19562   -17325 
  -16011   -15592   -15965   -16962   -18175   -19245   -19909   -19943 
  -19537   -18947   -18283   -17959   -18409   -19684   -21659   -24088 
  -26715   -29412   -32031   -34491   -36837   -39158   -41553   -43858 
  -45725   -46997   -47478   -46834   -44882   -41592   -37092   -31756 
  -26183   -20968   -16413   -12710   -10080    -8533    -8009    -8608 
  -10357   -13093   -16659   -20939   -25670   -30337   -34526   -38082 
  -40786   -42307   -42422   -41071   -38380   -34595   -30061   -25455 
  -21564   -18837   -17386   -17115   -17734   -18873   -20194   -21408 
  -22249   -22486   -22081   -21286   -20487   -19985   -19870   -20221 
  -21168   -22512   -23870   -25034   -25747   -25770   -25259   -24534 
  -23789   -23072   -22296   -21490   -20992   -21249   -22410   -24310 
  -26935   -30219   -33791   -37380   -40786   -43753   -46232   -48213 
  -49650   -50561   -50823   -50276   -48936   -46797   -43899   -40381 
  -36404   -32277   -28374   -25026   -22507   -20864   -19965   -19626 
  -19500   -19165   -18311   -16802   -14659   -12151    -9840    -8378 
   -8405   -10293   -13792   -18414   -23739   -29174   -34038   -37804 
  -40009   -40315   -38666   -35247   -30424   -24761   -18889   -13458 
   -9126    -6343    -5224    -5830    -8251   -12270   -17331   -22964 
  -28902   -34838   -40486   -45738   -50583   -55005   -58619   -60658 
  -60566   -58112   -53288   -46614   -38979   -31110   -23507   -16714 
  -11238    -7337    -4999    -3931    -3739    -4220    -5059    -5629 
   -5641    -5377    -5170    -5348    -6354    -8529   -12064   -16976 
  -22870   -29084   -34892   -39614   -42882   -44513   -44340   -42534 
  -39556   -35999   -32541   -29577   -27191   -25336   -23797   -22365 
  -21026   -20025   -19762   -20574   -22802   -26536   -31387   -36957 
  -42780   -48157   -52492   -55183   -55741   -54186   -50835   -45959 
  -39883   -33212   -26678   -20596   -14854    -9459    -4746    -1143 
     972     1243     -656    -4808   -10848   -18245   -26383   -34329 
  -41366   -47228   -51536   -54012   -54747   -53829   -51537   -48366 
  -44568   -40311   -35835   -31293   -26925   -23122   -20359   -19106 
  -19384   -20702   -22314   -23386   -23504   -22928   -22006   -20906 
  -19974   -19437   -19126   -18929   -18797   -18505   -17867   -16964 
  -15961   -14771   -13397   -12413   -12622   -14536   -18022   -22235 
  -26223   -29227   -30707   -30705   -29685   -28062   -26077   -23707 
  -21269   -19568   -18642   -17888   -17224   -16812   -16803   -17302 
  -18229   -19768   -22203   -25483   -29393   -33631   -37816   -41513 
  -44301   -46068   -47048   -47324   -46890   -46090   -45177   -43983 
  -42334   -40135   -37247   -33785   -30094   -26327   -22743   -20065 
  -18727   -18414   -18611   -19136   -20304   -22478   -25578   -29330 
  -33436   -37585   -41727   -45866   -49600   -52396   -53805   -53204 
  -49979   -44128   -36185   -26789   -16958    -8066    -1183     3001 
    4261     2941     -523    -5549   -11227   -16899   -22133   -26325 
  -29162   -30782   -31341   -31004   -29701   -27102   -23337   -18927 
  -14391   -10388    -7483    -5911    -5840    -7511   -11092   -16210 
  -21983   -27623   -32355   -35401   -36591   -36177   -34557   -32564 
  -30959   -29755   -28678   -27780   -27233   -27079   -27216   -27510 
  -28127   -29492   -31668   -34207   -36666   -38697   -40158   -41300 
  -42219   -42840   -43286   -43498   -43109   -41791   -39411   -35977 
  -31699   -26997   -22449   -18859   -16835   -16352   -16976   -18087 
  -19138   -19737   -19450   -18265   -16792   -15800   -15862   -17150 
  -19531   -22721   -26138   -29153   -31596   -33544   -34852   -35324 
  -35010   -34215   -33408   -32890   -32487   -31982   -31541   -31263 
  -31024   -30886   -30896   -30757   -30196   -29257   -27962   -26238 
  -24243   -22127   -19688   -16771   -13559   -10466    -8071    -7029 
   -7879   -10944   -16173   -22955   -30370   -37547   -43607   -47842 
  -50075   -50433   -49046   -46163   -42152   -37509   -32868   -28691 
  -25131   -22169   -19700   -17739   -16563   -16440   -17317   -18904 
  -21006   -23521   -26169   -28721   -31128   -33129   -34406   -34906 
  -34522   -33134   -30750   -27507   -23882   -20321   -16876   -13589 
  -10656    -8120    -5807    -3802    -2471    -1939    -2280    -3885 
   -6882   -10851   -15495   -20767   -26576   -32849   -38983   -43768 
  -46930   -49410   -51684   -53339   -54083   -54063   -53318   -51711 
  -49401   -46669   -43598   -40339   -37154   -34088   -30973   -27955 
  -25500   -23832   -23022   -22904   -22846   -22400   -21613   -20686 
  -19824   -19184   -19098   -20023   -21984   -24567   -27209   -29403 
  -31043   -32332   -33276   -33704   -33531   -32880   -31950   -30792 
  -29382   -27724   -25915   -24192   -22670   -21317   -20167   -19224 
  -18557   -18522   -19322   -20884   -23132   -25713   -28069   -29841 
  -30827   -31010   -30545   -29485   -27936   -26130   -24308   -22721 
  -21533   -20873   -20804   -20974   -20934   -20645   -20304   -20159 
  -20470   -21338   -22708   -24495   -26568   -28769   -30997   -33157 
  -35145   -36848   -38061   -38650   -38705   -38323   -37504   -36306 
  -34788   -32935   -30701   -27978   -24713   -21007   -17082   -13128 
   -9386    -6312    -4365    -3677    -4145    -5647    -8050   -11223 
  -15044   -19346   -23984   -28802   -33521   -37848   -41474   -44055 
  -45515   -45963   -45407   -43976   -41987   -39816   -38010   -37100 
  -37268   -38488   -40709   -43613   -46624   -49319   -51447   -52849 
  -53516   -53500   -52975   -52123   -50800   -48755   -45891   -42148 
  -37436   -31629   -24814   -17435    -9965    -2895     3192     7809 
   10719    12077    12206    11268     9509     7148     4144      805 
   -2338    -5200    -7727    -9759   -11259   -12020   -12008   -11773 
  -12070   -13487   -16240   -20278   -25543   -31752   -38371   -44833 
  -50554   -55123   -58287   -59898   -60119   -59135   -56852   -53384 
  -49127   -44247   -38892   -33451   -28170   -23294   -19194   -15979 
  -13443   -11276    -9464    -8295    -7828    -7898    -8537    -9833 
  -11688   -13900   -16210   -18262   -19853   -21084   -22137   -23064 
  -23774   -24183   -24279   -24089   -23770   -23576   -23841   -24997 
  -27315   -30816   -35229   -39957   -44490   -48590   -52037   -54595 
  -56119   -56443   -55591   -54062   -52305   -50332   -48107   -45839 
  -43626   -41278   -38711   -36080   -33478   -30996   -28858   -27268 
  -26391   -26335   -26924   -27770   -28451   -28499   -27579   -25679 
  -23128   -20386   -17907   -16167   -15357   -15265   -15718   -16495 
  -17167   -17532   -17658   -17701   -17882   -18412   -19452   -20946 
  -22635   -24200   -25280   -25710   -25520   -24754   -23562   -22013 
  -20121   -18046   -15858   -13567   -11279    -9067    -7041    -5431 
   -4515    -4619    -5887    -8131   -11020   -14149   -17139   -19745 
  -21874   -23701   -25319   -26661   -27864   -28930   -29544   -29546 
  -28961   -27912   -26719   -25741   -25272   -25702   -27399   -30358 
  -34303   -38944   -43846   -48444   -52323   -55177   -56786   -57222 
  -56679   -55139   -52636   -49635   -46645   -43804   -41153   -38919 
  -37276   -36104   -35245   -34589   -33801   -32513   -30636   -28236 
  -25505   -22754   -20256   -18279   -17082   -16691   -16843   -17300 
  -17928   -18588   -19298   -20205   -21311   -22678   -24509   -26856 
  -29633   -32687   -35775   -38514   -40498   -41654   -42128   -42016 
  -41457   -40482   -39024   -37145   -34817   -31874   -28372   -24629 
  -20988   -17730   -15099   -13301   -12405   -12262   -12519   -12799 
  -12841   -12519   -11871   -11142   -10675   -10652   -10993   -11484 
  -11747   -11306   -10007    -8010    -5498    -2697        6     1985 
    2551     1356    -1613    -6052   -11264   -16580   -21551   -25847 
  -29288   -31792   -33477   -34726   -35854   -37000   -38236   -39610 
  -41243   -43260   -45786   -48942   -52566   -56351   -60166   -63829 
  -66981   -69232   -70247   -69812   -67821   -64300   -59629   -54430 
  -49165   -44100   -39303   -34622   -30069   -25867   -22081   -18792 
  -16270   -14697   -14021   -14179   -15048   -16310   -17779   -19352 
  -20817   -22127   -23056   -23080   -22227   -20826   -18835   -16406 
  -14135   -12432   -11497   -11620   -13126   -16171   -20352   -25057 
  -30045   -34933   -39100   -42260   -44277   -44932   -44074   -41673 
  -37871   -32880   -26896   -20328   -13771    -7959    -3589     -923 
     -13     -815    -2959    -6004    -9722   -14106   -19005   -23865 
  -28269   -32177   -35594   -38457   -40644   -42132   -43050   -43205 
  -42155   -39895   -36753   -32938   -28525   -23646   -18681   -14133 
  -10480    -8376    -8267    -9973   -13055   -16872   -20649   -23866 
  -26381   -28371   -29875   -30550   -30130   -28649   -26295   -23199 
  -19348   -14874   -10215    -5880    -2378     -217      236     -963 
   -3137    -5749    -8962   -12791   -17011   -21876   -27743   -34406 
  -41312   -47926   -53806   -58683   -62386   -64655   -65314   -64508 
  -62395   -59196   -55456   -51456   -47079   -42514   -38203   -34458 
  -31450   -29493   -29069   -30333   -33008   -36563   -40154   -43024 
  -44794   -45249   -44312   -42163   -39316   -36502   -34223   -32489 
  -31044   -29718   -28185   -25786   -22208   -17724   -12675    -7474 
   -2461     2300     6466     9640    11699    12436    11847    10334 
    8237     5580     2289    -1436    -5391    -9595   -14029   -18752 
  -23741   -28678   -33382   -37820   -41818   -45164   -47954   -50475 
  -52473   -53547   -53732   -52928   -50970   -48050   -44455   -40424 
  -36165   -31966   -28293   -25552   -24120   -24293   -25645   -27364 
  -29135   -30723   -31627   -31525   -30237   -27804   -24826   -22137 
  -20247   -19296   -19345   -20513   -22751   -25686   -28813   -31523 
  -33358   -34450   -35068   -35047   -34271   -33154   -32071   -30897 
  -29681   -28899   -28795   -29328   -30226   -31068   -31905   -32759 
  -33174   -33099   -32518   -30883   -28298   -25898   -24433   -23345 
  -22260   -22005   -22615   -22968   -22617   -21417   -19202   -16676 
  -14565   -12923   -11942   -12012   -13251   -15310   -17707   -20574 
  -24212   -28503   -33575   -39583   -45944   -52124   -58039   -63198 
  -66879   -68733   -68459   -65834   -61199   -55197   -48255   -40491 
  -32065   -23564   -15543    -8035     -904     5881    12267    18023 
   22962    27040    30088    31641    31325    29386    26392    22906 
   19473    16086    12474     8685     4526     -529    -6961   -15028 
  -24329   -34182   -44193   -53983   -63074   -70937   -77032   -81121 
  -83026   -82486   -79756   -75465   -70205   -64812   -60008   -55860 
  -52168   -48612   -44702   -40262   -35529   -30893   -26644   -23105 
  -20977   -20565   -21244   -22358   -23634   -24862   -25895   -26704 
  -27367   -28057   -28876   -29616   -29999   -29995   -29516   -28332 
  -26384   -24021   -21807   -19878   -18085   -16546   -15456   -14924 
  -15164   -16376   -18528   -21396   -24588   -27703   -30558   -33008 
  -34929   -36579   -38172   -39603   -41116   -42920   -44550   -45384 
  -44937   -42817   -38869   -33299   -26774   -19832   -12673    -5788 
     191     4877     7862     8897     8140     5648     1510    -3589 
   -9084   -14856   -20482   -25331   -29103   -31688   -33018   -33166 
  -32277   -30523   -28185   -25467   -22551   -19832   -17732   -16687 
  -17161   -19117   -22388   -27171   -33277   -40174   -47491   -54657 
  -61059   -66237   -69781   -71608   -71838   -70603   -67960   -63733 
  -57970   -51192   -43826   -35919   -27504   -19214   -12086    -6547 
   -2478      126     1530     2471     3618     5204     7005     8614 
    9830    10615    10696     9599     7300     4364     1225    -2166 
   -6126   -11036   -17092   -24177   -32043   -40344   -48695   -56656 
  -63663   -69252   -73093   -75034   -75109   -73398   -70251   -66112 
  -61182   -55869   -50799   -46248   -42364   -39374   -37231   -35615 
  -33999   -31788   -28818   -25321   -21535   -17637   -13711    -9911 
   -6450    -3230     -114     2793     5277     6933     7470     7045 
    5706     3240     -122    -3904    -8051   -12395   -16295   -19400 
  -21628   -22815   -23163   -22975   -22388   -21973   -22457   -24034 
  -26609   -30044   -33795   -37012   -39206   -40381   -40556   -39696 
  -37928   -35517   -32911   -30767   -29452   -28868   -29019   -29986 
  -31580   -33555   -35727   -37817   -39556   -40856   -41675   -41998 
  -41921   -41339   -39919   -37666   -34979   -32188   -29366   -26325 
  -23012   -19858   -17343   -15723   -15114   -15457   -16734   -19048 
  -22338   -26281   -30442   -34549   -38604   -42487   -45693   -47760 
  -48649   -48504   -47490   -46029   -44540   -43128   -41801   -40518 
  -39220   -37902   -36433   -34681   -32752   -30850   -29196   -27976 
  -27283   -27132   -27168   -26692   -25328   -23076   -19823   -15519 
  -10461    -5255     -715     2543     4324     4575     3295      635 
   -3150    -7744   -12764   -17828   -22576   -26766   -30370   -33494 
  -36175   -38296   -39735   -40440   -40265   -39104   -37234   -35001 
  -32517   -29963   -27444   -24819   -22138   -19427   -16503   -13628 
  -11383   -10083    -9945   -11182   -13803   -17660   -22389   -27340 
  -31857   -35621   -38479   -40165   -40462   -39418   -37336   -34654 
  -31808   -29145   -26816   -24784   -22951   -21381   -20295   -19750 
  -19772   -20569   -22188   -24448   -27373   -30954   -34824   -38643 
  -42002   -44336   -45469   -45373   -43937   -41415   -38214   -34626 
  -31031   -27762   -25006   -22871   -21412   -20698   -20741   -21438 
  -22620   -24025   -25382   -26507   -27294   -27697   -27656   -27074 
  -26028   -24799   -23665   -22821   -22422   -22509   -23037   -24140 
  -25964   -28159   -30275   -32246   -33853   -34700   -34811   -34399 
  -33466   -32147   -30670   -29053   -27332   -25660   -24094   -22488 
  -20551   -18117   -15175   -11718    -7855    -3919     -504     1811 
    2872     2691     1277    -1223    -4476    -8002   -11453   -14770 
  -17952   -21149   -24544   -28105   -31846   -35733   -39312   -42097 
  -44011   -45076   -45215   -44617   -43723   -42882   -42473   -42835 
  -43954   -45650   -47787   -50225   -52832   -55313   -57285   -58630 
  -59258   -58985   -57901   -56149   -53601   -50140   -45692   -40093 
  -33373   -25853   -17899    -9942    -2582     3790     8978    12618 
   14589    14979    13529    10134     5206     -831    -7596   -14547 
  -21494   -28760   -36174   -42935   -48686   -53339   -56616   -58549 
  -59273   -58630   -56501   -52879   -47915   -42041   -35715   -29398 
  -23602   -18570   -14339   -11005    -8586    -7074    -6511    -6700 
   -7497    -8887   -10362   -11352   -11942   -12517   -13329   -14362 
  -15345   -16110   -16654   -16957   -17120   -17263   -17262   -17082 
  -17118   -17736   -18875   -20332   -22084   -24086   -26150   -28224 
  -30230   -31920   -33247   -34219   -34790   -35212   -35823   -36715 
  -37831   -39163   -40718   -42358   -44076   -46036   -48112   -49966 
  -51309   -51760   -50892   -48566   -45129   -41111   -36842   -32595 
  -28645   -24954   -21313   -17703   -14233   -10898    -7666    -4718 
   -2421    -1197    -1331    -2720    -5061    -8067   -11340   -14499 
  -17377   -19959   -22310   -24555   -26983   -29839   -33153   -36902 
  -40957   -45090   -49140   -52859   -55732   -57249   -57190   -55549 
  -52394   -48011   -43013   -38109   -33763   -30194   -27499   -25662 
  -24622   -24293   -24576   -25477   -26963   -28771   -30518   -31845 
  -32414   -31941   -30195   -27070   -22731   -17674   -12482    -7493 
   -3049      209     1753     1571      -35    -2760    -6160    -9775 
  -13578   -17718   -22119   -26570   -30804   -34460   -37288   -39256 
  -40298   -40435   -39972   -39198   -38365   -37774   -37619   -37832 
  -38036   -37906   -37336   -36165   -34271   -31777   -28989   -26271 
  -24031   -22630   -22203   -22648   -23730   -25035   -26137   -26900 
  -27363   -27541   -27575   -27594   -27490   -27149   -26657   -26184 
  -25785   -25459   -25388   -25753   -26499   -27399   -28140   -28475 
  -28259   -27359   -25848   -23917   -21621   -19138   -16783   -14713 
