Origin Time       2025/01/13 21:19:00
Lat.              31.8
Long.             131.6
Depth. (km)       30
Mag.              6.9
Station Code      KMMH18
Station Lat.      33.0031
Station Long.     131.0071
Station Height(m) 854.038
Record Time       2025/01/13 21:19:56
Sampling Freq(Hz) 100Hz
Duration Time(s)  223
Dir.              3
Scale Factor      3923(gal)/8224838
Max. Acc. (gal)   3.396
Last Correction   2025/01/13 21:19:56
Memo.             
[...]
  -25893   -25874   -25806   -25654   -25402   -25065   -24683   -24324 
  -24030   -23799   -23627   -23517   -23436   -23348   -23278   -23256 
  -23267   -23288   -23309   -23332   -23380   -23490   -23668   -23873 
  -24071   -24287   -24572   -24945   -25381   -25844   -26307   -26754 
  -27167   -27530   -27828   -28058   -28209   -28289   -28318   -28321 
  -28309   -28286   -28251   -28235   -28279   -28367   -28443   -28456 
  -28393   -28291   -28193   -28101   -27997   -27882   -27784   -27716 
  -27665   -27598   -27504   -27403   -27324   -27291   -27306   -27352 
  -27407   -27452   -27457   -27417   -27357   -27288   -27194   -27075 
  -26946   -26813   -26682   -26542   -26391   -26233   -26075   -25929 
  -25806   -25718   -25671   -25664   -25679   -25694   -25704   -25709 
  -25716   -25751   -25844   -25978   -26088   -26140   -26172   -26233 
  -26331   -26477   -26676   -26902   -27120   -27309   -27475   -27634 
  -27783   -27922   -28065   -28202   -28331   -28462   -28614   -28776 
  -28899   -28918   -28829   -28702   -28593   -28491   -28362   -28186 
  -27974   -27745   -27518   -27322   -27159   -26981   -26747   -26468 
  -26204   -26002   -25856   -25740   -25639   -25536   -25435   -25367 
  -25357   -25405   -25465   -25477   -25451   -25447   -25513   -25655 
  -25843   -26049   -26225   -26333   -26411   -26496   -26563   -26578 
  -26526   -26424   -26310   -26215   -26152   -26123   -26127   -26142 
  -26152   -26169   -26190   -26185   -26160   -26119   -26063   -25988 
  -25907   -25848   -25814   -25755   -25613   -25386   -25135   -24929 
  -24779   -24675   -24622   -24628   -24657   -24696   -24764   -24854 
  -24937   -24988   -25010   -25047   -25139   -25284   -25477   -25720 
  -25998   -26307   -26638   -26948   -27166   -27251   -27247   -27237 
  -27251   -27271   -27283   -27271   -27221   -27132   -27009   -26865 
  -26705   -26519   -26308   -26111   -25971   -25891   -25843   -25807 
  -25786   -25753   -25686   -25560   -25362   -25110   -24844   -24591 
  -24372   -24216   -24115   -24043   -23981   -23907   -23809   -23692 
  -23554   -23392   -23226   -23094   -23014   -22979   -22964   -22944 
  -22897   -22808   -22689   -22588   -22530   -22511   -22538   -22639 
  -22823   -23068   -23376   -23753   -24171   -24602   -25014   -25386 
  -25713   -25999   -26284   -26589   -26883   -27151   -27407   -27665 
  -27934   -28221   -28512   -28784   -29010   -29155   -29249   -29355 
  -29517   -29725   -29945   -30141   -30292   -30404   -30478   -30516 
  -30504   -30422   -30276   -30111   -29959   -29814   -29651   -29434 
  -29157   -28825   -28441   -28028   -27621   -27263   -26986   -26786 
  -26639   -26534   -26468   -26428   -26407   -26384   -26339   -26284 
  -26258   -26265   -26283   -26291   -26283   -26275   -26283   -26312 
  -26365   -26411   -26399   -26322   -26223   -26140   -26103   -26145 
  -26250   -26372   -26478   -26590   -26746   -26939   -27126   -27302 
  -27472   -27631   -27793   -27976   -28152   -28283   -28355   -28386 
  -28422   -28502   -28586   -28610   -28564   -28483   -28421   -28395 
  -28381   -28358   -28325   -28274   -28181   -28036   -27854   -27649 
  -27475   -27371   -27294   -27190   -27074   -26963   -26873   -26813 
  -26778   -26743   -26690   -26620   -26550   -26484   -26426   -26389 
  -26395   -26439   -26496   -26541   -26558   -26530   -26450   -26329 
  -26180   -26037   -25906   -25802   -25744   -25694   -25610   -25494 
  -25363   -25253   -25182   -25138   -25096   -25043   -24989   -24973 
  -25033   -25154   -25277   -25342   -25343   -25324   -25331   -25377 
  -25444   -25488   -25479   -25446   -25435   -25477   -25559   -25655 
  -25744   -25818   -25879   -25934   -25992   -26059   -26137   -26203 
  -26234   -26244   -26249   -26256   -26269   -26271   -26241   -26158 
  -26030   -25902   -25818   -25787   -25803   -25832   -25829   -25753 
  -25590   -25355   -25100   -24873   -24683   -24518   -24399   -24341 
  -24368   -24468   -24572   -24633   -24657   -24678   -24740   -24865 
  -25047   -25272   -25515   -25767   -26028   -26281   -26508   -26694 
  -26824   -26875   -26846   -26757   -26636   -26523   -26453   -26422 
  -26422   -26445   -26464   -26461   -26462   -26482   -26519   -26565 
  -26590   -26566   -26512   -26478   -26470   -26457   -26416   -26350 
  -26285   -26280   -26347   -26435   -26473   -26419   -26272   -26080 
  -25899   -25743   -25587   -25398   -25158   -24880   -24622   -24437 
  -24333   -24286   -24258   -24236   -24248   -24304   -24393   -24497 
  -24598   -24690   -24754   -24776   -24752   -24686   -24580   -24452 
  -24331   -24258   -24259   -24332   -24472   -24657   -24838   -24996 
  -25145   -25301   -25488   -25714   -25951   -26157   -26316   -26419 
  -26465   -26488   -26522   -26574   -26647   -26742   -26854   -26991 
  -27160   -27338   -27495   -27625   -27749   -27903   -28084   -28255 
  -28390   -28499   -28617   -28779   -28991   -29215   -29401   -29515 
  -29563   -29586   -29606   -29633   -29668   -29685   -29635   -29511 
  -29334   -29128   -28923   -28722   -28502   -28255   -28016   -27818 
  -27654   -27499   -27368   -27282   -27245   -27237   -27221   -27163 
  -27055   -26900   -26719   -26543   -26406   -26308   -26215   -26107 
  -25991   -25875   -25775   -25717   -25722   -25771   -25834   -25909 
  -26011   -26153   -26325   -26505   -26678   -26827   -26940   -27040 
  -27156   -27272   -27352   -27391   -27417   -27452   -27504   -27576 
  -27648   -27672   -27621   -27492   -27322   -27175   -27097   -27091 
  -27129   -27186   -27263   -27351   -27411   -27417   -27367   -27271 
  -27143   -27004   -26873   -26752   -26650   -26580   -26536   -26493 
  -26453   -26434   -26446   -26505   -26601   -26712   -26825   -26932 
  -27031   -27113   -27168   -27179   -27117   -26974   -26782   -26582 
  -26393   -26219   -26059   -25901   -25744   -25601   -25474   -25357 
  -25230   -25077   -24907   -24765   -24699   -24725   -24804   -24906 
  -25015   -25139   -25300   -25523   -25793   -26068   -26329   -26569 
  -26809   -27081   -27371   -27646   -27888   -28096   -28278   -28421 
  -28501   -28509   -28453   -28339   -28185   -28019   -27842   -27646 
  -27417   -27157   -26889   -26620   -26360   -26123   -25901   -25697 
  -25528   -25373   -25223   -25101   -25019   -24976   -24970   -24989 
  -25029   -25093   -25193   -25330   -25498   -25679   -25837   -25945 
  -26001   -26019   -26032   -26059   -26102   -26144   -26168   -26157 
  -26118   -26088   -26086   -26088   -26064   -25998   -25898   -25798 
  -25731   -25722   -25770   -25813   -25786   -25654   -25420   -25141 
  -24883   -24660   -24452   -24254   -24086   -24005   -24052   -24219 
  -24471   -24783   -25122   -25462   -25813   -26187   -26584   -27000 
  -27421   -27807   -28135   -28413   -28667   -28919   -29173   -29420 
  -29650   -29839   -29978   -30061   -30111   -30164   -30226   -30280 
  -30298   -30268   -30188   -30028   -29758   -29400   -28992   -28555 
  -28085   -27571   -27008   -26401   -25774   -25150   -24534   -23923 
  -23305   -22686   -22111   -21618   -21209   -20891   -20660   -20493 
  -20370   -20282   -20229   -20185   -20106   -19990   -19866   -19782 
  -19772   -19838   -19975   -20183   -20439   -20718   -21045   -21435 
  -21891   -22407   -22955   -23531   -24119   -24675   -25203   -25735 
  -26266   -26779   -27245   -27633   -27930   -28158   -28336   -28490 
  -28637   -28764   -28865   -28960   -29052   -29112   -29128   -29118 
  -29107   -29104   -29124   -29200   -29308   -29400   -29462   -29513 
  -29560   -29585   -29548   -29421   -29184   -28854   -28480   -28105 
  -27773   -27503   -27276   -27076   -26905   -26751   -26604   -26458 
  -26314   -26183   -26084   -26013   -25945   -25866   -25776   -25695 
  -25620   -25539   -25458   -25377   -25294   -25222   -25164   -25118 
  -25084   -25077   -25128   -25258   -25466   -25739   -26053   -26392 
  -26742   -27089   -27422   -27727   -27990   -28202   -28367   -28494 
  -28602   -28709   -28806   -28854   -28837   -28771   -28669   -28552 
  -28420   -28240   -28004   -27746   -27498   -27268   -27037   -26784 
  -26509   -26238   -25999   -25813   -25670   -25533   -25378   -25203 
  -25014   -24810   -24606   -24420   -24239   -24062   -23896   -23745 
  -23611   -23514   -23487   -23556   -23727   -23989   -24314   -24680 
  -25076   -25478   -25870   -26265   -26674   -27085   -27495   -27919 
  -28352   -28765   -29123   -29398   -29587   -29702   -29739   -29694 
  -29600   -29494   -29403   -29336   -29280   -29204   -29081   -28904 
  -28701   -28498   -28294   -28063   -27789   -27488   -27191   -26932 
  -26748   -26616   -26484   -26347   -26221   -26113   -26025   -25940 
  -25847   -25759   -25683   -25631   -25610   -25618   -25658   -25722 
  -25803   -25901   -26002   -26076   -26080   -25992   -25837   -25656 
  -25474   -25308   -25178   -25080   -24991   -24891   -24775   -24657 
  -24552   -24468   -24420   -24425   -24490   -24592   -24706   -24822 
  -24953   -25097   -25251   -25417   -25591   -25760   -25917   -26057 
  -26192   -26325   -26427   -26488   -26527   -26562   -26590   -26601 
  -26605   -26613   -26642   -26701   -26793   -26917   -27052   -27155 
  -27190   -27164   -27097   -27000   -26881   -26739   -26585   -26433 
  -26281   -26131   -25999   -25893   -25809   -25739   -25658   -25547 
  -25421   -25296   -25196   -25145   -25130   -25137   -25153   -25155 
  -25119   -25050   -24965   -24879   -24799   -24738   -24687   -24644 
  -24634   -24684   -24784   -24896   -24996   -25093   -25215   -25389 
  -25600   -25805   -25974   -26094   -26153   -26158   -26119   -26053 
  -25974   -25878   -25763   -25652   -25581   -25562   -25586   -25636 
  -25693   -25756   -25834   -25924   -26007   -26077   -26119   -26145 
  -26179   -26223   -26283   -26368   -26461   -26554   -26669   -26804 
  -26941   -27040   -27070   -27033   -26935   -26798   -26666   -26561 
  -26477   -26397   -26319   -26261   -26223   -26200   -26195   -26187 
  -26141   -26071   -25987   -25897   -25834   -25826   -25849   -25867 
  -25871   -25872   -25878   -25887   -25894   -25868   -25782   -25614 
  -25380   -25120   -24891   -24709   -24568   -24462   -24382   -24344 
  -24381   -24479   -24598   -24710   -24802   -24873   -24938   -25010 
  -25084   -25172   -25297   -25473   -25698   -25960   -26257   -26584 
  -26909   -27211   -27472   -27680   -27858   -28028   -28185   -28328 
  -28449   -28540   -28617   -28684   -28730   -28760   -28784   -28787 
  -28765   -28736   -28715   -28684   -28610   -28498   -28360   -28206 
  -28046   -27876   -27685   -27481   -27280   -27093   -26959   -26900 
  -26889   -26890   -26866   -26802   -26730   -26692   -26719   -26786 
  -26851   -26890   -26902   -26904   -26914   -26920   -26910   -26897 
  -26866   -26790   -26671   -26524   -26334   -26100   -25866   -25660 
  -25475   -25289   -25095   -24896   -24719   -24594   -24532   -24541 
  -24614   -24730   -24885   -25084   -25317   -25581   -25859   -26119 
  -26345   -26543   -26709   -26823   -26887   -26910   -26901   -26865 
  -26796   -26684   -26542   -26380   -26226   -26111   -26042   -26010 
  -25998   -25987   -25979   -25986   -26044   -26176   -26369   -26588 
  -26798   -26973   -27108   -27228   -27336   -27423   -27476   -27488 
  -27461   -27402   -27325   -27230   -27110   -26971   -26838   -26725 
  -26655   -26627   -26601   -26554   -26485   -26403   -26320   -26250 
  -26202   -26163   -26121   -26068   -26006   -25956   -25925   -25922 
  -25967   -26041   -26121   -26222   -26354   -26508   -26662   -26794 
  -26904   -26987   -27059   -27126   -27191   -27255   -27298   -27326 
  -27363   -27410   -27487   -27599   -27737   -27897   -28073   -28259 
  -28456   -28633   -28759   -28840   -28883   -28914   -28968   -29049 
  -29130   -29203   -29276   -29347   -29401   -29420   -29384   -29288 
  -29131   -28910   -28622   -28289   -27945   -27618   -27319   -27048 
  -26794   -26558   -26337   -26122   -25890   -25621   -25312   -24965 
  -24610   -24297   -24055   -23895   -23811   -23776   -23769   -23787 
  -23819   -23874   -23965   -24092   -24250   -24425   -24610   -24803 
  -24995   -25184   -25378   -25587   -25812   -26041   -26264   -26481 
  -26693   -26887   -27040   -27151   -27234   -27278   -27248   -27156 
  -27021   -26856   -26677   -26469   -26221   -25961   -25720   -25496 
  -25281   -25066   -24837   -24605   -24383   -24174   -23990   -23822 
  -23642   -23476   -23355   -23274   -23244   -23282   -23396   -23592 
  -23888   -24294   -24802   -25382   -25996   -26613   -27189   -27719 
  -28246   -28790   -29362   -29938   -30483   -30986   -31430   -31793 
  -32078   -32250   -32285   -32229   -32116   -31927   -31658   -31313 
  -30892   -30415   -29913   -29417   -28964   -28553   -28148   -27724 
  -27274   -26806   -26352   -25938   -25558   -25213   -24954   -24799 
  -24737   -24771   -24884   -25053   -25254   -25451   -25604   -25689 
  -25714   -25699   -25632   -25490   -25299   -25097   -24875   -24618 
  -24359   -24101   -23835   -23568   -23280   -22952   -22601   -22234 
  -21867   -21535   -21249   -21046   -20970   -21034   -21242   -21555 
  -21921   -22322   -22750   -23201   -23679   -24183   -24702   -25223 
  -25748   -26306   -26913   -27557   -28233   -28933   -29627   -30295 
  -30932   -31529   -32076   -32557   -32942   -33223   -33408   -33507 
  -33524   -33462   -33311   -33069   -32729   -32289   -31776   -31212 
  -30609   -29991   -29355   -28702   -28044   -27398   -26771   -26152 
  -25529   -24925   -24344   -23784   -23241   -22715   -22222   -21794 
  -21443   -21178   -20995   -20872   -20785   -20725   -20699   -20714 
  -20768   -20868   -21031   -21276   -21606   -22007   -22459   -22970 
  -23553   -24186   -24835   -25474   -26082   -26639   -27129   -27552 
  -27926   -28266   -28602   -28949   -29300   -29633   -29913   -30123 
  -30277   -30396   -30505   -30603   -30666   -30701   -30716   -30707 
  -30658   -30553   -30376   -30129   -29817   -29458   -29073   -28679 
  -28298   -27953   -27656   -27425   -27255   -27122   -27012   -26897 
  -26754   -26582   -26397   -26206   -26010   -25829   -25689   -25587 
  -25497   -25401   -25290   -25186   -25122   -25072   -25012   -24956 
  -24884   -24783   -24667   -24538   -24394   -24220   -24003   -23757 
  -23484   -23178   -22871   -22609   -22419   -22296   -22222   -22181 
  -22179   -22229   -22342   -22526   -22785   -23124   -23537   -24009 
  -24538   -25112   -25704   -26295   -26883   -27454   -27978   -28428 
  -28798   -29101   -29376   -29647   -29921   -30180   -30402   -30580 
  -30713   -30800   -30852   -30875   -30852   -30777   -30649   -30468 
  -30233   -29937   -29570   -29158   -28737   -28314   -27877   -27419 
  -26951   -26492   -26053   -25616   -25161   -24694   -24224   -23770 
  -23360   -23014   -22747   -22574   -22501   -22512   -22599   -22754 
  -22962   -23207   -23481   -23778   -24094   -24414   -24725   -25014 
  -25280   -25537   -25817   -26131   -26460   -26757   -26979   -27113 
  -27162   -27156   -27137   -27112   -27072   -27017   -26928   -26806 
  -26665   -26497   -26308   -26113   -25909   -25706   -25521   -25359 
  -25230   -25157   -25154   -25212   -25324   -25501   -25751   -26072 
  -26460   -26901   -27407   -27962   -28510   -29027   -29513   -29957 
  -30334   -30619   -30823   -30966   -31050   -31099   -31136   -31158 
  -31164   -31149   -31106   -31023   -30886   -30693   -30441   -30152 
  -29856   -29551   -29245   -28939   -28618   -28270   -27901   -27527 
  -27157   -26801   -26451   -26082   -25678   -25255   -24854   -24510 
  -24214   -23946   -23712   -23514   -23350   -23226   -23137   -23068 
  -23001   -22928   -22837   -22736   -22648   -22581   -22536   -22516 
  -22505   -22505   -22511   -22500   -22485   -22477   -22458   -22419 
  -22376   -22333   -22288   -22250   -22207   -22160   -22135   -22158 
  -22235   -22387   -22621   -22939   -23287   -23634   -24043   -24525 
  -25035   -25594   -26187   -26755   -27294   -27803   -28264   -28665 
  -29022   -29346   -29608   -29818   -30030   -30248   -30450   -30642 
  -30815   -30939   -31009   -31027   -30987   -30900   -30759   -30553 
  -30296   -30015   -29725   -29432   -29131   -28800   -28433   -28026 
  -27589   -27151   -26721   -26316   -25963   -25652   -25365   -25135 
  -24981   -24853   -24763   -24760   -24802   -24858   -24956   -25074 
  -25215   -25382   -25550   -25714   -25879   -26021   -26133   -26223 
  -26299   -26364   -26426   -26504   -26601   -26704   -26789   -26833 
  -26825   -26777   -26721   -26689   -26689   -26724   -26779   -26843 
  -26908   -26966   -27021   -27087   -27162   -27226   -27270   -27276 
  -27237   -27152   -27028   -26890   -26762   -26642   -26522   -26385 
  -26214   -25996   -25745   -25481   -25215   -24943   -24657   -24344 
  -24016   -23699   -23431   -23255   -23176   -23175   -23217   -23279 
  -23364   -23488   -23657   -23866   -24113   -24382   -24652   -24912 
  -25166   -25404   -25612   -25794   -25952   -26076   -26165   -26222 
  -26253   -26275   -26310   -26357   -26404   -26457   -26509   -26565 
  -26638   -26732   -26846   -26982   -27148   -27352   -27591   -27858 
  -28146   -28440   -28715   -28960   -29173   -29369   -29569   -29799 
  -30068   -30350   -30619   -30858   -31059   -31221   -31340   -31406 
  -31413   -31361   -31260   -31110   -30909   -30658   -30366   -30036 
  -29674   -29300   -28925   -28545   -28159   -27761   -27345   -26914 
  -26487   -26073   -25690   -25342   -25042   -24813   -24663   -24568 
  -24502   -24440   -24367   -24283   -24196   -24105   -24023   -23962 
  -23920   -23890   -23865   -23827   -23780   -23743   -23731   -23747 
  -23792   -23866   -23955   -24034   -24102   -24169   -24247   -24360 
  -24511   -24687   -24895   -25150   -25438   -25737   -26059   -26399 
  -26738   -27083   -27460   -27853   -28233   -28563   -28830   -29050 
  -29216   -29322   -29385   -29415   -29405   -29361   -29282   -29166 
  -29025   -28864   -28691   -28513   -28325   -28121   -27892   -27649 
  -27400   -27132   -26832   -26505   -26154   -25801   -25465   -25162 
  -24914   -24706   -24513   -24340   -24193   -24067   -23973   -23905 
  -23835   -23755   -23699   -23696   -23728   -23774   -23851   -23962 
  -24086   -24232   -24387   -24529   -24668   -24822   -24999   -25205 
  -25459   -25752   -26065   -26396   -26728   -27045   -27352   -27641 
  -27924   -28208   -28471   -28705   -28904   -29043   -29131   -29188 
  -29205   -29191   -29166   -29135   -29100   -29076   -29072   -29089 
  -29112   -29108   -29060   -28960   -28811   -28615   -28363   -28046 
  -27661   -27233   -26805   -26400   -26015   -25641   -25265   -24888 
  -24525   -24189   -23904   -23673   -23471   -23286   -23137   -23040 
  -22994   -22964   -22933   -22923   -22936   -22977   -23058   -23170 
  -23301   -23453   -23602   -23739   -23872   -23992   -24104   -24228 
  -24364   -24518   -24700   -24902   -25105   -25299   -25471   -25635 
  -25797   -25959   -26121   -26269   -26406   -26550   -26713   -26896 
  -27099   -27322   -27557   -27799   -28028   -28236   -28436   -28641 
  -28841   -29025   -29192   -29338   -29474   -29613   -29740   -29841 
