Origin Time       2025/01/13 21:19:00
Lat.              31.8
Long.             131.6
Depth. (km)       30
Mag.              6.9
Station Code      KMMH08
Station Lat.      32.6501
Station Long.     131.0251
Station Height(m) 450
Record Time       2025/01/13 21:19:50
Sampling Freq(Hz) 100Hz
Duration Time(s)  183
Dir.              5
Scale Factor      7845(gal)/8223790
Max. Acc. (gal)   19.403
Last Correction   2025/01/13 21:19:50
Memo.             
[...]
    8896     9267     9475     9572     9548     9435     9366     9377 
    9390     9408     9437     9362     9089     8711     8378     8187 
    8217     8421     8599     8614     8438     8050     7503     6972 
    6615     6473     6508     6646     6768     6770     6666     6566 
    6524     6505     6484     6469     6469     6532     6723     6957 
    7101     7126     7028     6783     6507     6374     6411     6532 
    6720     7028     7489     8064     8680     9232     9601     9768 
    9828     9838     9829     9830     9805     9640     9275     8761 
    8220     7731     7292     6925     6673     6508     6427     6532 
    6855     7242     7565     7800     7912     7882     7769     7615 
    7412     7211     7092     7045     7013     7015     7042     7024 
    6990     7047     7184     7291     7375     7538     7735     7858 
    7920     7866     7593     7209     6913     6723     6577     6478 
    6413     6355     6351     6461     6658     6944     7337     7771 
    8208     8733     9373     9958    10334    10463    10287     9774 
    9138     8649     8355     8159     7983     7722     7304     6839 
    6475     6255     6193     6309     6540     6795     7051     7244 
    7248     7095     6893     6631     6342     6176     6215     6369 
    6485     6535     6615     6787     7095     7560     8097     8602 
    9053     9408     9595     9648     9683     9749     9774     9645 
    9288     8707     8081     7642     7454     7441     7534     7654 
    7738     7812     7893     7944     7969     8001     8079     8216 
    8359     8429     8395     8247     7939     7500     7049     6674 
    6374     6114     5904     5798     5782     5822     5956     6172 
    6366     6509     6674     6862     7032     7241     7522     7771 
    7925     8004     8019     8035     8133     8266     8365     8500 
    8699     8891     9043     9143     9155     9078     8926     8712 
    8484     8240     7962     7726     7597     7530     7479     7462 
    7454     7381     7288     7261     7230     7092     6886     6732 
    6754     6990     7327     7580     7642     7570     7469     7366 
    7294     7291     7288     7186     6979     6727     6471     6238 
    6072     6006     6007     6012     6022     6123     6396     6791 
    7199     7584     7978     8351     8618     8735     8742     8715 
    8676     8646     8694     8792     8833     8804     8742     8630 
    8515     8463     8471     8526     8611     8711     8834     8926 
    8908     8770     8521     8233     8055     7983     7931     7901 
    7871     7746     7519     7253     6964     6660     6405     6286 
    6289     6277     6174     5985     5737     5560     5593     5825 
    6187     6637     7090     7450     7686     7831     7954     8117 
    8311     8464     8479     8274     7894     7516     7242     7083 
    7094     7290     7595     7977     8407     8779     9039     9243 
    9451     9694     9940    10061     9941     9567     9015     8424 
    7935     7628     7504     7491     7481     7442     7469     7689 
    8100     8523     8775     8816     8708     8469     8104     7676 
    7233     6752     6235     5749     5385     5202     5182     5235 
    5323     5472     5645     5773     5971     6389     6936     7410 
    7728     7912     8033     8121     8110     7985     7862     7855 
    7992     8251     8580     8877     9054     9132     9225     9458 
    9838    10203    10381    10390    10338    10218     9958     9536 
    8997     8451     7966     7500     7022     6635     6442     6413 
    6455     6461     6328     6061     5752     5458     5240     5213 
    5362     5526     5632     5729     5836     5921     6015     6201 
    6528     6979     7508     8044     8475     8754     8931     9008 
    8908     8634     8256     7859     7608     7622     7765     7835 
    7843     7877     7928     7985     8017     7901     7609     7321 
    7215     7246     7242     7165     7067     6945     6864     6918 
    7072     7244     7435     7665     7931     8236     8583     8995 
    9433     9736     9845     9860     9724     9298     8707     8175 
    7708     7252     6849     6500     6187     6021     6130     6546 
    7186     7824     8236     8437     8611     8914     9308     9579 
    9553     9239     8681     7947     7240     6701     6242     5805 
    5459     5238     5132     5154     5301     5529     5767     6006 
    6295     6606     6882     7133     7380     7599     7770     7913 
    8041     8155     8309     8588     8980     9431     9923    10388 
   10714    10845    10743    10392     9886     9371     8923     8510 
    8052     7500     6936     6500     6193     5927     5701     5547 
    5505     5670     6062     6581     7150     7730     8221     8557 
    8749     8829     8834     8822     8835     8835     8785     8725 
    8699     8658     8533     8298     7958     7549     7141     6809 
    6582     6405     6164     5741     5111     4359     3645     3130 
    2941     3098     3492     4023     4688     5468     6301     7157 
    7955     8554     8907     9108     9325     9657    10044    10397 
   10652    10677    10434    10075     9741     9563     9675    10037 
   10476    10875    11095    11022    10728    10323     9861     9413 
    8961     8426     7816     7226     6805     6682     6778     6902 
    7014     7106     7064     6876     6669     6485     6268     6087 
    6151     6454     6735     6801     6612     6219     5826     5672 
    5836     6228     6660     6955     7087     7150     7203     7254 
    7306     7303     7169     6916     6635     6427     6382     6563 
    6983     7547     8059     8360     8467     8502     8581     8769 
    9080     9522    10027    10392    10449    10214     9877     9710 
    9768     9815     9691     9409     8918     8251     7635     7140 
    6687     6338     6064     5692     5255     4904     4731     4853 
    5273     5784     6219     6547     6750     6772     6601     6330 
    6138     6129     6268     6496     6809     7160     7420     7516 
    7512     7508     7623     7987     8545     9028     9259     9221 
    8923     8495     8098     7677     7196     6855     6785     6925 
    7246     7690     8031     8148     8183     8294     8532     8858 
    9113     9111     8796     8303     7873     7740     8041     8637 
    9124     9229     8970     8456     7859     7380     7119     7092 
    7213     7326     7310     7102     6729     6305     5952     5834 
    6048     6473     6930     7276     7361     7234     7091     7045 
    7206     7665     8237     8623     8718     8569     8309     8151 
    8081     7871     7491     7064     6651     6411     6538     6960 
    7477     7905     8079     8002     7821     7684     7716     7813 
    7700     7375     6979     6497     6015     5759     5842     6285 
    7025     7819     8456     8961     9452    10000    10642    11292 
   11782    11975    11794    11219    10262     9035     7840     6937 
    6340     6014     5938     6023     6195     6378     6434     6409 
    6559     6970     7457     7759     7762     7561     7252     6845 
    6423     6106     5995     6156     6505     6859     7106     7244 
    7341     7476     7678     7923     8154     8314     8430     8534 
    8553     8442     8313     8294     8419     8658     8981     9351 
    9652     9786     9749     9477     8919     8294     7832     7508 
    7275     7168     7117     7055     7099     7299     7495     7607 
    7634     7488     7202     6999     6984     7018     6966     6866 
    6839     6974     7314     7736     8016     8125     8202     8344 
    8617     9040     9432     9576     9468     9171     8753     8415 
    8394     8738     9281     9813    10291    10775    11241    11605 
   11851    12001    12096    12159    12159    12086    11929    11581 
   10997    10343     9845     9585     9466     9381     9292     9084 
    8671     8216     7835     7419     7026     6851     6817     6816 
    6894     6957     6812     6416     5784     4935     3958     2937 
    1894      878        6     -568     -688     -329      372     1223 
    2016     2650     3133     3514     3905     4428     5027     5521 
    5724     5551     5138     4698     4338     4141     4176     4436 
    4896     5551     6346     7186     7952     8554     8964     9223 
    9458     9718     9868     9841     9782     9753     9663     9543 
    9486     9452     9441     9495     9564     9670     9913    10219 
   10462    10628    10692    10639    10579    10548    10444    10257 
   10064     9846     9558     9269     9013     8735     8433     8105 
    7646     6998     6208     5297     4251     3049     1695      317 
    -931    -2003    -2809    -3180    -3029    -2380    -1244      379 
    2401     4612     6799     8807    10490    11732    12552    13046 
   13247    13167    12927    12663    12418    12251    12201    12201 
   12260    12468    12765    13051    13331    13605    13830    13927 
   13733    13170    12378    11511    10643     9894     9406     9135 
    8895     8614     8320     7929     7331     6651     6102     5660 
    5224     4839     4492     4137     3959     4110     4455     4806 
    5020     4974     4696     4364     4164     4256     4720     5472 
    6349     7219     7944     8386     8552     8615     8722     8907 
    9169     9450     9626     9683     9686     9585     9309     8927 
    8549     8311     8361     8765     9464    10304    11122    11800 
   12271    12534    12656    12706    12735    12779    12796    12657 
   12349    11974    11504    10914    10312     9736     9185     8734 
    8433     8344     8537     8923     9329     9679     9926    10006 
    9940     9799     9551     9126     8586     7986     7264     6474 
    5711     4912     4063     3276     2542     1723      778     -190 
   -1088    -1894    -2632    -3283    -3759    -3935    -3662    -2964 
   -2066    -1096      -75      878     1787     2779     3744     4568 
    5400     6303     7130     7804     8367     8861     9324     9810 
   10372    10949    11426    11796    12083    12247    12302    12298 
   12239    12241    12384    12546    12630    12663    12688    12785 
   12922    12934    12756    12372    11695    10744     9670     8599 
    7643     6824     6076     5448     4957     4344     3420     2374 
    1463      773      321       35     -240     -554     -845    -1057 
   -1177    -1235    -1256    -1107     -598      228     1181     2224 
    3352     4487     5701     7155     8788    10415    11992    13508 
   14898    16179    17356    18296    18873    19020    18748    18241 
   17671    17112    16692    16475    16256    15897    15577    15481 
   15592    15889    16370    16769    16614    15738    14436    13028 
   11647    10378     9185     7846     6246     4546     3003     1822 
    1069      629      429      487      635      615      367       25 
    -220     -311     -375     -460     -533     -658     -838     -915 
    -746     -263      544     1575     2710     3865     4945     5956 
    7082     8424     9830    11118    12229    13143    13865    14524 
   15223    15820    16110    16146    15939    15286    14258    13242 
   12245    10980     9499     8121     7013     6237     5919     6077 
    6443     6754     6980     7111     7014     6648     6112     5402 
    4392     3140     1842      496     -999    -2562    -4052    -5467 
   -6802    -7836    -8284    -8087    -7330    -6141    -4779    -3476 
   -2238     -981      340     1669     2793     3564     4172     4897 
    5738     6554     7362     8266     9262    10303    11406    12653 
   14096    15626    17088    18497    19928    21321    22551    23566 
   24333    24678    24435    23749    22970    22297    21708    21145 
   20607    20042    19325    18428    17474    16546    15554    14418 
   13250    12181    11187    10243     9397     8638     7917     7156 
    6191     4938     3489     1914      236    -1433    -3059    -4671 
   -6069    -7040    -7649    -7950    -7854    -7330    -6367    -4941 
   -3207    -1429      207     1584     2705     3735     4850     6102 
    7387     8592     9784    11061    12367    13614    14781    15844 
   16726    17251    17313    17034    16557    15973    15481    15253 
   15268    15429    15573    15534    15323    14990    14509    13994 
   13579    13127    12464    11614    10663     9728     8910     8201 
    7582     6983     6192     5055     3638     2081      463    -1131 
   -2544    -3759    -4868    -5825    -6548    -7032    -7198    -6929 
   -6195    -5032    -3551    -1910     -247     1282     2569     3662 
    4587     5321     6027     6882     7780     8533     9171     9774 
   10319    10893    11635    12475    13208    13740    14135    14496 
   14887    15408    16144    17070    18131    19313    20556    21678 
   22496    22983    23147    22882    22071    20750    19116    17271 
   15160    12800    10358     7952     5616     3439     1607      162 
   -1043    -2037    -2705    -3136    -3550    -3898    -4054    -4110 
   -4137    -4118    -4097    -4047    -3906    -3777    -3742    -3694 
   -3491    -3028    -2231    -1152      187     1921     4117     6696 
    9563    12613    15685    18636    21354    23703    25548    26871 
   27706    27993    27637    26671    25243    23477    21455    19272 
   17050    14929    13051    11476    10130     8928     7906     7111 
    6498     6033     5688     5333     4803     4010     2967     1795 
     625     -506    -1590    -2627    -3603    -4463    -5152    -5598 
   -5688    -5420    -4961    -4509    -4097    -3569    -2764    -1680 
    -396     1004     2336     3385     4155     4833     5539     6322 
    7200     8027     8607     8985     9404    10015    10824    11785 
   12823    13810    14624    15205    15502    15468    15126    14532 
   13697    12627    11419    10204     9054     8017     7144     6323 
    5402     4463     3685     3114     2794     2867     3392     4217 
    5159     6157     7160     8101     8985     9832    10628    11353 
   11939    12255    12216    11857    11358    10894    10508    10237 
   10120    10138    10301    10675    11254    11977    12803    13640 
   14315    14658    14679    14558    14420    14296    14195    14027 
   13697    13220    12584    11767    10864     9980     9139     8333 
    7582     6909     6257     5567     4869     4185     3464     2701 
    1922     1093      226     -606    -1435    -2297    -3096    -3746 
   -4240    -4522    -4503    -4174    -3588    -2775    -1737     -500 
     891     2377     3821     5054     5965     6589     7048     7412 
    7730     8067     8340     8380     8197     7935     7655     7337 
    7017     6808     6758     6833     7032     7385     7919     8638 
    9483    10311    10999    11603    12268    12957    13478    13764 
   13838    13682    13367    13049    12769    12490    12243    12077 
   11946    11788    11650    11592    11546    11372    10956    10204 
    9123     7846     6511     5205     3994     2916     1957     1112 
     425      -76     -376     -399     -117      441     1264     2270 
    3337     4432     5481     6350     7087     7871     8748     9641 
   10539    11421    12143    12576    12781    12864    12903    13047 
   13401    13891    14476    15206    16016    16752    17304    17571 
   17531    17266    16821    16128    15122    13811    12268    10609 
    8986     7491     6161     5051     4113     3230     2411     1678 
    1026      530      270      255      461      827     1283     1800 
    2374     3060     3940     5024     6215     7384     8410     9167 
    9551     9595     9468     9255     8885     8413     8014     7703 
    7408     7175     7003     6774     6463     6204     6092     6154 
    6428     6941     7665     8545     9521    10521    11453    12214 
   12718    12916    12842    12631    12405    12121    11708    11165 
   10550     9992     9616     9367     9111     8796     8472     8199 
    8051     8113     8375     8769     9282     9821    10243    10557 
   10737    10608    10099     9296     8270     7105     5925     4785 
    3720     2776     1980     1381     1007      811      824     1148 
    1749     2489     3341     4355     5485     6589     7542     8244 
    8613     8646     8490     8324     8248     8321     8572     8928 
    9301     9668     9990    10222    10328    10233     9931     9539 
    9088     8556     7969     7392     6909     6544     6220     5818 
    5240     4517     3816     3294     3032     3049     3271     3620 
    4072     4544     4908     5092     5069     4858     4531     4175 
    3855     3585     3350     3200     3217     3415     3802     4406 
    5089     5655     6070     6331     6361     6264     6215     6214 
    6235     6296     6335     6304     6227     6189     6336     6717 
    7276     7943     8596     9142     9552     9782     9871     9998 
   10237    10470    10589    10578    10470    10345    10253    10189 
   10158    10168    10214    10243    10160     9960     9676     9323 
    8978     8725     8537     8405     8414     8623     8949     9275 
    9508     9555     9420     9211     9001     8868     8896     9058 
    9229     9308     9236     8988     8556     7996     7399     6814 
    6316     6015     5906     5944     6143     6428     6698     6986 
    7254     7415     7541     7770     8133     8631     9263     9985 
   10737    11493    12226    12874    13359    13667    13771    13591 
   13189    12726    12237    11684    11010    10110     8978     7771 
    6670     5872     5545     5656     6014     6457     6859     7149 
    7380     7627     7893     8133     8287     8328     8232     7911 
    7294     6462     5611     4881     4256     3673     3125     2627 
    2234     2101     2343     2924     3703     4514     5265     5953 
    6543     7048     7592     8128     8492     8714     8888     9042 
    9246     9513     9648     9409     8715     7666     6477     5420 
    4702     4337     4190     4113     4005     3796     3464     3055 
    2656     2303     1906     1399      877      479      302      433 
     908     1718     2897     4367     5919     7465     9069    10782 
   12545    14185    15550    16611    17436    18084    18574    18955 
   19302    19554    19597    19456    19168    18685    18015    17232 
   16379    15435    14323    12954    11348     9653     8025     6556 
    5351     4491     3871     3219     2342     1271      164     -868 
   -1818    -2683    -3354    -3719    -3805    -3707    -3450    -3034 
   -2488    -1840    -1108     -278      756     2049     3458     4807 
    6093     7410     8800    10212    11530    12606    13325    13644 
   13559    13147    12598    12058    11497    10854    10160     9462 
    8785     8202     7782     7537     7450     7481     7549     7566 
    7496     7317     6961     6378     5652     4897     4074     3144 
    2243     1509     1021      872     1096     1695     2702     4067 
    5605     7172     8706    10116    11329    12306    12989    13355 
