Origin Time       2025/01/13 21:19:00
Lat.              31.8
Long.             131.6
Depth. (km)       30
Mag.              6.9
Station Code      KMMH08
Station Lat.      32.6501
Station Long.     131.0251
Station Height(m) 347
Record Time       2025/01/13 21:19:50
Sampling Freq(Hz) 100Hz
Duration Time(s)  183
Dir.              3
Scale Factor      3923(gal)/8224838
Max. Acc. (gal)   4.344
Last Correction   2025/01/13 21:19:50
Memo.             
[...]
  -10679   -10203    -9761    -9423    -9135    -8959    -9065    -9456 
   -9929   -10257   -10476   -10713   -10775   -10451    -9946    -9524 
   -9248    -9167    -9238    -9373    -9645   -10087   -10543   -10825 
  -10779   -10457   -10122    -9840    -9439    -8842    -8176    -7713 
   -7717    -8264    -9130    -9869   -10195   -10214   -10210   -10362 
  -10611   -10827   -10991   -11075   -11049   -11032   -11071   -10970 
  -10570    -9936    -9255    -8820    -8974    -9798   -10957   -11989 
  -12515   -12303   -11500   -10559    -9741    -9062    -8530    -8139 
   -7943    -8033    -8291    -8467    -8506    -8513    -8521    -8533 
   -8596    -8770    -9153    -9795   -10467   -10771   -10557   -10017 
   -9429    -8966    -8626    -8348    -8109    -7844    -7503    -7210 
   -7071    -7009    -6995    -7176    -7578    -8020    -8409    -8885 
   -9558   -10261   -10654   -10647   -10566   -10612   -10531   -10169 
   -9803    -9664    -9699    -9894   -10327   -10912   -11383   -11639 
  -11919   -12487   -13161   -13405   -13051   -12517   -12186   -12205 
  -12522   -12711   -12366   -11643   -10944   -10443   -10135    -9948 
   -9863   -10011   -10478   -11217   -12075   -12746   -12985   -12811 
  -12370   -11799   -11236   -10837   -10746   -10979   -11460   -12108 
  -12816   -13354   -13497   -13304   -13003   -12699   -12383   -12069 
  -11821   -11688   -11595   -11416   -11075   -10492    -9741    -9104 
   -8592    -8019    -7522    -7311    -7335    -7485    -7738    -8198 
   -8916    -9659   -10206   -10624   -11144   -11927   -12787   -13240 
  -12980   -12096   -10944    -9826    -8837    -8074    -7684    -7662 
   -7893    -8279    -8770    -9351    -9933   -10353   -10565   -10628 
  -10530   -10246    -9895    -9666    -9697    -9990   -10408   -10806 
  -11059   -11005   -10608   -10057    -9594    -9425    -9670   -10193 
  -10632   -10588   -10027    -9355    -8802    -8309    -7824    -7250 
   -6575    -6056    -5983    -6392    -7109    -7954    -8787    -9450 
   -9871   -10026    -9842    -9398    -8924    -8565    -8351    -8113 
   -7781    -7616    -7662    -7736    -7878    -8000    -7817    -7349 
   -6940    -6821    -6797    -6608    -6238    -5763    -5316    -5146 
   -5421    -5977    -6417    -6590    -6744    -7176    -7913    -8731 
   -9450   -10034   -10428   -10593   -10544   -10247    -9672    -8908 
   -8124    -7479    -7114    -7188    -7750    -8581    -9316    -9790 
  -10089   -10320   -10511   -10674   -10789   -10709   -10307    -9576 
   -8596    -7680    -7184    -7048    -6998    -6966    -6983    -7087 
   -7306    -7547    -7604    -7326    -6785    -6214    -5811    -5591 
   -5514    -5730    -6405    -7350    -8154    -8575    -8654    -8611 
   -8660    -8919    -9352    -9771   -10150   -10741   -11641   -12636 
  -13537   -14195   -14422   -14314   -14200   -14203   -14185   -14045 
  -13828   -13633   -13562   -13716   -14081   -14424   -14423   -13969 
  -13312   -12788   -12467   -12209   -12021   -11975   -11877   -11414 
  -10585    -9653    -8818    -8225    -7912    -7655    -7222    -6592 
   -5829    -5038    -4363    -3846    -3370    -2805    -2235    -1902 
   -1894    -2131    -2556    -3136    -3723    -4059    -4105    -4201 
   -4650    -5454    -6521    -7757    -8884    -9485    -9499    -9393 
   -9520    -9844   -10353   -11192   -12399   -13738   -14781   -15422 
  -15944   -16328   -16368   -16260   -16185   -15915   -15294   -14542 
  -13995   -13755   -13714   -13760   -13840   -13980   -14179   -14295 
  -14288   -14328   -14455   -14426   -14075   -13575   -13134   -12671 
  -12024   -11196   -10188    -8969    -7739    -6797    -6192    -5919 
   -6097    -6710    -7534    -8294    -8750    -8826    -8660    -8347 
   -7917    -7580    -7511    -7719    -8214    -9001    -9976   -10899 
  -11577   -12091   -12549   -12819   -12874   -12910   -13012   -13151 
  -13238   -13092   -12712   -12256   -11715   -11032   -10380    -9967 
   -9752    -9506    -9111    -8760    -8649    -8667    -8667    -8689 
   -8769    -8800    -8737    -8634    -8415    -7921    -7264    -6759 
   -6502    -6390    -6394    -6446    -6427    -6416    -6440    -6346 
   -6157    -5984    -5795    -5643    -5674    -5867    -5960    -5764 
   -5427    -5134    -4923    -4877    -5090    -5551    -6095    -6524 
   -6858    -7256    -7774    -8330    -8838    -9371   -10071   -10859 
  -11506   -11943   -12286   -12640   -13055   -13518   -13899   -14044 
  -13834   -13269   -12537   -11808   -11079   -10389    -9817    -9290 
   -8689    -8112    -7773    -7609    -7354    -6941    -6620    -6706 
   -7188    -7720    -8095    -8378    -8700    -9154    -9649    -9922 
   -9904    -9830    -9861    -9913    -9861    -9693    -9472    -9267 
   -9093    -8924    -8691    -8375    -8100    -7940    -7882    -7939 
   -8128    -8465    -8893    -9309    -9776   -10392   -11005   -11325 
  -11236   -10953   -10798   -10858   -10945   -10867   -10654   -10471 
  -10355   -10277   -10346   -10623   -10917   -11049   -11052   -10979 
  -10810   -10523   -10076    -9452    -8685    -7792    -6820    -5996 
   -5532    -5378    -5374    -5417    -5471    -5591    -5786    -5953 
   -6004    -5910    -5672    -5306    -4882    -4630    -4784    -5263 
   -5761    -6124    -6370    -6490    -6535    -6621    -6744    -6852 
   -6964    -7092    -7179    -7277    -7572    -8040    -8552    -9016 
   -9335    -9598    -9964   -10438   -10933   -11358   -11755   -12256 
  -12870   -13427   -13710   -13643   -13319   -12988   -12835   -12731 
  -12515   -12253   -12145   -12359   -12696   -12810   -12665   -12360 
  -11978   -11610   -11307   -11107   -10925   -10651   -10362   -10147 
   -9987    -9879    -9774    -9603    -9389    -9170    -8945    -8730 
   -8611    -8627    -8696    -8806    -9117    -9679   -10262   -10592 
  -10601   -10385   -10018    -9616    -9336    -9130    -8864    -8588 
   -8394    -8338    -8448    -8594    -8580    -8424    -8361    -8561 
   -8976    -9455    -9887   -10231   -10515   -10827   -11271   -11780 
  -12137   -12266   -12336   -12511   -12733   -12857   -12896   -12966 
  -13080   -13158   -13138   -12911   -12401   -11672   -10766    -9710 
   -8689    -7925    -7453    -7102    -6675    -6122    -5571    -5215 
   -5081    -5036    -4976    -4827    -4571    -4342    -4272    -4352 
   -4530    -4772    -5125    -5680    -6415    -7307    -8403    -9695 
  -11090   -12514   -13914   -15217   -16286   -16964   -17240   -17271 
  -17109   -16714   -16085   -15294   -14582   -14102   -13733   -13405 
  -13143   -12911   -12715   -12569   -12413   -12214   -11994   -11668 
  -11103   -10412    -9869    -9543    -9300    -9093    -8953    -8861 
   -8847    -8961    -9135    -9294    -9435    -9540    -9578    -9532 
   -9445    -9452    -9647    -9972   -10281   -10459   -10523   -10513 
  -10368   -10029    -9514    -8842    -8043    -7195    -6392    -5752 
   -5387    -5244    -5135    -5012    -4943    -4909    -4858    -4754 
   -4598    -4450    -4367    -4388    -4599    -5015    -5536    -6029 
   -6446    -6809    -7118    -7362    -7550    -7716    -7911    -8133 
   -8343    -8522    -8684    -8854    -9065    -9382    -9832   -10305 
  -10683   -10924   -11016   -10984   -10841   -10606   -10378   -10200 
   -9981    -9670    -9328    -9034    -8780    -8496    -8195    -8017 
   -8101    -8449    -8953    -9463    -9819    -9946    -9926    -9865 
   -9767    -9618    -9481    -9427    -9482    -9686   -10075   -10527 
  -10855   -11002   -10976   -10800   -10579   -10430   -10323   -10188 
  -10014    -9860    -9838   -10031   -10400   -10809   -11130   -11303 
  -11308   -11175   -10948   -10660   -10365   -10138    -9996    -9886 
   -9794    -9769    -9790    -9818    -9918   -10146   -10427   -10708 
  -11040   -11367   -11529   -11514   -11425   -11325   -11183   -10924 
  -10594   -10303   -10046    -9811    -9676    -9714    -9861    -9981 
  -10018    -9994    -9883    -9632    -9306    -8980    -8630    -8310 
   -8128    -8060    -7979    -7812    -7603    -7443    -7404    -7491 
   -7588    -7587    -7531    -7476    -7416    -7445    -7678    -8056 
   -8394    -8565    -8599    -8610    -8722    -9020    -9451    -9856 
  -10152   -10359   -10551   -10763   -10944   -11016   -10893   -10521 
  -10022    -9549    -9067    -8461    -7778    -7142    -6623    -6272 
   -6110    -6091    -6188    -6401    -6714    -7052    -7295    -7425 
   -7507    -7596    -7761    -8040    -8334    -8549    -8726    -8930 
   -9127    -9231    -9205    -9080    -8923    -8765    -8564    -8352 
   -8266    -8348    -8471    -8546    -8623    -8658    -8499    -8149 
   -7767    -7472    -7257    -7064    -6878    -6727    -6629    -6586 
   -6585    -6650    -6781    -6879    -6864    -6799    -6795    -6878 
   -6987    -7117    -7298    -7574    -8004    -8490    -8845    -9028 
   -9026    -8776    -8380    -8028    -7828    -7861    -8113    -8525 
   -9115    -9859   -10602   -11253   -11848   -12428   -12953   -13410 
  -13833   -14180   -14393   -14484   -14431   -14142   -13633   -13045 
  -12486   -11956   -11392   -10767   -10222    -9957    -9950   -10000 
   -9972    -9819    -9551    -9277    -9136    -9126    -9154    -9208 
   -9325    -9506    -9729   -10011   -10384   -10804   -11111   -11165 
  -11024   -10887   -10879   -10979   -11145   -11348   -11539   -11731 
  -11952   -12151   -12313   -12456   -12499   -12407   -12228   -11963 
  -11735   -11731   -11912   -12120   -12295   -12452   -12561   -12603 
  -12630   -12669   -12680   -12649   -12572   -12448   -12310   -12137 
  -11859   -11504   -11218   -11060   -10930   -10748   -10562   -10432 
  -10346   -10312   -10323   -10304   -10262   -10223   -10112    -9914 
   -9657    -9301    -8903    -8608    -8437    -8317    -8198    -8044 
   -7862    -7690    -7584    -7533    -7470    -7408    -7404    -7456 
   -7569    -7811    -8194    -8656    -9169    -9732   -10288   -10762 
  -11090   -11218   -11134   -10925   -10693   -10454   -10197    -9934 
   -9687    -9504    -9475    -9652    -9946   -10231   -10450   -10566 
  -10532   -10335    -9991    -9590    -9312    -9212    -9190    -9238 
   -9386    -9590    -9846   -10193   -10567   -10828   -10859   -10655 
  -10282    -9784    -9248    -8851    -8629    -8465    -8329    -8257 
   -8240    -8260    -8255    -8108    -7788    -7327    -6751    -6131 
   -5539    -5043    -4730    -4581    -4531    -4599    -4801    -5127 
   -5563    -6029    -6427    -6794    -7218    -7676    -8094    -8488 
   -8895    -9267    -9544    -9687    -9683    -9597    -9607    -9875 
  -10355   -10894   -11395   -11811   -12132   -12437   -12783   -13069 
  -13186   -13184   -13151   -13054   -12825   -12528   -12310   -12220 
  -12199   -12172   -12071   -11867   -11608   -11354   -11106   -10868 
  -10693   -10573   -10422   -10195    -9931    -9637    -9258    -8841 
   -8492    -8208    -7986    -7924    -7998    -8031    -7959    -7884 
   -7844    -7770    -7592    -7275    -6886    -6578    -6409    -6308 
   -6168    -5890    -5482    -5023    -4521    -3994    -3538    -3230 
   -3044    -2949    -3013    -3288    -3711    -4176    -4599    -4931 
   -5205    -5502    -5849    -6196    -6481    -6696    -6918    -7326 
   -7998    -8808    -9616   -10342   -10860   -11094   -11071   -10840 
  -10513   -10211    -9976    -9829    -9744    -9641    -9505    -9347 
   -9123    -8833    -8563    -8380    -8230    -8012    -7759    -7555 
   -7469    -7608    -7990    -8521    -9123    -9717   -10210   -10596 
  -10953   -11333   -11720   -12127   -12567   -12988   -13350   -13671 
  -13954   -14192   -14370   -14482   -14538   -14597   -14689   -14740 
  -14706   -14650   -14608   -14581   -14562   -14490   -14349   -14197 
  -14072   -13944   -13752   -13468   -13163   -12939   -12826   -12812 
  -12877   -12946   -12900   -12679   -12309   -11875   -11457   -11090 
  -10785   -10535   -10328   -10135    -9944    -9799    -9722    -9678 
   -9682    -9788    -9995   -10299   -10724   -11252   -11804   -12276 
  -12565   -12602   -12334   -11724   -10804    -9728    -8733    -7966 
   -7415    -7011    -6723    -6538    -6434    -6405    -6493    -6737 
   -7109    -7587    -8144    -8660    -9028    -9263    -9393    -9413 
   -9362    -9283    -9185    -9131    -9198    -9320    -9350    -9224 
   -9000    -8762    -8542    -8316    -8066    -7811    -7592    -7452 
   -7350    -7160    -6844    -6477    -6060    -5570    -5092    -4708 
   -4365    -4004    -3712    -3612    -3719    -3982    -4301    -4568 
   -4716    -4699    -4550    -4340    -4093    -3890    -3889    -4198 
   -4864    -5832    -6968    -8209    -9518   -10798   -11967   -12958 
  -13689   -14166   -14449   -14540   -14457   -14260   -13995   -13670 
  -13274   -12780   -12117   -11207   -10045    -8710    -7341    -6137 
   -5205    -4467    -3815    -3245    -2812    -2547    -2423    -2417 
   -2567    -2933    -3553    -4379    -5289    -6201    -7103    -8004 
   -8939    -9937   -10886   -11591   -12093   -12569   -13039   -13520 
  -14054   -14601   -15174   -15813   -16455   -17008   -17478   -17733 
  -17560   -16974   -16071   -14889   -13564   -12221   -10878    -9591 
   -8467    -7622    -7144    -7037    -7187    -7418    -7680    -8010 
   -8347    -8590    -8743    -8874    -9034    -9246    -9536    -9930 
  -10476   -11234   -12191   -13205   -14138   -14928   -15581   -16155 
  -16730   -17336   -17933   -18396   -18605   -18544   -18279   -17841 
  -17238   -16519   -15786   -15155   -14686   -14361   -14088   -13786 
  -13410   -12947   -12360   -11599   -10712    -9809    -8946    -8174 
   -7572    -7202    -7074    -7133    -7356    -7739    -8132    -8440 
   -8721    -8919    -8993    -9067    -9170    -9232    -9297    -9408 
   -9526    -9624    -9699    -9747    -9742    -9670    -9591    -9651 
   -9879   -10165   -10397   -10524   -10521   -10361   -10019    -9553 
   -9077    -8656    -8276    -7898    -7549    -7250    -6914    -6490 
   -6021    -5564    -5194    -4928    -4737    -4579    -4369    -4054 
   -3658    -3271    -2976    -2801    -2766    -2863    -3026    -3229 
   -3483    -3786    -4141    -4584    -5135    -5734    -6312    -6872 
   -7412    -7890    -8318    -8748    -9174    -9562    -9877   -10089 
  -10227   -10355   -10469   -10578   -10748   -10957   -11119   -11200 
  -11214   -11179   -11107   -11030   -10999   -11029   -11083   -11165 
  -11288   -11418   -11527   -11620   -11662   -11574   -11321   -10962 
  -10578   -10183    -9796    -9498    -9335    -9282    -9279    -9305 
   -9362    -9447    -9575    -9748    -9907    -9979    -9933    -9796 
   -9602    -9408    -9321    -9390    -9587    -9922   -10380   -10879 
  -11398   -11942   -12465   -12920   -13320   -13660   -13899   -14030 
  -14092   -14114   -14096   -14061   -14004   -13876   -13680   -13481 
  -13277   -13009   -12676   -12320   -11939   -11519   -11110   -10770 
  -10515   -10326   -10162   -10003    -9848    -9710    -9624    -9589 
   -9553    -9443    -9189    -8812    -8372    -7890    -7420    -6999 
   -6563    -6096    -5688    -5410    -5287    -5306    -5394    -5479 
   -5553    -5640    -5769    -5933    -6046    -6060    -6029    -6015 
   -6016    -6000    -5935    -5826    -5738    -5715    -5765    -5942 
   -6268    -6686    -7155    -7673    -8213    -8725    -9180    -9580 
   -9931   -10250   -10571   -10910   -11217   -11437   -11603   -11789 
  -11997   -12204   -12428   -12663   -12885   -13108   -13302   -13406 
  -13383   -13211   -12939   -12665   -12411   -12154   -11875   -11547 
  -11159   -10782   -10507   -10312   -10125    -9884    -9575    -9236 
   -8897    -8559    -8240    -7975    -7770    -7624    -7550    -7534 
   -7573    -7722    -7985    -8279    -8523    -8752    -9073    -9521 
  -10004   -10417   -10702   -10855   -10893   -10818   -10631   -10370 
  -10108    -9869    -9629    -9389    -9204    -9165    -9263    -9424 
   -9640    -9867   -10027   -10164   -10242   -10183   -10034    -9826 
   -9562    -9274    -8957    -8604    -8262    -7973    -7726    -7456 
   -7184    -7026    -6980    -6930    -6885    -6976    -7215    -7530 
   -7902    -8310    -8738    -9196    -9636    -9995   -10276   -10566 
  -10939   -11364   -11784   -12166   -12506   -12861   -13323   -13911 
  -14543   -15099   -15500   -15711   -15741   -15645   -15431   -15075 
  -14612   -14067   -13437   -12798   -12231   -11726   -11225   -10698 
  -10149    -9572    -8985    -8426    -7905    -7445    -7052    -6675 
   -6280    -5868    -5449    -5034    -4617    -4243    -3982    -3824 
   -3730    -3716    -3792    -3892    -3956    -3986    -3973    -3923 
   -3805    -3564    -3246    -2940    -2689    -2504    -2369    -2309 
   -2316    -2389    -2555    -2760    -3021    -3415    -3905    -4411 
   -4881    -5302    -5730    -6195    -6670    -7114    -7488    -7809 
   -8160    -8581    -9035    -9456    -9838   -10204   -10552   -10910 
  -11295   -11649   -11905   -12063   -12159   -12186   -12098   -11919 
  -11704   -11468   -11230   -11034   -10949   -11040   -11295   -11631 
  -11946   -12171   -12272   -12239   -12124   -12008   -11882   -11691 
  -11448   -11210   -10983   -10771   -10619   -10574   -10655   -10825 
  -10999   -11148   -11304   -11489   -11713   -11969   -12201   -12348 
  -12393   -12388   -12420   -12525   -12698   -12899   -13090   -13281 
  -13494   -13741   -14025   -14334   -14611   -14783   -14801   -14681 
  -14494   -14316   -14146   -13921   -13608   -13244   -12889   -12567 
  -12239   -11858   -11439   -11002   -10582   -10254   -10030    -9852 
   -9698    -9613    -9660    -9845   -10112   -10390   -10582   -10600 
  -10476   -10292   -10093    -9903    -9742    -9628    -9562    -9517 
   -9414    -9202    -8928    -8644    -8351    -8039    -7697    -7334 
   -6980    -6609    -6176    -5698    -5219    -4772    -4448    -4334 
   -4409    -4575    -4789    -5094    -5522    -6025    -6507    -6897 
   -7191    -7443    -7700    -7939    -8124    -8302    -8546    -8846 
   -9158    -9486    -9833   -10164   -10430   -10578   -10551   -10350 
  -10048    -9672    -9236    -8815    -8518    -8395    -8422    -8549 
   -8735    -8935    -9116    -9282    -9444    -9605    -9774    -9946 
  -10083   -10116   -10057    -9983    -9950    -9984   -10085   -10197 
  -10220   -10119    -9987    -9915    -9902    -9922    -9968   -10010 
  -10014    -9977    -9945    -9933    -9892    -9829    -9799    -9806 
   -9837    -9913   -10053   -10250   -10503   -10798   -11084   -11329 
  -11562   -11794   -11974   -12048   -12020   -11934   -11813   -11664 
  -11504   -11345   -11195   -11072   -10963   -10870   -10806   -10714 
  -10519   -10245    -9987    -9779    -9589    -9420    -9288    -9177 
   -9128    -9185    -9323    -9520    -9786   -10096   -10372   -10578 
  -10735   -10849   -10913   -10968   -11055   -11121   -11111   -11037 
  -10930   -10813   -10681   -10516   -10330   -10143    -9948    -9759 
   -9594    -9412    -9192    -8974    -8789    -8618    -8425    -8183 
   -7911    -7628    -7327    -7049    -6851    -6690    -6527    -6393 
   -6328    -6363    -6500    -6693    -6913    -7138    -7321    -7441 
   -7542    -7626    -7659    -7681    -7766    -7935    -8156    -8417 
