Origin Time       2025/01/13 21:19:00
Lat.              31.8
Long.             131.6
Depth. (km)       30
Mag.              6.9
Station Code      KMMH17
Station Lat.      32.9873
Station Long.     130.5608
Station Height(m) 55
Record Time       2025/01/13 21:19:58
Sampling Freq(Hz) 100Hz
Duration Time(s)  167
Dir.              5
Scale Factor      7845(gal)/8223790
Max. Acc. (gal)   4.132
Last Correction   2025/01/13 21:19:59
Memo.             
[...]
   -7700    -7582    -7477    -7460    -7510    -7555    -7560    -7515 
   -7420    -7317    -7267    -7277    -7288    -7254    -7183    -7095 
   -6986    -6863    -6774    -6745    -6754    -6768    -6812    -6916 
   -7045    -7144    -7213    -7275    -7341    -7446    -7605    -7773 
   -7879    -7879    -7792    -7686    -7642    -7689    -7794    -7881 
   -7882    -7803    -7704    -7636    -7618    -7650    -7715    -7773 
   -7788    -7757    -7705    -7678    -7722    -7825    -7920    -7933 
   -7865    -7773    -7754    -7836    -7950    -8012    -7997    -7932 
   -7871    -7885    -7993    -8122    -8195    -8212    -8226    -8291 
   -8436    -8642    -8841    -8947    -8903    -8707    -8440    -8202 
   -8062    -8033    -8089    -8174    -8262    -8348    -8410    -8424 
   -8390    -8328    -8272    -8248    -8271    -8334    -8415    -8518 
   -8662    -8843    -9020    -9115    -9062    -8873    -8607    -8344 
   -8155    -8067    -8059    -8091    -8110    -8083    -8029    -7981 
   -7943    -7923    -7933    -7986    -8075    -8182    -8276    -8321 
   -8302    -8240    -8149    -8040    -7938    -7873    -7855    -7866 
   -7855    -7770    -7604    -7383    -7137    -6905    -6737    -6670 
   -6685    -6733    -6786    -6849    -6948    -7106    -7321    -7542 
   -7681    -7655    -7477    -7284    -7198    -7210    -7273    -7342 
   -7380    -7400    -7429    -7465    -7504    -7519    -7477    -7377 
   -7258    -7173    -7146    -7175    -7233    -7303    -7415    -7597 
   -7846    -8133    -8394    -8577    -8699    -8781    -8788    -8696 
   -8514    -8278    -8067    -7944    -7889    -7852    -7808    -7730 
   -7624    -7515    -7423    -7379    -7384    -7422    -7484    -7555 
   -7593    -7568    -7469    -7321    -7182    -7118    -7144    -7245 
   -7407    -7581    -7684    -7676    -7591    -7473    -7345    -7227 
   -7134    -7094    -7132    -7250    -7427    -7595    -7663    -7618 
   -7516    -7422    -7354    -7299    -7223    -7133    -7086    -7134 
   -7284    -7479    -7620    -7627    -7487    -7245    -7005    -6876 
   -6887    -6994    -7165    -7372    -7557    -7678    -7739    -7731 
   -7634    -7477    -7325    -7238    -7256    -7365    -7504    -7600 
   -7605    -7534    -7454    -7412    -7399    -7362    -7248    -7042 
   -6808    -6628    -6546    -6547    -6585    -6609    -6598    -6574 
   -6558    -6544    -6501    -6403    -6249    -6079    -5952    -5913 
   -5975    -6103    -6243    -6374    -6484    -6575    -6681    -6813 
   -6952    -7065    -7128    -7142    -7161    -7256    -7460    -7735 
   -8008    -8214    -8337    -8424    -8522    -8642    -8746    -8785 
   -8753    -8702    -8684    -8710    -8764    -8827    -8865    -8874 
   -8891    -8935    -9027    -9167    -9312    -9412    -9445    -9405 
   -9312    -9219    -9154    -9093    -9015    -8918    -8800    -8665 
   -8545    -8484    -8487    -8511    -8513    -8478    -8415    -8353 
   -8313    -8289    -8259    -8229    -8216    -8216    -8206    -8170 
   -8104    -8016    -7932    -7871    -7830    -7816    -7846    -7909 
   -7970    -7986    -7938    -7838    -7712    -7582    -7468    -7391 
   -7356    -7344    -7353    -7392    -7453    -7508    -7543    -7564 
   -7600    -7676    -7803    -7966    -8116    -8197    -8194    -8144 
   -8094    -8068    -8056    -8028    -7954    -7840    -7728    -7663 
   -7657    -7681    -7731    -7842    -8031    -8274    -8521    -8716 
   -8831    -8850    -8765    -8577    -8322    -8048    -7805    -7632 
   -7535    -7506    -7516    -7533    -7533    -7516    -7489    -7456 
   -7404    -7321    -7214    -7107    -7014    -6957    -6967    -7047 
   -7177    -7334    -7499    -7635    -7711    -7726    -7682    -7582 
   -7456    -7358    -7360    -7484    -7688    -7906    -8105    -8297 
   -8523    -8796    -9045    -9159    -9078    -8819    -8461    -8100 
   -7794    -7562    -7410    -7334    -7329    -7407    -7560    -7722 
   -7846    -7931    -7993    -8037    -8068    -8105    -8158    -8213 
   -8247    -8228    -8137    -7985    -7784    -7537    -7246    -6930 
   -6625    -6385    -6258    -6274    -6409    -6601    -6787    -6940 
   -7055    -7140    -7190    -7190    -7126    -7015    -6886    -6774 
   -6704    -6663    -6636    -6609    -6581    -6566    -6581    -6608 
   -6627    -6627    -6612    -6605    -6639    -6744    -6918    -7113 
   -7273    -7372    -7407    -7389    -7339    -7260    -7140    -6979 
   -6813    -6706    -6712    -6820    -6964    -7079    -7133    -7123 
   -7076    -7024    -6993    -6998    -7025    -7049    -7072    -7126 
   -7242    -7426    -7645    -7828    -7923    -7912    -7804    -7639 
   -7485    -7383    -7346    -7377    -7464    -7565    -7661    -7740 
   -7788    -7790    -7754    -7681    -7604    -7566    -7568    -7596 
   -7641    -7682    -7731    -7819    -7954    -8128    -8321    -8476 
   -8545    -8532    -8479    -8419    -8334    -8182    -7955    -7700 
   -7487    -7377    -7399    -7533    -7722    -7915    -8100    -8280 
   -8463    -8638    -8796    -8935    -9057    -9157    -9248    -9359 
   -9493    -9626    -9715    -9710    -9598    -9398    -9148    -8905 
   -8719    -8614    -8581    -8606    -8669    -8779    -8932    -9090 
   -9207    -9254    -9212    -9067    -8851    -8625    -8434    -8275 
   -8118    -7947    -7749    -7535    -7356    -7250    -7226    -7241 
   -7249    -7245    -7254    -7300    -7387    -7496    -7601    -7682 
   -7736    -7774    -7796    -7780    -7690    -7514    -7277    -7028 
   -6794    -6585    -6389    -6181    -5950    -5740    -5620    -5656 
   -5881    -6254    -6648    -6933    -7036    -6971    -6829    -6687 
   -6567    -6444    -6316    -6200    -6141    -6185    -6346    -6590 
   -6856    -7087    -7256    -7373    -7456    -7493    -7479    -7416 
   -7329    -7237    -7161    -7121    -7105    -7080    -7007    -6853 
   -6635    -6407    -6232    -6156    -6180    -6285    -6450    -6652 
   -6886    -7153    -7422    -7647    -7811    -7921    -7996    -8040 
   -8035    -7959    -7823    -7649    -7458    -7287    -7164    -7083 
   -7007    -6906    -6798    -6721    -6709    -6795    -6998    -7290 
   -7620    -7938    -8206    -8407    -8529    -8579    -8576    -8554 
   -8568    -8664    -8835    -9036    -9211    -9317    -9337    -9283 
   -9186    -9076    -8953    -8822    -8685    -8550    -8449    -8407 
   -8418    -8457    -8513    -8559    -8567    -8536    -8491    -8445 
   -8407    -8383    -8363    -8347    -8355    -8395    -8465    -8550 
   -8623    -8642    -8590    -8487    -8363    -8256    -8198    -8186 
   -8202    -8229    -8241    -8224    -8178    -8091    -7971    -7857 
   -7777    -7727    -7709    -7713    -7712    -7703    -7705    -7739 
   -7797    -7857    -7904    -7955    -8012    -8051    -8040    -7951 
   -7774    -7519    -7204    -6872    -6571    -6332    -6157    -6015 
   -5860    -5680    -5517    -5422    -5422    -5516    -5680    -5886 
   -6126    -6404    -6704    -7001    -7252    -7408    -7466    -7469 
   -7470    -7499    -7560    -7641    -7728    -7812    -7897    -8012 
   -8176    -8368    -8537    -8652    -8706    -8718    -8715    -8726 
   -8779    -8864    -8935    -8949    -8896    -8791    -8672    -8568 
   -8479    -8390    -8280    -8151    -8025    -7927    -7874    -7894 
   -8005    -8175    -8348    -8469    -8513    -8483    -8417    -8359 
   -8307    -8248    -8172    -8077    -7975    -7906    -7898    -7954 
   -8050    -8129    -8139    -8055    -7892    -7700    -7543    -7449 
   -7402    -7393    -7437    -7538    -7682    -7863    -8051    -8189 
   -8228    -8156    -7994    -7776    -7555    -7379    -7256    -7171 
   -7110    -7088    -7122    -7217    -7372    -7589    -7840    -8062 
   -8212    -8293    -8338    -8371    -8398    -8407    -8380    -8313 
   -8230    -8155    -8106    -8086    -8070    -8017    -7916    -7785 
   -7685    -7651    -7655    -7647    -7615    -7570    -7519    -7474 
   -7476    -7546    -7666    -7792    -7890    -7952    -7970    -7938 
   -7850    -7711    -7523    -7283    -6999    -6690    -6376    -6096 
   -5913    -5850    -5892    -6000    -6131    -6243    -6323    -6370 
   -6380    -6343    -6253    -6118    -5973    -5856    -5795    -5827 
   -5976    -6223    -6527    -6848    -7159    -7415    -7573    -7607 
   -7539    -7418    -7300    -7246    -7285    -7393    -7524    -7666 
   -7831    -8028    -8253    -8465    -8614    -8680    -8667    -8618 
   -8583    -8591    -8642    -8737    -8876    -9065    -9282    -9498 
   -9671    -9730    -9612    -9304    -8849    -8321    -7809    -7395 
   -7121    -6976    -6939    -7003    -7159    -7375    -7607    -7803 
   -7942    -8036    -8109    -8181    -8257    -8324    -8347    -8306 
   -8194    -8031    -7851    -7661    -7457    -7252    -7065    -6899 
   -6750    -6615    -6485    -6362    -6265    -6203    -6181    -6208 
   -6277    -6377    -6502    -6648    -6799    -6957    -7117    -7257 
   -7349    -7375    -7334    -7245    -7136    -7011    -6880    -6766 
   -6693    -6673    -6725    -6853    -7028    -7213    -7377    -7511 
   -7635    -7749    -7842    -7924    -8005    -8077    -8133    -8181 
   -8216    -8221    -8191    -8154    -8133    -8140    -8181    -8241 
   -8306    -8368    -8417    -8442    -8455    -8460    -8446    -8392 
   -8284    -8136    -7982    -7847    -7742    -7666    -7631    -7630 
   -7654    -7709    -7798    -7911    -8044    -8209    -8406    -8626 
   -8854    -9065    -9234    -9358    -9431    -9435    -9352    -9180 
   -8941    -8680    -8446    -8262    -8122    -8031    -7994    -8010 
   -8077    -8176    -8271    -8334    -8367    -8376    -8361    -8347 
   -8359    -8418    -8538    -8696    -8850    -8964    -9023    -9023 
   -8972    -8896    -8818    -8739    -8662    -8595    -8540    -8506 
   -8527    -8619    -8750    -8869    -8932    -8930    -8857    -8729 
   -8586    -8463    -8372    -8302    -8233    -8174    -8144    -8124 
   -8074    -7971    -7800    -7581    -7365    -7190    -7065    -6993 
   -6979    -7015    -7083    -7173    -7276    -7353    -7389    -7388 
   -7356    -7304    -7245    -7187    -7141    -7117    -7111    -7111 
   -7110    -7106    -7096    -7067    -7022    -6964    -6883    -6786 
   -6698    -6631    -6602    -6625    -6678    -6736    -6794    -6845 
   -6885    -6916    -6936    -6934    -6907    -6858    -6791    -6728 
   -6697    -6710    -6764    -6845    -6941    -7045    -7159    -7271 
   -7373    -7453    -7487    -7479    -7465    -7476    -7535    -7655 
   -7825    -8006    -8148    -8210    -8210    -8191    -8194    -8244 
   -8344    -8465    -8586    -8694    -8773    -8804    -8764    -8634 
   -8418    -8131    -7790    -7429    -7095    -6839    -6681    -6615 
   -6619    -6662    -6727    -6813    -6914    -6999    -7038    -7006 
   -6905    -6778    -6696    -6693    -6759    -6852    -6933    -6960 
   -6907    -6782    -6615    -6434    -6270    -6147    -6068    -6029 
   -6029    -6069    -6156    -6284    -6430    -6561    -6655    -6717 
   -6750    -6762    -6777    -6822    -6936    -7134    -7398    -7677 
   -7911    -8044    -8059    -7977    -7846    -7711    -7600    -7520 
   -7474    -7462    -7485    -7538    -7612    -7686    -7728    -7735 
   -7735    -7746    -7780    -7840    -7915    -7974    -8013    -8043 
   -8075    -8128    -8199    -8267    -8324    -8368    -8382    -8349 
   -8267    -8140    -7982    -7811    -7662    -7574    -7549    -7562 
   -7607    -7673    -7759    -7889    -8097    -8388    -8719    -9028 
   -9279    -9458    -9564    -9612    -9606    -9551    -9466    -9381 
   -9327    -9309    -9316    -9325    -9327    -9324    -9335    -9386 
   -9497    -9663    -9864   -10061   -10207   -10273   -10255   -10174 
  -10057    -9919    -9763    -9594    -9428    -9283    -9174    -9104 
   -9062    -9038    -9020    -9004    -8969    -8892    -8757    -8561 
   -8325    -8081    -7851    -7649    -7466    -7298    -7145    -7033 
   -6974    -6955    -6951    -6937    -6883    -6770    -6604    -6397 
   -6172    -5948    -5736    -5536    -5356    -5217    -5144    -5146 
   -5217    -5354    -5540    -5734    -5898    -6018    -6100    -6158 
   -6223    -6320    -6451    -6605    -6772    -6956    -7168    -7420 
   -7703    -7962    -8141    -8216    -8178    -8029    -7794    -7506 
   -7203    -6947    -6791    -6774    -6910    -7191    -7589    -8060 
   -8546    -8980    -9290    -9433    -9404    -9220    -8927    -8590 
   -8276    -8021    -7819    -7635    -7446    -7249    -7051    -6855 
   -6658    -6447    -6227    -6019    -5860    -5784    -5829    -6007 
   -6291    -6624    -6944    -7210    -7403    -7518    -7551    -7492 
   -7337    -7105    -6836    -6577    -6358    -6191    -6068    -5965 
   -5856    -5736    -5633    -5590    -5624    -5730    -5900    -6112 
   -6342    -6571    -6791    -6990    -7123    -7144    -7029    -6789 
   -6461    -6115    -5813    -5579    -5417    -5308    -5242    -5200 
   -5162    -5124    -5089    -5057    -5047    -5090    -5188    -5324 
   -5485    -5661    -5861    -6087    -6330    -6578    -6810    -7007 
   -7172    -7327    -7495    -7680    -7878    -8097    -8337    -8596 
   -8889    -9208    -9516    -9772    -9956   -10073   -10141   -10184 
  -10238   -10328   -10457   -10611   -10786   -10989   -11211   -11443 
  -11676   -11880   -12005   -12015   -11894   -11678   -11429   -11194 
  -11003   -10881   -10827   -10828   -10887   -11001   -11125   -11186 
  -11138   -10980   -10732   -10432   -10137    -9888    -9711    -9597 
   -9518    -9451    -9375    -9265    -9107    -8907    -8658    -8355 
   -8004    -7624    -7241    -6898    -6642    -6496    -6448    -6461 
   -6494    -6528    -6558    -6592    -6632    -6659    -6631    -6527 
   -6370    -6201    -6065    -5994    -5992    -6030    -6081    -6135 
   -6200    -6292    -6399    -6480    -6489    -6400    -6230    -6018 
   -5803    -5610    -5445    -5304    -5178    -5069    -4996    -4981 
   -5026    -5119    -5240    -5364    -5474    -5571    -5661    -5749 
   -5836    -5915    -5984    -6053    -6130    -6210    -6274    -6305 
   -6303    -6300    -6334    -6431    -6604    -6828    -7060    -7265 
   -7422    -7537    -7641    -7750    -7873    -8006    -8132    -8229 
   -8294    -8340    -8388    -8446    -8509    -8572    -8641    -8719 
   -8808    -8900    -8989    -9070    -9132    -9153    -9111    -9009 
   -8853    -8645    -8394    -8116    -7808    -7468    -7111    -6770 
   -6485    -6304    -6246    -6300    -6430    -6598    -6789    -7003 
   -7244    -7506    -7778    -8032    -8237    -8386    -8465    -8457 
   -8352    -8168    -7947    -7730    -7547    -7408    -7307    -7256 
   -7271    -7361    -7528    -7762    -8031    -8297    -8540    -8752 
   -8922    -9050    -9136    -9186    -9209    -9213    -9212    -9216 
   -9228    -9248    -9279    -9310    -9316    -9290    -9244    -9186 
   -9117    -9030    -8918    -8787    -8654    -8538    -8445    -8378 
   -8322    -8255    -8160    -8051    -7956    -7889    -7840    -7797 
   -7740    -7670    -7615    -7605    -7663    -7794    -7996    -8243 
   -8498    -8712    -8841    -8854    -8749    -8541    -8271    -7992 
   -7757    -7605    -7550    -7574    -7655    -7761    -7861    -7936 
   -7959    -7913    -7793    -7607    -7381    -7165    -7003    -6932 
   -6953    -7045    -7171    -7290    -7361    -7360    -7280    -7137 
   -6952    -6752    -6558    -6377    -6212    -6075    -5964    -5875 
   -5803    -5749    -5711    -5717    -5796    -5960    -6189    -6442 
   -6675    -6872    -7047    -7221    -7415    -7634    -7847    -8021 
   -8140    -8203    -8221    -8203    -8158    -8074    -7947    -7786 
   -7626    -7511    -7474    -7515    -7608    -7727    -7852    -7970 
   -8064    -8133    -8178    -8194    -8183    -8164    -8149    -8148 
   -8168    -8202    -8239    -8270    -8272    -8221    -8090    -7862 
   -7555    -7215    -6885    -6613    -6423    -6313    -6282    -6324 
   -6408    -6501    -6569    -6578    -6535    -6459    -6369    -6281 
   -6211    -6156    -6104    -6056    -6023    -6014    -6022    -6043 
   -6076    -6120    -6180    -6253    -6347    -6484    -6656    -6862 
   -7101    -7357    -7604    -7842    -8081    -8329    -8587    -8837 
   -9062    -9244    -9385    -9493    -9568    -9614    -9632    -9621 
   -9590    -9558    -9540    -9553    -9599    -9661    -9724    -9791 
   -9882   -10004   -10150   -10301   -10435   -10531   -10582   -10600 
  -10592   -10557   -10488   -10373   -10212   -10041    -9896    -9788 
   -9724    -9688    -9648    -9576    -9471    -9340    -9184    -9009 
   -8826    -8646    -8478    -8317    -8158    -8000    -7827    -7616 
   -7357    -7067    -6771    -6497    -6265    -6088    -5972    -5903 
   -5871    -5869    -5900    -5964    -6045    -6123    -6185    -6222 
   -6231    -6220    -6193    -6142    -6075    -6003    -5938    -5907 
   -5933    -6012    -6139    -6297    -6470    -6646    -6816    -6974 
   -7123    -7265    -7388    -7464    -7465    -7381    -7225    -7028 
   -6836    -6686    -6586    -6527    -6486    -6457    -6442    -6459 
   -6513    -6593    -6689    -6785    -6871    -6961    -7088    -7258 
   -7460    -7668    -7851    -7986    -8078    -8145    -8195    -8225 
   -8226    -8201    -8167    -8158    -8205    -8316    -8476    -8656 
   -8819    -8957    -9078    -9186    -9279    -9332    -9323    -9252 
   -9153    -9062    -9000    -8951    -8876    -8746    -8554    -8330 
   -8102    -7877    -7642    -7381    -7091    -6801    -6562    -6404 
   -6336    -6349    -6413    -6497    -6574    -6623    -6636    -6625 
   -6612    -6602    -6608    -6633    -6677    -6740    -6826    -6917 
   -6976    -6971    -6879    -6724    -6555    -6419    -6353    -6362 
   -6430    -6534    -6659    -6790    -6922    -7060    -7202    -7342 
   -7474    -7592    -7703    -7828    -7983    -8171    -8380    -8592 
   -8785    -8950    -9082    -9189    -9274    -9342    -9389    -9417 
   -9444    -9478    -9516    -9540    -9531    -9477    -9373    -9213 
   -8999    -8743    -8468    -8195    -7965    -7804    -7722    -7709 
   -7758    -7852    -7986    -8139    -8282    -8388    -8437    -8430 
   -8376    -8291    -8193    -8091    -7986    -7879    -7761    -7627 
   -7476    -7315    -7150    -6991    -6824    -6625    -6394    -6150 
   -5923    -5760    -5684    -5690    -5757    -5850    -5926    -5967 
   -5979    -5969    -5953    -5931    -5892    -5832    -5748    -5656 
   -5587    -5559    -5584    -5664    -5773    -5886    -5991    -6080 
   -6142    -6178    -6184    -6164    -6133    -6102    -6081    -6092 
   -6153    -6264    -6409    -6569    -6731    -6893    -7063    -7252 
   -7464    -7695    -7933    -8168    -8395    -8603    -8781    -8918 
   -9013    -9085    -9142    -9193    -9235    -9258    -9254    -9231 
   -9212    -9227    -9288    -9401    -9553    -9726    -9919   -10135 
  -10355   -10563   -10750   -10908   -11038   -11145   -11213   -11218 
  -11146   -10989   -10751   -10463   -10166    -9895    -9661    -9464 
   -9298    -9161    -9053    -8981    -8955    -8978    -9027    -9076 
