Origin Time       2025/01/13 21:19:00
Lat.              31.8
Long.             131.6
Depth. (km)       30
Mag.              6.9
Station Code      KOCH10
Station Lat.      33.5313
Station Long.     133.4388
Station Height(m) -91
Record Time       2025/01/13 21:20:21
Sampling Freq(Hz) 100Hz
Duration Time(s)  164
Dir.              3
Scale Factor      3923(gal)/8224838
Max. Acc. (gal)   0.765
Last Correction   2025/01/13 21:20:21
Memo.             
[...]
   10054    10029     9996     9958     9933     9942     9988    10052 
   10108    10165    10227    10282    10323    10363    10435    10547 
   10648    10719    10801    10902    10990    11045    11082    11122 
   11179    11237    11268    11268    11252    11217    11161    11088 
   10998    10901    10827    10777    10717    10633    10563    10532 
   10509    10461    10415    10390    10366    10331    10297    10277 
   10260    10228    10204    10196    10188    10195    10216    10241 
   10274    10305    10332    10353    10357    10359    10359    10345 
   10332    10309    10253    10204    10201    10220    10233    10230 
   10207    10196    10222    10242    10243    10245    10247    10237 
   10208    10187    10197    10216    10203    10172    10172    10211 
   10254    10274    10287    10322    10377    10435    10485    10548 
   10635    10720    10768    10791    10832    10889    10918    10921 
   10924    10943    10974    10987    10974    10963    10971    10980 
   10984    10998    11041    11094    11126    11137    11132    11119 
   11105    11086    11064    11025    10967    10917    10876    10836 
   10767    10669    10590    10544    10503    10459    10415    10385 
   10389    10381    10346    10304    10255    10193    10133    10072 
   10015     9972     9933     9872     9790     9714     9683     9691 
    9715     9736     9745     9748     9751     9752     9748     9741 
    9742     9748     9751     9765     9796     9830     9875     9940 
   10002    10038    10053    10087    10153    10216    10246    10264 
   10301    10359    10412    10443    10458    10467    10480    10516 
   10574    10620    10643    10689    10778    10862    10891    10881 
   10867    10868    10870    10840    10786    10756    10755    10744 
   10713    10671    10623    10590    10563    10525    10484    10449 
   10426    10413    10395    10372    10361    10362    10365    10361 
   10359    10357    10327    10287    10265    10257    10235    10200 
   10181    10180    10165    10135    10111    10089    10058    10035 
   10022    10011    10026    10072    10112    10141    10161    10174 
   10207    10253    10289    10331    10380    10409    10431    10457 
   10477    10500    10525    10539    10561    10606    10651    10677 
   10696    10714    10732    10758    10785    10793    10783    10771 
   10758    10739    10729    10732    10743    10766    10783    10786 
   10782    10789    10809    10821    10812    10794    10773    10746 
   10712    10673    10642    10625    10612    10593    10565    10536 
   10519    10500    10476    10453    10424    10393    10376    10384 
   10420    10477    10524    10535    10527    10534    10540    10528 
   10516    10508    10501    10505    10508    10498    10492    10485 
   10474    10469    10478    10498    10515    10517    10523    10552 
   10606    10659    10704    10755    10814    10874    10918    10951 
   10987    11007    11005    11029    11080    11101    11084    11047 
   10995    10962    10951    10935    10909    10882    10844    10802 
   10775    10768    10786    10817    10844    10872    10901    10918 
   10933    10949    10955    10947    10928    10913    10906    10889 
   10858    10828    10790    10752    10712    10665    10617    10578 
   10547    10527    10513    10493    10467    10450    10440    10426 
   10415    10416    10417    10401    10374    10353    10332    10299 
   10265    10257    10270    10273    10262    10250    10233    10211 
   10197    10176    10146    10130    10125    10125    10130    10134 
   10145    10179    10228    10280    10330    10363    10385    10431 
   10494    10554    10621    10689    10736    10764    10779    10786 
   10790    10791    10783    10771    10767    10778    10787    10797 
   10813    10820    10804    10774    10746    10725    10714    10701 
   10683    10663    10643    10628    10617    10600    10567    10547 
   10555    10561    10551    10552    10558    10548    10530    10512 
   10503    10501    10509    10512    10488    10440    10404    10395 
   10378    10342    10307    10277    10254    10246    10233    10210 
   10196    10200    10216    10233    10239    10234    10207    10157 
   10100    10041     9977     9911     9855     9817     9801     9795 
    9783     9779     9805     9852     9891     9918     9944     9969 
   10011    10073    10116    10135    10145    10157    10183    10203 
   10191    10158    10143    10143    10135    10115    10091    10071 
   10075    10073    10041    10010    10000    10004    10021    10030 
   10023    10033    10064    10099    10139    10197    10253    10284 
   10303    10336    10384    10426    10461    10482    10489    10494 
   10516    10557    10605    10651    10701    10760    10828    10910 
   10995    11067    11125    11175    11218    11250    11265    11260 
   11248    11226    11184    11146    11118    11080    11033    10984 
   10928    10871    10816    10746    10673    10619    10577    10536 
   10505    10478    10453    10442    10446    10443    10417    10388 
   10362    10338    10307    10276    10241    10206    10181    10172 
   10177    10208    10261    10314    10358    10403    10446    10474 
   10481    10469    10453    10439    10432    10432    10438    10444 
   10449    10457    10471    10481    10496    10542    10606    10663 
   10677    10655    10647    10650    10623    10565    10500    10442 
   10397    10366    10338    10318    10309    10307    10315    10342 
   10362    10370    10370    10354    10349    10385    10438    10482 
   10525    10582    10663    10747    10816    10878    10918    10941 
   10974    11002    11011    11011    11002    10976    10944    10916 
   10891    10863    10828    10793    10766    10754    10752    10747 
   10736    10748    10782    10805    10805    10795    10779    10762 
   10756    10764    10779    10800    10813    10810    10798    10779 
   10758    10752    10771    10797    10821    10858    10899    10926 
   10935    10953    10999    11036    11045    11052    11064    11059 
   11033    11014    11026    11045    11032    10998    10963    10932 
   10902    10864    10831    10818    10820    10816    10795    10775 
   10775    10782    10777    10778    10790    10781    10764    10768 
   10766    10741    10706    10669    10640    10624    10604    10562 
   10496    10408    10328    10273    10218    10150    10079    10008 
    9946     9904     9875     9838     9796     9768     9748     9718 
    9697     9697     9695     9676     9649     9628     9626     9653 
    9691     9710     9705     9688     9678     9675     9672     9672 
    9668     9661     9644     9605     9564     9540     9518     9505 
    9516     9545     9590     9652     9724     9791     9846     9902 
    9979    10057    10114    10156    10185    10199    10207    10212 
   10201    10192    10208    10234    10250    10261    10257    10241 
   10235    10261    10299    10330    10362    10408    10449    10474 
   10515    10578    10636    10682    10721    10767    10832    10906 
   10966    11007    11037    11059    11086    11107    11124    11140 
   11157    11167    11155    11133    11124    11129    11134    11130 
   11118    11101    11084    11084    11095    11111    11126    11130 
   11130    11140    11160    11176    11179    11173    11161    11138 
   11115    11101    11064    10997    10914    10827    10740    10658 
   10562    10466    10389    10330    10285    10253    10227    10216 
   10216    10219    10235    10277    10327    10373    10415    10465 
   10540    10632    10721    10808    10885    10925    10936    10941 
   10932    10902    10863    10817    10770    10719    10652    10582 
   10532    10501    10465    10427    10408    10404    10408    10419 
   10432    10467    10521    10555    10566    10582    10617    10663 
   10700    10709    10705    10701    10677    10629    10571    10511 
   10450    10386    10312    10233    10172    10149    10157    10177 
   10201    10243    10301    10368    10438    10505    10571    10639 
   10700    10752    10801    10833    10851    10859    10860    10848 
   10816    10775    10729    10660    10579    10512    10439    10353 
   10261    10169    10095    10050    10026    10018    10030    10056 
   10092    10134    10188    10258    10342    10434    10528    10611 
   10677    10733    10781    10825    10874    10916    10949    10990 
   11033    11064    11071    11057    11045    11048    11060    11072 
   11071    11056    11056    11075    11076    11045    10999    10962 
   10928    10885    10827    10752    10679    10612    10538    10446 
   10339    10237    10145    10052     9961     9886     9828     9786 
    9759     9736     9721     9733     9753     9763     9776     9790 
    9792     9791     9786     9783     9794     9810     9825     9836 
    9834     9836     9845     9860     9884     9910     9934     9969 
   10015    10060    10104    10150    10199    10249    10292    10327 
   10363    10415    10462    10489    10511    10531    10546    10559 
   10571    10565    10535    10489    10443    10405    10373    10339 
   10305    10273    10247    10234    10233    10233    10222    10214 
   10226    10254    10287    10307    10311    10322    10347    10366 
   10368    10365    10373    10385    10399    10411    10423    10432 
   10427    10412    10404    10413    10439    10467    10488    10507 
   10527    10539    10543    10542    10534    10528    10534    10551 
   10570    10575    10578    10589    10602    10615    10628    10658 
   10700    10729    10746    10751    10751    10760    10759    10739 
   10732    10735    10728    10723    10712    10687    10650    10602 
   10546    10490    10447    10415    10384    10345    10303    10277 
   10265    10264    10266    10276    10295    10326    10368    10413 
   10467    10528    10585    10633    10673    10706    10741    10759 
   10762    10771    10779    10779    10786    10794    10795    10795 
   10797    10802    10818    10840    10855    10858    10839    10806 
   10779    10754    10717    10666    10609    10559    10515    10451 
   10350    10241    10152    10080    10006     9940     9899     9884 
    9886     9898     9919     9952     9984    10012    10041    10084 
   10131    10170    10208    10238    10260    10278    10291    10296 
   10312    10338    10347    10341    10335    10326    10309    10287 
   10254    10212    10160    10099    10038     9987     9934     9872 
    9821     9786     9751     9714     9683     9657     9652     9670 
    9690     9709     9741     9782     9825     9884     9967    10054 
   10134    10208    10273    10324    10380    10439    10490    10531 
   10573    10631    10696    10756    10817    10875    10930    10990 
   11041    11083    11130    11178    11207    11226    11236    11226 
   11203    11180    11156    11133    11125    11121    11103    11082 
   11070    11060    11060    11071    11070    11051    11045    11063 
   11082    11095    11102    11107    11119    11145    11173    11184 
   11190    11210    11237    11244    11229    11206    11184    11163 
   11140    11111    11067    11009    10944    10878    10812    10744 
   10683    10640    10605    10566    10520    10469    10422    10400 
   10396    10396    10401    10416    10442    10490    10544    10596 
   10658    10721    10777    10837    10910    10984    11049    11105 
   11155    11196    11229    11249    11248    11238    11244    11265 
   11284    11287    11286    11295    11308    11311    11304    11299 
   11299    11284    11267    11257    11234    11186    11145    11133 
   11129    11109    11068    11024    10982    10935    10870    10794 
   10714    10636    10559    10490    10430    10381    10347    10327 
   10309    10281    10245    10218    10203    10185    10160    10127 
   10095    10058    10006     9940     9864     9782     9690     9606 
    9539     9481     9428     9382     9344     9313     9282     9261 
    9250     9256     9279     9296     9306     9329     9347     9351 
    9358     9367     9371     9377     9383     9383     9374     9360 
    9351     9346     9336     9331     9339     9366     9405     9440 
    9487     9559     9629     9690     9744     9799     9867     9934 
    9985    10031    10079    10130    10188    10246    10303    10369 
   10440    10516    10601    10696    10778    10848    10917    10982 
   11040    11086    11109    11122    11141    11161    11182    11188 
   11168    11138    11111    11072    11020    10959    10889    10816 
   10740    10644    10551    10492    10449    10407    10370    10355 
   10361    10382    10416    10455    10488    10517    10551    10578 
   10597    10617    10644    10665    10678    10690    10705    10721 
   10741    10770    10804    10851    10909    10963    11017    11079 
   11138    11190    11234    11281    11331    11376    11403    11404 
   11389    11361    11315    11271    11232    11182    11115    11032 
   10944    10872    10812    10748    10681    10613    10565    10527 
   10484    10453    10453    10470    10492    10517    10544    10578 
   10617    10654    10690    10747    10827    10905    10976    11052 
   11141    11244    11344    11429    11515    11610    11696    11765 
   11830    11894    11954    12008    12055    12085    12098    12093 
   12070    12040    12005    11955    11892    11826    11753    11666 
   11562    11452    11350    11252    11141    11028    10926    10836 
   10743    10648    10571    10498    10424    10358    10289    10214 
   10135    10062     9992     9927     9863     9790     9706     9636 
    9597     9578     9560     9543     9533     9531     9524     9517 
    9513     9508     9510     9517     9525     9533     9529     9510 
    9485     9452     9410     9369     9328     9290     9250     9211 
    9182     9161     9136     9109     9088     9070     9062     9054 
    9046     9039     9035     9036     9049     9069     9089     9112 
    9148     9208     9279     9356     9433     9521     9626     9736 
    9837     9940    10056    10189    10341    10484    10594    10694 
   10812    10935    11045    11140    11223    11299    11369    11434 
   11483    11506    11511    11504    11485    11461    11426    11376 
   11314    11252    11182    11103    11028    10967    10917    10868 
   10813    10759    10719    10689    10651    10600    10554    10513 
   10476    10446    10416    10382    10343    10287    10223    10162 
   10104    10049    10003     9967     9940     9919     9899     9873 
    9844     9821     9799     9782     9771     9764     9753     9742 
    9730     9709     9675     9644     9618     9597     9585     9571 
    9563     9566     9575     9593     9626     9668     9709     9752 
    9809     9873     9940    10012    10088    10162    10237    10305 
   10362    10412    10463    10507    10527    10521    10498    10474 
   10458    10442    10419    10397    10376    10351    10345    10347 
   10342    10326    10312    10316    10334    10358    10399    10449 
   10509    10588    10671    10762    10859    10955    11034    11106 
   11182    11257    11323    11375    11408    11422    11423    11427 
   11427    11416    11400    11380    11365    11353    11340    11329 
   11313    11292    11276    11259    11236    11215    11196    11175 
   11148    11129    11130    11137    11134    11126    11121    11118 
   11117    11103    11078    11045    11010    10978    10943    10891 
   10828    10760    10702    10658    10609    10554    10511    10474 
   10434    10401    10373    10332    10285    10253    10234    10210 
   10176    10137    10107    10085    10056    10026    10004     9976 
    9944     9915     9888     9869     9859     9856     9860     9867 
    9869     9868     9873     9891     9906     9919     9940     9968 
   10003    10046    10095    10145    10199    10265    10336    10404 
   10471    10539    10602    10659    10698    10719    10739    10759 
   10777    10787    10783    10768    10750    10733    10719    10700 
   10674    10644    10613    10582    10555    10521    10488    10466 
   10447    10420    10392    10376    10368    10355    10328    10293 
   10265    10242    10214    10184    10149    10103    10050    10003 
    9952     9896     9853     9821     9790     9764     9741     9721 
    9713     9718     9725     9724     9725     9736     9757     9786 
    9817     9850     9879     9896     9913     9930     9937     9930 
    9918     9895     9864     9841     9819     9798     9782     9765 
    9753     9759     9775     9796     9834     9890     9968    10061 
   10149    10228    10311    10399    10482    10551    10617    10693 
   10768    10829    10872    10901    10918    10928    10925    10908 
   10886    10868    10848    10831    10824    10828    10836    10852 
   10879    10913    10944    10971    11005    11052    11102    11149 
   11194    11233    11268    11290    11287    11276    11271    11272 
   11272    11263    11246    11226    11200    11171    11144    11117 
   11082    11047    11016    10989    10966    10939    10913    10897 
   10886    10864    10821    10773    10728    10677    10613    10544 
   10480    10411    10332    10254    10185    10123    10068    10018 
    9967     9915     9880     9867     9860     9852     9850     9850 
    9848     9855     9865     9882     9910     9941     9969    10002 
   10044    10093    10146    10206    10268    10327    10389    10451 
   10511    10570    10643    10732    10817    10889    10953    11022 
   11097    11171    11236    11296    11361    11421    11469    11515 
   11554    11596    11641    11681    11728    11776    11815    11846 
   11869    11893    11915    11921    11921    11917    11907    11889 
   11867    11839    11797    11745    11691    11630    11556    11475 
   11394    11306    11214    11118    11020    10917    10820    10724 
   10629    10548    10471    10386    10303    10222    10146    10065 
    9977     9895     9818     9742     9678     9616     9547     9483 
    9432     9393     9360     9332     9308     9285     9265     9255 
    9258     9255     9244     9234     9227     9225     9221     9215 
    9223     9243     9261     9274     9286     9296     9310     9323 
    9325     9329     9347     9373     9405     9451     9502     9548 
    9597     9651     9701     9748     9795     9842     9891     9937 
    9979    10012    10044    10066    10083    10093    10103    10106 
   10100    10093    10083    10065    10049    10035    10023    10017 
   10018    10031    10057    10081    10107    10138    10183    10243 
   10320    10403    10478    10547    10619    10694    10762    10827 
   10894    10956    11018    11082    11130    11180    11233    11280 
   11334    11403    11472    11535    11589    11639    11688    11735 
   11773    11805    11842    11871    11885    11886    11877    11858 
   11824    11778    11719    11645    11560    11476    11392    11300 
   11195    11088    10993    10897    10791    10690    10588    10478 
