Origin Time       2025/01/13 21:19:00
Lat.              31.8
Long.             131.6
Depth. (km)       30
Mag.              6.9
Station Code      KOCH10
Station Lat.      33.5313
Station Long.     133.4388
Station Height(m) -91
Record Time       2025/01/13 21:20:21
Sampling Freq(Hz) 100Hz
Duration Time(s)  164
Dir.              1
Scale Factor      3923(gal)/8224838
Max. Acc. (gal)   0.940
Last Correction   2025/01/13 21:20:21
Memo.             
[...]
  -48390   -48402   -48406   -48425   -48459   -48487   -48500   -48481 
  -48425   -48381   -48384   -48398   -48396   -48401   -48423   -48444 
  -48460   -48467   -48469   -48473   -48482   -48506   -48547   -48598 
  -48648   -48681   -48685   -48667   -48636   -48595   -48567   -48563 
  -48566   -48541   -48462   -48338   -48219   -48145   -48116   -48108 
  -48109   -48134   -48161   -48165   -48145   -48084   -47999   -47969 
  -48022   -48093   -48123   -48119   -48114   -48115   -48104   -48087 
  -48093   -48131   -48163   -48174   -48182   -48189   -48192   -48207 
  -48230   -48240   -48234   -48222   -48208   -48188   -48162   -48149 
  -48136   -48108   -48078   -48064   -48064   -48095   -48149   -48199 
  -48239   -48288   -48352   -48428   -48497   -48536   -48543   -48556 
  -48601   -48640   -48640   -48618   -48600   -48604   -48637   -48658 
  -48625   -48562   -48496   -48440   -48401   -48374   -48366   -48392 
  -48429   -48460   -48497   -48529   -48527   -48483   -48428   -48390 
  -48385   -48401   -48409   -48393   -48361   -48323   -48288   -48274 
  -48273   -48259   -48234   -48216   -48212   -48207   -48189   -48181 
  -48209   -48259   -48281   -48263   -48219   -48166   -48131   -48116 
  -48108   -48105   -48118   -48124   -48096   -48051   -48014   -47977 
  -47942   -47923   -47923   -47945   -47993   -48055   -48101   -48138 
  -48181   -48215   -48236   -48258   -48266   -48261   -48270   -48308 
  -48354   -48406   -48473   -48529   -48556   -48562   -48560   -48575 
  -48600   -48608   -48589   -48550   -48501   -48448   -48419   -48415 
  -48409   -48402   -48409   -48428   -48448   -48456   -48444   -48425 
  -48412   -48398   -48381   -48378   -48413   -48460   -48487   -48497 
  -48496   -48471   -48413   -48342   -48300   -48308   -48351   -48375 
  -48348   -48278   -48188   -48104   -48053   -48031   -48023   -48023 
  -48026   -48034   -48051   -48072   -48092   -48122   -48154   -48174 
  -48195   -48227   -48257   -48289   -48334   -48371   -48394   -48411 
  -48411   -48382   -48327   -48261   -48200   -48153   -48123   -48097 
  -48069   -48069   -48097   -48123   -48139   -48145   -48134   -48126 
  -48127   -48126   -48126   -48132   -48151   -48176   -48196   -48216 
  -48231   -48236   -48242   -48246   -48247   -48267   -48303   -48331 
  -48373   -48417   -48421   -48406   -48416   -48433   -48448   -48466 
  -48471   -48459   -48450   -48450   -48448   -48450   -48454   -48452 
  -48450   -48450   -48448   -48450   -48455   -48452   -48452   -48482 
  -48532   -48586   -48648   -48691   -48698   -48694   -48693   -48672 
  -48636   -48610   -48594   -48573   -48543   -48512   -48483   -48456 
  -48435   -48406   -48347   -48267   -48207   -48162   -48119   -48095 
  -48095   -48108   -48142   -48190   -48231   -48258   -48285   -48319 
  -48358   -48400   -48435   -48465   -48500   -48543   -48563   -48566 
  -48579   -48606   -48629   -48640   -48636   -48621   -48617   -48633 
  -48674   -48744   -48817   -48864   -48902   -48929   -48924   -48901 
  -48887   -48898   -48924   -48941   -48964   -48995   -48998   -48975 
  -48945   -48899   -48818   -48713   -48621   -48564   -48535   -48509 
  -48479   -48438   -48394   -48359   -48342   -48339   -48343   -48334 
  -48305   -48274   -48247   -48219   -48201   -48208   -48226   -48235 
  -48247   -48289   -48339   -48359   -48346   -48312   -48286   -48294 
  -48316   -48311   -48286   -48267   -48261   -48266   -48285   -48311 
  -48330   -48332   -48332   -48344   -48355   -48361   -48357   -48342 
  -48332   -48342   -48343   -48315   -48271   -48239   -48231   -48239 
  -48253   -48270   -48286   -48311   -48342   -48367   -48382   -48398 
  -48425   -48469   -48527   -48585   -48636   -48689   -48745   -48807 
  -48852   -48871   -48883   -48894   -48903   -48914   -48914   -48897 
  -48861   -48820   -48786   -48757   -48713   -48664   -48637   -48639 
  -48679   -48748   -48820   -48878   -48917   -48946   -48972   -48969 
  -48944   -48934   -48945   -48964   -48978   -48969   -48961   -48978 
  -48999   -49007   -49010   -49018   -49023   -48999   -48937   -48849 
  -48745   -48644   -48564   -48519   -48493   -48467   -48450   -48459 
  -48481   -48494   -48496   -48473   -48417   -48338   -48254   -48180 
  -48123   -48088   -48070   -48076   -48105   -48127   -48126   -48127 
  -48146   -48162   -48174   -48200   -48230   -48258   -48284   -48292 
  -48273   -48258   -48271   -48312   -48358   -48378   -48370   -48340 
  -48294   -48254   -48251   -48285   -48331   -48369   -48397   -48425 
  -48443   -48443   -48436   -48421   -48390   -48351   -48313   -48284 
  -48249   -48207   -48165   -48114   -48053   -48003   -47981   -47977 
  -47987   -48016   -48042   -48042   -48037   -48042   -48064   -48104 
  -48150   -48190   -48242   -48293   -48331   -48362   -48382   -48394 
  -48412   -48446   -48483   -48498   -48483   -48455   -48424   -48401 
  -48375   -48351   -48351   -48375   -48390   -48385   -48362   -48338 
  -48334   -48348   -48357   -48335   -48301   -48289   -48292   -48278 
  -48234   -48181   -48134   -48087   -48042   -48004   -47977   -47973 
  -47987   -47985   -47968   -47941   -47929   -47952   -47980   -48003 
  -48042   -48084   -48109   -48131   -48162   -48200   -48234   -48257 
  -48266   -48267   -48267   -48253   -48216   -48177   -48145   -48104 
  -48054   -48015   -47991   -47983   -47987   -47987   -47970   -47950 
  -47956   -47992   -48027   -48051   -48081   -48126   -48169   -48215 
  -48281   -48367   -48450   -48505   -48525   -48497   -48439   -48400 
  -48385   -48371   -48371   -48404   -48467   -48551   -48633   -48679 
  -48686   -48675   -48659   -48645   -48625   -48585   -48535   -48494 
  -48466   -48451   -48465   -48514   -48583   -48655   -48730   -48801 
  -48848   -48871   -48883   -48879   -48865   -48855   -48841   -48825 
  -48810   -48784   -48744   -48699   -48660   -48635   -48617   -48600 
  -48582   -48563   -48554   -48551   -48536   -48523   -48527   -48550 
  -48574   -48570   -48533   -48485   -48440   -48398   -48352   -48307 
  -48261   -48200   -48132   -48078   -48049   -48038   -48031   -48016 
  -47991   -47964   -47952   -47945   -47925   -47892   -47876   -47891 
  -47919   -47937   -47935   -47922   -47889   -47841   -47795   -47754 
  -47723   -47702   -47686   -47675   -47680   -47702   -47726   -47741 
  -47756   -47777   -47799   -47823   -47864   -47914   -47954   -47988 
  -48037   -48108   -48174   -48232   -48305   -48379   -48435   -48470 
  -48489   -48504   -48533   -48563   -48573   -48560   -48527   -48474 
  -48415   -48351   -48286   -48243   -48224   -48212   -48205   -48200 
  -48185   -48169   -48178   -48219   -48273   -48324   -48361   -48379 
  -48389   -48392   -48389   -48388   -48373   -48348   -48336   -48336 
  -48330   -48321   -48332   -48344   -48331   -48307   -48284   -48249 
  -48208   -48185   -48174   -48159   -48149   -48165   -48205   -48253 
  -48303   -48362   -48417   -48455   -48481   -48502   -48512   -48512 
  -48509   -48502   -48481   -48451   -48431   -48419   -48406   -48381 
  -48343   -48304   -48262   -48209   -48150   -48099   -48066   -48043 
  -48018   -48001   -48004   -48024   -48060   -48115   -48195   -48293 
  -48394   -48490   -48589   -48682   -48748   -48789   -48825   -48844 
  -48840   -48818   -48779   -48726   -48676   -48627   -48564   -48492 
  -48440   -48421   -48417   -48408   -48382   -48335   -48271   -48200 
  -48122   -48033   -47937   -47844   -47765   -47713   -47673   -47649 
  -47642   -47655   -47683   -47707   -47723   -47748   -47787   -47842 
  -47908   -47968   -48003   -48011   -47999   -47973   -47941   -47908 
  -47875   -47844   -47821   -47792   -47768   -47763   -47760   -47760 
  -47771   -47784   -47807   -47864   -47954   -48057   -48143   -48213 
  -48290   -48370   -48425   -48452   -48465   -48469   -48463   -48454 
  -48450   -48450   -48462   -48493   -48541   -48605   -48663   -48687 
  -48686   -48675   -48658   -48629   -48595   -48548   -48492   -48443 
  -48398   -48346   -48311   -48300   -48281   -48253   -48235   -48223 
  -48203   -48195   -48209   -48236   -48266   -48309   -48375   -48447 
  -48513   -48593   -48703   -48821   -48914   -48984   -49026   -49045 
  -49052   -49042   -49007   -48957   -48910   -48863   -48799   -48718 
  -48631   -48532   -48425   -48325   -48238   -48149   -48064   -47991 
  -47930   -47873   -47834   -47834   -47858   -47883   -47904   -47923 
  -47941   -47969   -48015   -48070   -48135   -48213   -48312   -48415 
  -48513   -48608   -48691   -48748   -48768   -48762   -48737   -48695 
  -48635   -48546   -48433   -48307   -48176   -48051   -47927   -47812 
  -47726   -47664   -47618   -47586   -47552   -47511   -47484   -47482 
  -47501   -47537   -47591   -47667   -47763   -47861   -47949   -48030 
  -48111   -48190   -48267   -48338   -48393   -48438   -48475   -48508 
  -48524   -48520   -48504   -48478   -48454   -48436   -48420   -48389 
  -48342   -48301   -48263   -48199   -48096   -47973   -47841   -47715 
  -47614   -47538   -47488   -47467   -47476   -47513   -47568   -47636 
  -47699   -47765   -47841   -47922   -48006   -48096   -48190   -48276 
  -48348   -48404   -48440   -48475   -48505   -48531   -48566   -48587 
  -48581   -48562   -48544   -48519   -48475   -48416   -48354   -48288 
  -48232   -48203   -48195   -48199   -48212   -48239   -48277   -48321 
  -48378   -48451   -48521   -48568   -48595   -48610   -48631   -48662 
  -48686   -48695   -48701   -48708   -48718   -48733   -48755   -48782 
  -48798   -48806   -48821   -48845   -48874   -48913   -48963   -49002 
  -49019   -49017   -48991   -48945   -48886   -48813   -48736   -48659 
  -48579   -48506   -48454   -48424   -48408   -48401   -48396   -48393 
  -48390   -48379   -48366   -48359   -48351   -48338   -48330   -48327 
  -48325   -48335   -48344   -48338   -48323   -48303   -48278   -48246 
  -48223   -48207   -48176   -48130   -48089   -48045   -47991   -47930 
  -47849   -47763   -47694   -47646   -47607   -47583   -47567   -47551 
  -47534   -47525   -47529   -47549   -47588   -47642   -47713   -47788 
  -47860   -47919   -47961   -48006   -48072   -48157   -48239   -48297 
  -48334   -48369   -48405   -48444   -48482   -48514   -48540   -48551 
  -48550   -48546   -48532   -48492   -48419   -48330   -48246   -48176 
  -48104   -48024   -47933   -47852   -47792   -47753   -47731   -47725 
  -47719   -47719   -47733   -47765   -47818   -47875   -47929   -47985 
  -48060   -48145   -48230   -48308   -48379   -48452   -48520   -48585 
  -48660   -48748   -48832   -48903   -48960   -48999   -49015   -49017 
  -49011   -48996   -48968   -48930   -48890   -48847   -48805   -48770 
  -48741   -48726   -48729   -48755   -48801   -48853   -48914   -48986 
  -49059   -49127   -49189   -49252   -49315   -49365   -49410   -49457 
  -49499   -49523   -49527   -49512   -49477   -49418   -49342   -49256 
  -49162   -49057   -48936   -48798   -48654   -48517   -48393   -48278 
  -48170   -48060   -47947   -47846   -47764   -47690   -47619   -47563 
  -47509   -47451   -47403   -47372   -47349   -47326   -47318   -47333 
  -47376   -47443   -47517   -47586   -47644   -47690   -47717   -47737 
  -47758   -47773   -47783   -47800   -47827   -47861   -47891   -47910 
  -47925   -47950   -47988   -48019   -48031   -48031   -48020   -48003 
  -47987   -47972   -47953   -47941   -47930   -47918   -47915   -47916 
  -47915   -47929   -47957   -47992   -48031   -48054   -48051   -48041 
  -48034   -48027   -48014   -47997   -47981   -47961   -47942   -47937 
  -47947   -47970   -48003   -48041   -48092   -48168   -48262   -48361 
  -48452   -48527   -48593   -48658   -48716   -48763   -48809   -48844 
  -48857   -48847   -48817   -48784   -48768   -48770   -48776   -48782 
  -48790   -48801   -48807   -48811   -48806   -48782   -48755   -48735 
  -48710   -48686   -48654   -48620   -48597   -48579   -48555   -48516 
  -48463   -48397   -48312   -48220   -48135   -48060   -48004   -47976 
  -47965   -47958   -47954   -47957   -47969   -47988   -48004   -48020 
  -48047   -48087   -48122   -48136   -48123   -48101   -48088   -48072 
  -48053   -48049   -48060   -48072   -48084   -48114   -48158   -48203 
  -48240   -48274   -48307   -48330   -48332   -48330   -48328   -48328 
  -48342   -48374   -48406   -48433   -48462   -48487   -48501   -48502 
  -48497   -48492   -48478   -48463   -48455   -48454   -48451   -48447 
  -48450   -48460   -48466   -48469   -48471   -48475   -48483   -48490 
  -48494   -48506   -48539   -48586   -48633   -48676   -48714   -48748 
  -48786   -48817   -48834   -48852   -48870   -48878   -48887   -48892 
  -48882   -48867   -48859   -48849   -48837   -48829   -48817   -48799 
  -48794   -48809   -48830   -48845   -48849   -48851   -48848   -48851 
  -48859   -48861   -48856   -48856   -48868   -48882   -48890   -48902 
  -48925   -48949   -48967   -48972   -48973   -48988   -49014   -49048 
  -49091   -49129   -49164   -49202   -49239   -49265   -49280   -49287 
  -49295   -49306   -49319   -49335   -49346   -49335   -49307   -49275 
  -49242   -49196   -49144   -49088   -49007   -48894   -48768   -48643 
  -48527   -48424   -48324   -48217   -48116   -48037   -47973   -47911 
  -47849   -47794   -47745   -47702   -47664   -47621   -47569   -47509 
  -47430   -47340   -47251   -47160   -47067   -46982   -46916   -46858 
  -46803   -46757   -46712   -46665   -46626   -46581   -46525   -46472 
  -46437   -46413   -46392   -46375   -46365   -46368   -46381   -46404 
  -46431   -46467   -46512   -46556   -46596   -46646   -46700   -46755 
  -46823   -46904   -46989   -47079   -47171   -47268   -47370   -47467 
  -47561   -47655   -47744   -47826   -47898   -47954   -48016   -48093 
  -48166   -48213   -48247   -48290   -48342   -48400   -48452   -48490 
  -48510   -48524   -48529   -48527   -48527   -48541   -48568   -48594 
  -48610   -48627   -48648   -48678   -48718   -48774   -48830   -48882 
  -48932   -48983   -49040   -49087   -49110   -49118   -49123   -49119 
  -49103   -49079   -49056   -49040   -49030   -49030   -49041   -49054 
  -49065   -49073   -49084   -49096   -49111   -49125   -49130   -49125 
  -49113   -49104   -49104   -49102   -49080   -49052   -49029   -49005 
  -48972   -48938   -48906   -48875   -48844   -48816   -48798   -48783 
  -48776   -48771   -48767   -48768   -48776   -48790   -48805   -48818 
  -48833   -48857   -48894   -48937   -48983   -49034   -49087   -49137 
  -49176   -49204   -49230   -49257   -49288   -49320   -49347   -49364 
  -49365   -49356   -49335   -49304   -49270   -49245   -49225   -49204 
  -49180   -49154   -49127   -49098   -49065   -49036   -49003   -48963 
  -48914   -48855   -48780   -48702   -48621   -48525   -48416   -48305 
  -48197   -48089   -47981   -47868   -47750   -47638   -47545   -47471 
  -47407   -47345   -47287   -47232   -47179   -47124   -47069   -47025 
  -46992   -46962   -46942   -46932   -46924   -46921   -46936   -46959 
  -46988   -47028   -47079   -47136   -47194   -47243   -47286   -47335 
  -47395   -47464   -47536   -47602   -47675   -47753   -47819   -47876 
  -47926   -47974   -48037   -48101   -48157   -48208   -48253   -48290 
  -48332   -48374   -48413   -48451   -48485   -48519   -48551   -48582 
  -48616   -48647   -48675   -48705   -48729   -48745   -48757   -48760 
  -48753   -48744   -48733   -48722   -48721   -48725   -48722   -48720 
  -48724   -48718   -48701   -48675   -48640   -48593   -48536   -48474 
  -48408   -48342   -48284   -48230   -48174   -48127   -48091   -48055 
  -48031   -48012   -47985   -47961   -47933   -47888   -47846   -47812 
  -47776   -47744   -47725   -47714   -47696   -47675   -47656   -47636 
  -47607   -47574   -47530   -47480   -47434   -47393   -47353   -47320 
  -47287   -47254   -47216   -47183   -47160   -47143   -47140   -47170 
  -47221   -47278   -47343   -47421   -47513   -47611   -47722   -47853 
  -47996   -48153   -48324   -48497   -48656   -48799   -48941   -49090 
  -49239   -49377   -49497   -49592   -49661   -49719   -49774   -49829 
  -49885   -49932   -49968   -49990   -49998   -49990   -49966   -49929 
  -49894   -49858   -49809   -49754   -49697   -49642   -49592   -49542 
  -49491   -49445   -49404   -49351   -49284   -49211   -49133   -49053 
  -48982   -48915   -48847   -48775   -48703   -48627   -48547   -48474 
  -48405   -48340   -48278   -48224   -48177   -48124   -48068   -48016 
  -47988   -47985   -47989   -47996   -48014   -48031   -48041   -48050 
  -48064   -48072   -48077   -48085   -48089   -48093   -48092   -48080 
  -48073   -48074   -48080   -48091   -48104   -48122   -48151   -48195 
  -48243   -48294   -48342   -48386   -48439   -48498   -48548   -48579 
  -48600   -48614   -48635   -48649   -48651   -48635   -48601   -48552 
  -48490   -48413   -48320   -48215   -48105   -47996   -47883   -47772 
  -47676   -47592   -47509   -47426   -47355   -47298   -47258   -47220 
  -47191   -47179   -47178   -47190   -47210   -47232   -47255   -47287 
  -47329   -47376   -47432   -47483   -47528   -47571   -47606   -47636 
  -47653   -47659   -47661   -47653   -47629   -47603   -47582   -47568 
  -47561   -47556   -47552   -47545   -47541   -47541   -47541   -47547 
  -47560   -47572   -47591   -47623   -47668   -47717   -47771   -47830 
  -47893   -47969   -48054   -48135   -48212   -48288   -48359   -48436 
  -48520   -48602   -48682   -48768   -48855   -48925   -48987   -49056 
  -49130   -49198   -49258   -49316   -49376   -49435   -49493   -49540 
  -49582   -49634   -49686   -49729   -49766   -49800   -49829   -49854 
  -49879   -49909   -49931   -49944   -49958   -49972   -49982   -49994 
  -50012   -50024   -50021   -50005   -49975   -49939   -49905   -49864 
  -49806   -49732   -49642   -49534   -49418   -49296   -49169   -49036 
  -48897   -48766   -48643   -48514   -48388   -48265   -48136   -48008 
  -47889   -47783   -47682   -47590   -47514   -47459   -47413   -47367 
  -47328   -47306   -47297   -47290   -47289   -47290   -47297   -47321 
  -47352   -47383   -47428   -47482   -47530   -47569   -47610   -47645 
  -47668   -47683   -47695   -47704   -47710   -47704   -47682   -47649 
  -47622   -47594   -47568   -47545   -47520   -47495   -47488   -47486 
  -47479   -47478   -47479   -47483   -47479   -47467   -47461   -47466 
  -47470   -47471   -47471   -47479   -47495   -47518   -47553   -47599 
  -47642   -47684   -47727   -47765   -47790   -47800   -47812   -47833 
  -47848   -47856   -47866   -47875   -47885   -47904   -47930   -47961 
  -47999   -48039   -48077   -48105   -48132   -48166   -48197   -48215 
  -48230   -48246   -48261   -48276   -48289   -48305   -48327   -48350 
  -48375   -48405   -48436   -48475   -48523   -48563   -48597   -48628 
  -48658   -48683   -48709   -48725   -48726   -48720   -48709   -48693 
  -48683   -48679   -48671   -48659   -48645   -48622   -48586   -48540 
  -48483   -48420   -48361   -48319   -48280   -48236   -48201   -48173 
  -48143   -48112   -48082   -48058   -48037   -48015   -47999   -47996 
  -48001   -48008   -48026   -48055   -48087   -48119   -48163   -48212 
  -48262   -48323   -48390   -48452   -48512   -48573   -48635   -48685 
  -48718   -48741   -48753   -48768   -48797   -48829   -48855   -48879 
  -48902   -48929   -48968   -49010   -49052   -49088   -49117   -49146 
