Origin Time       2025/01/13 21:19:00
Lat.              31.8
Long.             131.6
Depth. (km)       30
Mag.              6.9
Station Code      KOCH05
Station Lat.      33.6472
Station Long.     133.1444
Station Height(m) 260
Record Time       2025/01/13 21:20:15
Sampling Freq(Hz) 100Hz
Duration Time(s)  137
Dir.              4
Scale Factor      7845(gal)/8223790
Max. Acc. (gal)   2.098
Last Correction   2025/01/13 21:20:15
Memo.             
[...]
    1826     1744     1737     1779     1872     1929     1776     1467 
    1178     1061     1306     1858     2369     2659     2678     2320 
    1714     1175      892      901     1155     1524     1813     1853 
    1615     1232      931      870     1009     1254     1594     1930 
    2043     1941     1864     1873     1821     1667     1482     1313 
    1237     1335     1559     1750     1746     1555     1317     1071 
     864      884     1139     1420     1645     1777     1744     1567 
    1227      789      585      724      999     1359     1809     2127 
    2107     1773     1351     1102     1036     1044     1190     1489 
    1772     1927     1927     1814     1669     1490     1298     1212 
    1233     1242     1281     1485     1645     1501     1224     1061 
    1044     1200     1416     1466     1305     1070      939     1046 
    1370     1702     1868     1929     1960     1935     1933     1984 
    1992     1965     1900     1745     1671     1821     2041     2204 
    2311     2322     2247     2127     1906     1621     1471     1485 
    1514     1564     1688     1810     1858     1863     1915     2002 
    1900     1533     1139      891      784      864     1085     1221 
    1193     1139     1121     1136     1194     1236     1243     1333 
    1518     1663     1723     1688     1530     1331     1227     1310 
    1594     1944     2145     2134     2006     1869     1829     1911 
    1934     1768     1556     1421     1351     1352     1408     1510 
    1674     1804     1830     1783     1625     1325      988      765 
     843     1264     1642     1626     1399     1224     1092     1023 
    1092     1232     1382     1570     1722     1678     1497     1347 
    1212     1156     1294     1482     1555     1534     1483     1466 
    1385     1107      857      955     1356     1818     2146     2241 
    2173     2070     2011     2079     2161     1987     1572     1196 
    1032     1113     1367     1688     1993     2099     1884     1521 
    1237     1088     1011      938      878      877      980     1227 
    1555     1810     1863     1713     1453     1135      831      753 
    1008     1397     1675     1848     1953     1872     1615     1378 
    1350     1602     1942     2145     2247     2272     2134     1923 
    1768     1637     1521     1524     1688     1838     1717     1331 
    1080     1321     1868     2261     2276     1937     1480     1270 
    1417     1719     1880     1722     1435     1333     1413     1490 
    1467     1371     1339     1409     1435     1305     1070      903 
     931     1190     1593     1834     1738     1522     1339     1161 
    1092     1115     1042      955     1020     1159     1285     1382 
    1379     1231     1039     1058     1425     1853     1975     1829 
    1549     1065      483      176      328      789     1273     1536 
    1566     1521     1467     1381     1371     1532     1694     1663 
    1532     1506     1620     1725     1790     1921     1981     1750 
    1348     1054     1005     1205     1540     1846     1991     1926 
    1760     1614     1433     1173      996     1027     1260     1638 
    1952     2019     1952     1817     1517     1156      928      842 
     874     1085     1480     1925     2230     2281     2084     1672 
    1150      799      864     1262     1730     2069     2170     2066 
    1872     1687     1588     1595     1668     1829     2074     2300 
    2400     2299     1985     1579     1235     1089     1185     1354 
    1389     1320     1316     1378     1408     1435     1514     1552 
    1386     1081      957     1189     1606     1971     2178     2211 
    2033     1598     1101      978     1294     1594     1633     1629 
    1692     1719     1707     1702     1674     1510     1093      675 
     669      994     1314     1551     1686     1653     1514     1372 
    1327     1540     1977     2269     2214     1980     1676     1318 
    1120     1223     1431     1552     1618     1629     1570     1547 
    1605     1633     1571     1543     1696     1921     1995     1922 
    1786     1544     1185      854      723      781      905     1115 
    1417     1660     1736     1572     1175      849      891     1158 
    1418     1696     1926     1837     1413     1019      972     1201 
    1428     1547     1602     1536     1364     1252     1215     1196 
    1240     1341     1433     1495     1506     1432     1304     1221 
    1233     1366     1607     1804     1777     1495     1082      811 
     978     1605     2313     2668     2439     1711      903      340 
      79      292     1101     2141     2794     2679     1900      986 
     403      211      325      726     1331     1933     2274     2239 
    1923     1428      892      598      679      965     1216     1364 
    1602     2011     2327     2431     2474     2354     1823     1051 
     486      372      710     1405     2253     2916     3033     2459 
    1449      554      148      112      211      585     1274     1838 
    2065     2170     2116     1652      893      310      280      828 
    1668     2388     2640     2307     1576      820      446      631 
    1085     1378     1394     1262     1134     1107     1216     1393 
    1425     1235     1058     1086     1313     1682     2047     2192 
    2077     1838     1516     1181     1147     1478     1867     2203 
    2484     2593     2529     2281     1783     1193      841      966 
    1510     2147     2573     2597     2137     1358      724      653 
    1123     1742     2060     1968     1818     1777     1741     1771 
    1756     1432     1036      967     1263     1752     2162     2285 
    2145     1865     1512     1102      706      473      494      770 
    1279     1806     1991     1726     1335     1232     1420     1548 
    1460     1363     1410     1529     1652     1719     1586     1237 
     959     1044     1428     1755     1715     1348     1040     1081 
    1413     1858     2114     1875     1351     1075     1190     1487 
    1749     1769     1521     1232     1080     1098     1266     1439 
    1533     1626     1713     1705     1528     1152      758      692 
    1047     1570     2022     2280     2176     1742     1306     1089 
    1086     1223     1360     1467     1647     1771     1564     1134 
     873      953     1262     1617     1864     1968     1949     1827 
    1707     1722     1871     1926     1652     1198      868      750 
     891     1252     1575     1656     1472     1108      827      838 
    1054     1336     1656     1925     2022     1983     1956     2025 
    2139     2147     1934     1567     1269     1206     1309     1355 
    1333     1413     1651     2002     2297     2216     1715     1143 
     811      841     1138     1395     1439     1422     1560     1921 
    2316     2362     1931     1278      656      268      346      924 
    1721     2353     2596     2451     2054     1532      976      611 
     710     1181     1668     2016     2191     2120     1914     1745 
    1568     1363     1297     1375     1372     1318     1440     1649 
    1841     2153     2408     2201     1532      723      102       31 
     708     1799     2640     2764     2141     1167      402      129 
     376     1058     1845     2290     2296     2092     1860     1688 
    1590     1458     1312     1324     1421     1360     1173     1092 
    1124     1235     1561     1981     2058     1633      980      513 
     581     1213     2002     2443     2322     1779     1219     1034 
    1313     1881     2405     2560     2320     1861     1359     1065 
    1108     1294     1445     1491     1345     1151     1189     1449 
    1672     1732     1709     1664     1482     1051      561      341 
     541     1119     1908     2555     2646     2084     1178      379 
      74      403     1090     1726     2160     2331     2138     1669 
    1209     1003     1084     1337     1683     1948     1892     1610 
    1425     1517     1907     2413     2666     2473     1907     1096 
     352      206      830     1788     2643     3159     2940     1871 
     676      248      735     1571     2182     2403     2226     1638 
     885      484      664     1117     1543     1921     2087     1788 
    1197      743      689     1040     1530     1840     1853     1561 
    1043      630      596      843     1259     1803     2160     2020 
    1559     1167     1075     1298     1764     2354     2797     2843 
    2490     1871     1258     1003     1231     1869     2670     3175 
    3102     2605     1937     1270      824      776     1086     1502 
    1624     1306      928      953     1428     2070     2463     2243 
    1493      719      288      290      683     1259     1856     2266 
    2116     1522     1039      857      911     1159     1424     1625 
    1858     2016     1899     1611     1404     1359     1498     1834 
    2170     2269     2178     1998     1728     1598     1802     2065 
    2073     1799     1263      618      265      500     1250     2096 
    2525     2350     1784     1092      430       17      162      826 
    1512     1881     1939     1651     1066      575      565     1069 
    1744     2189     2200     1740     1017      444      301      649 
    1256     1709     1817     1575     1100      743      681      780 
     997     1275     1354     1120      712      351      265      521 
     969     1435     1744     1721     1367      882      541      589 
    1053     1605     1856     1699     1348     1115     1123     1251 
    1335     1324     1290     1345     1520     1732     1885     1895 
    1721     1429     1159     1028     1009     1023     1135     1401 
    1737     2074     2295     2200     1771     1232      839      738 
     955     1383     1833     2172     2331     2250     1998     1773 
    1648     1525     1351     1165     1026      973     1021     1140 
    1308     1483     1435     1051      642      504      615      895 
    1286     1602     1734     1733     1560     1237     1021     1008 
    1070     1270     1652     1900     1868     1833     1884     1875 
    1844     1849     1750     1507     1258     1093     1097     1350 
    1714     1895     1728     1297      901      819      996     1200 
    1294     1200      911      623      614      934     1316     1568 
    1752     1806     1555     1134      882      965     1263     1588 
    1931     2270     2359     2030     1444      988      951     1229 
    1610     2066     2431     2336     1742     1065      722      820 
    1239     1782     2180     2116     1528      805      414      589 
    1270     1894     1907     1440      893      554      637     1096 
    1701     2182     2246     1925     1493      928      284       63 
     530     1305     1961     2365     2447     2120     1433      738 
     510      868     1510     2072     2327     2191     1765     1394 
    1381     1718     2165     2358     2108     1634     1205      993 
    1175     1679     2235     2656     2737     2354     1676     1034 
     776      973     1294     1532     1741     1765     1443     1028 
     862      980     1116     1082     1070     1202     1275     1217 
    1192     1267     1320     1179      905      780      915     1179 
    1517     1945     2339     2473     2253     1853     1553     1491 
    1633     1869     2137     2381     2477     2336     1950     1386 
     990     1170     1764     2223     2299     2119     1885     1723 
    1723     1953     2319     2578     2523     2151     1745     1544 
    1422     1290     1359     1629     1822     1873     1880     1852 
    1803     1798     1966     2371     2693     2600     2200     1718 
    1301     1161     1333     1605     1840     1930     1750     1444 
    1193      935      706      765     1134     1525     1738     1728 
    1560     1313      981      703      710     1013     1521     2120 
    2493     2367     1838     1231      835      796     1105     1641 
    2196     2436     2166     1584      961      476      425      892 
    1491     1871     1914     1588     1127      885      961     1243 
    1576     1814     1890     1845     1804     1795     1676     1513 
    1578     1795     1881     1912     1999     1960     1822     1836 
    1944     2008     2074     2022     1780     1524     1279     1119 
    1316     1780     2188     2427     2381     1915     1215      672 
     519      746     1156     1503     1695     1792     1721     1329 
     766      405      438      859     1634     2486     2851     2536 
    1896     1290      994     1163     1570     1864     1966     1950 
    1869     1804     1803     1779     1599     1336     1163     1063 
    1023     1152     1398     1621     1822     2007     2046     1849 
    1556     1387     1391     1571     1931     2331     2556     2517 
    2296     2000     1706     1505     1402     1336     1448     1885 
    2416     2683     2528     1993     1329      849      685      847 
    1320     1941     2361     2350     1956     1336      741      467 
     576      954     1470     1933     2199     2273     2172     1877 
    1470     1192     1224     1412     1482     1422     1351     1256 
    1171     1327     1690     1821     1529     1030      548      352 
     594     1011     1312     1440     1289      751       21     -534 
    -708     -494       55      770     1381     1686     1601     1229 
     819      480      207       90      157      255      313      453 
     719      984     1147     1170      977      614      398      510 
     757     1046     1478     1962     2382     2731     2906     2798 
    2474     2080     1775     1779     2201     2809     3226     3164 
    2523     1641     1001      727      814     1252     1741     1969 
    2012     2034     2049     2100     2122     1971     1749     1576 
    1360     1240     1521     2060     2501     2737     2748     2508 
    2056     1497     1104     1115     1432     1860     2297     2602 
    2690     2616     2442     2277     2249     2339     2493     2681 
    2808     2795     2612     2250     1892     1767     1829     1857 
    1694     1358     1071      985      985      930      878      950 
    1097     1193     1232     1227     1062      730      542      774 
    1237     1564     1659     1610     1512     1426     1329     1198 
    1071      978      938     1007     1232     1512     1629     1568 
    1521     1543     1507     1431     1440     1510     1506     1432 
    1410     1441     1463     1566     1775     1831     1521      962 
     526      522      900     1401     1881     2227     2227     1921 
    1717     1842     2060     2138     2073     1865     1533     1282 
    1410     1950     2505     2687     2435     1831     1073      448 
     110      122      472      927     1246     1354     1193      796 
     419      272      340      557      909     1316     1630     1755 
    1740     1765     1863     1931     2079     2340     2396     2142 
    1910     1888     2054     2397     2759     2843     2594     2154 
    1674     1410     1509     1769     1939     1960     1837     1587 
    1244      939      870      969      982      955     1077     1300 
    1495     1626     1663     1626     1570     1439     1281     1275 
    1379     1431     1463     1489     1374     1115      849      639 
     491      429      421      340      191       72      -43     -160 
    -211     -228     -248     -253     -286     -261       -9      336 
     534      621      626      432       89     -117       67      565 
    1036     1328     1551     1701     1672     1526     1394     1317 
    1314     1370     1460     1644     1926     2145     2189     2143 
    2065     1865     1534     1298     1399     1856     2438     2866 
    3005     2875     2612     2340     2150     2110     2185     2285 
    2381     2450     2454     2376     2222     2038     1895     1788 
    1692     1657     1718     1829     1952     2037     2023     1904 
    1728     1559     1449     1425     1547     1864     2330     2767 
    2949     2809     2409     1850     1381     1275     1543     1961 
    2273     2315     2116     1840     1595     1343     1066      901 
     899      963     1063     1117     1034      889      812      812 
     778      681      643      691      783      965     1235     1513 
    1750     1921     1993     1984     1980     2007     1948     1844 
    1871     1972     2019     2077     2178     2170     1993     1822 
    1815     1915     2029     2164     2242     2095     1763     1478 
    1325     1220     1215     1395     1594     1642     1634     1644 
    1578     1402     1197     1007      843      784      845      962 
    1138     1362     1507     1498     1409     1324     1273     1302 
    1409     1463     1435     1462     1621     1883     2126     2143 
    1875     1487     1129      924     1005     1289     1537     1692 
    1860     2076     2208     2080     1717     1356     1178     1198 
    1383     1680     1921     1934     1788     1702     1719     1726 
    1717     1709     1578     1251      931      899     1156     1460 
    1659     1734     1624     1273      839      592      556      552 
     552      584      561      469      375      318      383      598 
     811      893      873      824      772      747      772      838 
     939     1032     1039      942      816      750      797      949 
    1198     1556     1876     1973     1894     1742     1491     1209 
    1124     1344     1764     2165     2398     2463     2319     1922 
    1459     1198     1227     1463     1734     1833     1719     1610 
    1687     1890     2072     2145     2088     1958     1880     1906 
    1989     2080     2173     2266     2378     2505     2562     2519 
    2458     2397     2342     2361     2423     2419     2365     2211 
    1813     1281      866      669      685      851     1074     1313 
    1445     1339     1097      896      773      754      913     1229 
    1574     1787     1773     1632     1482     1323     1262     1480 
    1833     2057     2137     2135     2043     1850     1614     1524 
    1667     1834     1818     1611     1336     1131      996      900 
     926     1050     1102     1075     1061      973      777      627 
     567      526      496      491      529      594      611      611 
     658      665      614      680      832      864      804      788 
     799      812      882     1034     1246     1497     1726     1822 
    1734     1497     1216     1065     1173     1506     1881     2150 
    2276     2166     1826     1561     1568     1710     1856     1988 
    2056     2030     1985     1979     1979     2007     2089     2162 
    2205     2253     2299     2308     2292     2369     2613     2849 
    2920     2859     2702     2492     2305     2124     1962     1922 
    2007     2120     2178     2166     2124     2057     1966     1888 
    1783     1629     1574     1736     2029     2281     2380     2331 
    2223     2155     2180     2247     2277     2153     1822     1521 
    1533     1748     1914     2046     2170     2122     1830     1451 
