Origin Time       2025/01/13 21:19:00
Lat.              31.8
Long.             131.6
Depth. (km)       30
Mag.              6.9
Station Code      KOCH08
Station Lat.      32.7797
Station Long.     132.9718
Station Height(m) 5
Record Time       2025/01/13 21:20:03
Sampling Freq(Hz) 100Hz
Duration Time(s)  179
Dir.              5
Scale Factor      7845(gal)/8223790
Max. Acc. (gal)   3.227
Last Correction   2025/01/13 21:20:04
Memo.             
[...]
  -11777   -11769   -11529   -11323   -11408   -11723   -11893   -11657 
  -11172   -10783   -10660   -10783   -11045   -11288   -11452   -11669 
  -12044   -12457   -12665   -12548   -12243   -11963   -11712   -11373 
  -11010   -10820   -10903   -11214   -11588   -11746   -11454   -10791 
  -10158    -9991   -10405   -11079   -11611   -11763   -11457   -10937 
  -10728   -11090   -11803   -12467   -12803   -12780   -12569   -12352 
  -12212   -12129   -11996   -11727   -11400   -11217   -11302   -11551 
  -11799   -12021   -12174   -12077   -11708   -11340   -11253   -11535 
  -12037   -12453   -12549   -12298   -11911   -11718   -11778   -11790 
  -11516   -10937   -10187    -9659    -9725   -10350   -11241   -12082 
  -12518   -12303   -11554   -10797   -10573   -10883   -11263   -11383 
  -11214   -10828   -10422   -10304   -10628   -11203   -11705   -11939 
  -11869   -11649   -11566   -11742   -12051   -12351   -12502   -12347 
  -11932   -11457   -11016   -10681   -10542   -10559   -10621   -10681 
  -10822   -11190   -11720   -12123   -12175   -11900   -11465   -11078 
  -10876   -10916   -11159   -11323   -11049   -10454   -10075   -10282 
  -10986   -11699   -11897   -11473   -10729   -10111    -9981   -10339 
  -10814   -11092   -11110   -10941   -10836   -11061   -11480   -11619 
  -11259   -10692   -10312   -10243   -10431   -10804   -11253   -11591 
  -11630   -11425   -11268   -11292   -11281   -11029   -10638   -10380 
  -10439   -10791   -11240   -11597   -11857   -12160   -12567   -12864 
  -12729   -12129   -11438   -11032   -10924   -10908   -10875   -10806 
  -10725   -10779   -11130   -11692   -12116   -12167   -11929   -11562 
  -11088   -10504    -9867    -9367    -9310    -9765   -10431   -10986 
  -11275   -11280   -11138   -10930   -10588   -10174    -9930    -9988 
  -10264   -10544   -10675   -10632   -10454   -10359   -10750   -11700 
  -12721   -13190   -12901   -12206   -11637   -11508   -11881   -12541 
  -12961   -12777   -12181   -11506   -10971   -10854   -11241   -11735 
  -11861   -11556   -11202   -11229   -11672   -12310   -12939   -13192 
  -12733   -11835   -11140   -10885   -10856   -10814   -10627   -10299 
  -10029   -10015   -10315   -10906   -11616   -12145   -12295   -12052 
  -11537   -10932   -10389    -9996    -9826    -9968   -10393   -10889 
  -11252   -11399   -11327   -11122   -10921   -10835   -10945   -11207 
  -11410   -11427   -11345   -11253   -11188   -11214   -11360   -11531 
  -11611   -11562   -11445   -11384   -11464   -11651   -11823   -11828 
  -11712   -11711   -11774   -11549   -10993   -10532   -10544   -10999 
  -11503   -11570   -11045   -10276    -9792    -9844   -10242   -10609 
  -10802   -11045   -11466   -11836   -11956   -11857   -11612   -11325 
  -11192   -11310   -11492   -11502   -11369   -11372   -11713   -12249 
  -12568   -12469   -12220   -12125   -12128   -12063   -11986   -11939 
  -11761   -11310   -10609    -9841    -9387    -9610   -10434   -11344 
  -11847   -11880   -11676   -11317   -10800   -10332   -10130   -10272 
  -10764   -11335   -11456   -10828    -9792    -9127    -9381   -10413 
  -11624   -12406   -12498   -12097   -11604   -11299   -11209   -11229 
  -11408   -11867   -12364   -12447   -12079   -11635   -11317   -11091 
  -11025   -11195   -11473   -11719   -12020   -12441   -12735   -12621 
  -12251   -12042   -12056   -11977   -11735   -11678   -11947   -12295 
  -12496   -12474   -12201   -11739   -11338   -11321   -11653   -11942 
  -11900   -11464   -10650    -9651    -8824    -8426    -8529    -9135 
  -10099   -11034   -11510   -11307   -10584    -9923    -9967   -10755 
  -11704   -12205   -12078   -11554   -10987   -10547   -10222   -10011 
  -10062   -10561   -11354   -11835   -11553   -10860   -10500   -10767 
  -11389   -11965   -12224   -12074   -11713   -11560   -11743   -11855 
  -11529   -10881   -10291   -10089   -10346   -10851   -11485   -12332 
  -13255   -13896   -14053   -13752   -13184   -12541   -11874   -11306 
  -11102   -11337   -11776   -12074   -11983   -11522   -10940   -10471 
  -10189   -10050    -9967    -9921   -10062   -10467   -10882   -10920 
  -10501   -10023    -9969   -10386   -10933   -11304   -11349   -11005 
  -10420    -9958    -9894   -10142   -10359   -10280    -9934    -9582 
   -9525    -9915   -10667   -11493   -11974   -11763   -10966   -10192 
   -9999   -10369   -10971   -11669   -12442   -13088   -13367   -13309 
  -13097   -12815   -12424   -11847   -11137   -10592   -10477   -10702 
  -11038   -11263   -11210   -11006   -11022   -11511   -12442   -13394 
  -13660   -12843   -11250    -9582    -8533    -8553    -9555   -10878 
  -11719   -11708   -11129   -10503   -10147   -10222   -10764   -11502 
  -11974   -11994   -11821   -11824   -12077   -12366   -12465   -12275 
  -11813   -11233   -10724   -10467   -10679   -11388   -12183   -12507 
  -12274   -11902   -11773   -11886   -12048   -12120   -12039   -11761 
  -11284   -10795   -10716   -11313   -12232   -12837   -12815   -12212 
  -11292   -10523   -10249   -10404   -10739   -11083   -11315   -11365 
  -11310   -11334   -11576   -11979   -12390   -12810   -13213   -13311 
  -12974   -12571   -12452   -12572   -12695   -12663   -12502   -12251 
  -11749   -10889    -9923    -9240    -9124    -9732   -10922   -12132 
  -12742   -12582   -12015   -11522   -11319   -11327   -11268   -11020 
  -10856   -11032   -11434   -11824   -11988   -11819   -11429   -10976 
  -10547   -10215    -9994    -9891   -10037   -10411   -10746   -10935 
  -11061   -11045   -10744   -10246    -9841    -9769    -9898    -9869 
   -9706    -9792   -10250   -10864   -11403   -11618   -11242   -10357 
   -9549    -9300    -9404    -9428    -9489    -9995   -10862   -11569 
  -11732   -11346   -10764   -10623   -11288   -12329   -12938   -12760 
  -12021   -11237   -10885   -11134   -11900   -12820   -13204   -12584 
  -11307   -10218    -9930   -10446   -11218   -11649   -11585   -11268 
  -10874   -10357    -9738    -9290    -9316    -9849   -10559   -11022 
  -11132   -11114   -11146   -11119   -10868   -10520   -10438   -10814 
  -11460   -12081   -12549   -12776   -12761   -12862   -13378   -13965 
  -14040   -13493   -12603   -11584   -10555    -9764    -9479    -9752 
  -10424   -11223   -11824   -11970   -11599   -10941   -10469   -10574 
  -11240   -11990   -12170   -11473   -10288    -9304    -8930    -9234 
  -10076   -11117   -11869   -12019   -11713   -11453   -11638   -12166 
  -12569   -12522   -12036   -11403   -11074   -11256   -11769   -12406 
  -12933   -12876   -11977   -10575    -9265    -8594    -8985   -10470 
  -12447   -13949   -14341   -13691   -12495   -11291   -10562   -10570 
  -11064   -11446   -11411   -11196   -11188   -11529   -12097   -12653 
  -12918   -12680   -11934   -10883    -9914    -9428    -9528    -9899 
  -10235   -10561   -10964   -11288   -11241   -10836   -10559   -10797 
  -11313   -11573   -11264   -10484    -9663    -9165    -9042    -9270 
   -9856   -10720   -11635   -12322   -12623   -12580   -12402   -12291 
  -12328   -12486   -12667   -12648   -12160   -11263   -10419   -10042 
  -10253   -10866   -11369   -11327   -10760    -9906    -9026    -8507 
   -8672    -9555   -10913   -12185   -12735   -12382   -11484   -10650 
  -10415   -10813   -11241   -11091   -10399    -9740    -9589    -9942 
  -10531   -11036   -11159   -10843   -10389   -10172   -10343   -10806 
  -11392   -11986   -12438   -12514   -12166   -11662   -11334   -11323 
  -11549   -11877   -12321   -12903   -13402   -13510   -13169   -12611 
  -12158   -11948   -11928   -12033   -12276   -12621   -12854   -12733 
  -12253   -11622   -11010   -10488   -10091    -9802    -9548    -9401 
   -9629   -10326   -11203   -11947   -12465   -12617   -12202   -11338 
  -10455    -9958   -10025   -10625   -11570   -12407   -12645   -12326 
  -11874   -11425   -10859   -10172    -9490    -9103    -9351   -10230 
  -11267   -11966   -12159   -11996   -11865   -12071   -12374   -12109 
  -11018    -9757    -9285    -9814   -10686   -11169   -11007   -10404 
   -9894   -10084   -11107   -12403   -13247   -13374   -13058   -12766 
  -12756   -12891   -12850   -12506   -11989   -11485   -11087   -10836 
  -10840   -11249   -12059   -12991   -13568   -13460   -12789   -12019 
  -11566   -11531   -11604   -11375   -10795   -10127    -9594    -9317 
   -9373    -9741   -10261   -10687   -10889   -10976   -11149   -11431 
  -11626   -11514   -11051   -10444   -10012    -9964   -10349   -11105 
  -12015   -12729   -12928   -12548   -11821   -11103   -10704   -10822 
  -11376   -11946   -12091   -11715   -11105   -10631   -10473   -10606 
  -10808   -10748   -10358   -10014   -10241   -11172   -12383   -13236 
  -13377   -12901   -12121   -11331   -10768   -10543   -10524   -10508 
  -10436   -10354   -10372   -10648   -11161   -11610   -11753   -11628 
  -11464   -11497   -11826   -12337   -12777   -12931   -12775   -12384 
  -11769   -10940   -10060    -9408    -9204    -9445    -9990   -10644 
  -11076   -11011   -10656   -10525   -10890   -11560   -12062   -12033 
  -11470   -10658    -9961    -9661    -9886   -10584   -11499   -12291 
  -12753   -12912   -12861   -12653   -12383   -12132   -11838   -11446 
  -11067   -10817   -10775   -11020   -11542   -12279   -13115   -13734 
  -13814   -13323   -12540   -11865   -11578   -11678   -11938   -12039 
  -11689   -10855    -9880    -9271    -9317    -9921   -10748   -11443 
  -11751   -11647   -11403   -11376   -11676   -12060   -12174   -11848 
  -11138   -10156    -9104    -8318    -8098    -8538    -9475   -10490 
  -11064   -10913   -10253    -9598    -9387    -9821   -10702   -11512 
  -11885   -11850   -11611   -11379   -11318   -11394   -11446   -11404 
  -11310   -11205   -11132   -11211   -11611   -12387   -13412   -14287 
  -14391   -13406   -11803   -10505   -10119   -10598   -11503   -12334 
  -12793   -12868   -12671   -12174   -11344   -10484   -10057   -10131 
  -10377   -10561   -10642   -10555   -10326   -10291   -10783   -11699 
  -12606   -13081   -12930   -12302   -11654   -11433   -11664   -11936 
  -11956   -11869   -11861   -11808   -11560   -11146   -10687   -10388 
  -10517   -11182   -12086   -12676   -12568   -11853   -11075   -10876 
  -11415   -12210   -12542   -11971   -10675    -9262    -8280    -7969 
   -8264    -8899    -9586   -10112   -10314   -10139    -9775    -9567 
   -9809   -10503   -11242   -11481   -11009   -10169    -9675   -10076 
  -11260   -12549   -13242   -13115   -12550   -12063   -11774   -11460 
  -10924   -10289    -9918    -9987   -10335   -10690   -10894   -10939 
  -10909   -10974   -11296   -11808   -12148   -12004   -11484   -11010 
  -10844   -10926   -11092   -11223   -11233   -11163   -11223   -11550 
  -11950   -12140   -12109   -12028   -12033   -12225   -12623   -13069 
  -13329   -13290   -13046   -12777   -12495   -12040   -11452   -11028 
  -10999   -11252   -11325   -10804    -9774    -8773    -8364    -8768 
   -9780   -10935   -11797   -12193   -12253   -12278   -12484   -12850 
  -13204   -13344   -12995   -12050   -10903   -10095    -9805    -9887 
  -10091   -10253   -10461   -10862   -11348   -11641   -11547   -11105 
  -10550   -10224   -10417   -11160   -12086   -12660   -12641   -12253 
  -11902   -11762   -11651   -11340   -10848   -10355    -9958    -9694 
   -9674    -9987   -10547   -11156   -11566   -11543   -11095   -10546 
  -10253   -10345   -10666   -10941   -11026   -10975   -10881   -10756 
  -10612   -10486   -10374   -10262   -10191   -10192   -10312   -10694 
  -11479   -12595   -13707   -14407   -14430   -13747   -12625   -11554 
  -10945   -10870   -11137   -11469   -11643   -11639   -11700   -12066 
  -12687   -13285   -13593   -13433   -12768   -11792   -10899   -10473 
  -10608   -11078   -11573   -11858   -11781   -11373   -10833   -10355 
  -10138   -10343   -10871   -11388   -11561   -11234   -10554    -9910 
   -9666    -9929   -10401   -10551   -10210    -9819    -9950   -10747 
  -11865   -12796   -13247   -13205   -12752   -12029   -11300   -10781 
  -10515   -10454   -10535   -10747   -11090   -11395   -11508   -11600 
  -11890   -12247   -12322   -11958   -11329   -10785   -10611   -10906 
  -11587   -12383   -12924   -12950   -12505   -11981   -11901   -12386 
  -12937   -12912   -12112   -10854    -9738    -9266    -9491   -10023 
  -10372   -10322   -10045    -9857    -9923   -10149   -10312   -10292 
  -10191   -10235   -10598   -11227   -11780   -11920   -11699   -11464 
  -11487   -11832   -12394   -12842   -12838   -12490   -12328   -12665 
  -13215   -13501   -13360   -12870   -12168   -11527   -11173   -10972 
  -10682   -10359   -10255   -10516   -11114   -11900   -12658   -13144 
  -13154   -12680   -11928   -11136   -10488   -10081    -9887    -9798 
   -9799    -9969   -10274   -10509   -10476   -10139    -9688    -9397 
   -9402    -9694   -10257   -11044   -11863   -12474   -12833   -13078 
  -13188   -12937   -12293   -11529   -10906   -10532   -10504   -10909 
  -11634   -12375   -12852   -12980   -12854   -12584   -12164   -11545 
  -10777   -10076    -9733    -9876   -10315   -10667   -10640   -10212 
   -9621    -9209    -9313   -10087   -11279   -12313   -12752   -12625 
  -12289   -12070   -12128   -12487   -12982   -13259   -13015   -12243 
  -11249   -10488   -10314   -10728   -11449   -12113   -12411   -12306 
  -12087   -11969   -11898   -11740   -11416   -10952   -10500   -10287 
  -10480   -11024   -11641   -12123   -12424   -12492   -12332   -12079 
  -11804   -11392   -10696    -9761    -8843    -8205    -7928    -7904 
   -8008    -8243    -8653    -9234    -9873   -10359   -10565   -10656 
  -10918   -11422   -12000   -12459   -12687   -12665   -12475   -12260 
  -12163   -12154   -12029   -11738   -11546   -11757   -12360   -12988 
  -13190   -12777   -11928   -11013   -10400   -10332   -10748   -11280 
  -11610   -11755   -11900   -12101   -12213   -12013   -11465   -10808 
  -10260    -9780    -9282    -8860    -8719    -8985    -9522   -10007 
  -10249   -10330   -10436   -10712   -11125   -11449   -11441   -11051 
  -10520   -10304   -10698   -11507   -12205   -12401   -12066   -11469 
  -10933   -10683   -10855   -11384   -11925   -12110   -11870   -11403 
  -10974   -10805   -10995   -11453   -11943   -12275   -12398   -12391 
  -12361   -12326   -12202   -11956   -11703   -11529   -11357   -11103 
  -10856   -10750   -10779   -10814   -10793   -10835   -11090   -11516 
  -11956   -12320   -12552   -12621   -12548   -12382   -12139   -11801 
  -11400   -11079   -11026   -11244   -11480   -11480   -11264   -11076 
  -11115   -11337   -11518   -11484   -11284   -11106   -11097   -11271 
  -11510   -11632   -11568   -11454   -11454   -11584   -11830   -12160 
  -12422   -12517   -12549   -12661   -12897   -13258   -13647   -13814 
  -13582   -13053   -12534   -12280   -12343   -12592   -12827   -12847 
  -12557   -12042   -11499   -11068   -10812   -10762   -10855   -10917 
  -10831   -10636   -10463   -10450   -10670   -11040   -11418   -11727 
  -11956   -12141   -12322   -12429   -12357   -12174   -12043   -12001 
  -11946   -11718   -11260   -10752   -10424   -10270   -10145    -9987 
   -9880    -9977   -10311   -10686   -10801   -10543   -10110    -9855 
   -9980   -10349   -10620   -10602   -10363   -10084    -9938   -10050 
  -10447   -11045   -11650   -12024   -12009   -11627   -11049   -10494 
  -10107    -9923    -9994   -10349   -10852   -11279   -11523   -11593 
  -11472   -11130   -10705   -10453   -10438   -10447   -10265    -9925 
   -9695    -9825   -10316   -10951   -11416   -11510   -11292   -11020 
  -10959   -11198   -11584   -11886   -11992   -11912   -11746   -11678 
  -11913   -12494   -13192   -13689   -13830   -13682   -13440   -13311 
  -13427   -13780   -14081   -13895   -13080   -11990   -11205   -11034 
  -11330   -11673   -11686   -11240   -10492    -9747    -9244    -9074 
   -9181    -9389    -9470    -9283    -8854    -8374    -8120    -8236 
   -8619    -9058    -9350    -9451    -9502    -9659    -9942   -10234 
  -10415   -10488   -10509   -10557   -10719   -11017   -11387   -11746 
  -12035   -12278   -12582   -12978   -13350   -13541   -13487   -13188 
  -12668   -12052   -11583   -11445   -11605   -11888   -12150   -12352 
  -12487   -12526   -12448   -12229   -11882   -11510   -11225   -11049 
  -10932   -10825   -10793   -10947   -11245   -11538   -11796   -12112 
  -12509   -12857   -13020   -13003   -12885   -12706   -12513   -12401 
  -12378   -12334   -12164   -11874   -11557   -11345   -11380   -11738 
  -12353   -13008   -13448   -13560   -13394   -13073   -12730   -12461 
  -12294   -12189   -12098   -12090   -12264   -12544   -12737   -12758 
  -12625   -12397   -12191   -12094   -12054   -11913   -11541   -10939 
  -10245    -9663    -9366    -9408    -9707   -10118   -10517   -10800 
  -10848   -10654   -10369   -10130    -9957    -9848    -9764    -9625 
   -9414    -9239    -9219    -9283    -9213    -8972    -8791    -8883 
   -9246    -9676    -9876    -9697    -9343    -9196    -9439    -9941 
  -10412   -10652   -10656   -10520   -10353   -10289   -10493   -10989 
  -11562   -11942   -11996   -11754   -11362   -11063   -11084   -11464 
  -12013   -12514   -12865   -13072   -13217   -13444   -13805   -14134 
  -14226   -14050   -13722   -13359   -13062   -12904   -12856   -12785 
  -12577   -12259   -11970   -11790   -11670   -11495   -11173   -10744 
  -10378   -10228   -10292   -10504   -10773   -10980   -11041   -10906 
  -10592   -10223    -9937    -9728    -9518    -9333    -9243    -9252 
   -9333    -9504    -9822   -10269   -10713   -11026   -11165   -11180 
  -11205   -11338   -11583   -11893   -12210   -12441   -12503   -12374 
  -12148   -12058   -12262   -12638   -12923   -12965   -12789   -12542 
  -12380   -12383   -12546   -12729   -12730   -12502   -12147   -11774 
  -11452   -11214   -11049   -10916   -10790   -10670   -10590   -10673 
  -11010   -11499   -11900   -12047   -11951   -11743   -11578   -11558 
  -11673   -11773   -11682   -11433   -11210   -11119   -11130   -11202 
  -11342   -11557   -11755   -11788   -11601   -11271   -10918   -10659 
  -10562   -10606   -10696   -10712   -10615   -10525   -10638   -10962 
  -11252   -11292   -11106   -10864   -10690   -10581   -10461   -10299 
  -10133    -9995    -9941   -10053   -10303   -10569   -10802   -11024 
  -11245   -11443   -11570   -11641   -11701   -11770   -11840   -11869 
  -11803   -11689   -11610   -11607   -11715   -11916   -12062   -11966 
  -11564   -10979   -10465   -10237   -10350   -10714   -11134   -11429 
  -11529   -11515   -11554   -11739   -12039   -12378   -12664   -12784 
  -12731   -12641   -12622   -12669   -12671   -12447   -11935   -11296 
  -10740   -10384   -10266   -10349   -10548   -10771   -10910   -10939 
  -10956   -11044   -11152   -11168   -11053   -10891   -10795   -10773 
  -10740   -10639   -10481   -10277   -10030    -9815    -9788   -10019 
  -10386   -10674   -10790   -10781   -10727   -10739   -10887   -11084 
  -11152   -11020   -10809   -10737   -10883   -11087   -11163   -11099 
  -11025   -11079   -11327   -11715   -12135   -12542   -12942   -13304 
  -13579   -13734   -13745   -13585   -13244   -12791   -12356   -12009 
  -11704   -11410   -11176   -11072   -11105   -11223   -11365   -11458 
  -11445   -11304   -11075   -10835   -10659   -10567   -10520   -10466 
