Origin Time       2025/01/13 21:19:00
Lat.              31.8
Long.             131.6
Depth. (km)       30
Mag.              6.9
Station Code      KOCH07
Station Lat.      33.3920
Station Long.     133.2866
Station Height(m) 5
Record Time       2025/01/13 21:20:17
Sampling Freq(Hz) 100Hz
Duration Time(s)  148
Dir.              4
Scale Factor      7845(gal)/8223790
Max. Acc. (gal)   2.971
Last Correction   2025/01/13 21:20:17
Memo.             
[...]
    5410     5514     5625     5618     5455     5373     5449     5478 
    5355     5131     4957     4945     4954     4826     4541     4147 
    3793     3565     3430     3477     3809     4376     5042     5549 
    5688     5597     5549     5648     5800     5822     5652     5405 
    5198     5036     4889     4773     4688     4573     4477     4527 
    4716     4943     5100     5130     5165     5324     5485     5448 
    5166     4835     4676     4691     4861     5228     5707     6096 
    6219     6033     5656     5243     4935     4831     4816     4700 
    4530     4452     4434     4460     4608     4850     4985     4904 
    4733     4646     4700     4977     5510     5991     6212     6362 
    6482     6421     6199     5914     5683     5553     5389     5090 
    4739     4446     4224     4008     3847     3829     3936     4190 
    4579     4847     4819     4672     4619     4666     4698     4595 
    4450     4504     4741     4915     4943     4928     4911     4872 
    4841     4872     4947     5036     5162     5313     5358     5209 
    4957     4731     4660     4796     4939     4920     4830     4741 
    4689     4796     5026     5179     5148     4978     4799     4725 
    4808     5090     5447     5624     5559     5387     5170     4938 
    4796     4853     5132     5413     5459     5377     5300     5246 
    5339     5509     5521     5421     5327     5242     5200     5201 
    5279     5468     5649     5752     5726     5458     5040     4738 
    4743     5090     5598     5992     6124     5964     5563     5112 
    4745     4448     4284     4332     4496     4689     4976     5402 
    5771     5913     5930     5883     5706     5494     5375     5304 
    5189     5022     4833     4618     4429     4449     4742     5123 
    5382     5491     5508     5455     5352     5228     5165     5217 
    5282     5258     5167     4966     4629     4325     4176     4132 
    4094     4014     3927     3910     4036     4315     4689     5134 
    5611     6007     6266     6388     6374     6262     6021     5634 
    5238     4972     4900     4954     4943     4853     4861     5026 
    5306     5586     5672     5659     5749     5787     5591     5248 
    4824     4372     4029     3854     3793     3794     3809     3861 
    4052     4418     4900     5410     5819     6014     5968     5710 
    5390     5173     5070     5130     5362     5559     5587     5478 
    5263     5047     4926     4877     4897     5003     5202     5433 
    5502     5387     5225     5024     4835     4716     4538     4301 
    4232     4430     4765     5031     5120     5047     4896     4812 
    4935     5251     5629     5988     6284     6438     6394     6135 
    5660     5089     4683     4525     4441     4325     4232     4158 
    4098     4122     4160     4083     3929     3835     3915     4126 
    4244     4187     4131     4118     4081     4194     4534     4830 
    4958     4992     4916     4822     4846     4986     5258     5668 
    6093     6412     6512     6353     6146     6089     6129     6097 
    5913     5660     5428     5197     5003     4860     4666     4459 
    4387     4449     4590     4769     4866     4853     4851     4919 
    5016     5032     4934     4862     4872     4924     5012     5050 
    5057     5132     5201     5221     5246     5227     5215     5354 
    5555     5579     5367     5135     5094     5198     5332     5466 
    5532     5449     5267     5024     4648     4160     3740     3527 
    3586     3909     4406     4896     5178     5313     5572     5907 
    6085     6123     6079     5900     5624     5331     5003     4654 
    4396     4278     4212     4095     3966     3964     4152     4517 
    4976     5350     5479     5374     5148     4935     4811     4837 
    5109     5463     5499     5170     4714     4270     3931     3809 
    3894     4085     4294     4482     4598     4604     4576     4623 
    4765     4973     5255     5564     5751     5714     5545     5425 
    5347     5178     5004     4981     5103     5358     5741     6057 
    6089     5906     5694     5497     5383     5451     5563     5555 
    5464     5301     5023     4766     4656     4630     4621     4607 
    4618     4711     4730     4511     4263     4260     4438     4627 
    4803     4892     4833     4718     4580     4365     4151     4094 
    4284     4571     4676     4577     4460     4503     4768     5132 
    5487     5775     5848     5684     5482     5374     5390     5559 
    5776     5791     5528     5200     4988     4889     4919     5008 
    4950     4756     4625     4658     4893     5267     5536     5562 
    5481     5476     5582     5649     5541     5298     5027     4806 
    4754     4924     5142     5215     5169     5105     5065     5119 
    5360     5648     5729     5629     5493     5309     5132     5096 
    5220     5414     5545     5598     5625     5540     5290     4969 
    4702     4518     4353     4240     4272     4422     4652     4965 
    5240     5348     5390     5580     5967     6372     6569     6450 
    6080     5626     5219     4828     4337     3797     3454     3488 
    3875     4348     4573     4484     4218     3996     4041     4364 
    4854     5374     5656     5547     5158     4680     4243     3948 
    4010     4413     4704     4696     4703     4927     5239     5443 
    5474     5378     5239     5212     5296     5316     5308     5479 
    5849     6104     5887     5247     4517     3932     3639     3666 
    3885     4191     4564     4941     5211     5279     5151     4995 
    5066     5416     5826     6087     6103     5913     5694     5506 
    5223     4846     4490     4260     4216     4189     4058     3952 
    3927     4036     4295     4469     4527     4664     4900     5228 
    5541     5641     5610     5617     5676     5717     5603     5308 
    5016     4835     4699     4575     4540     4711     5151     5744 
    6201     6389     6427     6316     6021     5707     5454     5233 
    5115     5085     5059     4992     4878     4845     4899     4874 
    4835     4974     5240     5437     5494     5472     5445     5445 
    5458     5420     5281     5000     4581     4128     3753     3528 
    3541     3739     3927     4075     4309     4637     4972     5235 
    5387     5385     5281     5285     5445     5589     5651     5660 
    5580     5417     5252     5166     5101     4931     4708     4502 
    4275     4137     4236     4541     4986     5483     5840     5953 
    5864     5621     5283     4950     4649     4457     4511     4814 
    5190     5448     5474     5296     5124     5198     5487     5796 
    5985     5953     5694     5316     4912     4496     4028     3595 
    3348     3298     3474     3892     4406     4884     5220     5390 
    5607     6014     6446     6766     7018     7188     7157     6859 
    6300     5597     4993     4633     4463     4330     4135     4020 
    4113     4283     4429     4518     4444     4320     4437     4864 
    5479     6058     6313     6187     5850     5513     5397     5586 
    5946     6335     6582     6477     6126     5827     5630     5418 
    5117     4711     4322     4097     4072     4201     4321     4344 
    4340     4297     4195     4221     4492     4957     5587     6289 
    6847     7144     7136     6775     6162     5524     5031     4725 
    4529     4399     4396     4523     4623     4541     4340     4212 
    4279     4463     4588     4681     4862     5136     5472     5724 
    5653     5267     4877     4707     4673     4596     4452     4344 
    4355     4452     4518     4469     4359     4309     4341     4423 
    4568     4776     5061     5397     5605     5578     5390     5123 
    4887     4816     4878     4949     5000     5080     5211     5356 
    5466     5583     5776     5991     6073     5968     5815     5749 
    5749     5703     5521     5213     4868     4573     4375     4291 
    4371     4540     4611     4591     4641     4841     5105     5304 
    5435     5556     5671     5775     5845     5826     5698     5470 
    5130     4699     4255     3863     3538     3333     3310     3446 
    3719     4072     4372     4598     4803     4962     5086     5193 
    5271     5422     5630     5679     5505     5289     5165     5044 
    4834     4627     4540     4588     4758     4977     5147     5186 
    5089     4995     4992     5049     5185     5432     5687     5775 
    5598     5263     4920     4564     4144     3685     3311     3208 
    3457     3937     4419     4757     4981     5128     5131     4949 
    4644     4348     4180     4182     4252     4280     4310     4345 
    4349     4446     4669     4876     5026     5059     4881     4569 
    4318     4288     4500     4822     5105     5244     5206     5090 
    4972     4811     4677     4707     4895     5159     5352     5266 
    4931     4644     4604     4714     4758     4710     4684     4706 
    4741     4800     4862     4942     5055     5059     4884     4702 
    4633     4708     4877     4969     4943     4853     4769     4819 
    4945     4970     4918     4827     4665     4494     4391     4463 
    4797     5219     5482     5572     5571     5537     5526     5482 
    5285     4990     4762     4577     4364     4239     4306     4480 
    4614     4587     4378     4082     3828     3715     3766     3955 
    4309     4862     5505     6029     6293     6330     6241     6111 
    6053     6138     6304     6432     6466     6385     6161     5791 
    5341     4969     4783     4752     4804     4907     5027     5103 
    5116     5067     4966     4884     4884     4965     5127     5321 
    5458     5524     5586     5674     5703     5653     5617     5576 
    5455     5286     5161     5194     5408     5643     5813     5935 
    6029     6172     6372     6477     6376     6120     5827     5583 
    5429     5346     5336     5418     5494     5520     5618     5849 
    6114     6286     6309     6176     5933     5688     5517     5417 
    5385     5370     5256     5016     4735     4487     4295     4155 
    4045     4008     4113     4349     4664     4870     4737     4388 
    4131     4077     4213     4410     4544     4648     4738     4774 
    4776     4720     4665     4779     5061     5391     5726     6000 
    6223     6492     6720     6789     6750     6594     6276     5841 
    5344     4841     4374     3935     3573     3366     3319     3412 
    3505     3387     3111     2987     3152     3462     3766     4050 
    4330     4650     5062     5459     5651     5624     5491     5412 
    5436     5340     4977     4506     4149     4041     4163     4371 
    4617     4922     5228     5452     5487     5293     5046     4969 
    5103     5323     5513     5595     5560     5514     5487     5340 
    5007     4518     3979     3586     3402     3350     3365     3424 
    3565     3775     3996     4202     4356     4464     4638     4990 
    5505     6010     6381     6585     6548     6299     5942     5462 
    4900     4495     4390     4502     4698     4923     5177     5394 
    5422     5205     4887     4629     4529     4598     4706     4733 
    4684     4581     4425     4263     4174     4193     4313     4541 
    4799     4963     5104     5362     5718     6035     6192     6191 
    6127     6043     5964     5910     5872     5845     5776     5591 
    5296     4915     4560     4378     4298     4199     4136     4225 
    4565     5161     5795     6227     6365     6265     6111     6039 
    6034     6072     6180     6381     6636     6771     6586     6054 
    5367     4818     4523     4359     4225     4197     4325     4517 
    4642     4664     4625     4600     4691     4922     5225     5606 
    6054     6434     6610     6548     6259     5783     5244     4760 
    4361     4091     3967     3940     3962     3994     4101     4356 
    4715     5131     5510     5705     5756     5825     5918     5957 
    5935     5867     5741     5607     5460     5202     4916     4892 
    5192     5553     5765     5772     5593     5363     5165     4947 
    4722     4550     4418     4288     4125     3920     3758     3750 
    3904     4151     4446     4685     4762     4760     4882     5201 
    5605     5994     6309     6462     6444     6282     5880     5274 
    4704     4291     4040     3956     4010     4189     4494     4862 
    5154     5277     5309     5418     5672     5991     6224     6289 
    6187     5940     5617     5321     5128     5049     5026     5035 
    5066     5071     5073     5101     5085     4992     4914     4834 
    4583     4101     3580     3254     3165     3246     3419     3574 
    3740     4074     4542     4969     5317     5610     5838     5980 
    6000     5926     5832     5752     5683     5566     5290     4872 
    4475     4212     4118     4205     4411     4689     5067     5517 
    5950     6380     6802     7136     7385     7562     7589     7476 
    7272     6961     6547     6037     5431     4762     4055     3380 
    2889     2609     2467     2462     2543     2654     2870     3169 
    3433     3681     3917     4093     4272     4536     4872     5242 
    5595     5917     6178     6334     6447     6590     6717     6786 
    6764     6659     6551     6431     6243     5984     5607     5084 
    4472     3820     3184     2655     2261     2003     1922     2039 
    2324     2721     3241     3912     4577     5082     5487     5784 
    5910     5969     6049     6133     6241     6342     6351     6214 
    5983     5783     5641     5541     5501     5510     5556     5601 
    5567     5424     5219     4977     4689     4437     4278     4137 
    4062     4220     4594     5022     5390     5640     5792     5960 
    6150     6247     6250     6224     6166     6137     6187     6220 
    6178     6080     5942     5791     5629     5458     5374     5479 
    5706     5918     6089     6193     6135     5930     5682     5377 
    4990     4633     4379     4151     3898     3685     3558     3516 
    3595     3770     3924     4004     4067     4178     4326     4471 
    4580     4590     4459     4201     3835     3484     3261     3136 
    3156     3414     3816     4248     4691     5104     5451     5760 
    6018     6196     6345     6507     6685     6829     6821     6660 
    6443     6219     6019     5871     5767     5699     5636     5548 
    5429     5227     4950     4726     4607     4538     4482     4484 
    4587     4733     4857     4962     5054     5159     5305     5462 
    5602     5733     5826     5869     5896     5884     5767     5552 
    5323     5115     4923     4715     4479     4264     4054     3859 
    3784     3835     4017     4368     4792     5135     5356     5495 
    5566     5583     5624     5706     5795     5841     5787     5697 
    5661     5651     5638     5645     5667     5706     5722     5671 
    5570     5367     5020     4668     4433     4299     4274     4356 
    4453     4525     4598     4668     4692     4635     4563     4588 
    4669     4677     4614     4494     4305     4121     3990     3919 
    3925     3975     4078     4303     4600     4851     5035     5232 
    5486     5729     5923     6084     6173     6172     6141     6060 
    5877     5660     5503     5373     5192     5015     4950     4978 
    4995     4969     4931     4876     4780     4623     4411     4197 
    4032     3966     4009     4087     4155     4259     4392     4500 
    4567     4623     4780     5100     5508     5904     6223     6453 
    6589     6567     6397     6153     5869     5598     5346     5042 
    4672     4276     3893     3593     3438     3412     3528     3807 
    4195     4634     5046     5313     5356     5238     5086     4918 
    4711     4571     4590     4707     4803     4828     4788     4698 
    4580     4442     4306     4234     4301     4511     4770     4970 
    5028     4866     4502     4091     3771     3549     3437     3497 
    3721     4039     4356     4635     4930     5244     5521     5761 
    6002     6251     6484     6655     6724     6642     6419     6127 
    5732     5217     4734     4384     4175     4104     4085     4052 
    4037     4023     4017     4097     4257     4483     4739     4931 
    5076     5239     5373     5433     5449     5470     5501     5489 
    5397     5275     5221     5281     5410     5571     5738     5888 
    6016     6145     6241     6205     6022     5791     5595     5451 
    5344     5262     5146     5005     4951     4953     4885     4796 
    4760     4758     4768     4784     4795     4797     4843     4942 
    4985     4942     4885     4850     4877     5013     5208     5390 
    5552     5686     5760     5772     5771     5792     5822     5873 
    5973     6057     6064     6027     6002     6003     6004     5975 
    5899     5767     5570     5339     5182     5196     5327     5494 
    5659     5767     5844     5888     5841     5715     5530     5262 
    4941     4612     4314     4048     3840     3782     3874     4027 
    4178     4257     4240     4185     4098     3959     3824     3705 
    3559     3396     3244     3117     3017     2953     2956     3009 
    3103     3322     3673     4059     4421     4707     4888     5004 
    5092     5170     5248     5351     5495     5652     5792     5890 
    5868     5684     5421     5177     5005     4938     4988     5152 
    5414     5759     6145     6432     6544     6555     6516     6481 
    6524     6602     6628     6529     6289     5967     5593     5220 
    4966     4857     4849     4895     4918     4903     4878     4839 
    4814     4838     4891     4962     5062     5171     5235     5208 
    5113     4997     4854     4669     4475     4344     4347     4477 
    4698     4949     5148     5269     5317     5321     5340     5386 
    5459     5574     5678     5717     5661     5472     5221     5005 
    4819     4702     4723     4841     4988     5159     5306     5400 
    5494     5579     5629     5702     5802     5891     5968     5985 
    5884     5698     5482     5271     5116     5013     4931     4878 
    4853     4876     4969     5061     5119     5184     5224     5219 
    5204     5190     5181     5229     5364     5539     5718     5913 
    6073     6130     6149     6241     6367     6480     6554     6516 
    6367     6176     5956     5730     5521     5314     5148     5031 
    4877     4633     4355     4121     3939     3832     3842     3933 
    4063     4221     4372     4459     4469     4429     4348     4272 
    4210     4108     4017     3994     3990     3990     4000     3981 
    3982     4043     4108     4183     4330     4525     4738     4941 
    5100     5263     5452     5586     5657     5730     5760     5702 
    5594     5422     5186     4951     4738     4565     4467     4421 
    4403     4403     4374     4315     4299     4378     4569     4830 
    5093     5340     5539     5684     5825     5958     6081     6218 
    6328     6404     6451     6415     6326     6247     6126     5922 
    5676     5420     5170     4930     4676     4452     4305     4194 
