Origin Time       2025/01/13 21:19:00
Lat.              31.8
Long.             131.6
Depth. (km)       30
Mag.              6.9
Station Code      KOCH11
Station Lat.      33.2866
Station Long.     134.1603
Station Height(m) -210
Record Time       2025/01/13 21:20:40
Sampling Freq(Hz) 100Hz
Duration Time(s)  127
Dir.              2
Scale Factor      2942(gal)/8224139
Max. Acc. (gal)   0.383
Last Correction   2025/01/13 21:20:42
Memo.             
[...]
   49387    49446    49505    49566    49584    49515    49389    49287 
   49243    49221    49173    49123    49104    49111    49165    49246 
   49295    49318    49361    49426    49504    49572    49596    49584 
   49574    49578    49559    49503    49443    49385    49308    49235 
   49208    49248    49338    49428    49468    49473    49491    49512 
   49512    49481    49410    49307    49242    49276    49372    49450 
   49504    49565    49643    49717    49761    49789    49823    49825 
   49762    49654    49550    49489    49481    49493    49476    49428 
   49399    49431    49530    49650    49717    49696    49600    49474 
   49350    49237    49168    49156    49164    49188    49254    49349 
   49446    49540    49603    49635    49675    49731    49790    49842 
   49852    49842    49828    49800    49771    49756    49717    49623 
   49503    49395    49307    49250    49231    49245    49292    49376 
   49476    49554    49578    49561    49536    49507    49455    49384 
   49337    49354    49408    49434    49428    49431    49458    49496 
   49550    49617    49667    49682    49684    49689    49677    49615 
   49512    49401    49326    49315    49357    49407    49455    49508 
   49549    49562    49542    49507    49470    49438    49419    49415 
   49407    49385    49354    49304    49239    49199    49196    49207 
   49238    49311    49387    49422    49427    49437    49449    49465 
   49507    49562    49580    49538    49470    49423    49412    49416 
   49426    49453    49496    49534    49555    49561    49540    49503 
   49468    49431    49369    49299    49272    49279    49265    49222 
   49179    49180    49234    49299    49337    49341    49334    49335 
   49351    49391    49427    49418    49373    49335    49331    49364 
   49414    49458    49470    49437    49399    49404    49428    49423 
   49376    49329    49312    49307    49308    49318    49334    49357 
   49358    49316    49257    49226    49243    49281    49288    49266 
   49253    49285    49342    49372    49373    49377    49389    49374 
   49311    49225    49144    49080    49053    49071    49102    49118 
   49135    49175    49203    49211    49227    49238    49222    49194 
   49162    49154    49194    49261    49330    49403    49476    49532 
   49569    49593    49604    49607    49632    49673    49680    49655 
   49638    49624    49600    49559    49511    49458    49388    49300 
   49234    49206    49185    49154    49149    49199    49265    49303 
   49312    49326    49334    49304    49231    49133    49065    49088 
   49185    49303    49426    49532    49589    49588    49531    49435 
   49327    49248    49212    49212    49226    49246    49272    49270 
   49223    49161    49094    49007    48934    48928    49009    49137 
   49258    49330    49366    49399    49430    49441    49423    49401 
   49416    49466    49503    49496    49464    49442    49435    49404 
   49331    49256    49214    49215    49245    49285    49329    49357 
   49335    49276    49237    49237    49249    49257    49275    49319 
   49372    49397    49399    49399    49407    49412    49408    49395 
   49383    49396    49435    49468    49477    49469    49434    49392 
   49366    49354    49362    49391    49424    49485    49565    49609 
   49616    49617    49615    49613    49611    49574    49496    49407 
   49327    49257    49196    49167    49179    49202    49210    49218 
   49230    49248    49285    49326    49356    49388    49407    49388 
   49360    49333    49299    49281    49285    49275    49242    49222 
   49226    49238    49252    49275    49299    49299    49283    49280 
   49302    49326    49326    49308    49308    49322    49326    49316 
   49295    49268    49261    49288    49343    49415    49466    49472 
   49449    49426    49432    49482    49553    49605    49630    49647 
   49680    49727    49778    49821    49851    49859    49846    49832 
   49824    49806    49769    49736    49744    49781    49794    49766 
   49727    49707    49692    49650    49573    49484    49411    49372 
   49361    49364    49383    49423    49472    49492    49473    49449 
   49453    49484    49507    49504    49492    49478    49461    49454 
   49474    49507    49518    49513    49523    49531    49512    49462 
   49410    49373    49368    49397    49435    49447    49435    49400 
   49345    49304    49281    49245    49199    49164    49158    49189 
   49219    49200    49153    49122    49094    49069    49063    49059 
   49050    49056    49068    49088    49131    49175    49196    49215 
   49238    49268    49300    49322    49346    49383    49391    49366 
   49351    49347    49316    49258    49211    49189    49185    49181 
   49154    49113    49094    49096    49102    49114    49145    49188 
   49239    49304    49383    49458    49526    49588    49635    49658 
   49650    49615    49561    49496    49441    49412    49414    49431 
   49441    49432    49411    49400    49415    49438    49458    49492 
   49530    49555    49581    49611    49626    49627    49640    49663 
   49680    49681    49658    49619    49608    49617    49596    49536 
   49474    49437    49430    49428    49423    49434    49461    49484 
   49493    49496    49492    49465    49415    49365    49335    49318 
   49303    49296    49297    49296    49292    49297    49324    49366 
   49411    49454    49500    49562    49612    49619    49582    49528 
   49477    49437    49401    49369    49343    49333    49334    49322 
   49285    49252    49243    49258    49287    49319    49338    49329 
   49284    49222    49169    49130    49106    49088    49077    49075 
   49076    49076    49079    49086    49091    49094    49106    49135 
   49172    49203    49234    49265    49289    49323    49377    49426 
   49449    49450    49432    49403    49380    49378    49388    49404 
   49422    49438    49461    49476    49470    49462    49446    49410 
   49374    49356    49345    49354    49378    49385    49354    49300 
   49238    49167    49080    49005    48957    48928    48914    48917 
   48937    48968    48987    48994    48998    48996    49005    49032 
   49072    49123    49175    49216    49276    49351    49403    49414 
   49400    49391    49404    49424    49441    49462    49488    49519 
   49528    49504    49468    49435    49418    49434    49464    49481 
   49485    49477    49459    49443    49446    49472    49491    49488 
   49470    49443    49419    49400    49393    49405    49437    49485 
   49545    49600    49643    49681    49698    49681    49642    49589 
   49526    49469    49434    49420    49412    49396    49377    49358 
   49339    49314    49284    49253    49226    49215    49229    49257 
   49277    49284    49293    49302    49284    49252    49229    49231 
   49264    49324    49383    49415    49430    49442    49457    49462 
   49447    49430    49427    49431    49446    49473    49492    49500 
   49505    49511    49519    49531    49555    49586    49605    49609 
   49616    49632    49644    49644    49642    49653    49665    49666 
   49667    49673    49678    49689    49701    49697    49662    49617 
   49585    49565    49555    49549    49536    49519    49486    49423 
   49343    49277    49219    49164    49137    49148    49179    49211 
   49223    49219    49215    49223    49257    49303    49338    49361 
   49374    49380    49385    49391    49384    49361    49327    49299 
   49304    49338    49365    49365    49338    49306    49284    49269 
   49270    49296    49320    49334    49350    49353    49341    49330 
   49306    49268    49237    49221    49212    49198    49175    49158 
   49158    49171    49198    49237    49279    49307    49316    49312 
   49312    49326    49351    49380    49407    49428    49437    49426 
   49389    49342    49310    49302    49308    49316    49315    49295 
   49252    49200    49156    49121    49104    49113    49131    49142 
   49133    49114    49098    49096    49129    49194    49260    49288 
   49277    49266    49269    49275    49281    49284    49280    49265 
   49246    49239    49245    49231    49185    49130    49098    49098 
   49122    49149    49169    49194    49239    49300    49349    49370 
   49384    49399    49414    49430    49449    49476    49497    49508 
   49524    49547    49558    49555    49543    49512    49468    49438 
   49424    49407    49387    49377    49372    49358    49343    49339 
   49343    49337    49314    49284    49269    49275    49277    49268 
   49260    49253    49270    49314    49356    49397    49445    49486 
   49511    49515    49509    49501    49486    49470    49445    49419 
   49407    49401    49393    49388    49383    49381    49396    49419 
   49443    49472    49501    49532    49555    49558    49540    49515 
   49489    49476    49478    49474    49454    49431    49414    49391 
   49356    49312    49275    49238    49207    49192    49187    49172 
   49169    49191    49215    49230    49242    49260    49297    49358 
   49408    49431    49437    49438    49435    49422    49397    49378 
   49364    49347    49331    49320    49323    49338    49356    49364 
   49353    49329    49297    49262    49234    49208    49172    49127 
   49076    49033    49006    48982    48946    48918    48905    48903 
   48921    48953    48987    49017    49046    49080    49114    49138 
   49153    49164    49165    49148    49125    49104    49077    49044 
   49019    49007    49009    49017    49029    49057    49102    49140 
   49172    49207    49238    49265    49280    49275    49261    49261 
   49273    49279    49269    49264    49280    49306    49322    49329 
   49335    49350    49360    49358    49362    49388    49416    49431 
   49442    49462    49497    49536    49550    49538    49526    49516 
   49511    49518    49528    49536    49546    49570    49603    49630 
   49651    49670    49685    49697    49700    49700    49702    49712 
   49727    49742    49750    49746    49723    49692    49665    49647 
   49635    49631    49630    49631    49627    49616    49608    49605 
   49601    49604    49621    49643    49650    49632    49594    49549 
   49509    49485    49481    49489    49489    49470    49441    49401 
   49360    49331    49324    49330    49337    49357    49388    49407 
   49396    49366    49331    49292    49256    49242    49248    49257 
   49273    49295    49304    49295    49272    49233    49188    49158 
   49154    49169    49194    49211    49216    49207    49192    49192 
   49210    49237    49270    49299    49330    49365    49378    49361 
   49333    49302    49280    49277    49293    49315    49326    49330 
   49334    49342    49358    49377    49400    49423    49446    49478 
   49509    49519    49507    49485    49480    49482    49468    49435 
   49416    49420    49428    49430    49426    49418    49405    49397 
   49381    49350    49323    49310    49306    49303    49292    49272 
   49257    49252    49252    49256    49262    49262    49266    49295 
   49339    49380    49403    49395    49373    49360    49350    49338 
   49319    49281    49239    49208    49192    49184    49180    49179 
   49191    49212    49230    49238    49245    49257    49275    49291 
   49304    49314    49326    49350    49376    49397    49423    49453 
   49470    49478    49484    49482    49482    49497    49524    49546 
   49547    49538    49527    49516    49512    49507    49495    49495 
   49511    49524    49534    49547    49573    49613    49655    49692 
   49717    49731    49734    49727    49702    49662    49638    49634 
   49650    49678    49697    49694    49669    49624    49581    49542 
   49500    49457    49419    49395    49377    49353    49316    49272 
   49225    49173    49118    49067    49029    49003    48990    48980 
   48972    48972    48983    49007    49045    49094    49146    49189 
   49226    49261    49297    49333    49368    49414    49469    49527 
   49580    49608    49608    49593    49578    49566    49553    49542 
   49543    49539    49520    49501    49489    49488    49503    49523 
   49532    49534    49531    49524    49518    49518    49532    49557 
   49569    49576    49590    49603    49607    49609    49597    49573 
   49551    49536    49532    49530    49508    49465    49416    49368 
   49318    49273    49233    49200    49165    49119    49077    49054 
   49044    49032    49013    48995    48983    48973    48972    48983 
   49000    49014    49022    49030    49041    49033    49013    49000 
   48986    48964    48945    48932    48932    48946    48957    48969 
   49000    49053    49108    49148    49169    49189    49215    49243 
   49280    49326    49370    49408    49437    49450    49445    49437 
   49450    49484    49511    49545    49586    49617    49640    49665 
   49690    49729    49782    49820    49844    49855    49852    49859 
   49891    49948    50006    50052    50086    50121    50151    50171 
   50182    50172    50141    50110    50086    50055    50025    50006 
   49981    49936    49889    49844    49804    49762    49716    49665 
   49596    49513    49439    49374    49310    49237    49158    49083 
   49011    48944    48875    48814    48770    48739    48713    48689 
   48671    48660    48639    48608    48577    48541    48504    48466 
   48416    48363    48328    48309    48298    48300    48309    48316 
   48319    48323    48325    48313    48303    48307    48313    48317 
   48328    48346    48371    48397    48413    48431    48458    48497 
   48539    48566    48585    48620    48666    48714    48764    48818 
   48879    48938    48987    49027    49071    49119    49177    49248 
   49319    49387    49458    49530    49594    49648    49680    49684 
   49680    49685    49696    49700    49700    49700    49696    49689 
   49696    49711    49717    49719    49728    49736    49740    49748 
   49755    49759    49769    49793    49821    49827    49808    49794 
   49781    49752    49717    49675    49638    49613    49584    49543 
   49505    49469    49430    49393    49351    49310    49279    49262 
   49250    49235    49218    49208    49203    49195    49181    49167 
   49154    49137    49108    49079    49053    49029    48999    48968 
   48938    48907    48882    48863    48847    48834    48830    48825 
   48818    48822    48838    48861    48888    48921    48961    49011 
   49063    49100    49121    49130    49131    49130    49134    49146 
   49157    49161    49158    49148    49134    49125    49118    49111 
   49104    49103    49107    49117    49130    49144    49156    49171 
   49184    49199    49219    49243    49275    49308    49334    49358 
   49391    49422    49451    49482    49513    49558    49624    49697 
   49770    49851    49917    49955    49970    49966    49948    49925 
   49897    49874    49856    49836    49802    49756    49693    49613 
   49527    49442    49361    49293    49242    49200    49179    49167 
   49138    49115    49114    49125    49156    49204    49252    49295 
   49334    49369    49400    49422    49424    49414    49408    49411 
   49404    49381    49353    49330    49319    49312    49302    49302 
   49293    49262    49227    49192    49154    49111    49075    49057 
   49049    49038    49022    49010    49003    49002    49007    49017 
   49030    49050    49087    49141    49203    49262    49320    49370 
   49414    49455    49497    49538    49584    49634    49675    49717 
   49754    49767    49778    49786    49782    49770    49746    49709 
   49681    49665    49651    49643    49631    49607    49584    49573 
   49569    49572    49570    49555    49531    49508    49480    49451 
   49430    49404    49377    49354    49323    49295    49277    49248 
   49204    49169    49144    49118    49098    49086    49086    49099 
   49115    49127    49135    49153    49179    49204    49230    49253 
   49269    49276    49270    49264    49258    49246    49222    49194 
   49164    49135    49114    49090    49063    49038    49019    49007 
   49005    49018    49040    49060    49086    49121    49142    49161 
   49187    49200    49208    49230    49258    49291    49312    49335 
   49369    49403    49435    49458    49466    49468    49462    49449 
   49437    49434    49426    49389    49339    49293    49258    49238 
   49225    49206    49187    49173    49160    49152    49156    49172 
   49198    49223    49243    49257    49264    49266    49261    49245 
   49225    49196    49165    49138    49111    49091    49090    49099 
   49108    49125    49145    49171    49204    49239    49270    49293 
   49308    49323    49346    49377    49405    49428    49450    49466 
   49478    49493    49507    49516    49527    49538    49542    49528 
   49504    49470    49428    49388    49362    49341    49316    49295 
   49276    49245    49212    49187    49157    49127    49096    49069 
   49052    49040    49026    49018    49023    49040    49068    49102 
   49129    49148    49167    49183    49196    49207    49212    49214 
   49215    49234    49265    49296    49322    49338    49350    49364 
   49369    49372    49388    49414    49442    49469    49493    49504 
   49504    49489    49459    49424    49388    49356    49337    49319 
   49292    49261    49233    49207    49181    49158    49145    49133 
   49114    49090    49069    49050    49030    49018    49017    49022 
   49033    49037    49041    49061    49094    49122    49152    49194 
   49227    49249    49275    49308    49341    49373    49404    49439 
   49478    49515    49547    49572    49590    49608    49627    49653 
   49680    49707    49731    49746    49755    49771    49793    49808 
   49821    49836    49848    49847    49840    49827    49805    49779 
   49748    49723    49708    49698    49689    49686    49690    49690 
   49682    49673    49661    49647    49640    49638    49632    49623 
   49609    49601    49601    49608    49607    49594    49578    49566 
   49562    49565    49574    49597    49636    49681    49717    49746 
   49765    49773    49777    49785    49789    49783    49779    49785 
   49786    49775    49758    49731    49698    49663    49623    49576 
   49535    49503    49464    49419    49362    49291    49229    49176 
   49121    49075    49036    49009    48999    48996    48999    49011 
   49029    49056    49090    49126    49154    49175    49189    49212 
   49238    49264    49289    49310    49323    49324    49324    49324 
   49329    49341    49358    49361    49357    49354    49350    49339 
   49324    49308    49292    49277    49269    49272    49281    49292 
   49299    49304    49318    49338    49364    49395    49423    49443 
   49455    49459    49461    49468    49485    49505    49522    49532 
   49535    49524    49507    49486    49462    49434    49405    49385 
   49365    49338    49315    49299    49288    49277    49261    49241 
   49219    49200    49196    49214    49252    49300    49351    49407 
   49462    49515    49567    49626    49675    49712    49746    49770 
   49777    49778    49782    49783    49782    49786    49789    49792 
