Origin Time       2025/01/13 21:19:00
Lat.              31.8
Long.             131.6
Depth. (km)       30
Mag.              6.9
Station Code      KOCH07
Station Lat.      33.3920
Station Long.     133.2866
Station Height(m) 5
Record Time       2025/01/13 21:20:17
Sampling Freq(Hz) 100Hz
Duration Time(s)  148
Dir.              5
Scale Factor      7845(gal)/8223790
Max. Acc. (gal)   2.491
Last Correction   2025/01/13 21:20:17
Memo.             
[...]
    -376     -403     -364     -337     -256      -45      211      398 
     525      639      699      675      596      487      400      405 
     486      549      518      411      248       39      -62      120 
     538      986     1269     1255      864      189     -461     -855 
   -1021    -1038     -949     -792     -585     -376     -190        6 
     191      283      268      190      106      125      284      472 
     567      486      199     -205     -665    -1150    -1474    -1463 
   -1173     -745     -226      329      815     1200     1503     1719 
    1890     2033     2027     1823     1476     1001      436      -59 
    -376     -560     -650     -603     -422     -174       87      283 
     448      726     1067     1270     1325     1382     1422     1281 
     955      571      153     -276     -633     -849     -973    -1073 
   -1058     -743      -81      722     1309     1480     1345     1146 
     986      805      615      518      405      103     -274     -592 
    -916    -1228    -1267     -888     -299      244      726     1216 
    1736     2266     2647     2686     2452     2153     1846     1509 
    1132      650       35     -554     -916    -1013     -935     -783 
    -568     -267       16      140       40     -205     -411     -480 
    -365      -54      345      781     1246     1582     1653     1543 
    1391     1243     1084      858      468      -72     -611    -1011 
   -1221    -1225     -974     -463      120      490      529      317 
      58        6      321      839     1123      974      607      234 
     -62     -224     -321     -437     -452     -286     -125     -137 
    -220     -133      230      776     1287     1598     1645     1372 
     804      252      -14      -94     -203     -409     -618     -715 
    -603     -240      279      743      915      803      700      750 
     787      603      199     -224     -488     -522     -333      -54 
     109       89       86      311      724     1175     1529     1698 
    1676     1490     1240     1101     1031      831      506       89 
    -468     -973    -1135     -918     -533     -190      132      490 
     780     1001     1263     1530     1624     1377      823      213 
    -225     -396     -379     -337     -288     -198     -121      -25 
     137      237      105     -197     -373     -180      299      764 
    1023     1139     1177     1088      901      735      639      545 
     340       43     -202     -278     -122      205      475      449 
     117     -189      -35      618     1386     1884     2020     1904 
    1595     1134      627      157     -301     -745    -1075    -1233 
   -1327    -1464    -1584    -1579    -1470    -1239     -735       48 
     891     1556     1902     1946     1822     1626     1377     1034 
     619      252      -31     -229     -243     -122     -105     -226 
    -322     -306     -172       -6      132      324      560      699 
     766      882     1042     1050      666      -98     -962    -1611 
   -1919    -1950    -1826    -1632    -1362     -900     -228      446 
     919     1232     1610     2097     2489     2597     2432     2104 
    1671     1273     1078     1019      896      544      -51     -703 
   -1273    -1679    -1730    -1390     -915     -588     -440     -232 
     199      715     1075     1138      897      492       64     -329 
    -666     -961    -1183    -1193     -935     -508       79      872 
    1668     2215     2465     2481     2336     2095     1779     1366 
     820      243     -159     -342     -487     -681     -810     -787 
    -612     -252      205      556      754      853      899      984 
    1086     1061      858      535      221       24      -78     -139 
    -148      -74       58      217      498      970     1453     1699 
    1605     1178      602      149      -94     -201     -222     -211 
    -178      -40      284      739     1098     1189     1092      919 
     676      472      438      486      486      463      499      612 
     683      507      -18     -787    -1506    -1867    -1814    -1498 
    -967     -286      318      684      857      938      909      742 
     573      467      334      187       27     -287     -738    -1121 
   -1318    -1298    -1080     -756     -400     -116      -98     -311 
    -419     -268       28      368      622      635      405       51 
    -214     -206      140      781     1489     1958     2053     1830 
    1448     1050      751      615      550      421      248       72 
    -132     -359     -565     -665     -599     -441     -288     -121 
     152      579     1070     1455     1645     1674     1552     1260 
     818      305     -153     -504     -720     -795     -805     -792 
    -754     -747     -730     -510      -58      442      847     1075 
    1048      792      469      249      145       22     -141     -193 
     -58      159      322      415      487      550      588      545 
     414      344      421      521      562      568      504      341 
      74     -303     -723    -1065    -1273    -1333    -1267    -1136 
   -1019     -908     -606       22      784     1348     1509     1309 
    1036      932     1017     1196     1368     1476     1491     1337 
     999      637      340       14     -363     -733    -1040    -1216 
   -1221    -1062     -766     -432     -140      148      517      934 
    1259     1397     1413     1441     1470     1416     1323     1204 
     957      596      259       63       33      103      211      315 
     359      325      305      492      947     1451     1782     1917 
    1904     1717     1325      777      128     -465     -765     -722 
    -531     -432     -522     -639     -541     -179      363      978 
    1507     1885     2110     2101     1941     1903     2062     2232 
    2216     1914     1370      739      191     -209     -481     -666 
    -803     -796     -507      -67      214      325      545      953 
    1360     1584     1494     1181      899      742      724      827 
     901      882      795      623      440      348      340      361 
     383      398      436      504      538      479      421      480 
     641      795      853      822      754      626      400      167 
      35        6       91      360      718      974     1094     1116 
    1036      874      681      495      294       55     -157     -307 
    -406     -360     -166       14      113      139       63      -90 
    -263     -356     -220       75      338      650     1055     1305 
    1236      920      531      276      233      329      513      730 
     834      741      491      190      -51     -214     -363     -514 
    -631     -681     -629     -449     -162      187      565      880 
     961      846      793      900     1088     1306     1476     1506 
    1363     1075      727      326     -160     -604     -815     -778 
    -643     -557     -546     -527     -457     -383     -348     -321 
    -241     -152     -137     -124      -39       18       -2      -12 
      14       12      -68     -193     -183       58      349      476 
     440      364      297      274      380      548      591      432 
     120     -210     -386     -345     -202      -71      -39     -163 
    -348     -453     -459     -399     -325     -240      -95      140 
     394      554      638      720      826      918      895      704 
     413       60     -303     -558     -689     -792     -889     -949 
   -1013    -1134    -1264    -1354    -1343    -1167     -873     -531 
    -166      118      245      290      330      340      288      198 
      70      -81     -180     -159      -41       79      167      259 
     395      548      676      758      764      726      753      884 
    1082     1271     1347     1274     1078      815      576      357 
      89     -217     -472     -584     -457      -81      396      839 
    1170     1317     1331     1332     1358     1350     1170      815 
     463      201       27      -52     -102     -136      -85       41 
     284      745     1329     1896     2378     2663     2697     2548 
    2232     1709     1015      311     -270     -712     -972    -1034 
    -977     -811     -545     -292      -68      236      645     1078 
    1448     1733     2020     2351     2623     2797     2825     2562 
    2046     1393      629     -103     -684    -1111    -1329    -1318 
   -1144     -855     -498     -175      -16      -39     -108     -120 
    -152     -297     -456     -541     -580     -556     -448     -299 
    -172     -137     -210     -302     -326     -240      -45      164 
     317      356      193     -126     -376     -395     -272     -180 
    -145     -130     -140     -183     -291     -449     -616     -805 
    -976    -1039    -1032    -1004     -862     -525      -98      237 
     448      581      677      783      915     1047     1185     1247 
    1071      688      265     -155     -583     -934    -1097    -1096 
   -1032     -936     -793     -598     -378     -203      -20      249 
     500      643      750      842      878      858      764      595 
     379      139      -63     -116       29      275      440      429 
     276       78      -60      -36      221      596      851      938 
     976     1047     1162     1260     1279     1228     1182     1185 
    1178     1059      765      379       95       20       98      166 
     136      124      267      533      785      966     1088     1111 
    1038      939      814      626      348      -51     -433     -616 
    -656     -687     -724     -765     -864    -1023    -1154    -1173 
   -1067     -855     -567     -278      -70       55      160      279 
     338      325      387      537      625      642      681      753 
     842      980     1197     1445     1580     1533     1377     1135 
     774      359      -45     -349     -463     -490     -523     -519 
    -498     -472     -396     -211      120      475      679      750 
     764      696      498      186     -106     -265     -311     -284 
    -228     -249     -440     -781    -1134    -1291    -1212    -1048 
    -909     -792     -719     -706     -695     -621     -481     -349 
    -248      -83      220      634     1038     1289     1447     1644 
    1794     1826     1829     1750     1543     1310     1128     1013 
     928      733      414       97     -222     -587     -905    -1082 
   -1128    -1082     -938     -687     -388     -153       35      297 
     670     1152     1668     2060     2276     2339     2255     2049 
    1732     1313      868      468      153      -47     -121     -112 
    -126     -206     -259     -243     -194     -113        9      120 
     148       87       -4      -87     -170     -243     -257     -220 
    -167      -72      124      467      953     1405     1652     1777 
    1912     2041     2081     2012     1813     1448     1003      565 
     106     -348     -734     -996    -1065     -989     -891     -805 
    -708     -558     -309        2      288      499      623      673 
     704      800      969     1142     1273     1274     1042      696 
     425      228       68      -62     -248     -529     -831    -1039 
   -1077     -989     -905     -874     -826     -696     -502     -267 
     -10      221      364      375      279      166      130      244 
     475      711      851      855      783      689      542      378 
     265      234      349      599      828      942      957      908 
     797      614      324     -125     -642    -1001    -1102    -1024 
    -846     -594     -325     -120       32      176      311      425 
     472      444      423      406      307      147       12      -83 
    -198     -328     -324     -103      214      483      675      864 
    1057     1188     1325     1522     1655     1656     1588     1498 
    1368     1107      731      417      233      137       76      -29 
    -190     -365     -541     -653     -675     -595     -415     -255 
    -224     -272     -278     -199      -87       16       95      156 
     207      248      286      290      207       68      -74     -198 
    -287     -318     -284     -236     -225     -244     -309     -426 
    -508     -504     -414     -202       83      332      523      693 
     858      996     1058     1066     1088     1120     1092     1020 
     999      999      893      666      463      365      317      306 
     386      498      589      716      913     1166     1424     1578 
    1586     1506     1351     1123      877      639      400      179 
     -14     -216     -390     -472     -511     -588     -670     -685 
    -568     -290       90      530     1047     1571     1977     2259 
    2434     2442     2245     1917     1576     1263      954      631 
     307        9     -194     -210      -12      319      662      931 
    1116     1213     1155      923      591      224     -137     -449 
    -703     -940    -1205    -1472    -1652    -1660    -1499    -1225 
    -889     -556     -268       37      387      723     1011     1209 
    1293     1297     1242     1161     1042      803      473      160 
     -94     -311     -508     -669     -796     -912     -969     -885 
    -654     -353      -75      143      292      311      139     -180 
    -506     -731     -864     -931     -926     -837     -670     -402 
      -5      471      934     1371     1830     2295     2677     2894 
    2894     2695     2370     1965     1571     1243      886      469 
     125      -44      -87      -97     -102      -43      147      465 
     865     1251     1570     1863     2111     2274     2425     2544 
    2482     2162     1652     1055      410     -270     -870    -1282 
   -1522    -1648    -1649    -1485    -1186     -870     -598     -394 
    -298     -287     -283     -267     -271     -337     -471     -623 
    -773     -922    -1000     -959     -831     -646     -406     -128 
     148      371      523      618      606      415       94     -230 
    -514     -797    -1127    -1439    -1611    -1602    -1410    -1047 
    -558      -36      414      731      881      819      598      311 
     -25     -332     -460     -407     -237       35      359      658 
     893     1054     1183     1302     1335     1216      958      649 
     395      163     -120     -383     -534     -579     -548     -461 
    -333     -147       83      363      756     1200     1576     1902 
    2187     2389     2502     2498     2353     2092     1711     1235 
     708      183     -245     -527     -673     -687     -587     -382 
     -51      348      693      913     1023     1016      884      697 
     515      329      129      -59     -214     -353     -511     -715 
    -934    -1101    -1166    -1124    -1020     -911     -823     -780 
    -818     -918     -980     -939     -853     -805     -803     -789 
    -742     -677     -561     -351      -60      251      557      907 
    1282     1556     1698     1745     1719     1636     1480     1291 
    1143     1031      908      742      518      251      -64     -411 
    -685     -792     -745     -571     -295       32      402      815 
    1209     1561     1856     2011     1976     1733     1324      839 
     287     -298     -815    -1189    -1339    -1302    -1209    -1035 
    -757     -433      -58      302      554      726      824      828 
     784      720      648      573      465      334      234      155 
      54      -43      -93      -83      -18       71      159      238 
     284      264      222      237      321      433      535      616 
     673      726      822      984     1194     1397     1490     1447 
    1291     1017      684      356       41     -203     -373     -514 
    -598     -641     -703     -764     -796     -793     -703     -473 
     -91      402      908     1348     1671     1864     1945     1895 
    1737     1555     1378     1225     1183     1237     1294     1367 
    1487     1587     1613     1513     1224      789      282     -251 
    -753    -1205    -1595    -1895    -2083    -2104    -1953    -1684 
   -1350    -1012     -715     -496     -399     -400     -453     -537 
    -615     -642     -604     -503     -400     -430     -595     -819 
   -1090    -1372    -1603    -1759    -1821    -1777    -1613    -1352 
   -1090     -884     -687     -437     -139      168      467      751 
    1007     1242     1487     1746     1953     2043     2027     1942 
    1777     1494     1147      882      747      666      602      607 
     720      901     1127     1386     1628     1825     1953     1985 
    1965     1908     1783     1605     1377     1086      760      432 
     211      183      298      498      747      977     1154     1293 
    1406     1509     1590     1621     1626     1599     1462     1193 
     810      351      -48     -295     -392     -344     -162       91 
     368      646      865     1003     1104     1179     1239     1285 
    1308     1309     1252     1111      873      531      170     -157 
    -518     -905    -1212    -1391    -1436    -1341    -1152     -922 
    -726     -643     -603     -492     -372     -287     -182      -86 
     -28       -2      -67     -190     -298     -471     -707     -854 
    -868     -805     -715     -625     -523     -394     -264     -163 
     -45      114      259      406      616      772      783      776 
     808      815      774      661      454      198      -83     -353 
    -542     -679     -847    -1042    -1179    -1186    -1035     -742 
    -341      117      531      838     1044     1150     1162     1081 
     936      796      646      481      352      234      105      -20 
    -116     -145     -133     -145     -176     -201     -228     -260 
    -275     -263     -234     -197     -124       -1      168      379 
     572      703      789      824      797      757      745      727 
     662      553      405      226       35     -182     -396     -519 
    -522     -433     -267      -68       85      164      236      310 
     322      301      318      398      513      591      594      568 
     583      641      720      796      830      830      819      762 
     669      602      577      580      571      502      373      205 
       0     -201     -360     -490     -606     -702     -760     -777 
    -816     -905     -999    -1057    -1051     -977     -828     -619 
    -422     -279     -139        9      135      238      359      525 
     734      939     1073     1146     1197     1183     1092      999 
     922      831      735      652      611      625      606      504 
     365      211       89       54       93      186      288      344 
     406      498      572      618      641      654      680      677 
     650      652      639      549      403      218       -2     -203 
    -344     -399     -365     -278      -95      194      502      795 
    1046     1193     1248     1225     1121      988      847      697 
     544      368      175       16      -64       -9      155      295 
     402      531      626      654      658      641      599      534 
     453      436      519      595      589      540      467      332 
