Origin Time       2025/01/13 21:19:00
Lat.              31.8
Long.             131.6
Depth. (km)       30
Mag.              6.9
Station Code      KOCH05
Station Lat.      33.6472
Station Long.     133.1444
Station Height(m) 160
Record Time       2025/01/13 21:20:15
Sampling Freq(Hz) 100Hz
Duration Time(s)  137
Dir.              1
Scale Factor      2942(gal)/8224139
Max. Acc. (gal)   1.174
Last Correction   2025/01/13 21:20:15
Memo.             
[...]
   49189    49208    49237    49276    49322    49370    49445    49563 
   49686    49782    49873    49941    49955    49945    49972    50047 
   50143    50224    50267    50276    50290    50342    50407    50429 
   50425    50448    50484    50491    50438    50325    50201    50130 
   50133    50178    50194    50141    50078    50063    50080    50099 
   50112    50097    50044    49970    49878    49756    49636    49565 
   49536    49504    49442    49361    49306    49319    49368    49373 
   49334    49299    49270    49254    49256    49250    49239    49199 
   49125    49090    49111    49117    49104    49148    49233    49307 
   49349    49307    49167    49030    48998    49042    49098    49103 
   49053    49030    49065    49069    49021    48991    49013    49072 
   49188    49341    49476    49611    49746    49806    49783    49746 
   49721    49739    49800    49829    49828    49871    49927    49932 
   49923    49925    49924    49924    49908    49842    49754    49688 
   49623    49546    49501    49523    49576    49584    49538    49493 
   49489    49536    49621    49720    49808    49863    49882    49879 
   49873    49858    49806    49732    49709    49779    49883    49960 
   50021    50085    50126    50155    50214    50309    50379    50410 
   50460    50542    50608    50634    50622    50593    50560    50503 
   50400    50271    50168    50103    50025    49910    49786    49663 
   49523    49414    49400    49481    49589    49655    49708    49815 
   49918    49940    49951    50016    50068    50058    50028    50017 
   50008    50009    50043    50078    50118    50152    50113    50013 
   49921    49855    49788    49711    49623    49505    49381    49300 
   49276    49310    49408    49539    49671    49790    49859    49871 
   49854    49840    49846    49819    49758    49746    49789    49833 
   49866    49850    49801    49809    49898    50020    50126    50198 
   50229    50190    50062    49913    49819    49774    49762    49781 
   49786    49712    49566    49422    49310    49230    49198    49177 
   49156    49199    49270    49276    49249    49229    49176    49114 
   49125    49212    49314    49384    49414    49384    49327    49318 
   49347    49353    49362    49400    49410    49393    49414    49424 
   49405    49423    49473    49520    49569    49593    49586    49594 
   49626    49675    49750    49802    49813    49837    49869    49859 
   49816    49779    49783    49836    49877    49832    49686    49492 
   49315    49206    49183    49179    49130    49092    49117    49180 
   49261    49324    49346    49354    49335    49262    49176    49141 
   49188    49276    49378    49492    49594    49689    49773    49824 
   49874    49933    49947    49910    49906    49963    50014    49999 
   49927    49842    49779    49707    49578    49437    49356    49333 
   49326    49316    49296    49285    49299    49312    49318    49376 
   49508    49581    49523    49447    49418    49427    49485    49536 
   49515    49443    49380    49324    49252    49184    49131    49080 
   49046    49037    49033    49073    49194    49319    49393    49428 
   49449    49462    49449    49418    49462    49627    49816    49945 
   50041    50151    50274    50383    50457    50510    50575    50661 
   50750    50799    50781    50707    50598    50499    50437    50380 
   50336    50337    50340    50315    50291    50240    50134    50045 
   50010    49989    49979    50018    50068    50086    50126    50206 
   50248    50217    50106    49939    49800    49725    49665    49577 
   49516    49527    49535    49480    49404    49387    49437    49509 
   49565    49557    49493    49438    49396    49350    49327    49369 
   49470    49566    49626    49662    49653    49581    49500    49446 
   49441    49481    49523    49543    49572    49608    49636    49657 
   49654    49623    49577    49550    49550    49539    49491    49441 
   49441    49484    49535    49578    49608    49599    49522    49422 
   49385    49414    49454    49486    49509    49523    49538    49592 
   49708    49831    49870    49836    49843    49916    49936    49833 
   49700    49657    49689    49686    49644    49662    49765    49873 
   49902    49869    49851    49854    49833    49801    49779    49751 
   49724    49716    49698    49634    49516    49374    49253    49175 
   49119    49107    49161    49233    49281    49318    49369    49461 
   49620    49847    50035    50093    50067    50026    50026    50075 
   50109    50134    50176    50214    50257    50265    50193    50113 
   50071    50013    49925    49827    49752    49724    49743    49809 
   49898    49948    49918    49827    49732    49674    49628    49589 
   49599    49662    49727    49724    49659    49605    49573    49577 
   49665    49788    49867    49924    49979    50022    50072    50114 
   50099    50063    50062    50076    50102    50105    50043    49978 
   49955    49966    50037    50105    50085    50045    50014    49970 
   49963    49967    49863    49671    49503    49395    49369    49415 
   49427    49378    49370    49431    49481    49474    49466    49535 
   49675    49808    49894    49941    49937    49870    49792    49728 
   49684    49686    49713    49705    49665    49586    49465    49403 
   49455    49497    49473    49465    49491    49549    49677    49842 
   49998    50141    50197    50157    50137    50183    50233    50237 
   50203    50172    50180    50188    50107    49960    49844    49777 
   49728    49680    49639    49628    49588    49431    49239    49164 
   49208    49295    49395    49500    49553    49518    49454    49408 
   49338    49256    49214    49185    49154    49165    49231    49315 
   49385    49453    49511    49562    49646    49742    49777    49762 
   49779    49882    50045    50205    50309    50338    50307    50242 
   50176    50172    50237    50264    50217    50180    50153    50085 
   50043    50121    50279    50379    50364    50305    50247    50166 
   50025    49866    49758    49661    49565    49534    49542    49535 
   49524    49511    49474    49447    49462    49466    49435    49399 
   49327    49235    49180    49127    49076    49098    49148    49148 
   49127    49153    49258    49439    49624    49778    49958    50132 
   50213    50257    50348    50469    50616    50796    50989    51150 
   51237    51277    51306    51301    51209    51036    50866    50727 
   50550    50323    50133    50009    49921    49859    49788    49674 
   49562    49512    49507    49480    49408    49292    49168    49121 
   49131    49088    49014    49038    49176    49346    49468    49495 
   49495    49550    49623    49666    49713    49808    49954    50129 
   50276    50322    50268    50209    50263    50422    50571    50634 
   50612    50554    50504    50433    50295    50116    49983    49944 
   49950    49935    49843    49644    49418    49272    49211    49168 
   49075    48961    48886    48797    48720    48747    48828    48909 
   49025    49119    49149    49134    49069    48991    48969    48980 
   48990    48991    48957    48926    48930    48906    48853    48833 
   48811    48744    48671    48647    48645    48602    48537    48502 
   48500    48520    48541    48527    48512    48544    48575    48574 
   48586    48629    48667    48686    48708    48778    48911    49050 
   49108    49076    49036    49071    49183    49310    49410    49472 
   49505    49523    49512    49488    49496    49539    49603    49663 
   49700    49743    49782    49779    49769    49744    49688    49682 
   49773    49881    49974    50097    50210    50255    50278    50328 
   50340    50302    50267    50202    50067    49918    49781    49659 
   49600    49574    49509    49412    49295    49169    49076    49033 
   48983    48903    48851    48806    48733    48702    48739    48805 
   48888    48968    49038    49125    49225    49354    49523    49681 
   49766    49808    49886    49977    50059    50124    50121    50067 
   50033    50022    49991    49914    49848    49796    49682    49566 
   49501    49403    49262    49152    49088    49064    49045    49033 
   49073    49094    49044    49042    49115    49156    49175    49257 
   49403    49572    49700    49725    49663    49640    49748    49908 
   50008    50039    50009    49932    49850    49808    49823    49863 
   49897    49924    49933    49894    49806    49697    49617    49586 
   49565    49532    49507    49477    49428    49381    49322    49264 
   49261    49281    49273    49261    49238    49180    49133    49127 
   49156    49216    49285    49357    49438    49466    49427    49407 
   49426    49443    49477    49530    49554    49551    49592    49709 
   49855    49977    50082    50187    50261    50275    50271    50313 
   50384    50438    50472    50508    50523    50481    50411    50342 
   50284    50245    50205    50140    50047    49917    49775    49648 
   49543    49449    49326    49184    49084    49013    48925    48857 
   48811    48752    48706    48693    48652    48614    48706    48883 
   49023    49169    49361    49546    49701    49829    49947    50105 
   50319    50562    50778    50920    51001    51043    51032    50974 
   50912    50888    50911    50903    50804    50699    50645    50600 
   50549    50512    50523    50618    50723    50716    50622    50533 
   50450    50376    50306    50205    50133    50149    50180    50187 
   50226    50309    50399    50494    50595    50711    50820    50870 
   50863    50818    50727    50633    50572    50512    50425    50353 
   50352    50361    50241    50018    49866    49797    49697    49573 
   49474    49383    49312    49287    49261    49239    49284    49377 
   49449    49486    49491    49459    49457    49532    49632    49721 
   49824    49910    49923    49875    49805    49742    49688    49627 
   49563    49535    49531    49497    49439    49389    49353    49341 
   49364    49411    49474    49527    49563    49615    49681    49728 
   49783    49885    49982    50047    50126    50207    50264    50317 
   50363    50394    50422    50415    50402    50463    50549    50581 
   50593    50615    50598    50546    50496    50444    50355    50205 
   50028    49897    49847    49840    49810    49738    49651    49577 
   49522    49450    49376    49369    49437    49528    49631    49767 
   49910    49985    50012    50078    50187    50299    50390    50442 
   50458    50456    50446    50413    50330    50236    50155    50055 
   49960    49909    49846    49740    49662    49654    49705    49786 
   49851    49885    49904    49914    49932    49994    50099    50190 
   50234    50236    50237    50322    50472    50584    50622    50650 
   50737    50826    50815    50723    50635    50610    50638    50673 
   50704    50750    50781    50785    50750    50611    50395    50245 
   50171    50076    49981    49927    49885    49859    49856    49819 
   49750    49754    49837    49879    49792    49619    49477    49391 
   49316    49258    49215    49158    49111    49071    49002    48938 
   48905    48878    48845    48755    48585    48374    48150    47941 
   47772    47625    47497    47410    47356    47356    47426    47513 
   47568    47588    47572    47525    47483    47452    47426    47447 
   47511    47557    47592    47671    47765    47817    47837    47854 
   47854    47846    47900    48065    48336    48686    49033    49329 
   49631    49958    50255    50533    50809    51023    51165    51259 
   51266    51198    51128    51078    51039    50984    50904    50832 
   50807    50828    50863    50882    50884    50861    50816    50768 
   50716    50691    50720    50770    50805    50819    50859    50962 
   51028    50970    50892    50885    50899    50915    50954    50997 
   51051    51159    51295    51385    51437    51518    51601    51640 
   51682    51745    51792    51803    51772    51705    51659    51640 
   51538    51318    51065    50834    50610    50372    50117    49877 
   49667    49459    49264    49115    48999    48887    48799    48763 
   48770    48795    48832    48886    48968    49052    49077    49019 
   48953    48955    48986    48992    49022    49080    49104    49080 
   49056    49098    49206    49296    49354    49414    49445    49447 
   49477    49527    49547    49545    49545    49519    49447    49347 
   49258    49230    49237    49226    49242    49319    49437    49592 
   49744    49848    49940    50025    50078    50133    50217    50315 
   50434    50564    50677    50753    50750    50665    50564    50454 
   50291    50076    49866    49697    49558    49412    49243    49044 
   48848    48706    48608    48559    48562    48544    48496    48512 
   48635    48816    48998    49195    49445    49725    49987    50194 
   50337    50453    50593    50739    50849    50947    51051    51136 
   51202    51254    51256    51197    51098    50990    50872    50730 
   50562    50359    50126    49910    49715    49512    49350    49273 
   49266    49316    49392    49435    49464    49516    49559    49580 
   49635    49724    49789    49797    49729    49623    49515    49366 
   49194    49052    48874    48594    48288    47991    47683    47414 
   47198    46969    46737    46583    46496    46461    46471    46471 
   46440    46437    46473    46479    46441    46438    46504    46603 
   46739    46927    47148    47424    47731    47988    48190    48367 
   48525    48689    48847    49003    49198    49388    49523    49607 
   49671    49765    49856    49894    49958    50116    50292    50430 
   50554    50677    50812    50988    51175    51343    51475    51584 
   51715    51853    51927    51938    51930    51902    51841    51763 
   51680    51601    51511    51387    51262    51182    51102    50981 
   50850    50710    50546    50419    50373    50388    50452    50549 
   50620    50660    50735    50830    50870    50881    50946    51054 
   51106    51082    51015    50934    50889    50854    50735    50544 
   50372    50199    49971    49717    49477    49242    49022    48841 
   48698    48593    48531    48489    48436    48379    48340    48347 
   48439    48606    48810    49038    49258    49442    49620    49821 
   50008    50152    50310    50496    50660    50788    50885    50984 
   51123    51256    51337    51382    51402    51374    51291    51198 
   51092    50924    50739    50583    50425    50283    50179    50058 
   49897    49770    49669    49513    49342    49222    49108    48961 
   48820    48701    48598    48529    48508    48508    48520    48554 
   48579    48606    48712    48870    48988    49092    49250    49434 
   49603    49729    49778    49774    49779    49817    49862    49894 
   49952    50052    50179    50317    50444    50545    50615    50653 
   50687    50718    50707    50665    50629    50608    50602    50589 
   50556    50496    50403    50282    50148    50006    49873    49743 
   49590    49434    49302    49173    49049    48957    48865    48725 
   48550    48358    48166    47997    47866    47761    47690    47672 
   47671    47617    47526    47487    47509    47526    47536    47552 
   47559    47584    47636    47671    47684    47726    47818    47935 
   48081    48285    48543    48803    49023    49204    49335    49434 
   49567    49740    49929    50129    50267    50296    50307    50361 
   50387    50348    50315    50332    50360    50373    50384    50407 
   50431    50437    50421    50423    50448    50473    50539    50649 
   50737    50773    50788    50842    50953    51089    51229    51390 
   51575    51729    51834    51906    51938    51941    51931    51903 
   51823    51651    51412    51171    50930    50679    50446    50226 
   50005    49800    49620    49465    49338    49222    49129    49090 
   49081    49063    49044    49044    49061    49111    49206    49339 
   49474    49589    49729    49913    50040    50056    50067    50133 
   50201    50238    50237    50190    50147    50103    50004    49869 
   49742    49605    49451    49323    49245    49157    49006    48829 
   48652    48456    48250    48054    47880    47744    47642    47542 
   47434    47335    47266    47241    47270    47318    47353    47390 
   47424    47440    47494    47614    47727    47837    48012    48228 
   48413    48548    48647    48749    48895    49048    49179    49346 
   49550    49711    49816    49932    50075    50211    50330    50465 
   50623    50777    50893    50993    51120    51248    51351    51432 
   51480    51541    51659    51748    51777    51841    51957    52061 
   52153    52257    52343    52388    52416    52423    52366    52258 
   52139    52031    51921    51813    51725    51641    51547    51463 
   51359    51194    51036    50946    50892    50847    50809    50778 
   50761    50772    50812    50827    50791    50742    50693    50641 
   50579    50498    50434    50425    50438    50411    50349    50317 
   50323    50348    50386    50425    50450    50463    50465    50469 
   50491    50519    50531    50522    50494    50446    50386    50298 
   50188    50067    49912    49747    49619    49495    49356    49241 
   49164    49104    49052    48994    48932    48888    48864    48843 
   48849    48903    48980    49054    49126    49208    49300    49374 
   49428    49481    49499    49481    49470    49468    49446    49424 
   49445    49497    49543    49586    49627    49639    49619    49582 
   49562    49588    49648    49692    49708    49720    49750    49810 
   49871    49910    49964    50039    50080    50047    49966    49890 
   49829    49759    49642    49486    49362    49285    49177    49006 
   48822    48670    48529    48375    48227    48130    48085    48039 
   47972    47893    47827    47811    47845    47904    47996    48100 
   48185    48253    48301    48354    48432    48504    48548    48608 
   48699    48809    48933    49053    49141    49215    49295    49350 
   49416    49551    49712    49856    50002    50136    50240    50325 
   50403    50503    50634    50761    50831    50838    50819    50803 
   50772    50708    50629    50553    50472    50360    50228    50071 
   49885    49713    49574    49443    49327    49206    49025    48807 
   48613    48440    48255    48045    47845    47686    47574    47495 
   47428    47374    47355    47351    47333    47318    47335    47360 
   47389    47439    47510    47598    47737    47931    48131    48303 
   48455    48593    48687    48717    48732    48775    48820    48845 
   48865    48903    48968    49048    49137    49235    49322    49400 
   49509    49619    49701    49806    49935    50052    50193    50356 
   50506    50649    50796    50939    51078    51198    51313    51479 
   51694    51892    52060    52226    52388    52523    52627    52698 
   52748    52801    52833    52805    52717    52606    52490    52366 
   52218    52037    51845    51683    51524    51340    51171    51046 
   50949    50857    50782    50731    50656    50549    50440    50317 
   50184    50087    50024    49968    49924    49862    49761    49669 
