Origin Time       2025/01/13 21:19:00
Lat.              31.8
Long.             131.6
Depth. (km)       30
Mag.              6.9
Station Code      KOCH12
Station Lat.      33.5294
Station Long.     133.8192
Station Height(m) -130.3
Record Time       2025/01/13 21:20:28
Sampling Freq(Hz) 100Hz
Duration Time(s)  133
Dir.              3
Scale Factor      3923(gal)/8224838
Max. Acc. (gal)   0.424
Last Correction   2025/01/13 21:20:29
Memo.             
[...]
  -37481   -37503   -37515   -37527   -37527   -37511   -37508   -37520 
  -37524   -37528   -37540   -37544   -37523   -37486   -37454   -37423 
  -37386   -37363   -37368   -37378   -37366   -37334   -37297   -37265 
  -37238   -37212   -37174   -37139   -37129   -37134   -37138   -37137 
  -37129   -37120   -37114   -37103   -37092   -37083   -37064   -37035 
  -37011   -36998   -36987   -36977   -36960   -36940   -36936   -36937 
  -36907   -36855   -36806   -36776   -36779   -36806   -36822   -36810 
  -36792   -36809   -36849   -36873   -36891   -36910   -36926   -36956 
  -36996   -37021   -37039   -37066   -37099   -37137   -37179   -37215 
  -37242   -37251   -37258   -37262   -37253   -37246   -37247   -37251 
  -37274   -37293   -37284   -37264   -37237   -37201   -37173   -37150 
  -37119   -37103   -37112   -37118   -37110   -37104   -37100   -37095 
  -37096   -37099   -37093   -37098   -37123   -37145   -37150   -37157 
  -37168   -37183   -37211   -37237   -37238   -37233   -37239   -37249 
  -37253   -37249   -37247   -37269   -37308   -37341   -37363   -37381 
  -37386   -37385   -37397   -37420   -37438   -37438   -37419   -37393 
  -37363   -37331   -37288   -37247   -37231   -37238   -37241   -37231 
  -37227   -37241   -37254   -37268   -37270   -37241   -37210   -37219 
  -37237   -37239   -37220   -37177   -37139   -37127   -37122   -37110 
  -37107   -37115   -37122   -37125   -37126   -37137   -37156   -37168 
  -37176   -37188   -37191   -37196   -37219   -37237   -37233   -37216 
  -37211   -37233   -37265   -37300   -37349   -37400   -37438   -37476 
  -37521   -37551   -37554   -37548   -37538   -37523   -37509   -37492 
  -37470   -37455   -37450   -37442   -37427   -37415   -37405   -37376 
  -37338   -37319   -37308   -37291   -37280   -37269   -37251   -37235 
  -37220   -37207   -37192   -37176   -37161   -37161   -37184   -37210 
  -37226   -37242   -37254   -37265   -37289   -37316   -37347   -37388 
  -37415   -37440   -37474   -37494   -37507   -37535   -37567   -37594 
  -37616   -37629   -37613   -37569   -37515   -37451   -37389   -37351 
  -37318   -37266   -37216   -37177   -37129   -37065   -37004   -36952 
  -36909   -36888   -36867   -36830   -36798   -36769   -36741   -36725 
  -36729   -36745   -36759   -36768   -36772   -36767   -36751   -36733 
  -36733   -36751   -36768   -36790   -36817   -36840   -36859   -36868 
  -36863   -36860   -36879   -36909   -36931   -36954   -36980   -36992 
  -36988   -36985   -36977   -36961   -36949   -36936   -36914   -36899 
  -36907   -36925   -36927   -36917   -36917   -36931   -36949   -36957 
  -36957   -36953   -36950   -36950   -36950   -36953   -36961   -36965 
  -36973   -36996   -37027   -37054   -37076   -37088   -37093   -37108 
  -37137   -37169   -37201   -37249   -37304   -37350   -37388   -37431 
  -37476   -37520   -37571   -37635   -37696   -37739   -37777   -37820 
  -37859   -37871   -37864   -37860   -37867   -37863   -37831   -37789 
  -37744   -37685   -37620   -37555   -37480   -37407   -37350   -37291 
  -37241   -37216   -37195   -37174   -37162   -37139   -37111   -37088 
  -37061   -37031   -37008   -36994   -36992   -37006   -37022   -37022 
  -37010   -37000   -36979   -36949   -36945   -36973   -36998   -37004 
  -37004   -37019   -37046   -37061   -37064   -37084   -37139   -37204 
  -37246   -37280   -37315   -37342   -37372   -37415   -37466   -37511 
  -37552   -37600   -37638   -37663   -37678   -37669   -37650   -37652 
  -37660   -37673   -37689   -37693   -37671   -37633   -37600   -37578 
  -37561   -37532   -37494   -37465   -37453   -37442   -37419   -37381 
  -37330   -37281   -37258   -37257   -37249   -37223   -37189   -37169 
  -37165   -37157   -37134   -37108   -37102   -37107   -37102   -37096 
  -37102   -37103   -37102   -37112   -37129   -37141   -37150   -37156 
  -37161   -37177   -37201   -37220   -37235   -37262   -37295   -37312 
  -37323   -37346   -37362   -37365   -37382   -37404   -37405   -37407 
  -37430   -37443   -37427   -37420   -37442   -37459   -37449   -37422 
  -37382   -37339   -37315   -37295   -37253   -37208   -37179   -37149 
  -37111   -37073   -37039   -37017   -36985   -36941   -36909   -36892 
  -36864   -36821   -36782   -36759   -36741   -36726   -36711   -36701 
  -36698   -36694   -36694   -36709   -36728   -36733   -36736   -36741 
  -36745   -36765   -36798   -36809   -36809   -36836   -36877   -36900 
  -36914   -36929   -36938   -36940   -36948   -36969   -36998   -37027 
  -37068   -37116   -37154   -37174   -37185   -37192   -37199   -37210 
  -37218   -37219   -37223   -37231   -37227   -37214   -37207   -37179 
  -37126   -37088   -37058   -37011   -36976   -36964   -36953   -36945 
  -36948   -36957   -36980   -37003   -37004   -36981   -36961   -36956 
  -36963   -36969   -36971   -36972   -36979   -36975   -36960   -36949 
  -36938   -36915   -36884   -36860   -36844   -36825   -36796   -36765 
  -36753   -36755   -36747   -36734   -36737   -36753   -36774   -36803 
  -36833   -36846   -36856   -36873   -36892   -36911   -36925   -36927 
  -36925   -36921   -36925   -36937   -36958   -36981   -36996   -37017 
  -37057   -37087   -37088   -37096   -37118   -37133   -37139   -37138 
  -37139   -37156   -37170   -37172   -37174   -37189   -37206   -37219 
  -37223   -37222   -37227   -37231   -37234   -37245   -37246   -37235 
  -37227   -37226   -37233   -37243   -37251   -37264   -37268   -37260 
  -37243   -37234   -37228   -37220   -37215   -37216   -37219   -37215 
  -37203   -37197   -37204   -37215   -37228   -37246   -37264   -37285 
  -37305   -37314   -37324   -37338   -37343   -37345   -37346   -37350 
  -37358   -37372   -37390   -37405   -37413   -37415   -37405   -37385 
  -37358   -37322   -37278   -37228   -37177   -37126   -37075   -37022 
  -36979   -36948   -36929   -36914   -36892   -36882   -36898   -36918 
  -36931   -36953   -36981   -37000   -37017   -37042   -37077   -37114 
  -37139   -37165   -37201   -37246   -37292   -37339   -37377   -37401 
  -37427   -37458   -37489   -37520   -37544   -37539   -37519   -37505 
  -37496   -37494   -37507   -37516   -37509   -37497   -37500   -37504 
  -37496   -37489   -37492   -37490   -37484   -37493   -37513   -37521 
  -37524   -37535   -37548   -37551   -37554   -37570   -37581   -37574 
  -37567   -37563   -37561   -37548   -37523   -37493   -37471   -37451 
  -37426   -37392   -37358   -37332   -37323   -37323   -37308   -37280 
  -37265   -37258   -37249   -37251   -37253   -37241   -37226   -37216 
  -37200   -37177   -37157   -37134   -37110   -37092   -37072   -37042 
  -37015   -36994   -36980   -36973   -36958   -36945   -36942   -36940 
  -36929   -36918   -36910   -36902   -36894   -36884   -36876   -36867 
  -36852   -36838   -36833   -36825   -36811   -36810   -36822   -36836 
  -36849   -36873   -36904   -36926   -36944   -36980   -37033   -37076 
  -37100   -37116   -37134   -37158   -37185   -37207   -37228   -37257 
  -37289   -37324   -37359   -37384   -37403   -37423   -37434   -37435 
  -37440   -37466   -37494   -37508   -37515   -37513   -37507   -37503 
  -37496   -37484   -37471   -37461   -37451   -37446   -37443   -37434 
  -37416   -37399   -37384   -37361   -37335   -37314   -37282   -37247 
  -37222   -37204   -37188   -37173   -37161   -37149   -37134   -37126 
  -37122   -37108   -37089   -37080   -37077   -37080   -37080   -37060 
  -37026   -37003   -36995   -36985   -36957   -36907   -36863   -36841 
  -36825   -36805   -36787   -36769   -36747   -36722   -36695   -36668 
  -36651   -36640   -36636   -36648   -36667   -36675   -36679   -36688 
  -36714   -36753   -36794   -36830   -36873   -36929   -36999   -37072 
  -37131   -37176   -37212   -37247   -37288   -37335   -37376   -37408 
  -37443   -37473   -37493   -37515   -37538   -37552   -37558   -37563 
  -37565   -37546   -37521   -37507   -37494   -37476   -37454   -37434 
  -37420   -37407   -37384   -37354   -37324   -37300   -37282   -37266 
  -37247   -37227   -37215   -37208   -37193   -37170   -37149   -37138 
  -37139   -37141   -37142   -37158   -37180   -37197   -37206   -37206 
  -37200   -37195   -37196   -37211   -37237   -37260   -37282   -37300 
  -37309   -37315   -37318   -37312   -37297   -37281   -37265   -37250 
  -37239   -37234   -37231   -37227   -37230   -37249   -37266   -37276 
  -37285   -37301   -37332   -37373   -37400   -37420   -37453   -37482 
  -37501   -37517   -37534   -37547   -37552   -37561   -37571   -37571 
  -37565   -37565   -37565   -37548   -37527   -37515   -37505   -37481 
  -37443   -37399   -37350   -37299   -37243   -37187   -37138   -37093 
  -37035   -36961   -36895   -36848   -36802   -36744   -36684   -36633 
  -36589   -36555   -36529   -36509   -36499   -36494   -36486   -36479 
  -36478   -36482   -36501   -36541   -36585   -36620   -36656   -36698 
  -36747   -36811   -36883   -36950   -37011   -37061   -37104   -37157 
  -37216   -37261   -37289   -37318   -37339   -37350   -37355   -37362 
  -37359   -37350   -37341   -37335   -37330   -37318   -37295   -37268 
  -37241   -37224   -37215   -37196   -37164   -37129   -37099   -37083 
  -37079   -37069   -37060   -37057   -37057   -37060   -37077   -37102 
  -37112   -37114   -37123   -37142   -37164   -37183   -37193   -37199 
  -37212   -37228   -37231   -37230   -37226   -37215   -37212   -37227 
  -37242   -37241   -37226   -37211   -37196   -37180   -37168   -37157 
  -37134   -37107   -37087   -37064   -37030   -36991   -36958   -36936 
  -36921   -36909   -36890   -36867   -36853   -36846   -36833   -36825 
  -36829   -36829   -36829   -36838   -36848   -36857   -36868   -36884 
  -36911   -36945   -36976   -37017   -37062   -37104   -37149   -37189 
  -37220   -37260   -37315   -37376   -37436   -37500   -37557   -37605 
  -37650   -37686   -37710   -37727   -37739   -37755   -37770   -37783 
  -37793   -37786   -37770   -37758   -37747   -37735   -37719   -37689 
  -37660   -37642   -37624   -37600   -37573   -37544   -37513   -37478 
  -37450   -37434   -37416   -37384   -37351   -37335   -37324   -37303 
  -37280   -37270   -37270   -37274   -37287   -37304   -37319   -37335 
  -37358   -37377   -37388   -37403   -37431   -37458   -37477   -37494 
  -37504   -37513   -37528   -37539   -37546   -37550   -37557   -37569 
  -37577   -37582   -37584   -37578   -37571   -37569   -37570   -37577 
  -37578   -37573   -37573   -37575   -37571   -37566   -37566   -37573 
  -37577   -37571   -37565   -37550   -37532   -37523   -37517   -37505 
  -37490   -37478   -37474   -37478   -37484   -37482   -37473   -37466 
  -37463   -37461   -37457   -37458   -37466   -37470   -37462   -37450 
  -37439   -37428   -37408   -37382   -37357   -37332   -37305   -37276 
  -37246   -37210   -37166   -37126   -37087   -37048   -37017   -36990 
  -36967   -36954   -36948   -36937   -36923   -36909   -36892   -36880 
  -36871   -36867   -36865   -36861   -36859   -36863   -36865   -36860 
  -36852   -36853   -36863   -36865   -36864   -36857   -36846   -36834 
  -36826   -36821   -36814   -36799   -36778   -36761   -36755   -36761 
  -36767   -36768   -36772   -36774   -36769   -36771   -36779   -36786 
  -36803   -36829   -36849   -36865   -36886   -36913   -36938   -36956 
  -36969   -36991   -37025   -37066   -37111   -37154   -37189   -37218 
  -37250   -37281   -37305   -37326   -37342   -37357   -37372   -37381 
  -37382   -37384   -37386   -37378   -37363   -37357   -37336   -37297 
  -37264   -37224   -37170   -37115   -37069   -37027   -36980   -36926 
  -36875   -36819   -36757   -36698   -36640   -36579   -36528   -36491 
  -36460   -36433   -36408   -36387   -36379   -36381   -36394   -36414 
  -36435   -36456   -36483   -36514   -36558   -36618   -36695   -36776 
  -36850   -36919   -36990   -37062   -37130   -37199   -37270   -37338 
  -37400   -37463   -37530   -37590   -37640   -37689   -37736   -37777 
  -37812   -37845   -37876   -37894   -37901   -37905   -37910   -37914 
  -37916   -37922   -37926   -37913   -37887   -37864   -37840   -37816 
  -37789   -37751   -37704   -37655   -37608   -37557   -37492   -37427 
  -37374   -37332   -37291   -37238   -37185   -37143   -37103   -37064 
  -37027   -36994   -36958   -36923   -36894   -36863   -36832   -36810 
  -36796   -36784   -36775   -36767   -36761   -36751   -36738   -36725 
  -36710   -36705   -36707   -36702   -36684   -36667   -36653   -36644 
  -36640   -36648   -36655   -36657   -36666   -36682   -36702   -36725 
  -36749   -36782   -36815   -36849   -36880   -36909   -36931   -36957 
  -36990   -37022   -37057   -37089   -37115   -37143   -37173   -37196 
  -37218   -37243   -37265   -37289   -37316   -37346   -37374   -37403 
  -37431   -37462   -37490   -37517   -37542   -37558   -37563   -37573 
  -37582   -37581   -37574   -37567   -37558   -37540   -37523   -37507 
  -37490   -37474   -37458   -37442   -37428   -37416   -37401   -37392 
  -37386   -37385   -37389   -37397   -37404   -37407   -37411   -37409 
  -37408   -37417   -37439   -37465   -37488   -37512   -37547   -37586 
  -37613   -37638   -37670   -37697   -37716   -37735   -37746   -37741 
  -37739   -37747   -37758   -37766   -37774   -37781   -37778   -37763 
  -37739   -37719   -37704   -37693   -37685   -37678   -37660   -37632 
  -37593   -37544   -37494   -37440   -37377   -37311   -37247   -37181 
  -37115   -37044   -36960   -36877   -36807   -36742   -36675   -36607 
  -36543   -36482   -36433   -36394   -36359   -36337   -36329   -36317 
  -36302   -36290   -36285   -36292   -36304   -36319   -36333   -36344 
  -36352   -36363   -36371   -36378   -36394   -36414   -36429   -36450 
  -36479   -36509   -36535   -36563   -36598   -36637   -36682   -36736 
  -36784   -36821   -36857   -36898   -36934   -36967   -36988   -36999 
  -37012   -37029   -37042   -37054   -37073   -37093   -37100   -37107 
  -37127   -37142   -37145   -37146   -37157   -37173   -37197   -37223 
  -37238   -37247   -37258   -37268   -37277   -37287   -37293   -37293 
  -37296   -37305   -37314   -37319   -37327   -37332   -37335   -37346 
  -37363   -37382   -37401   -37416   -37427   -37428   -37427   -37428 
  -37430   -37436   -37442   -37439   -37440   -37443   -37440   -37442 
  -37436   -37417   -37407   -37409   -37409   -37408   -37411   -37411 
  -37411   -37415   -37419   -37416   -37407   -37407   -37420   -37424 
  -37420   -37416   -37412   -37407   -37397   -37388   -37377   -37362 
  -37353   -37349   -37334   -37316   -37305   -37296   -37284   -37268 
  -37247   -37230   -37220   -37222   -37223   -37222   -37220   -37222 
  -37226   -37231   -37231   -37228   -37231   -37233   -37228   -37226 
  -37226   -37226   -37227   -37233   -37237   -37235   -37235   -37242 
  -37254   -37262   -37268   -37280   -37297   -37314   -37328   -37343 
  -37358   -37380   -37408   -37439   -37470   -37507   -37550   -37588 
  -37616   -37638   -37659   -37681   -37698   -37712   -37720   -37731 
  -37743   -37750   -37748   -37741   -37729   -37714   -37693   -37666 
  -37636   -37605   -37570   -37531   -37485   -37434   -37382   -37332 
  -37284   -37230   -37173   -37118   -37060   -37004   -36961   -36919 
  -36877   -36844   -36810   -36769   -36733   -36713   -36695   -36682 
  -36675   -36670   -36672   -36697   -36724   -36744   -36769   -36806 
  -36848   -36887   -36923   -36961   -36999   -37041   -37096   -37147 
  -37181   -37210   -37234   -37250   -37270   -37296   -37318   -37336 
  -37353   -37365   -37372   -37380   -37392   -37401   -37412   -37428 
  -37440   -37447   -37458   -37465   -37463   -37463   -37465   -37459 
  -37443   -37420   -37397   -37376   -37355   -37335   -37314   -37292 
  -37268   -37241   -37216   -37192   -37165   -37139   -37108   -37085 
  -37072   -37056   -37035   -37017   -36992   -36969   -36952   -36937 
  -36923   -36915   -36914   -36918   -36918   -36917   -36925   -36936 
  -36937   -36934   -36931   -36931   -36933   -36934   -36930   -36929 
  -36930   -36931   -36936   -36941   -36940   -36937   -36938   -36942 
  -36948   -36952   -36956   -36963   -36972   -36984   -36996   -36999 
  -36996   -36994   -36987   -36972   -36952   -36931   -36914   -36896 
  -36884   -36875   -36855   -36833   -36815   -36792   -36759   -36725 
  -36694   -36663   -36643   -36632   -36620   -36606   -36595   -36580 
  -36556   -36531   -36512   -36491   -36466   -36447   -36435   -36421 
  -36406   -36398   -36391   -36383   -36379   -36381   -36389   -36398 
  -36410   -36431   -36455   -36481   -36517   -36560   -36602   -36651 
  -36706   -36756   -36799   -36846   -36895   -36948   -37004   -37060 
  -37107   -37154   -37200   -37246   -37288   -37326   -37359   -37393 
  -37420   -37440   -37462   -37481   -37500   -37520   -37536   -37551 
  -37571   -37590   -37608   -37620   -37629   -37644   -37665   -37692 
  -37723   -37744   -37754   -37764   -37779   -37791   -37795   -37797 
  -37808   -37822   -37835   -37844   -37844   -37836   -37831   -37827 
  -37814   -37798   -37785   -37774   -37754   -37729   -37709   -37693 
  -37678   -37662   -37638   -37609   -37586   -37563   -37531   -37500 
  -37474   -37446   -37419   -37397   -37369   -37326   -37280   -37241 
  -37199   -37158   -37125   -37095   -37060   -37023   -36985   -36949 
  -36917   -36888   -36855   -36823   -36802   -36780   -36752   -36729 
  -36717   -36711   -36713   -36717   -36722   -36728   -36733   -36736 
  -36738   -36745   -36753   -36761   -36775   -36792   -36810   -36829 
  -36842   -36860   -36880   -36899   -36917   -36938   -36960   -36980 
  -37002   -37021   -37041   -37062   -37084   -37099   -37106   -37115 
  -37135   -37152   -37165   -37181   -37197   -37216   -37237   -37253 
  -37272   -37296   -37312   -37320   -37335   -37351   -37366   -37385 
  -37401   -37407   -37409   -37413   -37423   -37430   -37432   -37435 
  -37438   -37432   -37424   -37416   -37400   -37377   -37361   -37347 
  -37326   -37307   -37292   -37272   -37251   -37235   -37218   -37200 
  -37188   -37173   -37160   -37146   -37129   -37106   -37084   -37071 
  -37056   -37035   -37015   -36996   -36969   -36942   -36921   -36904 
  -36888   -36867   -36849   -36838   -36828   -36815   -36802   -36795 
  -36791   -36787   -36782   -36780   -36783   -36783   -36782   -36791 
  -36806   -36819   -36838   -36861   -36888   -36911   -36926   -36946 
  -36971   -36998   -37037   -37073   -37100   -37129   -37154   -37180 
  -37206   -37230   -37257   -37285   -37307   -37327   -37343   -37357 
  -37370   -37380   -37384   -37389   -37401   -37408   -37400   -37390 
  -37380   -37363   -37345   -37323   -37296   -37277   -37260   -37230 
  -37200   -37181   -37168   -37153   -37143   -37127   -37102   -37077 
  -37060   -37044   -37022   -37004   -36996   -36987   -36976   -36964 
  -36948   -36930   -36919   -36917   -36917   -36915   -36917   -36921 
  -36922   -36925   -36930   -36934   -36937   -36942   -36953   -36971 
  -36984   -36990   -37000   -37012   -37022   -37038   -37060   -37083 
  -37108   -37134   -37162   -37188   -37210   -37226   -37237   -37250 
  -37268   -37287   -37301   -37309   -37319   -37331   -37338   -37339 
  -37343   -37349   -37345   -37336   -37335   -37331   -37323   -37322 
  -37327   -37330   -37336   -37349   -37359   -37366   -37374   -37386 
  -37405   -37427   -37443   -37454   -37463   -37474   -37478   -37478 
