Origin Time       2025/01/13 21:19:00
Lat.              31.8
Long.             131.6
Depth. (km)       30
Mag.              6.9
Station Code      KOCH12
Station Lat.      33.5294
Station Long.     133.8192
Station Height(m) 40
Record Time       2025/01/13 21:20:28
Sampling Freq(Hz) 100Hz
Duration Time(s)  133
Dir.              5
Scale Factor      7845(gal)/8223790
Max. Acc. (gal)   0.801
Last Correction   2025/01/13 21:20:29
Memo.             
[...]
     244      206      214      244      282      306      299      288 
     301      303      264      213      179      174      218      314 
     415      475      484      461      415      371      348      351 
     380      445      515      521      433      292      152       37 
     -36      -79     -112     -128     -117     -106     -141     -233 
    -329     -353     -301     -232     -189     -178     -189     -206 
    -218     -216     -178     -124      -98     -102     -121     -130 
    -102      -72      -72      -71      -35       22       72      105 
     126      136      117       66       24       17       12      -14 
     -52      -81      -81      -51       -4       63      144      203 
     209      193      199      216      206      151       70       31 
      79      178      257      282      263      216      144       74 
      18      -45     -130     -206     -256     -271     -252     -228 
    -237     -290     -368     -456     -535     -592     -633     -646 
    -610     -531     -442     -368     -310     -263     -222     -179 
    -137     -113      -90      -48       -5       10        4        1 
      12       39       76      102      109      113      108       72 
      45       59       72       56       32       17       37      110 
     206      263      265      253      263      279      267      202 
      93       -6      -37      -13       14       37       52       54 
      40      -16     -121     -217     -252     -249     -247     -247 
    -217     -144      -54       24       83      108       98       83 
     101      157      243      314      332      301      256      210 
     163      112       54        2      -55     -133     -198     -220 
    -207     -174     -135     -113      -97      -79      -75      -72 
     -41       16       74      103       85       29      -13       -5 
      63      175      292      387      445      454      418      359 
     306      282      259      207      153      145      179      205 
     189      128       67       63      112      167      194      210 
     249      309      369      433      484      514      537      554 
     549      525      503      484      441      359      255      155 
      81       33      -14      -81     -159     -236     -297     -332 
    -349     -345     -326     -302     -267     -221     -171     -122 
     -78      -20       58      129      163      166      163      183 
     221      243      224      160       91       64       48       -2 
     -79     -151     -182     -145      -60       28       87      105 
      62      -24      -94     -130     -135     -125     -129     -139 
    -113      -62      -13       12        6      -16      -47      -85 
    -102      -81      -47      -24      -10       12       64      141 
     203      226      213      176      132       91       52       25 
       8      -31     -118     -237     -355     -446     -492     -479 
    -411     -334     -272     -209     -157     -126      -89      -33 
      21       63       95      135      172      221      279      318 
     324      303      282      286      319      353      359      330 
     271      197      141      117      114      106       86       86 
     128      191      251      276      259      228      205      198 
     201      194      166      122       90       74       62       52 
      33       -9      -76     -160     -249     -324     -391     -460 
    -523     -573     -610     -643     -676     -712     -746     -766 
    -766     -733     -654     -544     -407     -267     -143      -33 
      51       91      109      128      155      180      201      218 
     230      230      206      153       81       13      -32      -44 
     -21       12       37       54       63       59       41       21 
      14       52      147      263      363      449      535      629 
     696      715      710      707      692      672      675      703 
     734      747      729      679      635      623      615      581 
     525      476      464      461      410      291      141       13 
     -72     -133     -194     -265     -333     -373     -382     -355 
    -298     -226     -141      -33       76      171      237      249 
     225      205      176      112       29      -45     -117     -191 
    -251     -297     -341     -376     -392     -402     -414     -418 
    -405     -373     -330     -288     -256     -228     -190     -163 
    -156     -153     -155     -166     -167     -155     -156     -190 
    -264     -359     -434     -475     -500     -523     -544     -534 
    -479     -413     -364     -325     -279     -225     -152      -83 
     -41      -16       -4       -4       -4       16       48       78 
     103      132      144      124       86       56       43       56 
      91      118      125      130      140      144      148      147 
     128       97       60       25        0      -20      -44      -71 
    -108     -160     -217     -263     -290     -301     -309     -319 
    -315     -294     -268     -241     -222     -220     -214     -195 
    -174     -149     -114      -76      -39        8       56       99 
     143      174      183      184      189      184      160      112 
      59       12      -32      -76     -109     -118     -103      -81 
     -70      -76      -91     -103     -117     -136     -149     -139 
    -120     -109      -94      -54       14       90      153      201 
     230      252      280      309      322      332      349      383 
     426      456      463      445      405      361      315      245 
     159       85       28      -17      -55      -93     -136     -176 
    -198     -205     -214     -230     -238     -234     -221     -202 
    -183     -163     -135      -89      -29       17       56       99 
     136      160      151      102       40       -4      -25      -29 
     -13       20       63      106      140      151      149      167 
     216      279      344      415      488      542      571      571 
     523      448      384      348      341      384      457      496 
     490      464      444      445      453      430      376      334 
     330      352      359      310      213      120       59       32 
       9      -51     -147     -236     -287     -322     -376     -459 
    -540     -584     -572     -534     -506     -492     -484     -473 
    -449     -403     -341     -279     -228     -199     -186     -159 
    -118     -103     -116     -140     -175     -210     -244     -282 
    -317     -346     -365     -359     -328     -279     -220     -167 
    -130     -113     -128     -190     -283     -360     -390     -382 
    -372     -387     -415     -429     -417     -387     -349     -310 
    -261     -198     -125      -67      -40      -28      -12        1 
      16       41       72       99      128      166      211      263 
     310      338      348      348      357      386      421      459 
     513      580      642      689      719      724      712      689 
     673      681      704      730      757      781      797      812 
     826      824      810      795      783      773      766      745 
     707      660      603      544      484      422      344      244 
     141       62       12      -16      -37      -67     -118     -186 
    -255     -318     -382     -442     -494     -541     -587     -608 
    -600     -592     -592     -600     -625     -643     -622     -575 
    -521     -463     -405     -355     -311     -274     -243     -226 
    -224     -218     -197     -157     -106      -64      -45      -36 
     -20       -5      -16      -56     -122     -206     -301     -394 
    -488     -588     -669     -706     -702     -664     -595     -521 
    -452     -376     -295     -232     -195     -171     -132      -70 
       4       76      156      251      355      448      503      531 
     560      603      660      718      770      808      827      831 
     828      824      826      828      828      811      772      712 
     641      581      538      477      384      263      130       24 
     -54     -116     -160     -182     -184     -178     -179     -207 
    -260     -321     -382     -437     -488     -540     -579     -596 
    -587     -553     -517     -490     -444     -380     -328     -284 
    -253     -252     -268     -278     -279     -267     -236     -211 
    -217     -244     -267     -274     -276     -298     -341     -392 
    -433     -450     -453     -457     -461     -449     -413     -359 
    -303     -260     -233     -214     -203     -214     -244     -278 
    -303     -307     -288     -264     -245     -230     -228     -232 
    -232     -221     -207     -203     -191     -153      -95      -35 
      25       85      148      221      294      346      383      425 
     471      514      546      550      537      529      525      521 
     526      531      522      500      480      463      441      425 
     421      421      413      391      359      322      291      263 
     214      144       83       49       25       -8      -56     -112 
    -160     -198     -243     -303     -372     -430     -464     -476 
    -491     -500     -486     -449     -394     -336     -286     -244 
    -221     -214     -205     -201     -203     -194     -176     -163 
    -148     -126      -95      -58      -16       27       75      124 
     174      225      270      314      380      459      537      619 
     687      720      737      739      727      718      722      716 
     687      641      579      500      423      363      322      294 
     270      247      220      187      162      139      116      109 
     125      149      184      238      299      356      390      380 
     345      311      278      238      194      129       41      -56 
    -147     -206     -236     -256     -282     -310     -340     -363 
    -368     -369     -375     -367     -341     -309     -272     -244 
    -244     -278     -322     -360     -388     -405     -411     -419 
    -429     -438     -441     -449     -481     -522     -561     -615 
    -665     -684     -675     -646     -595     -535     -481     -426 
    -364     -310     -267     -228     -195     -174     -160     -151 
    -141     -124      -93      -49        6       66      116      168 
     229      302      395      498      589      675      761      831 
     861      854      832      819      811      788      735      658 
     580      511      450      387      325      270      222      183 
     147       99       20      -83     -175     -225     -230     -207 
    -184     -164     -147     -132     -116      -87      -47       -9 
      12       21       48      110      183      232      243      225 
     195      166      144      128      118      116      112       98 
      76       41       -1      -39      -62      -68      -63      -66 
     -87     -109     -106      -78      -31       22       56       67 
      72       89      112      133      152      166      171      174 
     180      197      224      249      257      226      168      117 
      81       47       29       32       33       22        2      -33 
     -87     -135     -163     -178     -179     -162     -140     -133 
    -125     -112      -95      -74      -63      -75      -85      -90 
     -93      -82      -68      -51      -12       20       27       22 
      16        9        6        2       -5        1       37       85 
     136      195      247      279      306      329      351      387 
     432      465      481      472      442      414      402      400 
     407      407      391      359      310      251      190      139 
      93       58       44       40       29       14        8        5 
       2        1       -4      -28      -54      -78     -103     -126 
    -144     -162     -174     -175     -178     -194     -217     -240 
    -257     -265     -264     -256     -259     -274     -294     -314 
    -332     -344     -349     -351     -344     -332     -328     -322 
    -306     -286     -270     -256     -255     -265     -267     -257 
    -259     -278     -303     -322     -341     -361     -383     -407 
    -432     -449     -469     -491     -503     -506     -511     -515 
    -503     -468     -411     -342     -263     -168      -74        5 
      63      102      140      179      210      238      268      294 
     309      311      313      315      302      257      193      128 
      82       49       14      -28      -76     -124     -170     -214 
    -257     -291     -302     -290     -261     -222     -182     -137 
     -76       -8       59      118      156      179      211      268 
     342      413      457      490      527      556      569      584 
     595      615      660      702      715      702      673      639 
     612      592      562      517      459      398      346      298 
     243      184      118       41      -22      -62      -83      -90 
     -90      -93      -93      -86      -82      -74      -59      -41 
     -21       -1       21       60      116      172      218      253 
     283      311      329      329      318      295      251      191 
     124       41      -37     -101     -163     -222     -282     -348 
    -411     -467     -529     -598     -660     -710     -745     -769 
    -791     -805     -803     -785     -749     -687     -600     -498 
    -390     -291     -197     -105      -31       25       85      151 
     229      326      411      476      537      587      608      618 
     625      625      629      637      629      603      560      487 
     399      319      259      217      182      137       97       70 
      55       43       21      -17      -54      -62      -43      -10 
      16       17        0       -9       -9      -12      -28      -64 
    -110     -140     -148     -144     -140     -136     -126     -117 
    -116     -124     -141     -168     -194     -217     -229     -221 
    -193     -145      -90      -33       16       47       63       72 
      68       54       35        8      -20      -49      -86     -122 
    -162     -202     -241     -283     -329     -360     -369     -368 
    -360     -337     -292     -222     -132      -32       63      155 
     241      322      386      436      479      515      549      583 
     608      611      584      541      494      446      394      337 
     284      253      233      202      163      129       95       72 
      66       63       58       64       78       89       97      108 
     109       85       40      -10      -54      -86     -108     -120 
    -133     -149     -163     -176     -191     -201     -214     -232 
    -241     -245     -251     -267     -286     -298     -307     -325 
    -352     -372     -380     -368     -341     -328     -328     -325 
    -319     -311     -286     -244     -194     -135      -72      -16 
      45      118      186      237      278      314      337      360 
     390      415      434      440      417      372      334      314 
     302      287      274      260      241      225      217      217 
     225      240      256      278      311      352      375      378 
     382      387      379      369      367      364      372      391 
     395      376      353      324      288      263      249      232 
     209      189      170      151      129      121      126      137 
     153      174      187      203      229      260      287      314 
     334      332      315      297      271      240      206      167 
     133      108       83       43      -18      -72     -109     -135 
    -147     -151     -155     -159     -167     -184     -214     -245 
    -261     -265     -255     -220     -166     -112      -55        0 
      48      101      166      226      276      319      353      369 
     376      372      348      303      255      217      190      172 
     156      118       72       31       -4      -25      -28      -16 
       0        9        8       -5      -16      -14       -9       -4 
       5        9       13       25       37       32        8      -28 
     -70     -105     -120     -110      -95      -75      -49      -35 
     -27      -18       -8       10       41       63       63       56 
      59       70       74       64       55       52       44       24 
       5       -8      -20      -43      -81     -122     -166     -221 
    -282     -333     -380     -421     -460     -514     -568     -598 
    -612     -618     -612     -600     -580     -554     -531     -507 
    -461     -398     -328     -251     -168      -81       12      102 
     182      261      338      398      450      499      537      572 
     602      619      639      654      649      629      594      542 
     492      454      422      394      365      328      283      255 
     247      247      251      256      259      252      225      184 
     148      120       98       72       41       16        1       -5 
      -1       14       27       31       31       29       25       29 
      39       48       60       79       95      105      114      130 
     149      166      176      190      198      202      209      207 
     207      221      233      228      216      203      179      140 
      94       44        8       -8      -12       -8      -12      -29 
     -48      -67      -86      -95     -102     -109     -114     -117 
    -114     -102      -78      -44       -2       47      106      164 
     210      244      271      283      284      276      253      222 
     190      159      132      106       76       41       10      -10 
     -31      -47      -55      -49      -31       -8        9       28 
      58       95      144      193      229      260      302      352 
     391      422      449      472      487      492      486      477 
     473      463      434      392      341      291      245      203 
     167      135      106       90       91      101      109      118 
     124      122      124      121      117      120      122      110 
      89       72       54       29        2      -31      -82     -137 
    -190     -249     -314     -367     -410     -448     -469     -476 
    -486     -496     -504     -508     -506     -495     -465     -422 
    -384     -352     -321     -292     -260     -234     -224     -217 
    -206     -198     -197     -198     -195     -194     -190     -182 
    -163     -128      -78      -25       21       56       78      103 
     141      180      228      274      309      342      372      395 
     417      434      453      483      515      549      580      602 
     610      610      602      583      557      525      490      460 
     434      413      391      371      346      318      287      248 
     202      152      114       90       79       85       97       99 
      93       82       66       40        5      -28      -63      -89 
    -101     -113     -125     -125     -108      -86      -63      -49 
     -59      -90     -114     -129     -140     -135     -114      -99 
     -91      -85      -86      -97     -112     -124     -141     -163 
