Origin Time       2025/01/13 21:19:00
Lat.              31.8
Long.             131.6
Depth. (km)       30
Mag.              6.9
Station Code      KOCH01
Station Lat.      33.5421
Station Long.     134.1197
Station Height(m) 235
Record Time       2025/01/13 21:20:40
Sampling Freq(Hz) 100Hz
Duration Time(s)  120
Dir.              6
Scale Factor      7845(gal)/8223790
Max. Acc. (gal)   0.439
Last Correction   2025/01/13 21:20:41
Memo.             
[...]
    4735     4729     4734     4753     4742     4699     4669     4669 
    4668     4649     4645     4660     4652     4638     4648     4653 
    4662     4685     4692     4695     4707     4710     4700     4676 
    4657     4673     4698     4691     4671     4658     4650     4650 
    4665     4706     4764     4800     4793     4779     4789     4811 
    4811     4800     4793     4776     4761     4762     4754     4743 
    4761     4792     4795     4764     4734     4735     4760     4799 
    4842     4861     4855     4862     4882     4899     4904     4891 
    4860     4823     4804     4804     4803     4807     4819     4818 
    4804     4792     4779     4762     4756     4758     4760     4760 
    4761     4765     4781     4806     4816     4808     4803     4799 
    4796     4800     4820     4864     4887     4847     4787     4750 
    4742     4761     4788     4803     4811     4806     4785     4781 
    4799     4827     4847     4846     4843     4850     4845     4827 
    4804     4776     4746     4742     4773     4812     4828     4822 
    4804     4787     4783     4788     4781     4760     4737     4725 
    4722     4708     4679     4664     4676     4691     4718     4754 
    4752     4708     4677     4666     4652     4626     4611     4623 
    4633     4631     4656     4695     4710     4706     4706     4719 
    4743     4760     4765     4765     4761     4765     4776     4792 
    4815     4841     4858     4857     4830     4804     4799     4800 
    4799     4787     4765     4756     4768     4787     4800     4796 
    4764     4720     4712     4753     4781     4765     4753     4765 
    4784     4812     4841     4845     4826     4793     4770     4774 
    4785     4793     4810     4822     4827     4830     4808     4764 
    4712     4677     4664     4642     4608     4607     4629     4623 
    4596     4561     4540     4571     4623     4658     4669     4639 
    4595     4591     4604     4604     4612     4633     4654     4679 
    4680     4664     4656     4652     4648     4627     4581     4560 
    4592     4645     4675     4669     4652     4639     4629     4634 
    4661     4702     4741     4766     4777     4787     4800     4808 
    4796     4783     4781     4783     4788     4807     4833     4858 
    4887     4919     4939     4930     4901     4877     4864     4853 
    4819     4787     4780     4788     4801     4812     4815     4796 
    4764     4754     4758     4754     4739     4711     4703     4722 
    4727     4725     4727     4719     4720     4730     4733     4743 
    4757     4754     4757     4780     4803     4807     4801     4788 
    4766     4772     4804     4814     4795     4774     4784     4830 
    4873     4884     4885     4889     4887     4887     4889     4881 
    4866     4860     4869     4882     4882     4855     4822     4816 
    4839     4860     4857     4830     4815     4824     4819     4793 
    4787     4785     4764     4737     4729     4743     4758     4738 
    4708     4711     4718     4711     4707     4698     4683     4680 
    4679     4668     4671     4699     4733     4738     4727     4720 
    4702     4669     4656     4669     4676     4673     4673     4668 
    4660     4652     4641     4630     4622     4627     4652     4679 
    4695     4683     4649     4638     4665     4702     4734     4746 
    4747     4753     4752     4745     4756     4774     4774     4764 
    4770     4788     4779     4737     4698     4681     4688     4706 
    4715     4712     4710     4708     4700     4688     4677     4656 
    4627     4610     4595     4575     4557     4533     4521     4546 
    4569     4560     4550     4556     4567     4596     4638     4629 
    4568     4537     4580     4650     4683     4664     4619     4584 
    4568     4554     4541     4552     4572     4565     4560     4603 
    4672     4716     4727     4716     4711     4741     4772     4762 
    4745     4747     4747     4737     4729     4730     4738     4739 
    4733     4731     4735     4745     4774     4820     4853     4850 
    4838     4855     4895     4916     4901     4866     4838     4842 
    4878     4915     4916     4874     4811     4777     4792     4801 
    4777     4761     4777     4804     4810     4795     4774     4752 
    4734     4731     4745     4756     4727     4672     4646     4649 
    4652     4656     4661     4675     4689     4699     4703     4699 
    4684     4675     4665     4658     4680     4715     4730     4716 
    4704     4711     4720     4718     4715     4722     4727     4730 
    4730     4729     4729     4726     4730     4745     4761     4781 
    4807     4822     4831     4847     4862     4873     4881     4892 
    4901     4920     4949     4950     4899     4828     4799     4824 
    4858     4858     4824     4785     4776     4779     4746     4692 
    4665     4677     4704     4714     4684     4637     4612     4617 
    4610     4591     4585     4587     4584     4596     4615     4618 
    4607     4603     4610     4625     4654     4683     4676     4652 
    4650     4672     4704     4727     4722     4700     4696     4720 
    4737     4725     4706     4704     4720     4745     4765     4774 
    4765     4749     4747     4768     4796     4827     4854     4866 
    4868     4858     4843     4833     4822     4806     4789     4784 
    4780     4769     4758     4731     4673     4630     4639     4672 
    4683     4669     4646     4626     4615     4612     4603     4600 
    4619     4639     4638     4633     4638     4644     4644     4642 
    4658     4687     4689     4666     4650     4654     4668     4689 
    4716     4730     4720     4703     4703     4725     4756     4788 
    4812     4820     4827     4847     4872     4884     4887     4893 
    4905     4907     4901     4889     4862     4845     4861     4881 
    4884     4882     4876     4846     4810     4793     4801     4806 
    4793     4788     4789     4783     4776     4774     4772     4779 
    4785     4776     4770     4780     4785     4766     4737     4725 
    4730     4734     4739     4754     4770     4788     4803     4804 
    4797     4788     4772     4766     4769     4769     4772     4783 
    4784     4776     4780     4810     4833     4831     4822     4814 
    4803     4800     4804     4812     4819     4820     4826     4834 
    4837     4833     4816     4803     4811     4822     4820     4811 
    4785     4752     4730     4727     4722     4712     4711     4718 
    4730     4749     4747     4715     4680     4669     4681     4698 
    4712     4714     4700     4695     4702     4703     4693     4685 
    4698     4725     4746     4764     4773     4774     4779     4788 
    4796     4803     4819     4828     4815     4797     4795     4791 
    4777     4773     4785     4797     4810     4810     4783     4739 
    4714     4719     4738     4738     4722     4716     4731     4753 
    4758     4735     4715     4718     4716     4696     4687     4691 
    4695     4703     4726     4764     4792     4795     4792     4800 
    4800     4793     4789     4774     4753     4735     4720     4711 
    4702     4677     4658     4664     4681     4698     4710     4720 
    4725     4718     4722     4743     4745     4715     4693     4691 
    4684     4666     4662     4675     4685     4696     4711     4722 
    4725     4722     4718     4730     4762     4783     4787     4801 
    4833     4847     4835     4812     4814     4849     4869     4839 
    4797     4789     4807     4828     4839     4830     4808     4799 
    4807     4824     4834     4812     4779     4766     4757     4743 
    4743     4746     4737     4727     4723     4730     4747     4753 
    4742     4725     4703     4695     4703     4700     4695     4704 
    4725     4733     4722     4700     4688     4692     4702     4714 
    4733     4746     4739     4735     4745     4752     4756     4762 
    4766     4765     4757     4749     4749     4753     4757     4762 
    4765     4765     4770     4776     4765     4742     4718     4698 
    4679     4668     4662     4656     4661     4673     4664     4644 
    4635     4637     4635     4619     4595     4584     4587     4579 
    4569     4577     4591     4592     4581     4565     4554     4553 
    4548     4538     4530     4519     4504     4499     4509     4525 
    4537     4541     4545     4556     4571     4577     4584     4602 
    4622     4652     4698     4738     4753     4756     4765     4788 
    4822     4857     4882     4899     4903     4905     4918     4928 
    4932     4934     4932     4932     4942     4951     4954     4958 
    4955     4946     4941     4930     4912     4895     4872     4849 
    4842     4846     4845     4830     4820     4819     4820     4822 
    4823     4834     4850     4854     4847     4846     4843     4845 
    4864     4884     4895     4892     4874     4865     4876     4889 
    4892     4888     4887     4893     4905     4912     4903     4889 
    4884     4884     4889     4903     4912     4901     4874     4862 
    4877     4896     4908     4919     4931     4943     4946     4936 
    4920     4907     4897     4895     4888     4862     4838     4828 
    4814     4788     4770     4761     4752     4753     4761     4760 
    4750     4742     4737     4730     4723     4718     4707     4691 
    4691     4696     4677     4646     4635     4638     4645     4652 
    4652     4635     4614     4603     4600     4587     4563     4552 
    4569     4587     4577     4552     4541     4554     4575     4585 
    4584     4583     4592     4604     4612     4627     4652     4672 
    4684     4685     4669     4642     4631     4633     4621     4615 
    4631     4648     4652     4654     4668     4687     4710     4729 
    4729     4706     4692     4702     4704     4691     4681     4673 
    4657     4646     4656     4669     4664     4648     4649     4668 
    4683     4685     4683     4683     4688     4695     4692     4685 
    4683     4677     4662     4654     4650     4629     4592     4573 
    4579     4588     4587     4575     4567     4575     4592     4598 
    4588     4583     4600     4625     4638     4649     4661     4673 
    4683     4685     4685     4689     4692     4700     4714     4720 
    4722     4723     4722     4729     4746     4768     4784     4784 
    4776     4779     4785     4785     4789     4789     4781     4773 
    4769     4769     4776     4785     4796     4801     4804     4804 
    4810     4818     4815     4803     4799     4801     4800     4791 
    4776     4760     4741     4723     4710     4688     4648     4608 
    4598     4603     4600     4573     4537     4515     4513     4511 
    4495     4471     4461     4477     4487     4460     4433     4433 
    4438     4437     4446     4465     4477     4488     4509     4538 
    4584     4631     4657     4664     4669     4681     4700     4719 
    4741     4765     4784     4804     4831     4845     4839     4838 
    4845     4851     4860     4870     4882     4892     4897     4901 
    4904     4904     4904     4909     4923     4945     4966     4980 
    4980     4973     4972     4965     4951     4932     4919     4911 
    4897     4877     4860     4835     4806     4788     4785     4774 
    4746     4733     4760     4793     4792     4762     4735     4731 
    4745     4756     4752     4745     4745     4749     4747     4745 
    4750     4764     4779     4796     4814     4824     4827     4827 
    4823     4828     4854     4870     4857     4834     4830     4845 
    4868     4876     4862     4845     4837     4830     4823     4820 
    4816     4801     4785     4777     4773     4762     4754     4752 
    4745     4730     4723     4726     4729     4737     4743     4737 
    4729     4734     4745     4747     4738     4730     4723     4716 
    4719     4718     4715     4727     4750     4757     4743     4726 
    4716     4715     4712     4710     4706     4703     4707     4722 
    4731     4723     4704     4699     4711     4731     4743     4749 
    4753     4758     4769     4792     4818     4833     4834     4826 
    4830     4854     4869     4873     4874     4877     4891     4914 
    4927     4924     4916     4915     4920     4918     4899     4874 
    4857     4847     4834     4818     4800     4779     4758     4743 
    4727     4703     4673     4646     4631     4621     4607     4590 
    4569     4545     4526     4518     4510     4490     4467     4469 
    4488     4498     4500     4498     4488     4488     4498     4504 
    4506     4504     4499     4490     4491     4510     4530     4544 
    4553     4563     4577     4600     4611     4608     4608     4623 
    4641     4646     4637     4621     4608     4603     4596     4595 
    4603     4610     4611     4611     4611     4611     4607     4598 
    4595     4603     4604     4596     4594     4595     4591     4587 
    4588     4594     4608     4619     4621     4618     4612     4603 
    4599     4610     4622     4626     4623     4633     4662     4692 
    4702     4711     4734     4762     4787     4806     4824     4847 
    4868     4887     4912     4941     4965     4985     4999     5015 
    5046     5076     5094     5105     5116     5121     5130     5140 
    5147     5151     5163     5178     5190     5200     5202     5189 
    5161     5136     5128     5130     5125     5115     5100     5082 
    5067     5053     5036     5026     5008     4980     4950     4920 
    4880     4842     4815     4801     4793     4780     4757     4739 
    4725     4708     4695     4679     4653     4630     4607     4579 
    4564     4558     4546     4536     4533     4527     4518     4503 
    4495     4494     4477     4448     4437     4449     4461     4465 
    4468     4469     4464     4468     4480     4492     4499     4502 
    4502     4507     4521     4544     4558     4556     4553     4571 
    4595     4602     4595     4596     4604     4612     4627     4642 
    4638     4627     4629     4631     4635     4650     4671     4679 
    4675     4672     4683     4699     4725     4758     4773     4772 
    4781     4806     4828     4846     4855     4860     4855     4849 
    4855     4874     4878     4874     4881     4892     4904     4924 
    4939     4939     4931     4930     4941     4943     4932     4926 
    4927     4924     4918     4915     4909     4893     4880     4880 
    4884     4884     4881     4872     4854     4838     4828     4818 
    4807     4796     4795     4799     4795     4784     4774     4768 
    4756     4733     4714     4712     4720     4723     4711     4689 
    4671     4657     4644     4635     4630     4622     4612     4610 
    4610     4608     4606     4606     4608     4615     4629     4646 
    4658     4666     4675     4672     4665     4662     4662     4665 
    4662     4646     4637     4644     4652     4658     4664     4665 
    4661     4664     4669     4672     4677     4681     4676     4675 
    4689     4704     4710     4707     4704     4716     4737     4756 
    4769     4773     4770     4766     4761     4754     4756     4765 
    4774     4787     4807     4820     4826     4831     4837     4841 
    4845     4845     4842     4847     4857     4858     4843     4831 
    4838     4850     4857     4860     4864     4873     4874     4870 
    4873     4880     4887     4893     4896     4908     4927     4934 
    4926     4915     4907     4901     4900     4905     4905     4899 
    4897     4901     4897     4881     4869     4861     4846     4826 
    4807     4784     4770     4770     4764     4742     4722     4714 
    4715     4718     4719     4716     4712     4710     4706     4706 
    4706     4708     4712     4720     4737     4750     4749     4741 
    4735     4723     4710     4715     4733     4742     4741     4734 
    4723     4719     4730     4749     4760     4765     4777     4788 
    4792     4804     4819     4828     4835     4843     4849     4849 
    4843     4845     4845     4834     4823     4818     4810     4806 
    4806     4799     4788     4785     4784     4781     4780     4783 
    4792     4806     4812     4819     4831     4835     4831     4835 
    4839     4843     4851     4855     4850     4850     4857     4864 
    4864     4854     4831     4803     4783     4773     4766     4753 
    4733     4708     4687     4671     4654     4639     4633     4621 
    4603     4594     4583     4568     4556     4548     4542     4548 
    4557     4557     4554     4563     4567     4561     4556     4560 
    4573     4587     4588     4588     4595     4604     4612     4618 
    4618     4612     4606     4606     4619     4634     4639     4642 
    4650     4662     4672     4673     4679     4688     4689     4691 
    4703     4714     4720     4730     4734     4727     4727     4734 
    4731     4723     4707     4680     4657     4649     4646     4633 
    4611     4595     4595     4592     4579     4571     4568     4569 
    4576     4579     4569     4553     4540     4533     4533     4542 
    4557     4565     4564     4556     4549     4554     4569     4580 
    4585     4594     4599     4595     4588     4595     4612     4631 
    4646     4653     4656     4661     4677     4703     4726     4743 
    4756     4756     4750     4754     4762     4768     4769     4773 
    4781     4791     4799     4810     4823     4833     4842     4850 
    4849     4846     4847     4846     4841     4842     4855     4861 
    4847     4827     4814     4808     4799     4785     4773     4762 
    4747     4745     4750     4743     4734     4730     4730     4735 
    4741     4738     4737     4741     4752     4768     4781     4795 
    4808     4812     4815     4820     4820     4816     4812     4806 
    4796     4789     4781     4776     4779     4780     4769     4747 
    4737     4734     4727     4729     4730     4720     4716     4720 
    4716     4707     4700     4696     4693     4692     4683     4665 
    4650     4652     4658     4658     4649     4635     4621     4614 
    4618     4612     4592     4573     4564     4560     4557     4546 
    4536     4529     4522     4519     4519     4514     4513     4511 
    4504     4498     4498     4506     4515     4526     4540     4553 
    4567     4577     4585     4592     4606     4625     4642     4654 
    4662     4658     4657     4666     4681     4698     4719     4741 
    4757     4776     4797     4820     4845     4865     4881     4899 
    4919     4941     4966     4990     5009     5031     5050     5066 
    5081     5094     5111     5121     5127     5139     5154     5158 
    5157     5155     5146     5134     5131     5134     5132     5128 
    5127     5127     5121     5121     5125     5116     5094     5082 
    5077     5062     5043     5032     5024     5009     4992     4968 
    4939     4914     4899     4888     4869     4851     4839     4824 
    4804     4780     4758     4743     4734     4723     4708     4693 
    4683     4672     4657     4639     4623     4608     4591     4575 
