Origin Time       2025/01/13 21:19:00
Lat.              31.8
Long.             131.6
Depth. (km)       30
Mag.              6.9
Station Code      KOCH04
Station Lat.      32.8414
Station Long.     132.7066
Station Height(m) -45
Record Time       2025/01/13 21:20:00
Sampling Freq(Hz) 100Hz
Duration Time(s)  149
Dir.              1
Scale Factor      3923(gal)/8224838
Max. Acc. (gal)   3.663
Last Correction   2025/01/13 21:20:00
Memo.             
[...]
  -12788   -12652   -12642   -12926   -13363   -13558   -13375   -13109 
  -13062   -13176   -13159   -12935   -12866   -13217   -13655   -13740 
  -13510   -13285   -13219   -13201   -13068   -12939   -13073   -13375 
  -13502   -13362   -13207   -13282   -13490   -13528   -13329   -13119 
  -13036   -12942   -12677   -12386   -12397   -12708   -12922   -12830 
  -12672   -12777   -13140   -13387   -13266   -13043   -13143   -13568 
  -13945   -14048   -14010   -13937   -13716   -13328   -13095   -13239 
  -13433   -13230   -12748   -12511   -12721   -12949   -12834   -12649 
  -12791   -13117   -13230   -13178   -13382   -13797   -13846   -13446 
  -13252   -13641   -14172   -14219   -13749   -13450   -13730   -14062 
  -13894   -13408   -13130   -13259   -13425   -13320   -13140   -13093 
  -13181   -13316   -13323   -13184   -13047   -12946   -12911   -12997 
  -13165   -13302   -13290   -13180   -13200   -13481   -13830   -13826 
  -13356   -12915   -13007   -13441   -13582   -13265   -12943   -12912 
  -12918   -12680   -12449   -12580   -12862   -12888   -12707   -12634 
  -12791   -12906   -12700   -12440   -12463   -12542   -12421   -12360 
  -12737   -13370   -13618   -13265   -12881   -13101   -13813   -14266 
  -14072   -13680   -13618   -13768   -13779   -13705   -13825   -14071 
  -14076   -13709   -13302   -13228   -13338   -13212   -12825   -12603 
  -12842   -13305   -13493   -13221   -12852   -12812   -13076   -13324 
  -13419   -13495   -13651   -13740   -13644   -13468   -13404   -13437 
  -13320   -12972   -12711   -12857   -13293   -13618   -13718   -13768 
  -13818   -13770   -13568   -13379   -13412   -13498   -13300   -12879 
  -12680   -12895   -13132   -13034   -12889   -13171   -13652   -13666 
  -13189   -12895   -13174   -13659   -13728   -13378   -13219   -13555 
  -13991   -14010   -13663   -13475   -13678   -13990   -14037   -13703 
  -13296   -13201   -13389   -13591   -13657   -13614   -13532   -13383 
  -13207   -13167   -13278   -13379   -13359   -13338   -13512   -13709 
  -13593   -13257   -13103   -13319   -13541   -13266   -12665   -12417 
  -12787   -13298   -13383   -13084   -12907   -13119   -13392   -13339 
  -13016   -12625   -12280   -12008   -11800   -11823   -12139   -12502 
  -12704   -12708   -12621   -12637   -12780   -12903   -12987   -13173 
  -13520   -13888   -14042   -13871   -13544   -13355   -13323   -13189 
  -12947   -12870   -13001   -13082   -12930   -12719   -12779   -13046 
  -13103   -12784   -12407   -12426   -12943   -13563   -13894   -13957 
  -13942   -13971   -14019   -13961   -13817   -13706   -13632   -13587 
  -13613   -13689   -13716   -13616   -13466   -13433   -13579   -13783 
  -13873   -13819   -13745   -13726   -13799   -14015   -14187   -13987 
  -13539   -13348   -13568   -13749   -13486   -12996   -12788   -12953 
  -13050   -12811   -12540   -12613   -12935   -13150   -13167   -13219 
  -13371   -13485   -13521   -13594   -13805   -14042   -14077   -13926 
  -13828   -13864   -13898   -13759   -13394   -13031   -12981   -13140 
  -13105   -12772   -12501   -12642   -13039   -13205   -13028   -12901 
  -13093   -13356   -13348   -13173   -13205   -13464   -13609   -13531 
  -13371   -13198   -13068   -12987   -12966   -13093   -13246   -13294 
  -13408   -13625   -13691   -13482   -13211   -13165   -13342   -13460 
  -13298   -12988   -12849   -12916   -12945   -12771   -12482   -12368 
  -12604   -13031   -13304   -13208   -12935   -12829   -12895   -12887 
  -12721   -12586   -12704   -12991   -13155   -13097   -12960   -12910 
  -12992   -13165   -13417   -13666   -13717   -13632   -13683   -13846 
  -13845   -13556   -13223   -13278   -13778   -14233   -14243   -13944 
  -13640   -13365   -13051   -12789   -12756   -12977   -13144   -13023 
  -12777   -12630   -12691   -13004   -13447   -13794   -13840   -13578 
  -13324   -13297   -13336   -13213   -12923   -12652   -12555   -12536 
  -12449   -12391   -12483   -12606   -12519   -12183   -11935   -12117 
  -12645   -13150   -13386   -13447   -13585   -13892   -14223   -14447 
  -14619   -14789   -14860   -14704   -14403   -14257   -14405   -14619 
  -14600   -14396   -14270   -14265   -14145   -13770   -13373   -13267 
  -13355   -13324   -13139   -13028   -13107   -13188   -13076   -12937 
  -12985   -12981   -12596   -12085   -12058   -12611   -13158   -13201 
  -12947   -13008   -13506   -13879   -13806   -13637   -13691   -13815 
  -13667   -13234   -12930   -12965   -13007   -12812   -12644   -12784 
  -13122   -13292   -13100   -12839   -12896   -13227   -13529   -13614 
  -13581   -13678   -13911   -14027   -13910   -13752   -13711   -13644 
  -13373   -13070   -13074   -13321   -13293   -12742   -12168   -12183 
  -12625   -12791   -12490   -12229   -12387   -12744   -12876   -12775 
  -12760   -12860   -12845   -12780   -12926   -13289   -13603   -13612 
  -13294   -12892   -12622   -12498   -12498   -12594   -12638   -12568 
  -12507   -12495   -12444   -12398   -12445   -12545   -12623   -12656 
  -12702   -12847   -12939   -12754   -12533   -12712   -13131   -13150 
  -12622   -12102   -12086   -12459   -12745   -12756   -12757   -12860 
  -12783   -12460   -12283   -12569   -13107   -13306   -12908   -12398 
  -12356   -12702   -12922   -12758   -12491   -12549   -12910   -13130 
  -13004   -12857   -12987   -13165   -13016   -12607   -12360   -12517 
  -12830   -12949   -12907   -12915   -12937   -12807   -12638   -12727 
  -13072   -13370   -13393   -13185   -13018   -13045   -13105   -13081 
  -13070   -13082   -12973   -12717   -12488   -12591   -13142   -13775 
  -14026   -13895   -13702   -13710   -13857   -13868   -13767   -13855 
  -14133   -14272   -14077   -13763   -13737   -14060   -14342   -14350 
  -14274   -14364   -14565   -14526   -14170   -13945   -14145   -14554 
  -14685   -14274   -13691   -13396   -13290   -13080   -12799   -12649 
  -12636   -12552   -12247   -11873   -11751   -11979   -12313   -12541 
  -12760   -13115   -13552   -13859   -13855   -13752   -13910   -14235 
  -14308   -13967   -13575   -13609   -13979   -14087   -13562   -12706 
  -12178   -12147   -12210   -12158   -12189   -12518   -13031   -13377 
  -13467   -13544   -13714   -13846   -13887   -14114   -14775   -15566 
  -15961   -15831   -15588   -15639   -15739   -15462   -15017   -14889 
  -15124   -15310   -15136   -14840   -14933   -15437   -15819   -15761 
  -15471   -15260   -15277   -15454   -15595   -15634   -15576   -15394 
  -15198   -15128   -15171   -15268   -15298   -15137   -14843   -14540 
  -14353   -14422   -14667   -14833   -14754   -14428   -14123   -14138 
  -14392   -14565   -14450   -14089   -13689   -13371   -13149   -13070 
  -13180   -13316   -13203   -12757   -12193   -11769   -11539   -11427 
  -11443   -11584   -11712   -11685   -11527   -11439   -11556   -11828 
  -12110   -12344   -12537   -12530   -12198   -11724   -11384   -11281 
  -11329   -11449   -11686   -11985   -12124   -11963   -11712   -11805 
  -12329   -12806   -12826   -12619   -12711   -13174   -13531   -13501 
  -13412   -13587   -13801   -13630   -13158   -13057   -13705   -14512 
  -14585   -13892   -13344   -13576   -14123   -14110   -13370   -12587 
  -12337   -12318   -11911   -11221   -10893   -11088   -11269   -11043 
  -10693   -10619   -10787   -11021   -11368   -12033   -13007   -13882 
  -14291   -14376   -14467   -14671   -14879   -14968   -14971   -14874 
  -14462   -13857   -13624   -13948   -14319   -14218   -13778   -13587 
  -13859   -14131   -13957   -13621   -13716   -14202   -14536   -14416 
  -14022   -13655   -13293   -12798   -12356   -12225   -12359   -12518 
  -12478   -12256   -12090   -12051   -12060   -12181   -12513   -12972 
  -13311   -13370   -13294   -13316   -13351   -13077   -12552   -12467 
  -13311   -14496   -14948   -14474   -13914   -13926   -14253   -14246 
  -13869   -13698   -13852   -13770   -13176   -12488   -12208   -12268 
  -12226   -12043   -12217   -12868   -13365   -13285   -13031   -13120 
  -13447   -13575   -13354   -13024   -12891   -12926   -12899   -12845 
  -12954   -13197   -13474   -13925   -14675   -15387   -15566   -15167 
  -14553   -14115   -13910   -13684   -13406   -13246   -13063   -12699 
  -12355   -12328   -12691   -13124   -13143   -12783   -12664   -13103 
  -13752   -14222   -14469   -14623   -14697   -14593   -14515   -14805 
  -15122   -14709   -13628   -12827   -12977   -13652   -13728   -12748 
  -11520   -10972   -11087   -11295   -11338   -11491   -12028   -12680 
  -13061   -13279   -13675   -14293   -14805   -15001   -15121   -15331 
  -15406   -15130   -14642   -14284   -14083   -13691   -13062   -12611 
  -12515   -12453   -12114   -11676   -11591   -11850   -11882   -11488 
  -11156   -11290   -11712   -12100   -12415   -12702   -12907   -13020 
  -13138   -13432   -13837   -13925   -13587   -13306   -13382   -13599 
  -13709   -13752   -13963   -14268   -14137   -13397   -12719   -12765 
  -13320   -13552   -13113   -12692   -13034   -13836   -14296   -14310 
  -14503   -15323   -16320   -16599   -16087   -15715   -16085   -16673 
  -16681   -16078   -15371   -14867   -14571   -14345   -14110   -13959 
  -13813   -13572   -13498   -13651   -13537   -12911   -12295   -12330 
  -12831   -13016   -12691   -12426   -12604   -12879   -12764   -12502 
  -12726   -13309   -13468   -12949   -12399   -12471   -12928   -13076 
  -12838   -12707   -12829   -12795   -12405   -12214   -12757   -13598 
  -13911   -13531   -13084   -13317   -14224   -15179   -15840   -16314 
  -16686   -16749   -16330   -15888   -16125   -16912   -17409   -17136 
  -16359   -15512   -14567   -13356   -12225   -11796   -12096   -12275 
  -11641   -10651   -10091    -9940    -9742    -9429    -9445   -10106 
  -10929   -11192   -10960   -10970   -11591   -12433   -12920   -12884 
  -12626   -12455   -12351   -12283   -12302   -12397   -12614   -12991 
  -13419   -13748   -13971   -14199   -14523   -15079   -15973   -16980 
  -17675   -17689   -16926   -15888   -15340   -15445   -15661   -15469 
  -15025   -15018   -15673   -16231   -15952   -15132   -14592   -14604 
  -14577   -13914   -12939   -12422   -12402   -12231   -11558   -10705 
  -10226   -10268   -10517   -10851   -11412   -12000   -12104   -11618 
  -11214   -11646   -12725   -13513   -13535   -13312   -13567   -14150 
  -14320   -14112   -14434   -15538   -16425   -16125   -14909   -13814 
  -13220   -12568   -11553   -10781   -10854   -11352   -11365   -10787 
  -10330   -10331   -10347   -10141   -10260   -11157   -12388   -13262 
  -13841   -14725   -15897   -16525   -16164   -15568   -15739   -16544 
  -16953   -16591   -16220   -16461   -16873   -16673   -15863   -15167 
  -14933   -14551   -13419   -12037   -11356   -11549   -11990   -12040 
  -11715   -11491   -11466   -11310   -11037   -11075   -11557   -12121 
  -12482   -12839   -13417   -13900   -13849   -13389   -13188   -13716 
  -14621   -15153   -15125   -15032   -15317   -15793   -15843   -15246 
  -14519   -14087   -13668   -12889   -11969   -11418   -11334   -11321 
  -11038   -10604   -10231    -9765    -9047    -8359    -8122    -8460 
   -9120    -9676    -9886    -9896   -10096   -10613   -11059   -10956 
  -10355    -9896   -10154   -11001   -11819   -12241   -12420   -12565 
  -12675   -12749   -12901   -13144   -13288   -13213   -13119   -13239 
  -13432   -13319   -12946   -12928   -13716   -14999   -16035   -16453 
  -16579   -16880   -17344   -17506   -17111   -16548   -16258   -16096 
  -15696   -15087   -14652   -14573   -14554   -14230   -13666   -13297 
  -13350   -13585   -13879   -14558   -15828   -17292   -18301   -18674 
  -18755   -18813   -18684   -18104   -17273   -16744   -16717   -16779 
  -16472   -15920   -15651   -15855   -16144   -16052   -15593   -15140 
  -14764   -14092   -13007   -12035   -11716   -11870   -11832   -11215 
  -10123    -8851    -7611    -6604    -6176    -6558    -7506    -8387 
   -8729    -8644    -8637    -9096    -9980   -10871   -11416   -11577 
  -11435   -11152   -11117   -11728   -12980   -14323   -15086   -15203 
  -15300   -15859   -16587   -16924   -16969   -17313   -18112   -18874 
  -19009   -18345   -17235   -16092   -15043   -14129   -13383   -12806 
  -12364   -11786   -10822    -9810    -9319    -9343    -9359    -8999 
   -8465    -8266    -8499    -8773    -8820    -8712    -8649    -8816 
   -9262    -9819   -10239   -10438   -10714   -11562   -13027   -14462 
  -15248   -15398   -15249   -15072   -14993   -14958   -14958   -15109 
  -15435   -15916   -16517   -16920   -16640   -15606   -14349   -13524 
  -13313   -13298   -13041   -12649   -12503   -12625   -12664   -12405 
  -12047   -12086   -12687   -13259   -13149   -12480   -11867   -11693 
  -11898   -12208   -12402   -12503   -12645   -12785   -12893   -13123 
  -13394   -13279   -12640   -11931   -11655   -11834   -12082   -12020 
  -11611   -11107   -10700   -10370   -10246   -10663   -11677   -12907 
  -13849   -14273   -14431   -14689   -15164   -15822   -16509   -17011 
  -17166   -16877   -16247   -15585   -15068   -14578   -14045   -13672 
  -13664   -13826   -13614   -12746   -11642   -11032   -11125   -11362 
  -11186   -10870   -11111   -11977   -12761   -12912   -12654   -12526 
  -12641   -12690   -12415   -11877   -11227   -10565   -10181   -10534 
  -11480   -12083   -11665   -10628    -9963   -10135   -10654   -10872 
  -10937   -11364   -12020   -12222   -11823   -11493   -11880   -12951 
  -14247   -15462   -16584   -17502   -17950   -17925   -17946   -18634 
  -19863   -20829   -20973   -20399   -19623   -19121   -18839   -18300 
  -17317   -16293   -15634   -15218   -14625   -13714   -12816   -12144 
  -11308   -10034    -8810    -8284    -8352    -8293    -7915    -7819 
   -8297    -8872    -9057    -9011    -9413   -10557   -11846   -12609 
  -12938   -13270   -13581   -13603   -13514   -13830   -14663   -15475 
  -15700   -15464   -15423   -15861   -16320   -16297   -15873   -15462 
  -15232   -15037   -14809   -14669   -14682   -14766   -14824   -14928 
  -15287   -15855   -16259   -16374   -16422   -16475   -16413   -16120 
  -15568   -14941   -14500   -14304   -14265   -14223   -13963   -13369 
  -12690   -12455   -12880   -13498   -13714   -13485   -13266   -13423 
  -13780   -13902   -13699   -13466   -13371   -13294   -13024   -12511 
  -11911   -11427   -11219   -11263   -11213   -10647    -9544    -8596 
   -8707    -9888   -11237   -12106   -12642   -13230   -13802   -13953 
  -13707   -13663   -14138   -14663   -14635   -14180   -13907   -14053 
  -14355   -14585   -14774   -14908   -14789   -14580   -14740   -15130 
  -15002   -14040   -12947   -12761   -13527   -14142   -13803   -12958 
  -12456   -12344   -12029   -11311   -10616   -10249    -9894    -9138 
   -8210    -7708    -7794    -8116    -8374    -8691    -9324   -10077 
  -10484   -10504   -10600   -11240   -12370   -13456   -14223   -15003 
  -16131   -17347   -18180   -18598   -18945   -19485   -20089   -20248 
  -19676   -18685   -17718   -16996   -16513   -15975   -15125   -14168 
  -13602   -13626   -13765   -13392   -12596   -12058   -12075   -12218 
  -12004   -11568   -11402   -11573   -11658   -11446   -11161   -11043 
  -11063   -11068   -11113   -11376   -11813   -12178   -12314   -12262 
  -12189   -12206   -12240   -12221   -12357   -12883   -13616   -14164 
  -14231   -13787   -13290   -13244   -13590   -14007   -14372   -14698 
  -15006   -15292   -15545   -15786   -16078   -16330   -16326   -15994 
  -15471   -14980   -14656   -14391   -13902   -12988   -11848   -10987 
  -10590   -10370   -10010    -9428    -8789    -8394    -8364    -8564 
   -8853    -9151    -9435    -9853   -10544   -11315   -11782   -11836 
  -11866   -12340   -13263   -14230   -14806   -14889   -14794   -14836 
  -14982   -15061   -15032   -14941   -14783   -14521   -14288   -14319 
  -14575   -14656   -14253   -13572   -13119   -13092   -13169   -13045 
  -12968   -13402   -14308   -15105   -15368   -15314   -15406   -15708 
  -15877   -15757   -15661   -15830   -15997   -15813   -15334   -14877 
  -14629   -14451   -14139   -13803   -13699   -13878   -14158   -14372 
  -14503   -14619   -14762   -14894   -14870   -14658   -14423   -14257 
  -14084   -13841   -13567   -13365   -13281   -13157   -12756   -12136 
  -11691   -11587   -11488   -11052   -10335    -9695    -9383    -9256 
   -9082    -8904    -8858    -8883    -8810    -8692    -8802    -9267 
   -9875   -10234   -10287   -10503   -11202   -12112   -12773   -13036 
  -13225   -13756   -14546   -15172   -15520   -15863   -16359   -16785 
  -16802   -16492   -16330   -16434   -16394   -15921   -15225   -14701 
  -14351   -13792   -12995   -12438   -12399   -12488   -12212   -11788 
  -11875   -12575   -13351   -13805   -14077   -14494   -15039   -15407 
  -15499   -15491   -15483   -15394   -15215   -15052   -14813   -14276 
  -13601   -13317   -13672   -14295   -14577   -14318   -13953   -13998 
  -14314   -14399   -14256   -14357   -14893   -15498   -15684   -15391 
  -14913   -14462   -14014   -13505   -12972   -12455   -11901   -11283 
  -10810   -10832   -11376   -12083   -12595   -12756   -12587   -12167 
  -11597   -11134   -11003   -11057   -10940   -10555   -10104    -9761 
   -9526    -9379    -9463    -9945   -10729   -11453   -11853   -12105 
  -12623   -13506   -14408   -15034   -15552   -16263   -17051   -17494 
  -17497   -17490   -17809   -18161   -18036   -17419   -16816   -16553 
  -16374   -15957   -15398   -14985   -14790   -14685   -14625   -14708 
  -14901   -15072   -15205   -15325   -15431   -15549   -15719   -15989 
  -16279   -16417   -16343   -16110   -15795   -15375   -14779   -14104 
  -13432   -12629   -11763   -11144   -10805   -10477    -9987    -9524 
   -9413    -9617    -9671    -9270    -8739    -8573    -8737    -8868 
   -8916    -9198    -9867   -10619   -11084   -11302   -11672   -12386 
  -13119   -13514   -13644   -13757   -13876   -13797   -13482   -13109 
  -12698   -12086   -11340   -10897   -11056   -11481   -11615   -11395 
  -11217   -11334   -11615   -11882   -12186   -12667   -13261   -13710 
  -13880   -13891   -13894   -13911   -13915   -13963   -14156   -14413 
  -14482   -14311   -14116   -14079   -14142   -14104   -13968   -13965 
  -14196   -14473   -14585   -14580   -14671   -14916   -15163   -15358 
  -15642   -16102   -16555   -16719   -16654   -16660   -16750   -16695 
  -16443   -16167   -15943   -15564   -14885   -14191   -13856   -13730 
  -13328   -12537   -11789   -11466   -11439   -11292   -10835   -10319 
  -10076   -10096   -10180   -10247   -10307   -10342   -10338   -10308 
  -10255   -10154   -10023    -9940    -9975   -10168   -10453   -10665 
  -10740   -10801   -11034   -11493   -12005   -12363   -12634   -13072 
  -13671   -14135   -14299   -14351   -14570   -14889   -14902   -14430 
  -13797   -13394   -13190   -12883   -12393   -11963   -11743   -11510 
  -11038   -10482   -10096    -9933    -9957   -10160   -10496   -10808 
  -10936   -10902   -10964   -11329   -11844   -12235   -12540   -12989 
  -13594   -14094   -14280   -14233   -14203   -14370   -14729   -15165 
  -15611   -16047   -16371   -16474   -16421   -16407   -16534   -16752 
  -16951   -17088   -17089   -16854   -16532   -16506   -16896   -17324 
  -17348   -17001   -16722   -16767   -16877   -16723   -16359   -16019 
  -15742   -15399   -14959   -14563   -14359   -14292   -14153   -13857 
