Origin Time       2025/01/13 21:19:00
Lat.              31.8
Long.             131.6
Depth. (km)       30
Mag.              6.9
Station Code      KOCH08
Station Lat.      32.7797
Station Long.     132.9718
Station Height(m) -95
Record Time       2025/01/13 21:20:03
Sampling Freq(Hz) 100Hz
Duration Time(s)  179
Dir.              2
Scale Factor      3923(gal)/8224838
Max. Acc. (gal)   1.639
Last Correction   2025/01/13 21:20:04
Memo.             
[...]
  -91409   -91505   -91643   -91720   -91636   -91436   -91268   -91206 
  -91115   -90877   -90574   -90185   -89642   -89106   -88704   -88461 
  -88450   -88603   -88753   -88859   -88920   -89019   -89280   -89515 
  -89496   -89367   -89263   -89071   -88805   -88622   -88632   -88915 
  -89367   -89700   -89791   -89719   -89563   -89375   -89168   -88932 
  -88796   -88905   -89143   -89311   -89421   -89552   -89691   -89853 
  -90099   -90292   -90193   -89854   -89534   -89356   -89436   -89864 
  -90439   -90896   -91192   -91293   -91180   -91022   -91003   -91103 
  -91214   -91316   -91431   -91478   -91427   -91386   -91374   -91327 
  -91258   -91106   -90826   -90593   -90455   -90263   -90019   -89780 
  -89500   -89251   -89100   -88993   -88960   -88983   -88815   -88381 
  -87972   -87795   -87789   -87808   -87758   -87686   -87712   -87826 
  -87903   -87930   -88061   -88314   -88479   -88510   -88589   -88726 
  -88789   -88881   -89224   -89781   -90275   -90532   -90622   -90717 
  -90832   -90846   -90796   -90873   -91029   -91023   -90792   -90490 
  -90250   -90103   -90089   -90227   -90355   -90373   -90383   -90369 
  -90228   -90009   -89696   -89282   -89063   -89181   -89338   -89384 
  -89480   -89662   -89845   -89958   -89942   -89823   -89687   -89546 
  -89440   -89457   -89581   -89760   -89974   -90193   -90387   -90562 
  -90648   -90548   -90348   -90297   -90456   -90632   -90645   -90510 
  -90390   -90371   -90369   -90356   -90450   -90639   -90738   -90675 
  -90603   -90636   -90745   -90890   -90968   -90900   -90775   -90637 
  -90379   -90032   -89756   -89587   -89518   -89577   -89757   -90042 
  -90394   -90764   -91122   -91381   -91528   -91679   -91840   -91935 
  -92045   -92211   -92240   -92072   -91929   -91868   -91696   -91374 
  -91042   -90752   -90540   -90463   -90460   -90474   -90586   -90774 
  -90861   -90840   -90782   -90594   -90263   -90023   -89945   -89920 
  -90011   -90213   -90281   -90166   -89999   -89795   -89637   -89559 
  -89392   -89233   -89357   -89660   -89939   -90212   -90377   -90313 
  -90104   -89765   -89290   -88827   -88434   -88071   -87777   -87593 
  -87554   -87656   -87790   -87871   -87983   -88207   -88472   -88685 
  -88740   -88496   -88051   -87654   -87467   -87582   -87866   -88042 
  -88034   -87957   -88024   -88414   -88977   -89338   -89413   -89387 
  -89371   -89484   -89850   -90356   -90792   -91037   -91034   -90880 
  -90776   -90761   -90734   -90629   -90454   -90358   -90468   -90563 
  -90324   -89861   -89526   -89460   -89521   -89480   -89257   -88985 
  -88759   -88515   -88267   -88210   -88435   -88763   -89016   -89203 
  -89359   -89507   -89729   -89970   -90158   -90439   -90852   -91211 
  -91481   -91648   -91539   -91234   -90995   -90806   -90563   -90320 
  -90134   -90077   -90219   -90462   -90652   -90721   -90647   -90458 
  -90217   -90019   -89908   -89784   -89571   -89391   -89353   -89403 
  -89467   -89513   -89509   -89487   -89538   -89696   -89843   -89799 
  -89576   -89368   -89282   -89330   -89527   -89799   -90069   -90324 
  -90437   -90333   -90173   -90093   -90109   -90197   -90278   -90391 
  -90648   -90938   -91096   -91160   -91145   -91026   -90896   -90807 
  -90674   -90526   -90516   -90671   -90836   -90867   -90794   -90683 
  -90512   -90337   -90269   -90251   -90262   -90443   -90717   -90795 
  -90656   -90431   -90101   -89702   -89352   -89145   -89120   -89070 
  -88753   -88312   -88010   -87883   -87870   -87949   -88215   -88780 
  -89471   -89954   -90150   -90235   -90369   -90535   -90606   -90521 
  -90336   -90092   -89822   -89617   -89507   -89446   -89392   -89349 
  -89330   -89262   -89132   -89077   -89105   -89098   -89063   -89075 
  -89168   -89321   -89403   -89344   -89259   -89202   -89156   -89191 
  -89325   -89475   -89586   -89635   -89622   -89538   -89320   -88970 
  -88626   -88356   -88149   -88069   -88125   -88211   -88345   -88578 
  -88838   -89043   -89202   -89316   -89374   -89452   -89664   -90005 
  -90327   -90567   -90883   -91264   -91408   -91293   -91228   -91285 
  -91377   -91517   -91679   -91858   -92092   -92304   -92431   -92464 
  -92288   -91893   -91435   -90919   -90329   -89891   -89757   -89856 
  -90043   -90209   -90369   -90485   -90386   -90116   -89903   -89816 
  -89800   -89776   -89750   -89847   -90034   -90139   -90184   -90208 
  -90062   -89703   -89297   -88921   -88588   -88383   -88372   -88580 
  -88986   -89392   -89613   -89711   -89792   -89803   -89673   -89487 
  -89467   -89669   -89874   -89995   -90163   -90319   -90261   -90057 
  -89901   -89793   -89683   -89638   -89739   -90005   -90358   -90612 
  -90644   -90455   -90153   -89961   -89970   -90067   -90251   -90589 
  -91007   -91427   -91790   -91987   -92021   -92017   -92024   -92065 
  -92151   -92124   -91822   -91347   -90894   -90463   -90011   -89660 
  -89480   -89356   -89220   -89094   -89009   -88989   -89040   -89145 
  -89259   -89347   -89426   -89467   -89387   -89287   -89372   -89635 
  -89846   -89856   -89725   -89561   -89436   -89442   -89625   -89891 
  -90116   -90204   -90139   -90022   -89903   -89765   -89680   -89675 
  -89617   -89525   -89586   -89777   -89916   -89996   -90140   -90315 
  -90386   -90367   -90323   -90254   -90192   -90151   -90100   -90034 
  -89957   -89891   -89884   -89912   -89891   -89819   -89792   -89811 
  -89907   -90239   -90707   -90965   -90998   -91023   -90998   -90751 
  -90302   -89857   -89552   -89351   -89206   -89154   -89166   -89105 
  -88967   -88962   -89179   -89405   -89445   -89352   -89221   -89108 
  -89071   -89046   -88909   -88744   -88696   -88836   -89260   -89866 
  -90405   -90895   -91335   -91494   -91386   -91192   -90873   -90508 
  -90379   -90485   -90664   -90926   -91227   -91515   -91859   -92190 
  -92346   -92349   -92223   -91920   -91562   -91339   -91212   -90990 
  -90564   -90015   -89537   -89266   -89226   -89364   -89602   -89873 
  -90067   -90142   -90205   -90275   -90243   -90131   -89992   -89787 
  -89514   -89179   -88765   -88373   -88148   -88078   -88094   -88130 
  -88036   -87743   -87432   -87220   -87122   -87278   -87724   -88190 
  -88465   -88688   -89009   -89256   -89299   -89330   -89464   -89594 
  -89689   -89839   -90051   -90289   -90563   -90872   -91157   -91314 
  -91328   -91346   -91473   -91646   -91778   -91828   -91798   -91747 
  -91698   -91571   -91315   -91002   -90748   -90583   -90468   -90374 
  -90312   -90297   -90274   -90196   -90012   -89694   -89422   -89359 
  -89349   -89318   -89441   -89698   -89920   -90099   -90251   -90346 
  -90436   -90560   -90661   -90686   -90678   -90655   -90545   -90336 
  -90121   -89988   -89989   -90136   -90323   -90454   -90536   -90626 
  -90752   -90861   -90849   -90656   -90339   -89965   -89550   -89122 
  -88709   -88333   -88053   -87893   -87754   -87589   -87502   -87527 
  -87583   -87662   -87795   -87967   -88180   -88456   -88769   -89109 
  -89418   -89552   -89523   -89575   -89777   -89908   -89881   -89823 
  -89756   -89699   -89781   -89953   -89981   -89877   -89764   -89565 
  -89351   -89340   -89421   -89399   -89329   -89241   -89121   -89078 
  -89094   -89051   -89010   -89059   -89178   -89379   -89598   -89692 
  -89742   -89919   -90182   -90348   -90381   -90427   -90562   -90725 
  -90940   -91312   -91818   -92237   -92437   -92518   -92527   -92408 
  -92211   -91943   -91471   -90837   -90302   -89981   -89799   -89750 
  -89807   -89880   -90012   -90250   -90462   -90555   -90524   -90385 
  -90204   -90036   -89827   -89591   -89434   -89328   -89210   -89151 
  -89176   -89255   -89363   -89459   -89563   -89754   -89964   -90015 
  -89858   -89637   -89546   -89638   -89816   -89973   -90086   -90224 
  -90389   -90478   -90429   -90275   -90093   -89962   -89885   -89861 
  -89950   -90109   -90198   -90197   -90153   -90043   -89915   -89849 
  -89735   -89449   -89108   -88825   -88568   -88350   -88261   -88271 
  -88276   -88213   -88057   -87879   -87855   -88038   -88331   -88713 
  -89197   -89673   -90059   -90397   -90649   -90718   -90687   -90710 
  -90776   -90848   -90938   -91057   -91257   -91552   -91862   -92176 
  -92497   -92680   -92664   -92541   -92330   -92076   -91937   -91882 
  -91759   -91558   -91319   -91034   -90697   -90290   -89865   -89559 
  -89407   -89316   -89239   -89210   -89251   -89322   -89307   -89136 
  -88959   -88950   -88997   -89013   -89143   -89391   -89586   -89691 
  -89789   -89955   -90198   -90354   -90258   -89997   -89696   -89392 
  -89198   -89141   -89095   -89060   -89118   -89228   -89397   -89645 
  -89824   -89850   -89795   -89689   -89584   -89579   -89654   -89761 
  -89950   -90182   -90360   -90602   -91007   -91416   -91760   -92078 
  -92273   -92283   -92195   -92037   -91763   -91444   -91145   -90786 
  -90354   -89900   -89406   -88927   -88584   -88400   -88371   -88442 
  -88479   -88469   -88534   -88680   -88816   -88919   -89008   -89114 
  -89307   -89600   -89893   -90109   -90315   -90591   -90872   -91014 
  -91011   -90964   -90910   -90880   -90923   -90981   -90957   -90896 
  -90880   -90895   -90945   -91054   -91176   -91245   -91266   -91300 
  -91351   -91346   -91254   -91135   -91038   -90937   -90768   -90574 
  -90427   -90236   -89866   -89378   -88908   -88507   -88219   -88067 
  -88011   -88069   -88221   -88396   -88704   -89224   -89735   -90005 
  -90007   -89864   -89775   -89826   -89970   -90201   -90505   -90751 
  -90830   -90819   -90787   -90703   -90559   -90302   -90004   -89838 
  -89754   -89745   -89862   -89910   -89822   -89648   -89291   -88827 
  -88438   -88171   -88095   -88271   -88585   -88933   -89333   -89748 
  -90116   -90435   -90717   -90981   -91201   -91320   -91326   -91254 
  -91193   -91233   -91369   -91521   -91594   -91559   -91462   -91347 
  -91262   -91239   -91233   -91191   -91120   -91053   -91035   -91089 
  -91169   -91188   -91068   -90826   -90614   -90517   -90452   -90319 
  -90084   -89753   -89360   -88973   -88612   -88275   -88017   -87856 
  -87698   -87527   -87413   -87355   -87293   -87228   -87222   -87292 
  -87440   -87690   -87990   -88263   -88543   -88861   -89108   -89216 
  -89317   -89542   -89831   -90119   -90433   -90701   -90768   -90641 
  -90429   -90186   -89989   -89926   -89991   -90139   -90302   -90394 
  -90447   -90516   -90533   -90468   -90390   -90290   -90143   -89996 
  -89818   -89527   -89213   -89017   -88921   -88832   -88697   -88569 
  -88585   -88757   -88974   -89182   -89328   -89347   -89279   -89179 
  -89087   -89102   -89206   -89282   -89328   -89379   -89406   -89436 
  -89515   -89634   -89754   -89800   -89734   -89664   -89648   -89623 
  -89627   -89733   -89869   -90008   -90229   -90509   -90703   -90714 
  -90571   -90429   -90401   -90447   -90528   -90629   -90699   -90721 
  -90749   -90810   -90887   -90976   -91089   -91223   -91339   -91420 
  -91508   -91615   -91717   -91818   -91914   -91948   -91862   -91675 
  -91424   -91114   -90836   -90640   -90432   -90185   -89980   -89843 
  -89769   -89749   -89739   -89733   -89802   -89959   -90085   -90096 
  -90066   -90057   -90013   -89939   -89912   -89947   -90034   -90182 
  -90401   -90722   -91104   -91430   -91712   -92002   -92238   -92384 
  -92460   -92466   -92408   -92321   -92254   -92219   -92157   -92072 
  -92010   -91891   -91673   -91484   -91393   -91361   -91347   -91335 
  -91350   -91374   -91369   -91369   -91369   -91284   -91145   -91007 
  -90811   -90586   -90423   -90265   -90067   -89926   -89873   -89851 
  -89800   -89679   -89542   -89475   -89437   -89333   -89171   -89031 
  -88944   -88875   -88736   -88528   -88357   -88284   -88342   -88542 
  -88785   -88979   -89117   -89210   -89280   -89360   -89436   -89459 
  -89452   -89421   -89317   -89163   -89036   -88919   -88763   -88568 
  -88349   -88200   -88204   -88304   -88399   -88500   -88677   -88886 
  -89005   -89041   -89089   -89129   -89116   -89071   -88996   -88896 
  -88834   -88836   -88875   -88931   -89010   -89143   -89341   -89522 
  -89614   -89652   -89668   -89688   -89779   -89931   -90081   -90263 
  -90539   -90860   -91168   -91458   -91736   -91980   -92184   -92361 
  -92516   -92632   -92658   -92562   -92411   -92287   -92165   -91970 
  -91687   -91381   -91111   -90856   -90540   -90157   -89793   -89527 
  -89301   -89004   -88673   -88399   -88132   -87833   -87610   -87481 
  -87350   -87234   -87150   -87008   -86818   -86684   -86625   -86587 
  -86580   -86644   -86756   -86890   -87088   -87370   -87696   -88067 
  -88518   -89033   -89559   -90042   -90464   -90784   -90948   -90979 
  -90919   -90796   -90720   -90774   -90891   -91033   -91266   -91579 
  -91847   -91999   -92051   -92038   -92021   -92043   -92051   -91959 
  -91804   -91705   -91654   -91579   -91490   -91397   -91300   -91230 
  -91184   -91152   -91153   -91183   -91218   -91245   -91292   -91397 
  -91507   -91535   -91523   -91540   -91571   -91625   -91790   -92071 
  -92375   -92635   -92794   -92800   -92681   -92519   -92369   -92250 
  -92160   -92061   -91941   -91876   -91876   -91824   -91728   -91698 
  -91681   -91594   -91504   -91444   -91366   -91226   -91060   -90923 
  -90801   -90636   -90417   -90178   -89995   -89910   -89826   -89649 
  -89448   -89270   -89028   -88724   -88465   -88233   -87953   -87683 
  -87486   -87335   -87183   -86975   -86729   -86576   -86544   -86551 
  -86606   -86714   -86805   -86881   -86980   -87108   -87254   -87342 
  -87378   -87447   -87536   -87608   -87690   -87782   -87879   -88017 
  -88176   -88315   -88434   -88543   -88641   -88746   -88892   -89081 
  -89299   -89563   -89856   -90146   -90493   -90930   -91362   -91744 
  -92099   -92398   -92618   -92799   -92939   -93051   -93175   -93282 
  -93324   -93305   -93216   -93036   -92767   -92454   -92203   -92045 
  -91918   -91785   -91609   -91384   -91139   -90857   -90520   -90155 
  -89769   -89364   -88987   -88647   -88315   -88030   -87843   -87718 
  -87621   -87574   -87597   -87652   -87710   -87798   -87936   -88126 
  -88342   -88531   -88743   -89071   -89453   -89757   -89973   -90150 
  -90294   -90410   -90520   -90643   -90778   -90909   -91042   -91214 
  -91420   -91619   -91794   -91944   -92025   -92034   -92028   -91997 
  -91874   -91666   -91428   -91181   -90941   -90745   -90620   -90570 
  -90579   -90618   -90651   -90651   -90633   -90634   -90675   -90734 
  -90738   -90675   -90603   -90537   -90444   -90333   -90228   -90104 
  -89969   -89868   -89784   -89699   -89630   -89546   -89425   -89326 
  -89263   -89178   -89091   -89056   -89060   -89112   -89225   -89355 
  -89440   -89499   -89572   -89618   -89615   -89617   -89630   -89604 
  -89544   -89498   -89475   -89465   -89472   -89445   -89372   -89347 
  -89384   -89418   -89471   -89572   -89650   -89698   -89776   -89878 
  -89991   -90144   -90293   -90370   -90405   -90418   -90373   -90271 
  -90144   -90013   -89926   -89876   -89823   -89808   -89851   -89895 
  -89939   -90022   -90119   -90225   -90346   -90456   -90559   -90634 
  -90659   -90691   -90755   -90786   -90780   -90786   -90783   -90742 
  -90667   -90599   -90616   -90729   -90836   -90838   -90776   -90738 
  -90728   -90674   -90536   -90306   -90016   -89716   -89444   -89202 
  -89005   -88835   -88632   -88406   -88227   -88133   -88133   -88230 
  -88391   -88574   -88765   -88947   -89083   -89152   -89170   -89152 
  -89093   -89016   -88959   -88913   -88867   -88866   -88931   -89032 
  -89156   -89301   -89456   -89665   -89976   -90360   -90764   -91135 
  -91426   -91632   -91775   -91822   -91778   -91708   -91647   -91619 
  -91631   -91611   -91546   -91494   -91457   -91419   -91382   -91293 
  -91146   -91007   -90877   -90725   -90564   -90382   -90169   -89955 
  -89733   -89476   -89209   -88950   -88712   -88523   -88383   -88287 
  -88260   -88267   -88245   -88210   -88191   -88206   -88294   -88456 
  -88620   -88750   -88850   -88932   -88997   -89041   -89079   -89121 
  -89132   -89102   -89079   -89073   -89046   -88994   -88921   -88847 
  -88800   -88766   -88755   -88781   -88793   -88792   -88852   -88987 
  -89156   -89316   -89438   -89537   -89604   -89623   -89649   -89730 
  -89823   -89915   -90036   -90174   -90331   -90540   -90783   -91037 
  -91299   -91520   -91640   -91665   -91647   -91636   -91655   -91665 
  -91643   -91620   -91602   -91561   -91512   -91504   -91546   -91597 
  -91613   -91575   -91492   -91397   -91335   -91324   -91332   -91323 
  -91297   -91261   -91220   -91193   -91191   -91235   -91327   -91430 
  -91534   -91648   -91748   -91800   -91798   -91759   -91708   -91663 
  -91601   -91515   -91419   -91291   -91123   -90937   -90747   -90570 
  -90414   -90255   -90082   -89947   -89860   -89777   -89699   -89646 
  -89595   -89541   -89507   -89457   -89353   -89244   -89175   -89129 
  -89066   -88986   -88925   -88892   -88850   -88778   -88697   -88609 
  -88512   -88411   -88287   -88109   -87902   -87724   -87558   -87394 
  -87309   -87340   -87451   -87608   -87791   -87984   -88203   -88462 
  -88713   -88902   -89037   -89186   -89395   -89642   -89896   -90139 
  -90336   -90485   -90622   -90749   -90807   -90775   -90710   -90675 
  -90672   -90684   -90730   -90855   -91008   -91096   -91150   -91231 
  -91284   -91264   -91223   -91181   -91083   -90922   -90763   -90645 
  -90549   -90459   -90398   -90367   -90320   -90242   -90163   -90094 
  -90046   -90013   -89945   -89820   -89689   -89580   -89482   -89414 
  -89397   -89383   -89332   -89264   -89205   -89154   -89108   -89070 
  -89052   -89059   -89085   -89151   -89279   -89441   -89610   -89775 
  -89946   -90148   -90387   -90652   -90919   -91180   -91442   -91694 
  -91924   -92115   -92236   -92290   -92319   -92319   -92268   -92192 
  -92118   -92038   -91947   -91835   -91692   -91504   -91264   -91002 
  -90748   -90504   -90296   -90158   -90063   -89966   -89856   -89719 
  -89548   -89374   -89245   -89171   -89128   -89078   -88994   -88894 
  -88796   -88692   -88582   -88487   -88416   -88362   -88302   -88209 
  -88094   -87983   -87891   -87829   -87772   -87705   -87662   -87690 
  -87790   -87924   -88065   -88215   -88400   -88650   -88944   -89236 
  -89506   -89731   -89888   -90001   -90100   -90194   -90317   -90478 
  -90624   -90740   -90859   -90988   -91104   -91188   -91224   -91206 
  -91154   -91106   -91061   -90992   -90890   -90753   -90612   -90510 
  -90428   -90313   -90184   -90100   -90088   -90099   -90076   -90034 
  -90003   -89968   -89920   -89878   -89856   -89865   -89911   -89968 
  -90011   -90065   -90146   -90216   -90254   -90304   -90390   -90483 
  -90560   -90630   -90684   -90686   -90602   -90435   -90239   -90070 
  -89931   -89818   -89729   -89631   -89526   -89453   -89410   -89371 
  -89365   -89430   -89523   -89592   -89631   -89631   -89590   -89537 
  -89494   -89467   -89465   -89482   -89507   -89554   -89610   -89634 
  -89600   -89517   -89407   -89275   -89100   -88889   -88695   -88533 
  -88383   -88241   -88130   -88059   -88020   -87999   -87997   -88034 
  -88107   -88186   -88291   -88447   -88618   -88780   -88932   -89041 
