Origin Time       2025/01/13 21:19:00
Lat.              31.8
Long.             131.6
Depth. (km)       30
Mag.              6.9
Station Code      KOCH08
Station Lat.      32.7797
Station Long.     132.9718
Station Height(m) -95
Record Time       2025/01/13 21:20:03
Sampling Freq(Hz) 100Hz
Duration Time(s)  179
Dir.              3
Scale Factor      3923(gal)/8224838
Max. Acc. (gal)   1.483
Last Correction   2025/01/13 21:20:04
Memo.             
[...]
   -2604    -2709    -2782    -2871    -3001    -3164    -3250    -3229 
   -3260    -3360    -3370    -3277    -3109    -2859    -2666    -2656 
   -2806    -3013    -3159    -3210    -3235    -3285    -3372    -3504 
   -3604    -3559    -3400    -3222    -3078    -2992    -2945    -2906 
   -2878    -2849    -2810    -2755    -2655    -2556    -2528    -2461 
   -2228    -1931    -1738    -1672    -1669    -1680    -1719    -1790 
   -1822    -1837    -1926    -2120    -2409    -2666    -2747    -2700 
   -2683    -2814    -3056    -3280    -3454    -3592    -3649    -3611 
   -3496    -3238    -2875    -2602    -2438    -2253    -2030    -1814 
   -1692    -1703    -1737    -1750    -1844    -2026    -2166    -2199 
   -2195    -2289    -2509    -2643    -2523    -2313    -2223    -2282 
   -2416    -2427    -2224    -1993    -1919    -2012    -2182    -2320 
   -2396    -2435    -2459    -2548    -2745    -2978    -3125    -3087 
   -2963    -2948    -2982    -2943    -2917    -2941    -2932    -2853 
   -2731    -2636    -2647    -2662    -2528    -2276    -2064    -2029 
   -2161    -2292    -2281    -2184    -2176    -2323    -2482    -2525 
   -2547    -2693    -2921    -3087    -3114    -3063    -3028    -3041 
   -3109    -3206    -3331    -3458    -3396    -3059    -2609    -2173 
   -1815    -1606    -1471    -1243     -945     -735     -747    -1039 
   -1424    -1613    -1593    -1591    -1750    -1985    -2157    -2255 
   -2295    -2307    -2353    -2371    -2331    -2385    -2578    -2754 
   -2887    -3036    -3132    -3222    -3457    -3805    -4137    -4341 
   -4340    -4228    -4132    -4010    -3893    -3923    -3982    -3848 
   -3658    -3631    -3661    -3609    -3508    -3365    -3136    -2859 
   -2631    -2463    -2297    -2161    -2123    -2157    -2219    -2340 
   -2497    -2600    -2632    -2598    -2485    -2378    -2403    -2551 
   -2700    -2741    -2659    -2516    -2448    -2565    -2748    -2790 
   -2674    -2528    -2473    -2532    -2614    -2654    -2704    -2781 
   -2821    -2871    -2988    -3113    -3214    -3302    -3280    -3111 
   -2913    -2739    -2616    -2650    -2770    -2790    -2758    -2762 
   -2840    -3005    -3065    -2893    -2681    -2577    -2550    -2566 
   -2567    -2490    -2371    -2350    -2455    -2528    -2504    -2493 
   -2543    -2609    -2648    -2664    -2708    -2728    -2629    -2484 
   -2494    -2714    -2997    -3217    -3353    -3411    -3451    -3531 
   -3609    -3636    -3546    -3281    -2930    -2637    -2416    -2201 
   -2006    -1858    -1748    -1740    -1860    -1981    -2080    -2269 
   -2488    -2601    -2562    -2384    -2231    -2215    -2209    -2135 
   -2020    -1885    -1750    -1644    -1674    -1854    -2008    -2114 
   -2307    -2565    -2840    -3144    -3368    -3396    -3358    -3483 
   -3743    -3913    -3959    -3978    -3932    -3762    -3523    -3349 
   -3368    -3495    -3585    -3708    -3896    -3994    -3929    -3820 
   -3792    -3773    -3623    -3383    -3199    -3022    -2762    -2587 
   -2558    -2466    -2322    -2290    -2380    -2511    -2550    -2478 
   -2493    -2613    -2697    -2717    -2670    -2567    -2452    -2304 
   -2085    -1804    -1530    -1333    -1223    -1224    -1324    -1417 
   -1449    -1393    -1209    -1011     -926     -905     -888     -897 
    -969    -1066    -1107    -1094    -1142    -1294    -1451    -1502 
   -1464    -1413    -1398    -1433    -1576    -1876    -2227    -2554 
   -2893    -3194    -3473    -3850    -4241    -4558    -4887    -5161 
   -5247    -5252    -5296    -5319    -5267    -5111    -4827    -4576 
   -4483    -4369    -4077    -3662    -3180    -2735    -2459    -2282 
   -2120    -2000    -1852    -1674    -1607    -1672    -1802    -1898 
   -1850    -1723    -1618    -1516    -1460    -1476    -1416    -1264 
   -1210    -1270    -1375    -1561    -1749    -1819    -1858    -1972 
   -2070    -2074    -2111    -2250    -2327    -2288    -2265    -2242 
   -2114    -1903    -1659    -1425    -1205     -934     -670     -587 
    -684     -810     -927    -1108    -1431    -1942    -2498    -2887 
   -3094    -3133    -2999    -2791    -2650    -2671    -2839    -3011 
   -3125    -3234    -3303    -3238    -3176    -3311    -3572    -3797 
   -3955    -4064    -4118    -4159    -4190    -4120    -3920    -3647 
   -3372    -3159    -2970    -2760    -2593    -2504    -2436    -2346 
   -2255    -2204    -2247    -2461    -2866    -3315    -3627    -3821 
   -4041    -4307    -4518    -4629    -4653    -4615    -4561    -4533 
   -4521    -4517    -4548    -4581    -4606    -4702    -4869    -4997 
   -5013    -4891    -4565    -4093    -3709    -3469    -3140    -2720 
   -2407    -2257    -2277    -2361    -2344    -2297    -2296    -2277 
   -2258    -2238    -2157    -2046    -1949    -1923    -2053    -2245 
   -2308    -2218    -2120    -2165    -2342    -2524    -2621    -2637 
   -2654    -2720    -2770    -2700    -2523    -2365    -2297    -2323 
   -2417    -2477    -2461    -2396    -2236    -2045    -1992    -2056 
   -2064    -1949    -1741    -1528    -1424    -1381    -1259    -1129 
   -1086    -1071    -1161    -1432    -1664    -1680    -1541    -1381 
   -1371    -1578    -1861    -2092    -2246    -2350    -2469    -2708 
   -3015    -3188    -3237    -3311    -3375    -3384    -3457    -3624 
   -3723    -3615    -3387    -3261    -3323    -3478    -3642    -3719 
   -3639    -3454    -3229    -3026    -2883    -2664    -2296    -1966 
   -1783    -1603    -1341    -1092     -974    -1048    -1259    -1448 
   -1502    -1472    -1490    -1570    -1614    -1583    -1485    -1362 
   -1348    -1509    -1706    -1795    -1827    -1922    -2053    -2192 
   -2400    -2637    -2812    -2930    -3057    -3213    -3289    -3217 
   -3122    -3134    -3168    -3086    -2943    -2833    -2700    -2521 
   -2324    -2057    -1772    -1603    -1498    -1425    -1549    -1888 
   -2304    -2713    -2986    -3063    -3082    -3110    -3125    -3161 
   -3202    -3163    -3082    -3102    -3275    -3488    -3608    -3559 
   -3361    -3148    -3042    -3034    -3053    -3079    -3142    -3257 
   -3295    -3146    -2972    -2909    -2894    -2944    -3082    -3165 
   -3079    -2941    -2893    -2867    -2772    -2660    -2574    -2515 
   -2461    -2400    -2376    -2465    -2701    -2925    -2945    -2809 
   -2651    -2474    -2220    -1864    -1447    -1061     -730     -460 
    -294     -222     -229     -367     -599     -823    -1032    -1232 
   -1382    -1466    -1530    -1667    -1877    -2039    -2092    -2112 
   -2180    -2246    -2195    -2104    -2155    -2278    -2290    -2236 
   -2247    -2365    -2620    -2918    -3032    -2968    -2937    -2952 
   -2903    -2818    -2763    -2791    -2974    -3257    -3501    -3632 
   -3634    -3535    -3402    -3257    -3021    -2600    -2096    -1733 
   -1563    -1530    -1652    -1894    -2147    -2373    -2560    -2729 
   -2968    -3285    -3559    -3711    -3793    -3890    -3975    -3952 
   -3844    -3761    -3758    -3802    -3877    -3948    -3917    -3780 
   -3647    -3562    -3510    -3456    -3372    -3325    -3322    -3245 
   -3041    -2779    -2556    -2408    -2303    -2239    -2187    -2099 
   -1989    -1895    -1895    -2010    -2145    -2257    -2376    -2540 
   -2768    -2952    -2987    -2926    -2825    -2639    -2452    -2386 
   -2320    -2168    -2046    -2030    -2045    -1972    -1833    -1792 
   -1815    -1819    -1926    -2158    -2457    -2863    -3337    -3759 
   -4104    -4398    -4600    -4637    -4560    -4414    -4112    -3728 
   -3493    -3422    -3353    -3225    -3065    -2944    -2929    -2952 
   -2941    -3025    -3237    -3384    -3362    -3240    -3103    -2995 
   -2891    -2752    -2616    -2604    -2758    -2965    -3084    -3100 
   -3115    -3163    -3164    -3113    -3086    -3088    -3083    -3082 
   -3051    -2913    -2717    -2606    -2624    -2640    -2578    -2519 
   -2500    -2481    -2459    -2447    -2457    -2493    -2508    -2401 
   -2143    -1848    -1656    -1575    -1498    -1356    -1201    -1120 
   -1102    -1100    -1170    -1356    -1557    -1698    -1768    -1780 
   -1818    -2000    -2309    -2620    -2874    -3075    -3229    -3362 
   -3484    -3547    -3547    -3561    -3651    -3736    -3744    -3721 
   -3650    -3516    -3346    -3111    -2814    -2493    -2192    -1991 
   -1873    -1746    -1614    -1544    -1564    -1690    -1919    -2164 
   -2316    -2382    -2470    -2663    -2921    -3132    -3280    -3384 
   -3399    -3337    -3230    -3086    -2988    -3037    -3225    -3461 
   -3596    -3550    -3370    -3208    -3219    -3303    -3284    -3242 
   -3225    -3078    -2794    -2504    -2230    -1952    -1675    -1432 
   -1252    -1084     -886     -750     -765     -919    -1075    -1120 
   -1147    -1250    -1368    -1416    -1324    -1098     -855     -710 
    -669     -614     -446     -225      -60      -28     -162     -376 
    -506     -584     -803    -1124    -1394    -1656    -1993    -2385 
   -2774    -3130    -3481    -3811    -3982    -3906    -3703    -3565 
   -3558    -3661    -3859    -4064    -4229    -4436    -4699    -4976 
   -5240    -5437    -5549    -5634    -5692    -5671    -5559    -5356 
   -5073    -4781    -4573    -4465    -4348    -4114    -3828    -3596 
   -3387    -3107    -2743    -2354    -1995    -1703    -1460    -1127 
    -691     -398     -349     -398     -413     -364     -303     -349 
    -599     -980    -1278    -1412    -1476    -1551    -1674    -1858 
   -2033    -2093    -2002    -1807    -1668    -1695    -1853    -2100 
   -2370    -2560    -2714    -2926    -3207    -3522    -3811    -4070 
   -4317    -4488    -4564    -4603    -4634    -4637    -4580    -4421 
   -4209    -4055    -3927    -3757    -3555    -3319    -3133    -3069 
   -3009    -2876    -2771    -2743    -2721    -2647    -2593    -2624 
   -2655    -2650    -2658    -2621    -2532    -2471    -2394    -2253 
   -2112    -2002    -1868    -1706    -1560    -1416    -1298    -1267 
   -1236    -1086     -855     -670     -648     -781     -935    -1000 
   -1007    -1102    -1409    -1844    -2235    -2579    -2949    -3326 
   -3647    -3886    -4048    -4140    -4131    -4097    -4187    -4401 
   -4630    -4783    -4793    -4716    -4680    -4726    -4800    -4787 
   -4600    -4295    -3969    -3649    -3341    -2979    -2527    -2111 
   -1825    -1668    -1692    -1887    -2084    -2165    -2215    -2289 
   -2335    -2336    -2230    -1938    -1611    -1405    -1262    -1156 
   -1170    -1275    -1374    -1447    -1479    -1470    -1518    -1722 
   -2004    -2238    -2409    -2565    -2687    -2770    -2848    -2916 
   -2967    -3083    -3240    -3319    -3353    -3456    -3649    -3900 
   -4156    -4388    -4639    -4922    -5169    -5329    -5412    -5414 
   -5305    -5031    -4600    -4112    -3624    -3132    -2670    -2270 
   -1956    -1802    -1818    -1881    -1917    -1971    -2120    -2335 
   -2488    -2578    -2712    -2883    -3005    -3025    -2983    -2947 
   -2933    -2944    -2943    -2857    -2659    -2397    -2162    -1975 
   -1794    -1611    -1387    -1077     -720     -387     -139        4 
      83      113       64       -9      -97     -297     -616     -931 
   -1151    -1250    -1205    -1071     -976     -973    -1043    -1186 
   -1418    -1698    -1952    -2177    -2412    -2664    -2895    -3045 
   -3137    -3223    -3294    -3365    -3393    -3265    -2998    -2681 
   -2415    -2251    -2079    -1854    -1692    -1598    -1532    -1528 
   -1539    -1513    -1553    -1690    -1804    -1902    -2074    -2312 
   -2578    -2839    -3060    -3300    -3561    -3746    -3939    -4236 
   -4452    -4492    -4514    -4554    -4571    -4588    -4592    -4560 
   -4515    -4359    -3975    -3473    -2992    -2570    -2188    -1775 
   -1348    -1026     -850     -810     -822     -818     -864     -974 
   -1112    -1335    -1656    -1996    -2320    -2614    -2862    -3056 
   -3179    -3235    -3202    -3017    -2718    -2427    -2204    -2023 
   -1902    -1900    -1983    -2033    -2050    -2110    -2214    -2317 
   -2431    -2560    -2675    -2743    -2783    -2928    -3262    -3649 
   -3951    -4191    -4383    -4487    -4519    -4468    -4267    -3948 
   -3650    -3399    -3132    -2849    -2583    -2308    -2018    -1759 
   -1548    -1394    -1308    -1233    -1161    -1144    -1200    -1289 
   -1399    -1572    -1788    -1908    -1829    -1629    -1466    -1368 
   -1251    -1113    -1077    -1192    -1393    -1636    -1907    -2146 
   -2331    -2548    -2724    -2787    -2893    -3048    -3163    -3322 
   -3524    -3720    -3967    -4230    -4399    -4467    -4541    -4650 
   -4729    -4797    -4912    -4978    -4897    -4750    -4585    -4342 
   -4010    -3591    -3096    -2650    -2324    -2018    -1652    -1313 
   -1092     -990     -978    -1027    -1151    -1341    -1530    -1682 
   -1794    -1883    -2003    -2170    -2312    -2428    -2555    -2629 
   -2593    -2504    -2450    -2459    -2450    -2346    -2181    -1996 
   -1818    -1642    -1424    -1206    -1070     -996     -947     -907 
    -878     -862     -861     -943    -1119    -1320    -1530    -1723 
   -1821    -1799    -1721    -1660    -1618    -1605    -1679    -1871 
   -2176    -2547    -2887    -3191    -3543    -3910    -4230    -4563 
   -4911    -5201    -5452    -5655    -5732    -5713    -5710    -5740 
   -5749    -5671    -5456    -5161    -4882    -4634    -4406    -4234 
   -4140    -4120    -4168    -4240    -4321    -4464    -4633    -4722 
   -4730    -4691    -4625    -4548    -4430    -4247    -4008    -3716 
   -3408    -3186    -3098    -3073    -3078    -3148    -3227    -3260 
   -3319    -3449    -3584    -3655    -3624    -3500    -3349    -3196 
   -3037    -2868    -2706    -2597    -2571    -2579    -2581    -2563 
   -2496    -2355    -2173    -2002    -1869    -1721    -1509    -1310 
   -1188    -1071     -919     -758     -608     -477     -390     -371 
    -421     -452     -396     -341     -405     -548     -724     -913 
   -1057    -1186    -1343    -1455    -1487    -1462    -1428    -1462 
   -1555    -1648    -1725    -1760    -1746    -1726    -1728    -1723 
   -1656    -1540    -1439    -1385    -1372    -1383    -1375    -1313 
   -1192    -1063     -977     -936     -931     -939     -934     -955 
   -1074    -1242    -1390    -1517    -1618    -1740    -1921    -2110 
   -2263    -2374    -2444    -2486    -2538    -2641    -2764    -2820 
   -2822    -2808    -2745    -2636    -2505    -2351    -2219    -2173 
   -2195    -2226    -2253    -2274    -2322    -2452    -2646    -2812 
   -2971    -3175    -3412    -3659    -3854    -3955    -4016    -4079 
   -4143    -4179    -4176    -4155    -4124    -4086    -4002    -3843 
   -3699    -3632    -3607    -3603    -3597    -3542    -3431    -3300 
   -3183    -3109    -3114    -3202    -3308    -3393    -3468    -3557 
   -3647    -3720    -3827    -3977    -4074    -4066    -3981    -3877 
   -3815    -3770    -3661    -3470    -3218    -2936    -2681    -2485 
   -2346    -2220    -2070    -1921    -1804    -1722    -1655    -1597 
   -1555    -1514    -1453    -1385    -1327    -1293    -1297    -1309 
   -1317    -1316    -1308    -1348    -1483    -1671    -1871    -2079 
   -2312    -2600    -2906    -3191    -3478    -3798    -4113    -4371 
   -4587    -4765    -4853    -4865    -4870    -4835    -4727    -4607 
   -4527    -4482    -4460    -4461    -4455    -4402    -4321    -4249 
   -4179    -4089    -3963    -3819    -3699    -3642    -3634    -3634 
   -3653    -3693    -3726    -3751    -3788    -3811    -3801    -3792 
   -3805    -3813    -3782    -3697    -3584    -3489    -3402    -3284 
   -3164    -3083    -3053    -3063    -3055    -2970    -2817    -2631 
   -2415    -2184    -1954    -1738    -1548    -1421    -1406    -1489 
   -1587    -1667    -1753    -1880    -2030    -2160    -2263    -2351 
   -2389    -2384    -2369    -2347    -2289    -2200    -2133    -2065 
   -1960    -1856    -1784    -1745    -1742    -1780    -1885    -2045 
   -2223    -2409    -2594    -2760    -2889    -2956    -2987    -2998 
   -2963    -2910    -2860    -2770    -2624    -2461    -2328    -2204 
   -2027    -1836    -1717    -1656    -1624    -1655    -1767    -1969 
   -2247    -2542    -2785    -2975    -3183    -3447    -3700    -3867 
   -3983    -4114    -4259    -4391    -4522    -4648    -4722    -4739 
   -4727    -4707    -4679    -4618    -4502    -4338    -4126    -3894 
   -3713    -3554    -3348    -3157    -3051    -3011    -3001    -2978 
   -2933    -2902    -2882    -2845    -2793    -2762    -2795    -2893 
   -3032    -3199    -3366    -3497    -3604    -3678    -3674    -3599 
   -3499    -3364    -3192    -3037    -2920    -2820    -2681    -2466 
   -2230    -2037    -1858    -1682    -1518    -1358    -1219    -1136 
   -1093    -1057    -1039    -1062    -1086    -1098    -1108    -1097 
   -1115    -1174    -1220    -1270    -1366    -1475    -1574    -1695 
   -1899    -2177    -2450    -2677    -2857    -3005    -3157    -3319 
   -3434    -3481    -3500    -3510    -3495    -3458    -3392    -3272 
   -3130    -3029    -3002    -3044    -3118    -3198    -3253    -3257 
   -3231    -3194    -3107    -2961    -2818    -2709    -2585    -2424 
   -2286    -2236    -2258    -2300    -2366    -2451    -2515    -2562 
   -2614    -2663    -2701    -2718    -2724    -2763    -2839    -2894 
   -2914    -2922    -2932    -2965    -3022    -3067    -3103    -3156 
   -3233    -3321    -3433    -3585    -3753    -3908    -4048    -4175 
   -4306    -4433    -4503    -4514    -4499    -4437    -4293    -4087 
   -3894    -3763    -3658    -3547    -3442    -3345    -3254    -3141 
   -2964    -2754    -2558    -2370    -2191    -2007    -1803    -1630 
   -1475    -1269    -1043     -854     -691     -573     -510     -421 
    -295     -207     -153     -110      -93     -129     -244     -406 
    -556     -658     -719     -812     -997    -1198    -1321    -1374 
   -1404    -1456    -1528    -1572    -1618    -1702    -1799    -1912 
   -2034    -2128    -2226    -2351    -2493    -2648    -2801    -2947 
   -3115    -3280    -3408    -3524    -3639    -3716    -3761    -3802 
   -3834    -3835    -3816    -3788    -3738    -3655    -3524    -3356 
   -3184    -3005    -2809    -2636    -2501    -2386    -2277    -2199 
   -2182    -2228    -2324    -2458    -2594    -2744    -2937    -3121 
   -3237    -3331    -3474    -3623    -3716    -3793    -3862    -3874 
   -3828    -3746    -3631    -3505    -3370    -3202    -2997    -2767 
   -2535    -2323    -2093    -1817    -1570    -1425    -1324    -1216 
   -1127    -1057    -1008     -996    -1024    -1093    -1185    -1281 
   -1395    -1522    -1629    -1711    -1795    -1899    -1996    -2049 
   -2074    -2115    -2170    -2214    -2226    -2224    -2223    -2216 
   -2200    -2178    -2162    -2155    -2158    -2150    -2149    -2187 
   -2245    -2295    -2351    -2428    -2508    -2583    -2681    -2806 
   -2941    -3102    -3302    -3468    -3543    -3577    -3618    -3654 
   -3655    -3622    -3582    -3531    -3476    -3434    -3373    -3280 
   -3177    -3041    -2864    -2687    -2520    -2361    -2226    -2106 
