Origin Time       2025/01/13 21:19:00
Lat.              31.8
Long.             131.6
Depth. (km)       30
Mag.              6.9
Station Code      KOCH03
Station Lat.      33.2683
Station Long.     132.9891
Station Height(m) 170
Record Time       2025/01/13 21:20:10
Sampling Freq(Hz) 100Hz
Duration Time(s)  152
Dir.              1
Scale Factor      2942(gal)/8224139
Max. Acc. (gal)   1.674
Last Correction   2025/01/13 21:20:10
Memo.             
[...]
  -76644   -76623   -76626   -76643   -76684   -76713   -76651   -76449 
  -76149   -75853   -75610   -75470   -75451   -75450   -75388   -75257 
  -75087   -74956   -74875   -74835   -74879   -74972   -75069   -75162 
  -75240   -75273   -75246   -75188   -75131   -75134   -75139   -75010 
  -74839   -74792   -74888   -75109   -75373   -75594   -75763   -75863 
  -75903   -75928   -75915   -75864   -75822   -75793   -75762   -75740 
  -75675   -75527   -75367   -75271   -75224   -75181   -75136   -75168 
  -75298   -75431   -75471   -75389   -75193   -74925   -74629   -74351 
  -74101   -73907   -73836   -73907   -74061   -74200   -74274   -74360 
  -74540   -74808   -75070   -75284   -75516   -75803   -76125   -76459 
  -76716   -76809   -76761   -76662   -76563   -76418   -76192   -75928 
  -75736   -75714   -75833   -76013   -76183   -76311   -76393   -76383 
  -76268   -76098   -75884   -75631   -75375   -75163   -75039   -75011 
  -75020   -74980   -74872   -74760   -74663   -74583   -74556   -74590 
  -74641   -74676   -74688   -74706   -74742   -74783   -74835   -74884 
  -74900   -74933   -75049   -75274   -75540   -75741   -75863   -75964 
  -76054   -76079   -75994   -75865   -75794   -75818   -75955   -76227 
  -76532   -76682   -76667   -76554   -76349   -76130   -75952   -75775 
  -75590   -75411   -75262   -75131   -75019   -74952   -74885   -74817 
  -74787   -74725   -74603   -74510   -74514   -74606   -74722   -74811 
  -74837   -74798   -74737   -74683   -74675   -74750   -74910   -75120 
  -75325   -75493   -75627   -75729   -75794   -75852   -75978   -76084 
  -76026   -75840   -75656   -75598   -75682   -75786   -75843   -75852 
  -75834   -75852   -75944   -76067   -76134   -76108   -76032   -75894 
  -75683   -75459   -75259   -75089   -74985   -75023   -75254   -75552 
  -75732   -75782   -75776   -75693   -75551   -75467   -75446   -75378 
  -75236   -75076   -74943   -74902   -74997   -75219   -75513   -75768 
  -75938   -76080   -76191   -76245   -76245   -76242   -76330   -76496 
  -76642   -76723   -76729   -76632   -76424   -76227   -76127   -76065 
  -76009   -75965   -75944   -75972   -76027   -76091   -76183   -76258 
  -76269   -76202   -76076   -75913   -75691   -75419   -75100   -74788 
  -74625   -74591   -74540   -74418   -74245   -74170   -74341   -74642 
  -74857   -74864   -74688   -74503   -74372   -74251   -74187   -74193 
  -74178   -74090   -73948   -73838   -73850   -73959   -74082   -74194 
  -74301   -74412   -74511   -74561   -74576   -74614   -74653   -74650 
  -74626   -74625   -74646   -74661   -74699   -74822   -75035   -75348 
  -75710   -75983   -76164   -76335   -76470   -76543   -76594   -76627 
  -76624   -76604   -76570   -76515   -76539   -76739   -76998   -77191 
  -77294   -77288   -77268   -77322   -77367   -77336   -77249   -77121 
  -76971   -76843   -76802   -76844   -76909   -76999   -77102   -77172 
  -77230   -77261   -77229   -77188   -77160   -77082   -76978   -76941 
  -76985   -77049   -77080   -77035   -76918   -76819   -76740   -76574 
  -76360   -76258   -76268   -76318   -76399   -76470   -76503   -76536 
  -76600   -76701   -76850   -77021   -77121   -77097   -76978   -76801 
  -76657   -76543   -76364   -76153   -75979   -75790   -75568   -75343 
  -75136   -75027   -75069   -75193   -75298   -75348   -75308   -75169 
  -74973   -74718   -74394   -74059   -73811   -73707   -73716   -73784 
  -73884   -74017   -74271   -74710   -75234   -75645   -75766   -75622 
  -75427   -75311   -75305   -75429   -75644   -75856   -76005   -76107 
  -76250   -76501   -76808   -77078   -77247   -77228   -77035   -76817 
  -76675   -76639   -76682   -76723   -76693   -76559   -76349   -76148 
  -75986   -75871   -75826   -75805   -75780   -75780   -75793   -75801 
  -75795   -75762   -75681   -75498   -75238   -74956   -74645   -74379 
  -74295   -74402   -74622   -74871   -75065   -75147   -75128   -75077 
  -75070   -75159   -75335   -75582   -75857   -76059   -76222   -76450 
  -76658   -76773   -76840   -76864   -76821   -76678   -76465   -76238 
  -76010   -75840   -75737   -75682   -75713   -75793   -75874   -75941 
  -76040   -76250   -76434   -76376   -76092   -75691   -75317   -75087 
  -75003   -75046   -75157   -75259   -75367   -75496   -75594   -75606 
  -75548   -75478   -75442   -75466   -75563   -75744   -75957   -76038 
  -75940   -75771   -75562   -75309   -75091   -74962   -74906   -74893 
  -74929   -75034   -75182   -75278   -75249   -75057   -74736   -74385 
  -74092   -73967   -74081   -74374   -74710   -74949   -75050   -75035 
  -74865   -74569   -74279   -74056   -73911   -73805   -73707   -73649 
  -73641   -73732   -73993   -74348   -74659   -74857   -74939   -74954 
  -74976   -75055   -75134   -75116   -74999   -74858   -74788   -74819 
  -74941   -75168   -75446   -75682   -75844   -75910   -75845   -75612 
  -75292   -75073   -74942   -74821   -74731   -74645   -74567   -74561 
  -74596   -74599   -74513   -74370   -74259   -74220   -74297   -74490 
  -74668   -74731   -74729   -74772   -74848   -74885   -74903   -74906 
  -74858   -74838   -74962   -75227   -75505   -75671   -75710   -75667 
  -75552   -75431   -75397   -75451   -75523   -75601   -75759   -76009 
  -76243   -76385   -76447   -76508   -76658   -76874   -77064   -77202 
  -77355   -77535   -77701   -77884   -78061   -78120   -78062   -77976 
  -77907   -77841   -77757   -77656   -77523   -77346   -77159   -76983 
  -76802   -76576   -76291   -76033   -75837   -75644   -75438   -75208 
  -74987   -74876   -74919   -75057   -75184   -75232   -75238   -75238 
  -75238   -75286   -75405   -75577   -75832   -76110   -76285   -76311 
  -76176   -75922   -75644   -75443   -75357   -75269   -75116   -75012 
  -74956   -74848   -74711   -74569   -74393   -74159   -73935   -73858 
  -73912   -74013   -74179   -74348   -74414   -74406   -74383   -74418 
  -74501   -74497   -74379   -74232   -74135   -74185   -74374   -74610 
  -74883   -75195   -75505   -75770   -75969   -76130   -76304   -76534 
  -76771   -76891   -76863   -76727   -76540   -76419   -76414   -76470 
  -76515   -76528   -76561   -76627   -76709   -76801   -76863   -76848 
  -76761   -76605   -76368   -76153   -76036   -75894   -75689   -75497 
  -75375   -75374   -75433   -75446   -75411   -75351   -75334   -75402 
  -75501   -75562   -75539   -75462   -75415   -75439   -75540   -75641 
  -75716   -75825   -75971   -76121   -76231   -76253   -76215   -76198 
  -76250   -76334   -76377   -76370   -76295   -76141   -75992   -75914 
  -75929   -76029   -76164   -76308   -76418   -76476   -76518   -76566 
  -76640   -76732   -76802   -76866   -76906   -76877   -76828   -76802 
  -76736   -76555   -76277   -76041   -75984   -76084   -76188   -76167 
  -75979   -75651   -75219   -74725   -74266   -73940   -73750   -73653 
  -73665   -73823   -74092   -74349   -74501   -74551   -74553   -74545 
  -74571   -74644   -74721   -74808   -74947   -75097   -75286   -75583 
  -75895   -76067   -76042   -75883   -75722   -75621   -75583   -75632 
  -75747   -75887   -76005   -76094   -76129   -76021   -75811   -75639 
  -75532   -75501   -75581   -75766   -75995   -76225   -76439   -76582 
  -76567   -76373   -76072   -75744   -75429   -75185   -75069   -75105 
  -75262   -75458   -75617   -75712   -75772   -75825   -75832   -75793 
  -75772   -75798   -75887   -76087   -76399   -76750   -77085   -77396 
  -77589   -77538   -77318   -77079   -76860   -76627   -76347   -76072 
  -75886   -75802   -75786   -75799   -75860   -75910   -75868   -75837 
  -75882   -75915   -75899   -75879   -75848   -75744   -75579   -75384 
  -75143   -74926   -74792   -74745   -74821   -74988   -75128   -75215 
  -75289   -75331   -75351   -75420   -75494   -75523   -75550   -75571 
  -75578   -75587   -75555   -75490   -75462   -75490   -75601   -75782 
  -75965   -76123   -76268   -76427   -76607   -76755   -76863   -76978 
  -77056   -77031   -76962   -76923   -76945   -77070   -77310   -77612 
  -77907   -78173   -78405   -78583   -78727   -78858   -78942   -78915 
  -78707   -78366   -78034   -77765   -77533   -77294   -77033   -76794 
  -76616   -76546   -76589   -76681   -76767   -76796   -76770   -76708 
  -76518   -76149   -75676   -75181   -74763   -74478   -74270   -74096 
  -73975   -73899   -73858   -73857   -73804   -73651   -73467   -73309 
  -73217   -73183   -73161   -73144   -73130   -73161   -73291   -73499 
  -73688   -73766   -73754   -73697   -73604   -73538   -73549   -73557 
  -73522   -73521   -73569   -73587   -73529   -73399   -73218   -73036 
  -72895   -72827   -72854   -72944   -73052   -73214   -73452   -73704 
  -73940   -74187   -74391   -74499   -74551   -74544   -74456   -74379 
  -74389   -74430   -74499   -74660   -74871   -75012   -75066   -75066 
  -74989   -74853   -74736   -74655   -74594   -74530   -74467   -74460 
  -74537   -74688   -74914   -75168   -75366   -75494   -75589   -75675 
  -75809   -75984   -76115   -76168   -76189   -76256   -76400   -76616 
  -76912   -77253   -77606   -77946   -78268   -78638   -79050   -79396 
  -79616   -79671   -79537   -79231   -78760   -78212   -77683   -77176 
  -76681   -76212   -75802   -75474   -75231   -75057   -74904   -74737 
  -74534   -74295   -74088   -73958   -73862   -73789   -73757   -73696 
  -73545   -73287   -72963   -72704   -72613   -72646   -72724   -72839 
  -72967   -73089   -73207   -73284   -73290   -73245   -73137   -72975 
  -72850   -72829   -72916   -73059   -73240   -73472   -73731   -74031 
  -74380   -74725   -75116   -75594   -76057   -76437   -76688   -76829 
  -76998   -77267   -77564   -77816   -78027   -78196   -78270   -78231 
  -78100   -77915   -77719   -77500   -77263   -77022   -76744   -76462 
  -76241   -76096   -76013   -75942   -75864   -75775   -75668   -75551 
  -75455   -75433   -75459   -75465   -75446   -75431   -75474   -75648 
  -75930   -76207   -76434   -76657   -76897   -77128   -77345   -77581 
  -77834   -78047   -78181   -78255   -78313   -78343   -78286   -78098 
  -77774   -77363   -76939   -76574   -76307   -76141   -76088   -76103 
  -76054   -75878   -75625   -75325   -74960   -74540   -74113   -73724 
  -73410   -73201   -73056   -72898   -72709   -72543   -72436   -72381 
  -72387   -72458   -72546   -72627   -72689   -72690   -72658   -72643 
  -72613   -72573   -72593   -72701   -72882   -73047   -73171   -73384 
  -73720   -74069   -74363   -74584   -74734   -74871   -75043   -75232 
  -75419   -75590   -75739   -75898   -76092   -76315   -76482   -76499 
  -76397   -76257   -76119   -76041   -76021   -76022   -76057   -76072 
  -75975   -75763   -75505   -75259   -75020   -74756   -74459   -74140 
  -73815   -73503   -73252   -73106   -73055   -73105   -73255   -73433 
  -73564   -73612   -73576   -73514   -73507   -73553   -73619   -73718 
  -73823   -73934   -74086   -74245   -74409   -74617   -74825   -74973 
  -75097   -75259   -75446   -75593   -75682   -75755   -75844   -75964 
  -76158   -76414   -76617   -76747   -76874   -77018   -77153   -77241 
  -77309   -77419   -77568   -77718   -77818   -77846   -77870   -77924 
  -77963   -77955   -77920   -77890   -77877   -77899   -77950   -77982 
  -77997   -77993   -77973   -77990   -78012   -77986   -77947   -77911 
  -77892   -77920   -77969   -77996   -78008   -78031   -78046   -77998 
  -77873   -77708   -77538   -77375   -77284   -77278   -77267   -77221 
  -77164   -77072   -76923   -76713   -76482   -76273   -76075   -75890 
  -75735   -75594   -75466   -75357   -75308   -75370   -75505   -75643 
  -75744   -75814   -75914   -76046   -76172   -76287   -76353   -76329 
  -76218   -76060   -75898   -75739   -75606   -75533   -75494   -75482 
  -75519   -75567   -75554   -75482   -75390   -75254   -75060   -74849 
  -74669   -74542   -74457   -74349   -74185   -74000   -73812   -73622 
  -73460   -73330   -73244   -73229   -73265   -73345   -73507   -73693 
  -73854   -74056   -74329   -74661   -75057   -75458   -75803   -76092 
  -76331   -76492   -76562   -76611   -76711   -76862   -77029   -77183 
  -77302   -77375   -77396   -77406   -77426   -77426   -77368   -77256 
  -77066   -76775   -76441   -76092   -75741   -75458   -75265   -75141 
  -75111   -75157   -75196   -75184   -75169   -75174   -75151   -75085 
  -75041   -75077   -75184   -75339   -75568   -75861   -76161   -76442 
  -76684   -76881   -77045   -77198   -77386   -77626   -77889   -78200 
  -78583   -78983   -79326   -79582   -79783   -79953   -80061   -80077 
  -79998   -79834   -79585   -79234   -78815   -78399   -78008   -77635 
  -77272   -76937   -76684   -76488   -76270   -76022   -75756   -75490 
  -75257   -75034   -74772   -74478   -74175   -73909   -73719   -73585 
  -73495   -73454   -73419   -73350   -73280   -73225   -73143   -73030 
  -72933   -72887   -72901   -72968   -73071   -73167   -73241   -73307 
  -73346   -73311   -73172   -72966   -72801   -72719   -72671   -72670 
  -72739   -72850   -72978   -73133   -73310   -73475   -73650   -73882 
  -74167   -74525   -74960   -75428   -75884   -76287   -76647   -76956 
  -77194   -77403   -77585   -77724   -77816   -77827   -77808   -77800 
  -77784   -77780   -77805   -77872   -77990   -78098   -78160   -78221 
  -78298   -78344   -78336   -78304   -78264   -78237   -78252   -78268 
  -78220   -78111   -77970   -77811   -77614   -77361   -77059   -76729 
  -76393   -76048   -75691   -75327   -74945   -74549   -74173   -73818 
  -73484   -73187   -72897   -72558   -72171   -71786   -71460   -71199 
  -71005   -70907   -70912   -71016   -71227   -71533   -71880   -72193 
  -72446   -72677   -72909   -73114   -73309   -73533   -73749   -73915 
  -74048   -74185   -74360   -74545   -74679   -74773   -74884   -75023 
  -75166   -75286   -75325   -75250   -75089   -74881   -74657   -74468 
  -74358   -74293   -74214   -74166   -74212   -74343   -74529   -74725 
  -74910   -75100   -75266   -75384   -75471   -75529   -75600   -75725 
  -75861   -75978   -76087   -76168   -76206   -76192   -76134   -76067 
  -76036   -76061   -76117   -76150   -76173   -76215   -76272   -76350 
  -76450   -76553   -76654   -76756   -76833   -76893   -76977   -77064 
  -77117   -77134   -77106   -77018   -76883   -76721   -76555   -76385 
  -76237   -76145   -76090   -76037   -75991   -75957   -75952   -75971 
  -75963   -75886   -75770   -75687   -75668   -75675   -75713   -75851 
  -76092   -76376   -76667   -76937   -77143   -77286   -77388   -77438 
  -77419   -77340   -77255   -77203   -77182   -77197   -77263   -77349 
  -77431   -77502   -77548   -77591   -77631   -77630   -77569   -77469 
  -77336   -77140   -76910   -76677   -76438   -76242   -76104   -75998 
  -75901   -75783   -75658   -75554   -75454   -75336   -75189   -75042 
  -74941   -74860   -74784   -74726   -74652   -74559   -74480   -74420 
  -74348   -74245   -74137   -74039   -73944   -73870   -73827   -73791 
  -73723   -73611   -73468   -73325   -73195   -73068   -72940   -72821 
  -72758   -72777   -72823   -72883   -73021   -73201   -73336   -73429 
  -73504   -73565   -73633   -73745   -73921   -74127   -74310   -74432 
  -74506   -74574   -74619   -74634   -74640   -74668   -74745   -74834 
  -74873   -74838   -74775   -74749   -74763   -74815   -74900   -74961 
  -75007   -75085   -75207   -75377   -75564   -75726   -75847   -75894 
  -75868   -75802   -75739   -75699   -75678   -75713   -75829   -75971 
  -76113   -76257   -76362   -76391   -76339   -76215   -76011   -75747 
  -75446   -75128   -74825   -74569   -74383   -74255   -74164   -74081 
  -73990   -73921   -73892   -73884   -73930   -74031   -74148   -74295 
  -74486   -74710   -74958   -75201   -75419   -75618   -75829   -76059 
  -76303   -76576   -76881   -77186   -77484   -77795   -78127   -78456 
  -78756   -79033   -79269   -79416   -79470   -79462   -79428   -79385 
  -79321   -79218   -79047   -78817   -78588   -78393   -78219   -78048 
  -77869   -77672   -77454   -77232   -77002   -76765   -76513   -76218 
  -75903   -75635   -75419   -75242   -75104   -75042   -75053   -75061 
  -75050   -75042   -75024   -75004   -75010   -75033   -75060   -75074 
  -75058   -75020   -74988   -74952   -74899   -74850   -74811   -74803 
  -74821   -74817   -74794   -74787   -74814   -74902   -75008   -75081 
  -75128   -75155   -75203   -75320   -75444   -75500   -75500   -75486 
  -75474   -75474   -75506   -75560   -75600   -75640   -75699   -75752 
  -75784   -75795   -75763   -75679   -75573   -75460   -75339   -75207 
  -75066   -74942   -74860   -74817   -74814   -74856   -74947   -75066 
  -75154   -75193   -75217   -75263   -75316   -75365   -75431   -75512 
  -75589   -75671   -75760   -75829   -75861   -75865   -75864   -75867 
  -75864   -75832   -75756   -75637   -75496   -75366   -75246   -75109 
  -74966   -74831   -74687   -74521   -74355   -74220   -74127   -74052 
  -73980   -73921   -73878   -73846   -73826   -73793   -73723   -73630 
  -73545   -73472   -73392   -73318   -73272   -73249   -73276   -73352 
  -73431   -73527   -73633   -73708   -73791   -73917   -74043   -74166 
  -74331   -74506   -74671   -74858   -75076   -75282   -75448   -75587 
  -75736   -75903   -76060   -76173   -76235   -76268   -76293   -76346 
  -76446   -76554   -76632   -76690   -76738   -76765   -76766   -76744 
  -76704   -76642   -76572   -76492   -76376   -76230   -76076   -75941 
  -75845   -75780   -75728   -75693   -75666   -75633   -75609   -75627 
  -75703   -75832   -75990   -76165   -76330   -76439   -76495   -76530 
  -76567   -76615   -76653   -76675   -76689   -76688   -76658   -76600 
  -76546   -76536   -76555   -76572   -76581   -76577   -76551   -76523 
  -76501   -76465   -76418   -76383   -76362   -76383   -76435   -76478 
  -76513   -76558   -76620   -76692   -76750   -76789   -76815   -76815 
  -76797   -76786   -76796   -76832   -76881   -76931   -76987   -77055 
  -77113   -77132   -77102   -77045   -76970   -76875   -76783   -76713 
  -76628   -76508   -76356   -76181   -76022   -75886   -75736   -75582 
  -75431   -75266   -75116   -74988   -74871   -74769   -74667   -74576 
  -74525   -74491   -74474   -74487   -74521   -74555   -74592   -74667 
  -74800   -74973   -75172   -75408   -75667   -75924   -76192   -76450 
  -76663   -76855   -77051   -77236   -77402   -77573   -77743   -77880 
  -77974   -78030   -78028   -77954   -77814   -77638   -77450   -77242 
  -76994   -76709   -76396   -76071   -75752   -75429   -75105   -74787 
  -74437   -74050   -73669   -73326   -73025   -72754   -72512   -72312 
  -72154   -72041   -71968   -71915   -71919   -72002   -72129   -72274 
  -72430   -72607   -72831   -73102   -73408   -73730   -74055   -74359 
  -74618   -74856   -75076   -75261   -75425   -75570   -75698   -75795 
  -75851   -75895   -75934   -75948   -75948   -75937   -75925   -75919 
  -75902   -75852   -75768   -75667   -75566   -75485   -75451   -75460 
  -75498   -75551   -75597   -75627   -75640   -75639   -75612   -75558 
  -75460   -75309   -75139   -74991   -74875   -74791   -74736   -74715 
  -74717   -74698   -74664   -74629   -74572   -74493   -74403   -74325 
  -74254   -74183   -74139   -74119   -74112   -74142   -74208   -74297 
  -74407   -74521   -74629   -74752   -74900   -75085   -75304   -75529 
  -75737   -75937   -76129   -76302   -76477   -76677   -76878   -77058 
  -77188   -77252   -77245   -77198   -77145   -77067   -76941   -76786 
