Origin Time       2025/01/13 21:19:00
Lat.              31.8
Long.             131.6
Depth. (km)       30
Mag.              6.9
Station Code      KOCH07
Station Lat.      33.3920
Station Long.     133.2866
Station Height(m) -99
Record Time       2025/01/13 21:20:17
Sampling Freq(Hz) 100Hz
Duration Time(s)  148
Dir.              1
Scale Factor      3923(gal)/8224838
Max. Acc. (gal)   1.130
Last Correction   2025/01/13 21:20:17
Memo.             
[...]
  -57580   -57570   -57543   -57469   -57357   -57264   -57233   -57246 
  -57268   -57281   -57281   -57250   -57196   -57134   -57069   -57017 
  -56967   -56928   -56926   -56933   -56916   -56902   -56907   -56910 
  -56905   -56911   -56928   -56910   -56857   -56817   -56785   -56736 
  -56683   -56647   -56627   -56620   -56637   -56655   -56635   -56610 
  -56658   -56785   -56929   -57048   -57146   -57238   -57314   -57360 
  -57402   -57451   -57474   -57478   -57495   -57519   -57565   -57643 
  -57738   -57827   -57904   -57929   -57862   -57757   -57700   -57677 
  -57645   -57630   -57653   -57676   -57672   -57650   -57604   -57522 
  -57420   -57307   -57199   -57146   -57163   -57225   -57284   -57298 
  -57281   -57287   -57334   -57403   -57447   -57456   -57466   -57495 
  -57539   -57582   -57605   -57628   -57674   -57740   -57820   -57888 
  -57915   -57898   -57839   -57757   -57692   -57670   -57700   -57777 
  -57879   -57977   -58048   -58090   -58095   -58059   -57994   -57928 
  -57921   -57996   -58090   -58129   -58093   -57998   -57912   -57877 
  -57878   -57865   -57820   -57794   -57811   -57843   -57878   -57885 
  -57840   -57804   -57805   -57805   -57801   -57804   -57802   -57809 
  -57816   -57796   -57771   -57766   -57758   -57730   -57690   -57646 
  -57592   -57515   -57397   -57272   -57206   -57208   -57238   -57289 
  -57353   -57380   -57348   -57275   -57198   -57150   -57132   -57134 
  -57154   -57177   -57203   -57225   -57208   -57145   -57080   -57036 
  -56988   -56934   -56890   -56883   -56924   -56980   -57046   -57152 
  -57279   -57385   -57465   -57530   -57596   -57672   -57751   -57835 
  -57917   -57987   -58028   -58004   -57896   -57755   -57615   -57473 
  -57345   -57250   -57186   -57137   -57107   -57102   -57095   -57057 
  -56994   -56909   -56793   -56668   -56571   -56484   -56374   -56273 
  -56216   -56211   -56247   -56307   -56346   -56328   -56259   -56169 
  -56087   -56038   -56034   -56080   -56170   -56288   -56424   -56559 
  -56633   -56605   -56519   -56451   -56430   -56427   -56384   -56309 
  -56277   -56266   -56222   -56193   -56204   -56182   -56101   -56008 
  -55949   -55934   -55946   -55962   -55984   -56012   -56031   -56050 
  -56065   -56041   -55984   -55923   -55842   -55742   -55678   -55665 
  -55688   -55744   -55802   -55822   -55798   -55769   -55779   -55826 
  -55885   -55984   -56150   -56349   -56542   -56705   -56803   -56828 
  -56839   -56890   -56970   -57046   -57132   -57234   -57315   -57379 
  -57473   -57569   -57612   -57623   -57646   -57654   -57605   -57508 
  -57383   -57235   -57082   -56956   -56863   -56797   -56759   -56736 
  -56698   -56643   -56597   -56577   -56597   -56685   -56821   -56965 
  -57117   -57273   -57418   -57573   -57742   -57866   -57893   -57834 
  -57757   -57721   -57738   -57802   -57896   -57986   -58081   -58195 
  -58299   -58352   -58334   -58260   -58174   -58137   -58176   -58245 
  -58275   -58256   -58220   -58175   -58089   -57943   -57788   -57684 
  -57623   -57577   -57512   -57407   -57298   -57226   -57169   -57117 
  -57069   -57009   -56952   -56948   -57017   -57130   -57265   -57416 
  -57562   -57692   -57813   -57940   -58062   -58156   -58241   -58340 
  -58425   -58472   -58487   -58438   -58325   -58197   -58074   -57966 
  -57909   -57901   -57879   -57821   -57746   -57631   -57470   -57300 
  -57153   -57026   -56921   -56853   -56835   -56845   -56848   -56852 
  -56876   -56916   -56948   -56960   -56949   -56933   -56940   -56978 
  -57040   -57107   -57163   -57206   -57238   -57242   -57210   -57163 
  -57129   -57115   -57110   -57080   -57025   -56982   -56948   -56883 
  -56776   -56647   -56498   -56363   -56281   -56250   -56272   -56353 
  -56474   -56590   -56673   -56698   -56652   -56551   -56457   -56408 
  -56392   -56386   -56398   -56438   -56475   -56469   -56420   -56359 
  -56312   -56309   -56342   -56377   -56380   -56338   -56288   -56272 
  -56295   -56330   -56351   -56366   -56388   -56388   -56357   -56332 
  -56331   -56316   -56270   -56212   -56191   -56230   -56313   -56417 
  -56538   -56662   -56778   -56894   -57009   -57109   -57191   -57262 
  -57307   -57304   -57279   -57264   -57245   -57204   -57148   -57086 
  -57021   -56956   -56893   -56833   -56789   -56768   -56751   -56732 
  -56732   -56736   -56712   -56656   -56609   -56592   -56587   -56590 
  -56598   -56610   -56646   -56708   -56771   -56836   -56925   -57042 
  -57163   -57265   -57352   -57403   -57395   -57345   -57294   -57262 
  -57248   -57231   -57213   -57203   -57203   -57191   -57144   -57063 
  -56990   -56956   -56960   -56999   -57060   -57127   -57207   -57292 
  -57335   -57311   -57248   -57181   -57137   -57137   -57160   -57160 
  -57127   -57096   -57068   -57026   -56975   -56897   -56760   -56587 
  -56434   -56336   -56300   -56300   -56317   -56359   -56448   -56569 
  -56668   -56737   -56808   -56899   -57018   -57157   -57300   -57437 
  -57558   -57659   -57738   -57790   -57819   -57820   -57798   -57763 
  -57713   -57650   -57589   -57532   -57488   -57460   -57437   -57426 
  -57445   -57472   -57477   -57460   -57427   -57369   -57279   -57183 
  -57088   -56975   -56843   -56705   -56565   -56419   -56258   -56088 
  -55925   -55794   -55706   -55675   -55728   -55846   -55977   -56099 
  -56235   -56386   -56531   -56681   -56841   -56992   -57149   -57325 
  -57488   -57613   -57726   -57817   -57867   -57896   -57933   -57974 
  -58032   -58113   -58162   -58140   -58078   -57997   -57898   -57788 
  -57647   -57476   -57311   -57164   -57019   -56878   -56760   -56670 
  -56593   -56538   -56519   -56539   -56594   -56687   -56812   -56955 
  -57106   -57250   -57372   -57477   -57570   -57634   -57661   -57676 
  -57708   -57767   -57848   -57935   -58005   -58071   -58121   -58132 
  -58108   -58058   -57981   -57883   -57766   -57627   -57480   -57333 
  -57190   -57060   -56964   -56907   -56864   -56829   -56814   -56805 
  -56789   -56782   -56791   -56782   -56732   -56670   -56635   -56635 
  -56650   -56651   -56628   -56590   -56560   -56558   -56554   -56515 
  -56444   -56355   -56250   -56149   -56050   -55948   -55856   -55777 
  -55690   -55595   -55514   -55456   -55406   -55359   -55325   -55304 
  -55305   -55358   -55463   -55613   -55784   -55949   -56097   -56242 
  -56390   -56550   -56712   -56875   -57052   -57231   -57407   -57592 
  -57763   -57898   -58020   -58139   -58234   -58326   -58440   -58540 
  -58592   -58604   -58592   -58575   -58568   -58558   -58523   -58460 
  -58386   -58305   -58209   -58094   -57964   -57820   -57657   -57472 
  -57275   -57099   -56957   -56848   -56770   -56702   -56631   -56552 
  -56459   -56369   -56308   -56273   -56250   -56242   -56254   -56289 
  -56347   -56438   -56551   -56655   -56763   -56864   -56924   -56940 
  -56917   -56862   -56798   -56728   -56639   -56551   -56486   -56450 
  -56444   -56462   -56488   -56515   -56540   -56560   -56583   -56625 
  -56705   -56826   -56956   -57053   -57118   -57172   -57211   -57237 
  -57273   -57315   -57333   -57333   -57316   -57268   -57190   -57103 
  -57019   -56938   -56848   -56752   -56677   -56628   -56597   -56571 
  -56533   -56482   -56439   -56408   -56397   -56425   -56493   -56579 
  -56678   -56776   -56840   -56857   -56852   -56847   -56866   -56936 
  -57048   -57161   -57269   -57372   -57465   -57562   -57673   -57789 
  -57904   -58012   -58083   -58099   -58067   -58016   -57964   -57904 
  -57850   -57813   -57758   -57655   -57514   -57341   -57152   -56959 
  -56774   -56624   -56533   -56511   -56528   -56565   -56640   -56737 
  -56825   -56901   -56976   -57060   -57153   -57233   -57279   -57318 
  -57389   -57496   -57616   -57732   -57811   -57829   -57817   -57798 
  -57755   -57694   -57634   -57577   -57523   -57472   -57423   -57369 
  -57308   -57250   -57190   -57123   -57069   -57034   -56997   -56936 
  -56855   -56762   -56664   -56593   -56567   -56577   -56627   -56727 
  -56833   -56932   -57033   -57130   -57207   -57264   -57307   -57350 
  -57403   -57468   -57542   -57615   -57684   -57731   -57734   -57699 
  -57654   -57635   -57649   -57676   -57715   -57774   -57820   -57827 
  -57804   -57774   -57770   -57801   -57859   -57954   -58083   -58210 
  -58307   -58372   -58405   -58391   -58328   -58252   -58190   -58129 
  -58060   -57983   -57893   -57801   -57713   -57620   -57532   -57465 
  -57404   -57334   -57262   -57186   -57109   -57049   -57013   -56994 
  -56991   -56987   -56983   -56995   -57018   -57045   -57078   -57098 
  -57114   -57160   -57235   -57312   -57385   -57457   -57499   -57503 
  -57487   -57447   -57385   -57322   -57258   -57187   -57105   -57011 
  -56911   -56812   -56704   -56586   -56467   -56355   -56266   -56226 
  -56226   -56231   -56222   -56207   -56187   -56153   -56119   -56097 
  -56096   -56124   -56165   -56209   -56266   -56335   -56394   -56443 
  -56504   -56575   -56637   -56685   -56722   -56756   -56785   -56810 
  -56839   -56871   -56917   -56967   -56988   -56976   -56941   -56883 
  -56805   -56731   -56667   -56612   -56566   -56527   -56492   -56451 
  -56396   -56338   -56286   -56235   -56189   -56162   -56145   -56112 
  -56072   -56049   -56061   -56091   -56099   -56072   -56033   -55996 
  -55962   -55934   -55931   -55968   -56031   -56114   -56211   -56320 
  -56438   -56555   -56659   -56760   -56878   -57014   -57168   -57339 
  -57510   -57673   -57842   -58008   -58167   -58328   -58484   -58629 
  -58768   -58900   -59013   -59096   -59162   -59208   -59216   -59219 
  -59239   -59262   -59289   -59314   -59308   -59270   -59202   -59093 
  -58938   -58750   -58552   -58360   -58187   -58031   -57875   -57700 
  -57504   -57307   -57111   -56909   -56712   -56520   -56320   -56127 
  -55956   -55809   -55678   -55552   -55444   -55368   -55332   -55329 
  -55348   -55385   -55437   -55501   -55567   -55634   -55715   -55823 
  -55944   -56050   -56151   -56265   -56378   -56469   -56525   -56552 
  -56556   -56562   -56600   -56686   -56805   -56936   -57063   -57186 
  -57284   -57341   -57362   -57375   -57380   -57377   -57383   -57399 
  -57419   -57442   -57457   -57437   -57381   -57318   -57249   -57186 
  -57148   -57114   -57064   -57015   -56970   -56922   -56889   -56860 
  -56825   -56790   -56759   -56727   -56678   -56617   -56555   -56498 
  -56443   -56380   -56316   -56269   -56251   -56255   -56259   -56274 
  -56316   -56380   -56455   -56538   -56605   -56640   -56652   -56648 
  -56629   -56609   -56594   -56569   -56525   -56485   -56451   -56416 
  -56392   -56357   -56297   -56234   -56173   -56089   -55984   -55876 
  -55772   -55692   -55645   -55620   -55610   -55614   -55629   -55663 
  -55713   -55757   -55788   -55825   -55887   -55983   -56104   -56250 
  -56416   -56587   -56755   -56909   -57052   -57194   -57323   -57449 
  -57584   -57731   -57882   -58027   -58158   -58278   -58390   -58491 
  -58573   -58626   -58654   -58671   -58669   -58637   -58583   -58521 
  -58449   -58361   -58266   -58164   -58048   -57920   -57797   -57689 
  -57607   -57557   -57518   -57478   -57456   -57466   -57491   -57507 
  -57520   -57522   -57503   -57483   -57476   -57483   -57480   -57446 
  -57384   -57300   -57203   -57106   -57009   -56905   -56799   -56704 
  -56616   -56533   -56462   -56396   -56327   -56258   -56204   -56184 
  -56196   -56222   -56250   -56270   -56280   -56299   -56336   -56385 
  -56446   -56516   -56592   -56668   -56737   -56795   -56844   -56875 
  -56897   -56941   -57009   -57082   -57160   -57246   -57325   -57392 
  -57464   -57541   -57615   -57674   -57716   -57757   -57813   -57896 
  -57991   -58082   -58152   -58207   -58263   -58321   -58372   -58398 
  -58403   -58391   -58360   -58314   -58251   -58167   -58087   -58036 
  -58013   -58006   -58004   -57986   -57947   -57890   -57827   -57767 
  -57721   -57682   -57628   -57573   -57520   -57460   -57402   -57350 
  -57292   -57223   -57142   -57051   -56960   -56866   -56760   -56650 
  -56536   -56411   -56273   -56139   -56029   -55946   -55879   -55803 
  -55719   -55648   -55601   -55584   -55586   -55572   -55526   -55470 
  -55426   -55417   -55449   -55507   -55572   -55640   -55711   -55790 
  -55883   -55985   -56073   -56134   -56178   -56224   -56284   -56357 
  -56440   -56543   -56660   -56774   -56884   -57009   -57140   -57269 
  -57410   -57558   -57690   -57812   -57951   -58101   -58248   -58395 
  -58538   -58666   -58783   -58876   -58934   -58970   -58996   -59008 
  -59011   -58996   -58966   -58936   -58889   -58804   -58698   -58580 
  -58440   -58272   -58095   -57920   -57739   -57577   -57443   -57322 
  -57210   -57094   -56960   -56822   -56695   -56578   -56467   -56365 
  -56276   -56199   -56134   -56087   -56066   -56066   -56079   -56107 
  -56155   -56215   -56286   -56373   -56469   -56575   -56687   -56809 
  -56936   -57055   -57179   -57308   -57430   -57547   -57674   -57801 
  -57923   -58031   -58122   -58202   -58263   -58302   -58325   -58332 
  -58329   -58320   -58294   -58259   -58234   -58230   -58234   -58232 
  -58218   -58205   -58187   -58155   -58113   -58068   -58010   -57947 
  -57875   -57786   -57673   -57538   -57387   -57234   -57079   -56918 
  -56754   -56585   -56400   -56199   -55999   -55809   -55645   -55517 
  -55416   -55328   -55237   -55135   -55027   -54928   -54849   -54791 
  -54753   -54727   -54715   -54719   -54726   -54738   -54760   -54791 
  -54832   -54878   -54936   -55008   -55089   -55177   -55269   -55352 
  -55431   -55518   -55621   -55732   -55844   -55961   -56087   -56228 
  -56385   -56538   -56673   -56793   -56914   -57042   -57171   -57300 
  -57441   -57588   -57740   -57885   -58008   -58128   -58253   -58368 
  -58473   -58577   -58673   -58746   -58796   -58826   -58830   -58800 
  -58741   -58661   -58565   -58449   -58314   -58170   -58032   -57900 
  -57774   -57655   -57545   -57442   -57346   -57245   -57159   -57109 
  -57083   -57063   -57059   -57082   -57144   -57226   -57289   -57322 
  -57348   -57385   -57427   -57466   -57488   -57489   -57477   -57438 
  -57369   -57280   -57173   -57071   -56980   -56894   -56813   -56733 
  -56633   -56531   -56444   -56369   -56293   -56218   -56149   -56096 
  -56064   -56041   -56012   -55984   -55979   -56006   -56060   -56137 
  -56234   -56350   -56484   -56616   -56739   -56867   -57006   -57163 
  -57342   -57538   -57732   -57927   -58114   -58284   -58432   -58548 
  -58623   -58662   -58677   -58684   -58695   -58692   -58664   -58612 
  -58542   -58445   -58330   -58205   -58081   -57971   -57885   -57805 
  -57717   -57628   -57541   -57441   -57333   -57234   -57141   -57053 
  -56974   -56898   -56822   -56748   -56663   -56560   -56451   -56351 
  -56274   -56230   -56232   -56268   -56312   -56351   -56369   -56366 
  -56358   -56344   -56332   -56338   -56363   -56408   -56471   -56538 
  -56581   -56597   -56598   -56593   -56594   -56623   -56682   -56768 
  -56868   -56964   -57037   -57084   -57110   -57123   -57129   -57136 
  -57148   -57164   -57176   -57184   -57192   -57199   -57198   -57190 
  -57172   -57137   -57095   -57048   -56987   -56922   -56871   -56825 
  -56779   -56735   -56678   -56605   -56525   -56455   -56407   -56370 
  -56338   -56315   -56297   -56292   -56309   -56344   -56390   -56444 
  -56502   -56571   -56658   -56767   -56890   -57021   -57152   -57281 
  -57400   -57497   -57569   -57620   -57661   -57709   -57766   -57820 
  -57867   -57902   -57925   -57942   -57958   -57973   -57981   -57991 
  -58018   -58058   -58089   -58112   -58133   -58153   -58171   -58175 
  -58166   -58149   -58124   -58081   -58028   -57974   -57923   -57863 
  -57786   -57689   -57577   -57461   -57352   -57249   -57154   -57065 
  -56970   -56871   -56785   -56706   -56631   -56563   -56502   -56447 
  -56400   -56357   -56316   -56278   -56246   -56216   -56197   -56197 
  -56195   -56182   -56169   -56155   -56138   -56111   -56079   -56064 
  -56061   -56058   -56054   -56050   -56047   -56042   -56038   -56052 
  -56076   -56100   -56135   -56173   -56215   -56274   -56336   -56394 
  -56459   -56527   -56606   -56687   -56756   -56818   -56884   -56952 
  -57024   -57095   -57164   -57231   -57292   -57357   -57430   -57500 
  -57564   -57615   -57650   -57670   -57688   -57705   -57711   -57694 
  -57672   -57662   -57674   -57686   -57693   -57709   -57730   -57744 
  -57747   -57753   -57777   -57817   -57875   -57954   -58037   -58118 
  -58206   -58306   -58401   -58483   -58558   -58619   -58661   -58685 
  -58692   -58676   -58646   -58607   -58558   -58503   -58446   -58391 
  -58333   -58270   -58203   -58131   -58054   -57978   -57882   -57773 
  -57674   -57582   -57499   -57418   -57322   -57213   -57087   -56941 
  -56795   -56664   -56538   -56407   -56278   -56160   -56043   -55934 
  -55836   -55742   -55655   -55576   -55514   -55471   -55452   -55455 
  -55470   -55495   -55528   -55563   -55607   -55656   -55706   -55767 
  -55846   -55941   -56047   -56174   -56324   -56477   -56625   -56764 
  -56893   -57025   -57167   -57294   -57395   -57481   -57555   -57615 
  -57651   -57667   -57663   -57639   -57601   -57565   -57528   -57478 
  -57418   -57364   -57311   -57254   -57203   -57152   -57098   -57060 
  -57053   -57064   -57078   -57092   -57114   -57141   -57168   -57188 
  -57203   -57219   -57233   -57233   -57222   -57219   -57230   -57250 
  -57276   -57304   -57342   -57396   -57460   -57523   -57592   -57665 
  -57731   -57798   -57871   -57947   -58024   -58102   -58176   -58245 
  -58311   -58371   -58423   -58452   -58446   -58421   -58374   -58306 
  -58237   -58178   -58128   -58095   -58072   -58031   -57962   -57877 
  -57774   -57665   -57562   -57469   -57384   -57312   -57240   -57165 
  -57102   -57042   -56974   -56907   -56844   -56783   -56733   -56698 
  -56670   -56646   -56635   -56640   -56650   -56666   -56686   -56709 
  -56729   -56747   -56762   -56775   -56786   -56802   -56826   -56844 
  -56856   -56864   -56864   -56857   -56847   -56828   -56806   -56786 
  -56763   -56744   -56739   -56731   -56720   -56706   -56685   -56662 
  -56648   -56633   -56612   -56590   -56579   -56583   -56594   -56614 
  -56641   -56666   -56691   -56737   -56791   -56845   -56913   -56988 
  -57063   -57144   -57221   -57277   -57329   -57388   -57461   -57537 
  -57609   -57685   -57753   -57797   -57827   -57856   -57878   -57877 
  -57852   -57813   -57766   -57717   -57670   -57620   -57569   -57510 
  -57443   -57376   -57314   -57248   -57180   -57125   -57082   -57052 
  -57034   -57017   -56994   -56964   -56924   -56864   -56794   -56731 
  -56681   -56632   -56575   -56517   -56447   -56361   -56276   -56200 
  -56133   -56074   -56029   -56000   -55991   -55998   -56015   -56042 
  -56074   -56118   -56170   -56226   -56281   -56355   -56454   -56552 
  -56637   -56716   -56794   -56871   -56951   -57030   -57100   -57152 
  -57198   -57242   -57284   -57322   -57348   -57368   -57380   -57381 
  -57362   -57325   -57284   -57250   -57222   -57203   -57188   -57175 
  -57157   -57127   -57087   -57052   -57037   -57051   -57082   -57121 
  -57160   -57202   -57238   -57260   -57275   -57291   -57299   -57299 
