Origin Time       2025/01/13 21:19:00
Lat.              31.8
Long.             131.6
Depth. (km)       30
Mag.              6.9
Station Code      KOCH11
Station Lat.      33.2866
Station Long.     134.1603
Station Height(m) 90
Record Time       2025/01/13 21:20:40
Sampling Freq(Hz) 100Hz
Duration Time(s)  127
Dir.              4
Scale Factor      7845(gal)/8223790
Max. Acc. (gal)   0.878
Last Correction   2025/01/13 21:20:42
Memo.             
[...]
  -25177   -25182   -25195   -25203   -25200   -25196   -25186   -25170 
  -25150   -25131   -25120   -25116   -25114   -25115   -25114   -25107 
  -25099   -25087   -25078   -25077   -25078   -25085   -25088   -25084 
  -25080   -25080   -25087   -25103   -25122   -25149   -25184   -25208 
  -25219   -25218   -25199   -25174   -25149   -25112   -25073   -25033 
  -24995   -24964   -24939   -24927   -24933   -24950   -24981   -25015 
  -25045   -25074   -25093   -25107   -25122   -25126   -25123   -25118 
  -25103   -25084   -25066   -25053   -25047   -25046   -25042   -25037 
  -25027   -25019   -25012   -25000   -24991   -24983   -24965   -24954 
  -24953   -24949   -24954   -24968   -24972   -24975   -24975   -24977 
  -24983   -24977   -24970   -24962   -24938   -24912   -24900   -24896 
  -24907   -24925   -24938   -24952   -24958   -24964   -24975   -24980 
  -24983   -24983   -24985   -25006   -25031   -25051   -25073   -25080 
  -25073   -25062   -25031   -24985   -24945   -24904   -24872   -24845 
  -24813   -24781   -24741   -24692   -24655   -24630   -24624   -24646 
  -24686   -24730   -24780   -24821   -24853   -24887   -24914   -24935 
  -24954   -24972   -24995   -25015   -25034   -25050   -25049   -25038 
  -25031   -25027   -25031   -25031   -25024   -25022   -25011   -24989 
  -24979   -24981   -24993   -25012   -25038   -25074   -25119   -25172 
  -25238   -25304   -25354   -25398   -25434   -25459   -25485   -25510 
  -25535   -25551   -25555   -25554   -25544   -25528   -25513   -25504 
  -25497   -25489   -25473   -25451   -25428   -25405   -25392   -25386 
  -25382   -25377   -25367   -25362   -25371   -25382   -25386   -25382 
  -25369   -25348   -25327   -25301   -25273   -25243   -25216   -25193 
  -25165   -25135   -25114   -25096   -25078   -25065   -25065   -25072 
  -25069   -25053   -25035   -25022   -25012   -25010   -25011   -25024 
  -25041   -25056   -25077   -25100   -25111   -25115   -25103   -25074 
  -25047   -25023   -25003   -24988   -24975   -24961   -24939   -24907 
  -24876   -24848   -24818   -24806   -24806   -24814   -24834   -24856 
  -24885   -24925   -24966   -25022   -25095   -25173   -25255   -25324 
  -25378   -25423   -25451   -25470   -25488   -25492   -25486   -25467 
  -25436   -25402   -25358   -25305   -25258   -25196   -25123   -25061 
  -25004   -24958   -24927   -24902   -24885   -24873   -24853   -24831 
  -24811   -24796   -24798   -24814   -24852   -24904   -24960   -25018 
  -25069   -25107   -25151   -25200   -25239   -25272   -25288   -25289 
  -25286   -25273   -25254   -25235   -25203   -25169   -25131   -25080 
  -25020   -24945   -24860   -24781   -24706   -24640   -24588   -24543 
  -24505   -24479   -24460   -24459   -24474   -24495   -24528   -24560 
  -24590   -24621   -24649   -24683   -24718   -24745   -24777   -24825 
  -24869   -24919   -24968   -25004   -25039   -25072   -25103   -25147 
  -25196   -25246   -25290   -25316   -25328   -25332   -25327   -25320 
  -25308   -25294   -25292   -25281   -25261   -25249   -25242   -25240 
  -25242   -25236   -25230   -25222   -25213   -25207   -25201   -25199 
  -25200   -25205   -25218   -25234   -25257   -25294   -25334   -25366 
  -25394   -25413   -25420   -25413   -25398   -25380   -25357   -25330 
  -25304   -25269   -25222   -25170   -25112   -25051   -24993   -24939 
  -24888   -24841   -24799   -24767   -24740   -24718   -24713   -24715 
  -24722   -24734   -24744   -24756   -24776   -24798   -24829   -24865 
  -24894   -24916   -24927   -24923   -24918   -24908   -24899   -24894 
  -24885   -24885   -24903   -24918   -24931   -24942   -24945   -24949 
  -24952   -24953   -24968   -24981   -24989   -24993   -24984   -24976 
  -24968   -24948   -24931   -24908   -24875   -24845   -24811   -24776 
  -24756   -24736   -24723   -24727   -24734   -24752   -24777   -24796 
  -24822   -24854   -24880   -24908   -24931   -24941   -24949   -24948 
  -24945   -24956   -24965   -24966   -24970   -24975   -24973   -24970 
  -24970   -24976   -24988   -25007   -25041   -25080   -25120   -25161 
  -25196   -25230   -25259   -25292   -25326   -25340   -25339   -25328 
  -25301   -25262   -25219   -25178   -25146   -25127   -25118   -25118 
  -25120   -25131   -25145   -25161   -25186   -25218   -25245   -25270 
  -25288   -25297   -25305   -25304   -25300   -25309   -25321   -25335 
  -25353   -25362   -25369   -25369   -25362   -25361   -25359   -25344 
  -25324   -25303   -25289   -25285   -25282   -25294   -25312   -25326 
  -25347   -25370   -25388   -25411   -25425   -25436   -25450   -25450 
  -25446   -25442   -25429   -25419   -25407   -25378   -25347   -25308 
  -25261   -25218   -25170   -25126   -25095   -25057   -25020   -24993 
  -24962   -24934   -24910   -24883   -24854   -24811   -24748   -24683 
  -24619   -24563   -24522   -24487   -24466   -24462   -24457   -24463 
  -24480   -24501   -24526   -24557   -24594   -24638   -24682   -24726 
  -24776   -24823   -24872   -24923   -24973   -25029   -25083   -25126 
  -25161   -25184   -25203   -25227   -25247   -25266   -25281   -25285 
  -25288   -25286   -25277   -25274   -25278   -25284   -25288   -25286 
  -25277   -25263   -25238   -25208   -25180   -25153   -25128   -25100 
  -25072   -25047   -25029   -25015   -25007   -25002   -25003   -25010 
  -25016   -25029   -25050   -25078   -25116   -25155   -25201   -25249 
  -25278   -25301   -25323   -25336   -25347   -25343   -25328   -25304 
  -25266   -25226   -25185   -25132   -25076   -25012   -24945   -24881 
  -24821   -24764   -24723   -24690   -24663   -24648   -24640   -24644 
  -24667   -24699   -24752   -24815   -24873   -24929   -24973   -24995 
  -25008   -25007   -24992   -24980   -24965   -24956   -24954   -24952 
  -24958   -24979   -25002   -25027   -25054   -25077   -25097   -25101 
  -25093   -25083   -25061   -25035   -25019   -25000   -24985   -24973 
  -24956   -24939   -24927   -24916   -24914   -24908   -24895   -24884 
  -24875   -24869   -24871   -24875   -24884   -24892   -24904   -24933 
  -24964   -24984   -25008   -25033   -25054   -25072   -25078   -25085 
  -25096   -25097   -25096   -25104   -25116   -25128   -25139   -25154 
  -25173   -25185   -25195   -25200   -25199   -25197   -25201   -25211 
  -25222   -25227   -25236   -25247   -25251   -25259   -25255   -25235 
  -25222   -25208   -25196   -25193   -25189   -25181   -25170   -25150 
  -25130   -25107   -25081   -25056   -25027   -24997   -24976   -24950 
  -24925   -24910   -24903   -24902   -24906   -24903   -24895   -24875 
  -24845   -24819   -24796   -24769   -24750   -24738   -24734   -24752 
  -24781   -24829   -24880   -24925   -24984   -25046   -25092   -25141 
  -25181   -25203   -25222   -25227   -25218   -25204   -25177   -25143 
  -25110   -25072   -25039   -25019   -25011   -25019   -25029   -25041 
  -25064   -25091   -25123   -25166   -25213   -25276   -25338   -25386 
  -25434   -25463   -25470   -25478   -25482   -25485   -25500   -25504 
  -25490   -25471   -25443   -25417   -25396   -25374   -25357   -25339 
  -25316   -25288   -25258   -25230   -25199   -25164   -25134   -25107 
  -25073   -25041   -25010   -24980   -24962   -24953   -24949   -24958 
  -24976   -25003   -25037   -25077   -25127   -25180   -25232   -25286 
  -25335   -25374   -25407   -25427   -25442   -25458   -25471   -25483 
  -25493   -25497   -25498   -25498   -25493   -25483   -25463   -25435 
  -25405   -25377   -25354   -25336   -25319   -25307   -25294   -25276 
  -25250   -25213   -25168   -25108   -25039   -24972   -24902   -24823 
  -24756   -24699   -24656   -24634   -24624   -24625   -24640   -24660 
  -24687   -24711   -24723   -24733   -24742   -24748   -24763   -24783 
  -24808   -24848   -24888   -24925   -24960   -24991   -25029   -25068 
  -25100   -25137   -25173   -25197   -25211   -25215   -25218   -25215 
  -25197   -25173   -25146   -25112   -25074   -25029   -24975   -24925 
  -24872   -24821   -24784   -24752   -24726   -24711   -24695   -24686 
  -24686   -24687   -24699   -24723   -24753   -24798   -24842   -24885 
  -24934   -24975   -25016   -25064   -25101   -25141   -25177   -25203 
  -25227   -25246   -25251   -25255   -25253   -25253   -25263   -25277 
  -25294   -25316   -25330   -25347   -25365   -25384   -25413   -25440 
  -25462   -25490   -25509   -25520   -25533   -25544   -25559   -25579 
  -25590   -25594   -25587   -25573   -25560   -25535   -25494   -25452 
  -25397   -25332   -25267   -25196   -25124   -25050   -24964   -24883 
  -24807   -24738   -24686   -24641   -24603   -24572   -24545   -24534 
  -24538   -24543   -24564   -24597   -24632   -24676   -24726   -24772 
  -24814   -24848   -24873   -24889   -24896   -24898   -24884   -24857 
  -24833   -24806   -24784   -24779   -24777   -24783   -24802   -24821 
  -24834   -24854   -24877   -24904   -24935   -24965   -25002   -25037 
  -25068   -25100   -25124   -25143   -25161   -25169   -25174   -25174 
  -25161   -25146   -25138   -25130   -25123   -25120   -25127   -25146 
  -25170   -25203   -25238   -25272   -25301   -25323   -25338   -25350 
  -25354   -25348   -25328   -25292   -25246   -25197   -25143   -25096 
  -25054   -25018   -24989   -24960   -24934   -24922   -24918   -24926 
  -24946   -24972   -25010   -25051   -25095   -25142   -25182   -25216 
  -25250   -25274   -25297   -25316   -25321   -25320   -25313   -25299 
  -25288   -25278   -25274   -25285   -25289   -25292   -25297   -25292 
  -25277   -25251   -25212   -25181   -25145   -25099   -25064   -25030 
  -24996   -24977   -24964   -24958   -24961   -24960   -24961   -24968 
  -24976   -24995   -25024   -25049   -25069   -25085   -25096   -25111 
  -25122   -25131   -25143   -25145   -25134   -25107   -25066   -25031 
  -25000   -24968   -24946   -24922   -24898   -24885   -24877   -24879 
  -24885   -24888   -24895   -24903   -24896   -24891   -24885   -24872 
  -24856   -24842   -24831   -24822   -24813   -24813   -24815   -24817 
  -24823   -24833   -24848   -24871   -24888   -24900   -24914   -24926 
  -24942   -24965   -24993   -25030   -25065   -25097   -25127   -25143 
  -25149   -25153   -25147   -25135   -25128   -25120   -25107   -25091 
  -25078   -25078   -25085   -25096   -25116   -25139   -25158   -25174 
  -25184   -25186   -25185   -25180   -25168   -25146   -25114   -25081 
  -25045   -25003   -24965   -24929   -24898   -24871   -24848   -24835 
  -24834   -24841   -24858   -24880   -24907   -24939   -24968   -25006 
  -25045   -25080   -25118   -25159   -25197   -25240   -25281   -25319 
  -25358   -25396   -25436   -25479   -25520   -25562   -25604   -25635 
  -25667   -25699   -25722   -25740   -25753   -25759   -25758   -25741 
  -25718   -25694   -25664   -25636   -25598   -25548   -25500   -25442 
  -25381   -25328   -25267   -25197   -25131   -25065   -25007   -24954 
  -24900   -24857   -24822   -24794   -24779   -24769   -24768   -24771 
  -24767   -24772   -24788   -24798   -24811   -24826   -24834   -24842 
  -24848   -24853   -24861   -24862   -24869   -24885   -24895   -24903 
  -24919   -24934   -24950   -24964   -24969   -24976   -24976   -24969 
  -24968   -24960   -24942   -24916   -24877   -24831   -24788   -24748 
  -24715   -24679   -24641   -24619   -24606   -24602   -24619   -24649 
  -24684   -24723   -24763   -24808   -24854   -24898   -24949   -25004 
  -25057   -25115   -25165   -25208   -25247   -25282   -25317   -25353 
  -25378   -25394   -25407   -25417   -25424   -25423   -25417   -25411 
  -25393   -25369   -25347   -25321   -25296   -25276   -25253   -25227 
  -25193   -25155   -25122   -25085   -25054   -25031   -25008   -24985 
  -24965   -24943   -24926   -24915   -24911   -24919   -24933   -24943 
  -24954   -24964   -24979   -24999   -25014   -25027   -25037   -25042 
  -25051   -25069   -25089   -25108   -25122   -25131   -25138   -25137 
  -25135   -25130   -25124   -25120   -25110   -25095   -25076   -25050 
  -25023   -24997   -24969   -24943   -24916   -24891   -24873   -24853 
  -24838   -24833   -24826   -24822   -24825   -24822   -24818   -24811 
  -24800   -24800   -24804   -24808   -24819   -24826   -24831   -24848 
  -24861   -24877   -24898   -24912   -24926   -24937   -24943   -24956 
  -24960   -24960   -24972   -24988   -25003   -25024   -25050   -25087 
  -25124   -25159   -25203   -25249   -25296   -25348   -25396   -25447 
  -25498   -25537   -25581   -25621   -25647   -25675   -25705   -25722 
  -25737   -25737   -25731   -25729   -25716   -25698   -25685   -25656 
  -25624   -25598   -25562   -25527   -25493   -25451   -25413   -25371 
  -25324   -25284   -25240   -25192   -25151   -25112   -25077   -25047 
  -25015   -24995   -24977   -24950   -24931   -24921   -24910   -24904 
  -24896   -24889   -24889   -24892   -24906   -24934   -24962   -24993 
  -25033   -25074   -25119   -25162   -25208   -25251   -25281   -25308 
  -25339   -25359   -25378   -25398   -25409   -25409   -25402   -25398 
  -25393   -25382   -25377   -25378   -25377   -25378   -25378   -25377 
  -25378   -25373   -25365   -25359   -25348   -25335   -25323   -25304 
  -25281   -25257   -25230   -25208   -25196   -25191   -25189   -25185 
  -25189   -25199   -25208   -25222   -25239   -25257   -25280   -25301 
  -25316   -25332   -25340   -25338   -25328   -25312   -25299   -25282 
  -25259   -25239   -25216   -25192   -25170   -25141   -25103   -25066 
  -25018   -24968   -24923   -24867   -24807   -24748   -24676   -24603 
  -24530   -24457   -24395   -24332   -24275   -24235   -24197   -24175 
  -24170   -24163   -24171   -24190   -24210   -24246   -24287   -24327 
  -24378   -24430   -24484   -24547   -24607   -24672   -24736   -24791 
  -24849   -24910   -24964   -25019   -25068   -25108   -25150   -25188 
  -25228   -25272   -25303   -25331   -25358   -25371   -25386   -25398 
  -25401   -25398   -25382   -25357   -25330   -25293   -25249   -25211 
  -25170   -25128   -25087   -25038   -24993   -24948   -24899   -24862 
  -24830   -24804   -24791   -24779   -24769   -24763   -24756   -24765 
  -24787   -24808   -24842   -24881   -24923   -24968   -25012   -25065 
  -25126   -25184   -25245   -25308   -25367   -25429   -25486   -25533 
  -25575   -25604   -25623   -25637   -25647   -25650   -25645   -25629 
  -25602   -25567   -25524   -25475   -25423   -25378   -25342   -25305 
  -25270   -25242   -25223   -25215   -25209   -25209   -25213   -25208 
  -25200   -25196   -25185   -25176   -25168   -25154   -25142   -25123 
  -25093   -25069   -25043   -25012   -24989   -24972   -24956   -24942 
  -24929   -24916   -24907   -24899   -24907   -24918   -24929   -24948 
  -24969   -24993   -25016   -25034   -25049   -25057   -25064   -25073 
  -25072   -25062   -25053   -25030   -24999   -24968   -24931   -24902 
  -24880   -24857   -24846   -24848   -24848   -24857   -24875   -24898 
  -24927   -24950   -24972   -24997   -25014   -25027   -25038   -25038 
  -25035   -25033   -25031   -25035   -25038   -25042   -25060   -25078 
  -25103   -25137   -25170   -25205   -25243   -25274   -25305   -25339 
  -25370   -25398   -25416   -25421   -25423   -25419   -25411   -25401 
  -25385   -25367   -25348   -25323   -25297   -25267   -25234   -25204 
  -25169   -25131   -25100   -25070   -25039   -25015   -24999   -24991 
  -24987   -24992   -25004   -25015   -25029   -25046   -25065   -25088 
  -25111   -25134   -25162   -25185   -25199   -25213   -25218   -25215 
  -25215   -25212   -25208   -25205   -25199   -25192   -25178   -25159 
  -25145   -25127   -25111   -25103   -25093   -25083   -25076   -25066 
  -25062   -25060   -25058   -25064   -25066   -25064   -25065   -25068 
  -25076   -25087   -25093   -25104   -25120   -25131   -25151   -25173 
  -25189   -25205   -25211   -25208   -25208   -25195   -25180   -25168 
  -25142   -25116   -25092   -25060   -25034   -25016   -25003   -24993 
  -24984   -24979   -24981   -24981   -24983   -24987   -24987   -24988 
  -24992   -24991   -24995   -25000   -25003   -25012   -25023   -25030 
  -25037   -25039   -25045   -25051   -25057   -25070   -25084   -25088 
  -25096   -25100   -25100   -25101   -25096   -25091   -25088   -25080 
  -25074   -25070   -25060   -25049   -25037   -25026   -25023   -25020 
  -25018   -25016   -25014   -25012   -25012   -25008   -25012   -25020 
  -25026   -25037   -25051   -25068   -25089   -25110   -25128   -25139 
  -25139   -25138   -25132   -25122   -25111   -25093   -25074   -25061 
  -25046   -25031   -25016   -25002   -24988   -24973   -24956   -24943 
  -24927   -24911   -24900   -24891   -24889   -24892   -24891   -24900 
  -24910   -24912   -24915   -24915   -24911   -24911   -24908   -24907 
  -24912   -24915   -24922   -24937   -24945   -24954   -24972   -24991 
  -25015   -25039   -25064   -25091   -25111   -25137   -25172   -25200 
  -25234   -25273   -25304   -25339   -25377   -25409   -25443   -25469 
  -25485   -25502   -25516   -25523   -25529   -25527   -25519   -25504 
  -25478   -25458   -25440   -25409   -25382   -25355   -25323   -25293 
  -25263   -25235   -25212   -25185   -25164   -25149   -25127   -25104 
  -25081   -25056   -25039   -25024   -25010   -25003   -24995   -24983 
  -24969   -24949   -24929   -24908   -24889   -24876   -24858   -24844 
  -24837   -24826   -24821   -24823   -24835   -24861   -24895   -24930 
  -24970   -25012   -25056   -25101   -25138   -25174   -25212   -25239 
  -25265   -25289   -25303   -25320   -25336   -25347   -25361   -25370 
  -25371   -25365   -25350   -25336   -25321   -25300   -25286   -25272 
  -25253   -25238   -25222   -25201   -25188   -25166   -25146   -25130 
  -25104   -25083   -25065   -25041   -25026   -25012   -24997   -24993 
  -24984   -24973   -24970   -24968   -24975   -24993   -25008   -25029 
  -25049   -25062   -25081   -25101   -25110   -25119   -25122   -25118 
  -25119   -25122   -25123   -25120   -25114   -25112   -25111   -25107 
  -25108   -25108   -25107   -25111   -25112   -25111   -25108   -25100 
  -25095   -25095   -25092   -25087   -25084   -25084   -25084   -25081 
  -25080   -25078   -25074   -25077   -25078   -25074   -25077   -25077 
  -25073   -25073   -25077   -25080   -25084   -25084   -25083   -25080 
  -25073   -25069   -25064   -25060   -25061   -25057   -25051   -25057 
  -25064   -25072   -25078   -25088   -25104   -25120   -25134   -25158 
  -25177   -25191   -25215   -25239   -25263   -25290   -25312   -25338 
  -25358   -25362   -25373   -25384   -25385   -25393   -25396   -25393 
  -25393   -25382   -25371   -25363   -25343   -25323   -25297   -25259 
  -25219   -25176   -25134   -25101   -25064   -25026   -24996   -24968 
  -24943   -24923   -24900   -24880   -24860   -24837   -24821   -24807 
  -24796   -24794   -24788   -24786   -24790   -24795   -24806   -24818 
  -24827   -24844   -24862   -24876   -24894   -24915   -24935   -24958 
  -24988   -25020   -25047   -25062   -25076   -25087   -25089   -25088 
  -25084   -25078   -25068   -25047   -25024   -24999   -24968   -24943 
  -24922   -24903   -24891   -24881   -24875   -24872   -24865   -24860 
  -24860   -24858   -24867   -24883   -24896   -24912   -24931   -24949 
  -24964   -24972   -24984   -24996   -25003   -25015   -25029   -25035 
  -25046   -25057   -25064   -25080   -25095   -25110   -25130   -25149 
  -25166   -25185   -25197   -25209   -25220   -25224   -25231   -25232 
  -25224   -25219   -25209   -25197   -25185   -25164   -25145   -25126 
