Origin Time       2025/01/13 21:19:00
Lat.              31.8
Long.             131.6
Depth. (km)       30
Mag.              6.9
Station Code      KOCH10
Station Lat.      33.5313
Station Long.     133.4388
Station Height(m) 10
Record Time       2025/01/13 21:20:21
Sampling Freq(Hz) 100Hz
Duration Time(s)  164
Dir.              4
Scale Factor      7845(gal)/8223790
Max. Acc. (gal)   1.339
Last Correction   2025/01/13 21:20:21
Memo.             
[...]
   18904    18909    18927    18951    18976    18994    18999    18998 
   18994    18981    18948    18902    18855    18814    18789    18781 
   18782    18793    18813    18832    18841    18856    18881    18890 
   18879    18873    18883    18904    18913    18910    18912    18931 
   18959    18993    19035    19080    19126    19176    19214    19226 
   19225    19229    19244    19255    19246    19222    19192    19171 
   19151    19120    19101    19110    19138    19170    19174    19145 
   19111    19087    19067    19057    19056    19056    19070    19086 
   19099    19122    19151    19171    19183    19175    19153    19137 
   19128    19121    19114    19102    19094    19089    19075    19059 
   19053    19053    19049    19043    19026    18994    18951    18900 
   18841    18787    18747    18720    18719    18752    18804    18843 
   18863    18879    18908    18944    18967    18960    18941    18932 
   18929    18925    18928    18949    18985    19021    19051    19078 
   19106    19128    19140    19151    19155    19155    19151    19125 
   19074    19025    19008    19013    19026    19049    19086    19129 
   19164    19183    19187    19171    19137    19105    19084    19071 
   19059    19056    19076    19107    19128    19137    19148    19156 
   19156    19152    19149    19163    19187    19197    19192    19183 
   19163    19138    19129    19122    19105    19080    19055    19021 
   18972    18914    18862    18825    18796    18762    18736    18723 
   18708    18694    18698    18721    18752    18789    18829    18867 
   18904    18939    18975    19018    19062    19089    19094    19087 
   19075    19062    19051    19044    19040    19025    18999    18967 
   18936    18913    18895    18877    18875    18901    18937    18982 
   19041    19106    19153    19172    19165    19138    19110    19102 
   19128    19186    19253    19311    19346    19353    19337    19307 
   19265    19207    19133    19057    18995    18943    18902    18883 
   18886    18897    18898    18890    18891    18902    18910    18922 
   18952    19003    19067    19113    19134    19144    19157    19178 
   19202    19214    19207    19192    19192    19205    19219    19229 
   19226    19201    19155    19109    19066    19020    18971    18929 
   18906    18905    18913    18921    18928    18924    18902    18878 
   18868    18881    18898    18909    18917    18928    18948    18976 
   19008    19030    19040    19036    19024    19009    18995    18987 
   18970    18939    18901    18878    18878    18890    18904    18905 
   18891    18874    18873    18889    18910    18943    18985    19018 
   19029    19021    19009    19005    19014    19029    19045    19066 
   19089    19107    19128    19156    19186    19206    19201    19165 
   19114    19051    18976    18914    18875    18847    18832    18835 
   18847    18868    18894    18912    18921    18921    18913    18910 
   18912    18898    18878    18871    18883    18897    18898    18886 
   18863    18828    18782    18729    18686    18652    18632    18635 
   18657    18677    18688    18690    18704    18733    18763    18794 
   18832    18871    18922    18979    19020    19044    19060    19064 
   19074    19107    19143    19159    19165    19161    19144    19121 
   19103    19091    19075    19049    19024    19003    18993    18990 
   18993    19006    19041    19087    19128    19152    19156    19137 
   19116    19109    19107    19105    19097    19079    19055    19036 
   19021    19009    19001    18994    18987    18999    19024    19039 
   19044    19060    19089    19122    19151    19163    19159    19141 
   19116    19091    19070    19044    19020    19002    18982    18962 
   18937    18905    18875    18858    18836    18810    18793    18779 
   18767    18755    18742    18733    18729    18727    18725    18736 
   18751    18763    18778    18805    18839    18860    18856    18825 
   18773    18708    18650    18608    18580    18563    18565    18589 
   18620    18646    18661    18669    18677    18675    18666    18661 
   18658    18651    18643    18648    18678    18743    18839    18940 
   19030    19107    19165    19205    19241    19271    19272    19242 
   19191    19130    19068    19021    18999    18994    18993    18997 
   19008    19021    19028    19036    19052    19074    19094    19105 
   19103    19101    19099    19090    19076    19067    19064    19067 
   19076    19084    19083    19071    19051    19032    19026    19033 
   19035    19021    18994    18959    18931    18909    18897    18900 
   18913    18935    18963    18997    19035    19070    19098    19120 
   19143    19172    19206    19237    19269    19300    19319    19309 
   19263    19192    19110    19028    18964    18925    18901    18882 
   18864    18847    18839    18841    18841    18846    18859    18871 
   18878    18887    18904    18927    18964    19010    19052    19086 
   19109    19116    19110    19103    19095    19091    19087    19066 
   19036    19017    19022    19045    19068    19086    19103    19121 
   19144    19165    19183    19211    19251    19272    19271    19253 
   19234    19224    19211    19199    19190    19175    19152    19130 
   19107    19083    19062    19037    19012    18993    18982    18981 
   18985    18995    19024    19067    19116    19170    19222    19269 
   19313    19349    19357    19337    19307    19280    19244    19197 
   19151    19111    19078    19044    19005    18967    18940    18901 
   18850    18797    18752    18731    18735    18750    18769    18800 
   18835    18866    18889    18902    18918    18941    18962    18979 
   19003    19033    19060    19084    19098    19105    19101    19084 
   19063    19029    18978    18914    18841    18770    18711    18662 
   18628    18605    18585    18574    18582    18613    18666    18731 
   18802    18879    18955    19014    19045    19052    19044    19024 
   18990    18945    18897    18858    18832    18829    18851    18881 
   18909    18941    18970    18995    19025    19060    19095    19130 
   19167    19214    19269    19317    19352    19380    19402    19415 
   19417    19408    19391    19372    19350    19326    19303    19267 
   19217    19172    19153    19159    19184    19215    19244    19264 
   19276    19288    19296    19296    19284    19260    19234    19213 
   19187    19152    19109    19057    19008    18967    18933    18910 
   18900    18890    18883    18873    18859    18846    18839    18847 
   18866    18878    18885    18891    18905    18936    18978    19017 
   19049    19078    19095    19097    19076    19048    19029    19014 
   19001    18989    18972    18954    18936    18928    18933    18945 
   18951    18944    18937    18943    18958    18976    18993    19005 
   19018    19030    19040    19052    19070    19098    19130    19160 
   19188    19209    19213    19207    19206    19205    19195    19178 
   19153    19118    19075    19039    19002    18963    18924    18889 
   18868    18870    18885    18914    18963    19025    19093    19168 
   19246    19313    19352    19365    19357    19337    19306    19259 
   19205    19160    19114    19053    18986    18921    18867    18814 
   18756    18701    18658    18625    18612    18625    18644    18666 
   18704    18769    18848    18927    19001    19068    19134    19198 
   19240    19252    19241    19218    19198    19191    19198    19215 
   19248    19286    19322    19359    19398    19430    19444    19434 
   19410    19375    19333    19280    19224    19172    19120    19063 
   19013    18970    18939    18928    18935    18958    18991    19025 
   19068    19132    19210    19306    19399    19458    19491    19507 
   19512    19499    19458    19384    19291    19191    19091    18998 
   18920    18855    18804    18778    18777    18783    18792    18802 
   18810    18823    18839    18844    18836    18829    18831    18836 
   18851    18878    18913    18955    18994    19025    19056    19087 
   19101    19093    19074    19055    19040    19020    18997    18975 
   18958    18949    18945    18939    18928    18916    18902    18879 
   18850    18808    18751    18692    18646    18624    18627    18646 
   18679    18724    18773    18824    18870    18916    18975    19047 
   19118    19184    19242    19287    19310    19311    19306    19296 
   19276    19238    19186    19132    19079    19037    19017    19010 
   18998    18982    18959    18932    18905    18875    18848    18828 
   18819    18824    18852    18902    18972    19052    19132    19206 
   19272    19330    19384    19431    19460    19477    19494    19495 
   19476    19429    19367    19310    19253    19188    19124    19053 
   18986    18932    18889    18852    18831    18817    18806    18796 
   18786    18778    18774    18782    18804    18832    18868    18912 
   18968    19039    19114    19190    19261    19317    19356    19386 
   19399    19400    19406    19426    19462    19512    19558    19595 
   19618    19615    19587    19535    19454    19356    19248    19133 
   19026    18935    18848    18773    18719    18681    18667    18681 
   18719    18770    18820    18859    18890    18913    18925    18929 
   18937    18956    18978    19006    19044    19086    19126    19160 
   19179    19186    19174    19136    19083    19021    18954    18886 
   18821    18770    18742    18740    18759    18789    18820    18851 
   18879    18901    18922    18947    18955    18941    18918    18895 
   18879    18866    18843    18809    18763    18708    18652    18608 
   18582    18573    18585    18619    18669    18724    18786    18854 
   18916    18964    18995    19016    19033    19041    19043    19052 
   19068    19083    19094    19101    19111    19126    19138    19141 
   19141    19134    19121    19109    19107    19113    19120    19124 
   19138    19168    19203    19240    19272    19296    19323    19353 
   19372    19387    19402    19406    19398    19381    19359    19337 
   19319    19302    19279    19249    19218    19186    19151    19117 
   19094    19080    19068    19048    19012    18971    18932    18894 
   18863    18840    18820    18804    18802    18820    18854    18900 
   18947    19002    19072    19151    19228    19307    19380    19430 
   19468    19503    19530    19550    19558    19541    19508    19475 
   19431    19375    19306    19234    19167    19105    19051    19006 
   18963    18922    18887    18851    18816    18782    18746    18701 
   18650    18594    18549    18515    18495    18493    18511    18534 
   18558    18588    18625    18663    18698    18729    18754    18774 
   18787    18787    18775    18750    18706    18652    18605    18559 
   18513    18476    18449    18428    18422    18424    18435    18455 
   18488    18527    18570    18621    18684    18760    18847    18936 
   19029    19130    19230    19325    19419    19508    19581    19638 
   19677    19697    19700    19688    19662    19626    19581    19534 
   19483    19430    19386    19353    19323    19299    19282    19261 
   19238    19214    19194    19187    19198    19222    19253    19286 
   19310    19325    19333    19333    19327    19319    19311    19303 
   19290    19267    19229    19183    19137    19098    19072    19064 
   19064    19063    19064    19074    19082    19086    19095    19113 
   19132    19140    19137    19136    19137    19145    19159    19175 
   19190    19195    19188    19182    19178    19167    19152    19129 
   19097    19056    19017    18981    18940    18898    18856    18816 
   18779    18755    18739    18728    18725    18733    18750    18774 
   18805    18841    18881    18917    18935    18933    18928    18922 
   18912    18902    18897    18894    18891    18886    18874    18870 
   18879    18893    18904    18916    18928    18936    18945    18966 
   18995    19028    19064    19106    19148    19174    19176    19168 
   19163    19163    19167    19175    19186    19188    19174    19147 
   19107    19060    19020    18997    18998    19022    19064    19107 
   19145    19171    19179    19175    19167    19152    19134    19111 
   19079    19043    19013    18995    18987    18990    18998    18998 
   18989    18975    18952    18918    18889    18864    18846    18844 
   18858    18879    18905    18928    18955    18987    19013    19028 
   19032    19024    19014    19003    18983    18951    18916    18882 
   18846    18808    18778    18760    18755    18766    18785    18809 
   18835    18859    18878    18887    18886    18874    18852    18831 
   18808    18778    18746    18708    18662    18625    18594    18565 
   18540    18519    18500    18496    18505    18522    18542    18565 
   18584    18597    18608    18621    18634    18647    18663    18674 
   18682    18685    18681    18675    18669    18661    18655    18647 
   18634    18621    18615    18604    18596    18603    18617    18639 
   18661    18669    18670    18675    18686    18702    18724    18747 
   18766    18782    18802    18831    18873    18931    18994    19053 
   19113    19178    19244    19299    19344    19381    19411    19431 
   19445    19458    19479    19500    19519    19546    19587    19634 
   19684    19742    19808    19881    19962    20039    20110    20179 
   20245    20304    20344    20374    20403    20422    20422    20405 
   20372    20326    20274    20209    20142    20077    20008    19931 
   19851    19770    19688    19610    19535    19471    19411    19356 
   19306    19260    19218    19178    19134    19087    19036    18985 
   18927    18863    18817    18790    18767    18744    18727    18719 
   18720    18731    18751    18781    18806    18817    18820    18820 
   18821    18824    18825    18821    18810    18790    18765    18735 
   18705    18675    18638    18589    18535    18482    18435    18401 
   18381    18368    18360    18364    18378    18403    18438    18485 
   18536    18592    18647    18693    18733    18765    18775    18773 
   18756    18731    18700    18665    18627    18594    18578    18581 
   18597    18625    18667    18712    18756    18805    18851    18893 
   18936    18983    19035    19079    19113    19130    19141    19143 
   19134    19114    19079    19029    18967    18898    18828    18758 
   18696    18640    18584    18530    18484    18442    18404    18376 
   18361    18360    18370    18385    18400    18409    18412    18411 
   18416    18427    18441    18457    18476    18492    18513    18547 
   18584    18624    18673    18723    18766    18804    18843    18881 
   18918    18960    19010    19070    19138    19215    19298    19377 
   19456    19530    19600    19661    19711    19750    19782    19805 
   19824    19840    19851    19862    19867    19863    19855    19840 
   19816    19791    19768    19742    19724    19712    19695    19669 
   19633    19584    19531    19475    19422    19381    19348    19318 
   19287    19257    19226    19192    19156    19118    19084    19053 
   19020    18978    18939    18901    18870    18848    18832    18824 
   18823    18820    18820    18817    18809    18798    18787    18774 
   18760    18752    18744    18738    18747    18767    18787    18810 
   18835    18851    18858    18860    18860    18860    18862    18864 
   18871    18881    18893    18910    18936    18968    19001    19035 
   19072    19113    19149    19184    19225    19267    19310    19352 
   19391    19427    19462    19491    19512    19523    19526    19523 
   19516    19500    19476    19453    19437    19427    19429    19437 
   19452    19480    19518    19550    19581    19611    19623    19623 
   19616    19604    19592    19576    19550    19512    19453    19372 
   19278    19178    19083    18990    18898    18809    18724    18640 
   18551    18457    18369    18296    18235    18185    18149    18121 
   18095    18069    18053    18057    18069    18076    18081    18085 
   18095    18117    18141    18171    18204    18243    18288    18337 
   18385    18441    18499    18550    18597    18647    18698    18748 
   18797    18841    18889    18943    18998    19049    19105    19151 
   19178    19197    19213    19222    19229    19241    19261    19291 
   19323    19353    19377    19392    19399    19400    19398    19388 
   19372    19345    19305    19252    19199    19148    19091    19032 
   18982    18937    18901    18874    18848    18829    18824    18829 
   18841    18860    18882    18908    18936    18952    18949    18939 
   18918    18891    18863    18828    18785    18746    18715    18694 
   18684    18682    18686    18698    18724    18769    18836    18924 
   19024    19129    19238    19350    19462    19564    19657    19737 
   19799    19845    19881    19904    19915    19908    19888    19859 
   19819    19770    19727    19685    19645    19607    19568    19529 
   19495    19457    19418    19390    19367    19353    19353    19356 
   19365    19383    19404    19429    19448    19461    19469    19469 
   19461    19457    19458    19456    19449    19441    19433    19423 
   19403    19369    19334    19296    19252    19202    19149    19089 
   19021    18947    18864    18789    18723    18661    18603    18554 
   18512    18470    18435    18399    18355    18314    18276    18239 
   18207    18176    18144    18111    18084    18056    18023    17994 
   17967    17945    17928    17918    17921    17929    17940    17952 
   17976    18013    18052    18091    18137    18181    18219    18253 
   18284    18315    18351    18395    18443    18500    18559    18624 
   18696    18778    18870    18971    19076    19182    19287    19391 
   19477    19548    19606    19651    19691    19726    19754    19773 
   19785    19791    19786    19777    19762    19742    19714    19684 
   19653    19620    19589    19562    19537    19511    19487    19465 
   19445    19421    19396    19376    19360    19348    19338    19334 
   19334    19333    19336    19341    19345    19352    19357    19357 
   19357    19364    19372    19373    19369    19360    19348    19333 
   19317    19307    19309    19309    19303    19299    19296    19283 
   19264    19252    19245    19238    19229    19218    19207    19195 
   19188    19183    19183    19188    19197    19206    19215    19221 
   19224    19226    19226    19226    19224    19209    19188    19167 
   19144    19122    19101    19076    19055    19039    19025    19017 
   19014    19016    19014    19013    19012    19008    19001    18993 
   18981    18960    18937    18913    18883    18856    18833    18812 
   18793    18778    18767    18765    18771    18783    18806    18832 
   18852    18870    18894    18922    18959    19001    19045    19089 
   19130    19163    19184    19197    19205    19209    19205    19202 
   19205    19202    19192    19182    19170    19153    19133    19110 
   19089    19075    19070    19063    19052    19037    19021    18999 
   18970    18939    18906    18870    18833    18808    18790    18783 
   18783    18782    18778    18769    18754    18735    18713    18693 
