Origin Time       2025/01/13 21:19:00
Lat.              31.8
Long.             131.6
Depth. (km)       30
Mag.              6.9
Station Code      KOCH07
Station Lat.      33.3920
Station Long.     133.2866
Station Height(m) -99
Record Time       2025/01/13 21:20:17
Sampling Freq(Hz) 100Hz
Duration Time(s)  148
Dir.              3
Scale Factor      3923(gal)/8224838
Max. Acc. (gal)   1.221
Last Correction   2025/01/13 21:20:17
Memo.             
[...]
   21567    21469    21388    21365    21404    21463    21514    21566 
   21621    21693    21786    21875    21953    22032    22094    22115 
   22091    22046    22027    22032    21998    21932    21906    21914 
   21886    21841    21818    21774    21726    21739    21779    21801 
   21807    21798    21766    21725    21667    21573    21462    21348 
   21261    21222    21197    21154    21122    21142    21189    21232 
   21277    21332    21400    21471    21564    21672    21730    21735 
   21772    21870    21949    21960    21938    21936    21949    21960 
   21946    21897    21834    21797    21760    21693    21602    21483 
   21334    21205    21103    20965    20802    20673    20578    20501 
   20455    20434    20416    20383    20359    20367    20393    20429 
   20495    20583    20688    20808    20916    21003    21070    21114 
   21154    21235    21339    21415    21471    21533    21589    21622 
   21637    21640    21640    21625    21593    21551    21501    21447 
   21412    21396    21386    21386    21398    21415    21392    21320 
   21246    21161    21027    20879    20758    20665    20582    20466 
   20308    20155    20020    19897    19781    19646    19531    19483 
   19467    19468    19495    19523    19538    19546    19562    19603 
   19677    19782    19901    20017    20137    20287    20436    20544 
   20610    20622    20582    20526    20482    20471    20499    20532 
   20561    20587    20599    20607    20636    20676    20729    20765 
   20753    20734    20736    20731    20731    20749    20756    20758 
   20771    20791    20818    20848    20866    20864    20873    20915 
   20950    20953    20945    20943    20947    20952    20937    20898 
   20860    20826    20792    20784    20803    20807    20798    20808 
   20848    20892    20916    20914    20906    20919    20961    21022 
   21062    21060    21041    21038    21046    21051    21054    21053 
   21049    21055    21080    21099    21111    21162    21250    21317 
   21342    21359    21382    21390    21377    21362    21361    21363 
   21357    21351    21358    21365    21340    21284    21223    21182 
   21170    21188    21223    21262    21319    21408    21498    21544 
   21540    21519    21494    21463    21427    21406    21406    21388 
   21348    21334    21332    21304    21247    21159    21046    20943 
   20865    20812    20768    20709    20652    20636    20656    20696 
   20729    20726    20714    20730    20749    20749    20753    20757 
   20753    20764    20812    20883    20945    20984    21006    21035 
   21077    21123    21189    21267    21319    21355    21394    21409 
   21411    21412    21362    21266    21189    21145    21126    21128 
   21101    21038    20984    20931    20850    20765    20692    20610 
   20533    20470    20405    20364    20348    20316    20291    20294 
   20283    20267    20270    20293    20333    20403    20518    20664 
   20812    20957    21100    21231    21330    21409    21500    21575 
   21617    21654    21674    21672    21693    21743    21791    21821 
   21817    21791    21789    21801    21801    21791    21748    21663 
   21573    21469    21335    21188    21031    20884    20804    20783 
   20760    20700    20611    20526    20441    20343    20252    20187 
   20147    20119    20102    20117    20150    20189    20258    20344 
   20424    20497    20579    20706    20858    20980    21066    21142 
   21222    21293    21325    21331    21340    21344    21355    21398 
   21455    21496    21512    21493    21463    21444    21425    21404 
   21386    21379    21389    21392    21381    21369    21346    21312 
   21298    21324    21362    21397    21433    21455    21454    21469 
   21524    21591    21649    21674    21659    21645    21660    21667 
   21635    21575    21539    21541    21536    21478    21385    21307 
   21240    21168    21101    21060    21034    21020    21012    21000 
   21000    21010    21014    21042    21120    21196    21235    21257 
   21270    21261    21230    21189    21146    21092    21031    20991 
   20964    20930    20904    20900    20885    20841    20807    20798 
   20780    20731    20665    20598    20537    20484    20439    20393 
   20359    20358    20372    20383    20421    20495    20571    20650 
   20745    20826    20893    20981    21111    21258    21370    21438 
   21494    21554    21610    21666    21693    21699    21718    21728 
   21699    21655    21602    21537    21482    21450    21416    21366 
   21307    21253    21217    21189    21123    21031    20964    20915 
   20868    20853    20888    20950    21023    21115    21213    21293 
   21363    21443    21504    21521    21504    21467    21423    21389 
   21377    21366    21328    21261    21192    21131    21068    21014 
   20976    20943    20925    20923    20918    20908    20907    20895 
   20865    20848    20844    20829    20823    20869    20939    20989 
   21030    21093    21182    21282    21373    21450    21525    21589 
   21616    21635    21675    21710    21718    21717    21718    21716 
   21691    21655    21616    21556    21490    21443    21401    21365 
   21346    21339    21331    21309    21266    21216    21162    21101 
   21042    20980    20899    20804    20710    20638    20590    20541 
   20486    20440    20413    20386    20340    20289    20262    20243 
   20206    20151    20093    20031    19965    19916    19909    19931 
   19954    19985    20031    20096    20191    20299    20398    20482 
   20553    20630    20710    20775    20823    20849    20857    20868 
   20887    20904    20931    20957    20957    20947    20949    20953 
   20961    20996    21046    21081    21105    21141    21181    21223 
   21266    21304    21335    21382    21446    21508    21577    21649 
   21712    21762    21789    21802    21818    21828    21828    21822 
   21793    21739    21674    21585    21458    21313    21181    21061 
   20957    20876    20815    20763    20718    20687    20655    20613 
   20590    20605    20618    20618    20630    20645    20644    20646 
   20659    20663    20667    20682    20695    20702    20700    20692 
   20690    20684    20638    20560    20509    20487    20456    20416 
   20405    20448    20524    20588    20650    20731    20812    20873 
   20925    20958    20958    20925    20865    20810    20757    20684 
   20601    20513    20437    20389    20351    20326    20325    20320 
   20310    20326    20370    20430    20517    20605    20673    20733 
   20790    20848    20918    20995    21070    21132    21186    21235 
   21289    21370    21451    21490    21519    21562    21601    21645 
   21717    21797    21841    21863    21897    21929    21942    21960 
   21988    22014    22026    22017    21988    21952    21914    21872 
   21824    21759    21676    21595    21523    21463    21427    21409 
   21408    21401    21381    21381    21405    21419    21427    21454 
   21486    21505    21513    21520    21525    21521    21501    21474 
   21451    21416    21382    21355    21316    21258    21196    21139 
   21085    21037    20991    20922    20815    20691    20583    20499 
   20426    20356    20293    20217    20131    20058    20004    19965 
   19948    19954    19980    20031    20096    20170    20252    20326 
   20383    20443    20524    20621    20704    20765    20819    20891 
   20961    21012    21076    21174    21282    21370    21448    21535 
   21612    21654    21689    21733    21756    21749    21729    21706 
   21686    21645    21578    21529    21510    21479    21432    21374 
   21307    21215    21105    21008    20912    20798    20676    20541 
   20385    20224    20074    19938    19811    19693    19603    19543 
   19519    19537    19576    19611    19651    19718    19807    19905 
   20012    20131    20254    20367    20474    20584    20694    20780 
   20844    20907    20964    21006    21057    21135    21223    21309 
   21392    21459    21523    21605    21695    21772    21836    21899 
   21961    22003    22038    22080    22107    22092    22041    21979 
   21921    21844    21722    21562    21404    21263    21124    20981 
   20852    20741    20642    20557    20493    20459    20456    20461 
   20468    20514    20599    20690    20779    20875    20966    21042 
   21103    21153    21176    21178    21178    21168    21143    21111 
   21074    21050    21028    21000    20983    21003    21038    21066 
   21112    21197    21298    21390    21478    21552    21597    21632 
   21656    21668    21683    21698    21687    21663    21643    21613 
   21566    21524    21494    21446    21373    21300    21234    21176 
   21134    21124    21139    21154    21180    21258    21359    21442 
   21521    21601    21645    21670    21690    21706    21724    21737 
   21740    21747    21775    21824    21867    21895    21918    21932 
   21918    21879    21822    21753    21663    21551    21424    21289 
   21149    21022    20918    20823    20730    20637    20532    20434 
   20378    20349    20321    20299    20298    20322    20360    20399 
   20451    20515    20582    20646    20700    20726    20741    20763 
   20784    20806    20822    20822    20800    20775    20765    20792 
   20857    20931    21001    21082    21168    21246    21324    21381 
   21409    21431    21455    21469    21474    21469    21435    21369 
   21288    21197    21095    20977    20841    20695    20540    20366 
   20183    20005    19835    19666    19504    19368    19273    19226 
   19209    19197    19199    19225    19259    19296    19369    19468 
   19553    19622    19701    19786    19874    19966    20054    20136 
   20243    20375    20520    20691    20876    21051    21228    21421 
   21614    21798    21986    22176    22346    22493    22626    22739 
   22816    22851    22844    22815    22771    22704    22632    22580 
   22528    22472    22420    22365    22304    22256    22208    22154 
   22106    22052    21995    21963    21957    21959    21960    21964 
   21972    21998    22041    22073    22092    22099    22092    22084 
   22076    22053    22019    21972    21895    21814    21752    21698 
   21652    21620    21586    21564    21566    21570    21571    21573 
   21577    21589    21613    21632    21629    21598    21555    21517 
   21470    21394    21300    21199    21080    20947    20822    20703 
   20569    20430    20313    20208    20097    20000    19938    19893 
   19855    19830    19813    19811    19822    19846    19889    19951 
   20024    20105    20194    20297    20403    20503    20605    20710 
   20806    20892    20952    20979    20995    21004    21011    21027 
   21046    21060    21076    21097    21138    21211    21301    21390 
   21473    21560    21678    21822    21960    22079    22185    22268 
   22315    22331    22320    22291    22239    22165    22067    21928 
   21752    21581    21408    21232    21082    20956    20841    20748 
   20668    20599    20557    20525    20499    20482    20467    20457 
   20452    20440    20422    20407    20390    20366    20329    20275 
   20202    20109    19988    19854    19730    19599    19462    19348 
   19245    19147    19071    19022    18993    18978    18972    18993 
   19053    19153    19282    19422    19562    19691    19822    19978 
   20152    20325    20482    20619    20753    20881    20985    21065 
   21124    21154    21162    21166    21161    21141    21127    21134 
   21141    21132    21123    21122    21135    21157    21174    21197 
   21231    21277    21339    21401    21458    21519    21573    21610 
   21641    21670    21690    21689    21666    21655    21662    21662 
   21658    21643    21617    21598    21597    21600    21594    21590 
   21581    21555    21525    21496    21444    21363    21266    21176 
   21082    20992    20926    20869    20794    20714    20664    20637 
   20614    20590    20563    20538    20521    20511    20521    20542 
   20556    20568    20602    20637    20645    20644    20646    20645 
   20640    20636    20634    20644    20661    20680    20710    20746 
   20784    20831    20885    20941    21000    21060    21103    21131 
   21166    21217    21266    21297    21319    21331    21338    21365 
   21412    21451    21474    21485    21490    21493    21486    21467 
   21456    21454    21424    21367    21307    21239    21163    21093 
   21030    20966    20898    20825    20750    20669    20590    20524 
   20467    20425    20393    20358    20318    20268    20206    20160 
   20139    20116    20077    20038    20004    19985    19978    19965 
   19957    19965    19974    19981    20002    20034    20066    20110 
   20167    20233    20314    20414    20525    20641    20760    20881 
   21004    21122    21227    21319    21402    21473    21527    21570 
   21601    21614    21614    21608    21595    21579    21560    21527 
   21471    21401    21324    21247    21168    21081    21004    20939 
   20861    20773    20692    20609    20517    20430    20349    20290 
   20244    20202    20182    20185    20198    20231    20283    20349 
   20421    20507    20618    20734    20835    20922    21008    21096 
   21173    21240    21309    21390    21487    21602    21737    21891 
   22057    22214    22362    22530    22702    22848    22978    23114 
   23248    23368    23471    23546    23589    23598    23587    23557 
   23503    23426    23329    23205    23048    22858    22657    22462 
   22257    22036    21820    21617    21416    21223    21050    20896 
   20749    20598    20453    20337    20250    20170    20086    20019 
   19992    19980    19963    19966    19997    20034    20066    20106 
   20163    20225    20286    20356    20452    20559    20638    20695 
   20756    20818    20871    20923    20973    21000    20996    20977 
   20953    20919    20884    20860    20838    20796    20744    20711 
   20682    20637    20590    20552    20517    20475    20433    20409 
   20395    20390    20414    20453    20475    20493    20530    20590 
   20660    20726    20795    20869    20934    20983    21024    21068 
   21107    21138    21170    21207    21238    21267    21298    21324 
   21343    21354    21361    21373    21384    21392    21393    21388 
   21378    21367    21357    21338    21304    21266    21219    21158 
   21103    21054    20997    20914    20804    20691    20588    20494 
   20403    20320    20254    20190    20131    20097    20079    20051 
   20031    20028    20029    20047    20075    20096    20104    20115 
   20140    20175    20217    20266    20317    20375    20448    20528 
   20610    20700    20783    20845    20907    20984    21073    21170 
   21259    21339    21417    21498    21575    21632    21672    21712 
   21735    21724    21702    21681    21643    21587    21531    21475 
   21416    21348    21265    21180    21107    21031    20957    20902 
   20871    20845    20803    20767    20742    20715    20694    20686 
   20677    20668    20663    20661    20663    20659    20655    20660 
   20672    20691    20718    20744    20772    20804    20833    20858 
   20884    20911    20943    20974    20996    21022    21050    21074 
   21103    21138    21174    21212    21236    21257    21303    21355 
   21388    21415    21446    21467    21471    21477    21492    21501 
   21496    21477    21451    21424    21398    21363    21316    21255 
   21182    21104    21031    20962    20881    20792    20715    20645 
   20580    20532    20503    20484    20459    20424    20399    20402 
   20412    20422    20437    20452    20471    20502    20537    20575 
   20609    20626    20633    20653    20676    20690    20713    20749 
   20779    20807    20850    20899    20939    20966    20992    21022 
   21054    21089    21126    21159    21176    21178    21189    21197 
   21195    21190    21178    21159    21132    21092    21050    21020 
   20988    20949    20903    20853    20800    20745    20686    20633 
   20591    20552    20517    20491    20478    20466    20460    20472 
   20482    20479    20484    20503    20524    20542    20561    20587 
   20623    20665    20713    20777    20865    20969    21077    21177 
   21286    21404    21505    21597    21686    21760    21826    21891 
   21951    21995    22037    22073    22098    22117    22135    22138 
   22129    22125    22126    22121    22098    22069    22038    21994 
   21944    21899    21860    21813    21751    21699    21664    21624 
   21579    21539    21500    21467    21444    21420    21390    21361 
   21320    21267    21238    21226    21213    21211    21212    21204 
   21192    21176    21162    21158    21151    21131    21096    21058 
   21028    21000    20968    20939    20907    20871    20838    20822 
   20821    20825    20823    20819    20814    20810    20811    20825 
   20846    20860    20865    20887    20926    20965    20995    21024 
   21061    21109    21159    21200    21230    21253    21270    21292 
   21320    21340    21343    21351    21369    21378    21379    21379 
   21367    21340    21305    21280    21262    21230    21190    21166 
   21151    21132    21111    21091    21069    21045    21018    20989 
   20947    20891    20830    20768    20700    20633    20568    20494 
   20421    20367    20318    20268    20227    20189    20146    20110 
   20081    20051    20027    20013    19989    19961    19943    19932 
   19932    19947    19973    20011    20054    20090    20140    20214 
   20297    20375    20445    20509    20571    20629    20682    20726 
   20771    20818    20872    20923    20962    21004    21049    21085 
   21118    21158    21219    21286    21351    21417    21482    21550 
   21618    21690    21771    21851    21925    22003    22073    22137 
   22195    22242    22281    22324    22372    22414    22446    22474 
   22495    22512    22530    22550    22576    22603    22631    22667 
   22705    22736    22759    22783    22805    22825    22843    22859 
   22870    22867    22850    22842    22831    22801    22770    22731 
   22675    22609    22530    22441    22349    22239    22122    22009 
   21892    21762    21633    21520    21411    21296    21186    21085 
   20985    20880    20769    20655    20534    20409    20290    20185 
   20077    19967    19869    19766    19658    19564    19484    19421 
   19375    19338    19307    19290    19287    19292    19310    19344 
   19384    19426    19467    19512    19568    19624    19676    19738 
   19801    19851    19900    19955    20005    20048    20088    20116 
   20140    20166    20185    20200    20208    20206    20208    20206 
   20191    20175    20160    20139    20115    20098    20094    20096 
   20096    20092    20104    20137    20173    20220    20279    20340 
   20398    20456    20517    20586    20656    20727    20796    20857 
   20918    20979    21043    21114    21169    21209    21249    21277 
   21293    21308    21320    21324    21327    21321    21308    21293 
   21271    21247    21234    21232    21232    21228    21224    21224 
   21220    21220    21235    21254    21263    21266    21271    21285 
