Origin Time       2025/01/13 21:19:00
Lat.              31.8
Long.             131.6
Depth. (km)       30
Mag.              6.9
Station Code      KOCH01
Station Lat.      33.5421
Station Long.     134.1197
Station Height(m) 235
Record Time       2025/01/13 21:20:40
Sampling Freq(Hz) 100Hz
Duration Time(s)  120
Dir.              4
Scale Factor      7845(gal)/8223790
Max. Acc. (gal)   0.668
Last Correction   2025/01/13 21:20:41
Memo.             
[...]
   -3060    -3046    -3072    -3121    -3150    -3144    -3126    -3125 
   -3127    -3123    -3136    -3163    -3168    -3141    -3115    -3099 
   -3082    -3084    -3111    -3114    -3088    -3094    -3114    -3100 
   -3078    -3094    -3130    -3134    -3117    -3121    -3142    -3160 
   -3184    -3221    -3240    -3206    -3159    -3177    -3250    -3299 
   -3300    -3284    -3280    -3304    -3331    -3330    -3298    -3240 
   -3199    -3215    -3250    -3254    -3226    -3213    -3227    -3227 
   -3192    -3163    -3168    -3198    -3229    -3225    -3188    -3157 
   -3164    -3200    -3229    -3226    -3206    -3181    -3168    -3156 
   -3119    -3076    -3072    -3082    -3049    -2994    -2967    -2984 
   -3048    -3121    -3142    -3115    -3109    -3134    -3156    -3157 
   -3164    -3177    -3173    -3167    -3188    -3221    -3249    -3291 
   -3335    -3329    -3267    -3208    -3192    -3196    -3210    -3226 
   -3230    -3235    -3269    -3303    -3291    -3234    -3200    -3227 
   -3271    -3288    -3299    -3300    -3281    -3272    -3279    -3273 
   -3241    -3199    -3167    -3142    -3115    -3103    -3110    -3106 
   -3095    -3110    -3138    -3153    -3171    -3191    -3175    -3144 
   -3159    -3194    -3184    -3134    -3107    -3137    -3187    -3204 
   -3173    -3125    -3129    -3192    -3237    -3215    -3160    -3121 
   -3115    -3119    -3098    -3053    -3015    -3022    -3082    -3144 
   -3171    -3196    -3234    -3260    -3257    -3229    -3196    -3192 
   -3211    -3233    -3242    -3215    -3161    -3150    -3218    -3303 
   -3326    -3285    -3240    -3226    -3223    -3207    -3196    -3190 
   -3183    -3181    -3177    -3164    -3154    -3152    -3156    -3157 
   -3137    -3096    -3079    -3107    -3150    -3173    -3184    -3204 
   -3237    -3281    -3318    -3312    -3279    -3242    -3181    -3094 
   -3051    -3088    -3142    -3160    -3154    -3154    -3176    -3219 
   -3250    -3226    -3177    -3171    -3179    -3134    -3083    -3119 
   -3210    -3260    -3264    -3268    -3283    -3275    -3237    -3208 
   -3219    -3261    -3280    -3233    -3153    -3109    -3106    -3121 
   -3149    -3159    -3133    -3126    -3160    -3192    -3191    -3173 
   -3168    -3164    -3142    -3122    -3115    -3106    -3141    -3238 
   -3311    -3302    -3265    -3273    -3314    -3330    -3312    -3285 
   -3267    -3273    -3295    -3325    -3364    -3375    -3338    -3307 
   -3321    -3348    -3331    -3275    -3238    -3229    -3210    -3173 
   -3136    -3115    -3098    -3071    -3048    -3055    -3099    -3171 
   -3245    -3289    -3295    -3277    -3254    -3221    -3191    -3168 
   -3129    -3088    -3100    -3159    -3187    -3154    -3114    -3117 
   -3132    -3100    -3056    -3078    -3150    -3188    -3172    -3169 
   -3207    -3235    -3235    -3202    -3136    -3090    -3115    -3177 
   -3200    -3172    -3136    -3126    -3130    -3123    -3106    -3095 
   -3106    -3122    -3114    -3099    -3117    -3164    -3195    -3198 
   -3215    -3257    -3277    -3267    -3264    -3272    -3268    -3253 
   -3229    -3183    -3136    -3127    -3148    -3148    -3115    -3102 
   -3137    -3165    -3144    -3118    -3141    -3186    -3202    -3175 
   -3134    -3115    -3133    -3163    -3164    -3126    -3088    -3098 
   -3160    -3222    -3230    -3204    -3208    -3250    -3272    -3234 
   -3176    -3152    -3156    -3156    -3141    -3126    -3133    -3159 
   -3186    -3226    -3295    -3353    -3365    -3356    -3346    -3333 
   -3311    -3287    -3280    -3279    -3258    -3237    -3230    -3234 
   -3237    -3230    -3225    -3229    -3226    -3188    -3122    -3071 
   -3073    -3117    -3136    -3127    -3138    -3154    -3141    -3110 
   -3090    -3105    -3137    -3138    -3123    -3146    -3175    -3163 
   -3138    -3142    -3165    -3179    -3175    -3169    -3177    -3194 
   -3199    -3181    -3146    -3107    -3075    -3063    -3061    -3048 
   -3040    -3056    -3076    -3092    -3109    -3105    -3092    -3100 
   -3126    -3140    -3137    -3148    -3172    -3184    -3183    -3149 
   -3094    -3088    -3140    -3165    -3133    -3099    -3117    -3156 
   -3183    -3215    -3225    -3181    -3157    -3191    -3207    -3152 
   -3098    -3119    -3173    -3171    -3117    -3082    -3091    -3137 
   -3191    -3198    -3148    -3119    -3153    -3210    -3221    -3171 
   -3114    -3084    -3071    -3064    -3065    -3080    -3111    -3149 
   -3177    -3191    -3190    -3200    -3240    -3254    -3214    -3160 
   -3130    -3105    -3076    -3071    -3082    -3065    -3019    -2991 
   -3006    -3033    -3025    -2999    -3018    -3067    -3090    -3102 
   -3121    -3117    -3102    -3126    -3164    -3142    -3079    -3045 
   -3026    -3001    -3029    -3111    -3149    -3127    -3127    -3169 
   -3199    -3204    -3227    -3276    -3314    -3323    -3316    -3314 
   -3318    -3326    -3326    -3303    -3276    -3267    -3252    -3211 
   -3191    -3200    -3184    -3148    -3141    -3145    -3145    -3171 
   -3215    -3245    -3234    -3207    -3207    -3213    -3188    -3154 
   -3114    -3064    -3053    -3086    -3129    -3173    -3229    -3300 
   -3362    -3360    -3304    -3294    -3354    -3399    -3362    -3299 
   -3281    -3275    -3225    -3172    -3159    -3145    -3125    -3138 
   -3156    -3129    -3109    -3137    -3159    -3153    -3160    -3180 
   -3199    -3223    -3265    -3295    -3284    -3253    -3229    -3221 
   -3234    -3256    -3264    -3248    -3211    -3187    -3187    -3180 
   -3145    -3111    -3106    -3109    -3094    -3096    -3141    -3181 
   -3199    -3225    -3253    -3268    -3260    -3226    -3195    -3191 
   -3199    -3204    -3204    -3214    -3253    -3277    -3238    -3180 
   -3154    -3144    -3126    -3102    -3094    -3110    -3129    -3137 
   -3134    -3136    -3146    -3137    -3080    -3005    -2967    -2995 
   -3044    -3059    -3057    -3079    -3102    -3095    -3091    -3106 
   -3107    -3105    -3133    -3171    -3177    -3164    -3181    -3226 
   -3249    -3261    -3292    -3316    -3314    -3316    -3350    -3389 
   -3395    -3391    -3406    -3423    -3410    -3364    -3318    -3302 
   -3299    -3283    -3257    -3221    -3172    -3153    -3180    -3203 
   -3176    -3133    -3132    -3153    -3136    -3088    -3078    -3121 
   -3195    -3273    -3303    -3254    -3184    -3181    -3260    -3310 
   -3244    -3129    -3086    -3129    -3172    -3156    -3114    -3122 
   -3183    -3218    -3167    -3078    -3040    -3078    -3154    -3214 
   -3230    -3241    -3298    -3381    -3426    -3424    -3420    -3434 
   -3435    -3383    -3289    -3213    -3183    -3163    -3110    -3048 
   -3034    -3067    -3094    -3113    -3149    -3191    -3225    -3257 
   -3261    -3230    -3219    -3260    -3314    -3339    -3323    -3277 
   -3218    -3149    -3072    -3005    -2979    -3014    -3078    -3117 
   -3134    -3172    -3223    -3234    -3194    -3153    -3145    -3160 
   -3180    -3204    -3226    -3244    -3260    -3242    -3171    -3090 
   -3063    -3071    -3059    -3030    -3036    -3083    -3141    -3186 
   -3188    -3159    -3152    -3188    -3229    -3229    -3195    -3195 
   -3257    -3304    -3303    -3279    -3223    -3134    -3067    -3060 
   -3084    -3096    -3110    -3138    -3138    -3154    -3249    -3333 
   -3325    -3273    -3230    -3202    -3172    -3152    -3188    -3273 
   -3329    -3318    -3272    -3221    -3183    -3177    -3219    -3287 
   -3329    -3337    -3350    -3368    -3349    -3289    -3248    -3252 
   -3250    -3217    -3183    -3146    -3105    -3109    -3171    -3227 
   -3235    -3225    -3219    -3172    -3086    -3022    -2987    -2961 
   -2979    -3055    -3134    -3161    -3172    -3218    -3283    -3350 
   -3427    -3470    -3431    -3373    -3361    -3322    -3187    -3033 
   -2945    -2911    -2918    -3011    -3204    -3393    -3468    -3441 
   -3379    -3311    -3240    -3168    -3096    -3009    -2945    -2965 
   -3069    -3213    -3346    -3400    -3343    -3231    -3149    -3132 
   -3157    -3188    -3204    -3194    -3161    -3146    -3160    -3164 
   -3152    -3164    -3211    -3244    -3225    -3159    -3053    -2961 
   -2955    -3034    -3123    -3188    -3277    -3387    -3427    -3380 
   -3342    -3357    -3368    -3316    -3214    -3110    -3051    -3052 
   -3103    -3164    -3208    -3276    -3391    -3476    -3461    -3365 
   -3250    -3145    -3049    -2984    -2967    -2991    -3059    -3149 
   -3223    -3260    -3237    -3175    -3118    -3086    -3080    -3099 
   -3127    -3175    -3257    -3346    -3424    -3495    -3511    -3438 
   -3315    -3204    -3138    -3117    -3136    -3176    -3215    -3238 
   -3230    -3207    -3192    -3160    -3086    -3036    -3061    -3122 
   -3175    -3227    -3262    -3241    -3176    -3113    -3060    -3040 
   -3068    -3117    -3171    -3219    -3249    -3295    -3369    -3381 
   -3276    -3125    -3010    -2948    -2932    -2957    -3013    -3073 
   -3127    -3175    -3207    -3248    -3326    -3381    -3335    -3199 
   -3037    -2911    -2863    -2887    -2932    -2944    -2964    -3071 
   -3242    -3414    -3550    -3568    -3434    -3248    -3122    -3100 
   -3163    -3244    -3299    -3327    -3331    -3296    -3217    -3157 
   -3186    -3260    -3300    -3294    -3262    -3246    -3269    -3330 
   -3395    -3384    -3253    -3078    -2953    -2889    -2884    -2965 
   -3107    -3221    -3244    -3203    -3142    -3071    -3048    -3126 
   -3221    -3226    -3153    -3092    -3095    -3138    -3196    -3246 
   -3248    -3219    -3204    -3190    -3175    -3165    -3121    -3011 
   -2887    -2830    -2843    -2857    -2879    -2953    -3083    -3221 
   -3331    -3370    -3314    -3227    -3199    -3241    -3325    -3406 
   -3426    -3383    -3315    -3280    -3307    -3356    -3395    -3445 
   -3454    -3362    -3234    -3146    -3091    -3040    -3011    -3028 
   -3038    -2992    -2956    -3009    -3130    -3254    -3349    -3402 
   -3408    -3366    -3304    -3250    -3211    -3208    -3264    -3341 
   -3402    -3435    -3416    -3337    -3234    -3144    -3083    -3038 
   -2976    -2905    -2883    -2947    -3071    -3200    -3300    -3338 
   -3302    -3233    -3188    -3172    -3136    -3084    -3083    -3127 
   -3171    -3222    -3257    -3208    -3045    -2836    -2700    -2691 
   -2768    -2890    -3052    -3235    -3419    -3566    -3653    -3669 
   -3592    -3420    -3222    -3083    -3067    -3152    -3230    -3245 
   -3241    -3248    -3258    -3292    -3354    -3375    -3280    -3118 
   -2994    -2968    -3042    -3161    -3249    -3260    -3186    -3094 
   -3065    -3098    -3141    -3169    -3159    -3121    -3106    -3111 
   -3118    -3134    -3138    -3102    -3064    -3080    -3154    -3240 
   -3311    -3354    -3356    -3354    -3370    -3322    -3188    -3075 
   -3032    -2995    -2910    -2832    -2843    -2905    -2945    -2978 
   -3061    -3219    -3402    -3528    -3592    -3616    -3619    -3639 
   -3653    -3581    -3418    -3248    -3145    -3105    -3082    -3064 
   -3034    -2964    -2874    -2828    -2891    -3046    -3188    -3227 
   -3167    -3078    -3041    -3087    -3163    -3221    -3254    -3260 
   -3233    -3237    -3327    -3450    -3510    -3470    -3343    -3156 
   -2971    -2847    -2768    -2712    -2712    -2809    -2960    -3095 
   -3190    -3227    -3215    -3223    -3312    -3457    -3572    -3607 
   -3572    -3485    -3354    -3223    -3148    -3114    -3051    -2957 
   -2911    -2944    -3024    -3144    -3275    -3348    -3326    -3229 
   -3087    -2945    -2863    -2847    -2855    -2863    -2913    -3057 
   -3257    -3381    -3385    -3331    -3273    -3215    -3165    -3148 
   -3188    -3280    -3354    -3315    -3150    -2974    -2917    -2959 
   -2999    -3028    -3064    -3115    -3238    -3426    -3553    -3572 
   -3557    -3483    -3264    -3009    -2901    -2936    -3006    -3076 
   -3132    -3127    -3092    -3110    -3181    -3234    -3230    -3210 
   -3217    -3223    -3223    -3250    -3276    -3241    -3173    -3118 
   -3084    -3102    -3172    -3249    -3308    -3354    -3385    -3414 
   -3404    -3294    -3163    -3172    -3312    -3439    -3472    -3414 
   -3302    -3148    -2978    -2867    -2859    -2911    -3001    -3111 
   -3195    -3203    -3134    -3051    -3019    -3002    -2952    -2921 
   -2967    -3065    -3163    -3242    -3345    -3485    -3597    -3591 
   -3470    -3329    -3235    -3227    -3315    -3439    -3501    -3466 
   -3369    -3267    -3179    -3076    -2976    -2953    -3033    -3176 
   -3370    -3600    -3765    -3751    -3573    -3372    -3256    -3202 
   -3168    -3153    -3164    -3169    -3165    -3180    -3200    -3150 
   -3025    -2948    -3003    -3134    -3267    -3385    -3446    -3410 
   -3302    -3153    -2968    -2840    -2884    -3056    -3240    -3415 
   -3581    -3685    -3689    -3616    -3483    -3268    -2994    -2756 
   -2639    -2675    -2863    -3132    -3375    -3514    -3535    -3501 
   -3457    -3384    -3281    -3184    -3098    -3007    -2930    -2914 
   -2976    -3086    -3215    -3361    -3492    -3561    -3549    -3445 
   -3272    -3103    -2991    -2964    -3080    -3319    -3532    -3604 
   -3564    -3507    -3495    -3485    -3419    -3312    -3199    -3099 
   -3061    -3099    -3157    -3191    -3157    -3022    -2833    -2664 
   -2539    -2486    -2560    -2755    -2976    -3138    -3257    -3408 
   -3580    -3667    -3605    -3420    -3188    -3003    -2928    -2934 
   -2992    -3091    -3157    -3148    -3123    -3144    -3164    -3137 
   -3086    -3046    -3011    -2949    -2880    -2868    -2925    -2999 
   -3033    -3033    -3051    -3088    -3126    -3157    -3187    -3235 
   -3323    -3384    -3342    -3237    -3138    -3088    -3137    -3288 
   -3430    -3445    -3353    -3233    -3098    -2959    -2876    -2866 
   -2898    -2938    -2952    -2945    -3005    -3173    -3361    -3478 
   -3522    -3476    -3322    -3127    -2992    -2945    -2992    -3127 
   -3322    -3528    -3685    -3736    -3676    -3550    -3377    -3134 
   -2871    -2697    -2654    -2728    -2878    -3051    -3203    -3310 
   -3357    -3341    -3271    -3184    -3137    -3146    -3157    -3132 
   -3110    -3106    -3072    -3026    -3009    -2994    -2959    -2936 
   -2975    -3068    -3177    -3296    -3397    -3433    -3412    -3364 
   -3262    -3087    -2882    -2754    -2771    -2890    -3032    -3142 
   -3187    -3187    -3190    -3169    -3088    -3010    -3011    -3075 
   -3133    -3121    -3057    -3036    -3119    -3295    -3491    -3620 
   -3642    -3573    -3433    -3260    -3122    -3041    -3006    -3021 
   -3056    -3056    -3024    -3021    -3083    -3179    -3249    -3285 
   -3343    -3439    -3538    -3591    -3581    -3523    -3441    -3339 
   -3223    -3102    -2991    -2911    -2899    -2963    -3076    -3217 
   -3354    -3446    -3466    -3441    -3429    -3457    -3487    -3434 
   -3267    -3051    -2879    -2813    -2859    -2992    -3164    -3281 
   -3306    -3299    -3322    -3362    -3387    -3361    -3262    -3103 
   -2961    -2880    -2816    -2724    -2695    -2830    -3064    -3238 
   -3299    -3289    -3248    -3199    -3168    -3160    -3176    -3250 
   -3379    -3477    -3485    -3431    -3368    -3327    -3316    -3327 
   -3316    -3253    -3190    -3200    -3279    -3373    -3438    -3431 
   -3343    -3225    -3126    -3055    -3018    -3032    -3111    -3253 
   -3389    -3443    -3435    -3420    -3399    -3349    -3288    -3253 
   -3246    -3229    -3180    -3130    -3122    -3144    -3163    -3163 
   -3152    -3144    -3153    -3181    -3195    -3165    -3096    -3040 
   -3041    -3067    -3069    -3083    -3142    -3223    -3312    -3396 
   -3429    -3404    -3385    -3392    -3383    -3311    -3196    -3075 
   -2984    -2965    -2998    -3014    -3006    -2999    -3021    -3088 
   -3183    -3280    -3358    -3385    -3353    -3302    -3258    -3191 
   -3095    -3015    -2967    -2953    -3006    -3106    -3195    -3276 
   -3385    -3497    -3551    -3537    -3481    -3388    -3249    -3115 
   -3041    -3025    -3067    -3165    -3253    -3260    -3198    -3163 
   -3191    -3211    -3200    -3211    -3256    -3299    -3331    -3364 
   -3395    -3423    -3424    -3349    -3203    -3069    -2997    -2980 
   -3011    -3052    -3061    -3067    -3096    -3141    -3198    -3249 
   -3253    -3218    -3199    -3208    -3229    -3252    -3265    -3233 
   -3137    -3036    -3005    -3055    -3125    -3184    -3265    -3379 
   -3473    -3522    -3523    -3457    -3310    -3126    -2960    -2847 
   -2830    -2933    -3091    -3202    -3245    -3269    -3292    -3311 
   -3327    -3333    -3325    -3307    -3285    -3269    -3262    -3250 
   -3231    -3207    -3148    -3042    -2957    -2940    -2990    -3090 
   -3198    -3272    -3300    -3283    -3262    -3275    -3307    -3329 
   -3333    -3337    -3349    -3341    -3311    -3294    -3291    -3276 
   -3245    -3183    -3090    -3038    -3061    -3082    -3053    -3005 
   -2967    -2971    -3065    -3222    -3343    -3400    -3451    -3504 
   -3508    -3468    -3416    -3353    -3268    -3175    -3102    -3067 
   -3072    -3111    -3161    -3190    -3180    -3145    -3113    -3095 
   -3087    -3090    -3078    -3026    -2953    -2891    -2874    -2925 
   -3030    -3138    -3221    -3272    -3285    -3265    -3223    -3175 
   -3095    -2974    -2878    -2856    -2887    -2951    -3034    -3119 
   -3188    -3222    -3214    -3180    -3136    -3094    -3086    -3130 
   -3200    -3248    -3253    -3223    -3173    -3134    -3117    -3100 
   -3079    -3080    -3130    -3222    -3289    -3298    -3280    -3271 
   -3284    -3316    -3326    -3275    -3187    -3132    -3149    -3198 
   -3226    -3229    -3231    -3250    -3281    -3311    -3335    -3345 
   -3316    -3268    -3221    -3168    -3109    -3075    -3086    -3099 
   -3094    -3087    -3083    -3082    -3107    -3144    -3154    -3129 
   -3100    -3094    -3095    -3102    -3159    -3253    -3308    -3306 
   -3292    -3303    -3341    -3383    -3391    -3362    -3307    -3244 
   -3215    -3234    -3277    -3325    -3369    -3399    -3385    -3334 
   -3292    -3267    -3223    -3154    -3080    -3048    -3102    -3219 
   -3330    -3381    -3364    -3323    -3295    -3264    -3211    -3148 
   -3099    -3086    -3106    -3144    -3200    -3277    -3357    -3419 
   -3447    -3419    -3349    -3288    -3268    -3261    -3235    -3204 
   -3184    -3146    -3065    -2975    -2940    -2971    -3034    -3113 
   -3194    -3244    -3256    -3269    -3291    -3283    -3230    -3153 
   -3084    -3049    -3053    -3091    -3126    -3122    -3095    -3076 
   -3078    -3099    -3132    -3164    -3175    -3153    -3115    -3086 
   -3060    -3028    -2986    -2965    -3002    -3072    -3136    -3194 
   -3245    -3271    -3265    -3246    -3238    -3235    -3227    -3245 
   -3299    -3323    -3280    -3219    -3173    -3123    -3071    -3038 
   -3033    -3042    -3076    -3149    -3215    -3223    -3213    -3230 
   -3250    -3240    -3202    -3175    -3183    -3206    -3207    -3175 
   -3107    -3034    -3006    -3024    -3059    -3107    -3180    -3295 
