Origin Time       2025/01/13 21:19:00
Lat.              31.8
Long.             131.6
Depth. (km)       30
Mag.              6.9
Station Code      KOCH08
Station Lat.      32.7797
Station Long.     132.9718
Station Height(m) 5
Record Time       2025/01/13 21:20:03
Sampling Freq(Hz) 100Hz
Duration Time(s)  179
Dir.              4
Scale Factor      7845(gal)/8223790
Max. Acc. (gal)   4.582
Last Correction   2025/01/13 21:20:04
Memo.             
[...]
    8236     8136     7894     7623     7493     7645     8027     8496 
    8937     9216     9130     8565     7720     6952     6573     6781 
    7464     8136     8328     8012     7573     7425     7757     8487 
    9288     9738     9547     8773     7889     7468     7724     8280 
    8602     8579     8434     8353     8391     8530     8772     9016 
    8968     8488     7785     7169     6982     7441     8341     9202 
    9612     9389     8618     7620     6832     6575     6794     7164 
    7477     7705     7819     7796     7704     7668     7676     7519 
    7115     6728     6693     7064     7555     7767     7620     7395 
    7346     7466     7654     7854     8005     7950     7615     7179 
    6922     7084     7727     8525     8986     8892     8371     7734 
    7307     7273     7553     7915     8156     8170     7921     7479 
    7060     6974     7360     7973     8320     8159     7711     7310 
    7060     6813     6431     6112     6207     6621     6917     6984 
    7095     7369     7608     7589     7379     7296     7596     8205 
    8806     9039     8710     7990     7331     7057     7133     7399 
    7757     8024     7974     7670     7533     7927     8727     9333 
    9248     8590     7871     7510     7636     8067     8418     8436 
    8164     7774     7388     7048     6786     6666     6804     7295 
    8016     8653     8897     8533     7622     6640     6207     6621 
    7603     8472     8577     7732     6480     5825     6346     7697 
    9070     9836     9761     8950     7789     6875     6691     7225 
    7948     8352     8268     7697     6882     6458     6926     8139 
    9389     9902     9390     8262     7342     7245     7893     8783 
    9493     9787     9598     8964     8089     7442     7310     7491 
    7676     7771     7846     7998     8289     8660     8930     9035 
    9089     9070     8826     8392     7962     7607     7271     6975 
    6875     6988     7129     7227     7491     8104     8919     9522 
    9518     8842     7862     7015     6473     6381     6867     7665 
    8279     8418     8109     7658     7449     7677     8226     8791 
    9217     9471     9402     8919     8151     7391     7005     7211 
    7898     8714     9205     9015     8110     6894     5994     5805 
    6318     7315     8399     9085     9108     8610     8082     7992 
    8320     8621     8496     7982     7385     6866     6463     6308 
    6448     6640     6670     6752     7207     7938     8534     8660 
    8232     7376     6430     6062     6833     8421     9778    10099 
    9427     8403     7701     7757     8606     9674    10104     9433 
    7884     6204     5221     5317     6241     7291     7794     7708 
    7636     8152     9234    10305    10716    10176     8978     7839 
    7411     7812     8587     9131     9130     8598     7881     7599 
    8081     8876     9101     8349     7198     6583     6831     7545 
    8148     8316     8094     7790     7753     8041     8357     8438 
    8347     8235     8135     8079     8137     8236     8156     7726 
    7048     6593     6841     7690     8471     8553     7898     7099 
    6858     7365     8271     9035     9200     8622     7653     6998 
    7182     8093     9090     9435     8831     7744     7030     7177 
    7904     8424     8125     7107     6149     6080     7068     8526 
    9741    10374    10346     9736     8919     8364     8183     8074 
    7639     6729     5638     4974     5169     6184     7612     8796 
    9166     8831     8402     8293     8594     9232    10000    10574 
   10562     9697     8191     6837     6434     7060     8125     8993 
    9398     9381     9089     8688     8336     8050     7723     7407 
    7348     7669     8222     8684     8807     8617     8318     8097 
    8071     8257     8586     8924     9127     9111     8907     8606 
    8284     8024     7824     7452     6705     5913     5752     6561 
    8010     9309     9794     9444     8719     8081     7804     7911 
    8193     8303     7925     7109     6454     6658     7767     9019 
    9498     8914     7695     6605     6223     6536     7068     7331 
    7192     6893     6664     6566     6694     7130     7654     7875 
    7704     7461     7450     7673     7943     8094     8152     8325 
    8657     8939     8884     8372     7711     7395     7543     7886 
    8110     8091     7886     7615     7344     7096     6984     7082 
    7196     7180     7150     7129     6982     6728     6585     6840 
    7663     8861     9887    10233     9782     8892     8212     8199 
    8662     8989     8870     8452     7946     7523     7361     7458 
    7526     7311     6916     6662     6702     6934     7142     7126 
    6936     6993     7612     8526     9121     8949     8031     6971 
    6563     7074     8033     8733     8739     8155     7607     7705 
    8320     8641     8094     6926     5989     6147     7608     9659 
   11074    10895     9200     7206     6307     6886     8113     8895 
    8773     7901     6724     5940     6129     7219     8521     9215 
    8912     7886     6814     6326     6596     7295     7979     8415 
    8525     8214     7504     6806     6712     7392     8461     9387 
    9903    10041     9931     9694     9383     8993     8595     8317 
    8208     8133     7739     6781     5676     5190     5568     6475 
    7510     8316     8621     8384     7793     7173     6806     6725 
    6718     6635     6679     7080     7681     8228     8680     9088 
    9421     9472     8999     8008     6833     5985     5848     6489 
    7703     8977     9628     9290     8203     7146     6966     7881 
    9359    10505    10670     9991     9247     9135     9767    10611 
   10933    10389     9104     7429     5852     4978     5212     6381 
    7798     8770     9070     8934     8610     8145     7674     7538 
    7973     8761     9320     9228     8526     7582     6957     7079 
    7875     8846     9328     8779     7256     5501     4372     4307 
    5178     6465     7700     8680     9286     9429     9261     9159 
    9306     9532     9522     9051     8249     7603     7474     7842 
    8464     9073     9425     9309     8653     7659     6756     6404 
    6731     7379     7881     8019     7848     7680     7789     8133 
    8523     8935     9421     9846     9853     9197     8100     7086 
    6501     6295     6222     6170     6201     6318     6442     6552 
    6640     6647     6500     6185     5867     5865     6378     7299 
    8330     9192     9694     9809     9751     9761     9753     9398 
    8594     7632     6925     6743     7099     7751     8357     8658 
    8631     8525     8604     8869     9088     9012     8594     8060 
    7763     7919     8502     9234     9621     9352     8654     8110 
    8098     8429     8679     8696     8525     8206     7801     7457 
    7338     7399     7469     7546     7639     7674     7708     7801 
    7794     7439     6747     6087     5733     5603     5630     5830 
    6070     6235     6413     6706     7102     7508     7765     7798 
    7788     7915     8087     8124     7981     7653     7096     6471 
    6201     6571     7403     8236     8773     9038     9193     9337 
    9459     9427     9117     8583     8039     7735     7855     8410 
    9221    10069    10800    11242    11229    10822    10265     9688 
    9008     8131     7183     6428     6072     6146     6411     6569 
    6565     6471     6399     6535     7041     7878     8695     8915 
    8318     7458     7101     7416     7979     8284     8109     7555 
    6980     6791     7165     7901     8537     8692     8368     7944 
    7865     8225     8646     8634     8020     7187     6822     7319 
    8405     9381     9721     9393     8681     7979     7646     7767 
    8068     8114     7573     6501     5448     5084     5676     6928 
    8182     8942     9274     9593    10119    10613    10606     9915 
    8791     7689     7029     6990     7442     8046     8468     8704 
    8966     9215     9186     8776     8122     7568     7520     8074 
    8900     9570     9830     9668     9174     8417     7530     6797 
    6478     6579     6906     7344     7897     8449     8756     8641 
    8062     7213     6531     6403     6785     7279     7561     7569 
    7423     7373     7684     8434     9404    10135    10227     9655 
    8858     8348     8182     8031     7589     6763     5672     4661 
    4282     5017     6744     8607     9663     9680     9229     8922 
    8803     8560     8008     7288     6660     6250     6178     6540 
    7152     7661     7835     7669     7388     7256     7295     7352 
    7333     7298     7375     7670     8217     8862     9273     9234 
    8772     8077     7528     7508     8013     8673     9119     9281 
    9212     8819     8098     7352     6922     6851     6945     7041 
    7015     6786     6561     6693     7207     7825     8340     8698 
    8850     8644     7996     7125     6494     6521     7204     8051 
    8537     8533     8275     8082     8089     8290     8706     9351 
   10103    10643    10597     9846     8635     7422     6588     6323 
    6583     6983     6967     6330     5460     5096     5763     7327 
    9042    10053    10029     9270     8307     7653     7593     7938 
    8280     8406     8333     8299     8569     9105     9639     9879 
    9633     8947     8183     7697     7485     7308     7053     6783 
    6674     6936     7609     8403     8833     8606     7862     7067 
    6629     6594     6727     6816     6813     6795     6858     7048 
    7372     7744     7992     8013     7923     7912     7948     7794 
    7346     6756     6284     6166     6444     6941     7442     7866 
    8259     8618     8823     8791     8613     8542     8811     9421 
   10114    10540    10480     9976     9355     9072     9391    10130 
   10754    10817    10280     9439     8583     7811     7195     6847 
    6799     7022     7485     7994     8181     7943     7649     7689 
    8121     8698     9022     8772     7960     6949     6173     5933 
    6270     6844     7159     7063     6804     6693     6895     7403 
    8108     8829     9302     9301     8864     8317     7998     7946 
    7871     7537     6999     6443     6057     5996     6276     6737 
    7123     7192     6909     6509     6407     6878     7781     8649 
    9026     8758     8198     7865     7909     8097     8102     7789 
    7333     7041     7119     7507     7844     7680     6809     5564 
    4729     4878     5863     7037     7766     7776     7314     6960 
    7198     8035     8968     9393     9055     8147     7202     6847 
    7400     8554     9553     9829     9448     8912     8712     9072 
    9876    10808    11543    11858    11689    11144    10426     9788 
    9452     9482     9686     9730     9482     9104     8773     8569 
    8515     8546     8587     8631     8688     8727     8688     8495 
    8071     7419     6663     6025     5854     6407     7423     8248 
    8419     7975     7334     6966     7072     7481     7786     7738 
    7474     7357     7659     8329     8953     9085     8607     7757 
    6964     6597     6759     7196     7443     7272     6987     7176 
    8032     9090     9714     9620     8980     8163     7492     7192 
    7356     7777     8008     7793     7356     7064     7007     7105 
    7331     7680     8062     8376     8599     8749     8800     8726 
    8541     8287     8074     8104     8418     8754     8851     8707 
    8482     8364     8390     8376     8212     8044     8036     8082 
    7943     7543     6974     6388     5964     5869     6184     6860 
    7668     8303     8575     8484     8164     7821     7628     7611 
    7699     7832     8021     8352     8843     9285     9364     8997 
    8395     7857     7595     7643     7830     7909     7758     7470 
    7368     7746     8469     8986     8811     8000     7114     6716 
    6974     7639     8289     8576     8473     8305     8425     8833 
    9198     9217     8880     8440     8212     8357     8660     8640 
    8079     7202     6396     6069     6448     7256     7863     7819 
    7126     6191     5566     5579     6112     6855     7574     8052 
    8059     7539     6718     5994     5638     5707     6096     6535 
    6739     6651     6467     6474     6845     7527     8287     8810 
    8833     8355     7703     7226     7042     7065     7168     7360 
    7767     8459     9317    10023    10269    10014     9466     8838 
    8198     7574     7071     6816     6907     7319     7866     8340 
    8629     8688     8519     8187     7839     7626     7636     7878 
    8210     8401     8429     8523     8843     9374    10061    10770 
   11249    11321    11003    10412     9760     9383     9526    10116 
   10768    10998    10592     9768     8896     8214     7823     7735 
    7909     8230     8514     8569     8334     7942     7669     7689 
    7855     7875     7580     7047     6582     6480     6744     7150 
    7528     7905     8345     8822     9286     9648     9744     9487 
    8991     8490     8230     8328     8644     8877     8766     8284 
    7711     7456     7751     8449     9103     9358     9155     8614 
    7888     7141     6478     5926     5486     5167     4989     4923 
    4819     4509     4020     3559     3280     3163     3179     3410 
    3886     4563     5381     6211     6891     7331     7555     7692 
    7855     8000     8019     7932     7889     8006     8266     8573 
    8854     9042     9092     9027     8907     8781     8715     8789 
    8995     9158     9148     9054     8999     8997     9040     9146 
    9290     9382     9355     9244     9143     9117     9157     9135 
    8915     8553     8333     8456     8861     9412     9952    10300 
   10412    10419    10454    10547    10646    10652    10498    10261 
   10149    10231    10343    10304    10080     9775     9593     9697 
   10061    10473    10623    10335     9757     9242     9055     9262 
    9740    10237    10478    10285     9744     9157     8734     8413 
    8004     7423     6789     6307     6075     5971     5784     5436 
    5008     4684     4649     4932     5371     5724     5829     5730 
    5649     5805     6220     6627     6628     6048     5116     4353 
    4191     4644     5302     5695     5683     5518     5537     5868 
    6404     6928     7294     7510     7612     7585     7474     7381 
    7315     7204     7040     6933     7055     7479     8100     8714 
    9178     9471     9559     9339     8793     8032     7265     6775 
    6709     6960     7331     7632     7736     7678     7643     7825 
    8302     8969     9563     9837     9736     9377     8966     8770 
    8930     9261     9409     9157     8598     8085     7921     8124 
    8440     8573     8361     7852     7281     6951     7017     7404 
    7912     8324     8502     8468     8375     8297     8145     7852 
    7507     7263     7215     7369     7651     7940     8139     8255 
    8405     8673     9013     9319     9528     9616     9579     9508 
    9524     9607     9576     9324     8922     8519     8236     8098 
    8101     8243     8471     8641     8596     8291     7821     7391 
    7190     7221     7319     7281     7026     6694     6505     6520 
    6629     6693     6650     6490     6231     5981     5899     6003 
    6111     6060     5907     5796     5771     5818     5922     6054 
    6205     6485     7072     7963     8881     9479     9562     9181 
    8642     8317     8407     8841     9325     9541     9355     8916 
    8541     8429     8545     8726     8781     8615     8299     8012 
    7923     8083     8414     8803     9113     9200     9020     8699 
    8388     8131     7866     7524     7079     6621     6347     6357 
    6559     6772     6836     6666     6286     5830     5474     5332 
    5422     5706     6058     6324     6478     6617     6818     7090 
    7371     7573     7663     7658     7585     7469     7366     7368 
    7526     7805     8122     8332     8298     8078     7933     8068 
    8433     8829     9101     9220     9248     9305     9506     9841 
   10161    10297    10193     9915     9583     9317     9213     9229 
    9192     9016     8776     8591     8549     8617     8614     8401 
    7997     7570     7354     7501     7954     8456     8761     8823 
    8757     8718     8791     8908     8932     8799     8513     8133 
    7825     7711     7712     7711     7722     7792     7892     7940 
    7917     7848     7750     7659     7632     7666     7743     7906 
    8159     8424     8657     8884     9099     9269     9378     9451 
    9556     9724     9876     9942     9961    10003    10057    10054 
    9987     9898     9764     9509     9142     8775     8496     8338 
    8328     8442     8563     8561     8387     8090     7798     7638 
    7661     7859     8141     8325     8313     8198     8197     8460 
    8888     9154     9015     8540     7998     7647     7580     7730 
    7963     8109     8050     7823     7588     7477     7503     7635 
    7871     8185     8527     8861     9123     9212     9043     8645 
    8193     7889     7762     7661     7468     7233     7051     6932 
    6817     6656     6477     6351     6351     6524     6840     7221 
    7574     7804     7861     7809     7785     7905     8139     8337 
    8410     8349     8147     7878     7690     7686     7869     8141 
    8363     8394     8164     7774     7393     7115     6979     6974 
    7038     7091     7111     7183     7375     7643     7884     8009 
    8008     7942     7889     7889     7944     8058     8229     8432 
    8590     8653     8685     8785     8903     8868     8591     8112 
    7557     7095     6805     6640     6548     6467     6328     6166 
    6142     6385     6864     7435     7931     8222     8266     8140 
    8009     8027     8229     8507     8694     8681     8484     8245 
    8132     8216     8465     8785     9062     9207     9220     9223 
    9352     9612     9860    10003    10044     9991     9832     9597 
    9354     9157     9034     8973     8920     8823     8702     8650 
    8730     8864     8880     8685     8374     8168     8186     8317 
    8348     8156     7801     7431     7167     7063     7105     7180 
    7169     7038     6844     6678     6586     6531     6434     6255 
    6057     5973     6092     6389     6752     7094     7391     7630 
    7776     7769     7568     7237     6933     6758     6717     6756 
    6772     6675     6455     6203     6085     6195     6427     6570 
    6525     6372     6249     6269     6489     6858     7215     7415 
    7416     7276     7101     6990     6978     7011     7006     6988 
    7082     7330     7678     8052     8399     8698     8928     9043 
    8995     8842     8725     8707     8743     8792     8846     8858 
    8793     8726     8783     9016     9305     9450     9408     9323 
    9325     9444     9660     9892     9984     9803     9385     8899 
    8492     8213     8041     7935     7838     7715     7573     7419 
