Origin Time       2025/01/13 21:19:00
Lat.              31.8
Long.             131.6
Depth. (km)       30
Mag.              6.9
Station Code      KOCH01
Station Lat.      33.5421
Station Long.     134.1197
Station Height(m) 35
Record Time       2025/01/13 21:20:40
Sampling Freq(Hz) 100Hz
Duration Time(s)  120
Dir.              3
Scale Factor      2942(gal)/8224139
Max. Acc. (gal)   0.441
Last Correction   2025/01/13 21:20:41
Memo.             
[...]
   -2459    -2486    -2515    -2551    -2592    -2623    -2647    -2678 
   -2713    -2745    -2766    -2766    -2763    -2770    -2778    -2778 
   -2774    -2771    -2766    -2743    -2714    -2702    -2698    -2687 
   -2675    -2660    -2636    -2609    -2593    -2592    -2600    -2600 
   -2590    -2574    -2540    -2500    -2475    -2459    -2444    -2428 
   -2404    -2366    -2330    -2297    -2269    -2247    -2230    -2208 
   -2187    -2170    -2166    -2168    -2165    -2160    -2165    -2185 
   -2209    -2234    -2259    -2277    -2286    -2303    -2324    -2350 
   -2381    -2405    -2411    -2419    -2439    -2457    -2474    -2493 
   -2505    -2505    -2492    -2478    -2478    -2477    -2467    -2454 
   -2440    -2439    -2443    -2442    -2442    -2438    -2423    -2408 
   -2393    -2371    -2355    -2346    -2343    -2339    -2323    -2305 
   -2295    -2288    -2285    -2297    -2313    -2316    -2300    -2282 
   -2272    -2263    -2262    -2265    -2268    -2278    -2290    -2292 
   -2299    -2316    -2332    -2346    -2365    -2389    -2413    -2434 
   -2459    -2485    -2497    -2497    -2504    -2524    -2550    -2578 
   -2609    -2633    -2639    -2633    -2632    -2633    -2637    -2644 
   -2641    -2627    -2609    -2592    -2575    -2562    -2555    -2558 
   -2551    -2532    -2509    -2485    -2454    -2417    -2385    -2376 
   -2370    -2361    -2350    -2334    -2316    -2304    -2297    -2303 
   -2320    -2342    -2363    -2373    -2365    -2358    -2362    -2369 
   -2371    -2378    -2396    -2425    -2457    -2475    -2494    -2524 
   -2554    -2570    -2574    -2571    -2565    -2558    -2552    -2550 
   -2548    -2543    -2538    -2543    -2554    -2552    -2546    -2548 
   -2554    -2555    -2560    -2575    -2587    -2594    -2606    -2624 
   -2641    -2654    -2662    -2671    -2681    -2683    -2675    -2663 
   -2659    -2650    -2636    -2635    -2635    -2617    -2601    -2597 
   -2593    -2585    -2574    -2558    -2546    -2531    -2502    -2471 
   -2443    -2409    -2370    -2334    -2305    -2286    -2274    -2254 
   -2212    -2176    -2165    -2164    -2157    -2157    -2164    -2165 
   -2164    -2170    -2181    -2195    -2214    -2236    -2261    -2286 
   -2327    -2378    -2417    -2435    -2448    -2463    -2479    -2502 
   -2524    -2544    -2559    -2569    -2583    -2602    -2619    -2632 
   -2643    -2641    -2633    -2625    -2628    -2637    -2639    -2637 
   -2639    -2635    -2624    -2613    -2609    -2609    -2612    -2609 
   -2590    -2566    -2552    -2547    -2548    -2550    -2536    -2517 
   -2501    -2482    -2462    -2443    -2427    -2419    -2424    -2435 
   -2443    -2451    -2459    -2469    -2484    -2505    -2524    -2532 
   -2538    -2547    -2560    -2582    -2613    -2651    -2697    -2747 
   -2775    -2790    -2812    -2832    -2848    -2876    -2910    -2943 
   -2974    -2990    -2995    -3001    -3010    -3025    -3044    -3061 
   -3072    -3076    -3073    -3072    -3067    -3055    -3030    -3009 
   -2994    -2972    -2955    -2944    -2906    -2845    -2787    -2729 
   -2674    -2623    -2566    -2501    -2438    -2371    -2309    -2261 
   -2224    -2193    -2164    -2127    -2085    -2043    -2006    -1977 
   -1964    -1953    -1942    -1931    -1919    -1912    -1911    -1918 
   -1939    -1966    -1993    -2027    -2054    -2073    -2099    -2128 
   -2157    -2184    -2214    -2241    -2258    -2273    -2295    -2313 
   -2331    -2353    -2366    -2362    -2343    -2315    -2284    -2259 
   -2249    -2243    -2228    -2203    -2181    -2160    -2139    -2131 
   -2122    -2110    -2104    -2103    -2097    -2095    -2087    -2070 
   -2073    -2092    -2101    -2106    -2103    -2095    -2087    -2074 
   -2062    -2060    -2060    -2056    -2054    -2047    -2037    -2037 
   -2045    -2054    -2069    -2100    -2138    -2169    -2192    -2216 
   -2243    -2269    -2299    -2330    -2355    -2374    -2389    -2407 
   -2431    -2462    -2492    -2524    -2566    -2614    -2658    -2691 
   -2728    -2763    -2795    -2833    -2863    -2880    -2903    -2934 
   -2967    -3003    -3029    -3036    -3048    -3076    -3100    -3110 
   -3110    -3100    -3083    -3055    -3025    -2998    -2974    -2951 
   -2914    -2863    -2820    -2786    -2766    -2758    -2748    -2732 
   -2720    -2708    -2682    -2651    -2631    -2625    -2627    -2625 
   -2624    -2612    -2596    -2596    -2608    -2616    -2617    -2614 
   -2610    -2604    -2602    -2610    -2616    -2608    -2600    -2600 
   -2606    -2609    -2609    -2612    -2610    -2604    -2600    -2601 
   -2605    -2612    -2623    -2637    -2647    -2648    -2648    -2656 
   -2681    -2716    -2748    -2782    -2821    -2856    -2879    -2891 
   -2898    -2909    -2932    -2955    -2963    -2960    -2955    -2945 
   -2932    -2914    -2893    -2875    -2857    -2830    -2799    -2772 
   -2743    -2710    -2681    -2650    -2621    -2596    -2573    -2552 
   -2529    -2501    -2477    -2458    -2434    -2408    -2384    -2355 
   -2332    -2320    -2305    -2289    -2276    -2263    -2250    -2243 
   -2238    -2234    -2234    -2235    -2236    -2243    -2254    -2259 
   -2268    -2285    -2305    -2328    -2365    -2401    -2425    -2454 
   -2500    -2558    -2613    -2664    -2717    -2767    -2810    -2862 
   -2918    -2975    -3036    -3096    -3141    -3168    -3186    -3215 
   -3253    -3277    -3294    -3315    -3326    -3315    -3292    -3267 
   -3249    -3244    -3235    -3214    -3184    -3141    -3090    -3038 
   -2986    -2937    -2887    -2830    -2772    -2716    -2654    -2592 
   -2543    -2501    -2458    -2423    -2389    -2351    -2311    -2268 
   -2228    -2204    -2180    -2147    -2116    -2089    -2061    -2031 
   -2007    -1983    -1960    -1946    -1942    -1937    -1925    -1911 
   -1903    -1898    -1895    -1903    -1921    -1941    -1969    -2004 
   -2038    -2069    -2107    -2155    -2196    -2219    -2249    -2293 
   -2336    -2374    -2407    -2427    -2443    -2458    -2467    -2474 
   -2484    -2493    -2492    -2477    -2451    -2423    -2400    -2380 
   -2359    -2336    -2313    -2297    -2282    -2262    -2249    -2247 
   -2249    -2247    -2234    -2218    -2207    -2199    -2195    -2205 
   -2224    -2238    -2250    -2258    -2265    -2280    -2300    -2330 
   -2361    -2378    -2389    -2407    -2424    -2440    -2454    -2463 
   -2467    -2473    -2485    -2498    -2505    -2512    -2523    -2529 
   -2528    -2531    -2543    -2563    -2586    -2594    -2586    -2578 
   -2578    -2582    -2589    -2601    -2610    -2621    -2628    -2624 
   -2616    -2614    -2610    -2604    -2608    -2613    -2605    -2589 
   -2573    -2556    -2536    -2509    -2489    -2477    -2461    -2430 
   -2393    -2365    -2343    -2323    -2300    -2276    -2249    -2222 
   -2197    -2165    -2133    -2112    -2099    -2095    -2096    -2092 
   -2097    -2116    -2127    -2134    -2146    -2164    -2191    -2226 
   -2265    -2307    -2346    -2393    -2454    -2512    -2565    -2620 
   -2675    -2729    -2782    -2835    -2894    -2957    -3009    -3055 
   -3100    -3137    -3165    -3191    -3208    -3219    -3229    -3230 
   -3226    -3225    -3217    -3204    -3196    -3191    -3184    -3169 
   -3146    -3123    -3106    -3083    -3051    -3017    -2986    -2955 
   -2926    -2903    -2880    -2852    -2825    -2806    -2789    -2771 
   -2754    -2740    -2737    -2732    -2718    -2704    -2698    -2706 
   -2716    -2720    -2725    -2732    -2732    -2732    -2737    -2741 
   -2748    -2758    -2762    -2756    -2747    -2741    -2743    -2743 
   -2743    -2755    -2767    -2763    -2754    -2740    -2727    -2725 
   -2717    -2693    -2673    -2654    -2623    -2586    -2556    -2528 
   -2494    -2454    -2411    -2370    -2326    -2270    -2218    -2169 
   -2119    -2072    -2023    -1965    -1908    -1854    -1806    -1765 
   -1729    -1692    -1663    -1632    -1595    -1553    -1514    -1482 
   -1451    -1420    -1402    -1397    -1398    -1399    -1398    -1409 
   -1425    -1439    -1462    -1490    -1517    -1551    -1590    -1636 
   -1688    -1741    -1796    -1864    -1935    -2002    -2066    -2133 
   -2196    -2262    -2323    -2377    -2438    -2500    -2558    -2612 
   -2662    -2716    -2776    -2830    -2880    -2932    -2978    -3015 
   -3051    -3095    -3138    -3165    -3187    -3225    -3267    -3299 
   -3319    -3333    -3341    -3345    -3343    -3345    -3343    -3339 
   -3337    -3326    -3300    -3276    -3253    -3223    -3191    -3160 
   -3125    -3094    -3065    -3032    -3002    -2970    -2924    -2882 
   -2853    -2830    -2814    -2805    -2789    -2770    -2759    -2751 
   -2735    -2714    -2695    -2683    -2662    -2629    -2597    -2559 
   -2521    -2497    -2478    -2451    -2421    -2392    -2358    -2320 
   -2284    -2258    -2241    -2224    -2207    -2187    -2157    -2128 
   -2108    -2088    -2066    -2052    -2046    -2047    -2042    -2030 
   -2018    -2014    -2004    -1991    -1987    -1992    -1995    -2000 
   -2015    -2033    -2046    -2065    -2087    -2106    -2122    -2139 
   -2160    -2177    -2199    -2224    -2245    -2258    -2280    -2309 
   -2335    -2363    -2401    -2439    -2477    -2505    -2517    -2528 
   -2544    -2560    -2581    -2606    -2627    -2640    -2656    -2671 
   -2682    -2694    -2705    -2717    -2731    -2744    -2748    -2748 
   -2758    -2766    -2762    -2752    -2743    -2736    -2727    -2717 
   -2710    -2705    -2701    -2704    -2706    -2705    -2706    -2708 
   -2704    -2700    -2693    -2685    -2681    -2678    -2671    -2666 
   -2666    -2666    -2666    -2667    -2664    -2656    -2647    -2635 
   -2619    -2605    -2592    -2569    -2546    -2528    -2516    -2504 
   -2493    -2484    -2475    -2466    -2451    -2431    -2417    -2403 
   -2385    -2374    -2362    -2340    -2324    -2316    -2304    -2293 
   -2290    -2286    -2273    -2253    -2236    -2223    -2205    -2187 
   -2178    -2170    -2158    -2147    -2128    -2108    -2093    -2079 
   -2062    -2050    -2039    -2031    -2023    -2012    -2002    -1996 
   -1988    -1981    -1984    -1992    -2007    -2034    -2058    -2070 
   -2079    -2091    -2108    -2135    -2170    -2208    -2241    -2270 
   -2300    -2323    -2339    -2362    -2394    -2424    -2452    -2481 
   -2502    -2515    -2529    -2546    -2558    -2569    -2578    -2581 
   -2578    -2578    -2577    -2578    -2592    -2605    -2601    -2589 
   -2587    -2587    -2582    -2583    -2585    -2577    -2569    -2560 
   -2554    -2548    -2543    -2539    -2533    -2521    -2512    -2501 
   -2489    -2484    -2485    -2479    -2471    -2462    -2454    -2447 
   -2442    -2443    -2448    -2444    -2435    -2424    -2415    -2411 
   -2415    -2421    -2420    -2412    -2401    -2389    -2374    -2359 
   -2351    -2336    -2312    -2293    -2270    -2242    -2226    -2209 
   -2191    -2180    -2168    -2158    -2161    -2165    -2169    -2182 
   -2207    -2234    -2262    -2293    -2324    -2357    -2393    -2436 
   -2477    -2513    -2554    -2592    -2623    -2652    -2685    -2717 
   -2749    -2781    -2806    -2826    -2845    -2864    -2876    -2884 
   -2895    -2902    -2898    -2886    -2882    -2883    -2875    -2866 
   -2857    -2843    -2830    -2829    -2818    -2798    -2789    -2778 
   -2759    -2749    -2737    -2716    -2700    -2691    -2682    -2670 
   -2658    -2652    -2644    -2632    -2624    -2614    -2602    -2597 
   -2598    -2604    -2604    -2605    -2610    -2619    -2625    -2636 
   -2655    -2675    -2705    -2739    -2754    -2767    -2795    -2821 
   -2840    -2864    -2887    -2905    -2928    -2953    -2976    -2990 
   -3001    -3015    -3024    -3017    -3011    -3013    -3015    -3025 
   -3032    -3036    -3036    -3029    -3014    -3001    -2994    -2984 
   -2964    -2947    -2926    -2897    -2871    -2847    -2813    -2783 
   -2758    -2722    -2683    -2652    -2627    -2596    -2558    -2525 
   -2494    -2461    -2431    -2401    -2378    -2361    -2339    -2319 
   -2303    -2288    -2276    -2268    -2262    -2261    -2262    -2263 
   -2263    -2265    -2274    -2284    -2292    -2300    -2309    -2326 
   -2346    -2367    -2393    -2421    -2436    -2447    -2467    -2484 
   -2493    -2508    -2520    -2525    -2536    -2543    -2542    -2540 
   -2532    -2523    -2511    -2496    -2482    -2471    -2463    -2452 
   -2436    -2419    -2409    -2400    -2389    -2393    -2405    -2407 
   -2407    -2417    -2431    -2440    -2450    -2458    -2463    -2475 
   -2490    -2502    -2515    -2528    -2533    -2536    -2546    -2551 
   -2551    -2560    -2579    -2592    -2598    -2606    -2620    -2637 
   -2658    -2681    -2704    -2728    -2758    -2793    -2821    -2844 
   -2867    -2891    -2911    -2934    -2959    -2986    -3017    -3046 
   -3067    -3086    -3105    -3119    -3132    -3137    -3140    -3141 
   -3141    -3137    -3126    -3115    -3105    -3084    -3059    -3038 
   -3019    -2992    -2967    -2948    -2921    -2893    -2870    -2837 
   -2798    -2763    -2725    -2685    -2650    -2612    -2566    -2521 
   -2477    -2419    -2357    -2297    -2236    -2178    -2119    -2054 
   -1987    -1921    -1858    -1795    -1733    -1676    -1621    -1572 
   -1528    -1482    -1443    -1409    -1375    -1354    -1341    -1325 
   -1309    -1298    -1282    -1269    -1264    -1270    -1274    -1278 
   -1289    -1298    -1309    -1328    -1352    -1379    -1409    -1441 
   -1487    -1539    -1580    -1628    -1682    -1728    -1775    -1834 
   -1892    -1946    -2007    -2072    -2134    -2196    -2258    -2323 
   -2389    -2454    -2511    -2559    -2610    -2664    -2716    -2763 
   -2812    -2860    -2903    -2940    -2972    -3003    -3033    -3067 
   -3106    -3144    -3175    -3202    -3229    -3248    -3260    -3269 
   -3275    -3275    -3276    -3276    -3268    -3249    -3227    -3210 
   -3187    -3157    -3133    -3105    -3071    -3036    -2999    -2967 
   -2937    -2899    -2860    -2822    -2778    -2740    -2712    -2687 
   -2668    -2650    -2628    -2605    -2586    -2566    -2546    -2529 
   -2516    -2500    -2482    -2470    -2459    -2451    -2452    -2452 
   -2447    -2442    -2440    -2440    -2444    -2455    -2469    -2471 
   -2473    -2486    -2505    -2525    -2546    -2567    -2589    -2605 
   -2617    -2635    -2655    -2675    -2694    -2709    -2721    -2735 
   -2744    -2745    -2748    -2755    -2758    -2759    -2767    -2762 
   -2739    -2722    -2709    -2691    -2674    -2654    -2632    -2614 
   -2596    -2573    -2555    -2540    -2524    -2506    -2493    -2490 
   -2489    -2482    -2482    -2485    -2482    -2482    -2484    -2488 
   -2490    -2489    -2484    -2475    -2462    -2446    -2431    -2415 
   -2392    -2363    -2335    -2305    -2276    -2245    -2212    -2181 
   -2149    -2116    -2085    -2054    -2025    -1987    -1952    -1925 
   -1891    -1863    -1841    -1810    -1780    -1757    -1737    -1719 
   -1703    -1684    -1680    -1683    -1682    -1686    -1701    -1707 
   -1703    -1702    -1706    -1717    -1728    -1737    -1742    -1746 
   -1761    -1783    -1794    -1802    -1822    -1841    -1850    -1860 
   -1872    -1885    -1907    -1934    -1961    -1985    -2016    -2050 
   -2089    -2134    -2174    -2214    -2255    -2304    -2354    -2407 
   -2466    -2529    -2586    -2643    -2697    -2747    -2799    -2853 
   -2905    -2953    -3001    -3042    -3086    -3122    -3149    -3175 
   -3200    -3222    -3246    -3271    -3285    -3298    -3306    -3303 
   -3294    -3284    -3262    -3230    -3206    -3184    -3154    -3119 
   -3079    -3029    -2980    -2932    -2875    -2820    -2772    -2725 
   -2674    -2625    -2574    -2521    -2470    -2420    -2376    -2336 
   -2301    -2265    -2232    -2201    -2178    -2161    -2147    -2134 
   -2128    -2130    -2128    -2122    -2115    -2110    -2107    -2112 
   -2116    -2118    -2119    -2123    -2131    -2138    -2142    -2153 
   -2169    -2185    -2201    -2222    -2245    -2261    -2276    -2296 
   -2320    -2347    -2373    -2396    -2417    -2439    -2459    -2481 
   -2501    -2517    -2532    -2551    -2563    -2571    -2585    -2594 
   -2600    -2602    -2602    -2598    -2590    -2582    -2579    -2578 
   -2574    -2571    -2570    -2565    -2562    -2559    -2560    -2567 
   -2569    -2569    -2577    -2585    -2590    -2598    -2606    -2612 
   -2620    -2635    -2650    -2659    -2660    -2658    -2655    -2655 
   -2654    -2652    -2647    -2641    -2643    -2647    -2644    -2644 
   -2648    -2648    -2650    -2654    -2662    -2666    -2668    -2671 
   -2674    -2675    -2667    -2654    -2648    -2648    -2643    -2637 
   -2637    -2636    -2633    -2629    -2624    -2623    -2614    -2596 
   -2581    -2573    -2556    -2540    -2525    -2511    -2494    -2479 
   -2459    -2438    -2420    -2401    -2380    -2359    -2338    -2317 
   -2299    -2278    -2258    -2246    -2238    -2230    -2227    -2222 
   -2218    -2215    -2212    -2218    -2223    -2230    -2239    -2247 
   -2255    -2263    -2280    -2304    -2327    -2349    -2371    -2392 
   -2413    -2442    -2467    -2494    -2531    -2569    -2604    -2632 
   -2658    -2686    -2721    -2755    -2787    -2821    -2849    -2870 
   -2889    -2910    -2934    -2957    -2975    -2994    -3010    -3019 
   -3028    -3041    -3060    -3073    -3080    -3086    -3080    -3068 
   -3061    -3052    -3038    -3025    -3011    -2994    -2976    -2955 
   -2926    -2901    -2876    -2845    -2816    -2789    -2762    -2733 
   -2705    -2674    -2647    -2624    -2601    -2581    -2563    -2547 
   -2529    -2515    -2501    -2484    -2466    -2455    -2440    -2420 
   -2407    -2398    -2390    -2384    -2377    -2366    -2361    -2358 
   -2349    -2338    -2326    -2312    -2300    -2282    -2262    -2249 
   -2239    -2230    -2223    -2209    -2195    -2187    -2180    -2170 
   -2162    -2147    -2135    -2131    -2118    -2103    -2099    -2096 
   -2092    -2087    -2083    -2080    -2080    -2080    -2080    -2083 
   -2085    -2088    -2089    -2092    -2097    -2112    -2131    -2146 
   -2164    -2180    -2191    -2201    -2209    -2218    -2235    -2251 
   -2262    -2272    -2280    -2284    -2285    -2282    -2280    -2276 
   -2265    -2253    -2247    -2236    -2223    -2209    -2188    -2168 
   -2147    -2122    -2101    -2088    -2065    -2041    -2027    -2014 
   -1998    -1992    -1987    -1976    -1973    -1976    -1975    -1980 
   -1996    -2014    -2033    -2052    -2069    -2085    -2103    -2123 
   -2150    -2180    -2209    -2236    -2262    -2292    -2320    -2347 
   -2370    -2389    -2408    -2425    -2444    -2458    -2463    -2470 
   -2484    -2497    -2508    -2521    -2536    -2554    -2567    -2574 
   -2583    -2600    -2610    -2623    -2640    -2656    -2663    -2666 
   -2670    -2677    -2685    -2700    -2714    -2731    -2740    -2744 
   -2755    -2762    -2756    -2758    -2764    -2759    -2755    -2754 
   -2751    -2749    -2749    -2748    -2740    -2732    -2727    -2717 
   -2709    -2705    -2698    -2694    -2691    -2683    -2677    -2674 
