Origin Time       2025/01/13 21:19:00
Lat.              31.8
Long.             131.6
Depth. (km)       30
Mag.              6.9
Station Code      KOCH03
Station Lat.      33.2683
Station Long.     132.9891
Station Height(m) 170
Record Time       2025/01/13 21:20:10
Sampling Freq(Hz) 100Hz
Duration Time(s)  152
Dir.              3
Scale Factor      2942(gal)/8224139
Max. Acc. (gal)   1.874
Last Correction   2025/01/13 21:20:10
Memo.             
[...]
   58487    58725    58988    59246    59476    59603    59649    59651 
   59533    59323    59116    58899    58608    58267    57966    57721 
   57447    57130    56830    56567    56350    56197    56142    56164 
   56151    56096    56107    56223    56423    56674    56905    57118 
   57395    57673    57811    57832    57886    58064    58345    58621 
   58826    59031    59282    59478    59601    59767    59944    60050 
   60141    60243    60293    60234    60065    59842    59647    59540 
   59456    59282    59081    59013    59074    59135    59163    59185 
   59194    59169    59086    58984    58908    58826    58710    58580 
   58459    58374    58340    58357    58429    58585    58860    59139 
   59312    59439    59552    59578    59536    59489    59401    59263 
   59159    59097    59031    59004    59077    59216    59375    59562 
   59822    60130    60382    60544    60616    60604    60562    60484 
   60308    60034    59676    59285    58969    58746    58537    58320 
   58164    58081    58013    57981    58023    58113    58203    58256 
   58234    58148    58027    57855    57635    57451    57368    57360 
   57376    57402    57458    57520    57557    57603    57686    57790 
   57854    57862    57840    57811    57802    57817    57886    58068 
   58291    58455    58579    58704    58839    58959    58972    58843 
   58665    58477    58251    58005    57765    57577    57516    57586 
   57750    58001    58334    58734    59134    59447    59641    59729 
   59775    59864    59969    60000    59981    59980    59975    59948 
   59926    59921    59927    59922    59873    59791    59711    59605 
   59476    59401    59310    59139    58981    58861    58716    58594 
   58552    58572    58660    58800    58895    58891    58822    58780 
   58807    58881    58992    59059    59005    58928    58912    58919 
   58924    58941    58997    59117    59232    59293    59367    59440 
   59499    59628    59795    59942    60124    60324    60424    60431 
   60447    60477    60448    60370    60277    60157    59983    59733 
   59437    59157    58918    58729    58548    58342    58178    58139 
   58174    58162    58093    58058    58054    57967    57797    57643 
   57566    57651    57893    58109    58214    58244    58199    58155 
   58241    58429    58596    58720    58800    58807    58746    58648 
   58544    58476    58499    58604    58691    58699    58656    58573 
   58486    58414    58284    58067    57893    57821    57734    57627 
   57630    57713    57796    57856    57894    57939    57973    57990 
   58045    58145    58279    58415    58549    58749    58993    59227 
   59483    59748    59999    60238    60459    60669    60787    60766 
   60674    60539    60376    60195    59971    59761    59653    59616 
   59564    59483    59414    59352    59278    59190    59117    59111 
   59148    59127    59011    58870    58749    58610    58448    58248 
   57975    57744    57696    57771    57847    57919    58041    58207 
   58347    58475    58665    58928    59235    59549    59821    60026 
   60192    60355    60501    60570    60565    60581    60675    60814 
   60949    61059    61106    61053    60939    60812    60655    60498 
   60380    60234    60091    60016    59925    59771    59587    59352 
   59113    58958    58872    58779    58649    58522    58432    58326 
   58153    57970    57844    57767    57676    57551    57512    57631 
   57800    57958    58149    58360    58510    58536    58490    58521 
   58631    58739    58854    58982    59115    59250    59266    59081 
   58839    58687    58619    58567    58492    58434    58403    58367 
   58357    58405    58469    58482    58398    58271    58162    58036 
   57890    57792    57758    57716    57596    57395    57196    57076 
   56990    56905    56898    56987    57113    57238    57325    57338 
   57380    57588    57865    58041    58194    58402    58621    58881 
   59169    59409    59626    59840    60023    60153    60169    60083 
   60015    60006    60014    60014    59989    59981    60022    60061 
   60072    60053    59962    59822    59711    59598    59401    59144 
   58941    58839    58772    58645    58459    58288    58149    58039 
   58024    58136    58355    58657    58941    59078    59051    58939 
   58818    58731    58689    58677    58706    58816    58959    59053 
   59119    59225    59408    59599    59706    59791    59972    60216 
   60380    60384    60311    60243    60138    59944    59721    59518 
   59309    59050    58689    58252    57866    57568    57291    57033 
   56835    56714    56670    56674    56702    56785    56938    57113 
   57281    57449    57574    57632    57694    57821    57996    58167 
   58302    58438    58618    58795    58858    58800    58747    58746 
   58693    58567    58457    58403    58395    58399    58372    58315 
   58276    58299    58378    58488    58631    58780    58891    58974 
   59077    59205    59267    59200    59080    58959    58816    58738 
   58785    58826    58788    58738    58741    58757    58712    58668 
   58733    58872    59012    59121    59175    59185    59166    59140 
   59177    59287    59387    59456    59584    59751    59838    59894 
   59987    60068    60088    60087    60130    60173    60126    59987 
   59783    59544    59319    59162    59094    59053    58972    58861 
   58750    58644    58486    58261    58110    58106    58132    58094 
   57996    57882    57816    57798    57790    57754    57678    57669 
   57819    58047    58253    58503    58851    59166    59339    59441 
   59539    59609    59649    59706    59806    59891    59952    60100 
   60328    60492    60554    60550    60485    60394    60320    60269 
   60195    60006    59699    59406    59182    58943    58661    58401 
   58180    57989    57842    57757    57723    57743    57838    57967 
   58093    58216    58348    58498    58653    58810    59017    59309 
   59660    59979    60228    60482    60735    60917    61040    61125 
   61121    61009    60871    60758    60646    60515    60365    60203 
   60049    59923    59810    59697    59595    59491    59378    59269 
   59167    59107    59074    58974    58823    58769    58800    58741 
   58560    58347    58189    58118    58068    57973    57801    57592 
   57516    57615    57719    57835    58083    58390    58615    58731 
   58784    58854    58972    59070    59096    59069    59044    59057 
   59078    59071    59049    59030    59020    59049    59158    59325 
   59472    59595    59706    59805    59972    60222    60454    60633 
   60786    60926    61048    61130    61190    61295    61437    61488 
   61369    61121    60832    60602    60426    60192    59892    59597 
   59340    59132    58955    58793    58644    58450    58186    57901 
   57626    57352    57117    56952    56840    56809    56808    56698 
   56498    56377    56407    56502    56563    56601    56697    56867 
   57076    57289    57496    57693    57873    58002    58095    58203 
   58326    58413    58472    58553    58658    58754    58816    58822 
   58773    58706    58619    58459    58205    57944    57765    57638 
   57508    57400    57385    57412    57404    57466    57674    57942 
   58195    58419    58621    58774    58816    58791    58811    58853 
   58842    58808    58777    58729    58652    58495    58228    57919 
   57659    57470    57287    57045    56793    56624    56536    56452 
   56363    56280    56174    56060    55995    55996    55987    55907 
   55802    55738    55714    55683    55686    55827    56133    56542 
   57015    57578    58268    59026    59784    60538    61225    61804 
   62322    62757    63003    63027    62905    62731    62530    62289 
   62021    61762    61522    61341    61234    61137    61022    60934 
   60885    60841    60793    60756    60731    60710    60694    60605 
   60382    60092    59830    59638    59503    59371    59231    59119 
   59049    59027    59090    59227    59354    59395    59348    59239 
   59170    59211    59266    59229    59084    58854    58608    58387 
   58183    57996    57813    57622    57447    57303    57165    57036 
   56920    56822    56797    56862    56970    57109    57246    57346 
   57426    57478    57519    57578    57611    57573    57491    57389 
   57298    57253    57262    57295    57326    57348    57393    57511 
   57700    57913    58124    58348    58533    58602    58599    58615 
   58627    58627    58654    58668    58665    58731    58870    59066 
   59309    59548    59788    60048    60293    60519    60736    60906 
   60998    61030    61044    61095    61213    61391    61627    61881 
   62102    62314    62525    62733    62961    63177    63358    63513 
   63644    63745    63833    63918    63976    63990    63995    64029 
   64049    63990    63856    63671    63417    63123    62789    62380 
   61969    61626    61314    61051    60852    60642    60403    60208 
   60081    59967    59829    59688    59574    59479    59374    59246 
   59092    58931    58766    58531    58233    57964    57720    57456 
   57202    56998    56870    56795    56739    56721    56712    56637 
   56506    56340    56169    56047    55975    55911    55849    55771 
   55625    55391    55139    54946    54805    54679    54537    54376 
   54267    54261    54302    54329    54379    54502    54680    54859 
   55027    55212    55412    55591    55760    55925    56053    56146 
   56262    56397    56505    56623    56781    56945    57117    57323 
   57578    57861    58139    58417    58679    58900    59081    59223 
   59333    59404    59454    59528    59605    59624    59549    59395 
   59216    59032    58841    58644    58446    58268    58117    57964 
   57824    57721    57678    57721    57812    57928    58125    58395 
   58671    58935    59227    59547    59829    60087    60358    60581 
   60768    60976    61176    61341    61466    61551    61630    61700 
   61719    61695    61642    61545    61425    61304    61165    61014 
   60856    60650    60389    60123    59886    59691    59535    59377 
   59228    59121    59011    58877    58741    58603    58487    58409 
   58342    58230    58063    57892    57766    57711    57716    57757 
   57825    57898    57936    57973    58064    58172    58264    58349 
   58405    58410    58371    58297    58191    58025    57817    57627 
   57451    57285    57160    57088    57091    57161    57242    57345 
   57514    57704    57894    58122    58383    58676    59026    59378 
   59703    60062    60451    60766    60951    61076    61213    61361 
   61510    61642    61755    61871    61969    62009    62020    62025 
   61986    61855    61659    61437    61188    60940    60705    60435 
   60126    59875    59724    59575    59381    59231    59189    59200 
   59204    59186    59188    59242    59305    59327    59321    59343 
   59381    59358    59287    59292    59416    59594    59771    59930 
   60050    60150    60278    60450    60640    60831    60995    61086 
   61109    61109    61083    61033    60963    60868    60782    60752 
   60758    60728    60690    60687    60674    60631    60577    60500 
   60407    60319    60205    60019    59778    59522    59231    58892 
   58572    58249    57854    57438    57057    56679    56289    55910 
   55571    55309    55113    54967    54882    54824    54738    54664 
   54693    54819    54939    55019    55139    55301    55405    55429 
   55435    55439    55410    55352    55290    55232    55193    55158 
   55093    55038    55043    55112    55237    55385    55525    55684 
   55894    56119    56316    56496    56673    56852    57041    57248 
   57480    57711    57931    58186    58494    58800    59074    59308 
   59487    59626    59755    59876    59971    60034    60100    60174 
   60231    60277    60307    60318    60328    60359    60421    60496 
   60554    60606    60674    60751    60824    60871    60910    60968 
   60999    60970    60945    60953    60924    60825    60752    60740 
   60713    60663    60615    60532    60409    60285    60160    60002 
   59840    59691    59520    59332    59147    58946    58765    58633 
   58491    58341    58257    58247    58259    58263    58257    58252 
   58237    58203    58148    58067    57979    57890    57774    57639 
   57526    57438    57383    57373    57391    57414    57447    57497 
   57553    57591    57619    57650    57673    57684    57684    57680 
   57681    57669    57618    57528    57422    57322    57207    57055 
   56928    56872    56835    56756    56677    56656    56663    56668 
   56712    56806    56937    57091    57245    57379    57528    57723 
   57923    58097    58259    58409    58538    58661    58768    58849 
   58928    59028    59158    59320    59503    59691    59888    60126 
   60401    60663    60897    61132    61373    61595    61796    61987 
   62156    62307    62464    62622    62734    62810    62891    62949 
   62950    62916    62877    62834    62777    62735    62710    62635 
   62490    62316    62154    62017    61875    61669    61400    61090 
   60736    60358    59972    59586    59206    58826    58471    58167 
   57873    57562    57261    56974    56706    56489    56284    56037 
   55776    55536    55302    55066    54845    54622    54376    54132 
   53937    53788    53667    53622    53673    53792    53978    54233 
   54540    54880    55215    55536    55900    56312    56718    57118 
   57508    57858    58166    58460    58780    59123    59437    59717 
   60007    60285    60508    60704    60899    61056    61145    61190 
   61206    61196    61184    61169    61150    61180    61277    61385 
   61477    61576    61688    61773    61808    61800    61778    61746 
   61636    61441    61248    61068    60866    60664    60470    60266 
   60072    59934    59861    59811    59783    59799    59837    59868 
   59921    59977    59992    60000    60054    60119    60156    60170 
   60151    60076    59971    59844    59683    59502    59312    59111 
   58901    58696    58494    58274    58078    57951    57858    57754 
   57647    57559    57497    57435    57376    57350    57365    57387 
   57422    57487    57559    57636    57716    57789    57867    57973 
   58097    58186    58206    58191    58155    58090    58001    57896 
   57780    57657    57545    57443    57357    57299    57262    57233 
   57229    57262    57322    57383    57438    57512    57619    57731 
   57825    57942    58108    58275    58433    58615    58804    58990 
   59202    59445    59679    59886    60091    60276    60413    60520 
   60588    60610    60629    60663    60683    60686    60682    60666 
   60640    60633    60627    60600    60573    60540    60490    60451 
   60432    60427    60417    60390    60345    60276    60192    60102 
   60019    59957    59887    59787    59690    59605    59493    59354 
   59235    59132    59022    58908    58799    58703    58612    58492 
   58352    58237    58152    58098    58079    58054    58018    58017 
   58050    58078    58086    58105    58149    58186    58234    58307 
   58352    58384    58433    58453    58475    58526    58541    58498 
   58437    58376    58309    58232    58158    58105    58075    58048 
   58013    57962    57889    57840    57832    57808    57751    57717 
   57731    57763    57774    57780    57828    57909    58010    58149 
   58295    58418    58538    58652    58734    58823    58959    59093 
   59173    59219    59244    59265    59320    59410    59503    59605 
   59699    59764    59823    59886    59935    59981    60030    60048 
   60021    59996    59987    59946    59865    59786    59718    59652 
   59595    59548    59495    59459    59443    59414    59398    59422 
   59440    59418    59375    59327    59275    59212    59157    59132 
   59132    59128    59078    58997    58932    58866    58783    58714 
   58665    58644    58660    58699    58737    58760    58765    58768 
   58777    58776    58752    58726    58706    58650    58533    58399 
   58309    58234    58141    58063    58037    58055    58064    58050 
   58054    58074    58085    58095    58120    58159    58193    58221 
   58283    58394    58500    58548    58556    58585    58642    58691 
   58720    58726    58707    58657    58576    58480    58379    58278 
   58175    58050    57893    57734    57604    57500    57414    57358 
   57299    57217    57153    57115    57072    57033    57026    57048 
   57065    57064    57069    57095    57133    57211    57326    57451 
   57608    57784    57944    58105    58290    58468    58596    58684 
   58742    58746    58692    58615    58550    58487    58415    58355 
   58287    58206    58149    58131    58158    58236    58320    58396 
   58513    58658    58791    58911    59047    59220    59409    59571 
   59699    59818    59944    60068    60170    60261    60353    60417 
   60459    60524    60600    60623    60588    60540    60508    60475 
   60431    60382    60324    60264    60216    60164    60088    60018 
   59976    59960    59958    59950    59938    59930    59913    59887 
   59859    59836    59832    59819    59759    59656    59559    59474 
   59370    59252    59146    59042    58927    58799    58652    58496 
   58360    58233    58101    57947    57780    57627    57480    57331 
   57195    57048    56903    56790    56670    56533    56421    56359 
   56335    56300    56265    56281    56334    56394    56473    56581 
   56709    56848    57001    57134    57227    57312    57404    57477 
   57535    57609    57693    57786    57892    58006    58143    58306 
   58467    58604    58738    58882    59016    59117    59225    59341 
   59439    59549    59679    59795    59898    59977    60029    60077 
   60145    60232    60324    60403    60475    60563    60648    60717 
   60772    60789    60774    60745    60687    60633    60628    60648 
   60656    60640    60624    60625    60600    60539    60481    60413 
   60335    60268    60180    60060    59944    59834    59706    59556 
   59395    59240    59103    58966    58812    58648    58510    58403 
   58305    58217    58126    58008    57878    57758    57673    57647 
   57627    57566    57520    57530    57550    57524    57472    57429 
   57404    57400    57389    57372    57387    57434    57481    57546 
   57667    57840    58001    58114    58214    58333    58461    58585 
   58692    58776    58850    58897    58896    58873    58861    58857 
   58845    58830    58818    58795    58757    58715    58664    58604 
   58567    58560    58573    58575    58544    58518    58540    58558 
   58536    58498    58465    58468    58521    58552    58529    58522 
   58554    58588    58619    58653    58704    58791    58895    58976 
   59039    59121    59220    59296    59359    59463    59607    59732 
   59807    59845    59876    59938    59967    59902    59819    59753 
   59644    59478    59310    59165    59038    58931    58831    58718 
   58606    58506    58432    58388    58357    58329    58309    58318 
   58355    58396    58433    58468    58492    58503    58517    58527 
