Origin Time       2025/01/13 21:19:00
Lat.              31.8
Long.             131.6
Depth. (km)       30
Mag.              6.9
Station Code      KOCH04
Station Lat.      32.8414
Station Long.     132.7066
Station Height(m) -45
Record Time       2025/01/13 21:20:00
Sampling Freq(Hz) 100Hz
Duration Time(s)  149
Dir.              3
Scale Factor      3923(gal)/8224838
Max. Acc. (gal)   2.928
Last Correction   2025/01/13 21:20:00
Memo.             
[...]
  -26222   -26173   -26208   -26291   -26242   -26165   -26222   -26298 
  -26163   -25853   -25583   -25494   -25567   -25616   -25578   -25586 
  -25623   -25573   -25520   -25618   -25782   -25864   -25901   -25898 
  -25930   -26158   -26460   -26609   -26608   -26538   -26369   -26145 
  -26053   -25983   -25716   -25474   -25532   -25662   -25582   -25451 
  -25407   -25370   -25420   -25577   -25672   -25718   -25805   -25928 
  -26013   -25933   -25767   -25601   -25313   -24989   -24806   -24723 
  -24730   -24769   -24792   -24948   -25273   -25601   -25920   -26231 
  -26433   -26593   -26732   -26677   -26454   -26280   -26244   -26329 
  -26443   -26495   -26543   -26636   -26609   -26487   -26495   -26401 
  -26036   -25828   -25820   -25612   -25335   -25308   -25405   -25488 
  -25644   -25807   -25799   -25597   -25347   -25257   -25312   -25320 
  -25246   -25196   -25257   -25366   -25370   -25351   -25486   -25636 
  -25645   -25618   -25641   -25625   -25443   -25234   -25288   -25505 
  -25627   -25722   -25942   -26250   -26488   -26519   -26449   -26524 
  -26725   -26875   -26948   -26897   -26725   -26696   -26869   -27025 
  -27136   -27209   -27091   -26762   -26399   -26073   -25618   -25046 
  -24730   -24807   -25064   -25367   -25623   -25721   -25722   -25708 
  -25627   -25494   -25423   -25404   -25434   -25606   -25853   -25941 
  -25816   -25685   -25678   -25655   -25560   -25440   -25226   -24984 
  -24857   -24787   -24727   -24780   -24930   -25045   -25200   -25440 
  -25542   -25504   -25628   -25897   -26010   -26038   -26300   -26627 
  -26689   -26682   -26806   -26859   -26720   -26534   -26360   -26049 
  -25570   -25145   -24883   -24717   -24775   -25119   -25428   -25635 
  -25976   -26291   -26403   -26424   -26312   -26110   -26022   -26006 
  -25975   -26001   -26088   -26076   -25870   -25689   -25779   -25902 
  -25718   -25431   -25251   -25065   -25035   -25153   -25023   -24868 
  -25154   -25556   -25702   -25952   -26434   -26671   -26590   -26585 
  -26779   -26929   -26860   -26747   -26831   -27121   -27387   -27413 
  -27309   -27176   -26866   -26437   -25976   -25398   -24934   -24800 
  -24841   -25019   -25282   -25394   -25362   -25362   -25454   -25520 
  -25443   -25240   -25035   -25127   -25633   -26203   -26543   -26744 
  -26778   -26541   -26262   -25920   -25301   -24788   -24626   -24487 
  -24374   -24574   -24989   -25315   -25474   -25637   -25855   -25872 
  -25687   -25605   -25497   -25154   -24871   -24852   -24953   -25132 
  -25416   -25656   -25708   -25677   -25721   -25782   -25798   -25859 
  -26061   -26400   -26751   -26985   -27136   -27248   -27155   -26804 
  -26523   -26499   -26438   -26239   -26204   -26308   -26318   -26334 
  -26460   -26484   -26288   -25991   -25693   -25461   -25397   -25525 
  -25780   -26026   -26142   -26223   -26358   -26380   -26203   -25999 
  -25830   -25694   -25713   -25870   -25975   -25976   -26053   -26237 
  -26244   -26107   -26092   -25990   -25641   -25313   -25083   -24912 
  -24919   -25016   -25046   -25159   -25501   -25882   -26063   -26121 
  -26287   -26532   -26700   -26838   -26993   -27089   -27189   -27403 
  -27588   -27538   -27288   -26979   -26769   -26778   -26716   -26271 
  -25843   -25783   -25735   -25578   -25560   -25523   -25319   -25258 
  -25377   -25286   -25057   -25070   -25112   -24983   -25099   -25440 
  -25455   -25216   -25193   -25362   -25326   -25019   -24854   -25012 
  -25122   -25030   -25050   -25170   -25195   -25350   -25662   -25758 
  -25643   -25494   -25170   -24661   -24263   -24085   -24004   -24016 
  -24212   -24579   -25035   -25544   -25982   -26092   -25920   -25834 
  -25897   -25834   -25679   -25672   -25798   -25961   -26152   -26218 
  -26140   -26175   -26173   -25789   -25323   -25138   -25177   -25413 
  -25729   -25952   -26160   -26377   -26496   -26530   -26578   -26724 
  -26937   -27060   -27044   -27017   -27062   -27135   -27078   -26854 
  -26707   -26754   -26859   -26869   -26698   -26551   -26561   -26515 
  -26392   -26260   -26002   -25805   -25932   -26119   -26019   -25803 
  -25837   -26061   -26121   -25928   -25666   -25543   -25605   -25652 
  -25606   -25600   -25566   -25467   -25594   -25992   -26248   -26325 
  -26547   -26761   -26713   -26651   -26650   -26415   -25952   -25544 
  -25350   -25262   -25127   -25118   -25297   -25509   -25828   -26169 
  -26287   -26319   -26370   -26320   -26208   -26037   -25741   -25477 
  -25305   -25112   -24943   -24823   -24736   -24817   -25050   -25207 
  -25164   -25128   -25448   -25909   -26017   -25952   -26123   -26427 
  -26653   -26802   -26850   -26770   -26632   -26411   -26126   -25972 
  -25901   -25590   -25112   -24888   -24856   -24652   -24378   -24349 
  -24520   -24699   -24906   -25188   -25493   -25786   -25933   -25767 
  -25465   -25404   -25517   -25436   -25282   -25394   -25589   -25672 
  -25918   -26428   -26881   -27009   -26975   -27152   -27457   -27437 
  -27025   -26574   -26342   -26360   -26553   -26774   -26914   -26966 
  -26851   -26511   -26111   -25795   -25532   -25316   -25254   -25448 
  -25775   -26006   -26196   -26453   -26611   -26616   -26555   -26401 
  -26241   -26126   -25863   -25533   -25393   -25265   -24925   -24571 
  -24339   -24112   -23847   -23603   -23514   -23669   -23947   -24367 
  -25016   -25573   -25871   -26254   -26863   -27351   -27508   -27607 
  -27816   -27896   -27622   -27072   -26519   -26167   -25906   -25535 
  -25207   -25332   -25861   -26307   -26589   -26919   -27140   -27066 
  -26879   -26752   -26576   -26262   -25953   -25763   -25641   -25643 
  -25851   -26037   -25965   -25852   -26065   -26411   -26482   -26476 
  -26609   -26711   -26832   -26982   -26902   -26613   -26254   -25802 
  -25355   -25034   -24764   -24518   -24413   -24524   -24840   -25277 
  -25806   -26400   -26846   -27040   -27098   -27062   -26908   -26709 
  -26626   -26709   -26836   -26929   -27087   -27291   -27321   -27197 
  -27074   -26877   -26588   -26310   -25972   -25645   -25574   -25677 
  -25802   -26049   -26291   -26256   -26168   -26368   -26642   -26719 
  -26739   -26743   -26590   -26343   -26092   -25848   -25702   -25660 
  -25520   -25245   -25104   -25201   -25344   -25510   -25752   -25844 
  -25740   -25745   -25814   -25706   -25544   -25401   -25254   -25261 
  -25416   -25528   -25585   -25760   -26098   -26315   -26190   -25948 
  -25839   -25709   -25419   -25138   -25065   -25186   -25377   -25575 
  -25753   -25837   -25867   -26011   -26257   -26342   -26172   -25990 
  -25969   -25986   -25870   -25752   -25813   -25909   -25924   -25915 
  -25780   -25585   -25677   -25944   -25988   -25971   -26165   -26330 
  -26315   -26293   -26195   -25947   -25821   -25849   -25824   -25844 
  -25994   -26134   -26244   -26420   -26650   -26763   -26655   -26466 
  -26408   -26410   -26198   -25874   -25764   -25817   -25868   -25841 
  -25759   -25828   -26002   -26071   -26099   -26203   -26295   -26330 
  -26527   -26944   -27271   -27325   -27261   -27176   -26921   -26528 
  -26302   -26252   -26154   -26002   -25883   -25751   -25733   -25955 
  -26091   -26082   -26222   -26298   -26130   -26033   -25998   -25789 
  -25581   -25610   -25768   -25845   -25898   -26029   -26095   -26046 
  -26076   -26230   -26366   -26373   -26271   -26269   -26455   -26590 
  -26499   -26293   -26119   -25959   -25749   -25560   -25442   -25396 
  -25492   -25650   -25712   -25759   -25829   -25770   -25659   -25643 
  -25678   -25704   -25597   -25381   -25388   -25686   -25968   -26154 
  -26307   -26380   -26464   -26543   -26488   -26520   -26767   -26896 
  -26792   -26617   -26315   -25898   -25628   -25510   -25305   -24953 
  -24661   -24609   -24660   -24634   -24622   -24714   -24772   -24622 
  -24328   -24121   -23998   -23855   -23805   -23936   -24236   -24622 
  -24904   -25116   -25332   -25443   -25501   -25570   -25562   -25505 
  -25443   -25262   -24946   -24768   -24875   -24934   -24718   -24544 
  -24648   -24745   -24640   -24540   -24520   -24517   -24586   -24783 
  -25127   -25427   -25407   -25288   -25554   -26068   -26264   -26080 
  -25906   -25802   -25623   -25479   -25481   -25479   -25226   -24733 
  -24401   -24466   -24740   -25031   -25286   -25455   -25570   -25699 
  -25775   -25789   -25864   -25987   -26022   -25979   -26018   -26172 
  -26194   -26014   -25936   -25952   -25829   -25776   -25978   -26140 
  -26152   -26269   -26468   -26460   -26316   -26299   -26302   -26149 
  -26042   -26067   -25979   -25706   -25297   -24895   -24765   -24876 
  -25045   -25299   -25608   -25799   -25897   -26145   -26578   -26932 
  -26982   -26730   -26404   -26253   -26172   -25860   -25312   -24838 
  -24663   -24852   -25284   -25546   -25539   -25731   -26161   -26457 
  -26705   -26964   -26947   -26724   -26590   -26563   -26617   -26890 
  -27342   -27695   -27846   -27869   -27700   -27318   -26978   -26823 
  -26582   -26096   -25663   -25442   -25207   -24976   -24977   -25119 
  -25203   -25359   -25760   -26206   -26353   -26219   -26256   -26742 
  -27324   -27619   -27707   -27729   -27738   -27842   -28073   -28171 
  -27891   -27437   -27082   -26829   -26622   -26454   -26283   -25901 
  -25367   -25143   -25294   -25434   -25467   -25621   -25897   -26110 
  -26231   -26271   -26188   -26038   -25936   -25886   -25882   -26017 
  -26303   -26617   -26789   -26808   -26886   -26982   -26802   -26461 
  -26180   -25834   -25454   -25357   -25674   -26207   -26605   -26850 
  -27217   -27619   -27756   -27616   -27279   -26869   -26592   -26289 
  -25651   -24948   -24664   -24680   -24579   -24397   -24381   -24533 
  -24721   -24814   -24831   -24892   -24912   -24738   -24425   -24146 
  -24003   -23954   -23955   -24021   -24166   -24545   -25222   -25837 
  -26053   -26029   -26145   -26389   -26464   -26369   -26300   -26370 
  -26596   -26742   -26698   -26665   -26561   -26281   -26114   -26076 
  -25866   -25566   -25344   -25154   -25154   -25531   -26049   -26258 
  -25975   -25524   -25338   -25509   -25890   -26227   -26437   -26663 
  -26832   -26762   -26605   -26515   -26410   -26295   -26095   -25675 
  -25351   -25308   -25209   -25026   -24997   -25037   -25111   -25321 
  -25555   -25776   -26028   -26202   -26277   -26306   -26276   -26281 
  -26303   -26157   -25852   -25481   -25088   -24810   -24703   -24659 
  -24636   -24628   -24568   -24520   -24718   -25104   -25195   -24838 
  -24614   -24900   -25284   -25370   -25215   -24953   -24668   -24391 
  -24156   -24031   -24140   -24501   -24837   -25114   -25562   -26072 
  -26384   -26450   -26419   -26573   -27047   -27568   -27785   -27676 
  -27510   -27402   -27159   -26806   -26541   -26331   -26075   -25812 
  -25748   -25886   -26055   -26293   -26392   -26076   -25794   -25930 
  -26121   -26113   -26014   -25748   -25211   -24655   -24391   -24398 
  -24506   -24653   -24865   -25114   -25334   -25577   -25924   -26315 
  -26662   -26958   -27118   -27059   -27056   -27355   -27646   -27665 
  -27515   -27197   -26642   -25965   -25247   -24564   -24101   -23986 
  -24169   -24398   -24560   -24861   -25251   -25477   -25786   -26460 
  -27122   -27326   -27184   -27052   -26940   -26508   -25712   -24975 
  -24395   -23726   -23201   -23249   -23850   -24742   -25601   -26113 
  -26422   -26904   -27423   -27631   -27595   -27483   -27214   -26820 
  -26595   -26531   -26404   -26554   -27302   -28205   -28858   -29363 
  -29828   -30214   -30402   -30275   -29944   -29708   -29647   -29431 
  -28884   -28313   -27842   -27229   -26508   -26042   -25895   -25729 
  -25481   -25421   -25529   -25535   -25419   -25423   -25600   -25814 
  -26042   -26223   -26158   -25905   -25820   -25874   -25644   -25137 
  -24629   -24133   -23672   -23349   -23247   -23441   -23743   -23922 
  -24147   -24509   -25002   -25817   -26630   -26901   -26920   -27101 
  -27367   -27724   -28158   -28358   -28297   -28140   -27828   -27491 
  -27359   -27267   -27118   -27130   -27272   -27191   -26887   -26671 
  -26528   -26331   -26175   -26022   -25779   -25610   -25591   -25450 
  -25087   -24794   -24707   -24636   -24354   -23738   -23041   -22655 
  -22415   -22075   -21875   -21821   -21645   -21471   -21554   -21949 
  -22547   -23139   -23625   -24066   -24499   -24823   -24942   -24907 
  -24802   -24745   -24779   -24702   -24402   -24032   -23673   -23190 
  -22619   -22192   -22118   -22567   -23306   -23861   -24209   -24549 
  -24985   -25489   -25905   -26277   -26655   -26878   -26921   -26968 
  -27041   -26821   -26218   -25606   -25104   -24614   -24210   -23834 
  -23507   -23448   -23592   -23776   -23944   -24062   -24333   -25008 
  -26022   -27182   -28255   -29050   -29578   -30005   -30497   -31004 
  -31295   -31338   -31270   -31222   -31244   -31132   -30748   -30356 
  -30096   -29673   -28817   -27642   -26518   -25670   -24888   -23959 
  -23093   -22592   -22650   -23157   -23585   -23768   -24194   -25022 
  -25891   -26636   -27145   -27197   -26990   -26800   -26504   -26022 
  -25269   -24202   -23359   -23067   -22815   -22366   -22056   -21946 
  -21969   -22318   -23001   -23743   -24498   -25309   -26065   -26690 
  -27109   -27283   -27288   -27174   -27018   -26898   -26778   -26676 
  -26561   -26212   -25604   -25057   -24746   -24524   -24340   -24340 
  -24354   -23958   -23170   -22405   -21856   -21305   -20544   -19854 
  -19735   -20333   -21394   -22615   -23920   -25313   -26663   -27742 
  -28370   -28734   -29187   -29633   -29812   -29698   -29439   -29286 
  -29228   -28993   -28634   -28368   -28166   -28004   -27965   -27988 
  -28015   -28077   -28125   -28192   -28254   -28063   -27608   -27049 
  -26362   -25645   -25118   -24790   -24582   -24521   -24690   -24945 
  -25126   -25402   -25845   -26130   -26111   -26125   -26462   -26956 
  -27195   -27094   -26982   -26977   -26890   -26697   -26401   -26011 
  -25818   -26049   -26628   -27394   -28061   -28463   -28860   -29339 
  -29552   -29405   -29154   -28871   -28522   -28077   -27322   -26248 
  -25288   -24749   -24474   -24165   -23785   -23448   -23202   -23148 
  -23313   -23534   -23804   -24183   -24490   -24638   -24842   -25284 
  -25863   -26242   -26268   -26141   -26050   -26019   -26036   -26073 
  -26104   -26198   -26389   -26541   -26572   -26499   -26223   -25837 
  -25720   -25928   -26095   -25988   -25672   -25301   -25015   -24787 
  -24497   -24165   -23788   -23398   -23237   -23310   -23251   -23004 
  -22894   -23032   -23337   -23788   -24349   -24976   -25528   -25863 
  -26123   -26484   -26952   -27588   -28236   -28350   -27724   -26844 
  -26202   -25942   -25945   -25909   -25652   -25193   -24691   -24368 
  -24133   -23789   -23545   -23627   -23866   -24038   -24182   -24399 
  -24665   -24914   -25087   -25169   -25259   -25501   -25996   -26693 
  -27415   -28039   -28478   -28822   -29370   -30163   -30782   -30801 
  -30389   -30022   -29721   -29300   -28696   -27899   -27168   -26751 
  -26551   -26523   -26665   -26778   -26709   -26484   -26221   -26103 
  -26173   -26312   -26468   -26688   -26936   -27014   -26858   -26736 
  -26798   -26773   -26518   -26273   -26125   -25847   -25343   -24810 
  -24525   -24439   -24193   -23766   -23522   -23639   -24075   -24703 
  -25304   -25697   -25952   -26322   -26730   -26723   -26279   -25816 
  -25411   -24984   -24655   -24301   -23745   -23303   -23400   -23804 
  -23916   -23737   -23787   -24212   -24653   -24907   -25091   -25188 
  -25033   -24719   -24409   -23982   -23422   -23037   -22929   -22885 
  -22856   -23031   -23550   -24386   -25308   -26149   -27024   -28040 
  -28980   -29577   -29921   -30208   -30325   -30087   -29563   -28945 
  -28370   -27841   -27264   -26771   -26709   -26987   -27064   -26751 
  -26426   -26337   -26364   -26553   -26971   -27232   -27035   -26558 
  -26064   -25686   -25386   -25022   -24676   -24557   -24665   -24926 
  -25284   -25567   -25695   -25674   -25415   -25084   -24915   -24687 
  -24359   -24295   -24422   -24321   -23950   -23625   -23576   -23749 
  -23989   -24175   -24216   -24190   -24385   -24853   -25220   -25332 
  -25506   -25799   -25945   -25965   -25961   -25868   -25818   -25830 
  -25608   -25228   -24987   -24800   -24575   -24375   -24123   -23850 
  -23801   -24024   -24327   -24568   -24856   -25328   -25899   -26416 
  -26763   -26900   -26887   -26754   -26574   -26474   -26441   -26392 
  -26268   -26003   -25651   -25289   -24891   -24618   -24757   -25159 
  -25563   -26010   -26493   -27001   -27642   -28352   -28929   -29253 
  -29290   -29064   -28757   -28572   -28391   -27984   -27513   -27260 
  -27108   -26835   -26499   -26109   -25532   -24837   -24258   -23989 
  -23966   -23886   -23696   -23647   -23857   -24231   -24640   -24984 
  -25300   -25768   -26451   -27136   -27612   -27878   -27962   -27943 
  -27900   -27648   -27020   -26262   -25686   -25255   -24768   -24279 
  -24160   -24561   -25128   -25477   -25614   -25789   -26137   -26542 
  -26785   -26855   -26898   -26908   -26815   -26636   -26380   -25957 
  -25290   -24606   -24231   -23988   -23553   -23079   -22792   -22723 
  -22964   -23453   -23877   -24140   -24422   -24871   -25428   -25887 
  -26181   -26433   -26680   -26873   -26939   -26843   -26765   -26804 
  -26685   -26341   -26130   -26157   -26163   -26092   -26160   -26407 
  -26599   -26607   -26512   -26330   -26029   -25745   -25577   -25386 
  -25146   -24931   -24597   -24105   -23727   -23579   -23429   -23136 
  -22897   -22886   -22979   -23055   -23128   -23180   -23175   -23139 
  -23152   -23268   -23436   -23623   -23858   -24216   -24752   -25370 
  -25960   -26472   -26870   -27166   -27375   -27527   -27661   -27805 
  -27950   -28012   -27977   -27930   -27873   -27768   -27749   -27918 
  -28173   -28525   -28980   -29332   -29502   -29543   -29521   -29542 
  -29497   -29316   -29188   -29076   -28784   -28414   -28135   -27908 
  -27635   -27371   -27249   -27257   -27237   -27086   -26859   -26684 
  -26639   -26696   -26693   -26532   -26333   -26150   -25852   -25461 
  -25142   -24833   -24349   -23743   -23302   -23149   -23112   -23090 
  -23126   -23098   -22898   -22761   -22913   -23209   -23488   -23870 
  -24360   -24698   -24899   -25232   -25593   -25728   -25785   -25967 
  -26179   -26237   -26073   -25845   -25832   -25994   -26034   -25968 
  -26022   -26146   -26188   -26225   -26422   -26839   -27357   -27815 
  -28158   -28383   -28591   -28837   -29007   -29062   -28976   -28683 
  -28246   -27812   -27479   -27232   -27017   -26838   -26653   -26339 
  -25929   -25531   -25045   -24466   -24027   -23800   -23712   -23718 
  -23722   -23693   -23832   -24213   -24564   -24711   -24777   -24825 
  -24840   -24876   -24962   -25015   -24983   -25051   -25375   -25731 
  -25922   -26121   -26356   -26327   -26046   -25934   -26110   -26331 
  -26472   -26496   -26397   -26222   -25941   -25529   -25041   -24494 
  -23895   -23310   -22809   -22374   -22060   -22081   -22399   -22655 
  -22758   -22925   -23260   -23784   -24486   -25149   -25496   -25578 
  -25658   -25787   -25825   -25737   -25628   -25583   -25509   -25316 
  -25218   -25397   -25691   -25880   -25963   -26177   -26665   -27232 
