Origin Time       2025/01/13 21:19:00
Lat.              31.8
Long.             131.6
Depth. (km)       30
Mag.              6.9
Station Code      KOCH11
Station Lat.      33.2866
Station Long.     134.1603
Station Height(m) 90
Record Time       2025/01/13 21:20:40
Sampling Freq(Hz) 100Hz
Duration Time(s)  127
Dir.              6
Scale Factor      7845(gal)/8223790
Max. Acc. (gal)   0.387
Last Correction   2025/01/13 21:20:42
Memo.             
[...]
  -25501   -25479   -25454   -25431   -25428   -25443   -25456   -25450 
  -25420   -25398   -25404   -25405   -25397   -25384   -25358   -25344 
  -25361   -25392   -25412   -25409   -25402   -25407   -25419   -25439 
  -25456   -25466   -25481   -25489   -25486   -25473   -25456   -25451 
  -25452   -25462   -25482   -25494   -25493   -25497   -25516   -25527 
  -25509   -25470   -25436   -25408   -25370   -25343   -25328   -25309 
  -25304   -25315   -25331   -25359   -25386   -25396   -25413   -25425 
  -25420   -25420   -25429   -25447   -25467   -25459   -25436   -25411 
  -25385   -25369   -25347   -25327   -25319   -25304   -25292   -25303 
  -25317   -25336   -25358   -25363   -25367   -25380   -25392   -25415 
  -25436   -25447   -25454   -25448   -25438   -25436   -25427   -25413 
  -25411   -25412   -25421   -25436   -25451   -25469   -25477   -25471 
  -25465   -25456   -25440   -25409   -25366   -25343   -25339   -25327 
  -25305   -25303   -25324   -25359   -25397   -25431   -25444   -25439 
  -25429   -25423   -25420   -25412   -25400   -25384   -25357   -25335 
  -25346   -25375   -25416   -25456   -25496   -25536   -25559   -25544 
  -25523   -25513   -25498   -25474   -25461   -25466   -25486   -25494 
  -25492   -25502   -25505   -25493   -25475   -25459   -25465   -25485 
  -25493   -25501   -25498   -25465   -25416   -25373   -25346   -25346 
  -25353   -25353   -25347   -25342   -25342   -25335   -25313   -25301 
  -25300   -25303   -25313   -25327   -25334   -25332   -25312   -25290 
  -25293   -25308   -25326   -25350   -25375   -25401   -25432   -25466 
  -25485   -25471   -25446   -25440   -25454   -25475   -25481   -25459 
  -25442   -25440   -25450   -25483   -25529   -25555   -25556   -25546 
  -25535   -25537   -25540   -25527   -25486   -25434   -25402   -25397 
  -25413   -25440   -25439   -25412   -25398   -25396   -25394   -25396 
  -25389   -25378   -25365   -25370   -25390   -25386   -25359   -25331 
  -25299   -25270   -25250   -25243   -25259   -25280   -25289   -25304 
  -25320   -25336   -25358   -25375   -25396   -25420   -25434   -25447 
  -25465   -25479   -25494   -25500   -25498   -25523   -25555   -25560 
  -25558   -25563   -25570   -25574   -25571   -25573   -25578   -25555 
  -25515   -25481   -25446   -25420   -25405   -25386   -25371   -25366 
  -25375   -25381   -25357   -25332   -25332   -25342   -25358   -25375 
  -25385   -25390   -25398   -25420   -25451   -25462   -25458   -25452 
  -25447   -25452   -25454   -25446   -25447   -25448   -25444   -25440 
  -25432   -25427   -25415   -25396   -25389   -25394   -25405   -25419 
  -25423   -25423   -25429   -25428   -25428   -25431   -25421   -25412 
  -25404   -25396   -25409   -25436   -25454   -25461   -25455   -25450 
  -25444   -25421   -25408   -25415   -25411   -25393   -25378   -25384 
  -25407   -25408   -25389   -25378   -25377   -25382   -25401   -25415 
  -25420   -25419   -25415   -25423   -25431   -25438   -25459   -25493 
  -25520   -25536   -25546   -25560   -25577   -25573   -25550   -25517 
  -25479   -25454   -25432   -25409   -25398   -25384   -25374   -25385 
  -25389   -25384   -25381   -25384   -25396   -25413   -25428   -25428 
  -25392   -25340   -25316   -25304   -25300   -25315   -25334   -25355 
  -25388   -25427   -25481   -25527   -25540   -25535   -25513   -25477 
  -25443   -25412   -25385   -25369   -25347   -25334   -25351   -25380 
  -25397   -25416   -25447   -25467   -25470   -25467   -25473   -25471 
  -25439   -25384   -25350   -25350   -25350   -25339   -25326   -25315 
  -25311   -25311   -25316   -25332   -25336   -25323   -25317   -25328 
  -25348   -25361   -25358   -25353   -25359   -25366   -25374   -25377 
  -25354   -25311   -25263   -25232   -25238   -25259   -25280   -25304 
  -25323   -25348   -25394   -25444   -25489   -25524   -25537   -25543 
  -25548   -25550   -25551   -25556   -25582   -25614   -25623   -25618 
  -25618   -25621   -25636   -25643   -25618   -25582   -25546   -25520 
  -25520   -25523   -25515   -25492   -25438   -25385   -25370   -25384 
  -25412   -25444   -25469   -25479   -25477   -25485   -25500   -25490 
  -25467   -25442   -25408   -25400   -25409   -25407   -25411   -25417 
  -25416   -25409   -25388   -25369   -25374   -25394   -25413   -25427 
  -25429   -25423   -25404   -25377   -25367   -25377   -25385   -25386 
  -25398   -25427   -25456   -25477   -25485   -25471   -25444   -25411 
  -25377   -25359   -25348   -25336   -25327   -25321   -25330   -25354 
  -25373   -25384   -25388   -25384   -25375   -25370   -25369   -25374 
  -25363   -25330   -25300   -25294   -25309   -25332   -25343   -25354 
  -25384   -25411   -25440   -25469   -25471   -25467   -25470   -25456 
  -25439   -25420   -25397   -25381   -25362   -25347   -25361   -25385 
  -25404   -25424   -25440   -25459   -25474   -25477   -25469   -25451 
  -25420   -25396   -25380   -25367   -25367   -25367   -25366   -25374 
  -25381   -25390   -25404   -25408   -25413   -25412   -25382   -25347 
  -25319   -25286   -25245   -25208   -25200   -25227   -25266   -25305 
  -25338   -25377   -25419   -25435   -25435   -25438   -25429   -25411 
  -25398   -25405   -25436   -25474   -25500   -25509   -25509   -25506 
  -25506   -25505   -25505   -25498   -25481   -25466   -25447   -25416 
  -25392   -25378   -25380   -25397   -25407   -25412   -25413   -25407 
  -25411   -25420   -25397   -25362   -25336   -25313   -25304   -25312 
  -25346   -25397   -25423   -25428   -25456   -25494   -25516   -25528 
  -25532   -25532   -25521   -25509   -25517   -25527   -25520   -25512 
  -25502   -25493   -25492   -25494   -25498   -25500   -25488   -25471 
  -25452   -25420   -25392   -25385   -25397   -25407   -25412   -25424 
  -25431   -25424   -25425   -25434   -25446   -25455   -25432   -25393 
  -25366   -25344   -25339   -25348   -25346   -25336   -25331   -25338 
  -25363   -25384   -25390   -25400   -25405   -25397   -25378   -25359 
  -25361   -25367   -25362   -25355   -25335   -25303   -25297   -25317 
  -25334   -25342   -25357   -25380   -25392   -25386   -25382   -25369 
  -25346   -25348   -25370   -25392   -25401   -25386   -25384   -25417 
  -25447   -25461   -25471   -25466   -25454   -25443   -25424   -25412 
  -25407   -25396   -25386   -25384   -25389   -25396   -25400   -25421 
  -25456   -25467   -25447   -25413   -25396   -25396   -25390   -25373 
  -25365   -25371   -25380   -25369   -25346   -25340   -25353   -25367 
  -25385   -25394   -25386   -25380   -25382   -25402   -25446   -25482 
  -25502   -25524   -25548   -25562   -25560   -25556   -25556   -25547 
  -25536   -25528   -25508   -25479   -25462   -25469   -25482   -25469 
  -25442   -25428   -25428   -25444   -25467   -25494   -25528   -25547 
  -25539   -25544   -25574   -25594   -25598   -25597   -25596   -25598 
  -25597   -25598   -25614   -25624   -25606   -25585   -25578   -25581 
  -25573   -25550   -25520   -25489   -25471   -25450   -25416   -25390 
  -25362   -25332   -25331   -25344   -25348   -25347   -25323   -25301 
  -25324   -25366   -25392   -25397   -25382   -25355   -25328   -25313 
  -25324   -25332   -25328   -25323   -25312   -25309   -25316   -25321 
  -25343   -25380   -25407   -25421   -25420   -25411   -25415   -25431 
  -25443   -25431   -25380   -25331   -25316   -25319   -25331   -25346 
  -25361   -25378   -25393   -25411   -25448   -25500   -25540   -25550 
  -25540   -25533   -25510   -25473   -25462   -25469   -25459   -25442 
  -25424   -25421   -25444   -25463   -25459   -25439   -25407   -25369 
  -25338   -25336   -25362   -25384   -25398   -25419   -25423   -25409 
  -25409   -25415   -25409   -25392   -25361   -25327   -25292   -25263 
  -25251   -25235   -25218   -25231   -25263   -25300   -25336   -25353 
  -25363   -25375   -25382   -25396   -25404   -25398   -25401   -25402 
  -25394   -25397   -25407   -25424   -25428   -25413   -25413   -25431 
  -25459   -25506   -25546   -25560   -25571   -25585   -25594   -25590 
  -25564   -25533   -25497   -25444   -25392   -25365   -25354   -25332 
  -25299   -25286   -25303   -25324   -25344   -25355   -25347   -25328 
  -25294   -25262   -25261   -25266   -25265   -25265   -25267   -25282 
  -25313   -25342   -25358   -25354   -25338   -25338   -25354   -25366 
  -25373   -25373   -25374   -25388   -25407   -25425   -25434   -25420 
  -25394   -25373   -25350   -25324   -25304   -25289   -25269   -25249 
  -25240   -25249   -25269   -25288   -25294   -25303   -25339   -25409 
  -25490   -25560   -25602   -25620   -25632   -25644   -25644   -25621 
  -25579   -25536   -25513   -25524   -25555   -25591   -25633   -25674 
  -25704   -25722   -25728   -25726   -25721   -25686   -25614   -25533 
  -25469   -25440   -25440   -25442   -25440   -25413   -25358   -25327 
  -25338   -25366   -25398   -25413   -25400   -25371   -25338   -25316 
  -25317   -25338   -25363   -25370   -25357   -25344   -25309   -25245 
  -25181   -25130   -25100   -25093   -25089   -25095   -25124   -25162 
  -25191   -25200   -25192   -25173   -25150   -25146   -25168   -25186 
  -25207   -25240   -25269   -25297   -25335   -25374   -25421   -25471 
  -25498   -25501   -25490   -25489   -25506   -25532   -25566   -25606 
  -25629   -25625   -25600   -25569   -25564   -25571   -25559   -25544 
  -25531   -25509   -25488   -25481   -25479   -25462   -25431   -25416 
  -25409   -25388   -25373   -25365   -25339   -25300   -25267   -25257 
  -25261   -25259   -25276   -25334   -25402   -25454   -25482   -25492 
  -25500   -25501   -25489   -25481   -25479   -25477   -25475   -25467 
  -25446   -25419   -25416   -25425   -25420   -25415   -25439   -25463 
  -25444   -25390   -25344   -25332   -25344   -25375   -25425   -25469 
  -25473   -25439   -25424   -25450   -25455   -25425   -25413   -25423 
  -25438   -25462   -25496   -25529   -25548   -25544   -25537   -25517 
  -25455   -25377   -25319   -25284   -25242   -25186   -25164   -25195 
  -25243   -25300   -25381   -25442   -25467   -25482   -25488   -25479 
  -25471   -25461   -25459   -25463   -25463   -25477   -25494   -25493 
  -25489   -25500   -25523   -25542   -25550   -25573   -25605   -25612 
  -25600   -25585   -25571   -25575   -25581   -25563   -25531   -25506 
  -25508   -25527   -25547   -25564   -25560   -25525   -25492   -25488 
  -25498   -25509   -25500   -25461   -25407   -25369   -25375   -25407 
  -25425   -25417   -25389   -25381   -25404   -25434   -25446   -25427 
  -25386   -25353   -25338   -25353   -25384   -25382   -25353   -25331 
  -25316   -25308   -25315   -25327   -25332   -25320   -25297   -25281 
  -25250   -25215   -25200   -25196   -25203   -25240   -25299   -25346 
  -25347   -25321   -25330   -25355   -25353   -25340   -25346   -25367 
  -25386   -25407   -25448   -25505   -25529   -25509   -25473   -25435 
  -25401   -25373   -25340   -25317   -25304   -25285   -25266   -25277 
  -25317   -25357   -25381   -25392   -25390   -25398   -25421   -25428 
  -25397   -25340   -25281   -25258   -25292   -25361   -25439   -25504 
  -25543   -25582   -25617   -25627   -25602   -25542   -25475   -25442 
  -25420   -25413   -25446   -25490   -25516   -25521   -25513   -25512 
  -25523   -25520   -25488   -25447   -25432   -25428   -25396   -25347 
  -25313   -25324   -25374   -25415   -25444   -25485   -25505   -25482 
  -25440   -25401   -25378   -25335   -25267   -25240   -25265   -25299 
  -25338   -25377   -25412   -25425   -25386   -25324   -25293   -25288 
  -25294   -25323   -25351   -25354   -25344   -25338   -25362   -25408 
  -25448   -25488   -25525   -25546   -25537   -25515   -25498   -25479 
  -25451   -25436   -25417   -25378   -25343   -25324   -25326   -25334 
  -25323   -25320   -25344   -25367   -25361   -25332   -25324   -25342 
  -25358   -25378   -25402   -25408   -25402   -25398   -25405   -25421 
  -25397   -25338   -25305   -25319   -25367   -25448   -25525   -25575 
  -25585   -25542   -25479   -25428   -25393   -25382   -25385   -25400 
  -25429   -25447   -25454   -25469   -25485   -25502   -25517   -25515 
  -25504   -25465   -25394   -25338   -25311   -25311   -25331   -25363 
  -25408   -25458   -25498   -25513   -25486   -25444   -25435   -25451 
  -25466   -25478   -25500   -25528   -25544   -25546   -25559   -25590 
  -25606   -25608   -25596   -25552   -25512   -25481   -25436   -25400 
  -25385   -25400   -25454   -25490   -25489   -25474   -25443   -25402 
  -25366   -25331   -25296   -25250   -25212   -25189   -25155   -25126 
  -25123   -25139   -25170   -25226   -25299   -25375   -25432   -25456 
  -25459   -25434   -25385   -25365   -25405   -25470   -25504   -25497 
  -25492   -25502   -25516   -25535   -25559   -25574   -25571   -25564 
  -25583   -25621   -25641   -25637   -25621   -25602   -25602   -25625 
  -25633   -25621   -25613   -25602   -25573   -25521   -25466   -25423 
  -25386   -25347   -25316   -25316   -25347   -25398   -25451   -25486 
  -25504   -25502   -25470   -25407   -25336   -25274   -25235   -25238 
  -25253   -25262   -25267   -25258   -25235   -25212   -25203   -25215 
  -25242   -25269   -25289   -25285   -25277   -25304   -25344   -25380 
  -25394   -25366   -25331   -25334   -25353   -25353   -25327   -25285 
  -25242   -25213   -25216   -25250   -25288   -25321   -25373   -25455 
  -25543   -25586   -25582   -25570   -25547   -25524   -25528   -25532 
  -25501   -25432   -25351   -25297   -25292   -25321   -25366   -25420 
  -25477   -25531   -25558   -25547   -25513   -25463   -25423   -25431 
  -25490   -25590   -25704   -25789   -25821   -25809   -25787   -25775 
  -25737   -25660   -25564   -25462   -25361   -25263   -25177   -25158 
  -25219   -25316   -25416   -25492   -25521   -25475   -25369   -25281 
  -25226   -25159   -25101   -25078   -25089   -25135   -25204   -25294 
  -25425   -25566   -25658   -25683   -25641   -25555   -25479   -25444 
  -25434   -25424   -25416   -25431   -25481   -25560   -25654   -25721 
  -25744   -25732   -25704   -25681   -25652   -25587   -25485   -25375 
  -25308   -25309   -25357   -25423   -25490   -25515   -25483   -25411 
  -25315   -25228   -25177   -25168   -25184   -25189   -25192   -25219 
  -25265   -25315   -25369   -25419   -25435   -25407   -25353   -25311 
  -25294   -25286   -25276   -25267   -25284   -25313   -25355   -25411 
  -25451   -25459   -25425   -25340   -25255   -25215   -25192   -25158 
  -25146   -25193   -25297   -25408   -25488   -25546   -25570   -25570 
  -25583   -25589   -25542   -25465   -25392   -25365   -25394   -25435 
  -25463   -25477   -25474   -25488   -25519   -25528   -25516   -25497 
  -25492   -25506   -25512   -25508   -25504   -25478   -25444   -25429 
  -25427   -25421   -25402   -25385   -25375   -25339   -25293   -25274 
  -25272   -25277   -25281   -25290   -25347   -25446   -25560   -25678 
  -25748   -25741   -25674   -25563   -25451   -25375   -25331   -25307 
  -25289   -25266   -25245   -25242   -25262   -25293   -25319   -25359 
  -25423   -25465   -25463   -25427   -25367   -25321   -25293   -25258 
  -25243   -25282   -25338   -25385   -25436   -25485   -25496   -25463 
  -25427   -25413   -25424   -25431   -25413   -25409   -25436   -25451 
  -25466   -25509   -25554   -25566   -25539   -25490   -25459   -25454 
  -25471   -25506   -25542   -25564   -25563   -25551   -25570   -25597 
  -25601   -25594   -25577   -25544   -25537   -25548   -25544   -25537 
  -25542   -25556   -25566   -25537   -25502   -25502   -25517   -25535 
  -25543   -25533   -25508   -25448   -25392   -25388   -25409   -25412 
  -25370   -25305   -25261   -25207   -25119   -25045   -25019   -25046 
  -25108   -25178   -25245   -25288   -25307   -25330   -25361   -25373 
  -25353   -25293   -25218   -25162   -25130   -25135   -25192   -25270 
  -25339   -25382   -25409   -25444   -25478   -25498   -25512   -25509 
  -25466   -25402   -25355   -25338   -25317   -25285   -25289   -25332 
  -25370   -25396   -25419   -25431   -25419   -25369   -25303   -25255 
  -25238   -25245   -25266   -25280   -25273   -25255   -25251   -25276 
  -25300   -25321   -25358   -25393   -25419   -25442   -25461   -25478 
  -25498   -25513   -25531   -25562   -25598   -25623   -25633   -25636 
  -25633   -25620   -25612   -25610   -25598   -25574   -25533   -25474 
  -25408   -25350   -25305   -25276   -25278   -25305   -25321   -25315 
  -25317   -25350   -25380   -25393   -25396   -25389   -25369   -25348 
  -25358   -25398   -25424   -25413   -25407   -25421   -25448   -25483 
  -25531   -25575   -25602   -25618   -25627   -25621   -25610   -25594 
  -25570   -25551   -25535   -25506   -25456   -25405   -25402   -25442 
  -25466   -25474   -25490   -25498   -25488   -25465   -25448   -25455 
  -25465   -25450   -25417   -25388   -25361   -25326   -25309   -25336 
  -25386   -25446   -25519   -25583   -25616   -25604   -25542   -25465 
  -25408   -25375   -25380   -25401   -25401   -25396   -25397   -25400 
  -25413   -25428   -25452   -25504   -25552   -25579   -25582   -25536 
  -25467   -25423   -25400   -25400   -25415   -25429   -25456   -25485 
  -25494   -25490   -25473   -25450   -25438   -25434   -25444   -25451 
  -25438   -25413   -25378   -25348   -25343   -25348   -25371   -25413 
  -25440   -25446   -25442   -25416   -25367   -25323   -25320   -25377 
  -25440   -25463   -25455   -25428   -25396   -25378   -25373   -25386 
  -25412   -25432   -25444   -25436   -25415   -25397   -25389   -25390 
  -25388   -25370   -25362   -25375   -25389   -25394   -25400   -25420 
  -25455   -25488   -25502   -25500   -25481   -25473   -25477   -25471 
  -25455   -25443   -25438   -25446   -25461   -25481   -25521   -25567 
  -25596   -25590   -25548   -25486   -25411   -25348   -25326   -25312 
  -25300   -25311   -25328   -25342   -25348   -25335   -25326   -25317 
  -25281   -25230   -25184   -25147   -25131   -25131   -25149   -25173 
  -25191   -25218   -25265   -25315   -25365   -25393   -25396   -25401 
  -25421   -25456   -25482   -25470   -25434   -25405   -25385   -25366 
  -25358   -25363   -25390   -25431   -25475   -25533   -25579   -25594 
  -25591   -25563   -25524   -25506   -25496   -25486   -25475   -25463 
  -25471   -25496   -25517   -25539   -25546   -25532   -25523   -25509 
  -25486   -25463   -25434   -25405   -25400   -25408   -25420   -25428 
  -25427   -25427   -25423   -25415   -25419   -25428   -25427   -25409 
  -25374   -25334   -25296   -25265   -25267   -25311   -25374   -25439 
  -25477   -25483   -25462   -25415   -25384   -25382   -25386   -25381 
  -25359   -25330   -25324   -25336   -25342   -25336   -25338   -25355 
  -25353   -25324   -25311   -25307   -25293   -25289   -25305   -25350 
  -25411   -25436   -25436   -25452   -25474   -25474   -25442   -25402 
  -25375   -25335   -25292   -25263   -25245   -25238   -25240   -25242 
  -25257   -25272   -25281   -25320   -25374   -25413   -25420   -25386 
  -25361   -25374   -25390   -25407   -25429   -25455   -25486   -25508 
  -25516   -25521   -25496   -25438   -25386   -25354   -25348   -25366 
  -25381   -25402   -25442   -25490   -25548   -25604   -25644   -25671 
  -25677   -25660   -25625   -25575   -25536   -25508   -25470   -25436 
  -25415   -25397   -25375   -25338   -25286   -25235   -25184   -25139 
  -25107   -25073   -25043   -25043   -25074   -25108   -25111   -25099 
  -25105   -25126   -25150   -25184   -25213   -25243   -25277   -25300 
