Origin Time       2025/01/13 21:19:00
Lat.              31.8
Long.             131.6
Depth. (km)       30
Mag.              6.9
Station Code      KOCH10
Station Lat.      33.5313
Station Long.     133.4388
Station Height(m) -91
Record Time       2025/01/13 21:20:21
Sampling Freq(Hz) 100Hz
Duration Time(s)  164
Dir.              2
Scale Factor      3923(gal)/8224838
Max. Acc. (gal)   0.666
Last Correction   2025/01/13 21:20:21
Memo.             
[...]
  -39274   -39264   -39222   -39162   -39089   -39010   -38958   -38946 
  -38970   -39005   -39029   -39037   -39025   -38990   -38955   -38959 
  -39002   -39056   -39109   -39155   -39186   -39214   -39260   -39318 
  -39380   -39456   -39528   -39568   -39587   -39600   -39614   -39642 
  -39692   -39735   -39761   -39768   -39744   -39699   -39656   -39614 
  -39571   -39541   -39534   -39553   -39595   -39640   -39665   -39669 
  -39673   -39683   -39665   -39604   -39523   -39433   -39349   -39310 
  -39316   -39328   -39320   -39302   -39293   -39289   -39294   -39333 
  -39384   -39403   -39411   -39457   -39519   -39565   -39613   -39653 
  -39667   -39683   -39733   -39799   -39860   -39908   -39930   -39924 
  -39928   -39958   -39991   -40003   -39996   -39964   -39912   -39860 
  -39819   -39800   -39799   -39798   -39783   -39758   -39748   -39738 
  -39714   -39702   -39715   -39739   -39765   -39795   -39814   -39807 
  -39780   -39758   -39760   -39756   -39737   -39723   -39725   -39725 
  -39725   -39738   -39760   -39781   -39815   -39865   -39918   -39982 
  -40065   -40142   -40192   -40217   -40246   -40284   -40321   -40344 
  -40329   -40273   -40204   -40154   -40116   -40084   -40078   -40093 
  -40097   -40076   -40035   -39981   -39924   -39868   -39822   -39810 
  -39835   -39899   -40008   -40135   -40231   -40294   -40336   -40342 
  -40311   -40277   -40271   -40304   -40343   -40352   -40342   -40336 
  -40343   -40363   -40379   -40381   -40390   -40410   -40423   -40419 
  -40390   -40338   -40296   -40286   -40284   -40278   -40277   -40259 
  -40197   -40100   -39993   -39897   -39839   -39818   -39803   -39780 
  -39739   -39669   -39594   -39563   -39567   -39571   -39576   -39580 
  -39582   -39594   -39614   -39636   -39656   -39680   -39714   -39748 
  -39768   -39775   -39772   -39754   -39734   -39739   -39777   -39837 
  -39899   -39941   -39977   -40035   -40084   -40122   -40166   -40180 
  -40140   -40070   -39984   -39899   -39841   -39800   -39760   -39721 
  -39676   -39621   -39571   -39533   -39503   -39476   -39447   -39411 
  -39371   -39343   -39344   -39376   -39425   -39476   -39523   -39561 
  -39586   -39614   -39660   -39719   -39783   -39827   -39847   -39865 
  -39897   -39931   -39937   -39907   -39872   -39858   -39887   -39938 
  -39973   -39992   -39993   -39957   -39900   -39858   -39830   -39804 
  -39792   -39777   -39746   -39726   -39731   -39739   -39734   -39714 
  -39676   -39636   -39595   -39549   -39517   -39515   -39548   -39602 
  -39667   -39723   -39754   -39762   -39762   -39757   -39744   -39718 
  -39681   -39657   -39672   -39714   -39748   -39748   -39717   -39683 
  -39669   -39673   -39694   -39726   -39760   -39789   -39823   -39869 
  -39939   -40035   -40130   -40205   -40262   -40308   -40351   -40390 
  -40414   -40443   -40497   -40559   -40598   -40603   -40578   -40548 
  -40540   -40544   -40536   -40498   -40433   -40366   -40311   -40258 
  -40216   -40197   -40194   -40198   -40204   -40189   -40146   -40104 
  -40072   -40035   -39995   -39961   -39937   -39924   -39927   -39937 
  -39949   -39972   -39987   -39997   -40022   -40035   -40022   -39997 
  -39955   -39912   -39903   -39927   -39957   -39985   -40020   -40050 
  -40053   -40022   -39984   -39943   -39889   -39826   -39765   -39707 
  -39660   -39622   -39590   -39576   -39572   -39576   -39604   -39646 
  -39675   -39683   -39667   -39623   -39567   -39522   -39492   -39455 
  -39415   -39383   -39352   -39325   -39318   -39329   -39334   -39332 
  -39334   -39347   -39364   -39387   -39415   -39451   -39502   -39572 
  -39654   -39738   -39818   -39888   -39939   -39969   -39982   -39985 
  -39999   -40035   -40076   -40105   -40130   -40138   -40120   -40089 
  -40043   -39984   -39931   -39880   -39814   -39749   -39699   -39644 
  -39586   -39544   -39522   -39515   -39511   -39506   -39511   -39532 
  -39560   -39595   -39644   -39691   -39722   -39752   -39791   -39829 
  -39858   -39872   -39860   -39830   -39807   -39791   -39771   -39748 
  -39730   -39710   -39683   -39658   -39644   -39634   -39629   -39626 
  -39633   -39665   -39718   -39781   -39839   -39866   -39862   -39830 
  -39773   -39708   -39665   -39654   -39661   -39675   -39690   -39703 
  -39718   -39734   -39744   -39738   -39710   -39671   -39656   -39671 
  -39683   -39684   -39687   -39696   -39730   -39795   -39862   -39907 
  -39926   -39934   -39957   -40003   -40058   -40104   -40130   -40138 
  -40130   -40105   -40085   -40076   -40061   -40031   -39991   -39960 
  -39949   -39942   -39937   -39924   -39895   -39862   -39843   -39825 
  -39803   -39788   -39788   -39799   -39823   -39866   -39906   -39930 
  -39960   -39999   -40034   -40073   -40122   -40167   -40209   -40248 
  -40282   -40306   -40317   -40317   -40308   -40298   -40309   -40320 
  -40294   -40248   -40212   -40173   -40117   -40050   -39968   -39872 
  -39757   -39619   -39483   -39368   -39271   -39195   -39151   -39127 
  -39114   -39104   -39086   -39073   -39083   -39128   -39193   -39276 
  -39370   -39455   -39542   -39646   -39765   -39891   -40018   -40138 
  -40248   -40355   -40456   -40540   -40613   -40690   -40775   -40861 
  -40945   -41026   -41100   -41145   -41154   -41146   -41139   -41123 
  -41083   -41033   -40980   -40910   -40817   -40701   -40563   -40423 
  -40306   -40213   -40111   -39996   -39893   -39793   -39684   -39582 
  -39479   -39368   -39262   -39189   -39147   -39123   -39113   -39118 
  -39133   -39154   -39168   -39159   -39127   -39096   -39075   -39064 
  -39070   -39096   -39131   -39179   -39236   -39279   -39312   -39340 
  -39361   -39383   -39403   -39407   -39395   -39378   -39371   -39390 
  -39432   -39490   -39555   -39614   -39672   -39731   -39785   -39838 
  -39884   -39916   -39946   -39982   -40034   -40103   -40192   -40286 
  -40371   -40444   -40505   -40562   -40621   -40671   -40706   -40734 
  -40753   -40774   -40805   -40836   -40855   -40865   -40868   -40857 
  -40833   -40794   -40728   -40633   -40514   -40389   -40263   -40139 
  -40023   -39927   -39845   -39756   -39663   -39591   -39545   -39496 
  -39436   -39370   -39307   -39258   -39220   -39202   -39217   -39247 
  -39268   -39279   -39290   -39306   -39328   -39336   -39330   -39324 
  -39307   -39280   -39266   -39280   -39314   -39367   -39447   -39546 
  -39644   -39718   -39772   -39818   -39865   -39916   -39969   -40026 
  -40097   -40177   -40262   -40347   -40427   -40495   -40548   -40576 
  -40595   -40620   -40648   -40690   -40744   -40794   -40836   -40871 
  -40896   -40918   -40915   -40869   -40801   -40713   -40601   -40481 
  -40373   -40274   -40173   -40072   -39970   -39861   -39744   -39625 
  -39510   -39399   -39301   -39218   -39156   -39106   -39066   -39037 
  -39025   -39032   -39058   -39096   -39123   -39131   -39118   -39094 
  -39075   -39075   -39086   -39100   -39114   -39120   -39100   -39064 
  -39042   -39027   -39012   -38997   -38969   -38924   -38896   -38900 
  -38921   -38950   -38973   -38982   -38988   -38990   -38978   -38948 
  -38908   -38859   -38809   -38773   -38757   -38746   -38728   -38715 
  -38718   -38726   -38738   -38755   -38777   -38804   -38843   -38896 
  -38966   -39040   -39096   -39135   -39178   -39224   -39260   -39286 
  -39312   -39340   -39355   -39351   -39347   -39367   -39397   -39421 
  -39455   -39511   -39591   -39677   -39764   -39870   -40001   -40138 
  -40271   -40398   -40509   -40612   -40714   -40810   -40895   -40961 
  -41003   -41035   -41064   -41076   -41067   -41042   -41013   -40976 
  -40915   -40845   -40775   -40701   -40624   -40556   -40491   -40412 
  -40325   -40246   -40176   -40117   -40063   -40005   -39955   -39919 
  -39883   -39837   -39789   -39757   -39734   -39714   -39694   -39681 
  -39691   -39722   -39762   -39793   -39807   -39812   -39820   -39835 
  -39861   -39893   -39914   -39924   -39945   -39974   -40000   -40022 
  -40038   -40039   -40020   -39978   -39918   -39852   -39792   -39733 
  -39676   -39623   -39573   -39522   -39468   -39414   -39372   -39330 
  -39282   -39245   -39231   -39228   -39229   -39228   -39226   -39240 
  -39276   -39337   -39413   -39488   -39575   -39677   -39771   -39833 
  -39884   -39927   -39949   -39962   -39984   -40015   -40063   -40124 
  -40178   -40216   -40252   -40288   -40327   -40383   -40439   -40470 
  -40482   -40474   -40448   -40421   -40390   -40352   -40321   -40301 
  -40286   -40269   -40240   -40211   -40178   -40127   -40054   -39980 
  -39911   -39852   -39808   -39777   -39752   -39733   -39722   -39702 
  -39664   -39614   -39555   -39491   -39436   -39391   -39355   -39328 
  -39302   -39282   -39259   -39218   -39181   -39160   -39139   -39100 
  -39060   -39042   -39033   -39016   -39002   -39005   -39019   -39040 
  -39066   -39096   -39140   -39202   -39267   -39314   -39333   -39329 
  -39314   -39287   -39268   -39272   -39289   -39298   -39307   -39325 
  -39343   -39368   -39411   -39459   -39510   -39571   -39641   -39722 
  -39803   -39877   -39947   -40004   -40031   -40039   -40054   -40081 
  -40116   -40158   -40190   -40203   -40194   -40176   -40170   -40190 
  -40232   -40293   -40362   -40413   -40447   -40468   -40483   -40495 
  -40501   -40497   -40494   -40497   -40505   -40517   -40539   -40563 
  -40572   -40549   -40506   -40456   -40409   -40370   -40344   -40332 
  -40317   -40302   -40306   -40324   -40348   -40366   -40360   -40340 
  -40323   -40309   -40290   -40270   -40238   -40188   -40134   -40084 
  -40036   -39996   -39955   -39915   -39893   -39901   -39923   -39945 
  -39966   -39982   -39987   -39989   -39997   -40004   -40005   -40007 
  -40007   -39992   -39965   -39949   -39951   -39946   -39915   -39852 
  -39766   -39675   -39568   -39445   -39340   -39259   -39179   -39106 
  -39047   -38996   -38948   -38909   -38890   -38902   -38939   -38998 
  -39079   -39170   -39271   -39388   -39529   -39683   -39823   -39938 
  -40042   -40136   -40219   -40289   -40351   -40401   -40439   -40471 
  -40509   -40551   -40586   -40598   -40587   -40570   -40536   -40489 
  -40454   -40431   -40404   -40369   -40325   -40271   -40208   -40146 
  -40084   -40015   -39946   -39876   -39800   -39730   -39681   -39654 
  -39638   -39625   -39606   -39580   -39560   -39561   -39595   -39640 
  -39676   -39703   -39721   -39739   -39769   -39796   -39818   -39846 
  -39883   -39924   -39970   -40008   -40031   -40047   -40054   -40053 
  -40062   -40073   -40077   -40081   -40072   -40043   -40014   -39981 
  -39951   -39930   -39910   -39891   -39892   -39912   -39935   -39957 
  -39984   -40016   -40042   -40053   -40047   -40032   -40026   -40028 
  -40039   -40063   -40105   -40158   -40211   -40262   -40321   -40383 
  -40441   -40498   -40548   -40585   -40613   -40640   -40652   -40663 
  -40686   -40710   -40721   -40720   -40709   -40698   -40676   -40640 
  -40595   -40548   -40497   -40444   -40386   -40325   -40277   -40228 
  -40166   -40096   -40020   -39941   -39861   -39788   -39725   -39668 
  -39610   -39549   -39479   -39391   -39293   -39190   -39087   -38990 
  -38921   -38885   -38863   -38844   -38823   -38803   -38793   -38801 
  -38816   -38838   -38865   -38892   -38935   -38996   -39062   -39132 
  -39206   -39279   -39351   -39414   -39464   -39505   -39545   -39586 
  -39626   -39664   -39710   -39764   -39822   -39879   -39931   -39980 
  -40016   -40036   -40053   -40057   -40036   -40007   -39977   -39947 
  -39924   -39896   -39849   -39795   -39744   -39685   -39626   -39564 
  -39509   -39476   -39465   -39467   -39476   -39483   -39487   -39494 
  -39502   -39506   -39511   -39523   -39540   -39563   -39594   -39627 
  -39671   -39721   -39769   -39822   -39877   -39924   -39966   -39995 
  -40009   -40020   -40030   -40038   -40057   -40097   -40154   -40217 
  -40274   -40308   -40320   -40331   -40351   -40370   -40374   -40366 
  -40363   -40358   -40354   -40362   -40371   -40375   -40375   -40367 
  -40347   -40319   -40278   -40220   -40157   -40103   -40055   -40005 
  -39957   -39904   -39846   -39779   -39706   -39633   -39567   -39506 
  -39433   -39360   -39297   -39239   -39186   -39155   -39140   -39128 
  -39132   -39158   -39198   -39249   -39317   -39387   -39455   -39521 
  -39577   -39631   -39698   -39784   -39869   -39930   -39961   -39977 
  -39981   -39976   -39958   -39939   -39922   -39897   -39873   -39857 
  -39838   -39812   -39787   -39750   -39712   -39683   -39669   -39677 
  -39692   -39702   -39714   -39742   -39788   -39839   -39887   -39926 
  -39960   -39985   -40001   -40031   -40077   -40116   -40158   -40207 
  -40244   -40265   -40270   -40263   -40247   -40215   -40177   -40149 
  -40117   -40069   -40003   -39924   -39847   -39780   -39723   -39677 
  -39630   -39575   -39515   -39465   -39424   -39384   -39344   -39313 
  -39306   -39314   -39325   -39334   -39343   -39337   -39318   -39299 
  -39279   -39253   -39236   -39226   -39218   -39214   -39218   -39229 
  -39243   -39266   -39295   -39339   -39387   -39424   -39451   -39471 
  -39484   -39498   -39509   -39517   -39540   -39569   -39583   -39583 
  -39582   -39580   -39575   -39568   -39565   -39569   -39569   -39568 
  -39576   -39602   -39640   -39673   -39703   -39742   -39792   -39845 
  -39906   -39981   -40066   -40150   -40242   -40344   -40450   -40551 
  -40649   -40749   -40844   -40927   -41011   -41085   -41137   -41172 
  -41195   -41193   -41169   -41122   -41064   -41002   -40927   -40851 
  -40780   -40702   -40602   -40490   -40369   -40231   -40092   -39970 
  -39868   -39781   -39706   -39629   -39548   -39469   -39394   -39318 
  -39241   -39164   -39094   -39036   -38993   -38975   -38975   -38975 
  -38971   -38966   -38959   -38963   -38977   -39001   -39043   -39091 
  -39139   -39191   -39240   -39271   -39291   -39306   -39316   -39328 
  -39349   -39372   -39397   -39429   -39461   -39484   -39503   -39521 
  -39542   -39571   -39609   -39646   -39685   -39721   -39754   -39800 
  -39856   -39911   -39960   -39997   -40030   -40063   -40108   -40169 
  -40232   -40282   -40321   -40360   -40394   -40423   -40454   -40487 
  -40531   -40570   -40585   -40585   -40590   -40610   -40629   -40633 
  -40637   -40641   -40639   -40630   -40622   -40602   -40563   -40517 
  -40467   -40402   -40332   -40267   -40211   -40161   -40112   -40062 
  -40011   -39958   -39900   -39841   -39792   -39744   -39672   -39590 
  -39509   -39430   -39355   -39283   -39210   -39141   -39078   -39017 
  -38973   -38942   -38915   -38904   -38902   -38898   -38896   -38908 
  -38929   -38955   -38978   -39000   -39023   -39050   -39082   -39118 
  -39158   -39201   -39251   -39299   -39345   -39391   -39433   -39468 
  -39495   -39523   -39561   -39603   -39644   -39684   -39726   -39757 
  -39775   -39791   -39811   -39827   -39845   -39861   -39860   -39834 
  -39802   -39773   -39757   -39754   -39753   -39750   -39754   -39769 
  -39785   -39798   -39807   -39816   -39826   -39842   -39865   -39888 
  -39916   -39949   -39970   -39977   -39982   -39997   -40022   -40054 
  -40088   -40115   -40126   -40117   -40105   -40093   -40082   -40069 
  -40042   -39993   -39941   -39891   -39845   -39799   -39750   -39708 
  -39675   -39648   -39629   -39610   -39591   -39579   -39565   -39548 
  -39541   -39542   -39548   -39568   -39595   -39622   -39664   -39714 
  -39762   -39814   -39870   -39922   -39965   -40000   -40032   -40069 
  -40109   -40151   -40193   -40220   -40231   -40232   -40228   -40228 
  -40225   -40219   -40217   -40220   -40223   -40217   -40196   -40165 
  -40132   -40103   -40070   -40031   -39987   -39933   -39874   -39822 
  -39777   -39733   -39684   -39637   -39588   -39530   -39469   -39418 
  -39363   -39297   -39237   -39187   -39145   -39117   -39094   -39067 
  -39043   -39021   -39008   -39006   -38996   -38969   -38951   -38951 
  -38955   -38958   -38966   -38983   -39009   -39047   -39087   -39132 
  -39181   -39229   -39275   -39322   -39366   -39403   -39447   -39490 
  -39533   -39579   -39630   -39690   -39753   -39808   -39864   -39919 
  -39968   -40003   -40022   -40024   -40020   -40016   -40014   -40009 
  -40005   -40000   -39981   -39943   -39900   -39845   -39768   -39690 
  -39619   -39546   -39480   -39425   -39374   -39325   -39287   -39258 
  -39232   -39212   -39197   -39187   -39187   -39195   -39208   -39222 
  -39248   -39280   -39303   -39317   -39326   -39330   -39344   -39370 
  -39393   -39399   -39395   -39387   -39384   -39394   -39414   -39444 
  -39476   -39509   -39542   -39572   -39600   -39638   -39673   -39696 
  -39723   -39758   -39802   -39850   -39899   -39951   -40009   -40063 
  -40115   -40170   -40219   -40259   -40301   -40347   -40393   -40436 
  -40467   -40482   -40486   -40481   -40459   -40427   -40393   -40348 
  -40294   -40236   -40173   -40107   -40054   -40016   -39984   -39946 
  -39903   -39853   -39803   -39757   -39715   -39680   -39667   -39680 
  -39703   -39727   -39762   -39804   -39839   -39872   -39903   -39935 
  -39966   -39982   -39978   -39961   -39935   -39896   -39846   -39795 
  -39741   -39683   -39619   -39552   -39483   -39407   -39332   -39255 
  -39182   -39124   -39071   -39021   -38983   -38966   -38961   -38973 
  -38993   -39008   -39024   -39051   -39079   -39114   -39158   -39201 
  -39244   -39293   -39341   -39395   -39457   -39518   -39577   -39645 
  -39714   -39773   -39827   -39874   -39923   -39980   -40041   -40097 
  -40151   -40203   -40246   -40278   -40308   -40336   -40354   -40367 
  -40375   -40375   -40371   -40366   -40358   -40351   -40347   -40339 
  -40312   -40271   -40235   -40207   -40181   -40151   -40116   -40080 
  -40049   -40026   -40016   -40011   -40007   -40005   -40009   -40016 
  -40035   -40076   -40136   -40196   -40244   -40298   -40363   -40429 
  -40481   -40516   -40547   -40581   -40613   -40636   -40641   -40639 
  -40632   -40606   -40568   -40528   -40479   -40427   -40375   -40321 
  -40259   -40194   -40119   -40028   -39926   -39816   -39700   -39591 
  -39505   -39434   -39375   -39326   -39278   -39231   -39189   -39152 
  -39113   -39074   -39044   -39031   -39031   -39035   -39044   -39060 
  -39075   -39087   -39102   -39124   -39155   -39182   -39204   -39220 
  -39225   -39222   -39221   -39217   -39206   -39185   -39154   -39113 
  -39071   -39037   -39023   -39027   -39036   -39046   -39069   -39105 
  -39133   -39155   -39175   -39195   -39222   -39260   -39306   -39360 
  -39422   -39490   -39557   -39622   -39683   -39739   -39785   -39818 
  -39847   -39887   -39930   -39965   -39992   -40009   -40020   -40023 
  -40027   -40042   -40050   -40046   -40039   -40032   -40016   -39992 
  -39965   -39939   -39926   -39927   -39939   -39957   -39970   -39980 
  -39985   -39981   -39972   -39965   -39955   -39937   -39914   -39896 
  -39884   -39858   -39825   -39792   -39761   -39729   -39694   -39663 
  -39641   -39618   -39591   -39567   -39544   -39523   -39510   -39498 
  -39478   -39455   -39432   -39405   -39370   -39332   -39291   -39247 
  -39199   -39150   -39098   -39048   -39005   -38970   -38944   -38927 
  -38915   -38913   -38924   -38942   -38967   -39005   -39047   -39087 
  -39137   -39199   -39267   -39337   -39409   -39484   -39564   -39640 
