Origin Time       2025/01/13 21:19:00
Lat.              31.8
Long.             131.6
Depth. (km)       30
Mag.              6.9
Station Code      KOCH01
Station Lat.      33.5421
Station Long.     134.1197
Station Height(m) 235
Record Time       2025/01/13 21:20:40
Sampling Freq(Hz) 100Hz
Duration Time(s)  120
Dir.              5
Scale Factor      7845(gal)/8223790
Max. Acc. (gal)   0.877
Last Correction   2025/01/13 21:20:41
Memo.             
[...]
    -384     -391     -392     -403     -421     -422     -421     -432 
    -445     -446     -415     -369     -349     -344     -326     -309 
    -298     -282     -260     -260     -303     -383     -452     -484 
    -480     -452     -405     -363     -344     -328     -284     -229 
    -198     -214     -271     -333     -391     -437     -442     -410 
    -383     -390     -406     -409     -399     -398     -417     -445 
    -465     -483     -484     -450     -411     -379     -349     -325 
    -295     -284     -302     -319     -341     -353     -342     -332 
    -340     -355     -357     -355     -375     -411     -441     -459 
    -457     -450     -453     -459     -463     -467     -456     -429 
    -399     -379     -369     -361     -356     -361     -371     -375 
    -373     -369     -375     -373     -348     -307     -265     -255 
    -278     -309     -322     -310     -303     -321     -341     -368 
    -398     -403     -406     -414     -398     -367     -348     -341 
    -356     -379     -384     -390     -410     -426     -426     -419 
    -418     -430     -444     -433     -411     -402     -391     -373 
    -375     -403     -444     -469     -459     -440     -427     -406 
    -386     -369     -344     -324     -310     -317     -352     -388 
    -407     -421     -437     -465     -486     -471     -441     -433 
    -445     -448     -434     -432     -448     -456     -436     -411 
    -403     -392     -371     -353     -338     -315     -288     -270 
    -267     -291     -321     -341     -348     -352     -383     -425 
    -464     -502     -515     -494     -467     -452     -440     -399 
    -324     -245     -191     -168     -184     -237     -284     -317 
    -360     -403     -433     -442     -422     -380     -346     -344 
    -356     -345     -324     -315     -310     -336     -407     -473 
    -498     -488     -442     -371     -325     -319     -337     -364 
    -386     -398     -419     -448     -473     -510     -548     -556 
    -523     -467     -411     -367     -332     -287     -238     -202 
    -198     -236     -306     -372     -411     -437     -472     -511 
    -537     -522     -465     -415     -384     -365     -359     -351 
    -342     -341     -368     -423     -469     -488     -486     -456 
    -413     -364     -329     -314     -307     -301     -299     -307 
    -324     -336     -334     -329     -342     -379     -409     -426 
    -448     -472     -488     -487     -479     -490     -507     -506 
    -495     -488     -490     -483     -453     -418     -391     -364 
    -319     -275     -263     -279     -291     -287     -286     -299 
    -328     -356     -386     -429     -467     -484     -498     -507 
    -498     -476     -450     -423     -403     -391     -379     -364 
    -344     -330     -340     -355     -371     -390     -382     -360 
    -367     -390     -405     -421     -446     -469     -476     -472 
    -473     -468     -436     -383     -319     -275     -288     -325 
    -344     -357     -380     -403     -421     -441     -465     -464 
    -425     -367     -318     -287     -259     -245     -251     -270 
    -317     -352     -341     -318     -315     -332     -356     -382 
    -399     -391     -380     -392     -421     -461     -498     -508 
    -500     -483     -456     -436     -415     -383     -342     -310 
    -297     -329     -407     -486     -527     -540     -521     -490 
    -472     -476     -491     -499     -476     -437     -409     -398 
    -400     -414     -430     -437     -418     -371     -310     -255 
    -217     -210     -213     -197     -174     -174     -206     -264 
    -334     -407     -473     -515     -527     -515     -488     -463 
    -436     -392     -334     -261     -187     -155     -172     -228 
    -303     -360     -380     -394     -417     -441     -454     -442 
    -421     -414     -418     -418     -422     -444     -483     -533 
    -587     -626     -643     -643     -625     -576     -506     -425 
    -351     -299     -275     -271     -283     -301     -326     -369 
    -419     -449     -460     -461     -454     -442     -426     -406 
    -399     -411     -432     -430     -384     -319     -280     -257 
    -241     -241     -233     -216     -216     -237     -279     -328 
    -356     -360     -357     -349     -348     -363     -368     -348 
    -318     -298     -297     -324     -348     -349     -338     -328 
    -344     -378     -382     -356     -342     -346     -361     -387 
    -402     -394     -383     -386     -399     -405     -390     -364 
    -349     -363     -399     -427     -433     -418     -400     -402 
    -419     -432     -422     -387     -346     -333     -342     -351 
    -342     -313     -279     -271     -286     -298     -288     -264 
    -260     -279     -283     -253     -202     -157     -149     -175 
    -228     -295     -336     -361     -406     -446     -473     -504 
    -521     -510     -494     -461     -400     -345     -317     -306 
    -307     -309     -317     -363     -436     -506     -556     -569 
    -561     -564     -569     -548     -492     -419     -351     -305 
    -291     -313     -359     -403     -430     -448     -471     -503 
    -533     -548     -552     -533     -496     -453     -421     -411 
    -415     -426     -446     -465     -464     -452     -446     -434 
    -418     -400     -378     -367     -372     -371     -364     -369 
    -390     -415     -421     -390     -356     -355     -375     -399 
    -426     -452     -464     -472     -492     -523     -545     -542 
    -517     -459     -392     -348     -302     -251     -216     -203 
    -228     -278     -317     -345     -368     -368     -348     -321 
    -283     -240     -194     -160     -180     -253     -324     -372 
    -411     -453     -490     -522     -538     -511     -457     -407 
    -361     -329     -309     -278     -263     -290     -355     -449 
    -535     -587     -606     -600     -579     -548     -513     -479 
    -430     -364     -292     -238     -221     -228     -249     -274 
    -291     -306     -310     -309     -317     -315     -294     -287 
    -309     -348     -392     -427     -449     -473     -492     -495 
    -487     -469     -436     -391     -344     -310     -295     -283 
    -267     -251     -257     -307     -372     -417     -444     -469 
    -491     -500     -499     -488     -463     -432     -411     -421 
    -446     -459     -453     -446     -430     -403     -388     -378 
    -359     -349     -352     -359     -369     -378     -388     -407 
    -436     -453     -440     -414     -411     -427     -429     -410 
    -400     -405     -413     -433     -452     -442     -400     -360 
    -348     -344     -324     -286     -249     -238     -268     -318 
    -367     -410     -465     -534     -579     -573     -526     -459 
    -394     -356     -332     -302     -279     -278     -305     -352 
    -400     -444     -475     -492     -510     -530     -521     -464 
    -411     -405     -436     -483     -519     -531     -533     -526 
    -511     -507     -495     -442     -357     -270     -218     -211 
    -221     -238     -282     -340     -384     -410     -422     -426 
    -410     -375     -352     -357     -383     -418     -454     -480 
    -499     -507     -495     -484     -490     -476     -422     -344 
    -264     -205     -168     -152     -136     -112     -101     -106 
    -132     -186     -225     -237     -260     -288     -290     -256 
    -207     -160     -129     -135     -163     -180     -201     -229 
    -265     -333     -400     -419     -415     -417     -419     -430 
    -436     -421     -419     -429     -417     -414     -430     -436 
    -432     -415     -382     -353     -357     -405     -463     -480 
    -464     -467     -517     -595     -654     -670     -641     -580 
    -518     -479     -448     -407     -379     -371     -375     -387 
    -403     -422     -453     -492     -529     -560     -577     -569 
    -544     -527     -518     -499     -476     -456     -434     -403 
    -359     -324     -318     -326     -338     -338     -317     -306 
    -328     -361     -394     -426     -436     -419     -429     -467 
    -507     -529     -502     -453     -436     -441     -450     -449 
    -432     -417     -410     -413     -427     -434     -430     -445 
    -473     -488     -494     -483     -426     -352     -336     -360 
    -372     -376     -376     -353     -346     -364     -379     -391 
    -388     -356     -317     -291     -291     -313     -329     -336 
    -346     -342     -322     -309     -309     -305     -291     -270 
    -253     -256     -276     -306     -337     -351     -371     -418 
    -453     -457     -448     -422     -398     -398     -403     -399 
    -395     -371     -337     -332     -342     -348     -355     -367 
    -411     -500     -583     -611     -600     -584     -579     -581 
    -588     -575     -538     -498     -465     -464     -486     -490 
    -471     -440     -432     -449     -445     -413     -371     -322 
    -284     -280     -280     -275     -290     -314     -341     -395 
    -461     -513     -553     -577     -579     -585     -603     -612 
    -594     -541     -479     -429     -382     -337     -305     -284 
    -274     -265     -247     -243     -261     -282     -298     -314 
    -330     -357     -375     -349     -301     -251     -210     -207 
    -241     -264     -257     -234     -218     -216     -234     -260 
    -261     -257     -268     -278     -283     -280     -253     -216 
    -184     -179     -214     -267     -310     -355     -422     -498 
    -553     -579     -589     -594     -569     -510     -432     -336 
    -234     -156     -112      -95      -86      -83     -126     -238 
    -378     -499     -603     -687     -714     -665     -556     -419 
    -301     -216     -147      -81      -28      -12      -43      -86 
     -97      -67      -13       33       54       47       16      -47 
    -135     -233     -344     -446     -527     -600     -654     -670 
    -637     -540     -407     -297     -248     -248     -255     -244 
    -210     -176     -171     -194     -241     -305     -356     -386 
    -394     -378     -365     -356     -314     -257     -247     -288 
    -349     -407     -441     -445     -456     -464     -430     -359 
    -251     -118        4       76       85       41      -37     -164 
    -329     -503     -649     -711     -675     -594     -519     -481 
    -452     -378     -280     -226     -228     -264     -314     -341 
    -322     -294     -322     -399     -476     -519     -517     -514 
    -562     -607     -603     -577     -554     -545     -540     -515 
    -479     -430     -387     -392     -434     -461     -463     -465 
    -473     -456     -409     -351     -305     -284     -280     -294 
    -334     -380     -418     -464     -519     -602     -700     -784 
    -847     -870     -828     -724     -579     -422     -298     -228 
    -197     -195     -221     -256     -298     -344     -376     -409 
    -467     -535     -600     -654     -672     -645     -606     -560 
    -490     -415     -367     -342     -348     -392     -461     -537 
    -587     -594     -592     -604     -616     -608     -588     -564 
    -496     -368     -217      -86      -21      -28      -59     -102 
    -164     -225     -283     -363     -476     -569     -598     -579 
    -545     -508     -464     -398     -321     -249     -201     -209 
    -275     -357     -407     -430     -438     -418     -382     -352 
    -355     -403     -472     -507     -494     -444     -352     -220 
     -87        2       28       -9     -102     -240     -415     -600 
    -739     -792     -770     -724     -664     -562     -436     -309 
    -214     -183     -199     -224     -237     -238     -232     -210 
    -198     -207     -171      -91      -47      -44      -82     -175 
    -280     -368     -446     -488     -468     -398     -313     -245 
    -213     -228     -315     -448     -548     -592     -600     -599 
    -602     -567     -484     -394     -313     -251     -240     -286 
    -355     -440     -534     -592     -603     -567     -472     -378 
    -344     -369     -417     -422     -352     -255     -175     -143 
    -191     -288     -363     -391     -400     -426     -490     -558 
    -554     -463     -351     -271     -241     -247     -253     -233 
    -175     -117     -143     -279     -469     -604     -602     -480 
    -305     -148      -62      -37      -33      -31      -49     -144 
    -326     -531     -688     -757     -733     -669     -635     -650 
    -697     -731     -722     -661     -545     -395     -249     -143 
     -78      -55      -91     -167     -222     -245     -282     -388 
    -580     -785     -919     -945     -850     -662     -457     -294 
    -189     -112      -36       -4      -47     -144     -279     -441 
    -575     -626     -610     -564     -518     -472     -405     -297 
    -162      -59      -35      -95     -210     -309     -336     -302 
    -257     -249     -288     -336     -334     -248     -108       32 
     125      132       78       21      -27      -87     -172     -287 
    -430     -587     -727     -824     -870     -868     -830     -745 
    -606     -418     -183       83      325      484      540      492 
     359      152     -128     -454     -758     -993    -1156    -1260 
   -1278    -1161     -912     -606     -302      -60       41        1 
    -121     -247     -310     -319     -345     -421     -511     -585 
    -633     -648     -642     -633     -619     -603     -587     -548 
    -492     -463     -446     -437     -430     -388     -313     -237 
    -172     -137     -135     -125      -94      -60      -85     -214 
    -417     -606     -710     -711     -645     -568     -533     -535 
    -517     -442     -336     -207      -74       37      116      151 
     147      124       68      -67     -315     -633     -939    -1175 
   -1278    -1220    -1062     -877     -688     -494     -298     -125 
     -25       -9      -31      -41      -18       32       52      -18 
    -170     -357     -562     -750     -885     -966    -1000     -962 
    -864     -756     -621     -432     -226      -41       82      101 
       0     -211     -464     -657     -765     -803     -774     -704 
    -607     -506     -429     -375     -337     -333     -364     -414 
    -444     -413     -352     -330     -355     -392     -427     -436 
    -387     -297     -207     -175     -264     -446     -606     -675 
    -648     -546     -432     -357     -319     -284     -228     -132 
     -44      -58     -183     -356     -531     -668     -710     -648 
    -514     -352     -199      -81      -17      -40     -136     -210 
    -224     -209     -180     -180     -278     -450     -603     -684 
    -697     -650     -545     -405     -243      -63      109      218 
     217       91     -102     -303     -496     -635     -661     -608 
    -537     -450     -359     -299     -278     -286     -329     -422 
    -564     -702     -784     -793     -712     -546     -383     -321 
    -349     -392     -413     -390     -333     -301     -309     -328 
    -349     -369     -342     -275     -252     -307     -396     -500 
    -607     -658     -623     -542     -473     -417     -341     -236 
    -140     -126     -244     -459     -638     -654     -514     -330 
    -214     -206     -261     -313     -340     -344     -329     -344 
    -415     -503     -576     -626     -656     -664     -616     -530 
    -473     -477     -531     -584     -548     -437     -345     -282 
    -213     -132      -47        0      -36     -166     -376     -591 
    -685     -614     -419     -176       45      182      179       35 
    -171     -328     -387     -396     -442     -554     -704     -839 
    -895     -824     -641     -421     -247     -118       20      178 
     279      271      179       41     -145     -371     -576     -741 
    -866     -900     -792     -584     -405     -334     -332     -326 
    -276     -190     -139     -184     -314     -468     -531     -418 
    -190       -2       52        9      -74     -203     -376     -542 
    -642     -665     -643     -599     -542     -500     -468     -426 
    -378     -372     -444     -560     -652     -677     -615     -481 
    -317     -151      -41      -32     -112     -247     -383     -490 
    -589     -677     -716     -695     -608     -457     -272     -106 
      -4       17       -4      -83     -265     -486     -649     -718 
    -641     -429     -229     -136     -140     -182     -172     -108 
     -87     -145     -263     -394     -442     -378     -282     -221 
    -195     -203     -247     -311     -380     -449     -513     -565 
    -603     -627     -630     -606     -548     -441     -309     -193 
    -105      -41        4       14      -37     -139     -253     -359 
    -429     -472     -508     -544     -564     -537     -449     -336 
    -244     -218     -260     -315     -338     -336     -310     -265 
    -232     -207     -147      -41       27      -31     -189     -352 
    -475     -542     -562     -581     -608     -584     -490     -388 
    -344     -334     -330     -299     -190      -56       -5      -72 
    -268     -531     -722     -778     -723     -602     -495     -460 
    -486     -515     -487     -388     -245     -103      -39      -89 
    -226     -405     -591     -773     -912     -951     -896     -808 
    -742     -679     -591     -513     -454     -398     -351     -328 
    -318     -291     -232     -183     -195     -290     -403     -426 
    -365     -286     -213     -170     -160     -178     -225     -294 
    -380     -472     -534     -568     -616     -692     -746     -715 
    -571     -348     -143      -36      -17      -54     -155     -325 
    -521     -681     -785     -812     -741     -602     -456     -315 
    -183      -70       20       63       47       -9     -121     -295 
    -487     -670     -823     -889     -851     -722     -526     -330 
    -186      -75        6       28        4      -44     -143     -280 
    -415     -514     -544     -499     -391     -256     -171     -183 
    -264     -376     -473     -530     -565     -616     -669     -675 
    -603     -453     -278     -186     -270     -518     -812     -989 
    -957     -756     -494     -267     -148     -136     -164     -209 
    -294     -418     -554     -702     -822     -857     -808     -692 
    -496     -271      -93        4        2      -94     -224     -321 
    -373     -396     -413     -445     -480     -483     -440     -367 
    -302     -259     -213     -145      -58       22       58       12 
    -129     -322     -507     -653     -743     -785     -796     -780 
    -738     -664     -548     -394     -232      -76       51      106 
      63      -45     -205     -403     -608     -787     -943    -1062 
   -1093     -993     -768     -468     -164       82      237      294 
     283      229      130      -16     -207     -415     -577     -657 
