Origin Time       2025/01/13 21:19:00
Lat.              31.8
Long.             131.6
Depth. (km)       30
Mag.              6.9
Station Code      KOCH12
Station Lat.      33.5294
Station Long.     133.8192
Station Height(m) -130.3
Record Time       2025/01/13 21:20:28
Sampling Freq(Hz) 100Hz
Duration Time(s)  133
Dir.              2
Scale Factor      3923(gal)/8224838
Max. Acc. (gal)   0.658
Last Correction   2025/01/13 21:20:29
Memo.             
[...]
   -5590    -5602    -5611    -5636    -5672    -5706    -5686    -5609 
   -5536    -5466    -5406    -5458    -5575    -5597    -5556    -5578 
   -5629    -5645    -5676    -5756    -5813    -5799    -5776    -5792 
   -5815    -5832    -5869    -5907    -5900    -5881    -5875    -5840 
   -5765    -5722    -5741    -5753    -5719    -5687    -5680    -5664 
   -5636    -5649    -5703    -5765    -5823    -5857    -5856    -5841 
   -5814    -5798    -5815    -5822    -5794    -5779    -5759    -5671 
   -5574    -5570    -5607    -5601    -5572    -5557    -5536    -5512 
   -5489    -5462    -5447    -5447    -5458    -5481    -5506    -5529 
   -5552    -5563    -5563    -5578    -5624    -5649    -5572    -5468 
   -5464    -5498    -5481    -5494    -5548    -5549    -5497    -5441 
   -5389    -5332    -5297    -5321    -5356    -5314    -5259    -5267 
   -5279    -5331    -5486    -5621    -5714    -5826    -5842    -5763 
   -5757    -5763    -5695    -5678    -5701    -5679    -5695    -5722 
   -5655    -5610    -5674    -5713    -5702    -5724    -5734    -5711 
   -5721    -5730    -5692    -5703    -5811    -5896    -5934    -6027 
   -6099    -6010    -5888    -5861    -5833    -5787    -5791    -5772 
   -5688    -5625    -5597    -5586    -5613    -5634    -5621    -5614 
   -5629    -5655    -5680    -5665    -5617    -5607    -5628    -5599 
   -5545    -5544    -5559    -5525    -5505    -5544    -5589    -5598 
   -5587    -5575    -5539    -5445    -5333    -5305    -5382    -5463 
   -5481    -5470    -5478    -5509    -5541    -5560    -5557    -5541 
   -5551    -5593    -5640    -5683    -5724    -5745    -5761    -5786 
   -5796    -5794    -5790    -5806    -5867    -5929    -5902    -5799 
   -5699    -5641    -5644    -5675    -5641    -5556    -5548    -5605 
   -5644    -5710    -5836    -5919    -5908    -5850    -5786    -5753 
   -5782    -5840    -5871    -5877    -5903    -5940    -5949    -5960 
   -5985    -5954    -5864    -5795    -5726    -5617    -5547    -5560 
   -5593    -5609    -5628    -5663    -5711    -5725    -5709    -5728 
   -5775    -5783    -5756    -5703    -5606    -5502    -5463    -5497 
   -5555    -5613    -5663    -5672    -5649    -5665    -5711    -5702 
   -5647    -5616    -5617    -5661    -5732    -5746    -5705    -5674 
   -5651    -5640    -5675    -5746    -5827    -5867    -5834    -5799 
   -5765    -5676    -5621    -5638    -5617    -5557    -5533    -5513 
   -5495    -5512    -5522    -5543    -5587    -5599    -5601    -5644 
   -5648    -5572    -5541    -5607    -5665    -5680    -5740    -5822 
   -5798    -5699    -5636    -5586    -5508    -5449    -5441    -5454 
   -5456    -5459    -5498    -5551    -5580    -5617    -5688    -5771 
   -5845    -5873    -5814    -5725    -5660    -5597    -5553    -5591 
   -5655    -5680    -5702    -5728    -5718    -5688    -5643    -5572 
   -5530    -5548    -5555    -5518    -5514    -5575    -5625    -5625 
   -5597    -5557    -5510    -5455    -5410    -5424    -5506    -5586 
   -5603    -5563    -5516    -5536    -5632    -5738    -5803    -5819 
   -5806    -5782    -5724    -5618    -5525    -5483    -5472    -5494 
   -5541    -5567    -5579    -5634    -5728    -5795    -5815    -5840 
   -5881    -5890    -5894    -5929    -5930    -5915    -5935    -5904 
   -5817    -5805    -5817    -5745    -5649    -5564    -5495    -5483 
   -5466    -5404    -5408    -5470    -5502    -5556    -5656    -5721 
   -5751    -5772    -5748    -5721    -5767    -5852    -5895    -5856 
   -5790    -5784    -5836    -5892    -5944    -5940    -5859    -5790 
   -5775    -5763    -5753    -5780    -5832    -5860    -5848    -5841 
   -5871    -5902    -5899    -5863    -5799    -5741    -5714    -5695 
   -5672    -5663    -5678    -5715    -5740    -5719    -5692    -5705 
   -5742    -5749    -5724    -5697    -5661    -5603    -5541    -5493 
   -5472    -5490    -5532    -5537    -5474    -5409    -5400    -5406 
   -5410    -5413    -5390    -5379    -5432    -5489    -5516    -5544 
   -5556    -5552    -5574    -5582    -5556    -5549    -5528    -5448 
   -5377    -5358    -5360    -5371    -5410    -5466    -5486    -5455 
   -5448    -5483    -5502    -5529    -5575    -5566    -5521    -5506 
   -5482    -5475    -5557    -5632    -5602    -5559    -5541    -5494 
   -5440    -5414    -5404    -5425    -5479    -5486    -5410    -5350 
   -5359    -5374    -5412    -5520    -5621    -5660    -5679    -5687 
   -5671    -5630    -5576    -5556    -5571    -5555    -5521    -5522 
   -5517    -5470    -5416    -5351    -5278    -5269    -5344    -5416 
   -5448    -5505    -5580    -5622    -5637    -5656    -5659    -5616 
   -5557    -5553    -5586    -5570    -5524    -5529    -5559    -5563 
   -5557    -5555    -5547    -5535    -5520    -5520    -5537    -5543 
   -5557    -5602    -5625    -5611    -5625    -5683    -5742    -5778 
   -5772    -5745    -5756    -5784    -5771    -5732    -5679    -5587 
   -5494    -5462    -5472    -5485    -5495    -5505    -5508    -5497 
   -5454    -5408    -5447    -5556    -5598    -5541    -5501    -5530 
   -5576    -5601    -5620    -5651    -5686    -5715    -5741    -5748 
   -5755    -5790    -5825    -5837    -5865    -5918    -5929    -5872 
   -5786    -5675    -5566    -5533    -5574    -5578    -5532    -5517 
   -5536    -5560    -5620    -5667    -5647    -5636    -5648    -5641 
   -5659    -5717    -5773    -5842    -5902    -5907    -5907    -5918 
   -5887    -5850    -5842    -5784    -5686    -5670    -5734    -5769 
   -5767    -5775    -5779    -5783    -5802    -5805    -5788    -5809 
   -5832    -5802    -5771    -5772    -5772    -5767    -5753    -5711 
   -5692    -5760    -5869    -5930    -5935    -5926    -5903    -5842 
   -5763    -5711    -5709    -5719    -5710    -5694    -5683    -5674 
   -5663    -5626    -5570    -5567    -5640    -5713    -5752    -5782 
   -5763    -5676    -5598    -5584    -5614    -5663    -5729    -5790 
   -5803    -5780    -5783    -5825    -5852    -5861    -5894    -5923 
   -5900    -5844    -5779    -5710    -5647    -5593    -5578    -5599 
   -5609    -5590    -5564    -5513    -5444    -5412    -5401    -5382 
   -5391    -5435    -5462    -5460    -5449    -5431    -5409    -5386 
   -5358    -5331    -5302    -5278    -5286    -5317    -5333    -5335 
   -5313    -5240    -5158    -5135    -5134    -5094    -5076    -5123 
   -5158    -5138    -5089    -5026    -4980    -5000    -5050    -5082 
   -5111    -5143    -5177    -5227    -5269    -5292    -5323    -5364 
   -5406    -5447    -5449    -5412    -5408    -5448    -5489    -5549 
   -5645    -5719    -5737    -5728    -5711    -5706    -5736    -5784 
   -5817    -5822    -5818    -5838    -5873    -5898    -5911    -5918 
   -5931    -5942    -5926    -5908    -5922    -5931    -5908    -5880 
   -5857    -5853    -5877    -5875    -5825    -5795    -5810    -5815 
   -5806    -5811    -5800    -5753    -5701    -5652    -5617    -5622 
   -5636    -5602    -5524    -5452    -5435    -5455    -5471    -5498 
   -5541    -5574    -5589    -5607    -5649    -5711    -5755    -5761 
   -5763    -5771    -5787    -5832    -5871    -5864    -5872    -5945 
   -6016    -6043    -6045    -6018    -5999    -6042    -6091    -6100 
   -6106    -6104    -6089    -6097    -6108    -6100    -6091    -6083 
   -6069    -6056    -6027    -6002    -6004    -5987    -5968    -6021 
   -6093    -6114    -6110    -6096    -6065    -6056    -6054    -6012 
   -5950    -5900    -5836    -5744    -5657    -5594    -5539    -5490 
   -5460    -5467    -5508    -5541    -5539    -5518    -5508    -5510 
   -5513    -5520    -5545    -5589    -5640    -5692    -5715    -5706 
   -5722    -5756    -5745    -5694    -5647    -5610    -5591    -5611 
   -5655    -5683    -5702    -5713    -5695    -5675    -5675    -5664 
   -5640    -5657    -5690    -5692    -5707    -5736    -5728    -5710 
   -5709    -5694    -5682    -5691    -5684    -5682    -5717    -5749 
   -5764    -5783    -5786    -5756    -5728    -5725    -5724    -5724 
   -5741    -5746    -5702    -5638    -5610    -5611    -5621    -5633 
   -5624    -5601    -5609    -5638    -5644    -5633    -5617    -5582 
   -5530    -5478    -5447    -5432    -5408    -5359    -5301    -5269 
   -5285    -5309    -5300    -5279    -5258    -5205    -5151    -5132 
   -5123    -5112    -5120    -5140    -5140    -5123    -5107    -5108 
   -5146    -5197    -5216    -5223    -5258    -5309    -5363    -5414 
   -5435    -5431    -5458    -5498    -5508    -5506    -5512    -5501 
   -5495    -5509    -5528    -5548    -5559    -5557    -5568    -5576 
   -5562    -5551    -5549    -5533    -5522    -5557    -5620    -5651 
   -5660    -5682    -5713    -5738    -5751    -5733    -5701    -5675 
   -5651    -5640    -5679    -5736    -5755    -5755    -5768    -5788 
   -5813    -5825    -5803    -5767    -5742    -5732    -5749    -5798 
   -5840    -5865    -5887    -5884    -5846    -5806    -5773    -5745 
   -5722    -5694    -5668    -5664    -5670    -5683    -5705    -5718 
   -5724    -5730    -5734    -5753    -5809    -5865    -5906    -5946 
   -5973    -5960    -5929    -5913    -5903    -5890    -5879    -5865 
   -5848    -5832    -5818    -5817    -5836    -5849    -5825    -5778 
   -5742    -5729    -5724    -5728    -5732    -5703    -5653    -5634 
   -5653    -5688    -5724    -5726    -5695    -5671    -5661    -5638 
   -5617    -5602    -5556    -5493    -5452    -5425    -5387    -5347 
   -5312    -5285    -5279    -5300    -5340    -5385    -5422    -5454 
   -5486    -5505    -5497    -5503    -5555    -5621    -5678    -5742 
   -5815    -5898    -5983    -6033    -6037    -6042    -6068    -6095 
   -6118    -6131    -6134    -6135    -6134    -6114    -6073    -6035 
   -6010    -5985    -5953    -5933    -5938    -5958    -5984    -6008 
   -6018    -6030    -6058    -6080    -6096    -6112    -6110    -6089 
   -6073    -6050    -6016    -5980    -5950    -5922    -5883    -5834 
   -5800    -5769    -5718    -5665    -5621    -5544    -5441    -5360 
   -5286    -5211    -5182    -5189    -5182    -5179    -5200    -5217 
   -5202    -5155    -5098    -5058    -5030    -4981    -4920    -4893 
   -4907    -4911    -4893    -4884    -4884    -4876    -4873    -4899 
   -4927    -4949    -4980    -5023    -5055    -5077    -5115    -5178 
   -5231    -5254    -5256    -5250    -5235    -5223    -5231    -5256 
   -5281    -5314    -5370    -5427    -5458    -5490    -5549    -5609 
   -5659    -5721    -5790    -5838    -5881    -5931    -5972    -6004 
   -6046    -6084    -6088    -6073    -6062    -6058    -6060    -6057 
   -6033    -6007    -5998    -5987    -5975    -5989    -6019    -6048 
   -6084    -6130    -6176    -6220    -6254    -6280    -6308    -6322 
   -6309    -6296    -6280    -6261    -6257    -6250    -6223    -6212 
   -6232    -6255    -6268    -6274    -6266    -6250    -6254    -6284 
   -6303    -6289    -6257    -6230    -6204    -6174    -6156    -6129 
   -6077    -6026    -5976    -5914    -5865    -5834    -5790    -5749 
   -5737    -5732    -5724    -5717    -5701    -5676    -5664    -5672 
   -5687    -5699    -5721    -5761    -5792    -5790    -5771    -5757 
   -5753    -5755    -5769    -5794    -5813    -5817    -5832    -5860 
   -5872    -5869    -5872    -5876    -5869    -5852    -5844    -5842 
   -5822    -5783    -5746    -5733    -5738    -5740    -5724    -5702 
   -5711    -5744    -5767    -5786    -5815    -5833    -5833    -5842 
   -5853    -5846    -5830    -5799    -5734    -5684    -5713    -5764 
   -5763    -5740    -5733    -5726    -5724    -5725    -5683    -5614 
   -5582    -5583    -5580    -5574    -5570    -5567    -5572    -5571 
   -5541    -5497    -5463    -5443    -5431    -5431    -5432    -5441 
   -5478    -5535    -5580    -5606    -5613    -5620    -5644    -5676 
   -5698    -5702    -5690    -5678    -5674    -5671    -5667    -5661 
   -5638    -5603    -5593    -5602    -5602    -5605    -5628    -5632 
   -5611    -5598    -5601    -5617    -5652    -5698    -5740    -5761 
   -5764    -5757    -5737    -5711    -5692    -5678    -5660    -5644 
   -5628    -5610    -5586    -5549    -5506    -5476    -5462    -5455 
   -5454    -5441    -5417    -5398    -5386    -5377    -5355    -5321 
   -5294    -5281    -5265    -5240    -5209    -5190    -5188    -5175 
   -5140    -5111    -5117    -5142    -5158    -5166    -5179    -5205 
   -5248    -5302    -5347    -5375    -5408    -5451    -5482    -5490 
   -5485    -5482    -5502    -5540    -5568    -5587    -5607    -5611 
   -5603    -5613    -5634    -5651    -5674    -5707    -5734    -5764 
   -5813    -5861    -5892    -5914    -5944    -5973    -5995    -6023 
   -6058    -6084    -6110    -6149    -6199    -6247    -6289    -6307 
   -6286    -6269    -6284    -6319    -6351    -6381    -6409    -6435 
   -6454    -6461    -6450    -6427    -6404    -6401    -6412    -6396 
   -6343    -6304    -6286    -6262    -6247    -6242    -6218    -6184 
   -6160    -6139    -6119    -6111    -6100    -6080    -6050    -6007 
   -5964    -5930    -5900    -5881    -5867    -5830    -5786    -5755 
   -5724    -5680    -5616    -5522    -5432    -5364    -5309    -5260 
   -5219    -5174    -5127    -5088    -5058    -5032    -5012    -4974 
   -4918    -4860    -4801    -4738    -4680    -4629    -4569    -4503 
   -4455    -4415    -4367    -4321    -4294    -4280    -4284    -4311 
   -4368    -4455    -4548    -4623    -4685    -4756    -4830    -4904 
   -4989    -5081    -5166    -5242    -5310    -5378    -5447    -5514 
   -5568    -5616    -5674    -5742    -5803    -5854    -5914    -5985 
   -6049    -6095    -6141    -6184    -6204    -6224    -6262    -6293 
   -6301    -6299    -6284    -6258    -6237    -6223    -6204    -6189 
   -6187    -6178    -6172    -6180    -6199    -6227    -6270    -6316 
   -6359    -6400    -6432    -6454    -6466    -6469    -6467    -6461 
   -6426    -6373    -6335    -6307    -6278    -6261    -6247    -6218 
   -6180    -6154    -6133    -6096    -6045    -5985    -5926    -5880 
   -5834    -5783    -5737    -5690    -5624    -5544    -5475    -5427 
   -5389    -5350    -5306    -5256    -5202    -5148    -5096    -5063 
   -5050    -5034    -5007    -4985    -4969    -4957    -4962    -4974 
   -4973    -4974    -4989    -4992    -4985    -4999    -5011    -5004 
   -5004    -5027    -5063    -5128    -5223    -5316    -5406    -5510 
   -5609    -5683    -5741    -5788    -5832    -5869    -5898    -5918 
   -5938    -5972    -6026    -6096    -6172    -6243    -6291    -6313 
   -6338    -6373    -6394    -6405    -6424    -6439    -6439    -6448 
   -6478    -6500    -6501    -6489    -6458    -6416    -6378    -6342 
   -6308    -6284    -6264    -6235    -6205    -6185    -6177    -6180 
   -6196    -6212    -6218    -6222    -6234    -6237    -6232    -6238 
   -6246    -6247    -6254    -6265    -6273    -6285    -6292    -6273 
   -6253    -6246    -6216    -6168    -6124    -6066    -5983    -5898 
   -5813    -5724    -5655    -5610    -5564    -5512    -5456    -5410 
   -5382    -5359    -5328    -5306    -5298    -5286    -5279    -5285 
   -5277    -5252    -5236    -5225    -5200    -5174    -5162    -5148 
   -5147    -5170    -5186    -5193    -5217    -5247    -5260    -5277 
   -5302    -5328    -5375    -5445    -5501    -5535    -5571    -5610 
   -5647    -5679    -5705    -5729    -5755    -5769    -5788    -5822 
   -5852    -5880    -5908    -5931    -5954    -5979    -5995    -6021 
   -6065    -6088    -6073    -6054    -6041    -6014    -5987    -5976 
   -5961    -5938    -5925    -5921    -5917    -5898    -5856    -5798 
   -5729    -5648    -5572    -5514    -5463    -5402    -5346    -5296 
   -5248    -5212    -5184    -5158    -5148    -5150    -5139    -5115 
   -5101    -5090    -5073    -5058    -5044    -5028    -5020    -5007 
   -4984    -4976    -4990    -5000    -4992    -4986    -4986    -4988 
   -5005    -5036    -5065    -5093    -5135    -5181    -5227    -5275 
   -5328    -5383    -5441    -5483    -5508    -5532    -5560    -5587 
   -5611    -5637    -5665    -5679    -5684    -5697    -5706    -5722 
   -5763    -5810    -5857    -5906    -5954    -6003    -6053    -6100 
   -6147    -6197    -6243    -6281    -6318    -6350    -6385    -6440 
   -6511    -6562    -6585    -6594    -6596    -6589    -6578    -6556 
   -6523    -6486    -6447    -6408    -6367    -6336    -6319    -6300 
   -6278    -6266    -6247    -6218    -6189    -6153    -6106    -6070 
   -6038    -5979    -5910    -5846    -5769    -5683    -5614    -5557 
   -5494    -5443    -5412    -5378    -5335    -5304    -5285    -5265 
   -5251    -5240    -5219    -5197    -5193    -5196    -5193    -5184 
   -5170    -5158    -5151    -5139    -5127    -5134    -5148    -5151 
   -5143    -5148    -5169    -5188    -5206    -5242    -5277    -5296 
   -5320    -5360    -5400    -5439    -5474    -5481    -5462    -5454 
   -5458    -5458    -5471    -5499    -5512    -5509    -5516    -5541 
   -5571    -5597    -5624    -5644    -5663    -5688    -5711    -5725 
   -5737    -5755    -5778    -5798    -5810    -5814    -5803    -5786 
   -5771    -5764    -5765    -5772    -5772    -5760    -5745    -5732 
   -5721    -5714    -5709    -5706    -5701    -5690    -5684    -5684 
   -5682    -5686    -5699    -5703    -5699    -5694    -5683    -5679 
   -5691    -5706    -5722    -5746    -5771    -5783    -5780    -5772 
   -5771    -5771    -5772    -5775    -5776    -5769    -5767    -5771 
   -5776    -5784    -5792    -5788    -5767    -5733    -5690    -5648 
   -5613    -5589    -5574    -5566    -5560    -5552    -5539    -5525 
   -5518    -5514    -5516    -5521    -5524    -5524    -5528    -5528 
   -5513    -5499    -5490    -5474    -5463    -5459    -5443    -5410 
   -5386    -5377    -5356    -5324    -5298    -5270    -5242    -5229 
   -5219    -5206    -5206    -5212    -5206    -5208    -5236    -5273 
   -5301    -5331    -5364    -5395    -5432    -5482    -5541    -5601 
   -5649    -5690    -5729    -5759    -5779    -5807    -5846    -5884 
   -5919    -5946    -5969    -5985    -5989    -5991    -6003    -6029 
   -6058    -6081    -6099    -6116    -6133    -6143    -6153    -6169 
   -6187    -6193    -6185    -6176    -6170    -6174    -6187    -6193 
   -6195    -6201    -6203    -6189    -6170    -6160    -6153    -6143 
   -6142    -6142    -6141    -6156    -6185    -6212    -6234    -6249 
   -6250    -6253    -6261    -6258    -6243    -6223    -6192    -6158 
   -6133    -6115    -6100    -6088    -6066    -6035    -6010    -5998 
   -5977    -5949    -5927    -5904    -5871    -5844    -5832    -5833 
   -5837    -5834    -5819    -5795    -5769    -5749    -5734    -5717 
   -5698    -5682    -5668    -5661    -5653    -5647    -5651    -5657 
   -5661    -5660    -5656    -5661    -5676    -5679    -5671    -5682 
   -5701    -5684    -5653    -5637    -5607    -5570    -5545    -5521 
   -5490    -5456    -5413    -5367    -5337    -5312    -5285    -5279 
   -5278    -5258    -5231    -5216    -5212    -5216    -5213    -5196 
   -5174    -5162    -5157    -5154    -5157    -5162    -5166    -5166 
