Origin Time       2025/01/13 21:19:00
Lat.              31.8
Long.             131.6
Depth. (km)       30
Mag.              6.9
Station Code      KOCH12
Station Lat.      33.5294
Station Long.     133.8192
Station Height(m) 40
Record Time       2025/01/13 21:20:28
Sampling Freq(Hz) 100Hz
Duration Time(s)  133
Dir.              4
Scale Factor      7845(gal)/8223790
Max. Acc. (gal)   1.007
Last Correction   2025/01/13 21:20:29
Memo.             
[...]
   -4642    -4544    -4572    -4683    -4768    -4779    -4708    -4631 
   -4635    -4698    -4752    -4754    -4700    -4611    -4464    -4266 
   -4129    -4137    -4280    -4525    -4774    -4882    -4820    -4673 
   -4525    -4450    -4465    -4527    -4617    -4712    -4747    -4687 
   -4563    -4430    -4322    -4275    -4347    -4514    -4672    -4753 
   -4734    -4627    -4509    -4449    -4444    -4484    -4572    -4700 
   -4865    -4982    -4955    -4862    -4830    -4878    -4999    -5125 
   -5158    -5097    -4985    -4854    -4745    -4692    -4729    -4864 
   -5026    -5131    -5159    -5098    -4935    -4712    -4486    -4282 
   -4168    -4182    -4268    -4357    -4415    -4410    -4333    -4252 
   -4222    -4253    -4352    -4480    -4575    -4634    -4688    -4729 
   -4727    -4687    -4664    -4726    -4881    -5059    -5189    -5260 
   -5313    -5339    -5292    -5198    -5123    -5084    -5044    -4953 
   -4826    -4722    -4637    -4542    -4434    -4314    -4216    -4187 
   -4207    -4189    -4110    -4041    -4045    -4143    -4314    -4492 
   -4631    -4738    -4781    -4725    -4602    -4484    -4448    -4523 
   -4671    -4804    -4851    -4827    -4820    -4882    -4982    -5059 
   -5065    -5026    -5039    -5116    -5152    -5088    -5004    -4982 
   -5017    -5111    -5208    -5170    -5017    -4891    -4814    -4752 
   -4720    -4700    -4668    -4650    -4645    -4630    -4622    -4648 
   -4708    -4811    -4934    -4993    -4943    -4828    -4703    -4575 
   -4423    -4267    -4167    -4180    -4264    -4334    -4405    -4521 
   -4656    -4758    -4789    -4738    -4649    -4595    -4607    -4699 
   -4855    -5015    -5112    -5116    -5030    -4920    -4861    -4855 
   -4878    -4905    -4922    -4919    -4876    -4789    -4687    -4585 
   -4533    -4553    -4625    -4714    -4773    -4750    -4652    -4514 
   -4386    -4333    -4383    -4487    -4590    -4689    -4791    -4845 
   -4819    -4719    -4572    -4461    -4450    -4490    -4544    -4649 
   -4797    -4915    -4965    -4965    -4936    -4889    -4849    -4831 
   -4824    -4838    -4872    -4877    -4849    -4857    -4936    -5065 
   -5209    -5316    -5328    -5240    -5121    -5053    -5043    -5054 
   -5036    -4949    -4806    -4681    -4626    -4656    -4720    -4715 
   -4584    -4361    -4176    -4159    -4261    -4325    -4317    -4299 
   -4310    -4371    -4452    -4500    -4526    -4568    -4689    -4893 
   -5081    -5170    -5135    -4993    -4845    -4752    -4703    -4715 
   -4791    -4881    -4955    -5003    -4999    -4915    -4801    -4742 
   -4720    -4671    -4604    -4584    -4607    -4625    -4637    -4665 
   -4680    -4658    -4618    -4548    -4417    -4268    -4193    -4232 
   -4345    -4452    -4506    -4523    -4552    -4610    -4652    -4652 
   -4645    -4654    -4666    -4652    -4592    -4522    -4457    -4398 
   -4352    -4320    -4322    -4388    -4476    -4545    -4580    -4576 
   -4568    -4626    -4753    -4888    -4969    -4974    -4912    -4795 
   -4672    -4619    -4617    -4602    -4618    -4695    -4777    -4857 
   -4935    -4959    -4915    -4830    -4745    -4733    -4816    -4941 
   -5013    -4978    -4842    -4665    -4519    -4472    -4523    -4614 
   -4715    -4814    -4880    -4916    -4934    -4939    -4949    -4947 
   -4909    -4842    -4766    -4725    -4730    -4762    -4818    -4869 
   -4850    -4776    -4715    -4654    -4565    -4503    -4498    -4550 
   -4671    -4803    -4851    -4812    -4758    -4729    -4738    -4822 
   -4951    -5017    -5015    -5007    -4972    -4904    -4862    -4845 
   -4853    -4904    -4965    -5022    -5063    -5063    -5038    -5008 
   -4966    -4926    -4889    -4837    -4791    -4783    -4776    -4725 
   -4658    -4585    -4484    -4395    -4380    -4448    -4550    -4631 
   -4665    -4653    -4618    -4583    -4587    -4661    -4777    -4865 
   -4892    -4853    -4758    -4657    -4577    -4506    -4475    -4530 
   -4641    -4741    -4774    -4685    -4480    -4257    -4124    -4102 
   -4153    -4247    -4379    -4502    -4573    -4608    -4594    -4527 
   -4484    -4514    -4594    -4711    -4862    -5004    -5081    -5062 
   -4969    -4851    -4777    -4764    -4766    -4756    -4730    -4666 
   -4591    -4541    -4504    -4476    -4504    -4594    -4700    -4800 
   -4870    -4887    -4885    -4897    -4931    -4977    -4981    -4932 
   -4884    -4854    -4818    -4780    -4752    -4735    -4761    -4851 
   -4982    -5123    -5216    -5190    -5057    -4889    -4758    -4714 
   -4734    -4764    -4785    -4776    -4715    -4623    -4529    -4456 
   -4437    -4468    -4514    -4571    -4625    -4633    -4592    -4546 
   -4538    -4572    -4615    -4650    -4685    -4722    -4750    -4769 
   -4753    -4700    -4671    -4711    -4814    -4953    -5077    -5128 
   -5108    -5054    -4973    -4853    -4702    -4556    -4432    -4342 
   -4311    -4299    -4255    -4187    -4133    -4114    -4131    -4176 
   -4266    -4387    -4509    -4611    -4680    -4708    -4723    -4739 
   -4776    -4845    -4914    -4953    -4961    -4942    -4914    -4893 
   -4907    -4963    -5032    -5069    -5058    -5003    -4920    -4831 
   -4729    -4634    -4592    -4577    -4554    -4534    -4510    -4455 
   -4386    -4337    -4311    -4306    -4328    -4356    -4367    -4382 
   -4413    -4419    -4375    -4306    -4253    -4244    -4283    -4351 
   -4405    -4425    -4441    -4472    -4487    -4476    -4487    -4549 
   -4666    -4831    -4993    -5103    -5157    -5196    -5223    -5219 
   -5206    -5217    -5244    -5274    -5289    -5266    -5194    -5086 
   -4985    -4914    -4841    -4757    -4683    -4608    -4531    -4480 
   -4453    -4425    -4407    -4417    -4452    -4511    -4572    -4590 
   -4579    -4607    -4696    -4810    -4912    -4984    -5036    -5105 
   -5175    -5223    -5267    -5297    -5277    -5228    -5179    -5128 
   -5081    -5055    -5034    -5007    -4982    -4942    -4853    -4707 
   -4527    -4379    -4311    -4290    -4267    -4245    -4252    -4272 
   -4284    -4291    -4293    -4274    -4261    -4291    -4356    -4434 
   -4519    -4596    -4622    -4576    -4495    -4442    -4460    -4557 
   -4675    -4754    -4795    -4811    -4800    -4758    -4664    -4540 
   -4467    -4494    -4603    -4733    -4820    -4833    -4792    -4762 
   -4762    -4780    -4803    -4811    -4816    -4827    -4834    -4849 
   -4876    -4888    -4909    -4950    -4927    -4823    -4700    -4573 
   -4452    -4376    -4329    -4284    -4271    -4299    -4347    -4386 
   -4402    -4418    -4465    -4533    -4602    -4656    -4689    -4718 
   -4750    -4754    -4720    -4689    -4687    -4681    -4650    -4592 
   -4522    -4469    -4450    -4437    -4411    -4390    -4391    -4419 
   -4448    -4455    -4448    -4445    -4469    -4509    -4533    -4538 
   -4548    -4594    -4695    -4820    -4928    -5026    -5125    -5205 
   -5258    -5300    -5319    -5302    -5305    -5339    -5355    -5335 
   -5292    -5240    -5177    -5089    -4962    -4804    -4658    -4585 
   -4590    -4633    -4693    -4738    -4729    -4691    -4671    -4657 
   -4621    -4577    -4557    -4556    -4560    -4561    -4558    -4556 
   -4558    -4548    -4491    -4417    -4379    -4382    -4415    -4444 
   -4433    -4421    -4440    -4487    -4533    -4541    -4529    -4522 
   -4502    -4477    -4499    -4565    -4649    -4765    -4900    -5009 
   -5088    -5130    -5108    -5030    -4946    -4916    -4951    -5012 
   -5069    -5081    -5013    -4892    -4747    -4587    -4441    -4337 
   -4272    -4240    -4247    -4260    -4255    -4251    -4270    -4313 
   -4368    -4407    -4430    -4457    -4492    -4546    -4606    -4634 
   -4638    -4650    -4666    -4691    -4723    -4756    -4797    -4858 
   -4918    -4954    -4959    -4922    -4866    -4826    -4801    -4777 
   -4756    -4737    -4723    -4725    -4737    -4752    -4758    -4745 
   -4722    -4711    -4720    -4758    -4787    -4773    -4753    -4750 
   -4745    -4735    -4729    -4708    -4679    -4675    -4703    -4735 
   -4761    -4780    -4793    -4780    -4746    -4742    -4779    -4820 
   -4864    -4903    -4908    -4907    -4942    -4982    -4984    -4963 
   -4924    -4862    -4796    -4737    -4658    -4571    -4521    -4502 
   -4473    -4446    -4434    -4402    -4353    -4330    -4351    -4403 
   -4483    -4560    -4603    -4635    -4680    -4710    -4707    -4683 
   -4629    -4567    -4545    -4556    -4573    -4577    -4530    -4450 
   -4395    -4376    -4405    -4469    -4511    -4525    -4542    -4557 
   -4561    -4579    -4608    -4638    -4673    -4710    -4714    -4679 
   -4635    -4606    -4591    -4598    -4611    -4612    -4622    -4648 
   -4666    -4652    -4631    -4637    -4661    -4698    -4737    -4754 
   -4764    -4784    -4811    -4837    -4866    -4895    -4895    -4858 
   -4811    -4781    -4768    -4750    -4735    -4729    -4714    -4700 
   -4704    -4710    -4703    -4684    -4631    -4556    -4503    -4494 
   -4506    -4515    -4503    -4459    -4423    -4441    -4484    -4518 
   -4530    -4529    -4538    -4563    -4602    -4644    -4668    -4687 
   -4730    -4788    -4839    -4865    -4850    -4804    -4764    -4743 
   -4731    -4719    -4698    -4658    -4625    -4619    -4619    -4587 
   -4536    -4492    -4440    -4394    -4388    -4394    -4371    -4333 
   -4309    -4305    -4306    -4303    -4306    -4324    -4365    -4440 
   -4517    -4563    -4581    -4581    -4575    -4580    -4583    -4576 
   -4569    -4595    -4662    -4747    -4835    -4915    -4978    -5049 
   -5123    -5154    -5138    -5103    -5073    -5067    -5080    -5085 
   -5066    -5027    -4984    -4941    -4895    -4855    -4828    -4827 
   -4849    -4866    -4885    -4901    -4884    -4846    -4800    -4753 
   -4730    -4739    -4777    -4849    -4926    -4981    -5028    -5061 
   -5055    -5020    -4977    -4953    -4939    -4912    -4877    -4851 
   -4846    -4864    -4881    -4880    -4872    -4868    -4850    -4822 
   -4791    -4743    -4689    -4665    -4677    -4702    -4731    -4749 
   -4722    -4668    -4630    -4607    -4573    -4521    -4452    -4374 
   -4315    -4288    -4275    -4284    -4318    -4356    -4403    -4461 
   -4526    -4594    -4644    -4654    -4633    -4577    -4500    -4433 
   -4388    -4367    -4357    -4352    -4356    -4368    -4372    -4369 
   -4363    -4365    -4380    -4378    -4344    -4280    -4195    -4105 
   -4023    -3975    -3971    -3977    -3981    -4001    -4029    -4070 
   -4140    -4232    -4313    -4375    -4441    -4507    -4546    -4569 
   -4588    -4596    -4603    -4623    -4648    -4661    -4652    -4638 
   -4633    -4625    -4627    -4671    -4753    -4864    -4992    -5120 
   -5231    -5308    -5359    -5412    -5467    -5516    -5541    -5536 
   -5520    -5495    -5448    -5381    -5304    -5211    -5115    -5046 
   -4974    -4881    -4797    -4725    -4656    -4610    -4577    -4537 
   -4487    -4448    -4430    -4426    -4440    -4486    -4553    -4634 
   -4737    -4873    -5036    -5197    -5339    -5464    -5544    -5566 
   -5547    -5490    -5393    -5273    -5151    -5032    -4907    -4773 
   -4634    -4491    -4364    -4267    -4191    -4137    -4118    -4126 
   -4147    -4160    -4155    -4148    -4137    -4114    -4101    -4102 
   -4108    -4128    -4170    -4221    -4275    -4332    -4382    -4414 
   -4446    -4490    -4529    -4556    -4585    -4629    -4662    -4702 
   -4766    -4830    -4877    -4926    -4978    -5026    -5073    -5121 
   -5162    -5189    -5213    -5236    -5239    -5232    -5220    -5177 
   -5098    -5015    -4931    -4841    -4768    -4710    -4622    -4500 
   -4386    -4299    -4233    -4176    -4131    -4079    -4013    -3958 
   -3917    -3882    -3866    -3870    -3882    -3909    -3959    -4005 
   -4051    -4117    -4203    -4299    -4395    -4495    -4598    -4691 
   -4784    -4884    -4981    -5080    -5186    -5279    -5364    -5460 
   -5543    -5597    -5624    -5610    -5559    -5499    -5444    -5386 
   -5321    -5244    -5150    -5038    -4912    -4779    -4641    -4502 
   -4394    -4328    -4279    -4253    -4253    -4251    -4237    -4233 
   -4252    -4313    -4413    -4525    -4635    -4735    -4812    -4855 
   -4855    -4827    -4820    -4849    -4888    -4934    -4969    -4973 
   -4966    -4962    -4923    -4845    -4766    -4703    -4660    -4637 
   -4610    -4561    -4509    -4476    -4444    -4390    -4326    -4252 
   -4171    -4102    -4048    -4017    -4016    -4048    -4121    -4214 
   -4287    -4340    -4376    -4395    -4407    -4438    -4504    -4610 
   -4727    -4819    -4866    -4882    -4895    -4900    -4903    -4932 
   -4969    -4995    -5046    -5119    -5152    -5127    -5069    -4988 
   -4897    -4822    -4761    -4700    -4629    -4561    -4514    -4476 
   -4448    -4442    -4459    -4490    -4526    -4554    -4585    -4630 
   -4684    -4743    -4807    -4866    -4916    -4968    -5022    -5044 
   -5030    -5009    -4978    -4928    -4892    -4865    -4820    -4761 
   -4680    -4569    -4448    -4344    -4259    -4171    -4097    -4055 
   -4052    -4086    -4140    -4194    -4232    -4252    -4278    -4322 
   -4360    -4394    -4433    -4468    -4511    -4571    -4619    -4653 
   -4700    -4756    -4807    -4862    -4932    -5009    -5090    -5174 
   -5239    -5267    -5286    -5324    -5368    -5422    -5505    -5595 
   -5659    -5707    -5748    -5749    -5714    -5663    -5597    -5529 
   -5489    -5452    -5386    -5305    -5223    -5130    -5036    -4953 
   -4865    -4779    -4716    -4695    -4703    -4723    -4746    -4756 
   -4733    -4696    -4672    -4657    -4653    -4657    -4650    -4630 
   -4610    -4584    -4546    -4496    -4417    -4313    -4216    -4135 
   -4064    -3998    -3936    -3894    -3870    -3846    -3838    -3844 
   -3863    -3919    -4016    -4128    -4240    -4355    -4467    -4572 
   -4661    -4734    -4797    -4838    -4874    -4931    -4982    -5003 
   -4996    -4946    -4865    -4811    -4792    -4765    -4725    -4672 
   -4607    -4545    -4495    -4461    -4441    -4429    -4422    -4422 
   -4409    -4364    -4313    -4267    -4236    -4239    -4241    -4213 
   -4183    -4170    -4163    -4163    -4163    -4155    -4153    -4174 
   -4216    -4279    -4347    -4394    -4428    -4464    -4503    -4531 
   -4561    -4612    -4676    -4739    -4807    -4870    -4916    -4942 
   -4974    -5026    -5086    -5147    -5213    -5271    -5313    -5344 
   -5362    -5362    -5355    -5354    -5359    -5363    -5350    -5319 
   -5281    -5231    -5167    -5094    -5015    -4936    -4870    -4816 
   -4781    -4756    -4725    -4696    -4675    -4645    -4617    -4600 
   -4592    -4587    -4571    -4541    -4517    -4511    -4521    -4519 
   -4500    -4491    -4509    -4548    -4588    -4603    -4590    -4567 
   -4553    -4560    -4581    -4599    -4602    -4585    -4548    -4502 
   -4465    -4436    -4438    -4495    -4572    -4634    -4685    -4726 
   -4754    -4783    -4816    -4855    -4900    -4959    -5028    -5082 
   -5119    -5161    -5215    -5262    -5289    -5300    -5294    -5273 
   -5267    -5289    -5314    -5333    -5346    -5340    -5312    -5282 
   -5250    -5193    -5130    -5093    -5059    -5008    -4962    -4914 
   -4850    -4784    -4710    -4622    -4552    -4504    -4472    -4448 
   -4407    -4338    -4249    -4151    -4059    -3990    -3939    -3906 
   -3881    -3842    -3802    -3797    -3819    -3865    -3928    -3991 
   -4063    -4167    -4311    -4477    -4642    -4801    -4936    -5040 
   -5138    -5225    -5281    -5310    -5339    -5367    -5382    -5377 
   -5347    -5293    -5236    -5194    -5155    -5103    -5049    -5004 
   -4963    -4926    -4893    -4841    -4757    -4671    -4606    -4553 
   -4506    -4469    -4436    -4409    -4413    -4444    -4472    -4496 
   -4529    -4565    -4598    -4635    -4679    -4716    -4753    -4793 
   -4835    -4870    -4905    -4932    -4951    -4968    -4996    -5028 
   -5047    -5055    -5059    -5058    -5062    -5074    -5069    -5039 
   -5011    -4982    -4943    -4900    -4851    -4791    -4716    -4631 
   -4534    -4423    -4311    -4214    -4135    -4063    -4000    -3950 
   -3904    -3858    -3823    -3786    -3739    -3689    -3658    -3651 
   -3662    -3694    -3747    -3804    -3855    -3900    -3925    -3937 
   -3960    -3996    -4044    -4118    -4210    -4294    -4382    -4477 
   -4571    -4660    -4738    -4807    -4880    -4957    -5036    -5113 
   -5163    -5174    -5169    -5165    -5158    -5157    -5163    -5174 
   -5194    -5233    -5278    -5317    -5343    -5343    -5344    -5368 
   -5391    -5412    -5433    -5429    -5398    -5364    -5321    -5258 
   -5194    -5140    -5096    -5069    -5065    -5073    -5088    -5115 
   -5143    -5157    -5171    -5186    -5189    -5181    -5152    -5101 
   -5050    -4997    -4938    -4888    -4824    -4725    -4614    -4511 
   -4415    -4336    -4279    -4229    -4185    -4144    -4090    -4020 
   -3959    -3925    -3912    -3920    -3946    -3971    -4001    -4047 
   -4091    -4125    -4143    -4135    -4117    -4120    -4151    -4197 
   -4230    -4249    -4274    -4298    -4317    -4349    -4395    -4437 
   -4476    -4514    -4518    -4490    -4467    -4452    -4437    -4441 
   -4467    -4502    -4550    -4607    -4650    -4687    -4718    -4753 
   -4808    -4885    -4976    -5067    -5152    -5239    -5321    -5364 
   -5374    -5377    -5377    -5373    -5366    -5360    -5360    -5359 
   -5351    -5325    -5287    -5251    -5224    -5209    -5202    -5186 
   -5147    -5090    -5019    -4922    -4815    -4722    -4646    -4592 
   -4550    -4498    -4436    -4388    -4364    -4353    -4347    -4336 
   -4322    -4320    -4337    -4368    -4399    -4429    -4465    -4502 
   -4536    -4573    -4607    -4625    -4622    -4610    -4588    -4567 
   -4564    -4580    -4599    -4610    -4608    -4594    -4575    -4553 
   -4533    -4526    -4534    -4549    -4569    -4573    -4557    -4542 
   -4533    -4533    -4550    -4571    -4585    -4615    -4654    -4683 
   -4699    -4696    -4677    -4664    -4676    -4706    -4741    -4769 
   -4796    -4826    -4851    -4868    -4868    -4845    -4803    -4761 
   -4726    -4695    -4676    -4664    -4646    -4626    -4606    -4584 
   -4577    -4581    -4575    -4554    -4544    -4531    -4502    -4463 
   -4425    -4390    -4353    -4324    -4309    -4311    -4338    -4384 
   -4433    -4475    -4521    -4573    -4635    -4714    -4795    -4862 
   -4920    -4977    -5020    -5043    -5032    -4981    -4908    -4831 
   -4758    -4698    -4644    -4588    -4544    -4517    -4495    -4475 
   -4460    -4448    -4446    -4465    -4487    -4506    -4541    -4598 
   -4662    -4725    -4772    -4804    -4834    -4865    -4904    -4947 
   -4980    -5019    -5065    -5096    -5109    -5107    -5084    -5054 
   -5026    -4986    -4936    -4892    -4850    -4801    -4757    -4718 
   -4673    -4631    -4600    -4575    -4565    -4577    -4603    -4627 
   -4637    -4637    -4634    -4623    -4615    -4612    -4603    -4587 
   -4572    -4561    -4564    -4573    -4585    -4604    -4617    -4615 
   -4621    -4631    -4644    -4671    -4704    -4733    -4770    -4814 
