Origin Time       2025/01/13 21:19:00
Lat.              31.8
Long.             131.6
Depth. (km)       30
Mag.              6.9
Station Code      KOCH03
Station Lat.      33.2683
Station Long.     132.9891
Station Height(m) 270
Record Time       2025/01/13 21:20:10
Sampling Freq(Hz) 100Hz
Duration Time(s)  152
Dir.              4
Scale Factor      7845(gal)/8223790
Max. Acc. (gal)   1.931
Last Correction   2025/01/13 21:20:10
Memo.             
[...]
    -272     -256     -255     -272     -272     -284     -357     -442 
    -480     -452     -349     -225     -162     -202     -330     -498 
    -657     -773     -843     -872     -850     -793     -743     -714 
    -706     -751     -869     -977    -1015     -992     -907     -765 
    -641     -580     -579     -656     -803     -945    -1026    -1031 
    -977     -896     -820     -760     -683     -550     -376     -203 
     -74      -25      -78     -224     -422     -612     -723     -750 
    -738     -734     -754     -787     -778     -699     -564     -396 
    -237     -166     -225     -409     -704    -1027    -1233    -1262 
   -1161    -1004     -843     -716     -657     -656     -675     -688 
    -673     -627     -585     -580     -598     -589     -537     -463 
    -391     -338     -328     -382     -473     -548     -554     -494 
    -433     -429     -491     -587     -691     -797     -911    -1042 
   -1166    -1225    -1201    -1138    -1069    -1017    -1015    -1054 
   -1077    -1043     -949     -816     -720     -711     -761     -818 
    -868     -924     -957     -946     -912     -837     -712     -577 
    -446     -325     -232     -211     -234     -237     -210     -160 
     -91      -31      -10      -55     -214     -506     -850    -1140 
   -1331    -1385    -1277    -1044     -783     -565     -406     -298 
    -256     -284     -367     -456     -486     -429     -338     -303 
    -407     -638     -877    -1051    -1150    -1143    -1027     -864 
    -704     -552     -433     -372     -352     -353     -369     -380 
    -349     -272     -184     -118     -105     -160     -224     -222 
    -180     -157     -168     -207     -278     -345     -392     -463 
    -591     -777     -977    -1131    -1251    -1378    -1505    -1601 
   -1640    -1603    -1482    -1304    -1102     -876     -626     -398 
    -253     -217     -259     -324     -384     -437     -430     -318 
    -137       51      201      271      248      137      -58     -284 
    -441     -519     -589     -654     -693     -718     -707     -643 
    -577     -557     -571     -585     -577     -525     -434     -352 
    -352     -494     -768    -1081    -1321    -1443    -1462    -1395 
   -1251    -1053     -850     -693     -614     -634     -768     -962 
   -1104    -1132    -1048     -866     -654     -498     -409     -334 
    -224      -90       21       86       98       91       95       94 
      74       41      -16     -145     -365     -650     -920    -1082 
   -1129    -1093     -955     -745     -577     -538     -630     -777 
    -884     -897     -823     -702     -600     -591     -673     -753 
    -742     -665     -596     -577     -608     -656     -689     -729 
    -776     -819     -891     -988    -1028     -955     -793     -596 
    -403     -243     -118      -31      -12      -90     -243     -400 
    -511     -568     -573     -560     -580     -645     -708     -712 
    -662     -602     -575     -633     -799    -1027    -1232    -1348 
   -1364    -1313    -1255    -1262    -1336    -1417    -1463    -1478 
   -1447    -1321    -1109     -847     -542     -244      -25      110 
     170      133       25     -114     -276     -449     -612     -742 
    -837     -882     -857     -783     -679     -541     -396     -287 
    -220     -167      -99       -9       66       37     -144     -388 
    -545     -558     -457     -305     -174     -113     -120     -149 
    -160     -118      -39       20       22       -4      -29      -95 
    -238     -422     -567     -625     -616     -579     -494     -352 
    -216     -159     -190     -299     -499     -788    -1131    -1475 
   -1736    -1848    -1830    -1723    -1530    -1281    -1043     -876 
    -797     -778     -772     -770     -810     -912    -1062    -1242 
   -1448    -1647    -1796    -1858    -1777    -1560    -1274     -985 
    -751     -606     -541     -534     -576     -681     -849    -1044 
   -1231    -1366    -1441    -1499    -1537    -1505    -1432    -1360 
   -1285    -1212    -1166    -1107     -988     -842     -704     -583 
    -519     -560     -665     -750     -807     -865     -924    -1013 
   -1144    -1281    -1447    -1644    -1791    -1831    -1782    -1669 
   -1491    -1242     -946     -650     -384     -137      125      402 
     625      704      607      411      226       94       21       24 
      83      162      221      214      112      -82     -328     -577 
    -814    -1039    -1271    -1493    -1632    -1636    -1491    -1254 
   -1053     -959     -928     -912     -913     -936     -962     -996 
   -1094    -1283    -1506    -1633    -1520    -1148     -685     -357 
    -282     -433     -697     -934    -1042     -996     -838     -653 
    -522     -471     -477     -506     -491     -407     -317     -287 
    -309     -360     -434     -467     -384     -209      -37       36 
     -33     -237     -519     -780     -926     -932     -854     -783 
    -777     -854    -1007    -1205    -1404    -1553    -1628    -1606 
   -1485    -1304    -1151    -1061    -1008     -940     -793     -567 
    -342     -170      -40       31       24      -33     -113     -263 
    -521     -812     -994     -972     -793     -600     -491     -484 
    -572     -718     -850     -931     -972     -953     -842     -684 
    -569     -534     -558     -656     -814     -947     -978     -900 
    -758     -588     -386     -171       -8       56        4     -145 
    -324     -449     -477     -391     -180      112      373      496 
     456      291       54     -198     -409     -511     -473     -324 
    -132       47      175      210      133       -4     -121     -203 
    -257     -286     -328     -429     -598     -799     -977    -1090 
   -1112    -1035     -869     -650     -460     -367     -364     -429 
    -608     -886    -1120    -1198    -1123     -920     -610     -255 
      33      178      186      120       54       33       31       -2 
     -37      -29       10       52       58       -8     -159     -363 
    -552     -668     -706     -702     -692     -676     -638     -576 
    -530     -585     -751     -947    -1100    -1165    -1129    -1038 
    -947     -893     -870     -870     -903     -957    -1042    -1143 
   -1177    -1107    -1032    -1053    -1162    -1317    -1468    -1568 
   -1609    -1590    -1525    -1464    -1422    -1359    -1255    -1127 
    -994     -896     -858     -847     -814     -762     -712     -656 
    -584     -506     -444     -419     -418     -421     -419     -384 
    -315     -283     -361     -535     -720     -855     -915     -889 
    -812     -762     -784     -892    -1074    -1227    -1223    -1036 
    -731     -398     -147      -55      -83     -137     -167     -163 
    -105       -4       95      175      224      249      255      187 
      20     -213     -426     -556     -607     -621     -645     -693 
    -737     -731     -688     -649     -645     -680     -726     -743 
    -722     -710     -749     -808     -846     -872     -927    -1038 
   -1169    -1270    -1337    -1340    -1248    -1124    -1046    -1051 
   -1143    -1270    -1337    -1294    -1152     -946     -730     -581 
    -540     -552     -541     -507     -476     -433     -380     -342 
    -337     -391     -486     -557     -568     -560     -614     -738 
    -866     -949     -984     -947     -831     -727     -712     -761 
    -851     -992    -1128    -1179    -1119     -974     -800     -673 
    -625     -637     -699     -769     -761     -654     -504     -400 
    -422     -589     -857    -1128    -1335    -1480    -1591    -1668 
   -1718    -1763    -1772    -1696    -1522    -1277     -989     -673 
    -344      -32      221      338      282      117      -55     -159 
    -128       35      252      454      600      622      484      263 
      24     -248     -531     -753     -872     -897     -895     -930 
   -1031    -1179    -1327    -1414    -1412    -1325    -1193    -1030 
    -824     -567     -271      -14      113       91      -54     -282 
    -540     -772     -923     -967     -942     -904     -874     -862 
    -885     -955    -1073    -1202    -1306    -1370    -1370    -1274 
   -1051     -711     -326       21      272      363      259      -17 
    -388     -737     -982    -1124    -1209    -1285    -1343    -1355 
   -1348    -1359    -1398    -1455    -1516    -1572    -1615    -1609 
   -1517    -1337    -1097     -820     -530     -257      -48       63 
      86       41      -45     -157     -282     -380     -453     -558 
    -697     -797     -827     -826     -814     -788     -745     -657 
    -523     -394     -332     -368     -483     -635     -772     -828 
    -796     -731     -693     -707     -762     -837     -893     -884 
    -807     -699     -587     -507     -506     -581     -729     -961 
   -1227    -1432    -1548    -1597    -1564    -1441    -1296    -1192 
   -1120    -1075    -1078    -1131    -1244    -1408    -1572    -1699 
   -1799    -1880    -1906    -1875    -1834    -1829    -1875    -1929 
   -1908    -1800    -1648    -1491    -1333    -1154     -953     -770 
    -684     -726     -837     -934     -976     -949     -845     -662 
    -411      -91      245      500      627      657      642      615 
     589      546      453      328      240      222      256      326 
     388      390      321      226      156      108       47      -22 
     -60      -60      -48      -32      -24      -18        4       32 
      33        2      -58     -129     -174     -143      -17      139 
     252      298      282      236      184      120       29      -99 
    -264     -411     -483     -459     -364     -245     -164     -180 
    -295     -472     -660     -811     -900     -899     -808     -649 
    -449     -249      -64       98      216      259      218       93 
     -93     -283     -457     -607     -714     -774     -832     -930 
   -1063    -1205    -1332    -1426    -1494    -1559    -1640    -1749 
   -1863    -1953    -2029    -2120    -2212    -2270    -2270    -2205 
   -2083    -1925    -1719    -1414    -1007     -577     -213       51 
     207      257      236      194      180      218      306      411 
     498      565      615      607      533      418      299      209 
     184      233      301      311      234      109       -9      -94 
    -152     -194     -221     -214     -160      -62       63      166 
     187      102      -62     -243     -388     -490     -573     -673 
    -810    -1001    -1263    -1564    -1810    -1929    -1923    -1827 
   -1691    -1582    -1532    -1528    -1552    -1557    -1494    -1366 
   -1210    -1036     -859     -708     -583     -448     -288     -128 
     -18      -10     -122     -325     -544     -714     -815     -854 
    -892     -969    -1040    -1073    -1104    -1162    -1252    -1390 
   -1544    -1651    -1699    -1730    -1757    -1761    -1775    -1825 
   -1871    -1867    -1788    -1641    -1486    -1348    -1167     -909 
    -607     -287       27      298      484      561      526      449 
     423      479      587      711      820      882      884      828 
     722      622      583      611      669      695      649      552 
     413      230       14     -201     -344     -372     -317     -213 
     -81       49      129      129       78       25      -33     -147 
    -330     -544     -730     -866     -962    -1047    -1148    -1258 
   -1344    -1398    -1431    -1453    -1472    -1463    -1386    -1246 
   -1059     -845     -652     -534     -503     -522     -529     -484 
    -375     -233     -120      -59      -44      -37       10      108 
     216      310      383      405      357      243       78      -66 
    -103      -13      133      248      298      299      263      202 
     121        8     -147     -340     -529     -679     -788     -858 
    -905     -949     -985    -1000     -974     -919     -892     -953 
   -1100    -1277    -1424    -1532    -1634    -1750    -1854    -1919 
   -1969    -2038    -2115    -2166    -2162    -2099    -2011    -1919 
   -1791    -1615    -1444    -1312    -1209    -1143    -1105    -1085 
   -1084    -1077    -1054    -1039    -1053    -1086    -1117    -1166 
   -1271    -1420    -1557    -1657    -1718    -1742    -1726    -1664 
   -1575    -1478    -1366    -1251    -1152    -1074    -1007     -945 
    -876     -784     -661     -541     -449     -392     -367     -348 
    -330     -330     -349     -386     -436     -500     -594     -707 
    -811     -915    -1032    -1125    -1158    -1135    -1082    -1020 
    -957     -878     -776     -666     -577     -527     -526     -549 
    -561     -549     -510     -445     -380     -330     -290     -251 
    -214     -195     -195     -183     -139      -52       68      203 
     332      440      500      498      449      342      163      -39 
    -234     -433     -633     -834    -1036    -1221    -1368    -1480 
   -1545    -1520    -1405    -1290    -1232    -1219    -1216    -1197 
   -1143    -1057     -955     -853     -766     -702     -629     -530 
    -422     -318     -211     -118      -62      -40      -58     -141 
    -287     -445     -567     -642     -687     -724     -757     -773 
    -805     -897    -1050    -1240    -1453    -1683    -1898    -2035 
   -2074    -2066    -2060    -2091    -2181    -2305    -2421    -2527 
   -2617    -2670    -2675    -2640    -2566    -2459    -2334    -2195 
   -2030    -1798    -1478    -1090     -706     -398     -191      -62 
      21       66       66       48       44       79      149      205 
     213      183      135       71        9      -44     -125     -240 
    -353     -442     -471     -409     -275     -108       70      241 
     394      508      560      549      519      496      445      357 
     290      267      260      260      271      272      238      163 
      47      -97     -225     -318     -394     -456     -522     -631 
    -799     -993    -1193    -1372    -1510    -1614    -1705    -1763 
   -1782    -1790    -1786    -1723    -1605    -1471    -1371    -1335 
   -1356    -1413    -1486    -1568    -1669    -1767    -1836    -1884 
   -1918    -1912    -1849    -1742    -1636    -1553    -1494    -1425 
   -1304    -1119     -908     -691     -453     -179      108      371 
     577      720      838      962     1092     1202     1274     1283 
    1219     1117     1057     1073     1144     1225     1270     1239 
    1125      959      764      534      287       45     -166     -319 
    -429     -538     -657     -750     -814     -857     -874     -868 
    -847     -820     -792     -751     -680     -577     -488     -453 
    -456     -444     -387     -275     -132       -2       91      136 
     117       59      -17     -122     -260     -409     -538     -638 
    -711     -762     -791     -784     -750     -735     -760     -803 
    -842     -874     -907     -942     -958     -939     -916     -913 
    -936     -985    -1051    -1102    -1131    -1154    -1182    -1224 
   -1270    -1309    -1327    -1318    -1291    -1248    -1205    -1170 
   -1132    -1082    -1009     -905     -781     -652     -527     -421 
    -334     -280     -275     -317     -391     -486     -589     -681 
    -735     -750     -758     -792     -869     -996    -1166    -1371 
   -1602    -1815    -1964    -2050    -2089    -2087    -2050    -1984 
   -1875    -1726    -1567    -1420    -1287    -1189    -1132    -1088 
   -1042     -984     -897     -784     -677     -602     -553     -531 
    -529     -523     -511     -518     -554     -610     -676     -745 
    -797     -820     -819     -797     -751     -697     -662     -646 
    -618     -562     -503     -441     -360     -267     -171      -70 
      49      194      346      483      584      627      619      611 
     646      734      843      928      966      949      869      741 
     584      399      194       -8     -199     -376     -527     -635 
    -689     -710     -710     -702     -702     -699     -664     -594 
    -498     -380     -251     -128      -41      -17      -51     -108 
    -136     -117      -70      -31      -24      -52     -105     -174 
    -263     -373     -496     -622     -735     -811     -850     -859 
    -828     -762     -693     -637     -615     -652     -735     -831 
    -913     -966     -967     -912     -816     -700     -562     -407 
    -260     -136      -39       20       39       32       22       18 
      20       14      -35     -140     -292     -494     -738     -996 
   -1235    -1437    -1598    -1721    -1813    -1895    -1987    -2080 
   -2162    -2230    -2289    -2346    -2400    -2447    -2479    -2489 
   -2498    -2523    -2527    -2461    -2324    -2147    -1953    -1759 
   -1566    -1355    -1127     -895     -673     -469     -301     -167 
     -56       29       71       51      -12      -75     -102     -103 
    -102     -114     -159     -240     -344     -454     -552     -598 
    -564     -484     -400     -325     -280     -274     -279     -275 
    -259     -226     -176     -132     -113     -125     -176     -270 
    -379     -463     -508     -538     -561     -583     -618     -656 
    -689     -734     -795     -865     -920     -936     -932     -946 
    -986    -1040    -1094    -1129    -1129    -1089    -1039     -997 
    -951     -886     -795     -669     -534     -413     -315     -243 
    -189     -159     -167     -206     -259     -318     -391     -460 
    -508     -542     -568     -599     -645     -695     -741     -784 
    -819     -841     -842     -822     -788     -764     -762     -765 
    -735     -652     -518     -373     -260     -182     -118      -51 
      22      105      206      341      473      541      521      454 
     378      298      217      140       64        2      -25      -32 
     -40      -37      -17        1       12       22       33       45 
      66       98      128      136      101        8     -135     -290 
    -440     -577     -702     -828     -973    -1116    -1236    -1327 
   -1393    -1429    -1435    -1409    -1345    -1248    -1146    -1061 
   -1001     -966     -940     -900     -854     -820     -791     -757 
    -722     -706     -720     -742     -735     -696     -642     -579 
    -523     -495     -502     -557     -657     -765     -861     -954 
   -1069    -1212    -1371    -1524    -1628    -1659    -1632    -1567 
   -1485    -1412    -1359    -1314    -1255    -1169    -1061     -935 
    -814     -741     -729     -743     -760     -785     -823     -858 
    -874     -872     -877     -919     -999    -1100    -1210    -1320 
   -1409    -1463    -1501    -1533    -1539    -1505    -1447    -1374 
   -1301    -1240    -1189    -1140    -1100    -1086    -1096    -1108 
   -1108    -1074     -993     -877     -751     -648     -579     -533 
    -487     -419     -319     -201      -90        6       89      147 
     178      186      157       99       40      -14      -63     -108 
    -155     -220     -317     -434     -546     -646     -742     -846 
    -966    -1104    -1254    -1413    -1568    -1696    -1782    -1825 
   -1834    -1830    -1841    -1876    -1933    -1999    -2047    -2047 
