Origin Time       2025/01/13 21:19:00
Lat.              31.8
Long.             131.6
Depth. (km)       30
Mag.              6.9
Station Code      KOCH03
Station Lat.      33.2683
Station Long.     132.9891
Station Height(m) 170
Record Time       2025/01/13 21:20:10
Sampling Freq(Hz) 100Hz
Duration Time(s)  152
Dir.              2
Scale Factor      2942(gal)/8224139
Max. Acc. (gal)   1.785
Last Correction   2025/01/13 21:20:10
Memo.             
[...]
   17334    17427    17508    17562    17593    17571    17450    17294 
   17138    17019    17010    17035    17019    16956    16833    16726 
   16683    16638    16605    16627    16656    16648    16634    16619 
   16556    16457    16386    16380    16414    16444    16463    16474 
   16468    16517    16638    16727    16785    16885    16973    17011 
   17047    17101    17154    17138    17065    16993    16903    16825 
   16808    16837    16888    16911    16907    16930    16977    17043 
   17113    17118    17050    16987    16949    16904    16880    16880 
   16803    16632    16444    16321    16291    16303    16316    16322 
   16318    16316    16370    16524    16753    16997    17173    17213 
   17172    17116    17078    17085    17140    17273    17413    17444 
   17416    17367    17257    17132    17034    16954    16891    16872 
   16904    16922    16920    16924    16903    16814    16683    16595 
   16579    16605    16680    16769    16849    16934    16950    16856 
   16758    16761    16876    17050    17200    17289    17359    17466 
   17635    17844    18026    18162    18256    18324    18408    18463 
   18454    18397    18299    18198    18135    18123    18131    18138 
   18177    18216    18235    18269    18223    18042    17776    17455 
   17145    16858    16582    16351    16136    15965    15893    15884 
   15959    16102    16255    16401    16494    16548    16632    16746 
   16861    16929    16930    16902    16892    16961    17057    17111 
   17151    17186    17278    17466    17625    17740    17844    17794 
   17567    17294    17012    16746    16583    16513    16421    16303 
   16233    16168    16116    16109    16079    16047    16035    16024 
   16124    16333    16483    16549    16587    16591    16551    16479 
   16401    16298    16182    16131    16159    16241    16363    16518 
   16710    16887    16968    16968    16973    17004    17024    17031 
   16992    16853    16692    16568    16468    16440    16461    16528 
   16696    16873    16964    16950    16804    16609    16455    16345 
   16272    16232    16231    16263    16363    16495    16563    16572 
   16556    16542    16568    16627    16733    16852    16922    16984 
   17082    17231    17385    17462    17487    17475    17413    17290 
   17105    16924    16789    16726    16708    16610    16437    16267 
   16117    16036    16006    16020    16090    16152    16185    16160 
   16100    16117    16152    16100    16008    15940    15954    16075 
   16306    16630    16987    17383    17783    18042    18156    18208 
   18231    18247    18261    18230    18133    18040    17986    17950 
   17950    17941    17847    17682    17523    17409    17290    17151 
   17038    16927    16776    16615    16537    16578    16657    16725 
   16737    16654    16555    16494    16426    16312    16159    16019 
   15892    15816    15844    15862    15805    15736    15687    15704 
   15839    16071    16367    16669    16915    17113    17273    17316 
   17239    17134    17008    16857    16715    16592    16517    16502 
   16525    16634    16846    17059    17178    17158    17027    16891 
   16806    16754    16744    16765    16768    16764    16792    16846 
   16875    16838    16738    16586    16426    16325    16299    16375 
   16519    16648    16769    16877    16961    17062    17155    17209 
   17234    17254    17289    17278    17223    17181    17147    17113 
   17061    16995    16930    16829    16727    16708    16771    16922 
   17188    17559    17950    18262    18485    18569    18462    18280 
   18065    17788    17578    17473    17373    17289    17253    17242 
   17296    17366    17355    17329    17307    17201    17066    16997 
   16956    16900    16827    16706    16578    16521    16474    16375 
   16290    16252    16281    16360    16410    16372    16225    16023 
   15870    15782    15763    15826    15940    16052    16114    16189 
   16341    16529    16708    16850    16931    16987    17061    17205 
   17427    17699    17986    18183    18241    18200    18099    17995 
   17911    17826    17778    17747    17647    17490    17304    17055 
   16764    16492    16258    15992    15681    15456    15411    15516 
   15707    15901    16063    16240    16432    16586    16695    16748 
   16749    16762    16810    16912    17095    17301    17467    17582 
   17710    17906    18071    18129    18125    18084    18025    17905 
   17660    17355    17073    16879    16768    16667    16587    16534 
   16498    16583    16768    16951    17108    17167    17092    16969 
   16896    16920    17031    17170    17275    17338    17377    17381 
   17359    17317    17215    17043    16866    16687    16420    16136 
   15992    15939    15892    15859    15824    15793    15827    15919 
   16042    16202    16362    16468    16546    16630    16699    16749 
   16748    16660    16599    16650    16731    16802    16897    17023 
   17161    17271    17371    17444    17419    17344    17261    17120 
   16953    16767    16579    16453    16364    16286    16252    16212 
   16085    15931    15881    15957    16074    16173    16252    16353 
   16518    16737    16934    17016    16989    16866    16727    16742 
   16883    17042    17257    17486    17679    17919    18203    18373 
   18350    18235    18123    18015    17930    17853    17764    17687 
   17556    17338    17139    17001    16862    16695    16498    16294 
   16137    16077    16078    16059    15993    15863    15704    15672 
   15854    16174    16563    16930    17190    17386    17554    17676 
   17728    17656    17520    17412    17290    17153    17120    17242 
   17464    17740    18019    18256    18435    18561    18621    18596 
   18468    18239    17941    17624    17355    17153    17026    16987 
   16964    16914    16895    16924    16984    17084    17201    17261 
   17301    17367    17342    17199    17051    16899    16706    16472 
   16222    16039    15969    16075    16402    16784    17034    17111 
   17032    16930    16904    16891    16842    16749    16602    16502 
   16515    16546    16563    16634    16761    16862    16930    17015 
   17068    17059    17035    16989    16964    17007    17022    16957 
   16902    16945    17091    17213    17212    17150    17099    17065 
   17028    16935    16848    16910    17115    17348    17539    17647 
   17655    17556    17367    17158    16978    16843    16758    16660 
   16511    16391    16339    16312    16298    16348    16475    16560 
   16573    16632    16699    16734    16794    16861    16941    17012 
   17066    17177    17325    17456    17606    17744    17767    17629 
   17373    17070    16761    16488    16285    16156    16186    16438 
   16835    17230    17544    17763    17861    17871    17852    17775 
   17651    17524    17375    17261    17270    17386    17568    17775 
   17930    17990    17965    17891    17771    17594    17397    17257 
   17151    17000    16881    16866    16845    16781    16723    16642 
   16563    16494    16389    16244    16112    16069    16092    16150 
   16287    16457    16605    16683    16640    16542    16424    16258 
   16077    15904    15843    15880    15867    15916    16106    16297 
   16438    16529    16560    16557    16524    16428    16213    15982 
   15925    15998    16137    16378    16642    16862    17053    17190 
   17217    17096    16883    16708    16638    16644    16706    16800 
   16876    16910    16885    16822    16834    16884    16799    16630 
   16490    16399    16444    16602    16708    16756    16835    16895 
   16858    16749    16584    16374    16178    16046    15940    15857 
   15893    16031    16185    16360    16549    16764    16984    17095 
   17138    17207    17278    17327    17319    17224    17080    17008 
   17069    17095    17051    17076    17124    17139    17150    17136 
   17115    17101    17020    16829    16582    16349    16156    16023 
   15925    15867    15923    16016    16089    16214    16367    16522 
   16683    16748    16727    16754    16872    17050    17196    17251 
   17240    17122    16870    16575    16290    16110    16174    16467 
   16861    17239    17568    17875    18162    18374    18422    18307 
   18142    17963    17734    17513    17374    17342    17420    17597 
   17783    17868    17844    17770    17645    17489    17340    17165 
   16960    16823    16803    16846    16873    16852    16798    16738 
   16690    16667    16630    16470    16148    15755    15364    15026 
   14848    14921    15209    15595    15951    16202    16341    16421 
   16461    16448    16437    16499    16600    16681    16734    16773 
   16803    16811    16792    16752    16710    16713    16762    16807 
   16868    16987    17127    17224    17258    17281    17311    17361 
   17496    17685    17788    17753    17652    17574    17523    17464 
   17424    17417    17400    17324    17204    17139    17189    17262 
   17335    17443    17493    17427    17292    17089    16877    16698 
   16519    16390    16321    16251    16189    16198    16322    16534 
   16771    16988    17154    17289    17410    17566    17803    18050 
   18225    18273    18168    17982    17794    17656    17605    17616 
   17672    17747    17725    17559    17312    17024    16723    16452 
   16143    15785    15539    15411    15298    15225    15211    15219 
   15221    15207    15228    15325    15514    15716    15843    15947 
   16116    16380    16680    16906    17097    17274    17358    17348 
   17205    16903    16576    16285    16012    15811    15718    15770 
   15952    16120    16177    16179    16181    16187    16239    16321 
   16344    16264    16096    15884    15695    15554    15479    15475 
   15516    15646    15928    16297    16673    17046    17367    17579 
   17698    17771    17807    17791    17694    17532    17390    17319 
   17316    17327    17313    17325    17392    17474    17574    17725 
   17911    18038    18060    17995    17852    17656    17443    17188 
   16914    16690    16502    16314    16235    16286    16309    16322 
   16395    16486    16646    16868    17065    17257    17442    17647 
   17899    18111    18247    18301    18229    18103    17987    17825 
   17597    17359    17154    17076    17263    17678    18123    18515 
   18854    19145    19404    19583    19575    19357    19010    18619 
   18270    18036    17868    17728    17668    17730    17888    18049 
   18193    18324    18320    18158    17926    17716    17624    17559 
   17406    17230    17062    16907    16788    16652    16424    16164 
   15975    15847    15792    15819    15851    15905    16019    16159 
   16309    16403    16409    16411    16488    16672    16902    17074 
   17146    17091    16927    16719    16486    16237    16032    15912 
   15849    15866    15986    16114    16248    16475    16696    16825 
   16895    16869    16733    16567    16429    16371    16459    16718 
   17108    17496    17699    17668    17491    17294    17165    17080 
   17001    16918    16862    16953    17149    17336    17547    17755 
   17880    17957    17995    18000    18031    18141    18327    18509 
   18615    18651    18600    18451    18270    18069    17857    17728 
   17683    17639    17598    17552    17419    17236    17128    17131 
   17186    17209    17173    17119    17070    17008    16919    16815 
   16713    16605    16467    16264    16020    15803    15630    15493 
   15404    15319    15191    15043    14909    14785    14689    14659 
   14713    14820    14953    15111    15267    15385    15462    15473 
   15390    15268    15213    15257    15376    15556    15741    15853 
   15890    15896    15938    16066    16232    16393    16579    16767 
   16935    17096    17177    17126    17004    16852    16703    16640 
   16691    16854    17095    17320    17497    17640    17707    17679 
   17589    17467    17339    17240    17242    17381    17644    17995 
   18353    18643    18870    19006    19014    18927    18775    18592 
   18400    18130    17736    17323    16991    16699    16436    16202 
   15920    15614    15354    15147    15043    15064    15147    15257 
   15412    15630    15861    16024    16055    15912    15689    15516 
   15415    15400    15439    15471    15562    15757    16008    16316 
   16686    17077    17415    17639    17802    17971    18154    18319 
   18384    18339    18234    18125    18065    18029    17986    17929 
   17836    17678    17451    17226    17020    16796    16598    16483 
   16498    16625    16765    16912    17089    17248    17393    17464 
   17432    17462    17647    17869    18065    18297    18549    18728 
   18851    18909    18909    18945    18982    18940    18867    18850 
   18941    19114    19282    19429    19553    19660    19766    19765 
   19539    19134    18659    18222    17863    17598    17469    17436 
   17423    17328    17069    16684    16260    15832    15415    15018 
   14654    14338    14118    14080    14220    14439    14638    14783 
   14895    14979    15026    15052    15022    14936    14891    14956 
   15083    15206    15300    15395    15527    15661    15712    15657 
   15527    15388    15244    15063    14893    14754    14625    14555 
   14544    14524    14463    14331    14103    13798    13423    13008 
   12626    12302    12048    11901    11861    11902    11985    12036 
   12044    12081    12172    12301    12490    12727    12969    13246 
   13601    14019    14488    14985    15504    16046    16560    17024 
   17405    17667    17861    18006    18088    18179    18328    18546 
   18850    19209    19573    19861    20025    20105    20085    19932 
   19693    19431    19190    18955    18665    18316    17942    17532 
   17113    16737    16390    16044    15719    15462    15279    15126 
   15045    15083    15182    15288    15431    15666    15996    16344 
   16605    16726    16777    16806    16771    16679    16584    16461 
   16274    16077    15935    15850    15855    15950    16044    16178 
   16371    16526    16648    16742    16758    16695    16594    16530 
   16530    16548    16564    16528    16393    16214    16063    15942 
   15831    15778    15769    15736    15759    15903    16135    16422 
   16700    16903    17047    17178    17298    17382    17444    17502 
   17556    17626    17734    17902    18096    18242    18362    18462 
   18531    18623    18759    18933    19156    19410    19649    19850 
   20062    20294    20505    20695    20860    20988    21104    21188 
   21261    21373    21512    21659    21751    21741    21694    21621 
   21502    21358    21174    20908    20553    20167    19782    19377 
   18975    18563    18071    17531    17026    16602    16267    16000 
   15778    15612    15503    15410    15306    15202    15072    14932 
   14856    14878    14990    15132    15261    15407    15562    15730 
   15935    16175    16437    16690    16883    16995    17066    17150 
   17230    17325    17464    17594    17710    17810    17837    17768 
   17567    17278    17018    16776    16522    16275    16023    15793 
   15630    15515    15452    15441    15435    15400    15340    15264 
   15182    15115    15087    15111    15149    15175    15229    15314 
   15387    15456    15534    15626    15707    15786    15948    16186 
   16416    16615    16772    16876    16935    16958    16974    16997 
   17015    17035    17051    17041    16972    16827    16659    16505 
   16357    16232    16174    16198    16272    16389    16540    16686 
   16808    16903    16946    16945    16930    16907    16860    16800 
   16806    16903    17051    17224    17424    17651    17859    17991 
   18042    18025    17967    17899    17821    17730    17631    17506 
   17350    17174    17015    16893    16812    16765    16718    16663 
   16610    16559    16530    16506    16476    16544    16742    17016 
   17332    17632    17933    18291    18665    19037    19353    19526 
   19627    19715    19766    19768    19677    19506    19296    19053 
   18756    18407    18052    17663    17180    16663    16151    15658 
   15253    14921    14613    14307    13992    13680    13348    12995 
   12660    12367    12152    12096    12204    12388    12583    12762 
   12934    13132    13354    13554    13710    13826    13968    14212 
   14543    14891    15261    15660    16044    16389    16691    16956 
   17207    17462    17729    18011    18287    18538    18759    18918 
   18963    18881    18716    18512    18281    18025    17760    17517 
   17323    17162    16996    16821    16652    16502    16399    16330 
   16255    16158    16035    15915    15819    15700    15565    15458 
   15380    15336    15329    15342    15371    15387    15390    15438 
   15558    15738    15975    16217    16383    16495    16611    16752 
   16912    17065    17219    17389    17552    17682    17757    17797 
   17832    17855    17838    17759    17626    17470    17304    17150 
   17000    16883    16842    16831    16806    16799    16802    16780 
   16738    16683    16641    16654    16684    16630    16494    16340 
   16210    16174    16231    16295    16382    16532    16671    16752 
   16810    16868    16937    17001    17047    17089    17132    17169 
   17197    17209    17211    17204    17196    17193    17166    17105 
   17055    17039    17059    17134    17275    17467    17701    17971 
   18231    18482    18728    18933    19105    19232    19271    19238 
   19174    19121    19091    19049    18983    18886    18771    18670 
   18562    18428    18249    18009    17748    17479    17212    16989 
   16796    16645    16536    16422    16330    16278    16224    16171 
   16150    16168    16237    16375    16556    16730    16864    16929 
   16961    17037    17158    17286    17356    17319    17213    17101 
   17031    17027    17051    17065    17066    17086    17163    17298 
   17439    17551    17653    17699    17618    17455    17254    17014 
   16765    16521    16302    16132    16000    15867    15711    15580 
   15480    15365    15238    15102    14951    14793    14623    14488 
   14412    14377    14378    14386    14396    14428    14493    14597 
   14715    14837    14976    15157    15387    15611    15853    16160 
   16453    16713    16961    17126    17209    17278    17325    17338 
   17350    17390    17428    17451    17463    17440    17396    17346 
   17263    17151    17061    16988    16900    16843    16895    17058 
   17286    17541    17805    18067    18308    18513    18678    18802 
   18917    19051    19209    19377    19523    19643    19732    19786 
   19845    19893    19872    19808    19749    19666    19539    19371 
   19178    18971    18748    18485    18206    17950    17686    17386 
   17061    16725    16426    16164    15882    15564    15226    14924 
   14700    14542    14423    14318    14218    14135    14084    14075 
   14079    14106    14188    14266    14314    14357    14424    14544 
   14701    14872    15017    15086    15129    15196    15277    15375 
   15446    15453    15430    15419    15419    15421    15439    15464 
