Origin Time       2025/01/13 21:19:00
Lat.              31.8
Long.             131.6
Depth. (km)       30
Mag.              6.9
Station Code      KOCH03
Station Lat.      33.2683
Station Long.     132.9891
Station Height(m) 270
Record Time       2025/01/13 21:20:10
Sampling Freq(Hz) 100Hz
Duration Time(s)  152
Dir.              5
Scale Factor      7845(gal)/8223790
Max. Acc. (gal)   2.620
Last Correction   2025/01/13 21:20:10
Memo.             
[...]
   -4638    -4661    -4708    -4745    -4780    -4839    -4893    -4915 
   -4927    -4949    -4970    -4976    -4953    -4919    -4901    -4896 
   -4876    -4824    -4739    -4645    -4623    -4720    -4887    -5046 
   -5130    -5100    -5011    -4947    -4924    -4904    -4870    -4828 
   -4777    -4720    -4675    -4646    -4635    -4634    -4641    -4679 
   -4757    -4873    -5016    -5143    -5179    -5088    -4915    -4730 
   -4567    -4432    -4328    -4270    -4293    -4441    -4688    -4953 
   -5211    -5418    -5493    -5436    -5336    -5232    -5116    -5024 
   -4978    -4949    -4900    -4822    -4747    -4704    -4685    -4693 
   -4715    -4722    -4730    -4738    -4711    -4672    -4666    -4703 
   -4752    -4760    -4726    -4696    -4676    -4644    -4634    -4656 
   -4660    -4648    -4661    -4679    -4672    -4696    -4757    -4784 
   -4770    -4768    -4806    -4904    -5070    -5233    -5319    -5327 
   -5243    -5057    -4869    -4769    -4710    -4639    -4573    -4509 
   -4436    -4396    -4406    -4414    -4384    -4318    -4239    -4193 
   -4190    -4191    -4149    -4052    -3946    -3863    -3820    -3875 
   -4033    -4243    -4480    -4656    -4666    -4549    -4374    -4175 
   -4058    -4087    -4209    -4363    -4561    -4819    -5132    -5452 
   -5690    -5826    -5911    -5952    -5941    -5904    -5827    -5676 
   -5433    -5139    -4866    -4634    -4452    -4364    -4314    -4239 
   -4195    -4216    -4248    -4286    -4338    -4382    -4421    -4509 
   -4614    -4649    -4619    -4585    -4583    -4648    -4811    -5049 
   -5275    -5425    -5503    -5506    -5398    -5229    -5082    -4974 
   -4922    -4954    -5036    -5115    -5186    -5206    -5105    -4949 
   -4831    -4752    -4723    -4760    -4826    -4912    -5051    -5204 
   -5290    -5302    -5266    -5166    -5026    -4870    -4665    -4425 
   -4239    -4141    -4102    -4141    -4320    -4575    -4783    -4928 
   -5026    -5094    -5174    -5224    -5193    -5125    -5046    -4947 
   -4864    -4812    -4810    -4912    -5112    -5316    -5466    -5537 
   -5493    -5356    -5121    -4793    -4499    -4351    -4357    -4500 
   -4706    -4872    -4953    -4934    -4833    -4722    -4683    -4711 
   -4729    -4681    -4612    -4575    -4598    -4714    -4862    -4946 
   -5004    -5089    -5135    -5128    -5127    -5120    -5116    -5185 
   -5300    -5309    -5157    -4916    -4680    -4530    -4533    -4677 
   -4851    -4958    -5000    -5005    -4973    -4932    -4899    -4822 
   -4691    -4545    -4392    -4233    -4095    -4005    -3973    -3998 
   -4059    -4160    -4311    -4467    -4581    -4642    -4633    -4590 
   -4600    -4702    -4865    -5030    -5142    -5185    -5170    -5119 
   -5065    -5020    -4996    -5017    -5067    -5105    -5134    -5157 
   -5165    -5190    -5223    -5216    -5193    -5179    -5155    -5121 
   -5066    -4993    -4963    -4999    -5065    -5163    -5248    -5223 
   -5066    -4823    -4563    -4369    -4261    -4198    -4224    -4376 
   -4569    -4737    -4887    -4993    -5051    -5092    -5107    -5069 
   -4988    -4884    -4784    -4718    -4733    -4811    -4864    -4880 
   -4893    -4887    -4841    -4731    -4550    -4379    -4322    -4428 
   -4653    -4878    -5034    -5131    -5208    -5298    -5364    -5308 
   -5125    -4895    -4662    -4500    -4499    -4608    -4707    -4756 
   -4766    -4730    -4673    -4629    -4561    -4456    -4429    -4549 
   -4750    -4966    -5115    -5100    -4926    -4692    -4473    -4303 
   -4186    -4093    -4021    -3983    -3964    -3983    -4095    -4299 
   -4526    -4725    -4858    -4912    -4923    -4963    -5058    -5117 
   -5082    -5004    -4905    -4769    -4671    -4681    -4784    -4945 
   -5119    -5217    -5215    -5177    -5142    -5109    -5085    -5071 
   -5092    -5154    -5209    -5235    -5233    -5225    -5225    -5224 
   -5186    -5082    -4918    -4707    -4476    -4313    -4293    -4375 
   -4469    -4484    -4392    -4286    -4259    -4294    -4336    -4352 
   -4315    -4247    -4225    -4293    -4396    -4498    -4579    -4633 
   -4707    -4853    -5053    -5266    -5455    -5549    -5526    -5478 
   -5490    -5557    -5652    -5768    -5850    -5794    -5571    -5273 
   -4973    -4688    -4419    -4190    -4037    -3970    -3971    -4025 
   -4124    -4255    -4396    -4546    -4695    -4795    -4824    -4807 
   -4752    -4642    -4471    -4284    -4180    -4178    -4225    -4307 
   -4456    -4675    -4926    -5134    -5247    -5273    -5248    -5204 
   -5127    -5017    -4918    -4838    -4757    -4684    -4644    -4645 
   -4648    -4602    -4514    -4417    -4372    -4438    -4614    -4831 
   -5017    -5163    -5323    -5493    -5629    -5734    -5811    -5840 
   -5814    -5719    -5529    -5279    -5050    -4889    -4791    -4711 
   -4614    -4515    -4446    -4361    -4253    -4217    -4274    -4378 
   -4550    -4772    -4931    -4984    -4972    -4903    -4769    -4611 
   -4479    -4376    -4287    -4263    -4365    -4558    -4789    -5042 
   -5265    -5420    -5513    -5563    -5601    -5618    -5587    -5528 
   -5476    -5425    -5348    -5224    -5054    -4866    -4688    -4527 
   -4395    -4320    -4307    -4348    -4425    -4507    -4518    -4396 
   -4207    -4033    -3861    -3697    -3585    -3515    -3484    -3549 
   -3746    -4037    -4332    -4599    -4873    -5132    -5383    -5663 
   -5931    -6143    -6278    -6300    -6237    -6133    -5953    -5710 
   -5476    -5258    -5040    -4868    -4785    -4777    -4801    -4800 
   -4673    -4379    -4020    -3734    -3576    -3569    -3709    -3936 
   -4205    -4499    -4757    -4941    -5084    -5186    -5205    -5123 
   -4931    -4633    -4275    -3952    -3742    -3640    -3631    -3724 
   -3896    -4077    -4249    -4430    -4608    -4761    -4870    -4942 
   -5022    -5105    -5143    -5115    -5020    -4892    -4808    -4789 
   -4787    -4784    -4792    -4819    -4876    -4978    -5112    -5215 
   -5250    -5277    -5310    -5254    -5040    -4735    -4483    -4410 
   -4530    -4750    -4927    -4976    -4914    -4831    -4806    -4819 
   -4828    -4850    -4882    -4857    -4781    -4687    -4522    -4344 
   -4301    -4367    -4450    -4550    -4615    -4626    -4691    -4873 
   -5078    -5186    -5157    -5030    -4869    -4729    -4650    -4654 
   -4725    -4806    -4842    -4811    -4715    -4598    -4530    -4514 
   -4521    -4630    -4846    -5019    -5109    -5157    -5131    -5077 
   -5111    -5212    -5289    -5309    -5238    -5042    -4781    -4545 
   -4378    -4307    -4341    -4432    -4513    -4558    -4587    -4646 
   -4710    -4704    -4657    -4644    -4656    -4666    -4685    -4725 
   -4803    -4955    -5182    -5391    -5462    -5364    -5115    -4753 
   -4413    -4190    -4068    -4043    -4102    -4175    -4218    -4243 
   -4275    -4332    -4410    -4473    -4495    -4486    -4476    -4477 
   -4500    -4554    -4603    -4635    -4734    -4954    -5213    -5409 
   -5508    -5489    -5350    -5159    -5022    -4992    -5030    -5069 
   -5061    -4995    -4922    -4905    -4969    -5076    -5146    -5103 
   -4936    -4714    -4529    -4479    -4618    -4916    -5262    -5533 
   -5687    -5726    -5675    -5556    -5379    -5135    -4835    -4572 
   -4418    -4340    -4302    -4306    -4364    -4523    -4795    -5076 
   -5265    -5350    -5354    -5286    -5163    -4993    -4765    -4499 
   -4318    -4352    -4558    -4785    -4931    -4928    -4758    -4533 
   -4390    -4411    -4604    -4865    -5084    -5260    -5427    -5547 
   -5563    -5451    -5232    -4957    -4718    -4608    -4645    -4791 
   -5005    -5220    -5370    -5449    -5452    -5375    -5247    -5108 
   -4989    -4911    -4864    -4816    -4725    -4576    -4433    -4351 
   -4317    -4317    -4344    -4376    -4417    -4527    -4733    -4928 
   -5011    -4986    -4903    -4807    -4745    -4714    -4692    -4696 
   -4745    -4827    -4932    -5061    -5184    -5255    -5271    -5300 
   -5377    -5449    -5476    -5425    -5260    -5050    -4918    -4872 
   -4860    -4878    -4892    -4814    -4639    -4417    -4193    -4059 
   -4110    -4340    -4673    -4999    -5227    -5335    -5301    -5112 
   -4827    -4525    -4216    -3913    -3690    -3585    -3601    -3769 
   -4071    -4444    -4834    -5150    -5279    -5213    -5009    -4702 
   -4387    -4240    -4264    -4337    -4433    -4529    -4564    -4602 
   -4691    -4770    -4828    -4884    -4922    -4992    -5128    -5239 
   -5273    -5297    -5371    -5509    -5706    -5902    -6026    -6049 
   -5968    -5817    -5614    -5351    -5059    -4799    -4599    -4476 
   -4419    -4410    -4423    -4410    -4368    -4336    -4298    -4256 
   -4280    -4413    -4656    -4984    -5286    -5449    -5460    -5335 
   -5092    -4810    -4588    -4446    -4347    -4299    -4332    -4364 
   -4295    -4168    -4113    -4163    -4251    -4333    -4437    -4598 
   -4799    -4990    -5142    -5240    -5252    -5173    -5082    -5016 
   -4923    -4822    -4791    -4841    -4935    -5036    -5077    -5016 
   -4893    -4777    -4712    -4710    -4699    -4615    -4484    -4318 
   -4117    -3954    -3912    -3994    -4158    -4333    -4448    -4504 
   -4550    -4634    -4796    -5027    -5233    -5294    -5189    -5003 
   -4781    -4585    -4545    -4688    -4953    -5293    -5595    -5760 
   -5840    -5894    -5906    -5861    -5773    -5678    -5606    -5539 
   -5448    -5343    -5213    -5030    -4812    -4615    -4486    -4438 
   -4428    -4368    -4245    -4118    -4077    -4178    -4383    -4615 
   -4868    -5173    -5497    -5757    -5914    -5969    -5907    -5699 
   -5418    -5204    -5076    -4988    -4968    -4990    -4920    -4723 
   -4517    -4410    -4442    -4623    -4918    -5224    -5421    -5479 
   -5437    -5281    -4982    -4617    -4270    -3987    -3820    -3804 
   -3906    -4089    -4301    -4496    -4691    -4880    -5011    -5054 
   -5011    -4908    -4803    -4729    -4656    -4526    -4337    -4174 
   -4128    -4201    -4338    -4517    -4738    -4966    -5158    -5329 
   -5491    -5626    -5713    -5713    -5576    -5332    -5077    -4873 
   -4696    -4476    -4218    -3998    -3869    -3859    -3947    -4029 
   -4040    -3986    -3906    -3881    -3951    -4085    -4264    -4517 
   -4781    -4951    -5011    -4984    -4812    -4468    -4077    -3777 
   -3588    -3477    -3400    -3346    -3375    -3542    -3834    -4190 
   -4511    -4718    -4811    -4834    -4807    -4738    -4657    -4614 
   -4594    -4606    -4715    -4893    -5035    -5097    -5092    -5028 
   -4947    -4892    -4882    -4901    -4928    -4992    -5124    -5296 
   -5443    -5516    -5478    -5331    -5147    -5023    -4972    -4930 
   -4878    -4857    -4912    -5043    -5158    -5163    -5049    -4865 
   -4693    -4627    -4698    -4864    -5094    -5328    -5462    -5474 
   -5386    -5196    -4969    -4803    -4681    -4563    -4492    -4499 
   -4548    -4637    -4764    -4860    -4870    -4803    -4658    -4436 
   -4193    -4010    -3939    -3989    -4158    -4390    -4591    -4719 
   -4774    -4779    -4743    -4642    -4475    -4298    -4176    -4141 
   -4191    -4268    -4320    -4380    -4459    -4494    -4461    -4405 
   -4338    -4270    -4266    -4372    -4548    -4703    -4772    -4734 
   -4637    -4554    -4546    -4657    -4876    -5112    -5260    -5236 
   -5058    -4845    -4706    -4685    -4760    -4862    -4993    -5166 
   -5310    -5401    -5483    -5575    -5661    -5741    -5802    -5840 
   -5879    -5923    -5962    -6016    -6093    -6157    -6173    -6126 
   -6002    -5809    -5580    -5362    -5170    -5016    -4939    -4950 
   -4996    -5023    -4999    -4901    -4750    -4607    -4526    -4558 
   -4689    -4818    -4892    -4924    -4891    -4797    -4720    -4696 
   -4684    -4665    -4680    -4746    -4843    -4943    -4996    -4951 
   -4823    -4656    -4467    -4282    -4143    -4090    -4156    -4303 
   -4465    -4606    -4696    -4696    -4602    -4437    -4207    -3917 
   -3630    -3412    -3296    -3304    -3441    -3676    -3981    -4307 
   -4618    -4953    -5335    -5695    -5976    -6154    -6226    -6234 
   -6249    -6284    -6311    -6296    -6212    -6049    -5818    -5536 
   -5221    -4900    -4617    -4430    -4363    -4390    -4480    -4590 
   -4666    -4685    -4665    -4648    -4652    -4652    -4608    -4506 
   -4367    -4244    -4180    -4176    -4186    -4178    -4168    -4198 
   -4291    -4433    -4603    -4776    -4893    -4932    -4943    -4947 
   -4974    -5081    -5250    -5408    -5513    -5525    -5425    -5232 
   -4958    -4660    -4399    -4176    -4017    -3933    -3883    -3866 
   -3889    -3874    -3789    -3693    -3604    -3483    -3360    -3300 
   -3326    -3420    -3580    -3811    -4083    -4342    -4538    -4604 
   -4523    -4375    -4234    -4140    -4116    -4137    -4171    -4248 
   -4406    -4638    -4900    -5146    -5316    -5339    -5219    -5062 
   -4941    -4907    -5036    -5310    -5616    -5871    -6042    -6149 
   -6241    -6312    -6286    -6129    -5883    -5618    -5401    -5270 
   -5209    -5192    -5190    -5170    -5154    -5169    -5174    -5108 
   -4972    -4843    -4784    -4779    -4801    -4865    -4963    -5090 
   -5282    -5552    -5849    -6111    -6311    -6443    -6481    -6412 
   -6292    -6207    -6216    -6326    -6494    -6705    -6944    -7165 
   -7356    -7508    -7568    -7499    -7333    -7106    -6849    -6616 
   -6447    -6316    -6180    -6048    -5926    -5790    -5609    -5377 
   -5108    -4823    -4536    -4240    -3950    -3704    -3515    -3383 
   -3339    -3415    -3574    -3742    -3874    -3969    -4006    -3964 
   -3869    -3769    -3703    -3713    -3821    -3975    -4135    -4307 
   -4491    -4649    -4788    -4935    -5078    -5209    -5354    -5518 
   -5675    -5794    -5863    -5877    -5853    -5811    -5786    -5761 
   -5687    -5543    -5360    -5175    -4984    -4770    -4536    -4307 
   -4151    -4108    -4145    -4247    -4436    -4677    -4901    -5109 
   -5293    -5414    -5464    -5440    -5350    -5232    -5100    -4950 
   -4824    -4723    -4607    -4529    -4558    -4666    -4792    -4888 
   -4907    -4846    -4761    -4735    -4823    -4984    -5135    -5243 
   -5277    -5189    -5035    -4911    -4814    -4712    -4614    -4518 
   -4415    -4326    -4267    -4248    -4261    -4272    -4261    -4248 
   -4236    -4224    -4198    -4145    -4077    -4013    -3962    -3925 
   -3901    -3862    -3784    -3678    -3532    -3329    -3134    -3026 
   -2988    -2987    -3009    -3033    -3056    -3082    -3100    -3100 
   -3061    -2978    -2893    -2875    -2941    -3064    -3223    -3403 
   -3599    -3828    -4077    -4328    -4590    -4837    -5057    -5259 
   -5424    -5544    -5657    -5787    -5922    -6023    -6062    -6056 
   -6016    -5933    -5796    -5645    -5520    -5436    -5412    -5422 
   -5378    -5228    -5001    -4762    -4568    -4436    -4340    -4261 
   -4210    -4151    -4075    -4033    -4028    -4017    -4033    -4106 
   -4206    -4315    -4440    -4545    -4606    -4665    -4776    -4949 
   -5185    -5448    -5678    -5880    -6038    -6097    -6088    -6060 
   -5985    -5836    -5638    -5454    -5324    -5262    -5250    -5267 
   -5305    -5332    -5302    -5215    -5130    -5086    -5089    -5130 
   -5185    -5228    -5250    -5252    -5235    -5188    -5098    -4972 
   -4810    -4627    -4479    -4413    -4421    -4472    -4511    -4504 
   -4479    -4452    -4440    -4499    -4638    -4818    -5008    -5182 
   -5324    -5408    -5386    -5258    -5073    -4869    -4695    -4599 
   -4594    -4661    -4747    -4793    -4781    -4735    -4691    -4644 
   -4590    -4544    -4496    -4428    -4353    -4297    -4280    -4344 
   -4522    -4791    -5059    -5255    -5378    -5444    -5474    -5498 
   -5513    -5489    -5429    -5348    -5236    -5105    -4970    -4833 
   -4714    -4619    -4529    -4445    -4375    -4279    -4113    -3910 
   -3723    -3570    -3472    -3429    -3391    -3331    -3299    -3345 
   -3442    -3554    -3692    -3861    -4045    -4241    -4452    -4676 
   -4918    -5169    -5417    -5660    -5910    -6164    -6396    -6567 
   -6647    -6632    -6569    -6513    -6500    -6538    -6621    -6712 
   -6754    -6714    -6598    -6403    -6127    -5817    -5535    -5328 
   -5221    -5198    -5200    -5194    -5197    -5204    -5190    -5143 
   -5066    -4961    -4830    -4714    -4639    -4579    -4525    -4495 
   -4476    -4428    -4320    -4170    -4040    -3971    -3962    -4028 
   -4198    -4450    -4729    -4976    -5152    -5256    -5312    -5321 
   -5290    -5260    -5254    -5262    -5279    -5287    -5266    -5217 
   -5159    -5108    -5092    -5115    -5143    -5157    -5151    -5125 
   -5089    -5065    -5059    -5061    -5059    -5054    -5020    -4968 
   -4923    -4877    -4824    -4784    -4768    -4753    -4700    -4612 
   -4526    -4429    -4314    -4216    -4147    -4112    -4118    -4162 
   -4222    -4286    -4383    -4523    -4679    -4846    -5022    -5157 
   -5238    -5270    -5244    -5179    -5109    -5053    -5027    -5049 
   -5096    -5134    -5138    -5100    -5047    -5020    -5023    -5039 
   -5061    -5054    -5001    -4949    -4920    -4881    -4828    -4792 
   -4769    -4730    -4679    -4633    -4579    -4515    -4464    -4417 
   -4371    -4353    -4378    -4449    -4545    -4617    -4660    -4691 
   -4712    -4715    -4668    -4538    -4336    -4112    -3897    -3682 
   -3456    -3252    -3111    -3051    -3071    -3168    -3323    -3505 
   -3694    -3894    -4090    -4271    -4444    -4594    -4710    -4819 
   -4938    -5069    -5223    -5400    -5567    -5697    -5787    -5849 
   -5875    -5850    -5794    -5734    -5671    -5594    -5518    -5439 
   -5341    -5239    -5128    -4970    -4765    -4563    -4396    -4288 
   -4236    -4199    -4137    -4066    -4044    -4094    -4202    -4349 
   -4496    -4592    -4637    -4657    -4661    -4644    -4594    -4510 
   -4415    -4333    -4264    -4236    -4295    -4459    -4695    -4966 
   -5240    -5470    -5616    -5682    -5715    -5763    -5857    -5984 
   -6095    -6165    -6185    -6157    -6119    -6106    -6108    -6089 
   -6039    -5967    -5868    -5752    -5659    -5579    -5479    -5364 
   -5229    -5071    -4909    -4742    -4568    -4415    -4291    -4186 
   -4126    -4137    -4207    -4328    -4483    -4633    -4729    -4773 
   -4784    -4766    -4729    -4691    -4658    -4625    -4580    -4529 
   -4495    -4483    -4479    -4480    -4480    -4465    -4422    -4326 
   -4175    -3987    -3793    -3635    -3541    -3503    -3519    -3574 
   -3632    -3650    -3618    -3543    -3457    -3416    -3457    -3554 
   -3663    -3763    -3858    -3955    -4043    -4117    -4209    -4340 
   -4492    -4635    -4768    -4895    -5015    -5142    -5292    -5447 
   -5591    -5740    -5886    -6027    -6184    -6362    -6521    -6617 
   -6631    -6567    -6467    -6373    -6285    -6191    -6095    -5988 
   -5876    -5778    -5698    -5626    -5566    -5518    -5447    -5327 
   -5197    -5098    -5050    -5063    -5117    -5173    -5221    -5262 
   -5294    -5344    -5412    -5463    -5487    -5483    -5448    -5383 
