Origin Time       2025/01/13 21:19:00
Lat.              31.8
Long.             131.6
Depth. (km)       30
Mag.              6.9
Station Code      KOCH04
Station Lat.      32.8414
Station Long.     132.7066
Station Height(m) 55
Record Time       2025/01/13 21:20:00
Sampling Freq(Hz) 100Hz
Duration Time(s)  149
Dir.              6
Scale Factor      7845(gal)/8223790
Max. Acc. (gal)   2.636
Last Correction   2025/01/13 21:20:00
Memo.             
[...]
     548      859      891      704      349       72      140      325 
     410      457      460      337      101      -32      122      423 
     656      738      700      700      743      688      607      614 
     638      592      496      492      588      621      544      398 
     298      324      251       74       28       49      121      319 
     535      666      635      568      658      720      708      768 
     706      538      549      641      699      681      503      349 
     318      355      579      850      916      962     1117     1217 
    1188     1038      911      953      932      703      492      247 
    -101     -210     -114     -109      -16      274      504      537 
     387      166       17      -75      -40      182      333      291 
     271      518      843      846      785      920      908      719 
     531      280      145      369      723      962     1070      984 
     803      707      650      635      764      955      985      751 
     468      383      436      552      747      892      882      787 
     631      442      315      209       37      -89      -68       10 
      58      114      157       75      -41       22      143       55 
     -66      -98     -228     -234      132      549      819     1111 
    1372     1297      918      648      487      287      313      541 
     706      862      950      876      756      625      514      415 
     299      345      542      598      575      704      855      922 
     985     1043     1127     1189     1074      895      799      680 
     507      468      529      472      340      286      297      274 
     141        0     -116     -256     -164      218      518      652 
     788      972     1109     1186     1285     1159      664      302 
     249      145       68      160      202      247      426      553 
     522      434      348      252      280      557      827      795 
     642      653      729      760      913     1058      926      842 
     915      750      467      345      187     -112     -280     -149 
      78      184      157       82       31      -62     -272     -518 
    -560     -306        8      337      719      931     1108     1364 
    1331     1047      770      508      391      467      653      854 
     934      923      828      689      622      379      -51     -238 
    -168       31      422      783      945     1197     1486     1372 
    1128     1146     1077      807      576      376      228      190 
     311      594      845     1032     1200     1212     1120     1011 
     780      442      141      139      517      787      665      488 
     348       74     -220     -375     -372     -184       21      117 
     297      492      484      409      341      207       95      114 
     197      232      315      522      708      773      750      718 
     612      359      126       39       71      213      419      556 
     514      465      557      560      437      394      375      267 
     109       79      328      627      818     1050     1224     1213 
    1127      922      652      571      576      460      314      240 
     202      139       47       -1      -68     -184     -178     -109 
    -195     -309     -225      -68       25      182      274      153 
     225      544      591      507      649      703      650      785 
     857      734      774     1036     1094      869      823      861 
     616      530      805      967      942      862      831      953 
    1027      958      924      845      696      741      765      549 
     496      589      646      984     1447     1728     1926     1849 
    1420      974      616      295       41      -63       72      383 
     688      810      714      645      660      577      411      225 
     163      382      600      602      685      905      976      870 
     619      267       85      102      124      135      126       72 
      13     -140     -387     -430     -151      157      268      205 
      36     -103      -91      -45      -72       25      268      365 
     351      337      238      268      537      614      376      283 
     457      560      459      346      449      724      845      723 
     641      649      583      584      750      746      429      137 
     -16     -210     -315     -176       40      236      495      758 
     920     1044     1102     1034      912      756      580      334 
      43      -22       64      101      260      508      649      815 
     985      959      930      997      978     1009     1101      939 
     658      584      641      610      399      211      232      237 
     101       10       18       48       72      106      201      441 
     754      922      985     1108     1150     1077     1094     1204 
    1227     1085      918      831      689      515      406      287 
     364      747     1007      981      916      835      653      421 
     263      184       14     -310     -544     -429     -160     -130 
    -136      155      427      468      457      310      -44     -332 
    -345     -114      332      827     1062     1015      908      784 
     506      128      -32       99      189      129      108      197 
     378      556      606      602      692      764      738      934 
    1409     1817     2030     2003     1729     1451     1223      978 
     812      575      183      -52     -128     -325     -579     -641 
    -534     -475     -479     -346       13      480      872     1115 
    1156      955      629      260     -103     -278     -292     -297 
    -140      149      255      291      483      668      747      761 
     681      550      367      234      313      355      202      114 
      20     -249     -319     -129      -47      117      463      675 
     812      965     1089     1255     1382     1368     1196      842 
     457      113     -228     -388     -341     -256      -71      140 
     210      249      211      -17     -206     -220     -257     -303 
    -120      136      279      442      529      507      554      531 
     452      513      454      152       17      182      278      144 
       8      -72     -184     -122      236      626      884     1021 
     978      835      773      800      799      685      556      457 
     302      280      484      615      657      718      685      711 
     876      832      565      483      577      465      170       87 
     387      788      992     1121     1224     1031      672      446 
     259      116      160      278      388      450      359      252 
     336      523      683      773      734      598      492      467 
     399      334      531      753      627      413      319      241 
     214      206      130      110      245      438      549      594 
     583      457      314      174      -32     -120      -14      175 
     452      616      498      427      567      606      446      287 
     225      322      490      523      546      603      456      201 
      17     -190     -380     -409     -324     -166       20      153 
     297      371      317      413      646      737      711      575 
     288      113      128      114      164      445      693      751 
     823      877      769      673      625      475      260       75 
      25       94      143      198      288      330      257       22 
    -149       21      328      575      845     1009      981      913 
     837      656      425      345      353      299      325      473 
     654      783      719      650      660      476      216       75 
     -31       -8      201      351      301      234      244      160 
      41       76      206      383      675      958     1027      984 
    1059     1183     1159     1047      963      903      919     1048 
    1204     1418     1715     1845     1664     1375     1193     1102 
    1020      988      901      646      453      395      479      808 
    1090     1212     1256     1062      859      873      911     1080 
    1404     1529     1429     1318     1201     1070     1088     1254 
    1336     1074      499      124      189      270      191      218 
     333      407      540      666      683      722      870     1098 
    1364     1543     1463     1151      819      545      322      241 
     253      279      407      554      454      225      210      299 
     319      429      585      584      488      508      545      333 
     153      288      368      261      253      333      297      153 
     172      429      661      849      989      923      891      926 
     757      650      650      461      351      423      334       27 
    -275     -382     -363     -199      268      715      950     1151 
    1156     1101     1263     1165      718      454      297       90 
     144      248      -22     -256      -87       33     -132     -291 
    -290     -263     -263     -135       70       82       -2       37 
     140      290      525      673      675      778     1007      950 
     600      415      437      452      440      357      145      -95 
    -271     -419     -540     -606     -685     -665     -481     -441 
    -610     -639     -418      -35      463      810      727      426 
     348      584      768      604      380      446      529      442 
     535      778      828      714      565      425      241      -29 
    -172     -140     -222     -387     -340     -140       89      465 
     822      965     1063     1042      784      541      267     -139 
    -384     -422     -472     -531     -513     -414     -157      264 
     616      854     1089     1198     1273     1547     1773     1642 
    1237      805      587      665      889     1150     1414     1564 
    1582     1513     1397     1382     1368     1154      945      724 
     252     -162     -233     -149      -13      175      307      317 
     260      217      197      214      280      372      510      704 
     822      754      641      610      699      935     1128     1044 
     706      348      209      243      240       37     -288     -383 
    -279     -198      -14      210      394      719      923      666 
     314      302      554      841     1092     1287     1374     1279 
     984      575      238      112       66      -39      -28      163 
     311      357      356      310      432      909     1444     1636 
    1545     1412     1254     1104     1117     1162      963      715 
     737      777      658      787     1174     1291     1201     1267 
    1297     1111      962      973      969      922      924      869 
     648      330       20      -99       20        1     -325     -548 
    -481     -368     -309     -197       48      324      436      337 
     207      255      445      612      480      -14     -245       49 
     325      519      855     1059      967      828      842      931 
    1011     1188     1443     1593     1509     1156      719      349 
      -4     -245     -330     -402     -376     -307     -483     -615 
    -349      -62        0      121      342      585      972     1399 
    1825     2220     2195     1775     1277      646       60     -292 
    -579     -774     -765     -552     -221       85      477     1078 
    1599     1744     1718     1845     1989     1872     1399      600 
    -234     -699     -769     -629     -333      -85      -85     -132 
     -85      -75      -76       52      125     -203     -818    -1321 
   -1647    -1861    -1904    -1809    -1668    -1487    -1298    -1173 
   -1034     -785     -510     -268        5      326      587      507 
      56     -198       68      494      820     1084     1189     1090 
     950      737      352       94      222      545      758      811 
     915     1193     1548     1898     2160     2230     2101     1825 
    1395      877      535      504      514      321       29     -233 
    -445     -604     -814    -1046    -1082     -884     -584     -337 
    -171       48      306      508      575      338      -70     -386 
    -638     -675     -294      187      592     1048     1304     1085 
     600      218      275      881     1593     1877     1853     1950 
    2278     2704     3030     3053     2826     2662     2602     2436 
    2211     2089     1937     1593     1192      936      785      712 
     791      936     1116     1332     1494     1644     1837     2007 
    2080     2092     2154     2243     2177     1804     1296      958 
     770      616      454      218      -29     -197     -248     -252 
    -253      -76      248      476      661      970     1401     1769 
    1903     1871     1818     1798     1657     1208      649      314 
     112     -234     -688    -1082    -1468    -1813    -1952    -2038 
   -2218    -2250    -2131    -2158    -2232    -2208    -2261    -2195 
   -1745    -1313    -1166     -924     -314      531     1323     1879 
    2246     2392     2332     2288     2120     1641     1225     1026 
     714      297       18     -224     -440     -315       40      334 
     664     1016     1354     1853     2344     2643     2862     2871 
    2654     2469     2231     1810     1362      869      228     -395 
    -730     -733     -600     -390       -8      349      494      588 
     648      606      637      778      882      909      959     1179 
    1455     1458     1310     1522     2162     2817     3179     3250 
    3240     3215     3052     2635     1910     1088      375     -349 
   -1051    -1490    -1594    -1470    -1381    -1470    -1560    -1528 
   -1344     -946     -488     -156       89      172       -8     -345 
    -842    -1451    -1790    -1582    -1038     -533      -49      490 
     815      849      835      858      895      993     1140     1119 
     784      471      517      666      614      396      117     -133 
    -315     -490     -538     -332      -40      260      569      614 
     369      143      -29     -206     -332     -490     -684     -868 
   -1139    -1318    -1236    -1166    -1119     -797     -352        4 
     483     1081     1510     1819     2076     2084     1900     1826 
    1861     1737     1440     1119      749      380      195      260 
     472      572      452      256       90       62      240      452 
     558      623      661      637      676      819      816      558 
     440      804     1296     1356     1071      837      692      576 
     561      658      756      912     1366     1958     2242     2182 
    2054     1949     1815     1655     1413     1031      587      151 
    -249     -561     -730     -618     -268      -70     -210     -391 
    -265      109      560     1092     1518     1543     1237      923 
     801      870     1175     1699     2020     1856     1459     1100 
     858      703      581      538      564      675      865      797 
     278     -403    -1020    -1518    -1783    -1884    -1977    -2027 
   -2029    -1944    -1601    -1023     -378       98      210      118 
      89      171      205       75       43      160      132      121 
     365      577      507      264       20     -276     -653     -801 
    -633     -410     -141      236      527      660      781      938 
    1151     1540     1962     2224     2346     2201     1752     1246 
     757      197     -299     -400     -124       94      199      477 
     877     1235     1584     1767     1602     1417     1566     1784 
    1688     1452     1401     1398     1250     1048      837      576 
     400      556      993     1305     1435     1755     2265     2593 
    2651     2548     2268     1765     1048      325     -160     -633 
   -1300    -1858    -2150    -2181    -1892    -1549    -1367    -1057 
    -557     -261     -298     -471     -564     -405      -98       33 
     -28      -47       33      143      241      305      361      403 
     499      765     1015     1105     1264     1518     1529     1190 
     783      500      340      387      630      905     1139     1197 
    1078     1080     1213     1250     1232     1236     1247     1312 
    1464     1641     1566     1134      765      695      664      608 
     646      548      145     -216     -309     -232      108      707 
    1258     1641     1826     1784     1698     1588     1329     1134 
    1269     1512     1603     1524     1174      683      319       32 
     -75      133      310      287      248      207      193      305 
     421      346      264      384      475      519      845     1161 
     946      415      -29     -328     -488     -610     -769     -909 
   -1039    -1171    -1215    -1112    -1004     -985     -881     -676 
    -495     -175      325      712      900     1019     1139     1273 
    1476     1768     1968     1968     1918     1871     1733     1475 
    1100      700      387      160      -25     -325     -758     -920 
    -666     -405     -255       32      423      749      953      980 
     932      962      993      891      599      202      -76     -153 
    -110      -27        8      -40      -35       94      267      452 
     606      783     1142     1560     1792     1903     1985     1958 
    1863     1827     1779     1597     1317     1004      739      515 
     280      109      -32     -143      -41      140      221      305 
     346      319      368      417      379      364      368      325 
     268      217      183      167      170      288      522      683 
     810     1046     1212     1240     1374     1595     1715     1772 
    1906     2122     2201     2058     1929     1921     1957     2007 
    2020     1939     1823     1768     1695     1433     1055      769 
     592      368        1     -379     -594     -665     -689     -675 
    -579     -511     -592     -657     -634     -638     -645     -677 
    -777     -869     -972    -1161    -1363    -1453    -1406    -1278 
   -1136    -1070    -1073    -1080    -1119    -1119     -946     -710 
    -580     -500     -338     -170     -156     -256     -353     -333 
    -126       72      124      175      302      432      588      808 
    1013     1235     1537     1713     1713     1809     1969     2022 
    2023     1949     1767     1680     1776     1868     1865     1826 
    1696     1472     1269     1123     1020      882      657      444 
     360      319      125      -39      144      491      704      791 
     784      689      585      473      230     -114     -375     -561 
    -795    -1077    -1348    -1485    -1425    -1283    -1159    -1093 
   -1017     -823     -585     -442     -359     -174       78      257 
     490      882     1286     1603     1844     2023     2137     2115 
    1942     1679     1378     1097      864      723      765      934 
    1059     1104     1089      990      864      803      741      564 
     355      272      325      382      379      444      630      757 
     700      518      319      213      278      523      832     1123 
    1489     1912     2178     2270     2349     2444     2477     2355 
    2072     1723     1394     1123      881      634      403      237 
     229      384      514      557      608      634      634      670 
