Origin Time       2025/01/13 21:19:00
Lat.              31.8
Long.             131.6
Depth. (km)       30
Mag.              6.9
Station Code      KOCH04
Station Lat.      32.8414
Station Long.     132.7066
Station Height(m) 55
Record Time       2025/01/13 21:20:00
Sampling Freq(Hz) 100Hz
Duration Time(s)  149
Dir.              4
Scale Factor      7845(gal)/8223790
Max. Acc. (gal)   4.904
Last Correction   2025/01/13 21:20:00
Memo.             
[...]
    2552     2767     3092     3280     3149     2889     2614     2465 
    2610     2770     2799     3009     3273     3233     2945     2565 
    2207     2096     2301     2617     2937     3225     3279     3121 
    2913     2644     2411     2296     2374     2760     3105     3088 
    2967     2959     3060     3248     3493     3634     3377     2987 
    2930     2926     2751     2640     2490     2401     2716     3055 
    3052     2906     2627     2242     2070     2236     2635     2988 
    3017     2936     3056     3186     3175     3084     2799     2683 
    3107     3321     2967     2712     2540     2236     2230     2489 
    2536     2492     2586     2555     2409     2413     2381     2223 
    2214     2439     2739     3005     3242     3326     3294     3422 
    3443     3137     2864     2617     2455     2697     2936     2884 
    2836     2866     2953     2982     2853     2621     2215     1939 
    2060     2290     2681     3146     3241     3349     3780     3843 
    3393     2986     2629     2439     2771     3040     2767     2524 
    2617     2913     3323     3586     3682     3738     3678     3541 
    3241     2798     2478     2220     2126     2377     2612     2732 
    2816     2594     2199     1931     1746     1787     2199     2731 
    3121     3226     3037     2833     2805     2821     2868     3014 
    3130     3115     3045     3028     3032     2967     2894     2891 
    2917     2862     2628     2351     2204     2151     2286     2664 
    2932     3005     3175     3234     2961     2716     2551     2269 
    2060     2076     2308     2659     2982     3375     3677     3595 
    3424     3215     2701     2354     2439     2438     2301     2320 
    2392     2505     2735     2893     2894     2883     2992     3069 
    2821     2488     2500     2704     2799     2790     2635     2324 
    2235     2493     2565     2386     2516     2805     2893     3053 
    3163     2884     2683     2875     3049     2956     2782     2551 
    2150     2088     2602     2875     2880     3172     3277     3082 
    3034     2907     2721     2736     2687     2683     2932     2971 
    2814     2859     2911     3057     3549     3971     4180     4337 
    4140     3535     2883     2354     1998     1885     2066     2511 
    2979     3198     3055     2701     2496     2529     2628     2712 
    2743     2871     3172     3312     3300     3373     3304     3164 
    3146     2893     2550     2574     2668     2700     2762     2570 
    2288     2185     2015     1888     2056     2320     2617     2964 
    3073     2883     2718     2673     2613     2643     2814     2899 
    2895     2847     2559     2243     2286     2425     2371     2327 
    2440     2627     2729     2651     2527     2550     2789     3072 
    3134     3092     3202     3454     3655     3497     2979     2547 
    2411     2331     2188     2131     2135     2153     2404     2781 
    2835     2706     2744     2836     2917     2940     2806     2698 
    2678     2795     3078     3157     3133     3380     3512     3343 
    3122     2660     2196     2269     2434     2390     2556     2768 
    2799     2941     3052     2901     2732     2714     2837     2965 
    2928     2749     2500     2336     2481     2774     2890     2882 
    3001     3184     3265     3308     3260     3024     2845     2860 
    2872     2852     2933     2975     2810     2695     2809     2880 
    2872     3129     3555     3665     3437     3148     2862     2695 
    2659     2484     2281     2385     2574     2515     2392     2382 
    2377     2446     2651     2906     3180     3222     2880     2475 
    2181     1931     1919     2405     3183     3766     3974     3875 
    3469     2875     2370     2165     2308     2668     2945     2879 
    2624     2548     2663     2808     2965     3113     3258     3445 
    3527     3461     3492     3635     3564     3245     2961     2812 
    2758     2670     2424     2319     2535     2587     2347     2169 
    1998     1853     1949     2027     1946     2025     2303     2571 
    2802     2906     2716     2303     1914     1819     2074     2393 
    2621     2841     2984     3063     3168     3160     3110     3230 
    3252     3051     2933     2910     2948     3172     3288     3180 
    3163     3009     2610     2405     2249     2116     2365     2558 
    2533     2701     2822     2902     3288     3626     3607     3348 
    2995     2758     2602     2374     2214     2223     2448     2801 
    2934     2905     2860     2524     2087     2027     2189     2386 
    2767     3175     3352     3450     3485     3271     3059     2983 
    2878     2961     3217     3275     3294     3339     3145     2901 
    2886     2890     2731     2668     2870     3059     3149     3213 
    3028     2677     2565     2702     2883     2979     3030     3257 
    3557     3655     3543     3199     2929     3132     3354     3296 
    3267     3129     2879     2874     2955     2917     2872     2841 
    2871     3084     3445     3777     3871     3611     3152     2767 
    2457     2176     2250     2794     3353     3631     3634     3356 
    3033     2948     3055     3284     3480     3353     3034     2836 
    2725     2646     2751     2987     3106     3244     3408     3256 
    3065     3096     2847     2365     2199     2299     2492     2837 
    3204     3337     3280     3214     2994     2647     2616     2856 
    3126     3447     3469     3098     2906     2984     3032     3038 
    2849     2370     2003     1875     1822     1939     2193     2486 
    2887     3082     2756     2305     2160     2299     2596     2732 
    2555     2336     2158     2047     2081     2083     2119     2303 
    2312     2178     2245     2343     2367     2652     3073     3362 
    3774     4068     3759     3323     3218     3268     3438     3585 
    3445     3113     2701     2270     2012     1911     1844     1841 
    1846     1907     2196     2600     2988     3300     3422     3445 
    3454     3381     3184     2984     2951     2971     3005     3156 
    3186     3007     2781     2493     2327     2312     2149     1853 
    1474     1077      955     1012     1015     1237     1763     2150 
    2308     2461     2492     2415     2409     2231     1898     1799 
    1750     1428     1057      957     1186     1548     1757     1730 
    1545     1402     1651     2227     2641     2733     2596     2313 
    2089     1946     1749     1541     1487     1688     2064     2458 
    2643     2504     2386     2451     2467     2443     2425     2502 
    2867     3271     3516     3757     3851     3689     3520     3379 
    3262     3375     3559     3551     3491     3418     3190     3041 
    3268     3669     4085     4482     4436     3883     3430     3321 
    3450     3716     3761     3456     3161     2982     2894     3006 
    3056     2894     2916     3237     3516     3470     3134     2728 
    2431     2540     2945     2936     2439     2072     2018     2027 
    2145     2443     2490     2355     2609     2917     2887     2779 
    2640     2651     2988     3466     4105     4704     5032     5266 
    5162     4730     4455     4027     3327     2833     2423     1975 
    1625     1297     1107     1206     1556     2007     2313     2532 
    2749     2822     2871     2878     2760     2856     2876     2342 
    1930     2031     2046     1918     1946     2014     2180     2582 
    2841     2820     2864     2991     3132     3445     3871     4213 
    4230     3856     3427     3098     2843     2843     3084     3292 
    3262     2901     2262     1678     1582     1931     2226     2393 
    2725     3109     3265     3098     2647     2195     2022     2120 
    2384     2612     2478     2012     1845     2424     3319     3921 
    4187     4229     3950     3319     2663     2435     2606     2785 
    2852     2776     2519     2516     2957     3310     3400     3530 
    3592     3277     2687     2149     1825     1779     1881     1856 
    1717     1516     1389     1815     2583     3026     3222     3321 
    3294     3373     3573     3743     3869     3825     3433     2718 
    2050     1852     2030     2081     1761     1370     1345     1783 
    2516     3090     2979     2502     2474     2909     3246     3296 
    3169     2960     2893     3250     3960     4554     4731     4511 
    3890     3134     2598     1999     1291     1015     1024      970 
    1121     1424     1516     1746     2538     3492     4207     4599 
    4341     3551     2918     2569     2435     2776     3404     3937 
    4293     4329     4183     4117     3927     3438     2814     2305 
    2023     1840     1841     2084     2174     2153     2459     2987 
    3468     3726     3568     3227     2963     2508     1881     1607 
    1908     2601     3299     3553     3325     2955     2597     2235 
    1946     1784     1617     1224      688      313      199      436 
    1125     1935     2332     2215     2016     2089     2362     2744 
    3149     3445     3537     3226     2697     2539     2741     2986 
    3237     3392     3387     3200     2755     2385     2486     2790 
    2937     2995     2913     2664     2614     2710     2587     2575 
    3091     3843     4272     4025     3249     2527     2346     2772 
    3245     3059     2346     1802     1657     1686     1912     2177 
    1885     1266      924      658      486      749     1131     1262 
    1256     1360     1645     2011     2592     3592     4725     5460 
    5466     4762     3847     3244     3213     3751     4290     4413 
    4353     4244     4179     4213     3946     3446     3349     3465 
    3137     2583     2232     2168     2650     3373     3720     3798 
    3599     3075     2571     2047     1613     1529     1495     1437 
    1379      947      288     -140     -249      130      977     1819 
    2450     2863     2933     2690     2322     1942     1692     1709 
    1837     1836     1709     1707     2192     3080     3894     4550 
    5030     5105     4976     4866     4606     4278     4021     3581 
    2972     2619     2679     2983     3137     2745     2088     1845 
    1952     2061     2343     2690     2745     2606     2146     1233 
     726     1335     2582     3815     4691     5004     5007     5181 
    5479     5397     4860     4268     3874     3847     3971     3612 
    2845     2158     1563      985      201     -757    -1046     -417 
     457     1364     2201     2529     2463     2300     1849     1237 
     945      993     1297     1961     2830     3694     4604     5358 
    5458     4914     4122     3321     2928     3275     3796     3881 
    3786     3804     3731     3441     3021     2457     1887     1667 
    1660     1715     2173     2531     2026     1347     1185     1192 
    1151     1094     1128     1622     2635     3797     4753     5374 
    5813     6030     5864     5571     5242     4716     4324     4325 
    4482     4637     4652     4379     4083     4029     4270     4707 
    4688     3908     3207     3117     3310     3433     3311     3010 
    2772     2906     3500     4056     4067     3531     2821     2461 
    2554     2758     2690     2253     1887     1890     1903     1625 
     958       45     -542     -648     -558     -317      -58      170 
     801     2081     3607     4621     4699     4056     3129     2461 
    2265     2080     1722     1528     1489     1394     1212      868 
     434       63     -255     -278       63      318      573     1178 
    1672     1718     1701     1800     2037     2490     2605     2018 
    1544     1594     1660     1792     2215     2871     3991     5242 
    5911     6193     6272     5999     5849     6008     5995     5811 
    5544     4908     4044     3404     3295     3786     4487     4918 
    4950     4634     4117     3708     3622     3566     2944     1694 
     427     -328     -373      160      638      527      112     -118 
    -179     -236     -319     -436     -330      373     1664     3134 
    4282     4853     5020     5146     5356     5458     5395     5286 
    5194     5335     5818     6289     6471     6461     6322     6031 
    5589     4981     4224     3338     2494     1965     1925     2420 
    2947     2791     2128     1452      900      696      876     1077 
    1178     1452     1998     2334     2230     2072     1833     1539 
    1848     2690     3420     3820     3661     3086     2824     2951 
    3092     3145     2974     2720     2731     2760     2555     2562 
    2982     3492     4028     4472     4415     3981     3528     3105 
    2937     2976     2697     2373     2718     3684     4687     5151 
    4918     4259     3447     2775     2479     2608     3042     3445 
    3462     2914     2057     1494     1308     1142     1061     1263 
    1485     1505     1512     1507     1474     1787     2420     2995 
    3542     3940     3829     3412     3241     3476     3843     4093 
    4207     4179     3829     3126     2515     2289     2205     2249 
    2508     2687     2776     3067     3403     3562     3753     4187 
    4726     4954     4357     3092     2349     2857     4044     5123 
    5656     5454     4916     4604     4347     3792     3172     2813 
    2740     2745     2504     1796      575     -823    -1621    -1458 
    -795     -321     -548    -1475    -2319    -2358    -1667     -606 
     371      760      720      869     1433     2263     3113     3879 
    4689     5574     6297     6650     6837     7013     6798     6061 
    5185     4518     4218     4039     3775     3699     3807     3915 
    3948     3539     2647     1879     1478     1372     1570     1838 
    1841     1351      611      384      864     1626     2405     2817 
    2664     2535     2731     2883     3006     3110     2697     1838 
    1140      770      611      519      282      137      634     1537 
    2095     2281     2497     2754     3059     3510     3665     3111 
    2180     1507     1505     2035     2494     2517     2228     2057 
    2376     3030     3570     3650     3331     3129     3246     3383 
    3445     3485     3464     3561     3910     4166     4017     3638 
    3429     3715     4477     5074     4874     4112     3250     2408 
    1863     1838     2119     2308     2039     1417     1044     1175 
    1555     2000     2430     2721     2862     2886     2855     2933 
    3127     3096     2605     2042     1969     2392     2970     3358 
    3343     3172     3275     3715     4252     4453     4191     3964 
    4257     5136     6029     6211     6031     6076     6046     5636 
    4904     3928     2988     2362     2027     1811     1607     1404 
    1173      940      751      527      310      156      -58     -302 
    -533     -745     -685     -259      553     1709     2633     2979 
    2934     2635     2516     2891     3148     2956     2983     3558 
    4303     4785     4681     4202     3877     3747     3686     3638 
    3497     3335     3364     3684     4010     3993     3728     3307 
    2779     2531     2570     2519     2492     2744     3152     3429 
    3202     2508     1975     1817     1760     1800     1911     1888 
    1707     1525     1548     1709     1756     1745     1800     1881 
    1966     2022     2089     2403     3040     3615     3761     3634 
    3658     4198     5031     5405     5269     5054     4746     4536 
    4727     4985     4957     4773     4594     4417     4212     3792 
    3011     2278     2112     2400     2606     2404     1872     1308 
    1035     1215     1615     1838     1879     1894     1867     2046 
    2528     2857     2934     2925     2758     2654     2832     2963 
    2866     2710     2520     2343     2266     2042     1610     1340 
    1282     1354     1553     1576     1495     1733     2072     2293 
    2515     2592     2647     2905     2937     2647     2544     2529 
    2322     2110     1795     1270      885      830      990     1256 
    1665     2227     2745     3133     3487     3699     3611     3420 
    3392     3501     3739     4113     4401     4538     4719     4996 
    5290     5472     5466     5433     5418     5233     4922     4671 
    4530     4457     4367     4186     3844     3412     3218     3179 
    2836     2295     1883     1692     1660     1358      718      303 
     175      118      201      334      550      985     1382     1767 
    2478     3262     3727     3927     3982     4031     4136     3977 
    3442     2971     2739     2467     2083     1699     1298      953 
     962     1367     1736     1837     1854     1863     1941     2290 
    2705     2905     3136     3523     3700     3488     3076     2674 
    2446     2413     2317     1939     1560     1521     1647     1744 
    1796     1745     1744     2054     2605     3057     3268     3343 
    3380     3623     4178     4576     4523     4145     3487     2772 
    2396     2469     2983     3823     4631     5089     5111     4881 
    4654     4449     4189     3996     3987     4071     4128     3978 
    3465     2814     2386     2196     1944     1452      847      297 
     -67     -109      118      418      750     1094     1301     1360 
    1410     1414     1350     1405     1534     1512     1479     1622 
    1875     2196     2361     2153     1818     1552     1304     1119 
    1019      997     1065     1177     1397     1830     2309     2592 
    2771     3114     3642     4195     4645     4950     5152     5294 
    5378     5401     5282     4968     4653     4521     4639     4984 
    5193     5067     4806     4459     4067     3659     3126     2644 
    2377     2131     1802     1521     1493     1800     2380     3037 
    3485     3689     3789     3780     3829     4099     4284     4043 
    3451     2974     2940     3146     3308     3412     3393     3181 
    2887     2594     2339     2254     2365     2548     2685     2718 
    2682     2513     2133     1802     1815     2115     2417     2497 
    2477     2633     2816     2754     2577     2343     1902     1418 
    1090      810      606      553      480      454      765     1333 
    1888     2285     2439     2384     2328     2390     2511     2706 
    3049     3423     3657     3807     4000     4139     4126     4109 
    4106     3991     3925     4081     4201     4062     3811     3608 
    3541     3673     3792     3748     3798     4016     4171     4295 
    4406     4284     4048     3943     3785     3422     3025     2685 
    2451     2467     2635     2631     2436     2320     2344     2465 
    2687     2828     2926     3235     3496     3476     3456     3615 
    3858     3982     3952     4068     4356     4523     4652     4814 
    4711     4328     3917     3576     3354     3279     3187     2893 
    2509     2288     2185     2074     1972     1860     1757     1676 
    1556     1453     1372     1151      832      685      777      940 
    1113     1320     1452     1395     1167      858      652      729 
     969     1053      891      733      795      996     1190     1313 
    1386     1489     1590     1736     2084     2523     2812     2918 
