Origin Time       2025/01/13 21:19:00
Lat.              31.8
Long.             131.6
Depth. (km)       30
Mag.              6.9
Station Code      KOCH03
Station Lat.      33.2683
Station Long.     132.9891
Station Height(m) 270
Record Time       2025/01/13 21:20:10
Sampling Freq(Hz) 100Hz
Duration Time(s)  152
Dir.              6
Scale Factor      7845(gal)/8223790
Max. Acc. (gal)   1.985
Last Correction   2025/01/13 21:20:10
Memo.             
[...]
   28791    28964    29116    29169    29089    29019    28988    28934 
   28958    29079    29134    29091    28996    28806    28568    28410 
   28324    28236    28163    28136    28161    28201    28182    28116 
   28065    28016    27939    27843    27765    27730    27727    27777 
   27882    27988    28078    28132    28147    28178    28210    28220 
   28256    28333    28395    28385    28352    28397    28526    28692 
   28822    28890    28929    28953    28971    28971    28917    28818 
   28675    28498    28370    28339    28347    28348    28355    28397 
   28463    28491    28493    28534    28509    28302    28038    27818 
   27621    27519    27573    27729    27927    28116    28259    28412 
   28574    28686    28763    28800    28803    28821    28804    28736 
   28714    28729    28687    28564    28414    28339    28359    28410 
   28540    28777    28979    29042    28985    28775    28426    28128 
   27974    27859    27776    27820    27908    27916    27904    27930 
   27958    27993    28051    28074    28057    28088    28173    28215 
   28221    28236    28204    28159    28209    28304    28395    28510 
   28583    28595    28641    28737    28834    28919    28964    28968 
   28966    28984    29054    29158    29280    29388    29338    29158 
   29010    28821    28549    28347    28244    28162    28075    28004 
   27958    27928    27889    27847    27884    27951    27885    27768 
   27780    27846    27876    27970    28169    28360    28414    28352 
   28278    28169    28036    27984    27976    27951    27951    27973 
   27993    28016    28038    28061    28092    28177    28286    28348 
   28395    28435    28370    28158    27888    27662    27486    27391 
   27465    27630    27800    28000    28162    28243    28371    28552 
   28629    28629    28679    28706    28630    28564    28568    28566 
   28544    28522    28429    28304    28269    28304    28358    28436 
   28485    28455    28431    28468    28470    28404    28389    28501 
   28629    28653    28605    28474    28259    28031    27791    27607 
   27602    27688    27796    27972    28146    28228    28237    28142 
   27927    27730    27612    27577    27679    27814    27932    28185 
   28487    28709    28938    29170    29304    29354    29365    29349 
   29336    29369    29435    29474    29448    29407    29354    29247 
   29128    28991    28829    28753    28734    28701    28753    28876 
   28921    28906    28907    28887    28834    28830    28868    28877 
   28873    28888    28890    28860    28783    28633    28408    28158 
   27985    27935    27962    28036    28136    28217    28283    28335 
   28313    28212    28080    27962    27940    28026    28120    28208 
   28309    28345    28313    28269    28217    28205    28266    28327 
   28341    28370    28439    28451    28332    28177    28085    28035 
   28039    28162    28340    28459    28490    28417    28271    28161 
   28093    28035    28012    28032    28140    28350    28529    28629 
   28746    28858    28914    28933    28869    28750    28705    28713 
   28749    28849    28930    28929    28899    28850    28737    28624 
   28564    28490    28371    28274    28242    28248    28237    28208 
   28154    28058    28000    27982    27958    28013    28116    28129 
   28108    28179    28328    28467    28571    28647    28641    28534 
   28426    28385    28363    28363    28387    28381    28377    28378 
   28327    28313    28409    28501    28556    28653    28738    28714 
   28660    28678    28780    28945    29145    29336    29446    29432 
   29305    29101    28907    28795    28763    28799    28831    28750 
   28575    28393    28205    28019    27897    27841    27812    27831 
   27915    28017    28092    28174    28274    28304    28283    28323 
   28426    28570    28740    28844    28821    28755    28678    28563 
   28460    28395    28389    28474    28582    28633    28648    28610 
   28467    28262    28043    27793    27565    27454    27422    27392 
   27405    27513    27668    27828    28008    28215    28426    28615 
   28773    28937    29116    29227    29222    29192    29162    29088 
   28977    28791    28570    28474    28464    28435    28460    28529 
   28502    28390    28275    28175    28120    28175    28321    28452 
   28514    28567    28669    28776    28827    28826    28795    28722 
   28599    28466    28352    28260    28179    28146    28201    28285 
   28325    28341    28317    28212    28055    27924    27942    28127 
   28312    28408    28506    28611    28659    28676    28703    28718 
   28698    28638    28509    28306    28147    28092    28058    27986 
   27889    27785    27666    27502    27336    27224    27135    27074 
   27075    27126    27199    27259    27321    27434    27575    27707 
   27804    27849    27926    28100    28266    28363    28447    28509 
   28545    28598    28649    28709    28845    28983    28980    28925 
   28942    28935    28884    28911    28954    28926    28868    28782 
   28626    28458    28345    28293    28308    28405    28570    28715 
   28764    28750    28682    28502    28278    28113    28012    27959 
   27913    27878    27927    28067    28267    28507    28730    28873 
   28964    29002    28919    28763    28655    28583    28506    28444 
   28371    28235    28104    28116    28233    28340    28482    28633 
   28674    28656    28642    28645    28703    28780    28880    29018 
   29095    29099    29034    28836    28586    28374    28210    28166 
   28192    28175    28177    28242    28309    28386    28498    28601 
   28606    28491    28340    28228    28177    28161    28074    27865 
   27648    27517    27442    27426    27507    27666    27830    27959 
   28046    28085    28093    28065    28004    27986    28044    28120 
   28181    28258    28364    28439    28444    28395    28286    28131 
   27986    27843    27693    27610    27600    27631    27727    27831 
   27905    28012    28140    28275    28447    28601    28699    28777 
   28813    28792    28788    28829    28868    28879    28906    28975 
   29060    29127    29135    29065    28976    28891    28791    28679 
   28556    28429    28306    28232    28260    28304    28291    28335 
   28428    28447    28459    28489    28402    28298    28328    28358 
   28371    28474    28556    28561    28587    28601    28499    28347 
   28283    28302    28333    28379    28453    28537    28626    28726 
   28834    28942    28971    28906    28860    28845    28867    28998 
   29150    29223    29315    29442    29434    29259    29008    28709 
   28429    28232    28088    28012    28031    28080    28134    28155 
   28078    28003    28038    28089    28086    28109    28159    28138 
   28044    27953    27892    27859    27868    27928    28024    28159 
   28350    28491    28518    28522    28498    28381    28273    28200 
   28125    28105    28117    28125    28158    28185    28204    28263 
   28320    28309    28256    28208    28142    28013    27865    27804 
   27832    27857    27922    28063    28147    28127    28084    28067 
   28088    28120    28142    28152    28147    28165    28231    28344 
   28536    28773    28972    29115    29182    29166    29128    29133 
   29170    29178    29138    29057    28929    28787    28638    28471 
   28359    28370    28445    28491    28499    28530    28590    28622 
   28610    28584    28548    28460    28313    28194    28144    28088 
   28024    28000    27942    27855    27878    27982    28063    28143 
   28250    28375    28525    28651    28738    28823    28885    28914 
   28934    28944    28950    29010    29108    29160    29128    29093 
   29111    29146    29185    29228    29247    29224    29126    28949 
   28779    28674    28630    28637    28659    28715    28813    28858 
   28840    28804    28690    28480    28297    28177    28081    28027 
   28035    28061    28032    27961    27918    27913    27931    27972 
   28003    28042    28112    28105    28032    28071    28224    28363 
   28459    28528    28584    28595    28525    28459    28447    28443 
   28458    28445    28356    28302    28325    28317    28264    28225 
   28179    28078    27967    27900    27872    27874    27884    27884 
   27934    28021    28074    28089    28094    28070    27962    27783 
   27610    27523    27545    27595    27660    27787    27901    27969 
   28042    28062    28007    28012    28121    28225    28320    28493 
   28663    28729    28756    28756    28694    28645    28621    28574 
   28566    28583    28587    28644    28721    28740    28742    28745 
   28719    28695    28698    28732    28788    28829    28846    28876 
   28876    28752    28526    28291    28080    27934    27916    28031 
   28212    28348    28395    28404    28363    28285    28269    28304 
   28343    28397    28428    28412    28416    28428    28402    28399 
   28486    28630    28795    29000    29214    29326    29261    29057 
   28834    28695    28641    28610    28605    28636    28644    28584 
   28474    28356    28254    28152    28051    27932    27792    27673 
   27565    27441    27372    27402    27457    27537    27669    27810 
   27939    28047    28096    28113    28161    28217    28247    28290 
   28358    28385    28348    28286    28247    28252    28263    28247 
   28252    28318    28401    28425    28409    28397    28317    28139 
   27946    27800    27768    27874    28026    28174    28358    28539 
   28638    28640    28580    28540    28536    28529    28549    28621 
   28638    28552    28467    28414    28316    28221    28229    28291 
   28313    28279    28246    28242    28221    28163    28144    28221 
   28374    28533    28648    28748    28811    28792    28779    28844 
   28869    28799    28759    28742    28657    28575    28568    28607 
   28652    28680    28699    28695    28653    28641    28692    28730 
   28714    28661    28549    28424    28355    28250    28101    28020 
   27938    27808    27753    27772    27807    27886    27967    28005 
   28048    28107    28175    28271    28348    28401    28499    28622 
   28669    28663    28671    28683    28709    28771    28849    28933 
   29000    29073    29216    29370    29444    29479    29493    29411 
   29208    28960    28730    28497    28236    27981    27808    27729 
   27711    27770    27912    28047    28125    28167    28190    28204 
   28244    28327    28412    28476    28524    28541    28532    28502 
   28474    28507    28613    28737    28875    29033    29180    29272 
   29296    29313    29377    29425    29404    29335    29207    29030 
   28864    28730    28620    28543    28483    28391    28270    28171 
   28112    28094    28112    28162    28236    28305    28335    28358 
   28401    28409    28350    28266    28179    28086    28032    28035 
   28070    28129    28217    28316    28367    28308    28224    28247 
   28305    28335    28418    28517    28526    28490    28428    28297 
   28169    28125    28135    28178    28297    28452    28541    28563 
   28583    28594    28611    28699    28833    28935    28999    29049 
   29066    29056    29070    29107    29158    29234    29273    29263 
   29274    29274    29228    29208    29204    29182    29188    29168 
   29070    28975    28877    28707    28486    28246    28015    27850 
   27765    27769    27818    27842    27822    27739    27603    27494 
   27457    27429    27363    27356    27492    27685    27823    27869 
   27819    27749    27729    27714    27714    27776    27865    27963 
   28063    28098    28105    28161    28215    28243    28287    28323 
   28340    28387    28439    28462    28514    28588    28575    28447 
   28291    28147    27988    27842    27772    27784    27819    27869 
   27990    28146    28247    28297    28345    28404    28443    28433 
   28395    28344    28251    28121    28009    27954    27936    27942 
   27951    27919    27872    27866    27828    27687    27519    27387 
   27284    27234    27222    27213    27213    27201    27157    27130 
   27121    27064    26962    26893    26874    26881    26929    27047 
   27249    27527    27807    28061    28367    28701    28983    29258 
   29529    29717    29853    29992    30106    30169    30202    30229 
   30219    30113    29941    29779    29624    29477    29378    29309 
   29250    29231    29227    29222    29242    29249    29204    29131 
   29072    29041    29006    28935    28841    28744    28657    28582 
   28534    28537    28560    28578    28593    28622    28678    28714 
   28714    28698    28637    28548    28467    28336    28158    27997 
   27841    27688    27583    27487    27392    27324    27288    27326 
   27415    27486    27561    27637    27645    27621    27626    27656 
   27704    27781    27864    27916    27938    27961    27954    27881 
   27831    27849    27854    27847    27873    27924    28017    28165 
   28320    28480    28640    28703    28630    28506    28416    28329 
   28239    28217    28243    28223    28200    28219    28186    28144 
   28193    28278    28397    28572    28732    28902    29103    29227 
   29278    29343    29385    29369    29361    29371    29377    29430 
   29528    29635    29774    29938    30071    30142    30165    30161 
   30149    30129    30122    30150    30198    30267    30362    30445 
   30473    30456    30407    30326    30230    30121    29978    29805 
   29625    29419    29185    29012    28906    28803    28742    28741 
   28744    28737    28732    28713    28678    28640    28638    28676 
   28701    28679    28611    28513    28425    28350    28243    28138 
   28085    28030    27918    27788    27680    27587    27487    27390 
   27352    27371    27398    27434    27459    27441    27402    27336 
   27222    27103    27022    26950    26856    26770    26693    26609 
   26547    26512    26478    26482    26546    26600    26628    26677 
   26744    26823    26914    27012    27124    27238    27322    27373 
   27400    27398    27386    27388    27384    27364    27387    27480 
   27602    27730    27853    27938    28017    28151    28314    28480 
   28661    28826    28958    29043    29023    28944    28894    28837 
   28740    28638    28533    28422    28313    28171    28030    27961 
   27934    27901    27888    27888    27893    27962    28059    28112 
   28201    28358    28482    28583    28705    28813    28911    28996 
   29064    29145    29231    29320    29440    29566    29651    29689 
   29689    29655    29592    29540    29531    29536    29528    29489 
   29407    29316    29216    29073    28926    28810    28705    28617 
   28547    28447    28341    28297    28300    28285    28248    28189 
   28082    27966    27882    27816    27758    27700    27653    27656 
   27704    27783    27878    27963    28058    28186    28340    28491 
   28583    28605    28594    28556    28491    28435    28387    28327 
   28240    28163    28094    28011    27951    27927    27908    27923 
   27959    27977    28000    28048    28074    28082    28128    28183 
   28260    28408    28549    28652    28794    28945    29023    29068 
   29134    29184    29187    29169    29145    29147    29219    29301 
   29374    29488    29597    29616    29560    29473    29343    29169 
   28988    28833    28688    28583    28582    28626    28637    28640 
   28668    28706    28733    28723    28682    28656    28665    28665 
   28656    28676    28736    28784    28769    28718    28682    28664 
   28688    28777    28894    28985    29039    29077    29111    29114 
   29115    29137    29133    29126    29180    29259    29319    29326 
   29268    29215    29207    29203    29181    29157    29118    29056 
   28988    28925    28860    28800    28753    28701    28613    28503 
   28366    28177    27976    27793    27600    27403    27259    27159 
   27043    26928    26852    26794    26765    26792    26850    26919 
   27012    27094    27170    27299    27400    27353    27264    27268 
   27298    27298    27317    27334    27330    27319    27272    27174 
   27067    26968    26863    26761    26713    26732    26781    26854 
   26919    26954    26991    27029    27047    27087    27187    27329 
   27500    27681    27845    27977    28085    28185    28300    28428 
   28548    28663    28765    28826    28888    28973    29019    29030 
   29060    29084    29084    29084    29091    29092    29096    29112 
   29126    29126    29126    29154    29220    29311    29401    29463 
   29497    29548    29581    29532    29475    29481    29490    29461 
   29415    29339    29215    29064    28926    28815    28717    28620 
   28530    28445    28354    28279    28229    28189    28185    28206 
   28213    28220    28236    28212    28162    28135    28102    28069 
   28067    28073    28069    28070    28063    28039    28004    27939 
   27845    27745    27672    27638    27623    27635    27662    27681 
   27714    27754    27783    27819    27838    27831    27835    27816 
   27769    27756    27773    27800    27830    27835    27804    27772 
   27757    27718    27641    27588    27561    27525    27504    27529 
   27595    27669    27733    27783    27805    27799    27780    27781 
   27823    27900    27992    28089    28208    28355    28495    28618 
   28718    28779    28811    28834    28868    28954    29070    29182 
   29304    29417    29501    29578    29641    29686    29736    29759 
   29749    29775    29816    29832    29855    29894    29941    30001 
   30071    30127    30122    30068    30010    29932    29824    29705 
   29590    29496    29424    29369    29308    29224    29133    29027 
   28883    28715    28549    28395    28264    28144    28009    27862 
   27741    27665    27622    27602    27591    27567    27514    27449 
   27384    27297    27184    27082    27013    26966    26908    26843 
   26781    26707    26646    26620    26596    26573    26580    26608 
   26650    26735    26894    27112    27325    27511    27665    27783 
   27891    28003    28119    28260    28406    28505    28575    28651 
   28696    28721    28788    28890    28960    29003    29062    29111 
   29112    29114    29153    29212    29282    29349    29390    29423 
   29467    29509    29538    29567    29598    29604    29569    29519 
   29479    29451    29419    29349    29249    29158    29038    28888 
   28784    28709    28628    28582    28576    28584    28590    28595 
   28607    28625    28659    28713    28767    28817    28876    28935 
   28971    28975    28973    28966    28945    28923    28884    28799 
   28698    28605    28510    28433    28370    28277    28170    28094 
   28032    27965    27918    27884    27845    27791    27711    27631 
   27579    27537    27504    27514    27575    27662    27746    27815 
   27877    27943    28021    28075    28054    27996    27951    27903 
   27857    27828    27808    27792    27776    27737    27697    27689 
   27697    27711    27747    27823    27938    28051    28131    28181 
   28219    28266    28298    28325    28394    28478    28524    28557 
   28597    28595    28590    28641    28703    28755    28829    28903 
