Origin Time       2025/01/13 21:19:00
Lat.              31.8
Long.             131.6
Depth. (km)       30
Mag.              6.9
Station Code      KOCH12
Station Lat.      33.5294
Station Long.     133.8192
Station Height(m) -130.3
Record Time       2025/01/13 21:20:28
Sampling Freq(Hz) 100Hz
Duration Time(s)  133
Dir.              1
Scale Factor      3923(gal)/8224838
Max. Acc. (gal)   0.534
Last Correction   2025/01/13 21:20:29
Memo.             
[...]
   38329    38317    38302    38296    38248    38167    38148    38188 
   38214    38225    38227    38200    38186    38205    38186    38155 
   38169    38173    38142    38146    38199    38245    38245    38210 
   38178    38157    38133    38117    38106    38071    38006    37948 
   37925    37920    37909    37920    37962    37982    37959    37936 
   37933    37926    37920    37918    37906    37894    37878    37825 
   37770    37778    37814    37827    37841    37875    37913    37956 
   37978    37941    37902    37924    37964    37989    37986    37925 
   37847    37814    37812    37820    37855    37890    37887    37875 
   37870    37845    37816    37794    37754    37714    37713    37698 
   37633    37594    37613    37646    37698    37774    37821    37848 
   37883    37897    37887    37887    37874    37843    37821    37802 
   37813    37891    37972    38006    38038    38048    38002    37979 
   38005    38010    37976    37933    37909    37945    38024    38090 
   38121    38110    38072    38053    38082    38142    38211    38268 
   38313    38344    38361    38371    38357    38319    38290    38277 
   38260    38268    38317    38333    38286    38233    38191    38161 
   38156    38148    38105    38067    38068    38075    38075    38095 
   38140    38196    38249    38264    38226    38159    38086    38028 
   38006    38020    38043    38067    38078    38048    38013    38013 
   38013    38007    38029    38043    38021    38005    37983    37947 
   37928    37897    37831    37806    37840    37870    37879    37860 
   37818    37804    37837    37886    37920    37933    37939    37945 
   37945    37940    37948    37964    37971    37967    37967    37991 
   38034    38041    38005    37978    37983    37994    38002    38006 
   37994    37990    38006    38018    38021    38014    37995    37987 
   37984    37971    37984    38043    38102    38141    38176    38195 
   38203    38237    38275    38288    38279    38260    38241    38226 
   38205    38171    38145    38134    38132    38136    38140    38145 
   38152    38145    38144    38161    38164    38157    38173    38182 
   38163    38148    38144    38141    38148    38167    38176    38173 
   38173    38176    38171    38164    38175    38183    38169    38159 
   38167    38175    38199    38234    38236    38229    38261    38290 
   38290    38300    38314    38314    38321    38327    38296    38253 
   38238    38246    38261    38286    38296    38296    38327    38372 
   38367    38311    38272    38249    38209    38169    38149    38125 
   38098    38060    37994    37952    37963    37972    37966    37983 
   38010    38014    38017    38045    38068    38061    38044    38033 
   38013    37989    37989    38011    38029    38020    37983    37948 
   37926    37883    37806    37727    37667    37640    37638    37621 
   37593    37582    37573    37565    37592    37643    37693    37755 
   37824    37866    37881    37901    37922    37898    37839    37828 
   37887    37932    37925    37922    37935    37941    37959    37976 
   37976    37983    38003    38022    38045    38076    38092    38091 
   38088    38090    38102    38138    38186    38225    38253    38256 
   38215    38169    38156    38173    38196    38213    38227    38242 
   38245    38237    38222    38191    38160    38160    38187    38217 
   38237    38232    38211    38200    38202    38200    38196    38190 
   38180    38163    38133    38114    38113    38117    38140    38191 
   38230    38230    38222    38236    38254    38273    38281    38273 
   38267    38264    38250    38233    38229    38241    38248    38246 
   38242    38234    38222    38226    38233    38222    38221    38252 
   38287    38300    38302    38292    38290    38308    38317    38317 
   38341    38372    38400    38434    38430    38381    38337    38298 
   38244    38199    38184    38175    38146    38107    38074    38033 
   37976    37943    37947    37952    37939    37925    37925    37928 
   37920    37909    37906    37908    37903    37899    37889    37866 
   37844    37832    37816    37785    37760    37759    37764    37755 
   37739    37724    37712    37704    37720    37768    37817    37836 
   37836    37844    37868    37912    37957    37993    38016    38038 
   38080    38130    38153    38146    38144    38163    38187    38192 
   38180    38180    38203    38213    38187    38160    38148    38119 
   38088    38076    38071    38080    38129    38176    38184    38178 
   38179    38179    38182    38180    38165    38164    38192    38225 
   38245    38263    38272    38272    38275    38288    38304    38310 
   38302    38291    38273    38237    38210    38205    38198    38191 
   38198    38209    38211    38211    38223    38249    38265    38257 
   38236    38217    38211    38221    38238    38253    38249    38226 
   38210    38210    38202    38176    38159    38144    38121    38105 
   38086    38063    38036    37986    37925    37903    37897    37874 
   37872    37893    37883    37859    37849    37847    37851    37852 
   37847    37863    37886    37872    37848    37841    37820    37794 
   37798    37808    37802    37802    37810    37812    37821    37837 
   37844    37856    37876    37893    37921    37960    37982    38001 
   38043    38078    38109    38159    38191    38202    38233    38253 
   38214    38161    38151    38163    38176    38184    38179    38171 
   38172    38182    38199    38221    38232    38238    38252    38281 
   38327    38362    38367    38362    38367    38361    38348    38349 
   38346    38334    38337    38348    38331    38303    38287    38277 
   38269    38275    38295    38307    38319    38350    38383    38383 
   38361    38345    38337    38338    38342    38326    38302    38292 
   38276    38230    38191    38172    38140    38098    38079    38076 
   38083    38106    38122    38109    38095    38098    38101    38113 
   38149    38183    38203    38217    38215    38213    38227    38238 
   38226    38202    38175    38157    38142    38121    38099    38082 
   38064    38056    38068    38084    38103    38130    38153    38165 
   38182    38192    38184    38180    38198    38218    38232    38249 
   38256    38257    38283    38315    38325    38333    38346    38345 
   38350    38373    38372    38356    38365    38373    38352    38342 
   38353    38346    38335    38338    38330    38318    38329    38342 
   38349    38356    38373    38388    38389    38379    38368    38358 
   38346    38335    38325    38307    38279    38248    38223    38200 
   38169    38141    38125    38111    38087    38057    38033    38014 
   37994    37956    37912    37882    37855    37820    37787    37760 
   37743    37727    37702    37677    37666    37681    37701    37702 
   37696    37685    37671    37673    37682    37675    37669    37678 
   37689    37710    37744    37768    37774    37786    37804    37801 
   37781    37770    37768    37763    37752    37732    37716    37714 
   37712    37704    37705    37694    37667    37656    37662    37662 
   37667    37687    37708    37737    37786    37836    37890    37953 
   38010    38057    38111    38151    38153    38134    38122    38128 
   38145    38155    38156    38168    38191    38233    38302    38368 
   38410    38437    38458    38477    38502    38522    38522    38529 
   38577    38632    38662    38685    38709    38734    38772    38809 
   38827    38842    38857    38843    38809    38801    38813    38807 
   38784    38766    38767    38781    38789    38784    38772    38772 
   38792    38815    38828    38843    38846    38820    38785    38761 
   38743    38722    38686    38639    38584    38526    38462    38388 
   38304    38213    38121    38049    37983    37897    37804    37731 
   37677    37650    37646    37638    37619    37613    37621    37627 
   37629    37639    37656    37681    37701    37700    37687    37678 
   37659    37631    37615    37617    37604    37562    37524    37501 
   37490    37489    37478    37449    37413    37370    37330    37324 
   37355    37395    37443    37509    37567    37613    37671    37728 
   37771    37818    37863    37889    37906    37920    37924    37918 
   37908    37899    37903    37912    37918    37929    37947    37974 
   38009    38043    38079    38122    38160    38190    38219    38252 
   38290    38340    38406    38476    38537    38574    38592    38610 
   38632    38637    38622    38604    38583    38542    38476    38394 
   38331    38286    38236    38191    38160    38134    38107    38071 
   38021    37986    37987    37998    37989    37980    37997    38028 
   38060    38099    38136    38171    38211    38259    38308    38357 
   38408    38454    38480    38506    38546    38581    38595    38607 
   38626    38638    38638    38627    38603    38569    38531    38495 
   38465    38448    38421    38368    38308    38250    38200    38172 
   38153    38134    38115    38101    38092    38087    38076    38053 
   38016    37970    37926    37893    37875    37866    37845    37813 
   37787    37766    37741    37717    37682    37635    37608    37613 
   37625    37632    37633    37625    37619    37633    37658    37675 
   37698    37739    37787    37833    37872    37906    37939    37979 
   38024    38053    38079    38129    38184    38218    38252    38296 
   38340    38379    38411    38431    38437    38441    38448    38454 
   38461    38479    38504    38530    38546    38556    38551    38535 
   38524    38523    38518    38506    38500    38510    38515    38503 
   38485    38473    38457    38434    38414    38391    38364    38333 
   38300    38267    38229    38187    38152    38136    38126    38113 
   38111    38124    38122    38113    38125    38145    38152    38153 
   38159    38159    38155    38145    38130    38119    38110    38094 
   38076    38063    38043    38011    37982    37956    37926    37895 
   37881    37867    37845    37836    37843    37855    37872    37894 
   37917    37953    38001    38036    38055    38074    38098    38129 
   38156    38171    38179    38188    38199    38218    38241    38248 
   38250    38277    38313    38326    38334    38344    38337    38321 
   38317    38315    38308    38300    38291    38269    38234    38195 
   38164    38138    38117    38088    38041    37989    37940    37876 
   37805    37748    37700    37647    37596    37550    37511    37473 
   37430    37386    37350    37312    37277    37261    37253    37241 
   37234    37228    37206    37181    37177    37176    37168    37168 
   37166    37160    37174    37196    37210    37233    37265    37292 
   37324    37370    37420    37477    37538    37602    37682    37777 
   37867    37947    38016    38078    38137    38199    38263    38319 
   38369    38410    38437    38469    38511    38535    38549    38574 
   38593    38608    38646    38682    38696    38704    38707    38697 
   38708    38739    38759    38767    38763    38734    38699    38680 
   38662    38637    38614    38592    38564    38533    38504    38473 
   38435    38410    38414    38439    38461    38470    38479    38493 
   38515    38547    38588    38639    38701    38749    38782    38816 
   38846    38861    38871    38877    38877    38870    38857    38838 
   38804    38754    38695    38626    38561    38502    38435    38367 
   38310    38254    38192    38130    38070    38002    37945    37905 
   37864    37820    37778    37735    37693    37667    37656    37644 
   37623    37596    37571    37562    37566    37558    37531    37507 
   37492    37484    37485    37492    37498    37498    37496    37498 
   37515    37536    37558    37588    37623    37651    37678    37709 
   37752    37806    37854    37883    37920    37978    38044    38101 
   38146    38183    38209    38223    38240    38257    38267    38277 
   38290    38284    38271    38249    38217    38183    38152    38121 
   38092    38064    38032    37999    37970    37937    37902    37875 
   37856    37836    37797    37748    37710    37689    37677    37669 
   37660    37656    37642    37597    37544    37515    37497    37474 
   37454    37436    37419    37399    37377    37362    37361    37366 
   37369    37372    37381    37405    37440    37478    37519    37563 
   37609    37673    37759    37855    37957    38059    38148    38233 
   38317    38388    38457    38529    38574    38604    38634    38655 
   38662    38657    38639    38618    38605    38580    38535    38493 
   38456    38407    38367    38346    38329    38306    38291    38286 
   38271    38249    38225    38192    38160    38137    38109    38071 
   38034    38005    37975    37932    37882    37840    37802    37763 
   37729    37706    37683    37669    37665    37656    37656    37674 
   37693    37708    37728    37760    37794    37820    37843    37871 
   37897    37912    37930    37947    37955    37960    37963    37949 
   37935    37933    37935    37929    37925    37929    37930    37922 
   37908    37898    37894    37895    37905    37910    37903    37908 
   37930    37953    37990    38043    38087    38130    38184    38234 
   38277    38334    38408    38480    38547    38619    38691    38762 
   38832    38888    38934    38986    39028    39051    39073    39100 
   39129    39163    39191    39199    39197    39193    39185    39177 
   39168    39152    39129    39104    39074    39040    38998    38946 
   38888    38832    38782    38724    38654    38580    38502    38421 
   38340    38248    38149    38053    37956    37852    37752    37662 
   37567    37474    37395    37339    37304    37282    37262    37235 
   37222    37234    37249    37250    37253    37264    37272    37270 
   37274    37272    37249    37226    37214    37206    37203    37201 
   37195    37188    37185    37177    37165    37172    37195    37223 
   37260    37304    37362    37431    37500    37567    37640    37725 
   37821    37918    38007    38086    38157    38218    38271    38331 
   38394    38448    38502    38564    38624    38674    38720    38759 
   38796    38844    38889    38915    38929    38944    38948    38946 
   38944    38939    38934    38938    38940    38928    38913    38896 
   38859    38811    38759    38707    38655    38603    38547    38495 
   38450    38406    38350    38296    38246    38187    38122    38064 
   38014    37975    37937    37886    37833    37797    37764    37725 
   37685    37658    37638    37615    37589    37570    37555    37538 
   37515    37501    37503    37513    37534    37558    37582    37596 
   37596    37601    37615    37624    37632    37646    37651    37654 
   37667    37685    37708    37744    37777    37793    37805    37817 
   37840    37874    37908    37932    37953    37991    38047    38099 
   38146    38196    38241    38273    38310    38357    38404    38446 
   38483    38512    38535    38553    38570    38584    38593    38600 
   38595    38578    38565    38546    38515    38480    38448    38410 
   38371    38344    38322    38304    38287    38263    38237    38215 
   38188    38157    38132    38110    38092    38080    38065    38051 
   38045    38043    38038    38038    38049    38063    38083    38113 
   38138    38156    38179    38209    38225    38229    38246    38267 
   38276    38286    38299    38307    38322    38337    38338    38337 
   38334    38315    38287    38261    38229    38192    38163    38140 
   38121    38107    38099    38091    38088    38097    38110    38122 
   38133    38151    38171    38182    38180    38178    38172    38167 
   38167    38163    38144    38124    38107    38086    38074    38068 
   38055    38041    38040    38044    38047    38052    38055    38056 
   38074    38095    38101    38102    38110    38115    38124    38138 
   38148    38152    38151    38130    38101    38086    38075    38047 
   38007    37972    37941    37920    37903    37878    37849    37833 
   37820    37810    37812    37818    37841    37868    37883    37894 
   37917    37943    37964    37983    38001    38020    38037    38055 
   38067    38072    38074    38070    38055    38036    38036    38044 
   38043    38037    38033    38020    38002    37986    37970    37956 
   37937    37922    37920    37917    37910    37902    37889    37871 
   37863    37852    37835    37824    37814    37794    37775    37760 
   37747    37737    37731    37717    37712    37720    37720    37713 
   37719    37725    37728    37740    37760    37775    37787    37798 
   37801    37801    37806    37809    37805    37789    37770    37754 
   37740    37733    37729    37727    37731    37736    37740    37750 
   37755    37752    37755    37766    37785    37814    37844    37860 
   37871    37882    37890    37895    37908    37925    37939    37947 
   37956    37967    37967    37962    37959    37962    37959    37952 
   37952    37957    37956    37951    37951    37949    37943    37935 
   37929    37933    37951    37968    37980    37994    38009    38017 
   38022    38029    38043    38061    38080    38098    38117    38141 
   38173    38209    38233    38246    38256    38269    38292    38319 
   38340    38352    38358    38360    38365    38372    38369    38354 
   38333    38313    38299    38300    38310    38318    38327    38335 
   38338    38342    38344    38334    38323    38315    38315    38327 
   38337    38340    38340    38335    38335    38338    38338    38337 
   38329    38327    38341    38346    38338    38329    38327    38327 
   38331    38350    38375    38392    38410    38427    38438    38450 
   38464    38470    38465    38457    38450    38439    38430    38431 
   38429    38416    38400    38376    38346    38307    38265    38233 
   38203    38167    38133    38107    38083    38063    38043    38014 
   37986    37963    37937    37909    37885    37868    37860    37854 
   37843    37825    37800    37777    37768    37770    37768    37759 
   37750    37744    37741    37746    37754    37758    37759    37768 
   37778    37782    37782    37779    37773    37766    37764    37766 
   37760    37746    37723    37702    37681    37658    37643    37638 
   37625    37615    37611    37608    37608    37612    37620    37642 
   37669    37689    37710    37744    37783    37828    37882    37933 
   37979    38024    38068    38115    38169    38214    38252    38295 
   38331    38352    38376    38403    38422    38441    38458    38473 
   38487    38493    38479    38452    38426    38404    38372    38334 
   38308    38286    38261    38234    38202    38168    38141    38115 
   38084    38051    38016    37982    37951    37922    37893    37864 
   37832    37801    37773    37748    37731    37714    37690    37671 
   37663    37660    37655    37644    37633    37633    37639    37648 
   37666    37681    37687    37700    37721    37741    37771    37810 
   37844    37879    37916    37939    37959    37987    38016    38045 
   38076    38098    38114    38134    38144    38140    38145    38157 
   38169    38183    38191    38188    38187    38192    38198    38210 
