Origin Time       2025/01/13 21:19:00
Lat.              31.8
Long.             131.6
Depth. (km)       30
Mag.              6.9
Station Code      KOCH05
Station Lat.      33.6472
Station Long.     133.1444
Station Height(m) 260
Record Time       2025/01/13 21:20:15
Sampling Freq(Hz) 100Hz
Duration Time(s)  137
Dir.              5
Scale Factor      7845(gal)/8223790
Max. Acc. (gal)   2.143
Last Correction   2025/01/13 21:20:15
Memo.             
[...]
    1158     1077     1001     1093     1275     1317     1287     1395 
    1637     1829     1765     1482     1215      950      658      648 
     962     1258     1440     1615     1634     1358     1055      984 
    1020     1055     1138     1247     1350     1458     1449     1173 
     808      631      568      527      677     1093     1525     1676 
    1540     1213      803      585      681      870      997     1084 
    1105      969      826      966     1302     1559     1649     1571 
    1363     1152     1066     1116     1242     1366     1354     1143 
     961     1036     1246     1347     1433     1640     1719     1539 
    1341     1208     1066     1020     1143     1348     1510     1497 
    1314     1070      789      525      460      679      985     1224 
    1498     1769     1825     1733     1620     1356      989      757 
     653      687     1009     1418     1599     1557     1352     1094 
    1009     1063     1115     1242     1449     1556     1474     1291 
    1148     1124     1206     1345     1418     1308     1129     1143 
    1275     1197      934      857     1026     1105      970      903 
    1038     1154     1090      982      946      884      859     1071 
    1328     1325     1231     1278     1320     1196      965      714 
     526      575      900     1237     1405     1493     1561     1522 
    1297     1007      861      853      876      892      916     1054 
    1362     1732     2010     2007     1601      940      395      260 
     531     1028     1551     1846     1665     1065      419       83 
     174      623     1206     1593     1576     1170      614      267 
     286      637     1186     1641     1733     1459     1082      905 
    1023     1304     1435     1174      602       82       83      784 
    1848     2718     2876     2214     1271      579      232      342 
     990     1804     2201     2004     1517     1116     1013     1156 
    1289     1215      923      569      426      691     1194     1483 
    1332      957      688      611      616      696      920     1188 
    1301     1290     1327     1390     1317     1074      756      379 
      76      221      900     1695     2097     1833     1067      271 
    -247     -302      241     1080     1698     1953     1867     1468 
    1044      911      959      927      927     1173     1609     2042 
    2184     1917     1424      842      334      157      379      899 
    1540     2019     2124     1898     1566     1289     1017      669 
     314      147      330      869     1614     2149     1956     1215 
     695      565      379      149      275      719     1183     1561 
    1742     1576     1171      731      415      488      963     1491 
    1872     2047     1906     1459      874      409      228      263 
     422      716     1089     1382     1543     1561     1323      966 
     772      652      448      307      440      865     1406     1823 
    1962     1772     1301      807      600      799     1258     1638 
    1737     1578     1175      638      263      230      411      666 
    1031     1433     1656     1675     1555     1336     1097      885 
     737      703      857     1309     1946     2346     2188     1615 
    1046      734      757     1085     1541     1949     2151     2035 
    1696     1345     1104     1046     1254     1594     1741     1632 
    1476     1429     1510     1621     1641     1512     1223      950 
     927     1069     1071      880      811     1074     1309     1108 
     742      699      907     1020     1061     1228     1351     1152 
     882      935     1190     1318     1297     1310     1387     1273 
     922      783      992     1066      920     1105     1711     2131 
    2018     1611     1178      734      301      112      394      955 
    1345     1528     1717     1709     1300      943      955      919 
     525       79       66      583     1163     1325     1128      888 
     749      757      981     1355     1624     1648     1628     1683 
    1599     1395     1344     1410     1443     1382     1116      769 
     677      908     1263     1491     1421     1233     1227     1283 
    1148      926      828      912     1147     1426     1609     1696 
    1745     1722     1563     1266      985      866      835      855 
    1140     1703     2089     1993     1630     1247      819      380 
     236      679     1557     2274     2343     1788      868        9 
    -163      427     1062     1173     1019     1063     1159      951 
     623      508      527      473      359      334      375      394 
     537      792      854      796     1000     1350     1352      989 
     691      704      951     1297     1665     1921     1742     1027 
     344      378     1090     1821     2081     1923     1433      653 
      64      170      818     1459     1686     1502     1277     1321 
    1618     1939     2027     1705      982      191      -81      437 
    1339     2052     2324     2133     1572      826      240      297 
     966     1483     1352      877      537      502      662      838 
     955     1005     1031     1075     1221     1540     1742     1479 
     966      577      329      122       -2      -10      233      913 
    1748     2184     2015     1420      757      317      160      353 
     978     1664     1903     1775     1590     1422     1293     1219 
    1202     1171      869      379      334      969     1776     2195 
    1966     1294      691      479      727     1285     1764     1857 
    1599     1239     1047     1166     1464     1750     1898     1614 
     984      669      923     1445     1941     2083     1656      919 
     426      557     1204     1779     1687      972      253      -31 
     103      577     1341     2060     2222     1691      853      306 
     322      594      792      927      980      818      600      664 
     978     1274     1433     1414     1204      807      391      484 
    1206     1786     1733     1466     1243      793      245      159 
     614     1117     1412     1653     1794     1610     1183      853 
     796      913     1026      997      851      878     1217     1597 
    1757     1578     1061      527      340      473      751     1156 
    1633     1894     1810     1603     1387     1144     1017      981 
     832      749     1063     1588     1849     1671     1205      696 
     346      217      248      476     1031     1821     2442     2551 
    2219     1707     1138      629      365      436      799     1301 
    1705     1868     1819     1586     1156      719      580      745 
     955     1147     1444     1744     1849     1733     1431     1104 
    1000     1109     1236     1252     1161     1058     1015     1065 
    1267     1490     1387      994      672      453      328      521 
     949     1250     1321     1333     1448     1583     1553     1372 
    1078      673      307       83       10      318     1057     1723 
    1984     2035     1902     1347      598      291      623     1309 
    2056     2486     2307     1771     1385     1125      537     -267 
    -553        8     1027     1869     2168     2088     1919     1594 
    1026      583      639     1047     1439     1552     1363     1227 
    1366     1528     1618     1730     1561      851      132      117 
     683     1291     1733     1865     1634     1289      888      344 
      55      469     1251     1791     1980     1956     1819     1668 
    1468     1190     1005      974      868      542      206      172 
     514     1019     1426     1586     1359      904      723      893 
    1067     1167     1178      953      621      490      595      799 
    1031     1119      965      901     1147     1398     1447     1345 
     984      367      -95     -105      202      568      935     1323 
    1455     1142      831      988     1256     1054      483      -13 
    -236      -27      664     1466     1900     1786     1278      731 
     306       59      206      658     1024     1169     1196     1170 
     912      274     -260     -211       32      125      467     1283 
    2065     2292     2095     1860     1559      972      306      157 
     726     1470     1892     2131     2420     2496     2096     1667 
    1571     1324      676      315      743     1460     1725     1584 
    1555     1605     1337      799      399      449      935     1475 
    1587     1165      595      214        9       43      337      506 
     437      587     1117     1624     1714     1445     1125      911 
     777      625      483      666     1379     2214     2443     1976 
    1425      954      280     -168      149      783     1178     1470 
    1776     1998     2110     1991     1574     1154      967      954 
    1143     1572     2043     2477     2864     2884     2269     1291 
     548      490     1043     1640     1899     1977     2035     1904 
    1559     1278     1154     1146     1344     1611     1680     1611 
    1510     1348     1179      980      683      492      616     1135 
    1918     2286     1852     1279     1067      846      444      259 
     513      996     1389     1613     1803     1830     1509     1116 
    1001     1136     1341     1431     1236      953     1035     1467 
    1809     1917     1929     1908     1779     1470     1175     1175 
    1358     1418     1351     1293     1165      905      824     1146 
    1583     1713     1439     1071      866      741      730      965 
    1212     1175      919      687      598      614      738     1089 
    1557     1742     1433      886      643      962     1413     1483 
    1275     1067      899      857     1097     1696     2511     2930 
    2424     1347      477      307      858     1713     2442     2767 
    2466     1769     1291     1270     1416     1432     1309     1124 
     895      841     1246     1894     2223     1911     1173      568 
     365      552     1104     1701     1838     1355      616      157 
     149      490     1004     1431     1661     1701     1532     1426 
    1615     1799     1780     1736     1590     1220     1007     1224 
    1521     1568     1543     1607     1571     1416     1345     1293 
    1202     1163      965      533      232      156      203      496 
     885     1011     1013     1082      924      510      342      579 
     824      926     1135     1397     1399     1302     1475     1740 
    1613      996      357      276      783     1418     1864     2096 
    2068     1711     1278     1217     1567     1910     1987     1880 
    1860     2058     2131     1821     1509     1494     1559     1471 
    1228     1050     1120     1237     1178      984      673      315 
     141      298      658      831      571      178      116      390 
     692      903     1061     1073      751      184     -153       17 
     471      880     1090     1139     1201     1314     1314     1131 
     955      923      931      984     1236     1651     1984     1989 
    1520      818      399      360      465      719     1119     1351 
    1209      935      847      874      776      561      315      -20 
    -260       62      936     1726     1942     1640     1086      445 
     -58       -9      602     1119     1054      556       12     -226 
       2      487      893     1092     1044      747      352      182 
     441      801      761      357      -17     -101      195      704 
    1013      940      642      182     -345     -556     -298      149 
     668     1213     1408     1028      498      237      157      216 
     621     1205     1547     1686     1853     1768     1139      405 
     152      342      571      699      958     1439     1809     1792 
    1518     1236     1008      716      391      356      780     1437 
    1980     2119     1769     1236     1026     1308     1780     2188 
    2435     2312     1815     1341     1242     1470     1772     1975 
    2015     1885     1570     1185     1030     1151     1323     1429 
    1420     1359     1494     1807     2087     2334     2359     1857 
    1112      695      770     1036     1096      974      984     1102 
    1155     1264     1405     1188      645      280      203      191 
     287      616      947      842      338      -54     -149     -128 
      66      440      583      407      330      486      796     1193 
    1355     1178      938      691      476      602     1001     1210 
    1217     1363     1512     1304      959      957     1198     1148 
     769      576      801     1266     1714     1883     1742     1459 
    1031      515      274      498      950     1340     1482     1327 
    1086      904      714      653      874     1165     1271     1185 
    1078     1054      950      650      367      394      714      997 
    1096     1173     1247     1125      737      292      171      444 
     803     1023     1109     1131     1117     1105     1205     1409 
    1524     1443     1348     1598     2223     2795     2999     2790 
    2187     1491     1151     1181     1277     1335     1375     1404 
    1497     1644     1652     1441     1053      568      248      341 
     726     1129     1507     1826     1814     1406      928      706 
     808     1057     1250     1486     1930     2367     2401     1979 
    1463     1182     1094      978      996     1559     2502     3196 
    3361     3177     2848     2393     1884     1536     1401     1398 
    1485     1702     2164     2602     2473     1813     1202      922 
     731      415      174      233      423      518      523      406 
      86     -260     -291       64      484      693      866     1231 
    1503     1410     1192      980      706      521      537      804 
    1435     2100     2309     2197     2025     1652     1154      909 
     993     1188     1287     1163      932      792      660      467 
     436      639      832      884      895      912      897      787 
     572      363      259      294      464      754     1098     1286 
    1156      777      290     -216     -642     -754     -355      321 
     799      962      992      899      683      527      518      492 
     359      415      868     1401     1782     1987     1809     1220 
     657      480      589      785     1104     1557     1888     1810 
    1420     1086      926      857      965     1235     1333     1070 
     712      595      727      969     1185     1210      989      584 
     187      152      531      931     1053      989      969      962 
     830      735      820      865      729      549      523      866 
    1470     1848     1949     2131     2204     1807     1345     1297 
    1432     1467     1564     1875     2253     2508     2612     2555 
    2226     1721     1394     1398     1701     2164     2420     2274 
    1915     1564     1310     1135     1003      940      938      919 
     877      939     1190     1414     1291      870      465      217 
      64       49      346      793      832      336     -171     -317 
    -252     -216     -214     -170      -70       -8      -54      -72 
      78      310      430      355      190      106      147      252 
     390      576      803     1054     1285     1345     1189     1039 
    1062     1170     1316     1617     2000     2232     2349     2490 
    2666     2862     2963     2930     2938     2930     2744     2554 
    2550     2633     2677     2598     2346     2041     1841     1782 
    1903     2162     2336     2386     2443     2405     2151     1902 
    1846     1711     1267      858      888     1212     1368     1144 
     792      646      692      751      834      965      970      734 
     454      376      484      629      757      847      776      533 
     384      542      915     1244     1308     1154     1059     1053 
     922      702      606      723     1011     1270     1386     1518 
    1641     1472     1084      762      504      351      517      943 
    1289     1282      946      614      486      395      249      140 
     125      195      244      214      251      292      153       49 
     167      260      232      292      479      637      743      846 
     855      629      237      -48      -60      206      646     1020 
    1197     1215     1024      616      275      225      318      441 
     711     1001      980      745      715      895      935      791 
     700      765      974     1343     1721     1865     1790     1688 
    1566     1359     1221     1255     1437     1769     2026     1923 
    1669     1615     1684     1603     1336     1077      953     1003 
    1270     1651     1912     1976     1850     1476      927      453 
     256      446     1078     1883     2292     2111     1680     1278 
     955      778      855     1101     1228     1175     1152     1239 
    1433     1669     1630     1228      795      490      357      650 
    1306     1787     1852     1680     1360      981      818      999 
    1390     1763     1902     1767     1528     1404     1466     1574 
    1653     1740     1790     1848     2064     2386     2636     2708 
    2551     2268     2137     2261     2405     2374     2316     2425 
    2577     2547     2323     1993     1705     1620     1711     1787 
    1748     1609     1318      896      591      537      502      314 
     186      291      436      450      386      270      172      162 
      74     -180     -311     -112      136      144       78      147 
     178       41      -52      -56     -117     -126       85      359 
     457      423      342      144     -130     -311     -344     -278 
    -180     -108       24      387      905     1219     1108      714 
     337      159      280      792     1518     2033     2135     1941 
    1610     1274     1136     1314     1607     1741     1705     1672 
    1755     1930     2124     2203     2172     2196     2177     2010 
    1935     2018     2010     1887     1853     1925     1904     1714 
    1489     1345     1278     1208     1148     1235     1475     1625 
    1448     1016      622      525      855     1462     1935     2020 
    1833     1622     1420     1198     1128     1173     1070      816 
     660      804     1127     1337     1325     1082      679      372 
     371      623      905      959      773      611      507      319 
     284      623      945      843      535      394      468      610 
     735      845      913      895      866     1005     1293     1479 
    1435     1300     1286     1370     1371     1296     1282     1356 
    1458     1478     1359     1201     1096     1100     1251     1386 
    1398     1456     1503     1337     1146     1237     1543     1786 
    1864     1795     1559     1213      974      999     1224     1453 
    1540     1462     1290     1081      851      703      706      688 
     450      152      148      491      899     1148     1138      868 
     530      337      301      218      -35     -265     -228       58 
     391      554      460      217       31      -44     -143     -271 
    -237       44      426      668      689      643      588      394 
      81     -128      -79      211      689     1283     1792     1935 
