Origin Time       2025/01/13 21:19:00
Lat.              31.8
Long.             131.6
Depth. (km)       30
Mag.              6.9
Station Code      KOCH11
Station Lat.      33.2866
Station Long.     134.1603
Station Height(m) -210
Record Time       2025/01/13 21:20:40
Sampling Freq(Hz) 100Hz
Duration Time(s)  127
Dir.              1
Scale Factor      2942(gal)/8224139
Max. Acc. (gal)   0.443
Last Correction   2025/01/13 21:20:42
Memo.             
[...]
  135116   135122   135126   135122   135122   135128   135136   135148 
  135160   135171   135174   135171   135172   135178   135184   135199 
  135217   135230   135247   135265   135292   135326   135361   135398 
  135432   135456   135479   135500   135518   135534   135553   135580 
  135616   135662   135714   135764   135822   135891   135958   136021 
  136081   136143   136204   136255   136301   136341   136371   136398 
  136422   136443   136460   136472   136475   136468   136447   136417 
  136387   136352   136312   136266   136213   136155   136098   136057 
  136017   135973   135931   135893   135857   135823   135795   135778 
  135770   135757   135737   135722   135718   135722   135731   135738 
  135747   135765   135781   135789   135792   135793   135796   135797 
  135797   135797   135795   135784   135773   135768   135769   135765 
  135754   135745   135739   135730   135710   135684   135660   135630 
  135603   135580   135554   135526   135510   135502   135495   135494 
  135495   135496   135507   135514   135514   135525   135544   135568 
  135602   135634   135664   135699   135735   135774   135807   135831 
  135854   135874   135892   135915   135932   135934   135926   135913 
  135900   135891   135886   135880   135869   135861   135857   135854 
  135853   135850   135843   135837   135838   135845   135847   135854 
  135866   135878   135886   135897   135909   135916   135920   135927 
  135927   135909   135889   135870   135858   135861   135862   135853 
  135842   135828   135810   135789   135774   135761   135738   135710 
  135681   135654   135622   135591   135560   135521   135476   135427 
  135376   135332   135292   135245   135203   135170   135126   135085 
  135068   135066   135056   135043   135035   135037   135045   135059 
  135083   135099   135098   135108   135112   135094   135083   135072 
  135049   135033   135017   134991   134971   134955   134944   134943 
  134940   134932   134933   134933   134933   134947   134956   134955 
  134956   134960   134966   134971   134979   134991   135012   135044 
  135082   135121   135156   135193   135234   135279   135313   135337 
  135360   135373   135376   135384   135396   135400   135409   135430 
  135446   135452   135452   135442   135429   135417   135407   135398 
  135378   135351   135318   135280   135251   135224   135191   135160 
  135136   135117   135109   135113   135129   135153   135174   135191 
  135225   135263   135290   135314   135341   135364   135380   135400 
  135417   135430   135454   135487   135522   135564   135606   135648 
  135691   135734   135792   135855   135911   135958   136003   136048 
  136096   136144   136188   136215   136239   136273   136291   136294 
  136294   136293   136294   136305   136310   136306   136298   136283 
  136264   136252   136239   136223   136206   136190   136169   136144 
  136123   136104   136092   136089   136092   136100   136108   136112 
  136108   136101   136104   136107   136108   136124   136147   136167 
  136194   136215   136223   136232   136232   136227   136231   136248 
  136270   136287   136296   136290   136273   136248   136224   136206 
  136189   136167   136148   136129   136105   136074   136040   135996 
  135942   135891   135842   135785   135722   135668   135616   135560 
  135510   135465   135422   135387   135356   135325   135303   135286 
  135260   135236   135225   135220   135217   135228   135244   135259 
  135274   135283   135280   135278   135275   135264   135248   135233 
  135221   135209   135193   135183   135183   135184   135182   135180 
  135180   135174   135171   135174   135172   135171   135176   135184 
  135198   135209   135218   135226   135238   135256   135274   135297 
  135324   135349   135378   135402   135423   135450   135481   135513 
  135550   135587   135618   135654   135700   135746   135792   135835 
  135880   135926   135970   136008   136046   136075   136089   136094 
  136098   136101   136101   136098   136093   136081   136065   136047 
  136024   135996   135966   135936   135901   135862   135822   135780 
  135733   135691   135654   135615   135581   135552   135517   135486 
  135463   135446   135440   135434   135436   135452   135464   135471 
  135483   135492   135496   135507   135525   135544   135562   135580 
  135598   135612   135616   135622   135633   135639   135637   135625 
  135604   135585   135564   135542   135525   135503   135480   135463 
  135453   135446   135433   135419   135417   135415   135422   135448 
  135472   135486   135502   135518   135525   135526   135521   135506 
  135487   135475   135473   135480   135488   135500   135511   135515 
  135514   135508   135506   135504   135500   135498   135500   135502 
  135500   135500   135502   135503   135499   135483   135467   135450 
  135433   135414   135395   135382   135371   135361   135357   135359 
  135367   135380   135394   135411   135432   135448   135469   135496 
  135515   135522   135526   135535   135553   135562   135564   135571 
  135577   135576   135580   135581   135579   135587   135598   135598 
  135589   135575   135561   135550   135541   135534   135530   135531 
  135535   135545   135564   135589   135618   135650   135684   135716 
  135749   135787   135830   135868   135907   135949   135982   136009 
  136036   136061   136077   136090   136104   136108   136096   136086 
  136073   136047   136016   135976   135935   135897   135855   135822 
  135791   135754   135719   135684   135649   135623   135602   135577 
  135556   135538   135531   135535   135546   135564   135585   135612 
  135641   135670   135707   135739   135765   135789   135810   135824 
  135841   135862   135888   135907   135920   135931   135940   135951 
  135963   135969   135969   135969   135965   135955   135946   135940 
  135935   135931   135924   135912   135903   135892   135882   135877 
  135869   135854   135835   135808   135783   135758   135723   135684 
  135653   135627   135603   135583   135558   135537   135526   135515 
  135499   135484   135477   135477   135481   135483   135483   135487 
  135487   135479   135469   135453   135433   135419   135400   135384 
  135372   135349   135325   135309   135286   135255   135226   135198 
  135168   135140   135109   135085   135079   135087   135102   135124 
  135156   135187   135217   135257   135295   135318   135341   135373 
  135400   135421   135446   135480   135508   135531   135553   135571 
  135588   135603   135619   135638   135657   135673   135684   135689 
  135689   135691   135696   135703   135716   135731   135747   135762 
  135772   135783   135792   135787   135777   135770   135761   135746 
  135730   135710   135688   135673   135653   135630   135616   135600 
  135579   135558   135537   135514   135495   135480   135471   135464 
  135459   135456   135449   135434   135425   135421   135421   135418 
  135415   135421   135440   135460   135477   135494   135507   135521 
  135531   135542   135549   135554   135567   135585   135595   135598 
  135607   135614   135614   135626   135638   135638   135642   135645 
  135646   135656   135664   135668   135676   135681   135681   135680 
  135675   135666   135665   135668   135670   135677   135681   135687 
  135700   135710   135715   135722   135718   135715   135716   135708 
  135697   135684   135668   135657   135649   135638   135616   135588 
  135558   135523   135487   135459   135429   135395   135369   135337 
  135302   135282   135268   135256   135247   135240   135236   135241 
  135251   135265   135290   135314   135338   135369   135402   135425 
  135445   135471   135499   135530   135568   135595   135606   135619 
  135638   135646   135650   135658   135661   135662   135664   135660 
  135662   135672   135679   135681   135680   135677   135677   135684 
  135697   135710   135714   135715   135712   135704   135693   135685 
  135684   135691   135688   135679   135677   135675   135670   135677 
  135687   135688   135697   135718   135738   135760   135791   135822 
  135846   135873   135901   135924   135945   135966   135986   136007 
  136026   136038   136050   136059   136066   136073   136078   136080 
  136071   136066   136066   136061   136057   136058   136046   136026 
  136012   135997   135981   135974   135969   135957   135947   135942 
  135936   135928   135924   135916   135904   135892   135878   135873 
  135873   135868   135862   135858   135847   135835   135830   135820 
  135808   135800   135791   135788   135783   135772   135768   135764 
  135754   135747   135739   135730   135722   135710   135695   135676 
  135657   135646   135635   135625   135622   135625   135630   135634 
  135637   135638   135643   135658   135673   135683   135691   135702 
  135710   135711   135707   135708   135720   135735   135749   135761 
  135770   135778   135787   135793   135801   135811   135819   135827 
  135834   135841   135854   135873   135895   135916   135930   135934 
  135936   135936   135942   135946   135940   135938   135942   135936 
  135927   135923   135918   135908   135896   135881   135869   135859 
  135857   135859   135855   135851   135845   135831   135818   135797 
  135772   135749   135723   135693   135669   135648   135626   135598 
  135565   135540   135517   135490   135460   135444   135440   135426 
  135407   135394   135383   135371   135359   135341   135325   135314 
  135301   135290   135274   135253   135237   135220   135197   135172 
  135152   135136   135114   135090   135075   135066   135049   135037 
  135032   135025   135025   135031   135036   135040   135047   135052 
  135055   135059   135064   135072   135081   135087   135091   135094 
  135098   135101   135098   135099   135110   135124   135135   135139 
  135137   135132   135121   135117   135114   135106   135095   135090 
  135081   135064   135056   135052   135045   135040   135036   135028 
  135013   134997   134973   134946   134929   134910   134883   134860 
  134840   134823   134808   134794   134778   134761   134751   134751 
  134743   134736   134740   134744   134751   134770   134792   134820 
  134856   134898   134946   134990   135027   135062   135099   135144 
  135193   135236   135276   135317   135359   135407   135459   135507 
  135558   135607   135652   135692   135735   135783   135827   135872 
  135916   135965   136012   136057   136104   136150   136197   136247 
  136294   136333   136367   136394   136418   136445   136470   136494 
  136518   136532   136547   136564   136574   136575   136574   136578 
  136588   136598   136609   136624   136637   136648   136661   136671 
  136675   136679   136679   136679   136679   136672   136667   136672 
  136671   136663   136656   136645   136624   136602   136576   136544 
  136516   136485   136447   136413   136378   136336   136301   136270 
  136231   136200   136177   136146   136111   136080   136048   136017 
  135993   135966   135928   135899   135874   135850   135830   135811 
  135792   135783   135777   135770   135770   135776   135778   135780 
  135784   135792   135795   135797   135807   135812   135812   135811 
  135804   135799   135799   135796   135787   135783   135787   135792 
  135800   135808   135814   135811   135797   135784   135776   135761 
  135742   135727   135712   135692   135672   135654   135639   135627 
  135616   135610   135602   135584   135568   135557   135545   135533 
  135518   135499   135484   135479   135469   135460   135459   135454 
  135453   135461   135469   135471   135472   135476   135481   135488 
  135499   135507   135514   135519   135519   135522   135523   135519 
  135517   135518   135519   135522   135523   135525   135514   135490 
  135469   135454   135437   135418   135402   135384   135375   135369 
  135357   135344   135336   135325   135306   135291   135288   135286 
  135279   135275   135270   135257   135244   135229   135209   135195 
  135184   135171   135166   135162   135153   135149   135155   135167 
  135175   135179   135190   135202   135213   135226   135244   135259 
  135265   135270   135271   135272   135282   135295   135311   135326 
  135334   135344   135356   135363   135371   135380   135384   135395 
  135414   135440   135467   135492   135513   135530   135548   135572 
  135599   135622   135643   135661   135681   135697   135707   135716 
  135729   135741   135756   135772   135788   135807   135824   135837 
  135849   135859   135864   135864   135870   135876   135868   135864 
  135862   135857   135851   135843   135827   135812   135795   135770 
  135746   135727   135706   135684   135664   135649   135641   135638 
  135635   135631   135625   135615   135612   135610   135604   135603 
  135603   135606   135607   135598   135583   135573   135562   135544 
  135526   135511   135495   135486   135477   135469   135467   135468 
  135471   135472   135475   135479   135486   135492   135494   135499 
  135519   135548   135581   135623   135664   135704   135746   135784 
  135830   135877   135923   135974   136023   136065   136107   136152 
  136192   136232   136269   136293   136321   136350   136372   136405 
  136435   136459   136486   136510   136536   136561   136586   136609 
  136634   136660   136684   136707   136725   136741   136767   136794 
  136817   136844   136860   136868   136875   136879   136885   136895 
  136900   136899   136891   136875   136850   136823   136792   136757 
  136717   136669   136624   136576   136525   136472   136424   136379 
  136328   136277   136225   136170   136115   136053   135984   135919 
  135853   135787   135727   135672   135622   135575   135521   135461 
  135410   135369   135329   135287   135251   135218   135184   135157 
  135140   135124   135109   135098   135087   135072   135062   135060 
  135058   135052   135051   135047   135037   135041   135045   135036 
  135032   135029   135020   135017   135018   135016   135020   135036 
  135051   135064   135079   135087   135097   135114   135125   135132 
  135143   135152   135162   135175   135191   135214   135237   135257 
  135270   135283   135299   135309   135319   135333   135337   135337 
  135340   135342   135341   135344   135341   135333   135319   135311 
  135309   135307   135309   135309   135305   135298   135298   135301 
  135298   135303   135319   135325   135329   135344   135348   135348 
  135353   135363   135376   135396   135421   135444   135460   135481 
  135503   135519   135538   135560   135573   135585   135602   135607 
  135604   135604   135604   135604   135608   135612   135615   135618 
  135626   135630   135633   135637   135641   135643   135645   135648 
  135654   135668   135683   135693   135710   135730   135746   135762 
  135788   135816   135837   135859   135885   135903   135918   135939 
  135954   135963   135980   135996   136011   136020   136026   136035 
  136040   136042   136043   136048   136057   136065   136065   136058 
  136054   136046   136034   136026   136020   136013   136008   135993 
  135981   135972   135951   135930   135913   135892   135866   135839 
  135810   135780   135751   135723   135696   135677   135662   135642 
  135616   135596   135581   135564   135557   135558   135560   135560 
  135567   135569   135579   135596   135614   135630   135641   135645 
  135653   135669   135677   135681   135689   135693   135700   135708 
  135711   135716   135722   135729   135734   135737   135742   135751 
  135761   135778   135797   135819   135843   135869   135895   135922 
  135947   135973   136003   136028   136055   136086   136112   136136 
  136163   136188   136210   136236   136264   136293   136321   136348 
  136367   136382   136397   136405   136408   136405   136399   136394 
  136389   136382   136370   136351   136333   136317   136300   136283 
  136267   136247   136227   136206   136185   136169   136161   136151 
  136142   136127   136116   136115   136107   136094   136092   136090 
  136085   136075   136067   136062   136050   136038   136026   136009 
  135993   135982   135963   135936   135908   135874   135841   135816 
  135787   135747   135719   135692   135658   135633   135611   135583 
  135558   135534   135506   135480   135452   135421   135392   135367 
  135342   135321   135298   135276   135256   135232   135209   135186 
  135166   135147   135140   135137   135130   135121   135112   135108 
  135109   135103   135097   135093   135085   135086   135093   135093 
  135091   135094   135099   135110   135122   135135   135148   135159 
  135164   135167   135172   135180   135183   135179   135182   135190 
  135197   135207   135220   135228   135234   135237   135236   135241 
  135248   135249   135245   135248   135259   135271   135287   135306 
  135330   135352   135363   135372   135384   135391   135395   135402 
  135402   135399   135399   135394   135387   135387   135383   135369 
  135361   135360   135352   135348   135349   135344   135334   135334 
  135333   135326   135324   135328   135329   135334   135345   135352 
  135355   135364   135379   135394   135413   135433   135449   135471 
  135494   135508   135521   135538   135556   135575   135600   135629 
  135650   135672   135697   135720   135739   135758   135778   135791 
  135799   135810   135826   135841   135851   135868   135893   135912 
  135923   135943   135958   135969   135981   135984   135984   135992 
  135999   136003   136015   136030   136043   136053   136065   136084 
  136102   136125   136152   136174   136197   136231   136263   136287 
  136310   136325   136340   136355   136360   136372   136390   136395 
  136404   136418   136426   136432   136439   136439   136431   136428 
  136425   136418   136416   136414   136404   136389   136378   136374 
  136371   136360   136350   136339   136320   136300   136287   136274 
  136260   136255   136250   136236   136225   136217   136209   136204 
  136202   136197   136189   136186   136186   136179   136169   136155 
  136146   136142   136134   136123   136113   136101   136092   136084 
  136067   136055   136044   136026   136007   135992   135980   135970 
  135951   135923   135903   135881   135851   135823   135787   135750 
  135722   135692   135657   135623   135596   135569   135544   135526 
  135511   135495   135479   135465   135453   135448   135448   135445 
  135448   135459   135472   135487   135500   135511   135519   135527 
  135535   135548   135558   135564   135565   135567   135569   135571 
  135567   135561   135553   135535   135518   135502   135481   135463 
  135450   135437   135421   135402   135379   135356   135340   135325 
  135309   135294   135283   135275   135265   135260   135253   135240 
  135224   135211   135202   135191   135186   135178   135167   135160 
  135151   135143   135135   135121   135106   135095   135089   135091 
  135095   135099   135110   135126   135141   135170   135202   135226 
  135261   135305   135340   135378   135415   135442   135469   135498 
  135519   135545   135573   135602   135629   135656   135675   135693 
  135718   135743   135766   135787   135799   135807   135816   135826 
  135838   135846   135851   135854   135850   135847   135854   135857 
