Origin Time       2025/01/13 21:19:00
Lat.              31.8
Long.             131.6
Depth. (km)       30
Mag.              6.9
Station Code      KOCH11
Station Lat.      33.2866
Station Long.     134.1603
Station Height(m) 90
Record Time       2025/01/13 21:20:40
Sampling Freq(Hz) 100Hz
Duration Time(s)  127
Dir.              5
Scale Factor      7845(gal)/8223790
Max. Acc. (gal)   0.758
Last Correction   2025/01/13 21:20:42
Memo.             
[...]
   35001    34986    35021    35113    35221    35286    35302    35267 
   35203    35149    35091    35037    35008    34982    34946    34870 
   34734    34595    34500    34453    34452    34446    34402    34352 
   34326    34360    34465    34615    34794    34962    35071    35136 
   35147    35110    35083    35066    35024    34952    34857    34777 
   34740    34734    34774    34866    34985    35112    35186    35179 
   35118    35037    34986    34966    34928    34861    34781    34720 
   34709    34719    34715    34728    34766    34832    34939    35083 
   35245    35357    35364    35291    35172    35036    34924    34823 
   34712    34618    34558    34570    34655    34747    34807    34820 
   34803    34793    34776    34743    34726    34722    34738    34784 
   34836    34902    34966    35005    35051    35085    35075    35051 
   35021    34994    34975    34940    34901    34879    34866    34865 
   34869    34866    34867    34848    34801    34742    34659    34578 
   34545    34558    34619    34711    34811    34931    35043    35106 
   35135    35127    35097    35094    35117    35151    35172    35155 
   35110    35060    35017    35005    35009    35017    35046    35079 
   35094    35062    34948    34790    34645    34549    34545    34618 
   34719    34819    34894    34954    34997    34994    34951    34882 
   34792    34713    34665    34638    34635    34620    34584    34569 
   34580    34608    34658    34697    34716    34726    34715    34711 
   34722    34740    34785    34839    34878    34893    34870    34852 
   34886    34940    34986    35016    35035    35071    35120    35158 
   35176    35160    35124    35082    35020    34947    34886    34840 
   34830    34836    34836    34844    34846    34832    34825    34816 
   34819    34844    34862    34862    34827    34758    34708    34689 
   34689    34719    34761    34809    34846    34828    34788    34762 
   34749    34742    34719    34686    34688    34713    34761    34836 
   34893    34923    34940    34931    34911    34875    34812    34751 
   34697    34642    34612    34615    34665    34740    34792    34819 
   34827    34815    34828    34862    34882    34894    34890    34875 
   34867    34859    34869    34894    34893    34875    34855    34832 
   34819    34784    34705    34627    34574    34573    34635    34720 
   34797    34847    34855    34852    34869    34915    34982    35013 
   34997    34956    34896    34854    34838    34815    34789    34776 
   34771    34785    34796    34803    34823    34861    34928    35020 
   35093    35151    35176    35141    35074    34990    34890    34793 
   34713    34672    34692    34750    34809    34842    34835    34834 
   34839    34828    34800    34731    34651    34631    34661    34705 
   34746    34762    34780    34804    34794    34743    34654    34568 
   34543    34577    34654    34777    34900    34992    35043    35041 
   35009    34958    34900    34863    34842    34836    34858    34874 
   34874    34866    34843    34824    34817    34811    34827    34863 
   34892    34906    34892    34859    34839    34825    34821    34825 
   34835    34875    34952    35043    35135    35195    35218    35209 
   35149    35078    35033    35004    34987    34977    34960    34954 
   34943    34917    34881    34812    34723    34639    34562    34522 
   34523    34533    34553    34572    34582    34608    34635    34645 
   34642    34615    34582    34561    34541    34549    34589    34646 
   34730    34805    34850    34874    34866    34854    34873    34906 
   34952    34986    34981    34965    34929    34875    34852    34855 
   34877    34932    34996    35047    35079    35068    35037    35002 
   34965    34946    34936    34923    34923    34927    34928    34924 
   34900    34873    34854    34831    34821    34825    34839    34892 
   34959    35006    35040    35052    35040    35014    34975    34935 
   34897    34863    34859    34882    34921    34967    34978    34956 
   34932    34909    34905    34927    34943    34970    35012    35063 
   35120    35147    35135    35109    35064    35016    34974    34917 
   34858    34812    34782    34792    34819    34843    34866    34863 
   34842    34805    34734    34650    34572    34506    34495    34535 
   34607    34705    34801    34866    34893    34873    34832    34796 
   34753    34724    34708    34686    34686    34713    34758    34808 
   34820    34789    34742    34690    34665    34651    34615    34585 
   34592    34649    34759    34859    34911    34925    34898    34855 
   34834    34828    34836    34842    34836    34846    34867    34906 
   34960    34990    34990    34979    34958    34959    34992    35017 
   35032    35039    35040    35055    35066    35054    35024    34970 
   34915    34862    34797    34738    34689    34635    34596    34566 
   34541    34528    34512    34507    34533    34577    34653    34747 
   34835    34921    34985    35008    35008    34982    34946    34915 
   34886    34874    34869    34846    34828    34820    34821    34854 
   34896    34927    34951    34952    34956    34992    35041    35094 
   35132    35137    35127    35101    35062    35031    35001    34977 
   34962    34928    34890    34857    34815    34796    34811    34839 
   34896    34963    35023    35074    35091    35078    35050    35002 
   34959    34919    34865    34809    34743    34680    34649    34619 
   34589    34576    34553    34533    34531    34535    34543    34547 
   34539    34534    34523    34522    34546    34584    34651    34739 
   34807    34871    34948    35021    35085    35122    35133    35147 
   35152    35145    35127    35081    35032    34997    34962    34936 
   34902    34842    34780    34713    34642    34596    34565    34551 
   34562    34569    34568    34568    34573    34604    34639    34665 
   34689    34696    34696    34711    34717    34719    34720    34711 
   34723    34757    34793    34832    34867    34909    34958    34982 
   34979    34955    34898    34854    34843    34848    34871    34906 
   34939    34975    34993    34987    34965    34921    34878    34851 
   34830    34819    34809    34796    34793    34789    34778    34763 
   34730    34701    34690    34680    34684    34709    34744    34801 
   34857    34901    34946    34967    34971    34974    34962    34944 
   34938    34932    34931    34923    34898    34874    34848    34843 
   34863    34886    34919    34958    34979    35004    35036    35059 
   35074    35062    35023    34977    34909    34836    34786    34755 
   34750    34767    34788    34820    34859    34894    34923    34921 
   34890    34859    34834    34824    34824    34815    34808    34801 
   34786    34788    34788    34776    34765    34735    34700    34690 
   34690    34711    34755    34794    34827    34850    34862    34877 
   34870    34850    34852    34873    34912    34962    34986    35008 
   35035    35051    35063    35056    35032    35017    35002    34979 
   34943    34896    34862    34842    34821    34805    34780    34740 
   34735    34754    34782    34815    34834    34855    34900    34952 
   35009    35046    35055    35070    35081    35078    35068    35023 
   34955    34898    34847    34819    34807    34785    34759    34722 
   34676    34647    34627    34604    34585    34557    34553    34582 
   34618    34662    34701    34713    34719    34709    34695    34693 
   34682    34672    34680    34688    34707    34732    34749    34770 
   34797    34825    34873    34919    34959    35001    35016    35012 
   34997    34969    34960    34977    34983    34986    34981    34967 
   34952    34924    34893    34861    34815    34785    34777    34763 
   34765    34769    34765    34777    34793    34801    34811    34812 
   34817    34831    34834    34839    34850    34851    34855    34850 
   34834    34819    34790    34761    34743    34730    34742    34776 
   34805    34844    34879    34892    34901    34894    34873    34858 
   34835    34807    34789    34776    34776    34785    34798    34830 
   34854    34851    34836    34813    34804    34812    34813    34811 
   34794    34755    34720    34692    34666    34657    34638    34607 
   34584    34558    34558    34587    34622    34674    34734    34780 
   34831    34875    34902    34919    34912    34897    34897    34904 
   34923    34947    34966    34989    34997    34985    34977    34963 
   34951    34950    34947    34950    34962    34970    34986    34996 
   34987    34989    34994    34987    34978    34947    34900    34855 
   34807    34762    34727    34699    34693    34701    34711    34731 
   34742    34742    34750    34751    34763    34792    34815    34842 
   34861    34854    34839    34815    34788    34780    34773    34770 
   34785    34803    34838    34889    34939    34997    35046    35071 
   35095    35105    35094    35081    35052    35025    35008    34985 
   34969    34954    34916    34873    34821    34765    34723    34684 
   34649    34619    34591    34576    34565    34550    34547    34555 
   34578    34630    34688    34743    34797    34838    34867    34885 
   34885    34892    34900    34894    34884    34855    34830    34827 
   34824    34820    34817    34805    34803    34803    34797    34800 
   34796    34777    34759    34739    34720    34700    34661    34626 
   34593    34554    34539    34541    34543    34558    34569    34577 
   34605    34630    34647    34665    34668    34673    34686    34700 
   34728    34749    34747    34746    34735    34719    34716    34723 
   34746    34781    34805    34843    34886    34912    34933    34950 
   34965    34987    35004    35023    35051    35073    35104    35128 
   35127    35122    35105    35070    35037    34994    34950    34917 
   34884    34869    34869    34871    34901    34943    34973    34998 
   35009    35008    35014    35012    35004    34997    34982    34981 
   34994    35009    35029    35036    35024    35012    34989    34966 
   34951    34933    34927    34929    34919    34916    34921    34927 
   34943    34946    34933    34929    34923    34912    34893    34857 
   34832    34827    34828    34852    34875    34886    34901    34900 
   34882    34857    34817    34792    34788    34778    34770    34762 
   34743    34728    34713    34700    34696    34685    34681    34681 
   34669    34663    34663    34662    34673    34676    34669    34672 
   34673    34678    34697    34716    34742    34770    34792    34820 
   34840    34842    34843    34850    34866    34886    34885    34865 
   34840    34812    34800    34801    34804    34819    34835    34846 
   34862    34866    34862    34857    34836    34823    34823    34819 
   34831    34850    34862    34885    34906    34920    34939    34950 
   34963    34975    34974    34983    35000    35006    35012    34997 
   34960    34924    34875    34823    34778    34726    34682    34647 
   34603    34570    34550    34537    34530    34516    34506    34516 
   34533    34560    34599    34634    34674    34715    34751    34797 
   34836    34878    34939    34990    35028    35055    35064    35085 
   35108    35113    35110    35087    35052    35032    35008    34982 
   34965    34944    34939    34944    34948    34966    34982    34992 
   35019    35040    35051    35066    35079    35102    35135    35147 
   35149    35141    35109    35071    35023    34959    34902    34847 
   34808    34786    34759    34738    34732    34727    34735    34754 
   34771    34794    34807    34812    34824    34821    34819    34828 
   34831    34836    34844    34842    34838    34830    34813    34804 
   34794    34800    34821    34838    34865    34900    34917    34925 
   34921    34896    34866    34825    34781    34751    34732    34739 
   34757    34759    34767    34770    34743    34713    34681    34639 
   34607    34587    34580    34592    34600    34612    34628    34635 
   34649    34659    34661    34673    34685    34705    34757    34825 
   34916    35020    35102    35174    35229    35253    35268    35278 
   35275    35271    35255    35230    35208    35172    35141    35128 
   35120    35118    35113    35093    35059    34998    34925    34862 
   34797    34744    34711    34674    34649    34624    34596    34574 
   34547    34512    34495    34480    34479    34496    34507    34516 
   34530    34537    34553    34568    34576    34581    34560    34527 
   34518    34512    34511    34528    34546    34568    34589    34601 
   34628    34661    34696    34754    34812    34863    34920    34963 
   35000    35031    35035    35027    35001    34967    34948    34925 
   34905    34905    34904    34915    34948    34974    34997    35013 
   35019    35035    35058    35090    35133    35164    35187    35202 
   35194    35187    35185    35174    35182    35199    35205    35209 
   35193    35159    35133    35105    35082    35073    35056    35041 
   35019    34986    34973    34969    34971    34996    35025    35058 
   35100    35128    35141    35140    35108    35060    35004    34947 
   34901    34850    34793    34740    34680    34631    34601    34572 
   34546    34510    34457    34419    34389    34361    34346    34321 
   34291    34263    34217    34175    34146    34113    34086    34061 
   34047    34059    34079    34102    34130    34146    34160    34169 
   34164    34164    34165    34165    34188    34225    34268    34326 
   34377    34429    34484    34527    34573    34624    34668    34716 
   34757    34789    34836    34875    34909    34954    34987    35023 
   35062    35094    35136    35174    35194    35212    35218    35220 
   35228    35222    35216    35203    35162    35120    35089    35058 
   35040    35024    35004    35002    35008    35017    35043    35055 
   35063    35067    35050    35039    35039    35032    35032    35027 
   35019    35023    35021    35024    35023    34996    34965    34936 
   34905    34885    34855    34816    34789    34763    34743    34742 
   34742    34740    34735    34713    34695    34682    34674    34686 
   34700    34705    34719    34727    34731    34730    34705    34682 
   34662    34642    34635    34631    34624    34634    34638    34649 
   34678    34708    34744    34782    34804    34825    34836    34823 
   34807    34773    34720    34673    34622    34578    34550    34510 
   34474    34445    34404    34371    34341    34311    34312    34335 
   34383    34466    34557    34651    34749    34825    34897    34960 
   35014    35074    35124    35156    35186    35201    35212    35226 
   35218    35197    35171    35128    35083    35031    34981    34954 
   34931    34900    34874    34846    34832    34832    34823    34819 
   34808    34786    34782    34781    34781    34792    34798    34811 
   34835    34859    34905    34955    34993    35039    35070    35074 
   35077    35071    35058    35051    35041    35040    35039    35020 
   35006    34977    34920    34862    34794    34719    34659    34603 
   34564    34535    34499    34480    34473    34470    34496    34535 
   34573    34624    34672    34720    34769    34793    34808    34816 
   34805    34797    34782    34754    34736    34720    34707    34709 
   34715    34738    34777    34803    34828    34859    34878    34904 
   34933    34963    34998    35027    35048    35070    35081    35091 
   35095    35081    35063    35028    34979    34944    34908    34869 
   34843    34812    34789    34781    34769    34767    34781    34797 
   34828    34863    34898    34940    34967    34987    35008    35008 
   35000    34985    34956    34935    34916    34892    34878    34859 
   34834    34816    34798    34793    34800    34794    34793    34790 
   34785    34797    34805    34809    34821    34819    34811    34809 
   34796    34780    34763    34744    34742    34743    34736    34739 
   34740    34740    34750    34753    34758    34766    34763    34774 
   34789    34789    34788    34771    34749    34742    34724    34699 
   34677    34634    34582    34538    34496    34476    34472    34477 
   34500    34526    34562    34615    34666    34720    34774    34815 
   34863    34911    34942    34969    34982    34987    34998    34997 
   34985    34973    34948    34931    34923    34911    34904    34897 
   34882    34874    34870    34869    34878    34879    34875    34871 
   34855    34846    34839    34813    34792    34771    34750    34746 
   34754    34776    34815    34846    34882    34923    34952    34987 
   35014    35025    35031    35008    34963    34921    34863    34807 
   34766    34720    34685    34666    34649    34647    34658    34673 
   34695    34704    34713    34736    34755    34781    34815    34840 
   34870    34892    34898    34902    34892    34875    34861    34842 
   34843    34855    34852    34852    34852    34843    34846    34851 
   34861    34885    34898    34913    34938    34946    34944    34927 
   34885    34850    34816    34773    34736    34690    34643    34607 
   34568    34539    34526    34512    34518    34530    34534    34542 
   34546    34545    34550    34561    34585    34622    34655    34692 
   34734    34777    34834    34881    34920    34965    34996    35020 
   35052    35071    35087    35101    35089    35074    35046    35000 
   34959    34912    34858    34815    34763    34712    34677    34649 
   34635    34628    34612    34604    34597    34588    34591    34585 
   34578    34582    34587    34605    34639    34669    34712    34754 
   34792    34831    34859    34884    34912    34931    34959    35004 
   35043    35086    35124    35149    35181    35203    35214    35233 
   35244    35249    35263    35267    35272    35276    35268    35270 
   35274    35270    35278    35282    35282    35286    35276    35262 
   35249    35221    35191    35162    35128    35106    35081    35048 
   35024    34993    34952    34912    34858    34808    34771    34728 
   34692    34654    34611    34577    34547    34523    34510    34489 
   34479    34485    34491    34510    34538    34569    34623    34685 
   34742    34807    34862    34916    34974    35009    35036    35058 
   35059    35056    35043    35017    34996    34965    34925    34888 
   34842    34807    34781    34754    34734    34711    34681    34662 
   34639    34611    34593    34572    34557    34560    34565    34584 
   34608    34624    34651    34682    34708    34747    34785    34823 
   34870    34912    34958    35008    35041    35074    35101    35116 
   35136    35144    35137    35139    35131    35112    35090    35052 
   35009    34965    34911    34858    34800    34734    34680    34632 
   34596    34578    34562    34562    34574    34584    34611    34646 
   34676    34716    34746    34767    34804    34838    34870    34902 
   34921    34946    34975    34998    35032    35066    35083    35095 
   35093    35087    35090    35077    35067    35066    35048    35031 
   35008    34974    34944    34909    34874    34857    34842    34835 
   34842    34844    34859    34889    34915    34947    34977    34994 
