Origin Time       2025/01/13 21:19:00
Lat.              31.8
Long.             131.6
Depth. (km)       30
Mag.              6.9
Station Code      KOCH08
Station Lat.      32.7797
Station Long.     132.9718
Station Height(m) 5
Record Time       2025/01/13 21:20:03
Sampling Freq(Hz) 100Hz
Duration Time(s)  179
Dir.              6
Scale Factor      7845(gal)/8223790
Max. Acc. (gal)   2.182
Last Correction   2025/01/13 21:20:04
Memo.             
[...]
  -10359   -10030    -9994   -10160   -10378   -10478   -10368   -10145 
  -10031   -10131   -10405   -10712   -10736   -10351   -10018   -10112 
  -10287   -10130    -9919   -10152   -10723   -11040   -10783   -10338 
  -10351   -10858   -11165   -10891   -10489   -10471   -10698   -10750 
  -10566   -10424   -10474   -10602   -10654   -10558   -10444   -10538 
  -10727   -10694   -10498   -10339   -10158   -10029   -10200   -10534 
  -10656   -10582   -10569   -10575   -10438   -10343   -10504   -10714 
  -10719   -10548   -10311   -10145   -10285   -10720   -10962   -10644 
  -10203   -10351   -10935   -11141   -10783   -10467   -10566   -10825 
  -10918   -10872   -10808   -10611   -10289   -10235   -10640   -11011 
  -10793   -10254   -10135   -10525   -10849   -10719   -10260    -9996 
  -10338   -10941   -11059   -10577   -10111   -10126   -10482   -10818 
  -10939   -10783   -10435   -10227   -10408   -10673   -10498   -10060 
  -10133   -10804   -11118   -10567   -10008   -10311   -10980   -10976 
  -10266    -9806   -10061   -10355   -10126    -9859   -10052   -10323 
  -10199    -9895    -9864   -10149   -10501   -10635   -10416   -10160 
  -10280   -10623   -10702   -10426   -10226   -10500   -10989   -11053 
  -10594   -10199   -10338   -10824   -11098   -10841   -10347   -10227 
  -10558   -10721   -10380    -9942    -9876   -10088   -10238   -10242 
  -10165   -10088   -10249   -10654   -10736   -10200    -9702    -9931 
  -10457   -10359    -9813    -9842   -10539   -10933   -10682   -10471 
  -10706   -10963   -10912   -10777   -10732   -10670   -10589   -10608 
  -10716   -10812   -10843   -10725   -10450   -10338   -10624   -10917 
  -10731   -10224    -9976   -10218   -10602   -10762   -10732   -10656 
  -10519   -10338   -10260   -10350   -10434   -10309   -10046    -9879 
   -9855    -9829    -9850   -10152   -10535   -10536   -10330   -10476 
  -10879   -11006   -10818   -10739   -10895   -10974   -10737   -10374 
  -10343   -10740   -10995   -10721   -10312   -10238   -10513   -10825 
  -10754   -10361   -10228   -10507   -10647   -10238    -9661    -9648 
  -10211   -10581   -10400   -10237   -10566   -10978   -10889   -10466 
  -10296   -10532   -10859   -11016   -11030   -10967   -10881   -10895 
  -10943   -10774   -10477   -10436   -10736   -10951   -10673   -10127 
   -9938   -10303   -10787   -10903   -10638   -10365   -10332   -10374 
  -10277   -10176   -10284   -10540   -10706   -10588   -10336   -10415 
  -10849   -11144   -11068   -10868   -10849   -11038   -11055   -10585 
  -10022   -10049   -10674   -11156   -10947   -10397   -10246   -10632 
  -10928   -10458    -9568    -9472   -10407   -11086   -10692    -9972 
   -9896   -10332   -10412    -9886    -9462    -9674   -10180   -10300 
   -9852    -9445    -9701   -10281   -10450   -10216   -10183   -10565 
  -10975   -11034   -10824   -10739   -10968   -11195   -11014   -10555 
  -10401   -10829   -11340   -11241   -10594   -10130   -10334   -10966 
  -11259   -10737    -9992    -9969   -10450   -10357    -9501    -8854 
   -9147    -9933   -10211    -9844    -9740   -10384   -11118   -11191 
  -10746   -10507   -10789   -11102   -10851   -10206    -9927   -10281 
  -10698   -10725   -10570   -10567   -10756   -10937   -10821   -10399 
  -10115   -10339   -10793   -10941   -10777   -10804   -11223   -11519 
  -11214   -10671   -10528   -10713   -10612   -10034    -9622    -9904 
  -10395   -10457   -10319   -10492   -10871   -10835   -10214    -9778 
  -10075   -10536   -10509   -10300   -10458   -10716   -10559   -10260 
  -10296   -10504   -10601   -10636   -10658   -10628   -10542   -10446 
  -10449   -10561   -10665   -10638   -10428   -10165   -10099   -10342 
  -10671   -10602   -10022    -9634   -10035   -10696   -10805   -10521 
  -10469   -10714   -10925   -10836   -10404   -10077   -10328   -10735 
  -10619   -10247   -10188   -10204    -9923    -9671    -9810   -10091 
  -10218   -10227   -10220   -10316   -10590   -10870   -10962   -10916 
  -10864   -10967   -11288   -11480   -11118   -10446   -10104   -10237 
  -10450   -10443   -10272   -10170   -10326   -10660   -10821   -10570 
  -10162   -10035   -10211   -10320   -10184   -10064   -10206   -10390 
  -10293   -10080   -10169   -10516   -10708   -10721   -10856   -10998 
  -10760   -10269   -10150   -10666   -11342   -11551   -11172   -10716 
  -10770   -11140   -11064   -10426    -9960   -10196   -10864   -11276 
  -11034   -10474   -10349   -10833   -11176   -10889   -10520   -10567 
  -10675   -10451   -10118   -10164   -10648   -10962   -10608   -10011 
   -9995   -10601   -10997   -10706   -10188    -9882    -9736    -9733 
   -9895    -9968    -9863    -9913   -10187   -10208    -9787    -9526 
  -10002   -10779   -10854   -10107    -9544    -9778   -10305   -10528 
  -10439   -10291   -10215   -10142   -10068   -10197   -10516   -10651 
  -10443   -10243   -10463   -10964   -11172   -10813   -10296   -10343 
  -11020   -11422   -11056   -10578   -10542   -10714   -10741   -10538 
  -10384   -10677   -11257   -11454   -10994   -10428   -10359   -10521 
  -10328    -9964   -10073   -10660   -11064   -10990   -10860   -10940 
  -10886   -10463   -10089   -10312   -10893   -11018   -10581   -10315 
  -10540   -10771   -10640   -10449   -10615   -10987   -11013   -10471 
   -9865    -9911   -10565   -10975   -10674   -10072    -9734    -9919 
  -10413   -10631   -10382   -10079   -10123   -10570   -11013   -11010 
  -10737   -10609   -10743   -10998   -10983   -10539   -10212   -10525 
  -11125   -11180   -10585   -10154   -10324   -10511   -10197    -9775 
   -9832   -10150    -9994    -9393    -9262    -9857   -10316   -10147 
   -9967   -10430   -11269   -11641   -11230   -10663   -10643   -11142 
  -11558   -11466   -11221   -11240   -11114   -10534   -10079   -10172 
  -10485   -10642   -10669   -10729   -10824   -10908   -10967   -10929 
  -10845   -10898   -11048   -11070   -10814   -10343    -9968    -9938 
  -10154   -10388   -10520   -10505   -10332   -10112   -10107   -10428 
  -10679   -10409    -9940   -10008   -10585   -10806   -10276    -9652 
   -9709   -10314   -10737   -10697   -10578   -10682   -10851   -10801 
  -10443   -10068   -10129   -10504   -10579   -10170    -9760    -9826 
  -10234   -10484   -10430   -10401   -10563   -10623   -10411   -10276 
  -10534   -10863   -10728   -10212    -9960   -10284   -10773   -10955 
  -10845   -10609   -10358   -10376   -10750   -11074   -10968   -10439 
   -9848    -9678    -9907   -10075   -10068   -10158   -10476   -10828 
  -10948   -10840   -10735   -10804   -11047   -11222   -11053   -10578 
  -10120   -10061   -10515   -10945   -10714   -10089   -10021   -10813 
  -11596   -11400   -10407    -9706    -9981   -10731   -10948   -10463 
  -10077   -10299   -10720   -10831   -10578   -10211   -10195   -10719 
  -11155   -10928   -10400   -10129   -10091   -10023    -9890    -9929 
  -10397   -11134   -11556   -11256   -10573   -10322   -10805   -11357 
  -11267   -10786   -10665   -10908   -10874   -10554   -10617   -11086 
  -11226   -10883   -10683   -10794   -10727   -10420   -10343   -10538 
  -10581   -10388   -10309   -10423   -10432   -10393   -10629   -10844 
  -10546   -10203   -10490   -10847   -10432    -9661    -9441    -9838 
  -10261   -10297   -10184   -10476   -11044   -11095   -10558   -10262 
  -10462   -10517   -10195    -9953   -10066   -10323   -10389   -10165 
   -9873    -9769    -9952   -10389   -10791   -10852   -10747   -10890 
  -11250   -11275   -10710   -10150   -10214   -10682   -10966   -10855 
  -10546   -10343   -10435   -10669   -10667   -10369   -10111   -10084 
  -10146   -10166   -10270   -10574   -10810   -10670   -10400   -10455 
  -10771   -10887   -10611   -10289   -10287   -10469   -10557   -10555 
  -10524   -10399   -10265   -10328   -10516   -10577   -10523   -10482 
  -10349   -10112   -10172   -10701   -11140   -11001   -10702   -10849 
  -11276   -11384   -11021   -10673   -10758   -10997   -10878   -10385 
   -9981   -10092   -10602   -10966   -10932   -10779   -10790   -10949 
  -11129   -11202   -11107   -10974   -10870   -10593   -10116    -9865 
  -10137   -10620   -10847   -10856   -10928   -10909   -10443    -9709 
   -9355    -9736   -10353   -10314    -9556    -9117    -9707   -10585 
  -10675   -10247   -10227   -10492   -10377   -10095   -10166   -10484 
  -10720   -10719   -10461   -10269   -10588   -11296   -11716   -11518 
  -11214   -11300   -11392   -10914   -10017    -9333    -9358   -10006 
  -10554   -10432    -9898    -9594    -9721    -9910    -9818    -9733 
  -10179   -10916   -11037   -10295    -9632    -9996   -10955   -11140 
  -10311    -9815   -10405   -11043   -10581    -9463    -9069    -9882 
  -10989   -11303   -10708   -10069   -10245   -10924   -11105   -10727 
  -10605   -10957   -11029   -10345    -9720   -10141   -11041   -11125 
  -10485   -10343   -10914   -11115   -10439    -9825   -10169   -10889 
  -10785    -9875    -9452   -10156   -10959   -10737    -9942    -9778 
  -10446   -11032   -10790   -10165   -10222   -11094   -11739   -11442 
  -10737   -10503   -10736   -10840   -10662   -10557   -10717   -10787 
  -10258    -9381    -8997    -9297    -9734    -9980   -10010    -9765 
   -9412    -9379    -9791   -10253   -10328   -10015    -9697    -9776 
  -10274   -10723   -10731   -10511   -10498   -10675   -10600   -10123 
   -9875   -10478   -11358   -11484   -11098   -11186   -11678   -11777 
  -11421   -11159   -11195   -11222   -11072   -11002   -11079   -11041 
  -11078   -11496   -11673   -10962   -10157   -10309   -10912   -10868 
  -10285    -9983   -10099   -10168   -10046   -10021   -10204   -10320 
  -10115    -9795    -9837   -10358   -10939   -11136   -10964   -10659 
  -10338   -10242   -10655   -11245   -11317   -10771   -10174   -10015 
  -10307   -10705   -10752   -10264    -9668    -9666   -10354   -10976 
  -10879   -10500   -10654   -11068   -10810    -9999    -9760   -10532 
  -11458   -11597   -11005   -10431   -10318   -10365   -10308   -10409 
  -10685   -10693   -10412   -10253   -10404   -10643   -10557   -10200 
  -10251   -10941   -11476   -11084   -10095    -9479    -9741   -10575 
  -11202   -11043   -10462   -10235   -10350   -10270    -9981   -10018 
  -10565   -11036   -10895   -10473   -10459   -10899   -11194   -11037 
  -10887   -11210   -11658   -11487   -10725   -10234   -10347   -10350 
   -9810    -9381    -9629   -10098   -10251   -10203   -10145   -10206 
  -10469   -10523   -10112    -9852   -10131   -10463   -10436   -10249 
  -10260   -10442   -10466   -10173    -9761    -9620    -9898   -10277 
  -10515   -10615   -10512   -10370   -10573   -11053   -11426   -11534 
  -11457   -11325   -11338   -11653   -11898   -11469   -10592   -10212 
  -10631   -11090   -10964   -10732   -11059   -11466   -11256   -10891 
  -11065   -11354   -11016   -10446   -10557   -10980   -10669    -9994 
  -10129   -10762   -10697   -10046    -9828   -10231   -10673   -10768 
  -10627   -10424   -10092    -9768    -9975   -10677   -11045   -10648 
  -10015    -9697    -9552    -9355    -9321    -9601    -9906    -9930 
   -9810    -9894   -10061    -9914    -9634    -9734   -10116   -10246 
   -9996    -9721    -9668    -9819   -10107   -10188    -9594    -8775 
   -8870    -9975   -10798   -10507    -9778    -9594    -9923   -10185 
  -10330   -10763   -11446   -11846   -11707   -11341   -11223   -11477 
  -11750   -11782   -11730   -11634   -11462   -11554   -12077   -12460 
  -12195   -11612   -11345   -11551   -11777   -11367   -10265    -9265 
   -9034    -9344    -9566    -9513    -9590    -9998   -10230    -9977 
   -9767   -10039   -10435   -10423    -9998    -9482    -9092    -8995 
   -9389   -10098   -10539   -10471   -10308   -10412   -10601   -10570 
  -10347   -10201   -10296   -10359    -9985    -9522    -9749   -10450 
  -10617   -10111    -9774    -9948   -10158   -10131   -10046    -9961 
   -9703    -9246    -8914    -9158    -9890   -10444   -10571   -10673 
  -10951   -11146   -10955   -10428   -10026   -10058   -10255   -10250 
  -10174   -10374   -10778   -11026   -11117   -11329   -11551   -11453 
  -11226   -11307   -11538   -11423   -11025   -10820   -10916   -11010 
  -10966   -10939   -10956   -10795   -10477   -10304   -10274   -10103 
   -9792    -9664    -9907   -10332   -10627   -10750   -10928   -11340 
  -11813   -11901   -11512   -11114   -11121   -11476   -11757   -11645 
  -11450   -11665   -12012   -11858   -11317   -11090   -11403   -11738 
  -11650   -11353   -11184   -11082   -10929   -10808   -10725   -10667 
  -10854   -11159   -10878   -10023    -9652   -10191   -10773   -10528 
   -9730    -9441   -10037   -10770   -11021   -10941   -10766   -10490 
  -10208   -10172   -10288   -10115    -9659    -9471    -9865   -10463 
  -10635   -10349   -10174   -10346   -10513   -10423   -10197   -10077 
  -10168   -10316   -10336   -10384   -10538   -10436   -10116   -10141 
  -10390   -10322   -10116   -10107   -10004    -9620    -9323    -9443 
   -9779    -9837    -9582    -9533    -9823    -9994   -10012   -10332 
  -10808   -10759   -10099    -9622    -9904   -10401   -10431   -10400 
  -10832   -11211   -11047   -10825   -10948   -11028   -10864   -10808 
  -10851   -10652   -10435   -10629   -10964   -10847   -10392   -10339 
  -10858   -11252   -11152   -10976   -10966   -10771   -10220    -9798 
   -9942   -10301   -10277    -9976    -9896   -10025    -9960    -9809 
  -10081   -10566   -10415    -9547    -8981    -9594   -10951   -11577 
  -10696    -9142    -8206    -8371    -9248    -9984   -10053    -9956 
  -10444   -11279   -11572   -11099   -10601   -10710   -11106   -11175 
  -11061   -11188   -11249   -10902   -10697   -11020   -11109   -10330 
   -9397    -9208    -9435    -9364    -9132    -9292    -9931   -10543 
  -10654   -10611   -11001   -11453   -11267   -10727   -10606   -11009 
  -11368   -11186   -10581   -10183   -10354   -10732   -10878   -10984 
  -11202   -11072   -10497   -10102   -10237   -10625   -10800   -10496 
  -10002    -9979   -10655   -11357   -11217   -10446   -10166   -10774 
  -11487   -11529   -10964   -10287    -9798    -9672    -9930   -10269 
  -10501   -10825   -11299   -11503   -11044   -10243    -9963   -10489 
  -11036   -10782   -10018    -9725   -10116   -10373    -9994    -9497 
   -9516    -9782    -9501    -8671    -8232    -8640    -9298    -9609 
   -9705   -10085   -10782   -11138   -10638    -9749    -9513   -10184 
  -10801   -10582   -10000    -9829    -9994    -9904    -9433    -9232 
   -9880   -10866   -11140   -10656   -10347   -10669   -11068   -10929 
  -10449   -10434   -11133   -11638   -11149   -10255   -10110   -10922 
  -11754   -11638   -10750   -10130   -10289   -10682   -10588   -10077 
   -9752    -9825   -10052   -10292   -10454   -10373   -10218   -10372 
  -10783   -10979   -10793   -10685   -11041   -11473   -11379   -10963 
  -10962   -11472   -11784   -11454   -10905   -10740   -10891   -10882 
  -10693   -10737   -11032   -11136   -10876   -10623   -10658   -10709 
  -10559   -10519   -10731   -10795   -10488   -10187   -10312   -10667 
  -10690   -10253    -9790    -9701    -9883    -9987   -10045   -10315 
  -10636   -10660   -10554   -10720   -10916   -10516    -9803    -9826 
  -10621   -11024   -10650   -10354   -10540   -10640   -10278    -9834 
   -9741    -9940   -10227   -10521   -10570   -10312   -10289   -10902 
  -11742   -12070   -11677   -11119   -11067   -11491   -11645   -11141 
  -10616   -10582   -10577   -10389   -10573   -11075   -11061   -10345 
   -9733    -9836   -10272   -10378   -10332   -10747   -11414   -11557 
  -11171   -10976   -11227   -11416   -11125   -10613   -10415   -10615 
  -10813   -10710   -10434   -10305   -10473   -10677   -10474    -9888 
   -9607   -10114   -10901   -11072   -10505    -9954   -10110   -10843 
  -11345   -11049   -10389   -10234   -10655   -10886   -10523   -10034 
   -9985   -10320   -10469   -10029    -9425    -9502   -10230   -10608 
  -10165    -9572    -9504    -9698    -9559    -9190    -9271    -9958 
  -10496   -10293    -9813    -9817   -10353   -10933   -11155   -10979 
  -10752   -10871   -11269   -11476   -11240   -10825   -10665   -10851 
  -11029   -10874   -10620   -10721   -11047   -11107   -10794   -10376 
  -10107    -9985    -9868    -9740    -9587    -9402    -9428    -9826 
  -10355   -10782   -11102   -11269   -11168   -10852   -10643   -10824 
  -11200   -11300   -11056   -10854   -10943   -11122   -11018   -10612 
  -10273   -10249   -10423   -10542   -10531   -10524   -10507   -10320 
  -10153   -10342   -10800   -11128   -11018   -10461    -9859    -9749 
  -10100   -10216    -9744    -9251    -9290    -9609    -9713    -9633 
   -9786   -10216   -10442   -10324   -10293   -10415   -10238    -9612 
   -8966    -8776    -8968    -9134    -9184    -9327    -9583    -9740 
   -9672    -9447    -9175    -8993    -9188    -9910   -10705   -10840 
  -10296    -9971   -10453   -11118   -11087   -10598   -10646   -11290 
  -11441   -10694   -10116   -10582   -11457   -11670   -11288   -11263 
  -11928   -12514   -12271   -11546   -11233   -11546   -11959   -12094 
  -12087   -12132   -12105   -11834   -11441   -11156   -11102   -11261 
  -11365   -11148   -10786   -10628   -10625   -10380    -9740    -9170 
   -9155    -9464    -9479    -9016    -8623    -8989    -9944   -10500 
  -10120    -9335    -8969    -9267    -9834   -10100    -9853    -9585 
   -9910   -10539   -10671   -10223    -9802    -9718    -9721    -9643 
   -9756   -10207   -10656   -10851   -10972   -11259   -11655   -11985 
  -12168   -12073   -11576   -11017   -10922   -11214   -11365   -11223 
  -11119   -11249   -11367   -11168   -10813   -10698   -10820   -10858 
  -10665   -10417   -10357   -10349    -9998    -9432    -9379   -10127 
  -10930   -10879   -10230   -10038   -10474   -10794   -10696   -10543 
  -10651   -10909   -10933   -10617   -10287   -10173   -10153   -10065 
   -9871    -9583    -9348    -9312    -9317    -9185    -9163    -9591 
  -10261   -10558   -10269    -9946   -10264   -11091   -11516   -11020 
  -10254   -10129   -10629   -11018   -10918   -10747   -10953   -11268 
  -11265   -11179   -11418   -11801   -11873   -11581   -11245   -11153 
  -11376   -11676   -11672   -11227   -10665   -10477   -10642   -10582 
  -10079    -9649    -9763   -10203   -10403   -10227   -10162   -10524 
  -10883   -10794   -10504   -10388   -10347   -10158    -9869    -9670 
   -9664    -9718    -9629    -9508    -9683   -10180   -10531   -10320 
   -9734    -9409    -9790   -10655   -11223   -11021   -10497   -10382 
  -10733   -11041   -10967   -10639   -10397   -10395   -10400   -10218 
  -10176   -10667   -11381   -11691   -11572   -11595   -12089   -12676 
  -12756   -12316   -11943   -11932   -11813   -11163   -10427   -10280 
  -10558   -10577   -10174    -9807    -9841   -10142   -10315   -10160 
   -9829    -9666    -9914   -10434   -10778   -10683   -10465   -10670 
  -11199   -11294   -10724   -10201   -10301   -10716   -10800   -10439 
  -10056    -9913    -9840    -9652    -9452    -9400    -9370    -9150 
   -8864    -8833    -9127    -9512    -9755    -9788    -9620    -9309 
   -9104    -9244    -9560    -9601    -9333    -9185    -9277    -9315 
   -9325    -9676   -10288   -10602   -10412   -10118   -10162   -10550 
  -10968   -11214   -11257   -11157   -11082   -11146   -11236   -11142 
