Origin Time       2025/01/13 21:19:00
Lat.              31.8
Long.             131.6
Depth. (km)       30
Mag.              6.9
Station Code      KOCH01
Station Lat.      33.5421
Station Long.     134.1197
Station Height(m) 35
Record Time       2025/01/13 21:20:40
Sampling Freq(Hz) 100Hz
Duration Time(s)  120
Dir.              2
Scale Factor      2942(gal)/8224139
Max. Acc. (gal)   0.344
Last Correction   2025/01/13 21:20:41
Memo.             
[...]
 -146732  -146669  -146605  -146583  -146603  -146627  -146632  -146626 
 -146616  -146605  -146592  -146597  -146632  -146677  -146727  -146765 
 -146769  -146782  -146835  -146862  -146855  -146847  -146812  -146763 
 -146750  -146773  -146815  -146863  -146901  -146928  -146951  -146961 
 -146959  -146958  -146978  -147017  -147027  -146993  -146936  -146881 
 -146857  -146859  -146863  -146877  -146892  -146892  -146901  -146920 
 -146923  -146909  -146881  -146853  -146874  -146931  -146973  -147017 
 -147066  -147086  -147067  -147020  -146963  -146920  -146882  -146843 
 -146827  -146815  -146789  -146777  -146772  -146759  -146777  -146811 
 -146808  -146766  -146720  -146708  -146738  -146767  -146777  -146793 
 -146792  -146765  -146751  -146732  -146672  -146589  -146512  -146462 
 -146452  -146458  -146465  -146472  -146473  -146460  -146453  -146473 
 -146516  -146557  -146581  -146607  -146655  -146700  -146731  -146759 
 -146766  -146754  -146731  -146673  -146596  -146546  -146524  -146529 
 -146541  -146519  -146477  -146461  -146469  -146492  -146543  -146595 
 -146618  -146632  -146635  -146630  -146646  -146668  -146666  -146639 
 -146610  -146601  -146600  -146585  -146572  -146573  -146587  -146614 
 -146632  -146635  -146664  -146722  -146763  -146781  -146778  -146743 
 -146707  -146708  -146753  -146823  -146884  -146908  -146911  -146912 
 -146890  -146846  -146819  -146821  -146821  -146807  -146797  -146813 
 -146842  -146846  -146815  -146773  -146751  -146755  -146773  -146785 
 -146777  -146759  -146739  -146711  -146670  -146657  -146688  -146734 
 -146765  -146778  -146778  -146766  -146757  -146755  -146753  -146743 
 -146728  -146724  -146739  -146750  -146730  -146692  -146672  -146686 
 -146707  -146693  -146665  -146651  -146641  -146614  -146595  -146587 
 -146589  -146627  -146701  -146762  -146780  -146777  -146774  -146749 
 -146699  -146653  -146630  -146632  -146666  -146715  -146743  -146754 
 -146758  -146749  -146743  -146757  -146769  -146788  -146817  -146842 
 -146850  -146842  -146835  -146847  -146871  -146886  -146878  -146847 
 -146799  -146746  -146711  -146709  -146736  -146761  -146755  -146735 
 -146734  -146742  -146724  -146680  -146638  -146611  -146576  -146526 
 -146479  -146454  -146465  -146504  -146550  -146583  -146593  -146591 
 -146580  -146554  -146537  -146547  -146564  -146580  -146600  -146603 
 -146577  -146537  -146492  -146464  -146446  -146423  -146415  -146408 
 -146380  -146372  -146404  -146437  -146461  -146500  -146543  -146583 
 -146608  -146615  -146614  -146611  -146597  -146574  -146535  -146476 
 -146423  -146404  -146411  -146433  -146450  -146456  -146468  -146492 
 -146519  -146556  -146591  -146624  -146685  -146740  -146751  -146757 
 -146780  -146803  -146828  -146835  -146801  -146780  -146797  -146834 
 -146896  -146977  -147044  -147101  -147151  -147178  -147187  -147186 
 -147186  -147206  -147225  -147220  -147206  -147194  -147175  -147159 
 -147139  -147116  -147101  -147087  -147079  -147082  -147082  -147066 
 -147036  -147004  -146986  -146975  -146969  -146967  -146942  -146896 
 -146857  -146811  -146751  -146693  -146631  -146570  -146534  -146531 
 -146560  -146607  -146643  -146654  -146646  -146623  -146603  -146608 
 -146622  -146615  -146605  -146607  -146616  -146626  -146626  -146611 
 -146585  -146566  -146568  -146593  -146641  -146692  -146712  -146704 
 -146703  -146718  -146754  -146801  -146832  -146835  -146820  -146796 
 -146762  -146736  -146730  -146723  -146722  -146732  -146750  -146773 
 -146781  -146767  -146751  -146735  -146707  -146680  -146672  -146655 
 -146622  -146591  -146564  -146539  -146534  -146534  -146529  -146527 
 -146519  -146497  -146468  -146450  -146458  -146483  -146493  -146481 
 -146456  -146429  -146411  -146410  -146419  -146433  -146442  -146453 
 -146470  -146500  -146534  -146568  -146596  -146616  -146619  -146601 
 -146578  -146553  -146535  -146538  -146541  -146533  -146542  -146576 
 -146607  -146610  -146584  -146554  -146530  -146504  -146499  -146533 
 -146583  -146631  -146676  -146700  -146699  -146691  -146693  -146705 
 -146713  -146712  -146711  -146715  -146727  -146730  -146720  -146713 
 -146712  -146695  -146662  -146637  -146634  -146658  -146682  -146686 
 -146686  -146701  -146724  -146754  -146800  -146850  -146877  -146884 
 -146881  -146862  -146832  -146804  -146780  -146765  -146762  -146755 
 -146736  -146720  -146718  -146740  -146776  -146797  -146813  -146836 
 -146866  -146901  -146911  -146893  -146877  -146865  -146859  -146859 
 -146847  -146813  -146774  -146755  -146750  -146745  -146747  -146763 
 -146782  -146800  -146817  -146832  -146838  -146834  -146826  -146813 
 -146804  -146803  -146808  -146805  -146781  -146751  -146732  -146707 
 -146664  -146628  -146619  -146638  -146681  -146726  -146757  -146773 
 -146786  -146808  -146828  -146835  -146844  -146871  -146902  -146920 
 -146924  -146913  -146880  -146836  -146793  -146765  -146755  -146743 
 -146715  -146681  -146661  -146665  -146686  -146712  -146743  -146772 
 -146778  -146767  -146754  -146742  -146730  -146722  -146720  -146723 
 -146730  -146740  -146739  -146719  -146686  -146669  -146670  -146681 
 -146712  -146751  -146772  -146781  -146788  -146790  -146804  -146826 
 -146858  -146901  -146942  -146965  -146969  -146962  -146954  -146944 
 -146934  -146932  -146944  -146962  -146973  -146974  -146951  -146919 
 -146896  -146867  -146836  -146826  -146826  -146826  -146816  -146788 
 -146757  -146735  -146716  -146696  -146680  -146658  -146624  -146587 
 -146547  -146508  -146479  -146454  -146429  -146419  -146438  -146470 
 -146491  -146491  -146491  -146503  -146510  -146504  -146499  -146508 
 -146524  -146545  -146572  -146600  -146612  -146614  -146615  -146616 
 -146612  -146605  -146603  -146611  -146622  -146634  -146661  -146700 
 -146740  -146767  -146766  -146757  -146769  -146801  -146836  -146858 
 -146866  -146870  -146874  -146886  -146897  -146900  -146905  -146913 
 -146909  -146874  -146817  -146770  -146746  -146740  -146746  -146749 
 -146746  -146739  -146728  -146711  -146686  -146678  -146682  -146681 
 -146684  -146689  -146680  -146658  -146631  -146603  -146593  -146593 
 -146589  -146589  -146597  -146604  -146610  -146626  -146641  -146645 
 -146659  -146677  -146685  -146707  -146731  -146727  -146728  -146753 
 -146789  -146834  -146866  -146875  -146880  -146890  -146909  -146936 
 -146969  -146998  -147031  -147056  -147069  -147081  -147093  -147089 
 -147081  -147074  -147066  -147069  -147082  -147089  -147083  -147081 
 -147082  -147077  -147059  -147033  -147005  -146981  -146951  -146907 
 -146850  -146784  -146726  -146707  -146719  -146731  -146743  -146753 
 -146742  -146726  -146720  -146711  -146682  -146643  -146608  -146576 
 -146560  -146562  -146570  -146581  -146591  -146588  -146581  -146593 
 -146614  -146623  -146626  -146624  -146626  -146637  -146654  -146672 
 -146695  -146719  -146727  -146728  -146722  -146697  -146677  -146681 
 -146686  -146685  -146688  -146693  -146696  -146688  -146680  -146689 
 -146709  -146720  -146726  -146723  -146713  -146708  -146707  -146713 
 -146730  -146740  -146751  -146757  -146740  -146715  -146688  -146645 
 -146603  -146584  -146570  -146547  -146523  -146510  -146511  -146510 
 -146502  -146496  -146508  -146538  -146572  -146596  -146619  -146653 
 -146677  -146691  -146716  -146747  -146763  -146769  -146765  -146757 
 -146745  -146709  -146677  -146674  -146697  -146726  -146742  -146739 
 -146736  -146746  -146763  -146781  -146782  -146765  -146739  -146712 
 -146693  -146676  -146647  -146607  -146564  -146531  -146512  -146500 
 -146496  -146488  -146473  -146465  -146466  -146461  -146453  -146450 
 -146442  -146430  -146430  -146423  -146402  -146387  -146381  -146369 
 -146358  -146357  -146361  -146364  -146377  -146410  -146445  -146464 
 -146470  -146473  -146476  -146488  -146512  -146531  -146531  -146503 
 -146461  -146431  -146419  -146406  -146388  -146387  -146403  -146418 
 -146431  -146450  -146460  -146472  -146497  -146508  -146499  -146491 
 -146485  -146473  -146470  -146476  -146480  -146491  -146503  -146516 
 -146543  -146572  -146592  -146608  -146626  -146646  -146674  -146705 
 -146742  -146790  -146842  -146882  -146912  -146932  -146951  -146971 
 -146990  -147010  -147033  -147058  -147071  -147070  -147066  -147060 
 -147063  -147071  -147081  -147089  -147085  -147070  -147064  -147063 
 -147056  -147046  -147037  -147042  -147055  -147055  -147043  -147036 
 -147033  -147028  -147023  -147008  -146989  -146985  -146985  -146986 
 -146989  -146985  -146970  -146954  -146943  -146935  -146921  -146897 
 -146862  -146828  -146811  -146807  -146799  -146789  -146784  -146773 
 -146755  -146740  -146728  -146715  -146707  -146695  -146662  -146620 
 -146589  -146569  -146557  -146550  -146537  -146519  -146511  -146508 
 -146512  -146527  -146547  -146572  -146597  -146622  -146649  -146677 
 -146703  -146732  -146762  -146786  -146817  -146843  -146844  -146838 
 -146835  -146838  -146857  -146885  -146913  -146943  -146966  -146977 
 -146988  -146996  -147001  -147015  -147031  -147036  -147046  -147070 
 -147098  -147124  -147137  -147135  -147137  -147151  -147167  -147185 
 -147201  -147202  -147190  -147186  -147193  -147190  -147182  -147189 
 -147197  -147197  -147193  -147191  -147189  -147185  -147183  -147190 
 -147202  -147214  -147220  -147220  -147216  -147212  -147217  -147232 
 -147244  -147256  -147263  -147259  -147236  -147201  -147167  -147141 
 -147113  -147085  -147052  -147012  -146979  -146963  -146942  -146915 
 -146892  -146874  -146859  -146847  -146842  -146850  -146878  -146908 
 -146913  -146904  -146897  -146890  -146877  -146861  -146853  -146858 
 -146865  -146865  -146867  -146874  -146880  -146886  -146888  -146881 
 -146873  -146863  -146851  -146842  -146843  -146848  -146847  -146838 
 -146824  -146813  -146800  -146778  -146765  -146753  -146728  -146699 
 -146673  -146649  -146630  -146619  -146608  -146596  -146599  -146622 
 -146641  -146651  -146676  -146704  -146724  -146735  -146734  -146716 
 -146684  -146649  -146627  -146608  -146581  -146554  -146531  -146512 
 -146495  -146466  -146439  -146427  -146421  -146412  -146414  -146421 
 -146429  -146441  -146442  -146425  -146403  -146377  -146345  -146314 
 -146292  -146271  -146250  -146248  -146254  -146261  -146279  -146303 
 -146322  -146342  -146365  -146377  -146379  -146380  -146388  -146404 
 -146423  -146443  -146470  -146499  -146523  -146553  -146588  -146610 
 -146616  -146630  -146654  -146684  -146719  -146751  -146773  -146794 
 -146823  -146861  -146900  -146925  -146934  -146936  -146943  -146943 
 -146936  -146924  -146909  -146890  -146865  -146839  -146817  -146796 
 -146777  -146762  -146751  -146747  -146750  -146761  -146773  -146770 
 -146763  -146762  -146767  -146770  -146767  -146758  -146746  -146735 
 -146735  -146736  -146736  -146743  -146759  -146786  -146820  -146848 
 -146874  -146913  -146952  -146979  -147006  -147025  -147033  -147046 
 -147066  -147074  -147070  -147074  -147086  -147096  -147104  -147118 
 -147133  -147151  -147167  -147179  -147191  -147212  -147233  -147243 
 -147237  -147231  -147229  -147224  -147217  -147222  -147228  -147224 
 -147216  -147202  -147183  -147167  -147154  -147141  -147131  -147131 
 -147145  -147164  -147175  -147183  -147190  -147190  -147191  -147202 
 -147212  -147209  -147195  -147171  -147140  -147120  -147109  -147091 
 -147070  -147059  -147052  -147040  -147023  -147005  -146988  -146965 
 -146956  -146967  -146973  -146969  -146969  -146966  -146965  -146971 
 -146974  -146955  -146923  -146890  -146861  -146834  -146821  -146820 
 -146813  -146794  -146766  -146732  -146709  -146705  -146713  -146722 
 -146720  -146704  -146676  -146650  -146628  -146616  -146614  -146607 
 -146597  -146591  -146581  -146560  -146534  -146510  -146483  -146460 
 -146450  -146453  -146469  -146492  -146504  -146507  -146518  -146527 
 -146524  -146514  -146500  -146492  -146495  -146497  -146484  -146462 
 -146452  -146450  -146445  -146445  -146443  -146433  -146431  -146437 
 -146434  -146425  -146412  -146400  -146388  -146376  -146368  -146362 
 -146364  -146369  -146372  -146375  -146375  -146381  -146395  -146402 
 -146396  -146396  -146410  -146431  -146449  -146461  -146472  -146483 
 -146487  -146488  -146491  -146496  -146503  -146519  -146541  -146556 
 -146568  -146581  -146596  -146605  -146608  -146597  -146578  -146561 
 -146546  -146535  -146533  -146537  -146543  -146543  -146542  -146553 
 -146569  -146588  -146605  -146623  -146639  -146653  -146674  -146697 
 -146712  -146723  -146734  -146736  -146739  -146746  -146750  -146757 
 -146767  -146776  -146784  -146793  -146800  -146808  -146821  -146830 
 -146830  -146823  -146808  -146786  -146772  -146757  -146736  -146720 
 -146708  -146701  -146711  -146727  -146747  -146785  -146824  -146858 
 -146898  -146942  -146979  -147009  -147024  -147031  -147042  -147051 
 -147059  -147067  -147081  -147105  -147133  -147158  -147183  -147201 
 -147199  -147198  -147209  -147220  -147225  -147220  -147194  -147167 
 -147147  -147114  -147071  -147021  -146958  -146892  -146836  -146784 
 -146730  -146678  -146622  -146566  -146515  -146460  -146406  -146360 
 -146319  -146276  -146236  -146194  -146146  -146094  -146045  -146011 
 -145984  -145957  -145933  -145905  -145866  -145827  -145794  -145771 
 -145758  -145748  -145748  -145755  -145762  -145774  -145789  -145798 
 -145798  -145802  -145806  -145813  -145831  -145854  -145874  -145897 
 -145921  -145945  -145978  -146021  -146067  -146111  -146151  -146186 
 -146225  -146260  -146291  -146335  -146396  -146462  -146526  -146578 
 -146620  -146664  -146704  -146736  -146765  -146788  -146803  -146827 
 -146862  -146898  -146931  -146962  -146998  -147037  -147066  -147087 
 -147113  -147129  -147143  -147166  -147181  -147193  -147225  -147272 
 -147317  -147356  -147383  -147398  -147414  -147433  -147441  -147441 
 -147438  -147430  -147422  -147424  -147429  -147429  -147433  -147444 
 -147453  -147457  -147457  -147459  -147459  -147465  -147469  -147463 
 -147452  -147436  -147409  -147382  -147344  -147293  -147252  -147220 
 -147185  -147154  -147132  -147106  -147078  -147058  -147037  -147009 
 -146973  -146944  -146929  -146924  -146916  -146902  -146882  -146857 
 -146830  -146809  -146792  -146772  -146746  -146723  -146705  -146693 
 -146682  -146677  -146672  -146658  -146643  -146627  -146604  -146574 
 -146547  -146531  -146515  -146495  -146480  -146472  -146470  -146470 
 -146462  -146445  -146427  -146412  -146399  -146383  -146357  -146334 
 -146321  -146307  -146288  -146281  -146283  -146286  -146294  -146296 
 -146288  -146280  -146275  -146269  -146280  -146306  -146333  -146360 
 -146384  -146400  -146414  -146425  -146429  -146439  -146454  -146465 
 -146485  -146516  -146546  -146572  -146601  -146628  -146657  -146688 
 -146712  -146730  -146746  -146762  -146774  -146790  -146812  -146839 
 -146870  -146904  -146939  -146974  -147006  -147029  -147040  -147039 
 -147036  -147032  -147012  -146985  -146958  -146927  -146902  -146882 
 -146858  -146839  -146827  -146811  -146800  -146786  -146769  -146755 
 -146738  -146707  -146680  -146650  -146611  -146576  -146542  -146502 
 -146460  -146415  -146365  -146317  -146272  -146230  -146192  -146151 
 -146110  -146082  -146064  -146047  -146030  -146018  -146011  -146021 
 -146036  -146047  -146059  -146070  -146074  -146075  -146072  -146070 
 -146068  -146063  -146053  -146051  -146065  -146090  -146114  -146138 
 -146161  -146182  -146206  -146234  -146260  -146292  -146334  -146377 
 -146418  -146454  -146484  -146510  -146534  -146554  -146568  -146576 
 -146581  -146588  -146599  -146608  -146610  -146615  -146622  -146624 
 -146627  -146630  -146639  -146654  -146664  -146666  -146669  -146674 
 -146682  -146704  -146736  -146763  -146781  -146796  -146813  -146830 
 -146840  -146851  -146858  -146863  -146874  -146890  -146902  -146911 
 -146917  -146929  -146943  -146965  -146993  -147016  -147040  -147067 
 -147094  -147124  -147152  -147175  -147202  -147231  -147249  -147274 
 -147312  -147347  -147375  -147399  -147418  -147432  -147442  -147453 
 -147455  -147460  -147474  -147488  -147514  -147550  -147587  -147613 
 -147630  -147644  -147654  -147652  -147640  -147629  -147625  -147629 
 -147630  -147618  -147595  -147563  -147522  -147476  -147434  -147402 
 -147364  -147316  -147267  -147225  -147183  -147137  -147089  -147040 
 -146989  -146934  -146871  -146820  -146790  -146769  -146746  -146723 
 -146695  -146664  -146641  -146626  -146622  -146626  -146630  -146632 
 -146632  -146635  -146642  -146649  -146657  -146673  -146685  -146695 
 -146705  -146712  -146712  -146712  -146705  -146697  -146688  -146670 
 -146650  -146641  -146637  -146632  -146638  -146642  -146637  -146631 
 -146631  -146628  -146620  -146610  -146599  -146588  -146572  -146547 
 -146520  -146491  -146460  -146429  -146398  -146377  -146362  -146344 
 -146326  -146314  -146307  -146314  -146323  -146331  -146338  -146341 
 -146335  -146325  -146310  -146287  -146259  -146227  -146199  -146171 
 -146149  -146140  -146134  -146132  -146133  -146134  -146137  -146149 
 -146164  -146183  -146218  -146263  -146310  -146352  -146384  -146406 
 -146418  -146419  -146425  -146441  -146460  -146470  -146480  -146495 
 -146515  -146539  -146557  -146564  -146569  -146573  -146580  -146591 
 -146604  -146616  -146627  -146634  -146650  -146673  -146685  -146684 
 -146681  -146678  -146672  -146665  -146661  -146657  -146650  -146646 
 -146642  -146632  -146618  -146600  -146588  -146580  -146568  -146551 
 -146541  -146531  -146518  -146506  -146497  -146495  -146499  -146506 
 -146508  -146511  -146516  -146523  -146527  -146529  -146534  -146541 
 -146551  -146565  -146574  -146577  -146578  -146577  -146572  -146572 
 -146581  -146591  -146597  -146608  -146622  -146638  -146658  -146677 
 -146695  -146716  -146738  -146755  -146773  -146797  -146831  -146863 
 -146882  -146889  -146892  -146893  -146896  -146896  -146885  -146865 
 -146850  -146839  -146835  -146842  -146847  -146854  -146866  -146873 
 -146878  -146888  -146897  -146915  -146927  -146928  -146932  -146944 
 -146959  -146970  -146966  -146950  -146929  -146909  -146886  -146862 
 -146835  -146807  -146781  -146761  -146750  -146742  -146734  -146734 
 -146740  -146749  -146758  -146765  -146770  -146781  -146793  -146799 
 -146797  -146805  -146817  -146821  -146819  -146808  -146789  -146773 
 -146757  -146740  -146732  -146731  -146726  -146724  -146726  -146712 
 -146699  -146692  -146684  -146676  -146673  -146670  -146669  -146666 
 -146665  -146668  -146669  -146664  -146662  -146662  -146658  -146654 
 -146646  -146635  -146630  -146627  -146618  -146610  -146603  -146593 
 -146578  -146564  -146553  -146551  -146564  -146580  -146589  -146588 
 -146577  -146560  -146542  -146526  -146507  -146488  -146476  -146477 
 -146487  -146493  -146491  -146480  -146466  -146454  -146446  -146439 
 -146433  -146422  -146407  -146398  -146392  -146383  -146371  -146362 
 -146356  -146352  -146352  -146358  -146365  -146368  -146365  -146356 
 -146344  -146334  -146323  -146315  -146310  -146304  -146298  -146287 
