Origin Time       2025/01/13 21:19:00
Lat.              31.8
Long.             131.6
Depth. (km)       30
Mag.              6.9
Station Code      KOCH10
Station Lat.      33.5313
Station Long.     133.4388
Station Height(m) 10
Record Time       2025/01/13 21:20:21
Sampling Freq(Hz) 100Hz
Duration Time(s)  164
Dir.              5
Scale Factor      7845(gal)/8223790
Max. Acc. (gal)   0.882
Last Correction   2025/01/13 21:20:21
Memo.             
[...]
  -11005   -10967   -10916   -10889   -10895   -10918   -10943   -10949 
  -10922   -10876   -10833   -10791   -10751   -10733   -10736   -10747 
  -10771   -10795   -10816   -10835   -10849   -10868   -10908   -10956 
  -11001   -11037   -11064   -11091   -11122   -11145   -11163   -11187 
  -11221   -11257   -11277   -11277   -11263   -11241   -11229   -11229 
  -11233   -11232   -11205   -11148   -11082   -11018   -10963   -10922 
  -10897   -10889   -10901   -10924   -10937   -10935   -10933   -10953 
  -10980   -10980   -10944   -10890   -10841   -10813   -10810   -10825 
  -10840   -10847   -10858   -10874   -10891   -10922   -10975   -11032 
  -11078   -11124   -11176   -11223   -11256   -11272   -11273   -11273 
  -11290   -11318   -11345   -11362   -11371   -11376   -11383   -11400 
  -11425   -11438   -11434   -11406   -11352   -11288   -11230   -11196 
  -11187   -11179   -11163   -11145   -11136   -11133   -11130   -11124 
  -11130   -11159   -11200   -11238   -11267   -11273   -11245   -11203 
  -11173   -11149   -11132   -11119   -11109   -11105   -11105   -11111 
  -11133   -11165   -11202   -11241   -11287   -11356   -11443   -11527 
  -11585   -11615   -11627   -11641   -11651   -11639   -11591   -11523 
  -11450   -11375   -11304   -11248   -11217   -11215   -11227   -11232 
  -11229   -11227   -11230   -11233   -11237   -11252   -11284   -11331 
  -11399   -11489   -11588   -11654   -11678   -11668   -11616   -11551 
  -11520   -11518   -11515   -11503   -11472   -11433   -11412   -11411 
  -11412   -11408   -11400   -11406   -11421   -11425   -11408   -11372 
  -11338   -11317   -11296   -11286   -11295   -11303   -11284   -11226 
  -11142   -11072   -11053   -11084   -11130   -11160   -11159   -11138 
  -11113   -11094   -11097   -11114   -11125   -11129   -11132   -11128 
  -11125   -11137   -11156   -11176   -11213   -11257   -11288   -11310 
  -11322   -11330   -11346   -11365   -11385   -11421   -11462   -11484 
  -11481   -11479   -11489   -11508   -11514   -11480   -11410   -11315 
  -11206   -11094   -10995   -10918   -10858   -10818   -10798   -10774 
  -10746   -10737   -10760   -10809   -10874   -10937   -10980   -11011 
  -11048   -11099   -11161   -11232   -11299   -11348   -11375   -11384 
  -11391   -11402   -11410   -11411   -11394   -11356   -11323   -11304 
  -11267   -11192   -11105   -11040   -11025   -11059   -11110   -11152 
  -11184   -11209   -11213   -11192   -11164   -11146   -11142   -11138 
  -11129   -11114   -11105   -11102   -11095   -11082   -11061   -11041 
  -11025   -11017   -11017   -11025   -11043   -11075   -11121   -11167 
  -11203   -11221   -11217   -11202   -11183   -11156   -11132   -11118 
  -11117   -11126   -11142   -11151   -11136   -11106   -11091   -11103 
  -11137   -11187   -11244   -11290   -11326   -11371   -11429   -11504 
  -11593   -11685   -11765   -11826   -11865   -11878   -11871   -11859 
  -11844   -11826   -11803   -11763   -11689   -11592   -11516   -11483 
  -11476   -11469   -11443   -11408   -11379   -11346   -11306   -11272 
  -11257   -11263   -11286   -11310   -11315   -11304   -11295   -11286 
  -11281   -11290   -11298   -11308   -11331   -11354   -11380   -11411 
  -11431   -11431   -11423   -11416   -11404   -11379   -11337   -11279 
  -11226   -11203   -11191   -11178   -11173   -11178   -11173   -11153 
  -11128   -11098   -11067   -11047   -11043   -11051   -11064   -11075 
  -11086   -11098   -11110   -11129   -11164   -11211   -11241   -11242 
  -11215   -11161   -11095   -11033   -10971   -10903   -10848   -10813 
  -10794   -10790   -10808   -10856   -10920   -10980   -11037   -11091 
  -11140   -11184   -11223   -11246   -11260   -11286   -11326   -11376 
  -11425   -11462   -11477   -11468   -11439   -11400   -11361   -11338 
  -11326   -11298   -11252   -11211   -11183   -11153   -11118   -11090 
  -11068   -11048   -11037   -11044   -11060   -11067   -11064   -11059 
  -11056   -11053   -11043   -11034   -11032   -11033   -11045   -11074 
  -11109   -11140   -11168   -11196   -11232   -11279   -11323   -11348 
  -11342   -11313   -11281   -11260   -11244   -11214   -11164   -11106 
  -11052   -11009   -10984   -10982   -10991   -11007   -11047   -11122 
  -11217   -11313   -11398   -11456   -11483   -11487   -11460   -11403 
  -11338   -11277   -11229   -11192   -11157   -11129   -11115   -11109 
  -11099   -11091   -11082   -11082   -11111   -11157   -11199   -11234 
  -11264   -11280   -11300   -11338   -11384   -11426   -11449   -11448 
  -11446   -11465   -11491   -11493   -11461   -11410   -11358   -11304 
  -11250   -11203   -11156   -11098   -11037   -10993   -10975   -10984 
  -11010   -11044   -11079   -11124   -11179   -11229   -11273   -11319 
  -11361   -11398   -11441   -11491   -11533   -11565   -11589   -11597 
  -11576   -11539   -11499   -11464   -11443   -11427   -11402   -11367 
  -11325   -11280   -11248   -11230   -11230   -11242   -11245   -11232 
  -11219   -11207   -11186   -11155   -11118   -11082   -11037   -10964 
  -10872   -10795   -10735   -10682   -10656   -10658   -10673   -10696 
  -10728   -10773   -10837   -10917   -11001   -11091   -11183   -11267 
  -11344   -11421   -11503   -11589   -11665   -11719   -11770   -11831 
  -11889   -11932   -11956   -11975   -12004   -12035   -12062   -12086 
  -12094   -12078   -12042   -11986   -11924   -11863   -11796   -11719 
  -11643   -11560   -11465   -11373   -11284   -11198   -11134   -11099 
  -11075   -11043   -11009   -10986   -10972   -10957   -10936   -10902 
  -10862   -10828   -10808   -10802   -10806   -10818   -10837   -10860 
  -10872   -10864   -10843   -10827   -10825   -10840   -10867   -10901 
  -10933   -10971   -11009   -11036   -11049   -11056   -11057   -11067 
  -11087   -11099   -11088   -11056   -11020   -10999   -11007   -11037 
  -11071   -11109   -11153   -11200   -11250   -11302   -11353   -11404 
  -11446   -11483   -11523   -11572   -11631   -11695   -11749   -11788 
  -11820   -11843   -11863   -11884   -11892   -11877   -11844   -11809 
  -11785   -11772   -11754   -11723   -11684   -11646   -11608   -11558 
  -11488   -11408   -11325   -11240   -11157   -11082   -11007   -10941 
  -10886   -10836   -10790   -10756   -10747   -10751   -10756   -10756 
  -10758   -10767   -10789   -10817   -10859   -10912   -10962   -10999 
  -11025   -11040   -11044   -11036   -11010   -10976   -10940   -10903 
  -10875   -10860   -10864   -10887   -10937   -11013   -11102   -11192 
  -11275   -11350   -11431   -11524   -11618   -11693   -11753   -11807 
  -11861   -11901   -11925   -11940   -11938   -11915   -11878   -11834 
  -11797   -11780   -11773   -11769   -11757   -11732   -11704   -11681 
  -11658   -11623   -11568   -11493   -11408   -11318   -11241   -11173 
  -11098   -11014   -10943   -10887   -10841   -10800   -10760   -10733 
  -10724   -10728   -10740   -10751   -10758   -10773   -10798   -10835 
  -10870   -10906   -10949   -10984   -10997   -10991   -10982   -10976 
  -10983   -10999   -11014   -11022   -11017   -10999   -10986   -10983 
  -10978   -10959   -10924   -10868   -10800   -10737   -10690   -10646 
  -10597   -10561   -10540   -10528   -10516   -10500   -10485   -10478 
  -10481   -10500   -10538   -10584   -10629   -10671   -10709   -10746 
  -10779   -10812   -10839   -10858   -10875   -10899   -10925   -10932 
  -10918   -10899   -10883   -10871   -10866   -10867   -10870   -10872 
  -10875   -10874   -10879   -10906   -10952   -11005   -11072   -11152 
  -11240   -11330   -11415   -11502   -11597   -11692   -11780   -11857 
  -11905   -11932   -11954   -11965   -11967   -11967   -11948   -11908 
  -11869   -11842   -11813   -11780   -11740   -11697   -11654   -11616 
  -11588   -11556   -11519   -11491   -11462   -11421   -11367   -11314 
  -11269   -11236   -11214   -11206   -11209   -11219   -11237   -11246 
  -11246   -11237   -11221   -11213   -11214   -11215   -11226   -11244 
  -11256   -11260   -11257   -11244   -11230   -11237   -11264   -11296 
  -11322   -11337   -11349   -11365   -11388   -11406   -11402   -11375 
  -11334   -11272   -11190   -11105   -11020   -10940   -10875   -10828 
  -10795   -10775   -10755   -10735   -10729   -10740   -10767   -10805 
  -10849   -10902   -10955   -11007   -11057   -11107   -11168   -11240 
  -11313   -11372   -11418   -11458   -11485   -11493   -11483   -11461 
  -11426   -11383   -11342   -11317   -11311   -11314   -11318   -11333 
  -11358   -11394   -11448   -11515   -11581   -11642   -11676   -11674 
  -11651   -11615   -11565   -11511   -11461   -11414   -11376   -11346 
  -11313   -11277   -11249   -11223   -11200   -11176   -11145   -11119 
  -11109   -11107   -11110   -11118   -11117   -11099   -11070   -11028 
  -10976   -10922   -10874   -10837   -10817   -10812   -10813   -10824 
  -10845   -10864   -10874   -10889   -10912   -10933   -10953   -10975 
  -10993   -10999   -10993   -10983   -10972   -10966   -10960   -10959 
  -10971   -10991   -11013   -11032   -11051   -11067   -11071   -11059 
  -11041   -11036   -11041   -11048   -11044   -11030   -11013   -10998 
  -10995   -11001   -11013   -11033   -11067   -11124   -11191   -11259 
  -11326   -11387   -11430   -11456   -11473   -11495   -11526   -11560 
  -11574   -11561   -11519   -11457   -11392   -11342   -11315   -11317 
  -11334   -11348   -11357   -11373   -11391   -11410   -11431   -11448 
  -11458   -11480   -11515   -11549   -11573   -11589   -11601   -11607 
  -11596   -11560   -11508   -11462   -11431   -11407   -11379   -11345 
  -11317   -11308   -11317   -11325   -11319   -11300   -11281   -11276 
  -11283   -11292   -11298   -11294   -11277   -11252   -11225   -11205 
  -11192   -11188   -11184   -11187   -11205   -11226   -11240   -11246 
  -11246   -11240   -11238   -11240   -11238   -11230   -11214   -11184 
  -11145   -11110   -11087   -11068   -11037   -10983   -10916   -10851 
  -10785   -10725   -10692   -10681   -10687   -10706   -10739   -10779 
  -10832   -10889   -10945   -11010   -11082   -11157   -11240   -11318 
  -11391   -11462   -11542   -11631   -11709   -11763   -11793   -11805 
  -11813   -11827   -11839   -11846   -11848   -11848   -11847   -11848 
  -11843   -11827   -11801   -11766   -11719   -11658   -11597   -11541 
  -11491   -11442   -11396   -11357   -11319   -11283   -11245   -11206 
  -11168   -11132   -11097   -11063   -11036   -11024   -11029   -11045 
  -11059   -11063   -11068   -11090   -11130   -11183   -11234   -11272 
  -11291   -11304   -11326   -11342   -11345   -11338   -11327   -11323 
  -11327   -11326   -11315   -11302   -11291   -11281   -11271   -11260 
  -11257   -11263   -11273   -11284   -11288   -11284   -11280   -11279 
  -11275   -11277   -11294   -11319   -11345   -11362   -11372   -11383 
  -11398   -11406   -11392   -11360   -11331   -11319   -11322   -11335 
  -11353   -11380   -11421   -11465   -11507   -11554   -11601   -11639 
  -11662   -11674   -11678   -11673   -11649   -11608   -11572   -11550 
  -11530   -11499   -11460   -11426   -11402   -11376   -11349   -11330 
  -11322   -11317   -11302   -11273   -11234   -11191   -11148   -11101 
  -11041   -10971   -10894   -10820   -10763   -10728   -10702   -10669 
  -10623   -10571   -10524   -10484   -10451   -10430   -10426   -10449 
  -10496   -10543   -10586   -10640   -10701   -10756   -10808   -10852 
  -10893   -10935   -10979   -11024   -11072   -11122   -11169   -11215 
  -11264   -11313   -11357   -11399   -11437   -11469   -11499   -11529 
  -11553   -11576   -11599   -11614   -11618   -11614   -11599   -11569 
  -11533   -11493   -11448   -11392   -11331   -11284   -11250   -11218 
  -11179   -11136   -11092   -11059   -11032   -10999   -10966   -10947 
  -10948   -10963   -10978   -10984   -10990   -10998   -11011   -11028 
  -11038   -11047   -11064   -11095   -11126   -11148   -11168   -11198 
  -11241   -11286   -11323   -11353   -11373   -11387   -11394   -11394 
  -11388   -11380   -11380   -11398   -11430   -11473   -11514   -11538 
  -11547   -11550   -11547   -11534   -11516   -11493   -11470   -11446 
  -11419   -11395   -11376   -11365   -11361   -11365   -11373   -11383 
  -11381   -11368   -11344   -11321   -11298   -11268   -11233   -11194 
  -11142   -11074   -10999   -10933   -10883   -10848   -10820   -10795 
  -10785   -10790   -10812   -10843   -10876   -10914   -10962   -11022 
  -11097   -11171   -11240   -11306   -11365   -11410   -11438   -11452 
  -11453   -11458   -11465   -11465   -11454   -11434   -11406   -11368 
  -11329   -11298   -11280   -11268   -11256   -11249   -11240   -11225 
  -11200   -11171   -11144   -11125   -11115   -11122   -11138   -11160 
  -11184   -11213   -11250   -11292   -11333   -11362   -11380   -11380 
  -11367   -11345   -11335   -11335   -11329   -11315   -11298   -11267 
  -11222   -11171   -11118   -11065   -11021   -10984   -10955   -10922 
  -10882   -10843   -10820   -10810   -10813   -10835   -10864   -10891 
  -10920   -10947   -10964   -10972   -10976   -10983   -11003   -11034 
  -11065   -11090   -11101   -11102   -11101   -11095   -11083   -11068 
  -11059   -11049   -11032   -11017   -11011   -11009   -11001   -10999 
  -11017   -11041   -11067   -11099   -11121   -11134   -11148   -11152 
  -11149   -11149   -11151   -11152   -11152   -11142   -11128   -11111 
  -11092   -11068   -11044   -11024   -11011   -11009   -11018   -11044 
  -11087   -11140   -11194   -11249   -11315   -11395   -11487   -11588 
  -11682   -11758   -11826   -11894   -11962   -12024   -12074   -12108 
  -12127   -12132   -12125   -12112   -12094   -12064   -12021   -11971 
  -11909   -11834   -11757   -11688   -11623   -11566   -11518   -11470 
  -11412   -11338   -11249   -11157   -11074   -10999   -10929   -10876 
  -10840   -10808   -10775   -10746   -10719   -10702   -10696   -10693 
  -10693   -10692   -10692   -10700   -10716   -10740   -10759   -10764 
  -10766   -10768   -10770   -10785   -10816   -10854   -10898   -10947 
  -10994   -11034   -11059   -11068   -11074   -11083   -11097   -11106 
  -11113   -11126   -11144   -11151   -11141   -11126   -11119   -11124 
  -11142   -11168   -11195   -11219   -11244   -11275   -11311   -11353 
  -11396   -11431   -11453   -11473   -11495   -11510   -11518   -11524 
  -11523   -11508   -11495   -11484   -11469   -11456   -11452   -11454 
  -11458   -11456   -11454   -11462   -11479   -11491   -11496   -11502 
  -11504   -11506   -11500   -11483   -11453   -11415   -11375   -11338 
  -11304   -11276   -11254   -11240   -11229   -11211   -11188   -11168 
  -11146   -11118   -11090   -11065   -11038   -11002   -10957   -10909 
  -10858   -10810   -10778   -10750   -10719   -10694   -10681   -10678 
  -10682   -10696   -10719   -10744   -10771   -10806   -10845   -10881 
  -10910   -10935   -10957   -10980   -11006   -11037   -11064   -11088 
  -11119   -11155   -11188   -11221   -11253   -11283   -11304   -11325 
  -11348   -11369   -11392   -11416   -11441   -11465   -11484   -11493 
  -11493   -11489   -11483   -11466   -11439   -11398   -11344   -11294 
  -11260   -11241   -11236   -11232   -11226   -11232   -11241   -11254 
  -11275   -11294   -11311   -11334   -11353   -11362   -11371   -11377 
  -11375   -11362   -11345   -11331   -11331   -11337   -11344   -11350 
  -11349   -11331   -11307   -11280   -11250   -11219   -11183   -11133 
  -11078   -11022   -10975   -10932   -10895   -10874   -10870   -10881 
  -10902   -10930   -10963   -11001   -11043   -11084   -11121   -11161 
  -11205   -11246   -11286   -11315   -11338   -11358   -11375   -11383 
  -11385   -11385   -11377   -11356   -11330   -11318   -11317   -11323 
  -11334   -11345   -11352   -11356   -11361   -11369   -11379   -11388 
  -11396   -11404   -11408   -11406   -11392   -11369   -11345   -11321 
  -11294   -11254   -11203   -11148   -11094   -11048   -11010   -10975 
  -10939   -10902   -10875   -10847   -10813   -10786   -10768   -10752 
  -10740   -10732   -10728   -10732   -10739   -10744   -10750   -10758 
  -10773   -10790   -10808   -10820   -10827   -10839   -10858   -10875 
  -10893   -10913   -10936   -10963   -10993   -11021   -11045   -11070 
  -11102   -11133   -11156   -11175   -11190   -11203   -11219   -11236 
  -11254   -11275   -11295   -11311   -11323   -11334   -11337   -11329 
  -11307   -11273   -11237   -11206   -11173   -11137   -11105   -11076 
  -11044   -11010   -10978   -10937   -10887   -10836   -10789   -10754 
  -10739   -10736   -10733   -10736   -10746   -10758   -10777   -10801 
  -10822   -10847   -10879   -10910   -10932   -10957   -10990   -11022 
  -11045   -11061   -11067   -11065   -11067   -11082   -11099   -11105 
  -11094   -11074   -11052   -11036   -11033   -11045   -11064   -11078 
  -11090   -11102   -11121   -11142   -11167   -11195   -11225   -11256 
  -11292   -11335   -11380   -11423   -11468   -11518   -11562   -11596 
  -11624   -11647   -11665   -11682   -11695   -11695   -11682   -11661 
  -11624   -11573   -11515   -11454   -11394   -11335   -11286   -11244 
  -11207   -11175   -11157   -11163   -11186   -11214   -11245   -11265 
  -11275   -11280   -11288   -11292   -11298   -11314   -11334   -11349 
  -11354   -11356   -11350   -11342   -11333   -11333   -11335   -11323 
  -11292   -11250   -11200   -11142   -11079   -11016   -10959   -10908 
  -10858   -10806   -10762   -10723   -10686   -10658   -10640   -10633 
  -10639   -10655   -10683   -10724   -10775   -10833   -10899   -10966 
  -11025   -11080   -11126   -11163   -11194   -11218   -11238   -11250 
  -11259   -11275   -11294   -11313   -11331   -11353   -11387   -11433 
  -11472   -11496   -11520   -11547   -11580   -11619   -11650   -11670 
  -11681   -11678   -11665   -11649   -11630   -11610   -11591   -11566 
  -11538   -11512   -11489   -11472   -11461   -11456   -11446   -11427 
  -11407   -11392   -11384   -11371   -11346   -11315   -11288   -11268 
  -11260   -11259   -11260   -11265   -11272   -11283   -11307   -11345 
  -11395   -11454   -11511   -11561   -11614   -11665   -11699   -11712 
  -11719   -11720   -11713   -11699   -11673   -11631   -11572   -11493 
  -11406   -11323   -11250   -11182   -11115   -11052   -10999   -10956 
  -10914   -10868   -10810   -10744   -10687   -10648   -10620   -10602 
  -10601   -10612   -10631   -10652   -10677   -10706   -10735   -10758 
  -10787   -10817   -10845   -10876   -10899   -10909   -10908   -10899 
  -10886   -10870   -10855   -10840   -10824   -10798   -10766   -10740 
  -10723   -10716   -10712   -10706   -10698   -10687   -10682   -10693 
  -10720   -10762   -10806   -10844   -10883   -10921   -10948   -10971 
  -10993   -11014   -11043   -11074   -11098   -11126   -11160   -11195 
  -11226   -11256   -11283   -11304   -11325   -11342   -11354   -11362 
  -11369   -11367   -11362   -11358   -11353   -11346   -11346   -11352 
  -11358   -11368   -11379   -11384   -11387   -11379   -11357   -11331 
  -11314   -11303   -11300   -11304   -11306   -11300   -11287   -11264 
  -11241   -11223   -11211   -11198   -11182   -11169   -11164   -11153 
  -11136   -11121   -11111   -11107   -11109   -11117   -11128   -11141 
  -11149   -11151   -11146   -11144   -11134   -11121   -11102   -11074 
  -11037   -10995   -10955   -10917   -10882   -10848   -10814   -10777 
  -10741   -10714   -10705   -10716   -10736   -10759   -10789   -10828 
  -10872   -10921   -10972   -11026   -11079   -11128   -11168   -11203 
