Origin Time       2025/01/13 21:19:00
Lat.              31.8
Long.             131.6
Depth. (km)       30
Mag.              6.9
Station Code      KOCH05
Station Lat.      33.6472
Station Long.     133.1444
Station Height(m) 160
Record Time       2025/01/13 21:20:15
Sampling Freq(Hz) 100Hz
Duration Time(s)  137
Dir.              2
Scale Factor      2942(gal)/8224139
Max. Acc. (gal)   1.333
Last Correction   2025/01/13 21:20:15
Memo.             
[...]
  -13873   -13892   -13903   -13921   -13969   -14035   -14103   -14208 
  -14311   -14311   -14207   -14045   -13921   -13945   -14062   -14130 
  -14119   -14103   -14119   -14139   -14145   -14158   -14191   -14227 
  -14284   -14374   -14450   -14473   -14477   -14478   -14423   -14351 
  -14349   -14349   -14277   -14195   -14139   -14049   -13875   -13676 
  -13504   -13377   -13356   -13441   -13562   -13608   -13522   -13408 
  -13354   -13348   -13404   -13505   -13574   -13576   -13531   -13502 
  -13520   -13517   -13524   -13612   -13695   -13672   -13616   -13635 
  -13703   -13763   -13860   -14023   -14160   -14223   -14273   -14304 
  -14288   -14250   -14223   -14227   -14238   -14220   -14177   -14096 
  -13979   -13857   -13780   -13757   -13747   -13748   -13805   -13876 
  -13896   -13887   -13921   -13990   -14053   -14131   -14215   -14226 
  -14152   -14079   -14081   -14137   -14189   -14224   -14226   -14206 
  -14200   -14183   -14131   -14062   -13979   -13871   -13772   -13729 
  -13729   -13728   -13722   -13745   -13795   -13838   -13869   -13888 
  -13910   -13961   -14048   -14127   -14148   -14135   -14146   -14129 
  -14057   -13983   -13887   -13743   -13598   -13482   -13378   -13270 
  -13201   -13208   -13247   -13261   -13224   -13154   -13101   -13100 
  -13135   -13147   -13113   -13072   -13035   -13003   -12993   -13020 
  -13046   -13020   -12976   -12966   -12973   -12976   -12981   -13014 
  -13072   -13096   -13077   -13090   -13158   -13219   -13259   -13342 
  -13491   -13667   -13809   -13895   -13968   -14050   -14096   -14102 
  -14112   -14098   -13998   -13867   -13782   -13701   -13581   -13505 
  -13520   -13567   -13612   -13656   -13714   -13757   -13721   -13632 
  -13558   -13508   -13527   -13641   -13733   -13721   -13682   -13701 
  -13792   -13910   -13960   -13925   -13883   -13895   -13952   -13992 
  -13983   -13977   -14004   -14050   -14139   -14254   -14343   -14389 
  -14396   -14396   -14397   -14384   -14369   -14341   -14257   -14123 
  -13956   -13764   -13590   -13452   -13336   -13293   -13308   -13308 
  -13348   -13460   -13521   -13504   -13509   -13563   -13605   -13644 
  -13725   -13802   -13801   -13714   -13591   -13491   -13420   -13365 
  -13365   -13423   -13454   -13400   -13325   -13284   -13244   -13246 
  -13297   -13321   -13320   -13338   -13359   -13385   -13444   -13522 
  -13562   -13508   -13392   -13335   -13374   -13408   -13404   -13444 
  -13556   -13663   -13702   -13725   -13782   -13840   -13907   -14029 
  -14187   -14334   -14446   -14500   -14488   -14474   -14524   -14656 
  -14829   -14937   -14962   -14997   -15022   -14921   -14766   -14751 
  -14831   -14800   -14638   -14472   -14372   -14330   -14296   -14231 
  -14149   -14046   -13896   -13717   -13579   -13558   -13644   -13752 
  -13851   -13919   -13903   -13845   -13879   -13988   -14011   -13888 
  -13697   -13533   -13440   -13386   -13339   -13327   -13347   -13323 
  -13247   -13208   -13269   -13367   -13381   -13336   -13379   -13490 
  -13551   -13549   -13509   -13437   -13444   -13612   -13837   -14021 
  -14192   -14341   -14385   -14311   -14218   -14196   -14208   -14173 
  -14091   -14018   -14018   -14089   -14187   -14280   -14361   -14458 
  -14543   -14542   -14505   -14531   -14582   -14577   -14517   -14446 
  -14369   -14297   -14292   -14323   -14238   -13994   -13738   -13651 
  -13745   -13810   -13695   -13540   -13529   -13652   -13768   -13791 
  -13756   -13755   -13788   -13788   -13716   -13568   -13446   -13493 
  -13649   -13726   -13697   -13617   -13489   -13351   -13281   -13285 
  -13323   -13319   -13194   -13028   -12987   -13074   -13159   -13178 
  -13161   -13140   -13119   -13135   -13248   -13429   -13625   -13813 
  -13921   -13936   -13946   -13960   -13909   -13833   -13837   -13911 
  -13992   -14065   -14100   -14037   -13937   -13944   -14091   -14291 
  -14446   -14505   -14480   -14408   -14310   -14218   -14184   -14199 
  -14158   -14049   -13987   -14002   -14006   -13984   -13987   -13992 
  -13967   -13971   -14048   -14108   -14089   -14071   -14080   -14030 
  -13954   -13919   -13867   -13803   -13782   -13788   -13815   -13848 
  -13860   -13891   -13964   -14054   -14129   -14160   -14133   -14037 
  -13917   -13844   -13822   -13798   -13733   -13651   -13570   -13456 
  -13319   -13263   -13336   -13419   -13440   -13477   -13560   -13668 
  -13803   -13932   -14004   -14046   -14085   -14064   -13965   -13869 
  -13787   -13648   -13462   -13327   -13304   -13350   -13381   -13358 
  -13333   -13389   -13497   -13562   -13558   -13522   -13491   -13486 
  -13531   -13586   -13606   -13629   -13645   -13586   -13474   -13379 
  -13329   -13332   -13352   -13344   -13328   -13324   -13342   -13413 
  -13490   -13498   -13468   -13489   -13583   -13683   -13809   -14018 
  -14196   -14242   -14223   -14173   -14060   -13954   -13906   -13865 
  -13855   -13905   -13969   -14040   -14141   -14253   -14276   -14170 
  -14068   -14062   -14107   -14125   -14068   -13933   -13774   -13656 
  -13555   -13398   -13238   -13177   -13196   -13217   -13239   -13331 
  -13524   -13752   -13895   -13934   -13964   -14022   -14064   -14084 
  -14058   -13911   -13729   -13652   -13614   -13560   -13549   -13528 
  -13425   -13339   -13329   -13311   -13275   -13339   -13473   -13570 
  -13637   -13660   -13610   -13603   -13674   -13697   -13676   -13716 
  -13811   -13929   -14031   -14037   -13940   -13822   -13702   -13621 
  -13576   -13454   -13296   -13250   -13294   -13359   -13447   -13527 
  -13606   -13770   -13988   -14156   -14287   -14385   -14359   -14215 
  -14072   -14037   -14084   -14127   -14168   -14202   -14193   -14199 
  -14243   -14278   -14346   -14418   -14364   -14254   -14222   -14224 
  -14245   -14322   -14407   -14430   -14407   -14419   -14501   -14555 
  -14501   -14434   -14445   -14515   -14601   -14690   -14752   -14764 
  -14747   -14712   -14694   -14725   -14733   -14679   -14631   -14617 
  -14632   -14663   -14710   -14767   -14781   -14740   -14692   -14651 
  -14663   -14758   -14877   -14962   -15026   -15141   -15275   -15263 
  -15086   -14871   -14705   -14575   -14423   -14260   -14102   -13918 
  -13698   -13529   -13506   -13547   -13494   -13358   -13224   -13099 
  -12937   -12749   -12642   -12706   -12862   -12989   -13047   -13045 
  -13035   -13078   -13151   -13208   -13236   -13251   -13309   -13447 
  -13618   -13790   -13922   -13953   -13984   -14160   -14368   -14469 
  -14536   -14624   -14678   -14698   -14712   -14682   -14623   -14601 
  -14616   -14584   -14467   -14359   -14300   -14181   -13996   -13878 
  -13846   -13834   -13841   -13922   -14038   -14088   -14083   -14068 
  -14031   -13965   -13872   -13744   -13590   -13464   -13421   -13444 
  -13437   -13331   -13188   -13057   -12854   -12586   -12378   -12286 
  -12276   -12276   -12231   -12187   -12221   -12299   -12344   -12384 
  -12468   -12548   -12615   -12695   -12735   -12744   -12800   -12852 
  -12845   -12847   -12880   -12915   -12958   -12995   -13035   -13144 
  -13302   -13405   -13473   -13533   -13514   -13447   -13475   -13624 
  -13744   -13733   -13699   -13729   -13745   -13732   -13760   -13767 
  -13676   -13612   -13613   -13536   -13425   -13428   -13459   -13393 
  -13289   -13248   -13257   -13216   -13078   -12928   -12879   -12887 
  -12885   -12900   -12924   -12891   -12839   -12881   -13005   -13115 
  -13167   -13203   -13247   -13284   -13339   -13448   -13545   -13537 
  -13471   -13473   -13579   -13755   -13930   -14027   -13994   -13907 
  -13909   -13976   -14010   -14019   -14030   -13999   -13902   -13795 
  -13751   -13810   -13895   -13894   -13817   -13694   -13527   -13393 
  -13315   -13247   -13184   -13093   -12935   -12760   -12652   -12579 
  -12494   -12452   -12430   -12386   -12356   -12353   -12398   -12501 
  -12596   -12672   -12757   -12814   -12877   -12999   -13135   -13243 
  -13302   -13359   -13435   -13417   -13356   -13401   -13483   -13576 
  -13747   -13886   -13923   -13965   -14003   -13971   -13896   -13811 
  -13749   -13678   -13536   -13367   -13192   -13015   -12937   -12942 
  -12939   -12961   -12981   -12950   -12933   -12928   -12900   -12934 
  -13074   -13228   -13338   -13448   -13591   -13749   -13949   -14170 
  -14319   -14413   -14507   -14561   -14617   -14760   -14881   -14837 
  -14742   -14733   -14729   -14616   -14416   -14243   -14157   -14092 
  -14061   -14129   -14185   -14133   -14042   -13964   -13910   -13884 
  -13829   -13733   -13620   -13504   -13398   -13265   -13070   -12900 
  -12811   -12741   -12644   -12526   -12382   -12252   -12209   -12216 
  -12235   -12274   -12317   -12403   -12595   -12812   -12974   -13126 
  -13339   -13593   -13788   -13921   -14080   -14292   -14526   -14697 
  -14752   -14810   -14985   -15153   -15191   -15169   -15138   -15113 
  -15163   -15222   -15176   -15106   -15059   -14939   -14754   -14631 
  -14575   -14513   -14413   -14287   -14152   -13995   -13801   -13633 
  -13570   -13599   -13674   -13728   -13751   -13791   -13865   -13959 
  -14077   -14202   -14277   -14268   -14227   -14260   -14374   -14509 
  -14646   -14731   -14715   -14659   -14662   -14748   -14818   -14777 
  -14708   -14671   -14609   -14548   -14577   -14648   -14706   -14797 
  -14941   -15051   -15082   -15132   -15192   -15136   -15061   -15136 
  -15284   -15388   -15448   -15473   -15471   -15460   -15458   -15449 
  -15457   -15516   -15599   -15709   -15870   -16027   -16098   -16078 
  -16039   -16008   -15954   -15946   -16023   -16040   -15944   -15867 
  -15804   -15635   -15411   -15210   -15016   -14833   -14651   -14466 
  -14326   -14204   -14077   -14008   -13992   -13980   -13956   -13944 
  -13969   -13991   -13992   -14021   -14061   -14069   -14049   -14046 
  -14042   -13977   -13909   -13917   -13923   -13821   -13633   -13451 
  -13293   -13157   -13073   -13005   -12877   -12694   -12542   -12475 
  -12391   -12243   -12141   -12151   -12220   -12303   -12413   -12571 
  -12677   -12638   -12526   -12405   -12305   -12258   -12190   -12074 
  -12023   -12082   -12189   -12272   -12341   -12463   -12657   -12892 
  -13112   -13277   -13396   -13502   -13693   -13961   -14112   -14166 
  -14316   -14512   -14662   -14835   -15057   -15252   -15357   -15458 
  -15647   -15803   -15828   -15824   -15826   -15808   -15799   -15743 
  -15604   -15472   -15380   -15317   -15273   -15178   -15001   -14837 
  -14728   -14609   -14459   -14328   -14239   -14143   -14003   -13890 
  -13890   -13954   -13981   -13945   -13884   -13821   -13753   -13701 
  -13691   -13693   -13697   -13749   -13825   -13872   -13954   -14077 
  -14161   -14157   -14068   -13999   -14013   -13983   -13891   -13873 
  -13923   -13961   -14010   -14098   -14185   -14230   -14216   -14161 
  -14143   -14230   -14331   -14381   -14458   -14540   -14571   -14612 
  -14696   -14781   -14823   -14775   -14662   -14561   -14504   -14477 
  -14415   -14254   -13996   -13724   -13490   -13244   -12957   -12707 
  -12532   -12371   -12202   -12082   -12028   -12005   -12016   -12075 
  -12163   -12270   -12430   -12653   -12850   -12996   -13170   -13381 
  -13551   -13695   -13833   -13880   -13832   -13809   -13869   -13953 
  -13976   -13903   -13828   -13817   -13798   -13714   -13562   -13378 
  -13250   -13155   -13047   -12973   -12919   -12807   -12606   -12357 
  -12156   -12012   -11859   -11682   -11489   -11331   -11234   -11122 
  -11020   -11033   -11107   -11140   -11164   -11271   -11483   -11703 
  -11847   -12009   -12262   -12536   -12806   -13131   -13518   -13896 
  -14196   -14431   -14671   -14944   -15225   -15445   -15523   -15495 
  -15442   -15350   -15234   -15164   -15114   -15034   -14939   -14814 
  -14609   -14332   -14092   -13891   -13660   -13455   -13305   -13162 
  -13039   -12955   -12904   -12907   -12964   -13055   -13185   -13362 
  -13572   -13763   -13919   -14084   -14242   -14332   -14399   -14480 
  -14542   -14611   -14671   -14677   -14682   -14740   -14831   -14908 
  -14929   -14948   -15024   -15117   -15219   -15379   -15564   -15700 
  -15788   -15870   -15947   -15962   -15903   -15847   -15800   -15695 
  -15585   -15516   -15392   -15201   -15033   -14862   -14666   -14571 
  -14582   -14550   -14454   -14362   -14270   -14176   -14076   -13975 
  -13944   -13945   -13873   -13774   -13687   -13544   -13414   -13440 
  -13549   -13635   -13718   -13802   -13867   -13941   -14044   -14156 
  -14253   -14374   -14520   -14624   -14698   -14778   -14781   -14679 
  -14611   -14651   -14728   -14790   -14831   -14825   -14778   -14712 
  -14596   -14450   -14343   -14237   -14041   -13817   -13653   -13493 
  -13316   -13208   -13149   -13043   -12872   -12691   -12544   -12426 
  -12329   -12248   -12171   -12056   -11913   -11804   -11711   -11646 
  -11658   -11691   -11701   -11716   -11738   -11815   -11961   -12093 
  -12195   -12341   -12519   -12672   -12831   -13035   -13232   -13378 
  -13504   -13674   -13936   -14226   -14457   -14681   -14937   -15169 
  -15377   -15595   -15799   -15988   -16204   -16407   -16544   -16683 
  -16838   -16918   -16951   -16984   -16947   -16876   -16857   -16823 
  -16679   -16486   -16317   -16121   -15885   -15668   -15475   -15286 
  -15091   -14889   -14646   -14328   -13980   -13645   -13309   -12982 
  -12700   -12426   -12078   -11682   -11334   -11032   -10773   -10584 
  -10419   -10246   -10131   -10103   -10104   -10115   -10187   -10332 
  -10489   -10620   -10740   -10839   -10895   -10928   -10948   -10982 
  -11026   -11026   -11049   -11173   -11322   -11464   -11646   -11889 
  -12168   -12436   -12685   -12910   -13069   -13200   -13373   -13566 
  -13737   -13903   -14072   -14237   -14416   -14602   -14752   -14836 
  -14899   -15005   -15109   -15141   -15137   -15133   -15097   -15021 
  -14924   -14805   -14696   -14640   -14608   -14540   -14455   -14369 
  -14295   -14281   -14296   -14280   -14265   -14256   -14235   -14239 
  -14265   -14270   -14270   -14305   -14372   -14446   -14530   -14644 
  -14764   -14863   -15013   -15234   -15442   -15623   -15793   -15928 
  -16009   -16048   -16096   -16141   -16124   -16058   -15997   -15965 
  -15925   -15823   -15712   -15627   -15531   -15437   -15354   -15283 
  -15229   -15164   -15066   -14966   -14906   -14866   -14801   -14763 
  -14782   -14791   -14785   -14808   -14856   -14886   -14894   -14916 
  -14940   -14920   -14866   -14787   -14646   -14472   -14323   -14166 
  -14000   -13865   -13711   -13527   -13366   -13252   -13161   -13036 
  -12891   -12800   -12760   -12702   -12646   -12646   -12667   -12679 
  -12733   -12803   -12816   -12793   -12781   -12837   -12981   -13155 
  -13284   -13317   -13286   -13262   -13258   -13297   -13358   -13358 
  -13331   -13340   -13320   -13262   -13277   -13369   -13471   -13582 
  -13662   -13656   -13637   -13706   -13821   -13898   -13957   -14011 
  -14014   -13992   -13999   -14007   -13983   -13927   -13871   -13824 
  -13743   -13639   -13540   -13416   -13294   -13230   -13186   -13109 
  -12997   -12887   -12777   -12663   -12561   -12468   -12355   -12210 
  -12031   -11842   -11689   -11546   -11367   -11209   -11118   -11037 
  -10974   -10975   -10991   -10993   -11007   -11014   -11020   -11079 
  -11184   -11286   -11385   -11553   -11811   -12064   -12286   -12552 
  -12856   -13124   -13378   -13668   -13969   -14245   -14513   -14729 
  -14847   -14949   -15117   -15299   -15426   -15530   -15655   -15761 
  -15834   -15919   -16021   -16123   -16218   -16297   -16356   -16376 
  -16362   -16389   -16453   -16474   -16464   -16465   -16501   -16603 
  -16721   -16757   -16729   -16706   -16675   -16590   -16472   -16360 
  -16248   -16101   -15905   -15693   -15471   -15228   -14991   -14758 
  -14496   -14246   -14033   -13811   -13575   -13365   -13173   -13001 
  -12879   -12783   -12663   -12514   -12363   -12228   -12129   -12066 
  -11992   -11911   -11866   -11850   -11862   -11917   -11961   -11986 
  -12079   -12243   -12409   -12552   -12677   -12779   -12861   -12978 
  -13140   -13290   -13412   -13514   -13579   -13571   -13500   -13466 
  -13477   -13431   -13342   -13271   -13205   -13158   -13163   -13211 
  -13265   -13308   -13355   -13428   -13521   -13629   -13734   -13806 
  -13860   -13923   -13990   -14079   -14204   -14312   -14364   -14370 
  -14397   -14465   -14492   -14466   -14477   -14543   -14612   -14669 
  -14710   -14724   -14693   -14651   -14654   -14689   -14697   -14659 
  -14601   -14492   -14327   -14200   -14127   -14050   -13977   -13888 
  -13757   -13662   -13636   -13629   -13613   -13583   -13506   -13413 
  -13363   -13323   -13257   -13213   -13213   -13197   -13127   -13028 
  -12941   -12897   -12906   -12935   -12961   -12970   -12958   -12965 
  -13038   -13153   -13228   -13251   -13279   -13375   -13537   -13710 
  -13878   -14052   -14223   -14409   -14628   -14810   -14897   -14933 
  -14967   -15022   -15137   -15272   -15367   -15456   -15550   -15638 
  -15761   -15873   -15908   -15947   -16051   -16175   -16289   -16366 
  -16389   -16387   -16372   -16321   -16266   -16228   -16158   -16082 
  -16065   -16063   -16038   -15998   -15938   -15853   -15719   -15500 
  -15260   -15075   -14895   -14647   -14388   -14195   -14060   -13921 
  -13761   -13636   -13537   -13409   -13271   -13154   -13034   -12887 
  -12756   -12677   -12604   -12525   -12464   -12395   -12353   -12390 
  -12434   -12432   -12437   -12457   -12444   -12432   -12479   -12525 
  -12521   -12506   -12501   -12505   -12519   -12511   -12483   -12491 
  -12506   -12502   -12537   -12609   -12687   -12796   -12912   -13012 
  -13146   -13284   -13366   -13483   -13675   -13818   -13887   -13959 
  -14031   -14081   -14135   -14181   -14195   -14222   -14296   -14411 
  -14532   -14615   -14643   -14659   -14688   -14696   -14700   -14727 
  -14732   -14693   -14656   -14648   -14652   -14655   -14629   -14571 
  -14528   -14504   -14480   -14463   -14436   -14400   -14384   -14381 
  -14353   -14293   -14230   -14166   -14087   -13996   -13891   -13756 
  -13597   -13421   -13239   -13070   -12941   -12868   -12841   -12798 
  -12730   -12707   -12733   -12749   -12768   -12795   -12803   -12806 
  -12833   -12861   -12888   -12961   -13054   -13096   -13120   -13170 
  -13221   -13254   -13274   -13285   -13274   -13239   -13235   -13285 
  -13340   -13374   -13382   -13365   -13323   -13259   -13193   -13124 
  -13051   -12995   -12935   -12841   -12760   -12714   -12669   -12618 
  -12561   -12509   -12492   -12496   -12472   -12464   -12522   -12576 
  -12603   -12677   -12800   -12923   -13054   -13215   -13373   -13518 
  -13686   -13859   -14004   -14127   -14224   -14296   -14370   -14445 
  -14482   -14504   -14532   -14558   -14578   -14594   -14620   -14675 
  -14731   -14773   -14840   -14921   -14982   -15051   -15161   -15284 
  -15358   -15377   -15406   -15465   -15519   -15525   -15491   -15483 
  -15471   -15380   -15271   -15188   -15101   -15037   -14974   -14850 
  -14735   -14663   -14569   -14489   -14473   -14439   -14341   -14249 
  -14211   -14175   -14091   -13979   -13880   -13819   -13779   -13721 
  -13664   -13633   -13620   -13612   -13583   -13531   -13483   -13463 
