Origin Time       2025/01/13 21:19:00
Lat.              31.8
Long.             131.6
Depth. (km)       30
Mag.              6.9
Station Code      KOCH04
Station Lat.      32.8414
Station Long.     132.7066
Station Height(m) 55
Record Time       2025/01/13 21:20:00
Sampling Freq(Hz) 100Hz
Duration Time(s)  149
Dir.              5
Scale Factor      7845(gal)/8223790
Max. Acc. (gal)   4.194
Last Correction   2025/01/13 21:20:00
Memo.             
[...]
   -4203    -4252    -4117    -4029    -4195    -4414    -4459    -4293 
   -4099    -4033    -3955    -3843    -3775    -3646    -3636    -4010 
   -4426    -4475    -4328    -4286    -4379    -4510    -4594    -4642 
   -4612    -4409    -4221    -4226    -4320    -4383    -4355    -4317 
   -4401    -4428    -4234    -4060    -4060    -4126    -4191    -4178 
   -4082    -4089    -4180    -4166    -4079    -4131    -4441    -4831 
   -4945    -4785    -4720    -4807    -4784    -4621    -4442    -4367 
   -4476    -4644    -4639    -4357    -3990    -3785    -3645    -3546 
   -3519    -3470    -3622    -3996    -4171    -4174    -4160    -4027 
   -3963    -4024    -3964    -3885    -3916    -4120    -4633    -5184 
   -5350    -5105    -4708    -4405    -4175    -3917    -3724    -3674 
   -3739    -3888    -4018    -4075    -4233    -4530    -4619    -4438 
   -4259    -4024    -3758    -3721    -3747    -3624    -3586    -3808 
   -4085    -4203    -4293    -4456    -4541    -4455    -4351    -4453 
   -4671    -4720    -4731    -4946    -5158    -5130    -4942    -4738 
   -4490    -4114    -3804    -3717    -3726    -3859    -4170    -4459 
   -4596    -4599    -4488    -4306    -4047    -3726    -3611    -3877 
   -4241    -4525    -4780    -4818    -4579    -4401    -4438    -4441 
   -4290    -4220    -4253    -4187    -4133    -4221    -4297    -4294 
   -4401    -4685    -4828    -4644    -4365    -4182    -4078    -3973 
   -3824    -3815    -4032    -4201    -4248    -4386    -4564    -4588 
   -4386    -4144    -4199    -4406    -4432    -4406    -4453    -4457 
   -4419    -4453    -4522    -4410    -4151    -4043    -4090    -4048 
   -3889    -3775    -3825    -4000    -4225    -4418    -4410    -4195 
   -3997    -3940    -4045    -4158    -4062    -3996    -4263    -4575 
   -4580    -4518    -4637    -4700    -4607    -4548    -4450    -4334 
   -4413    -4450    -4263    -4113    -4079    -4128    -4259    -4314 
   -4221    -4051    -3898    -3838    -3755    -3537    -3387    -3496 
   -3682    -3858    -4009    -4004    -4171    -4776    -5300    -5364 
   -5120    -4770    -4537    -4394    -4175    -3970    -3838    -3873 
   -4077    -4116    -3971    -3854    -3712    -3558    -3456    -3438 
   -3697    -4217    -4595    -4634    -4488    -4344    -4348    -4515 
   -4750    -4911    -4904    -4918    -5011    -4959    -4783    -4546 
   -4232    -4021    -4020    -4062    -4031    -4059    -4207    -4324 
   -4394    -4475    -4455    -4352    -4414    -4649    -4861    -5019 
   -4942    -4568    -4367    -4487    -4514    -4282    -3954    -3801 
   -4004    -4221    -4168    -4162    -4274    -4245    -4251    -4441 
   -4556    -4518    -4503    -4494    -4361    -4199    -4167    -4147 
   -4056    -4041    -4087    -4085    -4024    -3975    -4063    -4232 
   -4359    -4428    -4436    -4509    -4719    -4828    -4619    -4267 
   -4097    -4083    -4056    -4055    -4086    -4097    -4010    -3777 
   -3595    -3550    -3470    -3451    -3735    -4210    -4567    -4637 
   -4631    -4851    -5116    -5125    -4984    -4878    -4864    -4826 
   -4580    -4198    -3843    -3599    -3546    -3576    -3519    -3478 
   -3559    -3743    -4164    -4691    -4781    -4527    -4471    -4546 
   -4469    -4255    -3970    -3780    -3886    -4132    -4216    -4189 
   -4216    -4325    -4459    -4514    -4585    -4772    -4827    -4621 
   -4310    -3964    -3603    -3410    -3704    -4332    -4688    -4773 
   -4865    -4822    -4646    -4410    -4106    -3982    -4047    -4027 
   -3873    -3659    -3654    -3967    -4151    -4117    -4212    -4326 
   -4249    -4109    -4004    -3913    -3909    -4013    -4104    -4156 
   -4152    -4001    -3754    -3557    -3507    -3611    -3763    -3863 
   -3956    -4290    -4855    -5250    -5366    -5340    -5286    -5363 
   -5373    -5155    -5012    -4977    -4820    -4523    -4245    -4172 
   -4216    -4171    -4152    -4234    -4266    -4256    -4253    -4241 
   -4278    -4220    -4025    -3990    -4135    -4336    -4541    -4577 
   -4545    -4644    -4671    -4438    -4095    -3991    -4225    -4453 
   -4530    -4599    -4711    -4889    -5051    -5043    -4926    -4765 
   -4479    -4201    -4143    -4198    -4217    -4148    -4056    -4172 
   -4468    -4714    -4854    -4828    -4599    -4351    -4283    -4310 
   -4261    -4189    -4209    -4226    -4247    -4446    -4592    -4527 
   -4519    -4476    -4271    -4167    -4147    -3994    -3771    -3744 
   -4029    -4403    -4590    -4554    -4456    -4460    -4475    -4372 
   -4406    -4684    -4843    -4907    -5181    -5339    -5062    -4785 
   -4822    -4780    -4482    -4294    -4324    -4490    -4761    -4945 
   -5000    -4996    -4861    -4634    -4433    -4391    -4560    -4752 
   -4869    -4892    -4793    -4815    -4978    -4919    -4658    -4496 
   -4413    -4282    -4147    -4114    -4151    -4122    -4164    -4437 
   -4630    -4545    -4425    -4317    -4178    -4136    -4058    -3773 
   -3632    -3870    -4112    -4171    -4271    -4459    -4639    -4693 
   -4587    -4492    -4436    -4376    -4453    -4650    -4801    -4738 
   -4423    -4156    -4149    -4364    -4761    -5071    -5043    -4851 
   -4691    -4545    -4390    -4287    -4284    -4376    -4585    -4752 
   -4669    -4465    -4320    -4275    -4315    -4228    -4074    -4240 
   -4556    -4600    -4486    -4464    -4526    -4488    -4240    -3982 
   -3921    -4040    -4368    -4726    -4753    -4612    -4571    -4477 
   -4379    -4379    -4328    -4364    -4537    -4429    -4112    -4109 
   -4517    -4981    -4997    -4599    -4317    -4207    -4140    -4148 
   -4035    -3821    -3850    -4086    -4195    -4024    -3716    -3622 
   -3881    -4218    -4372    -4369    -4390    -4434    -4379    -4392 
   -4623    -4826    -4839    -4785    -4789    -4710    -4309    -3798 
   -3466    -3160    -2970    -3171    -3566    -3960    -4376    -4688 
   -4772    -4619    -4386    -4325    -4396    -4480    -4642    -4826 
   -4887    -4860    -4914    -5038    -5067    -5008    -4887    -4727 
   -4546    -4256    -3987    -3923    -3902    -3685    -3211    -2674 
   -2396    -2392    -2512    -2852    -3323    -3645    -3892    -4062 
   -3894    -3619    -3634    -3808    -3851    -3769    -3747    -3869 
   -4012    -4133    -4303    -4417    -4398    -4383    -4399    -4303 
   -4071    -3808    -3589    -3511    -3622    -3867    -4106    -4180 
   -4218    -4314    -4239    -3951    -3570    -3199    -3118    -3203 
   -2889    -2319    -2189    -2525    -2971    -3514    -4125    -4637 
   -5049    -5381    -5458    -5096    -4463    -4040    -4068    -4256 
   -4251    -4058    -3771    -3582    -3703    -3801    -3580    -3346 
   -3370    -3763    -4442    -4995    -5186    -5150    -5174    -5265 
   -5093    -4795    -4618    -4264    -3753    -3503    -3395    -3211 
   -3217    -3488    -3705    -3750    -3816    -3994    -4170    -4415 
   -4833    -5055    -4812    -4405    -4071    -3796    -3616    -3510 
   -3461    -3565    -3758    -3929    -4170    -4453    -4502    -4315 
   -4170    -3893    -3280    -2855    -3044    -3685    -4469    -4930 
   -4949    -5059    -5431    -5651    -5510    -5194    -4963    -4914 
   -4934    -4638    -3970    -3659    -3973    -4295    -4461    -4878 
   -5498    -5850    -5756    -5359    -4876    -4347    -3659    -3036 
   -2794    -2749    -2643    -2569    -2843    -3723    -4808    -5316 
   -5269    -5255    -5331    -5256    -5206    -5213    -4858    -4395 
   -4514    -4887    -4891    -4645    -4446    -4540    -4941    -5086 
   -4687    -4179    -4002    -4243    -4569    -4472    -3757    -2901 
   -2727    -3257    -3811    -4171    -4657    -5320    -5665    -5613 
   -5652    -5671    -5406    -5128    -4872    -4244    -3233    -2558 
   -2771    -3375    -3649    -3611    -3531    -3549    -3815    -4093 
   -3909    -3453    -3273    -3476    -3906    -4521    -5277    -5917 
   -6247    -6350    -6129    -5574    -5127    -4819    -4398    -4133 
   -4217    -4405    -4482    -4356    -4094    -3805    -3433    -3091 
   -3138    -3546    -3950    -4306    -4752    -5181    -5389    -5158 
   -4537    -4023    -3834    -3716    -3616    -3534    -3474    -3788 
   -4325    -4504    -4384    -4190    -4133    -4599    -5231    -5428 
   -5359    -5343    -5398    -5319    -4815    -3927    -3017    -2465 
   -2327    -2166    -1860    -2033    -2821    -3514    -3789    -3804 
   -3554    -3368    -3685    -4178    -4402    -4514    -4783    -5221 
   -5657    -5826    -5687    -5421    -5058    -4649    -4402    -4241 
   -4176    -4513    -5035    -5174    -4831    -4345    -4083    -4033 
   -3929    -3730    -3541    -3399    -3380    -3626    -4094    -4410 
   -4237    -3704    -3087    -2565    -2633    -3485    -4243    -4460 
   -4750    -5186    -5267    -4920    -4347    -3790    -3658    -4120 
   -4595    -4423    -4072    -4266    -4461    -4083    -3577    -3207 
   -2940    -3042    -3572    -4210    -4803    -5298    -5382    -5000 
   -4631    -4591    -4812    -5175    -5491    -5526    -5309    -5024 
   -4599    -3920    -3188    -2660    -2373    -2276    -2361    -2601 
   -3063    -3811    -4608    -4997    -4780    -4179    -3632    -3470 
   -3549    -3518    -3291    -2883    -2536    -2782    -3593    -4218 
   -4425    -4704    -5094    -5373    -5613    -5714    -5536    -5117 
   -4465    -3990    -4218    -4797    -5202    -5499    -5826    -6444 
   -7349    -7703    -7128    -6226    -5464    -5022    -4876    -4653 
   -4338    -4382    -4726    -4855    -4710    -4309    -3323    -2239 
   -1900    -2100    -2558    -3241    -3620    -3541    -3348    -3137 
   -2841    -2440    -2199    -2396    -2857    -3316    -3568    -3404 
   -3036    -2964    -3279    -3581    -3442    -2926    -2628    -2706 
   -2851    -3103    -3470    -3773    -4090    -4406    -4549    -4479 
   -4287    -4175    -4203    -4212    -3996    -3631    -3631    -4345 
   -5371    -5975    -6095    -6281    -6706    -7125    -7164    -6567 
   -5784    -5402    -5408    -5432    -5085    -4618    -4611    -4899 
   -5088    -5192    -5306    -5629    -6355    -7237    -7739    -7813 
   -7885    -7940    -7801    -7693    -7488    -6983    -6615    -6349 
   -5571    -4484    -3591    -2722    -1706     -814     -313     -166 
    -337     -932    -1750    -2393    -2693    -2770    -2809    -2687 
   -2482    -2700    -3172    -3368    -3481    -3703    -3819    -3848 
   -3985    -4334    -4743    -5008    -5251    -5444    -5298    -4741 
   -3817    -2922    -2872    -3744    -4495    -4386    -4012    -4241 
   -4880    -5229    -4934    -4055    -3222    -2979    -2828    -2184 
   -1509    -1580    -2386    -3168    -3388    -3202    -2997    -3164 
   -3878    -4646    -4796    -4357    -3673    -2999    -2712    -2816 
   -3007    -3388    -4027    -4553    -4633    -4268    -3858    -3723 
   -3697    -3640    -3665    -3904    -4556    -5671    -6785    -7207 
   -6987    -6836    -6778    -6293    -5589    -5224    -5066    -4776 
   -4267    -3272    -1944     -980     -442     -130     -306     -957 
   -1628    -2231    -3086    -3893    -3962    -3542    -3176    -2745 
   -2536    -3292    -4572    -5182    -5076    -4874    -4683    -4652 
   -4885    -4587    -3433    -2643    -2902    -3546    -4054    -4290 
   -4282    -4291    -4444    -4747    -5130    -5263    -5015    -4627 
   -4198    -3797    -3678    -3515    -2848    -2093    -1524    -1038 
   -1112    -1989    -3233    -4669    -6332    -7793    -8496    -8517 
   -8397    -8330    -8052    -7545    -7194    -7053    -6841    -6606 
   -6477    -6065    -5128    -4287    -4206    -4665    -5197    -5738 
   -6158    -6308    -6365    -6251    -5744    -5066    -4444    -3947 
   -3627    -3194    -2550    -2258    -2398    -2304    -1921    -1783 
   -1948    -2218    -2628    -3078    -3356    -3415    -3389    -3500 
   -3662    -3715    -3812    -3948    -4063    -4446    -5212    -6112 
   -6951    -7624    -8006    -8140    -8093    -7551    -6304    -4861 
   -3986    -3896    -4251    -4630    -4839    -5020    -5321    -5491 
   -5076    -3924    -2542    -1618    -1372    -1688    -2181    -2430 
   -2443    -2404    -2479    -2737    -2880    -2695    -2485    -2654 
   -3258    -3909    -4221    -4476    -5163    -5992    -6396    -6349 
   -6007    -5632    -5633    -6056    -6601    -6980    -7076    -6968 
   -6832    -6735    -6473    -5829    -5043    -4698    -4920    -5247 
   -5475    -5594    -5389    -5074    -4936    -4656    -4201    -4075 
   -4318    -4488    -4330    -4018    -3960    -4193    -4430    -4699 
   -4963    -4934    -4615    -4160    -3755    -3558    -3364    -3091 
   -2855    -2571    -2435    -2714    -3091    -3272    -3315    -3210 
   -3240    -3785    -4318    -4102    -3403    -2808    -2482    -2485 
   -2782    -3134    -3476    -4091    -5042    -5898    -6232    -5992 
   -5493    -5055    -4610    -4094    -3686    -3358    -3069    -3144 
   -3577    -3962    -4284    -4522    -4526    -4676    -5003    -5074 
   -5017    -4885    -4492    -4357    -4619    -4399    -3586    -3080 
   -3156    -3470    -3890    -4276    -4197    -3528    -2818    -2562 
   -2529    -2254    -1674    -1016     -702    -1147    -2112    -2866 
   -3100    -3075    -3022    -2884    -2713    -2916    -3712    -4866 
   -6030    -6978    -7704    -8298    -8638    -8530    -8001    -7483 
   -7588    -8203    -8610    -8669    -8614    -8249    -7501    -6926 
   -6799    -6515    -5594    -4488    -3699    -3237    -3114    -3125 
   -2957    -2829    -3034    -3392    -3466    -3219    -3006    -2779 
   -2504    -2654    -3214    -3673    -3829    -3569    -2920    -2285 
   -1806    -1312    -1046    -1393    -2164    -2938    -3514    -3844 
   -3987    -4001    -4043    -4158    -4093    -3950    -3813    -3279 
   -2586    -2498    -2957    -3474    -3932    -4367    -4772    -5188 
   -5661    -6070    -6068    -5516    -4899    -4737    -4882    -5004 
   -4974    -4703    -4378    -4205    -4087    -4064    -4013    -3527 
   -2762    -2173    -1845    -1734    -1749    -1761    -1827    -2116 
   -2674    -3227    -3573    -3923    -4426    -5179    -6083    -6365 
   -5732    -4984    -4457    -3873    -3449    -3399    -3492    -3649 
   -3838    -3712    -3173    -2898    -3551    -4691    -5378    -5386 
   -5085    -4869    -4950    -5157    -5104    -4720    -4290    -4156 
   -4426    -4928    -5460    -5883    -6108    -6103    -5810    -5262 
   -4735    -4422    -4199    -4020    -4031    -4122    -4091    -3998 
   -3917    -3816    -3757    -3732    -3480    -2964    -2683    -3021 
   -3693    -4140    -4183    -4029    -3851    -3608    -3237    -2986 
   -3084    -3323    -3592    -3939    -4141    -4099    -3951    -3798 
   -3848    -4139    -4286    -3993    -3410    -2949    -2813    -2886 
   -2991    -2953    -2972    -3429    -4002    -4509    -5321    -6056 
   -6215    -6346    -6839    -7380    -7763    -7898    -7716    -7294 
   -6642    -5807    -5034    -4445    -3955    -3541    -3276    -3176 
   -3204    -3229    -3017    -2608    -2357    -2424    -2620    -2808 
   -3206    -3937    -4612    -4992    -5286    -5495    -5556    -5694 
   -5914    -5989    -5921    -5845    -5823    -5682    -5452    -5591 
   -5900    -5767    -5259    -4702    -4329    -4240    -4225    -4190 
   -4172    -4191    -4387    -4587    -4383    -3804    -3287    -3302 
   -3785    -4098    -4035    -3815    -3653    -3888    -4364    -4440 
   -4124    -3807    -3505    -3253    -3079    -2809    -2496    -2268 
   -2123    -2249    -2594    -2683    -2539    -2596    -2907    -3190 
   -3123    -2779    -2623    -2876    -3441    -4037    -4230    -3960 
   -3650    -3426    -3105    -2910    -3052    -3372    -3888    -4453 
   -4603    -4345    -3994    -3715    -3728    -4248    -5061    -5653 
   -5922    -6218    -6744    -7404    -7867    -7763    -7195    -6762 
   -6848    -7111    -7018    -6600    -6253    -6224    -6415    -6454 
   -6189    -5767    -5362    -5189    -5219    -5169    -5111    -5278 
   -5443    -5181    -4511    -3979    -3982    -4325    -4714    -4999 
   -5031    -4838    -4503    -3889    -3096    -2484    -2087    -1836 
   -1821    -2023    -2381    -2895    -3483    -3924    -3960    -3659 
   -3337    -2944    -2296    -1687    -1456    -1649    -2192    -2682 
   -2763    -2805    -3202    -3707    -3958    -3865    -3605    -3623 
   -4155    -4787    -5057    -5161    -5440    -5834    -6207    -6421 
   -6394    -6444    -6771    -7041    -7084    -7094    -7156    -7184 
   -7017    -6646    -6172    -5590    -5138    -5086    -5111    -4801 
   -4311    -3936    -3662    -3334    -2955    -2579    -2235    -2099 
   -2263    -2408    -2313    -2268    -2488    -2909    -3433    -3888 
   -4145    -4329    -4658    -4993    -4970    -4816    -4947    -5105 
   -5035    -4923    -4857    -4899    -5163    -5493    -5725    -5877 
   -5942    -5880    -5690    -5416    -5151    -5000    -4905    -4637 
   -4245    -3985    -3854    -3689    -3399    -3111    -2899    -2682 
   -2608    -2720    -2782    -2779    -2752    -2693    -2756    -2980 
   -3181    -3248    -3300    -3488    -3693    -3800    -3862    -3846 
   -3724    -3546    -3377    -3362    -3492    -3778    -4359    -4928 
   -5034    -4869    -4874    -5090    -5406    -5653    -5606    -5439 
   -5451    -5478    -5209    -4730    -4436    -4463    -4484    -4156 
   -3468    -2689    -2164    -2035    -2161    -2430    -2767    -2928 
   -2844    -2768    -2748    -2674    -2637    -2700    -2941    -3512 
   -4236    -4884    -5389    -5545    -5287    -4970    -4876    -4922 
   -4999    -5080    -5155    -5370    -5724    -5934    -5904    -5737 
   -5622    -5775    -5975    -5787    -5344    -5166    -5302    -5358 
   -5163    -4797    -4267    -3669    -3231    -3038    -2988    -2960 
   -2941    -2945    -2914    -2952    -3123    -3094    -2791    -2685 
   -2847    -3010    -3163    -3242    -3217    -3348    -3650    -3823 
   -3900    -4180    -4529    -4509    -4144    -3828    -3746    -3921 
   -4348    -4827    -5147    -5335    -5497    -5663    -5796    -5788 
   -5601    -5352    -5228    -5347    -5610    -5755    -5786    -5900 
   -5999    -5906    -5638    -5247    -4869    -4672    -4664    -4598 
   -4167    -3508    -3053    -2917    -2890    -2797    -2813    -3152 
   -3559    -3797    -3987    -4256    -4650    -5135    -5512    -5710 
   -5832    -5815    -5647    -5566    -5640    -5767    -5902    -5931 
   -5819    -5678    -5578    -5464    -5192    -4830    -4594    -4500 
   -4382    -4122    -3885    -3866    -3952    -4074    -4278    -4403 
   -4399    -4491    -4652    -4622    -4274    -3730    -3271    -3064 
   -3105    -3308    -3458    -3426    -3353    -3364    -3395    -3416 
   -3485    -3569    -3597    -3586    -3622    -3780    -3956    -4043 
   -4087    -4048    -3909    -3788    -3669    -3553    -3537    -3547 
   -3549    -3631    -3780    -3852    -3807    -3863    -4166    -4525 
   -4781    -4916    -5007    -5189    -5433    -5562    -5478    -5310 
   -5220    -5098    -4882    -4693    -4588    -4552    -4490    -4313 
   -4137    -4005    -3854    -3757    -3724    -3755    -3977    -4324 
