Origin Time       2025/01/13 21:19:00
Lat.              31.8
Long.             131.6
Depth. (km)       30
Mag.              6.9
Station Code      KOCH08
Station Lat.      32.7797
Station Long.     132.9718
Station Height(m) -95
Record Time       2025/01/13 21:20:03
Sampling Freq(Hz) 100Hz
Duration Time(s)  179
Dir.              1
Scale Factor      3923(gal)/8224838
Max. Acc. (gal)   2.603
Last Correction   2025/01/13 21:20:04
Memo.             
[...]
   40211    40193    40186    40174    40073    39951    39912    39962 
   40117    40346    40429    40203    39815    39532    39411    39384 
   39410    39444    39523    39750    40049    40288    40548    40872 
   41099    41152    41131    41111    41060    40921    40725    40582 
   40552    40594    40668    40764    40852    40906    40918    40894 
   40867    40824    40718    40624    40626    40705    40829    40941 
   40950    40859    40755    40621    40370    40019    39694    39513 
   39555    39729    39869    39984    40103    40100    39957    39808 
   39692    39568    39453    39376    39295    39150    39015    39005 
   39032    38998    39020    39113    39109    39021    38989    39043 
   39150    39266    39339    39402    39529    39646    39645    39594 
   39611    39621    39545    39491    39476    39436    39430    39478 
   39530    39598    39634    39672    39900    40239    40374    40257 
   40011    39648    39280    39087    39056    39023    38878    38661 
   38456    38272    38199    38372    38672    38969    39317    39588 
   39615    39522    39395    39241    39174    39106    38905    38762 
   38767    38786    38917    39225    39510    39752    40076    40382 
   40566    40664    40663    40549    40382    40221    40124    40095 
   40047    39942    39820    39688    39555    39537    39684    39881 
   40032    40103    40024    39783    39483    39293    39309    39429 
   39432    39290    39144    39009    38884    38905    39098    39343 
   39599    39862    40088    40231    40230    40089    39919    39775 
   39664    39673    39772    39823    39870    40018    40201    40347 
   40431    40378    40203    40046    40014    40100    40223    40319 
   40413    40508    40532    40489    40450    40435    40450    40464 
   40452    40510    40687    40842    40936    41091    41296    41424 
   41466    41507    41546    41453    41142    40668    40132    39656 
   39356    39166    38988    38961    39216    39633    40018    40211 
   40147    39977    39873    39815    39745    39739    39877    40108 
   40298    40342    40247    40108    40045    40185    40544    40927 
   41127    41142    41038    40844    40635    40448    40297    40273 
   40402    40578    40676    40578    40279    39939    39661    39479 
   39472    39619    39799    39981    40120    40173    40232    40274 
   40217    40158    40089    39899    39684    39532    39359    39117 
   38807    38481    38269    38229    38362    38651    38921    39058 
   39158    39309    39514    39802    40180    40531    40705    40743 
   40710    40494    40154    39935    39826    39744    39739    39725 
   39622    39603    39738    39857    39877    39900    39995    40173 
   40452    40780    41018    41040    40867    40680    40578    40470 
   40354    40327    40381    40512    40774    41072    41270    41373 
   41347    41153    40937    40783    40605    40429    40325    40225 
   40135    40192    40381    40528    40620    40733    40779    40702 
   40666    40730    40752    40667    40498    40217    39864    39599 
   39505    39474    39387    39255    39105    38950    38846    38840 
   38993    39357    39789    40053    40108    40116    40228    40421 
   40560    40624    40679    40732    40738    40686    40597    40452 
   40171    39795    39537    39511    39640    39856    40100    40315 
   40505    40668    40744    40729    40702    40643    40464    40243 
   40081    39911    39679    39503    39503    39658    39906    40178 
   40387    40559    40755    40868    40851    40851    40891    40768 
   40428    40144    40135    40269    40367    40441    40510    40610 
   40776    40902    40990    41154    41291    41278    41229    41173 
   41033    40888    40848    40903    40996    41022    40949    40868 
   40788    40726    40757    40821    40855    40929    41018    40998 
   40917    40868    40765    40478    40051    39760    39865    40278 
   40674    40882    40987    41081    41044    40778    40439    40197 
   40065    40039    40108    40219    40356    40487    40494    40331 
   40062    39704    39301    38942    38619    38350    38234    38267 
   38358    38481    38661    38890    39078    39159    39226    39394 
   39556    39526    39344    39144    38970    38912    39109    39484 
   39765    39810    39727    39646    39582    39495    39368    39336 
   39550    39853    40030    40146    40149    39838    39415    39190 
   39085    39028    39105    39177    39108    39060    39127    39309 
   39684    40085    40257    40350    40549    40756    40915    41003 
   40919    40776    40741    40691    40482    40225    40045    39966 
   39974    39962    39938    39937    39768    39452    39271    39264 
   39347    39517    39703    39793    39730    39550    39352    39222 
   39263    39421    39469    39356    39289    39414    39617    39738 
   39745    39676    39603    39584    39614    39699    39891    40136 
   40348    40566    40830    41112    41315    41214    40767    40261 
   39896    39676    39609    39636    39663    39703    39814    39911 
   39833    39610    39460    39436    39461    39565    39734    39864 
   39916    39891    39791    39675    39567    39457    39418    39577 
   39953    40394    40740    40938    41026    41095    41227    41380 
   41388    41148    40738    40311    39935    39665    39537    39469 
   39386    39367    39441    39513    39533    39471    39328    39208 
   39163    39123    39060    39047    39158    39384    39667    39943 
   40097    40020    39812    39626    39482    39407    39434    39496 
   39565    39583    39448    39244    39208    39411    39760    40174 
   40571    40838    40983    41165    41544    42076    42542    42786 
   42805    42611    42219    41706    41199    40841    40672    40574 
   40458    40396    40439    40464    40352    40228    40351    40733 
   41094    41212    41103    40896    40699    40502    40278    40109 
   40030    39903    39660    39360    39039    38792    38811    39105 
   39492    39861    40176    40421    40585    40643    40614    40589 
   40610    40598    40470    40281    40116    40003    40019    40232 
   40517    40693    40707    40575    40342    40149    40130    40221 
   40258    40197    40054    39834    39668    39691    39852    40031 
   40207    40427    40726    41021    41183    41214    41214    41172 
   40991    40703    40412    40124    39825    39517    39163    38750 
   38317    37932    37723    37766    37968    38275    38692    39132 
   39557    39947    40107    39992    39856    39776    39660    39540 
   39434    39270    39077    38944    38924    39029    39214    39448 
   39775    40163    40552    40963    41315    41439    41303    41067 
   40956    41033    41125    41112    41035    40973    41038    41274 
   41532    41701    41829    41872    41764    41592    41350    40967 
   40541    40219    40058    40109    40279    40308    40068    39698 
   39339    39074    39023    39098    38982    38631    38350    38326 
   38399    38385    38335    38321    38286    38268    38387    38603 
   38777    38839    38809    38763    38709    38558    38349    38240 
   38218    38215    38286    38449    38724    39150    39606    39993 
   40374    40701    40857    40913    40954    40986    41069    41257 
   41463    41661    41928    42167    42205    42174    42237    42269 
   42144    41937    41743    41547    41284    40921    40494    40081 
   39754    39568    39530    39599    39714    39799    39753    39614 
   39544    39540    39488    39426    39403    39352    39295    39328 
   39463    39642    39776    39803    39762    39731    39741    39826 
   40041    40335    40571    40680    40678    40599    40493    40410 
   40396    40444    40478    40439    40321    40101    39815    39575 
   39330    38983    38664    38481    38456    38657    39102    39703 
   40405    41103    41663    42082    42300    42151    41673    41116 
   40670    40406    40297    40267    40274    40281    40271    40315 
   40446    40564    40626    40726    40878    41006    41166    41376 
   41507    41597    41731    41705    41385    40902    40374    39976 
   39891    40014    40200    40483    40726    40761    40682    40486 
   40127    39852    39849    39947    39937    39779    39553    39384 
   39361    39432    39529    39685    39854    39947    40022    40130 
   40219    40236    40140    39918    39644    39410    39244    39206 
   39388    39803    40331    40810    41137    41262    41158    40849 
   40356    39803    39448    39276    39077    38905    38780    38589 
   38526    38743    39029    39240    39383    39414    39298    39123 
   39028    39054    39123    39239    39442    39631    39680    39609 
   39513    39479    39600    39883    40204    40387    40329    40111 
   39888    39700    39568    39583    39690    39726    39711    39717 
   39749    39858    40026    40155    40252    40332    40393    40433 
   40340    40057    39714    39471    39426    39559    39648    39540 
   39376    39344    39434    39573    39768    40065    40509    41091 
   41643    41936    41914    41648    41258    40917    40693    40501 
   40244    39847    39347    38927    38766    38890    39183    39505 
   39762    39920    40005    40016    39920    39739    39567    39534 
   39684    39874    39965    40004    40149    40446    40802    41127 
   41351    41428    41412    41353    41169    40876    40641    40462 
   40217    40015    39939    39829    39611    39393    39189    39029 
   39021    39105    39125    39102    39152    39295    39529    39854 
   40189    40431    40540    40554    40527    40467    40329    40078 
   39776    39465    39079    38639    38273    38013    37872    37920 
   38119    38399    38753    39191    39737    40331    40806    41102 
   41266    41256    41096    40998    41095    41324    41570    41740 
   41804    41796    41759    41648    41412    41158    41006    40932 
   40945    41089    41299    41473    41616    41751    41823    41782 
   41617    41354    41071    40784    40447    40136    39977    39919 
   39880    39869    39862    39796    39690    39590    39588    39784 
   40103    40392    40536    40441    40213    40072    39912    39488 
   38853    38261    37914    37828    37858    37924    38082    38296 
   38453    38573    38743    38958    39204    39482    39714    39819 
   39837    39837    39789    39667    39513    39307    39056    38897 
   38846    38792    38699    38488    38115    37777    37631    37613 
   37678    37827    37935    37935    37947    38055    38218    38429 
   38712    39023    39267    39380    39383    39397    39552    39843 
   40173    40475    40699    40864    41116    41515    41929    42282 
   42623    42985    43310    43533    43600    43524    43422    43352 
   43244    43059    42807    42529    42319    42249    42326    42504 
   42657    42714    42772    42919    43089    43158    43066    42838 
   42506    42049    41472    40900    40459    40124    39815    39530 
   39344    39253    39191    39177    39266    39452    39690    39912 
   40059    40142    40189    40182    40068    39847    39648    39514 
   39343    39114    38865    38620    38543    38724    39004    39287 
   39648    40082    40504    40857    41057    40995    40729    40417 
   40124    39854    39596    39355    39186    39102    39083    39221 
   39541    39853    40030    40159    40331    40554    40801    40972 
   40968    40849    40733    40663    40639    40649    40664    40648 
   40586    40512    40463    40394    40289    40227    40213    40151 
   40022    39873    39692    39482    39345    39347    39421    39487 
   39540    39595    39618    39564    39441    39301    39198    39163 
   39231    39457    39814    40147    40394    40579    40678    40753 
   40890    40977    40950    40861    40670    40365    40085    39895 
   39775    39760    39825    39879    39945    40073    40252    40455 
   40571    40581    40595    40579    40558    40601    40570    40462 
   40392    40379    40505    40691    40757    40732    40639    40479 
   40397    40468    40571    40564    40412    40122    39715    39276 
   38870    38466    38048    37751    37681    37775    37947    38080 
   38092    38030    37909    37706    37496    37351    37265    37189 
   37096    37060    37168    37403    37747    38217    38747    39216 
   39523    39673    39745    39738    39614    39447    39339    39291 
   39312    39415    39537    39644    39802    40035    40273    40459 
   40598    40689    40707    40717    40803    40981    41197    41327 
   41251    41008    40748    40589    40540    40558    40612    40671 
   40693    40743    40941    41280    41643    41945    42157    42290 
   42367    42411    42439    42464    42471    42484    42600    42785 
   42884    42823    42631    42396    42219    42106    42025    41997 
   42059    42214    42392    42466    42388    42237    42094    41964 
   41845    41743    41638    41473    41218    40940    40683    40446 
   40289    40271    40398    40625    40810    40817    40648    40408 
   40238    40196    40230    40273    40281    40251    40227    40262 
   40370    40521    40670    40815    40965    41073    41107    41052 
   40865    40549    40127    39641    39144    38612    38013    37408 
   36818    36200    35607    35164    34873    34680    34655    34878 
   35255    35634    35992    36325    36551    36675    36807    36949 
   37037    37034    36902    36717    36678    36799    36933    37098 
   37363    37667    38001    38434    38896    39303    39726    40188 
   40593    40923    41276    41674    42041    42313    42475    42562 
   42631    42714    42828    42975    43090    43101    43050    42989 
   42904    42835    42842    42834    42709    42583    42538    42475 
   42422    42496    42643    42804    42966    43116    43298    43501 
   43673    43853    44078    44302    44482    44647    44832    45004 
   45076    44976    44748    44513    44305    44084    43884    43772 
   43756    43758    43679    43475    43174    42824    42472    42122 
   41764    41422    41107    40794    40463    40088    39621    39127 
   38740    38469    38240    38084    38032    37995    37916    37843 
   37774    37617    37315    36903    36474    36115    35887    35792 
   35779    35754    35646    35495    35403    35368    35351    35410 
   35595    35850    36077    36224    36309    36369    36417    36478 
   36602    36788    37011    37291    37670    38192    38838    39463 
   39918    40196    40362    40421    40366    40259    40166    40105 
   40069    40028    39923    39741    39565    39519    39654    39879 
   40081    40238    40373    40540    40751    40923    41019    41087 
   41142    41143    41108    41096    41112    41125    41126    41080 
   40981    40917    40903    40883    40868    40867    40830    40791 
   40844    40984    41123    41200    41149    40929    40626    40375 
   40193    40042    39927    39846    39749    39631    39559    39621 
   39831    40104    40397    40741    41084    41315    41403    41386 
   41315    41243    41164    41049    40968    40987    41058    41118 
   41170    41254    41380    41503    41585    41627    41642    41656 
   41644    41532    41319    41077    40830    40578    40324    40069 
   39793    39476    39097    38657    38203    37789    37416    37068 
   36786    36603    36468    36363    36362    36501    36722    36972 
   37245    37563    37960    38396    38736    38902    38963    38990 
   39040    39194    39399    39518    39575    39675    39783    39818 
   39831    39923    40076    40215    40309    40371    40451    40586 
   40765    41011    41349    41708    41990    42144    42209    42268 
   42275    42118    41844    41534    41181    40805    40433    40027 
   39592    39172    38749    38348    38030    37767    37509    37291 
   37161    37134    37201    37342    37490    37594    37662    37717 
   37793    37929    38101    38281    38473    38645    38765    38851 
   38936    39020    39078    39133    39240    39391    39549    39702 
   39835    39939    40062    40251    40466    40643    40788    40934 
   41075    41215    41364    41511    41651    41755    41791    41820 
   41902    42012    42101    42156    42186    42187    42152    42124 
   42130    42132    42111    42101    42102    42093    42067    42007 
   41914    41800    41659    41494    41318    41149    41004    40898 
   40829    40751    40616    40471    40381    40321    40270    40247 
   40265    40320    40398    40477    40541    40587    40624    40667 
   40687    40668    40647    40637    40647    40734    40907    41072 
   41214    41404    41636    41864    42079    42284    42473    42650 
   42800    42854    42778    42635    42473    42325    42246    42230 
   42191    42103    41995    41879    41775    41697    41624    41562 
   41585    41712    41855    41949    42026    42122    42236    42329 
   42315    42128    41825    41499    41157    40814    40498    40190 
   39893    39656    39463    39318    39264    39290    39364    39521 
   39780    40089    40382    40632    40815    40915    40973    41031 
   41019    40884    40675    40428    40170    39958    39757    39501 
   39267    39129    39021    38913    38858    38894    39004    39079 
   39035    38909    38797    38708    38612    38531    38479    38449 
   38503    38691    38936    39163    39426    39738    40009    40213 
   40369    40500    40598    40601    40495    40321    40128    39993 
   39907    39780    39623    39513    39449    39397    39333    39272 
   39252    39276    39329    39405    39526    39711    39916    40063 
   40136    40178    40232    40313    40359    40277    40081    39833 
   39532    39199    38924    38777    38749    38796    38867    38955 
   39096    39307    39553    39806    40005    40097    40100    40050 
   39966    39881    39803    39721    39683    39729    39818    39927 
   40097    40347    40643    40952    41273    41596    41874    42082 
   42245    42363    42410    42415    42395    42341    42275    42213 
   42140    42087    42076    42079    42110    42179    42234    42282 
   42338    42336    42238    42097    41945    41812    41705    41580 
   41413    41207    40952    40657    40354    40084    39904    39777 
   39611    39415    39216    38983    38753    38570    38389    38186 
   38020    37957    38002    38115    38254    38403    38523    38588 
   38611    38597    38518    38385    38242    38118    38009    37887 
   37728    37555    37412    37315    37293    37365    37449    37469 
   37446    37420    37412    37443    37519    37625    37713    37743 
   37751    37782    37806    37831    37893    37964    38033    38164 
   38384    38654    38944    39245    39510    39703    39839    39938 
   40003    40065    40174    40348    40547    40717    40855    40964 
   41060    41166    41304    41472    41646    41805    41972    42169 
   42376    42558    42697    42782    42789    42704    42566    42396 
   42159    41858    41548    41266    41031    40837    40639    40429 
