Origin Time       2025/01/13 21:19:00
Lat.              31.8
Long.             131.6
Depth. (km)       30
Mag.              6.9
Station Code      KOCH10
Station Lat.      33.5313
Station Long.     133.4388
Station Height(m) 10
Record Time       2025/01/13 21:20:21
Sampling Freq(Hz) 100Hz
Duration Time(s)  164
Dir.              6
Scale Factor      7845(gal)/8223790
Max. Acc. (gal)   0.807
Last Correction   2025/01/13 21:20:21
Memo.             
[...]
     341      353      355      344      355      375      376      372 
     368      346      307      271      264      282      282      265 
     272      315      376      433      483      533      580      611 
     623      616      607      615      623      612      614      646 
     669      665      650      638      654      688      700      706 
     718      718      703      695      697      712      727      734 
     738      743      745      742      734      700      633      581 
     564      553      544      511      464      444      433      406 
     386      390      423      453      430      379      329      263 
     202      170      128       89       79       64       36       39 
      68       98      128      153      156      152      160      162 
     152      157      162      143      128      144      157      157 
     176      222      279      336      383      418      449      467 
     446      407      388      391      403      422      445      465 
     487      510      538      564      565      561      608      672 
     683      649      625      629      643      639      608      571 
     552      534      503      473      449      434      434      432 
     407      380      375      372      356      349      363      372 
     379      373      364      391      422      418      402      394 
     375      338      311      297      265      221      193      189 
     191      201      225      244      251      271      305      332 
     341      334      337      361      378      388      411      422 
     425      449      476      506      553      579      576      587 
     618      631      633      638      639      637      648      653 
     639      634      638      629      619      618      599      576 
     576      587      584      584      600      603      588      594 
     618      625      599      553      508      483      480      484 
     477      467      459      456      457      467      476      475 
     463      452      449      469      494      481      453      450 
     452      436      440      460      463      463      460      445 
     440      448      444      418      394      403      446      488 
     521      554      581      595      614      646      687      729 
     754      761      773      777      739      707      726      749 
     738      708      668      639      649      666      677      691 
     687      658      643      656      685      722      746      764 
     781      778      760      749      739      719      696      676 
     658      642      623      591      554      533      515      490 
     464      436      413      414      437      453      449      450 
     464      453      423      409      402      390      382      378 
     368      349      324      301      299      313      318      321 
     315      301      287      267      228      206      209      214 
     229      245      255      287      340      384      434      480 
     499      511      530      535      541      553      558      557 
     567      594      623      638      648      658      680      704 
     710      699      687      672      657      646      631      602 
     572      558      550      526      502      506      521      527 
     538      553      568      581      572      554      552      542 
     514      486      460      441      430      423      417      403 
     394      399      405      396      384      375      365      363 
     355      334      319      310      291      263      236      221 
     221      217      202      193      184      156      113       86 
      79       71       52       44       59       99      145      176 
     202      220      232      263      301      313      313      318 
     326      330      324      309      301      306      310      301 
     282      264      263      270      252      222      209      209 
     211      216      214      214      224      237      265      314 
     367      402      419      448      484      498      495      498 
     506      519      540      564      602      645      680      719 
     765      807      850      882      884      870      855      843 
     839      838      832      827      812      788      773      749 
     699      653      629      606      581      554      523      495 
     469      449      450      446      421      406      414      409 
     387      363      336      313      291      274      268      268 
     270      270      272      295      344      382      398      418 
     456      490      514      534      537      518      491      469 
     465      468      467      477      495      498      495      515 
     546      564      557      518      479      465      449      426 
     425      432      430      442      450      440      426      409 
     380      364      369      378      376      372      378      415 
     479      533      561      577      602      630      650      681 
     711      711      706      710      706      702      697      680 
     658      642      637      637      634      622      599      580 
     577      577      575      596      643      684      710      730 
     734      714      670      622      585      569      568      573 
     577      594      611      630      664      692      697      707 
     722      707      662      635      635      635      638      658 
     691      714      711      695      704      724      724      710 
     693      676      661      634      594      569      571      565 
     554      558      577      591      595      612      645      654 
     641      625      598      556      513      479      442      414 
     410      413      398      364      321      287      272      257 
     234      206      170      145      140      133      109       94 
      91       70       51       79      124      140      139      130 
     108       86       82       81       78       75       64       56 
      51       41       37       45       55       58       59       58 
      52       41       35       35       45       74      121      167 
     195      207      222      245      253      247      251      251 
     249      267      279      274      286      310      315      330 
     359      361      349      356      371      369      383      434 
     486      517      550      600      646      673      683      691 
     712      731      735      731      730      726      727      741 
     758      778      799      810      808      796      796      820 
     839      838      838      838      826      820      841      868 
     880      885      888      893      907      913      893      855 
     816      772      726      695      660      606      548      498 
     460      432      400      361      319      284      274      275 
     274      284      306      318      333      371      425      473 
     506      527      550      579      604      622      633      625 
     589      560      556      546      525      513      503      480 
     456      430      419      434      449      449      454      467 
     471      468      457      456      494      533      541      541 
     552      576      595      591      577      569      544      504 
     467      434      410      395      375      346      319      306 
     303      298      297      311      333      356      394      445 
     491      538      587      622      649      675      681      680 
     683      684      681      679      680      665      622      569 
     519      461      399      342      302      283      270      261 
     268      279      294      310      330      355      384      419 
     456      492      522      541      552      560      573      587 
     587      589      615      654      688      706      714      724 
     750      788      814      812      818      842      853      838 
     810      785      765      726      669      607      542      486 
     440      390      333      292      264      230      203      183 
     160      137      117      103      105      116      118      108 
      93       78       67       66       62       62       71       79 
      87       93       91      101      132      163      193      218 
     228      228      232      236      248      270      291      309 
     324      332      341      360      384      402      418      429 
     437      446      456      461      453      432      411      396 
     384      378      369      346      319      310      314      322 
     330      333      344      372      406      434      449      459 
     472      486      479      452      436      438      441      437 
     437      445      452      445      438      446      459      469 
     477      481      479      480      495      508      514      525 
     540      557      588      615      629      642      653      649 
     630      610      595      584      572      567      564      568 
     562      530      508      507      499      495      500      499 
     487      472      452      419      387      360      336      313 
     295      288      295      314      348      392      436      467 
     499      531      556      581      607      622      631      642 
     658      670      669      662      658      645      635      639 
     645      649      653      652      650      652      649      643 
     625      598      581      577      562      523      476      438 
     410      378      333      288      257      238      217      195 
     184      180      175      170      171      179      182      180 
     184      199      221      228      228      245      270      286 
     301      310      319      334      337      328      325      329 
     332      325      310      295      284      271      259      248 
     233      205      167      141      132      126      114       97 
      87       95      112      125      148      180      203      218 
     243      265      284      309      329      341      375      422 
     459      494      533      580      631      681      726      768 
     801      831      855      869      876      878      881      880 
     882      895      892      873      850      816      781      764 
     747      720      699      684      670      672      680      668 
     654      666      685      693      702      708      715      731 
     754      769      774      789      811      819      812      807 
     804      792      780      774      766      750      737      716 
     680      643      614      585      565      556      548      529 
     507      502      513      517      511      503      503      515 
     535      558      587      608      619      638      661      679 
     703      727      734      734      738      739      734      733 
     741      751      762      764      756      757      766      769 
     773      788      804      811      814      823      824      803 
     769      745      735      716      680      646      622      602 
     589      581      575      567      542      514      491      464 
     436      422      423      422      399      379      375      367 
     345      325      307      283      253      216      170      120 
      67       16      -25      -55      -75      -97     -118     -124 
    -126     -143     -155     -155     -155     -155     -148     -133 
    -120     -109     -101      -97      -94      -99     -113     -120 
    -124     -133     -140     -141     -148     -151     -137     -114 
     -83      -51      -22       10       52       93      125      156 
     193      238      276      305      329      344      359      378 
     394      410      433      459      494      540      588      630 
     670      714      749      780      803      805      810      828 
     837      831      823      811      793      776      756      723 
     681      641      599      552      513      483      463      456 
     460      472      498      530      571      608      637      654 
     657      649      634      614      594      567      537      511 
     498      499      510      529      560      594      635      689 
     739      781      822      853      882      919      947      966 
     982      988      986      981      955      922      899      866 
     823      773      723      685      657      625      589      558 
     529      488      437      391      367      360      365      384 
     418      464      511      541      552      561      577      592 
     604      625      664      716      768      819      881      957 
    1023     1066     1100     1132     1148     1154     1167     1177 
    1174     1161     1144     1129     1109     1081     1046     1009 
     972      931      880      822      774      747      718      677 
     648      639      623      595      577      568      541      496 
     448      395      336      274      217      178      160      144 
     106       66       44       32       17       13       20       29 
      35       41       40       35       33       29       16        1 
     -21      -49      -75     -101     -128     -148     -160     -175 
    -191     -210     -230     -247     -256     -263     -279     -301 
    -315     -333     -356     -369     -376     -379     -359     -326 
    -307     -291     -259     -213     -157      -94      -31       28 
      93      159      213      263      322      396      476      553 
     612      654      703      760      815      869      920      954 
     974      996     1017     1030     1028     1023     1019     1012 
    1008      997      974      942      903      858      819      793 
     770      746      722      699      679      664      643      614 
     579      544      506      468      434      410      387      361 
     337      321      303      282      261      241      222      202 
     178      156      139      118       95       81       70       56 
      39       16      -10      -35      -60      -91     -117     -129 
    -137     -145     -141     -129     -113      -85      -43       -1 
      36       72      109      144      179      220      268      309 
     346      386      407      418      438      464      481      488 
     480      465      454      448      436      425      407      383 
     363      360      363      365      373      384      395      409 
     429      468      525      579      631      687      742      793 
     842      882      915      949      984     1015     1034     1035 
    1021     1008      999      986      972      962      961      955 
     942      931      922      909      893      874      849      819 
     789      765      735      708      703      706      700      699 
     706      712      715      706      681      646      611      587 
     572      548      511      475      450      432      414      403 
     396      387      382      382      379      364      334      305 
     286      263      237      213      190      172      163      152 
     143      141      144      148      160      171      182      195 
     211      230      251      267      278      290      309      328 
     340      355      371      388      409      425      436      463 
     499      525      545      572      592      607      621      623 
     619      618      611      600      598      595      580      564 
     552      537      522      510      496      475      448      421 
     391      369      355      324      290      278      278      286 
     301      310      313      311      297      276      265      257 
     243      228      213      197      184      178      176      179 
     176      166      153      149      153      153      149      144 
     137      133      137      140      133      124      122      124 
     129      141      141      121       97       81       75       82 
      90       98      117      145      178      211      240      265 
     302      346      388      427      468      508      538      560 
     580      600      611      610      607      604      592      576 
     568      560      550      553      564      572      580      592 
     607      618      638      676      714      737      758      778 
     800      824      838      843      854      857      847      834 
     822      815      810      797      776      756      735      714 
     703      697      683      662      652      656      661      664 
     664      665      666      661      639      616      600      580 
     544      507      481      453      413      368      332      303 
     280      270      261      244      225      217      213      206 
     203      205      206      214      228      238      255      276 
     295      310      329      355      380      409      442      473 
     508      545      572      594      618      646      687      733 
     774      815      853      889      922      951      981     1007 
    1023     1034     1036     1034     1035     1042     1058     1080 
    1101     1115     1116     1117     1123     1123     1115     1109 
    1097     1078     1061     1042     1012      978      950      919 
     884      843      795      749      704      658      615      581 
     548      508      473      449      422      386      342      295 
     248      197      139       91       56       18      -17      -39 
     -60      -89     -116     -137     -153     -167     -186     -207 
    -222     -226     -222     -216     -211     -211     -202     -186 
    -183     -190     -187     -179     -174     -164     -151     -141 
    -128     -109      -89      -72      -59      -54      -51      -43 
     -29      -16        6       37       64       91      117      145 
     183      217      243      267      284      287      286      279 
     263      251      247      244      241      245      255      260 
     263      274      288      305      325      346      365      382 
     394      414      452      500      549      585      616      653 
     685      710      741      774      804      830      849      866 
     889      911      932      966     1007     1038     1054     1061 
    1073     1090     1108     1121     1135     1142     1134     1115 
    1092     1069     1047     1021      993      957      916      880 
     849      816      777      722      661      603      548      492 
     440      388      340      302      271      241      213      187 
     168      152      135      109       82       64       56       47 
      37       37       41       43       58       79       87       94 
     109      120      128      140      159      178      198      225 
     261      294      324      356      391      421      441      457 
     475      498      517      527      546      575      600      629 
     653      662      668      680      684      675      666      660 
     648      634      623      615      608      608      615      622 
     622      619      622      623      621      615      602      579 
