Origin Time       2025/01/13 21:19:00
Lat.              31.8
Long.             131.6
Depth. (km)       30
Mag.              6.9
Station Code      KOCH05
Station Lat.      33.6472
Station Long.     133.1444
Station Height(m) 160
Record Time       2025/01/13 21:20:15
Sampling Freq(Hz) 100Hz
Duration Time(s)  137
Dir.              3
Scale Factor      2942(gal)/8224139
Max. Acc. (gal)   1.301
Last Correction   2025/01/13 21:20:15
Memo.             
[...]
  104487   104441   104404   104371   104386   104446   104484   104450 
  104404   104360   104274   104178   104114   104058   103954   103769 
  103551   103380   103243   103088   102914   102739   102575   102443 
  102363   102332   102332   102347   102365   102390   102446   102508 
  102548   102587   102633   102672   102732   102833   102951   103065 
  103188   103322   103427   103492   103545   103577   103584   103577 
  103563   103565   103609   103689   103801   103929   104006   104025 
  104068   104151   104174   104106   104018   103951   103886   103819 
  103775   103751   103697   103590   103462   103350   103285   103250 
  103189   103114   103067   103040   102978   102883   102848   102884 
  102892   102848   102840   102894   102960   103026   103122   103261 
  103400   103470   103469   103468   103504   103580   103665   103671 
  103601   103578   103626   103692   103773   103835   103847   103809 
  103729   103634   103523   103384   103237   103117   103053   103040 
  103023   103009   103019   103049   103079   103069   103007   102978 
  103022   103052   103013   102995   103053   103130   103218   103338 
  103478   103630   103740   103782   103831   103917   104021   104147 
  104255   104309   104338   104340   104307   104295   104313   104301 
  104259   104236   104220   104194   104175   104156   104102   103982 
  103828   103738   103758   103802   103809   103806   103806   103816 
  103864   103937   103990   104014   104055   104125   104172   104164 
  104113   104056   103997   103897   103778   103701   103677   103646 
  103540   103376   103223   103137   103107   103065   102996   102956 
  102965   102990   102994   102975   102959   102984   102995   102937 
  102870   102825   102797   102811   102848   102892   102964   103022 
  103052   103114   103208   103295   103401   103509   103572   103626 
  103709   103820   103972   104087   104101   104098   104105   104080 
  104064   104062   104060   104063   104048   104047   104089   104126 
  104159   104247   104360   104369   104279   104218   104193   104136 
  104072   104013   103897   103739   103636   103615   103620   103581 
  103481   103396   103384   103423   103457   103454   103446   103489 
  103582   103682   103742   103711   103634   103609   103634   103623 
  103601   103626   103644   103643   103665   103700   103756   103852 
  103979   104136   104306   104469   104618   104704   104707   104672 
  104614   104534   104449   104363   104267   104140   103979   103823 
  103690   103588   103497   103396   103296   103200   103126   103090 
  103076   103115   103199   103262   103318   103412   103559   103735 
  103864   103940   104055   104233   104403   104511   104566   104584 
  104529   104441   104379   104284   104134   103989   103828   103634 
  103442   103253   103069   102925   102799   102716   102725   102762 
  102783   102848   102964   103077   103200   103349   103488   103580 
  103626   103654   103662   103626   103563   103497   103434   103408 
  103395   103338   103303   103372   103497   103623   103747   103854 
  103905   103948   104074   104242   104352   104403   104445   104483 
  104521   104554   104575   104606   104666   104712   104684   104600 
  104527   104453   104359   104276   104195   104120   104075   104008 
  103898   103817   103844   103970   104060   104062   104067   104124 
  104215   104349   104502   104642   104765   104824   104795   104726 
  104676   104647   104580   104450   104315   104188   103995   103715 
  103458   103312   103229   103145   103083   103063   103030   102941 
  102840   102760   102668   102559   102486   102454   102448   102471 
  102528   102586   102595   102614   102708   102789   102805   102829 
  102875   102911   102951   102996   103027   103075   103181   103329 
  103464   103562   103634   103694   103759   103819   103855   103885 
  103881   103846   103860   103885   103825   103762   103779   103806 
  103755   103673   103674   103739   103742   103688   103697   103781 
  103824   103792   103770   103754   103680   103592   103542   103524 
  103531   103539   103532   103542   103574   103586   103547   103497 
  103495   103508   103476   103412   103364   103289   103157   103040 
  103002   103022   103040   103046   103087   103149   103192   103231 
  103269   103248   103199   103235   103350   103430   103445   103466 
  103523   103580   103621   103646   103640   103636   103627   103549 
  103437   103361   103280   103171   103095   103076   103125   103216 
  103281   103357   103520   103709   103832   103927   104051   104159 
  104193   104184   104160   104121   104101   104105   104067   103956 
  103836   103734   103621   103508   103401   103284   103158   103054 
  103026   103057   103083   103123   103203   103249   103249   103248 
  103261   103283   103293   103299   103320   103373   103472   103593 
  103694   103779   103852   103891   103904   103927   103959   103958 
  103908   103862   103819   103712   103572   103473   103392   103284 
  103185   103154   103171   103153   103095   103044   103021   103041 
  103073   103063   103037   103048   103103   103185   103237   103223 
  103204   103249   103331   103423   103526   103617   103698   103763 
  103782   103785   103812   103797   103740   103732   103746   103716 
  103677   103659   103642   103613   103589   103588   103607   103593 
  103532   103492   103520   103586   103648   103682   103716   103801 
  103905   104005   104097   104128   104094   104018   103917   103836 
  103758   103638   103512   103410   103291   103171   103129   103158 
  103204   103277   103374   103462   103547   103638   103707   103756 
  103810   103885   103966   104028   104089   104174   104249   104307 
  104391   104467   104484   104469   104480   104511   104506   104460 
  104423   104398   104345   104260   104174   104101   104022   103941 
  103906   103913   103936   103978   104041   104120   104207   104280 
  104350   104445   104525   104595   104692   104774   104824   104866 
  104907   104942   104959   104950   104896   104809   104757   104734 
  104708   104708   104714   104662   104572   104483   104387   104319 
  104301   104268   104198   104147   104120   104080   103998   103873 
  103765   103692   103572   103407   103262   103145   103075   103054 
  103049   103083   103167   103245   103322   103446   103596   103696 
  103754   103820   103869   103874   103871   103881   103875   103867 
  103896   103918   103874   103835   103878   103952   104012   104086 
  104163   104174   104125   104072   104009   103941   103879   103762 
  103594   103481   103432   103378   103306   103231   103157   103087 
  103026   102955   102868   102814   102811   102844   102894   102926 
  102945   103029   103152   103204   103226   103273   103291   103266 
  103270   103345   103416   103384   103296   103264   103268   103214 
  103145   103160   103216   103227   103225   103245   103257   103258 
  103250   103229   103225   103237   103194   103088   102999   102957 
  102967   103000   102967   102876   102837   102840   102822   102832 
  102898   102969   103011   103041   103073   103121   103164   103176 
  103185   103196   103171   103135   103134   103157   103141   103079 
  103038   103006   102946   102930   102982   103050   103125   103187 
  103234   103296   103327   103312   103333   103346   103284   103216 
  103198   103203   103200   103152   103067   102980   102880   102787 
  102749   102747   102755   102809   102894   102965   103049   103173 
  103291   103395   103531   103667   103793   103950   104067   104118 
  104203   104309   104341   104328   104345   104386   104411   104406 
  104372   104373   104449   104535   104600   104657   104660   104620 
  104595   104539   104419   104283   104167   104048   103883   103674 
  103484   103333   103164   102976   102794   102620   102465   102334 
  102251   102242   102262   102293   102369   102462   102543   102627 
  102701   102766   102852   102946   103052   103192   103316   103405 
  103515   103632   103751   103925   104128   104280   104423   104627 
  104828   104922   104934   104936   104961   104993   104984   104885 
  104750   104683   104672   104650   104661   104749   104828   104826 
  104772   104727   104716   104701   104619   104480   104361   104301 
  104267   104213   104149   104103   104067   104018   103956   103860 
  103716   103565   103486   103453   103388   103314   103268   103216 
  103152   103106   103106   103134   103157   103175   103208   103277 
  103369   103430   103480   103566   103651   103720   103819   103918 
  104002   104133   104317   104481   104588   104656   104697   104711 
  104724   104746   104765   104776   104750   104677   104618   104577 
  104512   104429   104352   104232   104033   103812   103604   103391 
  103198   103052   102906   102741   102625   102613   102668   102745 
  102830   102938   103090   103260   103403   103549   103716   103879 
  104010   104109   104214   104330   104373   104329   104294   104257 
  104143   103990   103848   103698   103555   103459   103416   103388 
  103338   103284   103266   103284   103314   103347   103374   103356 
  103292   103245   103198   103075   102913   102763   102602   102421 
  102247   102096   101987   101910   101852   101812   101790   101796 
  101838   101889   101976   102114   102271   102447   102639   102829 
  103002   103138   103270   103411   103480   103464   103423   103373 
  103291   103184   103081   102999   102936   102876   102780   102655 
  102582   102590   102616   102643   102699   102770   102865   103018 
  103199   103369   103536   103727   103941   104143   104309   104473 
  104647   104791   104905   105012   105079   105093   105059   104982 
  104897   104836   104799   104757   104670   104560   104483   104426 
  104332   104194   104031   103885   103771   103650   103528   103445 
  103383   103331   103316   103342   103357   103330   103303   103330 
  103424   103524   103562   103581   103647   103752   103887   104021 
  104105   104156   104228   104303   104319   104283   104247   104203 
  104129   104056   103995   103933   103886   103878   103905   103952 
  103979   103979   103986   104017   104076   104148   104215   104303 
  104387   104419   104436   104464   104487   104510   104531   104539 
  104525   104479   104437   104394   104317   104253   104210   104132 
  104044   103974   103881   103758   103638   103497   103346   103216 
  103065   102894   102809   102779   102726   102702   102714   102739 
  102803   102913   103065   103253   103416   103573   103767   103947 
  104113   104298   104427   104483   104548   104625   104642   104610 
  104580   104562   104546   104535   104526   104508   104480   104461 
  104442   104400   104341   104268   104191   104155   104174   104203 
  104201   104172   104167   104193   104226   104272   104313   104328 
  104341   104356   104350   104350   104360   104346   104321   104307 
  104303   104323   104398   104514   104633   104719   104785   104886 
  104994   105044   105059   105052   104980   104854   104706   104548 
  104422   104329   104211   104063   103935   103854   103781   103698 
  103665   103698   103727   103742   103806   103900   103972   104051 
  104159   104276   104395   104525   104657   104781   104907   105019 
  105109   105179   105197   105143   105070   105016   104930   104761 
  104531   104310   104118   103931   103736   103550   103388   103250 
  103129   103029   102944   102855   102768   102716   102678   102605 
  102501   102429   102397   102355   102292   102246   102216   102184 
  102184   102222   102251   102276   102289   102261   102227   102224 
  102213   102150   102065   101993   101902   101763   101636   101557 
  101468   101335   101225   101167   101112   101050   101031   101088 
  101196   101318   101460   101605   101719   101830   101960   102066 
  102139   102200   102243   102258   102234   102168   102095   102034 
  101952   101838   101722   101626   101565   101521   101484   101456 
  101445   101457   101460   101447   101457   101480   101501   101510 
  101488   101430   101368   101333   101310   101281   101279   101333 
  101432   101553   101684   101810   101929   102073   102265   102478 
  102663   102810   102959   103129   103296   103443   103601   103788 
  103970   104156   104399   104692   104949   105121   105259   105416 
  105555   105641   105688   105705   105675   105617   105560   105507 
  105418   105277   105119   104950   104793   104683   104564   104406 
  104248   104083   103921   103808   103708   103586   103495   103442 
  103401   103419   103500   103588   103677   103788   103913   104059 
  104211   104346   104507   104689   104818   104903   105005   105093 
  105125   105147   105194   105255   105308   105318   105281   105255 
  105262   105232   105170   105142   105116   105035   104904   104737 
  104556   104390   104213   103990   103754   103555   103385   103195 
  102999   102825   102668   102546   102455   102366   102297   102292 
  102297   102255   102216   102232   102273   102300   102339   102405 
  102481   102560   102640   102716   102813   102941   103096   103268 
  103415   103542   103707   103920   104141   104365   104584   104796 
  105043   105327   105583   105819   106103   106397   106618   106779 
  106936   107092   107215   107271   107246   107176   107082   106944 
  106762   106550   106293   105985   105696   105466   105244   104997 
  104737   104477   104220   103935   103646   103414   103225   103021 
  102821   102668   102552   102433   102316   102250   102235   102217 
  102208   102249   102311   102379   102497   102676   102894   103123 
  103342   103569   103824   104063   104272   104499   104708   104869 
  105027   105178   105282   105370   105476   105567   105625   105702 
  105813   105896   105921   105934   105973   106023   106047   106033 
  105991   105922   105815   105696   105564   105367   105111   104830 
  104565   104356   104161   103945   103751   103607   103489   103384 
  103287   103211   103171   103138   103103   103067   103003   102932 
  102892   102865   102825   102780   102747   102716   102670   102617 
  102564   102512   102470   102444   102417   102401   102424   102474 
  102532   102587   102595   102539   102473   102421   102339   102220 
  102119   102046   101941   101798   101675   101555   101413   101309 
  101270   101260   101259   101255   101270   101306   101337   101385 
  101478   101586   101683   101764   101829   101873   101899   101918 
  101935   101925   101876   101799   101744   101749   101767   101764 
  101799   101904   102037   102161   102309   102508   102737   102957 
  103134   103296   103495   103721   103954   104178   104379   104558 
  104730   104903   105062   105202   105333   105449   105560   105696 
  105826   105910   105945   105927   105871   105814   105771   105690 
  105534   105378   105264   105169   105086   105023   104971   104947 
  104946   104951   104958   104947   104930   104946   104984   105009 
  105011   104993   104970   104934   104870   104787   104687   104552 
  104387   104238   104113   103989   103889   103821   103758   103705 
  103700   103732   103759   103763   103761   103769   103796   103812 
  103779   103717   103674   103644   103612   103576   103509   103397 
  103281   103184   103086   102978   102899   102863   102805   102699 
  102608   102551   102479   102397   102362   102388   102405   102384 
  102365   102389   102455   102541   102628   102714   102807   102921 
  103077   103268   103437   103581   103734   103870   103960   104018 
  104044   104051   104056   104031   103970   103910   103835   103736 
  103659   103613   103570   103518   103449   103389   103372   103350 
  103302   103289   103319   103329   103303   103276   103275   103279 
  103281   103292   103308   103324   103358   103396   103437   103495 
  103555   103615   103709   103821   103900   103956   104010   104059 
  104124   104215   104306   104387   104463   104517   104554   104598 
  104626   104606   104561   104550   104556   104530   104492   104468 
  104465   104484   104487   104483   104506   104529   104556   104623 
  104695   104754   104827   104901   104959   105019   105075   105116 
  105123   105108   105108   105112   105081   105019   104947   104859 
  104735   104576   104404   104251   104113   103948   103756   103585 
  103437   103291   103133   102944   102733   102512   102277   102042 
  101792   101513   101231   100957   100700   100473   100283   100138 
  100060   100039   100044   100084   100199   100377   100565   100768 
  101012   101281   101561   101838   102089   102330   102573   102799 
  102982   103134   103266   103373   103469   103565   103635   103658 
  103671   103727   103810   103873   103897   103914   103951   103982 
  103995   104028   104091   104167   104234   104296   104359   104409 
  104445   104484   104519   104515   104483   104469   104452   104390 
  104309   104244   104184   104106   104024   103966   103923   103874 
  103825   103793   103774   103752   103715   103673   103640   103601 
  103562   103536   103491   103434   103404   103387   103388   103434 
  103492   103536   103586   103638   103689   103752   103816   103885 
  103983   104082   104144   104210   104309   104409   104475   104481 
  104433   104372   104313   104217   104091   103975   103863   103735 
  103616   103539   103480   103404   103304   103199   103103   103015 
  102948   102917   102901   102886   102868   102841   102821   102847 
  102898   102917   102914   102940   102992   103044   103081   103103 
  103115   103125   103123   103123   103144   103161   103183   103243 
  103316   103372   103435   103511   103573   103616   103619   103601 
  103632   103684   103673   103635   103634   103635   103607   103585 
  103569   103538   103515   103511   103500   103472   103424   103372 
  103329   103292   103237   103149   103052   102964   102899   102857 
  102825   102817   102856   102924   103011   103133   103281   103428 
  103562   103716   103896   104056   104186   104306   104415   104490 
  104538   104592   104643   104670   104679   104696   104737   104793 
  104858   104940   105027   105106   105196   105275   105316   105340 
  105356   105344   105320   105291   105223   105108   104978   104851 
  104733   104604   104426   104197   103971   103783   103594   103377 
  103184   103033   102870   102674   102494   102352   102234   102165 
  102153   102143   102149   102216   102335   102470   102617   102774 
  102929   103086   103257   103432   103574   103682   103769   103828 
  103855   103847   103819   103781   103716   103635   103561   103476 
  103393   103341   103275   103177   103100   103050   103002   102955 
  102910   102864   102829   102805   102767   102724   102686   102641 
  102601   102579   102568   102555   102539   102532   102559   102606 
  102648   102699   102771   102852   102945   103036   103119   103203 
  103287   103391   103496   103566   103640   103752   103874   103974 
  104045   104116   104210   104295   104357   104411   104464   104515 
