Origin Time       2025/01/13 21:19:00
Lat.              31.8
Long.             131.6
Depth. (km)       30
Mag.              6.9
Station Code      KOCH05
Station Lat.      33.6472
Station Long.     133.1444
Station Height(m) 260
Record Time       2025/01/13 21:20:15
Sampling Freq(Hz) 100Hz
Duration Time(s)  137
Dir.              6
Scale Factor      7845(gal)/8223790
Max. Acc. (gal)   1.608
Last Correction   2025/01/13 21:20:15
Memo.             
[...]
   13969    13869    13860    13828    13733    13724    13863    14017 
   14116    14149    14057    13879    13732    13629    13605    13716 
   13828    13822    13716    13485    13220    13136    13176    13159 
   13201    13321    13281    13086    13042    13185    13209    13055 
   13055    13331    13574    13549    13320    13077    12981    13070 
   13282    13547    13797    13954    13975    13848    13590    13324 
   13236    13398    13683    13890    13967    13990    13927    13778 
   13761    13911    13909    13765    13795    13906    13857    13729 
   13649    13601    13527    13450    13513    13760    13919    13763 
   13468    13267    13151    13069    13081    13331    13734    13876 
   13586    13263    13242    13293    13155    13043    13250    13657 
   13905    13871    13763    13674    13470    13257    13278    13474 
   13678    13867    14025    14029    13817    13549    13429    13505 
   13687    13856    13867    13675    13524    13597    13660    13440 
   13076    12918    13049    13323    13620    13802    13764    13579 
   13397    13273    13212    13197    13213    13319    13508    13734 
   13938    13895    13587    13460    13717    13933    13815    13718 
   13906    14079    14006    13891    13942    14075    14067    13861 
   13706    13824    13992    13892    13687    13737    13983    14123 
   14095    13975    13730    13375    13159    13335    13772    14080 
   14094    13918    13678    13566    13671    13755    13707    13672 
   13699    13802    13972    14048    13930    13729    13609    13572 
   13444    13228    13232    13493    13711    13768    13695    13539 
   13423    13397    13350    13203    13074    13180    13498    13755 
   13798    13625    13258    12942    12958    13153    13259    13381 
   13595    13734    13775    13764    13684    13579    13444    13333 
   13456    13745    13933    13983    13948    13936    14065    14107 
   13841    13505    13342    13460    13882    14237    14173    13869 
   13695    13818    14060    14069    13819    13601    13556    13710 
   14108    14408    14149    13602    13346    13459    13610    13549 
   13468    13606    13771    13783    13738    13613    13394    13300 
   13392    13572    13763    13814    13737    13714    13738    13687 
   13556    13462    13437    13423    13502    13748    13964    14044 
   14067    13926    13605    13470    13721    14122    14412    14497 
   14342    14042    13867    13934    13994    13806    13512    13416 
   13586    13833    13922    13740    13402    13166    13216    13513 
   13703    13544    13306    13311    13513    13737    13879    13809 
   13524    13373    13630    14023    14115    13938    13853    13995 
   14193    14318    14332    14112    13706    13479    13589    13768 
   13784    13656    13516    13475    13459    13339    13189    13055 
   12903    12966    13409    13797    13733    13554    13639    13730 
   13637    13616    13643    13500    13401    13572    13794    13867 
   13797    13543    13219    13176    13451    13626    13554    13531 
   13706    13995    14318    14449    14118    13578    13406    13663 
   13998    14258    14358    14229    14072    14041    13995    13865 
   13765    13792    13961    14161    14212    14068    13805    13531 
   13428    13555    13703    13819    14008    14126    14038    13879 
   13772    13720    13690    13752    14052    14416    14496    14318 
   14118    13981    13946    13932    13797    13652    13630    13672 
   13813    14038    14035    13663    13215    12976    12982    13162 
   13390    13509    13435    13308    13327    13363    13178    12907 
   12771    12738    12897    13377    13896    14057    13776    13320 
   13043    13061    13215    13294    13220    13213    13547    14011 
   14135    13857    13455    13236    13397    13770    13986    13925 
   13745    13608    13602    13744    13834    13749    13680    13705 
   13728    13763    13761    13647    13547    13653    13888    13968 
   13784    13536    13471    13585    13667    13651    13644    13666 
   13668    13694    13807    13846    13589    13257    13273    13605 
   13818    13689    13443    13348    13435    13558    13563    13474 
   13405    13360    13358    13478    13626    13560    13319    13255 
   13482    13701    13733    13670    13545    13383    13340    13450 
   13609    13737    13806    13830    13799    13726    13682    13606 
   13454    13328    13340    13549    13801    13837    13668    13447 
   13270    13220    13302    13468    13632    13756    13934    14114 
   14077    13906    13864    13884    13807    13734    13737    13732 
   13718    13791    13932    13957    13738    13423    13248    13215 
   13192    13181    13212    13378    13784    14103    13923    13437 
   13082    13024    13185    13377    13514    13651    13756    13764 
   13724    13687    13663    13660    13705    13838    13988    13963 
   13775    13682    13771    13836    13721    13552    13527    13576 
   13514    13398    13370    13373    13394    13536    13666    13593 
   13410    13278    13181    13119    13235    13498    13622    13558 
   13628    13832    13734    13367    13217    13335    13500    13755 
   14099    14266    14118    13802    13544    13560    13751    13690 
   13466    13547    13802    13865    13809    13791    13778    13674 
   13513    13432    13420    13412    13500    13724    13925    13975 
   13938    13910    13840    13625    13301    13161    13498    14089 
   14354    14067    13518    13142    13126    13317    13444    13479 
   13578    13648    13632    13706    13705    13436    13265    13474 
   13867    14133    14056    13767    13670    13784    13865    13986 
   14116    14031    13914    14027    14156    14073    13944    13876 
   13859    14031    14274    14214    13869    13541    13462    13705 
   13959    13883    13674    13622    13751    13983    14127    14018 
   13779    13695    13949    14324    14343    13975    13686    13770 
   14152    14566    14661    14322    13902    13837    14110    14283 
   14176    14071    14079    14048    14034    14145    14181    13977 
   13728    13674    13826    13996    13953    13738    13653    13782 
   13937    13963    13813    13548    13285    13138    13176    13375 
   13578    13630    13576    13564    13599    13555    13404    13309 
   13462    13817    14126    14197    14079    13853    13517    13244 
   13298    13574    13752    13799    13886    14026    14079    13967 
   13795    13690    13659    13759    13980    14099    13999    13813 
   13670    13516    13317    13263    13423    13564    13622    13697 
   13698    13531    13320    13178    13077    13068    13221    13419 
   13571    13662    13585    13365    13254    13320    13410    13549 
   13765    13873    13747    13514    13402    13483    13625    13639 
   13502    13408    13444    13456    13427    13510    13599    13525 
   13473    13599    13693    13514    13193    13107    13365    13691 
   13872    13848    13574    13219    13062    13122    13212    13238 
   13304    13510    13705    13729    13606    13327    12989    12885 
   13127    13578    13915    13886    13643    13392    13154    13103 
   13327    13540    13547    13491    13498    13468    13348    13259 
   13300    13433    13578    13703    13836    13890    13671    13277 
   13126    13315    13575    13774    13878    13784    13467    13111 
   12977    13077    13181    13244    13383    13458    13352    13331 
   13483    13616    13660    13610    13552    13644    13757    13740 
   13772    13953    14104    14088    13909    13729    13716    13778 
   13821    13941    14119    14187    14114    14104    14257    14257 
   13959    13757    13786    13832    13910    14017    13984    13844 
   13755    13668    13463    13251    13177    13161    13134    13185 
   13294    13266    13028    12834    12949    13246    13356    13198 
   13070    13225    13555    13772    13705    13437    13180    13096 
   13247    13582    13933    14158    14257    14169    13873    13701 
   13828    13911    13883    14131    14629    14885    14658    14123 
   13618    13441    13621    13925    14156    14257    14257    14278 
   14380    14327    13927    13504    13477    13838    14284    14470 
   14242    13826    13597    13675    13918    14048    13898    13668 
   13614    13710    13841    13814    13481    13149    13211    13529 
   13724    13652    13416    13275    13375    13537    13589    13564 
   13513    13467    13517    13641    13676    13595    13564    13664 
   13790    13894    13994    13971    13802    13790    14021    14138 
   14096    14150    14197    14106    14025    13960    13799    13662 
   13755    14021    14184    14110    13967    13927    13853    13633 
   13452    13342    13193    13201    13459    13618    13483    13215 
   13018    13089    13405    13643    13682    13657    13597    13518 
   13576    13807    14026    14062    13983    14003    14085    13984 
   13753    13671    13732    13775    13818    13856    13794    13663 
   13482    13262    13194    13396    13647    13698    13626    13618 
   13644    13609    13508    13320    13136    13162    13292    13327 
   13378    13413    13171    12787    12621    12629    12652    12808 
   13074    13227    13286    13335    13242    13000    12918    13119 
   13335    13473    13664    13811    13817    13790    13713    13529 
   13402    13358    13289    13333    13510    13520    13311    13153 
   13194    13321    13367    13232    12977    12879    13113    13522 
   13830    13867    13703    13572    13579    13694    13798    13748 
   13691    13872    14208    14494    14616    14489    14227    14064 
   14022    13983    13991    14121    14202    14119    14054    14069 
   14013    13887    13811    13736    13622    13598    13617    13554 
   13551    13678    13775    13751    13570    13297    13223    13452 
   13656    13643    13617    13711    13832    13871    13836    13751 
   13566    13386    13537    14042    14412    14339    14072    13906 
   13873    13913    13909    13783    13666    13710    13838    13890 
   13856    13774    13679    13702    13875    14054    14083    13891 
   13689    13765    14069    14307    14303    14133    13975    13872 
   13801    13809    13922    13973    13872    13887    14123    14214 
   13956    13586    13385    13467    13690    13788    13705    13527 
   13317    13193    13184    13174    13131    13072    13055    13173 
   13327    13402    13454    13429    13309    13304    13529    13826 
   13988    14019    14069    14096    13983    13896    13994    14053 
   13927    13840    13942    14072    14072    13973    13875    13909 
   14092    14143    13926    13709    13675    13784    13949    14065 
   14075    13979    13798    13674    13743    13846    13765    13629 
   13709    13987    14193    14176    13959    13653    13514    13721 
   14064    14233    14165    13960    13810    13873    14068    14218 
   14297    14324    14326    14366    14382    14258    14030    13855 
   13886    14073    14180    14123    14019    13900    13757    13718 
   13810    13830    13745    13725    13783    13869    13950    13949 
   13903    13905    13910    13867    13826    13887    14033    14169 
   14291    14405    14418    14273    14085    13988    13981    13996 
   13983    13960    13983    13979    13834    13598    13371    13209 
   13171    13262    13379    13432    13437    13428    13374    13246 
   13057    12893    12869    12992    13161    13302    13306    13147 
   13019    12982    12918    12904    13054    13239    13304    13251 
   13146    13057    13005    12958    12946    13015    13095    13130 
   13090    12901    12658    12575    12641    12704    12762    12854 
   12914    12895    12798    12653    12579    12658    12876    13132 
   13289    13300    13197    13077    13081    13177    13212    13151 
   13061    12985    12926    12904    12937    12934    12865    12831 
   12850    12846    12852    12903    12888    12804    12838    13051 
   13239    13159    12854    12619    12602    12692    12788    12853 
   12843    12799    12806    12833    12868    12981    13115    13190 
   13285    13412    13446    13400    13405    13506    13663    13761 
   13753    13759    13853    13999    14102    14102    14179    14497 
   14800    14790    14565    14351    14224    14199    14268    14370 
   14432    14401    14311    14241    14181    14099    13918    13616 
   13505    13751    13999    14027    13937    13721    13405    13236 
   13309    13454    13536    13540    13531    13630    13817    13911 
   13851    13761    13790    13913    13995    14045    14157    14253 
   14260    14305    14372    14289    14145    14114    14134    14135 
   14239    14450    14517    14408    14366    14368    14212    14010 
   13965    14042    14080    14008    13923    13884    13760    13501 
   13270    13217    13243    13204    13163    13169    13135    13031 
   12954    13005    13107    13117    13053    13031    13076    13119 
   13120    13105    13119    13217    13378    13490    13521    13537 
   13505    13370    13327    13554    13919    14206    14280    14199 
   14179    14258    14292    14288    14395    14640    14932    15186 
   15342    15311    15026    14723    14770    15055    15145    15048 
   15025    15014    14864    14688    14615    14559    14380    14138 
   13969    13923    13964    13979    13884    13728    13570    13400 
   13265    13258    13305    13269    13174    13084    13030    13038 
   13076    13095    13084    13057    13047    13096    13248    13459 
   13563    13527    13582    13805    13975    14034    14080    14111 
   14192    14369    14489    14453    14357    14316    14327    14384 
   14512    14588    14515    14467    14551    14619    14589    14524 
   14454    14403    14472    14619    14589    14320    14081    14031 
   14038    13990    13923    13805    13582    13420    13454    13489 
   13397    13394    13517    13544    13490    13441    13336    13220 
   13216    13285    13356    13441    13513    13500    13394    13282 
   13221    13155    13050    13041    13189    13343    13406    13425 
   13405    13338    13224    13046    12927    13034    13273    13428 
   13423    13300    13078    12826    12715    12785    12819    12752 
   12765    12831    12783    12696    12665    12634    12646    12771 
   12920    12982    12928    12825    12815    12919    13014    13084 
   13170    13213    13146    13018    12908    12818    12712    12692 
   12910    13213    13293    13165    13046    12977    12939    13019 
   13289    13653    13898    13913    13805    13717    13674    13679 
   13765    13930    14166    14411    14512    14482    14454    14381 
   14256    14243    14388    14623    14859    14933    14740    14431 
   14241    14231    14293    14323    14345    14373    14355    14311 
   14273    14187    14046    13987    14118    14345    14493    14470 
   14316    14165    14139    14207    14238    14185    14118    14121 
   14175    14193    14076    13770    13491    13504    13687    13791 
   13795    13751    13679    13601    13568    13620    13683    13667 
   13597    13562    13608    13693    13699    13549    13344    13250 
   13317    13490    13608    13552    13377    13217    13174    13228 
   13282    13232    13063    12964    13077    13248    13258    13100 
   12968    13001    13136    13270    13369    13351    13220    13126 
   13194    13400    13541    13529    13551    13747    13971    14056 
   13996    13849    13683    13593    13660    13860    13996    13922 
   13783    13770    13778    13641    13454    13396    13464    13572 
   13671    13705    13649    13564    13506    13498    13539    13570 
   13505    13421    13468    13598    13682    13666    13578    13551 
   13653    13749    13752    13716    13645    13601    13729    13946 
   14034    13973    13859    13760    13747    13824    13934    14060 
   14142    14112    14057    14031    13944    13859    13879    13879 
   13815    13871    14056    14157    14125    14037    13903    13826 
   13895    14015    14118    14202    14237    14233    14223    14216 
   14254    14276    14211    14188    14238    14241    14215    14211 
   14157    14058    13976    13873    13760    13697    13659    13643 
   13684    13702    13585    13397    13271    13235    13251    13220 
   13032    12807    12696    12660    12638    12555    12376    12255 
   12239    12231    12218    12252    12321    12384    12449    12540 
   12671    12819    12910    12922    12939    13053    13247    13423 
   13551    13639    13671    13674    13687    13711    13694    13606 
   13572    13726    13925    13944    13838    13772    13737    13687 
   13680    13771    13880    13913    13880    13860    13900    13945 
   13907    13840    13848    13909    13986    14096    14148    14029 
   13849    13792    13846    13879    13830    13752    13683    13643 
   13699    13821    13821    13663    13574    13680    13834    13864 
   13738    13535    13408    13450    13589    13699    13691    13566 
   13450    13481    13643    13745    13664    13522    13528    13726 
   13944    13992    13884    13779    13797    13917    14033    14096 
   14116    14076    13995    13946    13932    13887    13774    13622 
   13563    13652    13724    13630    13463    13419    13518    13540 
   13417    13346    13356    13308    13259    13324    13397    13335 
   13224    13225    13348    13458    13454    13392    13350    13306 
   13286    13351    13451    13494    13452    13355    13316    13398 
   13490    13474    13440    13532    13710    13801    13736    13647 
   13648    13680    13670    13644    13633    13628    13636    13690 
   13747    13703    13590    13549    13645    13776    13748    13537 
   13408    13501    13612    13599    13598    13622    13529    13378 
   13294    13217    13167    13236    13359    13479    13599    13674 
   13671    13601    13522    13540    13675    13872    14071    14138 
   14067    14038    14069    14034    13963    13903    13887    14040 
   14289    14350    14233    14158    14176    14238    14288    14268 
   14241    14261    14261    14208    14143    14099    14114    14172 
   14166    14052    13868    13691    13633    13726    13822    13765 
   13601    13464    13370    13269    13190    13147    13095    13061 
   13127    13219    13192    13090    13051    13105    13208    13324 
   13454    13593    13687    13705    13655    13597    13622    13748 
   13872    13917    13896    13809    13672    13593    13583    13547 
   13481    13473    13525    13562    13544    13474    13367    13286 
   13306    13402    13447    13392    13301    13235    13204    13228 
   13312    13351    13270    13167    13155    13224    13286    13278 
   13230    13211    13258    13386    13547    13616    13560    13500 
   13495    13505    13556    13660    13718    13717    13755    13801 
   13767    13737    13822    13938    13971    13986    14002    13948 
