Origin Time       2025/01/13 21:19:00
Lat.              31.8
Long.             131.6
Depth. (km)       30
Mag.              6.9
Station Code      KOCH07
Station Lat.      33.3920
Station Long.     133.2866
Station Height(m) -99
Record Time       2025/01/13 21:20:17
Sampling Freq(Hz) 100Hz
Duration Time(s)  148
Dir.              2
Scale Factor      3923(gal)/8224838
Max. Acc. (gal)   1.236
Last Correction   2025/01/13 21:20:17
Memo.             
[...]
   -8163    -8128    -8122    -8154    -8154    -8063    -7966    -7965 
   -8058    -8201    -8330    -8388    -8394    -8395    -8402    -8421 
   -8437    -8432    -8446    -8496    -8506    -8403    -8193    -7998 
   -7951    -7989    -8004    -8009    -7996    -7951    -7881    -7769 
   -7650    -7577    -7582    -7685    -7811    -7897    -7967    -7992 
   -7943    -7867    -7786    -7727    -7726    -7765    -7830    -7938 
   -8056    -8117    -8122    -8110    -8082    -8067    -8097    -8140 
   -8178    -8218    -8201    -8094    -8004    -7983    -7956    -7921 
   -7904    -7858    -7780    -7707    -7631    -7534    -7435    -7395 
   -7453    -7582    -7707    -7767    -7763    -7719    -7670    -7647 
   -7650    -7666    -7680    -7686    -7703    -7723    -7740    -7778 
   -7805    -7766    -7681    -7587    -7507    -7470    -7460    -7416 
   -7335    -7277    -7267    -7295    -7362    -7461    -7557    -7630 
   -7711    -7781    -7786    -7771    -7770    -7720    -7623    -7530 
   -7477    -7469    -7435    -7365    -7346    -7383    -7449    -7531 
   -7564    -7558    -7584    -7626    -7681    -7774    -7877    -7951 
   -7996    -8043    -8101    -8117    -8098    -8108    -8141    -8176 
   -8251    -8355    -8430    -8456    -8440    -8403    -8363    -8326 
   -8318    -8394    -8522    -8617    -8676    -8712    -8684    -8623 
   -8610    -8672    -8793    -8907    -8958    -8958    -8923    -8876 
   -8858    -8878    -8923    -8969    -8982    -8930    -8783    -8557 
   -8306    -8102    -7969    -7873    -7861    -7939    -7989    -7978 
   -7920    -7769    -7554    -7372    -7254    -7209    -7249    -7341 
   -7434    -7488    -7484    -7445    -7396    -7358    -7373    -7437 
   -7503    -7557    -7597    -7631    -7717    -7844    -7921    -7944 
   -7942    -7927    -7929    -7948    -7983    -8067    -8145    -8164 
   -8166    -8159    -8129    -8118    -8112    -8068    -8048    -8091 
   -8170    -8235    -8240    -8191    -8135    -8106    -8109    -8105 
   -8071    -8021    -7989    -7997    -7997    -7932    -7857    -7840 
   -7859    -7882    -7944    -8056    -8178    -8320    -8498    -8629 
   -8657    -8646    -8664    -8708    -8729    -8677    -8567    -8468 
   -8417    -8376    -8316    -8244    -8194    -8175    -8147    -8075 
   -7969    -7881    -7840    -7798    -7761    -7797    -7912    -8029 
   -8077    -8081    -8127    -8166    -8133    -8071    -8014    -7985 
   -8000    -8012    -7992    -7956    -7936    -7938    -7898    -7770 
   -7604    -7468    -7387    -7381    -7431    -7492    -7514    -7485 
   -7446    -7415    -7396    -7423    -7476    -7493    -7438    -7310 
   -7169    -7101    -7117    -7161    -7187    -7213    -7283    -7388 
   -7487    -7522    -7476    -7395    -7312    -7280    -7350    -7442 
   -7473    -7480    -7473    -7406    -7290    -7176    -7102    -7075 
   -7028    -6897    -6759    -6716    -6755    -6832    -6882    -6871 
   -6880    -6961    -7045    -7094    -7110    -7103    -7123    -7203 
   -7318    -7406    -7410    -7352    -7304    -7287    -7279    -7249 
   -7173    -7069    -7010    -7053    -7145    -7187    -7179    -7163 
   -7130    -7102    -7094    -7068    -7010    -6963    -6960    -7003 
   -7096    -7236    -7335    -7334    -7295    -7265    -7207    -7119 
   -7060    -7083    -7169    -7280    -7395    -7492    -7564    -7599 
   -7604    -7631    -7658    -7636    -7612    -7609    -7614    -7651 
   -7713    -7796    -7917    -8031    -8066    -8016    -7935    -7890 
   -7892    -7901    -7913    -7954    -8024    -8087    -8124    -8118 
   -8027    -7889    -7792    -7730    -7685    -7682    -7716    -7720 
   -7643    -7530    -7431    -7361    -7330    -7327    -7350    -7412 
   -7501    -7608    -7709    -7786    -7878    -8001    -8097    -8133 
   -8131    -8101    -8067    -8097    -8182    -8263    -8328    -8349 
   -8290    -8179    -8043    -7881    -7724    -7596    -7522    -7531 
   -7577    -7615    -7647    -7647    -7632    -7661    -7686    -7692 
   -7758    -7897    -8047    -8162    -8230    -8303    -8421    -8546 
   -8654    -8729    -8748    -8743    -8741    -8731    -8721    -8708 
   -8656    -8546    -8429    -8378    -8410    -8459    -8459    -8401 
   -8318    -8248    -8230    -8278    -8359    -8419    -8406    -8337 
   -8293    -8241    -8147    -8078    -8050    -8039    -8081    -8179 
   -8286    -8361    -8403    -8426    -8437    -8445    -8429    -8372 
   -8318    -8291    -8278    -8264    -8272    -8337    -8437    -8526 
   -8613    -8684    -8711    -8733    -8761    -8777    -8826    -8896 
   -8927    -8950    -8981    -8985    -8982    -8988    -8985    -8988 
   -9003    -9019    -9055    -9104    -9124    -9123    -9132    -9136 
   -9103    -9026    -8899    -8719    -8517    -8325    -8156    -8041 
   -7960    -7878    -7827    -7807    -7778    -7740    -7701    -7659 
   -7619    -7566    -7499    -7450    -7481    -7607    -7739    -7801 
   -7824    -7848    -7854    -7811    -7734    -7631    -7503    -7384 
   -7318    -7321    -7372    -7423    -7447    -7438    -7379    -7284 
   -7179    -7067    -6998    -6993    -7002    -7024    -7078    -7118 
   -7091    -7001    -6898    -6813    -6752    -6728    -6744    -6785 
   -6847    -6932    -7021    -7101    -7163    -7186    -7173    -7149 
   -7095    -7009    -6948    -6945    -6967    -6991    -7010    -7026 
   -7051    -7061    -7032    -6967    -6897    -6871    -6912    -6993 
   -7103    -7250    -7425    -7561    -7624    -7674    -7720    -7723 
   -7715    -7716    -7707    -7716    -7763    -7835    -7920    -8002 
   -8075    -8144    -8209    -8272    -8347    -8452    -8602    -8777 
   -8932    -9030    -9045    -8999    -8969    -8980    -8989    -8988 
   -8977    -8959    -8964    -8969    -8935    -8873    -8818    -8797 
   -8820    -8870    -8915    -8926    -8927    -8937    -8920    -8873 
   -8818    -8776    -8768    -8802    -8851    -8847    -8772    -8685 
   -8629    -8591    -8550    -8511    -8502    -8505    -8526    -8596 
   -8671    -8687    -8661    -8638    -8629    -8625    -8608    -8588 
   -8599    -8629    -8637    -8630    -8592    -8490    -8355    -8235 
   -8159    -8155    -8208    -8286    -8359    -8391    -8372    -8332 
   -8283    -8197    -8085    -8017    -8009    -7992    -7919    -7807 
   -7701    -7650    -7665    -7700    -7739    -7746    -7676    -7592 
   -7524    -7403    -7257    -7163    -7125    -7125    -7142    -7142 
   -7121    -7076    -7024    -6997    -6979    -6947    -6921    -6928 
   -6963    -6999    -7026    -7060    -7115    -7191    -7294    -7422 
   -7553    -7665    -7774    -7886    -7970    -8017    -8067    -8167 
   -8316    -8468    -8586    -8658    -8702    -8731    -8739    -8726 
   -8711    -8681    -8638    -8615    -8598    -8563    -8519    -8475 
   -8441    -8436    -8441    -8419    -8365    -8309    -8251    -8179 
   -8098    -8006    -7924    -7886    -7874    -7839    -7771    -7674 
   -7566    -7480    -7427    -7416    -7450    -7491    -7524    -7560 
   -7574    -7587    -7608    -7605    -7582    -7577    -7626    -7774 
   -7978    -8155    -8295    -8424    -8560    -8738    -8953    -9151 
   -9294    -9394    -9464    -9494    -9495    -9483    -9427    -9336 
   -9254    -9189    -9142    -9119    -9103    -9066    -8989    -8880 
   -8742    -8588    -8440    -8306    -8178    -8058    -7960    -7885 
   -7794    -7669    -7518    -7375    -7276    -7218    -7183    -7184 
   -7225    -7288    -7366    -7446    -7500    -7520    -7541    -7589 
   -7666    -7776    -7896    -7977    -7994    -7956    -7893    -7825 
   -7743    -7632    -7499    -7365    -7265    -7217    -7196    -7172 
   -7140    -7106    -7082    -7084    -7117    -7156    -7199    -7256 
   -7304    -7337    -7383    -7454    -7524    -7584    -7646    -7707 
   -7750    -7784    -7817    -7858    -7917    -7990    -8050    -8093 
   -8118    -8124    -8094    -8010    -7888    -7769    -7680    -7612 
   -7542    -7460    -7408    -7423    -7476    -7524    -7535    -7496 
   -7449    -7433    -7450    -7493    -7549    -7589    -7607    -7619 
   -7649    -7704    -7774    -7831    -7854    -7854    -7828    -7782 
   -7771    -7834    -7931    -8020    -8093    -8154    -8199    -8225 
   -8222    -8225    -8255    -8275    -8290    -8336    -8405    -8480 
   -8540    -8561    -8545    -8499    -8429    -8349    -8298    -8298 
   -8326    -8347    -8343    -8314    -8274    -8224    -8163    -8094 
   -8023    -7959    -7916    -7890    -7871    -7866    -7870    -7884 
   -7923    -7970    -7985    -7969    -7944    -7938    -7977    -8046 
   -8106    -8163    -8230    -8299    -8360    -8406    -8436    -8456 
   -8465    -8459    -8444    -8425    -8405    -8402    -8397    -8379 
   -8364    -8349    -8321    -8289    -8264    -8251    -8224    -8166 
   -8097    -8048    -8004    -7920    -7790    -7638    -7493    -7391 
   -7315    -7246    -7204    -7195    -7211    -7236    -7244    -7249 
   -7260    -7275    -7330    -7422    -7527    -7651    -7776    -7869 
   -7931    -7985    -8033    -8073    -8104    -8114    -8094    -8078 
   -8091    -8129    -8178    -8221    -8271    -8347    -8438    -8541 
   -8635    -8696    -8743    -8792    -8826    -8831    -8793    -8734 
   -8698    -8683    -8672    -8665    -8649    -8602    -8521    -8428 
   -8343    -8263    -8182    -8095    -8000    -7911    -7848    -7789 
   -7728    -7701    -7685    -7635    -7580    -7562    -7557    -7543 
   -7542    -7557    -7560    -7553    -7530    -7465    -7377    -7304 
   -7238    -7167    -7115    -7090    -7069    -7055    -7052    -7068 
   -7105    -7153    -7184    -7184    -7173    -7169    -7171    -7177 
   -7203    -7254    -7322    -7379    -7398    -7385    -7371    -7352 
   -7319    -7273    -7222    -7168    -7118    -7083    -7071    -7067 
   -7061    -7063    -7071    -7099    -7161    -7221    -7234    -7217 
   -7196    -7165    -7121    -7080    -7047    -7020    -7014    -7048 
   -7109    -7173    -7240    -7326    -7430    -7557    -7715    -7892 
   -8068    -8232    -8370    -8475    -8552    -8602    -8625    -8633 
   -8641    -8638    -8614    -8596    -8594    -8572    -8518    -8464 
   -8436    -8418    -8380    -8318    -8272    -8268    -8289    -8307 
   -8318    -8337    -8357    -8375    -8409    -8440    -8452    -8449 
   -8440    -8451    -8492    -8553    -8629    -8726    -8826    -8892 
   -8907    -8891    -8858    -8822    -8788    -8743    -8671    -8557 
   -8402    -8228    -8074    -7954    -7847    -7723    -7577    -7420 
   -7279    -7173    -7096    -7032    -6970    -6907    -6867    -6859 
   -6847    -6793    -6701    -6606    -6531    -6466    -6400    -6328 
   -6277    -6270    -6285    -6309    -6342    -6397    -6492    -6593 
   -6662    -6714    -6782    -6880    -7002    -7130    -7258    -7391 
   -7520    -7623    -7696    -7766    -7850    -7943    -8032    -8104 
   -8175    -8257    -8345    -8441    -8556    -8685    -8820    -8950 
   -9074    -9201    -9327    -9440    -9531    -9598    -9651    -9680 
   -9678    -9652    -9620    -9593    -9563    -9531    -9502    -9470 
   -9431    -9406    -9393    -9354    -9283    -9209    -9151    -9103 
   -9054    -8997    -8934    -8877    -8838    -8792    -8712    -8599 
   -8467    -8338    -8214    -8074    -7920    -7782    -7680    -7619 
   -7611    -7654    -7719    -7793    -7900    -8023    -8122    -8187 
   -8212    -8199    -8160    -8110    -8048    -7973    -7889    -7794 
   -7685    -7566    -7438    -7306    -7173    -7034    -6903    -6808 
   -6744    -6710    -6708    -6740    -6791    -6847    -6899    -6952 
   -7020    -7109    -7202    -7269    -7306    -7335    -7366    -7400 
   -7447    -7504    -7551    -7582    -7599    -7609    -7612    -7626 
   -7681    -7763    -7862    -7989    -8121    -8233    -8321    -8375 
   -8403    -8424    -8459    -8530    -8635    -8739    -8822    -8885 
   -8951    -9043    -9142    -9223    -9292    -9340    -9337    -9305 
   -9270    -9202    -9089    -8961    -8827    -8721    -8664    -8625 
   -8586    -8548    -8496    -8444    -8407    -8359    -8289    -8232 
   -8191    -8155    -8124    -8097    -8054    -7970    -7844    -7708 
   -7592    -7492    -7408    -7348    -7310    -7279    -7267    -7302 
   -7366    -7425    -7481    -7553    -7634    -7712    -7788    -7854 
   -7900    -7916    -7913    -7897    -7857    -7813    -7788    -7769 
   -7761    -7766    -7763    -7761    -7763    -7766    -7792    -7855 
   -7924    -7990    -8063    -8132    -8201    -8259    -8289    -8299 
   -8309    -8313    -8298    -8282    -8280    -8271    -8218    -8120 
   -7985    -7832    -7703    -7619    -7562    -7511    -7457    -7398 
   -7348    -7322    -7317    -7319    -7334    -7364    -7377    -7377 
   -7384    -7392    -7402    -7427    -7438    -7426    -7425    -7443 
   -7470    -7515    -7564    -7584    -7588    -7581    -7542    -7496 
   -7476    -7473    -7483    -7496    -7483    -7447    -7412    -7387 
   -7365    -7346    -7342    -7346    -7339    -7331    -7321    -7318 
   -7339    -7380    -7419    -7452    -7496    -7581    -7697    -7816 
   -7924    -8019    -8106    -8205    -8307    -8388    -8448    -8523 
   -8634    -8750    -8851    -8945    -9030    -9104    -9171    -9238 
   -9312    -9410    -9533    -9672    -9821    -9967   -10106   -10241 
  -10361   -10447   -10490   -10505   -10504   -10473   -10403   -10303 
  -10181   -10029    -9856    -9670    -9454    -9221    -9013    -8838 
   -8680    -8521    -8356    -8194    -8047    -7906    -7765    -7616 
   -7479    -7353    -7211    -7049    -6905    -6790    -6694    -6605 
   -6505    -6392    -6274    -6147    -6029    -5938    -5868    -5815 
   -5794    -5806    -5833    -5873    -5919    -5956    -5980    -5992 
   -5995    -6015    -6052    -6088    -6143    -6218    -6278    -6343 
   -6420    -6486    -6552    -6631    -6720    -6828    -6934    -7020 
   -7074    -7082    -7049    -7005    -6967    -6930    -6891    -6870 
   -6870    -6887    -6925    -6982    -7042    -7095    -7152    -7219 
   -7294    -7366    -7453    -7564    -7688    -7819    -7950    -8068 
   -8168    -8243    -8301    -8367    -8453    -8542    -8615    -8667 
   -8698    -8708    -8700    -8688    -8684    -8685    -8706    -8758 
   -8846    -8955    -9063    -9150    -9205    -9229    -9242    -9239 
   -9202    -9144    -9077    -9000    -8926    -8857    -8780    -8694 
   -8614    -8560    -8527    -8502    -8480    -8467    -8448    -8411 
   -8387    -8405    -8452    -8510    -8569    -8617    -8652    -8684 
   -8718    -8762    -8806    -8816    -8789    -8748    -8698    -8646 
   -8599    -8549    -8505    -8464    -8417    -8368    -8325    -8275 
   -8233    -8209    -8198    -8208    -8229    -8251    -8263    -8253 
   -8235    -8221    -8208    -8191    -8174    -8155    -8133    -8118 
   -8118    -8110    -8079    -8054    -8055    -8058    -8046    -8028 
   -8019    -8014    -8019    -8032    -8035    -8024    -8025    -8041 
   -8066    -8108    -8156    -8197    -8226    -8235    -8225    -8216 
   -8206    -8189    -8170    -8160    -8147    -8112    -8054    -7977 
   -7898    -7832    -7782    -7743    -7717    -7700    -7682    -7658 
   -7616    -7566    -7528    -7507    -7487    -7470    -7457    -7450 
   -7453    -7476    -7526    -7599    -7681    -7763    -7851    -7954 
   -8054    -8140    -8228    -8317    -8399    -8478    -8557    -8634 
   -8710    -8775    -8812    -8823    -8814    -8797    -8792    -8812 
   -8847    -8868    -8850    -8796    -8727    -8668    -8617    -8546 
   -8448    -8343    -8251    -8175    -8095    -8014    -7951    -7900 
   -7854    -7820    -7796    -7776    -7765    -7738    -7695    -7657 
   -7616    -7566    -7535    -7522    -7514    -7522    -7538    -7557 
   -7582    -7609    -7653    -7696    -7709    -7716    -7730    -7751 
   -7784    -7819    -7838    -7844    -7855    -7875    -7889    -7878 
   -7850    -7803    -7742    -7696    -7651    -7587    -7520    -7468 
   -7416    -7356    -7300    -7254    -7215    -7192    -7190    -7195 
   -7203    -7209    -7206    -7196    -7176    -7148    -7138    -7169 
   -7236    -7310    -7375    -7438    -7512    -7589    -7658    -7727 
   -7803    -7869    -7921    -7983    -8048    -8091    -8117    -8125 
   -8105    -8075    -8062    -8081    -8114    -8135    -8147    -8158 
   -8156    -8155    -8176    -8214    -8259    -8306    -8357    -8422 
   -8492    -8553    -8603    -8630    -8631    -8623    -8611    -8587 
   -8541    -8484    -8419    -8345    -8272    -8208    -8141    -8075 
   -8012    -7954    -7913    -7878    -7839    -7804    -7766    -7719 
   -7670    -7624    -7576    -7535    -7500    -7456    -7407    -7364 
   -7322    -7288    -7264    -7233    -7200    -7192    -7209    -7229 
   -7241    -7250    -7263    -7269    -7273    -7285    -7296    -7321 
   -7360    -7389    -7419    -7441    -7438    -7447    -7477    -7497 
   -7511    -7519    -7524    -7541    -7570    -7605    -7639    -7659 
   -7659    -7645    -7614    -7565    -7510    -7456    -7408    -7369 
   -7325    -7271    -7213    -7148    -7072    -6993    -6916    -6858 
   -6825    -6809    -6795    -6793    -6817    -6866    -6922    -6983 
   -7055    -7125    -7199    -7279    -7360    -7454    -7564    -7678 
   -7796    -7923    -8056    -8174    -8264    -8359    -8468    -8568 
   -8661    -8762    -8857    -8941    -9018    -9085    -9153    -9231 
   -9305    -9369    -9431    -9483    -9508    -9513    -9510    -9491 
   -9462    -9425    -9370    -9310    -9262    -9217    -9161    -9082 
   -8984    -8884    -8795    -8723    -8660    -8592    -8515    -8424 
   -8336    -8255    -8167    -8078    -7985    -7890    -7807    -7713 
   -7603    -7495    -7392    -7296    -7214    -7122    -7024    -6932 
   -6831    -6724    -6637    -6578    -6528    -6481    -6442    -6421 
   -6415    -6423    -6453    -6496    -6532    -6570    -6621    -6685 
   -6762    -6851    -6944    -7042    -7142    -7237    -7330    -7433 
   -7537    -7639    -7755    -7871    -7975    -8075    -8174    -8275 
   -8384    -8496    -8604    -8702    -8789    -8865    -8942    -9034 
   -9126    -9200    -9252    -9277    -9293    -9315    -9335    -9366 
   -9406    -9425    -9418    -9385    -9321    -9251    -9177    -9100 
   -9020    -8926    -8826    -8722    -8594    -8444    -8290    -8145 
   -8020    -7896    -7766    -7641    -7520    -7410    -7304    -7199 
   -7103    -7011    -6916    -6824    -6735    -6647    -6570    -6507 
   -6459    -6432    -6415    -6399    -6386    -6386    -6385    -6366 
   -6331    -6305    -6312    -6340    -6373    -6412    -6463    -6517 
   -6571    -6632    -6708    -6814    -6947    -7080    -7210    -7337 
   -7452    -7566    -7682    -7792    -7890    -7983    -8067    -8143 
   -8203    -8235    -8245    -8252    -8248    -8233    -8229    -8233 
   -8240    -8251    -8248    -8229    -8216    -8206    -8187    -8166 
   -8154    -8152    -8148    -8124    -8094    -8067    -8041    -8021 
   -7997    -7969    -7943    -7919    -7894    -7879    -7878    -7877 
   -7877    -7884    -7888    -7881    -7866    -7844    -7827    -7813 
