Origin Time       2025/01/13 21:19:00
Lat.              31.8
Long.             131.6
Depth. (km)       30
Mag.              6.9
Station Code      KOCH04
Station Lat.      32.8414
Station Long.     132.7066
Station Height(m) -45
Record Time       2025/01/13 21:20:00
Sampling Freq(Hz) 100Hz
Duration Time(s)  149
Dir.              2
Scale Factor      3923(gal)/8224838
Max. Acc. (gal)   3.388
Last Correction   2025/01/13 21:20:00
Memo.             
[...]
  -17274   -17359   -17335   -17335   -17362   -17351   -17274   -17158 
  -17003   -16773   -16507   -16321   -16322   -16522   -16731   -16731 
  -16602   -16645   -16981   -17382   -17570   -17500   -17356   -17315 
  -17311   -17253   -17296   -17513   -17625   -17424   -17192   -17304 
  -17608   -17578   -17061   -16603   -16700   -17064   -17084   -16671 
  -16343   -16529   -16999   -17294   -17359   -17386   -17413   -17367 
  -17336   -17490   -17761   -17914   -17899   -17925   -18025   -17937 
  -17541   -17065   -16825   -16876   -16945   -16866   -16784   -16811 
  -16861   -16767   -16480   -16178   -16070   -16210   -16482   -16692 
  -16794   -16858   -16951   -17069   -17140   -17178   -17277   -17355 
  -17270   -17135   -17232   -17605   -17874   -17658   -17139   -16841 
  -16880   -16907   -16694   -16421   -16422   -16753   -17068   -17081 
  -16919   -16769   -16652   -16540   -16395   -16237   -16218   -16394 
  -16632   -16842   -17008   -17082   -17105   -17209   -17464   -17824 
  -18091   -18065   -17832   -17641   -17572   -17585   -17641   -17724 
  -17842   -17921   -17794   -17427   -16981   -16699   -16683   -16814 
  -16939   -17031   -17153   -17253   -17203   -17066   -17037   -17145 
  -17211   -17084   -16827   -16704   -16935   -17386   -17695   -17728 
  -17640   -17558   -17427   -17231   -17131   -17231   -17402   -17423 
  -17271   -17157   -17253   -17467   -17514   -17289   -16983   -16811 
  -16823   -16888   -16877   -16784   -16714   -16799   -17008   -17154 
  -17199   -17270   -17369   -17339   -17180   -17103   -17257   -17532 
  -17667   -17525   -17258   -17064   -17019   -17073   -17045   -16884 
  -16729   -16696   -16860   -17135   -17242   -17053   -16760   -16636 
  -16757   -16954   -17032   -17026   -17082   -17228   -17334   -17293 
  -17157   -17085   -17145   -17274   -17409   -17502   -17529   -17485 
  -17385   -17263   -17181   -17147   -17095   -17062   -17130   -17269 
  -17346   -17135   -16640   -16182   -16009   -16098   -16248   -16308 
  -16353   -16453   -16576   -16754   -16977   -17182   -17307   -17313 
  -17410   -17813   -18225   -18154   -17541   -16838   -16524   -16591 
  -16671   -16575   -16470   -16515   -16556   -16383   -16141   -16137 
  -16379   -16533   -16437   -16416   -16852   -17629   -18229   -18345 
  -18176   -18112   -18243   -18241   -17914   -17590   -17575   -17743 
  -17759   -17509   -17242   -17172   -17204   -17165   -17008   -16903 
  -17064   -17377   -17548   -17504   -17406   -17435   -17566   -17587 
  -17466   -17485   -17752   -17925   -17728   -17343   -17109   -17120 
  -17142   -16977   -16785   -16812   -17003   -17163   -17227   -17207 
  -17123   -17024   -17005   -17153   -17377   -17429   -17277   -17131 
  -17099   -17081   -16968   -16821   -16837   -17062   -17308   -17358 
  -17188   -17026   -17120   -17425   -17605   -17420   -17095   -17050 
  -17280   -17315   -16877   -16286   -16055   -16252   -16501   -16540 
  -16529   -16686   -16914   -16976   -16864   -16772   -16841   -17072 
  -17415   -17791   -18098   -18184   -18036   -17867   -17799   -17709 
  -17442   -17043   -16795   -16853   -16966   -16819   -16480   -16298 
  -16443   -16730   -16873   -16781   -16721   -16983   -17370   -17431 
  -17069   -16607   -16459   -16713   -17001   -16991   -16791   -16725 
  -16907   -17185   -17355   -17393   -17447   -17540   -17508   -17284 
  -17041   -16985   -17140   -17347   -17424   -17335   -17174   -17046 
  -16966   -16907   -16926   -17119   -17408   -17523   -17311   -16902 
  -16555   -16440   -16495   -16561   -16659   -16869   -17107   -17154 
  -16950   -16727   -16704   -16783   -16757   -16586   -16399   -16367 
  -16509   -16665   -16725   -16733   -16704   -16560   -16367   -16363 
  -16652   -17082   -17409   -17562   -17752   -18150   -18597   -18817 
  -18756   -18624   -18609   -18621   -18441   -18075   -17775   -17676 
  -17621   -17417   -17135   -16973   -16957   -16938   -16848   -16839 
  -17055   -17339   -17413   -17273   -17159   -17201   -17247   -17142 
  -17028   -17108   -17284   -17355   -17361   -17498   -17766   -17917 
  -17797   -17612   -17717   -18092   -18335   -18188   -17822   -17668 
  -17884   -18098   -17913   -17340   -16767   -16606   -16804   -17010 
  -17123   -17253   -17415   -17520   -17459   -17313   -17343   -17566 
  -17683   -17533   -17338   -17375   -17543   -17504   -17244   -17072 
  -17103   -17184   -17188   -17107   -17010   -16966   -16934   -16883 
  -16889   -16977   -17074   -17115   -17131   -17267   -17591   -18000 
  -18304   -18331   -18175   -18115   -18222   -18283   -18192   -18131 
  -18233   -18335   -18253   -18084   -18077   -18225   -18207   -17860 
  -17477   -17460   -17766   -18019   -18050   -17972   -17899   -17821 
  -17741   -17794   -18021   -18211   -18145   -17906   -17783   -17822 
  -17778   -17533   -17281   -17251   -17410   -17482   -17282   -16945 
  -16762   -16868   -17093   -17201   -17151   -17082   -17100   -17113 
  -17037   -16972   -16987   -17045   -17081   -17061   -17103   -17288 
  -17478   -17541   -17528   -17533   -17587   -17629   -17575   -17452 
  -17446   -17662   -17903   -17890   -17658   -17505   -17610   -17871 
  -18014   -17930   -17810   -17801   -17787   -17640   -17456   -17444 
  -17575   -17589   -17469   -17444   -17579   -17683   -17536   -17216 
  -17053   -17163   -17329   -17313   -17100   -16916   -16950   -17085 
  -17086   -16983   -16941   -16983   -17058   -17186   -17400   -17752 
  -18169   -18331   -18099   -17714   -17456   -17412   -17483   -17525 
  -17512   -17498   -17447   -17275   -17038   -16903   -16937   -17051 
  -17081   -16916   -16641   -16426   -16329   -16337   -16449   -16613 
  -16737   -16837   -17055   -17412   -17697   -17787   -17783   -17783 
  -17767   -17651   -17421   -17238   -17166   -16991   -16591   -16200 
  -16096   -16254   -16410   -16425   -16467   -16713   -16968   -16947 
  -16827   -17024   -17595   -18085   -18054   -17784   -17902   -18368 
  -18549   -18183   -17753   -17851   -18306   -18366   -17772   -17153 
  -17051   -17127   -16768   -16016   -15458   -15446   -15709   -15799 
  -15661   -15564   -15604   -15597   -15388   -15133   -15183   -15570 
  -15938   -16052   -16048   -16233   -16665   -16999   -16873   -16363 
  -15930   -15977   -16474   -17045   -17331   -17274   -17034   -16710 
  -16363   -16148   -16189   -16448   -16729   -16789   -16571   -16209 
  -15900   -15849   -16117   -16420   -16368   -15925   -15337   -14836 
  -14585   -14656   -15030   -15599   -16133   -16393   -16333   -16168 
  -16228   -16702   -17428   -18030   -18269   -18112   -17620   -16977 
  -16486   -16314   -16352   -16374   -16267   -16096   -16055   -16295 
  -16726   -17050   -17115   -17142   -17447   -17930   -18196   -18052 
  -17664   -17352   -17135   -16779   -16371   -16240   -16451   -16730 
  -16788   -16583   -16329   -16271   -16438   -16754   -17199   -17631 
  -17772   -17544   -17261   -17288   -17452   -17228   -16532   -15866 
  -15742   -16023   -16062   -15666   -15333   -15475   -15934   -16291 
  -16479   -16825   -17382   -17674   -17382   -17023   -17259   -17852 
  -18099   -17886   -17748   -18168   -18829   -18920   -18279   -17586 
  -17359   -17377   -17289   -17267   -17609   -18118   -18311   -18118 
  -18023   -18262   -18423   -18119   -17583   -17285   -17139   -16695 
  -16052   -15772   -16006   -16181   -15753   -15199   -15475   -16710 
  -18077   -18673   -18450   -18227   -18528   -18866   -18615   -18034 
  -17849   -18189   -18453   -18145   -17523   -17192   -17292   -17489 
  -17570   -17622   -17690   -17585   -17235   -16947   -16969   -17118 
  -17143   -17118   -17266   -17622   -17973   -18133   -18215   -18418 
  -18478   -17923   -16946   -16298   -16276   -16459   -16349   -15948 
  -15669   -15739   -15940   -16079   -16264   -16569   -16848   -16943 
  -16941   -17099   -17435   -17647   -17559   -17375   -17436   -17770 
  -18038   -18052   -17965   -18013   -18241   -18462   -18561   -18630 
  -18647   -18415   -17918   -17398   -17059   -16881   -16769   -16735 
  -16841   -17018   -17112   -17062   -16942   -16889   -16958   -17042 
  -17074   -17082   -17045   -16880   -16506   -16015   -15789   -16096 
  -16694   -17131   -17239   -17223   -17356   -17686   -18000   -18107 
  -18018   -17842   -17671   -17502   -17240   -16803   -16217   -15734 
  -15556   -15465   -15222   -14953   -14825   -14840   -14922   -15005 
  -15182   -15623   -16259   -16903   -17482   -17896   -18068   -18117 
  -18191   -18369   -18631   -18783   -18773   -18808   -18986   -19067 
  -18754   -18204   -17890   -17896   -17856   -17487   -16920   -16492 
  -16244   -15948   -15542   -15188   -15102   -15277   -15406   -15441 
  -15785   -16478   -16976   -16939   -16702   -16795   -17275   -17666 
  -17536   -17091   -16906   -17097   -17265   -17221   -17270   -17521 
  -17525   -17023   -16353   -15959   -15958   -16098   -16129   -16220 
  -16630   -17161   -17379   -17244   -17093   -17147   -17344   -17635 
  -18115   -18705   -18943   -18463   -17509   -16654   -16181   -15954 
  -15865   -16062   -16537   -16883   -16740   -16245   -15873   -15869 
  -15935   -15709   -15448   -15707   -16540   -17419   -17649   -17022 
  -16167   -15715   -15560   -15406   -15372   -15763   -16499   -17104 
  -17371   -17537   -17751   -17806   -17448   -16934   -16858   -17351 
  -17977   -18303   -18380   -18670   -19332   -19965   -20232   -20235 
  -20262   -20479   -20785   -20987   -21128   -21297   -21226   -20609 
  -19502   -18139   -16807   -15785   -15099   -14596   -14316   -14482 
  -15051   -15476   -15310   -14777   -14368   -14318   -14544   -14854 
  -15286   -15925   -16353   -15978   -14976   -14266   -14355   -14674 
  -14380   -13572   -13238   -13876   -14817   -15165   -14916   -14692 
  -14831   -15138   -15294   -15349   -15687   -16390   -17016   -17126 
  -16800   -16499   -16594   -17120   -17848   -18523   -19006   -19275 
  -19484   -19800   -20106   -20127   -19862   -19677   -19893   -20336 
  -20498   -20244   -19905   -19642   -19288   -18855   -18715   -19190 
  -20089   -20775   -20830   -20613   -20800   -21432   -22025   -22478 
  -23032   -23669   -24104   -23922   -22931   -21524   -20193   -19005 
  -17874   -16788   -15757   -14769   -13745   -12676   -11786   -11369 
  -11550   -12182   -12842   -13167   -13196   -13288   -13716   -14358 
  -14906   -15242   -15385   -15391   -15387   -15381   -15277   -15259 
  -15643   -16343   -16970   -17238   -17055   -16738   -16870   -17618 
  -18496   -18887   -18659   -18193   -17932   -17988   -18118   -17992 
  -17527   -16893   -16278   -15747   -15314   -15051   -15049   -15161 
  -15016   -14434   -13670   -13258   -13558   -14343   -15064   -15468 
  -15681   -15892   -16054   -15935   -15654   -15758   -16447   -17178 
  -17271   -16696   -16082   -15835   -15715   -15554   -15624   -16113 
  -16816   -17351   -17570   -17755   -18241   -18912   -19402   -19600 
  -19715   -19957   -20270   -20347   -19992   -19207   -18049   -16735 
  -15556   -14616   -13895   -13284   -12614   -11973   -11639   -11637 
  -11803   -12139   -12636   -13136   -13691   -14462   -15306   -15878 
  -16029   -15924   -15973   -16505   -17315   -17745   -17548   -17300 
  -17671   -18549   -19129   -18848   -18048   -17524   -17618   -17979 
  -18153   -18088   -17968   -17703   -16961   -15859   -15148   -15272 
  -15751   -15736   -14967   -14044   -13679   -13933   -14480   -15313 
  -16718   -18504   -19823   -20175   -20128   -20486   -21166   -21566 
  -21571   -21618   -22081   -22681   -22613   -21593   -20308   -19568 
  -19489   -19678   -19827   -19977   -20336   -20829   -21012   -20619 
  -19948   -19546   -19562   -19664   -19469   -18819   -17882   -16991 
  -16270   -15591   -14893   -14289   -13863   -13603   -13535   -13695 
  -14030   -14361   -14494   -14435   -14378   -14484   -14769   -15144 
  -15537   -15989   -16536   -17118   -17730   -18436   -19260   -20229 
  -21238   -21875   -21817   -21203   -20617   -20590   -20875   -20806 
  -20299   -19766   -19445   -19136   -18432   -17317   -16374   -16070 
  -16160   -16043   -15529   -14921   -14488   -14191   -13838   -13392 
  -13027   -12918   -13109   -13560   -14224   -14925   -15300   -15249 
  -15155   -15506   -16418   -17463   -18123   -18384   -18669   -19319 
  -20221   -20968   -21384   -21647   -21824   -21794   -21616   -21460 
  -21425   -21421   -21114   -20449   -19882   -19649   -19475   -19120 
  -18735   -18674   -18976   -19161   -18847   -18226   -17718   -17467 
  -17321   -17126   -17023   -17319   -17836   -17942   -17475   -16962 
  -16907   -17288   -17637   -17535   -16965   -16167   -15476   -15187 
  -15269   -15392   -15257   -14898   -14736   -15114   -15804   -16168 
  -15865   -15237   -14843   -14843   -14949   -14831   -14547   -14509 
  -14924   -15562   -16133   -16654   -17298   -18004   -18492   -18619 
  -18547   -18488   -18318   -17733   -16762   -15835   -15357   -15341 
  -15543   -15885   -16434   -17154   -17855   -18292   -18436   -18590 
  -18883   -18879   -18185   -17173   -16637   -16879   -17432   -17528 
  -16830   -15805   -15175   -15128   -15268   -15172   -14744   -14033 
  -13213   -12723   -12842   -13366   -13864   -13983   -13629   -12977 
  -12351   -12155   -12669   -13856   -15395   -16976   -18484   -19853 
  -21003   -21856   -22326   -22505   -22709   -23152   -23747   -24204 
  -24239   -23760   -23032   -22592   -22590   -22589   -22308   -21856 
  -21321   -20699   -19920   -18895   -17766   -16833   -16245   -15979 
  -16023   -16359   -16733   -16725   -16335   -16056   -16155   -16341 
  -16190   -15599   -14970   -14683   -14497   -13968   -13162   -12583 
  -12584   -12997   -13392   -13541   -13567   -13772   -14297   -14944 
  -15477   -15865   -16116   -16151   -15989   -15844   -15928   -16324 
  -16888   -17240   -17170   -16881   -16734   -16818   -16845   -16684 
  -16690   -17257   -18295   -19186   -19394   -19003   -18511   -18261 
  -18164   -17965   -17593   -17084   -16391   -15408   -14265   -13421 
  -13154   -13239   -13344   -13402   -13536   -13859   -14276   -14563 
  -14805   -15368   -16262   -16887   -16850   -16563   -16600   -17034 
  -17602   -18080   -18481   -18806   -18712   -17802   -16397   -15519 
  -15750   -16556   -17107   -17153   -16976   -16900   -16957   -17024 
  -17182   -17624   -18239   -18705   -18935   -19080   -19261   -19431 
  -19387   -19032   -18566   -18322   -18476   -18846   -19063   -18937 
  -18561   -18103   -17599   -16961   -16267   -15847   -15916   -16220 
  -16221   -15792   -15512   -16020   -17159   -18030   -18019   -17481 
  -17109   -17038   -16849   -16291   -15635   -15333   -15403   -15412 
  -15129   -14814   -14750   -14917   -15187   -15441   -15568   -15504 
  -15272   -15110   -15280   -15638   -15762   -15511   -15221   -15304 
  -15800   -16488   -17139   -17591   -17898   -18252   -18681   -19143 
  -19704   -20398   -21141   -21728   -21882   -21563   -20992   -20382 
  -19881   -19504   -19168   -18810   -18384   -17787   -16953   -16051 
  -15337   -14863   -14555   -14380   -14380   -14658   -15221   -15950 
  -16738   -17504   -18187   -18778   -19269   -19588   -19661   -19566 
  -19468   -19380   -19284   -19280   -19357   -19377   -19261   -19009 
  -18782   -18775   -18866   -18690   -18185   -17747   -17712   -17841 
  -17527   -16546   -15466   -15075   -15491   -16151   -16573   -16791 
  -17093   -17525   -17803   -17764   -17531   -17181   -16731   -16330 
  -16071   -15905   -15773   -15622   -15450   -15265   -15009   -14598 
  -14056   -13585   -13348   -13235   -13112   -13068   -13225   -13608 
  -14166   -14760   -15190   -15326   -15217   -15080   -15160   -15453 
  -15695   -15778   -15928   -16258   -16478   -16247   -15723   -15431 
  -15670   -16399   -17312   -18084   -18685   -19175   -19550   -19928 
  -20297   -20425   -20335   -20402   -20918   -21730   -22331   -22370 
  -22044   -21817   -21836   -21878   -21763   -21504   -21166   -20838 
  -20621   -20553   -20599   -20622   -20436   -19966   -19314   -18717 
  -18354   -18200   -18096   -17868   -17516   -17228   -17065   -16839 
  -16395   -15817   -15314   -14949   -14638   -14380   -14293   -14400 
  -14542   -14553   -14485   -14558   -14742   -14697   -14327   -13968 
  -13911   -14130   -14359   -14262   -13841   -13498   -13587   -14169 
  -14986   -15576   -15705   -15654   -15892   -16452   -16935   -17203 
  -17614   -18443   -19410   -19962   -19955   -19886   -20214   -20714 
  -20919   -20925   -21157   -21600   -21801   -21459   -20785   -20328 
  -20328   -20499   -20494   -20235   -19872   -19569   -19295   -18846 
  -18058   -16980   -15873   -15098   -14785   -14625   -14304   -13910 
  -13660   -13653   -13918   -14365   -14877   -15415   -15930   -16293 
  -16410   -16339   -16299   -16487   -16884   -17278   -17458   -17494 
  -17701   -18214   -18732   -18877   -18717   -18690   -19055   -19595 
  -19919   -19990   -20073   -20205   -20133   -19704   -19068   -18526 
  -18171   -17825   -17367   -16865   -16395   -15936   -15399   -14697 
  -13937   -13475   -13599   -14168   -14677   -14728   -14472   -14407 
  -14673   -14962   -15080   -15186   -15437   -15757   -15934   -15880 
  -15808   -15974   -16351   -16661   -16657   -16436   -16375   -16681 
  -17188   -17571   -17703   -17861   -18388   -19110   -19492   -19369 
  -19078   -18964   -18985   -18696   -17878   -16910   -16263   -15985 
  -15813   -15552   -15269   -15091   -14964   -14729   -14320   -13886 
  -13659   -13743   -14125   -14702   -15317   -15917   -16530   -16988 
  -17082   -16892   -16752   -16953   -17400   -17697   -17710   -17730 
  -18021   -18465   -18756   -18868   -19171   -19865   -20538   -20687 
  -20328   -19924   -19834   -19909   -19797   -19391   -18814   -18208 
  -17595   -16934   -16287   -15817   -15579   -15404   -15153   -14968 
  -14995   -15048   -14924   -14709   -14625   -14801   -15074   -15140 
  -15053   -15168   -15545   -15867   -15950   -16020   -16340   -16730 
  -16772   -16394   -16082   -16308   -16872   -17215   -17235   -17354 
  -17847   -18474   -18823   -18828   -18790   -18970   -19332   -19670 
  -19869   -19923   -19876   -19799   -19714   -19579   -19422   -19282 
  -19155   -19098   -19101   -18933   -18345   -17435   -16667   -16374 
  -16397   -16368   -16178   -16008   -15946   -15857   -15660   -15572 
  -15912   -16679   -17528   -18204   -18744   -19179   -19391   -19350 
  -19240   -19284   -19477   -19552   -19349   -19036   -18841   -18792 
  -18765   -18677   -18563   -18474   -18337   -18033   -17597   -17263 
  -17196   -17294   -17373   -17358   -17350   -17502   -17728   -17764 
  -17527   -17224   -17062   -16988   -16892   -16804   -16745   -16671 
  -16503   -16178   -15793   -15558   -15529   -15520   -15365   -15132 
  -15020   -15137   -15399   -15653   -15826   -15903   -15874   -15769 
  -15661   -15622   -15637   -15647   -15653   -15731   -15947   -16159 
  -16185   -16139   -16295   -16714   -17163   -17443   -17651   -17995 
  -18434   -18723   -18744   -18662   -18654   -18642   -18499   -18322 
  -18322   -18551   -18793   -18767   -18454   -18053   -17759   -17586 
  -17401   -17162   -16983   -16958   -17068   -17189   -17288   -17455 
