Origin Time       2025/01/13 21:19:00
Lat.              31.8
Long.             131.6
Depth. (km)       30
Mag.              6.9
Station Code      KOCH01
Station Lat.      33.5421
Station Long.     134.1197
Station Height(m) 35
Record Time       2025/01/13 21:20:40
Sampling Freq(Hz) 100Hz
Duration Time(s)  120
Dir.              1
Scale Factor      2942(gal)/8224139
Max. Acc. (gal)   0.435
Last Correction   2025/01/13 21:20:41
Memo.             
[...]
    1401     1412     1417     1426     1441     1456     1475     1494 
    1499     1489     1480     1483     1487     1497     1509     1502 
    1483     1480     1489     1506     1533     1552     1571     1601 
    1621     1624     1625     1633     1645     1651     1642     1625 
    1601     1572     1541     1522     1514     1503     1487     1463 
    1440     1416     1389     1362     1339     1318     1306     1310 
    1333     1372     1409     1424     1429     1433     1432     1436 
    1444     1439     1436     1441     1444     1448     1447     1436 
    1421     1406     1402     1410     1408     1397     1394     1389 
    1386     1393     1386     1375     1389     1418     1439     1452 
    1458     1458     1460     1456     1441     1428     1405     1363 
    1323     1286     1250     1225     1216     1205     1193     1177 
    1148     1117     1094     1074     1061     1062     1065     1058 
    1048     1034     1017     1003      982      969      970      966 
     958      954      940      913      895      877      865      869 
     882      892      903      920      949      974     1000     1034 
    1065     1100     1147     1194     1236     1285     1337     1389 
    1447     1506     1543     1556     1567     1579     1597     1618 
    1624     1621     1624     1625     1617     1613     1618     1607 
    1594     1591     1586     1574     1557     1524     1480     1453 
    1422     1379     1332     1283     1231     1174     1119     1075 
    1038     1000      972      946      920      919      935      942 
     955      984     1009     1031     1059     1086     1123     1165 
    1200     1240     1282     1312     1337     1360     1382     1420 
    1471     1517     1555     1586     1620     1664     1715     1763 
    1804     1841     1869     1884     1895     1908     1915     1908 
    1904     1908     1912     1918     1919     1896     1850     1804 
    1769     1746     1736     1734     1733     1717     1696     1690 
    1687     1671     1652     1632     1603     1586     1584     1580 
    1561     1539     1510     1470     1428     1401     1382     1364 
    1344     1320     1304     1297     1290     1283     1281     1287 
    1300     1316     1332     1344     1347     1356     1381     1405 
    1433     1472     1501     1521     1540     1543     1539     1543 
    1539     1529     1520     1513     1514     1522     1525     1520 
    1517     1518     1525     1541     1552     1551     1540     1522 
    1502     1485     1472     1459     1433     1408     1382     1337 
    1283     1236     1183     1136     1108     1085     1058     1035 
    1021     1015     1009     1001      989      976      962      947 
     927      908      893      873      843      820      804      789 
     778      773      776      793      822      862      918      966 
     999     1028     1061     1093     1123     1144     1154     1158 
    1170     1182     1188     1198     1223     1246     1262     1271 
    1279     1297     1318     1335     1356     1383     1406     1432 
    1455     1467     1471     1472     1468     1453     1440     1432 
    1414     1389     1359     1321     1289     1267     1256     1255 
    1251     1243     1243     1243     1243     1254     1269     1282 
    1302     1320     1331     1341     1347     1343     1333     1320 
    1301     1279     1260     1243     1232     1229     1231     1236 
    1250     1279     1312     1331     1352     1383     1408     1435 
    1474     1513     1544     1575     1601     1626     1660     1688 
    1709     1740     1777     1819     1865     1900     1921     1939 
    1962     1979     1981     1980     1969     1950     1931     1908 
    1884     1861     1840     1811     1782     1756     1718     1667 
    1620     1576     1530     1490     1459     1431     1395     1354 
    1310     1262     1208     1162     1121     1081     1053     1043 
    1040     1036     1035     1039     1051     1073     1094     1105 
    1109     1102     1097     1098     1093     1084     1088     1104 
    1119     1135     1152     1169     1182     1193     1213     1244 
    1269     1289     1312     1339     1375     1412     1431     1436 
    1449     1472     1490     1503     1518     1543     1575     1607 
    1633     1652     1664     1682     1710     1732     1746     1768 
    1783     1784     1788     1795     1787     1777     1779     1773 
    1753     1719     1682     1651     1628     1602     1576     1566 
    1564     1564     1563     1556     1543     1530     1514     1489 
    1462     1435     1412     1395     1386     1382     1377     1358 
    1336     1328     1318     1301     1283     1262     1244     1239 
    1244     1255     1269     1279     1289     1308     1328     1329 
    1318     1310     1298     1279     1263     1247     1225     1197 
    1173     1174     1200     1232     1263     1294     1313     1316 
    1325     1345     1360     1370     1381     1394     1399     1391 
    1386     1378     1350     1309     1267     1223     1181     1148 
    1117     1082     1055     1040     1028     1011      989      969 
     951      936      927      924      926      924      923      916 
     903      888      880      880      881      881      878      869 
     859      868      891      909      926      949      972      985 
     994     1007     1019     1036     1058     1075     1093     1112 
    1121     1125     1120     1108     1102     1100     1086     1075 
    1081     1081     1069     1062     1051     1046     1055     1062 
    1059     1065     1071     1078     1090     1097     1096     1086 
    1077     1080     1092     1097     1090     1077     1067     1058 
    1054     1059     1066     1062     1053     1046     1047     1055 
    1067     1081     1093     1108     1125     1146     1166     1185 
    1208     1232     1251     1271     1290     1305     1321     1333 
    1344     1364     1386     1405     1425     1439     1440     1439 
    1432     1426     1444     1474     1493     1510     1524     1526 
    1533     1539     1536     1541     1552     1556     1566     1583 
    1602     1620     1624     1618     1617     1615     1613     1610 
    1599     1590     1586     1578     1567     1561     1553     1541 
    1533     1529     1532     1545     1556     1561     1578     1598 
    1614     1632     1648     1659     1675     1695     1713     1733 
    1753     1773     1794     1806     1814     1827     1840     1850 
    1863     1872     1876     1879     1879     1875     1865     1848 
    1829     1807     1784     1761     1736     1707     1675     1638 
    1607     1584     1553     1521     1495     1463     1418     1368 
    1317     1263     1213     1170     1124     1082     1044     1001 
     959      923      886      849      805      760      720      681 
     641      612      596      576      548      510      468      430 
     407      388      371      359      353      357      368      375 
     382      392      407      418      426      437      452      464 
     481      502      510      507      508      508      507      515 
     523      522      534      565      598      626      650      670 
     695      724      747      769      793      812      835      866 
     896      927      965      997     1024     1050     1071     1093 
    1108     1123     1156     1205     1254     1305     1359     1399 
    1429     1453     1472     1490     1509     1532     1559     1586 
    1613     1642     1678     1711     1745     1786     1823     1854 
    1877     1900     1927     1956     1984     2015     2047     2085 
    2122     2147     2168     2182     2189     2188     2192     2201 
    2205     2205     2205     2207     2208     2199     2182     2174 
    2168     2158     2150     2142     2124     2104     2093     2085 
    2072     2057     2027     1981     1938     1908     1884     1860 
    1834     1811     1796     1786     1768     1752     1741     1725 
    1705     1687     1676     1663     1641     1621     1605     1590 
    1570     1544     1524     1505     1479     1449     1418     1387 
    1362     1341     1323     1300     1278     1256     1228     1194 
    1159     1125     1090     1053     1016      981      947      920 
     893      862      831      804      781      769      761      746 
     735      724      703      676      652      626      599      568 
     533      504      480      450      421      394      367      346 
     333      321      317      311      309      310      313      318 
     334      353      376      405      429      452      483      513 
     541      573      604      634      662      687      707      733 
     766      807      847      881      913      943      970     1000 
    1032     1061     1088     1119     1151     1192     1242     1291 
    1341     1397     1452     1505     1551     1590     1620     1652 
    1680     1699     1715     1734     1759     1783     1810     1837 
    1861     1885     1906     1918     1931     1948     1958     1961 
    1962     1962     1962     1969     1980     1985     1984     1979 
    1961     1938     1919     1904     1885     1867     1861     1863 
    1863     1864     1864     1860     1858     1863     1871     1885 
    1906     1923     1933     1934     1930     1927     1923     1919 
    1914     1910     1900     1881     1852     1815     1777     1733 
    1686     1642     1602     1553     1503     1452     1399     1350 
    1309     1275     1248     1224     1202     1178     1154     1131 
    1104     1075     1055     1036     1021     1021     1017      993 
     967      950      926      899      873      843      823      815 
     814      807      799      797      797      801      819      842 
     865      889      912      932      953      976     1007     1043 
    1077     1102     1120     1134     1139     1136     1132     1128 
    1121     1117     1123     1134     1150     1170     1181     1196 
    1223     1250     1275     1301     1323     1350     1386     1418 
    1441     1460     1475     1485     1495     1503     1502     1497 
    1498     1507     1517     1522     1517     1507     1507     1520 
    1533     1539     1539     1541     1544     1551     1559     1566 
    1571     1578     1583     1591     1603     1611     1618     1632 
    1649     1668     1694     1717     1737     1757     1776     1794 
    1810     1819     1822     1821     1815     1809     1803     1796 
    1784     1772     1756     1736     1715     1701     1683     1661 
    1637     1615     1601     1584     1564     1541     1512     1472 
    1431     1386     1337     1286     1242     1205     1174     1144 
    1115     1080     1040     1001      957      909      869      835 
     801      772      738      706      676      639      606      584 
     560      534      521      510      496      492      495      500 
     503      503      496      488      488      490      494      511 
     533      548      565      583      600      621      643      665 
     684      702      718      737      760      785      814      845 
     877      912      950      990     1027     1058     1092     1125 
    1162     1208     1260     1309     1351     1393     1433     1470 
    1501     1532     1559     1582     1598     1615     1638     1660 
    1676     1687     1690     1690     1691     1683     1665     1656 
    1657     1655     1653     1652     1648     1644     1640     1634 
    1626     1613     1598     1586     1575     1564     1555     1549 
    1541     1532     1529     1522     1510     1501     1493     1479 
    1466     1458     1452     1452     1458     1467     1474     1482 
    1495     1507     1516     1522     1530     1537     1543     1555 
    1570     1579     1594     1613     1622     1621     1620     1630 
    1649     1668     1684     1695     1701     1705     1701     1687 
    1675     1667     1656     1638     1611     1580     1553     1532 
    1512     1490     1463     1435     1409     1379     1350     1325 
    1305     1285     1270     1259     1246     1233     1215     1190 
    1163     1131     1093     1058     1032     1009      984      958 
     928      900      876      849      828      816      803      793 
     788      781      774      777      783      791      808      827 
     835      845      858      869      884      901      918      935 
     958      978      994     1008     1021     1031     1042     1059 
    1078     1098     1117     1131     1142     1152     1159     1167 
    1183     1200     1213     1224     1235     1243     1246     1247 
    1251     1251     1247     1244     1240     1235     1229     1219 
    1201     1183     1167     1151     1129     1108     1089     1070 
    1050     1027     1000      976      957      936      915      901 
     893      885      880      877      872      866      865      869 
     881      895      905      916      926      932      943      957 
     977     1004     1036     1077     1117     1152     1196     1243 
    1293     1348     1409     1466     1514     1564     1613     1657 
    1707     1767     1821     1876     1941     1993     2034     2081 
    2131     2177     2227     2273     2311     2349     2384     2419 
    2452     2482     2504     2516     2519     2513     2496     2466 
    2425     2385     2344     2301     2266     2235     2204     2174 
    2142     2106     2072     2034     1993     1950     1896     1838 
    1784     1729     1672     1620     1570     1522     1474     1426 
    1389     1355     1318     1283     1255     1235     1212     1188 
    1170     1151     1121     1096     1074     1050     1024      999 
     967      934      897      865      845      830      814      800 
     791      781      778      784      791      791      783      774 
     773      772      769      773      788      807      828      853 
     880      909      936      959      977      994     1015     1042 
    1073     1101     1125     1147     1167     1186     1200     1212 
    1232     1251     1259     1267     1279     1283     1286     1294 
    1304     1310     1324     1340     1351     1355     1356     1360 
    1367     1374     1382     1391     1404     1418     1426     1426 
    1429     1431     1436     1449     1463     1468     1475     1475 
    1467     1455     1443     1431     1421     1412     1395     1372 
    1354     1331     1304     1283     1266     1247     1232     1213 
    1192     1175     1166     1158     1147     1131     1115     1096 
    1071     1050     1027      999      974      958      945      934 
     930      923      909      897      893      889      893      912 
     930      943      967      990     1008     1021     1032     1044 
    1059     1071     1084     1101     1112     1120     1125     1124 
    1121     1124     1128     1134     1142     1144     1143     1144 
    1146     1144     1140     1139     1140     1143     1142     1136 
    1132     1136     1140     1147     1152     1156     1156     1155 
    1155     1152     1140     1129     1123     1119     1121     1127 
    1123     1121     1127     1127     1128     1136     1148     1163 
    1178     1190     1205     1223     1246     1270     1289     1300 
    1309     1324     1340     1352     1364     1370     1370     1371 
    1371     1371     1377     1385     1389     1389     1389     1383 
    1370     1354     1339     1328     1316     1300     1286     1271 
    1255     1239     1220     1198     1178     1158     1138     1116 
    1094     1073     1054     1039     1028     1012      988      967 
     954      945      935      919      904      891      873      858 
     847      837      823      811      799      785      774      769 
     757      739      731      730      730      735      750      762 
     770      784      801      816      828      842      855      870 
     886      904      928      957      988     1024     1066     1108 
    1148     1185     1223     1263     1304     1339     1375     1409 
    1435     1462     1493     1522     1553     1586     1618     1653 
    1683     1705     1728     1752     1780     1806     1825     1840 
    1848     1842     1836     1830     1825     1818     1809     1794 
    1775     1750     1728     1707     1686     1664     1649     1640 
    1632     1624     1611     1602     1599     1598     1591     1588 
    1591     1599     1610     1622     1634     1652     1674     1698 
    1721     1737     1745     1755     1769     1784     1800     1815 
    1822     1825     1825     1823     1819     1810     1796     1790 
    1786     1775     1764     1755     1744     1732     1715     1698 
    1679     1655     1629     1605     1576     1544     1503     1458 
    1414     1372     1332     1294     1254     1209     1162     1117 
    1075     1035      997      961      927      895      862      824 
     788      758      730      702      681      660      633      608 
     592      575      558      550      546      545      546      550 
     556      564      575      581      581      584      585      581 
     579      577      579      581      580      579      587      598 
     610      631      656      684      729      774      822      873 
     923      972     1027     1081     1131     1177     1223     1270 
    1314     1352     1387     1425     1463     1498     1536     1575 
    1611     1647     1682     1715     1750     1786     1819     1853 
    1888     1921     1953     1984     2015     2041     2062     2081 
    2095     2103     2107     2108     2107     2103     2099     2096 
    2100     2107     2111     2112     2111     2112     2114     2107 
    2096     2092     2089     2079     2060     2041     2018     1992 
    1968     1946     1921     1891     1858     1821     1777     1736 
    1702     1672     1640     1609     1579     1540     1494     1453 
    1413     1367     1323     1281     1242     1201     1152     1102 
    1055     1011      972      935      896      861      827      789 
     756      726      692      665      654      646      637      637 
     641      646      658      679      695      712      737      754 
     766      783      805      834      869      905      943      977 
    1001     1027     1058     1089     1120     1155     1190     1225 
    1269     1312     1352     1383     1408     1431     1448     1460 
    1471     1478     1483     1494     1502     1506     1512     1521 
    1532     1540     1544     1540     1536     1530     1528     1533 
    1539     1533     1525     1517     1509     1505     1505     1501 
    1497     1490     1483     1474     1462     1452     1452     1452 
    1451     1452     1460     1467     1466     1463     1464     1467 
    1468     1475     1483     1487     1487     1486     1480     1475 
    1474     1468     1460     1451     1439     1428     1418     1413 
    1413     1412     1413     1418     1421     1422     1428     1437 
    1448     1455     1459     1464     1475     1491     1506     1516 
