Origin Time       2025/01/13 21:19:00
Lat.              31.8
Long.             131.6
Depth. (km)       30
Mag.              6.9
Station Code      KOCH12
Station Lat.      33.5294
Station Long.     133.8192
Station Height(m) 40
Record Time       2025/01/13 21:20:28
Sampling Freq(Hz) 100Hz
Duration Time(s)  133
Dir.              6
Scale Factor      7845(gal)/8223790
Max. Acc. (gal)   0.502
Last Correction   2025/01/13 21:20:29
Memo.             
[...]
  -18873   -18902   -18900   -18883   -18906   -18933   -18912   -18870 
  -18839   -18820   -18814   -18814   -18831   -18862   -18868   -18858 
  -18855   -18832   -18790   -18786   -18824   -18852   -18868   -18890 
  -18889   -18868   -18874   -18900   -18914   -18917   -18916   -18891 
  -18844   -18808   -18796   -18792   -18798   -18823   -18832   -18801 
  -18783   -18825   -18890   -18937   -18959   -18949   -18916   -18856 
  -18790   -18775   -18801   -18805   -18798   -18800   -18782   -18766 
  -18794   -18825   -18806   -18770   -18744   -18727   -18735   -18759 
  -18759   -18739   -18729   -18732   -18742   -18747   -18736   -18720 
  -18736   -18779   -18824   -18873   -18902   -18909   -18927   -18943 
  -18941   -18948   -18954   -18940   -18958   -19014   -19057   -19083 
  -19098   -19074   -19010   -18947   -18918   -18905   -18866   -18844 
  -18859   -18860   -18867   -18891   -18882   -18854   -18829   -18814 
  -18801   -18755   -18719   -18744   -18755   -18732   -18760   -18802 
  -18798   -18817   -18858   -18862   -18852   -18850   -18840   -18837 
  -18855   -18881   -18891   -18902   -18898   -18855   -18817   -18813 
  -18831   -18852   -18871   -18895   -18906   -18893   -18895   -18902 
  -18878   -18862   -18874   -18891   -18900   -18875   -18844   -18833 
  -18802   -18755   -18762   -18796   -18789   -18777   -18778   -18755 
  -18721   -18733   -18771   -18796   -18829   -18867   -18854   -18809 
  -18794   -18813   -18833   -18851   -18894   -18944   -18949   -18932 
  -18913   -18878   -18846   -18836   -18827   -18828   -18843   -18839 
  -18817   -18802   -18798   -18787   -18773   -18786   -18810   -18802 
  -18783   -18802   -18841   -18881   -18916   -18962   -18999   -19017 
  -19071   -19148   -19167   -19167   -19190   -19198   -19187   -19156 
  -19134   -19149   -19147   -19118   -19117   -19125   -19118   -19134 
  -19174   -19180   -19138   -19094   -19030   -18933   -18895   -18916 
  -18873   -18777   -18701   -18621   -18557   -18561   -18581   -18561 
  -18551   -18589   -18640   -18674   -18690   -18682   -18623   -18546 
  -18523   -18553   -18627   -18727   -18778   -18762   -18712   -18659 
  -18648   -18704   -18800   -18879   -18912   -18909   -18898   -18882 
  -18839   -18782   -18746   -18733   -18736   -18725   -18705   -18690 
  -18642   -18580   -18565   -18549   -18489   -18454   -18457   -18466 
  -18524   -18632   -18732   -18820   -18885   -18891   -18887   -18931 
  -18964   -18945   -18920   -18878   -18797   -18728   -18694   -18670 
  -18658   -18679   -18724   -18743   -18743   -18800   -18904   -18959 
  -18966   -18979   -18956   -18868   -18801   -18790   -18758   -18716 
  -18739   -18782   -18800   -18854   -18945   -18989   -18999   -19021 
  -19022   -19025   -19064   -19083   -19064   -19055   -19051   -19009 
  -18948   -18912   -18870   -18805   -18783   -18808   -18817   -18847 
  -18947   -19036   -19056   -19055   -19048   -19052   -19113   -19201 
  -19251   -19242   -19213   -19197   -19179   -19153   -19114   -19043 
  -18947   -18878   -18856   -18852   -18863   -18881   -18883   -18891 
  -18921   -18964   -19035   -19102   -19109   -19064   -19026   -19008 
  -18993   -18994   -19009   -19009   -18972   -18902   -18866   -18890 
  -18910   -18910   -18913   -18909   -18879   -18821   -18779   -18781 
  -18751   -18697   -18674   -18640   -18598   -18582   -18571   -18557 
  -18547   -18543   -18555   -18557   -18524   -18519   -18582   -18665 
  -18747   -18837   -18870   -18835   -18786   -18743   -18688   -18624 
  -18586   -18576   -18582   -18638   -18692   -18682   -18655   -18642 
  -18646   -18682   -18719   -18742   -18774   -18810   -18854   -18917 
  -18971   -18963   -18904   -18836   -18789   -18800   -18823   -18766 
  -18696   -18711   -18743   -18736   -18774   -18839   -18824   -18774 
  -18763   -18721   -18628   -18580   -18585   -18574   -18576   -18673 
  -18778   -18785   -18763   -18765   -18748   -18763   -18843   -18916 
  -18964   -19020   -19026   -18982   -18981   -19020   -19029   -19021 
  -19018   -18997   -18949   -18922   -18944   -19001   -19067   -19128 
  -19147   -19102   -19028   -18962   -18920   -18920   -18947   -18963 
  -18945   -18900   -18829   -18731   -18666   -18706   -18787   -18846 
  -18947   -19075   -19090   -19016   -18979   -18990   -19006   -19033 
  -19070   -19075   -19045   -19010   -18983   -18956   -18941   -18956 
  -18976   -18949   -18863   -18787   -18781   -18789   -18779   -18800 
  -18812   -18755   -18692   -18684   -18678   -18621   -18588   -18609 
  -18640   -18712   -18852   -18948   -18941   -18910   -18905   -18914 
  -18902   -18859   -18827   -18801   -18747   -18728   -18751   -18709 
  -18609   -18570   -18586   -18593   -18613   -18661   -18688   -18696 
  -18701   -18712   -18760   -18825   -18889   -18948   -18967   -18964 
  -18959   -18900   -18829   -18825   -18858   -18882   -18895   -18904 
  -18864   -18770   -18727   -18773   -18824   -18898   -19008   -19024 
  -18949   -18913   -18924   -18937   -18956   -18972   -18958   -18927 
  -18940   -18995   -19022   -19021   -19025   -18989   -18920   -18864 
  -18796   -18725   -18694   -18712   -18775   -18812   -18771   -18713 
  -18652   -18570   -18534   -18559   -18577   -18604   -18661   -18693 
  -18724   -18806   -18890   -18925   -18960   -19024   -19068   -19080 
  -19102   -19125   -19080   -18989   -18931   -18924   -18949   -18994 
  -19035   -19047   -18994   -18905   -18855   -18819   -18769   -18744 
  -18738   -18727   -18733   -18750   -18747   -18756   -18809   -18882 
  -18951   -18993   -18993   -18967   -18955   -18970   -18970   -18955 
  -18955   -18916   -18808   -18697   -18616   -18570   -18593   -18650 
  -18667   -18682   -18744   -18787   -18769   -18770   -18802   -18755 
  -18659   -18659   -18706   -18739   -18827   -18940   -18998   -19021 
  -19036   -19043   -19047   -19064   -19107   -19145   -19132   -19064 
  -18983   -18898   -18771   -18657   -18635   -18661   -18696   -18778 
  -18885   -18952   -19002   -19044   -19067   -19105   -19153   -19178 
  -19151   -19041   -18914   -18832   -18771   -18742   -18744   -18766 
  -18797   -18789   -18763   -18779   -18763   -18704   -18694   -18694 
  -18669   -18712   -18771   -18711   -18596   -18544   -18555   -18596 
  -18669   -18758   -18825   -18885   -18935   -18920   -18887   -18879 
  -18846   -18824   -18868   -18913   -18913   -18900   -18895   -18882 
  -18862   -18891   -18968   -19020   -19026   -19022   -19022   -19006 
  -18978   -18959   -18918   -18829   -18733   -18685   -18696   -18732 
  -18752   -18808   -18939   -19055   -19101   -19137   -19128   -19030 
  -18944   -18912   -18870   -18827   -18841   -18873   -18856   -18862 
  -18943   -18997   -18964   -18932   -18901   -18827   -18797   -18858 
  -18887   -18836   -18787   -18742   -18661   -18628   -18701   -18785 
  -18810   -18846   -18918   -18917   -18814   -18735   -18684   -18573 
  -18459   -18447   -18490   -18511   -18544   -18643   -18736   -18759 
  -18797   -18901   -18971   -18972   -18967   -18958   -18913   -18841 
  -18787   -18774   -18769   -18755   -18739   -18762   -18848   -18904 
  -18912   -18962   -19013   -19029   -19080   -19132   -19083   -18972 
  -18927   -18947   -18937   -18887   -18840   -18777   -18690   -18616 
  -18547   -18489   -18481   -18508   -18550   -18607   -18652   -18638 
  -18586   -18562   -18549   -18540   -18590   -18673   -18758   -18894 
  -19033   -19080   -19089   -19133   -19147   -19113   -19102   -19084 
  -19017   -18939   -18841   -18717   -18632   -18604   -18616   -18671 
  -18705   -18671   -18647   -18670   -18674   -18684   -18746   -18810 
  -18878   -18958   -18964   -18906   -18859   -18794   -18711   -18702 
  -18779   -18819   -18797   -18796   -18812   -18813   -18837   -18891 
  -18932   -18958   -18982   -18998   -18979   -18897   -18831   -18854 
  -18920   -19013   -19132   -19213   -19237   -19205   -19121   -19055 
  -19012   -18948   -18910   -18920   -18932   -18954   -18971   -18962 
  -18982   -19044   -19057   -19014   -18966   -18931   -18924   -18922 
  -18906   -18874   -18825   -18796   -18785   -18743   -18708   -18705 
  -18700   -18717   -18779   -18844   -18885   -18894   -18891   -18891 
  -18867   -18813   -18746   -18688   -18662   -18640   -18634   -18673 
  -18733   -18797   -18858   -18870   -18827   -18756   -18700   -18711 
  -18792   -18859   -18840   -18765   -18724   -18748   -18827   -18956 
  -19094   -19171   -19205   -19228   -19225   -19161   -19030   -18920 
  -18867   -18831   -18840   -18905   -18933   -18904   -18879   -18905 
  -18952   -18954   -18916   -18877   -18824   -18794   -18798   -18796 
  -18820   -18867   -18893   -18912   -18928   -18948   -18979   -18976 
  -18952   -18949   -18963   -18981   -19008   -18990   -18912   -18858 
  -18846   -18812   -18769   -18755   -18740   -18690   -18638   -18604 
  -18543   -18495   -18551   -18621   -18619   -18643   -18678   -18631 
  -18598   -18638   -18689   -18765   -18863   -18959   -19032   -19049 
  -19028   -18985   -18908   -18814   -18728   -18663   -18612   -18574 
  -18554   -18528   -18503   -18539   -18638   -18721   -18765   -18805 
  -18860   -18927   -18968   -18963   -18937   -18914   -18894   -18893 
  -18901   -18890   -18883   -18898   -18912   -18917   -18890   -18805 
  -18716   -18694   -18733   -18825   -18908   -18904   -18894   -18935 
  -18933   -18936   -19021   -19064   -19017   -18990   -18986   -18952 
  -18928   -18958   -18976   -18925   -18894   -18936   -18959   -18951 
  -18966   -18955   -18897   -18870   -18893   -18916   -18927   -18944 
  -18920   -18813   -18698   -18609   -18511   -18476   -18551   -18659 
  -18742   -18798   -18851   -18927   -18999   -19040   -19062   -19051 
  -18985   -18924   -18897   -18831   -18750   -18744   -18765   -18766 
  -18797   -18828   -18792   -18739   -18748   -18790   -18783   -18738 
  -18689   -18639   -18628   -18688   -18773   -18840   -18862   -18833 
  -18789   -18728   -18658   -18635   -18659   -18684   -18706   -18754 
  -18793   -18766   -18723   -18701   -18678   -18674   -18717   -18790 
  -18863   -18908   -18918   -18916   -18916   -18908   -18883   -18873 
  -18870   -18847   -18850   -18920   -18986   -18990   -18981   -18982 
  -18951   -18906   -18904   -18920   -18928   -18959   -19045   -19137 
  -19164   -19117   -19017   -18921   -18877   -18833   -18771   -18759 
  -18796   -18832   -18866   -18889   -18874   -18805   -18715   -18665 
  -18646   -18647   -18711   -18805   -18863   -18901   -18924   -18922 
  -18905   -18868   -18828   -18809   -18804   -18814   -18843   -18868 
  -18885   -18909   -18927   -18875   -18775   -18724   -18724   -18712 
  -18705   -18712   -18700   -18684   -18696   -18748   -18862   -18981 
  -19033   -19039   -19033   -19025   -19045   -19103   -19134   -19090 
  -19010   -18947   -18900   -18858   -18852   -18900   -18931   -18912 
  -18882   -18812   -18709   -18666   -18658   -18634   -18654   -18721 
  -18774   -18823   -18858   -18827   -18762   -18724   -18721   -18783 
  -18910   -18995   -19005   -18993   -18963   -18900   -18808   -18720 
  -18686   -18694   -18736   -18821   -18916   -18982   -19021   -19056 
  -19090   -19101   -19089   -19057   -18979   -18878   -18821   -18823 
  -18852   -18906   -18989   -19066   -19087   -19039   -18922   -18759 
  -18601   -18493   -18451   -18463   -18516   -18580   -18607   -18619 
  -18635   -18635   -18623   -18598   -18542   -18504   -18542   -18624 
  -18692   -18752   -18840   -18944   -19039   -19113   -19140   -19098 
  -19010   -18908   -18808   -18732   -18689   -18663   -18659   -18700 
  -18767   -18829   -18866   -18859   -18833   -18841   -18893   -18960 
  -19032   -19105   -19143   -19122   -19062   -18982   -18906   -18877 
  -18885   -18906   -18948   -18983   -18981   -18963   -18940   -18902 
  -18887   -18917   -18982   -19060   -19090   -19071   -19072   -19107 
  -19163   -19221   -19230   -19183   -19097   -18991   -18917   -18864 
  -18801   -18754   -18747   -18760   -18774   -18817   -18908   -18960 
  -18928   -18912   -18914   -18862   -18790   -18732   -18686   -18696 
  -18743   -18775   -18808   -18846   -18839   -18793   -18769   -18774 
  -18810   -18883   -18941   -18939   -18891   -18824   -18760   -18735 
  -18751   -18785   -18823   -18837   -18809   -18770   -18756   -18769 
  -18792   -18821   -18855   -18875   -18854   -18785   -18713   -18658 
  -18624   -18640   -18719   -18794   -18809   -18786   -18762   -18727 
  -18673   -18627   -18607   -18592   -18585   -18586   -18566   -18542 
  -18555   -18581   -18600   -18620   -18640   -18684   -18759   -18837 
  -18893   -18921   -18928   -18925   -18948   -18974   -18940   -18875 
  -18823   -18750   -18678   -18654   -18669   -18678   -18655   -18630 
  -18619   -18612   -18642   -18717   -18773   -18800   -18854   -18920 
  -18956   -18963   -18936   -18898   -18886   -18878   -18851   -18821 
  -18814   -18829   -18841   -18868   -18921   -18951   -18914   -18856 
  -18809   -18774   -18769   -18810   -18887   -18943   -18917   -18852 
  -18789   -18716   -18665   -18643   -18632   -18674   -18773   -18835 
  -18858   -18905   -18956   -18949   -18885   -18801   -18716   -18640 
  -18624   -18698   -18773   -18789   -18800   -18813   -18804   -18810 
  -18852   -18877   -18873   -18889   -18913   -18901   -18864   -18835 
  -18806   -18767   -18729   -18698   -18667   -18670   -18777   -18952 
  -19109   -19233   -19333   -19371   -19321   -19202   -19078   -18985 
  -18916   -18864   -18825   -18813   -18820   -18828   -18867   -18908 
  -18885   -18860   -18887   -18917   -18949   -18986   -18998   -18998 
  -18978   -18932   -18890   -18875   -18901   -18964   -19026   -19045 
  -19021   -18991   -18971   -18941   -18891   -18850   -18820   -18767 
  -18723   -18727   -18742   -18752   -18779   -18806   -18827   -18859 
  -18889   -18889   -18862   -18816   -18766   -18744   -18762   -18794 
  -18832   -18887   -18945   -18959   -18944   -18955   -19003   -19082 
  -19171   -19233   -19282   -19318   -19315   -19292   -19234   -19140 
  -19055   -18985   -18945   -18956   -18956   -18933   -18947   -18995 
  -19018   -19012   -18976   -18897   -18810   -18755   -18704   -18652 
  -18631   -18635   -18658   -18720   -18819   -18895   -18928   -18947 
  -18956   -18951   -18952   -18945   -18921   -18905   -18887   -18847 
  -18796   -18746   -18723   -18732   -18740   -18762   -18816   -18833 
  -18769   -18661   -18550   -18461   -18445   -18489   -18534   -18584 
  -18662   -18736   -18783   -18810   -18820   -18816   -18816   -18846 
  -18895   -18929   -18928   -18875   -18773   -18647   -18535   -18481 
  -18515   -18592   -18689   -18806   -18885   -18894   -18879   -18851 
  -18814   -18783   -18744   -18701   -18673   -18662   -18673   -18704 
  -18746   -18814   -18894   -18952   -18989   -18993   -18935   -18848 
  -18781   -18729   -18689   -18692   -18743   -18804   -18873   -18948 
  -18976   -18952   -18920   -18890   -18871   -18877   -18882   -18870 
  -18882   -18924   -18940   -18916   -18875   -18814   -18759   -18754 
  -18800   -18870   -18929   -18971   -19017   -19043   -19020   -18967 
  -18908   -18860   -18855   -18900   -18952   -18989   -19026   -19064 
  -19078   -19063   -19014   -18952   -18893   -18806   -18711   -18638 
  -18585   -18565   -18581   -18613   -18666   -18735   -18786   -18821 
  -18831   -18805   -18765   -18739   -18736   -18747   -18781   -18836 
  -18881   -18906   -18925   -18940   -18951   -18954   -18952   -18954 
  -18964   -18975   -18971   -18968   -18985   -18998   -18991   -18967 
  -18929   -18897   -18873   -18873   -18909   -18932   -18929   -18940 
  -18970   -19005   -19017   -18983   -18937   -18918   -18918   -18924 
  -18924   -18893   -18836   -18786   -18755   -18756   -18765   -18746 
  -18713   -18667   -18609   -18581   -18594   -18612   -18625   -18652 
  -18677   -18681   -18694   -18729   -18755   -18754   -18740   -18716 
  -18690   -18693   -18709   -18700   -18688   -18702   -18706   -18688 
  -18694   -18725   -18744   -18770   -18814   -18851   -18871   -18897 
  -18924   -18937   -18944   -18943   -18916   -18864   -18813   -18771 
  -18732   -18708   -18724   -18765   -18792   -18796   -18779   -18744 
  -18717   -18740   -18801   -18859   -18913   -18971   -19017   -19037 
  -19006   -18936   -18873   -18824   -18792   -18783   -18767   -18740 
  -18740   -18758   -18760   -18740   -18698   -18640   -18573   -18520 
  -18492   -18486   -18513   -18555   -18592   -18642   -18688   -18705 
  -18702   -18677   -18650   -18669   -18719   -18760   -18809   -18856 
  -18863   -18840   -18821   -18782   -18711   -18647   -18617   -18613 
  -18636   -18681   -18731   -18773   -18785   -18766   -18773   -18827 
  -18886   -18939   -19003   -19060   -19080   -19080   -19089   -19093 
  -19071   -19041   -19012   -18956   -18882   -18829   -18798   -18770 
  -18762   -18770   -18767   -18767   -18771   -18744   -18706   -18689 
  -18692   -18712   -18739   -18774   -18835   -18900   -18940   -18956 
  -18929   -18863   -18816   -18809   -18810   -18813   -18828   -18829 
  -18817   -18831   -18854   -18868   -18902   -18943   -18970   -18990 
  -18983   -18947   -18929   -18944   -18970   -19017   -19067   -19072 
  -19049   -19033   -19032   -19035   -19021   -18998   -18999   -19006 
  -19008   -19014   -19018   -19009   -18986   -18959   -18939   -18929 
  -18944   -18982   -19030   -19080   -19103   -19076   -19020   -18956 
  -18901   -18852   -18790   -18723   -18666   -18630   -18639   -18690 
  -18751   -18808   -18844   -18841   -18810   -18766   -18723   -18698 
  -18702   -18744   -18816   -18870   -18871   -18851   -18831   -18796 
  -18765   -18748   -18711   -18669   -18684   -18723   -18743   -18759 
  -18760   -18736   -18721   -18729   -18720   -18692   -18677   -18681 
  -18697   -18739   -18785   -18793   -18789   -18801   -18806   -18801 
  -18801   -18804   -18802   -18812   -18855   -18920   -18958   -18958 
  -18940   -18898   -18850   -18819   -18789   -18774   -18785   -18793 
  -18794   -18806   -18823   -18831   -18839   -18846   -18850   -18846 
  -18829   -18808   -18787   -18759   -18746   -18781   -18833   -18870 
  -18901   -18925   -18936   -18941   -18939   -18936   -18945   -18972 
  -19014   -19043   -19037   -19003   -18959   -18928   -18927   -18937 
  -18952   -18972   -18985   -18991   -18997   -18964   -18895   -18841 
  -18806   -18771   -18743   -18721   -18706   -18708   -18727   -18754 
  -18763   -18759   -18769   -18792   -18810   -18823   -18825   -18823 
  -18837   -18878   -18901   -18898   -18913   -18929   -18914   -18906 
  -18893   -18843   -18798   -18794   -18802   -18819   -18851   -18893 
  -18894   -18844   -18792   -18781   -18796   -18810   -18824   -18835 
  -18846   -18871   -18912   -18954   -18982   -19003   -19047   -19107 
  -19159   -19199   -19217   -19182   -19128   -19093   -19055   -19005 
  -18975   -18955   -18929   -18917   -18924   -18921   -18908   -18912 
  -18922   -18912   -18902   -18905   -18890   -18881   -18909   -18925 
  -18916   -18922   -18922   -18890   -18860   -18839   -18802   -18771 
  -18766   -18785   -18821   -18875   -18924   -18954   -18985   -19005 
  -19009   -19030   -19068   -19099   -19144   -19186   -19201   -19201 
