Origin Time       2025/01/13 21:19:00
Lat.              31.8
Long.             131.6
Depth. (km)       30
Mag.              6.9
Station Code      KOCH11
Station Lat.      33.2866
Station Long.     134.1603
Station Height(m) -210
Record Time       2025/01/13 21:20:40
Sampling Freq(Hz) 100Hz
Duration Time(s)  127
Dir.              3
Scale Factor      2942(gal)/8224139
Max. Acc. (gal)   0.202
Last Correction   2025/01/13 21:20:42
Memo.             
[...]
   13466    13479    13473    13458    13452    13459    13475    13493 
   13501    13495    13483    13470    13458    13458    13471    13497 
   13531    13563    13585    13605    13629    13635    13609    13567 
   13541    13527    13501    13485    13508    13559    13617    13676 
   13722    13733    13697    13647    13617    13589    13541    13498 
   13486    13495    13508    13524    13551    13575    13603    13630 
   13617    13564    13516    13462    13389    13351    13367    13382 
   13374    13374    13400    13439    13470    13478    13482    13500 
   13502    13471    13444    13456    13497    13531    13531    13514 
   13505    13498    13494    13489    13470    13439    13389    13329 
   13294    13289    13308    13329    13340    13352    13367    13366 
   13333    13305    13321    13362    13387    13378    13339    13304 
   13297    13305    13306    13293    13275    13259    13225    13190 
   13189    13190    13161    13130    13116    13107    13086    13058 
   13043    13062    13089    13086    13074    13078    13078    13072 
   13082    13116    13149    13177    13204    13213    13212    13232 
   13275    13309    13313    13308    13316    13327    13339    13362 
   13373    13362    13352    13359    13387    13441    13512    13566 
   13581    13571    13566    13564    13555    13563    13601    13622 
   13605    13574    13543    13522    13529    13549    13566    13570 
   13562    13568    13610    13667    13689    13648    13593    13548 
   13487    13437    13433    13433    13413    13385    13355    13350 
   13379    13413    13440    13463    13460    13429    13393    13385 
   13414    13437    13432    13404    13379    13386    13405    13420 
   13443    13464    13471    13446    13386    13332    13317    13338 
   13360    13382    13423    13479    13535    13579    13603    13603 
   13599    13612    13617    13599    13574    13540    13516    13528 
   13554    13587    13616    13616    13621    13655    13659    13640 
   13647    13662    13667    13674    13674    13679    13690    13663 
   13591    13512    13433    13358    13308    13293    13294    13309 
   13338    13363    13371    13370    13360    13333    13288    13254 
   13270    13338    13405    13441    13466    13495    13527    13539 
   13518    13487    13463    13451    13470    13504    13528    13558 
   13594    13602    13599    13622    13649    13659    13649    13629 
   13632    13645    13616    13593    13622    13643    13641    13662 
   13694    13706    13703    13711    13734    13741    13736    13738 
   13721    13675    13624    13582    13572    13576    13560    13536 
   13525    13532    13545    13540    13517    13494    13462    13431 
   13414    13409    13414    13400    13328    13236    13180    13134 
   13070    13038    13053    13057    13024    12989    12989    13038 
   13109    13163    13188    13201    13201    13171    13146    13159 
   13181    13159    13132    13165    13224    13273    13315    13338 
   13348    13373    13389    13394    13425    13477    13520    13571 
   13630    13672    13687    13714    13764    13818    13878    13909 
   13887    13876    13898    13903    13914    13957    13992    13994 
   13986    13995    14002    13961    13891    13836    13797    13759 
   13718    13670    13617    13578    13558    13562    13574    13559 
   13514    13494    13513    13513    13478    13441    13405    13355 
   13306    13282    13285    13279    13235    13186    13180    13171 
   13146    13158    13198    13231    13254    13267    13284    13317 
   13362    13383    13389    13410    13436    13436    13423    13425 
   13446    13468    13479    13473    13466    13450    13397    13352 
   13320    13316    13377    13420    13475    13567    13570    13517 
   13479    13466    13474    13466    13463    13458    13452    13494 
   13559    13609    13622    13581    13531    13528    13532    13495 
   13446    13400    13365    13358    13358    13343    13324    13321 
   13351    13397    13437    13460    13467    13489    13529    13566 
   13586    13579    13537    13460    13356    13282    13261    13273 
   13313    13346    13369    13412    13428    13419    13432    13433 
   13401    13343    13278    13224    13173    13134    13127    13154 
   13205    13243    13250    13248    13246    13239    13236    13231 
   13215    13207    13221    13224    13207    13216    13240    13234 
   13203    13185    13198    13239    13279    13300    13290    13284 
   13306    13325    13316    13304    13296    13288    13275    13274 
   13298    13362    13452    13529    13558    13547    13531    13529 
   13547    13571    13571    13537    13522    13563    13618    13652 
   13676    13697    13721    13763    13794    13770    13734    13734 
   13755    13787    13798    13756    13706    13660    13597    13547 
   13536    13559    13616    13670    13701    13744    13782    13764 
   13702    13613    13527    13509    13535    13552    13585    13608 
   13556    13481    13435    13421    13452    13506    13543    13560 
   13578    13602    13617    13599    13554    13498    13456    13440 
   13424    13374    13300    13235    13220    13236    13238    13239 
   13274    13321    13339    13333    13342    13374    13416    13459 
   13478    13446    13413    13402    13340    13255    13246    13285 
   13292    13274    13279    13335    13420    13482    13498    13505 
   13539    13575    13591    13612    13645    13660    13655    13648 
   13644    13635    13605    13564    13544    13551    13562    13556 
   13529    13486    13462    13485    13521    13535    13528    13514 
   13493    13482    13471    13456    13464    13475    13456    13439 
   13417    13379    13377    13433    13505    13560    13593    13601 
   13601    13595    13568    13539    13547    13586    13578    13497 
   13410    13360    13336    13328    13350    13414    13510    13594 
   13639    13656    13656    13628    13571    13522    13509    13501 
   13490    13487    13468    13417    13370    13352    13344    13324 
   13290    13261    13238    13213    13211    13252    13324    13381 
   13414    13450    13477    13478    13466    13466    13485    13485 
   13454    13413    13363    13342    13378    13392    13366    13363 
   13375    13371    13339    13290    13257    13261    13302    13354 
   13400    13450    13490    13508    13489    13421    13348    13301 
   13257    13219    13209    13223    13242    13248    13248    13257 
   13266    13286    13328    13387    13456    13513    13537    13549 
   13567    13602    13676    13752    13740    13664    13625    13628 
   13643    13678    13729    13741    13674    13558    13489    13509 
   13536    13494    13421    13385    13360    13293    13219    13186 
   13162    13144    13162    13171    13154    13151    13163    13165 
   13171    13204    13240    13270    13306    13332    13336    13317 
   13255    13177    13135    13111    13069    13034    13039    13068 
   13096    13122    13149    13201    13293    13381    13459    13552 
   13636    13683    13716    13749    13772    13763    13743    13725 
   13679    13621    13605    13616    13626    13630    13635    13652 
   13713    13815    13906    13960    13973    13934    13860    13788 
   13721    13659    13633    13655    13714    13794    13852    13861 
   13807    13697    13582    13505    13444    13383    13342    13323 
   13320    13328    13342    13346    13329    13319    13331    13336 
   13320    13293    13285    13306    13317    13325    13332    13277 
   13196    13153    13126    13099    13104    13140    13143    13100 
   13062    13031    12995    12987    13009    13032    13073    13153 
   13235    13285    13328    13360    13358    13373    13425    13464 
   13467    13460    13486    13533    13574    13662    13794    13859 
   13805    13691    13602    13556    13520    13479    13432    13377 
   13356    13383    13392    13350    13279    13198    13138    13109 
   13086    13077    13113    13198    13297    13369    13401    13408 
   13397    13378    13350    13313    13284    13263    13278    13336 
   13392    13406    13374    13302    13252    13294    13402    13501 
   13585    13679    13751    13763    13751    13767    13782    13756 
   13722    13710    13702    13670    13628    13608    13609    13610 
   13587    13531    13474    13443    13432    13437    13471    13548 
   13633    13690    13732    13770    13813    13860    13883    13865 
   13813    13753    13706    13649    13560    13479    13436    13401 
   13377    13401    13432    13416    13386    13377    13351    13288 
   13235    13213    13227    13289    13370    13447    13521    13545 
   13494    13413    13327    13244    13207    13219    13220    13198 
   13186    13211    13259    13289    13320    13371    13405    13425 
   13436    13409    13386    13401    13429    13468    13504    13521 
   13548    13605    13651    13657    13648    13636    13626    13612 
   13568    13528    13535    13560    13563    13547    13522    13502 
   13485    13452    13427    13436    13478    13529    13566    13591 
   13624    13651    13656    13639    13594    13517    13447    13428 
   13408    13320    13208    13135    13111    13136    13176    13192 
   13194    13193    13217    13266    13313    13352    13371    13359 
   13312    13224    13131    13088    13105    13150    13208    13244 
   13217    13149    13090    13066    13080    13107    13138    13197 
   13277    13328    13333    13319    13306    13321    13370    13405 
   13408    13400    13387    13377    13389    13410    13410    13409 
   13446    13512    13576    13652    13724    13760    13780    13775 
   13709    13633    13628    13689    13765    13817    13840    13856 
   13865    13869    13891    13925    13948    13946    13911    13856 
   13815    13794    13772    13751    13737    13726    13697    13672 
   13686    13706    13706    13695    13678    13678    13724    13755 
   13725    13660    13594    13570    13570    13556    13532    13498 
   13486    13500    13505    13528    13548    13525    13505    13505 
   13485    13429    13360    13302    13271    13239    13181    13111 
   13073    13082    13097    13097    13115    13161    13235    13325 
   13396    13433    13451    13447    13423    13429    13497    13575 
   13609    13598    13576    13547    13497    13467    13454    13425 
   13419    13419    13389    13378    13389    13382    13378    13385 
   13379    13377    13377    13366    13351    13323    13289    13284 
   13296    13277    13238    13231    13252    13273    13286    13281 
   13262    13248    13240    13234    13236    13254    13285    13311 
   13315    13302    13292    13282    13281    13304    13315    13270 
   13217    13205    13220    13225    13224    13251    13293    13315 
   13347    13410    13463    13485    13474    13439    13402    13386 
   13383    13382    13383    13390    13387    13362    13324    13289 
   13258    13234    13232    13261    13321    13387    13431    13437 
   13416    13404    13410    13408    13394    13369    13329    13309 
   13312    13316    13340    13390    13455    13529    13554    13527 
   13514    13501    13452    13421    13436    13456    13452    13401 
   13339    13313    13306    13313    13360    13416    13451    13490 
   13532    13549    13551    13563    13594    13593    13547    13512 
   13509    13513    13509    13493    13458    13436    13431    13416 
   13401    13393    13374    13344    13317    13297    13294    13331 
   13398    13436    13420    13404    13409    13421    13417    13394 
   13379    13387    13394    13394    13405    13427    13458    13494 
   13528    13536    13521    13522    13551    13568    13562    13572 
   13616    13666    13710    13740    13728    13674    13606    13568 
   13579    13608    13612    13589    13571    13586    13625    13667 
   13678    13652    13637    13640    13628    13608    13593    13576 
   13551    13524    13506    13474    13401    13336    13306    13281 
   13254    13263    13300    13335    13378    13436    13489    13527 
   13562    13578    13560    13537    13525    13479    13387    13297 
   13235    13186    13144    13131    13165    13227    13293    13331 
   13328    13315    13304    13285    13275    13305    13373    13446 
   13504    13520    13510    13501    13470    13414    13386    13400 
   13431    13451    13475    13527    13556    13545    13497    13433 
   13412    13443    13505    13571    13640    13716    13745    13722 
   13698    13684    13660    13624    13597    13581    13575    13575 
   13562    13556    13585    13597    13549    13502    13500    13510 
   13532    13590    13644    13674    13716    13757    13775    13776 
   13765    13752    13728    13667    13586    13525    13495    13502 
   13510    13482    13447    13437    13421    13404    13409    13421 
   13425    13429    13425    13417    13410    13400    13381    13356 
   13343    13358    13386    13398    13398    13397    13393    13375 
   13344    13339    13367    13386    13389    13404    13417    13416 
   13412    13413    13416    13416    13435    13474    13498    13505 
   13529    13579    13632    13683    13752    13832    13903    13963 
   14003    14011    13992    13981    13981    13957    13917    13900 
   13894    13841    13743    13657    13628    13640    13668    13691 
   13689    13666    13644    13626    13614    13601    13558    13502 
   13486    13508    13533    13545    13536    13504    13466    13452 
   13454    13463    13481    13477    13428    13381    13371    13381 
   13387    13394    13400    13394    13378    13365    13346    13320 
   13315    13331    13359    13408    13458    13478    13494    13529 
   13544    13525    13501    13478    13460    13448    13429    13402 
   13367    13321    13292    13294    13293    13285    13313    13370 
   13405    13404    13394    13400    13410    13414    13396    13375 
   13390    13419    13433    13435    13424    13414    13412    13413 
   13425    13425    13423    13436    13437    13417    13406    13405 
   13409    13427    13450    13458    13456    13459    13482    13528 
   13568    13582    13572    13547    13517    13505    13502    13505 
   13524    13555    13578    13587    13583    13578    13591    13629 
   13656    13660    13670    13693    13695    13674    13660    13652 
   13644    13647    13655    13641    13622    13609    13576    13533 
   13504    13486    13479    13481    13474    13458    13432    13393 
   13342    13279    13247    13261    13271    13252    13236    13224 
   13211    13215    13220    13205    13184    13157    13122    13088 
   13069    13076    13103    13144    13208    13279    13333    13356 
   13358    13370    13390    13397    13393    13408    13431    13447 
   13474    13505    13518    13513    13486    13458    13464    13486 
   13497    13512    13529    13525    13521    13543    13558    13560 
   13583    13610    13620    13617    13603    13590    13587    13567 
   13537    13531    13533    13529    13520    13493    13456    13446 
   13460    13485    13493    13467    13432    13413    13401    13365 
   13311    13302    13339    13352    13327    13308    13309    13321 
   13358    13408    13433    13443    13452    13455    13454    13459 
   13467    13459    13432    13413    13417    13431    13428    13406 
   13375    13350    13327    13286    13246    13232    13231    13200 
   13155    13130    13127    13155    13215    13282    13339    13362 
   13346    13312    13277    13255    13250    13261    13290    13321 
   13329    13324    13317    13313    13317    13344    13392    13447 
   13482    13485    13463    13451    13468    13497    13514    13516 
   13500    13478    13482    13514    13555    13598    13625    13621 
   13620    13629    13629    13616    13597    13586    13587    13585 
   13581    13563    13536    13529    13539    13540    13547    13548 
   13531    13525    13551    13587    13613    13632    13651    13664 
   13679    13694    13687    13676    13675    13655    13622    13609 
   13602    13585    13564    13571    13603    13620    13616    13622 
   13621    13606    13595    13581    13564    13575    13594    13597 
   13585    13566    13556    13563    13575    13566    13527    13473 
   13424    13408    13443    13477    13486    13510    13545    13555 
   13551    13549    13562    13583    13590    13576    13572    13589 
   13602    13591    13585    13595    13594    13585    13601    13630 
   13653    13667    13653    13614    13575    13539    13508    13486 
   13468    13462    13475    13487    13486    13477    13468    13460 
   13462    13464    13459    13441    13416    13404    13408    13408 
   13393    13356    13311    13284    13277    13277    13292    13315 
   13320    13312    13301    13284    13257    13243    13255    13281 
   13306    13309    13284    13269    13279    13282    13266    13244 
   13228    13220    13212    13189    13169    13165    13158    13143 
   13138    13153    13178    13196    13201    13200    13197    13190 
   13169    13159    13181    13197    13189    13170    13153    13149 
   13153    13161    13174    13180    13177    13189    13208    13230 
   13265    13298    13320    13325    13316    13319    13327    13325 
   13324    13327    13327    13329    13344    13358    13358    13346 
   13335    13329    13339    13365    13408    13451    13485    13514 
   13532    13539    13549    13555    13549    13548    13552    13547 
   13540    13549    13564    13562    13543    13527    13517    13504 
   13478    13443    13413    13398    13386    13373    13371    13385 
   13414    13444    13466    13491    13504    13478    13444    13421 
   13397    13375    13360    13362    13385    13417    13447    13467 
   13456    13436    13420    13397    13378    13369    13356    13344 
   13332    13320    13319    13329    13333    13327    13329    13346 
   13360    13365    13358    13346    13347    13354    13347    13338 
   13332    13325    13332    13352    13358    13350    13348    13355 
   13348    13338    13339    13343    13344    13335    13312    13298 
   13300    13293    13278    13275    13284    13290    13282    13269 
   13262    13265    13265    13261    13259    13262    13273    13297 
   13319    13323    13332    13358    13385    13409    13431    13444 
   13447    13439    13419    13381    13346    13340    13355    13373 
   13379    13378    13379    13381    13378    13389    13419    13437 
   13435    13424    13410    13387    13363    13343    13329    13317 
   13306    13292    13279    13266    13242    13219    13200    13176 
   13159    13147    13130    13113    13103    13107    13134    13174 
   13209    13236    13271    13313    13355    13392    13417    13437 
   13455    13479    13508    13528    13539    13555    13576    13594 
   13598    13591    13586    13593    13603    13616    13629    13645 
   13660    13662    13649    13644    13648    13648    13652    13652 
