Origin Time       2025/01/13 21:19:00
Lat.              31.8
Long.             131.6
Depth. (km)       30
Mag.              6.9
Station Code      KOCH07
Station Lat.      33.3920
Station Long.     133.2866
Station Height(m) 5
Record Time       2025/01/13 21:20:17
Sampling Freq(Hz) 100Hz
Duration Time(s)  148
Dir.              6
Scale Factor      7845(gal)/8223790
Max. Acc. (gal)   1.337
Last Correction   2025/01/13 21:20:17
Memo.             
[...]
   10386    10447    10478    10484    10525    10611    10602    10474 
   10409    10493    10629    10766    10870    10862    10767    10721 
   10793    10903    10971    11010    10995    10881    10790    10821 
   10800    10615    10490    10578    10675    10594    10443    10381 
   10449    10592    10644    10508    10392    10515    10782    10930 
   10833    10620    10462    10334    10172    10087    10103    10058 
   10007    10187    10581    10945    11115    11086    10924    10756 
   10740    10854    10858    10689    10620    10864    11198    11183 
   10800    10467    10366    10323    10273    10231    10197    10258 
   10378    10403    10341    10311    10338    10345    10222     9996 
    9861     9922    10027    10018     9918     9855     9922    10060 
   10191    10346    10436    10303    10037     9894     9967    10146 
   10331    10527    10716    10821    10837    10837    10817    10681 
   10447    10266    10189    10162    10197    10343    10567    10725 
   10744    10727    10719    10651    10542    10453    10401    10399 
   10409    10361    10211    10025     9918     9888     9829     9721 
    9652     9726     9853     9841     9778     9863    10046    10139 
    9967     9579     9347     9409     9459     9343     9296     9502 
    9783     9895     9865     9880    10030    10238    10320    10154 
    9891     9855    10108    10336    10296    10065     9830     9726 
    9761     9791     9728     9686     9788     9977    10087    10080 
   10123    10301    10463    10436    10228    10045    10030    10068 
   10060    10122    10305    10477    10525    10500    10516    10597 
   10585    10368    10114    10046    10098    10061     9915     9788 
    9767     9836     9931    10053    10251    10446    10482    10381 
   10246    10085     9944     9918    10004    10123    10222    10315 
   10426    10536    10612    10612    10480    10235    10050    10062 
   10180    10243    10243    10278    10354    10411    10497    10629 
   10696    10679    10678    10683    10575    10407    10359    10423 
   10434    10353    10289    10315    10396    10485    10513    10430 
   10318    10264    10251    10284    10316    10261    10183    10191 
   10253    10323    10413    10480    10488    10482    10459    10407 
   10376    10416    10504    10530    10430    10330    10323    10342 
   10318    10166     9925     9834     9977    10138    10169    10153 
   10214    10372    10557    10697    10751    10744    10744    10702 
   10504    10222    10057    10042     9992     9830     9749     9894 
   10125    10231    10211    10207    10277    10354    10365    10303 
   10246    10296    10440    10534    10524    10503    10489    10466 
   10478    10498    10447    10304    10107    10025    10201    10457 
   10494    10315    10152    10106    10053     9906     9764     9760 
    9830     9783     9637     9586     9661     9747     9782     9792 
    9825     9931    10142    10403    10602    10740    10897    11024 
   10983    10824    10675    10507    10301    10179    10164    10189 
   10287    10521    10789    10926    10921    10906    10978    11029 
   10920    10705    10543    10544    10624    10557    10342    10166 
   10041     9869     9715     9715     9853     9944     9892     9859 
    9973    10119    10147    10076     9963     9819     9713     9702 
    9722     9765     9917    10138    10309    10397    10446    10493 
   10513    10462    10335    10195    10142    10192    10245    10301 
   10453    10639    10697    10642    10604    10655    10748    10755 
   10683    10623    10548    10422    10251    10147    10235    10432 
   10617    10733    10721    10613    10513    10473    10489    10498 
   10496    10558    10681    10771    10760    10648    10516    10404 
   10295    10234    10278    10384    10459    10481    10536    10687 
   10783    10609    10261    10102    10210    10301    10242    10187 
   10255    10349    10288    10112    10037    10141    10277    10311 
   10285    10297    10353    10385    10351    10266    10215    10257 
   10336    10346    10261    10216    10304    10395    10374    10334 
   10304    10218    10123    10093    10077     9994     9841     9713 
    9740     9915    10071    10080    10025    10065    10176    10154 
    9952     9790     9823     9946    10025    10057    10099    10234 
   10493    10764    10890    10894    10976    11161    11245    11121 
   10866    10612    10485    10459    10390    10230    10107    10176 
   10365    10490    10523    10517    10478    10397    10295    10195 
   10085     9980     9953    10019    10081    10081    10123    10314 
   10555    10690    10710    10681    10654    10696    10758    10701 
   10557    10432    10363    10343    10339    10274    10093     9857 
    9752     9842     9965     9998    10031    10150    10324    10482 
   10578    10662    10777    10829    10794    10773    10736    10598 
   10422    10314    10257    10157    10029    10007    10146    10312 
   10377    10423    10571    10748    10805    10744    10731    10845 
   10952    10928    10832    10746    10635    10459    10251    10081 
   10017    10037    10049    10049    10098    10177    10233    10223 
   10158    10145    10230    10331    10388    10435    10450    10362 
   10222    10135    10062     9946     9865     9876     9945    10003 
   10012    10039    10146    10234    10153     9960     9807     9707 
    9585     9479     9493     9552     9497     9356     9266     9294 
    9433     9626     9837    10062    10272    10412    10457    10447 
   10447    10490    10575    10665    10717    10713    10655    10544 
   10377    10219    10138    10111    10154    10312    10481    10584 
   10686    10797    10856    10806    10620    10419    10357    10401 
   10436    10409    10372    10378    10388    10359    10342    10395 
   10486    10543    10552    10557    10562    10573    10613    10619 
   10496    10296    10149    10045     9930     9859     9872     9933 
   10029    10164    10316    10449    10536    10585    10544    10382 
   10214    10131    10075    10008    10007    10089    10170    10204 
   10179    10071     9913     9794     9761     9775     9742     9678 
    9725     9921    10096    10093    10037    10141    10323    10328 
   10147    10015    10065    10195    10242    10162    10060    10075 
   10204    10307    10297    10177    10007     9903     9915     9971 
   10008    10041    10093    10142    10161    10197    10265    10299 
   10273    10200    10130    10137    10193    10237    10287    10339 
   10326    10265    10208    10142    10116    10208    10326    10343 
   10339    10444    10605    10708    10762    10805    10828    10859 
   10921    10956    10926    10895    10909    10905    10801    10632 
   10538    10540    10547    10489    10381    10289    10272    10326 
   10405    10480    10557    10666    10831    10966    10984    10944 
   10856    10671    10451    10318    10289    10335    10430    10535 
   10615    10639    10621    10629    10635    10551    10435    10373 
   10309    10176    10023     9950     9990    10054    10056    10017 
   10010    10041    10087    10133    10125    10053     9977     9915 
    9841     9734     9601     9509     9464     9382     9293     9344 
    9552     9795    10029    10250    10415    10552    10681    10720 
   10648    10525    10473    10540    10612    10589    10566    10673 
   10845    10878    10729    10571    10486    10372    10218    10145 
   10177    10258    10353    10417    10459    10498    10527    10539 
   10519    10443    10335    10249    10215    10189    10146    10118 
   10072     9994     9945     9926     9876     9787     9694     9610 
    9521     9459     9447     9440     9432     9471     9540     9571 
    9560     9566     9659     9819     9934     9972    10015    10130 
   10281    10388    10419    10434    10508    10598    10555    10376 
   10246    10273    10369    10443    10492    10525    10577    10704 
   10843    10854    10768    10775    10932    11043    10971    10885 
   10941    11032    11009    10893    10785    10710    10601    10426 
   10266    10195    10177    10131    10039     9946     9904     9903 
    9888     9904    10000    10076    10062    10062    10147    10245 
   10285    10287    10297    10335    10376    10358    10274    10201 
   10183    10184    10154    10093    10069    10137    10245    10292 
   10293    10332    10404    10413    10359    10424    10656    10851 
   10891    10844    10781    10735    10698    10648    10611    10600 
   10563    10511    10524    10601    10643    10629    10632    10604 
   10457    10270    10169    10142    10154    10204    10268    10303 
   10341    10474    10644    10681    10601    10558    10565    10554 
   10521    10525    10606    10705    10751    10752    10746    10735 
   10686    10586    10516    10534    10592    10616    10609    10623 
   10651    10602    10465    10301    10145     9985     9833     9707 
    9599     9517     9516     9586     9679     9782     9865     9945 
   10079    10242    10351    10389    10415    10455    10453    10405 
   10338    10218    10085    10029    10034    10041    10054    10112 
   10196    10262    10330    10424    10503    10523    10476    10417 
   10419    10486    10554    10543    10453    10365    10332    10334 
   10335    10331    10341    10341    10318    10304    10280    10158 
    9933     9711     9544     9404     9305     9289     9332     9377 
    9383     9350     9317     9323     9346     9352     9397     9549 
    9752     9899     9995    10089    10162    10181    10166    10170 
   10218    10265    10250    10193    10166    10152    10087     9991 
    9940    10002    10173    10392    10629    10875    11092    11254 
   11325    11319    11311    11323    11334    11335    11326    11337 
   11365    11306    11113    10872    10682    10597    10589    10579 
   10575    10620    10692    10771    10840    10856    10840    10859 
   10925    10978    10956    10878    10814    10810    10806    10732 
   10613    10527    10554    10677    10763    10759    10723    10658 
   10563    10496    10476    10484    10511    10509    10435    10386 
   10451    10523    10520    10507    10530    10592    10679    10747 
   10743    10663    10577    10535    10488    10378    10274    10250 
   10238    10157    10035     9909     9769     9641     9566     9551 
    9566     9617     9733     9868     9931     9909     9869     9863 
    9849     9779     9691     9657     9690     9783     9918    10025 
   10098    10193    10277    10289    10291    10320    10312    10242 
   10177    10147    10142    10153    10152    10158    10200    10239 
   10305    10436    10555    10606    10642    10698    10787    10891 
   10971    11061    11207    11333    11346    11248    11098    10960 
   10825    10643    10444    10258    10103    10034    10017     9960 
    9876     9817     9769     9688     9579     9558     9687     9838 
    9917    10000    10116    10208    10249    10247    10274    10343 
   10368    10311    10197    10069     9985     9923     9806     9644 
    9521     9458     9416     9377     9344     9352     9414     9468 
    9456     9391     9343     9360     9441     9525     9563     9575 
    9606     9678     9801     9975    10162    10324    10422    10439 
   10423    10397    10335    10276    10255    10243    10251    10270 
   10220    10126    10091    10138    10183    10143    10072    10081 
   10192    10318    10400    10459    10503    10536    10629    10763 
   10835    10874    10945    10984    10932    10837    10736    10581 
   10392    10304    10343    10393    10382    10374    10444    10538 
   10557    10507    10457    10455    10454    10372    10287    10314 
   10366    10342    10303    10297    10269    10204    10170    10172 
   10145    10095    10102    10169    10174    10053     9879     9772 
    9767     9795     9821     9859     9922    10022    10162    10287 
   10318    10262    10214    10230    10277    10289    10276    10293 
   10332    10355    10365    10372    10373    10382    10392    10377 
   10330    10260    10189    10120    10068    10066    10089    10104 
   10143    10228    10331    10444    10542    10562    10496    10428 
   10449    10521    10530    10471    10473    10552    10598    10555 
   10465    10389    10349    10300    10206    10111    10084    10127 
   10172    10141    10061    10023    10039    10065    10058    10029 
   10021    10022    10008    10008    10044    10062    10017     9921 
    9832     9823     9861     9821     9722     9670     9657     9657 
    9678     9717     9784     9877     9977    10081    10184    10301 
   10424    10497    10520    10555    10628    10683    10671    10611 
   10589    10632    10646    10586    10515    10471    10461    10457 
   10416    10350    10284    10206    10119    10049    10010     9991 
    9944     9857     9822     9848     9856     9852     9890     9971 
   10039    10057    10071    10111    10107    10019     9940     9941 
    9996    10060    10133    10206    10247    10258    10276    10304 
   10292    10255    10277    10376    10508    10612    10647    10662 
   10741    10840    10878    10893    10945    11029    11134    11259 
   11368    11430    11460    11510    11610    11691    11695    11674 
   11664    11611    11507    11389    11271    11142    11016    10894 
   10740    10543    10419    10426    10440    10366    10276    10250 
   10243    10184    10123    10125    10145    10114    10031     9964 
    9941     9907     9817     9737     9753     9806     9810     9807 
    9853     9925     9980     9995    10002     9996     9958     9950 
   10042    10169    10208    10158    10127    10143    10130    10062 
   10008     9984     9968     9994    10042    10061    10076    10120 
   10161    10130    10035     9987    10030    10089    10131    10189 
   10262    10299    10308    10326    10309    10261    10258    10308 
   10330    10289    10258    10304    10372    10392    10400    10439 
   10476    10484    10465    10426    10381    10330    10255    10168 
   10091    10048    10053    10103    10187    10258    10295    10316 
   10312    10261    10211    10218    10272    10342    10413    10461 
   10482    10509    10538    10513    10443    10388    10347    10276 
   10147     9998     9903     9871     9830     9756     9683     9648 
    9678     9764     9826     9810     9776     9755     9706     9649 
    9630     9617     9593     9633     9778     9945    10023    10026 
   10034    10062    10093    10154    10250    10353    10463    10586 
   10702    10812    10897    10914    10849    10744    10671    10652 
   10643    10598    10552    10555    10569    10520    10423    10376 
   10388    10377    10334    10315    10301    10243    10172    10129 
   10098    10064    10057    10089    10135    10162    10147    10133 
   10165    10218    10258    10280    10289    10305    10316    10301 
   10282    10258    10218    10180    10166    10180    10185    10158 
   10161    10224    10287    10319    10318    10291    10281    10303 
   10322    10308    10270    10254    10276    10315    10355    10382 
   10372    10369    10446    10540    10555    10501    10450    10446 
   10455    10440    10423    10436    10462    10455    10412    10363 
   10342    10355    10341    10272    10226    10238    10268    10276 
   10249    10206    10177    10160    10108    10023     9968     9975 
    9995     9975     9950     9991    10054    10042     9965     9903 
    9884     9895     9899     9876     9855     9867     9936    10045 
   10129    10145    10147    10203    10266    10266    10246    10260 
   10258    10226    10212    10237    10288    10343    10385    10393 
   10354    10311    10308    10326    10326    10292    10234    10212 
   10262    10339    10404    10457    10488    10486    10465    10424 
   10350    10243    10135    10084    10115    10162    10161    10156 
   10188    10188    10125    10083    10098    10091    10042    10038 
   10114    10199    10276    10369    10411    10368    10315    10292 
   10287    10299    10319    10336    10378    10462    10540    10584 
   10613    10636    10631    10594    10555    10525    10509    10527 
   10558    10589    10643    10686    10685    10700    10768    10836 
   10847    10835    10843    10832    10758    10654    10586    10571 
   10548    10500    10469    10463    10476    10492    10497    10498 
   10496    10484    10470    10461    10462    10478    10501    10509 
   10501    10482    10458    10447    10443    10424    10408    10405 
   10378    10305    10234    10203    10188    10154    10099    10050 
   10039    10057    10073    10091    10161    10268    10318    10308 
   10314    10343    10369    10386    10397    10380    10341    10347 
   10404    10420    10362    10308    10330    10419    10485    10470 
   10444    10465    10496    10511    10480    10370    10260    10237 
   10262    10249    10187    10147    10193    10258    10276    10288 
   10319    10327    10305    10300    10335    10366    10358    10347 
   10347    10335    10311    10281    10226    10142    10089    10092 
   10089    10046     9976     9895     9833     9801     9771     9742 
    9747     9790     9848     9876     9876     9877     9865     9842 
    9842     9869     9909     9953     9994    10045    10111    10150 
   10131    10079    10061    10089    10102    10069    10039    10052 
   10092    10135    10153    10150    10170    10226    10284    10300 
   10262    10234    10272    10320    10320    10303    10316    10358 
   10413    10463    10507    10552    10585    10604    10655    10759 
   10893    11006    11071    11105    11111    11095    11078    11064 
   11051    11030    10998    10970    10976    11028    11087    11107 
   11091    11092    11140    11213    11265    11272    11256    11268 
   11291    11263    11194    11148    11130    11075    10979    10926 
   10937    10939    10913    10886    10862    10825    10781    10755 
   10746    10702    10651    10620    10557    10442    10326    10247 
   10207    10164    10112    10088    10081    10075    10075    10048 
    9987     9922     9860     9792     9699     9582     9474     9389 
    9315     9275     9290     9323     9342     9347     9377     9447 
    9514     9570     9634     9683     9702     9694     9655     9622 
    9637     9660     9647     9628     9648     9690     9713     9718 
    9737     9783     9817     9819     9836     9890     9960    10007 
    9999     9965     9968     9999    10017     9992     9945     9910 
    9890     9869     9852     9840     9822     9817     9857     9918 
    9954     9980    10030    10088    10130    10146    10145    10165 
   10218    10258    10260    10257    10278    10324    10390    10442 
   10462    10482    10521    10557    10562    10525    10466    10432 
   10439    10447    10423    10388    10366    10354    10365    10399 
   10422    10417    10392    10381    10392    10381    10361    10369 
