Origin Time       2025/01/13 21:19:00
Lat.              31.8
Long.             131.6
Depth. (km)       30
Mag.              6.9
Station Code      KYTH05
Station Lat.      35.6814
Station Long.     135.0268
Station Height(m) -145
Record Time       2025/01/13 21:22:07
Sampling Freq(Hz) 100Hz
Duration Time(s)  120
Dir.              3
Scale Factor      2942(gal)/8224139
Max. Acc. (gal)   0.239
Last Correction   2025/01/13 21:22:08
Memo.             
[...]
  -39567   -39559   -39550   -39548   -39538   -39529   -39528   -39519 
  -39509   -39502   -39499   -39495   -39490   -39480   -39474   -39475 
  -39468   -39460   -39457   -39455   -39449   -39442   -39441   -39442 
  -39438   -39433   -39433   -39429   -39421   -39415   -39414   -39413 
  -39411   -39413   -39417   -39418   -39421   -39422   -39424   -39432 
  -39437   -39440   -39448   -39451   -39451   -39463   -39471   -39471 
  -39478   -39487   -39495   -39507   -39513   -39513   -39519   -39530 
  -39538   -39546   -39553   -39559   -39568   -39579   -39587   -39596 
  -39603   -39610   -39618   -39626   -39630   -39633   -39642   -39652 
  -39657   -39663   -39667   -39671   -39677   -39677   -39679   -39684 
  -39687   -39684   -39685   -39688   -39691   -39692   -39696   -39700 
  -39703   -39704   -39707   -39714   -39719   -39721   -39722   -39727 
  -39733   -39737   -39742   -39749   -39752   -39752   -39757   -39761 
  -39761   -39761   -39762   -39764   -39771   -39773   -39771   -39768 
  -39769   -39768   -39764   -39762   -39760   -39754   -39753   -39748 
  -39741   -39739   -39737   -39731   -39726   -39721   -39715   -39712 
  -39712   -39707   -39700   -39699   -39696   -39692   -39691   -39690 
  -39687   -39685   -39685   -39683   -39681   -39684   -39685   -39687 
  -39690   -39695   -39696   -39699   -39706   -39708   -39708   -39714 
  -39722   -39725   -39727   -39734   -39741   -39742   -39744   -39750 
  -39756   -39758   -39761   -39764   -39772   -39777   -39773   -39771 
  -39772   -39772   -39772   -39771   -39766   -39762   -39765   -39764 
  -39756   -39750   -39748   -39742   -39734   -39729   -39722   -39712 
  -39708   -39704   -39694   -39687   -39685   -39680   -39673   -39668 
  -39660   -39652   -39646   -39641   -39633   -39630   -39629   -39623 
  -39618   -39617   -39615   -39613   -39613   -39614   -39615   -39614 
  -39611   -39611   -39609   -39609   -39611   -39610   -39609   -39609 
  -39607   -39604   -39599   -39594   -39592   -39590   -39583   -39576 
  -39575   -39568   -39560   -39555   -39552   -39549   -39546   -39545 
  -39544   -39541   -39541   -39546   -39546   -39545   -39553   -39561 
  -39567   -39577   -39587   -39594   -39602   -39609   -39621   -39634 
  -39640   -39650   -39663   -39671   -39681   -39692   -39700   -39710 
  -39717   -39721   -39725   -39729   -39734   -39738   -39739   -39741 
  -39745   -39746   -39746   -39750   -39746   -39741   -39745   -39745 
  -39735   -39731   -39729   -39725   -39719   -39714   -39710   -39700 
  -39691   -39684   -39675   -39664   -39654   -39645   -39633   -39621 
  -39611   -39607   -39602   -39596   -39588   -39579   -39577   -39575 
  -39567   -39565   -39567   -39564   -39560   -39560   -39564   -39572 
  -39575   -39576   -39584   -39595   -39596   -39600   -39617   -39629 
  -39633   -39640   -39649   -39657   -39667   -39673   -39683   -39695 
  -39702   -39704   -39715   -39722   -39722   -39726   -39727   -39726 
  -39730   -39733   -39730   -39726   -39722   -39718   -39715   -39710 
  -39702   -39694   -39684   -39676   -39667   -39657   -39646   -39634 
  -39623   -39614   -39606   -39595   -39588   -39583   -39575   -39565 
  -39560   -39555   -39546   -39541   -39532   -39525   -39525   -39526 
  -39525   -39519   -39522   -39529   -39528   -39526   -39530   -39534 
  -39541   -39545   -39545   -39552   -39560   -39567   -39571   -39576 
  -39587   -39595   -39602   -39613   -39619   -39621   -39626   -39636 
  -39641   -39644   -39652   -39661   -39664   -39668   -39675   -39680 
  -39683   -39688   -39691   -39692   -39695   -39699   -39703   -39700 
  -39698   -39700   -39703   -39704   -39704   -39708   -39710   -39710 
  -39721   -39726   -39718   -39722   -39731   -39730   -39730   -39734 
  -39737   -39737   -39741   -39744   -39749   -39752   -39753   -39762 
  -39765   -39761   -39765   -39772   -39773   -39773   -39775   -39780 
  -39785   -39791   -39792   -39792   -39793   -39796   -39799   -39795 
  -39791   -39792   -39788   -39780   -39780   -39773   -39758   -39750 
  -39741   -39723   -39708   -39696   -39683   -39671   -39654   -39634 
  -39622   -39606   -39583   -39565   -39555   -39538   -39521   -39510 
  -39498   -39480   -39465   -39456   -39445   -39430   -39428   -39424 
  -39411   -39405   -39403   -39395   -39393   -39393   -39391   -39388 
  -39386   -39387   -39387   -39387   -39387   -39387   -39384   -39384 
  -39390   -39390   -39387   -39390   -39393   -39391   -39394   -39398 
  -39399   -39402   -39407   -39414   -39422   -39426   -39430   -39436 
  -39441   -39452   -39461   -39469   -39478   -39490   -39499   -39510 
  -39526   -39540   -39550   -39561   -39573   -39586   -39604   -39619 
  -39625   -39641   -39663   -39675   -39688   -39708   -39723   -39735 
  -39750   -39765   -39781   -39798   -39808   -39823   -39839   -39852 
  -39865   -39877   -39885   -39897   -39910   -39919   -39930   -39937 
  -39939   -39946   -39951   -39951   -39957   -39966   -39974   -39980 
  -39981   -39987   -39989   -39985   -39987   -39991   -39985   -39987 
  -39989   -39981   -39976   -39973   -39965   -39960   -39955   -39947 
  -39939   -39933   -39920   -39912   -39901   -39887   -39877   -39869 
  -39853   -39841   -39830   -39816   -39803   -39798   -39791   -39773 
  -39762   -39758   -39748   -39737   -39730   -39721   -39715   -39714 
  -39706   -39699   -39700   -39700   -39695   -39690   -39687   -39681 
  -39679   -39679   -39676   -39672   -39672   -39672   -39672   -39672 
  -39672   -39677   -39680   -39681   -39681   -39684   -39690   -39692 
  -39691   -39696   -39702   -39702   -39700   -39706   -39711   -39714 
  -39721   -39727   -39729   -39735   -39744   -39746   -39749   -39752 
  -39752   -39752   -39753   -39752   -39745   -39741   -39739   -39734 
  -39726   -39719   -39712   -39702   -39690   -39677   -39663   -39645 
  -39634   -39618   -39598   -39582   -39565   -39550   -39538   -39522 
  -39509   -39498   -39487   -39476   -39467   -39461   -39453   -39449 
  -39442   -39433   -39433   -39433   -39426   -39424   -39428   -39432 
  -39437   -39440   -39447   -39456   -39465   -39478   -39488   -39498 
  -39509   -39518   -39529   -39544   -39556   -39567   -39579   -39590 
  -39598   -39607   -39619   -39630   -39642   -39653   -39658   -39665 
  -39675   -39680   -39684   -39690   -39688   -39688   -39694   -39691 
  -39687   -39687   -39687   -39684   -39684   -39683   -39679   -39676 
  -39677   -39673   -39671   -39669   -39665   -39665   -39664   -39663 
  -39664   -39664   -39664   -39664   -39664   -39664   -39668   -39672 
  -39672   -39676   -39680   -39679   -39684   -39690   -39687   -39684 
  -39687   -39687   -39681   -39675   -39672   -39672   -39667   -39658 
  -39653   -39644   -39634   -39629   -39618   -39604   -39594   -39582 
  -39571   -39564   -39555   -39541   -39536   -39532   -39521   -39515 
  -39513   -39502   -39491   -39492   -39488   -39480   -39478   -39476 
  -39475   -39475   -39472   -39476   -39483   -39482   -39487   -39492 
  -39492   -39501   -39513   -39514   -39519   -39529   -39530   -39536 
  -39545   -39546   -39548   -39561   -39568   -39568   -39573   -39582 
  -39586   -39591   -39600   -39606   -39611   -39614   -39615   -39621 
  -39623   -39625   -39629   -39630   -39633   -39634   -39636   -39640 
  -39641   -39641   -39644   -39644   -39644   -39649   -39649   -39645 
  -39648   -39652   -39650   -39648   -39645   -39641   -39640   -39640 
  -39637   -39631   -39633   -39631   -39621   -39614   -39611   -39606 
  -39599   -39596   -39592   -39587   -39583   -39582   -39575   -39572 
  -39575   -39575   -39568   -39568   -39573   -39571   -39565   -39567 
  -39569   -39571   -39577   -39586   -39588   -39591   -39599   -39603 
  -39607   -39615   -39625   -39627   -39625   -39631   -39638   -39634 
  -39634   -39636   -39636   -39636   -39637   -39637   -39633   -39629 
  -39629   -39626   -39619   -39615   -39611   -39604   -39596   -39588 
  -39584   -39579   -39571   -39561   -39552   -39548   -39541   -39530 
  -39522   -39521   -39515   -39509   -39506   -39503   -39496   -39494 
  -39492   -39490   -39490   -39491   -39490   -39492   -39502   -39505 
  -39505   -39511   -39519   -39525   -39533   -39544   -39553   -39559 
  -39565   -39573   -39579   -39588   -39594   -39596   -39602   -39602 
  -39594   -39594   -39595   -39587   -39577   -39573   -39569   -39560 
  -39545   -39541   -39540   -39525   -39511   -39505   -39495   -39486 
  -39475   -39463   -39457   -39451   -39444   -39444   -39442   -39436 
  -39437   -39445   -39449   -39451   -39459   -39471   -39482   -39492 
  -39505   -39521   -39538   -39560   -39583   -39602   -39623   -39649 
  -39669   -39695   -39722   -39746   -39773   -39800   -39823   -39852 
  -39883   -39910   -39938   -39968   -39997   -40023   -40045   -40070 
  -40093   -40116   -40138   -40154   -40173   -40186   -40192   -40203 
  -40215   -40219   -40219   -40220   -40219   -40213   -40207   -40201 
  -40194   -40181   -40167   -40158   -40146   -40131   -40119   -40105 
  -40089   -40074   -40062   -40046   -40028   -40016   -40001   -39981 
  -39966   -39955   -39942   -39928   -39916   -39900   -39884   -39870 
  -39858   -39845   -39837   -39827   -39810   -39799   -39795   -39785 
  -39766   -39754   -39744   -39731   -39721   -39710   -39696   -39685 
  -39673   -39665   -39657   -39646   -39644   -39640   -39627   -39621 
  -39615   -39607   -39602   -39594   -39583   -39582   -39573   -39563 
  -39559   -39552   -39542   -39534   -39528   -39518   -39506   -39494 
  -39484   -39471   -39455   -39438   -39426   -39410   -39390   -39378 
  -39364   -39343   -39326   -39317   -39299   -39280   -39270   -39259 
  -39244   -39232   -39222   -39212   -39206   -39204   -39194   -39186 
  -39186   -39185   -39182   -39183   -39187   -39193   -39197   -39201 
  -39210   -39221   -39232   -39244   -39256   -39267   -39282   -39295 
  -39312   -39329   -39343   -39359   -39374   -39387   -39406   -39424 
  -39437   -39453   -39471   -39488   -39505   -39522   -39544   -39565 
  -39587   -39611   -39634   -39656   -39683   -39710   -39735   -39766 
  -39799   -39823   -39852   -39885   -39914   -39935   -39962   -39991 
  -40014   -40036   -40059   -40082   -40099   -40115   -40135   -40151 
  -40159   -40171   -40184   -40185   -40189   -40193   -40189   -40182 
  -40178   -40176   -40170   -40157   -40142   -40131   -40117   -40100 
  -40088   -40066   -40039   -40022   -40009   -39985   -39960   -39942 
  -39922   -39899   -39877   -39858   -39837   -39822   -39810   -39795 
  -39780   -39769   -39760   -39749   -39739   -39738   -39738   -39737 
  -39734   -39734   -39734   -39737   -39746   -39750   -39749   -39756 
  -39764   -39768   -39777   -39785   -39791   -39800   -39807   -39808 
  -39811   -39816   -39823   -39823   -39819   -39823   -39822   -39816 
  -39814   -39807   -39795   -39787   -39783   -39772   -39756   -39744 
  -39731   -39718   -39704   -39685   -39668   -39656   -39638   -39623 
  -39611   -39595   -39580   -39569   -39556   -39546   -39537   -39528 
  -39522   -39517   -39511   -39509   -39505   -39505   -39511   -39515 
  -39517   -39523   -39534   -39542   -39550   -39560   -39577   -39596 
  -39611   -39627   -39648   -39664   -39681   -39702   -39721   -39735 
  -39750   -39766   -39784   -39798   -39812   -39829   -39845   -39857 
  -39865   -39876   -39884   -39892   -39903   -39912   -39915   -39916 
  -39922   -39923   -39926   -39933   -39930   -39930   -39934   -39930 
  -39927   -39926   -39915   -39904   -39900   -39892   -39883   -39872 
  -39858   -39845   -39834   -39816   -39800   -39788   -39768   -39744 
  -39725   -39708   -39684   -39658   -39641   -39621   -39592   -39567 
  -39541   -39515   -39494   -39469   -39442   -39420   -39395   -39368 
  -39347   -39325   -39302   -39278   -39253   -39235   -39220   -39204 
  -39190   -39177   -39164   -39152   -39144   -39139   -39135   -39131 
  -39127   -39131   -39136   -39133   -39133   -39140   -39145   -39150 
  -39155   -39159   -39166   -39171   -39172   -39177   -39185   -39190 
  -39190   -39193   -39195   -39191   -39195   -39205   -39204   -39204 
  -39210   -39210   -39212   -39221   -39222   -39221   -39231   -39237 
  -39241   -39249   -39253   -39262   -39276   -39285   -39295   -39307 
  -39317   -39333   -39351   -39361   -39375   -39394   -39411   -39425 
  -39436   -39452   -39472   -39488   -39502   -39519   -39532   -39544 
  -39559   -39568   -39579   -39592   -39603   -39615   -39630   -39642 
  -39656   -39672   -39688   -39703   -39721   -39738   -39756   -39771 
  -39787   -39807   -39826   -39845   -39868   -39891   -39912   -39934 
  -39957   -39982   -40001   -40020   -40045   -40066   -40084   -40099 
  -40115   -40130   -40140   -40153   -40162   -40169   -40177   -40184 
  -40185   -40186   -40188   -40189   -40188   -40182   -40177   -40170 
  -40155   -40142   -40135   -40122   -40104   -40090   -40076   -40058 
  -40039   -40026   -40009   -39989   -39974   -39958   -39934   -39914 
  -39899   -39880   -39860   -39839   -39825   -39810   -39795   -39777 
  -39761   -39745   -39730   -39717   -39698   -39677   -39664   -39646 
  -39625   -39610   -39592   -39567   -39546   -39530   -39505   -39478 
  -39459   -39440   -39411   -39380   -39357   -39336   -39306   -39276 
  -39252   -39228   -39204   -39182   -39156   -39128   -39108   -39090 
  -39067   -39050   -39040   -39027   -39013   -39001   -38998   -38994 
  -38985   -38981   -38986   -38990   -38994   -39006   -39019   -39028 
  -39042   -39059   -39074   -39094   -39117   -39135   -39152   -39175 
  -39198   -39217   -39240   -39263   -39283   -39306   -39332   -39357 
  -39382   -39407   -39433   -39455   -39479   -39506   -39532   -39553 
  -39575   -39599   -39622   -39644   -39664   -39685   -39702   -39712 
  -39726   -39742   -39749   -39756   -39769   -39775   -39772   -39773 
  -39775   -39776   -39775   -39771   -39772   -39771   -39766   -39762 
  -39760   -39754   -39750   -39749   -39746   -39744   -39739   -39739 
  -39741   -39739   -39741   -39746   -39749   -39754   -39764   -39766 
  -39769   -39779   -39785   -39791   -39799   -39802   -39808   -39816 
  -39820   -39823   -39829   -39830   -39833   -39837   -39837   -39835 
  -39835   -39835   -39834   -39831   -39833   -39834   -39831   -39826 
  -39822   -39820   -39822   -39816   -39815   -39820   -39820   -39816 
  -39820   -39822   -39822   -39826   -39830   -39830   -39830   -39830 
  -39826   -39825   -39823   -39820   -39819   -39814   -39804   -39802 
  -39803   -39792   -39777   -39769   -39765   -39757   -39742   -39729 
  -39722   -39712   -39700   -39687   -39676   -39665   -39653   -39645 
  -39636   -39622   -39618   -39615   -39606   -39603   -39603   -39599 
  -39596   -39599   -39600   -39600   -39606   -39613   -39614   -39615 
  -39622   -39630   -39637   -39641   -39646   -39654   -39663   -39673 
  -39679   -39679   -39687   -39695   -39703   -39710   -39714   -39719 
  -39729   -39733   -39741   -39752   -39756   -39761   -39776   -39783 
  -39785   -39795   -39806   -39815   -39827   -39837   -39847   -39862 
  -39872   -39881   -39895   -39911   -39922   -39931   -39949   -39966 
  -39976   -39992   -40008   -40020   -40036   -40053   -40062   -40074 
  -40095   -40108   -40113   -40124   -40139   -40149   -40155   -40163 
  -40174   -40180   -40181   -40185   -40190   -40190   -40185   -40181 
  -40174   -40166   -40159   -40153   -40142   -40130   -40117   -40105 
  -40092   -40073   -40053   -40038   -40018   -40000   -39984   -39962 
  -39941   -39919   -39897   -39876   -39850   -39829   -39807   -39781 
  -39756   -39731   -39707   -39681   -39658   -39636   -39611   -39586 
  -39560   -39540   -39525   -39505   -39483   -39468   -39453   -39436 
  -39417   -39403   -39390   -39376   -39367   -39360   -39351   -39341 
  -39333   -39330   -39325   -39318   -39314   -39312   -39307   -39303 
  -39303   -39310   -39313   -39307   -39309   -39316   -39317   -39317 
  -39325   -39330   -39333   -39340   -39348   -39352   -39356   -39367 
  -39376   -39378   -39383   -39394   -39401   -39403   -39411   -39421 
  -39426   -39436   -39445   -39452   -39460   -39465   -39471   -39480 
  -39492   -39503   -39515   -39525   -39534   -39549   -39561   -39572 
  -39587   -39602   -39615   -39626   -39637   -39645   -39653   -39665 
  -39676   -39684   -39692   -39696   -39699   -39703   -39706   -39706 
  -39706   -39704   -39704   -39700   -39695   -39694   -39691   -39685 
  -39685   -39683   -39675   -39671   -39668   -39661   -39657   -39654 
  -39649   -39644   -39644   -39640   -39634   -39633   -39627   -39626 
  -39630   -39626   -39622   -39626   -39630   -39627   -39629   -39631 
  -39636   -39641   -39648   -39652   -39654   -39661   -39665   -39668 
  -39672   -39679   -39685   -39687   -39690   -39698   -39698   -39699 
  -39707   -39711   -39712   -39715   -39718   -39723   -39725   -39721 
  -39721   -39727   -39729   -39726   -39723   -39719   -39718   -39719 
  -39712   -39706   -39702   -39695   -39683   -39676   -39672   -39665 
  -39653   -39641   -39627   -39615   -39609   -39603   -39596   -39586 
  -39576   -39573   -39568   -39560   -39559   -39559   -39557   -39560 
  -39559   -39559   -39563   -39567   -39573   -39577   -39582   -39590 
  -39594   -39592   -39599   -39611   -39617   -39619   -39622   -39622 
  -39629   -39636   -39634   -39633   -39634   -39627   -39626   -39629 
  -39623   -39619   -39617   -39609   -39599   -39595   -39591   -39582 
  -39575   -39571   -39561   -39549   -39544   -39538   -39532   -39523 
  -39515   -39506   -39499   -39495   -39486   -39476   -39474   -39471 
  -39467   -39465   -39464   -39461   -39460   -39460   -39463   -39465 
  -39467   -39471   -39476   -39478   -39479   -39487   -39501   -39507 
  -39513   -39521   -39536   -39552   -39559   -39565   -39582   -39595 
  -39602   -39614   -39627   -39636   -39646   -39656   -39663   -39673 
  -39681   -39687   -39698   -39704   -39704   -39708   -39717   -39723 
  -39729   -39734   -39738   -39738   -39745   -39754   -39757   -39760 
  -39766   -39771   -39776   -39784   -39792   -39798   -39800   -39806 
  -39812   -39818   -39822   -39829   -39837   -39842   -39845   -39847 
  -39849   -39849   -39854   -39857   -39853   -39849   -39849   -39847 
  -39839   -39835   -39835   -39831   -39822   -39815   -39814   -39810 
  -39800   -39787   -39776   -39769   -39760   -39750   -39742   -39735 
  -39729   -39721   -39708   -39698   -39690   -39683   -39669   -39660 
  -39653   -39640   -39630   -39625   -39614   -39602   -39592   -39583 
  -39571   -39559   -39552   -39541   -39526   -39515   -39510   -39501 
  -39487   -39476   -39472   -39471   -39461   -39449   -39444   -39438 
  -39436   -39432   -39422   -39420   -39421   -39414   -39409   -39409 
  -39399   -39395   -39399   -39394   -39386   -39388   -39386   -39382 
  -39380   -39379   -39378   -39376   -39374   -39375   -39376   -39375 
  -39374   -39371   -39370   -39372   -39371   -39366   -39366   -39371 
  -39370   -39363   -39366   -39368   -39366   -39368   -39370   -39368 
  -39374   -39378   -39374   -39374   -39382   -39388   -39393   -39397 
  -39403   -39413   -39421   -39426   -39438   -39455   -39468   -39482 
  -39502   -39517   -39530   -39557   -39583   -39602   -39625   -39650 
