Origin Time       2025/01/13 21:19:00
Lat.              31.8
Long.             131.6
Depth. (km)       30
Mag.              6.9
Station Code      KYTH01
Station Lat.      35.5243
Station Long.     135.1243
Station Height(m) -140
Record Time       2025/01/13 21:22:06
Sampling Freq(Hz) 100Hz
Duration Time(s)  120
Dir.              3
Scale Factor      2942(gal)/8224139
Max. Acc. (gal)   0.229
Last Correction   2025/01/13 21:22:06
Memo.             
[...]
   49991    49989    49987    49986    49987    49991    49993    49994 
   49995    49997    50002    50006    50005    50006    50013    50018 
   50025    50031    50033    50039    50044    50047    50048    50055 
   50060    50068    50076    50082    50089    50099    50103    50110 
   50122    50132    50137    50145    50151    50157    50164    50163 
   50164    50172    50175    50170    50167    50171    50172    50170 
   50167    50167    50166    50160    50157    50153    50148    50145 
   50147    50143    50137    50134    50133    50130    50126    50128 
   50130    50128    50128    50133    50133    50132    50136    50136 
   50137    50143    50147    50147    50147    50148    50153    50155 
   50156    50160    50161    50161    50163    50157    50159    50168 
   50172    50176    50186    50188    50188    50195    50199    50197 
   50199    50199    50194    50197    50197    50188    50183    50178 
   50172    50170    50163    50160    50156    50148    50141    50136 
   50130    50128    50125    50122    50121    50116    50106    50097 
   50093    50093    50087    50082    50080    50078    50078    50080 
   50079    50076    50075    50075    50075    50070    50063    50062 
   50056    50051    50047    50040    50032    50028    50020    50010 
   50004    49998    49991    49989    49990    49990    49985    49981 
   49982    49986    49981    49972    49977    49983    49981    49982 
   49990    49991    49993    49999    50005    50012    50018    50021 
   50028    50037    50041    50047    50056    50059    50067    50080 
   50087    50094    50101    50106    50110    50113    50113    50116 
   50122    50124    50125    50129    50129    50128    50125    50118 
   50113    50110    50101    50095    50091    50085    50076    50067 
   50060    50051    50040    50033    50029    50020    50013    50010 
   50009    50008    50004    50004    50006    50002    49995    49997 
   49997    49990    49989    49987    49975    49974    49981    49981 
   49975    49977    49981    49979    49981    49987    49987    49986 
   49991    49995    49999    50006    50010    50010    50016    50020 
   50021    50024    50025    50024    50021    50022    50022    50021 
   50020    50017    50014    50016    50014    50010    50009    50010 
   50008    50008    50010    50008    50009    50016    50017    50021 
   50026    50029    50032    50037    50040    50044    50051    50052 
   50052    50058    50063    50062    50060    50066    50071    50067 
   50066    50070    50068    50064    50062    50060    50058    50056 
   50056    50056    50058    50060    50059    50058    50059    50059 
   50062    50064    50068    50067    50068    50072    50072    50068 
   50072    50083    50086    50083    50083    50087    50093    50091 
   50093    50099    50102    50103    50110    50112    50110    50117 
   50125    50130    50134    50141    50148    50149    50155    50159 
   50160    50167    50172    50172    50175    50175    50176    50180 
   50176    50178    50180    50174    50166    50163    50160    50156 
   50148    50140    50133    50124    50117    50109    50097    50090 
   50085    50071    50058    50049    50043    50033    50022    50012 
   50004    49997    49993    49987    49981    49981    49979    49978 
   49979    49977    49966    49959    49958    49958    49958    49955 
   49950    49947    49950    49947    49941    49940    49941    49943 
   49940    49936    49940    49945    49944    49945    49951    49955 
   49958    49960    49968    49974    49977    49979    49985    49993 
   50001    50004    50008    50017    50026    50033    50036    50041 
   50047    50051    50055    50060    50062    50059    50060    50063 
   50064    50064    50064    50070    50072    50066    50066    50071 
   50071    50070    50068    50066    50067    50068    50064    50062 
   50060    50058    50049    50043    50039    50036    50032    50022 
   50010    50004    49999    49989    49978    49972    49963    49955 
   49954    49947    49937    49936    49935    49933    49933    49932 
   49932    49935    49937    49944    49952    49960    49974    49981 
   49985    49998    50009    50017    50029    50043    50052    50062 
   50066    50072    50080    50086    50089    50093    50098    50103 
   50106    50112    50117    50121    50125    50125    50124    50126 
   50129    50128    50129    50128    50125    50125    50121    50116 
   50109    50101    50097    50093    50086    50079    50072    50064 
   50059    50055    50049    50040    50031    50024    50021    50021 
   50020    50020    50021    50025    50025    50025    50029    50032 
   50032    50033    50037    50036    50035    50039    50041    50040 
   50039    50040    50044    50044    50040    50039    50041    50040 
   50037    50036    50033    50033    50039    50036    50032    50037 
   50040    50041    50047    50052    50058    50066    50068    50072 
   50080    50086    50091    50101    50106    50113    50126    50133 
   50133    50139    50152    50161    50163    50167    50170    50171 
   50178    50184    50186    50186    50188    50188    50187    50187 
   50187    50186    50187    50183    50175    50176    50180    50175 
   50172    50174    50174    50172    50175    50176    50175    50172 
   50171    50168    50164    50164    50167    50167    50163    50159 
   50160    50156    50148    50144    50141    50137    50130    50124 
   50118    50110    50103    50095    50085    50078    50071    50060 
   50051    50041    50032    50031    50025    50016    50012    50008 
   50004    49999    49993    49983    49979    49975    49970    49967 
   49963    49959    49958    49955    49952    49954    49954    49952 
   49951    49954    49959    49963    49962    49964    49967    49972 
   49978    49983    49989    49997    50005    50012    50020    50028 
   50040    50053    50063    50072    50082    50091    50102    50112 
   50121    50129    50141    50153    50163    50171    50175    50178 
   50186    50193    50193    50197    50203    50206    50207    50205 
   50198    50201    50205    50194    50187    50187    50179    50167 
   50160    50155    50145    50129    50114    50109    50099    50086 
   50079    50068    50053    50047    50036    50025    50022    50012 
   49998    49991    49987    49981    49977    49967    49955    49947 
   49943    49939    49933    49928    49921    49914    49910    49910 
   49905    49900    49900    49897    49889    49882    49882    49881 
   49873    49866    49864    49864    49860    49855    49852    49852 
   49851    49851    49851    49852    49854    49852    49855    49862 
   49867    49867    49870    49875    49878    49882    49890    49897 
   49904    49910    49914    49920    49931    49935    49936    49943 
   49950    49948    49948    49955    49954    49955    49963    49967 
   49968    49970    49971    49974    49979    49981    49978    49981 
   49985    49989    49993    49994    49994    49997    49997    49999 
   50002    49997    50001    50010    50012    50013    50021    50022 
   50022    50032    50036    50036    50043    50052    50058    50068 
   50078    50080    50089    50098    50098    50103    50112    50116 
   50120    50129    50137    50140    50143    50152    50161    50166 
   50166    50171    50182    50186    50187    50193    50199    50202 
   50206    50211    50215    50214    50217    50225    50228    50230 
   50232    50233    50236    50234    50237    50247    50244    50237 
   50245    50245    50240    50240    50240    50238    50238    50234 
   50230    50228    50222    50218    50214    50213    50213    50207 
   50203    50203    50201    50197    50198    50197    50187    50186 
   50188    50186    50182    50176    50175    50171    50166    50161 
   50160    50153    50148    50148    50144    50137    50134    50129 
   50125    50126    50125    50118    50116    50120    50116    50109 
   50112    50110    50106    50110    50110    50106    50106    50106 
   50103    50101    50098    50094    50090    50087    50079    50068 
   50062    50055    50044    50032    50024    50017    50002    49982 
   49968    49956    49940    49925    49916    49904    49890    49874 
   49859    49846    49832    49819    49808    49794    49779    49770 
   49761    49747    49732    49724    49717    49711    49707    49700 
   49689    49685    49686    49685    49685    49685    49684    49688 
   49694    49697    49704    49715    49724    49732    49740    49755 
   49774    49792    49810    49825    49837    49859    49879    49900 
   49923    49943    49962    49981    50001    50018    50036    50059 
   50078    50093    50113    50132    50145    50163    50182    50195 
   50210    50226    50242    50256    50268    50282    50291    50296 
   50305    50314    50318    50323    50333    50340    50342    50348 
   50356    50363    50361    50364    50369    50371    50371    50375 
   50373    50368    50369    50372    50369    50364    50357    50350 
   50346    50341    50328    50318    50318    50311    50301    50295 
   50292    50288    50283    50279    50276    50268    50265    50264 
   50260    50259    50261    50260    50255    50251    50249    50249 
   50247    50238    50234    50233    50230    50224    50218    50218 
   50213    50203    50198    50193    50183    50178    50176    50170 
   50163    50159    50155    50148    50144    50144    50140    50136 
   50136    50136    50132    50129    50128    50125    50120    50121 
   50125    50121    50117    50121    50121    50114    50112    50110 
   50107    50098    50097    50097    50089    50085    50079    50063 
   50055    50052    50043    50033    50020    50006    49998    49989 
   49974    49962    49955    49945    49932    49924    49917    49908 
   49896    49879    49870    49862    49851    49839    49828    49819 
   49810    49798    49785    49774    49762    49748    49736    49725 
   49716    49708    49698    49689    49680    49674    49670    49667 
   49662    49657    49655    49657    49657    49661    49670    49673 
   49673    49680    49688    49693    49700    49711    49721    49736 
   49751    49763    49781    49802    49820    49837    49852    49864 
   49885    49905    49918    49933    49950    49964    49974    49985 
   49994    50002    50009    50012    50013    50016    50022    50029 
   50026    50021    50025    50022    50017    50020    50013    50006 
   50009    50006    49997    49993    49995    49990    49986    49986 
   49979    49977    49985    49983    49975    49978    49985    49989 
   49991    49997    50009    50020    50026    50036    50045    50056 
   50070    50083    50095    50109    50118    50124    50137    50151 
   50159    50163    50168    50175    50179    50184    50184    50182 
   50182    50179    50174    50168    50163    50159    50151    50139 
   50129    50118    50105    50097    50086    50070    50055    50041 
   50031    50020    50009    50001    49993    49982    49974    49975 
   49975    49972    49970    49970    49975    49981    49986    49997 
   50006    50013    50022    50029    50037    50052    50068    50076 
   50085    50097    50103    50112    50125    50133    50136    50147 
   50153    50156    50163    50163    50164    50170    50168    50164 
   50164    50161    50157    50153    50147    50140    50129    50113 
   50098    50089    50075    50058    50044    50031    50010    49990 
   49974    49956    49940    49921    49900    49885    49871    49858 
   49848    49839    49831    49827    49821    49821    49831    49839 
   49843    49856    49874    49886    49904    49927    49945    49968 
   49998    50025    50049    50076    50106    50132    50156    50187 
   50214    50240    50263    50282    50298    50317    50336    50348 
   50355    50365    50372    50371    50369    50369    50365    50363 
   50360    50355    50346    50337    50328    50322    50313    50301 
   50291    50284    50279    50276    50269    50261    50259    50256 
   50255    50255    50257    50265    50272    50274    50282    50291 
   50295    50305    50315    50329    50342    50355    50368    50380 
   50391    50406    50417    50431    50445    50454    50468    50479 
   50485    50495    50503    50504    50508    50515    50517    50508 
   50506    50506    50503    50494    50485    50475    50461    50450 
   50437    50419    50400    50379    50356    50333    50307    50278 
   50248    50218    50190    50157    50125    50094    50056    50018 
   49987    49958    49921    49886    49858    49833    49806    49782 
   49759    49734    49715    49701    49684    49669    49658    49646 
   49639    49635    49631    49634    49632    49630    49628    49635 
   49643    49647    49653    49662    49670    49675    49685    49694 
   49704    49711    49717    49727    49735    49739    49747    49758 
   49762    49763    49767    49775    49778    49785    49793    49793 
   49796    49808    49813    49815    49821    49831    49839    49844 
   49854    49863    49873    49889    49904    49912    49923    49936 
   49952    49974    49993    50010    50031    50053    50078    50103 
   50132    50156    50183    50214    50245    50280    50318    50348 
   50379    50415    50448    50476    50508    50542    50568    50591 
   50614    50635    50657    50672    50684    50695    50700    50701 
   50699    50695    50687    50674    50660    50642    50620    50599 
   50576    50549    50519    50487    50453    50422    50388    50349 
   50317    50282    50240    50198    50157    50122    50090    50053 
   50016    49983    49950    49914    49878    49847    49821    49792 
   49762    49738    49717    49694    49673    49657    49642    49627 
   49612    49604    49600    49596    49596    49596    49599    49604 
   49608    49612    49624    49640    49655    49671    49688    49705 
   49727    49746    49759    49777    49797    49813    49831    49851 
   49873    49887    49901    49918    49936    49948    49959    49971 
   49986    50004    50016    50025    50040    50053    50060    50072 
   50083    50090    50101    50110    50118    50125    50137    50144 
   50149    50156    50161    50166    50168    50170    50171    50175 
   50176    50172    50167    50163    50157    50148    50133    50118 
   50102    50086    50068    50049    50026    50006    49985    49958 
   49935    49917    49890    49863    49846    49824    49801    49781 
   49761    49742    49728    49712    49693    49680    49671    49663 
   49654    49646    49642    49640    49636    49635    49638    49639 
   49639    49647    49657    49663    49675    49689    49701    49713 
   49725    49742    49758    49774    49796    49817    49836    49859 
   49881    49902    49925    49950    49977    50002    50020    50040 
   50067    50089    50110    50136    50157    50175    50190    50210 
   50233    50248    50261    50279    50290    50295    50306    50317 
   50323    50325    50329    50329    50325    50321    50318    50309 
   50298    50287    50271    50256    50238    50221    50205    50186 
   50167    50153    50134    50106    50083    50067    50048    50025 
   50005    49990    49977    49962    49951    49940    49929    49924 
   49924    49923    49917    49918    49923    49921    49921    49928 
   49929    49933    49940    49943    49947    49951    49952    49962 
   49977    49981    49985    49995    50008    50016    50028    50043 
   50059    50078    50094    50105    50116    50136    50153    50164 
   50176    50190    50202    50217    50224    50229    50241    50255 
   50260    50265    50272    50278    50282    50283    50286    50287 
   50286    50287    50288    50284    50279    50279    50279    50275 
   50267    50261    50256    50248    50242    50236    50225    50214 
   50205    50195    50184    50172    50161    50145    50128    50120 
   50114    50099    50082    50068    50053    50037    50025    50012 
   49993    49981    49966    49947    49935    49925    49913    49897 
   49879    49866    49854    49835    49823    49810    49793    49777 
   49765    49748    49732    49719    49705    49694    49690    49686 
   49671    49662    49661    49655    49651    49653    49654    49650 
   49648    49654    49659    49665    49674    49686    49700    49715 
   49728    49747    49769    49789    49812    49833    49859    49886 
   49906    49933    49963    49982    49999    50024    50047    50063 
   50080    50097    50109    50125    50140    50149    50160    50171 
   50178    50184    50194    50206    50211    50211    50217    50220 
   50224    50229    50232    50233    50236    50236    50233    50230 
   50230    50228    50225    50220    50211    50202    50193    50180 
   50170    50156    50143    50130    50114    50095    50078    50062 
   50043    50020    50006    49994    49972    49951    49936    49924 
   49909    49894    49887    49878    49870    49867    49864    49863 
   49867    49873    49874    49878    49887    49901    49917    49931 
   49945    49964    49989    50009    50029    50053    50079    50105 
   50136    50164    50188    50218    50251    50280    50311    50341 
   50369    50399    50425    50448    50475    50503    50525    50541 
   50557    50573    50587    50598    50607    50610    50611    50612 
   50614    50611    50604    50598    50592    50584    50572    50556 
   50541    50526    50510    50495    50476    50452    50431    50410 
   50386    50363    50338    50315    50292    50268    50245    50225 
   50202    50180    50168    50151    50132    50118    50110    50098 
   50083    50075    50070    50067    50068    50067    50066    50071 
   50076    50082    50091    50101    50103    50107    50126    50141 
   50143    50153    50172    50179    50187    50198    50206    50215 
   50222    50224    50230    50237    50238    50241    50240    50242 
   50249    50245    50238    50240    50234    50228    50225    50220 
   50215    50210    50202    50197    50191    50187    50188    50186 
   50179    50180    50183    50184    50186    50186    50191    50199 
   50199    50205    50217    50224    50225    50230    50234    50233 
   50236    50237    50237    50234    50229    50222    50214    50206 
   50197    50184    50172    50153    50134    50117    50093    50068 
   50047    50022    49994    49963    49936    49910    49885    49856 
   49824    49798    49773    49742    49716    49694    49669    49640 
   49621    49611    49604    49590    49576    49573    49572    49570 
   49573    49582    49596    49607    49621    49644    49674    49698 
   49728    49766    49797    49828    49864    49905    49945    49987 
   50028    50064    50105    50145    50178    50211    50247    50276 
   50306    50336    50361    50383    50404    50426    50440    50450 
   50461    50471    50477    50481    50485    50481    50472    50468 
   50467    50453    50437    50426    50410    50386    50363    50340 
   50313    50279    50242    50214    50186    50151    50113    50079 
   50043    50004    49966    49931    49898    49863    49825    49793 
