Origin Time       2025/01/13 21:19:00
Lat.              31.8
Long.             131.6
Depth. (km)       30
Mag.              6.9
Station Code      KYTH07
Station Lat.      34.8983
Station Long.     135.7461
Station Height(m) -789
Record Time       2025/01/13 21:22:26
Sampling Freq(Hz) 100Hz
Duration Time(s)  120
Dir.              2
Scale Factor      3923(gal)/8224838
Max. Acc. (gal)   0.092
Last Correction   2025/01/13 21:22:27
Memo.             
  -50903   -50897   -50895   -50896   -50895   -50892   -50893   -50895 
  -50895   -50893   -50896   -50899   -50896   -50897   -50901   -50904 
  -50905   -50912   -50916   -50919   -50923   -50923   -50926   -50934 
  -50938   -50938   -50940   -50943   -50947   -50953   -50957   -50957 
  -50957   -50958   -50962   -50965   -50963   -50965   -50967   -50969 
  -50967   -50963   -50966   -50967   -50967   -50970   -50967   -50961 
  -50963   -50965   -50962   -50959   -50957   -50954   -50951   -50953 
  -50953   -50946   -50942   -50939   -50935   -50932   -50926   -50919 
  -50916   -50913   -50911   -50908   -50905   -50904   -50899   -50896 
  -50897   -50897   -50895   -50892   -50889   -50888   -50885   -50882 
  -50882   -50885   -50884   -50884   -50888   -50889   -50888   -50890 
  -50890   -50889   -50888   -50892   -50896   -50896   -50899   -50905 
  -50909   -50908   -50911   -50919   -50924   -50923   -50926   -50930 
  -50932   -50936   -50942   -50947   -50951   -50957   -50965   -50970 
  -50973   -50976   -50978   -50978   -50981   -50984   -50985   -50986 
  -50989   -50996   -50997   -50993   -50992   -50994   -51000   -51000 
  -51001   -51007   -51009   -51007   -51007   -51011   -51013   -51013 
  -51012   -51013   -51015   -51015   -51015   -51012   -51008   -51007 
  -51003   -50998   -50994   -50990   -50988   -50981   -50976   -50971 
  -50970   -50965   -50958   -50958   -50954   -50946   -50944   -50943 
  -50938   -50934   -50928   -50924   -50922   -50917   -50913   -50909 
  -50903   -50897   -50896   -50892   -50884   -50878   -50877   -50873 
  -50868   -50865   -50865   -50859   -50855   -50854   -50850   -50847 
  -50849   -50846   -50845   -50843   -50838   -50831   -50830   -50828 
  -50828   -50827   -50826   -50823   -50819   -50819   -50820   -50816 
  -50816   -50820   -50820   -50820   -50822   -50820   -50824   -50826 
  -50824   -50827   -50832   -50835   -50835   -50838   -50842   -50845 
  -50850   -50850   -50850   -50855   -50862   -50865   -50865   -50868 
  -50873   -50874   -50874   -50881   -50888   -50886   -50890   -50896 
  -50897   -50901   -50904   -50907   -50912   -50915   -50915   -50916 
  -50916   -50919   -50922   -50924   -50926   -50931   -50934   -50931 
  -50934   -50938   -50938   -50939   -50940   -50940   -50942   -50942 
  -50946   -50953   -50951   -50950   -50954   -50958   -50961   -50961 
  -50961   -50962   -50966   -50969   -50967   -50966   -50966   -50969 
  -50967   -50962   -50966   -50971   -50969   -50969   -50971   -50973 
  -50977   -50978   -50976   -50974   -50980   -50982   -50978   -50977 
  -50981   -50981   -50978   -50978   -50981   -50980   -50981   -50984 
  -50985   -50986   -50986   -50986   -50988   -50990   -50989   -50986 
  -50986   -50989   -50992   -50992   -50989   -50988   -50986   -50982 
  -50982   -50982   -50980   -50980   -50977   -50970   -50969   -50970 
  -50967   -50962   -50962   -50959   -50953   -50951   -50950   -50946 
  -50942   -50938   -50938   -50934   -50927   -50927   -50926   -50920 
  -50915   -50912   -50909   -50905   -50901   -50899   -50892   -50886 
  -50884   -50877   -50872   -50869   -50862   -50854   -50847   -50842 
  -50834   -50827   -50824   -50819   -50812   -50807   -50801   -50797 
  -50792   -50787   -50782   -50777   -50772   -50769   -50764   -50762 
  -50760   -50755   -50754   -50754   -50755   -50757   -50762   -50766 
  -50768   -50772   -50777   -50781   -50787   -50792   -50797   -50807 
  -50811   -50812   -50822   -50831   -50835   -50842   -50845   -50851 
  -50862   -50865   -50866   -50877   -50884   -50886   -50892   -50900 
  -50904   -50905   -50909   -50915   -50916   -50920   -50928   -50932 
  -50938   -50942   -50943   -50950   -50957   -50959   -50962   -50966 
  -50974   -50978   -50981   -50986   -50990   -50994   -51000   -51001 
  -51005   -51011   -51015   -51017   -51023   -51028   -51035   -51042 
  -51044   -51046   -51050   -51057   -51063   -51066   -51069   -51071 
  -51078   -51081   -51081   -51084   -51088   -51089   -51090   -51088 
  -51088   -51093   -51093   -51090   -51092   -51089   -51084   -51084 
  -51082   -51077   -51073   -51077   -51078   -51070   -51066   -51066 
  -51065   -51062   -51058   -51054   -51048   -51044   -51039   -51034 
  -51030   -51023   -51019   -51015   -51008   -51005   -51005   -51001 
  -50998   -50997   -50994   -50990   -50986   -50986   -50984   -50981 
  -50980   -50976   -50971   -50971   -50969   -50969   -50971   -50969 
  -50966   -50966   -50965   -50962   -50961   -50961   -50961   -50959 
  -50961   -50963   -50961   -50959   -50958   -50957   -50958   -50961 
  -50958   -50958   -50961   -50961   -50959   -50955   -50955   -50957 
  -50954   -50953   -50951   -50947   -50946   -50943   -50939   -50936 
  -50934   -50928   -50927   -50927   -50922   -50919   -50919   -50916 
  -50911   -50909   -50912   -50911   -50908   -50908   -50908   -50907 
  -50907   -50907   -50907   -50904   -50900   -50899   -50895   -50892 
  -50888   -50886   -50885   -50881   -50877   -50876   -50876   -50872 
  -50866   -50866   -50868   -50863   -50862   -50863   -50861   -50855 
  -50857   -50859   -50855   -50857   -50859   -50855   -50855   -50858 
  -50858   -50858   -50855   -50857   -50862   -50866   -50866   -50866 
  -50870   -50873   -50876   -50878   -50881   -50884   -50886   -50889 
  -50893   -50897   -50900   -50904   -50904   -50905   -50908   -50911 
  -50911   -50911   -50913   -50912   -50912   -50913   -50913   -50912 
  -50912   -50912   -50912   -50911   -50912   -50915   -50915   -50912 
  -50915   -50917   -50916   -50917   -50922   -50923   -50920   -50919 
  -50920   -50926   -50927   -50924   -50924   -50930   -50931   -50930 
  -50931   -50931   -50930   -50931   -50931   -50928   -50928   -50928 
  -50926   -50926   -50923   -50917   -50915   -50916   -50916   -50912 
  -50911   -50905   -50899   -50899   -50897   -50892   -50888   -50886 
  -50885   -50885   -50878   -50874   -50877   -50877   -50874   -50873 
  -50874   -50878   -50878   -50878   -50881   -50886   -50889   -50890 
  -50896   -50900   -50901   -50905   -50913   -50920   -50922   -50926 
  -50932   -50936   -50942   -50950   -50957   -50961   -50965   -50971 
  -50980   -50985   -50993   -50998   -51004   -51009   -51011   -51013 
  -51020   -51021   -51027   -51031   -51032   -51036   -51039   -51036 
  -51043   -51050   -51046   -51044   -51050   -51051   -51050   -51052 
  -51051   -51050   -51052   -51052   -51051   -51057   -51057   -51055 
  -51061   -51059   -51052   -51052   -51055   -51057   -51059   -51061 
  -51058   -51055   -51055   -51055   -51055   -51052   -51052   -51051 
  -51047   -51043   -51040   -51040   -51038   -51032   -51030   -51028 
  -51025   -51020   -51016   -51012   -51009   -51007   -50998   -50993 
  -50990   -50988   -50981   -50978   -50976   -50967   -50961   -50955 
  -50949   -50943   -50939   -50932   -50926   -50919   -50913   -50908 
  -50901   -50896   -50890   -50885   -50877   -50866   -50862   -50858 
  -50849   -50842   -50841   -50836   -50830   -50827   -50822   -50816 
  -50814   -50812   -50805   -50800   -50797   -50793   -50789   -50788 
  -50789   -50785   -50782   -50782   -50780   -50778   -50784   -50785 
  -50782   -50782   -50782   -50785   -50791   -50792   -50795   -50799 
  -50803   -50808   -50815   -50818   -50820   -50826   -50830   -50834 
  -50839   -50846   -50853   -50854   -50857   -50858   -50858   -50863 
  -50870   -50872   -50874   -50880   -50878   -50880   -50881   -50878 
  -50880   -50885   -50886   -50886   -50892   -50892   -50890   -50893 
  -50896   -50899   -50901   -50903   -50909   -50916   -50919   -50923 
  -50927   -50931   -50935   -50939   -50944   -50951   -50954   -50954 
  -50958   -50962   -50963   -50965   -50966   -50963   -50962   -50966 
  -50966   -50961   -50957   -50957   -50957   -50957   -50954   -50950 
  -50949   -50946   -50944   -50940   -50939   -50938   -50935   -50934 
  -50935   -50932   -50931   -50932   -50928   -50924   -50927   -50927 
  -50926   -50923   -50924   -50926   -50926   -50926   -50926   -50928 
  -50934   -50934   -50932   -50936   -50940   -50942   -50944   -50944 
  -50946   -50947   -50949   -50951   -50951   -50950   -50950   -50947 
  -50946   -50943   -50940   -50943   -50946   -50938   -50932   -50935 
  -50936   -50931   -50927   -50926   -50927   -50927   -50927   -50927 
  -50928   -50930   -50930   -50928   -50927   -50928   -50931   -50932 
  -50935   -50936   -50938   -50943   -50946   -50949   -50954   -50959 
  -50963   -50969   -50973   -50976   -50978   -50978   -50980   -50985 
  -50986   -50985   -50988   -50994   -50996   -50993   -50997   -51001 
  -51004   -51008   -51012   -51015   -51019   -51025   -51030   -51034 
  -51036   -51042   -51046   -51047   -51048   -51052   -51051   -51052 
  -51057   -51054   -51051   -51054   -51054   -51050   -51048   -51051 
  -51048   -51043   -51040   -51038   -51034   -51034   -51032   -51030 
  -51028   -51027   -51025   -51023   -51019   -51017   -51019   -51016 
  -51012   -51011   -51009   -51009   -51007   -51007   -51009   -51008 
  -51005   -51004   -51005   -51008   -51008   -51007   -51007   -51009 
  -51013   -51011   -51008   -51013   -51017   -51016   -51017   -51021 
  -51020   -51019   -51020   -51020   -51020   -51020   -51019   -51016 
  -51016   -51016   -51013   -51012   -51009   -51008   -51007   -51001 
  -50996   -50996   -50996   -50990   -50986   -50984   -50981   -50984 
  -50984   -50976   -50973   -50974   -50973   -50970   -50970   -50970 
  -50969   -50967   -50966   -50967   -50970   -50971   -50969   -50966 
  -50966   -50967   -50965   -50961   -50959   -50958   -50955   -50954 
  -50951   -50947   -50943   -50936   -50932   -50931   -50927   -50922 
  -50919   -50916   -50912   -50908   -50900   -50896   -50895   -50890 
  -50885   -50882   -50882   -50882   -50880   -50880   -50878   -50877 
  -50878   -50876   -50874   -50877   -50877   -50877   -50880   -50877 
  -50874   -50877   -50880   -50881   -50881   -50885   -50886   -50886 
  -50889   -50895   -50896   -50897   -50904   -50908   -50908   -50912 
  -50916   -50917   -50922   -50924   -50930   -50936   -50936   -50942 
  -50949   -50951   -50954   -50959   -50965   -50971   -50976   -50982 
  -50988   -50988   -50992   -51001   -51004   -51009   -51016   -51017 
  -51017   -51023   -51028   -51028   -51032   -51040   -51046   -51048 
  -51054   -51058   -51059   -51065   -51071   -51074   -51078   -51085 
  -51088   -51092   -51096   -51096   -51098   -51104   -51106   -51105 
  -51102   -51105   -51111   -51109   -51106   -51106   -51104   -51100 
  -51097   -51096   -51090   -51084   -51079   -51077   -51071   -51065 
  -51059   -51054   -51051   -51047   -51039   -51032   -51025   -51020 
  -51016   -51011   -51003   -50997   -50994   -50992   -50985   -50977 
  -50973   -50970   -50966   -50961   -50955   -50951   -50949   -50947 
  -50944   -50939   -50936   -50935   -50928   -50927   -50927   -50926 
  -50926   -50924   -50920   -50917   -50917   -50916   -50916   -50915 
  -50913   -50913   -50913   -50912   -50911   -50911   -50911   -50908 
  -50905   -50905   -50908   -50905   -50903   -50903   -50907   -50905 
  -50904   -50907   -50909   -50908   -50908   -50908   -50912   -50916 
  -50919   -50922   -50926   -50928   -50930   -50935   -50939   -50943 
  -50950   -50958   -50961   -50966   -50976   -50981   -50982   -50989 
  -50997   -51003   -51009   -51015   -51019   -51024   -51032   -51036 
  -51039   -51042   -51044   -51047   -51051   -51052   -51051   -51052 
  -51055   -51052   -51051   -51050   -51047   -51047   -51048   -51046 
  -51046   -51046   -51042   -51038   -51038   -51034   -51028   -51030 
  -51027   -51023   -51021   -51020   -51020   -51017   -51011   -51011 
  -51015   -51013   -51011   -51007   -51003   -51001   -51001   -50996 
  -50989   -50989   -50988   -50984   -50981   -50977   -50973   -50969 
  -50966   -50961   -50957   -50953   -50947   -50946   -50944   -50943 
  -50938   -50932   -50931   -50930   -50924   -50924   -50924   -50920 
  -50917   -50917   -50916   -50917   -50916   -50915   -50913   -50911 
  -50907   -50907   -50909   -50911   -50911   -50908   -50908   -50911 
  -50912   -50912   -50909   -50911   -50915   -50916   -50919   -50919 
  -50915   -50915   -50916   -50917   -50919   -50922   -50919   -50916 
  -50917   -50919   -50920   -50922   -50919   -50920   -50922   -50922 
  -50922   -50922   -50919   -50917   -50919   -50922   -50920   -50919 
  -50920   -50916   -50912   -50913   -50915   -50912   -50911   -50911 
  -50908   -50908   -50909   -50907   -50908   -50912   -50912   -50915 
  -50919   -50919   -50920   -50926   -50930   -50936   -50940   -50944 
  -50950   -50958   -50963   -50963   -50967   -50977   -50982   -50986 
  -50990   -50994   -50998   -51003   -51003   -51005   -51009   -51013 
  -51016   -51020   -51024   -51028   -51028   -51028   -51032   -51034 
  -51035   -51038   -51038   -51040   -51044   -51046   -51048   -51052 
  -51055   -51058   -51061   -51062   -51066   -51069   -51071   -51075 
  -51075   -51077   -51082   -51086   -51088   -51089   -51092   -51096 
  -51096   -51096   -51098   -51100   -51101   -51101   -51102   -51104 
  -51105   -51109   -51111   -51106   -51108   -51112   -51112   -51111 
  -51111   -51112   -51111   -51109   -51109   -51105   -51102   -51101 
  -51098   -51098   -51100   -51096   -51093   -51094   -51092   -51090 
  -51093   -51090   -51086   -51086   -51085   -51081   -51079   -51075 
  -51073   -51071   -51067   -51063   -51061   -51054   -51050   -51050 
  -51047   -51042   -51039   -51039   -51038   -51032   -51030   -51031 
  -51027   -51023   -51023   -51021   -51016   -51013   -51011   -51008 
  -51001   -50993   -50990   -50986   -50978   -50971   -50966   -50961 
  -50954   -50949   -50939   -50932   -50926   -50917   -50909   -50901 
  -50896   -50889   -50881   -50876   -50869   -50859   -50853   -50846 
  -50838   -50834   -50830   -50823   -50816   -50814   -50805   -50800 
  -50799   -50793   -50791   -50792   -50788   -50782   -50781   -50781 
  -50778   -50780   -50780   -50776   -50774   -50776   -50778   -50780 
  -50780   -50781   -50784   -50782   -50780   -50782   -50788   -50788 
  -50787   -50788   -50791   -50792   -50795   -50799   -50801   -50807 
  -50815   -50818   -50819   -50822   -50826   -50832   -50841   -50847 
  -50851   -50853   -50858   -50869   -50872   -50876   -50882   -50888 
  -50893   -50900   -50904   -50908   -50915   -50919   -50924   -50930 
  -50936   -50944   -50953   -50958   -50963   -50973   -50981   -50985 
  -50992   -51001   -51008   -51013   -51019   -51025   -51032   -51040 
  -51046   -51051   -51058   -51063   -51070   -51077   -51082   -51089 
  -51093   -51094   -51101   -51106   -51105   -51104   -51111   -51111 
  -51109   -51115   -51115   -51111   -51111   -51112   -51112   -51111 
  -51112   -51111   -51108   -51104   -51102   -51105   -51101   -51092 
  -51088   -51084   -51074   -51070   -51066   -51061   -51052   -51043 
  -51035   -51028   -51019   -51007   -50997   -50986   -50976   -50966 
  -50957   -50946   -50939   -50927   -50915   -50909   -50904   -50893 
  -50882   -50873   -50869   -50863   -50854   -50847   -50843   -50839 
  -50836   -50834   -50830   -50828   -50826   -50826   -50826   -50827 
  -50830   -50827   -50824   -50831   -50834   -50832   -50838   -50842 
  -50846   -50853   -50861   -50861   -50865   -50873   -50876   -50877 
  -50885   -50892   -50896   -50900   -50905   -50911   -50913   -50917 
  -50924   -50926   -50931   -50936   -50938   -50940   -50944   -50944 
  -50946   -50949   -50947   -50949   -50953   -50954   -50953   -50954 
  -50955   -50957   -50959   -50958   -50955   -50958   -50961   -50961 
  -50961   -50963   -50966   -50967   -50970   -50971   -50970   -50971 
  -50974   -50980   -50980   -50977   -50978   -50981   -50982   -50984 
  -50986   -50988   -50990   -50989   -50986   -50986   -50985   -50985 
  -50985   -50982   -50980   -50977   -50977   -50974   -50965   -50961 
  -50963   -50958   -50951   -50951   -50944   -50936   -50935   -50932 
  -50926   -50920   -50916   -50911   -50907   -50903   -50899   -50893 
  -50893   -50890   -50888   -50888   -50886   -50882   -50880   -50880 
  -50878   -50873   -50873   -50876   -50872   -50870   -50873   -50869 
  -50866   -50866   -50862   -50859   -50859   -50857   -50853   -50850 
  -50847   -50849   -50849   -50845   -50843   -50842   -50841   -50838 
  -50835   -50838   -50842   -50841   -50838   -50839   -50841   -50841 
  -50841   -50841   -50841   -50842   -50843   -50846   -50847   -50843 
  -50841   -50843   -50843   -50842   -50841   -50841   -50843   -50846 
  -50847   -50847   -50843   -50843   -50850   -50851   -50849   -50851 
  -50853   -50850   -50853   -50855   -50854   -50854   -50855   -50857 
  -50857   -50858   -50862   -50862   -50861   -50862   -50866   -50870 
  -50873   -50874   -50876   -50880   -50881   -50882   -50888   -50895 
  -50897   -50903   -50908   -50912   -50916   -50920   -50926   -50932 
  -50939   -50944   -50950   -50953   -50959   -50965   -50967   -50976 
  -50988   -50992   -50992   -50994   -51000   -51007   -51009   -51015 
  -51023   -51025   -51025   -51028   -51032   -51038   -51042   -51044 
  -51046   -51044   -51047   -51052   -51055   -51055   -51059   -51063 
  -51065   -51070   -51073   -51077   -51079   -51082   -51088   -51092 
  -51092   -51090   -51092   -51097   -51104   -51105   -51102   -51101 
  -51101   -51101   -51102   -51102   -51100   -51100   -51098   -51096 
  -51097   -51092   -51088   -51089   -51088   -51079   -51075   -51077 
  -51071   -51063   -51063   -51062   -51057   -51052   -51050   -51044 
  -51043   -51039   -51036   -51035   -51030   -51025   -51024   -51020 
  -51016   -51016   -51015   -51008   -51001   -51000   -51001   -50998 
  -50993   -50990   -50989   -50988   -50985   -50985   -50982   -50977 
  -50973   -50969   -50969   -50967   -50961   -50959   -50961   -50957 
  -50953   -50951   -50953   -50951   -50947   -50949   -50944   -50942 
  -50944   -50946   -50946   -50946   -50943   -50942   -50942   -50943 
  -50944   -50944   -50946   -50944   -50943   -50946   -50946   -50944 
  -50946   -50944   -50944   -50949   -50949   -50944   -50942   -50946 
  -50946   -50944   -50950   -50951   -50946   -50946   -50947   -50944 
  -50944   -50947   -50944   -50946   -50946   -50943   -50947   -50949 
  -50944   -50946   -50950   -50949   -50947   -50947   -50947   -50947 
  -50951   -50950   -50947   -50951   -50951   -50947   -50949   -50950 
  -50951   -50955   -50957   -50958   -50961   -50961   -50959   -50959 
  -50961   -50961   -50961   -50962   -50961   -50962   -50965   -50962 
  -50963   -50966   -50963   -50963   -50967   -50966   -50963   -50965 
  -50963   -50962   -50962   -50963   -50962   -50961   -50962   -50963 
  -50963   -50959   -50957   -50958   -50961   -50959   -50961   -50962 
  -50959   -50959   -50961   -50961   -50963   -50963   -50961   -50966 
  -50967   -50966   -50969   -50969   -50969   -50973   -50971   -50970 
  -50973   -50973   -50973   -50974   -50977   -50978   -50977   -50978 
  -50981   -50980   -50982   -50984   -50984   -50988   -50989   -50988 
  -50989   -50993   -50993   -50990   -50989   -50992   -50994   -50996 
