Origin Time       2025/01/13 21:19:00
Lat.              31.8
Long.             131.6
Depth. (km)       30
Mag.              6.9
Station Code      KYTH01
Station Lat.      35.5243
Station Long.     135.1243
Station Height(m) 15
Record Time       2025/01/13 21:22:06
Sampling Freq(Hz) 100Hz
Duration Time(s)  120
Dir.              5
Scale Factor      7845(gal)/8223790
Max. Acc. (gal)   0.455
Last Correction   2025/01/13 21:22:06
Memo.             
[...]
   17379    17385    17392    17397    17406    17412    17416    17423 
   17428    17432    17439    17450    17460    17474    17487    17500 
   17510    17524    17532    17537    17541    17544    17547    17544 
   17537    17527    17508    17486    17464    17442    17420    17397 
   17375    17354    17329    17312    17301    17293    17288    17284 
   17282    17285    17289    17294    17307    17323    17342    17365 
   17385    17405    17427    17448    17471    17494    17520    17544 
   17563    17575    17583    17587    17590    17587    17581    17571 
   17558    17541    17518    17493    17471    17446    17419    17394 
   17370    17346    17323    17300    17278    17261    17248    17234 
   17216    17201    17199    17203    17209    17221    17239    17262 
   17292    17327    17366    17408    17450    17487    17523    17547 
   17564    17572    17568    17558    17545    17524    17500    17483 
   17471    17459    17455    17455    17452    17448    17440    17425 
   17409    17388    17362    17338    17320    17305    17293    17285 
   17280    17278    17282    17284    17285    17294    17309    17321 
   17338    17359    17378    17392    17404    17416    17423    17431 
   17443    17455    17464    17474    17478    17485    17497    17502 
   17508    17517    17521    17521    17527    17528    17528    17532 
   17532    17529    17529    17531    17525    17516    17505    17493 
   17481    17463    17447    17432    17415    17404    17398    17390 
   17389    17392    17389    17383    17379    17375    17369    17363 
   17361    17362    17373    17386    17397    17406    17415    17420 
   17432    17451    17473    17491    17509    17520    17527    17532 
   17533    17528    17523    17521    17517    17505    17487    17469 
   17454    17439    17424    17406    17390    17377    17362    17352 
   17350    17344    17332    17323    17315    17308    17307    17308 
   17313    17316    17312    17308    17309    17313    17320    17331 
   17346    17363    17382    17402    17421    17437    17454    17463 
   17470    17478    17486    17493    17498    17497    17491    17483 
   17473    17463    17460    17454    17444    17437    17428    17410 
   17398    17388    17369    17350    17331    17311    17300    17294 
   17289    17284    17286    17285    17282    17282    17277    17269 
   17266    17265    17265    17275    17289    17298    17312    17323 
   17328    17335    17346    17352    17359    17366    17377    17392 
   17408    17425    17448    17470    17485    17496    17510    17524 
   17532    17544    17554    17556    17558    17555    17547    17539 
   17529    17514    17500    17489    17479    17473    17469    17464 
   17458    17451    17443    17432    17425    17417    17409    17405 
   17400    17394    17390    17383    17382    17381    17371    17359 
   17354    17352    17351    17354    17365    17379    17397    17416 
   17433    17450    17467    17477    17479    17479    17478    17478 
   17481    17481    17482    17486    17487    17487    17487    17485 
   17481    17479    17478    17473    17466    17460    17454    17446 
   17433    17419    17401    17383    17369    17354    17342    17332 
   17328    17324    17321    17319    17320    17325    17332    17343 
   17355    17369    17389    17404    17410    17419    17425    17425 
   17428    17431    17432    17433    17435    17435    17437    17440 
   17442    17447    17450    17443    17435    17429    17419    17409 
   17405    17398    17390    17383    17379    17377    17378    17379 
   17381    17382    17382    17383    17385    17386    17390    17393 
   17396    17401    17408    17413    17420    17428    17435    17436 
   17436    17435    17433    17431    17428    17429    17433    17439 
   17447    17455    17463    17470    17474    17474    17471    17471 
   17471    17467    17464    17466    17463    17459    17462    17467 
   17471    17481    17494    17501    17505    17509    17504    17497 
   17493    17485    17474    17466    17462    17458    17455    17452 
   17455    17462    17469    17471    17474    17477    17473    17469 
   17466    17458    17451    17444    17439    17436    17432    17428 
   17429    17433    17440    17450    17460    17474    17487    17497 
   17502    17501    17498    17500    17496    17491    17494    17496 
   17490    17485    17479    17470    17459    17448    17439    17428 
   17416    17408    17401    17392    17379    17373    17363    17352 
   17348    17346    17343    17350    17358    17362    17371    17381 
   17390    17404    17419    17429    17440    17456    17471    17487 
   17506    17525    17544    17558    17563    17567    17568    17563 
   17560    17558    17556    17556    17551    17541    17529    17514 
   17497    17479    17460    17443    17428    17415    17404    17394 
   17388    17379    17370    17358    17354    17351    17346    17348 
   17356    17359    17366    17375    17383    17392    17404    17415 
   17428    17448    17470    17490    17510    17531    17545    17559 
   17571    17581    17591    17604    17612    17614    17617    17617 
   17612    17604    17594    17578    17562    17544    17518    17496 
   17474    17450    17429    17410    17388    17374    17370    17359 
   17347    17346    17346    17344    17350    17358    17363    17366 
   17367    17365    17358    17350    17343    17340    17340    17340 
   17346    17356    17367    17382    17397    17405    17415    17425 
   17436    17447    17456    17462    17464    17464    17463    17459 
   17451    17439    17427    17420    17413    17408    17408    17409 
   17410    17412    17410    17410    17412    17408    17398    17393 
   17388    17378    17369    17362    17358    17355    17352    17350 
   17344    17339    17338    17336    17335    17344    17358    17373 
   17389    17406    17419    17425    17428    17427    17419    17410 
   17404    17396    17383    17374    17371    17363    17355    17358 
   17363    17363    17370    17382    17392    17398    17401    17402 
   17400    17389    17379    17374    17370    17373    17379    17382 
   17388    17397    17401    17406    17413    17416    17421    17424 
   17423    17421    17419    17413    17406    17400    17392    17386 
   17382    17375    17369    17367    17365    17359    17358    17356 
   17352    17348    17347    17346    17350    17354    17356    17362 
   17374    17390    17408    17427    17446    17467    17486    17498 
   17509    17520    17529    17537    17544    17548    17551    17550 
   17543    17536    17529    17520    17504    17491    17478    17458 
   17436    17413    17388    17365    17343    17316    17294    17275 
   17254    17236    17224    17212    17200    17192    17189    17188 
   17194    17209    17219    17231    17251    17269    17289    17316 
   17342    17367    17397    17424    17447    17470    17491    17509 
   17523    17532    17533    17532    17528    17516    17505    17494 
   17482    17469    17455    17440    17421    17405    17389    17377 
   17367    17352    17339    17334    17329    17321    17316    17313 
   17311    17308    17308    17313    17321    17329    17338    17344 
   17350    17356    17367    17379    17394    17409    17427    17440 
   17450    17460    17471    17477    17482    17490    17497    17505 
   17514    17523    17532    17541    17544    17541    17539    17533 
   17520    17502    17486    17469    17450    17433    17417    17402 
   17388    17377    17367    17356    17344    17335    17324    17313 
   17309    17304    17298    17296    17293    17286    17282    17282 
   17286    17293    17301    17311    17316    17321    17324    17327 
   17334    17339    17344    17356    17370    17381    17392    17401 
   17409    17416    17419    17423    17425    17423    17417    17417 
   17416    17412    17409    17404    17397    17389    17386    17386 
   17383    17381    17378    17371    17365    17362    17362    17363 
   17367    17370    17373    17379    17386    17392    17404    17415 
   17417    17416    17416    17419    17420    17417    17417    17420 
   17421    17423    17427    17432    17437    17443    17444    17442 
   17437    17431    17423    17420    17417    17405    17393    17383 
   17378    17369    17362    17361    17355    17350    17347    17343 
   17338    17334    17329    17325    17321    17319    17316    17316 
   17320    17325    17328    17331    17334    17335    17340    17352 
   17359    17363    17371    17377    17382    17393    17406    17419 
   17431    17443    17455    17469    17475    17478    17481    17477 
   17470    17460    17446    17431    17421    17409    17398    17390 
   17379    17370    17365    17359    17351    17346    17342    17338 
   17338    17342    17347    17354    17365    17379    17396    17413 
   17433    17450    17462    17475    17490    17501    17509    17518 
   17525    17533    17539    17540    17540    17539    17532    17523 
   17512    17494    17475    17455    17432    17409    17390    17370 
   17354    17340    17327    17317    17309    17302    17298    17296 
   17294    17296    17302    17308    17312    17323    17339    17354 
   17366    17381    17401    17420    17437    17455    17474    17491 
   17502    17510    17520    17525    17531    17536    17536    17531 
   17525    17523    17514    17504    17493    17475    17459    17444 
   17429    17415    17396    17374    17356    17344    17334    17323 
   17313    17305    17298    17293    17292    17293    17294    17300 
   17304    17305    17308    17313    17320    17327    17334    17339 
   17344    17348    17351    17354    17356    17354    17348    17346 
   17343    17339    17338    17335    17332    17328    17320    17313 
   17308    17302    17296    17296    17289    17280    17280    17278 
   17273    17275    17281    17282    17290    17308    17321    17334 
   17348    17361    17371    17381    17385    17386    17388    17388 
   17383    17379    17377    17378    17379    17379    17379    17378 
   17375    17371    17366    17362    17355    17346    17336    17327 
   17317    17312    17312    17312    17312    17316    17321    17327 
   17331    17336    17346    17352    17359    17365    17370    17375 
   17382    17389    17394    17400    17408    17412    17410    17409 
   17406    17398    17390    17381    17363    17347    17339    17328 
   17317    17312    17308    17301    17302    17308    17315    17321 
   17334    17348    17363    17385    17408    17431    17456    17482 
   17510    17547    17582    17616    17649    17679    17705    17728 
   17749    17767    17784    17799    17805    17802    17795    17783 
   17763    17741    17718    17690    17659    17632    17605    17574 
   17541    17508    17474    17440    17412    17393    17377    17359 
   17343    17329    17323    17320    17317    17316    17319    17324 
   17331    17340    17354    17366    17375    17386    17392    17401 
   17415    17424    17429    17432    17431    17429    17423    17412 
   17402    17392    17378    17363    17351    17338    17321    17308 
   17296    17280    17266    17258    17253    17246    17242    17240 
   17240    17242    17243    17247    17257    17271    17288    17307 
   17328    17348    17367    17388    17402    17416    17429    17443 
   17456    17467    17479    17489    17496    17500    17500    17504 
   17502    17500    17497    17487    17469    17451    17432    17409 
   17388    17370    17354    17343    17332    17324    17323    17324 
   17324    17329    17335    17338    17347    17362    17378    17393 
   17408    17425    17442    17456    17471    17486    17498    17506 
   17509    17509    17508    17506    17502    17494    17482    17469 
   17452    17433    17420    17408    17393    17379    17371    17363 
   17352    17348    17347    17343    17343    17346    17348    17359 
   17374    17390    17408    17425    17444    17460    17477    17491 
   17506    17524    17540    17551    17567    17582    17589    17597 
   17608    17617    17624    17632    17639    17645    17652    17655 
   17655    17651    17647    17641    17632    17618    17608    17598 
   17587    17574    17559    17548    17535    17524    17513    17497 
   17483    17474    17459    17443    17429    17417    17408    17401 
   17396    17390    17386    17382    17378    17377    17375    17370 
   17369    17369    17366    17366    17369    17367    17366    17363 
   17363    17365    17361    17352    17347    17335    17324    17320 
   17311    17301    17293    17281    17269    17261    17254    17250 
   17247    17240    17236    17235    17232    17232    17232    17231 
   17232    17235    17234    17235    17244    17254    17262    17273 
   17282    17288    17297    17304    17307    17313    17320    17320 
   17325    17334    17338    17346    17356    17366    17373    17377 
   17381    17379    17374    17371    17363    17352    17343    17327 
   17313    17304    17292    17278    17273    17270    17271    17275 
   17281    17289    17300    17313    17324    17339    17361    17383 
   17404    17424    17447    17469    17490    17516    17544    17574 
   17602    17632    17664    17698    17732    17770    17803    17826 
   17845    17861    17876    17888    17894    17894    17890    17884 
   17874    17857    17838    17817    17788    17756    17721    17679 
   17637    17599    17566    17532    17496    17460    17431    17400 
   17373    17350    17328    17312    17309    17309    17311    17323 
   17340    17355    17375    17404    17435    17467    17504    17533 
   17562    17590    17610    17628    17641    17644    17644    17639 
   17625    17613    17602    17583    17559    17531    17500    17464 
   17429    17393    17356    17320    17286    17254    17221    17190 
   17161    17130    17101    17078    17059    17043    17034    17031 
   17034    17042    17053    17064    17077    17093    17111    17124 
   17138    17151    17162    17173    17186    17197    17203    17203 
   17203    17201    17199    17197    17194    17190    17186    17181 
   17176    17173    17172    17170    17167    17166    17166    17169 
   17173    17178    17188    17196    17201    17209    17219    17226 
   17231    17240    17246    17246    17247    17251    17258    17267 
   17274    17282    17293    17301    17309    17317    17327    17335 
   17336    17342    17351    17355    17359    17363    17367    17371 
   17378    17381    17386    17398    17409    17419    17432    17447 
   17456    17466    17481    17496    17506    17514    17520    17524 
   17523    17520    17520    17516    17509    17504    17498    17493 
   17490    17483    17475    17467    17464    17462    17459    17459 
   17462    17463    17469    17474    17482    17494    17502    17510 
   17517    17525    17536    17550    17562    17574    17585    17595 
   17605    17610    17613    17616    17616    17613    17605    17595 
   17585    17572    17558    17540    17521    17502    17483    17466 
   17452    17439    17423    17410    17400    17390    17382    17374 
   17362    17351    17344    17336    17331    17329    17327    17321 
   17315    17311    17304    17298    17297    17296    17294    17294 
   17298    17305    17315    17325    17338    17352    17369    17383 
   17394    17406    17421    17436    17446    17454    17463    17470 
   17478    17489    17497    17508    17523    17536    17551    17566 
   17574    17579    17585    17587    17587    17585    17579    17574 
   17574    17568    17562    17563    17563    17558    17555    17550 
   17536    17528    17521    17506    17491    17481    17467    17455 
   17447    17439    17432    17428    17420    17408    17396    17383 
   17370    17356    17346    17338    17331    17323    17312    17305 
   17304    17302    17302    17304    17307    17313    17320    17325 
   17334    17348    17365    17382    17400    17417    17442    17464 
   17487    17513    17539    17564    17593    17618    17641    17663 
   17682    17695    17705    17712    17720    17722    17721    17716 
   17705    17693    17674    17645    17618    17593    17562    17529 
   17501    17473    17446    17421    17402    17385    17371    17361 
   17351    17346    17342    17343    17352    17369    17385    17402 
   17423    17446    17470    17498    17527    17548    17567    17590 
   17605    17614    17621    17621    17617    17609    17597    17579 
   17556    17531    17505    17477    17448    17421    17389    17354 
   17321    17293    17263    17232    17204    17181    17162    17149 
   17138    17134    17134    17135    17140    17151    17167    17186 
   17205    17226    17247    17270    17293    17321    17350    17375 
   17401    17427    17452    17478    17501    17521    17543    17560 
   17568    17574    17581    17583    17582    17575    17562    17548 
   17541    17531    17516    17502    17486    17466    17447    17429 
   17413    17398    17385    17373    17358    17343    17331    17316 
   17297    17281    17265    17244    17227    17212    17199    17186 
   17177    17167    17157    17146    17139    17136    17131    17130 
   17132    17130    17124    17122    17119    17113    17108    17103 
   17104    17107    17111    17120    17132    17149    17172    17196 
   17216    17243    17275    17309    17340    17373    17406    17440 
   17473    17506    17535    17560    17589    17617    17644    17668 
   17690    17709    17722    17733    17740    17747    17748    17745 
   17743    17737    17729    17722    17714    17701    17687    17678 
   17666    17655    17653    17655    17652    17659    17667    17670 
   17674    17680    17682    17682    17680    17676    17670    17663 
   17653    17644    17633    17618    17598    17572    17544    17513 
   17485    17455    17421    17388    17354    17319    17280    17239 
   17200    17162    17128    17096    17066    17041    17023    17011 
   17004    17005    17012    17022    17035    17057    17082    17115 
   17154    17189    17227    17263    17298    17338    17371    17402 
   17435    17463    17490    17517    17540    17559    17581    17593 
   17599    17606    17608    17601    17601    17598    17585    17570 
   17559    17540    17518    17500    17474    17446    17417    17390 
   17363    17338    17312    17289    17269    17251    17238    17231 
   17227    17226    17231    17242    17255    17273    17296    17321 
   17352    17385    17417    17450    17486    17524    17558    17589 
   17620    17649    17672    17694    17713    17726    17733    17739 
   17740    17737    17730    17720    17705    17689    17674    17649 
   17621    17597    17574    17547    17523    17502    17482    17460 
   17444    17431    17420    17409    17398    17389    17381    17377 
   17374    17370    17369    17370    17374    17383    17394    17406 
   17424    17440    17459    17479    17496    17512    17533    17555 
   17571    17583    17598    17613    17622    17626    17626    17626 
