Origin Time       2025/01/13 21:19:00
Lat.              31.8
Long.             131.6
Depth. (km)       30
Mag.              6.9
Station Code      KYTH05
Station Lat.      35.6814
Station Long.     135.0268
Station Height(m) 5
Record Time       2025/01/13 21:22:07
Sampling Freq(Hz) 100Hz
Duration Time(s)  120
Dir.              6
Scale Factor      7845(gal)/8223790
Max. Acc. (gal)   0.507
Last Correction   2025/01/13 21:22:08
Memo.             
[...]
   41102    41103    41103    41102    41107    41116    41125    41135 
   41143    41148    41157    41176    41195    41216    41238    41251 
   41266    41281    41287    41291    41303    41314    41318    41320 
   41320    41314    41312    41312    41308    41301    41296    41283 
   41265    41257    41253    41245    41239    41233    41226    41220 
   41210    41199    41195    41197    41200    41204    41214    41222 
   41227    41238    41247    41260    41273    41292    41312    41332 
   41346    41353    41358    41365    41368    41373    41382    41384 
   41382    41385    41378    41361    41343    41323    41305    41301 
   41303    41296    41285    41276    41260    41245    41237    41223 
   41218    41226    41230    41233    41239    41241    41238    41238 
   41243    41254    41269    41292    41311    41324    41341    41347 
   41347    41355    41365    41376    41392    41401    41397    41393 
   41388    41373    41361    41357    41353    41353    41361    41358 
   41346    41335    41316    41292    41278    41269    41261    41253 
   41243    41224    41204    41195    41184    41170    41161    41148 
   41129    41115    41099    41079    41064    41058    41052    41049 
   41049    41045    41045    41053    41053    41046    41050    41060 
   41068    41084    41103    41119    41143    41172    41191    41211 
   41231    41243    41260    41281    41297    41316    41338    41354 
   41365    41374    41378    41381    41386    41385    41373    41364 
   41355    41342    41332    41327    41314    41299    41289    41272 
   41246    41227    41210    41187    41172    41160    41138    41118 
   41102    41084    41067    41056    41048    41041    41035    41031 
   41033    41042    41053    41061    41069    41079    41085    41099 
   41114    41121    41135    41158    41168    41172    41180    41187 
   41191    41200    41208    41211    41215    41214    41204    41195 
   41191    41183    41177    41180    41183    41184    41192    41200 
   41197    41196    41199    41199    41206    41216    41226    41241 
   41257    41264    41269    41278    41287    41293    41305    41315 
   41319    41324    41331    41326    41318    41316    41315    41307 
   41303    41297    41288    41283    41277    41268    41264    41260 
   41250    41242    41237    41223    41211    41211    41211    41214 
   41224    41227    41227    41238    41243    41245    41258    41273 
   41277    41281    41288    41287    41285    41295    41297    41299 
   41310    41312    41308    41305    41297    41287    41284    41287 
   41287    41284    41283    41270    41250    41234    41214    41193 
   41187    41180    41172    41168    41157    41141    41126    41112 
   41096    41087    41085    41080    41073    41069    41060    41052 
   41052    41050    41052    41060    41067    41075    41085    41098 
   41102    41108    41123    41137    41154    41181    41204    41223 
   41246    41266    41276    41287    41304    41318    41332    41357 
   41377    41393    41409    41418    41420    41424    41423    41423 
   41430    41431    41427    41419    41404    41384    41361    41339 
   41318    41293    41274    41251    41222    41197    41176    41149 
   41127    41112    41096    41087    41084    41079    41076    41077 
   41077    41081    41092    41103    41118    41137    41156    41172 
   41191    41212    41231    41254    41280    41296    41314    41334 
   41343    41350    41361    41368    41370    41374    41366    41350 
   41335    41315    41289    41272    41260    41245    41230    41215 
   41195    41175    41162    41152    41139    41135    41135    41134 
   41139    41146    41152    41162    41173    41179    41184    41189 
   41189    41191    41192    41191    41189    41191    41189    41195 
   41206    41215    41224    41238    41250    41258    41264    41276 
   41287    41295    41310    41320    41323    41331    41335    41334 
   41339    41345    41347    41353    41358    41355    41350    41347 
   41342    41337    41339    41337    41328    41328    41326    41318 
   41310    41304    41293    41283    41277    41269    41258    41254 
   41250    41237    41224    41211    41193    41181    41172    41157 
   41145    41133    41115    41096    41077    41054    41034    41026 
   41023    41018    41017    41011    40999    40992    40992    40994 
   40998    41006    41018    41033    41045    41052    41060    41079 
   41098    41114    41138    41162    41179    41196    41219    41235 
   41253    41274    41295    41315    41335    41347    41353    41362 
   41372    41378    41384    41388    41384    41377    41373    41364 
   41355    41350    41338    41323    41316    41301    41285    41280 
   41276    41266    41261    41254    41253    41258    41268    41273 
   41281    41291    41295    41301    41318    41334    41347    41369 
   41389    41399    41405    41411    41415    41418    41422    41427 
   41426    41422    41415    41405    41392    41380    41370    41359 
   41349    41328    41308    41295    41278    41256    41241    41227 
   41210    41195    41179    41166    41161    41154    41143    41137 
   41130    41114    41106    41104    41102    41100    41104    41108 
   41110    41118    41125    41133    41145    41158    41164    41170 
   41180    41185    41193    41207    41218    41229    41243    41253 
   41258    41264    41268    41269    41269    41269    41264    41260 
   41251    41241    41231    41222    41210    41197    41185    41173 
   41161    41148    41131    41114    41102    41095    41087    41083 
   41084    41084    41084    41085    41081    41076    41075    41077 
   41077    41077    41081    41081    41079    41076    41071    41065 
   41064    41064    41061    41060    41056    41042    41033    41026 
   41014    41014    41018    41014    41019    41030    41031    41034 
   41041    41046    41054    41067    41080    41094    41111    41126 
   41133    41143    41157    41165    41181    41199    41210    41216 
   41224    41231    41235    41243    41254    41266    41283    41296 
   41301    41310    41316    41314    41316    41326    41331    41332 
   41339    41346    41350    41353    41358    41362    41368    41372 
   41373    41377    41381    41381    41384    41391    41392    41388 
   41391    41393    41395    41400    41404    41405    41411    41413 
   41413    41416    41418    41415    41412    41408    41400    41385 
   41377    41369    41353    41343    41332    41311    41295    41277 
   41254    41234    41218    41197    41177    41161    41145    41129 
   41116    41104    41091    41084    41080    41071    41068    41071 
   41068    41071    41075    41075    41075    41079    41080    41081 
   41091    41100    41104    41111    41119    41125    41134    41145 
   41156    41169    41185    41204    41222    41241    41258    41272 
   41289    41311    41326    41342    41359    41370    41384    41401 
   41408    41408    41416    41418    41407    41399    41388    41368 
   41351    41335    41310    41285    41265    41239    41216    41199 
   41177    41154    41141    41126    41107    41094    41087    41075 
   41065    41065    41064    41065    41071    41071    41076    41087 
   41092    41100    41116    41130    41138    41152    41166    41177 
   41192    41211    41230    41251    41276    41297    41316    41341 
   41359    41373    41391    41404    41413    41426    41436    41439 
   41445    41449    41443    41438    41432    41423    41413    41408 
   41400    41389    41380    41368    41355    41349    41342    41330 
   41323    41323    41314    41305    41303    41295    41288    41289 
   41288    41284    41283    41281    41272    41260    41246    41229 
   41218    41211    41199    41187    41180    41166    41152    41143 
   41135    41127    41123    41122    41126    41133    41142    41153 
   41169    41183    41192    41206    41222    41241    41261    41278 
   41288    41291    41291    41289    41283    41274    41270    41260 
   41247    41238    41220    41203    41189    41172    41157    41146 
   41131    41122    41122    41119    41111    41112    41119    41129 
   41138    41152    41168    41185    41202    41215    41226    41238 
   41251    41260    41269    41285    41299    41312    41326    41335 
   41342    41346    41345    41345    41351    41355    41355    41359 
   41366    41370    41378    41382    41382    41382    41386    41393 
   41401    41411    41413    41416    41423    41422    41415    41413 
   41408    41395    41389    41380    41362    41347    41332    41307 
   41285    41270    41250    41227    41214    41200    41177    41157 
   41145    41129    41112    41104    41092    41084    41087    41088 
   41089    41099    41110    41118    41134    41149    41160    41179 
   41200    41218    41238    41265    41288    41311    41341    41362 
   41376    41393    41408    41418    41430    41442    41446    41454 
   41462    41462    41459    41457    41447    41431    41415    41393 
   41368    41346    41319    41287    41258    41231    41197    41160 
   41127    41096    41060    41027    40999    40969    40944    40917 
   40892    40876    40861    40851    40848    40849    40846    40849 
   40857    40861    40865    40883    40899    40917    40941    40963 
   40981    41000    41019    41038    41061    41088    41110    41130 
   41149    41157    41158    41161    41161    41157    41157    41157 
   41154    41150    41139    41116    41092    41068    41042    41018 
   41003    40987    40968    40956    40942    40925    40915    40914 
   40909    40909    40921    40934    40948    40972    40995    41021 
   41057    41095    41127    41168    41211    41251    41295    41337 
   41369    41403    41436    41459    41476    41490    41504    41516 
   41524    41530    41532    41536    41534    41523    41517    41512 
   41500    41494    41493    41486    41480    41470    41457    41445 
   41436    41431    41431    41439    41445    41443    41439    41432 
   41423    41418    41419    41422    41422    41419    41415    41407 
   41397    41386    41380    41376    41370    41364    41361    41358 
   41351    41347    41349    41346    41346    41349    41347    41342 
   41342    41339    41326    41320    41319    41310    41300    41289 
   41274    41258    41241    41226    41215    41210    41204    41199 
   41197    41185    41165    41153    41145    41135    41131    41129 
   41123    41118    41114    41104    41099    41096    41092    41087 
   41088    41088    41083    41081    41080    41075    41072    41071 
   41073    41079    41083    41084    41083    41081    41080    41076 
   41073    41073    41071    41075    41083    41083    41083    41087 
   41091    41096    41107    41115    41127    41141    41149    41156 
   41166    41173    41181    41193    41206    41211    41220    41229 
   41230    41231    41237    41245    41250    41256    41258    41262 
   41266    41266    41261    41258    41254    41245    41234    41229 
   41220    41207    41195    41177    41158    41143    41121    41099 
   41084    41069    41050    41030    41011    40987    40964    40948 
   40938    40926    40919    40914    40903    40900    40902    40909 
   40923    40941    40957    40984    41017    41046    41083    41126 
   41161    41191    41226    41260    41293    41330    41365    41395 
   41420    41447    41467    41481    41497    41508    41512    41517 
   41521    41520    41517    41512    41499    41485    41472    41455 
   41442    41434    41423    41408    41393    41372    41347    41330 
   41310    41288    41272    41256    41237    41220    41202    41180 
   41164    41152    41138    41127    41122    41110    41095    41085 
   41075    41065    41062    41056    41045    41037    41027    41011 
   40998    40986    40969    40959    40952    40942    40937    40938 
   40941    40941    40944    40945    40946    40957    40971    40980 
   40996    41022    41045    41067    41095    41122    41148    41180 
   41215    41246    41278    41310    41341    41370    41396    41415 
   41431    41450    41465    41478    41492    41503    41508    41513 
   41519    41519    41517    41515    41508    41504    41500    41493 
   41481    41467    41453    41438    41424    41411    41396    41386 
   41377    41361    41347    41337    41322    41307    41297    41289 
   41288    41292    41289    41285    41293    41296    41289    41295 
   41310    41319    41339    41364    41381    41400    41424    41440 
   41450    41463    41472    41478    41494    41504    41507    41516 
   41521    41521    41524    41527    41526    41526    41524    41519 
   41508    41497    41485    41470    41462    41457    41447    41442 
   41434    41420    41407    41386    41357    41331    41310    41284 
   41258    41243    41224    41197    41176    41149    41112    41085 
   41064    41040    41023    41014    40998    40983    40975    40963 
   40954    40960    40968    40979    40998    41013    41026    41048 
   41069    41087    41111    41142    41169    41193    41222    41242 
   41258    41276    41289    41299    41307    41307    41297    41283 
   41262    41235    41204    41172    41135    41096    41057    41013 
   40968    40926    40884    40844    40813    40787    40756    40730 
   40714    40702    40698    40698    40701    40714    40737    40761 
   40795    40834    40873    40914    40960    41006    41048    41094 
   41139    41184    41231    41277    41320    41361    41396    41422 
   41438    41454    41469    41477    41485    41494    41496    41493 
   41486    41472    41461    41461    41457    41453    41454    41455 
   41458    41461    41462    41467    41476    41490    41505    41513 
   41528    41542    41546    41555    41566    41574    41584    41593 
   41594    41593    41589    41581    41575    41570    41554    41531 
   41512    41490    41466    41450    41431    41401    41377    41358 
   41331    41314    41301    41278    41261    41254    41249    41249 
   41250    41247    41246    41254    41264    41273    41291    41311 
   41319    41324    41334    41337    41335    41339    41342    41337 
   41332    41323    41310    41297    41276    41253    41230    41202 
   41172    41142    41112    41076    41037    41002    40968    40936 
   40909    40887    40867    40851    40841    40832    40826    40832 
   40838    40853    40876    40899    40922    40950    40980    41015 
   41056    41094    41126    41162    41199    41227    41261    41297 
   41326    41353    41380    41397    41409    41426    41438    41435 
   41439    41450    41445    41431    41424    41409    41386    41366 
   41345    41324    41303    41281    41262    41242    41216    41187 
   41157    41130    41100    41076    41057    41035    41014    40992 
   40972    40953    40937    40923    40917    40917    40917    40918 
   40926    40937    40952    40973    40996    41017    41044    41079 
   41112    41148    41192    41234    41273    41316    41357    41396 
   41436    41474    41511    41542    41571    41600    41619    41636 
   41648    41655    41659    41656    41647    41638    41621    41596 
   41571    41546    41511    41470    41431    41388    41341    41296 
   41251    41206    41162    41119    41075    41035    41000    40968 
   40938    40910    40884    40863    40846    40834    40828    40829 
   40833    40836    40844    40853    40863    40875    40887    40899 
   40907    40917    40926    40937    40946    40952    40954    40963 
   40965    40968    40975    40977    40976    40977    40977    40979 
   40983    40986    40986    40988    40998    41000    41006    41017 
   41026    41031    41042    41054    41065    41075    41085    41098 
   41110    41125    41142    41154    41168    41177    41184    41192 
   41202    41214    41226    41237    41242    41249    41256    41261 
   41272    41289    41300    41316    41342    41359    41374    41391 
   41404    41413    41428    41442    41450    41455    41457    41450 
   41445    41440    41431    41423    41423    41416    41399    41388 
   41377    41358    41339    41327    41307    41285    41270    41249 
   41224    41206    41185    41162    41145    41131    41116    41106 
   41099    41095    41098    41104    41108    41121    41138    41153 
   41172    41195    41215    41239    41269    41292    41314    41345 
   41373    41399    41434    41469    41492    41517    41546    41563 
   41582    41608    41624    41635    41651    41659    41658    41658 
   41655    41643    41631    41619    41594    41566    41538    41500 
   41455    41411    41359    41307    41261    41212    41157    41107 
   41058    41003    40952    40909    40867    40828    40798    40768 
   40743    40724    40709    40699    40701    40711    40728    40752 
   40780    40802    40829    40865    40902    40942    40992    41037 
   41081    41129    41170    41214    41260    41295    41324    41357 
   41385    41411    41431    41449    41462    41467    41470    41466 
   41457    41449    41436    41413    41395    41378    41358    41339 
   41323    41300    41283    41268    41243    41219    41207    41195 
   41179    41170    41168    41162    41158    41165    41165    41162 
   41172    41180    41185    41200    41212    41220    41235    41249 
   41264    41284    41301    41316    41334    41347    41357    41369 
   41378    41385    41391    41396    41401    41407    41412    41409 
   41401    41396    41386    41372    41361    41347    41330    41316 
   41307    41289    41266    41243    41220    41200    41184    41169 
   41154    41145    41141    41133    41123    41118    41116    41115 
   41116    41115    41114    41118    41127    41137    41153    41168 
   41177    41195    41214    41230    41249    41274    41295    41319 
   41350    41376    41397    41424    41449    41466    41485    41501 
   41515    41527    41536    41538    41536    41538    41530    41516 
   41505    41489    41469    41449    41420    41384    41350    41319 
   41287    41253    41220    41183    41148    41123    41095    41064 
   41042    41023    41002    40986    40975    40960    40949    40946 
   40941    40937    40940    40937    40936    40942    40950    40961 
   40975    40986    40996    41008    41018    41021    41026    41034 
   41038    41042    41053    41054    41054    41061    41061    41060 
   41067    41071    41076    41084    41092    41098    41103    41111 
   41119    41133    41153    41175    41193    41212    41234    41256 
   41273    41293    41314    41338    41362    41382    41400    41422 
   41442    41461    41478    41500    41519    41534    41540    41543 
   41548    41554    41553    41551    41544    41524    41503    41482 
   41455    41426    41400    41372    41339    41308    41280    41251 
   41224    41202    41175    41150    41130    41114    41098    41088 
   41085    41084    41089    41102    41110    41125    41143    41158 
   41180    41207    41231    41249    41268    41288    41308    41328 
   41350    41372    41391    41399    41403    41407    41409    41409 
