Origin Time       2025/01/13 21:19:00
Lat.              31.8
Long.             131.6
Depth. (km)       30
Mag.              6.9
Station Code      KYTH07
Station Lat.      34.8983
Station Long.     135.7461
Station Height(m) -789
Record Time       2025/01/13 21:22:26
Sampling Freq(Hz) 100Hz
Duration Time(s)  120
Dir.              1
Scale Factor      3923(gal)/8224838
Max. Acc. (gal)   0.137
Last Correction   2025/01/13 21:22:27
Memo.             
[...]
   63293    63296    63298    63301    63304    63306    63312    63315 
   63319    63325    63325    63328    63339    63350    63354    63359 
   63360    63360    63366    63371    63371    63371    63374    63373 
   63370    63369    63366    63362    63356    63354    63352    63347 
   63339    63335    63332    63327    63321    63316    63309    63302 
   63294    63286    63278    63273    63269    63261    63252    63250 
   63246    63240    63236    63229    63224    63224    63221    63217 
   63212    63205    63204    63204    63198    63193    63190    63189 
   63190    63190    63186    63184    63184    63184    63185    63186 
   63185    63188    63190    63190    63189    63189    63189    63189 
   63193    63197    63194    63193    63198    63204    63204    63208 
   63215    63219    63225    63232    63239    63246    63250    63255 
   63261    63269    63277    63283    63290    63297    63301    63310 
   63319    63323    63331    63342    63346    63348    63355    63363 
   63366    63367    63370    63373    63373    63371    63373    63371 
   63369    63369    63366    63362    63362    63360    63354    63351 
   63351    63347    63346    63346    63339    63335    63339    63340 
   63337    63335    63332    63329    63331    63332    63328    63325 
   63325    63321    63320    63320    63316    63309    63305    63301 
   63293    63289    63289    63281    63273    63270    63267    63261 
   63259    63256    63254    63251    63246    63243    63244    63243 
   63243    63248    63251    63254    63259    63265    63271    63278 
   63283    63290    63298    63309    63317    63325    63336    63347 
   63356    63367    63374    63381    63391    63400    63404    63413 
   63425    63428    63431    63436    63443    63445    63447    63451 
   63455    63456    63456    63458    63459    63456    63456    63456 
   63451    63447    63444    63440    63439    63433    63427    63421 
   63417    63410    63404    63400    63390    63383    63381    63374 
   63366    63362    63354    63347    63342    63335    63329    63324 
   63315    63306    63298    63289    63282    63273    63263    63255 
   63248    63238    63225    63217    63211    63202    63194    63186 
   63178    63175    63171    63166    63163    63158    63153    63151 
   63151    63150    63151    63153    63154    63157    63159    63163 
   63169    63173    63173    63177    63181    63185    63189    63193 
   63196    63198    63201    63207    63211    63211    63217    63223 
   63225    63232    63238    63240    63247    63254    63255    63261 
   63266    63270    63277    63282    63282    63288    63293    63294 
   63298    63302    63308    63310    63312    63320    63324    63325 
   63329    63331    63333    63337    63342    63343    63344    63348 
   63355    63356    63358    63363    63366    63366    63369    63371 
   63374    63375    63375    63378    63379    63378    63375    63375 
   63375    63377    63377    63374    63374    63373    63367    63363 
   63362    63356    63352    63354    63355    63351    63348    63347 
   63344    63340    63339    63339    63335    63329    63328    63328 
   63325    63321    63317    63317    63316    63310    63308    63305 
   63302    63298    63294    63296    63292    63289    63292    63292 
   63286    63286    63290    63289    63289    63296    63298    63301 
   63306    63312    63316    63323    63328    63335    63344    63352 
   63358    63367    63381    63389    63396    63405    63413    63418 
   63428    63435    63441    63450    63455    63458    63464    63472 
   63474    63474    63475    63477    63479    63482    63479    63477 
   63479    63478    63472    63470    63468    63464    63462    63458 
   63452    63448    63440    63433    63427    63418    63413    63406 
   63398    63393    63387    63379    63373    63364    63358    63350 
   63340    63332    63327    63321    63315    63309    63304    63294 
   63290    63290    63283    63278    63278    63277    63277    63275 
   63274    63275    63279    63277    63275    63279    63283    63289 
   63293    63294    63298    63305    63308    63312    63320    63325 
   63329    63333    63336    63339    63342    63344    63348    63350 
   63348    63351    63355    63354    63350    63352    63355    63354 
   63352    63352    63351    63350    63350    63350    63348    63344 
   63337    63335    63333    63331    63327    63323    63316    63310 
   63306    63300    63294    63293    63288    63279    63275    63273 
   63266    63258    63251    63244    63239    63238    63231    63220 
   63216    63209    63201    63197    63192    63182    63175    63170 
   63165    63158    63153    63146    63143    63140    63134    63130 
   63128    63124    63123    63121    63116    63112    63112    63111 
   63107    63104    63107    63105    63105    63107    63104    63105 
   63112    63113    63115    63119    63124    63128    63130    63134 
   63140    63143    63150    63157    63159    63165    63173    63178 
   63188    63197    63207    63215    63220    63227    63236    63243 
   63252    63262    63270    63278    63288    63300    63308    63313 
   63325    63335    63342    63351    63364    63374    63381    63389 
   63397    63401    63405    63410    63418    63423    63427    63432 
   63435    63437    63443    63445    63448    63455    63460    63463 
   63464    63466    63470    63474    63477    63481    63478    63479 
   63481    63479    63478    63479    63479    63479    63478    63477 
   63477    63475    63470    63467    63463    63458    63456    63452 
   63445    63440    63436    63431    63425    63417    63410    63405 
   63398    63389    63379    63374    63373    63364    63354    63350 
   63347    63339    63335    63336    63331    63325    63328    63327 
   63324    63325    63328    63329    63331    63331    63335    63339 
   63339    63342    63346    63346    63348    63354    63358    63358 
   63359    63360    63362    63362    63359    63356    63356    63356 
   63354    63350    63343    63339    63336    63328    63320    63316 
   63310    63301    63292    63285    63277    63265    63256    63252 
   63242    63229    63221    63212    63201    63194    63190    63184 
   63175    63171    63169    63162    63159    63155    63153    63155 
   63151    63148    63155    63155    63154    63157    63155    63155 
   63161    63162    63165    63169    63171    63171    63177    63182 
   63185    63186    63190    63192    63196    63200    63204    63205 
   63208    63213    63216    63216    63217    63219    63224    63228 
   63227    63229    63234    63234    63234    63235    63235    63240 
   63248    63248    63250    63252    63256    63262    63267    63271 
   63275    63281    63286    63290    63296    63304    63305    63306 
   63312    63317    63320    63321    63323    63328    63332    63332 
   63336    63342    63343    63344    63348    63347    63346    63350 
   63352    63355    63358    63358    63359    63360    63363    63367 
   63370    63373    63377    63381    63386    63390    63397    63405 
   63409    63412    63416    63420    63425    63432    63437    63440 
   63444    63450    63451    63450    63454    63455    63456    63459 
   63458    63460    63463    63459    63459    63462    63459    63460 
   63460    63455    63455    63456    63455    63452    63450    63448 
   63447    63447    63443    63437    63433    63431    63425    63421 
   63418    63416    63413    63409    63405    63401    63396    63390 
   63385    63381    63373    63366    63358    63346    63340    63337 
   63324    63309    63301    63294    63283    63274    63266    63258 
   63247    63236    63228    63220    63213    63204    63196    63192 
   63190    63185    63181    63175    63173    63173    63171    63169 
   63166    63166    63166    63166    63163    63161    63161    63159 
   63157    63155    63155    63154    63154    63155    63154    63158 
   63161    63157    63162    63171    63178    63185    63192    63201 
   63212    63217    63224    63238    63250    63261    63270    63281 
   63294    63305    63315    63327    63340    63347    63356    63370 
   63381    63387    63394    63402    63414    63423    63427    63433 
   63441    63445    63452    63456    63458    63460    63464    63467 
   63467    63467    63464    63464    63463    63462    63460    63460 
   63459    63458    63452    63450    63447    63439    63433    63431 
   63425    63420    63418    63413    63404    63398    63397    63390 
   63382    63374    63369    63366    63363    63356    63350    63347 
   63340    63333    63329    63323    63316    63313    63309    63300 
   63296    63290    63279    63274    63274    63265    63254    63251 
   63247    63239    63235    63234    63231    63225    63223    63220 
   63216    63212    63211    63209    63207    63205    63202    63198 
   63198    63202    63202    63202    63208    63209    63209    63213 
   63220    63227    63229    63234    63240    63240    63247    63256 
   63259    63266    63278    63285    63290    63301    63313    63321 
   63332    63346    63356    63369    63382    63393    63402    63414 
   63427    63437    63450    63463    63471    63482    63493    63505 
   63514    63517    63524    63533    63539    63545    63549    63551 
   63552    63553    63556    63556    63549    63547    63547    63544 
   63543    63536    63526    63522    63520    63512    63502    63497 
   63491    63482    63472    63467    63460    63450    63440    63431 
   63423    63412    63401    63391    63381    63371    63363    63355 
   63343    63335    63327    63320    63313    63305    63297    63289 
   63285    63285    63281    63271    63267    63267    63262    63255 
   63254    63251    63248    63250    63247    63243    63246    63246 
   63244    63246    63248    63254    63259    63265    63267    63274 
   63285    63289    63294    63308    63316    63324    63339    63344 
   63351    63363    63375    63381    63387    63396    63401    63408 
   63414    63418    63421    63427    63429    63431    63431    63429 
   63429    63427    63424    63421    63414    63410    63409    63401 
   63393    63387    63378    63370    63363    63356    63348    63340 
   63333    63325    63317    63308    63298    63290    63285    63279 
   63271    63266    63262    63252    63244    63239    63234    63229 
   63225    63221    63220    63219    63212    63207    63202    63200 
   63198    63196    63194    63189    63184    63181    63181    63177 
   63173    63173    63170    63165    63165    63166    63163    63162 
   63163    63165    63163    63166    63167    63167    63170    63175 
   63177    63180    63182    63186    63192    63194    63198    63204 
   63205    63205    63208    63211    63216    63225    63229    63232 
   63236    63242    63250    63259    63263    63267    63278    63285 
   63289    63298    63308    63316    63324    63337    63350    63358 
   63369    63381    63389    63397    63408    63417    63427    63437 
   63447    63452    63459    63467    63475    63479    63485    63490 
   63495    63504    63508    63510    63514    63520    63521    63522 
   63524    63525    63526    63528    63531    63532    63532    63531 
   63529    63531    63532    63532    63531    63526    63526    63525 
   63524    63524    63518    63517    63518    63514    63513    63512 
   63505    63504    63505    63501    63495    63494    63493    63486 
   63482    63482    63478    63472    63468    63463    63462    63455 
   63447    63443    63435    63427    63423    63413    63405    63400 
   63390    63382    63374    63366    63360    63354    63342    63335 
   63329    63320    63310    63308    63301    63294    63294    63290 
   63282    63277    63271    63266    63265    63262    63255    63252 
   63252    63251    63246    63243    63244    63242    63240    63240 
   63235    63234    63235    63234    63232    63235    63236    63232 
   63229    63231    63234    63231    63229    63231    63232    63232 
   63229    63227    63227    63227    63224    63227    63229    63225 
   63224    63228    63228    63227    63228    63229    63231    63229 
   63229    63234    63236    63238    63240    63243    63244    63247 
   63248    63248    63251    63256    63262    63267    63270    63274 
   63279    63285    63289    63293    63301    63310    63317    63324 
   63333    63344    63355    63360    63371    63386    63394    63402 
   63414    63424    63432    63445    63456    63467    63477    63485 
   63497    63508    63514    63524    63536    63544    63551    63558 
   63566    63570    63576    63585    63587    63587    63594    63595 
   63591    63591    63591    63590    63591    63590    63586    63583 
   63580    63578    63575    63571    63566    63562    63559    63558 
   63552    63544    63540    63540    63536    63531    63526    63520 
   63513    63506    63499    63494    63487    63474    63466    63458 
   63444    63432    63423    63410    63397    63386    63375    63359 
   63343    63331    63317    63302    63294    63282    63266    63256 
   63246    63228    63215    63205    63193    63186    63178    63165 
   63155    63146    63135    63124    63115    63109    63100    63088 
   63084    63081    63072    63063    63059    63055    63049    63045 
   63042    63040    63036    63031    63032    63034    63031    63034 
   63039    63039    63040    63046    63051    63057    63065    63067 
   63069    63077    63089    63096    63104    63113    63121    63132 
   63139    63147    63161    63173    63184    63197    63211    63225 
   63240    63254    63265    63281    63301    63315    63325    63342 
   63355    63369    63386    63398    63410    63421    63433    63447 
   63458    63466    63475    63485    63494    63498    63504    63512 
   63518    63525    63531    63537    63540    63541    63544    63545 
   63548    63549    63551    63551    63551    63552    63553    63548 
   63543    63543    63543    63539    63537    63531    63525    63521 
   63517    63512    63505    63495    63491    63483    63470    63460 
   63455    63447    63436    63431    63423    63410    63402    63394 
   63382    63375    63370    63358    63350    63347    63339    63329 
   63324    63317    63310    63304    63297    63292    63289    63283 
   63277    63273    63270    63266    63263    63261    63259    63256 
   63256    63258    63259    63258    63256    63256    63259    63262 
   63262    63265    63269    63273    63273    63273    63275    63278 
   63278    63278    63279    63281    63283    63285    63285    63286 
   63282    63281    63285    63285    63281    63279    63278    63279 
   63278    63271    63269    63270    63267    63262    63258    63256 
   63254    63250    63250    63250    63248    63246    63246    63246 
   63243    63240    63239    63238    63238    63238    63236    63232 
   63227    63227    63227    63221    63219    63219    63216    63211 
   63207    63205    63204    63201    63198    63197    63194    63190 
   63186    63181    63180    63180    63178    63177    63175    63173 
   63174    63174    63171    63177    63182    63182    63185    63188 
   63190    63193    63196    63200    63205    63209    63212    63216 
   63221    63227    63232    63235    63238    63246    63252    63258 
   63266    63275    63281    63285    63293    63302    63308    63315 
   63324    63329    63336    63344    63351    63359    63366    63371 
   63378    63389    63398    63401    63408    63416    63420    63424 
   63431    63437    63443    63448    63452    63455    63460    63463 
   63466    63470    63472    63474    63477    63475    63472    63470 
   63468    63467    63463    63458    63455    63452    63447    63440 
   63435    63431    63423    63417    63413    63406    63398    63394 
   63389    63382    63377    63373    63366    63355    63348    63342 
   63335    63329    63324    63316    63308    63301    63292    63283 
   63277    63267    63262    63258    63248    63236    63231    63221 
   63209    63204    63201    63189    63175    63171    63169    63159 
   63153    63148    63144    63139    63136    63134    63131    63131 
   63131    63127    63127    63130    63128    63126    63130    63135 
   63136    63135    63139    63150    63155    63158    63163    63170 
   63177    63184    63189    63200    63216    63223    63228    63239 
   63248    63259    63271    63279    63289    63298    63308    63320 
   63332    63342    63352    63362    63369    63374    63381    63386 
   63391    63394    63398    63405    63409    63410    63414    63417 
   63416    63418    63418    63417    63418    63417    63414    63416 
   63417    63413    63409    63409    63409    63405    63402    63404 
   63398    63390    63390    63387    63383    63381    63373    63363 
   63362    63358    63352    63346    63339    63335    63328    63317 
   63310    63306    63300    63296    63290    63281    63275    63274 
   63263    63255    63255    63250    63244    63243    63238    63232 
   63232    63229    63224    63221    63223    63221    63220    63220 
   63221    63221    63220    63217    63220    63221    63221    63224 
   63227    63229    63229    63229    63231    63234    63235    63236 
   63240    63243    63244    63248    63251    63252    63256    63261 
   63265    63267    63271    63278    63282    63282    63286    63292 
   63294    63297    63302    63304    63306    63313    63317    63321 
   63324    63325    63329    63335    63335    63335    63337    63340 
   63344    63346    63344    63346    63344    63343    63344    63344 
   63344    63346    63343    63342    63344    63344    63343    63343 
   63342    63339    63339    63342    63340    63337    63335    63336 
   63340    63339    63335    63337    63343    63342    63337    63342 
   63344    63340    63340    63344    63344    63346    63344    63343 
   63344    63342    63340    63346    63344    63339    63337    63337 
   63333    63335    63333    63328    63324    63323    63324    63321 
   63319    63313    63309    63308    63310    63309    63304    63300 
   63300    63298    63294    63294    63296    63293    63290    63292 
   63294    63288    63283    63288    63289    63285    63283    63285 
   63283    63283    63286    63285    63283    63285    63285    63286 
   63286    63283    63282    63285    63285    63283    63279    63275 
   63274    63273    63271    63267    63262    63261    63259    63256 
   63254    63251    63248    63246    63240    63234    63232    63231 
   63225    63221    63221    63219    63213    63211    63211    63211 
   63209    63207    63204    63202    63200    63197    63196    63196 
   63197    63197    63200    63202    63201    63202    63207    63209 
   63213    63219    63221    63225    63229    63232    63242    63252 
   63254    63256    63265    63273    63278    63286    63296    63302 
   63309    63315    63324    63332    63339    63346    63352    63359 
   63363    63370    63377    63378    63383    63391    63393    63394 
   63397    63391    63390    63396    63394    63390    63387    63385 
