Origin Time       2025/01/13 21:19:00
Lat.              31.8
Long.             131.6
Depth. (km)       30
Mag.              6.9
Station Code      KYTH04
Station Lat.      35.2685
Station Long.     135.5508
Station Height(m) 90
Record Time       2025/01/13 21:22:25
Sampling Freq(Hz) 100Hz
Duration Time(s)  120
Dir.              3
Scale Factor      2942(gal)/8224139
Max. Acc. (gal)   0.107
Last Correction   2025/01/13 21:22:27
Memo.             
[...]
    2863     2868     2874     2883     2889     2894     2901     2906 
    2910     2916     2920     2922     2925     2928     2929     2930 
    2929     2928     2926     2925     2922     2921     2917     2910 
    2906     2905     2899     2894     2890     2884     2880     2879 
    2874     2866     2863     2860     2857     2852     2845     2841 
    2837     2830     2825     2822     2820     2813     2805     2799 
    2793     2786     2782     2772     2764     2760     2755     2744 
    2737     2729     2722     2717     2712     2705     2700     2698 
    2697     2694     2691     2690     2691     2693     2697     2701 
    2706     2712     2716     2720     2728     2737     2745     2752 
    2759     2768     2775     2782     2791     2799     2809     2818 
    2824     2830     2839     2844     2849     2853     2856     2864 
    2867     2868     2871     2872     2874     2871     2871     2874 
    2870     2866     2866     2863     2856     2855     2851     2847 
    2843     2840     2836     2833     2830     2825     2820     2818 
    2813     2806     2802     2799     2797     2794     2790     2785 
    2781     2776     2775     2774     2767     2763     2766     2763 
    2759     2758     2758     2756     2754     2754     2754     2752 
    2751     2751     2751     2752     2754     2756     2758     2760 
    2766     2771     2775     2782     2787     2793     2799     2808 
    2816     2822     2830     2843     2852     2860     2870     2880 
    2891     2903     2911     2918     2932     2941     2948     2959 
    2971     2978     2982     2987     2991     2997     3001     3002 
    3003     3005     3002     3001     3002     2999     2992     2988 
    2990     2987     2980     2975     2971     2970     2968     2964 
    2961     2963     2961     2956     2953     2953     2953     2957 
    2956     2953     2959     2960     2960     2965     2972     2975 
    2979     2984     2990     2997     3003     3007     3009     3013 
    3021     3025     3028     3032     3034     3037     3042     3044 
    3045     3044     3041     3044     3042     3040     3041     3038 
    3037     3033     3028     3026     3022     3015     3011     3006 
    2999     2994     2986     2978     2972     2964     2957     2952 
    2947     2937     2929     2922     2913     2903     2897     2890 
    2880     2872     2866     2857     2847     2839     2830     2821 
    2814     2812     2802     2790     2783     2775     2767     2762 
    2754     2747     2741     2733     2727     2722     2718     2712 
    2706     2704     2697     2693     2690     2687     2683     2682 
    2685     2686     2685     2686     2687     2687     2690     2694 
    2697     2700     2704     2705     2708     2712     2717     2720 
    2722     2725     2732     2737     2737     2739     2745     2751 
    2754     2762     2767     2767     2770     2775     2779     2782 
    2785     2789     2794     2797     2797     2799     2805     2808 
    2809     2810     2813     2820     2822     2822     2826     2829 
    2832     2837     2840     2840     2843     2844     2845     2844 
    2843     2848     2851     2848     2852     2856     2853     2852 
    2855     2855     2852     2853     2853     2852     2852     2853 
    2855     2855     2857     2859     2860     2862     2866     2870 
    2874     2880     2886     2889     2893     2899     2903     2909 
    2916     2918     2924     2930     2932     2933     2941     2945 
    2945     2947     2952     2956     2957     2960     2959     2957 
    2957     2956     2956     2955     2953     2953     2953     2952 
    2953     2952     2948     2949     2949     2948     2949     2947 
    2947     2949     2949     2948     2951     2949     2948     2949 
    2949     2949     2949     2947     2947     2947     2947     2948 
    2949     2948     2943     2943     2943     2941     2940     2937 
    2934     2932     2928     2925     2922     2918     2916     2913 
    2911     2909     2905     2899     2894     2890     2884     2880 
    2878     2875     2870     2866     2863     2862     2859     2855 
    2852     2851     2851     2848     2844     2841     2843     2840 
    2837     2840     2841     2837     2835     2832     2829     2826 
    2822     2820     2818     2813     2808     2806     2801     2793 
    2789     2786     2783     2779     2774     2770     2764     2759 
    2755     2751     2745     2741     2737     2733     2728     2722 
    2718     2716     2710     2704     2702     2697     2689     2685 
    2682     2677     2671     2668     2664     2658     2655     2652 
    2646     2641     2641     2640     2636     2633     2633     2632 
    2629     2629     2635     2637     2637     2639     2643     2647 
    2652     2660     2667     2673     2681     2689     2697     2705 
    2717     2728     2736     2747     2758     2764     2774     2785 
    2795     2809     2820     2829     2840     2848     2857     2870 
    2880     2889     2897     2909     2920     2929     2938     2947 
    2953     2963     2975     2984     2991     2998     3006     3013 
    3021     3029     3036     3041     3044     3048     3053     3060 
    3063     3061     3065     3067     3064     3061     3061     3057 
    3055     3052     3048     3042     3036     3033     3026     3018 
    3010     3003     2995     2986     2976     2968     2957     2947 
    2936     2929     2921     2910     2901     2893     2882     2872 
    2863     2853     2843     2835     2824     2816     2809     2799 
    2790     2782     2771     2762     2755     2749     2741     2732 
    2724     2717     2712     2702     2695     2693     2690     2685 
    2682     2681     2677     2673     2674     2674     2673     2674 
    2679     2681     2681     2686     2690     2693     2698     2704 
    2710     2714     2718     2728     2737     2740     2745     2751 
    2756     2764     2768     2771     2778     2785     2786     2790 
    2795     2798     2801     2803     2806     2812     2817     2816 
    2814     2814     2816     2820     2821     2818     2816     2817 
    2818     2817     2817     2817     2816     2814     2812     2806 
    2803     2803     2797     2790     2787     2783     2778     2774 
    2770     2768     2763     2756     2752     2747     2741     2740 
    2737     2735     2731     2728     2725     2722     2720     2717 
    2717     2716     2713     2713     2714     2714     2714     2717 
    2717     2716     2717     2720     2722     2722     2722     2725 
    2727     2728     2729     2731     2732     2735     2740     2741 
    2743     2745     2747     2751     2756     2759     2763     2768 
    2774     2779     2786     2790     2797     2802     2808     2813 
    2820     2826     2829     2835     2843     2847     2851     2857 
    2860     2862     2868     2875     2876     2876     2880     2883 
    2883     2884     2887     2887     2887     2889     2889     2889 
    2887     2884     2883     2882     2879     2878     2878     2874 
    2871     2868     2863     2860     2859     2853     2849     2847 
    2841     2837     2833     2829     2825     2820     2814     2810 
    2806     2799     2795     2794     2791     2790     2790     2789 
    2789     2786     2783     2787     2791     2790     2790     2795 
    2802     2808     2810     2814     2820     2824     2828     2835 
    2839     2840     2847     2853     2857     2862     2864     2870 
    2874     2875     2879     2882     2886     2890     2891     2894 
    2897     2897     2901     2905     2906     2907     2910     2910 
    2910     2916     2920     2921     2921     2922     2925     2928 
    2929     2928     2930     2932     2932     2932     2930     2928 
    2930     2932     2928     2926     2928     2925     2922     2921 
    2921     2918     2913     2913     2913     2907     2903     2905 
    2905     2901     2897     2895     2894     2891     2887     2883 
    2879     2878     2875     2868     2864     2864     2860     2851 
    2847     2844     2841     2836     2829     2824     2818     2813 
    2809     2805     2798     2791     2787     2786     2783     2778 
    2774     2771     2768     2767     2762     2758     2756     2755 
    2754     2754     2751     2748     2747     2744     2741     2741 
    2741     2740     2739     2741     2744     2743     2740     2744 
    2748     2748     2747     2751     2755     2759     2762     2763 
    2766     2771     2776     2782     2790     2794     2795     2803 
    2809     2810     2816     2824     2830     2837     2844     2849 
    2856     2864     2871     2874     2878     2887     2893     2897 
    2905     2911     2918     2925     2929     2933     2938     2944 
    2948     2953     2959     2961     2965     2965     2965     2970 
    2971     2968     2967     2967     2965     2965     2963     2959 
    2956     2953     2952     2951     2948     2945     2943     2940 
    2936     2933     2930     2926     2926     2922     2917     2917 
    2914     2909     2909     2903     2898     2898     2897     2893 
    2887     2883     2882     2878     2874     2871     2868     2866 
    2863     2855     2848     2848     2845     2841     2837     2833 
    2830     2826     2822     2818     2817     2814     2810     2809 
    2808     2805     2803     2802     2801     2797     2795     2797 
    2797     2794     2794     2794     2797     2797     2797     2797 
    2797     2799     2803     2805     2808     2810     2810     2814 
    2818     2820     2824     2830     2835     2839     2843     2847 
    2851     2853     2856     2860     2867     2871     2875     2878 
    2880     2884     2886     2889     2893     2893     2893     2895 
    2898     2898     2898     2898     2899     2901     2898     2895 
    2897     2894     2890     2890     2890     2889     2886     2886 
    2882     2876     2875     2872     2870     2871     2868     2867 
    2867     2866     2863     2863     2864     2863     2863     2862 
    2857     2859     2862     2859     2856     2852     2851     2852 
    2849     2847     2847     2844     2840     2837     2833     2830 
    2829     2826     2824     2820     2814     2810     2808     2803 
    2798     2794     2790     2786     2782     2775     2772     2770 
    2763     2759     2754     2745     2741     2737     2732     2731 
    2728     2720     2717     2718     2716     2712     2710     2709 
    2708     2709     2710     2710     2708     2708     2714     2721 
    2722     2728     2735     2739     2747     2755     2760     2768 
    2778     2785     2791     2803     2813     2818     2829     2843 
    2849     2859     2870     2878     2886     2894     2906     2914 
    2918     2925     2936     2943     2949     2957     2963     2967 
    2971     2974     2976     2982     2986     2987     2984     2984 
    2987     2990     2987     2988     2987     2984     2986     2984 
    2978     2976     2976     2974     2971     2970     2970     2967 
    2965     2965     2961     2959     2961     2957     2955     2960 
    2961     2959     2960     2963     2963     2964     2967     2968 
    2970     2974     2974     2974     2975     2976     2975     2975 
    2975     2978     2979     2978     2976     2975     2974     2971 
    2971     2970     2971     2971     2968     2970     2971     2968 
    2968     2968     2967     2967     2965     2965     2967     2964 
    2965     2967     2968     2970     2971     2972     2972     2972 
    2978     2979     2978     2980     2982     2984     2986     2986 
    2984     2986     2983     2982     2983     2982     2976     2974 
    2971     2968     2964     2959     2953     2949     2945     2941 
    2934     2928     2921     2916     2911     2902     2893     2889 
    2880     2872     2868     2863     2856     2851     2845     2841 
    2836     2830     2826     2825     2822     2818     2818     2817 
    2817     2816     2814     2814     2813     2813     2813     2813 
    2814     2816     2814     2812     2812     2812     2812     2809 
    2806     2805     2806     2808     2808     2803     2805     2806 
    2805     2805     2808     2808     2809     2809     2808     2809 
    2813     2814     2816     2817     2820     2820     2818     2820 
    2825     2826     2824     2826     2833     2835     2836     2837 
    2837     2840     2843     2845     2848     2852     2853     2855 
    2862     2866     2864     2868     2874     2879     2883     2886 
    2884     2887     2895     2901     2903     2907     2911     2914 
    2916     2921     2925     2926     2926     2928     2929     2930 
    2932     2932     2929     2930     2929     2928     2926     2925 
    2922     2920     2918     2917     2916     2917     2918     2916 
    2913     2914     2916     2917     2920     2921     2922     2928 
    2933     2936     2940     2944     2951     2957     2961     2968 
    2975     2982     2988     2995     3002     3009     3017     3026 
    3034     3040     3048     3057     3063     3068     3076     3084 
    3091     3098     3106     3111     3117     3123     3130     3133 
    3137     3141     3144     3146     3149     3150     3152     3154 
    3156     3154     3154     3153     3150     3149     3150     3150 
    3146     3141     3140     3138     3133     3129     3129     3125 
    3118     3115     3113     3107     3102     3096     3092     3088 
    3082     3075     3072     3069     3063     3057     3055     3048 
    3038     3037     3036     3028     3021     3017     3013     3007 
    3003     3001     2997     2990     2986     2982     2979     2975 
    2968     2965     2967     2965     2957     2955     2955     2952 
    2952     2952     2949     2947     2944     2944     2944     2940 
    2937     2938     2938     2940     2938     2933     2930     2932 
    2932     2929     2932     2933     2929     2928     2929     2926 
    2924     2925     2924     2920     2916     2914     2913     2911 
    2910     2907     2903     2901     2901     2901     2899     2897 
    2897     2894     2891     2890     2889     2884     2883     2880 
    2878     2875     2875     2876     2872     2867     2864     2862 
    2860     2859     2857     2856     2855     2851     2847     2845 
    2845     2841     2839     2839     2836     2833     2832     2828 
    2828     2828     2825     2825     2824     2821     2820     2817 
    2817     2816     2812     2810     2808     2803     2806     2808 
    2801     2798     2798     2795     2793     2793     2790     2790 
    2791     2787     2786     2787     2786     2783     2782     2782 
    2782     2781     2781     2779     2778     2782     2782     2779 
    2781     2782     2782     2782     2783     2781     2783     2787 
    2786     2786     2789     2790     2791     2790     2790     2793 
    2791     2790     2793     2791     2790     2791     2791     2793 
    2791     2786     2785     2785     2783     2786     2783     2779 
    2782     2781     2775     2775     2775     2771     2771     2772 
    2770     2768     2768     2767     2766     2764     2763     2763 
    2763     2758     2755     2760     2762     2759     2759     2759 
    2756     2756     2756     2755     2756     2759     2756     2755 
    2758     2758     2758     2760     2759     2760     2760     2759 
    2762     2764     2763     2763     2764     2764     2764     2767 
    2768     2768     2768     2771     2772     2774     2774     2776 
    2782     2783     2786     2790     2790     2791     2798     2801 
    2803     2809     2813     2817     2824     2828     2832     2837 
    2843     2845     2848     2852     2857     2862     2863     2864 
    2867     2868     2870     2875     2878     2875     2872     2875 
    2879     2882     2882     2880     2880     2882     2880     2882 
    2882     2882     2883     2882     2878     2878     2878     2876 
    2875     2874     2872     2870     2864     2862     2863     2862 
    2855     2849     2848     2848     2844     2837     2836     2833 
    2828     2824     2821     2818     2817     2817     2813     2808 
    2808     2812     2809     2805     2806     2806     2806     2808 
    2809     2812     2814     2816     2818     2822     2825     2829 
    2833     2837     2839     2843     2848     2853     2856     2860 
    2866     2872     2876     2878     2882     2887     2887     2889 
    2894     2897     2898     2902     2902     2902     2905     2905 
    2905     2903     2901     2902     2903     2899     2898     2897 
    2893     2890     2886     2883     2882     2876     2870     2864 
    2859     2853     2849     2843     2837     2835     2829     2822 
    2816     2813     2812     2805     2799     2797     2793     2789 
    2787     2783     2781     2782     2781     2776     2775     2776 
    2778     2778     2778     2778     2779     2782     2785     2786 
    2785     2789     2791     2790     2793     2801     2802     2799 
    2803     2808     2808     2808     2810     2812     2810     2810 
    2812     2813     2813     2813     2812     2808     2806     2803 
    2801     2799     2798     2791     2789     2783     2778     2772 
    2767     2762     2760     2756     2751     2745     2741     2740 
    2735     2728     2725     2722     2718     2716     2714     2712 
    2706     2702     2702     2702     2700     2698     2700     2702 
    2701     2700     2702     2704     2702     2704     2706     2708 
    2713     2716     2717     2721     2724     2722     2725     2728 
    2732     2735     2736     2737     2741     2744     2749     2751 
    2749     2751     2755     2758     2759     2760     2764     2768 
    2770     2771     2775     2776     2776     2781     2785     2787 
    2791     2795     2799     2801     2803     2808     2812     2816 
    2817     2818     2822     2824     2825     2829     2830     2832 
    2832     2832     2836     2837     2836     2837     2840     2839 
    2839     2839     2840     2841     2841     2841     2843     2843 
    2840     2840     2844     2845     2844     2845     2847     2847 
    2848     2851     2851     2855     2862     2863     2864     2868 
    2871     2872     2876     2879     2880     2886     2893     2893 
    2893     2897     2899     2902     2905     2905     2907     2909 
    2911     2916     2913     2913     2920     2922     2920     2917 
    2922     2925     2922     2922     2925     2924     2924     2928 
    2929     2928     2929     2929     2928     2926     2926     2926 
    2924     2922     2924     2922     2921     2920     2917     2914 
    2910     2906     2905     2905     2899     2895     2894     2891 
    2884     2882     2878     2870     2866     2862     2857     2851 
    2844     2841     2840     2833     2825     2822     2820     2813 
    2806     2805     2802     2795     2793     2793     2789     2787 
    2786     2785     2781     2776     2776     2775     2772     2772 
