Origin Time       2025/01/13 21:19:00
Lat.              31.8
Long.             131.6
Depth. (km)       30
Mag.              6.9
Station Code      KYTH05
Station Lat.      35.6814
Station Long.     135.0268
Station Height(m) 5
Record Time       2025/01/13 21:22:07
Sampling Freq(Hz) 100Hz
Duration Time(s)  120
Dir.              5
Scale Factor      7845(gal)/8223790
Max. Acc. (gal)   4.085
Last Correction   2025/01/13 21:22:08
Memo.             
[...]
  -17946   -17948   -17948   -17948   -17949   -17949   -17955   -17968 
  -17986   -18004   -18034   -18068   -18098   -18133   -18171   -18202 
  -18234   -18264   -18287   -18312   -18335   -18351   -18366   -18387 
  -18403   -18408   -18408   -18407   -18403   -18397   -18388   -18378 
  -18373   -18365   -18351   -18346   -18345   -18345   -18350   -18361 
  -18368   -18372   -18377   -18380   -18378   -18377   -18369   -18353 
  -18337   -18316   -18296   -18285   -18274   -18264   -18261   -18257 
  -18245   -18238   -18235   -18226   -18215   -18207   -18199   -18193 
  -18193   -18196   -18200   -18207   -18216   -18226   -18238   -18254 
  -18269   -18284   -18299   -18306   -18315   -18326   -18330   -18331 
  -18335   -18334   -18330   -18327   -18320   -18310   -18304   -18303 
  -18297   -18293   -18293   -18291   -18289   -18285   -18273   -18261 
  -18253   -18242   -18233   -18225   -18216   -18207   -18203   -18196 
  -18188   -18184   -18179   -18171   -18166   -18166   -18162   -18157 
  -18154   -18149   -18145   -18144   -18146   -18153   -18168   -18187 
  -18203   -18219   -18238   -18256   -18269   -18283   -18296   -18307 
  -18315   -18319   -18324   -18333   -18335   -18337   -18337   -18339 
  -18346   -18351   -18358   -18364   -18364   -18361   -18350   -18333 
  -18319   -18308   -18291   -18272   -18253   -18235   -18219   -18206 
  -18188   -18175   -18166   -18153   -18138   -18131   -18123   -18119 
  -18125   -18130   -18134   -18146   -18160   -18177   -18204   -18233 
  -18258   -18287   -18318   -18345   -18369   -18397   -18428   -18463 
  -18501   -18535   -18561   -18580   -18596   -18607   -18612   -18616 
  -18611   -18597   -18582   -18565   -18546   -18528   -18507   -18482 
  -18459   -18435   -18409   -18385   -18358   -18322   -18285   -18253 
  -18215   -18176   -18144   -18108   -18075   -18052   -18025   -17995 
  -17971   -17949   -17929   -17915   -17909   -17903   -17896   -17896 
  -17899   -17902   -17907   -17914   -17921   -17934   -17952   -17967 
  -17982   -17999   -18018   -18038   -18058   -18075   -18090   -18103 
  -18111   -18117   -18126   -18135   -18144   -18158   -18177   -18196 
  -18216   -18243   -18274   -18314   -18357   -18392   -18426   -18462 
  -18490   -18516   -18549   -18582   -18612   -18644   -18678   -18708 
  -18738   -18766   -18790   -18812   -18835   -18847   -18843   -18840 
  -18832   -18816   -18801   -18783   -18762   -18740   -18719   -18694 
  -18665   -18636   -18608   -18577   -18558   -18542   -18520   -18505 
  -18493   -18477   -18463   -18453   -18436   -18416   -18399   -18380 
  -18355   -18331   -18308   -18288   -18270   -18250   -18227   -18204 
  -18180   -18160   -18148   -18137   -18129   -18129   -18129   -18129 
  -18135   -18144   -18153   -18166   -18177   -18181   -18185   -18188 
  -18185   -18184   -18184   -18180   -18175   -18171   -18166   -18161 
  -18161   -18164   -18168   -18175   -18180   -18183   -18181   -18177 
  -18171   -18157   -18142   -18131   -18115   -18100   -18094   -18091 
  -18094   -18103   -18108   -18115   -18122   -18127   -18137   -18145 
  -18152   -18162   -18179   -18193   -18206   -18219   -18230   -18239 
  -18249   -18257   -18261   -18261   -18260   -18254   -18243   -18231 
  -18216   -18203   -18192   -18181   -18175   -18172   -18171   -18169 
  -18164   -18157   -18146   -18133   -18119   -18103   -18083   -18064 
  -18042   -18022   -18003   -17987   -17967   -17950   -17941   -17929 
  -17918   -17914   -17907   -17906   -17911   -17917   -17929   -17949 
  -17965   -17975   -17994   -18019   -18037   -18052   -18072   -18091 
  -18107   -18127   -18146   -18165   -18189   -18211   -18231   -18256 
  -18284   -18310   -18335   -18364   -18389   -18414   -18434   -18446 
  -18453   -18458   -18457   -18455   -18459   -18461   -18459   -18463 
  -18465   -18461   -18458   -18455   -18447   -18438   -18432   -18423 
  -18407   -18393   -18380   -18362   -18349   -18335   -18319   -18310 
  -18296   -18280   -18273   -18270   -18261   -18253   -18252   -18247 
  -18239   -18230   -18222   -18215   -18214   -18215   -18222   -18231 
  -18242   -18249   -18257   -18269   -18280   -18289   -18300   -18304 
  -18303   -18303   -18297   -18289   -18289   -18289   -18281   -18276 
  -18268   -18254   -18242   -18234   -18220   -18200   -18181   -18161 
  -18127   -18090   -18054   -18015   -17975   -17932   -17883   -17832 
  -17788   -17748   -17710   -17679   -17653   -17632   -17616   -17604 
  -17593   -17591   -17597   -17608   -17626   -17655   -17682   -17709 
  -17741   -17779   -17818   -17864   -17910   -17949   -17990   -18034 
  -18073   -18112   -18160   -18207   -18249   -18293   -18335   -18369 
  -18403   -18438   -18470   -18501   -18530   -18557   -18586   -18613 
  -18635   -18658   -18684   -18698   -18711   -18725   -18736   -18742 
  -18747   -18752   -18759   -18770   -18779   -18783   -18786   -18786 
  -18778   -18765   -18751   -18729   -18702   -18678   -18654   -18627 
  -18605   -18585   -18565   -18551   -18539   -18523   -18509   -18495 
  -18477   -18462   -18443   -18418   -18393   -18369   -18338   -18303 
  -18269   -18234   -18200   -18166   -18135   -18104   -18072   -18041 
  -18013   -17984   -17960   -17938   -17917   -17898   -17882   -17867 
  -17857   -17849   -17841   -17838   -17840   -17837   -17840   -17849 
  -17859   -17865   -17876   -17887   -17895   -17911   -17933   -17946 
  -17969   -18004   -18031   -18060   -18095   -18135   -18176   -18219 
  -18266   -18316   -18366   -18416   -18468   -18523   -18576   -18621 
  -18670   -18717   -18758   -18800   -18839   -18875   -18910   -18940 
  -18963   -18983   -19002   -19021   -19037   -19051   -19063   -19071 
  -19078   -19083   -19083   -19086   -19087   -19084   -19086   -19090 
  -19091   -19093   -19097   -19097   -19091   -19086   -19078   -19063 
  -19049   -19037   -19020   -18999   -18982   -18958   -18927   -18891 
  -18856   -18821   -18785   -18743   -18704   -18667   -18628   -18582 
  -18536   -18490   -18436   -18381   -18326   -18266   -18207   -18149 
  -18088   -18023   -17959   -17891   -17821   -17756   -17691   -17622 
  -17558   -17497   -17437   -17382   -17332   -17284   -17238   -17196 
  -17155   -17119   -17092   -17064   -17032   -17005   -16984   -16965 
  -16954   -16946   -16938   -16939   -16941   -16939   -16941   -16942 
  -16941   -16942   -16951   -16965   -16981   -17008   -17045   -17088 
  -17139   -17200   -17265   -17332   -17405   -17481   -17558   -17639 
  -17721   -17805   -17895   -17984   -18069   -18160   -18247   -18322 
  -18400   -18480   -18553   -18619   -18686   -18755   -18821   -18887 
  -18956   -19025   -19091   -19151   -19199   -19245   -19288   -19321 
  -19349   -19376   -19394   -19404   -19418   -19423   -19422   -19418 
  -19411   -19398   -19386   -19375   -19353   -19330   -19309   -19279 
  -19249   -19222   -19187   -19145   -19105   -19063   -19014   -18966 
  -18920   -18873   -18829   -18789   -18743   -18702   -18667   -18632 
  -18598   -18569   -18540   -18512   -18490   -18478   -18473   -18474 
  -18481   -18488   -18496   -18507   -18512   -18519   -18531   -18535 
  -18536   -18536   -18531   -18519   -18505   -18490   -18468   -18442 
  -18411   -18373   -18335   -18295   -18246   -18200   -18158   -18111 
  -18060   -18009   -17960   -17913   -17867   -17828   -17787   -17751 
  -17718   -17682   -17647   -17617   -17585   -17554   -17523   -17493 
  -17466   -17444   -17429   -17416   -17404   -17393   -17381   -17374 
  -17367   -17359   -17351   -17344   -17338   -17334   -17328   -17321 
  -17319   -17317   -17312   -17307   -17304   -17301   -17297   -17296 
  -17296   -17296   -17296   -17298   -17300   -17301   -17307   -17311 
  -17309   -17308   -17309   -17312   -17317   -17328   -17342   -17355 
  -17370   -17386   -17402   -17421   -17437   -17454   -17477   -17501 
  -17524   -17554   -17589   -17620   -17655   -17694   -17733   -17778 
  -17825   -17871   -17922   -17979   -18034   -18094   -18160   -18226 
  -18289   -18362   -18443   -18520   -18598   -18682   -18766   -18854 
  -18945   -19036   -19126   -19221   -19313   -19403   -19495   -19581 
  -19662   -19742   -19820   -19890   -19958   -20025   -20082   -20132 
  -20181   -20218   -20250   -20279   -20298   -20308   -20316   -20316 
  -20301   -20275   -20240   -20193   -20133   -20069   -19990   -19904 
  -19813   -19708   -19592   -19476   -19354   -19228   -19102   -18975 
  -18850   -18727   -18601   -18474   -18349   -18218   -18085   -17957 
  -17832   -17705   -17587   -17482   -17383   -17289   -17204   -17124 
  -17049   -16978   -16915   -16854   -16800   -16757   -16719   -16687 
  -16663   -16645   -16634   -16632   -16638   -16650   -16667   -16695 
  -16729   -16765   -16816   -16873   -16934   -17007   -17086   -17174 
  -17271   -17370   -17469   -17574   -17678   -17780   -17888   -17996 
  -18100   -18208   -18320   -18428   -18536   -18646   -18748   -18846 
  -18940   -19028   -19110   -19187   -19257   -19321   -19380   -19435 
  -19481   -19526   -19572   -19606   -19633   -19660   -19673   -19672 
  -19666   -19653   -19624   -19596   -19568   -19527   -19483   -19438 
  -19386   -19332   -19279   -19225   -19167   -19110   -19043   -18966 
  -18885   -18801   -18715   -18627   -18539   -18449   -18357   -18268 
  -18176   -18081   -17987   -17891   -17793   -17695   -17598   -17500 
  -17410   -17328   -17246   -17166   -17089   -17011   -16933   -16860 
  -16789   -16726   -16664   -16603   -16551   -16503   -16459   -16420 
  -16386   -16359   -16340   -16326   -16314   -16306   -16306   -16320 
  -16343   -16375   -16417   -16460   -16510   -16571   -16632   -16699 
  -16773   -16850   -16930   -17012   -17099   -17189   -17282   -17381 
  -17485   -17589   -17695   -17809   -17919   -18034   -18153   -18270 
  -18391   -18511   -18623   -18731   -18837   -18939   -19036   -19136 
  -19233   -19330   -19430   -19525   -19615   -19704   -19782   -19847 
  -19908   -19966   -20016   -20059   -20096   -20115   -20123   -20123 
  -20112   -20092   -20073   -20051   -20023   -19990   -19954   -19915 
  -19874   -19832   -19786   -19735   -19685   -19633   -19577   -19525 
  -19475   -19425   -19379   -19337   -19295   -19253   -19214   -19174 
  -19133   -19097   -19059   -19020   -18985   -18945   -18905   -18868 
  -18828   -18781   -18735   -18682   -18620   -18554   -18488   -18419 
  -18349   -18279   -18202   -18121   -18042   -17956   -17867   -17783 
  -17694   -17598   -17506   -17413   -17320   -17231   -17143   -17058 
  -16980   -16899   -16818   -16742   -16671   -16596   -16525   -16461 
  -16399   -16340   -16290   -16241   -16198   -16164   -16135   -16109 
  -16092   -16079   -16069   -16060   -16065   -16073   -16087   -16114 
  -16147   -16186   -16243   -16305   -16375   -16460   -16556   -16649 
  -16748   -16853   -16960   -17074   -17196   -17319   -17451   -17593 
  -17734   -17879   -18036   -18195   -18351   -18505   -18658   -18804 
  -18943   -19079   -19209   -19327   -19446   -19558   -19661   -19762 
  -19855   -19940   -20023   -20100   -20166   -20227   -20283   -20329 
  -20363   -20394   -20414   -20422   -20425   -20418   -20398   -20376 
  -20352   -20320   -20279   -20233   -20183   -20127   -20062   -19990 
  -19915   -19832   -19741   -19643   -19541   -19427   -19306   -19187 
  -19064   -18933   -18804   -18675   -18540   -18408   -18279   -18148 
  -18015   -17880   -17745   -17608   -17470   -17331   -17193   -17061 
  -16934   -16812   -16702   -16603   -16513   -16433   -16367   -16305 
  -16249   -16209   -16179   -16155   -16146   -16150   -16162   -16193 
  -16236   -16289   -16355   -16432   -16519   -16617   -16723   -16838 
  -16965   -17105   -17247   -17392   -17544   -17691   -17834   -17979 
  -18119   -18250   -18382   -18522   -18658   -18796   -18937   -19072 
  -19202   -19333   -19460   -19577   -19695   -19809   -19923   -20035 
  -20137   -20231   -20312   -20378   -20429   -20468   -20497   -20509 
  -20507   -20491   -20459   -20413   -20359   -20290   -20201   -20101 
  -19984   -19847   -19704   -19558   -19406   -19240   -19071   -18902 
  -18727   -18550   -18374   -18199   -18027   -17861   -17695   -17535 
  -17385   -17239   -17100   -16972   -16854   -16746   -16660   -16588 
  -16525   -16480   -16447   -16416   -16401   -16402   -16407   -16428 
  -16463   -16505   -16560   -16629   -16708   -16806   -16914   -17023 
  -17140   -17266   -17390   -17520   -17653   -17787   -17925   -18060 
  -18195   -18330   -18461   -18593   -18721   -18843   -18964   -19078 
  -19186   -19288   -19381   -19460   -19526   -19581   -19624   -19658 
  -19683   -19700   -19707   -19704   -19691   -19664   -19624   -19575 
  -19510   -19434   -19348   -19249   -19140   -19028   -18909   -18783 
  -18657   -18528   -18396   -18268   -18138   -18006   -17874   -17739 
  -17597   -17455   -17309   -17161   -17016   -16875   -16733   -16591 
  -16457   -16326   -16197   -16074   -15959   -15847   -15742   -15645 
  -15556   -15477   -15412   -15358   -15317   -15296   -15292   -15298 
  -15327   -15377   -15442   -15529   -15634   -15754   -15894   -16054 
  -16224   -16409   -16603   -16807   -17028   -17269   -17521   -17786 
  -18069   -18357   -18640   -18925   -19209   -19485   -19758   -20027 
  -20286   -20540   -20788   -21027   -21247   -21454   -21652   -21832 
  -21990   -22125   -22237   -22335   -22416   -22472   -22512   -22536 
  -22539   -22526   -22495   -22443   -22369   -22272   -22158   -22032 
  -21890   -21732   -21562   -21384   -21190   -20981   -20765   -20540 
  -20304   -20063   -19816   -19562   -19305   -19047   -18789   -18532 
  -18281   -18037   -17798   -17567   -17343   -17136   -16951   -16784 
  -16627   -16480   -16345   -16220   -16108   -16017   -15943   -15873 
  -15819   -15784   -15765   -15765   -15780   -15797   -15820   -15850 
  -15886   -15935   -15993   -16056   -16128   -16208   -16293   -16380 
  -16476   -16576   -16664   -16749   -16842   -16923   -17000   -17084 
  -17158   -17227   -17305   -17375   -17437   -17504   -17562   -17613 
  -17667   -17716   -17760   -17807   -17848   -17883   -17921   -17960 
  -17994   -18027   -18068   -18112   -18152   -18191   -18237   -18283 
  -18327   -18374   -18424   -18476   -18528   -18581   -18635   -18693 
  -18752   -18810   -18874   -18937   -18998   -19067   -19134   -19197 
  -19264   -19327   -19386   -19445   -19498   -19543   -19592   -19646 
  -19689   -19715   -19742   -19772   -19781   -19784   -19786   -19769 
  -19746   -19719   -19673   -19623   -19570   -19502   -19433   -19360 
  -19278   -19195   -19111   -19020   -18924   -18836   -18748   -18657 
  -18570   -18489   -18407   -18331   -18264   -18200   -18135   -18072 
  -18009   -17945   -17879   -17810   -17743   -17679   -17618   -17556 
  -17498   -17442   -17374   -17312   -17257   -17203   -17149   -17093 
  -17038   -16984   -16929   -16872   -16816   -16761   -16703   -16640 
  -16578   -16515   -16453   -16390   -16326   -16262   -16197   -16139 
  -16087   -16043   -16011   -15985   -15965   -15955   -15957   -15971 
  -15996   -16028   -16077   -16141   -16218   -16309   -16410   -16522 
  -16650   -16788   -16935   -17097   -17263   -17437   -17624   -17813 
  -18004   -18200   -18399   -18597   -18794   -18987   -19176   -19357 
  -19530   -19692   -19845   -19992   -20121   -20239   -20347   -20437 
  -20513   -20574   -20621   -20650   -20665   -20668   -20656   -20632 
  -20596   -20547   -20490   -20432   -20360   -20281   -20205   -20119 
  -20024   -19934   -19843   -19747   -19656   -19573   -19488   -19406 
  -19326   -19246   -19175   -19111   -19049   -18997   -18954   -18909 
  -18870   -18843   -18820   -18797   -18779   -18767   -18754   -18743 
  -18736   -18723   -18708   -18698   -18688   -18678   -18674   -18673 
  -18669   -18669   -18666   -18652   -18631   -18611   -18584   -18550 
  -18512   -18474   -18432   -18381   -18320   -18254   -18183   -18107 
  -18029   -17945   -17860   -17772   -17685   -17599   -17508   -17421 
  -17342   -17255   -17170   -17092   -17015   -16942   -16877   -16821 
  -16768   -16722   -16684   -16648   -16617   -16598   -16579   -16560 
  -16549   -16542   -16544   -16551   -16564   -16587   -16621   -16667 
  -16722   -16787   -16862   -16943   -17034   -17130   -17223   -17320 
  -17419   -17516   -17610   -17710   -17803   -17890   -17979   -18069 
  -18156   -18239   -18327   -18409   -18490   -18565   -18630   -18689 
  -18743   -18783   -18817   -18847   -18863   -18874   -18881   -18882 
  -18877   -18870   -18860   -18843   -18821   -18797   -18760   -18720 
  -18682   -18639   -18593   -18550   -18507   -18465   -18424   -18385 
  -18355   -18335   -18315   -18295   -18279   -18265   -18247   -18234 
  -18233   -18234   -18237   -18245   -18258   -18284   -18322   -18362 
  -18400   -18436   -18477   -18516   -18557   -18600   -18640   -18682 
  -18731   -18777   -18823   -18868   -18905   -18935   -18967   -18999 
  -19025   -19045   -19066   -19075   -19074   -19067   -19044   -19008 
  -18971   -18927   -18877   -18829   -18786   -18739   -18689   -18642 
  -18590   -18538   -18490   -18438   -18384   -18339   -18296   -18252 
  -18214   -18179   -18141   -18107   -18080   -18053   -18033   -18026 
  -18025   -18023   -18034   -18048   -18056   -18071   -18083   -18091 
  -18104   -18119   -18127   -18131   -18137   -18146   -18154   -18156 
  -18153   -18144   -18131   -18117   -18098   -18079   -18056   -18025 
  -17992   -17959   -17919   -17882   -17845   -17807   -17770   -17736 
  -17707   -17683   -17658   -17631   -17608   -17593   -17579   -17568 
  -17567   -17570   -17574   -17582   -17598   -17616   -17636   -17663 
  -17687   -17709   -17736   -17763   -17787   -17814   -17847   -17876 
  -17902   -17928   -17952   -17973   -17999   -18026   -18054   -18090 
  -18127   -18165   -18206   -18241   -18272   -18306   -18337   -18365 
  -18395   -18420   -18438   -18457   -18474   -18482   -18486   -18489 
  -18482   -18472   -18465   -18457   -18443   -18431   -18423   -18411 
  -18397   -18387   -18369   -18345   -18323   -18301   -18276   -18257 
  -18241   -18222   -18206   -18193   -18179   -18161   -18144   -18129 
  -18121   -18117   -18111   -18106   -18103   -18100   -18100   -18104 
  -18111   -18117   -18126   -18138   -18146   -18158   -18181   -18204 
  -18226   -18253   -18287   -18318   -18349   -18380   -18414   -18453 
  -18486   -18517   -18553   -18588   -18616   -18647   -18682   -18713 
  -18742   -18778   -18813   -18841   -18873   -18904   -18933   -18963 
  -18991   -19016   -19044   -19070   -19090   -19113   -19140   -19160 
  -19178   -19198   -19214   -19228   -19240   -19244   -19241   -19234 
  -19221   -19202   -19182   -19155   -19121   -19087   -19055   -19017 
  -18976   -18937   -18897   -18854   -18820   -18787   -18750   -18719 
  -18688   -18650   -18612   -18571   -18528   -18485   -18446   -18405 
  -18361   -18322   -18287   -18254   -18229   -18202   -18177   -18156 
  -18130   -18104   -18083   -18061   -18041   -18025   -18013   -17999 
  -17987   -17980   -17971   -17959   -17952   -17942   -17932   -17926 
  -17923   -17914   -17901   -17888   -17874   -17857   -17842   -17829 
  -17814   -17801   -17786   -17771   -17757   -17741   -17726   -17714 
