Origin Time       2025/01/13 21:19:00
Lat.              31.8
Long.             131.6
Depth. (km)       30
Mag.              6.9
Station Code      KYTH03
Station Lat.      35.3130
Station Long.     135.1334
Station Height(m) 40
Record Time       2025/01/13 21:21:59
Sampling Freq(Hz) 100Hz
Duration Time(s)  120
Dir.              6
Scale Factor      7845(gal)/8223790
Max. Acc. (gal)   0.229
Last Correction   2025/01/13 21:22:00
Memo.             
[...]
    1113     1113     1113     1115     1112     1111     1111     1111 
    1109     1107     1105     1108     1109     1107     1104     1105 
    1104     1102     1102     1102     1104     1107     1107     1105 
    1105     1107     1108     1107     1108     1105     1101     1101 
    1102     1101     1102     1107     1105     1102     1104     1104 
    1102     1102     1104     1104     1102     1102     1104     1107 
    1105     1104     1104     1104     1102     1104     1104     1102 
    1102     1101     1101     1101     1100     1098     1098     1100 
    1100     1101     1102     1102     1102     1102     1102     1102 
    1102     1105     1109     1109     1108     1108     1109     1115 
    1120     1123     1125     1127     1125     1127     1131     1134 
    1138     1140     1142     1144     1146     1147     1148     1150 
    1151     1152     1154     1154     1152     1151     1151     1150 
    1151     1152     1150     1144     1146     1147     1146     1146 
    1148     1150     1150     1150     1148     1147     1146     1148 
    1147     1144     1148     1154     1151     1146     1150     1151 
    1151     1154     1154     1150     1147     1146     1147     1147 
    1144     1144     1143     1140     1138     1134     1128     1128 
    1128     1125     1124     1127     1125     1124     1124     1127 
    1128     1127     1129     1132     1131     1129     1128     1125 
    1127     1128     1129     1128     1127     1128     1124     1121 
    1124     1124     1121     1121     1119     1115     1113     1113 
    1115     1115     1111     1112     1115     1111     1112     1119 
    1116     1116     1121     1123     1124     1125     1124     1123 
    1127     1127     1124     1123     1124     1124     1123     1123 
    1123     1121     1119     1117     1115     1111     1109     1108 
    1105     1102     1102     1100     1100     1100     1096     1089 
    1088     1089     1089     1088     1088     1088     1086     1086 
    1084     1081     1080     1081     1081     1078     1075     1077 
    1077     1078     1081     1081     1082     1085     1085     1088 
    1093     1096     1096     1094     1097     1098     1102     1109 
    1115     1121     1125     1127     1131     1138     1140     1143 
    1150     1151     1148     1154     1156     1156     1159     1159 
    1159     1161     1161     1161     1162     1163     1167     1170 
    1170     1170     1171     1173     1174     1173     1170     1170 
    1170     1171     1170     1171     1174     1173     1173     1177 
    1175     1174     1173     1170     1173     1173     1167     1165 
    1162     1156     1151     1148     1144     1139     1136     1134 
    1129     1124     1117     1108     1102     1101     1096     1092 
    1092     1089     1085     1084     1085     1084     1082     1082 
    1084     1085     1086     1088     1088     1085     1082     1084 
    1085     1084     1085     1086     1089     1092     1092     1093 
    1096     1100     1102     1107     1111     1115     1117     1115 
    1116     1120     1120     1119     1120     1123     1123     1123 
    1124     1121     1123     1124     1120     1119     1120     1117 
    1112     1115     1117     1112     1108     1113     1115     1109 
    1111     1111     1108     1105     1104     1105     1104     1104 
    1105     1105     1102     1102     1102     1101     1100     1100 
    1101     1101     1100     1100     1105     1108     1105     1107 
    1112     1115     1116     1116     1116     1120     1124     1121 
    1120     1121     1120     1121     1123     1121     1117     1119 
    1120     1119     1117     1119     1119     1120     1120     1120 
    1124     1132     1136     1132     1128     1128     1125     1124 
    1127     1128     1128     1127     1129     1129     1125     1121 
    1117     1113     1112     1111     1108     1109     1108     1105 
    1101     1100     1100     1098     1097     1094     1092     1094 
    1097     1094     1090     1093     1096     1098     1101     1100 
    1098     1097     1096     1094     1094     1096     1100     1102 
    1100     1097     1096     1094     1093     1093     1093     1094 
    1096     1096     1093     1093     1094     1096     1096     1097 
    1101     1107     1112     1115     1115     1119     1120     1119 
    1121     1129     1134     1134     1136     1142     1143     1142 
    1143     1147     1150     1151     1150     1150     1148     1147 
    1148     1148     1146     1146     1144     1146     1148     1146 
    1142     1140     1139     1138     1142     1140     1140     1144 
    1146     1143     1140     1143     1147     1147     1144     1142 
    1142     1143     1142     1142     1143     1146     1144     1142 
    1143     1144     1146     1147     1150     1150     1150     1148 
    1147     1146     1148     1151     1148     1146     1146     1144 
    1143     1144     1143     1142     1140     1139     1139     1140 
    1140     1136     1131     1125     1123     1121     1117     1113 
    1116     1116     1109     1107     1111     1109     1102     1098 
    1098     1097     1092     1088     1088     1089     1090     1090 
    1089     1089     1090     1090     1089     1086     1086     1086 
    1085     1086     1086     1081     1080     1082     1082     1080 
    1078     1080     1080     1080     1080     1080     1080     1080 
    1082     1085     1086     1090     1096     1098     1097     1098 
    1104     1108     1113     1120     1120     1121     1124     1124 
    1124     1127     1129     1132     1136     1136     1138     1140 
    1142     1142     1140     1142     1140     1138     1135     1135 
    1131     1125     1124     1121     1116     1115     1115     1115 
    1112     1108     1111     1112     1109     1109     1113     1111 
    1107     1107     1111     1112     1111     1111     1109     1109 
    1111     1113     1111     1108     1112     1115     1112     1113 
    1119     1117     1115     1113     1109     1109     1111     1111 
    1111     1112     1113     1113     1112     1113     1112     1108 
    1108     1108     1107     1107     1105     1101     1097     1096 
    1096     1096     1093     1092     1089     1088     1089     1086 
    1081     1081     1080     1075     1074     1073     1069     1071 
    1073     1073     1075     1078     1077     1080     1082     1081 
    1078     1078     1080     1081     1078     1078     1080     1082 
    1086     1084     1080     1082     1084     1084     1088     1093 
    1093     1096     1101     1105     1108     1111     1117     1121 
    1125     1131     1135     1136     1142     1144     1146     1147 
    1148     1150     1151     1151     1154     1155     1158     1155 
    1154     1154     1154     1152     1150     1146     1144     1146 
    1144     1140     1140     1138     1134     1132     1132     1129 
    1128     1128     1127     1125     1123     1123     1119     1115 
    1116     1113     1108     1111     1113     1112     1109     1109 
    1112     1112     1108     1108     1108     1102     1100     1098 
    1097     1098     1096     1092     1093     1093     1092     1093 
    1092     1089     1089     1089     1090     1092     1092     1092 
    1089     1090     1093     1090     1093     1096     1094     1097 
    1097     1098     1101     1101     1098     1098     1098     1096 
    1093     1093     1094     1094     1097     1097     1093     1093 
    1093     1092     1093     1094     1094     1094     1096     1097 
    1098     1104     1108     1112     1116     1120     1125     1128 
    1129     1136     1142     1143     1147     1152     1154     1155 
    1158     1161     1163     1163     1162     1161     1162     1159 
    1156     1159     1162     1159     1159     1161     1158     1155 
    1155     1155     1154     1155     1154     1151     1150     1150 
    1148     1151     1151     1147     1147     1151     1150     1147 
    1147     1146     1143     1144     1143     1138     1135     1132 
    1127     1123     1120     1117     1113     1112     1112     1107 
    1102     1104     1102     1098     1094     1092     1092     1092 
    1090     1089     1084     1081     1081     1081     1078     1074 
    1071     1067     1065     1065     1065     1058     1054     1050 
    1043     1040     1040     1039     1035     1031     1031     1030 
    1028     1028     1028     1030     1032     1034     1035     1040 
    1047     1050     1053     1059     1063     1066     1069     1073 
    1078     1080     1082     1085     1088     1090     1094     1097 
    1100     1105     1108     1107     1105     1109     1113     1115 
    1116     1116     1117     1117     1115     1113     1113     1116 
    1116     1115     1112     1109     1109     1112     1111     1107 
    1105     1108     1109     1108     1109     1112     1111     1111 
    1113     1115     1116     1119     1120     1120     1123     1127 
    1128     1129     1132     1138     1144     1147     1151     1156 
    1159     1159     1159     1161     1163     1169     1171     1173 
    1175     1175     1173     1173     1175     1174     1174     1178 
    1178     1173     1170     1170     1166     1159     1158     1158 
    1155     1154     1154     1150     1148     1151     1151     1150 
    1151     1150     1147     1147     1146     1146     1147     1150 
    1148     1146     1144     1143     1140     1135     1128     1123 
    1121     1119     1109     1102     1098     1092     1086     1080 
    1074     1073     1069     1062     1063     1065     1062     1059 
    1057     1054     1053     1050     1051     1054     1053     1053 
    1058     1061     1059     1058     1061     1062     1062     1063 
    1063     1063     1062     1061     1059     1061     1062     1063 
    1065     1066     1066     1066     1066     1067     1071     1073 
    1075     1081     1084     1086     1088     1090     1093     1094 
    1097     1098     1100     1101     1104     1104     1104     1105 
    1107     1108     1104     1102     1105     1104     1101     1101 
    1098     1094     1093     1093     1092     1092     1090     1088 
    1084     1081     1077     1073     1073     1074     1070     1065 
    1063     1063     1063     1063     1063     1066     1070     1074 
    1074     1071     1071     1073     1074     1078     1081     1081 
    1082     1084     1084     1085     1086     1085     1088     1093 
    1097     1098     1100     1101     1102     1102     1104     1109 
    1113     1113     1112     1115     1116     1113     1113     1120 
    1123     1121     1124     1125     1125     1128     1131     1135 
    1139     1142     1146     1152     1159     1165     1167     1171 
    1178     1188     1196     1200     1204     1210     1217     1221 
    1227     1235     1243     1250     1254     1256     1260     1264 
    1269     1271     1274     1275     1278     1279     1279     1279 
    1275     1274     1275     1274     1270     1267     1264     1260 
    1256     1254     1246     1240     1237     1236     1232     1228 
    1223     1219     1215     1209     1205     1202     1197     1189 
    1182     1177     1171     1167     1162     1159     1158     1154 
    1148     1148     1151     1151     1154     1156     1155     1154 
    1152     1148     1147     1146     1143     1136     1135     1136 
    1134     1129     1128     1127     1124     1123     1120     1121 
    1121     1116     1115     1113     1108     1108     1107     1102 
    1102     1102     1098     1094     1092     1088     1086     1081 
    1077     1077     1074     1069     1062     1055     1050     1046 
    1042     1042     1038     1031     1031     1031     1021     1016 
    1015     1009     1001     1000     1003     1000      996      993 
     988      981      978      978      976      972      965      959 
     957      954      949      945      945      942      940      940 
     945      945      940      939      943      949      953      953 
     954      959      963      967      973      976      976      977 
     981      986      988      988      990      993      997     1001 
    1004     1008     1015     1021     1021     1026     1035     1039 
    1044     1053     1057     1058     1063     1071     1073     1075 
    1084     1092     1094     1096     1100     1105     1109     1112 
    1113     1117     1121     1121     1121     1124     1127     1127 
    1125     1124     1124     1127     1123     1124     1129     1128 
    1121     1121     1121     1119     1117     1116     1113     1112 
    1112     1115     1115     1111     1108     1109     1108     1108 
    1108     1105     1102     1100     1098     1097     1093     1088 
    1082     1078     1075     1073     1070     1067     1066     1066 
    1065     1063     1065     1063     1065     1067     1070     1071 
    1071     1073     1080     1086     1090     1094     1100     1100 
    1101     1107     1111     1111     1113     1116     1119     1125 
    1132     1135     1140     1147     1155     1162     1167     1173 
    1182     1193     1204     1212     1221     1229     1242     1256 
    1263     1270     1285     1297     1302     1314     1323     1327 
    1333     1340     1344     1350     1352     1354     1351     1351 
    1354     1350     1345     1344     1340     1331     1325     1324 
    1318     1309     1301     1293     1281     1270     1260     1251 
    1240     1229     1217     1206     1197     1186     1178     1167 
    1158     1151     1142     1132     1127     1120     1115     1112 
    1105     1100     1100     1098     1097     1098     1097     1096 
    1094     1093     1096     1098     1097     1098     1101     1101 
    1101     1105     1107     1104     1105     1107     1109     1113 
    1115     1116     1120     1120     1121     1125     1125     1127 
    1131     1131     1131     1134     1139     1140     1139     1139 
    1139     1139     1142     1144     1143     1140     1138     1136 
    1136     1136     1132     1127     1123     1120     1116     1112 
    1109     1104     1096     1089     1084     1077     1066     1059 
    1055     1048     1043     1039     1035     1032     1032     1031 
    1027     1030     1034     1031     1032     1038     1039     1040 
    1046     1050     1051     1055     1062     1067     1070     1077 
    1082     1084     1085     1089     1094     1101     1105     1105 
    1104     1104     1109     1112     1112     1116     1117     1113 
    1111     1111     1112     1111     1109     1109     1109     1107 
    1104     1105     1111     1116     1119     1123     1127     1131 
    1138     1146     1150     1151     1155     1161     1167     1177 
    1183     1186     1188     1190     1193     1197     1204     1204 
    1201     1197     1190     1186     1189     1186     1177     1170 
    1165     1155     1147     1140     1135     1127     1117     1107 
    1098     1093     1086     1084     1077     1066     1061     1058 
    1054     1053     1048     1039     1031     1027     1021     1016 
    1013     1008     1001      996      990      982      977      976 
     970      959      955      955      953      950      953      954 
     953      953      955      961      963      965      970      977 
     982      989     1000     1009     1017     1027     1035     1040 
    1047     1054     1062     1071     1078     1088     1096     1102 
    1111     1117     1121     1129     1136     1142     1147     1154 
    1162     1171     1178     1182     1186     1193     1201     1206 
    1209     1216     1221     1223     1228     1236     1237     1240 
    1246     1247     1248     1251     1255     1256     1252     1248 
    1247     1243     1239     1236     1229     1219     1212     1208 
    1200     1189     1178     1171     1159     1146     1138     1131 
    1123     1113     1100     1086     1078     1070     1061     1055 
    1050     1042     1031     1023     1016     1009     1004     1000 
     996      989      986      984      980      978      978      977 
     977      978      978      981      985      986      989      996 
    1003     1007     1011     1015     1019     1021     1023     1030 
    1036     1036     1038     1044     1051     1053     1058     1063 
    1065     1070     1075     1077     1080     1084     1086     1088 
    1090     1098     1105     1107     1111     1119     1124     1128 
    1129     1134     1142     1147     1148     1151     1158     1161 
    1161     1162     1165     1170     1173     1170     1173     1177 
    1174     1170     1170     1169     1163     1156     1154     1151 
    1150     1148     1146     1142     1139     1135     1129     1129 
    1131     1129     1129     1134     1132     1131     1135     1139 
    1140     1147     1154     1156     1156     1161     1167     1171 
    1173     1175     1177     1178     1182     1185     1183     1188 
    1190     1188     1189     1193     1192     1188     1189     1189 
    1186     1186     1185     1182     1181     1179     1175     1175 
    1175     1170     1167     1167     1159     1154     1151     1142 
    1134     1132     1127     1119     1112     1105     1097     1089 
    1082     1077     1070     1062     1057     1051     1044     1039 
    1032     1026     1024     1021     1016     1013     1015     1012 
    1009     1009     1008     1008     1009     1009     1015     1019 
    1020     1023     1027     1032     1038     1042     1043     1048 
    1053     1054     1058     1062     1063     1066     1069     1074 
    1080     1081     1084     1086     1086     1088     1092     1092 
    1089     1090     1092     1093     1097     1102     1101     1102 
    1107     1107     1104     1104     1102     1100     1101     1101 
    1100     1100     1100     1100     1102     1107     1109     1113 
    1116     1119     1123     1129     1134     1138     1142     1146 
    1150     1156     1159     1159     1162     1165     1162     1162 
    1165     1162     1156     1156     1151     1146     1144     1142 
    1134     1128     1124     1116     1111     1107     1100     1094 
    1090     1086     1081     1077     1071     1066     1063     1061 
    1055     1053     1051     1051     1051     1050     1047     1047 
    1051     1051     1048     1054     1061     1059     1059     1066 
    1071     1074     1078     1084     1086     1092     1096     1100 
    1105     1111     1115     1113     1115     1120     1121     1123 
    1128     1132     1131     1134     1138     1138     1135     1138 
    1140     1139     1138     1140     1142     1138     1139     1140 
    1138     1138     1142     1142     1139     1138     1138     1142 
    1142     1142     1142     1140     1142     1144     1142     1142 
    1146     1143     1144     1151     1150     1150     1155     1158 
    1159     1163     1167     1171     1174     1175     1177     1182 
    1188     1188     1188     1192     1194     1197     1201     1202 
