Origin Time       2025/01/13 21:19:00
Lat.              31.8
Long.             131.6
Depth. (km)       30
Mag.              6.9
Station Code      KYTH07
Station Lat.      34.8983
Station Long.     135.7461
Station Height(m) -789
Record Time       2025/01/13 21:22:26
Sampling Freq(Hz) 100Hz
Duration Time(s)  120
Dir.              3
Scale Factor      3923(gal)/8224838
Max. Acc. (gal)   0.126
Last Correction   2025/01/13 21:22:27
Memo.             
[...]
   -8276    -8286    -8293    -8298    -8307    -8317    -8325    -8336 
   -8345    -8349    -8355    -8363    -8374    -8383    -8390    -8394 
   -8398    -8407    -8414    -8419    -8425    -8432    -8437    -8442 
   -8445    -8451    -8460    -8461    -8461    -8465    -8471    -8472 
   -8475    -8476    -8475    -8476    -8478    -8479    -8480    -8482 
   -8482    -8483    -8486    -8484    -8482    -8483    -8484    -8480 
   -8478    -8479    -8479    -8478    -8476    -8476    -8478    -8478 
   -8476    -8478    -8479    -8478    -8478    -8475    -8469    -8471 
   -8472    -8469    -8469    -8469    -8468    -8469    -8468    -8467 
   -8464    -8460    -8457    -8457    -8460    -8460    -8455    -8452 
   -8452    -8448    -8448    -8448    -8445    -8444    -8442    -8440 
   -8438    -8437    -8437    -8437    -8433    -8429    -8430    -8433 
   -8433    -8432    -8432    -8429    -8429    -8430    -8432    -8433 
   -8432    -8428    -8428    -8430    -8429    -8428    -8430    -8429 
   -8426    -8424    -8424    -8424    -8422    -8422    -8424    -8426 
   -8425    -8425    -8425    -8426    -8426    -8425    -8425    -8426 
   -8425    -8424    -8426    -8428    -8429    -8430    -8432    -8434 
   -8438    -8434    -8434    -8438    -8437    -8434    -8436    -8440 
   -8438    -8440    -8438    -8434    -8437    -8441    -8437    -8437 
   -8441    -8440    -8440    -8438    -8436    -8434    -8434    -8433 
   -8430    -8432    -8430    -8424    -8424    -8426    -8426    -8426 
   -8421    -8419    -8422    -8419    -8413    -8413    -8409    -8409 
   -8409    -8402    -8398    -8402    -8402    -8398    -8397    -8397 
   -8392    -8391    -8395    -8391    -8387    -8387    -8388    -8387 
   -8387    -8383    -8384    -8384    -8379    -8379    -8383    -8379 
   -8374    -8375    -8374    -8368    -8364    -8363    -8360    -8355 
   -8352    -8348    -8340    -8334    -8328    -8322    -8320    -8314 
   -8310    -8307    -8302    -8297    -8293    -8290    -8282    -8279 
   -8276    -8271    -8270    -8266    -8260    -8259    -8256    -8251 
   -8251    -8251    -8249    -8247    -8241    -8239    -8240    -8240 
   -8237    -8237    -8235    -8236    -8240    -8243    -8243    -8245 
   -8251    -8256    -8253    -8256    -8262    -8264    -8268    -8274 
   -8278    -8280    -8283    -8289    -8295    -8301    -8306    -8309 
   -8314    -8322    -8330    -8337    -8343    -8351    -8360    -8367 
   -8372    -8379    -8384    -8392    -8399    -8401    -8409    -8417 
   -8419    -8422    -8428    -8436    -8441    -8440    -8444    -8449 
   -8449    -8451    -8452    -8453    -8456    -8456    -8455    -8452 
   -8452    -8453    -8449    -8445    -8444    -8441    -8440    -8437 
   -8432    -8430    -8430    -8425    -8421    -8421    -8418    -8414 
   -8413    -8407    -8397    -8391    -8388    -8384    -8382    -8378 
   -8372    -8368    -8361    -8360    -8360    -8355    -8351    -8348 
   -8344    -8347    -8347    -8345    -8351    -8349    -8343    -8348 
   -8353    -8348    -8349    -8356    -8359    -8361    -8364    -8364 
   -8364    -8364    -8367    -8371    -8374    -8375    -8374    -8374 
   -8376    -8378    -8379    -8380    -8379    -8379    -8380    -8380 
   -8378    -8379    -8383    -8380    -8376    -8376    -8378    -8375 
   -8375    -8378    -8376    -8376    -8375    -8374    -8371    -8372 
   -8374    -8374    -8375    -8378    -8376    -8375    -8375    -8378 
   -8380    -8380    -8378    -8378    -8380    -8382    -8382    -8384 
   -8387    -8387    -8387    -8386    -8387    -8390    -8390    -8392 
   -8394    -8390    -8391    -8395    -8392    -8390    -8395    -8395 
   -8390    -8392    -8391    -8386    -8384    -8382    -8379    -8379 
   -8375    -8365    -8363    -8360    -8353    -8348    -8341    -8336 
   -8332    -8324    -8317    -8313    -8307    -8301    -8294    -8286 
   -8283    -8280    -8275    -8268    -8259    -8252    -8252    -8245 
   -8236    -8233    -8230    -8225    -8218    -8210    -8209    -8210 
   -8205    -8199    -8197    -8194    -8194    -8194    -8191    -8191 
   -8190    -8190    -8191    -8195    -8197    -8199    -8199    -8199 
   -8202    -8209    -8214    -8217    -8221    -8225    -8230    -8237 
   -8244    -8248    -8251    -8256    -8264    -8274    -8279    -8283 
   -8294    -8303    -8309    -8311    -8321    -8332    -8337    -8341 
   -8348    -8356    -8360    -8361    -8363    -8370    -8378    -8382 
   -8382    -8380    -8383    -8386    -8386    -8386    -8388    -8390 
   -8388    -8386    -8384    -8386    -8384    -8380    -8378    -8376 
   -8378    -8379    -8380    -8379    -8376    -8375    -8378    -8379 
   -8379    -8378    -8378    -8380    -8382    -8382    -8383    -8388 
   -8388    -8387    -8391    -8394    -8392    -8395    -8397    -8399 
   -8403    -8406    -8410    -8413    -8410    -8413    -8419    -8418 
   -8419    -8425    -8426    -8425    -8424    -8425    -8425    -8426 
   -8424    -8424    -8426    -8422    -8419    -8417    -8414    -8414 
   -8414    -8406    -8401    -8402    -8401    -8395    -8394    -8394 
   -8391    -8391    -8392    -8388    -8387    -8387    -8386    -8384 
   -8386    -8386    -8386    -8384    -8383    -8384    -8388    -8390 
   -8388    -8387    -8390    -8392    -8392    -8392    -8392    -8398 
   -8402    -8398    -8395    -8398    -8397    -8398    -8399    -8398 
   -8398    -8401    -8401    -8399    -8399    -8398    -8397    -8397 
   -8395    -8394    -8392    -8394    -8395    -8391    -8387    -8386 
   -8384    -8384    -8387    -8384    -8382    -8380    -8380    -8383 
   -8383    -8380    -8376    -8379    -8379    -8375    -8375    -8376 
   -8374    -8374    -8374    -8368    -8370    -8375    -8374    -8374 
   -8376    -8379    -8379    -8382    -8384    -8388    -8391    -8395 
   -8398    -8398    -8402    -8409    -8413    -8417    -8419    -8421 
   -8425    -8430    -8433    -8433    -8437    -8437    -8436    -8438 
   -8442    -8442    -8441    -8437    -8436    -8433    -8432    -8433 
   -8428    -8424    -8424    -8421    -8418    -8418    -8411    -8410 
   -8409    -8402    -8401    -8403    -8399    -8395    -8395    -8394 
   -8388    -8386    -8387    -8390    -8391    -8390    -8390    -8390 
   -8391    -8392    -8391    -8392    -8399    -8403    -8402    -8402 
   -8405    -8410    -8413    -8414    -8415    -8418    -8421    -8422 
   -8424    -8428    -8426    -8426    -8430    -8428    -8426    -8429 
   -8425    -8419    -8421    -8421    -8418    -8415    -8411    -8405 
   -8399    -8398    -8392    -8386    -8383    -8380    -8374    -8368 
   -8365    -8361    -8355    -8351    -8348    -8345    -8345    -8343 
   -8338    -8337    -8337    -8336    -8334    -8334    -8337    -8338 
   -8336    -8338    -8340    -8338    -8340    -8347    -8349    -8351 
   -8355    -8356    -8357    -8361    -8363    -8364    -8365    -8367 
   -8365    -8365    -8368    -8371    -8371    -8374    -8374    -8370 
   -8368    -8372    -8374    -8374    -8375    -8374    -8371    -8372 
   -8372    -8371    -8372    -8370    -8365    -8365    -8361    -8357 
   -8359    -8359    -8355    -8353    -8352    -8352    -8352    -8347 
   -8344    -8344    -8338    -8334    -8334    -8336    -8338    -8336 
   -8333    -8334    -8334    -8334    -8334    -8333    -8336    -8343 
   -8344    -8344    -8345    -8347    -8351    -8355    -8357    -8364 
   -8370    -8371    -8375    -8382    -8390    -8394    -8392    -8401 
   -8410    -8411    -8415    -8426    -8428    -8430    -8436    -8437 
   -8434    -8437    -8442    -8446    -8449    -8449    -8449    -8452 
   -8453    -8453    -8452    -8451    -8455    -8453    -8446    -8448 
   -8451    -8451    -8449    -8446    -8444    -8444    -8444    -8446 
   -8449    -8446    -8444    -8446    -8451    -8451    -8449    -8448 
   -8449    -8449    -8451    -8453    -8455    -8456    -8460    -8460 
   -8459    -8461    -8465    -8465    -8467    -8468    -8467    -8464 
   -8465    -8467    -8463    -8464    -8467    -8464    -8464    -8461 
   -8456    -8456    -8457    -8455    -8455    -8453    -8449    -8448 
   -8448    -8444    -8440    -8440    -8437    -8433    -8433    -8433 
   -8432    -8429    -8425    -8419    -8417    -8415    -8409    -8403 
   -8403    -8401    -8398    -8397    -8391    -8388    -8386    -8383 
   -8380    -8374    -8375    -8376    -8370    -8365    -8365    -8363 
   -8356    -8352    -8352    -8349    -8347    -8347    -8344    -8340 
   -8336    -8332    -8328    -8329    -8330    -8325    -8322    -8324 
   -8321    -8316    -8318    -8318    -8316    -8314    -8314    -8313 
   -8317    -8320    -8316    -8314    -8316    -8316    -8318    -8321 
   -8321    -8320    -8321    -8322    -8325    -8322    -8322    -8324 
   -8322    -8321    -8325    -8328    -8325    -8325    -8322    -8321 
   -8324    -8322    -8320    -8321    -8320    -8318    -8320    -8318 
   -8318    -8322    -8321    -8318    -8321    -8321    -8320    -8322 
   -8325    -8325    -8324    -8325    -8330    -8333    -8334    -8337 
   -8338    -8340    -8343    -8349    -8351    -8349    -8352    -8357 
   -8361    -8364    -8367    -8371    -8378    -8383    -8391    -8397 
   -8398    -8405    -8409    -8414    -8422    -8425    -8426    -8430 
   -8437    -8444    -8446    -8448    -8451    -8453    -8453    -8459 
   -8463    -8461    -8460    -8461    -8463    -8463    -8463    -8465 
   -8467    -8464    -8459    -8461    -8463    -8460    -8459    -8459 
   -8457    -8459    -8455    -8449    -8453    -8453    -8446    -8444 
   -8445    -8445    -8442    -8444    -8445    -8442    -8441    -8442 
   -8442    -8444    -8442    -8438    -8440    -8441    -8440    -8440 
   -8438    -8438    -8440    -8436    -8433    -8434    -8433    -8433 
   -8433    -8436    -8436    -8432    -8430    -8434    -8433    -8428 
   -8426    -8428    -8429    -8428    -8426    -8424    -8426    -8428 
   -8426    -8425    -8424    -8419    -8419    -8419    -8417    -8411 
   -8409    -8411    -8414    -8413    -8407    -8406    -8405    -8401 
   -8402    -8405    -8399    -8395    -8398    -8394    -8391    -8395 
   -8398    -8397    -8397    -8399    -8402    -8403    -8406    -8409 
   -8411    -8414    -8413    -8414    -8418    -8419    -8422    -8428 
   -8428    -8428    -8432    -8436    -8437    -8437    -8436    -8438 
   -8442    -8438    -8437    -8438    -8440    -8441    -8438    -8432 
   -8433    -8436    -8429    -8421    -8418    -8417    -8415    -8410 
   -8406    -8405    -8402    -8398    -8394    -8390    -8386    -8379 
   -8376    -8372    -8365    -8365    -8364    -8355    -8351    -8349 
   -8344    -8343    -8340    -8334    -8330    -8328    -8328    -8329 
   -8325    -8322    -8318    -8316    -8318    -8321    -8316    -8314 
   -8318    -8317    -8314    -8313    -8317    -8320    -8316    -8316 
   -8321    -8317    -8316    -8320    -8321    -8322    -8326    -8328 
   -8330    -8332    -8330    -8334    -8336    -8337    -8340    -8338 
   -8338    -8345    -8345    -8345    -8347    -8347    -8348    -8351 
   -8351    -8352    -8353    -8355    -8357    -8360    -8364    -8364 
   -8363    -8367    -8370    -8371    -8374    -8375    -8374    -8376 
   -8380    -8384    -8386    -8386    -8387    -8394    -8395    -8394 
   -8398    -8401    -8401    -8406    -8413    -8413    -8413    -8417 
   -8421    -8425    -8428    -8426    -8430    -8433    -8433    -8438 
   -8441    -8438    -8438    -8440    -8438    -8442    -8448    -8446 
   -8441    -8441    -8442    -8442    -8442    -8440    -8440    -8442 
   -8440    -8438    -8440    -8436    -8432    -8437    -8438    -8434 
   -8433    -8433    -8430    -8430    -8430    -8432    -8433    -8430 
   -8430    -8434    -8437    -8436    -8438    -8441    -8440    -8442 
   -8442    -8440    -8441    -8441    -8441    -8441    -8437    -8438 
   -8442    -8440    -8437    -8437    -8437    -8437    -8436    -8434 
   -8434    -8429    -8426    -8426    -8425    -8421    -8418    -8417 
   -8414    -8409    -8407    -8406    -8403    -8399    -8397    -8394 
   -8390    -8387    -8387    -8386    -8382    -8379    -8376    -8375 
   -8374    -8375    -8372    -8367    -8365    -8363    -8360    -8361 
   -8361    -8360    -8364    -8361    -8357    -8360    -8361    -8357 
   -8355    -8356    -8361    -8361    -8359    -8359    -8363    -8360 
   -8357    -8360    -8359    -8356    -8357    -8357    -8356    -8353 
   -8349    -8349    -8347    -8344    -8345    -8344    -8337    -8337 
   -8338    -8336    -8332    -8330    -8330    -8329    -8329    -8326 
   -8326    -8326    -8325    -8322    -8320    -8316    -8316    -8318 
   -8320    -8317    -8314    -8311    -8311    -8311    -8307    -8309 
   -8310    -8310    -8309    -8310    -8310    -8307    -8309    -8311 
   -8310    -8311    -8311    -8313    -8320    -8320    -8318    -8322 
   -8328    -8329    -8333    -8337    -8340    -8344    -8349    -8355 
   -8359    -8360    -8364    -8371    -8376    -8382    -8387    -8392 
   -8399    -8402    -8405    -8413    -8421    -8426    -8434    -8440 
   -8442    -8452    -8461    -8464    -8472    -8480    -8488    -8498 
   -8505    -8509    -8517    -8526    -8530    -8536    -8545    -8550 
   -8557    -8567    -8573    -8576    -8584    -8592    -8595    -8603 
   -8610    -8611    -8615    -8623    -8625    -8626    -8631    -8637 
   -8638    -8637    -8634    -8640    -8642    -8638    -8634    -8634 
   -8631    -8629    -8626    -8621    -8615    -8611    -8607    -8599 
   -8592    -8586    -8579    -8572    -8560    -8549    -8540    -8532 
   -8521    -8507    -8502    -8491    -8473    -8465    -8460    -8449 
   -8438    -8429    -8421    -8411    -8402    -8392    -8382    -8374 
   -8367    -8359    -8352    -8344    -8336    -8332    -8322    -8314 
   -8313    -8309    -8302    -8301    -8299    -8295    -8294    -8294 
   -8293    -8290    -8289    -8287    -8286    -8289    -8290    -8289 
   -8291    -8293    -8291    -8293    -8294    -8295    -8297    -8298 
   -8302    -8302    -8303    -8309    -8310    -8309    -8313    -8318 
   -8318    -8322    -8325    -8326    -8326    -8329    -8334    -8338 
   -8341    -8345    -8349    -8352    -8353    -8355    -8363    -8365 
   -8363    -8368    -8375    -8376    -8380    -8382    -8380    -8383 
   -8387    -8390    -8391    -8394    -8398    -8399    -8401    -8403 
   -8407    -8411    -8415    -8415    -8415    -8425    -8426    -8424 
   -8428    -8430    -8429    -8430    -8434    -8434    -8433    -8434 
   -8434    -8433    -8434    -8436    -8432    -8430    -8429    -8428 
   -8425    -8422    -8417    -8414    -8413    -8409    -8405    -8401 
   -8397    -8392    -8391    -8387    -8380    -8375    -8375    -8372 
   -8370    -8370    -8365    -8361    -8363    -8361    -8360    -8364 
   -8367    -8365    -8365    -8370    -8374    -8376    -8379    -8383 
   -8390    -8395    -8399    -8406    -8413    -8417    -8421    -8426 
   -8430    -8437    -8444    -8449    -8453    -8460    -8463    -8467 
   -8471    -8473    -8479    -8484    -8488    -8491    -8491    -8491 
   -8494    -8494    -8491    -8494    -8494    -8492    -8491    -8490 
   -8491    -8491    -8484    -8483    -8482    -8479    -8475    -8469 
   -8464    -8460    -8455    -8452    -8446    -8440    -8437    -8430 
   -8421    -8417    -8414    -8406    -8398    -8394    -8391    -8384 
   -8378    -8375    -8370    -8363    -8357    -8351    -8347    -8344 
   -8341    -8340    -8336    -8330    -8328    -8325    -8320    -8318 
   -8318    -8314    -8314    -8311    -8306    -8306    -8305    -8302 
   -8303    -8299    -8294    -8294    -8294    -8290    -8291    -8289 
   -8284    -8282    -8279    -8275    -8275    -8272    -8270    -8270 
   -8271    -8266    -8263    -8266    -8263    -8260    -8262    -8259 
   -8256    -8256    -8252    -8249    -8252    -8251    -8245    -8245 
   -8244    -8241    -8241    -8243    -8241    -8240    -8240    -8237 
   -8235    -8240    -8243    -8237    -8235    -8237    -8239    -8236 
   -8239    -8240    -8240    -8243    -8244    -8241    -8244    -8249 
   -8253    -8255    -8255    -8257    -8262    -8266    -8270    -8270 
   -8272    -8279    -8279    -8279    -8286    -8290    -8291    -8291 
   -8293    -8295    -8298    -8297    -8295    -8298    -8298    -8298 
   -8299    -8301    -8301    -8301    -8298    -8298    -8299    -8295 
   -8290    -8293    -8295    -8293    -8290    -8293    -8294    -8291 
   -8290    -8293    -8297    -8297    -8297    -8301    -8305    -8303 
   -8303    -8310    -8317    -8318    -8322    -8326    -8329    -8330 
   -8337    -8341    -8344    -8348    -8353    -8356    -8361    -8365 
   -8368    -8371    -8375    -8380    -8384    -8386    -8387    -8390 
   -8395    -8398    -8398    -8397    -8399    -8402    -8406    -8407 
   -8405    -8407    -8411    -8405    -8403    -8411    -8411    -8407 
   -8407    -8407    -8407    -8406    -8405    -8405    -8401    -8399 
   -8398    -8398    -8397    -8391    -8387    -8390    -8388    -8383 
   -8382    -8380    -8375    -8374    -8372    -8367    -8365    -8365 
   -8363    -8364    -8363    -8356    -8352    -8352    -8352    -8347 
   -8343    -8344    -8341    -8337    -8334    -8333    -8330    -8328 
   -8326    -8326    -8324    -8322    -8322    -8320    -8317    -8320 
   -8320    -8316    -8314    -8310    -8307    -8307    -8303    -8301 
   -8303    -8303    -8299    -8299    -8299    -8295    -8294    -8294 
   -8290    -8289    -8289    -8284    -8282    -8279    -8278    -8278 
   -8276    -8271    -8271    -8272    -8270    -8267    -8267    -8267 
   -8267    -8266    -8262    -8260    -8263    -8263    -8263    -8266 
   -8263    -8259    -8264    -8267    -8264    -8264    -8262    -8260 
   -8267    -8275    -8275    -8274    -8275    -8280    -8282    -8279 
   -8282    -8287    -8289    -8291    -8295    -8294    -8295    -8299 
   -8302    -8302    -8302    -8309    -8314    -8314    -8318    -8322 
   -8324    -8325    -8329    -8330    -8333    -8336    -8334    -8334 
   -8341    -8343    -8344    -8348    -8348    -8348    -8352    -8352 
   -8349    -8349    -8355    -8356    -8353    -8355    -8357    -8356 
   -8357    -8360    -8363    -8364    -8363    -8361    -8361    -8361 
   -8368    -8372    -8370    -8370    -8368    -8370    -8375    -8372 
   -8371    -8375    -8375    -8374    -8374    -8374    -8375    -8374 
   -8374    -8375    -8374    -8372    -8371    -8370    -8371    -8368 
   -8364    -8368    -8367    -8359    -8357    -8360    -8363    -8360 
   -8356    -8360    -8359    -8352    -8353    -8355    -8352    -8351 
   -8352    -8355    -8353    -8351    -8352    -8355    -8356    -8356 
   -8356    -8355    -8355    -8360    -8360    -8357    -8359    -8360 
   -8359    -8357    -8353    -8352    -8351    -8351    -8349    -8347 
   -8348    -8347    -8341    -8337    -8334    -8332    -8330    -8330 
   -8329    -8326    -8322    -8321    -8318    -8320    -8321    -8316 
   -8314    -8316    -8313    -8313    -8313    -8310    -8311    -8313 
   -8313    -8316    -8317    -8314    -8314    -8314    -8316    -8318 
   -8321    -8322    -8322    -8324    -8328    -8332    -8333    -8333 
