Origin Time       2025/01/13 21:19:00
Lat.              31.8
Long.             131.6
Depth. (km)       30
Mag.              6.9
Station Code      KYTH04
Station Lat.      35.2685
Station Long.     135.5508
Station Height(m) 190
Record Time       2025/01/13 21:22:25
Sampling Freq(Hz) 100Hz
Duration Time(s)  120
Dir.              4
Scale Factor      7845(gal)/8223790
Max. Acc. (gal)   0.203
Last Correction   2025/01/13 21:22:27
Memo.             
    -194     -193     -199     -205     -207     -210     -207     -203 
    -202     -201     -203     -211     -214     -207     -205     -206 
    -203     -202     -205     -203     -198     -195     -194     -197 
    -197     -191     -189     -191     -193     -187     -182     -182 
    -182     -179     -178     -178     -175     -171     -168     -163 
    -162     -159     -151     -144     -141     -135     -130     -124 
    -114     -106     -101      -95      -89      -83      -76      -71 
     -67      -63      -64      -68      -64      -58      -55      -54 
     -60      -71      -74      -72      -71      -68      -72      -85 
     -95      -99      -97      -94      -97     -103     -112     -118 
    -126     -126     -126     -133     -136     -140     -145     -148 
    -152     -153     -153     -151     -151     -156     -162     -163 
    -164     -163     -160     -162     -166     -170     -168     -166 
    -162     -159     -160     -159     -156     -160     -160     -157 
    -157     -157     -157     -157     -156     -156     -157     -159 
    -157     -157     -157     -156     -157     -159     -162     -164 
    -163     -163     -166     -168     -174     -180     -184     -190 
    -193     -195     -201     -209     -218     -225     -229     -240 
    -247     -247     -251     -256     -261     -265     -268     -271 
    -272     -268     -270     -275     -276     -274     -265     -256 
    -257     -263     -263     -261     -259     -253     -249     -248 
    -249     -255     -259     -256     -255     -260     -264     -261 
    -264     -270     -265     -260     -259     -259     -261     -263 
    -256     -248     -247     -245     -241     -238     -234     -229 
    -225     -221     -216     -210     -205     -194     -184     -182 
    -176     -170     -162     -152     -145     -140     -133     -129 
    -124     -117     -112     -108     -106     -106     -106     -106 
    -105     -105     -103     -101     -102     -108     -109     -109 
    -109     -106     -105     -106     -108     -109     -109     -106 
    -112     -122     -121     -121     -126     -133     -141     -149 
    -152     -155     -155     -153     -157     -168     -176     -180 
    -180     -182     -184     -184     -190     -201     -207     -210 
    -209     -206     -209     -218     -228     -230     -224     -220 
    -222     -226     -228     -229     -226     -222     -222     -225 
    -228     -226     -222     -222     -222     -221     -221     -225 
    -228     -225     -217     -213     -211     -210     -210     -213 
    -209     -201     -197     -195     -195     -198     -199     -198 
    -197     -195     -193     -194     -198     -201     -205     -206 
    -202     -203     -207     -211     -218     -225     -228     -228 
    -230     -234     -240     -245     -252     -259     -267     -272 
    -275     -282     -291     -295     -298     -305     -311     -313 
    -314     -315     -315     -318     -322     -322     -319     -315 
    -313     -310     -305     -299     -298     -298     -292     -284 
    -283     -282     -278     -275     -272     -268     -265     -259 
    -252     -247     -244     -238     -236     -236     -232     -226 
    -224     -220     -214     -209     -205     -202     -199     -193 
    -190     -195     -198     -194     -197     -202     -201     -199 
    -202     -206     -211     -218     -221     -220     -222     -228 
    -232     -237     -236     -232     -237     -241     -237     -238 
    -244     -240     -236     -241     -247     -247     -247     -241 
    -240     -244     -241     -236     -234     -232     -228     -226 
    -225     -221     -216     -209     -205     -202     -201     -198 
    -197     -195     -190     -184     -183     -180     -180     -182 
    -176     -170     -170     -170     -164     -163     -163     -160 
    -156     -153     -151     -147     -143     -143     -144     -141 
    -136     -133     -129     -128     -130     -136     -136     -129 
    -128     -132     -137     -136     -136     -135     -130     -130 
    -135     -135     -135     -137     -133     -129     -130     -129 
    -125     -125     -125     -125     -124     -122     -121     -120 
    -120     -120     -118     -117     -116     -117     -117     -117 
    -120     -118     -112     -112     -118     -120     -121     -121 
    -117     -117     -122     -126     -132     -143     -149     -149 
    -151     -157     -164     -171     -179     -182     -182     -186 
    -190     -191     -197     -203     -206     -207     -209     -211 
    -216     -217     -218     -221     -224     -224     -225     -225 
    -225     -233     -238     -237     -238     -241     -244     -248 
    -255     -257     -259     -259     -259     -265     -271     -272 
    -275     -276     -278     -282     -286     -287     -291     -295 
    -299     -302     -301     -298     -299     -301     -299     -297 
    -292     -288     -286     -280     -275     -275     -270     -261 
    -253     -247     -241     -237     -229     -222     -218     -213 
    -203     -195     -187     -183     -179     -172     -166     -157 
    -148     -144     -141     -137     -133     -132     -126     -122 
    -124     -125     -124     -124     -125     -125     -124     -121 
    -121     -121     -118     -120     -118     -114     -113     -113 
    -110     -113     -114     -109     -108     -108     -106     -108 
    -109     -110     -110     -109     -108     -106     -109     -109 
    -110     -116     -114     -113     -116     -116     -113     -110 
    -109     -112     -116     -116     -110     -110     -113     -116 
    -117     -121     -122     -120     -118     -124     -128     -130 
    -130     -130     -132     -135     -139     -143     -145     -148 
    -155     -157     -157     -163     -170     -172     -176     -180 
    -183     -184     -190     -195     -197     -198     -201     -201 
    -202     -209     -214     -217     -220     -224     -228     -228 
    -230     -237     -243     -247     -251     -251     -249     -253 
    -256     -259     -261     -264     -265     -268     -270     -275 
    -275     -276     -279     -280     -280     -282     -282     -283 
    -283     -283     -282     -282     -280     -279     -275     -272 
    -272     -274     -270     -265     -265     -261     -256     -255 
    -255     -252     -249     -245     -244     -243     -237     -234 
    -234     -232     -228     -224     -225     -228     -224     -222 
    -226     -226     -224     -229     -232     -232     -236     -240 
    -244     -245     -247     -248     -253     -261     -265     -264 
    -265     -267     -267     -271     -274     -272     -270     -267 
    -270     -275     -272     -268     -270     -272     -274     -274 
    -271     -270     -272     -274     -271     -271     -271     -270 
    -270     -268     -265     -263     -261     -259     -255     -253 
    -251     -248     -247     -241     -237     -236     -232     -225 
    -222     -218     -210     -206     -203     -197     -190     -179 
    -168     -163     -156     -147     -139     -132     -122     -110 
     -99      -91      -82      -74      -66      -56      -49      -43 
     -36      -32      -28      -20      -13       -9       -4        4 
      12       14       17       21       25       27       29       31 
      29       31       32       31       28       24       21       20 
      21       21       21       21       18       17       20       22 
      21       22       22       21       22       21       18       22 
      24       21       21       17       12        8        4        2 
       0       -2       -9      -20      -27      -31      -36      -40 
     -44      -52      -59      -66      -76      -82      -81      -79 
     -83      -89      -95     -103     -108     -114     -118     -121 
    -126     -135     -137     -141     -153     -164     -170     -172 
    -176     -183     -194     -202     -206     -210     -214     -217 
    -224     -229     -234     -240     -244     -248     -253     -253 
    -255     -260     -264     -267     -271     -276     -278     -280 
    -284     -287     -290     -294     -298     -301     -303     -305 
    -303     -303     -305     -305     -307     -313     -315     -314 
    -314     -317     -315     -314     -315     -315     -314     -315 
    -313     -307     -305     -302     -299     -294     -288     -286 
    -283     -276     -274     -274     -271     -265     -263     -261 
    -259     -255     -253     -255     -253     -251     -251     -247 
    -243     -241     -243     -244     -243     -241     -243     -241 
    -238     -240     -238     -237     -236     -234     -232     -226 
    -224     -224     -224     -220     -213     -209     -207     -206 
    -203     -201     -194     -189     -187     -183     -178     -174 
    -170     -164     -163     -159     -153     -149     -145     -143 
    -140     -139     -135     -129     -128     -125     -122     -122 
    -121     -117     -114     -110     -109     -108     -103     -101 
    -103     -105     -103     -105     -106     -106     -110     -114 
    -114     -114     -117     -120     -122     -125     -126     -130 
    -137     -141     -143     -148     -152     -156     -159     -162 
    -164     -167     -168     -171     -176     -179     -179     -179 
    -180     -183     -187     -187     -189     -191     -197     -202 
    -206     -207     -211     -217     -221     -228     -237     -241 
    -245     -256     -264     -267     -271     -279     -290     -297 
    -303     -311     -317     -321     -326     -333     -337     -341 
    -344     -346     -348     -348     -355     -359     -357     -356 
    -355     -355     -352     -351     -351     -351     -346     -341 
    -337     -330     -324     -317     -309     -299     -290     -279 
    -270     -264     -257     -247     -236     -228     -216     -206 
    -198     -189     -180     -174     -164     -155     -147     -139 
    -132     -129     -125     -116     -108     -105     -101      -98 
    -101      -98      -94      -94      -93      -90      -91      -91 
     -93      -97      -95      -97     -102     -105     -103     -108 
    -113     -117     -121     -125     -128     -132     -137     -144 
    -148     -151     -157     -164     -166     -168     -176     -184 
    -189     -193     -201     -207     -213     -217     -221     -225 
    -228     -233     -240     -243     -244     -249     -255     -257 
    -260     -264     -265     -268     -274     -275     -276     -280 
    -280     -280     -282     -282     -282     -279     -278     -276 
    -276     -275     -270     -267     -265     -261     -257     -255 
    -251     -248     -245     -238     -236     -233     -228     -225 
    -224     -218     -214     -209     -201     -195     -191     -186 
    -179     -172     -167     -164     -162     -157     -155     -152 
    -148     -145     -144     -140     -137     -133     -130     -130 
    -129     -126     -124     -121     -118     -117     -116     -116 
    -113     -112     -110     -108     -106     -108     -109     -109 
    -110     -110     -110     -113     -113     -112     -114     -117 
    -116     -116     -121     -124     -126     -130     -133     -135 
    -139     -143     -145     -153     -160     -162     -162     -164 
    -170     -175     -179     -184     -189     -191     -195     -201 
    -205     -207     -210     -213     -213     -216     -218     -218 
    -221     -224     -225     -226     -226     -226     -229     -232 
    -237     -241     -238     -237     -240     -240     -240     -241 
    -240     -238     -240     -238     -234     -236     -238     -236 
    -233     -234     -233     -228     -224     -218     -214     -214 
    -214     -207     -202     -201     -197     -193     -191     -190 
    -190     -190     -186     -183     -182     -179     -178     -178 
    -174     -171     -171     -170     -167     -167     -167     -166 
    -164     -163     -163     -162     -155     -153     -155     -153 
    -148     -148     -149     -147     -145     -145     -144     -140 
    -139     -137     -139     -140     -140     -136     -132     -135 
    -137     -135     -133     -135     -137     -136     -136     -139 
    -139     -140     -144     -144     -147     -151     -151     -151 
    -153     -153     -156     -157     -156     -156     -157     -157 
    -159     -162     -162     -160     -160     -162     -159     -156 
    -159     -157     -153     -153     -155     -152     -151     -152 
    -152     -152     -153     -151     -148     -149     -152     -155 
    -156     -156     -155     -155     -156     -156     -159     -162 
    -160     -159     -159     -159     -162     -163     -162     -159 
    -156     -156     -157     -156     -152     -152     -153     -153 
    -153     -151     -149     -152     -156     -156     -153     -152 
    -155     -156     -156     -156     -156     -155     -155     -159 
    -166     -168     -167     -166     -167     -170     -172     -174 
    -174     -174     -176     -176     -175     -176     -176     -178 
    -180     -182     -180     -180     -182     -183     -182     -180 
    -182     -182     -182     -183     -182     -182     -182     -183 
    -189     -189     -186     -186     -186     -184     -184     -182 
    -182     -182     -179     -178     -175     -171     -167     -166 
    -164     -162     -159     -155     -152     -151     -149     -145 
    -145     -144     -137     -136     -136     -135     -132     -130 
    -130     -128     -128     -128     -126     -126     -129     -130 
    -132     -133     -132     -132     -135     -137     -137     -137 
    -141     -141     -141     -144     -143     -143     -147     -151 
    -153     -153     -155     -159     -164     -168     -170     -172 
    -178     -182     -184     -191     -198     -205     -209     -214 
    -222     -228     -232     -238     -243     -251     -257     -256 
    -259     -268     -274     -276     -282     -284     -284     -284 
    -287     -291     -292     -290     -291     -292     -291     -292 
    -291     -287     -284     -282     -279     -276     -270     -264 
    -259     -252     -245     -237     -230     -228     -220     -209 
    -205     -198     -191     -187     -180     -174     -168     -162 
    -157     -153     -145     -139     -135     -130     -128     -126 
    -125     -121     -118     -116     -113     -113     -112     -109 
    -110     -112     -110     -108     -106     -108     -110     -112 
    -108     -106     -108     -112     -112     -109     -110     -113 
    -112     -112     -116     -116     -113     -110     -113     -114 
    -114     -114     -114     -113     -114     -117     -117     -118 
    -117     -116     -116     -116     -112     -116     -120     -121 
    -121     -121     -117     -116     -117     -124     -126     -124 
    -122     -122     -122     -126     -129     -130     -128     -126 
    -128     -129     -132     -132     -130     -132     -130     -128 
    -129     -129     -125     -125     -125     -124     -120     -117 
    -116     -116     -113     -109     -103      -99      -97      -95 
     -93      -90      -86      -83      -79      -75      -72      -72 
     -70      -68      -67      -63      -63      -63      -60      -58 
     -56      -55      -54      -52      -49      -51      -52      -51 
     -51      -51      -52      -56      -62      -63      -66      -71 
     -74      -75      -79      -85      -87      -89      -86      -87 
     -93      -94      -97     -101     -102     -101     -102     -105 
    -109     -113     -117     -120     -122     -125     -130     -133 
    -136     -139     -144     -147     -148     -151     -155     -156 
    -160     -166     -168     -172     -175     -176     -179     -186 
    -190     -191     -194     -197     -199     -203     -203     -202 
    -205     -207     -207     -210     -210     -211     -213     -213 
    -213     -213     -211     -210     -213     -214     -211     -213 
    -217     -217     -216     -218     -218     -217     -220     -222 
    -222     -224     -228     -230     -233     -233     -234     -238 
    -241     -243     -245     -248     -251     -252     -255     -257 
    -257     -257     -257     -259     -260     -259     -257     -256 
    -255     -252     -251     -248     -244     -240     -238     -236 
    -234     -232     -226     -222     -221     -218     -216     -214 
    -210     -206     -203     -202     -198     -191     -187     -187 
    -186     -182     -178     -176     -176     -171     -167     -170 
    -172     -168     -168     -170     -168     -168     -168     -170 
    -171     -171     -171     -170     -170     -172     -174     -175 
    -176     -178     -176     -176     -178     -176     -174     -174 
    -175     -175     -172     -172     -171     -170     -170     -168 
    -164     -163     -160     -157     -157     -153     -149     -148 
    -147     -145     -147     -145     -144     -145     -148     -149 
    -149     -149     -153     -160     -162     -163     -166     -167 
    -168     -172     -175     -178     -179     -178     -179     -182 
    -182     -183     -184     -186     -184     -187     -190     -191 
    -191     -195     -199     -201     -201     -203     -209     -210 
    -209     -211     -213     -213     -213     -216     -217     -213 
    -211     -214     -216     -216     -214     -213     -210     -207 
    -209     -210     -205     -199     -198     -198     -194     -189 
    -186     -182     -179     -178     -172     -167     -163     -160 
    -159     -155     -149     -149     -147     -140     -139     -137 
    -132     -128     -128     -124     -121     -118     -114     -113 
    -114     -112     -108     -106     -106     -106     -108     -106 
    -105     -105     -105     -105     -109     -110     -109     -110 
    -112     -114     -117     -118     -120     -121     -124     -125 
    -128     -132     -133     -135     -136     -140     -144     -145 
    -149     -153     -157     -159     -159     -162     -164     -167 
    -171     -174     -175     -176     -178     -179     -182     -184 
    -184     -184     -183     -183     -184     -187     -189     -191 
    -191     -187     -184     -186     -189     -189     -187     -184 
    -183     -183     -182     -182     -182     -180     -179     -179 
    -178     -175     -175     -176     -175     -175     -176     -179 
    -178     -178     -180     -183     -184     -183     -183     -189 
    -193     -191     -194     -198     -199     -201     -203     -205 
    -205     -205     -206     -207     -209     -210     -209     -209 
    -210     -210     -210     -211     -211     -210     -210     -209 
    -210     -211     -211     -211     -211     -210     -209     -209 
    -209     -209     -209     -210     -207     -205     -205     -205 
    -203     -203     -203     -199     -201     -201     -195     -191 
    -194     -195     -194     -193     -194     -193     -193     -194 
