Origin Time       2025/01/13 21:19:00
Lat.              31.8
Long.             131.6
Depth. (km)       30
Mag.              6.9
Station Code      KYTH07
Station Lat.      34.8983
Station Long.     135.7461
Station Height(m) 11
Record Time       2025/01/13 21:22:26
Sampling Freq(Hz) 100Hz
Duration Time(s)  120
Dir.              4
Scale Factor      7845(gal)/8223790
Max. Acc. (gal)   1.198
Last Correction   2025/01/13 21:22:27
Memo.             
[...]
   -1814    -1838    -1829    -1810    -1807    -1831    -1868    -1890 
   -1891    -1903    -1938    -1968    -1980    -2008    -2046    -2052 
   -2033    -2027    -2049    -2101    -2150    -2166    -2172    -2191 
   -2228    -2272    -2309    -2335    -2343    -2342    -2346    -2358 
   -2386    -2432    -2473    -2488    -2494    -2525    -2573    -2604 
   -2608    -2601    -2601    -2627    -2668    -2691    -2687    -2681 
   -2687    -2713    -2749    -2774    -2774    -2749    -2713    -2689 
   -2690    -2705    -2721    -2737    -2740    -2724    -2705    -2681 
   -2643    -2606    -2578    -2566    -2579    -2594    -2578    -2532 
   -2488    -2454    -2419    -2408    -2438    -2459    -2444    -2409 
   -2349    -2268    -2207    -2187    -2184    -2180    -2166    -2135 
   -2081    -2008    -1944    -1898    -1871    -1854    -1823    -1769 
   -1714    -1648    -1572    -1522    -1498    -1485    -1482    -1468 
   -1428    -1370    -1313    -1271    -1258    -1269    -1287    -1305 
   -1329    -1335    -1296    -1254    -1248    -1260    -1278    -1305 
   -1328    -1339    -1344    -1350    -1362    -1372    -1386    -1417 
   -1460    -1487    -1491    -1493    -1502    -1521    -1559    -1603 
   -1640    -1647    -1618    -1588    -1587    -1599    -1603    -1617 
   -1655    -1702    -1729    -1725    -1706    -1698    -1696    -1694 
   -1717    -1759    -1769    -1752    -1759    -1794    -1800    -1791 
   -1807    -1840    -1867    -1894    -1903    -1881    -1853    -1849 
   -1869    -1904    -1944    -1988    -2025    -2035    -2019    -1998 
   -2004    -2046    -2084    -2103    -2112    -2116    -2106    -2089 
   -2092    -2126    -2174    -2211    -2222    -2204    -2168    -2139 
   -2153    -2193    -2224    -2246    -2277    -2293    -2265    -2223 
   -2197    -2182    -2182    -2209    -2215    -2165    -2128    -2166 
   -2238    -2268    -2239    -2182    -2133    -2111    -2131    -2181 
   -2211    -2191    -2150    -2133    -2164    -2212    -2224    -2212 
   -2189    -2116    -2031    -2030    -2120    -2209    -2222    -2191 
   -2176    -2170    -2174    -2200    -2201    -2166    -2133    -2119 
   -2145    -2172    -2191    -2236    -2261    -2242    -2243    -2249 
   -2227    -2214    -2226    -2230    -2204    -2209    -2285    -2361 
   -2363    -2340    -2350    -2374    -2373    -2343    -2316    -2323 
   -2339    -2357    -2388    -2405    -2393    -2382    -2400    -2428 
   -2442    -2434    -2390    -2331    -2312    -2343    -2367    -2377 
   -2388    -2373    -2350    -2366    -2380    -2355    -2351    -2370 
   -2358    -2335    -2342    -2353    -2347    -2343    -2358    -2385 
   -2400    -2388    -2351    -2322    -2335    -2396    -2471    -2505 
   -2473    -2415    -2373    -2358    -2366    -2384    -2400    -2401 
   -2381    -2365    -2365    -2371    -2378    -2377    -2359    -2361 
   -2404    -2446    -2434    -2378    -2353    -2377    -2404    -2430 
   -2462    -2478    -2459    -2425    -2403    -2384    -2350    -2323 
   -2316    -2300    -2274    -2268    -2270    -2249    -2184    -2145 
   -2185    -2236    -2235    -2216    -2195    -2161    -2150    -2177 
   -2214    -2224    -2227    -2246    -2255    -2235    -2208    -2199 
   -2199    -2191    -2184    -2182    -2164    -2114    -2047    -1999 
   -1985    -1995    -2003    -1998    -1977    -1939    -1911    -1915 
   -1917    -1883    -1852    -1842    -1842    -1840    -1815    -1750 
   -1655    -1576    -1567    -1602    -1628    -1621    -1567    -1486 
   -1429    -1424    -1460    -1485    -1467    -1433    -1402    -1391 
   -1420    -1467    -1483    -1463    -1451    -1474    -1503    -1529 
   -1534    -1506    -1472    -1463    -1463    -1464    -1476    -1487 
   -1470    -1418    -1364    -1347    -1383    -1445    -1491    -1503 
   -1491    -1476    -1478    -1499    -1521    -1545    -1583    -1611 
   -1610    -1594    -1590    -1597    -1606    -1615    -1611    -1607 
   -1615    -1630    -1630    -1615    -1614    -1626    -1636    -1649 
   -1660    -1656    -1657    -1668    -1669    -1691    -1734    -1760 
   -1755    -1742    -1750    -1769    -1779    -1776    -1776    -1784 
   -1800    -1814    -1827    -1846    -1852    -1842    -1848    -1871 
   -1891    -1908    -1944    -1973    -1984    -2019    -2069    -2084 
   -2085    -2100    -2115    -2153    -2211    -2246    -2257    -2258 
   -2263    -2277    -2297    -2332    -2371    -2382    -2376    -2376 
   -2388    -2408    -2436    -2465    -2477    -2481    -2490    -2509 
   -2531    -2539    -2531    -2538    -2567    -2579    -2570    -2578 
   -2604    -2606    -2590    -2575    -2566    -2565    -2583    -2609 
   -2621    -2617    -2604    -2593    -2592    -2582    -2558    -2555 
   -2575    -2574    -2559    -2547    -2524    -2490    -2475    -2482 
   -2492    -2489    -2490    -2508    -2512    -2486    -2466    -2466 
   -2466    -2448    -2440    -2455    -2438    -2373    -2323    -2311 
   -2307    -2305    -2312    -2305    -2257    -2192    -2157    -2149 
   -2124    -2081    -2070    -2106    -2116    -2081    -2060    -2049 
   -2023    -2016    -2038    -2061    -2079    -2084    -2060    -2014 
   -1985    -1998    -2026    -2042    -2045    -2026    -1971    -1906 
   -1880    -1904    -1939    -1961    -1984    -1999    -1992    -1985 
   -1984    -1969    -1953    -1968    -2022    -2065    -2062    -2039 
   -2014    -1980    -1981    -2034    -2088    -2104    -2101    -2106 
   -2107    -2095    -2093    -2112    -2131    -2153    -2177    -2199 
   -2207    -2185    -2160    -2160    -2185    -2235    -2286    -2304 
   -2303    -2311    -2320    -2319    -2304    -2300    -2327    -2361 
   -2369    -2355    -2336    -2326    -2328    -2347    -2397    -2454 
   -2465    -2448    -2443    -2431    -2430    -2475    -2550    -2602 
   -2594    -2547    -2519    -2516    -2501    -2481    -2489    -2505 
   -2500    -2482    -2461    -2423    -2384    -2365    -2355    -2350 
   -2344    -2327    -2296    -2274    -2257    -2249    -2245    -2228 
   -2212    -2201    -2184    -2154    -2118    -2077    -2047    -2034 
   -2026    -2006    -1965    -1923    -1894    -1868    -1831    -1787 
   -1756    -1734    -1706    -1671    -1621    -1551    -1482    -1441 
   -1431    -1429    -1431    -1420    -1372    -1306    -1251    -1220 
   -1210    -1209    -1198    -1181    -1165    -1144    -1112    -1075 
   -1059    -1077    -1105    -1116    -1112    -1094    -1069    -1058 
   -1063    -1071    -1073    -1066    -1066    -1078    -1097    -1139 
   -1192    -1204    -1185    -1177    -1188    -1232    -1305    -1363 
   -1391    -1412    -1433    -1451    -1466    -1499    -1545    -1567 
   -1568    -1588    -1633    -1684    -1721    -1736    -1737    -1746 
   -1784    -1846    -1902    -1933    -1948    -1961    -1979    -1999 
   -2022    -2050    -2084    -2119    -2145    -2164    -2180    -2195 
   -2223    -2269    -2311    -2350    -2403    -2446    -2455    -2458 
   -2496    -2554    -2602    -2662    -2727    -2770    -2798    -2824 
   -2848    -2891    -2968    -3033    -3056    -3083    -3110    -3111 
   -3122    -3150    -3159    -3171    -3215    -3264    -3281    -3265 
   -3238    -3210    -3183    -3173    -3195    -3218    -3199    -3146 
   -3082    -3022    -2984    -2963    -2957    -2964    -2951    -2909 
   -2848    -2782    -2744    -2727    -2706    -2698    -2693    -2654 
   -2585    -2524    -2484    -2454    -2432    -2413    -2390    -2370 
   -2349    -2305    -2249    -2209    -2178    -2153    -2153    -2169 
   -2168    -2133    -2080    -2019    -1980    -1983    -2006    -2012 
   -2002    -1965    -1906    -1849    -1815    -1813    -1841    -1871 
   -1869    -1841    -1798    -1753    -1725    -1718    -1721    -1737 
   -1769    -1780    -1746    -1706    -1682    -1664    -1671    -1711 
   -1759    -1790    -1799    -1790    -1779    -1771    -1765    -1784 
   -1829    -1860    -1872    -1871    -1850    -1811    -1776    -1773 
   -1800    -1830    -1849    -1848    -1818    -1784    -1775    -1775 
   -1780    -1804    -1831    -1841    -1836    -1817    -1786    -1765 
   -1776    -1811    -1849    -1871    -1867    -1845    -1811    -1768 
   -1755    -1790    -1837    -1869    -1884    -1877    -1852    -1840 
   -1856    -1884    -1917    -1954    -1973    -1973    -1980    -1995 
   -1995    -1992    -2007    -2039    -2080    -2108    -2116    -2112 
   -2103    -2106    -2135    -2170    -2189    -2191    -2189    -2189 
   -2181    -2174    -2174    -2188    -2223    -2247    -2232    -2215 
   -2215    -2212    -2209    -2226    -2262    -2296    -2309    -2299 
   -2282    -2286    -2319    -2336    -2323    -2307    -2299    -2292 
   -2296    -2315    -2334    -2342    -2324    -2290    -2273    -2301 
   -2346    -2343    -2316    -2309    -2308    -2308    -2316    -2316 
   -2309    -2304    -2297    -2292    -2296    -2323    -2353    -2350 
   -2331    -2320    -2313    -2316    -2324    -2322    -2309    -2296 
   -2286    -2299    -2322    -2331    -2326    -2309    -2285    -2272 
   -2273    -2274    -2273    -2274    -2263    -2243    -2228    -2219 
   -2208    -2196    -2173    -2151    -2147    -2150    -2143    -2118 
   -2076    -2030    -1984    -1941    -1930    -1952    -1952    -1919 
   -1890    -1849    -1790    -1752    -1746    -1742    -1740    -1738 
   -1723    -1686    -1651    -1637    -1630    -1630    -1641    -1649 
   -1668    -1688    -1684    -1683    -1702    -1725    -1749    -1776 
   -1795    -1800    -1803    -1810    -1810    -1810    -1840    -1887 
   -1914    -1923    -1929    -1925    -1929    -1962    -2010    -2053 
   -2095    -2119    -2118    -2126    -2147    -2160    -2182    -2238 
   -2288    -2312    -2339    -2362    -2354    -2330    -2320    -2350 
   -2401    -2442    -2454    -2435    -2401    -2366    -2342    -2354 
   -2384    -2392    -2389    -2380    -2349    -2307    -2272    -2242 
   -2215    -2205    -2207    -2188    -2143    -2087    -2019    -1960 
   -1938    -1941    -1949    -1954    -1944    -1907    -1856    -1817 
   -1800    -1795    -1798    -1800    -1779    -1737    -1699    -1671 
   -1648    -1645    -1665    -1691    -1706    -1701    -1664    -1620 
   -1597    -1594    -1599    -1611    -1611    -1594    -1570    -1537 
   -1497    -1478    -1486    -1499    -1517    -1551    -1570    -1566 
   -1571    -1576    -1572    -1590    -1634    -1665    -1683    -1695 
   -1692    -1687    -1696    -1721    -1752    -1786    -1819    -1846 
   -1861    -1861    -1867    -1888    -1917    -1948    -1984    -2016 
   -2049    -2085    -2112    -2128    -2143    -2168    -2205    -2258 
   -2303    -2334    -2359    -2378    -2382    -2397    -2434    -2465 
   -2485    -2502    -2519    -2548    -2593    -2625    -2637    -2652 
   -2671    -2700    -2739    -2776    -2798    -2803    -2802    -2801 
   -2805    -2817    -2830    -2844    -2863    -2884    -2886    -2862 
   -2824    -2794    -2785    -2798    -2824    -2836    -2822    -2795 
   -2763    -2740    -2740    -2749    -2756    -2762    -2770    -2776 
   -2793    -2813    -2803    -2779    -2779    -2790    -2803    -2813 
   -2791    -2740    -2694    -2671    -2655    -2646    -2651    -2654 
   -2627    -2575    -2523    -2479    -2458    -2457    -2446    -2416 
   -2384    -2340    -2284    -2226    -2184    -2164    -2154    -2142 
   -2126    -2088    -2023    -1957    -1910    -1896    -1900    -1887 
   -1863    -1833    -1787    -1738    -1715    -1711    -1707    -1707 
   -1713    -1711    -1703    -1686    -1655    -1637    -1652    -1683 
   -1705    -1721    -1741    -1742    -1718    -1711    -1733    -1748 
   -1756    -1783    -1807    -1807    -1804    -1809    -1819    -1837 
   -1860    -1895    -1953    -2000    -2025    -2035    -2031    -2025 
   -2043    -2085    -2134    -2180    -2222    -2245    -2243    -2247 
   -2268    -2299    -2355    -2417    -2454    -2470    -2477    -2478 
   -2484    -2501    -2521    -2531    -2535    -2546    -2551    -2516 
   -2461    -2423    -2408    -2389    -2367    -2369    -2366    -2324 
   -2269    -2219    -2160    -2114    -2097    -2088    -2072    -2049 
   -2010    -1941    -1857    -1796    -1760    -1734    -1728    -1733 
   -1717    -1664    -1586    -1514    -1471    -1453    -1459    -1474 
   -1459    -1406    -1356    -1327    -1294    -1266    -1251    -1242 
   -1233    -1220    -1190    -1159    -1142    -1135    -1134    -1124 
   -1100    -1082    -1078    -1084    -1105    -1121    -1101    -1066 
   -1054    -1055    -1050    -1032    -1009    -1001    -1017    -1040 
   -1050    -1030     -989     -961     -959     -973     -988    -1007 
   -1030    -1039    -1040    -1059    -1086    -1100    -1111    -1129 
   -1161    -1209    -1273    -1332    -1372    -1391    -1420    -1476 
   -1548    -1613    -1668    -1721    -1768    -1809    -1860    -1908 
   -1939    -1976    -2026    -2066    -2108    -2158    -2201    -2231 
   -2261    -2300    -2342    -2388    -2447    -2494    -2524    -2559 
   -2594    -2617    -2639    -2664    -2690    -2709    -2731    -2766 
   -2794    -2802    -2805    -2813    -2826    -2849    -2876    -2891 
   -2891    -2889    -2902    -2933    -2968    -2997    -3029    -3069 
   -3107    -3118    -3114    -3113    -3115    -3140    -3183    -3211 
   -3227    -3242    -3242    -3235    -3249    -3277    -3298    -3312 
   -3331    -3341    -3329    -3316    -3304    -3279    -3258    -3262 
   -3277    -3287    -3283    -3253    -3200    -3149    -3111    -3088 
   -3083    -3084    -3072    -3033    -2975    -2922    -2875    -2835 
   -2803    -2774    -2736    -2701    -2662    -2594    -2508    -2439 
   -2398    -2381    -2365    -2335    -2297    -2250    -2177    -2110 
   -2070    -2042    -2023    -2011    -1977    -1931    -1896    -1848 
   -1783    -1740    -1741    -1761    -1764    -1741    -1710    -1680 
   -1640    -1597    -1598    -1634    -1649    -1636    -1617    -1607 
   -1610    -1609    -1601    -1611    -1648    -1686    -1714    -1729 
   -1718    -1706    -1726    -1760    -1763    -1746    -1761    -1809 
   -1854    -1860    -1834    -1834    -1867    -1884    -1895    -1922 
   -1937    -1934    -1923    -1890    -1868    -1898    -1949    -1977 
   -1985    -1998    -1999    -1976    -1953    -1948    -1981    -2056 
   -2122    -2124    -2069    -2002    -1981    -2018    -2054    -2062 
   -2065    -2060    -2015    -1961    -1961    -1996    -2008    -2015 
   -2026    -2007    -1980    -1962    -1927    -1899    -1915    -1937 
   -1927    -1911    -1904    -1896    -1891    -1902    -1922    -1921 
   -1904    -1903    -1912    -1911    -1899    -1887    -1883    -1876 
   -1875    -1894    -1923    -1937    -1912    -1864    -1830    -1838 
   -1879    -1922    -1944    -1933    -1911    -1895    -1884    -1875 
   -1880    -1899    -1923    -1944    -1953    -1935    -1908    -1899 
   -1904    -1910    -1912    -1902    -1879    -1852    -1829    -1807 
   -1787    -1769    -1772    -1777    -1742    -1696    -1683    -1686 
   -1682    -1687    -1705    -1710    -1683    -1651    -1640    -1640 
   -1648    -1675    -1711    -1726    -1721    -1728    -1741    -1730 
   -1728    -1760    -1791    -1809    -1836    -1869    -1873    -1841 
   -1829    -1868    -1915    -1944    -1976    -1998    -1991    -1985 
   -2007    -2030    -2043    -2049    -2038    -2030    -2033    -2037 
   -2052    -2070    -2068    -2043    -2046    -2083    -2106    -2107 
   -2114    -2122    -2123    -2127    -2137    -2139    -2138    -2139 
   -2162    -2200    -2220    -2209    -2201    -2219    -2234    -2227 
   -2239    -2281    -2300    -2292    -2297    -2311    -2324    -2347 
   -2358    -2355    -2362    -2373    -2386    -2398    -2396    -2374 
   -2346    -2326    -2331    -2346    -2351    -2342    -2323    -2305 
   -2285    -2249    -2218    -2219    -2236    -2234    -2220    -2220 
   -2227    -2212    -2177    -2157    -2160    -2173    -2195    -2216 
   -2215    -2192    -2155    -2120    -2106    -2126    -2153    -2147 
   -2126    -2111    -2101    -2096    -2084    -2064    -2061    -2074 
   -2089    -2099    -2089    -2058    -2038    -2049    -2066    -2069 
   -2089    -2116    -2104    -2070    -2065    -2074    -2088    -2116 
   -2139    -2157    -2176    -2174    -2145    -2108    -2087    -2103 
   -2153    -2208    -2236    -2222    -2195    -2189    -2187    -2176 
   -2197    -2249    -2290    -2305    -2293    -2270    -2261    -2274 
   -2301    -2332    -2366    -2393    -2403    -2404    -2411    -2427 
   -2457    -2494    -2516    -2516    -2516    -2519    -2505    -2479 
   -2469    -2485    -2520    -2550    -2555    -2532    -2502    -2481 
   -2471    -2471    -2485    -2519    -2550    -2546    -2511    -2466 
   -2434    -2423    -2421    -2427    -2438    -2438    -2425    -2405 
   -2374    -2350    -2350    -2362    -2373    -2390    -2401    -2381 
   -2328    -2282    -2265    -2284    -2330    -2351    -2332    -2312 
   -2284    -2230    -2187    -2188    -2215    -2236    -2253    -2250 
   -2185    -2092    -2042    -2015    -1993    -2007    -2030    -2019 
   -1984    -1941    -1895    -1861    -1845    -1837    -1829    -1821 
   -1817    -1821    -1792    -1715    -1655    -1642    -1644    -1651 
   -1657    -1637    -1598    -1572    -1567    -1584    -1621    -1651 
   -1652    -1628    -1603    -1598    -1606    -1613    -1630    -1668 
   -1692    -1687    -1680    -1692    -1713    -1738    -1780    -1829 
   -1872    -1911    -1934    -1941    -1957    -1973    -1993    -2045 
   -2122    -2178    -2174    -2130    -2112    -2131    -2173    -2241 
   -2296    -2297    -2247    -2176    -2160    -2231    -2292    -2286 
   -2254    -2200    -2145    -2147    -2197    -2241    -2249    -2188 
   -2096    -2064    -2099    -2147    -2164    -2120    -2020    -1941 
   -1935    -1976    -2026    -2061    -2030    -1938    -1863    -1841 
   -1877    -1945    -1961    -1908    -1865    -1853    -1857    -1869 
   -1871    -1871    -1881    -1863    -1826    -1829    -1849    -1861 
   -1877    -1852    -1776    -1728    -1722    -1730    -1753    -1775 
   -1773    -1750    -1722    -1707    -1696    -1683    -1687    -1709 
   -1742    -1792    -1830    -1819    -1768    -1725    -1728    -1782 
   -1849    -1876    -1858    -1830    -1818    -1836    -1872    -1898 
   -1900    -1902    -1915    -1925    -1925    -1927    -1926    -1914 
   -1915    -1941    -1980    -2025    -2056    -2041    -1987    -1927 
   -1887    -1894    -1962    -2054    -2097    -2052    -1949    -1860 
   -1838    -1894    -1987    -2054    -2066    -2033    -1976    -1935 
   -1942    -1976    -1988    -1979    -1972    -1977    -1991    -2006 
   -2012    -2003    -1975    -1937    -1926    -1948    -1968    -1968 
   -1950    -1902    -1830    -1800    -1838    -1899    -1934    -1926 
   -1876    -1814    -1788    -1804    -1846    -1890    -1903    -1881 
   -1846    -1823    -1823    -1831    -1841    -1857    -1860    -1836 
   -1806    -1771    -1732    -1723    -1765    -1815    -1834    -1822 
   -1795    -1777    -1790    -1826    -1869    -1912    -1935    -1937 
   -1957    -1996    -2003    -1984    -1991    -2022    -2060    -2123 
