Origin Time       2025/01/13 21:19:00
Lat.              31.8
Long.             131.6
Depth. (km)       30
Mag.              6.9
Station Code      KYTH03
Station Lat.      35.3130
Station Long.     135.1334
Station Height(m) 40
Record Time       2025/01/13 21:21:59
Sampling Freq(Hz) 100Hz
Duration Time(s)  120
Dir.              4
Scale Factor      7845(gal)/8223790
Max. Acc. (gal)   0.241
Last Correction   2025/01/13 21:22:00
Memo.             
[...]
   -2579    -2581    -2579    -2573    -2567    -2567    -2566    -2566 
   -2565    -2562    -2562    -2563    -2565    -2566    -2570    -2578 
   -2582    -2586    -2592    -2596    -2597    -2598    -2598    -2593 
   -2585    -2578    -2571    -2566    -2566    -2563    -2565    -2570 
   -2573    -2574    -2579    -2581    -2578    -2575    -2577    -2575 
   -2573    -2574    -2571    -2567    -2570    -2573    -2573    -2575 
   -2577    -2574    -2567    -2565    -2563    -2562    -2558    -2551 
   -2546    -2544    -2543    -2546    -2552    -2562    -2567    -2569 
   -2571    -2570    -2565    -2559    -2551    -2539    -2529    -2524 
   -2517    -2512    -2513    -2519    -2521    -2524    -2529    -2531 
   -2528    -2531    -2535    -2536    -2540    -2543    -2544    -2547 
   -2551    -2551    -2554    -2558    -2559    -2559    -2560    -2565 
   -2570    -2574    -2577    -2575    -2577    -2585    -2592    -2593 
   -2593    -2597    -2600    -2597    -2596    -2596    -2593    -2592 
   -2592    -2589    -2587    -2587    -2585    -2585    -2593    -2597 
   -2594    -2597    -2601    -2602    -2604    -2608    -2608    -2601 
   -2598    -2598    -2596    -2597    -2600    -2601    -2604    -2605 
   -2605    -2602    -2600    -2598    -2597    -2594    -2596    -2596 
   -2589    -2586    -2589    -2590    -2590    -2592    -2590    -2582 
   -2575    -2570    -2563    -2558    -2555    -2550    -2540    -2535 
   -2532    -2527    -2523    -2527    -2528    -2529    -2532    -2532 
   -2531    -2529    -2528    -2523    -2517    -2515    -2512    -2511 
   -2517    -2527    -2535    -2547    -2558    -2565    -2571    -2575 
   -2578    -2579    -2578    -2575    -2573    -2570    -2569    -2566 
   -2565    -2566    -2566    -2565    -2562    -2562    -2559    -2556 
   -2560    -2566    -2569    -2573    -2575    -2571    -2570    -2573 
   -2573    -2573    -2574    -2575    -2577    -2573    -2569    -2565 
   -2560    -2558    -2555    -2556    -2560    -2565    -2571    -2579 
   -2587    -2594    -2601    -2609    -2616    -2617    -2616    -2614 
   -2610    -2610    -2613    -2616    -2620    -2621    -2623    -2628 
   -2632    -2636    -2635    -2635    -2635    -2633    -2627    -2624 
   -2625    -2621    -2620    -2623    -2620    -2620    -2621    -2619 
   -2617    -2617    -2614    -2609    -2604    -2598    -2590    -2583 
   -2579    -2575    -2570    -2567    -2571    -2574    -2573    -2574 
   -2577    -2578    -2575    -2570    -2566    -2563    -2562    -2559 
   -2558    -2559    -2558    -2558    -2560    -2559    -2559    -2563 
   -2563    -2563    -2566    -2566    -2565    -2565    -2567    -2569 
   -2565    -2559    -2556    -2550    -2540    -2538    -2536    -2535 
   -2535    -2540    -2546    -2547    -2550    -2551    -2552    -2559 
   -2562    -2562    -2567    -2573    -2571    -2570    -2573    -2574 
   -2579    -2587    -2593    -2592    -2592    -2593    -2589    -2581 
   -2578    -2573    -2562    -2554    -2548    -2548    -2548    -2551 
   -2556    -2560    -2569    -2574    -2577    -2579    -2581    -2578 
   -2574    -2566    -2556    -2548    -2542    -2542    -2543    -2543 
   -2544    -2547    -2550    -2555    -2559    -2559    -2558    -2558 
   -2552    -2546    -2543    -2543    -2542    -2542    -2546    -2550 
   -2552    -2556    -2562    -2567    -2570    -2569    -2563    -2558 
   -2552    -2546    -2539    -2540    -2542    -2543    -2548    -2552 
   -2558    -2566    -2571    -2573    -2575    -2579    -2579    -2574 
   -2569    -2573    -2577    -2578    -2585    -2592    -2594    -2597 
   -2602    -2604    -2604    -2606    -2605    -2604    -2604    -2602 
   -2601    -2600    -2597    -2598    -2602    -2609    -2613    -2616 
   -2617    -2616    -2614    -2610    -2608    -2605    -2601    -2602 
   -2606    -2609    -2614    -2624    -2629    -2632    -2636    -2639 
   -2632    -2624    -2620    -2612    -2605    -2600    -2596    -2596 
   -2597    -2598    -2598    -2598    -2598    -2600    -2600    -2597 
   -2596    -2593    -2587    -2583    -2575    -2565    -2558    -2554 
   -2548    -2548    -2554    -2560    -2566    -2569    -2571    -2571 
   -2569    -2560    -2550    -2546    -2543    -2539    -2542    -2546 
   -2548    -2552    -2555    -2559    -2562    -2563    -2562    -2559 
   -2556    -2552    -2543    -2533    -2527    -2517    -2509    -2508 
   -2505    -2501    -2501    -2508    -2515    -2513    -2511    -2512 
   -2511    -2509    -2506    -2501    -2496    -2496    -2498    -2498 
   -2501    -2508    -2513    -2515    -2519    -2523    -2523    -2523 
   -2523    -2519    -2516    -2517    -2520    -2523    -2528    -2535 
   -2539    -2542    -2546    -2550    -2551    -2555    -2556    -2554 
   -2551    -2550    -2548    -2547    -2544    -2544    -2543    -2540 
   -2540    -2542    -2543    -2543    -2542    -2540    -2542    -2543 
   -2540    -2543    -2547    -2547    -2552    -2562    -2566    -2567 
   -2571    -2577    -2574    -2571    -2571    -2570    -2570    -2573 
   -2571    -2571    -2579    -2585    -2587    -2592    -2597    -2602 
   -2608    -2614    -2619    -2621    -2625    -2624    -2620    -2619 
   -2621    -2620    -2617    -2620    -2624    -2627    -2631    -2632 
   -2629    -2628    -2628    -2625    -2621    -2623    -2624    -2620 
   -2621    -2629    -2632    -2632    -2637    -2644    -2648    -2652 
   -2654    -2650    -2647    -2650    -2650    -2648    -2651    -2654 
   -2654    -2656    -2660    -2666    -2670    -2670    -2666    -2663 
   -2663    -2658    -2648    -2641    -2639    -2635    -2632    -2636 
   -2637    -2639    -2643    -2644    -2640    -2636    -2632    -2627 
   -2623    -2619    -2616    -2608    -2601    -2600    -2598    -2592 
   -2589    -2587    -2585    -2583    -2582    -2583    -2585    -2583 
   -2579    -2573    -2569    -2565    -2559    -2563    -2570    -2571 
   -2577    -2583    -2583    -2585    -2587    -2586    -2587    -2589 
   -2587    -2585    -2581    -2581    -2581    -2583    -2587    -2592 
   -2593    -2593    -2594    -2594    -2594    -2596    -2594    -2593 
   -2598    -2600    -2597    -2601    -2605    -2605    -2606    -2609 
   -2608    -2605    -2600    -2597    -2596    -2589    -2581    -2571 
   -2566    -2560    -2558    -2558    -2558    -2558    -2556    -2552 
   -2551    -2548    -2542    -2539    -2533    -2527    -2523    -2521 
   -2523    -2523    -2523    -2525    -2527    -2527    -2531    -2535 
   -2535    -2538    -2543    -2544    -2548    -2558    -2567    -2574 
   -2579    -2586    -2598    -2612    -2623    -2632    -2643    -2654 
   -2659    -2666    -2671    -2673    -2673    -2677    -2685    -2689 
   -2689    -2693    -2695    -2695    -2700    -2698    -2694    -2694 
   -2690    -2681    -2674    -2670    -2663    -2659    -2658    -2656 
   -2655    -2654    -2652    -2654    -2654    -2652    -2652    -2648 
   -2644    -2644    -2641    -2640    -2639    -2633    -2629    -2631 
   -2631    -2625    -2621    -2619    -2612    -2602    -2596    -2589 
   -2581    -2574    -2567    -2558    -2550    -2544    -2538    -2529 
   -2524    -2517    -2506    -2497    -2489    -2482    -2479    -2479 
   -2479    -2477    -2474    -2471    -2466    -2465    -2465    -2462 
   -2462    -2459    -2457    -2458    -2463    -2469    -2477    -2485 
   -2497    -2505    -2508    -2511    -2513    -2512    -2513    -2516 
   -2515    -2517    -2524    -2531    -2536    -2544    -2551    -2552 
   -2556    -2562    -2565    -2569    -2574    -2579    -2581    -2579 
   -2575    -2577    -2581    -2582    -2583    -2583    -2585    -2590 
   -2592    -2593    -2598    -2604    -2606    -2613    -2620    -2625 
   -2633    -2643    -2650    -2655    -2662    -2668    -2670    -2673 
   -2673    -2670    -2667    -2663    -2660    -2662    -2662    -2666 
   -2666    -2663    -2663    -2663    -2662    -2664    -2664    -2659 
   -2656    -2654    -2647    -2639    -2633    -2628    -2621    -2617 
   -2614    -2610    -2608    -2605    -2602    -2600    -2597    -2593 
   -2589    -2586    -2581    -2571    -2563    -2559    -2550    -2540 
   -2539    -2532    -2525    -2525    -2523    -2515    -2511    -2511 
   -2511    -2509    -2504    -2498    -2496    -2494    -2493    -2496 
   -2500    -2504    -2508    -2513    -2521    -2529    -2538    -2548 
   -2558    -2565    -2567    -2571    -2577    -2582    -2583    -2587 
   -2592    -2593    -2596    -2602    -2608    -2614    -2619    -2619 
   -2620    -2623    -2623    -2623    -2624    -2623    -2620    -2624 
   -2627    -2628    -2631    -2632    -2633    -2633    -2629    -2625 
   -2623    -2621    -2619    -2613    -2612    -2613    -2610    -2610 
   -2613    -2614    -2616    -2617    -2617    -2619    -2623    -2624 
   -2621    -2614    -2610    -2605    -2593    -2585    -2581    -2575 
   -2566    -2559    -2552    -2546    -2540    -2538    -2536    -2535 
   -2533    -2532    -2535    -2540    -2540    -2542    -2547    -2552 
   -2558    -2559    -2562    -2567    -2570    -2567    -2567    -2571 
   -2571    -2573    -2574    -2571    -2569    -2570    -2573    -2574 
   -2574    -2570    -2565    -2563    -2566    -2563    -2558    -2555 
   -2551    -2544    -2540    -2539    -2535    -2525    -2519    -2511 
   -2504    -2502    -2496    -2490    -2485    -2479    -2478    -2479 
   -2475    -2475    -2477    -2478    -2479    -2482    -2481    -2479 
   -2482    -2485    -2488    -2489    -2492    -2497    -2504    -2513 
   -2525    -2536    -2548    -2562    -2577    -2589    -2601    -2612 
   -2619    -2623    -2628    -2635    -2639    -2643    -2650    -2658 
   -2660    -2662    -2663    -2664    -2664    -2663    -2659    -2654 
   -2648    -2639    -2627    -2616    -2612    -2606    -2600    -2598 
   -2601    -2601    -2605    -2609    -2610    -2612    -2619    -2628 
   -2633    -2637    -2640    -2641    -2647    -2654    -2656    -2658 
   -2662    -2668    -2675    -2685    -2693    -2697    -2705    -2713 
   -2714    -2718    -2724    -2728    -2727    -2728    -2732    -2735 
   -2739    -2741    -2737    -2733    -2736    -2732    -2722    -2717 
   -2714    -2706    -2701    -2701    -2695    -2689    -2685    -2682 
   -2675    -2668    -2664    -2663    -2659    -2655    -2651    -2647 
   -2637    -2631    -2627    -2619    -2613    -2610    -2602    -2598 
   -2601    -2601    -2597    -2593    -2583    -2574    -2566    -2555 
   -2543    -2536    -2532    -2525    -2517    -2513    -2511    -2504 
   -2497    -2492    -2484    -2474    -2471    -2473    -2469    -2465 
   -2463    -2462    -2459    -2458    -2455    -2448    -2442    -2446 
   -2446    -2442    -2442    -2440    -2434    -2430    -2428    -2423 
   -2420    -2421    -2419    -2412    -2411    -2413    -2415    -2419 
   -2421    -2419    -2415    -2415    -2412    -2407    -2407    -2405 
   -2403    -2405    -2411    -2413    -2417    -2423    -2424    -2428 
   -2436    -2444    -2451    -2462    -2474    -2486    -2501    -2516 
   -2525    -2535    -2547    -2559    -2571    -2585    -2597    -2606 
   -2616    -2624    -2631    -2639    -2647    -2656    -2662    -2664 
   -2670    -2673    -2674    -2679    -2682    -2679    -2681    -2682 
   -2681    -2681    -2681    -2678    -2677    -2677    -2678    -2682 
   -2683    -2678    -2673    -2670    -2670    -2674    -2678    -2681 
   -2682    -2686    -2686    -2681    -2678    -2675    -2673    -2673 
   -2670    -2662    -2655    -2651    -2641    -2631    -2624    -2620 
   -2616    -2610    -2608    -2606    -2606    -2610    -2612    -2608 
   -2608    -2606    -2601    -2596    -2594    -2593    -2593    -2592 
   -2598    -2610    -2619    -2621    -2627    -2637    -2646    -2652 
   -2662    -2668    -2668    -2670    -2673    -2673    -2670    -2666 
   -2659    -2654    -2650    -2648    -2648    -2647    -2643    -2635 
   -2624    -2619    -2613    -2606    -2602    -2597    -2589    -2583 
   -2581    -2577    -2574    -2573    -2571    -2565    -2558    -2554 
   -2550    -2548    -2551    -2550    -2543    -2542    -2546    -2547 
   -2551    -2556    -2556    -2555    -2556    -2560    -2566    -2570 
   -2571    -2569    -2567    -2573    -2577    -2573    -2567    -2566 
   -2565    -2560    -2556    -2558    -2567    -2577    -2582    -2592 
   -2606    -2616    -2628    -2641    -2648    -2648    -2651    -2654 
   -2655    -2656    -2663    -2662    -2659    -2666    -2675    -2679 
   -2683    -2685    -2685    -2683    -2681    -2681    -2679    -2678 
   -2675    -2671    -2668    -2663    -2655    -2650    -2644    -2636 
   -2625    -2614    -2602    -2592    -2579    -2569    -2559    -2551 
   -2543    -2538    -2533    -2532    -2532    -2531    -2529    -2533 
   -2536    -2538    -2542    -2547    -2551    -2551    -2548    -2548 
   -2551    -2552    -2550    -2551    -2550    -2544    -2543    -2543 
   -2540    -2539    -2540    -2539    -2536    -2532    -2532    -2531 
   -2525    -2521    -2520    -2519    -2515    -2509    -2505    -2505 
   -2506    -2508    -2512    -2511    -2506    -2506    -2508    -2508 
   -2513    -2524    -2532    -2540    -2555    -2571    -2583    -2596 
   -2612    -2627    -2637    -2650    -2667    -2683    -2698    -2714 
   -2728    -2740    -2755    -2764    -2772    -2786    -2791    -2790 
   -2793    -2799    -2803    -2805    -2813    -2818    -2818    -2826 
   -2835    -2835    -2837    -2837    -2832    -2829    -2829    -2821 
   -2812    -2808    -2802    -2797    -2793    -2790    -2787    -2785 
   -2782    -2779    -2772    -2766    -2762    -2755    -2744    -2737 
   -2728    -2713    -2702    -2693    -2681    -2668    -2658    -2647 
   -2633    -2623    -2612    -2600    -2589    -2577    -2565    -2556 
   -2552    -2546    -2539    -2533    -2528    -2523    -2519    -2512 
   -2504    -2498    -2494    -2489    -2482    -2481    -2481    -2479 
   -2482    -2486    -2488    -2492    -2497    -2497    -2497    -2501 
   -2502    -2497    -2493    -2494    -2494    -2494    -2497    -2501 
   -2502    -2502    -2504    -2506    -2505    -2500    -2496    -2489 
   -2481    -2478    -2475    -2474    -2478    -2479    -2479    -2485 
   -2493    -2497    -2498    -2501    -2501    -2500    -2504    -2504 
   -2498    -2498    -2505    -2512    -2523    -2532    -2539    -2547 
   -2558    -2562    -2566    -2577    -2583    -2581    -2582    -2586 
   -2589    -2590    -2593    -2594    -2597    -2598    -2598    -2596 
   -2590    -2590    -2589    -2582    -2577    -2570    -2558    -2550 
   -2548    -2546    -2540    -2535    -2531    -2525    -2521    -2520 
   -2516    -2511    -2508    -2502    -2496    -2493    -2493    -2493 
   -2492    -2489    -2492    -2497    -2498    -2498    -2498    -2496 
   -2497    -2498    -2497    -2500    -2501    -2504    -2511    -2512 
   -2511    -2515    -2523    -2523    -2520    -2519    -2520    -2519 
   -2516    -2519    -2527    -2535    -2546    -2560    -2573    -2583 
   -2596    -2604    -2610    -2614    -2616    -2620    -2624    -2624 
   -2627    -2631    -2632    -2633    -2633    -2633    -2633    -2632 
   -2631    -2628    -2621    -2617    -2616    -2613    -2606    -2602 
   -2601    -2600    -2602    -2602    -2600    -2598    -2597    -2597 
   -2598    -2597    -2592    -2586    -2582    -2577    -2570    -2565 
   -2562    -2556    -2548    -2546    -2547    -2547    -2551    -2554 
   -2554    -2554    -2555    -2556    -2556    -2552    -2550    -2547 
   -2546    -2544    -2544    -2542    -2540    -2542    -2540    -2539 
   -2540    -2542    -2544    -2550    -2552    -2554    -2560    -2566 
   -2569    -2573    -2577    -2577    -2577    -2579    -2585    -2592 
   -2597    -2600    -2606    -2616    -2625    -2633    -2641    -2646 
   -2647    -2654    -2662    -2666    -2671    -2677    -2683    -2691 
   -2695    -2704    -2714    -2722    -2729    -2736    -2737    -2737 
   -2740    -2740    -2736    -2731    -2727    -2718    -2708    -2702 
   -2697    -2687    -2681    -2673    -2662    -2655    -2651    -2646 
   -2637    -2629    -2621    -2610    -2601    -2593    -2582    -2571 
   -2566    -2556    -2546    -2540    -2535    -2524    -2519    -2512 
   -2501    -2496    -2494    -2492    -2488    -2486    -2489    -2490 
   -2492    -2496    -2492    -2482    -2479    -2478    -2474    -2477 
   -2478    -2474    -2474    -2478    -2481    -2479    -2478    -2485 
   -2490    -2486    -2486    -2486    -2486    -2494    -2501    -2500 
   -2504    -2508    -2505    -2505    -2508    -2508    -2509    -2515 
   -2516    -2509    -2509    -2515    -2516    -2516    -2516    -2512 
   -2509    -2506    -2511    -2520    -2527    -2532    -2535    -2540 
   -2548    -2558    -2570    -2582    -2594    -2601    -2601    -2602 
   -2612    -2621    -2629    -2629    -2621    -2614    -2617    -2624 
   -2632    -2637    -2640    -2637    -2633    -2632    -2629    -2633 
   -2637    -2623    -2604    -2598    -2600    -2601    -2601    -2596 
   -2587    -2579    -2571    -2569    -2562    -2551    -2543    -2532 
   -2525    -2519    -2513    -2509    -2508    -2505    -2506    -2508 
   -2511    -2516    -2523    -2531    -2535    -2535    -2536    -2540 
   -2543    -2544    -2546    -2547    -2548    -2552    -2558    -2562 
   -2567    -2575    -2581    -2583    -2589    -2592    -2590    -2592 
   -2597    -2600    -2605    -2614    -2620    -2624    -2629    -2639 
   -2651    -2663    -2673    -2679    -2690    -2701    -2710    -2720 
   -2727    -2729    -2737    -2748    -2755    -2760    -2768    -2774 
   -2778    -2781    -2782    -2782    -2781    -2781    -2785    -2783 
   -2776    -2778    -2782    -2782    -2785    -2789    -2789    -2786 
   -2787    -2789    -2785    -2783    -2778    -2768    -2760    -2756 
   -2754    -2752    -2751    -2749    -2751    -2749    -2749    -2751 
   -2749    -2748    -2743    -2733    -2732    -2729    -2725    -2727 
   -2727    -2720    -2718    -2717    -2709    -2705    -2701    -2694 
   -2683    -2670    -2656    -2647    -2637    -2627    -2614    -2601 
   -2589    -2577    -2566    -2556    -2550    -2543    -2531    -2520 
   -2515    -2504    -2493    -2488    -2479    -2470    -2465    -2461 
   -2459    -2462    -2466    -2463    -2459    -2459    -2461    -2465 
   -2470    -2474    -2475    -2474    -2471    -2471    -2477    -2484 
   -2488    -2488    -2488    -2493    -2500    -2508    -2516    -2516 
   -2512    -2515    -2516    -2516    -2519    -2523    -2521    -2523 
   -2531    -2539    -2546    -2556    -2570    -2575    -2579    -2592 
   -2608    -2617    -2621    -2631    -2640    -2650    -2662    -2670 
   -2671    -2678    -2690    -2704    -2714    -2717    -2720    -2727 
   -2737    -2747    -2756    -2759    -2749    -2744    -2747    -2754 
   -2759    -2755    -2740    -2728    -2725    -2725    -2724    -2720 
   -2706    -2691    -2683    -2681    -2682    -2679    -2668    -2656 
   -2648    -2641    -2635    -2624    -2612    -2602    -2594    -2585 
   -2581    -2582    -2575    -2566    -2562    -2558    -2550    -2543 
   -2539    -2529    -2521    -2523    -2519    -2511    -2508    -2505 
   -2502    -2500    -2496    -2492    -2493    -2492    -2492    -2494 
