Origin Time       2025/01/13 21:19:00
Lat.              31.8
Long.             131.6
Depth. (km)       30
Mag.              6.9
Station Code      KYTH03
Station Lat.      35.3130
Station Long.     135.1334
Station Height(m) 40
Record Time       2025/01/13 21:21:59
Sampling Freq(Hz) 100Hz
Duration Time(s)  120
Dir.              5
Scale Factor      7845(gal)/8223790
Max. Acc. (gal)   0.252
Last Correction   2025/01/13 21:22:00
Memo.             
[...]
   -9381    -9378    -9370    -9364    -9359    -9352    -9350    -9350 
   -9354    -9356    -9358    -9359    -9362    -9358    -9352    -9350 
   -9348    -9348    -9350    -9356    -9363    -9369    -9371    -9375 
   -9379    -9379    -9375    -9371    -9364    -9356    -9352    -9350 
   -9351    -9351    -9352    -9354    -9352    -9347    -9339    -9329 
   -9325    -9324    -9323    -9323    -9325    -9327    -9325    -9321 
   -9319    -9315    -9304    -9298    -9294    -9289    -9282    -9279 
   -9278    -9281    -9281    -9281    -9282    -9275    -9265    -9258 
   -9255    -9255    -9262    -9273    -9281    -9283    -9285    -9285 
   -9282    -9274    -9266    -9262    -9258    -9255    -9259    -9269 
   -9277    -9286    -9301    -9316    -9321    -9324    -9328    -9332 
   -9329    -9323    -9316    -9313    -9315    -9319    -9324    -9325 
   -9324    -9321    -9316    -9313    -9312    -9312    -9317    -9327 
   -9339    -9351    -9360    -9366    -9373    -9375    -9373    -9367 
   -9360    -9354    -9348    -9342    -9335    -9332    -9331    -9328 
   -9327    -9325    -9321    -9316    -9313    -9313    -9312    -9315 
   -9315    -9312    -9312    -9315    -9315    -9313    -9310    -9308 
   -9305    -9304    -9305    -9310    -9317    -9319    -9315    -9310 
   -9305    -9298    -9293    -9293    -9294    -9292    -9290    -9294 
   -9293    -9292    -9290    -9286    -9283    -9282    -9282    -9283 
   -9286    -9290    -9296    -9304    -9315    -9323    -9327    -9333 
   -9335    -9332    -9332    -9335    -9333    -9329    -9329    -9332 
   -9331    -9333    -9340    -9348    -9354    -9355    -9351    -9348 
   -9350    -9351    -9350    -9350    -9350    -9347    -9346    -9346 
   -9346    -9343    -9336    -9332    -9333    -9331    -9324    -9320 
   -9317    -9310    -9306    -9308    -9309    -9309    -9309    -9312 
   -9315    -9313    -9309    -9308    -9306    -9305    -9306    -9309 
   -9309    -9306    -9304    -9301    -9301    -9302    -9306    -9308 
   -9309    -9313    -9319    -9321    -9327    -9333    -9335    -9333 
   -9332    -9325    -9321    -9317    -9309    -9301    -9289    -9278 
   -9271    -9270    -9274    -9275    -9281    -9290    -9293    -9292 
   -9294    -9298    -9300    -9297    -9294    -9294    -9292    -9288 
   -9290    -9296    -9298    -9302    -9308    -9316    -9324    -9325 
   -9328    -9332    -9335    -9335    -9332    -9332    -9342    -9351 
   -9358    -9364    -9371    -9374    -9374    -9373    -9369    -9364 
   -9360    -9359    -9362    -9364    -9367    -9373    -9378    -9381 
   -9383    -9389    -9390    -9386    -9382    -9381    -9377    -9375 
   -9370    -9366    -9364    -9360    -9359    -9360    -9363    -9369 
   -9374    -9379    -9387    -9394    -9400    -9405    -9409    -9410 
   -9409    -9409    -9408    -9402    -9394    -9390    -9391    -9391 
   -9389    -9390    -9394    -9391    -9389    -9393    -9398    -9405 
   -9402    -9397    -9393    -9386    -9377    -9377    -9379    -9377 
   -9377    -9381    -9385    -9391    -9398    -9402    -9404    -9402 
   -9400    -9391    -9383    -9378    -9375    -9374    -9378    -9383 
   -9390    -9398    -9406    -9410    -9410    -9408    -9404    -9401 
   -9400    -9398    -9398    -9402    -9406    -9410    -9416    -9424 
   -9425    -9423    -9420    -9418    -9414    -9408    -9400    -9389 
   -9377    -9366    -9362    -9358    -9356    -9355    -9355    -9350 
   -9343    -9337    -9332    -9331    -9331    -9329    -9333    -9336 
   -9337    -9340    -9344    -9347    -9351    -9351    -9347    -9343 
   -9337    -9331    -9329    -9331    -9331    -9331    -9329    -9329 
   -9328    -9325    -9328    -9328    -9327    -9332    -9337    -9337 
   -9337    -9335    -9328    -9324    -9319    -9315    -9315    -9315 
   -9313    -9316    -9320    -9319    -9317    -9317    -9313    -9312 
   -9315    -9316    -9321    -9328    -9329    -9331    -9335    -9340 
   -9350    -9356    -9359    -9360    -9363    -9364    -9370    -9378 
   -9385    -9389    -9394    -9398    -9401    -9401    -9402    -9405 
   -9406    -9408    -9409    -9410    -9409    -9408    -9402    -9393 
   -9385    -9378    -9375    -9373    -9373    -9378    -9386    -9390 
   -9389    -9386    -9385    -9382    -9378    -9375    -9374    -9373 
   -9371    -9373    -9374    -9375    -9378    -9381    -9379    -9378 
   -9374    -9370    -9364    -9356    -9350    -9346    -9343    -9336 
   -9333    -9333    -9331    -9331    -9333    -9333    -9329    -9323 
   -9316    -9309    -9305    -9302    -9301    -9302    -9304    -9306 
   -9308    -9312    -9317    -9320    -9320    -9317    -9316    -9320 
   -9323    -9323    -9327    -9331    -9331    -9331    -9336    -9344 
   -9351    -9355    -9360    -9362    -9359    -9360    -9364    -9366 
   -9364    -9364    -9362    -9355    -9344    -9340    -9340    -9346 
   -9351    -9360    -9370    -9370    -9366    -9366    -9360    -9351 
   -9343    -9342    -9342    -9342    -9344    -9351    -9358    -9366 
   -9374    -9378    -9381    -9383    -9378    -9373    -9370    -9367 
   -9364    -9363    -9364    -9364    -9366    -9369    -9366    -9359 
   -9354    -9348    -9344    -9344    -9347    -9351    -9352    -9351 
   -9352    -9354    -9352    -9354    -9352    -9348    -9344    -9342 
   -9342    -9344    -9348    -9352    -9355    -9358    -9356    -9356 
   -9359    -9363    -9366    -9371    -9377    -9383    -9390    -9394 
   -9400    -9408    -9413    -9416    -9424    -9431    -9432    -9432 
   -9432    -9428    -9421    -9414    -9413    -9413    -9412    -9412 
   -9416    -9417    -9413    -9414    -9423    -9425    -9427    -9427 
   -9423    -9423    -9424    -9424    -9423    -9421    -9421    -9421 
   -9424    -9428    -9431    -9432    -9431    -9425    -9421    -9417 
   -9416    -9414    -9409    -9404    -9401    -9401    -9402    -9406 
   -9412    -9413    -9412    -9413    -9410    -9402    -9391    -9378 
   -9362    -9347    -9331    -9320    -9315    -9309    -9306    -9305 
   -9304    -9304    -9306    -9312    -9315    -9315    -9317    -9320 
   -9319    -9316    -9313    -9310    -9306    -9304    -9305    -9313 
   -9324    -9336    -9347    -9358    -9367    -9378    -9385    -9387 
   -9389    -9386    -9381    -9379    -9378    -9373    -9363    -9360 
   -9359    -9358    -9360    -9366    -9370    -9367    -9366    -9363 
   -9360    -9358    -9352    -9350    -9347    -9342    -9343    -9346 
   -9347    -9350    -9354    -9358    -9358    -9354    -9351    -9347 
   -9344    -9346    -9346    -9348    -9356    -9363    -9367    -9373 
   -9378    -9383    -9385    -9386    -9390    -9396    -9396    -9394 
   -9398    -9404    -9406    -9409    -9413    -9414    -9416    -9414 
   -9413    -9412    -9412    -9413    -9418    -9424    -9425    -9424 
   -9423    -9421    -9421    -9427    -9433    -9443    -9452    -9459 
   -9464    -9468    -9470    -9471    -9468    -9458    -9450    -9448 
   -9450    -9452    -9456    -9463    -9470    -9475    -9481    -9482 
   -9475    -9471    -9466    -9455    -9445    -9441    -9440    -9445 
   -9448    -9448    -9447    -9440    -9432    -9429    -9425    -9417 
   -9412    -9409    -9409    -9409    -9410    -9414    -9414    -9409 
   -9408    -9405    -9402    -9402    -9401    -9400    -9402    -9405 
   -9406    -9412    -9416    -9414    -9410    -9405    -9398    -9391 
   -9385    -9378    -9374    -9371    -9369    -9367    -9369    -9369 
   -9360    -9358    -9358    -9352    -9348    -9346    -9344    -9348 
   -9351    -9351    -9354    -9355    -9355    -9358    -9359    -9363 
   -9369    -9367    -9366    -9364    -9364    -9364    -9364    -9363 
   -9363    -9363    -9360    -9359    -9355    -9350    -9347    -9343 
   -9337    -9331    -9321    -9315    -9310    -9306    -9305    -9305 
   -9302    -9301    -9304    -9304    -9302    -9304    -9301    -9293 
   -9290    -9290    -9286    -9279    -9277    -9273    -9266    -9259 
   -9252    -9244    -9242    -9242    -9242    -9239    -9240    -9243 
   -9239    -9236    -9239    -9240    -9240    -9239    -9239    -9242 
   -9244    -9248    -9250    -9247    -9244    -9240    -9239    -9236 
   -9232    -9231    -9229    -9223    -9220    -9223    -9225    -9227 
   -9228    -9229    -9229    -9231    -9228    -9224    -9223    -9224 
   -9221    -9219    -9221    -9224    -9227    -9231    -9236    -9239 
   -9242    -9244    -9248    -9254    -9259    -9262    -9263    -9266 
   -9273    -9279    -9282    -9289    -9297    -9301    -9305    -9310 
   -9315    -9317    -9324    -9329    -9336    -9346    -9352    -9359 
   -9369    -9379    -9391    -9405    -9414    -9421    -9428    -9432 
   -9436    -9443    -9447    -9452    -9458    -9464    -9470    -9475 
   -9479    -9478    -9474    -9471    -9468    -9466    -9462    -9459 
   -9463    -9468    -9470    -9466    -9463    -9459    -9455    -9455 
   -9452    -9447    -9443    -9440    -9436    -9433    -9429    -9425 
   -9421    -9416    -9405    -9391    -9382    -9377    -9371    -9369 
   -9371    -9373    -9369    -9362    -9355    -9348    -9337    -9331 
   -9327    -9324    -9317    -9313    -9306    -9297    -9290    -9282 
   -9273    -9269    -9266    -9261    -9256    -9255    -9254    -9256 
   -9259    -9259    -9259    -9261    -9259    -9258    -9259    -9261 
   -9263    -9267    -9271    -9277    -9278    -9278    -9281    -9285 
   -9290    -9298    -9309    -9319    -9324    -9332    -9339    -9343 
   -9347    -9350    -9351    -9355    -9358    -9358    -9362    -9367 
   -9377    -9386    -9397    -9406    -9410    -9414    -9418    -9421 
   -9424    -9429    -9435    -9437    -9440    -9441    -9441    -9444 
   -9447    -9450    -9452    -9452    -9450    -9448    -9445    -9440 
   -9439    -9436    -9432    -9428    -9425    -9421    -9416    -9412 
   -9406    -9402    -9398    -9394    -9387    -9378    -9374    -9370 
   -9360    -9355    -9351    -9343    -9335    -9332    -9327    -9321 
   -9315    -9309    -9308    -9305    -9297    -9290    -9285    -9279 
   -9273    -9267    -9266    -9266    -9265    -9265    -9266    -9266 
   -9269    -9271    -9269    -9262    -9256    -9256    -9250    -9242 
   -9240    -9240    -9243    -9246    -9248    -9256    -9266    -9274 
   -9282    -9289    -9296    -9297    -9300    -9305    -9308    -9313 
   -9320    -9320    -9324    -9332    -9335    -9339    -9346    -9350 
   -9350    -9348    -9347    -9350    -9351    -9350    -9347    -9344 
   -9343    -9346    -9350    -9351    -9351    -9351    -9354    -9351 
   -9348    -9352    -9354    -9351    -9354    -9354    -9351    -9354 
   -9356    -9358    -9360    -9359    -9359    -9363    -9367    -9369 
   -9371    -9374    -9377    -9379    -9377    -9375    -9379    -9379 
   -9375    -9375    -9374    -9373    -9374    -9377    -9381    -9382 
   -9382    -9379    -9375    -9370    -9363    -9356    -9351    -9348 
   -9347    -9346    -9346    -9346    -9348    -9355    -9362    -9366 
   -9370    -9374    -9371    -9367    -9367    -9367    -9366    -9367 
   -9369    -9371    -9371    -9371    -9370    -9369    -9367    -9364 
   -9362    -9363    -9363    -9363    -9366    -9367    -9370    -9374 
   -9377    -9377    -9375    -9375    -9373    -9370    -9370    -9373 
   -9375    -9379    -9383    -9386    -9394    -9402    -9409    -9417 
   -9424    -9431    -9441    -9451    -9462    -9468    -9472    -9479 
   -9486    -9490    -9494    -9498    -9501    -9505    -9506    -9508 
   -9514    -9520    -9518    -9517    -9514    -9506    -9499    -9490 
   -9479    -9472    -9467    -9460    -9456    -9455    -9452    -9445 
   -9440    -9439    -9436    -9435    -9436    -9435    -9433    -9437 
   -9441    -9444    -9450    -9452    -9451    -9451    -9455    -9456 
   -9454    -9456    -9460    -9462    -9459    -9456    -9456    -9456 
   -9454    -9454    -9450    -9441    -9439    -9439    -9436    -9431 
   -9427    -9421    -9416    -9412    -9404    -9390    -9379    -9370 
   -9359    -9348    -9335    -9324    -9313    -9302    -9290    -9281 
   -9269    -9259    -9252    -9247    -9243    -9239    -9232    -9228 
   -9224    -9216    -9211    -9208    -9204    -9204    -9207    -9212 
   -9219    -9223    -9227    -9229    -9229    -9234    -9239    -9240 
   -9243    -9243    -9243    -9246    -9248    -9248    -9247    -9242 
   -9238    -9234    -9227    -9221    -9220    -9219    -9216    -9217 
   -9219    -9217    -9213    -9208    -9198    -9185    -9174    -9166 
   -9159    -9155    -9151    -9147    -9148    -9153    -9151    -9148 
   -9148    -9148    -9147    -9147    -9147    -9148    -9151    -9153 
   -9154    -9155    -9154    -9155    -9158    -9158    -9155    -9155 
   -9158    -9161    -9162    -9165    -9167    -9167    -9174    -9184 
   -9192    -9200    -9209    -9217    -9228    -9242    -9251    -9259 
   -9269    -9277    -9286    -9294    -9304    -9313    -9325    -9337 
   -9351    -9366    -9378    -9390    -9404    -9417    -9428    -9433 
   -9441    -9451    -9456    -9460    -9466    -9471    -9471    -9470 
   -9467    -9464    -9463    -9464    -9464    -9467    -9470    -9471 
   -9474    -9477    -9477    -9477    -9479    -9482    -9485    -9489 
   -9493    -9501    -9506    -9508    -9510    -9518    -9529    -9537 
   -9543    -9547    -9558    -9567    -9574    -9583    -9594    -9601 
   -9607    -9610    -9610    -9610    -9606    -9602    -9601    -9599 
   -9597    -9591    -9586    -9580    -9571    -9559    -9545    -9529 
   -9510    -9494    -9481    -9470    -9459    -9448    -9436    -9420 
   -9404    -9396    -9387    -9377    -9367    -9360    -9348    -9333 
   -9324    -9319    -9312    -9304    -9297    -9290    -9282    -9278 
   -9275    -9270    -9266    -9263    -9262    -9262    -9259    -9256 
   -9254    -9247    -9240    -9235    -9229    -9224    -9217    -9208 
   -9198    -9190    -9182    -9173    -9165    -9159    -9155    -9153 
   -9153    -9148    -9144    -9148    -9150    -9150    -9151    -9151 
   -9151    -9157    -9166    -9175    -9185    -9193    -9198    -9200 
   -9201    -9207    -9216    -9223    -9231    -9238    -9243    -9246 
   -9255    -9265    -9267    -9267    -9269    -9269    -9273    -9281 
   -9283    -9285    -9285    -9286    -9288    -9289    -9289    -9289 
   -9285    -9282    -9279    -9278    -9281    -9289    -9297    -9304 
   -9305    -9305    -9306    -9312    -9320    -9327    -9328    -9327 
   -9325    -9329    -9343    -9358    -9369    -9374    -9374    -9375 
   -9385    -9396    -9405    -9409    -9406    -9404    -9400    -9398 
   -9402    -9406    -9401    -9394    -9390    -9383    -9383    -9387 
   -9387    -9387    -9386    -9381    -9377    -9374    -9377    -9377 
   -9371    -9374    -9377    -9379    -9386    -9390    -9387    -9385 
   -9382    -9382    -9383    -9385    -9382    -9381    -9379    -9375 
   -9375    -9379    -9382    -9382    -9382    -9382    -9378    -9374 
   -9371    -9364    -9354    -9350    -9348    -9344    -9342    -9340 
   -9335    -9329    -9324    -9317    -9313    -9315    -9315    -9310 
   -9309    -9312    -9315    -9317    -9323    -9331    -9335    -9340 
   -9346    -9347    -9350    -9352    -9350    -9348    -9350    -9347 
   -9348    -9351    -9354    -9355    -9360    -9363    -9362    -9360 
   -9358    -9354    -9352    -9351    -9348    -9348    -9352    -9358 
   -9360    -9364    -9370    -9373    -9375    -9381    -9387    -9390 
   -9391    -9393    -9394    -9394    -9396    -9397    -9394    -9391 
   -9389    -9385    -9378    -9370    -9359    -9354    -9355    -9351 
   -9342    -9339    -9337    -9328    -9321    -9316    -9309    -9304 
   -9293    -9281    -9273    -9263    -9251    -9242    -9234    -9225 
   -9216    -9204    -9194    -9188    -9184    -9181    -9182    -9188 
   -9192    -9196    -9196    -9196    -9198    -9202    -9205    -9211 
   -9220    -9228    -9234    -9236    -9239    -9242    -9242    -9240 
   -9239    -9238    -9231    -9225    -9221    -9216    -9209    -9201 
   -9193    -9184    -9171    -9161    -9147    -9134    -9124    -9115 
   -9108    -9104    -9100    -9097    -9099    -9099    -9103    -9107 
   -9111    -9116    -9123    -9130    -9140    -9146    -9151    -9159 
   -9170    -9178    -9186    -9200    -9209    -9220    -9235    -9248 
   -9265    -9282    -9294    -9301    -9309    -9317    -9323    -9329 
   -9336    -9342    -9350    -9359    -9371    -9386    -9398    -9410 
   -9423    -9431    -9439    -9448    -9460    -9474    -9483    -9490 
   -9497    -9506    -9516    -9525    -9536    -9545    -9556    -9568 
   -9580    -9589    -9594    -9598    -9602    -9602    -9597    -9593 
   -9590    -9583    -9575    -9570    -9568    -9564    -9560    -9553 
   -9544    -9532    -9521    -9510    -9499    -9485    -9471    -9459 
   -9450    -9441    -9431    -9423    -9417    -9408    -9400    -9389 
   -9381    -9377    -9374    -9371    -9373    -9374    -9373    -9371 
   -9370    -9364    -9362    -9359    -9356    -9359    -9363    -9366 
   -9371    -9381    -9387    -9394    -9400    -9404    -9408    -9409 
   -9413    -9420    -9424    -9427    -9431    -9439    -9447    -9452 
   -9455    -9458    -9456    -9456    -9456    -9451    -9452    -9455 
   -9452    -9451    -9451    -9452    -9455    -9455    -9450    -9444 
   -9433    -9420    -9410    -9400    -9385    -9379    -9375    -9364 
   -9359    -9352    -9340    -9331    -9323    -9312    -9301    -9289 
   -9274    -9261    -9250    -9236    -9224    -9215    -9207    -9201 
   -9196    -9189    -9185    -9180    -9175    -9174    -9175    -9178 
   -9181    -9189    -9197    -9202    -9212    -9219    -9223    -9229 
   -9236    -9238    -9246    -9259    -9269    -9279    -9289    -9298 
   -9312    -9324    -9331    -9339    -9344    -9346    -9348    -9351 
   -9351    -9350    -9350    -9352    -9354    -9352    -9354    -9354 
   -9347    -9340    -9336    -9329    -9319    -9310    -9308    -9305 
   -9300    -9296    -9292    -9290    -9292    -9289    -9288    -9288 
   -9285    -9285    -9286    -9282    -9282    -9281    -9278    -9281 
   -9283    -9288    -9294    -9300    -9301    -9309    -9319    -9321 
   -9321    -9323    -9321    -9317    -9315    -9308    -9302    -9300 
   -9294    -9292    -9293    -9290    -9289    -9286    -9281    -9279 
   -9277    -9270    -9269    -9270    -9270    -9275    -9279    -9281 
   -9285    -9290    -9292    -9294    -9296    -9294    -9294    -9297 
   -9297    -9300    -9302    -9301    -9300    -9301    -9302    -9297 
   -9296    -9297    -9292    -9283    -9282    -9282    -9281    -9282 
   -9282    -9282    -9285    -9281    -9273    -9265    -9256    -9248 
   -9244    -9240    -9236    -9232    -9232    -9227    -9220    -9220 
   -9220    -9220    -9220    -9220    -9219    -9219    -9220    -9223 
   -9221    -9220    -9223    -9224    -9223    -9220    -9221    -9231 
   -9239    -9243    -9247    -9255    -9262    -9261    -9266    -9281 
   -9289    -9292    -9300    -9310    -9320    -9327    -9339    -9348 
   -9359    -9373    -9385    -9394    -9402    -9410    -9420    -9424 
   -9424    -9432    -9443    -9448    -9450    -9451    -9451    -9450 
