Origin Time       2025/01/13 21:19:00
Lat.              31.8
Long.             131.6
Depth. (km)       30
Mag.              6.9
Station Code      KYTH03
Station Lat.      35.3130
Station Long.     135.1334
Station Height(m) -260
Record Time       2025/01/13 21:21:59
Sampling Freq(Hz) 100Hz
Duration Time(s)  120
Dir.              2
Scale Factor      2942(gal)/8224139
Max. Acc. (gal)   0.174
Last Correction   2025/01/13 21:22:00
Memo.             
[...]
  233913   233917   233919   233917   233918   233923   233928   233933 
  233941   233948   233956   233967   233973   233977   233986   233996 
  234000   234004   234010   234014   234018   234023   234030   234036 
  234038   234041   234045   234048   234050   234054   234057   234063 
  234068   234071   234068   234068   234068   234069   234071   234068 
  234065   234065   234064   234061   234063   234064   234065   234068 
  234068   234071   234073   234073   234075   234080   234080   234083 
  234085   234085   234088   234092   234094   234096   234098   234096 
  234095   234095   234088   234087   234088   234084   234079   234079 
  234077   234075   234072   234067   234063   234056   234048   234040 
  234034   234026   234018   234015   234011   234004   234003   234000 
  233994   233991   233994   233992   233988   233986   233986   233986 
  233986   233983   233976   233973   233972   233971   233968   233967 
  233965   233965   233964   233959   233960   233961   233963   233967 
  233971   233973   233982   233991   233995   233999   234004   234009 
  234014   234018   234019   234022   234025   234026   234031   234034 
  234036   234041   234045   234048   234049   234050   234056   234061 
  234061   234061   234065   234071   234071   234071   234075   234077 
  234077   234079   234080   234083   234085   234087   234087   234088 
  234091   234091   234090   234090   234091   234091   234091   234090 
  234087   234088   234094   234096   234098   234102   234103   234103 
  234104   234104   234102   234102   234100   234096   234094   234094 
  234088   234081   234076   234071   234063   234057   234050   234042 
  234037   234029   234023   234022   234022   234019   234017   234014 
  234013   234011   234010   234009   234007   234003   234002   234000 
  233998   233996   233999   234000   233996   233996   234000   234003 
  234004   234003   234004   234009   234010   234009   234009   234010 
  234009   234009   234013   234014   234011   234014   234015   234015 
  234017   234017   234013   234011   234015   234015   234017   234018 
  234018   234017   234018   234018   234017   234011   234006   234002 
  233999   233995   233988   233984   233982   233973   233969   233965 
  233961   233959   233959   233955   233952   233950   233946   233942 
  233936   233930   233925   233918   233909   233901   233898   233892 
  233886   233882   233878   233872   233868   233864   233860   233859 
  233861   233865   233864   233865   233874   233876   233874   233876 
  233882   233886   233891   233892   233894   233901   233906   233914 
  233922   233929   233940   233949   233959   233969   233979   233988 
  234000   234009   234014   234022   234031   234034   234034   234037 
  234040   234041   234048   234054   234057   234063   234067   234068 
  234071   234071   234071   234072   234067   234063   234064   234065 
  234061   234058   234056   234054   234052   234049   234048   234046 
  234044   234044   234040   234036   234031   234026   234022   234019 
  234013   234009   234006   233999   233996   233995   233992   233988 
  233984   233984   233986   233982   233983   233990   233992   233995 
  234000   234002   234002   234007   234009   234009   234010   234013 
  234013   234014   234017   234018   234017   234017   234013   234013 
  234013   234011   234011   234013   234013   234010   234006   234002 
  233996   233992   233990   233983   233972   233967   233963   233957 
  233952   233948   233942   233934   233925   233918   233910   233902 
  233895   233886   233878   233874   233869   233864   233860   233861 
  233860   233859   233861   233861   233855   233851   233853   233852 
  233851   233847   233842   233844   233844   233838   233833   233829 
  233825   233822   233820   233815   233815   233817   233817   233817 
  233824   233826   233826   233830   233833   233833   233836   233842 
  233844   233844   233844   233847   233851   233851   233849   233849 
  233849   233852   233853   233851   233856   233861   233860   233861 
  233867   233868   233869   233872   233872   233875   233882   233887 
  233892   233899   233905   233909   233917   233923   233928   233933 
  233937   233940   233941   233945   233952   233952   233952   233955 
  233959   233963   233964   233969   233973   233976   233979   233986 
  233990   233990   233991   233999   234009   234014   234018   234026 
  234036   234042   234052   234060   234065   234075   234084   234091 
  234099   234106   234107   234112   234119   234122   234126   234127 
  234130   234135   234139   234144   234149   234154   234162   234168 
  234175   234184   234188   234191   234199   234206   234207   234211 
  234219   234225   234229   234234   234239   234243   234250   234257 
  234262   234269   234274   234280   234285   234288   234291   234296 
  234301   234307   234312   234315   234315   234320   234324   234324 
  234323   234324   234323   234323   234323   234320   234319   234316 
  234316   234316   234311   234308   234307   234303   234301   234301 
  234300   234297   234295   234293   234289   234284   234283   234284 
  234277   234273   234272   234268   234266   234266   234262   234258 
  234256   234256   234254   234249   234243   234237   234229   234218 
  234208   234198   234185   234171   234156   234141   234126   234110 
  234095   234077   234058   234038   234021   234000   233982   233963 
  233948   233933   233914   233898   233890   233880   233865   233853 
  233847   233836   233824   233820   233817   233809   233805   233802 
  233799   233801   233805   233805   233802   233807   233815   233817 
  233820   233828   233836   233840   233847   233852   233857   233864 
  233869   233876   233887   233896   233905   233913   233919   233929 
  233937   233938   233945   233953   233961   233971   233977   233987 
  233999   234009   234023   234040   234050   234067   234085   234099 
  234111   234125   234138   234148   234157   234165   234173   234181 
  234189   234196   234198   234200   234208   234212   234215   234218 
  234218   234211   234202   234196   234193   234187   234180   234171 
  234160   234153   234150   234141   234127   234119   234114   234106 
  234095   234087   234080   234072   234064   234056   234046   234040 
  234034   234025   234017   234011   234004   233995   233984   233973 
  233967   233960   233950   233944   233938   233934   233929   233922 
  233915   233910   233905   233901   233898   233894   233891   233888 
  233888   233890   233891   233892   233898   233905   233909   233915 
  233926   233934   233942   233955   233968   233976   233986   233996 
  234006   234015   234026   234037   234046   234053   234060   234072 
  234080   234085   234091   234099   234108   234117   234123   234127 
  234133   234142   234152   234156   234161   234166   234173   234181 
  234187   234187   234188   234191   234191   234191   234192   234195 
  234193   234189   234188   234189   234187   234185   234184   234180 
  234177   234171   234162   234160   234158   234152   234146   234145 
  234144   234139   234134   234129   234126   234122   234117   234110 
  234103   234096   234088   234079   234072   234067   234058   234053 
  234048   234041   234036   234031   234025   234017   234011   234004 
  233998   233988   233980   233976   233973   233968   233965   233965 
  233967   233967   233967   233969   233976   233979   233980   233987 
  233991   233996   234004   234006   234007   234013   234021   234025 
  234027   234030   234037   234044   234048   234053   234060   234064 
  234071   234077   234081   234083   234084   234085   234085   234084 
  234080   234076   234072   234069   234064   234056   234052   234048 
  234040   234033   234027   234023   234018   234011   234011   234009 
  234004   234000   233999   233996   233994   233992   233990   233988 
  233988   233988   233987   233987   233988   233991   233991   233991 
  233994   233995   233995   233999   234002   234000   233999   233998 
  233991   233986   233980   233975   233969   233965   233959   233952 
  233948   233941   233934   233932   233925   233915   233911   233902 
  233892   233886   233876   233868   233859   233847   233837   233826 
  233817   233807   233798   233791   233782   233772   233766   233761 
  233759   233755   233752   233751   233751   233751   233749   233749 
  233751   233751   233751   233752   233757   233759   233759   233763 
  233770   233775   233778   233783   233793   233797   233798   233803 
  233810   233815   233817   233818   233824   233832   233836   233837 
  233841   233848   233848   233851   233857   233864   233867   233872 
  233876   233882   233891   233896   233902   233910   233917   233923 
  233932   233941   233946   233956   233969   233977   233987   234002 
  234014   234023   234036   234048   234061   234076   234085   234094 
  234107   234121   234131   234148   234161   234172   234187   234199 
  234211   234222   234231   234241   234253   234261   234272   234281 
  234291   234300   234308   234312   234316   234323   234328   234330 
  234331   234337   234341   234343   234349   234355   234360   234366 
  234376   234382   234389   234400   234409   234418   234426   234434 
  234439   234446   234454   234459   234462   234466   234469   234470 
  234476   234477   234476   234477   234476   234473   234474   234477 
  234476   234474   234474   234472   234466   234465   234461   234455 
  234450   234442   234431   234426   234420   234409   234397   234387 
  234374   234362   234351   234338   234324   234314   234300   234281 
  234262   234245   234225   234202   234183   234164   234141   234117 
  234095   234071   234050   234030   234009   233991   233973   233955 
  233944   233937   233923   233910   233905   233899   233891   233887 
  233886   233883   233878   233876   233875   233869   233868   233869 
  233869   233869   233872   233875   233874   233872   233874   233874 
  233874   233871   233865   233860   233856   233848   233841   233833 
  233824   233817   233807   233795   233786   233772   233759   233745 
  233732   233718   233703   233689   233674   233664   233658   233644 
  233633   233629   233625   233620   233614   233613   233618   233622 
  233622   233626   233633   233641   233649   233660   233672   233685 
  233695   233712   233728   233741   233756   233775   233797   233814 
  233829   233851   233871   233890   233910   233930   233950   233971 
  233991   234011   234033   234053   234076   234098   234119   234141 
  234162   234183   234206   234230   234252   234269   234288   234308 
  234327   234343   234360   234377   234393   234405   234412   234420 
  234430   234435   234441   234445   234447   234451   234451   234446 
  234443   234446   234442   234434   234430   234424   234415   234405 
  234397   234392   234381   234368   234357   234346   234337   234327 
  234316   234306   234296   234285   234277   234272   234265   234261 
  234258   234254   234252   234250   234247   234243   234242   234241 
  234238   234237   234238   234237   234231   234225   234220   234215 
  234206   234198   234191   234180   234168   234157   234146   234131 
  234119   234108   234098   234087   234072   234060   234049   234038 
  234027   234017   234007   234002   233996   233991   233988   233986 
  233982   233977   233980   233984   233984   233988   233992   233994 
  234002   234010   234013   234018   234023   234027   234033   234036 
  234037   234038   234042   234048   234052   234052   234053   234056 
  234056   234053   234049   234049   234050   234049   234046   234044 
  234045   234044   234045   234046   234044   234042   234041   234040 
  234040   234041   234040   234038   234040   234042   234041   234040 
  234041   234040   234037   234034   234030   234025   234021   234014 
  234009   234007   234003   233994   233991   233991   233987   233982 
  233982   233982   233979   233976   233976   233976   233977   233975 
  233971   233973   233975   233972   233971   233968   233967   233963 
  233959   233957   233957   233952   233946   233944   233941   233932 
  233925   233922   233919   233915   233909   233905   233903   233902 
  233902   233907   233913   233914   233919   233930   233937   233945 
  233955   233964   233976   233990   234003   234018   234034   234049 
  234067   234087   234106   234123   234142   234162   234184   234207 
  234226   234245   234264   234284   234300   234315   234330   234346 
  234357   234369   234381   234389   234396   234400   234405   234409 
  234409   234407   234407   234400   234395   234391   234385   234377 
  234369   234362   234357   234349   234341   234331   234323   234316 
  234310   234304   234299   234296   234299   234297   234297   234304 
  234310   234314   234323   234334   234342   234350   234360   234369 
  234378   234388   234397   234408   234418   234423   234430   234441 
  234447   234454   234462   234466   234465   234468   234470   234468 
  234466   234465   234458   234453   234450   234442   234432   234426 
  234415   234403   234391   234377   234362   234347   234327   234308 
  234291   234272   234252   234225   234204   234187   234160   234129 
  234104   234080   234050   234025   234000   233972   233942   233915 
  233890   233863   233836   233806   233780   233755   233728   233709 
  233690   233667   233645   233631   233618   233604   233591   233586 
  233583   233577   233571   233570   233571   233572   233575   233579 
  233582   233589   233599   233606   233616   233628   233637   233651 
  233664   233676   233686   233698   233713   233729   233744   233755 
  233770   233786   233805   233825   233842   233860   233879   233895 
  233913   233928   233941   233957   233972   233982   233991   234000 
  234007   234011   234015   234018   234018   234017   234014   234011 
  234006   233999   233994   233988   233979   233972   233965   233956 
  233945   233934   233923   233914   233901   233886   233875   233863 
  233853   233845   233836   233829   233824   233820   233817   233817 
  233818   233818   233820   233826   233834   233841   233852   233865 
  233878   233895   233915   233932   233953   233979   234000   234022 
  234046   234072   234096   234121   234146   234172   234198   234223 
  234246   234268   234284   234297   234314   234328   234341   234353 
  234362   234369   234373   234378   234381   234381   234378   234374 
  234369   234360   234353   234343   234327   234314   234304   234291 
  234276   234261   234243   234231   234220   234206   234192   234184 
  234175   234166   234160   234153   234146   234144   234141   234141 
  234138   234133   234130   234133   234134   234134   234137   234141 
  234148   234153   234157   234164   234171   234177   234184   234188 
  234189   234193   234196   234195   234196   234196   234193   234195 
  234192   234187   234184   234179   234175   234172   234165   234157 
  234150   234146   234138   234134   234130   234126   234123   234119 
  234118   234119   234115   234112   234111   234108   234106   234107 
  234107   234107   234114   234121   234127   234133   234138   234145 
  234153   234160   234165   234173   234180   234188   234195   234200 
  234206   234212   234220   234225   234226   234230   234233   234230 
  234230   234233   234235   234235   234234   234235   234239   234242 
  234245   234243   234241   234242   234245   234246   234246   234245 
  234246   234246   234246   234246   234245   234247   234252   234253 
  234253   234258   234265   234268   234273   234281   234287   234293 
  234299   234303   234311   234316   234322   234327   234327   234328 
  234333   234333   234331   234330   234324   234316   234310   234301 
  234295   234284   234272   234260   234245   234227   234214   234202 
  234188   234172   234154   234137   234122   234104   234091   234077 
  234060   234046   234037   234026   234014   234004   233996   233988 
  233984   233980   233972   233968   233964   233959   233956   233956 
  233953   233949   233946   233945   233945   233944   233944   233945 
  233944   233945   233948   233946   233946   233950   233953   233959 
  233961   233964   233968   233969   233973   233980   233987   233992 
  233998   234002   234007   234014   234018   234023   234030   234033 
  234036   234040   234042   234044   234045   234044   234041   234042 
  234041   234038   234034   234030   234025   234019   234015   234010 
  234004   233995   233983   233975   233969   233960   233953   233946 
  233934   233928   233925   233918   233910   233907   233906   233903 
  233902   233899   233898   233899   233901   233903   233903   233906 
  233910   233910   233911   233918   233921   233925   233934   233942 
  233948   233957   233968   233976   233986   233998   234011   234027 
  234041   234050   234063   234079   234091   234100   234111   234123 
  234135   234145   234153   234162   234172   234180   234188   234195 
  234200   234203   234204   234206   234207   234204   234200   234198 
  234193   234187   234179   234172   234165   234154   234142   234129 
  234115   234104   234090   234072   234060   234048   234030   234011 
  233995   233979   233964   233948   233934   233922   233909   233896 
  233888   233880   233872   233867   233863   233863   233865   233868 
  233868   233874   233882   233887   233895   233905   233913   233922 
  233932   233941   233952   233963   233971   233983   233995   234003 
  234014   234025   234034   234045   234053   234058   234068   234076 
  234079   234084   234090   234090   234092   234099   234100   234098 
  234096   234096   234095   234091   234090   234088   234088   234088 
  234088   234084   234087   234090   234087   234084   234087   234087 
  234088   234092   234094   234095   234100   234104   234107   234110 
  234110   234112   234119   234121   234119   234119   234121   234122 
  234121   234122   234122   234123   234126   234125   234122   234123 
  234126   234123   234125   234126   234123   234122   234122   234121 
  234121   234122   234119   234115   234112   234110   234107   234104 
  234099   234092   234081   234072   234067   234057   234049   234041 
  234026   234017   234010   233994   233980   233973   233961   233946 
  233933   233919   233906   233894   233883   233871   233860   233849 
  233841   233832   233820   233811   233806   233797   233790   233786 
  233779   233774   233771   233766   233760   233759   233753   233747 
  233743   233740   233737   233734   233730   233726   233724   233721 
  233720   233718   233720   233720   233721   233724   233726   233730 
  233734   233740   233747   233755   233763   233774   233787   233799 
  233809   233821   233836   233853   233868   233884   233903   233922 
  233940   233960   233983   234003   234022   234042   234064   234083 
  234104   234123   234141   234161   234180   234192   234208   234222 
  234231   234243   234257   234265   234273   234283   234291   234297 
  234301   234306   234314   234319   234322   234326   234331   234334 
  234337   234342   234346   234347   234350   234357   234362   234364 
  234369   234376   234377   234381   234388   234392   234392   234393 
  234397   234399   234399   234399   234400   234400   234399   234397 
