Origin Time       2025/01/13 21:19:00
Lat.              31.8
Long.             131.6
Depth. (km)       30
Mag.              6.9
Station Code      KYTH03
Station Lat.      35.3130
Station Long.     135.1334
Station Height(m) -260
Record Time       2025/01/13 21:21:59
Sampling Freq(Hz) 100Hz
Duration Time(s)  120
Dir.              1
Scale Factor      2942(gal)/8224139
Max. Acc. (gal)   0.231
Last Correction   2025/01/13 21:22:00
Memo.             
[...]
   79544    79543    79543    79543    79542    79542    79543    79548 
   79551    79550    79552    79558    79562    79563    79562    79563 
   79563    79563    79563    79563    79564    79567    79566    79566 
   79567    79570    79573    79575    79577    79578    79581    79581 
   79581    79579    79578    79578    79579    79577    79577    79577 
   79575    79574    79578    79579    79579    79582    79586    79591 
   79593    79600    79609    79613    79618    79629    79640    79644 
   79648    79655    79660    79658    79656    79660    79660    79658 
   79654    79654    79652    79648    79645    79645    79643    79641 
   79637    79632    79628    79625    79624    79620    79616    79616 
   79616    79612    79609    79609    79610    79606    79602    79598 
   79596    79593    79590    79586    79582    79578    79575    79570 
   79562    79556    79551    79543    79537    79528    79519    79509 
   79501    79496    79492    79489    79485    79477    79475    79479 
   79478    79475    79475    79478    79479    79482    79485    79488 
   79488    79488    79486    79485    79488    79489    79488    79486 
   79489    79493    79496    79500    79504    79506    79512    79521 
   79529    79535    79540    79546    79551    79558    79566    79575 
   79581    79586    79593    79598    79602    79608    79613    79616 
   79618    79620    79621    79624    79624    79624    79627    79628 
   79627    79625    79621    79620    79623    79620    79617    79618 
   79614    79614    79620    79620    79620    79623    79624    79620 
   79618    79618    79614    79609    79605    79602    79601    79598 
   79598    79596    79590    79589    79587    79583    79581    79581 
   79578    79575    79574    79574    79575    79573    79567    79567 
   79566    79564    79560    79558    79556    79554    79552    79550 
   79544    79540    79537    79533    79529    79528    79524    79517 
   79512    79505    79500    79494    79489    79483    79479    79473 
   79467    79465    79462    79456    79454    79452    79451    79447 
   79444    79444    79446    79443    79446    79452    79455    79454 
   79455    79458    79459    79459    79461    79467    79474    79477 
   79478    79483    79490    79493    79496    79501    79508    79512 
   79512    79516    79523    79527    79531    79537    79543    79544 
   79547    79552    79555    79556    79562    79566    79567    79573 
   79581    79582    79585    79591    79598    79600    79604    79604 
   79601    79600    79601    79602    79600    79596    79593    79590 
   79589    79586    79581    79578    79575    79571    79569    79566 
   79563    79564    79567    79569    79569    79570    79571    79575 
   79578    79579    79581    79585    79591    79597    79597    79597 
   79600    79602    79601    79600    79594    79587    79586    79582 
   79577    79575    79573    79571    79573    79575    79579    79587 
   79590    79593    79598    79604    79610    79616    79621    79625 
   79628    79629    79631    79635    79637    79639    79635    79635 
   79637    79635    79629    79629    79629    79629    79627    79629 
   79632    79631    79632    79633    79629    79629    79633    79633 
   79632    79632    79632    79633    79637    79637    79636    79637 
   79639    79635    79632    79631    79627    79624    79621    79616 
   79614    79613    79608    79598    79591    79586    79579    79571 
   79559    79550    79537    79525    79516    79506    79494    79488 
   79482    79473    79465    79456    79450    79444    79439    79431 
   79424    79419    79416    79415    79412    79411    79412    79413 
   79416    79419    79419    79420    79423    79423    79425    79431 
   79436    79442    79451    79461    79466    79473    79479    79489 
   79496    79504    79512    79519    79524    79531    79537    79542 
   79546    79550    79552    79555    79558    79559    79562    79563 
   79564    79566    79567    79571    79571    79571    79574    79577 
   79577    79578    79579    79581    79582    79583    79589    79593 
   79596    79601    79606    79610    79617    79624    79631    79639 
   79647    79652    79659    79664    79670    79674    79678    79683 
   79685    79686    79690    79690    79690    79695    79699    79701 
   79701    79702    79705    79708    79709    79712    79713    79718 
   79721    79722    79726    79732    79732    79733    79733    79735 
   79737    79739    79737    79735    79735    79737    79739    79739 
   79737    79741    79743    79739    79739    79739    79735    79733 
   79731    79724    79717    79714    79712    79706    79699    79693 
   79687    79681    79672    79664    79656    79647    79641    79637 
   79628    79620    79614    79608    79602    79600    79597    79597 
   79594    79591    79593    79593    79593    79593    79589    79582 
   79579    79577    79571    79562    79552    79544    79539    79535 
   79527    79519    79513    79509    79502    79500    79500    79493 
   79486    79485    79483    79481    79475    79471    79467    79462 
   79458    79454    79448    79442    79438    79432    79427    79421 
   79417    79411    79404    79401    79396    79390    79388    79382 
   79375    79369    79365    79362    79361    79362    79359    79358 
   79361    79359    79355    79357    79358    79355    79355    79354 
   79353    79354    79357    79358    79359    79361    79362    79362 
   79365    79369    79370    79369    79370    79370    79371    79377 
   79382    79384    79389    79397    79402    79409    79417    79423 
   79428    79435    79439    79442    79443    79443    79443    79443 
   79440    79440    79443    79442    79442    79443    79444    79447 
   79446    79443    79442    79443    79442    79442    79444    79448 
   79450    79451    79454    79458    79461    79463    79466    79467 
   79469    79471    79471    79473    79474    79475    79479    79481 
   79482    79483    79488    79489    79492    79496    79498    79501 
   79505    79508    79509    79515    79519    79523    79529    79535 
   79542    79551    79558    79563    79567    79573    79581    79587 
   79591    79594    79600    79606    79613    79618    79628    79636 
   79636    79637    79641    79643    79641    79641    79637    79635 
   79632    79627    79621    79616    79609    79604    79597    79587 
   79578    79569    79558    79544    79532    79523    79512    79498 
   79485    79475    79466    79452    79442    79435    79425    79415 
   79405    79400    79401    79397    79392    79389    79385    79380 
   79375    79373    79373    79371    79367    79366    79365    79363 
   79361    79357    79355    79353    79350    79348    79351    79353 
   79355    79359    79362    79366    79374    79384    79390    79402 
   79415    79424    79436    79447    79459    79474    79490    79502 
   79515    79528    79542    79554    79569    79581    79589    79600 
   79609    79616    79621    79628    79635    79643    79652    79658 
   79664    79672    79677    79679    79685    79689    79690    79694 
   79699    79704    79712    79718    79721    79725    79731    79736 
   79739    79740    79743    79743    79740    79740    79737    79732 
   79728    79725    79717    79706    79698    79689    79681    79670 
   79662    79656    79648    79640    79633    79627    79623    79620 
   79613    79608    79606    79601    79591    79582    79570    79558 
   79546    79531    79516    79504    79492    79479    79467    79452 
   79440    79434    79425    79417    79408    79400    79393    79386 
   79381    79374    79370    79367    79358    79350    79344    79340 
   79335    79331    79328    79326    79321    79320    79317    79313 
   79316    79319    79317    79317    79321    79324    79328    79335 
   79340    79348    79358    79367    79377    79388    79397    79408 
   79423    79436    79448    79462    79479    79494    79508    79521 
   79535    79550    79560    79573    79583    79596    79606    79613 
   79620    79628    79632    79636    79640    79644    79647    79647 
   79647    79648    79650    79648    79645    79644    79644    79645 
   79643    79640    79641    79643    79643    79641    79639    79635 
   79631    79625    79618    79610    79601    79593    79582    79567 
   79552    79537    79525    79512    79498    79488    79478    79469 
   79455    79446    79442    79438    79432    79428    79424    79423 
   79424    79425    79429    79436    79442    79443    79446    79452 
   79459    79467    79477    79486    79494    79502    79510    79520 
   79535    79551    79560    79571    79582    79594    79604    79613 
   79625    79635    79641    79645    79648    79655    79662    79666 
   79667    79671    79675    79677    79679    79679    79677    79677 
   79677    79672    79674    79672    79670    79672    79675    79672 
   79671    79674    79675    79674    79677    79678    79678    79678 
   79679    79682    79685    79686    79687    79690    79694    79697 
   79697    79697    79702    79706    79706    79708    79709    79706 
   79704    79706    79709    79708    79705    79704    79705    79708 
   79708    79709    79714    79714    79714    79717    79716    79710 
   79709    79708    79704    79697    79689    79683    79672    79660 
   79654    79644    79629    79617    79604    79590    79578    79564 
   79550    79536    79524    79512    79501    79494    79486    79475 
   79469    79465    79459    79455    79451    79448    79444    79439 
   79435    79431    79425    79417    79408    79402    79393    79380 
   79371    79362    79351    79344    79334    79323    79315    79308 
   79304    79296    79288    79286    79284    79277    79274    79270 
   79267    79267    79266    79262    79259    79254    79251    79250 
   79246    79239    79231    79227    79227    79224    79216    79212 
   79207    79199    79195    79189    79184    79180    79174    79166 
   79159    79155    79150    79145    79141    79137    79135    79137 
   79138    79142    79146    79149    79154    79164    79169    79174 
   79185    79193    79203    79216    79228    79239    79254    79267 
   79280    79294    79312    79326    79343    79365    79380    79397 
   79417    79435    79454    79475    79493    79509    79528    79546 
   79560    79578    79594    79612    79629    79643    79656    79672 
   79686    79701    79716    79733    79753    79771    79790    79812 
   79834    79856    79880    79902    79921    79942    79963    79979 
   79992    80009    80023    80037    80048    80057    80069    80079 
   80086    80092    80099    80100    80102    80106    80106    80102 
   80100    80095    80090    80084    80076    80068    80057    80044 
   80029    80017    80005    79987    79967    79947    79929    79909 
   79888    79867    79845    79826    79807    79789    79768    79745 
   79726    79706    79686    79666    79643    79620    79602    79581 
   79556    79533    79513    79493    79473    79450    79431    79413 
   79396    79380    79363    79348    79336    79324    79315    79308 
   79300    79294    79290    79288    79286    79286    79285    79285 
   79290    79292    79294    79301    79309    79313    79319    79320 
   79324    79330    79335    79340    79343    79343    79343    79344 
   79346    79346    79346    79344    79340    79340    79339    79334 
   79331    79326    79316    79309    79303    79297    79292    79284 
   79277    79272    79263    79257    79255    79251    79247    79249 
   79251    79254    79258    79263    79267    79274    79284    79293 
   79304    79313    79324    79336    79344    79353    79362    79369 
   79373    79378    79386    79396    79402    79412    79421    79429 
   79439    79448    79461    79474    79483    79492    79502    79515 
   79525    79535    79544    79552    79564    79575    79579    79585 
   79593    79598    79602    79606    79610    79614    79620    79621 
   79623    79625    79628    79625    79624    79623    79617    79610 
   79605    79602    79594    79586    79577    79567    79560    79554 
   79546    79536    79528    79520    79513    79510    79505    79500 
   79498    79496    79490    79489    79488    79482    79482    79483 
   79478    79474    79474    79473    79470    79470    79471    79471 
   79471    79471    79471    79473    79473    79474    79477    79477 
   79479    79482    79481    79483    79482    79475    79474    79474 
   79467    79461    79458    79452    79444    79435    79431    79428 
   79423    79421    79423    79424    79424    79425    79429    79431 
   79434    79442    79448    79455    79461    79469    79477    79483 
   79493    79501    79509    79521    79532    79536    79544    79555 
   79563    79571    79581    79591    79600    79610    79620    79625 
   79629    79637    79643    79648    79655    79660    79663    79660 
   79659    79658    79655    79651    79644    79639    79635    79624 
   79612    79602    79590    79573    79559    79544    79529    79516 
   79501    79482    79466    79447    79423    79400    79378    79357 
   79332    79309    79285    79259    79234    79211    79188    79162 
   79137    79114    79092    79072    79050    79029    79008    78989 
   78972    78956    78942    78927    78914    78904    78898    78889 
   78884    78881    78880    78884    78891    78896    78904    78912 
   78925    78942    78957    78972    78992    79008    79026    79047 
   79068    79087    79108    79130    79150    79172    79196    79220 
   79243    79269    79292    79312    79332    79355    79378    79398 
   79421    79443    79463    79485    79509    79531    79552    79579 
   79604    79624    79648    79671    79690    79712    79732    79748 
   79766    79783    79795    79807    79820    79830    79840    79845 
   79851    79855    79856    79855    79855    79853    79849    79845 
   79843    79839    79833    79826    79822    79822    79818    79813 
   79809    79802    79795    79789    79782    79776    79771    79764 
   79759    79753    79747    79740    79733    79729    79724    79712 
   79705    79702    79694    79687    79683    79679    79675    79674 
   79674    79672    79671    79672    79674    79674    79672    79671 
   79675    79678    79678    79679    79685    79690    79694    79697 
   79702    79706    79710    79716    79720    79721    79729    79735 
   79737    79743    79748    79753    79760    79766    79768    79770 
   79772    79778    79782    79779    79774    79774    79771    79766 
   79763    79759    79752    79749    79745    79737    79731    79724 
   79714    79706    79693    79675    79663    79655    79644    79632 
   79618    79609    79600    79590    79583    79574    79567    79560 
   79555    79548    79542    79537    79539    79540    79536    79535 
   79536    79536    79533    79532    79531    79528    79524    79517 
   79512    79508    79501    79490    79483    79478    79469    79459 
   79454    79447    79442    79438    79434    79434    79435    79436 
   79438    79439    79447    79452    79455    79462    79469    79473 
   79478    79482    79483    79488    79490    79493    79493    79492 
   79494    79497    79497    79497    79498    79500    79502    79506 
   79510    79510    79516    79521    79525    79529    79535    79539 
   79546    79551    79554    79558    79563    79564    79566    79569 
   79571    79569    79566    79564    79560    79554    79547    79542 
   79532    79521    79512    79502    79488    79473    79461    79444 
   79428    79413    79398    79386    79371    79357    79348    79336 
   79321    79313    79307    79296    79290    79288    79284    79281 
   79282    79280    79277    79281    79284    79281    79284    79288 
   79290    79294    79299    79301    79308    79313    79319    79324 
   79328    79335    79343    79350    79357    79367    79380    79390 
   79401    79413    79423    79434    79446    79458    79469    79478 
   79488    79497    79506    79515    79524    79535    79546    79551 
   79558    79566    79575    79587    79597    79602    79609    79618 
   79631    79639    79644    79650    79655    79659    79663    79671 
   79675    79677    79682    79689    79691    79693    79698    79702 
   79706    79712    79716    79718    79726    79735    79737    79741 
   79747    79749    79751    79753    79753    79752    79753    79755 
   79749    79743    79741    79739    79733    79725    79718    79713 
   79708    79702    79694    79683    79674    79664    79656    79647 
   79635    79624    79616    79605    79594    79583    79571    79566 
   79559    79548    79539    79532    79520    79508    79498    79492 
   79486    79482    79477    79473    79470    79470    79473    79477 
   79479    79485    79492    79498    79504    79510    79521    79531 
   79542    79551    79560    79571    79583    79591    79598    79605 
   79613    79621    79628    79633    79637    79639    79643    79644 
   79645    79645    79645    79645    79644    79643    79640    79635 
   79629    79625    79617    79608    79601    79591    79577    79564 
   79554    79540    79527    79513    79500    79489    79474    79454 
   79438    79421    79404    79390    79378    79363    79348    79336 
   79327    79315    79301    79290    79280    79267    79257    79245 
   79235    79226    79213    79203    79193    79180    79168    79155 
   79141    79128    79120    79110    79097    79088    79080    79073 
   79066    79064    79060    79054    79050    79050    79049    79047 
   79047    79049    79051    79053    79056    79060    79062    79066 
   79070    79074    79077    79084    79093    79100    79108    79119 
   79126    79135    79147    79157    79170    79189    79204    79218 
   79234    79251    79269    79292    79316    79338    79358    79380 
   79404    79428    79451    79474    79497    79520    79542    79564 
   79589    79609    79628    79644    79662    79679    79693    79704 
   79714    79724    79731    79740    79745    79748    79752    79756 
   79756    79755    79753    79753    79752    79749    79747    79743 
   79737    79732    79728    79724    79718    79712    79708    79705 
   79695    79687    79682    79674    79663    79654    79641    79629 
   79616    79604    79591    79577    79563    79552    79542    79528 
   79517    79506    79492    79478    79465    79452    79442    79428 
   79412    79401    79393    79378    79362    79350    79338    79327 
   79317    79305    79293    79288    79281    79276    79272    79267 
   79262    79257    79254    79253    79255    79254    79255    79255 
   79257    79259    79263    79267    79274    79281    79286    79294 
   79301    79308    79313    79321    79330    79338    79346    79355 
   79362    79371    79382    79394    79405    79417    79431    79444 
   79458    79471    79488    79506    79521    79537    79558    79574 
   79587    79606    79623    79639    79659    79678    79694    79712 
   79729    79745    79762    79778    79793    79805    79816    79830 
   79843    79851    79859    79870    79878    79887    79893    79897 
