Origin Time       2025/01/13 21:19:00
Lat.              31.8
Long.             131.6
Depth. (km)       30
Mag.              6.9
Station Code      KYTH01
Station Lat.      35.5243
Station Long.     135.1243
Station Height(m) 15
Record Time       2025/01/13 21:22:06
Sampling Freq(Hz) 100Hz
Duration Time(s)  120
Dir.              4
Scale Factor      7845(gal)/8223790
Max. Acc. (gal)   0.592
Last Correction   2025/01/13 21:22:06
Memo.             
[...]
   12536    12541    12545    12546    12548    12550    12552    12552 
   12556    12557    12553    12548    12541    12528    12517    12510 
   12499    12494    12491    12483    12474    12461    12447    12430 
   12420    12410    12402    12398    12401    12405    12407    12411 
   12417    12424    12430    12438    12445    12455    12465    12479 
   12490    12496    12506    12518    12526    12528    12532    12533 
   12532    12530    12529    12525    12530    12537    12540    12544 
   12548    12545    12544    12542    12536    12525    12515    12505 
   12494    12484    12474    12463    12456    12447    12434    12428 
   12425    12422    12421    12425    12430    12434    12444    12459 
   12468    12472    12484    12495    12499    12505    12511    12511 
   12510    12509    12509    12507    12502    12496    12492    12487 
   12483    12478    12468    12461    12459    12457    12453    12452 
   12449    12442    12437    12430    12418    12407    12402    12397 
   12391    12391    12393    12401    12413    12425    12440    12457 
   12476    12492    12507    12519    12532    12545    12553    12556 
   12556    12557    12555    12548    12541    12537    12529    12519 
   12515    12507    12496    12492    12491    12488    12487    12486 
   12483    12482    12476    12475    12475    12474    12480    12488 
   12492    12495    12502    12503    12502    12505    12506    12505 
   12510    12513    12517    12526    12537    12542    12548    12553 
   12553    12555    12557    12555    12545    12537    12526    12511 
   12499    12490    12483    12478    12465    12457    12457    12455 
   12453    12456    12456    12460    12468    12478    12491    12502 
   12509    12517    12526    12533    12541    12549    12557    12567 
   12576    12588    12603    12613    12617    12623    12631    12634 
   12637    12638    12634    12633    12630    12622    12615    12613 
   12609    12607    12603    12594    12582    12571    12561    12550 
   12541    12538    12533    12529    12529    12523    12515    12507 
   12496    12488    12487    12484    12480    12478    12478    12476 
   12476    12476    12480    12487    12499    12513    12521    12523 
   12529    12532    12529    12523    12519    12515    12513    12509 
   12506    12505    12502    12501    12499    12498    12499    12505 
   12509    12513    12522    12532    12541    12552    12564    12573 
   12584    12592    12599    12604    12607    12610    12614    12614 
   12613    12615    12615    12611    12610    12603    12592    12584 
   12577    12572    12565    12559    12550    12541    12528    12518 
   12511    12499    12488    12478    12468    12463    12459    12455 
   12457    12463    12467    12472    12480    12490    12496    12501 
   12514    12529    12538    12548    12561    12572    12579    12586 
   12591    12596    12599    12598    12594    12592    12586    12573 
   12565    12552    12538    12532    12522    12510    12507    12506 
   12501    12502    12505    12501    12498    12503    12509    12511 
   12518    12528    12534    12538    12546    12556    12564    12571 
   12576    12584    12592    12598    12603    12604    12600    12592 
   12579    12565    12550    12532    12510    12492    12478    12460 
   12440    12424    12403    12383    12368    12353    12340    12330 
   12326    12326    12328    12330    12340    12353    12364    12376 
   12393    12407    12424    12441    12460    12476    12490    12507 
   12523    12534    12544    12552    12557    12563    12568    12571 
   12572    12567    12552    12541    12530    12513    12501    12491 
   12479    12475    12471    12467    12465    12465    12464    12464 
   12468    12476    12484    12492    12501    12507    12515    12521 
   12525    12528    12533    12537    12542    12550    12557    12567 
   12576    12579    12580    12580    12573    12567    12563    12556 
   12548    12544    12540    12533    12530    12529    12526    12526 
   12530    12533    12532    12532    12532    12532    12537    12545 
   12550    12556    12561    12565    12571    12573    12575    12576 
   12579    12577    12572    12565    12561    12553    12545    12537 
   12529    12521    12513    12503    12492    12483    12471    12459 
   12453    12448    12442    12438    12436    12436    12438    12442 
   12451    12465    12482    12502    12528    12549    12568    12587 
   12607    12623    12631    12641    12653    12654    12656    12657 
   12649    12640    12633    12621    12606    12590    12571    12553 
   12538    12523    12503    12484    12468    12451    12433    12417 
   12403    12391    12380    12371    12363    12360    12360    12363 
   12370    12379    12393    12410    12430    12449    12469    12488 
   12503    12515    12526    12536    12542    12544    12544    12546 
   12545    12541    12536    12523    12510    12505    12494    12476 
   12465    12461    12452    12444    12438    12433    12428    12426 
   12424    12417    12411    12406    12395    12388    12384    12379 
   12382    12387    12390    12399    12414    12426    12444    12463 
   12478    12494    12510    12521    12532    12545    12552    12560 
   12571    12576    12582    12591    12594    12591    12588    12582 
   12573    12569    12563    12552    12545    12540    12536    12532 
   12526    12519    12515    12514    12510    12505    12506    12511 
   12513    12515    12521    12528    12534    12542    12549    12556 
   12565    12575    12587    12602    12613    12625    12637    12642 
   12645    12652    12654    12649    12644    12637    12626    12614 
   12599    12583    12569    12556    12538    12523    12517    12509 
   12505    12506    12503    12499    12501    12502    12507    12517 
   12525    12532    12546    12561    12569    12583    12599    12606 
   12617    12634    12649    12663    12676    12685    12691    12695 
   12698    12691    12683    12676    12672    12665    12660    12654 
   12649    12641    12636    12630    12621    12611    12606    12598 
   12594    12590    12582    12577    12575    12567    12557    12550 
   12544    12533    12525    12519    12518    12519    12521    12522 
   12525    12529    12533    12536    12534    12536    12534    12528 
   12522    12515    12506    12505    12501    12491    12482    12468 
   12456    12448    12437    12428    12425    12421    12413    12411 
   12410    12403    12399    12394    12387    12383    12380    12375 
   12372    12372    12370    12367    12366    12360    12353    12352 
   12349    12344    12341    12339    12333    12330    12326    12317 
   12313    12310    12305    12303    12307    12312    12316    12322 
   12333    12340    12345    12359    12374    12382    12391    12405 
   12418    12433    12445    12456    12469    12480    12487    12498 
   12509    12514    12515    12517    12514    12510    12507    12501 
   12491    12487    12487    12486    12486    12483    12479    12471 
   12459    12449    12438    12432    12426    12420    12417    12418 
   12421    12426    12436    12445    12456    12474    12491    12506 
   12519    12534    12549    12563    12575    12592    12610    12622 
   12633    12642    12644    12645    12648    12644    12637    12629 
   12619    12610    12604    12598    12590    12582    12575    12571 
   12567    12563    12561    12567    12572    12580    12587    12591 
   12592    12594    12596    12598    12598    12594    12588    12583 
   12577    12575    12575    12571    12567    12568    12565    12561 
   12557    12552    12546    12538    12532    12529    12523    12515 
   12507    12498    12491    12487    12482    12475    12468    12465 
   12467    12468    12465    12465    12472    12478    12482    12486 
   12488    12486    12480    12472    12465    12453    12440    12429 
   12421    12415    12407    12398    12394    12388    12380    12374 
   12371    12364    12349    12333    12320    12306    12291    12270 
   12253    12243    12231    12224    12220    12216    12221    12231 
   12239    12252    12268    12283    12302    12326    12351    12371 
   12397    12425    12449    12478    12507    12532    12557    12584 
   12606    12629    12658    12684    12702    12721    12738    12752 
   12765    12776    12781    12787    12792    12791    12785    12779 
   12769    12753    12737    12722    12708    12692    12676    12668 
   12661    12657    12657    12654    12652    12654    12658    12664 
   12664    12661    12663    12665    12664    12661    12663    12664 
   12663    12663    12661    12657    12653    12649    12644    12640 
   12631    12623    12621    12614    12607    12603    12596    12583 
   12571    12559    12548    12541    12534    12523    12518    12514 
   12510    12510    12510    12509    12510    12517    12528    12542 
   12559    12575    12591    12607    12617    12623    12626    12623 
   12623    12622    12617    12615    12613    12604    12594    12584 
   12575    12563    12550    12542    12533    12523    12514    12503 
   12488    12468    12448    12428    12405    12380    12357    12334 
   12313    12294    12272    12252    12236    12220    12205    12199 
   12193    12182    12175    12172    12171    12170    12170    12168 
   12168    12164    12162    12160    12156    12154    12158    12158 
   12158    12164    12174    12183    12195    12205    12213    12222 
   12232    12236    12240    12241    12243    12240    12239    12240 
   12244    12247    12251    12256    12264    12274    12280    12287 
   12293    12301    12310    12316    12318    12322    12330    12340 
   12349    12359    12372    12388    12403    12421    12438    12457 
   12479    12498    12514    12529    12544    12557    12571    12583 
   12595    12610    12623    12640    12658    12679    12700    12730 
   12754    12776    12802    12825    12846    12868    12883    12897 
   12918    12933    12942    12953    12960    12960    12957    12953 
   12943    12934    12922    12906    12889    12872    12850    12830 
   12810    12793    12781    12772    12760    12753    12750    12746 
   12742    12741    12741    12742    12748    12756    12764    12775 
   12781    12787    12795    12800    12800    12803    12806    12804 
   12799    12793    12789    12781    12765    12742    12717    12694 
   12672    12648    12619    12591    12564    12537    12510    12482 
   12452    12428    12410    12391    12371    12353    12341    12330 
   12324    12321    12321    12320    12324    12334    12340    12344 
   12356    12366    12371    12376    12379    12378    12379    12380 
   12379    12378    12380    12380    12375    12370    12364    12360 
   12355    12348    12345    12349    12351    12349    12349    12353 
   12355    12357    12366    12376    12387    12399    12415    12436 
   12455    12479    12503    12528    12550    12571    12590    12607 
   12619    12629    12640    12649    12654    12653    12650    12649 
   12648    12640    12625    12610    12591    12571    12550    12526 
   12502    12480    12457    12430    12406    12387    12370    12352 
   12339    12329    12318    12306    12298    12289    12279    12275 
   12274    12275    12279    12285    12290    12298    12307    12314 
   12324    12334    12345    12352    12357    12361    12363    12366 
   12372    12379    12384    12394    12405    12420    12436    12449 
   12464    12480    12496    12514    12534    12559    12583    12604 
   12631    12661    12685    12711    12741    12764    12781    12800 
   12815    12826    12833    12835    12837    12834    12827    12815 
   12798    12773    12744    12711    12677    12644    12604    12563 
   12518    12476    12436    12395    12356    12325    12297    12266 
   12243    12231    12222    12218    12220    12228    12237    12248 
   12260    12274    12291    12309    12325    12344    12368    12393 
   12415    12436    12456    12476    12495    12511    12523    12534 
   12541    12542    12544    12546    12545    12542    12542    12538 
   12534    12533    12529    12528    12530    12532    12532    12534 
   12536    12538    12542    12541    12542    12549    12549    12544 
   12542    12537    12532    12530    12525    12517    12515    12510 
   12499    12495    12491    12483    12479    12476    12469    12469 
   12475    12480    12488    12498    12506    12514    12526    12536 
   12545    12553    12556    12561    12565    12568    12572    12579 
   12580    12580    12583    12583    12582    12579    12571    12560 
   12549    12534    12518    12503    12484    12465    12449    12430 
   12414    12395    12378    12368    12360    12352    12348    12347 
   12344    12347    12352    12355    12360    12367    12370    12374 
   12379    12383    12386    12393    12401    12409    12415    12424 
   12436    12445    12453    12464    12478    12492    12509    12526 
   12546    12568    12588    12609    12629    12650    12675    12699 
   12723    12749    12773    12796    12819    12841    12861    12881 
   12896    12904    12912    12920    12922    12916    12908    12893 
   12874    12850    12816    12775    12726    12673    12613    12550 
   12492    12434    12374    12314    12256    12199    12147    12097 
   12050    12008    11970    11939    11919    11902    11889    11885 
   11886    11890    11902    11924    11946    11973    12008    12047 
   12089    12137    12186    12236    12290    12341    12390    12441 
   12490    12532    12572    12607    12638    12667    12690    12703 
   12712    12718    12717    12710    12698    12680    12657    12630 
   12604    12577    12549    12518    12490    12465    12438    12411 
   12388    12366    12343    12328    12316    12306    12301    12299 
   12297    12297    12303    12314    12324    12339    12356    12375 
   12390    12407    12428    12445    12465    12486    12503    12519 
   12536    12550    12567    12580    12591    12602    12614    12623 
   12633    12645    12656    12665    12669    12672    12676    12680 
   12681    12683    12683    12681    12684    12684    12683    12683 
   12683    12680    12677    12677    12679    12676    12675    12671 
   12667    12661    12656    12652    12649    12642    12636    12634 
   12630    12623    12626    12631    12636    12641    12646    12652 
   12661    12669    12676    12687    12700    12708    12715    12726 
   12734    12739    12745    12744    12733    12723    12712    12696 
   12677    12653    12623    12595    12565    12530    12494    12459 
   12422    12390    12359    12321    12287    12255    12220    12186 
   12152    12120    12090    12062    12039    12017    12000    11988 
   11977    11969    11966    11969    11973    11977    11989    12005 
   12016    12031    12051    12070    12087    12105    12121    12137 
   12159    12181    12202    12224    12244    12267    12293    12320 
   12341    12363    12388    12414    12438    12460    12483    12499 
   12514    12533    12549    12559    12568    12580    12591    12598 
   12607    12617    12626    12634    12638    12637    12637    12636 
   12631    12623    12617    12607    12596    12583    12567    12553 
   12541    12523    12502    12484    12471    12456    12438    12421 
   12406    12394    12386    12378    12367    12357    12349    12343 
   12337    12332    12328    12324    12318    12309    12306    12302 
   12294    12291    12290    12287    12290    12301    12313    12324 
   12337    12352    12371    12395    12424    12453    12482    12511 
   12544    12576    12609    12642    12677    12707    12738    12773 
   12802    12829    12856    12877    12899    12922    12941    12960 
   12976    12984    12992    12999    13001    13001    12999    12992 
   12985    12974    12961    12943    12924    12908    12889    12865 
   12841    12818    12792    12769    12750    12730    12710    12692 
   12679    12669    12658    12649    12644    12638    12634    12631 
   12627    12623    12621    12618    12615    12613    12611    12609 
   12609    12610    12609    12607    12604    12603    12606    12610 
   12609    12610    12615    12619    12623    12630    12633    12640 
   12648    12654    12661    12665    12667    12668    12664    12657 
   12654    12645    12630    12617    12603    12586    12565    12545 
   12525    12507    12486    12461    12438    12415    12391    12372 
   12353    12333    12318    12305    12289    12278    12268    12262 
   12260    12260    12260    12264    12267    12272    12279    12286 
   12294    12301    12306    12314    12321    12332    12341    12343 
   12348    12357    12361    12361    12364    12368    12370    12371 
   12372    12372    12374    12374    12376    12378    12376    12378 
   12382    12384    12388    12395    12402    12413    12425    12438 
   12455    12467    12480    12494    12509    12522    12537    12555 
   12572    12584    12596    12617    12636    12648    12660    12676 
   12692    12706    12715    12721    12726    12729    12726    12723 
   12719    12708    12698    12690    12673    12656    12638    12614 
   12590    12571    12546    12522    12505    12487    12468    12453 
   12442    12428    12415    12406    12398    12393    12388    12386 
   12383    12384    12388    12386    12383    12387    12391    12394 
   12395    12397    12402    12407    12414    12424    12430    12434 
   12444    12452    12455    12457    12460    12461    12461    12461 
   12459    12453    12448    12440    12430    12425    12420    12413 
   12410    12406    12402    12403    12403    12403    12407    12407 
   12407    12414    12411    12407    12411    12413    12409    12405 
   12405    12409    12413    12418    12425    12429    12437    12448 
   12457    12467    12479    12490    12501    12515    12530    12542 
   12555    12567    12577    12592    12606    12615    12626    12640 
   12652    12663    12673    12681    12683    12684    12685    12683 
   12679    12671    12661    12652    12640    12623    12603    12583 
   12561    12538    12517    12494    12469    12449    12429    12409 
   12397    12387    12374    12361    12355    12352    12355    12357 
   12361    12372    12387    12405    12426    12451    12479    12509 
   12538    12569    12603    12637    12665    12691    12715    12733 
   12746    12761    12771    12771    12771    12771    12764    12752 
   12739    12723    12704    12684    12654    12623    12598    12572 
   12542    12517    12486    12459    12438    12415    12390    12370 
   12351    12333    12325    12314    12303    12299    12297    12297 
   12299    12303    12310    12316    12325    12337    12347    12356 
   12367    12374    12379    12384    12383    12383    12384    12382 
   12379    12380    12375    12371    12368    12363    12357    12357 
   12360    12357    12353    12353    12351    12351    12353    12349 
   12348    12352    12355    12353    12353    12355    12357    12361 
   12364    12370    12375    12380    12388    12398    12409    12418 
