Origin Time       2025/01/13 21:19:00
Lat.              31.8
Long.             131.6
Depth. (km)       30
Mag.              6.9
Station Code      KYTH01
Station Lat.      35.5243
Station Long.     135.1243
Station Height(m) 15
Record Time       2025/01/13 21:22:06
Sampling Freq(Hz) 100Hz
Duration Time(s)  120
Dir.              6
Scale Factor      7845(gal)/8223790
Max. Acc. (gal)   0.249
Last Correction   2025/01/13 21:22:06
Memo.             
[...]
    8995     8993     8996     9000     9007     9013     9023     9030 
    9036     9047     9057     9062     9066     9069     9070     9070 
    9066     9062     9057     9054     9053     9053     9053     9055 
    9057     9055     9054     9051     9050     9055     9063     9066 
    9066     9069     9076     9082     9086     9088     9089     9088 
    9086     9084     9082     9088     9089     9086     9088     9092 
    9092     9090     9090     9092     9094     9092     9085     9085 
    9086     9086     9088     9086     9082     9081     9082     9081 
    9078     9081     9082     9085     9086     9088     9089     9093 
    9094     9093     9094     9094     9090     9088     9089     9090 
    9092     9089     9084     9084     9086     9086     9090     9093 
    9093     9090     9092     9096     9097     9097     9099     9097 
    9097     9099     9100     9101     9104     9105     9103     9101 
    9105     9107     9104     9104     9105     9099     9094     9094 
    9090     9086     9081     9077     9074     9070     9065     9063 
    9062     9062     9069     9073     9074     9078     9080     9074 
    9072     9072     9067     9065     9061     9053     9045     9039 
    9035     9031     9027     9023     9020     9022     9024     9022 
    9020     9020     9022     9026     9028     9030     9032     9032 
    9032     9035     9035     9034     9032     9031     9030     9031 
    9031     9028     9030     9035     9038     9040     9049     9057 
    9062     9067     9069     9072     9074     9072     9070     9070 
    9062     9057     9054     9049     9047     9050     9050     9055 
    9063     9066     9070     9076     9080     9084     9092     9096 
    9090     9084     9080     9073     9062     9054     9045     9039 
    9036     9036     9034     9034     9036     9039     9040     9046 
    9055     9059     9055     9050     9049     9045     9039     9034 
    9028     9022     9019     9018     9013     9012     9015     9015 
    9015     9016     9012     9008     9012     9019     9022     9022 
    9023     9026     9028     9026     9023     9027     9034     9036 
    9039     9042     9042     9043     9045     9042     9039     9040 
    9040     9039     9038     9035     9034     9035     9036     9035 
    9036     9036     9038     9042     9043     9043     9043     9043 
    9043     9046     9051     9053     9051     9053     9057     9057 
    9053     9049     9050     9051     9049     9049     9047     9043 
    9043     9043     9042     9042     9040     9042     9045     9047 
    9050     9050     9051     9055     9057     9055     9058     9059 
    9058     9057     9053     9053     9055     9057     9057     9057 
    9057     9057     9059     9062     9065     9072     9074     9076 
    9081     9084     9084     9086     9089     9089     9089     9092 
    9092     9089     9089     9088     9086     9085     9082     9084 
    9089     9093     9099     9103     9100     9100     9101     9097 
    9099     9105     9104     9101     9103     9103     9097     9092 
    9088     9082     9077     9072     9065     9062     9059     9053 
    9046     9039     9031     9026     9023     9018     9012     9013 
    9016     9013     9015     9019     9022     9020     9019     9018 
    9018     9018     9016     9016     9018     9018     9023     9026 
    9024     9026     9028     9027     9027     9030     9031     9028 
    9028     9030     9027     9023     9023     9019     9015     9015 
    9015     9011     9011     9013     9018     9020     9019     9022 
    9024     9027     9034     9039     9040     9045     9049     9049 
    9049     9053     9057     9061     9067     9070     9070     9073 
    9078     9080     9080     9077     9073     9067     9066     9065 
    9061     9059     9058     9058     9058     9059     9059     9059 
    9059     9057     9051     9043     9039     9036     9034     9026 
    9015     9008     9003     8997     8997     8997     8996     8997 
    8999     8999     9003     9005     9009     9015     9016     9016 
    9020     9023     9026     9030     9034     9034     9035     9034 
    9032     9035     9039     9043     9047     9050     9055     9058 
    9062     9065     9066     9066     9066     9067     9067     9069 
    9072     9074     9073     9076     9081     9081     9085     9090 
    9089     9088     9089     9086     9085     9085     9084     9084 
    9084     9081     9070     9061     9054     9046     9039     9034 
    9030     9026     9020     9020     9018     9019     9023     9023 
    9027     9031     9031     9034     9036     9039     9046     9051 
    9053     9057     9059     9062     9061     9058     9055     9051 
    9047     9043     9040     9042     9043     9040     9042     9043 
    9042     9040     9042     9045     9042     9038     9042     9042 
    9040     9043     9045     9043     9045     9047     9051     9058 
    9066     9076     9080     9082     9090     9094     9096     9100 
    9101     9103     9107     9108     9108     9112     9115     9109 
    9111     9113     9112     9113     9115     9112     9108     9105 
    9105     9108     9107     9104     9104     9104     9103     9101 
    9100     9097     9097     9099     9097     9093     9090     9088 
    9084     9082     9084     9082     9081     9082     9078     9074 
    9072     9070     9073     9074     9072     9073     9076     9074 
    9074     9072     9065     9061     9061     9062     9058     9054 
    9050     9047     9045     9045     9043     9042     9042     9042 
    9040     9039     9039     9038     9032     9030     9030     9023 
    9019     9019     9016     9013     9011     9011     9018     9023 
    9024     9030     9038     9040     9043     9046     9047     9046 
    9043     9038     9034     9031     9028     9026     9027     9030 
    9031     9034     9036     9036     9040     9047     9055     9065 
    9072     9076     9081     9085     9082     9084     9088     9085 
    9084     9092     9096     9099     9105     9108     9111     9113 
    9109     9109     9116     9115     9115     9120     9116     9113 
    9112     9107     9103     9101     9092     9084     9077     9066 
    9059     9054     9046     9039     9036     9032     9026     9020 
    9013     9007     9003     9000     8999     8999     8999     9003 
    9008     9008     9008     9008     9007     9004     9003     9004 
    9003     8999     8996     8996     8996     8995     8991     8991 
    8992     8991     8986     8980     8974     8970     8968     8966 
    8969     8966     8965     8968     8969     8969     8969     8968 
    8972     8976     8977     8980     8989     8993     8996     9001 
    9004     9003     9005     9009     9007     9001     9001     9000 
    9000     9004     9005     9005     9008     9007     9008     9011 
    9015     9022     9028     9031     9032     9032     9034     9035 
    9034     9036     9043     9047     9047     9050     9054     9054 
    9054     9055     9057     9061     9063     9063     9066     9070 
    9070     9072     9074     9076     9078     9077     9072     9067 
    9063     9063     9065     9063     9059     9062     9063     9061 
    9063     9066     9065     9067     9070     9066     9066     9073 
    9076     9078     9084     9086     9092     9097     9101     9101 
    9101     9107     9111     9113     9115     9116     9121     9124 
    9126     9131     9135     9134     9134     9134     9131     9132 
    9132     9126     9123     9121     9117     9117     9116     9111 
    9105     9103     9100     9101     9104     9107     9107     9105 
    9100     9096     9096     9096     9092     9090     9090     9088 
    9086     9088     9088     9088     9092     9094     9096     9101 
    9104     9104     9104     9104     9096     9092     9089     9080 
    9073     9070     9063     9061     9061     9054     9051     9054 
    9054     9053     9058     9062     9066     9073     9077     9078 
    9082     9082     9082     9082     9077     9073     9069     9066 
    9065     9062     9059     9057     9051     9046     9046     9043 
    9045     9047     9040     9031     9022     9011     9001     8992 
    8981     8972     8964     8958     8953     8947     8942     8939 
    8935     8934     8937     8938     8935     8928     8923     8916 
    8911     8905     8899     8892     8888     8887     8887     8892 
    8895     8897     8905     8915     8919     8922     8930     8937 
    8943     8950     8955     8962     8970     8980     8991     8999 
    9007     9016     9022     9026     9034     9043     9050     9055 
    9059     9065     9072     9074     9080     9090     9096     9101 
    9111     9119     9124     9132     9140     9144     9147     9154 
    9159     9163     9167     9171     9173     9177     9184     9184 
    9185     9186     9188     9189     9190     9193     9197     9197 
    9192     9186     9184     9177     9170     9162     9153     9147 
    9142     9134     9126     9119     9111     9107     9108     9108 
    9109     9109     9104     9101     9105     9105     9103     9103 
    9103     9100     9096     9096     9097     9101     9104     9105 
    9109     9115     9115     9113     9117     9119     9115     9112 
    9111     9108     9105     9100     9093     9092     9092     9089 
    9085     9084     9082     9081     9082     9085     9089     9090 
    9090     9092     9093     9090     9092     9094     9092     9086 
    9084     9076     9063     9059     9059     9057     9058     9061 
    9061     9065     9073     9080     9085     9090     9092     9092 
    9094     9089     9081     9077     9073     9066     9065     9063 
    9059     9057     9055     9047     9043     9043     9042     9038 
    9035     9030     9024     9018     9011     9003     8995     8986 
    8977     8969     8961     8953     8949     8942     8935     8930 
    8928     8926     8922     8916     8911     8904     8899     8895 
    8891     8888     8885     8887     8891     8892     8892     8896 
    8900     8903     8907     8912     8914     8915     8918     8923 
    8931     8935     8939     8947     8955     8961     8968     8980 
    8989     8995     9005     9015     9018     9023     9028     9031 
    9034     9034     9030     9027     9026     9023     9019     9012 
    9009     9012     9012     9008     9009     9012     9011     9011 
    9013     9018     9020     9023     9024     9026     9028     9031 
    9031     9027     9028     9030     9027     9024     9028     9032 
    9032     9034     9034     9034     9032     9031     9034     9036 
    9038     9039     9043     9051     9065     9077     9086     9096 
    9104     9108     9113     9124     9131     9135     9140     9142 
    9140     9138     9134     9128     9124     9120     9112     9105 
    9099     9090     9081     9073     9065     9059     9057     9050 
    9042     9036     9030     9019     9012     9004     8999     8995 
    8988     8984     8982     8978     8976     8980     8986     8986 
    8988     8996     9005     9012     9022     9034     9045     9054 
    9065     9077     9086     9094     9103     9109     9113     9117 
    9121     9126     9128     9128     9127     9127     9126     9127 
    9127     9123     9119     9116     9111     9108     9104     9096 
    9086     9078     9070     9059     9051     9043     9028     9015 
    9007     9000     8993     8988     8982     8974     8965     8957 
    8951     8947     8942     8939     8939     8939     8938     8941 
    8946     8949     8953     8961     8965     8973     8988     8997 
    9007     9024     9038     9049     9062     9080     9093     9107 
    9120     9132     9147     9159     9169     9180     9192     9198 
    9204     9211     9215     9217     9217     9211     9204     9197 
    9189     9180     9169     9159     9150     9139     9130     9121 
    9113     9107     9100     9093     9089     9088     9085     9085 
    9086     9088     9086     9088     9092     9099     9107     9116 
    9126     9136     9144     9157     9165     9171     9184     9193 
    9198     9209     9221     9228     9235     9236     9239     9242 
    9242     9244     9244     9239     9236     9232     9229     9225 
    9220     9220     9221     9220     9219     9217     9211     9204 
    9196     9186     9180     9171     9159     9150     9142     9128 
    9116     9107     9093     9081     9069     9054     9039     9027 
    9011     8996     8984     8972     8962     8953     8939     8926 
    8916     8912     8907     8908     8911     8910     8914     8920 
    8923     8924     8928     8931     8935     8938     8941     8942 
    8942     8942     8942     8942     8941     8939     8939     8938 
    8934     8930     8928     8927     8922     8916     8915     8912 
    8908     8910     8911     8908     8907     8911     8912     8910 
    8914     8916     8920     8930     8938     8946     8957     8968 
    8978     8989     8997     9003     9007     9013     9022     9030 
    9038     9042     9043     9047     9054     9059     9066     9076 
    9085     9097     9109     9121     9134     9144     9157     9174 
    9190     9205     9220     9231     9243     9258     9273     9282 
    9289     9298     9304     9309     9315     9313     9310     9310 
    9306     9301     9300     9294     9281     9266     9252     9238 
    9224     9211     9196     9185     9175     9162     9150     9136 
    9120     9112     9108     9099     9085     9077     9067     9051 
    9038     9026     9007     8992     8978     8964     8951     8941 
    8930     8920     8911     8901     8897     8895     8891     8885 
    8887     8889     8888     8888     8888     8885     8887     8889 
    8885     8885     8891     8893     8897     8901     8905     8915 
    8926     8934     8943     8955     8966     8976     8988     8997 
    9004     9012     9018     9020     9022     9024     9030     9034 
    9038     9043     9051     9055     9059     9065     9069     9073 
    9077     9082     9089     9093     9094     9096     9096     9094 
    9096     9099     9100     9097     9096     9101     9103     9101 
    9101     9103     9100     9099     9097     9094     9090     9086 
    9080     9073     9065     9053     9043     9036     9027     9018 
    9009     9001     8989     8980     8969     8959     8950     8938 
    8926     8918     8908     8899     8891     8880     8870     8865 
    8860     8856     8851     8849     8849     8849     8851     8856 
    8860     8865     8872     8877     8885     8893     8901     8908 
    8918     8926     8934     8942     8947     8950     8955     8962 
    8968     8976     8988     8999     9013     9028     9040     9055 
    9073     9086     9101     9115     9124     9132     9138     9142 
    9148     9154     9158     9161     9162     9161     9162     9163 
    9163     9167     9177     9180     9181     9184     9186     9185 
    9180     9174     9169     9161     9150     9138     9128     9116 
    9099     9084     9074     9065     9054     9039     9026     9013 
    9004     8995     8986     8984     8978     8974     8972     8970 
    8970     8972     8972     8973     8980     8984     8985     8988 
    8993     8999     9007     9015     9018     9018     9022     9028 
    9030     9034     9039     9042     9040     9045     9050     9050 
    9054     9065     9072     9080     9089     9099     9105     9108 
    9111     9115     9117     9120     9121     9123     9120     9119 
    9121     9126     9127     9130     9134     9139     9144     9148 
    9151     9154     9155     9157     9155     9154     9151     9146 
    9143     9139     9132     9126     9119     9112     9108     9103 
    9097     9092     9089     9088     9084     9080     9073     9066 
    9061     9057     9051     9047     9043     9038     9034     9030 
    9026     9023     9020     9018     9016     9016     9012     9007 
    9000     8993     8988     8984     8977     8969     8961     8954 
    8945     8932     8926     8920     8916     8912     8910     8911 
    8911     8907     8907     8911     8914     8914     8915     8915 
    8912     8910     8910     8907     8905     8908     8908     8907 
    8908     8914     8919     8926     8934     8942     8949     8958 
    8968     8972     8976     8982     8989     8995     9001     9007 
    9011     9018     9024     9032     9043     9051     9058     9069 
    9078     9086     9097     9105     9111     9119     9123     9128 
    9135     9138     9142     9147     9150     9154     9158     9157 
    9157     9157     9157     9157     9155     9150     9147     9146 
    9136     9124     9116     9107     9097     9090     9082     9072 
    9062     9057     9050     9040     9034     9026     9015     9004 
    8997     8989     8978     8970     8964     8955     8949     8947 
    8947     8947     8951     8959     8968     8976     8989     9004 
    9019     9032     9047     9061     9074     9086     9099     9112 
    9121     9132     9146     9155     9165     9178     9193     9204 
    9213     9225     9235     9239     9242     9246     9247     9248 
    9243     9242     9240     9236     9232     9227     9219     9215 
    9212     9205     9198     9196     9194     9193     9190     9189 
    9190     9193     9192     9189     9186     9188     9189     9186 
    9182     9181     9177     9171     9167     9165     9155     9146 
    9138     9126     9117     9112     9103     9094     9089     9082 
    9076     9073     9070     9069     9069     9067     9065     9067 
    9070     9069     9066     9067     9066     9067     9070     9072 
    9073     9074     9076     9080     9085     9086     9085     9088 
    9090     9094     9099     9105     9109     9115     9119     9123 
    9128     9130     9131     9134     9134     9130     9128     9126 
    9117     9112     9109     9105     9101     9103     9104     9100 
    9101     9101     9099     9100     9107     9107     9103     9100 
    9101     9099     9094     9094     9096     9097     9100     9103 
    9107     9111     9115     9119     9120     9120     9123     9120 
    9115     9111     9107     9100     9093     9088     9080     9069 
    9058     9050     9040     9032     9022     9008     8999     8988 
    8976     8966     8955     8941     8927     8914     8900     8889 
    8880     8869     8864     8862     8857     8853     8857     8858 
    8861     8870     8877     8883     8891     8897     8903     8914 
    8926     8934     8946     8959     8972     8988     9005     9020 
    9036     9053     9070     9090     9107     9120     9130     9140 
    9151     9159     9169     9177     9181     9185     9192     9196 
    9198     9202     9204     9207     9212     9215     9213     9216 
    9219     9219     9217     9217     9220     9215     9205     9198 
    9193     9185     9171     9162     9151     9132     9115     9103 
    9084     9065     9050     9032     9012     8997     8982     8968 
