Origin Time       2025/01/13 21:19:00
Lat.              31.8
Long.             131.6
Depth. (km)       30
Mag.              6.9
Station Code      KYTH01
Station Lat.      35.5243
Station Long.     135.1243
Station Height(m) -140
Record Time       2025/01/13 21:22:06
Sampling Freq(Hz) 100Hz
Duration Time(s)  120
Dir.              1
Scale Factor      2942(gal)/8224139
Max. Acc. (gal)   0.324
Last Correction   2025/01/13 21:22:06
Memo.             
[...]
 -245431  -245431  -245432  -245438  -245440  -245443  -245447  -245450 
 -245451  -245448  -245443  -245440  -245438  -245434  -245427  -245421 
 -245417  -245413  -245408  -245407  -245405  -245400  -245396  -245390 
 -245384  -245378  -245374  -245369  -245361  -245351  -245343  -245335 
 -245327  -245320  -245313  -245307  -245299  -245293  -245290  -245289 
 -245288  -245286  -245282  -245280  -245277  -245274  -245272  -245268 
 -245263  -245263  -245266  -245269  -245273  -245276  -245278  -245282 
 -245288  -245290  -245293  -245296  -245299  -245304  -245308  -245313 
 -245319  -245323  -245323  -245327  -245331  -245334  -245340  -245347 
 -245351  -245358  -245365  -245373  -245377  -245380  -245388  -245394 
 -245398  -245404  -245407  -245408  -245411  -245413  -245413  -245412 
 -245408  -245407  -245404  -245398  -245390  -245385  -245382  -245378 
 -245371  -245366  -245363  -245358  -245354  -245349  -245344  -245342 
 -245338  -245335  -245336  -245336  -245334  -245334  -245332  -245331 
 -245330  -245326  -245323  -245319  -245315  -245315  -245313  -245312 
 -245312  -245311  -245309  -245309  -245309  -245309  -245309  -245312 
 -245316  -245320  -245322  -245326  -245328  -245331  -245334  -245338 
 -245343  -245350  -245351  -245354  -245358  -245361  -245366  -245369 
 -245369  -245369  -245367  -245367  -245370  -245370  -245369  -245370 
 -245373  -245371  -245373  -245373  -245370  -245369  -245367  -245366 
 -245363  -245365  -245369  -245367  -245361  -245357  -245353  -245347 
 -245342  -245335  -245331  -245330  -245326  -245323  -245324  -245323 
 -245322  -245320  -245320  -245326  -245330  -245332  -245338  -245344 
 -245349  -245353  -245359  -245365  -245369  -245373  -245380  -245386 
 -245392  -245398  -245408  -245415  -245423  -245434  -245444  -245452 
 -245461  -245467  -245473  -245478  -245485  -245494  -245504  -245508 
 -245512  -245517  -245521  -245523  -245525  -245529  -245529  -245531 
 -245531  -245529  -245532  -245532  -245531  -245532  -245535  -245536 
 -245540  -245546  -245547  -245547  -245547  -245547  -245548  -245546 
 -245542  -245542  -245542  -245538  -245533  -245531  -245528  -245523 
 -245513  -245506  -245500  -245489  -245481  -245471  -245462  -245457 
 -245451  -245443  -245438  -245431  -245424  -245419  -245411  -245403 
 -245397  -245392  -245388  -245385  -245381  -245378  -245377  -245374 
 -245370  -245369  -245366  -245361  -245358  -245351  -245344  -245340 
 -245335  -245330  -245326  -245322  -245316  -245316  -245317  -245319 
 -245317  -245317  -245322  -245323  -245320  -245324  -245328  -245328 
 -245332  -245340  -245342  -245343  -245347  -245351  -245351  -245353 
 -245357  -245359  -245361  -245363  -245365  -245367  -245370  -245371 
 -245374  -245374  -245376  -245377  -245381  -245385  -245384  -245380 
 -245377  -245377  -245377  -245377  -245376  -245374  -245374  -245370 
 -245365  -245363  -245366  -245367  -245366  -245365  -245362  -245362 
 -245362  -245361  -245357  -245354  -245351  -245350  -245349  -245349 
 -245350  -245350  -245351  -245355  -245359  -245362  -245366  -245369 
 -245374  -245378  -245381  -245388  -245397  -245404  -245411  -245420 
 -245428  -245435  -245444  -245451  -245455  -245458  -245461  -245461 
 -245465  -245471  -245474  -245474  -245478  -245481  -245479  -245481 
 -245485  -245492  -245498  -245501  -245504  -245511  -245519  -245525 
 -245532  -245538  -245544  -245551  -245556  -245556  -245556  -245560 
 -245565  -245566  -245567  -245571  -245578  -245579  -245578  -245581 
 -245582  -245581  -245578  -245574  -245570  -245567  -245562  -245555 
 -245554  -245551  -245544  -245539  -245535  -245532  -245524  -245515 
 -245506  -245501  -245497  -245493  -245489  -245484  -245479  -245474 
 -245466  -245459  -245454  -245448  -245438  -245428  -245424  -245420 
 -245415  -245412  -245409  -245405  -245401  -245394  -245389  -245384 
 -245378  -245371  -245367  -245359  -245353  -245349  -245344  -245336 
 -245328  -245323  -245315  -245309  -245304  -245300  -245295  -245289 
 -245285  -245281  -245276  -245273  -245269  -245265  -245265  -245262 
 -245259  -245259  -245257  -245258  -245262  -245262  -245262  -245263 
 -245263  -245266  -245269  -245268  -245266  -245269  -245269  -245266 
 -245268  -245268  -245263  -245261  -245259  -245251  -245247  -245246 
 -245239  -245231  -245226  -245222  -245220  -245218  -245212  -245212 
 -245212  -245211  -245209  -245208  -245207  -245204  -245201  -245201 
 -245201  -245201  -245200  -245197  -245195  -245195  -245195  -245193 
 -245193  -245191  -245191  -245192  -245189  -245187  -245191  -245189 
 -245188  -245189  -245188  -245189  -245192  -245193  -245199  -245204 
 -245211  -245216  -245220  -245228  -245238  -245246  -245254  -245259 
 -245266  -245274  -245282  -245293  -245303  -245312  -245323  -245332 
 -245343  -245354  -245363  -245376  -245386  -245393  -245403  -245417 
 -245430  -245442  -245455  -245467  -245481  -245494  -245505  -245517 
 -245529  -245539  -245551  -245565  -245579  -245592  -245600  -245610 
 -245625  -245639  -245650  -245659  -245670  -245681  -245691  -245700 
 -245708  -245716  -245725  -245732  -245737  -245741  -245745  -245754 
 -245756  -245755  -245759  -245762  -245762  -245760  -245756  -245755 
 -245754  -245751  -245745  -245741  -245737  -245732  -245728  -245722 
 -245717  -245716  -245714  -245712  -245708  -245705  -245701  -245695 
 -245689  -245681  -245674  -245666  -245655  -245648  -245641  -245632 
 -245625  -245623  -245617  -245609  -245605  -245600  -245593  -245587 
 -245579  -245569  -245559  -245554  -245546  -245535  -245527  -245520 
 -245512  -245501  -245490  -245482  -245474  -245462  -245451  -245442 
 -245434  -245427  -245419  -245411  -245404  -245398  -245392  -245382 
 -245374  -245370  -245363  -245358  -245354  -245351  -245342  -245331 
 -245323  -245315  -245304  -245296  -245290  -245281  -245272  -245265 
 -245255  -245246  -245239  -245235  -245230  -245226  -245222  -245218 
 -245216  -245218  -245216  -245216  -245219  -245219  -245223  -245228 
 -245232  -245241  -245247  -245255  -245265  -245274  -245284  -245290 
 -245299  -245307  -245313  -245320  -245326  -245331  -245335  -245339 
 -245343  -245347  -245350  -245355  -245363  -245370  -245377  -245384 
 -245394  -245404  -245416  -245431  -245442  -245451  -245463  -245474 
 -245486  -245497  -245509  -245520  -245531  -245542  -245554  -245569 
 -245583  -245598  -245612  -245629  -245646  -245659  -245677  -245691 
 -245702  -245712  -245722  -245733  -245741  -245747  -245754  -245756 
 -245759  -245762  -245763  -245764  -245764  -245764  -245762  -245755 
 -245751  -245745  -245739  -245729  -245718  -245708  -245694  -245679 
 -245663  -245647  -245627  -245608  -245589  -245566  -245540  -245519 
 -245496  -245467  -245440  -245411  -245382  -245359  -245335  -245309 
 -245288  -245266  -245241  -245219  -245203  -245181  -245155  -245135 
 -245115  -245095  -245074  -245056  -245038  -245025  -245014  -245002 
 -244989  -244983  -244977  -244971  -244968  -244966  -244965  -244968 
 -244971  -244973  -244981  -244989  -244996  -245004  -245015  -245027 
 -245038  -245049  -245058  -245069  -245083  -245096  -245108  -245120 
 -245133  -245142  -245153  -245164  -245172  -245177  -245185  -245196 
 -245204  -245215  -245223  -245228  -245232  -245238  -245241  -245243 
 -245245  -245247  -245251  -245258  -245262  -245270  -245281  -245281 
 -245277  -245277  -245277  -245274  -245277  -245281  -245281  -245280 
 -245284  -245288  -245288  -245288  -245290  -245296  -245303  -245311 
 -245320  -245328  -245342  -245355  -245369  -245388  -245409  -245425 
 -245446  -245470  -245493  -245513  -245538  -245565  -245592  -245616 
 -245644  -245674  -245697  -245721  -245748  -245772  -245795  -245820 
 -245843  -245863  -245882  -245899  -245918  -245936  -245953  -245971 
 -245986  -245998  -246010  -246022  -246036  -246049  -246064  -246079 
 -246092  -246105  -246113  -246121  -246130  -246136  -246138  -246142 
 -246145  -246146  -246146  -246148  -246146  -246145  -246140  -246134 
 -246127  -246119  -246109  -246098  -246087  -246072  -246057  -246044 
 -246030  -246018  -246002  -245986  -245970  -245953  -245937  -245918 
 -245899  -245878  -245856  -245833  -245810  -245785  -245760  -245732 
 -245705  -245675  -245641  -245608  -245574  -245536  -245496  -245458 
 -245421  -245384  -245347  -245312  -245276  -245236  -245201  -245165 
 -245128  -245092  -245058  -245022  -244987  -244956  -244929  -244904 
 -244881  -244857  -244834  -244815  -244798  -244779  -244760  -244741 
 -244726  -244713  -244695  -244680  -244671  -244659  -244647  -244638 
 -244629  -244617  -244611  -244606  -244599  -244598  -244599  -244598 
 -244601  -244607  -244610  -244615  -244628  -244638  -244647  -244659 
 -244675  -244686  -244699  -244718  -244738  -244753  -244771  -244787 
 -244803  -244821  -244840  -244857  -244875  -244891  -244911  -244930 
 -244949  -244969  -244991  -245012  -245037  -245064  -245092  -245118 
 -245147  -245178  -245209  -245238  -245266  -245296  -245324  -245353 
 -245382  -245411  -245439  -245466  -245494  -245520  -245544  -245570 
 -245592  -245612  -245633  -245655  -245673  -245691  -245708  -245720 
 -245736  -245754  -245764  -245774  -245787  -245798  -245803  -245810 
 -245812  -245810  -245812  -245806  -245797  -245787  -245776  -245760 
 -245744  -245727  -245710  -245693  -245671  -245655  -245639  -245617 
 -245594  -245577  -245558  -245538  -245521  -245504  -245486  -245471 
 -245461  -245447  -245436  -245427  -245420  -245416  -245413  -245412 
 -245411  -245411  -245412  -245413  -245419  -245423  -245427  -245434 
 -245442  -245448  -245461  -245474  -245488  -245502  -245516  -245529 
 -245546  -245560  -245575  -245594  -245610  -245624  -245639  -245655 
 -245666  -245678  -245690  -245698  -245708  -245714  -245717  -245720 
 -245721  -245721  -245718  -245714  -245708  -245701  -245693  -245679 
 -245664  -245650  -245632  -245610  -245590  -245570  -245548  -245525 
 -245504  -245481  -245458  -245435  -245412  -245390  -245370  -245351 
 -245332  -245311  -245292  -245278  -245262  -245249  -245239  -245230 
 -245223  -245220  -245218  -245215  -245214  -245216  -245223  -245227 
 -245232  -245243  -245255  -245266  -245276  -245285  -245297  -245313 
 -245326  -245336  -245350  -245365  -245382  -245398  -245413  -245428 
 -245446  -245462  -245479  -245494  -245508  -245521  -245533  -245543 
 -245552  -245563  -245573  -245579  -245587  -245598  -245606  -245614 
 -245621  -245625  -245628  -245632  -245632  -245631  -245632  -245631 
 -245627  -245620  -245614  -245606  -245600  -245594  -245586  -245578 
 -245571  -245562  -245552  -245544  -245538  -245532  -245524  -245517 
 -245513  -245509  -245501  -245494  -245488  -245482  -245475  -245469 
 -245466  -245461  -245454  -245448  -245446  -245438  -245428  -245420 
 -245416  -245408  -245400  -245393  -245385  -245378  -245370  -245361 
 -245354  -245347  -245338  -245332  -245330  -245324  -245320  -245317 
 -245313  -245313  -245313  -245311  -245311  -245312  -245313  -245317 
 -245323  -245326  -245332  -245339  -245343  -245349  -245355  -245362 
 -245373  -245384  -245392  -245398  -245409  -245417  -245423  -245432 
 -245446  -245457  -245467  -245481  -245493  -245505  -245520  -245531 
 -245539  -245550  -245559  -245566  -245570  -245578  -245583  -245582 
 -245582  -245583  -245581  -245577  -245573  -245563  -245552  -245542 
 -245527  -245513  -245500  -245485  -245471  -245455  -245435  -245415 
 -245394  -245373  -245353  -245328  -245305  -245285  -245262  -245241 
 -245220  -245200  -245180  -245162  -245147  -245131  -245116  -245108 
 -245103  -245096  -245092  -245095  -245103  -245110  -245119  -245133 
 -245150  -245166  -245184  -245209  -245239  -245270  -245304  -245340 
 -245377  -245413  -245451  -245492  -245532  -245571  -245612  -245651 
 -245687  -245725  -245762  -245795  -245826  -245855  -245880  -245906 
 -245929  -245951  -245968  -245983  -245995  -246003  -246009  -246014 
 -246014  -246010  -246005  -245998  -245987  -245974  -245957  -245940 
 -245925  -245907  -245884  -245862  -245840  -245816  -245791  -245766 
 -245739  -245714  -245690  -245663  -245637  -245612  -245587  -245565 
 -245546  -245529  -245515  -245500  -245489  -245478  -245467  -245462 
 -245458  -245454  -245452  -245452  -245452  -245457  -245462  -245467 
 -245470  -245474  -245479  -245485  -245489  -245494  -245500  -245502 
 -245505  -245506  -245509  -245512  -245512  -245511  -245509  -245508 
 -245504  -245500  -245494  -245488  -245478  -245469  -245462  -245451 
 -245439  -245425  -245415  -245401  -245385  -245370  -245354  -245334 
 -245315  -245297  -245278  -245261  -245243  -245224  -245201  -245180 
 -245162  -245145  -245127  -245108  -245096  -245087  -245073  -245060 
 -245052  -245043  -245034  -245026  -245019  -245015  -245012  -245006 
 -245002  -245000  -244998  -244991  -244984  -244981  -244977  -244971 
 -244966  -244965  -244965  -244965  -244966  -244972  -244975  -244981 
 -244992  -245003  -245015  -245030  -245047  -245068  -245088  -245110 
 -245134  -245160  -245189  -245220  -245254  -245292  -245327  -245365 
 -245407  -245444  -245484  -245525  -245570  -245616  -245658  -245701 
 -245747  -245791  -245832  -245875  -245918  -245959  -245997  -246036 
 -246075  -246111  -246145  -246179  -246208  -246237  -246262  -246284 
 -246300  -246312  -246323  -246330  -246334  -246333  -246327  -246323 
 -246315  -246303  -246288  -246271  -246249  -246225  -246196  -246169 
 -246142  -246113  -246083  -246052  -246022  -245988  -245952  -245917 
 -245882  -245847  -245810  -245774  -245736  -245697  -245660  -245625 
 -245590  -245560  -245529  -245498  -245470  -245446  -245423  -245401 
 -245382  -245369  -245361  -245351  -245342  -245339  -245339  -245340 
 -245344  -245351  -245361  -245373  -245386  -245398  -245411  -245428 
 -245447  -245462  -245478  -245496  -245513  -245528  -245544  -245562 
 -245577  -245592  -245608  -245620  -245628  -245637  -245646  -245652 
 -245659  -245664  -245667  -245670  -245668  -245664  -245660  -245656 
 -245648  -245637  -245623  -245606  -245586  -245566  -245544  -245521 
 -245496  -245466  -245438  -245411  -245377  -245340  -245308  -245270 
 -245232  -245196  -245158  -245116  -245079  -245042  -245004  -244962 
 -244925  -244888  -244850  -244817  -244787  -244759  -244730  -244706 
 -244684  -244667  -244653  -244642  -244634  -244628  -244624  -244622 
 -244624  -244626  -244634  -244645  -244653  -244661  -244674  -244688 
 -244701  -244713  -244726  -244744  -244760  -244773  -244788  -244803 
 -244819  -244836  -244849  -244863  -244879  -244890  -244900  -244915 
 -244927  -244941  -244953  -244965  -244975  -244987  -244998  -245008 
 -245016  -245025  -245033  -245042  -245049  -245052  -245060  -245070 
 -245077  -245085  -245095  -245103  -245115  -245126  -245134  -245146 
 -245164  -245178  -245193  -245209  -245226  -245243  -245263  -245284 
 -245308  -245331  -245351  -245376  -245404  -245425  -245450  -245475 
 -245498  -245521  -245547  -245570  -245592  -245613  -245631  -245654 
 -245677  -245694  -245713  -245733  -245748  -245763  -245776  -245789 
 -245797  -245806  -245817  -245825  -245829  -245833  -245840  -245843 
 -245845  -245847  -245847  -245844  -245845  -245845  -245843  -245837 
 -245833  -245826  -245816  -245806  -245795  -245783  -245771  -245758 
 -245744  -245731  -245714  -245700  -245685  -245668  -245654  -245635 
 -245614  -245596  -245577  -245558  -245538  -245516  -245497  -245478 
 -245461  -245442  -245424  -245407  -245392  -245377  -245363  -245350 
 -245339  -245330  -245320  -245311  -245304  -245297  -245293  -245292 
 -245290  -245288  -245285  -245284  -245284  -245284  -245285  -245285 
 -245286  -245290  -245295  -245296  -245303  -245311  -245315  -245322 
 -245330  -245338  -245346  -245355  -245366  -245377  -245389  -245401 
 -245413  -245427  -245439  -245452  -245465  -245478  -245490  -245501 
 -245511  -245520  -245529  -245540  -245548  -245555  -245566  -245573 
 -245574  -245578  -245586  -245589  -245592  -245596  -245596  -245596 
 -245602  -245605  -245604  -245608  -245612  -245613  -245616  -245619 
 -245617  -245621  -245627  -245625  -245628  -245631  -245629  -245631 
 -245632  -245629  -245629  -245631  -245627  -245620  -245614  -245612 
 -245606  -245597  -245590  -245583  -245574  -245566  -245556  -245547 
 -245535  -245525  -245512  -245497  -245484  -245473  -245458  -245442 
 -245431  -245419  -245408  -245401  -245392  -245381  -245374  -245362 
 -245351  -245349  -245343  -245336  -245334  -245331  -245330  -245326 
 -245323  -245326  -245327  -245326  -245328  -245334  -245338  -245342 
 -245346  -245353  -245359  -245363  -245366  -245371  -245377  -245380 
 -245380  -245381  -245382  -245385  -245388  -245386  -245382  -245381 
 -245378  -245373  -245366  -245361  -245355  -245351  -245343  -245330 
 -245322  -245315  -245304  -245292  -245282  -245276  -245266  -245257 
 -245247  -245238  -245228  -245223  -245216  -245207  -245205  -245203 
 -245197  -245195  -245195  -245197  -245200  -245205  -245216  -245227 
 -245236  -245251  -245269  -245288  -245309  -245330  -245350  -245373 
 -245397  -245420  -245446  -245474  -245498  -245523  -245550  -245575 
 -245600  -245621  -245647  -245674  -245694  -245714  -245736  -245756 
 -245772  -245786  -245798  -245812  -245824  -245829  -245833  -245840 
 -245845  -245848  -245851  -245852  -245851  -245848  -245849  -245848 
 -245843  -245839  -245833  -245826  -245820  -245809  -245798  -245791 
 -245782  -245768  -245756  -245745  -245732  -245718  -245708  -245698 
 -245685  -245673  -245663  -245654  -245643  -245632  -245620  -245610 
 -245600  -245587  -245579  -245571  -245562  -245551  -245543  -245535 
 -245523  -245515  -245508  -245496  -245484  -245474  -245462  -245448 
 -245439  -245428  -245416  -245404  -245389  -245376  -245365  -245353 
 -245343  -245335  -245323  -245313  -245307  -245301  -245297  -245293 
 -245292  -245295  -245296  -245300  -245305  -245311  -245319  -245326 
 -245331  -245342  -245351  -245361  -245373  -245386  -245400  -245413 
 -245428  -245440  -245454  -245469  -245479  -245490  -245501  -245511 
 -245517  -245525  -245533  -245539  -245544  -245550  -245555  -245555 
 -245558  -245560  -245559  -245554  -245552  -245551  -245546  -245538 
 -245529  -245520  -245511  -245498  -245485  -245470  -245454  -245439 
 -245421  -245404  -245386  -245366  -245347  -245330  -245313  -245297 
 -245281  -245263  -245247  -245232  -245218  -245203  -245191  -245180 
 -245168  -245155  -245143  -245138  -245134  -245124  -245116  -245118 
 -245115  -245108  -245108  -245110  -245108  -245106  -245106  -245112 
 -245120  -245126  -245134  -245146  -245160  -245174  -245189  -245205 
 -245224  -245242  -245259  -245281  -245303  -245322  -245340  -245362 
 -245385  -245405  -245424  -245446  -245466  -245482  -245498  -245513 
 -245527  -245539  -245548  -245556  -245566  -245574  -245579  -245582 
 -245583  -245586  -245586  -245586  -245589  -245587  -245583  -245585 
 -245585  -245581  -245577  -245575  -245574  -245567  -245562  -245559 
 -245551  -245544  -245542  -245535  -245525  -245517  -245512  -245504 
