Origin Time       2025/01/13 21:19:00
Lat.              31.8
Long.             131.6
Depth. (km)       30
Mag.              6.9
Station Code      KYTH05
Station Lat.      35.6814
Station Long.     135.0268
Station Height(m) -145
Record Time       2025/01/13 21:22:07
Sampling Freq(Hz) 100Hz
Duration Time(s)  120
Dir.              2
Scale Factor      2942(gal)/8224139
Max. Acc. (gal)   0.498
Last Correction   2025/01/13 21:22:08
Memo.             
[...]
  121196   121196   121193   121192   121190   121188   121185   121184 
  121184   121180   121178   121185   121185   121181   121181   121182 
  121185   121190   121193   121198   121207   121212   121220   121232 
  121244   121252   121262   121270   121277   121286   121294   121300 
  121304   121305   121306   121305   121301   121297   121294   121293 
  121289   121279   121275   121273   121269   121265   121259   121255 
  121254   121251   121251   121254   121254   121252   121254   121252 
  121250   121252   121254   121251   121251   121251   121251   121254 
  121257   121255   121257   121259   121261   121266   121273   121273 
  121274   121278   121281   121279   121282   121285   121286   121285 
  121282   121278   121277   121274   121273   121273   121269   121265 
  121263   121263   121265   121267   121270   121273   121277   121281 
  121284   121286   121290   121294   121298   121298   121298   121301 
  121305   121308   121308   121308   121308   121305   121301   121297 
  121292   121286   121281   121274   121267   121262   121257   121252 
  121251   121247   121242   121239   121235   121230   121224   121219 
  121215   121213   121209   121207   121208   121207   121203   121200 
  121194   121192   121188   121181   121177   121178   121177   121180 
  121184   121186   121192   121197   121203   121209   121212   121213 
  121219   121219   121221   121227   121228   121231   121235   121238 
  121240   121246   121248   121257   121263   121266   121269   121274 
  121278   121279   121279   121282   121284   121281   121281   121282 
  121278   121277   121277   121275   121274   121271   121267   121266 
  121266   121266   121263   121259   121262   121265   121262   121261 
  121266   121269   121269   121271   121275   121278   121281   121285 
  121288   121289   121290   121292   121292   121293   121290   121288 
  121286   121285   121282   121278   121274   121267   121261   121258 
  121257   121251   121242   121235   121230   121223   121215   121208 
  121198   121190   121186   121181   121173   121169   121163   121158 
  121157   121155   121150   121147   121147   121144   121139   121135 
  121131   121126   121117   121111   121104   121096   121086   121074 
  121062   121049   121034   121023   121009   120999   120991   120978 
  120969   120962   120958   120955   120950   120945   120947   120947 
  120943   120942   120943   120943   120942   120942   120941   120939 
  120941   120942   120941   120941   120945   120947   120950   120954 
  120958   120958   120958   120960   120961   120965   120969   120973 
  120978   120982   120992   121003   121011   121019   121032   121045 
  121053   121063   121077   121088   121100   121113   121127   121140 
  121157   121176   121189   121201   121219   121228   121234   121242 
  121250   121254   121259   121262   121266   121271   121274   121278 
  121286   121292   121296   121301   121306   121315   121321   121328 
  121335   121340   121348   121358   121365   121375   121386   121394 
  121404   121414   121419   121428   121439   121443   121447   121455 
  121462   121467   121474   121475   121478   121485   121487   121486 
  121486   121486   121485   121485   121485   121483   121479   121479 
  121482   121485   121489   121494   121498   121502   121506   121514 
  121522   121529   121535   121539   121541   121547   121552   121556 
  121556   121556   121559   121559   121558   121556   121554   121547 
  121545   121544   121539   121529   121524   121518   121510   121500 
  121493   121487   121483   121477   121467   121458   121452   121447 
  121441   121437   121431   121424   121417   121412   121408   121401 
  121396   121393   121385   121379   121378   121374   121370   121367 
  121365   121362   121356   121351   121347   121344   121343   121338 
  121329   121327   121327   121325   121321   121317   121317   121317 
  121313   121313   121316   121316   121317   121317   121317   121321 
  121327   121328   121329   121333   121338   121343   121344   121347 
  121351   121356   121360   121366   121371   121378   121385   121392 
  121397   121405   121416   121421   121431   121446   121451   121458 
  121468   121471   121473   121485   121491   121494   121501   121508 
  121512   121514   121516   121517   121520   121527   121529   121529 
  121533   121537   121537   121539   121540   121539   121541   121540 
  121536   121535   121532   121527   121527   121521   121514   121512 
  121509   121500   121491   121485   121475   121463   121452   121444 
  121433   121420   121409   121400   121390   121383   121378   121371 
  121367   121360   121355   121356   121356   121351   121350   121348 
  121344   121344   121342   121338   121336   121335   121333   121332 
  121329   121328   121329   121331   121331   121332   121333   121332 
  121328   121325   121325   121325   121321   121313   121308   121308 
  121304   121296   121289   121281   121271   121263   121251   121238 
  121228   121216   121203   121189   121176   121161   121147   121136 
  121126   121112   121104   121096   121084   121073   121066   121058 
  121049   121041   121032   121023   121012   121003   120995   120988 
  120978   120966   120955   120946   120935   120926   120918   120910 
  120903   120897   120892   120887   120881   120879   120874   120869 
  120866   120861   120854   120853   120850   120838   120830   120822 
  120811   120799   120791   120781   120771   120761   120750   120738 
  120730   120722   120711   120706   120703   120700   120698   120696 
  120698   120696   120696   120702   120704   120702   120706   120712 
  120712   120715   120722   120726   120729   120733   120737   120739 
  120739   120739   120742   120744   120748   120756   120765   120776 
  120789   120802   120816   120835   120856   120874   120896   120919 
  120942   120965   120989   121011   121035   121062   121086   121109 
  121134   121155   121176   121196   121212   121232   121248   121262 
  121282   121304   121319   121336   121356   121377   121400   121420 
  121440   121462   121482   121502   121524   121545   121568   121589 
  121606   121624   121648   121667   121678   121695   121716   121730 
  121745   121764   121776   121787   121802   121814   121825   121833 
  121838   121846   121853   121857   121859   121856   121855   121855 
  121852   121851   121845   121840   121838   121833   121824   121817 
  121810   121802   121795   121787   121779   121771   121759   121747 
  121733   121714   121694   121676   121660   121640   121617   121595 
  121572   121547   121521   121493   121462   121433   121405   121371 
  121336   121306   121275   121240   121211   121180   121146   121117 
  121090   121059   121031   121004   120974   120949   120922   120893 
  120868   120839   120810   120784   120762   120742   120722   120702 
  120684   120668   120650   120637   120626   120615   120606   120603 
  120600   120598   120596   120595   120594   120594   120596   120596 
  120595   120599   120603   120604   120610   120619   120629   120636 
  120645   120658   120673   120687   120707   120729   120752   120775 
  120799   120826   120854   120883   120912   120943   120976   121011 
  121045   121080   121119   121155   121193   121238   121279   121317 
  121359   121402   121440   121481   121522   121560   121603   121647 
  121687   121728   121770   121811   121853   121894   121930   121969 
  122007   122042   122079   122115   122152   122184   122215   122245 
  122274   122301   122327   122351   122377   122401   122423   122443 
  122465   122482   122496   122512   122527   122535   122542   122553 
  122558   122558   122557   122554   122548   122539   122530   122516 
  122499   122478   122459   122438   122412   122389   122364   122334 
  122301   122266   122233   122199   122160   122122   122083   122041 
  121996   121950   121906   121864   121817   121767   121722   121678 
  121624   121572   121527   121474   121424   121375   121321   121269 
  121220   121173   121127   121080   121034   120989   120943   120896 
  120854   120812   120772   120735   120699   120664   120633   120602 
  120573   120549   120523   120496   120478   120460   120441   120426 
  120415   120403   120390   120380   120376   120375   120370   120367 
  120374   120382   120387   120395   120407   120420   120432   120447 
  120465   120486   120503   120518   120536   120553   120572   120588 
  120603   120619   120631   120641   120652   120660   120667   120673 
  120684   120692   120696   120700   120707   120712   120718   120719 
  120721   120730   120741   120746   120753   120765   120780   120792 
  120807   120826   120843   120861   120880   120897   120918   120945 
  120969   120991   121012   121034   121055   121074   121090   121109 
  121126   121142   121157   121170   121182   121194   121205   121220 
  121235   121248   121262   121275   121286   121298   121312   121325 
  121338   121354   121369   121382   121398   121417   121433   121451 
  121468   121485   121504   121522   121535   121549   121568   121583 
  121594   121605   121613   121622   121630   121633   121635   121637 
  121636   121633   121636   121636   121632   121632   121635   121636 
  121640   121647   121651   121662   121675   121689   121709   121729 
  121747   121771   121797   121821   121849   121873   121900   121932 
  121953   121979   122008   122031   122054   122083   122107   122127 
  122149   122170   122184   122195   122204   122210   122212   122212 
  122214   122211   122203   122193   122183   122166   122153   122137 
  122116   122100   122084   122062   122041   122022   122003   121979 
  121957   121936   121907   121879   121853   121826   121794   121759 
  121722   121683   121641   121598   121554   121505   121455   121404 
  121350   121293   121238   121181   121126   121070   121016   120964 
  120910   120858   120812   120768   120722   120680   120641   120603 
  120569   120540   120514   120492   120469   120452   120441   120429 
  120414   120402   120399   120397   120390   120386   120390   120394 
  120397   120398   120403   120413   120424   120432   120442   120460 
  120478   120494   120511   120536   120559   120582   120609   120640 
  120669   120700   120733   120769   120806   120842   120884   120927 
  120970   121018   121062   121108   121159   121208   121257   121305 
  121350   121396   121443   121485   121527   121567   121605   121641 
  121678   121706   121732   121757   121782   121803   121818   121834 
  121852   121865   121876   121887   121895   121903   121915   121925 
  121933   121942   121950   121959   121968   121973   121980   121990 
  121996   122003   122010   122014   122018   122025   122025   122025 
  122025   122022   122019   122017   122011   122003   121995   121987 
  121976   121961   121948   121937   121925   121909   121894   121878 
  121859   121842   121828   121807   121786   121770   121752   121737 
  121722   121707   121691   121675   121660   121647   121632   121617 
  121602   121582   121563   121545   121522   121500   121478   121452 
  121424   121392   121358   121328   121294   121255   121220   121188 
  121150   121113   121080   121045   121008   120972   120941   120912 
  120881   120849   120823   120802   120776   120756   120741   120725 
  120708   120700   120692   120683   120676   120671   120665   120665 
  120665   120665   120668   120673   120680   120690   120702   120714 
  120729   120744   120761   120783   120804   120825   120847   120870 
  120887   120910   120934   120955   120978   121003   121023   121046 
  121072   121092   121109   121131   121154   121176   121193   121211 
  121231   121250   121266   121282   121296   121306   121320   121331 
  121336   121340   121346   121347   121346   121346   121347   121344 
  121340   121335   121328   121320   121312   121302   121292   121275 
  121262   121251   121235   121216   121203   121185   121167   121157 
  121142   121123   121105   121090   121076   121059   121043   121028 
  121012   120999   120988   120976   120965   120957   120951   120946 
  120939   120937   120934   120934   120938   120943   120949   120957 
  120966   120977   120991   121004   121016   121031   121046   121061 
  121074   121092   121108   121123   121138   121151   121166   121182 
  121198   121213   121228   121248   121267   121288   121311   121335 
  121360   121386   121412   121437   121463   121490   121518   121548 
  121576   121602   121633   121662   121689   121720   121748   121774 
  121801   121829   121855   121879   121903   121927   121952   121973 
  121995   122019   122040   122057   122079   122102   122118   122133 
  122152   122172   122189   122204   122220   122238   122253   122265 
  122278   122287   122293   122303   122308   122311   122312   122308 
  122304   122299   122288   122274   122260   122243   122222   122199 
  122176   122148   122118   122087   122052   122015   121977   121940 
  121896   121852   121811   121768   121724   121678   121630   121585 
  121540   121493   121441   121393   121344   121292   121244   121198 
  121147   121095   121042   120987   120935   120884   120827   120772 
  120721   120669   120617   120565   120515   120467   120418   120372 
  120326   120279   120236   120197   120158   120120   120089   120058 
  120027   120002   119978   119954   119934   119919   119907   119897 
  119892   119886   119884   119885   119886   119889   119898   119909 
  119919   119932   119947   119967   119986   120002   120023   120046 
  120064   120087   120116   120141   120167   120197   120228   120259 
  120293   120329   120366   120406   120445   120484   120530   120576 
  120621   120672   120726   120779   120829   120880   120938   120995 
  121047   121103   121155   121204   121255   121304   121348   121396 
  121439   121482   121522   121559   121594   121628   121657   121687 
  121720   121745   121768   121792   121815   121837   121857   121876 
  121894   121907   121918   121932   121942   121946   121952   121959 
  121961   121961   121959   121957   121949   121940   121930   121922 
  121907   121888   121872   121853   121832   121810   121788   121765 
  121738   121714   121693   121668   121643   121618   121597   121572 
  121547   121525   121508   121485   121462   121440   121414   121393 
  121375   121355   121333   121312   121293   121278   121262   121246 
  121235   121224   121212   121204   121201   121197   121196   121197 
  121198   121200   121205   121213   121223   121232   121248   121262 
  121275   121294   121313   121335   121360   121387   121412   121441 
  121474   121504   121533   121566   121598   121629   121659   121691 
  121718   121745   121776   121805   121830   121856   121876   121900 
  121926   121944   121960   121980   121999   122014   122029   122045 
  122061   122073   122085   122099   122112   122123   122133   122142 
  122150   122158   122164   122165   122164   122164   122161   122152 
  122141   122126   122110   122095   122077   122056   122031   122004 
  121977   121953   121925   121898   121868   121834   121803   121771 
  121737   121707   121676   121641   121609   121581   121547   121514 
  121485   121456   121428   121400   121371   121340   121311   121284 
  121257   121230   121198   121167   121140   121113   121084   121053 
  121020   120989   120960   120930   120897   120865   120834   120800 
  120766   120735   120700   120663   120629   120594   120557   120522 
  120486   120451   120415   120380   120347   120316   120286   120260 
  120233   120208   120185   120159   120140   120129   120113   120097 
  120089   120083   120074   120069   120069   120069   120071   120077 
  120082   120094   120106   120117   120133   120152   120167   120189 
  120216   120240   120270   120303   120337   120376   120420   120464 
  120509   120557   120610   120663   120715   120772   120827   120883 
  120942   120999   121054   121112   121171   121231   121286   121342 
  121398   121454   121506   121560   121613   121663   121709   121755 
  121803   121848   121886   121925   121964   122000   122034   122065 
  122095   122125   122152   122179   122204   122223   122239   122258 
  122277   122288   122299   122311   122318   122322   122326   122327 
  122328   122331   122328   122323   122316   122312   122303   122291 
  122280   122264   122246   122231   122212   122188   122166   122145 
  122118   122095   122072   122045   122017   121992   121965   121940 
  121911   121883   121857   121830   121802   121774   121747   121721 
  121691   121657   121624   121591   121559   121524   121487   121452 
  121414   121375   121342   121308   121267   121228   121194   121155 
  121112   121077   121045   121009   120973   120943   120914   120880 
  120849   120822   120792   120766   120746   120727   120711   120695 
  120681   120672   120664   120654   120649   120646   120642   120642 
  120642   120645   120650   120653   120654   120661   120669   120676 
  120684   120694   120699   120707   120721   120734   120746   120760 
  120775   120791   120808   120823   120839   120858   120874   120893 
  120914   120933   120949   120968   120991   121014   121035   121059 
  121082   121107   121131   121157   121180   121201   121225   121250 
  121274   121301   121324   121346   121373   121397   121419   121443 
  121468   121493   121518   121541   121566   121590   121610   121630 
  121653   121670   121687   121706   121722   121736   121749   121760 
  121768   121776   121784   121792   121795   121798   121803   121806 
  121803   121802   121802   121802   121799   121797   121795   121791 
  121786   121783   121782   121778   121771   121763   121760   121757 
  121751   121745   121741   121734   121728   121722   121710   121698 
  121689   121675   121663   121651   121633   121613   121598   121585 
  121566   121548   121533   121518   121506   121494   121481   121471 
  121462   121450   121440   121435   121428   121423   121419   121416 
  121414   121412   121408   121406   121409   121408   121405   121404 
  121401   121398   121393   121387   121381   121373   121363   121352 
  121338   121323   121308   121288   121266   121243   121216   121189 
  121162   121132   121101   121070   121038   121008   120978   120945 
  120912   120884   120854   120825   120796   120769   120745   120723 
  120699   120672   120649   120630   120606   120582   120559   120538 
  120519   120501   120480   120461   120440   120421   120407   120394 
  120376   120361   120349   120337   120324   120312   120302   120294 
  120289   120283   120278   120278   120278   120276   120278   120279 
  120285   120293   120295   120299   120310   120321   120330   120343 
  120352   120367   120382   120394   120413   120434   120455   120478 
  120501   120523   120549   120572   120596   120630   120663   120691 
  120725   120762   120800   120838   120876   120914   120953   120996 
  121036   121077   121122   121162   121200   121242   121286   121325 
  121365   121401   121435   121470   121505   121535   121564   121597 
  121626   121653   121682   121706   121728   121749   121770   121787 
  121802   121814   121825   121836   121845   121849   121852   121856 
