Origin Time       2025/01/13 21:19:00
Lat.              31.8
Long.             131.6
Depth. (km)       30
Mag.              6.9
Station Code      KYTH05
Station Lat.      35.6814
Station Long.     135.0268
Station Height(m) -145
Record Time       2025/01/13 21:22:07
Sampling Freq(Hz) 100Hz
Duration Time(s)  120
Dir.              1
Scale Factor      2942(gal)/8224139
Max. Acc. (gal)   0.343
Last Correction   2025/01/13 21:22:08
Memo.             
[...]
  177147   177149   177155   177160   177165   177172   177178   177183 
  177194   177202   177206   177214   177225   177233   177241   177250 
  177255   177259   177264   177269   177273   177276   177279   177282 
  177284   177288   177290   177294   177299   177299   177300   177303 
  177304   177309   177311   177311   177313   177313   177314   177315 
  177318   177318   177317   177319   177322   177321   177323   177330 
  177333   177333   177336   177337   177337   177342   177348   177349 
  177352   177356   177357   177358   177361   177367   177371   177372 
  177372   177375   177379   177377   177376   177376   177377   177376 
  177371   177368   177368   177364   177361   177357   177353   177345 
  177337   177331   177326   177321   177317   177315   177314   177311 
  177307   177306   177306   177307   177306   177304   177303   177299 
  177299   177302   177299   177295   177295   177299   177303   177303 
  177303   177309   177309   177304   177304   177304   177306   177304 
  177304   177306   177307   177311   177313   177314   177317   177319 
  177321   177323   177327   177329   177330   177331   177337   177342 
  177342   177341   177342   177345   177344   177345   177350   177349 
  177349   177354   177354   177356   177361   177364   177367   177373 
  177375   177375   177379   177381   177388   177395   177399   177404 
  177410   177415   177425   177433   177435   177441   177449   177450 
  177456   177468   177472   177473   177481   177487   177489   177493 
  177493   177489   177487   177491   177492   177489   177489   177485 
  177481   177480   177476   177471   177468   177462   177457   177452 
  177446   177441   177434   177426   177419   177412   177407   177399 
  177392   177385   177375   177363   177356   177346   177337   177329 
  177321   177313   177307   177299   177290   177282   177276   177269 
  177267   177261   177253   177245   177241   177236   177232   177228 
  177222   177214   177210   177205   177198   177198   177199   177198 
  177198   177201   177202   177206   177213   177218   177221   177222 
  177223   177223   177221   177219   177218   177218   177214   177211 
  177207   177199   177198   177194   177184   177179   177174   177167 
  177160   177152   177145   177141   177138   177134   177128   177125 
  177126   177125   177125   177128   177129   177129   177133   177138 
  177142   177149   177157   177163   177168   177172   177176   177182 
  177187   177187   177186   177187   177188   177188   177191   177192 
  177191   177192   177201   177209   177213   177217   177222   177228 
  177233   177237   177242   177250   177257   177267   177280   177288 
  177292   177304   177318   177325   177333   177342   177350   177358 
  177364   177369   177376   177383   177387   177394   177403   177412 
  177417   177421   177426   177430   177438   177438   177435   177438 
  177441   177438   177437   177438   177439   177442   177444   177442 
  177441   177439   177437   177437   177434   177427   177422   177418 
  177411   177407   177402   177398   177396   177392   177385   177383 
  177381   177376   177369   177365   177358   177350   177345   177341 
  177337   177334   177331   177327   177325   177323   177319   177313 
  177303   177298   177295   177290   177283   177279   177275   177269 
  177268   177267   177261   177260   177260   177253   177252   177255 
  177255   177252   177253   177253   177255   177261   177260   177256 
  177260   177263   177263   177264   177264   177261   177260   177261 
  177264   177264   177264   177264   177263   177265   177265   177261 
  177257   177260   177261   177252   177245   177242   177237   177229 
  177226   177223   177221   177219   177219   177221   177218   177215 
  177217   177214   177210   177213   177214   177210   177207   177210 
  177210   177209   177209   177210   177210   177211   177214   177215 
  177217   177219   177221   177225   177228   177228   177229   177232 
  177232   177230   177230   177229   177229   177228   177226   177228 
  177229   177228   177230   177234   177237   177244   177248   177248 
  177257   177267   177268   177273   177280   177282   177286   177290 
  177290   177291   177295   177296   177298   177296   177298   177303 
  177302   177300   177299   177299   177302   177300   177294   177295 
  177295   177291   177286   177282   177280   177275   177267   177263 
  177257   177255   177253   177250   177246   177244   177244   177244 
  177242   177244   177245   177245   177249   177255   177259   177260 
  177260   177259   177259   177260   177257   177256   177261   177264 
  177261   177261   177263   177265   177265   177264   177268   177272 
  177276   177279   177282   177284   177290   177295   177302   177307 
  177310   177317   177325   177333   177341   177348   177354   177361 
  177367   177372   177377   177380   177381   177384   177388   177390 
  177388   177388   177392   177395   177394   177392   177396   177395 
  177395   177400   177403   177402   177404   177408   177410   177410 
  177412   177415   177411   177408   177410   177406   177402   177402 
  177398   177396   177398   177394   177385   177383   177377   177373 
  177369   177360   177348   177341   177333   177315   177300   177288 
  177275   177260   177248   177233   177218   177205   177192   177176 
  177163   177153   177142   177132   177121   177113   177106   177095 
  177084   177079   177074   177068   177066   177060   177057   177053 
  177052   177051   177048   177043   177041   177041   177039   177036 
  177032   177029   177032   177036   177037   177040   177044   177052 
  177059   177067   177076   177087   177097   177103   177113   177124 
  177129   177138   177148   177153   177164   177175   177184   177192 
  177199   177207   177218   177229   177241   177252   177257   177268 
  177286   177298   177310   177323   177333   177341   177349   177360 
  177371   177380   177388   177399   177410   177418   177426   177437 
  177450   177460   177469   177481   177493   177504   177512   177520 
  177530   177537   177545   177549   177553   177554   177556   177558 
  177557   177554   177557   177560   177558   177558   177557   177554 
  177553   177549   177546   177546   177543   177539   177537   177533 
  177527   177522   177520   177516   177510   177503   177496   177489 
  177483   177472   177458   177446   177437   177422   177404   177392 
  177380   177365   177348   177330   177315   177300   177286   177276 
  177264   177248   177236   177229   177218   177207   177199   177194 
  177186   177178   177172   177169   177164   177159   177156   177155 
  177151   177148   177148   177147   177141   177141   177144   177145 
  177147   177145   177148   177152   177152   177153   177157   177157 
  177157   177160   177161   177164   177167   177169   177175   177178 
  177182   177188   177198   177202   177209   177218   177228   177234 
  177245   177256   177261   177271   177282   177287   177292   177302 
  177306   177309   177315   177323   177329   177333   177337   177340 
  177341   177341   177341   177344   177344   177340   177337   177336 
  177334   177327   177321   177315   177309   177302   177294   177283 
  177272   177265   177260   177250   177240   177232   177225   177218 
  177209   177199   177194   177187   177180   177175   177168   177163 
  177163   177161   177160   177163   177164   177168   177172   177176 
  177182   177190   177198   177207   177215   177223   177236   177244 
  177253   177267   177279   177287   177296   177307   177318   177329 
  177337   177346   177354   177364   177371   177375   177379   177384 
  177390   177394   177398   177403   177407   177407   177407   177407 
  177406   177404   177399   177394   177390   177383   177377   177373 
  177368   177361   177353   177345   177337   177327   177317   177306 
  177299   177292   177284   177276   177268   177260   177255   177246 
  177233   177223   177217   177207   177198   177190   177182   177172 
  177163   177153   177140   177126   177115   177107   177101   177086 
  177072   177067   177056   177039   177029   177024   177014   177003 
  176994   176987   176982   176975   176967   176958   176949   176940 
  176929   176921   176910   176895   176886   176879   176867   176858 
  176847   176831   176817   176806   176794   176782   176770   176756 
  176744   176735   176723   176713   176706   176700   176692   176689 
  176688   176685   176686   176690   176690   176693   176697   176698 
  176702   176710   176715   176721   176732   176744   176751   176760 
  176774   176787   176804   176821   176837   176858   176882   176901 
  176925   176955   176978   177001   177033   177063   177093   177125 
  177157   177191   177223   177256   177288   177322   177353   177384 
  177417   177448   177479   177514   177545   177573   177608   177638 
  177665   177697   177727   177751   177776   177803   177832   177861 
  177888   177909   177932   177957   177978   178001   178024   178042 
  178060   178077   178087   178100   178112   178121   178128   178131 
  178129   178128   178125   178119   178110   178097   178079   178065 
  178047   178025   178005   177984   177957   177930   177901   177867 
  177835   177803   177765   177724   177688   177653   177618   177579 
  177539   177504   177466   177430   177395   177361   177330   177299 
  177267   177237   177211   177184   177157   177133   177109   177087 
  177070   177048   177026   177013   177003   176993   176979   176966 
  176956   176944   176932   176926   176920   176910   176908   176902 
  176901   176906   176909   176909   176916   176922   176931   176941 
  176951   176959   176974   176990   177003   177018   177034   177052 
  177072   177088   177103   177124   177144   177163   177179   177201 
  177221   177236   177249   177265   177280   177294   177309   177322 
  177334   177349   177365   177376   177388   177402   177412   177423 
  177435   177445   177454   177462   177471   177480   177492   177502 
  177510   177516   177523   177534   177546   177554   177562   177573 
  177585   177593   177601   177614   177623   177635   177647   177654 
  177665   177677   177681   177684   177691   177697   177700   177700 
  177701   177701   177699   177697   177695   177691   177687   177682 
  177680   177674   177664   177654   177643   177631   177620   177607 
  177591   177577   177565   177546   177527   177510   177489   177469 
  177449   177429   177408   177387   177364   177341   177321   177298 
  177276   177256   177236   177214   177192   177174   177156   177136 
  177115   177098   177082   177064   177049   177036   177021   177006 
  176995   176980   176967   176958   176944   176931   176922   176913 
  176904   176898   176895   176893   176889   176886   176886   176886 
  176886   176889   176893   176898   176904   176909   176916   176925 
  176937   176947   176959   176974   176987   177003   177022   177037 
  177056   177075   177090   177109   177133   177155   177174   177192 
  177210   177226   177242   177257   177273   177287   177298   177307 
  177321   177334   177344   177348   177354   177360   177365   177371 
  177373   177372   177373   177373   177368   177367   177365   177358 
  177353   177349   177342   177334   177326   177319   177309   177295 
  177280   177265   177250   177233   177213   177194   177176   177159 
  177138   177121   177105   177086   177068   177049   177036   177025 
  177006   176989   176978   176963   176944   176929   176917   176904 
  176887   176872   176856   176841   176825   176812   176797   176781 
  176767   176758   176747   176736   176728   176725   176719   176709 
  176702   176702   176702   176700   176701   176708   176712   176713 
  176721   176731   176739   176748   176760   176771   176779   176791 
  176806   176818   176828   176843   176858   176870   176883   176899 
  176912   176924   176937   176947   176962   176976   176987   177001 
  177016   177029   177043   177056   177074   177090   177102   177114 
  177124   177138   177156   177168   177179   177198   177218   177237 
  177259   177279   177299   177323   177350   177375   177396   177422 
  177450   177476   177500   177525   177549   177574   177600   177620 
  177641   177661   177684   177704   177722   177739   177753   177763 
  177777   177788   177795   177803   177808   177811   177813   177812 
  177816   177819   177820   177824   177824   177822   177823   177826 
  177827   177827   177828   177827   177823   177823   177823   177822 
  177813   177808   177809   177805   177796   177792   177785   177773 
  177762   177750   177738   177727   177716   177704   177691   177678 
  177666   177654   177642   177630   177618   177606   177597   177585 
  177570   177561   177553   177542   177531   177522   177515   177504 
  177493   177480   177466   177452   177441   177433   177421   177403 
  177391   177384   177371   177357   177345   177330   177317   177303 
  177288   177272   177255   177237   177221   177199   177179   177159 
  177136   177117   177098   177078   177056   177036   177017   176995 
  176974   176956   176936   176914   176898   176878   176856   176837 
  176820   176797   176777   176756   176733   176713   176694   176675 
  176658   176636   176613   176590   176569   176548   176527   176507 
  176489   176467   176445   176428   176411   176392   176376   176364 
  176351   176338   176330   176324   176316   176311   176311   176311 
  176310   176310   176314   176322   176324   176331   176341   176347 
  176357   176369   176381   176395   176413   176432   176450   176470 
  176490   176515   176539   176562   176589   176616   176642   176671 
  176702   176732   176763   176793   176825   176862   176894   176924 
  176958   176993   177028   177060   177088   177118   177148   177176 
  177203   177228   177248   177268   177284   177298   177314   177326 
  177333   177342   177353   177360   177361   177364   177371   177371 
  177371   177379   177385   177385   177388   177396   177404   177410 
  177414   177425   177434   177438   177448   177462   177473   177481 
  177492   177504   177514   177523   177535   177549   177564   177577 
  177585   177596   177610   177622   177634   177646   177657   177668 
  177678   177685   177692   177699   177705   177708   177712   177716 
  177720   177724   177727   177728   177728   177730   177732   177735 
  177736   177738   177739   177743   177745   177743   177742   177745 
  177743   177736   177732   177730   177722   177714   177709   177703 
  177689   177680   177669   177654   177639   177623   177606   177588 
  177570   177550   177530   177511   177495   177477   177460   177445 
  177433   177419   177408   177399   177391   177384   177379   177376 
  177372   177367   177361   177361   177358   177356   177357   177356 
  177350   177346   177341   177338   177337   177331   177326   177322 
  177318   177313   177306   177302   177299   177291   177283   177276 
  177272   177269   177267   177261   177260   177261   177261   177259 
  177260   177264   177268   177275   177282   177287   177296   177306 
  177315   177329   177342   177354   177371   177384   177398   177414 
  177427   177438   177452   177462   177476   177489   177498   177507 
  177523   177534   177543   177558   177570   177579   177588   177600 
  177615   177626   177637   177650   177660   177664   177670   177677 
  177681   177682   177684   177682   177681   177676   177669   177661 
  177649   177638   177631   177620   177606   177592   177579   177565 
  177553   177539   177525   177511   177498   177483   177466   177453 
  177439   177426   177411   177398   177385   177372   177358   177349 
  177336   177318   177306   177295   177279   177267   177257   177242 
  177226   177215   177203   177188   177178   177163   177148   177138 
  177130   177117   177106   177094   177078   177067   177055   177039 
  177026   177018   177003   176987   176976   176967   176952   176944 
  176939   176929   176921   176916   176912   176909   176906   176904 
  176898   176895   176894   176891   176889   176890   176887   176883 
  176886   176889   176889   176890   176894   176898   176904   176912 
  176917   176925   176937   176948   176956   176972   176990   177003 
  177018   177036   177053   177072   177093   177110   177126   177148 
  177172   177190   177203   177218   177237   177255   177268   177279 
  177291   177307   177321   177333   177345   177354   177365   177379 
  177392   177406   177422   177438   177449   177464   177481   177496 
  177511   177529   177543   177560   177574   177587   177600   177612 
  177623   177631   177638   177641   177645   177646   177643   177638 
  177633   177626   177616   177604   177589   177570   177553   177534 
  177511   177484   177456   177427   177399   177367   177333   177300 
  177268   177233   177198   177161   177125   177088   177056   177024 
  176991   176963   176936   176908   176879   176855   176833   176813 
  176794   176775   176758   176743   176728   176719   176709   176700 
  176694   176692   176692   176694   176696   176701   176709   176715 
  176729   176747   176763   176781   176804   176825   176850   176877 
  176906   176935   176963   176993   177022   177055   177090   177117 
  177145   177180   177207   177230   177261   177292   177318   177345 
  177369   177392   177415   177437   177457   177476   177495   177511 
  177522   177534   177549   177560   177566   177574   177583   177592 
  177601   177608   177612   177615   177620   177628   177634   177634 
  177634   177641   177643   177642   177643   177646   177647   177647 
  177647   177646   177646   177650   177650   177646   177642   177639 
  177637   177631   177626   177620   177614   177606   177596   177585 
  177574   177561   177543   177527   177511   177492   177472   177452 
  177429   177402   177376   177352   177323   177290   177261   177233 
  177202   177169   177138   177109   177080   177053   177025   176997 
  176971   176947   176920   176899   176883   176860   176840   176824 
  176810   176794   176777   176763   176754   176737   176724   176715 
  176700   176685   176674   176661   176648   176638   176628   176619 
  176612   176604   176596   176590   176585   176582   176581   176578 
  176580   176585   176592   176597   176605   176615   176628   176643 
  176661   176682   176701   176720   176744   176771   176796   176823 
  176855   176890   176924   176959   176994   177032   177075   177114 
  177152   177194   177237   177277   177318   177363   177404   177442 
  177484   177526   177558   177592   177627   177660   177692   177723 
  177749   177770   177792   177812   177828   177843   177857   177866 
  177871   177877   177880   177878   177874   177870   177862   177853 
  177839   177817   177797   177776   177749   177719   177684   177647 
  177612   177573   177535   177499   177458   177419   177380   177341 
  177307   177271   177232   177195   177161   177126   177094   177066 
  177040   177013   176987   176963   176943   176924   176905   176886 
  176872   176862   176852   176844   176839   176835   176828   176823 
  176824   176824   176821   176824   176833   176840   176841   176847 
