Origin Time       2025/01/13 21:19:00
Lat.              31.8
Long.             131.6
Depth. (km)       30
Mag.              6.9
Station Code      KYTH04
Station Lat.      35.2685
Station Long.     135.5508
Station Height(m) 90
Record Time       2025/01/13 21:22:25
Sampling Freq(Hz) 100Hz
Duration Time(s)  120
Dir.              1
Scale Factor      2942(gal)/8224139
Max. Acc. (gal)   0.096
Last Correction   2025/01/13 21:22:27
Memo.             
[...]
  202036   202038   202042   202046   202049   202050   202054   202061 
  202066   202072   202077   202081   202084   202088   202092   202095 
  202099   202100   202103   202105   202108   202111   202113   202115 
  202115   202116   202117   202117   202119   202119   202123   202124 
  202123   202127   202130   202130   202136   202140   202142   202147 
  202151   202154   202159   202163   202169   202176   202182   202189 
  202196   202201   202207   202213   202221   202231   202239   202246 
  202252   202258   202266   202275   202281   202286   202292   202294 
  202297   202300   202302   202305   202305   202305   202308   202306 
  202305   202308   202306   202301   202300   202300   202298   202298 
  202301   202302   202301   202304   202306   202308   202311   202315 
  202316   202320   202327   202331   202335   202342   202348   202354 
  202362   202369   202371   202374   202378   202386   202392   202392 
  202394   202397   202397   202400   202400   202397   202394   202393 
  202390   202387   202382   202373   202363   202356   202350   202342 
  202333   202320   202309   202300   202289   202279   202271   202262 
  202248   202240   202234   202224   202215   202208   202200   202194 
  202193   202188   202181   202181   202185   202182   202178   202177 
  202178   202180   202180   202178   202180   202181   202181   202180 
  202178   202178   202177   202176   202174   202171   202170   202169 
  202169   202165   202162   202161   202161   202158   202155   202153 
  202150   202146   202144   202139   202134   202130   202123   202116 
  202111   202107   202100   202093   202090   202086   202080   202072 
  202068   202063   202059   202058   202057   202055   202055   202058 
  202062   202065   202069   202074   202081   202086   202093   202103 
  202113   202122   202130   202143   202155   202163   202173   202185 
  202196   202205   202216   202227   202238   202248   202259   202270 
  202279   202290   202300   202308   202313   202320   202328   202333 
  202338   202340   202344   202347   202346   202347   202350   202350 
  202350   202347   202346   202347   202347   202343   202338   202335 
  202331   202328   202325   202320   202312   202306   202305   202301 
  202294   202290   202285   202279   202275   202271   202267   202265 
  202262   202258   202254   202254   202254   202254   202252   202251 
  202251   202250   202250   202248   202244   202243   202240   202239 
  202235   202230   202225   202221   202216   202211   202205   202201 
  202194   202189   202184   202174   202167   202162   202154   202147 
  202140   202132   202126   202119   202111   202105   202099   202092 
  202085   202077   202069   202065   202059   202050   202043   202035 
  202030   202023   202014   202004   202000   201995   201987   201980 
  201973   201965   201960   201955   201954   201950   201946   201943 
  201941   201938   201937   201937   201934   201933   201934   201935 
  201935   201934   201934   201937   201939   201939   201942   201946 
  201951   201957   201960   201965   201973   201982   201991   201995 
  202003   202014   202020   202028   202039   202049   202058   202070 
  202080   202088   202099   202109   202117   202127   202138   202146 
  202155   202165   202174   202182   202190   202198   202207   202213 
  202221   202228   202235   202244   202252   202258   202263   202266 
  202269   202273   202275   202277   202278   202281   202285   202285 
  202282   202281   202282   202282   202282   202279   202277   202278 
  202279   202277   202273   202270   202267   202263   202262   202263 
  202259   202254   202252   202254   202250   202247   202247   202243 
  202239   202238   202232   202225   202221   202220   202216   202209 
  202204   202200   202197   202193   202185   202180   202176   202170 
  202165   202161   202157   202155   202151   202147   202144   202144 
  202142   202142   202146   202147   202149   202151   202157   202161 
  202165   202171   202177   202182   202188   202193   202203   202212 
  202219   202227   202234   202240   202250   202255   202261   202269 
  202274   202279   202286   202292   202294   202297   202301   202305 
  202309   202313   202313   202312   202311   202309   202305   202304 
  202304   202301   202293   202289   202288   202282   202274   202270 
  202265   202259   202254   202247   202242   202238   202234   202228 
  202221   202217   202216   202212   202208   202207   202203   202201 
  202201   202198   202197   202194   202192   202190   202189   202185 
  202184   202184   202180   202176   202176   202176   202174   202171 
  202171   202170   202167   202165   202161   202158   202155   202151 
  202147   202144   202139   202138   202136   202132   202127   202123 
  202117   202115   202113   202111   202108   202108   202107   202104 
  202099   202093   202092   202090   202089   202086   202086   202086 
  202084   202084   202085   202085   202084   202081   202078   202078 
  202077   202078   202078   202077   202076   202078   202082   202082 
  202082   202084   202084   202082   202085   202090   202093   202095 
  202100   202103   202104   202109   202116   202119   202122   202126 
  202131   202136   202143   202147   202150   202153   202155   202161 
  202166   202167   202173   202176   202176   202180   202184   202184 
  202185   202186   202188   202188   202189   202193   202194   202196 
  202198   202204   202203   202204   202209   202211   202211   202215 
  202217   202219   202221   202223   202227   202228   202231   202238 
  202243   202246   202250   202252   202254   202258   202262   202266 
  202270   202275   202278   202281   202282   202285   202286   202286 
  202288   202288   202288   202290   202292   202289   202288   202286 
  202284   202284   202282   202278   202274   202271   202267   202263 
  202262   202261   202258   202252   202250   202248   202246   202242 
  202239   202238   202236   202235   202234   202232   202230   202230 
  202230   202225   202223   202221   202220   202220   202220   202219 
  202219   202219   202220   202219   202217   202217   202220   202219 
  202217   202217   202219   202217   202216   202219   202220   202221 
  202223   202221   202219   202224   202231   202231   202234   202238 
  202238   202240   202244   202248   202251   202258   202265   202265 
  202266   202273   202275   202278   202284   202289   202294   202298 
  202300   202301   202304   202306   202311   202313   202317   202319 
  202319   202320   202321   202324   202325   202325   202329   202329 
  202329   202331   202332   202333   202332   202328   202325   202324 
  202323   202317   202312   202309   202305   202300   202294   202289 
  202286   202282   202275   202273   202267   202259   202252   202247 
  202242   202239   202232   202224   202219   202209   202200   202194 
  202188   202178   202171   202166   202158   202150   202146   202143 
  202138   202130   202123   202122   202119   202113   202112   202113 
  202111   202112   202113   202115   202115   202117   202119   202126 
  202130   202134   202136   202142   202149   202153   202157   202162 
  202169   202173   202178   202182   202188   202193   202200   202205 
  202208   202212   202217   202221   202225   202230   202232   202235 
  202240   202246   202250   202254   202257   202259   202262   202265 
  202266   202270   202271   202273   202274   202275   202273   202274 
  202278   202275   202271   202270   202270   202269   202265   202263 
  202262   202257   202252   202248   202246   202243   202239   202236 
  202232   202228   202228   202228   202224   202223   202223   202221 
  202221   202220   202217   202216   202219   202221   202220   202223 
  202225   202225   202227   202227   202227   202230   202231   202231 
  202230   202227   202227   202227   202224   202221   202219   202215 
  202211   202207   202203   202196   202189   202185   202178   202170 
  202162   202155   202149   202144   202139   202132   202126   202116 
  202109   202107   202101   202093   202088   202085   202084   202082 
  202078   202076   202073   202072   202072   202073   202074   202077 
  202081   202084   202086   202093   202099   202103   202108   202113 
  202117   202120   202127   202132   202135   202138   202143   202146 
  202146   202146   202150   202149   202147   202150   202150   202151 
  202151   202149   202150   202153   202150   202149   202151   202150 
  202149   202147   202146   202146   202147   202147   202147   202149 
  202150   202149   202147   202151   202153   202153   202154   202155 
  202159   202163   202166   202167   202171   202177   202181   202186 
  202192   202196   202203   202209   202213   202217   202225   202234 
  202239   202244   202251   202259   202269   202277   202284   202293 
  202300   202309   202317   202324   202331   202339   202348   202358 
  202362   202367   202377   202385   202389   202390   202394   202398 
  202400   202401   202401   202400   202400   202400   202397   202392 
  202392   202390   202385   202377   202373   202369   202362   202355 
  202350   202343   202339   202333   202328   202323   202317   202312 
  202309   202306   202301   202297   202294   202292   202288   202282 
  202279   202279   202279   202275   202271   202271   202269   202266 
  202262   202258   202257   202254   202248   202247   202246   202242 
  202235   202232   202232   202228   202223   202220   202217   202212 
  202211   202209   202205   202203   202200   202197   202194   202190 
  202185   202182   202182   202178   202174   202170   202166   202162 
  202158   202155   202151   202146   202139   202135   202132   202128 
  202123   202119   202115   202109   202104   202100   202099   202096 
  202092   202089   202089   202090   202093   202092   202093   202100 
  202105   202108   202115   202122   202128   202136   202146   202157 
  202165   202173   202181   202192   202203   202211   202220   202228 
  202238   202247   202254   202261   202269   202271   202277   202284 
  202286   202289   202292   202292   202296   202296   202296   202297 
  202294   202288   202286   202286   202285   202281   202275   202273 
  202269   202265   202261   202258   202257   202250   202247   202243 
  202235   202231   202227   202219   202212   202207   202197   202190 
  202184   202178   202174   202170   202161   202153   202149   202142 
  202135   202131   202123   202115   202109   202105   202103   202096 
  202090   202086   202080   202076   202072   202065   202059   202055 
  202050   202045   202041   202034   202028   202027   202023   202015 
  202012   202011   202007   202004   202004   202004   202004   202005 
  202000   202000   202001   202000   202000   202001   202001   202003 
  202004   202004   202007   202009   202009   202011   202014   202016 
  202019   202020   202022   202023   202027   202031   202034   202035 
  202039   202041   202042   202046   202050   202050   202050   202054 
  202059   202062   202065   202069   202072   202074   202080   202084 
  202086   202090   202096   202100   202103   202107   202113   202119 
  202123   202128   202136   202142   202150   202158   202166   202171 
  202181   202192   202198   202207   202213   202220   202227   202232 
  202236   202244   202252   202258   202263   202267   202270   202274 
  202279   202285   202289   202292   202296   202298   202304   202308 
  202311   202315   202320   202323   202324   202325   202328   202329 
  202332   202333   202335   202336   202338   202339   202338   202336 
  202336   202335   202332   202331   202328   202321   202320   202321 
  202320   202315   202313   202315   202313   202309   202306   202304 
  202304   202306   202306   202305   202308   202309   202311   202315 
  202319   202317   202317   202321   202324   202325   202328   202332 
  202333   202332   202333   202338   202339   202336   202335   202335 
  202335   202331   202327   202328   202327   202323   202321   202321 
  202315   202311   202311   202305   202298   202296   202294   202289 
  202284   202279   202275   202269   202262   202259   202252   202243 
  202239   202232   202221   202213   202205   202198   202190   202181 
  202174   202167   202157   202150   202144   202138   202128   202123 
  202117   202113   202107   202103   202100   202096   202092   202092 
  202090   202089   202089   202088   202089   202092   202093   202092 
  202093   202096   202097   202099   202103   202105   202105   202108 
  202111   202112   202113   202116   202116   202116   202115   202113 
  202112   202109   202107   202104   202101   202097   202093   202090 
  202085   202080   202074   202069   202066   202063   202058   202051 
  202049   202043   202038   202035   202031   202028   202027   202027 
  202024   202022   202023   202024   202024   202026   202028   202030 
  202032   202034   202039   202046   202049   202051   202057   202063 
  202069   202074   202081   202086   202092   202096   202103   202115 
  202122   202123   202130   202136   202143   202150   202157   202163 
  202169   202173   202180   202188   202193   202198   202205   202211 
  202215   202220   202228   202236   202244   202248   202257   202269 
  202277   202284   202293   202300   202308   202319   202329   202336 
  202344   202355   202362   202367   202375   202387   202396   202401 
  202408   202417   202423   202425   202431   202439   202441   202443 
  202447   202451   202454   202456   202458   202460   202462   202460 
  202459   202459   202458   202456   202458   202458   202455   202451 
  202450   202448   202446   202447   202446   202443   202439   202435 
  202432   202431   202428   202427   202424   202420   202417   202413 
  202410   202406   202401   202397   202393   202389   202386   202382 
  202377   202371   202365   202359   202354   202347   202343   202339 
  202331   202324   202315   202306   202298   202292   202282   202273 
  202262   202254   202244   202234   202225   202216   202205   202198 
  202189   202180   202170   202159   202151   202143   202135   202127 
  202117   202109   202104   202097   202090   202081   202077   202074 
  202068   202061   202055   202050   202047   202043   202038   202034 
  202032   202032   202031   202028   202027   202027   202027   202028 
  202031   202032   202034   202036   202039   202043   202047   202053 
  202059   202066   202070   202077   202084   202090   202097   202104 
  202115   202124   202128   202135   202144   202153   202161   202170 
  202177   202184   202190   202197   202207   202213   202216   202221 
  202227   202232   202239   202240   202240   202244   202250   202252 
  202254   202254   202251   202251   202252   202254   202254   202254 
  202250   202248   202248   202246   202240   202239   202236   202232 
  202228   202221   202219   202216   202211   202207   202203   202197 
  202193   202190   202186   202181   202177   202173   202169   202166 
  202165   202159   202153   202150   202150   202149   202149   202144 
  202142   202142   202139   202136   202135   202132   202130   202131 
  202131   202126   202124   202126   202122   202119   202116   202113 
  202112   202112   202109   202105   202103   202100   202096   202096 
  202096   202095   202092   202090   202090   202092   202090   202090 
  202090   202092   202095   202095   202096   202099   202103   202107 
  202108   202107   202109   202111   202113   202116   202119   202117 
  202119   202123   202124   202126   202127   202128   202130   202134 
  202135   202135   202138   202142   202144   202149   202155   202159 
  202162   202169   202174   202180   202186   202194   202203   202208 
  202216   202225   202231   202236   202244   202254   202259   202265 
  202273   202279   202284   202290   202297   202301   202308   202311 
  202315   202323   202328   202329   202332   202338   202343   202347 
  202350   202354   202356   202356   202356   202359   202360   202358 
  202356   202358   202356   202354   202352   202348   202348   202347 
  202344   202343   202339   202336   202336   202335   202332   202332 
  202328   202323   202323   202321   202319   202316   202311   202308 
  202308   202305   202301   202297   202293   202286   202279   202277 
  202271   202263   202261   202257   202248   202243   202239   202232 
  202227   202221   202217   202212   202204   202194   202192   202189 
  202181   202177   202170   202162   202157   202153   202147   202142 
  202136   202132   202127   202124   202122   202119   202115   202109 
  202108   202104   202097   202095   202093   202089   202085   202082 
  202080   202077   202074   202072   202068   202063   202059   202058 
  202054   202053   202049   202045   202043   202043   202041   202038 
  202036   202038   202039   202038   202036   202039   202045   202049 
  202053   202058   202062   202065   202072   202078   202082   202090 
  202099   202104   202109   202119   202130   202136   202143   202150 
  202158   202169   202177   202181   202189   202196   202204   202212 
  202217   202224   202232   202239   202246   202252   202259   202265 
  202270   202278   202282   202286   202289   202292   202292   202293 
  202296   202298   202297   202297   202294   202292   202293   202292 
  202288   202286   202281   202275   202273   202270   202266   202262 
  202257   202250   202244   202238   202232   202230   202225   202219 
  202216   202211   202208   202204   202200   202197   202194   202194 
  202193   202190   202193   202197   202197   202198   202203   202205 
  202209   202216   202221   202227   202234   202240   202248   202258 
  202267   202275   202285   202293   202301   202309   202319   202327 
  202332   202339   202346   202351   202356   202362   202365   202365 
  202367   202370   202370   202369   202366   202366   202367   202363 
  202358   202356   202352   202350   202344   202338   202333   202329 
  202321   202317   202315   202305   202298   202294   202290   202286 
  202282   202278   202271   202267   202265   202258   202251   202248 
  202243   202239   202235   202230   202225   202223   202219   202213 
  202208   202203   202196   202190   202186   202181   202174   202166 
  202161   202154   202151   202147   202140   202132   202127   202124 
  202122   202116   202113   202112   202111   202108   202105   202105 
  202108   202108   202104   202105   202105   202104   202105   202105 
  202104   202103   202101   202100   202099   202097   202097   202093 
  202090   202089   202084   202080   202078   202076   202072   202063 
  202059   202058   202055   202050   202047   202046   202043   202041 
  202036   202032   202031   202028   202026   202026   202024   202023 
  202026   202028   202028   202030   202031   202035   202038   202041 
  202043   202049   202053   202058   202062   202068   202074   202078 
  202084   202092   202100   202107   202115   202123   202131   202139 
  202149   202155   202162   202171   202182   202192   202200   202209 
  202220   202228   202238   202250   202258   202265   202275   202286 
  202293   202301   202312   202319   202327   202335   202342   202350 
  202356   202360   202366   202375   202379   202382   202389   202393 
  202397   202402   202405   202408   202413   202414   202412   202414 
