Origin Time       2025/01/13 21:19:00
Lat.              31.8
Long.             131.6
Depth. (km)       30
Mag.              6.9
Station Code      KYTH01
Station Lat.      35.5243
Station Long.     135.1243
Station Height(m) -140
Record Time       2025/01/13 21:22:06
Sampling Freq(Hz) 100Hz
Duration Time(s)  120
Dir.              2
Scale Factor      2942(gal)/8224139
Max. Acc. (gal)   0.258
Last Correction   2025/01/13 21:22:06
Memo.             
[...]
    4056     4058     4054     4048     4050     4052     4050     4048 
    4047     4041     4040     4039     4036     4037     4035     4029 
    4029     4029     4024     4020     4017     4012     4009     4012 
    4012     4008     4005     4006     4009     4013     4016     4020 
    4024     4029     4033     4036     4039     4041     4045     4054 
    4060     4067     4075     4083     4087     4091     4097     4098 
    4098     4104     4108     4110     4116     4114     4112     4113 
    4116     4112     4108     4108     4109     4112     4116     4120 
    4126     4129     4132     4136     4135     4137     4143     4145 
    4148     4152     4152     4153     4156     4159     4166     4168 
    4168     4171     4176     4180     4176     4175     4176     4172 
    4167     4163     4159     4151     4147     4141     4136     4132 
    4128     4120     4114     4112     4102     4091     4087     4081 
    4071     4066     4059     4051     4045     4041     4037     4033 
    4031     4031     4029     4027     4027     4024     4020     4020 
    4016     4012     4012     4010     4010     4012     4013     4013 
    4010     4012     4018     4021     4023     4024     4032     4041 
    4041     4043     4050     4054     4058     4064     4070     4077 
    4082     4085     4089     4095     4099     4104     4112     4114 
    4120     4128     4128     4129     4133     4133     4129     4129 
    4129     4128     4125     4121     4118     4117     4110     4105 
    4101     4095     4089     4083     4081     4075     4068     4064 
    4059     4052     4048     4048     4047     4045     4043     4041 
    4040     4040     4040     4040     4039     4037     4037     4035 
    4032     4031     4031     4032     4032     4031     4031     4032 
    4035     4037     4037     4036     4036     4037     4037     4036 
    4036     4040     4044     4043     4043     4048     4054     4056 
    4058     4062     4067     4070     4072     4078     4082     4085 
    4090     4097     4105     4112     4121     4131     4136     4140 
    4147     4153     4158     4160     4164     4170     4175     4179 
    4182     4186     4189     4191     4193     4193     4197     4198 
    4195     4191     4187     4189     4189     4183     4180     4180 
    4179     4180     4178     4171     4167     4167     4168     4167 
    4160     4160     4159     4151     4152     4153     4145     4144 
    4147     4143     4140     4140     4137     4135     4133     4132 
    4129     4126     4126     4128     4126     4122     4122     4126 
    4128     4128     4129     4132     4133     4135     4137     4139 
    4140     4144     4147     4141     4145     4152     4147     4145 
    4153     4153     4152     4153     4151     4147     4147     4141 
    4133     4125     4121     4116     4106     4094     4082     4072 
    4064     4050     4035     4024     4016     4006     3994     3987 
    3979     3971     3964     3955     3946     3940     3935     3928 
    3924     3919     3915     3916     3915     3915     3916     3912 
    3910     3916     3920     3920     3920     3919     3917     3917 
    3921     3923     3919     3920     3921     3916     3916     3920 
    3917     3916     3920     3921     3921     3920     3919     3920 
    3921     3921     3921     3923     3928     3933     3935     3940 
    3947     3948     3948     3952     3955     3955     3958     3958 
    3958     3959     3959     3956     3958     3958     3955     3954 
    3954     3952     3952     3956     3956     3955     3955     3954 
    3959     3962     3959     3962     3964     3962     3963     3970 
    3974     3978     3982     3993     4002     4006     4014     4028 
    4037     4047     4062     4077     4091     4104     4122     4145 
    4160     4175     4195     4212     4229     4251     4272     4295 
    4318     4340     4361     4380     4399     4414     4426     4442 
    4460     4471     4479     4494     4509     4517     4529     4544 
    4549     4548     4549     4554     4558     4557     4554     4554 
    4552     4546     4544     4540     4530     4519     4510     4498 
    4486     4473     4456     4438     4421     4399     4375     4355 
    4337     4314     4290     4264     4241     4220     4198     4178 
    4155     4135     4118     4099     4081     4064     4048     4032 
    4020     4013     4004     3991     3987     3987     3982     3974 
    3973     3969     3967     3970     3969     3970     3971     3970 
    3969     3971     3974     3975     3975     3979     3985     3989 
    3989     3991     3996     4000     4004     4004     4006     4017 
    4021     4021     4024     4024     4025     4025     4028     4032 
    4032     4033     4037     4041     4047     4051     4056     4064 
    4068     4074     4082     4085     4089     4094     4099     4105 
    4113     4118     4122     4128     4131     4133     4137     4137 
    4139     4144     4148     4144     4140     4139     4137     4135 
    4133     4128     4121     4121     4121     4116     4114     4121 
    4124     4118     4118     4125     4131     4136     4141     4144 
    4151     4159     4163     4168     4175     4185     4195     4202 
    4209     4224     4237     4245     4253     4266     4278     4287 
    4297     4309     4317     4325     4334     4347     4357     4367 
    4375     4388     4405     4414     4422     4433     4445     4453 
    4461     4475     4488     4494     4495     4500     4506     4503 
    4500     4499     4495     4488     4483     4477     4472     4468 
    4460     4450     4440     4428     4417     4406     4392     4380 
    4368     4353     4341     4328     4310     4294     4279     4266 
    4249     4230     4217     4203     4186     4172     4160     4144 
    4126     4112     4097     4079     4060     4043     4028     4006 
    3987     3978     3964     3950     3942     3933     3921     3912 
    3904     3890     3878     3874     3866     3854     3844     3836 
    3829     3825     3819     3812     3809     3807     3798     3794 
    3796     3793     3790     3792     3793     3792     3790     3790 
    3790     3789     3785     3782     3782     3777     3771     3775 
    3780     3780     3781     3784     3788     3796     3801     3808 
    3817     3828     3842     3854     3869     3890     3910     3928 
    3952     3974     3993     4017     4045     4070     4095     4121 
    4149     4178     4206     4236     4267     4291     4317     4345 
    4369     4394     4422     4449     4477     4504     4529     4554 
    4581     4602     4619     4642     4658     4666     4679     4691 
    4700     4711     4714     4712     4714     4715     4712     4708 
    4706     4704     4699     4692     4687     4685     4681     4673 
    4661     4653     4650     4642     4629     4617     4607     4598 
    4580     4563     4550     4536     4518     4502     4487     4468 
    4450     4434     4418     4395     4375     4357     4337     4315 
    4295     4278     4257     4234     4218     4203     4185     4164 
    4145     4128     4109     4089     4068     4052     4036     4018 
    3998     3977     3955     3936     3916     3900     3882     3861 
    3839     3821     3805     3786     3765     3744     3726     3707 
    3686     3666     3650     3634     3616     3601     3585     3569 
    3557     3547     3537     3524     3518     3515     3508     3503 
    3503     3505     3505     3507     3512     3516     3519     3526 
    3534     3541     3546     3557     3564     3569     3580     3591 
    3595     3599     3608     3619     3624     3631     3638     3645 
    3653     3662     3672     3684     3693     3707     3723     3735 
    3748     3765     3781     3792     3809     3831     3850     3866 
    3890     3915     3935     3954     3977     3998     4017     4039 
    4058     4074     4095     4114     4129     4144     4156     4168 
    4180     4191     4201     4206     4217     4228     4230     4236 
    4247     4251     4257     4270     4278     4283     4294     4309 
    4318     4328     4344     4357     4365     4379     4394     4402 
    4407     4419     4428     4433     4437     4441     4444     4448 
    4449     4445     4441     4437     4433     4428     4425     4419 
    4406     4396     4391     4383     4374     4364     4353     4341 
    4329     4318     4309     4299     4293     4282     4268     4259 
    4249     4240     4230     4220     4209     4197     4186     4175 
    4168     4160     4147     4135     4125     4113     4098     4090 
    4085     4077     4068     4062     4055     4052     4051     4048 
    4048     4052     4056     4064     4074     4083     4094     4110 
    4126     4144     4163     4182     4205     4228     4245     4268 
    4294     4313     4330     4355     4372     4386     4402     4415 
    4425     4433     4437     4444     4449     4445     4442     4448 
    4445     4434     4426     4419     4407     4392     4382     4368 
    4349     4336     4321     4302     4287     4271     4253     4239 
    4222     4203     4183     4167     4153     4141     4128     4116 
    4109     4102     4094     4089     4083     4081     4082     4087 
    4090     4095     4105     4116     4129     4145     4156     4168 
    4190     4206     4218     4240     4263     4282     4298     4317 
    4332     4347     4364     4382     4391     4402     4415     4423 
    4432     4444     4452     4455     4459     4461     4461     4461 
    4461     4461     4459     4455     4449     4445     4440     4433 
    4428     4423     4418     4413     4409     4401     4392     4388 
    4380     4371     4361     4348     4338     4330     4311     4298 
    4287     4268     4252     4240     4222     4206     4197     4183 
    4164     4152     4140     4125     4113     4102     4087     4079 
    4070     4051     4039     4036     4028     4018     4009     4004 
    4001     3998     3991     3987     3987     3989     3990     3994 
    3998     4002     4010     4018     4027     4035     4044     4056 
    4068     4075     4086     4094     4099     4112     4122     4129 
    4139     4148     4155     4164     4171     4175     4182     4186 
    4187     4194     4194     4190     4190     4185     4175     4167 
    4156     4147     4137     4126     4114     4099     4083     4067 
    4050     4032     4012     3990     3973     3950     3927     3906 
    3885     3861     3838     3813     3790     3765     3736     3717 
    3704     3685     3670     3655     3640     3631     3624     3619 
    3613     3609     3612     3618     3620     3626     3638     3654 
    3670     3689     3712     3734     3761     3793     3824     3855 
    3889     3923     3959     3997     4032     4067     4104     4143 
    4176     4207     4241     4275     4307     4341     4374     4403 
    4433     4464     4500     4530     4553     4577     4606     4631 
    4652     4675     4695     4710     4730     4749     4758     4768 
    4780     4784     4781     4783     4781     4773     4765     4756 
    4739     4718     4695     4668     4639     4611     4581     4549 
    4514     4473     4436     4402     4365     4325     4288     4252 
    4212     4174     4140     4106     4071     4041     4014     3989 
    3960     3936     3919     3902     3883     3870     3862     3855 
    3847     3839     3839     3843     3840     3839     3846     3848 
    3850     3858     3866     3875     3889     3900     3908     3917 
    3932     3943     3948     3960     3975     3979     3986     4000 
    4008     4013     4021     4033     4048     4058     4067     4077 
    4086     4095     4105     4120     4135     4143     4153     4167 
    4175     4183     4195     4209     4218     4229     4239     4245 
    4255     4267     4280     4288     4294     4303     4313     4324 
    4336     4341     4347     4355     4364     4374     4383     4392 
    4406     4421     4429     4441     4459     4471     4480     4490 
    4498     4504     4510     4515     4517     4514     4513     4513 
    4511     4509     4504     4502     4496     4491     4484     4477 
    4471     4464     4453     4442     4433     4426     4418     4411 
    4405     4402     4399     4395     4394     4395     4392     4391 
    4392     4394     4395     4398     4399     4399     4402     4406 
    4406     4406     4410     4410     4411     4415     4415     4415 
    4415     4415     4417     4421     4426     4428     4428     4433 
    4438     4438     4445     4456     4460     4469     4484     4490 
    4495     4511     4529     4538     4549     4558     4567     4581 
    4590     4592     4599     4607     4612     4617     4618     4621 
    4622     4621     4619     4614     4607     4608     4608     4602 
    4600     4598     4592     4587     4581     4575     4571     4563 
    4554     4541     4519     4503     4490     4464     4440     4417 
    4394     4367     4334     4305     4275     4241     4210     4179 
    4145     4112     4079     4045     4014     3982     3950     3920 
    3888     3859     3834     3805     3782     3763     3739     3716 
    3699     3681     3657     3636     3626     3611     3589     3574 
    3559     3541     3527     3516     3501     3489     3478     3466 
    3457     3449     3443     3439     3437     3433     3430     3431 
    3433     3437     3446     3451     3457     3469     3483     3495 
    3511     3527     3545     3565     3581     3605     3632     3651 
    3674     3699     3721     3746     3769     3792     3816     3836 
    3859     3882     3906     3932     3955     3978     4001     4023 
    4047     4072     4094     4116     4141     4166     4186     4210 
    4237     4260     4280     4302     4325     4347     4361     4378 
    4402     4421     4432     4445     4457     4467     4473     4477 
    4482     4483     4482     4480     4473     4467     4464     4457 
    4446     4438     4429     4421     4413     4403     4395     4386 
    4376     4368     4360     4353     4345     4336     4328     4320 
    4311     4303     4298     4291     4282     4279     4275     4268 
    4261     4257     4255     4252     4249     4245     4244     4241 
    4236     4230     4228     4222     4217     4212     4199     4187 
    4182     4172     4162     4151     4137     4121     4108     4095 
    4078     4060     4045     4028     4009     3993     3975     3959 
    3944     3932     3920     3905     3896     3889     3881     3877 
    3873     3870     3873     3871     3870     3879     3886     3885 
    3890     3902     3908     3915     3925     3932     3943     3955 
    3962     3970     3979     3986     3994     4002     4008     4014 
    4021     4027     4035     4041     4048     4054     4060     4070 
    4079     4089     4101     4114     4129     4143     4158     4175 
    4194     4213     4237     4257     4272     4295     4318     4336 
    4357     4383     4405     4423     4442     4461     4480     4495 
    4509     4523     4534     4545     4561     4573     4579     4585 
    4594     4599     4600     4599     4598     4598     4596     4591 
    4591     4591     4585     4580     4579     4576     4569     4564 
    4558     4552     4544     4536     4523     4514     4507     4498 
    4483     4472     4464     4450     4438     4429     4419     4407 
    4394     4382     4371     4359     4345     4336     4324     4305 
    4291     4283     4270     4257     4253     4245     4233     4226 
    4224     4214     4205     4198     4189     4182     4178     4170 
    4163     4160     4155     4145     4139     4132     4128     4122 
    4113     4108     4104     4098     4095     4090     4085     4081 
    4079     4075     4067     4064     4066     4063     4062     4060 
    4058     4060     4066     4066     4067     4070     4070     4068 
    4070     4074     4074     4072     4072     4068     4067     4067 
    4064     4058     4052     4047     4041     4033     4024     4012 
    4002     3994     3985     3975     3964     3952     3943     3936 
    3925     3916     3906     3901     3896     3883     3874     3871 
    3865     3856     3848     3843     3842     3839     3836     3834 
    3832     3836     3838     3839     3846     3854     3859     3862 
    3866     3874     3881     3886     3894     3902     3910     3919 
    3925     3932     3942     3950     3958     3969     3977     3986 
    4000     4014     4029     4039     4055     4077     4093     4110 
    4129     4144     4162     4183     4205     4222     4241     4266 
    4287     4305     4321     4342     4363     4380     4398     4413 
    4428     4450     4467     4477     4496     4514     4525     4538 
    4553     4568     4580     4592     4607     4618     4630     4646 
    4656     4660     4668     4673     4675     4676     4676     4671 
    4665     4660     4653     4642     4629     4614     4599     4583 
    4563     4541     4522     4502     4475     4452     4428     4399 
    4374     4349     4324     4299     4274     4249     4226     4203 
    4179     4158     4137     4118     4101     4083     4067     4052 
    4039     4025     4012     4001     3994     3985     3975     3971 
    3969     3966     3962     3959     3959     3959     3958     3952 
    3952     3956     3955     3954     3955     3958     3959     3959 
    3958     3960     3960     3962     3967     3967     3966     3974 
    3979     3981     3986     3994     4000     4001     4008     4017 
    4023     4029     4037     4045     4056     4064     4071     4075 
    4079     4089     4097     4099     4104     4114     4122     4126 
    4129     4133     4137     4141     4145     4149     4151     4151 
    4152     4159     4164     4166     4167     4170     4172     4175 
    4175     4174     4174     4168     4164     4163     4160     4156 
    4151     4143     4136     4131     4121     4110     4099     4091 
    4086     4078     4067     4060     4052     4044     4037     4029 
    4024     4023     4016     4010     4013     4014     4016     4021 
    4025     4029     4036     4045     4058     4066     4078     4091 
    4105     4120     4136     4149     4166     4183     4199     4221 
    4240     4252     4268     4286     4301     4317     4333     4344 
    4353     4367     4379     4386     4395     4405     4407     4414 
    4418     4419     4422     4419     4414     4414     4413     4405 
    4401     4396     4388     4379     4371     4360     4351     4341 
    4330     4320     4309     4299     4290     4278     4268     4259 
    4243     4228     4221     4207     4191     4185     4175     4162 
    4153     4144     4131     4120     4109     4101     4094     4086 
    4078     4071     4064     4062     4058     4055     4056     4055 
    4055     4058     4058     4063     4070     4072     4078     4089 
    4098     4108     4117     4128     4139     4151     4159     4170 
    4183     4195     4207     4221     4234     4247     4259     4271 
    4282     4290     4301     4313     4321     4324     4329     4336 
