Origin Time       2025/01/13 21:19:00
Lat.              31.8
Long.             131.6
Depth. (km)       30
Mag.              6.9
Station Code      KYTH04
Station Lat.      35.2685
Station Long.     135.5508
Station Height(m) 190
Record Time       2025/01/13 21:22:25
Sampling Freq(Hz) 100Hz
Duration Time(s)  120
Dir.              6
Scale Factor      7845(gal)/8223790
Max. Acc. (gal)   0.111
Last Correction   2025/01/13 21:22:27
Memo.             
[...]
    7337     7337     7341     7344     7346     7349     7350     7354 
    7356     7352     7353     7357     7357     7354     7358     7360 
    7356     7357     7356     7353     7353     7354     7350     7349 
    7349     7346     7344     7344     7339     7338     7338     7338 
    7337     7333     7330     7330     7329     7327     7326     7325 
    7325     7322     7319     7318     7318     7317     7314     7310 
    7308     7307     7303     7300     7299     7296     7292     7288 
    7287     7287     7285     7285     7283     7280     7279     7279 
    7279     7277     7275     7273     7275     7275     7275     7275 
    7276     7279     7280     7283     7285     7285     7288     7295 
    7298     7299     7302     7306     7308     7312     7314     7317 
    7322     7323     7323     7329     7331     7333     7335     7335 
    7337     7337     7335     7335     7338     7338     7337     7335 
    7335     7335     7335     7333     7330     7330     7330     7329 
    7329     7326     7322     7321     7319     7319     7318     7317 
    7314     7312     7312     7310     7306     7304     7307     7306 
    7303     7303     7302     7298     7296     7298     7296     7295 
    7294     7294     7294     7291     7292     7295     7295     7292 
    7292     7294     7294     7294     7295     7295     7296     7299 
    7299     7299     7300     7303     7307     7308     7312     7317 
    7317     7321     7327     7330     7331     7337     7342     7344 
    7345     7353     7356     7357     7362     7368     7368     7372 
    7377     7380     7381     7384     7385     7387     7389     7393 
    7392     7391     7391     7391     7391     7388     7387     7385 
    7387     7385     7381     7379     7380     7380     7377     7375 
    7375     7373     7373     7373     7371     7371     7371     7369 
    7368     7368     7368     7369     7372     7373     7373     7376 
    7377     7377     7377     7380     7383     7385     7387     7387 
    7388     7389     7393     7398     7398     7396     7399     7403 
    7403     7402     7400     7400     7399     7399     7399     7400 
    7396     7393     7393     7393     7391     7389     7388     7387 
    7384     7383     7380     7375     7371     7371     7369     7368 
    7364     7357     7356     7352     7348     7348     7346     7341 
    7338     7334     7330     7329     7326     7323     7319     7317 
    7312     7308     7306     7304     7302     7299     7296     7292 
    7291     7290     7288     7287     7281     7281     7283     7279 
    7277     7276     7275     7272     7271     7272     7272     7268 
    7271     7273     7272     7273     7273     7271     7273     7275 
    7272     7273     7279     7280     7280     7283     7284     7285 
    7287     7287     7290     7291     7290     7291     7295     7296 
    7296     7299     7299     7299     7299     7302     7306     7306 
    7307     7307     7306     7306     7310     7311     7312     7315 
    7315     7314     7315     7318     7319     7321     7321     7323 
    7323     7323     7327     7331     7329     7329     7333     7331 
    7330     7334     7334     7334     7333     7333     7333     7335 
    7334     7334     7337     7334     7330     7334     7337     7330 
    7331     7334     7330     7331     7334     7334     7337     7339 
    7339     7341     7342     7344     7346     7349     7348     7349 
    7353     7354     7356     7360     7361     7360     7361     7361 
    7365     7366     7364     7364     7365     7366     7368     7366 
    7368     7366     7365     7364     7365     7365     7365     7365 
    7365     7364     7362     7366     7366     7361     7360     7362 
    7368     7368     7365     7366     7368     7366     7365     7366 
    7369     7368     7364     7368     7371     7368     7368     7368 
    7369     7368     7364     7365     7366     7365     7364     7362 
    7361     7358     7357     7356     7354     7353     7354     7352 
    7346     7346     7346     7345     7344     7341     7337     7338 
    7338     7335     7333     7333     7331     7329     7326     7326 
    7326     7323     7322     7322     7322     7325     7323     7321 
    7321     7321     7321     7322     7319     7319     7322     7319 
    7317     7317     7314     7311     7310     7311     7312     7308 
    7304     7303     7299     7299     7300     7299     7298     7296 
    7294     7291     7292     7292     7288     7285     7284     7281 
    7281     7280     7279     7277     7276     7276     7275     7272 
    7275     7273     7268     7265     7267     7265     7263     7264 
    7261     7257     7258     7258     7258     7257     7257     7258 
    7258     7257     7258     7257     7257     7261     7263     7263 
    7265     7267     7268     7271     7273     7276     7277     7280 
    7284     7287     7290     7294     7296     7299     7303     7307 
    7307     7311     7315     7319     7323     7326     7330     7335 
    7338     7339     7344     7348     7352     7354     7356     7358 
    7364     7368     7371     7373     7379     7384     7385     7388 
    7391     7392     7395     7399     7402     7403     7404     7406 
    7407     7407     7408     7411     7412     7410     7408     7407 
    7406     7404     7404     7403     7399     7396     7395     7393 
    7392     7388     7384     7381     7377     7375     7371     7366 
    7364     7361     7356     7352     7350     7348     7341     7335 
    7334     7333     7331     7327     7321     7317     7312     7308 
    7307     7306     7303     7299     7296     7292     7288     7287 
    7285     7281     7277     7276     7273     7271     7271     7269 
    7267     7267     7269     7268     7267     7268     7268     7265 
    7267     7269     7268     7269     7275     7276     7275     7277 
    7281     7281     7283     7287     7288     7290     7294     7296 
    7299     7300     7299     7299     7303     7306     7304     7306 
    7310     7311     7312     7314     7312     7314     7317     7318 
    7318     7318     7318     7317     7315     7315     7317     7321 
    7319     7315     7315     7318     7317     7317     7315     7311 
    7311     7310     7307     7307     7310     7308     7304     7302 
    7299     7299     7298     7295     7292     7292     7292     7290 
    7288     7287     7285     7284     7284     7283     7284     7283 
    7281     7281     7281     7280     7280     7283     7283     7283 
    7283     7281     7280     7284     7284     7281     7283     7284 
    7283     7284     7285     7285     7287     7288     7288     7287 
    7290     7290     7291     7291     7292     7294     7296     7296 
    7296     7299     7303     7304     7304     7306     7310     7312 
    7315     7318     7321     7321     7323     7327     7327     7327 
    7330     7331     7331     7334     7338     7337     7337     7341 
    7341     7341     7342     7341     7341     7342     7342     7341 
    7342     7345     7344     7341     7341     7341     7341     7338 
    7337     7337     7337     7335     7335     7333     7330     7331 
    7329     7325     7325     7325     7323     7322     7319     7317 
    7314     7314     7314     7311     7310     7310     7307     7306 
    7307     7308     7308     7310     7308     7308     7310     7308 
    7310     7314     7317     7318     7319     7319     7321     7326 
    7327     7326     7327     7329     7331     7337     7338     7337 
    7337     7341     7344     7345     7345     7345     7345     7348 
    7348     7346     7349     7350     7349     7352     7354     7352 
    7352     7354     7356     7356     7356     7357     7358     7358 
    7357     7357     7357     7358     7358     7357     7358     7360 
    7358     7357     7358     7356     7356     7356     7352     7352 
    7353     7353     7352     7352     7352     7349     7348     7348 
    7346     7345     7345     7344     7344     7342     7339     7339 
    7339     7338     7337     7337     7335     7334     7333     7331 
    7329     7326     7325     7323     7323     7321     7318     7315 
    7312     7312     7311     7307     7307     7304     7303     7303 
    7303     7302     7299     7298     7298     7295     7292     7294 
    7294     7291     7292     7291     7287     7287     7288     7290 
    7291     7290     7288     7287     7288     7288     7290     7292 
    7292     7291     7291     7294     7294     7294     7295     7298 
    7300     7303     7304     7304     7306     7308     7310     7312 
    7317     7321     7319     7319     7323     7327     7329     7329 
    7331     7335     7339     7341     7342     7344     7346     7348 
    7350     7353     7354     7356     7360     7361     7360     7364 
    7368     7369     7369     7369     7373     7373     7375     7375 
    7375     7375     7376     7375     7376     7376     7371     7371 
    7372     7369     7368     7366     7366     7366     7365     7362 
    7361     7360     7361     7357     7357     7357     7356     7354 
    7354     7350     7348     7348     7348     7345     7344     7344 
    7341     7339     7339     7337     7334     7334     7331     7331 
    7334     7331     7326     7325     7325     7322     7321     7323 
    7321     7315     7314     7317     7315     7315     7314     7311 
    7310     7311     7311     7310     7310     7310     7310     7306 
    7307     7311     7310     7308     7308     7310     7310     7310 
    7312     7314     7314     7312     7314     7318     7318     7318 
    7319     7319     7321     7325     7325     7326     7330     7330 
    7331     7334     7333     7334     7337     7338     7339     7342 
    7342     7342     7345     7345     7345     7346     7346     7346 
    7349     7350     7348     7346     7348     7348     7348     7349 
    7348     7346     7346     7345     7344     7344     7345     7342 
    7339     7339     7341     7341     7337     7335     7337     7337 
    7335     7337     7338     7337     7335     7333     7333     7334 
    7334     7335     7337     7335     7335     7334     7333     7331 
    7333     7331     7331     7330     7329     7327     7326     7325 
    7323     7323     7319     7318     7319     7317     7311     7314 
    7315     7310     7308     7307     7304     7303     7304     7300 
    7298     7296     7295     7294     7292     7290     7290     7288 
    7283     7281     7283     7283     7283     7281     7279     7279 
    7280     7279     7277     7276     7277     7280     7283     7280 
    7283     7288     7290     7290     7291     7295     7299     7302 
    7303     7304     7310     7312     7315     7318     7322     7326 
    7330     7334     7337     7339     7344     7345     7349     7352 
    7354     7360     7364     7364     7368     7371     7366     7369 
    7377     7379     7376     7377     7380     7377     7377     7381 
    7380     7380     7381     7380     7377     7379     7379     7380 
    7380     7377     7376     7379     7377     7376     7373     7371 
    7371     7372     7371     7371     7371     7371     7371     7371 
    7371     7371     7372     7372     7371     7372     7375     7376 
    7373     7373     7377     7377     7377     7380     7381     7380 
    7379     7380     7381     7380     7380     7380     7377     7379 
    7379     7376     7377     7377     7375     7376     7376     7375 
    7377     7377     7375     7376     7373     7372     7376     7373 
    7371     7375     7375     7372     7373     7375     7375     7376 
    7376     7377     7380     7379     7377     7379     7377     7377 
    7380     7380     7379     7377     7377     7377     7376     7376 
    7373     7372     7372     7371     7366     7364     7365     7364 
    7360     7358     7357     7353     7350     7350     7348     7342 
    7339     7341     7339     7335     7334     7334     7330     7327 
    7327     7326     7325     7323     7322     7322     7322     7321 
    7319     7317     7317     7317     7318     7319     7319     7317 
    7317     7317     7317     7318     7319     7317     7314     7315 
    7317     7315     7314     7314     7312     7311     7314     7314 
    7312     7312     7312     7312     7312     7311     7314     7314 
    7314     7314     7314     7314     7315     7315     7317     7317 
    7318     7321     7322     7323     7321     7321     7326     7326 
    7323     7325     7326     7327     7329     7329     7329     7331 
    7331     7334     7338     7337     7337     7341     7342     7345 
    7348     7348     7350     7354     7354     7356     7358     7358 
    7360     7360     7360     7362     7365     7364     7365     7368 
    7366     7366     7366     7364     7361     7362     7364     7362 
    7360     7360     7361     7360     7356     7353     7356     7360 
    7357     7354     7357     7358     7357     7360     7364     7362 
    7362     7366     7368     7366     7366     7373     7377     7376 
    7377     7381     7383     7384     7389     7392     7395     7396 
    7398     7402     7406     7410     7411     7412     7416     7419 
    7422     7425     7426     7429     7430     7430     7434     7437 
    7437     7438     7441     7441     7443     7445     7445     7445 
    7446     7449     7446     7446     7447     7446     7443     7443 
    7443     7442     7441     7439     7438     7438     7437     7431 
    7430     7430     7427     7425     7422     7422     7419     7416 
    7416     7414     7411     7410     7410     7407     7402     7400 
    7400     7399     7396     7395     7393     7389     7389     7388 
    7387     7387     7383     7380     7381     7379     7376     7375 
    7375     7373     7375     7375     7371     7371     7372     7371 
    7368     7366     7366     7365     7365     7364     7362     7365 
    7365     7362     7362     7362     7361     7360     7361     7362 
    7361     7361     7364     7362     7360     7360     7358     7358 
    7360     7360     7357     7356     7356     7354     7353     7353 
    7353     7353     7353     7352     7350     7349     7350     7349 
    7345     7345     7346     7344     7342     7344     7344     7341 
    7342     7341     7337     7337     7337     7334     7333     7334 
    7333     7330     7329     7330     7330     7329     7327     7326 
    7326     7326     7325     7321     7321     7321     7319     7319 
    7321     7319     7318     7318     7318     7318     7318     7317 
    7315     7315     7314     7314     7314     7311     7310     7312 
    7311     7310     7310     7306     7307     7308     7308     7308 
    7307     7307     7306     7306     7306     7304     7303     7303 
    7303     7303     7304     7306     7304     7304     7306     7303 
    7302     7304     7303     7303     7304     7303     7303     7304 
    7304     7304     7304     7303     7304     7306     7304     7306 
    7307     7306     7304     7307     7308     7307     7307     7306 
    7306     7306     7304     7304     7303     7303     7303     7304 
    7304     7304     7302     7300     7300     7300     7302     7302 
    7300     7299     7300     7300     7300     7299     7299     7296 
    7296     7298     7296     7296     7299     7299     7298     7299 
    7300     7298     7295     7294     7296     7299     7299     7298 
    7298     7299     7298     7295     7298     7299     7298     7296 
    7298     7298     7298     7298     7299     7299     7298     7299 
    7303     7300     7299     7303     7302     7300     7302     7302 
    7302     7304     7306     7304     7304     7308     7311     7312 
    7314     7317     7317     7318     7319     7323     7325     7323 
    7326     7327     7330     7330     7331     7333     7335     7334 
    7335     7338     7337     7338     7339     7338     7342     7345 
    7341     7338     7341     7342     7341     7341     7341     7341 
    7341     7341     7341     7341     7341     7344     7341     7337 
    7338     7339     7339     7338     7339     7338     7335     7335 
    7334     7331     7330     7330     7329     7325     7323     7325 
    7323     7321     7321     7317     7315     7317     7317     7315 
    7315     7312     7312     7315     7315     7314     7315     7315 
    7315     7318     7317     7314     7315     7318     7319     7321 
    7321     7322     7326     7326     7329     7329     7329     7333 
    7333     7331     7335     7339     7338     7339     7344     7344 
    7341     7342     7344     7345     7346     7346     7346     7346 
    7346     7348     7349     7348     7345     7345     7345     7345 
    7344     7341     7339     7339     7338     7338     7337     7334 
    7333     7330     7325     7323     7326     7325     7321     7318 
    7318     7315     7312     7312     7312     7308     7304     7306 
    7306     7303     7303     7302     7300     7302     7304     7303 
    7302     7303     7304     7303     7303     7303     7304     7304 
    7306     7307     7307     7310     7314     7312     7311     7311 
    7314     7315     7315     7315     7317     7318     7319     7317 
    7318     7321     7317     7317     7318     7318     7318     7317 
    7314     7312     7311     7310     7308     7307     7306     7304 
    7302     7296     7295     7295     7294     7291     7292     7291 
    7287     7284     7284     7281     7280     7280     7277     7276 
    7277     7277     7273     7272     7273     7273     7273     7275 
    7276     7275     7275     7275     7275     7276     7277     7277 
    7279     7280     7280     7280     7280     7281     7284     7287 
    7285     7287     7290     7290     7290     7291     7290     7292 
    7295     7294     7294     7296     7296     7296     7296     7298 
    7299     7300     7302     7303     7302     7300     7303     7307 
    7306     7306     7310     7314     7314     7314     7312     7314 
    7317     7317     7317     7318     7322     7323     7323     7323 
    7323     7322     7322     7322     7322     7323     7323     7322 
    7321     7323     7323     7323     7327     7325     7319     7322 
    7325     7323     7323     7325     7326     7326     7327     7329 
    7327     7327     7330     7331     7333     7333     7334     7337 
    7335     7338     7342     7341     7341     7342     7345     7348 
    7346     7349     7352     7349     7350     7353     7353     7353 
    7352     7353     7356     7357     7356     7354     7356     7358 
    7360     7358     7356     7358     7360     7360     7361     7361 
    7360     7360     7360     7360     7360     7358     7357     7360 
    7361     7358     7357     7358     7357     7354     7356     7357 
    7356     7353     7352     7350     7349     7346     7346     7346 
    7344     7339     7337     7338     7338     7334     7334     7333 
    7327     7327     7327     7325     7322     7321     7321     7319 
    7315     7314     7315     7314     7311     7308     7307     7307 
    7307     7304     7303     7304     7303     7302     7302     7300 
