Origin Time       2025/01/13 21:19:00
Lat.              31.8
Long.             131.6
Depth. (km)       30
Mag.              6.9
Station Code      KYTH07
Station Lat.      34.8983
Station Long.     135.7461
Station Height(m) 11
Record Time       2025/01/13 21:22:26
Sampling Freq(Hz) 100Hz
Duration Time(s)  120
Dir.              5
Scale Factor      7845(gal)/8223790
Max. Acc. (gal)   0.694
Last Correction   2025/01/13 21:22:27
Memo.             
[...]
   -3322    -3296    -3271    -3264    -3264    -3258    -3261    -3279 
   -3285    -3273    -3262    -3254    -3240    -3249    -3294    -3331 
   -3345    -3356    -3358    -3352    -3354    -3381    -3412    -3429 
   -3441    -3456    -3458    -3466    -3484    -3496    -3524    -3564 
   -3584    -3595    -3597    -3592    -3601    -3627    -3642    -3639 
   -3640    -3649    -3658    -3667    -3669    -3657    -3655    -3677 
   -3700    -3705    -3690    -3681    -3697    -3724    -3726    -3688 
   -3647    -3647    -3680    -3723    -3739    -3703    -3658    -3663 
   -3705    -3731    -3735    -3732    -3736    -3751    -3773    -3792 
   -3784    -3747    -3734    -3748    -3744    -3719    -3700    -3694 
   -3700    -3709    -3692    -3661    -3638    -3620    -3619    -3632 
   -3620    -3577    -3547    -3532    -3515    -3508    -3519    -3515 
   -3497    -3495    -3489    -3464    -3457    -3474    -3456    -3391 
   -3338    -3314    -3295    -3280    -3275    -3260    -3231    -3204 
   -3176    -3159    -3165    -3179    -3181    -3188    -3195    -3180 
   -3161    -3154    -3149    -3152    -3163    -3169    -3167    -3168 
   -3172    -3165    -3165    -3181    -3190    -3183    -3172    -3165 
   -3175    -3200    -3218    -3223    -3231    -3246    -3254    -3261 
   -3276    -3303    -3329    -3335    -3335    -3342    -3354    -3369 
   -3387    -3399    -3406    -3426    -3461    -3484    -3484    -3484 
   -3497    -3505    -3510    -3532    -3566    -3588    -3591    -3595 
   -3618    -3640    -3647    -3653    -3659    -3669    -3684    -3690 
   -3681    -3667    -3654    -3640    -3640    -3655    -3649    -3624 
   -3608    -3596    -3582    -3576    -3572    -3559    -3549    -3541 
   -3527    -3524    -3538    -3541    -3532    -3537    -3553    -3564 
   -3559    -3541    -3518    -3511    -3515    -3507    -3496    -3499 
   -3495    -3480    -3474    -3468    -3464    -3477    -3491    -3495 
   -3495    -3501    -3522    -3541    -3549    -3559    -3565    -3570 
   -3582    -3595    -3607    -3615    -3613    -3613    -3611    -3608 
   -3626    -3650    -3650    -3623    -3601    -3597    -3591    -3584 
   -3586    -3589    -3584    -3578    -3577    -3586    -3611    -3626 
   -3615    -3591    -3576    -3570    -3570    -3574    -3568    -3535 
   -3507    -3507    -3516    -3520    -3523    -3537    -3562    -3572 
   -3554    -3542    -3553    -3573    -3597    -3615    -3622    -3624 
   -3635    -3654    -3674    -3686    -3682    -3665    -3642    -3626 
   -3620    -3627    -3631    -3630    -3631    -3638    -3640    -3628 
   -3601    -3582    -3597    -3627    -3635    -3623    -3609    -3604 
   -3605    -3601    -3593    -3586    -3577    -3576    -3580    -3561 
   -3534    -3530    -3545    -3569    -3591    -3595    -3580    -3564 
   -3566    -3581    -3589    -3595    -3597    -3592    -3595    -3608 
   -3605    -3586    -3578    -3582    -3582    -3572    -3555    -3531 
   -3507    -3495    -3488    -3474    -3460    -3449    -3443    -3434 
   -3407    -3388    -3387    -3383    -3380    -3379    -3375    -3379 
   -3387    -3387    -3384    -3383    -3387    -3395    -3399    -3402 
   -3411    -3420    -3430    -3433    -3435    -3457    -3477    -3485 
   -3504    -3515    -3510    -3505    -3503    -3499    -3501    -3522 
   -3543    -3537    -3520    -3511    -3485    -3462    -3472    -3492 
   -3499    -3489    -3465    -3442    -3433    -3446    -3480    -3492 
   -3474    -3456    -3449    -3462    -3499    -3530    -3531    -3534 
   -3562    -3597    -3618    -3623    -3615    -3605    -3609    -3620 
   -3622    -3611    -3582    -3550    -3520    -3488    -3468    -3465 
   -3461    -3450    -3430    -3412    -3400    -3376    -3357    -3366 
   -3377    -3380    -3376    -3349    -3318    -3325    -3350    -3358 
   -3356    -3354    -3348    -3331    -3310    -3291    -3291    -3319 
   -3353    -3369    -3369    -3352    -3333    -3335    -3350    -3358 
   -3368    -3377    -3369    -3366    -3375    -3373    -3364    -3366 
   -3366    -3350    -3339    -3343    -3335    -3314    -3307    -3321 
   -3345    -3364    -3362    -3345    -3337    -3343    -3352    -3357 
   -3360    -3362    -3370    -3388    -3420    -3450    -3458    -3453 
   -3441    -3433    -3429    -3431    -3438    -3449    -3450    -3450 
   -3460    -3469    -3465    -3451    -3453    -3461    -3456    -3441 
   -3423    -3411    -3419    -3439    -3445    -3426    -3404    -3397 
   -3399    -3410    -3430    -3438    -3427    -3422    -3437    -3457 
   -3489    -3531    -3550    -3549    -3564    -3596    -3608    -3601 
   -3624    -3659    -3677    -3699    -3716    -3707    -3697    -3703 
   -3701    -3708    -3723    -3717    -3709    -3716    -3716    -3709 
   -3709    -3716    -3724    -3721    -3711    -3707    -3716    -3705 
   -3665    -3647    -3663    -3667    -3651    -3658    -3689    -3696 
   -3670    -3646    -3628    -3630    -3649    -3655    -3639    -3622 
   -3618    -3611    -3596    -3582    -3570    -3570    -3591    -3597 
   -3573    -3558    -3577    -3592    -3585    -3572    -3561    -3562 
   -3574    -3568    -3527    -3481    -3462    -3458    -3451    -3447 
   -3435    -3419    -3426    -3431    -3406    -3383    -3395    -3420 
   -3447    -3466    -3446    -3404    -3399    -3426    -3445    -3460 
   -3476    -3484    -3487    -3488    -3501    -3527    -3542    -3542 
   -3539    -3558    -3603    -3640    -3657    -3670    -3685    -3700 
   -3723    -3748    -3774    -3792    -3775    -3747    -3748    -3774 
   -3800    -3815    -3815    -3790    -3761    -3759    -3778    -3782 
   -3774    -3771    -3766    -3753    -3743    -3740    -3746    -3755 
   -3750    -3728    -3716    -3726    -3736    -3728    -3701    -3676 
   -3655    -3639    -3649    -3670    -3659    -3616    -3574    -3553 
   -3559    -3591    -3620    -3630    -3612    -3580    -3570    -3599 
   -3626    -3628    -3632    -3650    -3666    -3696    -3735    -3750 
   -3757    -3780    -3788    -3771    -3777    -3813    -3846    -3861 
   -3870    -3863    -3846    -3855    -3882    -3885    -3874    -3870 
   -3861    -3842    -3838    -3854    -3867    -3863    -3840    -3798 
   -3761    -3735    -3709    -3700    -3700    -3661    -3593    -3534 
   -3481    -3447    -3430    -3396    -3343    -3292    -3257    -3254 
   -3260    -3249    -3217    -3177    -3156    -3157    -3157    -3152 
   -3146    -3129    -3102    -3086    -3100    -3130    -3133    -3099 
   -3051    -3013    -3003    -3011    -3019    -3018    -3003    -2992 
   -3002    -3007    -2997    -2988    -2983    -2979    -2978    -2983 
   -3001    -3013    -3017    -3025    -3024    -3019    -3024    -3014 
   -3017    -3056    -3096    -3107    -3105    -3117    -3142    -3164 
   -3200    -3242    -3249    -3245    -3262    -3287    -3311    -3342 
   -3385    -3439    -3484    -3499    -3493    -3491    -3512    -3542 
   -3562    -3588    -3609    -3616    -3626    -3638    -3632    -3634 
   -3638    -3636    -3647    -3654    -3631    -3593    -3561    -3523 
   -3497    -3515    -3553    -3557    -3530    -3507    -3492    -3501 
   -3538    -3558    -3528    -3476    -3439    -3426    -3438    -3474 
   -3500    -3480    -3430    -3389    -3369    -3375    -3396    -3399 
   -3379    -3364    -3376    -3403    -3435    -3480    -3519    -3537 
   -3546    -3554    -3578    -3624    -3645    -3636    -3639    -3659 
   -3700    -3757    -3777    -3748    -3715    -3713    -3759    -3823 
   -3879    -3917    -3897    -3846    -3816    -3820    -3870    -3939 
   -3944    -3888    -3824    -3785    -3805    -3870    -3913    -3916 
   -3888    -3855    -3858    -3882    -3889    -3871    -3855    -3869 
   -3890    -3881    -3855    -3827    -3793    -3789    -3824    -3848 
   -3848    -3835    -3802    -3765    -3738    -3732    -3766    -3800 
   -3800    -3767    -3721    -3705    -3734    -3763    -3766    -3732 
   -3693    -3682    -3693    -3708    -3700    -3658    -3620    -3622 
   -3638    -3631    -3605    -3585    -3569    -3557    -3565    -3595 
   -3609    -3580    -3537    -3524    -3545    -3568    -3578    -3574 
   -3566    -3569    -3592    -3619    -3613    -3584    -3584    -3616 
   -3627    -3604    -3572    -3558    -3574    -3591    -3578    -3569 
   -3593    -3627    -3618    -3569    -3527    -3516    -3539    -3562 
   -3530    -3472    -3446    -3437    -3407    -3372    -3366    -3387 
   -3389    -3357    -3314    -3285    -3283    -3310    -3338    -3327 
   -3288    -3272    -3287    -3299    -3315    -3346    -3358    -3348 
   -3361    -3400    -3423    -3411    -3381    -3358    -3366    -3407 
   -3464    -3477    -3433    -3403    -3416    -3435    -3443    -3457 
   -3460    -3431    -3399    -3403    -3419    -3420    -3426    -3430 
   -3423    -3416    -3410    -3412    -3420    -3411    -3408    -3430 
   -3445    -3442    -3441    -3451    -3469    -3476    -3458    -3434 
   -3439    -3468    -3504    -3524    -3520    -3495    -3465    -3465 
   -3504    -3535    -3532    -3515    -3493    -3481    -3507    -3557 
   -3595    -3612    -3619    -3627    -3640    -3657    -3676    -3686 
   -3674    -3659    -3665    -3673    -3669    -3646    -3609    -3581 
   -3574    -3588    -3604    -3597    -3576    -3557    -3532    -3516 
   -3523    -3535    -3532    -3522    -3511    -3507    -3501    -3500 
   -3507    -3493    -3451    -3424    -3424    -3406    -3354    -3314 
   -3300    -3298    -3289    -3269    -3237    -3213    -3202    -3187 
   -3167    -3159    -3171    -3187    -3194    -3188    -3181    -3184 
   -3188    -3183    -3176    -3179    -3186    -3188    -3179    -3163 
   -3150    -3152    -3161    -3169    -3176    -3191    -3208    -3221 
   -3237    -3254    -3258    -3264    -3289    -3321    -3338    -3364 
   -3397    -3412    -3426    -3462    -3495    -3524    -3554    -3561 
   -3559    -3591    -3643    -3681    -3703    -3726    -3747    -3771 
   -3796    -3807    -3823    -3855    -3883    -3913    -3947    -3967 
   -3987    -4017    -4032    -4037    -4062    -4098    -4136    -4163 
   -4176    -4187    -4178    -4147    -4126    -4114    -4095    -4089 
   -4082    -4045    -4004    -3971    -3943    -3925    -3917    -3900 
   -3866    -3848    -3862    -3870    -3859    -3865    -3871    -3848 
   -3831    -3842    -3861    -3848    -3801    -3763    -3758    -3753 
   -3738    -3740    -3744    -3716    -3677    -3667    -3661    -3639 
   -3643    -3666    -3659    -3627    -3599    -3576    -3572    -3580 
   -3573    -3550    -3537    -3535    -3538    -3539    -3504    -3447 
   -3431    -3442    -3415    -3372    -3358    -3348    -3314    -3271 
   -3235    -3217    -3217    -3223    -3204    -3157    -3118    -3103 
   -3100    -3102    -3106    -3109    -3090    -3044    -3015    -3052 
   -3102    -3099    -3088    -3119    -3152    -3160    -3163    -3163 
   -3165    -3188    -3214    -3225    -3235    -3257    -3273    -3273 
   -3265    -3271    -3315    -3361    -3342    -3306    -3331    -3381 
   -3379    -3345    -3338    -3365    -3396    -3418    -3419    -3396 
   -3381    -3406    -3424    -3393    -3353    -3354    -3387    -3402 
   -3373    -3331    -3327    -3356    -3372    -3379    -3404    -3430 
   -3434    -3430    -3443    -3468    -3491    -3519    -3530    -3512 
   -3508    -3526    -3535    -3555    -3585    -3599    -3597    -3601 
   -3609    -3622    -3638    -3658    -3673    -3685    -3711    -3744 
   -3761    -3757    -3753    -3766    -3804    -3836    -3847    -3856 
   -3873    -3875    -3866    -3859    -3871    -3898    -3908    -3901 
   -3897    -3892    -3877    -3862    -3842    -3813    -3792    -3789 
   -3774    -3735    -3697    -3677    -3663    -3651    -3628    -3596 
   -3569    -3542    -3512    -3488    -3472    -3465    -3462    -3446 
   -3418    -3387    -3361    -3348    -3343    -3341    -3331    -3327 
   -3334    -3323    -3285    -3257    -3246    -3246    -3254    -3258 
   -3257    -3268    -3287    -3300    -3306    -3327    -3376    -3435 
   -3488    -3520    -3527    -3537    -3568    -3596    -3609    -3626 
   -3649    -3674    -3697    -3694    -3680    -3681    -3682    -3661 
   -3640    -3640    -3650    -3649    -3635    -3626    -3615    -3599 
   -3595    -3596    -3591    -3584    -3577    -3562    -3549    -3539 
   -3532    -3531    -3519    -3483    -3449    -3437    -3439    -3442 
   -3433    -3420    -3420    -3427    -3414    -3395    -3383    -3368 
   -3361    -3365    -3370    -3373    -3379    -3384    -3377    -3348 
   -3327    -3341    -3348    -3321    -3300    -3310    -3304    -3257 
   -3210    -3198    -3196    -3191    -3192    -3180    -3156    -3140 
   -3118    -3100    -3106    -3115    -3106    -3094    -3092    -3088 
   -3082    -3090    -3107    -3114    -3109    -3103    -3103    -3103 
   -3087    -3060    -3057    -3078    -3094    -3105    -3109    -3087 
   -3063    -3057    -3068    -3088    -3115    -3149    -3160    -3141 
   -3129    -3137    -3159    -3187    -3210    -3219    -3230    -3260 
   -3300    -3318    -3325    -3343    -3350    -3356    -3385    -3427 
   -3465    -3501    -3530    -3546    -3565    -3612    -3670    -3707 
   -3743    -3782    -3811    -3839    -3866    -3894    -3942    -3994 
   -4016    -4017    -4028    -4052    -4079    -4105    -4120    -4126 
   -4139    -4151    -4149    -4147    -4160    -4183    -4198    -4212 
   -4224    -4233    -4241    -4244    -4225    -4201    -4198    -4217 
   -4226    -4212    -4190    -4180    -4179    -4174    -4159    -4132 
   -4104    -4090    -4078    -4060    -4039    -4017    -3989    -3951 
   -3902    -3855    -3827    -3807    -3774    -3736    -3704    -3669 
   -3636    -3623    -3616    -3608    -3597    -3570    -3539    -3541 
   -3554    -3542    -3518    -3497    -3472    -3450    -3454    -3470 
   -3468    -3451    -3437    -3434    -3431    -3422    -3410    -3410 
   -3415    -3419    -3427    -3434    -3435    -3431    -3419    -3424 
   -3462    -3492    -3499    -3495    -3484    -3478    -3481    -3480 
   -3472    -3469    -3474    -3473    -3461    -3449    -3442    -3433 
   -3430    -3429    -3423    -3424    -3422    -3397    -3388    -3404 
   -3418    -3422    -3422    -3415    -3406    -3397    -3387    -3376 
   -3372    -3376    -3375    -3360    -3346    -3346    -3339    -3326 
   -3325    -3334    -3337    -3335    -3331    -3323    -3310    -3295 
   -3285    -3284    -3289    -3295    -3298    -3300    -3295    -3288 
   -3292    -3288    -3284    -3303    -3333    -3335    -3312    -3291 
   -3291    -3306    -3321    -3325    -3325    -3337    -3349    -3338 
   -3315    -3306    -3308    -3318    -3325    -3322    -3319    -3326 
   -3337    -3353    -3377    -3412    -3435    -3445    -3465    -3492 
   -3516    -3534    -3538    -3543    -3578    -3630    -3659    -3666 
   -3672    -3684    -3700    -3732    -3773    -3798    -3812    -3829 
   -3847    -3862    -3882    -3893    -3893    -3905    -3931    -3947 
   -3948    -3947    -3933    -3898    -3886    -3906    -3917    -3906 
   -3882    -3843    -3811    -3796    -3777    -3753    -3738    -3721 
   -3701    -3689    -3673    -3642    -3611    -3591    -3577    -3569 
   -3572    -3574    -3558    -3528    -3489    -3458    -3461    -3472 
   -3451    -3416    -3400    -3384    -3350    -3321    -3315    -3312 
   -3303    -3289    -3269    -3246    -3234    -3233    -3223    -3206 
   -3206    -3218    -3213    -3192    -3176    -3173    -3183    -3188 
   -3188    -3199    -3208    -3195    -3176    -3171    -3169    -3172 
   -3188    -3211    -3223    -3223    -3233    -3253    -3273    -3307 
   -3350    -3377    -3396    -3414    -3426    -3447    -3484    -3504 
   -3499    -3500    -3510    -3512    -3523    -3542    -3559    -3572 
   -3582    -3591    -3603    -3623    -3635    -3638    -3643    -3651 
   -3657    -3672    -3696    -3715    -3716    -3716    -3719    -3727 
   -3738    -3744    -3750    -3763    -3775    -3775    -3770    -3774 
   -3780    -3777    -3777    -3778    -3761    -3735    -3721    -3712 
   -3693    -3681    -3690    -3689    -3669    -3647    -3630    -3604 
   -3576    -3562    -3562    -3547    -3519    -3485    -3451    -3435 
   -3422    -3402    -3400    -3410    -3404    -3399    -3392    -3372 
   -3362    -3361    -3356    -3361    -3377    -3385    -3379    -3364 
   -3341    -3318    -3319    -3339    -3346    -3338    -3327    -3316 
   -3311    -3318    -3327    -3341    -3366    -3385    -3388    -3389 
   -3400    -3412    -3424    -3450    -3485    -3500    -3503    -3514 
   -3523    -3522    -3518    -3523    -3549    -3581    -3596    -3596 
   -3596    -3596    -3595    -3597    -3601    -3607    -3623    -3635 
   -3622    -3600    -3589    -3584    -3584    -3585    -3592    -3603 
   -3601    -3592    -3584    -3569    -3554    -3562    -3577    -3572 
   -3568    -3569    -3550    -3518    -3501    -3500    -3500    -3511 
   -3519    -3496    -3468    -3462    -3473    -3478    -3473    -3466 
   -3478    -3497    -3499    -3489    -3492    -3499    -3501    -3512 
   -3524    -3534    -3542    -3531    -3511    -3507    -3508    -3514 
   -3519    -3515    -3504    -3484    -3469    -3473    -3470    -3457 
   -3458    -3458    -3443    -3423    -3402    -3392    -3391    -3387 
   -3385    -3383    -3381    -3389    -3414    -3430    -3415    -3403 
   -3420    -3451    -3481    -3495    -3495    -3495    -3487    -3478 
   -3496    -3528    -3531    -3510    -3493    -3487    -3489    -3504 
   -3514    -3505    -3504    -3520    -3520    -3504    -3500    -3508 
   -3528    -3553    -3562    -3558    -3558    -3551    -3539    -3535 
   -3535    -3547    -3578    -3600    -3593    -3582    -3591    -3601 
   -3603    -3611    -3636    -3659    -3670    -3684    -3693    -3684 
   -3670    -3669    -3672    -3676    -3682    -3685    -3662    -3623 
   -3605    -3619    -3632    -3624    -3599    -3578    -3558    -3530 
   -3505    -3491    -3469    -3446    -3427    -3407    -3388    -3373 
   -3366    -3356    -3331    -3304    -3304    -3323    -3326    -3298 
   -3257    -3229    -3240    -3264    -3275    -3267    -3245    -3223 
   -3199    -3172    -3171    -3196    -3222    -3240    -3249    -3249 
   -3246    -3253    -3273    -3296    -3322    -3362    -3400    -3418 
   -3431    -3451    -3473    -3492    -3518    -3559    -3596    -3622 
   -3646    -3659    -3669    -3684    -3697    -3711    -3738    -3771 
   -3797    -3800    -3782    -3770    -3775    -3796    -3816    -3819 
   -3809    -3808    -3807    -3793    -3769    -3750    -3757    -3781 
   -3789    -3777    -3763    -3753    -3731    -3704    -3697    -3708 
   -3709    -3703    -3694    -3677    -3663    -3662    -3667    -3676 
   -3676    -3672    -3665    -3658    -3654    -3650    -3653    -3666 
   -3674    -3670    -3663    -3653    -3630    -3603    -3593    -3605 
   -3599    -3568    -3541    -3518    -3489    -3465    -3445    -3435 
   -3439    -3426    -3391    -3364    -3352    -3334    -3311    -3288 
   -3269    -3257    -3245    -3227    -3211    -3196    -3179    -3164 
   -3165    -3161    -3146    -3138    -3144    -3164    -3187    -3195 
   -3203    -3222    -3231    -3240    -3252    -3261    -3273    -3289 
