Origin Time       2025/01/13 21:19:00
Lat.              31.8
Long.             131.6
Depth. (km)       30
Mag.              6.9
Station Code      KYTH04
Station Lat.      35.2685
Station Long.     135.5508
Station Height(m) 190
Record Time       2025/01/13 21:22:25
Sampling Freq(Hz) 100Hz
Duration Time(s)  120
Dir.              5
Scale Factor      7845(gal)/8223790
Max. Acc. (gal)   0.113
Last Correction   2025/01/13 21:22:27
Memo.             
    2690     2687     2689     2687     2685     2687     2687     2681 
    2674     2668     2666     2666     2662     2655     2650     2644 
    2639     2633     2629     2627     2621     2613     2604     2604 
    2608     2604     2597     2592     2587     2586     2587     2589 
    2585     2583     2583     2581     2581     2582     2582     2577 
    2574     2577     2577     2578     2578     2573     2573     2578 
    2581     2581     2579     2577     2575     2573     2574     2577 
    2578     2581     2583     2585     2587     2590     2587     2586 
    2587     2592     2596     2600     2600     2596     2596     2601 
    2614     2624     2625     2623     2620     2620     2627     2639 
    2646     2643     2640     2641     2647     2652     2656     2658 
    2654     2651     2654     2658     2660     2662     2664     2666 
    2666     2666     2663     2659     2660     2664     2666     2658 
    2650     2648     2650     2650     2648     2644     2639     2633 
    2629     2632     2633     2629     2624     2625     2627     2623 
    2619     2616     2616     2619     2619     2613     2610     2610 
    2613     2614     2614     2612     2608     2606     2608     2610 
    2609     2605     2602     2606     2613     2619     2623     2625 
    2624     2624     2627     2631     2632     2632     2633     2635 
    2635     2633     2633     2637     2641     2644     2641     2640 
    2640     2640     2644     2647     2648     2648     2646     2647 
    2655     2664     2670     2671     2670     2673     2677     2682 
    2686     2693     2690     2682     2679     2681     2683     2685 
    2678     2678     2679     2671     2667     2667     2666     2660 
    2656     2654     2650     2648     2648     2644     2640     2635 
    2631     2632     2639     2639     2639     2636     2633     2631 
    2631     2628     2629     2633     2637     2640     2635     2629 
    2631     2633     2633     2635     2640     2643     2639     2633 
    2628     2624     2627     2632     2632     2628     2625     2623 
    2620     2623     2629     2632     2628     2628     2629     2627 
    2629     2635     2636     2635     2635     2637     2640     2641 
    2641     2639     2637     2636     2640     2646     2644     2640 
    2641     2636     2632     2636     2640     2643     2644     2644 
    2644     2644     2646     2648     2652     2652     2648     2647 
    2652     2659     2662     2666     2666     2662     2663     2668 
    2675     2679     2681     2677     2675     2675     2675     2674 
    2671     2670     2668     2671     2673     2671     2668     2663 
    2662     2663     2663     2663     2664     2659     2650     2647 
    2644     2647     2651     2651     2651     2650     2640     2632 
    2633     2635     2633     2633     2632     2628     2625     2625 
    2625     2627     2629     2629     2625     2624     2623     2620 
    2619     2620     2621     2620     2616     2616     2617     2614 
    2613     2617     2612     2604     2604     2606     2608     2609 
    2610     2609     2606     2606     2610     2614     2616     2614 
    2612     2614     2619     2623     2628     2632     2632     2636 
    2640     2641     2643     2644     2646     2651     2655     2655 
    2655     2658     2660     2666     2668     2668     2671     2674 
    2674     2673     2675     2681     2682     2685     2689     2685 
    2682     2686     2690     2689     2687     2687     2683     2683 
    2686     2685     2682     2679     2681     2682     2681     2678 
    2675     2673     2668     2670     2673     2670     2666     2663 
    2660     2656     2656     2656     2652     2652     2652     2650 
    2652     2654     2654     2654     2652     2648     2647     2646 
    2641     2641     2637     2636     2639     2637     2632     2629 
    2627     2623     2621     2620     2619     2619     2617     2613 
    2610     2614     2616     2614     2617     2621     2623     2625 
    2623     2621     2631     2637     2637     2637     2633     2631 
    2633     2637     2640     2643     2641     2636     2635     2639 
    2640     2640     2643     2644     2643     2641     2637     2637 
    2641     2644     2646     2644     2641     2637     2635     2635 
    2636     2640     2641     2641     2641     2640     2641     2644 
    2644     2646     2651     2655     2656     2658     2656     2658 
    2666     2670     2671     2677     2681     2682     2683     2685 
    2687     2691     2695     2702     2708     2709     2704     2701 
    2706     2712     2714     2714     2710     2708     2708     2709 
    2713     2712     2708     2709     2705     2698     2701     2700 
    2695     2695     2694     2693     2693     2690     2686     2687 
    2694     2695     2693     2690     2690     2691     2693     2690 
    2691     2693     2689     2686     2683     2682     2681     2678 
    2675     2677     2678     2675     2673     2668     2666     2664 
    2662     2659     2659     2658     2656     2652     2650     2648 
    2646     2643     2641     2641     2637     2632     2631     2631 
    2631     2631     2629     2629     2632     2633     2632     2629 
    2629     2629     2631     2632     2632     2632     2631     2627 
    2625     2627     2627     2628     2632     2631     2628     2628 
    2628     2631     2635     2633     2629     2629     2631     2629 
    2629     2632     2629     2627     2625     2625     2625     2625 
    2624     2625     2625     2624     2621     2620     2621     2624 
    2624     2624     2628     2629     2627     2624     2623     2624 
    2631     2639     2639     2635     2629     2627     2631     2639 
    2644     2644     2640     2635     2633     2636     2637     2639 
    2641     2639     2637     2643     2646     2644     2644     2646 
    2648     2648     2646     2647     2646     2641     2639     2640 
    2640     2636     2636     2639     2635     2631     2632     2633 
    2628     2625     2627     2628     2625     2624     2623     2620 
    2617     2616     2616     2617     2614     2610     2609     2610 
    2613     2614     2612     2612     2614     2616     2617     2619 
    2620     2617     2619     2623     2627     2628     2629     2631 
    2632     2635     2633     2631     2635     2637     2639     2640 
    2643     2644     2644     2646     2648     2650     2651     2655 
    2655     2652     2655     2659     2660     2662     2664     2668 
    2675     2678     2679     2683     2687     2687     2686     2686 
    2686     2687     2689     2690     2694     2694     2693     2694 
    2693     2690     2690     2691     2689     2686     2683     2678 
    2675     2671     2670     2673     2670     2663     2660     2660 
    2659     2654     2650     2644     2641     2639     2633     2628 
    2627     2621     2616     2617     2614     2610     2609     2608 
    2604     2605     2605     2605     2604     2602     2602     2605 
    2608     2612     2613     2610     2610     2610     2612     2612 
    2610     2610     2610     2610     2609     2606     2602     2601 
    2602     2604     2605     2604     2601     2598     2598     2598 
    2601     2604     2610     2614     2610     2609     2613     2616 
    2616     2621     2624     2624     2624     2625     2627     2625 
    2624     2625     2623     2619     2619     2613     2610     2613 
    2613     2612     2610     2606     2602     2601     2601     2601 
    2600     2598     2597     2596     2596     2594     2592     2593 
    2593     2592     2592     2596     2596     2590     2590     2596 
    2600     2602     2605     2602     2600     2600     2600     2601 
    2602     2604     2602     2600     2600     2601     2598     2598 
    2600     2598     2598     2597     2597     2596     2592     2592 
    2598     2601     2600     2597     2594     2592     2592     2596 
    2600     2601     2601     2598     2597     2600     2602     2605 
    2609     2612     2612     2612     2612     2610     2616     2620 
    2620     2621     2624     2624     2623     2623     2623     2623 
    2621     2623     2623     2617     2614     2614     2613     2613 
    2610     2606     2605     2604     2602     2602     2601     2600 
    2598     2597     2597     2598     2596     2593     2593     2590 
    2589     2590     2590     2593     2594     2597     2600     2602 
    2605     2608     2609     2613     2619     2620     2621     2624 
    2629     2633     2635     2639     2641     2646     2651     2654 
    2656     2659     2660     2662     2663     2663     2663     2664 
    2666     2664     2663     2667     2666     2660     2663     2666 
    2663     2660     2662     2662     2663     2664     2663     2660 
    2663     2664     2662     2662     2662     2660     2659     2663 
    2662     2655     2654     2654     2651     2652     2656     2655 
    2652     2654     2655     2655     2656     2655     2656     2659 
    2659     2658     2656     2658     2658     2658     2659     2659 
    2658     2658     2658     2659     2659     2656     2652     2650 
    2650     2646     2641     2641     2637     2631     2627     2624 
    2619     2616     2613     2610     2608     2604     2598     2594 
    2592     2587     2585     2585     2582     2577     2573     2573 
    2574     2570     2569     2571     2571     2569     2569     2569 
    2569     2574     2578     2581     2582     2583     2586     2589 
    2592     2594     2598     2602     2609     2613     2616     2623 
    2631     2633     2636     2640     2644     2648     2651     2658 
    2663     2666     2667     2671     2670     2670     2673     2674 
    2674     2677     2675     2674     2674     2674     2673     2673 
    2671     2670     2668     2668     2667     2667     2667     2667 
    2670     2670     2667     2666     2668     2670     2666     2663 
    2663     2664     2667     2666     2664     2664     2664     2667 
    2667     2666     2667     2667     2664     2667     2670     2668 
    2673     2675     2674     2677     2681     2683     2686     2691 
    2697     2701     2705     2705     2705     2712     2716     2718 
    2724     2724     2721     2725     2728     2728     2729     2732 
    2735     2735     2736     2741     2744     2744     2747     2748 
    2748     2749     2749     2751     2749     2744     2743     2745 
    2741     2739     2737     2735     2729     2728     2725     2720 
    2716     2714     2710     2705     2702     2701     2698     2697 
    2693     2687     2685     2679     2675     2671     2666     2663 
    2663     2656     2651     2651     2647     2640     2637     2633 
    2629     2628     2625     2620     2614     2614     2614     2612 
    2608     2605     2604     2604     2601     2597     2597     2598 
    2596     2596     2594     2594     2594     2594     2596     2593 
    2592     2594     2593     2592     2592     2592     2592     2594 
    2593     2593     2596     2594     2596     2601     2602     2600 
    2601     2602     2604     2604     2604     2606     2613     2617 
    2616     2616     2616     2617     2621     2625     2627     2625 
    2627     2625     2628     2631     2629     2628     2629     2628 
    2627     2628     2625     2621     2621     2623     2621     2617 
    2619     2619     2613     2614     2613     2609     2608     2608 
    2604     2604     2606     2605     2602     2600     2597     2597 
    2600     2600     2598     2597     2596     2594     2596     2598 
    2601     2602     2604     2608     2612     2616     2621     2621 
    2624     2628     2633     2636     2636     2640     2644     2646 
    2646     2647     2648     2651     2651     2652     2654     2654 
    2654     2655     2652     2650     2651     2652     2652     2650 
    2647     2644     2646     2651     2650     2647     2644     2644 
    2644     2644     2643     2641     2641     2641     2643     2644 
    2644     2643     2640     2639     2643     2647     2647     2647 
    2647     2644     2646     2648     2650     2651     2650     2650 
    2650     2651     2655     2656     2654     2655     2658     2660 
    2662     2662     2660     2660     2663     2666     2666     2667 
    2668     2668     2670     2671     2673     2674     2674     2674 
    2674     2675     2675     2674     2673     2673     2675     2675 
    2674     2671     2671     2673     2673     2670     2664     2662 
    2660     2658     2655     2654     2651     2646     2641     2640 
    2640     2639     2639     2636     2632     2631     2631     2629 
    2628     2627     2625     2627     2625     2625     2624     2621 
    2620     2620     2619     2617     2614     2613     2614     2616 
    2612     2605     2605     2605     2602     2602     2602     2600 
    2596     2594     2594     2594     2594     2592     2587     2587 
    2589     2587     2587     2587     2587     2587     2589     2590 
    2590     2589     2589     2590     2592     2590     2593     2593 
    2593     2594     2594     2598     2600     2594     2596     2601 
    2601     2602     2606     2608     2609     2610     2610     2613 
    2613     2614     2616     2616     2619     2621     2619     2616 
    2619     2620     2619     2621     2623     2621     2621     2624 
    2625     2625     2627     2627     2624     2623     2623     2623 
    2621     2621     2624     2621     2620     2621     2620     2619 
    2619     2616     2614     2617     2614     2612     2610     2608 
    2606     2604     2601     2601     2601     2600     2601     2600 
    2596     2590     2589     2587     2586     2586     2585     2582 
    2581     2578     2575     2571     2569     2569     2567     2566 
    2567     2566     2566     2566     2566     2565     2560     2558 
    2560     2562     2566     2569     2569     2570     2573     2577 
    2581     2586     2590     2593     2597     2604     2609     2614 
    2620     2623     2629     2635     2637     2643     2648     2648 
    2650     2656     2660     2662     2668     2673     2673     2677 
    2683     2686     2687     2690     2691     2694     2694     2695 
    2695     2693     2690     2691     2691     2690     2690     2687 
    2682     2679     2679     2679     2677     2674     2668     2659 
    2656     2655     2650     2647     2643     2636     2631     2627 
    2624     2619     2614     2614     2613     2608     2605     2602 
    2601     2597     2596     2597     2597     2593     2587     2583 
    2585     2587     2587     2585     2582     2579     2577     2577 
    2579     2577     2573     2574     2577     2575     2574     2575 
    2577     2577     2579     2582     2583     2582     2582     2583 
    2586     2589     2590     2590     2590     2590     2594     2597 
    2598     2597     2596     2593     2593     2596     2598     2601 
    2601     2598     2597     2598     2600     2601     2601     2598 
    2597     2597     2594     2596     2597     2594     2592     2593 
    2594     2594     2596     2597     2598     2597     2596     2597 
    2601     2602     2605     2609     2612     2612     2614     2619 
    2623     2624     2621     2623     2628     2629     2632     2636 
    2635     2636     2640     2643     2643     2643     2644     2644 
    2644     2647     2647     2641     2639     2639     2639     2639 
    2639     2635     2635     2637     2632     2625     2625     2623 
    2620     2619     2616     2613     2612     2610     2606     2604 
    2604     2605     2604     2602     2602     2604     2605     2606 
    2609     2609     2609     2610     2610     2612     2616     2616 
    2619     2623     2627     2629     2633     2635     2637     2641 
    2646     2646     2646     2650     2652     2655     2659     2662 
    2659     2658     2658     2659     2660     2660     2662     2662 
    2658     2658     2660     2660     2656     2656     2652     2647 
    2647     2646     2643     2640     2636     2633     2631     2627 
    2620     2617     2613     2609     2605     2600     2596     2592 
    2583     2581     2582     2578     2573     2569     2565     2563 
    2566     2563     2560     2562     2562     2559     2560     2565 
    2567     2566     2567     2570     2573     2571     2573     2578 
    2581     2582     2586     2587     2587     2592     2596     2594 
    2594     2598     2601     2602     2604     2605     2606     2609 
    2608     2606     2606     2608     2608     2608     2608     2609 
    2610     2612     2613     2614     2616     2616     2617     2617 
    2619     2620     2620     2624     2625     2625     2625     2627 
    2629     2629     2632     2636     2637     2639     2641     2640 
    2640     2641     2644     2646     2647     2648     2651     2652 
    2655     2656     2656     2655     2655     2652     2654     2656 
    2655     2655     2659     2659     2659     2660     2660     2662 
    2664     2663     2663     2666     2664     2663     2663     2660 
    2658     2658     2658     2654     2651     2651     2650     2646 
    2644     2643     2637     2636     2633     2629     2627     2628 
    2625     2623     2619     2613     2610     2612     2609     2609 
    2612     2608     2604     2606     2606     2604     2605     2606 
    2608     2606     2605     2608     2610     2609     2610     2612 
    2612     2612     2612     2614     2616     2616     2619     2619 
    2619     2620     2620     2620     2623     2624     2624     2627 
    2629     2631     2635     2639     2637     2639     2641     2641 
    2644     2648     2648     2650     2652     2651     2652     2654 
    2654     2655     2656     2656     2656     2658     2659     2662 
    2666     2667     2667     2670     2671     2673     2675     2677 
    2675     2678     2683     2683     2685     2687     2689     2689 
    2689     2689     2689     2690     2691     2693     2693     2694 
    2694     2694     2693     2693     2695     2697     2695     2695 
    2695     2694     2694     2697     2697     2697     2695     2693 
    2693     2694     2693     2691     2691     2691     2693     2694 
    2693     2694     2694     2693     2694     2695     2694     2693 
    2691     2689     2689     2689     2686     2681     2678     2678 
    2678     2673     2667     2667     2666     2662     2658     2652 
    2647     2644     2639     2636     2633     2628     2623     2621 
    2619     2616     2612     2609     2609     2606     2602     2600 
    2598     2600     2598     2594     2594     2596     2593     2590 
    2590     2590     2589     2587     2586     2585     2585     2582 
    2582     2583     2581     2579     2581     2582     2582     2583 
    2583     2583     2585     2586     2587     2587     2590     2589 
    2587     2590     2594     2594     2597     2598     2597     2598 
    2596     2594     2597     2596     2596     2598     2593     2589 
    2592     2592     2589     2587     2583     2581     2582     2581 
