Origin Time       2025/01/13 21:19:00
Lat.              31.8
Long.             131.6
Depth. (km)       30
Mag.              6.9
Station Code      KYTH07
Station Lat.      34.8983
Station Long.     135.7461
Station Height(m) 11
Record Time       2025/01/13 21:22:26
Sampling Freq(Hz) 100Hz
Duration Time(s)  120
Dir.              6
Scale Factor      7845(gal)/8223790
Max. Acc. (gal)   0.487
Last Correction   2025/01/13 21:22:27
Memo.             
[...]
   10943    10935    10940    10959    10962    10956    10960    10980 
   11005    11026    11036    11026    11014    11021    11040    11051 
   11056    11063    11060    11048    11032    11021    11021    11029 
   11034    11038    11044    11053    11067    11078    11064    11041 
   11044    11061    11060    11038    11010    10997    11007    11018 
   11021    11025    11020    11006    11001    10997    10980    10957 
   10941    10935    10945    10959    10952    10926    10902    10887 
   10891    10906    10909    10902    10886    10859    10843    10847 
   10851    10849    10851    10849    10835    10809    10794    10802 
   10821    10831    10822    10809    10808    10813    10821    10835 
   10851    10867    10885    10902    10909    10885    10852    10858 
   10887    10902    10914    10943    10980    11003    10999    10983 
   10971    10974    10984    11005    11028    11048    11052    11045 
   11045    11061    11074    11074    11061    11038    11020    11025 
   11048    11068    11083    11107    11133    11133    11102    11067 
   11053    11064    11086    11109    11132    11146    11142    11119 
   11095    11074    11048    11025    11021    11026    11025    11021 
   11022    11025    11024    11025    11048    11090    11111    11095 
   11076    11075    11068    11041    11022    11020    11016    11009 
   11007    10998    10975    10955    10959    10989    11024    11037 
   11030    11026    11024    11005    10982    10976    10994    11011 
   10994    10952    10921    10899    10891    10918    10972    11011 
   11001    10957    10922    10916    10935    10962    10978    10983 
   10979    10962    10947    10963    10993    10998    10979    10967 
   10966    10936    10906    10939    10990    11002    11016    11047 
   11059    11034    10997    10984    10991    10978    10952    10960 
   11002    11018    10998    11005    11036    11032    10997    10963 
   10908    10833    10810    10876    10979    11043    11045    11011 
   10978    10964    10951    10945    10966    10947    10874    10800 
   10744    10716    10747    10822    10902    10922    10851    10744 
   10686    10677    10696    10744    10800    10831    10822    10773 
   10706    10682    10712    10766    10816    10829    10778    10697 
   10663    10702    10768    10817    10836    10818    10778    10733 
   10729    10786    10844    10864    10879    10893    10885    10885 
   10897    10890    10860    10844    10862    10891    10906    10908 
   10916    10933    10945    10962    10991    11010    10991    10945 
   10916    10943    11022    11088    11091    11056    11061    11130 
   11195    11210    11182    11161    11182    11210    11211    11188 
   11191    11249    11299    11284    11264    11302    11354    11353 
   11306    11272    11269    11279    11283    11280    11280    11295 
   11310    11307    11294    11296    11331    11377    11375    11302 
   11227    11219    11242    11232    11203    11191    11164    11111 
   11087    11106    11132    11141    11121    11083    11056    11075 
   11128    11119    11021    10941    10955    10991    10960    10906 
   10891    10893    10886    10882    10885    10898    10914    10913 
   10883    10822    10791    10827    10845    10800    10768    10802 
   10837    10817    10791    10824    10876    10889    10870    10860 
   10858    10866    10890    10899    10868    10825    10801    10817 
   10872    10910    10905    10894    10887    10878    10893    10937 
   10966    10951    10905    10882    10922    10991    11033    11030 
   11010    10991    10983    10994    11010    11001    10975    10966 
   10967    10963    10982    11021    11026    10995    10991    11022 
   11049    11056    11036    11010    11006    11017    11030    11041 
   11033    11013    10994    10970    10947    10949    10960    10935 
   10908    10910    10893    10854    10831    10805    10778    10782 
   10800    10812    10820    10816    10801    10778    10755    10740 
   10741    10750    10759    10762    10758    10759    10767    10751 
   10708    10681    10685    10702    10724    10748    10771    10779 
   10775    10770    10764    10763    10775    10786    10782    10775 
   10775    10782    10802    10840    10876    10894    10908    10941 
   10983    10997    10987    10980    10975    10960    10964    10997 
   11016    11007    11011    11030    11048    11068    11101    11133 
   11138    11132    11151    11194    11218    11215    11207    11198 
   11182    11167    11163    11165    11172    11176    11184    11195 
   11187    11165    11160    11161    11134    11113    11140    11163 
   11134    11115    11134    11140    11117    11105    11126    11148 
   11134    11117    11145    11172    11134    11065    11033    11029 
   11010    10989    10978    10960    10941    10939    10941    10933 
   10926    10940    10949    10933    10920    10943    10982    10987 
   10964    10953    10948    10933    10930    10952    10978    10968 
   10936    10943    10966    10966    10971    10986    10980    10972 
   10993    11032    11030    10972    10943    10976    11007    11002 
   10997    11029    11075    11075    11033    11007    11033    11078 
   11086    11043    11001    10999    11022    11028    11001    10975 
   10983    11017    11037    11013    10978    10989    11014    11010 
   10993    10983    10989    10993    10979    10967    10971    10972 
   10962    10952    10960    10976    10989    10997    10993    10971 
   10952    10956    10956    10939    10929    10939    10937    10918 
   10906    10922    10948    10939    10901    10866    10843    10831 
   10824    10820    10822    10824    10809    10786    10773    10781 
   10795    10789    10771    10768    10774    10773    10763    10750 
   10748    10764    10775    10778    10785    10787    10781    10773 
   10763    10768    10802    10843    10866    10867    10863    10866 
   10879    10905    10929    10944    10963    10982    10999    11021 
   11030    11021    11014    11028    11052    11082    11107    11121 
   11121    11111    11097    11094    11109    11133    11151    11156 
   11159    11163    11172    11187    11191    11187    11200    11218 
   11211    11196    11200    11219    11236    11244    11241    11234 
   11227    11221    11214    11203    11195    11209    11222    11214 
   11194    11173    11163    11161    11160    11155    11138    11136 
   11161    11167    11136    11105    11088    11087    11107    11130 
   11129    11102    11070    11053    11047    11024    11001    10995 
   10979    10948    10922    10906    10903    10916    10929    10937 
   10932    10910    10889    10871    10849    10833    10833    10856 
   10871    10852    10828    10820    10812    10809    10822    10839 
   10841    10847    10867    10876    10870    10872    10881    10882 
   10894    10916    10935    10957    10962    10956    10970    10990 
   11007    11030    11055    11061    11055    11061    11084    11097 
   11102    11121    11134    11125    11110    11114    11129    11141 
   11145    11146    11146    11145    11141    11132    11115    11113 
   11129    11141    11137    11115    11086    11057    11045    11052 
   11065    11075    11074    11063    11048    11033    11022    11025 
   11025    11010    10994    10991    10997    10989    10957    10926 
   10922    10945    10974    10986    10983    10967    10947    10939 
   10936    10935    10947    10956    10943    10916    10899    10906 
   10924    10920    10897    10885    10895    10910    10906    10875 
   10845    10844    10860    10863    10852    10847    10844    10827 
   10793    10770    10773    10786    10787    10783    10782    10775 
   10768    10777    10783    10778    10783    10805    10806    10777 
   10752    10754    10771    10787    10797    10806    10812    10810 
   10812    10812    10810    10822    10844    10867    10895    10926 
   10928    10899    10882    10899    10936    10978    11016    11033 
   11040    11038    11036    11048    11072    11097    11118    11134 
   11126    11114    11119    11129    11136    11142    11146    11164 
   11187    11182    11161    11159    11168    11183    11196    11203 
   11205    11191    11161    11136    11134    11148    11152    11140 
   11122    11109    11099    11091    11072    11045    11028    11020 
   11010    10994    10974    10948    10925    10909    10898    10891 
   10887    10882    10871    10856    10849    10858    10860    10862 
   10871    10868    10851    10835    10818    10805    10805    10832 
   10871    10891    10894    10891    10891    10902    10925    10962 
   11005    11020    11003    10989    10991    10999    11003    11003 
   11010    11033    11059    11074    11080    11090    11097    11097 
   11095    11094    11092    11092    11088    11088    11101    11111 
   11107    11094    11084    11092    11110    11109    11084    11070 
   11068    11056    11040    11034    11028    11007    10983    10972 
   10979    10986    10987    10989    10976    10962    10959    10959 
   10951    10948    10956    10964    10960    10944    10924    10918 
   10918    10909    10898    10901    10913    10922    10922    10917 
   10912    10909    10910    10910    10912    10913    10905    10890 
   10881    10868    10858    10858    10859    10855    10849    10845 
   10847    10854    10852    10845    10844    10847    10847    10841 
   10829    10821    10820    10816    10810    10818    10833    10840 
   10836    10828    10829    10845    10864    10876    10885    10897 
   10913    10924    10925    10929    10941    10951    10955    10956 
   10955    10945    10941    10957    10976    10986    10989    10989 
   10993    10995    11001    11024    11052    11072    11094    11109 
   11114    11119    11119    11103    11097    11126    11161    11171 
   11165    11157    11155    11159    11155    11159    11178    11198 
   11211    11209    11194    11186    11188    11183    11179    11188 
   11192    11187    11173    11153    11146    11145    11140    11148 
   11152    11132    11115    11117    11117    11110    11095    11079 
   11061    11038    11017    11002    10987    10986    10987    10971 
   10957    10953    10947    10930    10905    10881    10868    10858 
   10847    10851    10849    10833    10821    10816    10813    10816 
   10818    10814    10797    10775    10768    10775    10777    10766 
   10755    10755    10770    10783    10775    10755    10751    10764 
   10781    10794    10812    10827    10832    10832    10837    10841 
   10848    10858    10866    10882    10913    10932    10930    10929 
   10932    10937    10949    10955    10951    10948    10945    10948 
   10963    10974    10972    10968    10964    10963    10972    10983 
   10983    10976    10976    10986    10989    10983    10983    10982 
   10974    10964    10960    10956    10944    10932    10943    10957 
   10964    10972    10971    10959    10943    10928    10922    10925 
   10928    10930    10930    10926    10924    10922    10917    10912 
   10906    10899    10897    10906    10913    10902    10886    10870 
   10844    10818    10813    10822    10832    10836    10836    10831 
   10824    10831    10841    10835    10824    10832    10858    10883 
   10897    10902    10902    10903    10920    10940    10951    10959 
   10967    10978    10999    11032    11061    11075    11072    11064 
   11075    11106    11136    11161    11175    11178    11196    11227 
   11244    11249    11261    11284    11302    11308    11329    11361 
   11373    11367    11365    11372    11375    11373    11375    11377 
   11377    11365    11342    11323    11314    11315    11325    11322 
   11311    11304    11290    11267    11253    11241    11233    11225 
   11213    11195    11164    11117    11087    11088    11092    11086 
   11068    11040    11020    11007    10978    10948    10940    10935 
   10918    10885    10854    10836    10812    10781    10764    10759 
   10751    10733    10706    10675    10647    10633    10624    10605 
   10593    10596    10590    10566    10539    10530    10528    10521 
   10520    10531    10536    10524    10516    10516    10507    10500 
   10519    10548    10558    10547    10535    10536    10554    10577 
   10593    10609    10636    10674    10709    10733    10746    10744 
   10739    10746    10763    10782    10797    10808    10814    10825 
   10848    10883    10910    10918    10930    10948    10968    10993 
   11013    11022    11022    11026    11040    11048    11045    11056 
   11087    11118    11130    11144    11176    11199    11200    11203 
   11221    11242    11261    11276    11292    11314    11335    11340 
   11327    11322    11326    11329    11323    11323    11342    11372 
   11404    11421    11410    11399    11408    11418    11425    11430 
   11433    11433    11427    11407    11383    11360    11342    11337 
   11340    11337    11333    11329    11315    11298    11276    11259 
   11242    11218    11187    11161    11133    11109    11091    11061 
   11028    11017    11011    10990    10964    10940    10920    10902 
   10881    10858    10831    10798    10767    10739    10704    10665 
   10627    10600    10582    10577    10573    10567    10557    10538 
   10511    10488    10477    10478    10482    10473    10466    10480 
   10486    10481    10478    10489    10503    10507    10504    10516 
   10538    10543    10542    10544    10547    10561    10584    10597 
   10606    10625    10638    10640    10654    10683    10710    10735 
   10760    10779    10790    10790    10789    10813    10841    10848 
   10862    10885    10909    10944    10976    10986    10995    11025 
   11056    11071    11084    11101    11113    11113    11087    11070 
   11111    11179    11202    11182    11171    11186    11221    11268 
   11304    11330    11346    11323    11284    11273    11279    11298 
   11319    11314    11291    11294    11323    11346    11334    11313 
   11318    11330    11315    11290    11284    11302    11308    11281 
   11237    11203    11206    11240    11252    11221    11195    11196 
   11195    11173    11163    11175    11175    11155    11126    11090 
   11064    11063    11057    11034    11013    10999    10993    10989 
   10976    10964    10957    10949    10936    10910    10887    10897 
   10909    10887    10845    10821    10837    10844    10809    10794 
   10816    10822    10812    10809    10812    10821    10825    10813 
   10814    10827    10827    10833    10845    10833    10817    10813 
   10806    10806    10818    10820    10820    10848    10868    10858 
   10841    10832    10835    10844    10837    10832    10859    10874 
   10843    10808    10810    10836    10855    10859    10872    10895 
   10886    10854    10847    10851    10844    10849    10870    10886 
   10889    10886    10894    10895    10883    10894    10920    10912 
   10886    10898    10918    10906    10887    10885    10882    10874 
   10883    10916    10935    10925    10921    10926    10917    10917 
   10939    10941    10913    10890    10887    10889    10883    10875 
   10878    10893    10908    10929    10955    10970    10979    10997 
   11018    11036    11040    11033    11037    11051    11045    11026 
   11022    11028    11033    11036    11044    11072    11099    11107 
   11122    11160    11190    11194    11182    11172    11188    11221 
   11232    11221    11223    11237    11233    11217    11221    11248 
   11271    11290    11314    11337    11349    11342    11331    11329 
   11327    11337    11354    11354    11335    11317    11308    11307 
   11296    11281    11272    11265    11261    11259    11240    11218 
   11200    11179    11149    11128    11115    11088    11041    11007 
   10997    10995    10995    10994    10984    10966    10940    10921 
   10917    10909    10883    10854    10825    10804    10779    10746 
   10704    10673    10669    10678    10687    10701    10710    10712 
   10720    10725    10716    10702    10694    10694    10692    10678 
   10658    10640    10631    10635    10655    10670    10660    10648 
   10654    10675    10693    10693    10682    10673    10671    10670 
   10666    10660    10648    10636    10654    10681    10690    10682 
   10667    10662    10673    10689    10701    10716    10728    10729 
   10717    10710    10706    10696    10690    10686    10683    10701 
   10733    10750    10743    10735    10752    10785    10794    10797 
   10814    10822    10817    10800    10786    10801    10829    10845 
   10845    10836    10841    10858    10852    10839    10858    10903 
   10928    10920    10913    10913    10894    10862    10836    10836 
   10851    10851    10856    10881    10899    10914    10932    10953 
   10989    11022    11044    11060    11068    11067    11060    11053 
   11059    11068    11055    11030    11036    11084    11137    11157 
   11159    11172    11194    11195    11188    11211    11236    11229 
   11219    11233    11265    11287    11267    11240    11249    11279 
   11314    11342    11352    11361    11367    11353    11345    11354 
   11353    11338    11342    11362    11371    11367    11367    11361 
   11353    11367    11394    11418    11435    11422    11396    11412 
   11430    11406    11371    11327    11294    11294    11287    11264 
   11256    11245    11227    11221    11222    11226    11218    11190 
   11171    11164    11141    11114    11107    11095    11056    11013 
   10991    10986    10972    10945    10922    10910    10908    10909 
   10890    10841    10791    10766    10763    10771    10779    10779 
   10756    10714    10666    10632    10638    10667    10681    10671 
   10667    10675    10679    10682    10692    10687    10642    10559 
   10498    10504    10558    10612    10629    10597    10534    10480 
   10486    10557    10628    10662    10663    10655    10655    10662 
   10660    10642    10609    10584    10588    10624    10660    10670 
   10660    10660    10686    10717    10735    10752    10786    10821 
   10839    10845    10852    10841    10818    10824    10860    10885 
   10881    10871    10876    10897    10929    10971    11005    11030 
   11057    11079    11090    11090    11084    11080    11084    11101 
   11128    11141    11124    11103    11113    11149    11188    11221 
   11238    11244    11257    11284    11304    11304    11299    11296 
   11288    11281    11292    11319    11334    11319    11294    11286 
   11292    11319    11357    11375    11369    11354    11326    11308 
   11330    11365    11365    11329    11283    11241    11234    11261 
   11284    11281    11248    11211    11207    11226    11238    11240 
   11233    11209    11175    11155    11151    11142    11121    11092 
   11074    11065    11065    11071    11076    11067    11038    11005 
   10991    10990    10983    10983    10994    10984    10953    10930 
   10924    10929    10929    10917    10906    10889    10866    10860 
   10868    10875    10878    10876    10856    10825    10804    10794 
