Origin Time       2025/01/13 21:19:00
Lat.              31.8
Long.             131.6
Depth. (km)       30
Mag.              6.9
Station Code      KYTH04
Station Lat.      35.2685
Station Long.     135.5508
Station Height(m) 90
Record Time       2025/01/13 21:22:25
Sampling Freq(Hz) 100Hz
Duration Time(s)  120
Dir.              2
Scale Factor      2942(gal)/8224139
Max. Acc. (gal)   0.188
Last Correction   2025/01/13 21:22:27
Memo.             
   77981    77978    77978    77980    77980    77980    77980    77981 
   77984    77982    77984    77988    77990    77993    77998    78005 
   78011    78017    78024    78030    78034    78040    78048    78055 
   78059    78063    78069    78074    78079    78086    78092    78098 
   78104    78112    78121    78129    78136    78146    78162    78174 
   78182    78194    78210    78224    78236    78248    78260    78275 
   78289    78302    78316    78327    78337    78349    78358    78363 
   78370    78374    78379    78385    78383    78379    78379    78376 
   78371    78364    78359    78351    78340    78329    78320    78309 
   78295    78285    78274    78260    78244    78233    78223    78208 
   78197    78187    78174    78162    78152    78140    78131    78124 
   78116    78109    78102    78094    78089    78086    78084    78079 
   78078    78077    78075    78075    78078    78079    78078    78082 
   78086    78088    78089    78094    78097    78101    78105    78112 
   78115    78115    78119    78125    78127    78128    78132    78135 
   78135    78133    78133    78133    78129    78128    78125    78119 
   78113    78109    78105    78097    78086    78075    78063    78047 
   78032    78017    78004    77990    77974    77959    77944    77930 
   77916    77905    77892    77880    77872    77865    77858    77851 
   77847    77845    77842    77839    77842    77845    77845    77849 
   77851    77850    77850    77854    77851    77850    77849    77846 
   77843    77841    77839    77841    77839    77836    77836    77838 
   77841    77839    77839    77843    77846    77849    77854    77861 
   77868    77873    77881    77890    77903    77915    77927    77940 
   77954    77969    77984    77998    78013    78030    78048    78067 
   78084    78097    78112    78127    78142    78154    78165    78178 
   78192    78198    78206    78216    78220    78225    78231    78232 
   78236    78237    78237    78236    78237    78241    78241    78239 
   78237    78233    78229    78225    78221    78217    78212    78206 
   78200    78192    78183    78179    78171    78159    78150    78142 
   78132    78121    78113    78102    78089    78078    78069    78058 
   78047    78036    78025    78016    78007    77997    77989    77982 
   77974    77969    77963    77961    77958    77955    77951    77950 
   77949    77946    77944    77944    77944    77942    77938    77939 
   77943    77942    77939    77939    77943    77943    77942    77946 
   77949    77951    77954    77955    77957    77959    77965    77969 
   77971    77974    77977    77978    77981    77984    77986    77988 
   77986    77985    77986    77984    77980    77977    77973    77967 
   77963    77959    77955    77950    77943    77936    77928    77916 
   77907    77899    77886    77874    77865    77857    77846    77834 
   77826    77818    77807    77799    77793    77784    77778    77776 
   77769    77764    77764    77766    77768    77766    77768    77774 
   77780    77782    77789    77797    77803    77809    77816    77823 
   77831    77839    77850    77858    77863    77872    77880    77886 
   77893    77900    77905    77915    77924    77932    77943    77951 
   77957    77962    77969    77976    77981    77985    77986    77988 
   77988    77989    77988    77982    77980    77974    77970    77965 
   77957    77950    77942    77931    77924    77917    77908    77901 
   77896    77889    77882    77877    77874    77872    77866    77865 
   77863    77859    77859    77863    77865    77866    77869    77874 
   77876    77881    77888    77893    77903    77911    77916    77923 
   77930    77939    77949    77957    77965    77976    77984    77992 
   78001    78011    78019    78030    78039    78044    78051    78059 
   78067    78078    78089    78097    78105    78113    78121    78129 
   78136    78144    78152    78159    78166    78174    78178    78185 
   78189    78190    78192    78192    78190    78190    78190    78192 
   78190    78187    78185    78183    78182    78179    78178    78178 
   78177    78173    78173    78177    78177    78175    78179    78185 
   78187    78190    78193    78196    78200    78204    78205    78208 
   78212    78214    78216    78216    78216    78216    78214    78212 
   78210    78210    78208    78202    78197    78192    78186    78179 
   78170    78162    78155    78144    78132    78121    78108    78094 
   78082    78069    78057    78046    78032    78019    78005    77994 
   77984    77974    77963    77954    77946    77940    77938    77928 
   77917    77912    77908    77901    77895    77885    77878    77874 
   77868    77859    77853    77846    77839    77831    77824    77818 
   77809    77801    77796    77789    77780    77773    77765    77755 
   77749    77742    77735    77733    77728    77724    77726    77726 
   77723    77723    77726    77728    77734    77739    77745    77753 
   77762    77772    77787    77801    77814    77826    77843    77863 
   77881    77897    77913    77930    77947    77965    77984    78001 
   78015    78032    78051    78063    78078    78094    78108    78120 
   78132    78142    78152    78162    78169    78174    78178    78183 
   78190    78194    78196    78200    78204    78206    78208    78205 
   78206    78213    78217    78219    78221    78223    78227    78229 
   78231    78231    78235    78237    78236    78236    78241    78243 
   78244    78243    78240    78240    78240    78237    78236    78235 
   78233    78233    78233    78233    78233    78232    78229    78229 
   78227    78225    78224    78220    78217    78217    78214    78212 
   78209    78204    78198    78197    78193    78185    78177    78174 
   78167    78159    78158    78152    78140    78135    78128    78116 
   78106    78100    78092    78082    78073    78065    78057    78048 
   78039    78031    78025    78019    78011    78005    77997    77989 
   77982    77974    77966    77959    77954    77950    77946    77939 
   77932    77928    77926    77920    77916    77913    77911    77909 
   77905    77899    77896    77896    77889    77884    77882    77881 
   77876    77873    77869    77866    77866    77865    77859    77854 
   77854    77851    77849    77851    77853    77851    77851    77854 
   77855    77858    77858    77861    77865    77869    77869    77872 
   77876    77880    77885    77889    77890    77892    77893    77895 
   77896    77897    77897    77896    77895    77892    77890    77889 
   77885    77878    77873    77866    77862    77854    77847    77842 
   77834    77824    77820    77815    77811    77809    77805    77801 
   77799    77796    77795    77795    77796    77795    77795    77797 
   77801    77804    77808    77815    77820    77823    77826    77831 
   77836    77839    77845    77851    77854    77857    77865    77872 
   77876    77884    77892    77900    77905    77909    77916    77923 
   77928    77936    77946    77954    77958    77963    77973    77984 
   77994    78005    78016    78028    78043    78061    78074    78088 
   78105    78124    78144    78169    78189    78208    78229    78250 
   78271    78291    78313    78333    78349    78367    78389    78409 
   78424    78439    78455    78467    78478    78491    78503    78513 
   78522    78533    78540    78548    78552    78555    78560    78567 
   78570    78571    78575    78578    78578    78579    78580    78579 
   78579    78579    78580    78583    78583    78582    78583    78586 
   78584    78583    78584    78586    78586    78582    78579    78579 
   78575    78571    78567    78557    78549    78541    78533    78522 
   78513    78503    78491    78478    78464    78451    78441    78432 
   78420    78408    78395    78386    78376    78364    78348    78337 
   78329    78316    78302    78291    78278    78263    78250    78236 
   78221    78206    78192    78175    78156    78139    78127    78113 
   78097    78079    78065    78048    78034    78019    78004    77992 
   77981    77966    77954    77947    77936    77924    77915    77908 
   77901    77893    77882    77874    77868    77861    77854    77847 
   77839    77832    77828    77824    77818    77814    77814    77808 
   77803    77800    77797    77792    77791    77791    77789    77787 
   77782    77782    77787    77789    77789    77789    77793    77795 
   77796    77803    77805    77805    77812    77819    77822    77822 
   77827    77831    77832    77836    77839    77841    77843    77847 
   77850    77851    77851    77855    77857    77858    77859    77863 
   77866    77868    77870    77876    77877    77878    77884    77889 
   77893    77897    77901    77907    77913    77919    77924    77934 
   77940    77946    77954    77963    77970    77980    77989    77996 
   78004    78012    78021    78031    78039    78047    78058    78065 
   78073    78082    78090    78098    78105    78113    78120    78127 
   78132    78135    78142    78147    78151    78158    78163    78166 
   78170    78175    78178    78181    78185    78189    78190    78192 
   78194    78196    78196    78198    78202    78202    78202    78204 
   78204    78202    78200    78197    78194    78192    78189    78186 
   78183    78179    78175    78171    78167    78166    78163    78159 
   78154    78150    78144    78139    78135    78129    78124    78120 
   78112    78104    78100    78092    78079    78070    78062    78054 
   78044    78030    78016    78004    77989    77970    77954    77940 
   77923    77901    77884    77868    77847    77827    77808    77789 
   77772    77755    77738    77722    77706    77692    77680    77666 
   77656    77647    77641    77634    77629    77623    77620    77620 
   77623    77625    77630    77638    77645    77654    77666    77676 
   77689    77706    77720    77737    77755    77773    77793    77814 
   77832    77851    77876    77899    77917    77938    77961    77981 
   78001    78021    78038    78052    78071    78089    78102    78116 
   78131    78143    78151    78159    78173    78182    78186    78190 
   78196    78200    78200    78198    78200    78197    78189    78185 
   78182    78175    78169    78162    78155    78144    78133    78124 
   78115    78104    78093    78084    78074    78062    78047    78039 
   78030    78015    78001    77989    77977    77966    77953    77943 
   77934    77922    77908    77896    77886    77874    77863    77857 
   77849    77836    77830    77823    77814    77808    77803    77799 
   77793    77788    77784    77782    77780    77778    77780    77778 
   77777    77778    77782    77788    77792    77796    77800    77805 
   77815    77824    77831    77839    77849    77857    77866    77876 
   77889    77903    77911    77922    77935    77947    77963    77980 
   77992    78003    78019    78034    78044    78058    78070    78081 
   78093    78105    78117    78128    78139    78150    78159    78169 
   78179    78186    78193    78201    78209    78216    78220    78224 
   78231    78233    78237    78241    78243    78246    78250    78255 
   78256    78251    78250    78252    78252    78246    78243    78246 
   78244    78239    78235    78231    78225    78220    78213    78208 
   78202    78197    78189    78181    78174    78167    78159    78151 
   78144    78140    78133    78123    78115    78109    78104    78096 
   78088    78079    78073    78067    78061    78054    78047    78042 
   78036    78032    78028    78021    78017    78015    78011    78007 
   78003    77997    77990    77986    77986    77982    77977    77971 
   77966    77962    77959    77954    77949    77944    77940    77935 
   77934    77931    77928    77926    77924    77926    77930    77934 
   77935    77938    77946    77953    77954    77958    77965    77969 
   77974    77984    77989    77993    78001    78009    78015    78021 
   78027    78036    78042    78044    78051    78057    78059    78063 
   78069    78070    78073    78078    78082    78084    78089    78093 
   78093    78096    78098    78101    78101    78102    78106    78112 
   78112    78109    78113    78120    78123    78121    78124    78128 
   78131    78133    78136    78135    78138    78140    78142    78142 
   78142    78143    78143    78142    78140    78140    78136    78132 
   78131    78131    78127    78121    78117    78116    78115    78111 
   78106    78105    78100    78094    78094    78097    78094    78092 
   78092    78093    78096    78093    78093    78098    78098    78100 
   78104    78108    78108    78109    78112    78115    78115    78117 
   78120    78119    78120    78121    78119    78120    78123    78121 
   78121    78123    78120    78119    78119    78117    78119    78120 
   78120    78120    78123    78125    78129    78132    78133    78138 
   78142    78146    78148    78152    78155    78159    78162    78163 
   78166    78171    78175    78175    78174    78177    78178    78175 
   78173    78171    78170    78169    78163    78160    78159    78156 
   78151    78148    78144    78138    78133    78131    78125    78121 
   78119    78112    78106    78102    78097    78096    78093    78089 
   78088    78085    78082    78085    78082    78077    78074    78074 
   78070    78069    78063    78058    78058    78059    78055    78052 
   78054    78052    78051    78052    78052    78055    78057    78055 
   78058    78062    78066    78070    78077    78082    78088    78096 
   78101    78106    78115    78121    78127    78135    78143    78150 
   78155    78162    78169    78173    78178    78185    78193    78198 
   78202    78208    78214    78216    78219    78225    78227    78228 
   78232    78233    78229    78231    78235    78231    78229    78231 
   78227    78221    78221    78216    78209    78206    78202    78196 
   78189    78181    78173    78169    78158    78146    78136    78125 
   78115    78101    78086    78071    78057    78042    78030    78015 
   77997    77978    77962    77947    77932    77916    77899    77884 
   77870    77857    77843    77831    77822    77811    77800    77793 
   77788    77781    77776    77772    77769    77768    77766    77766 
   77770    77776    77780    77782    77791    77800    77808    77818 
   77830    77843    77859    77873    77886    77905    77922    77939 
   77957    77971    77989    78008    78025    78044    78062    78078 
   78093    78111    78127    78138    78152    78167    78181    78190 
   78202    78213    78220    78229    78237    78241    78246    78251 
   78256    78259    78259    78260    78266    78266    78266    78270 
   78273    78273    78273    78274    78275    78277    78275    78278 
   78279    78281    78281    78279    78277    78277    78275    78275 
   78275    78275    78275    78275    78273    78270    78271    78271 
   78270    78270    78268    78267    78268    78270    78268    78268 
   78268    78267    78266    78263    78263    78263    78260    78258 
   78255    78255    78250    78247    78247    78246    78240    78239 
   78239    78236    78233    78231    78229    78231    78231    78229 
   78231    78232    78233    78235    78240    78243    78241    78244 
   78251    78255    78259    78264    78267    78271    78278    78285 
   78289    78291    78297    78304    78309    78314    78320    78322 
   78327    78331    78335    78339    78341    78348    78355    78354 
   78354    78358    78360    78362    78363    78363    78364    78364 
   78359    78356    78356    78352    78347    78344    78340    78335 
   78333    78331    78325    78318    78314    78313    78309    78301 
   78293    78289    78283    78279    78274    78264    78259    78255 
   78247    78237    78231    78225    78216    78205    78196    78186 
   78175    78166    78155    78144    78136    78127    78116    78105 
   78094    78085    78075    78065    78055    78046    78035    78028 
   78021    78015    78008    78001    77994    77990    77986    77981 
   77976    77973    77971    77969    77967    77967    77967    77966 
   77966    77966    77966    77969    77970    77971    77971    77976 
   77978    77980    77981    77985    77986    77985    77988    77989 
   77988    77984    77984    77984    77984    77978    77974    77973 
   77973    77967    77962    77958    77955    77954    77951    77949 
   77947    77944    77940    77942    77943    77940    77942    77944 
   77946    77947    77949    77951    77958    77961    77965    77971 
   77977    77982    77989    77993    78000    78007    78012    78019 
   78028    78035    78039    78047    78052    78055    78062    78069 
   78071    78073    78077    78082    78085    78086    78089    78092 
   78093    78094    78093    78093    78094    78093    78089    78086 
   78085    78085    78084    78078    78074    78073    78070    78067 
   78067    78066    78063    78063    78063    78065    78065    78065 
   78066    78069    78070    78073    78074    78079    78085    78088 
   78090    78092    78096    78101    78102    78105    78109    78109 
   78111    78113    78116    78116    78112    78111    78112    78109 
   78105    78105    78102    78100    78098    78097    78094    78090 
   78088    78088    78086    78082    78082    78082    78079    78078 
   78075    78073    78073    78070    78065    78061    78059    78055 
   78048    78043    78039    78034    78027    78024    78020    78012 
   78003    78000    77998    77994    77990    77989    77986    77982 
   77984    77988    77988    77988    77990    77993    77993    77997 
   78004    78007    78011    78017    78024    78030    78036    78043 
   78050    78058    78065    78071    78078    78085    78090    78098 
   78106    78113    78116    78121    78132    78139    78142    78147 
   78154    78160    78166    78169    78171    78177    78178    78178 
   78179    78183    78187    78185    78185    78186    78183    78183 
   78183    78181    78178    78179    78177    78174    78174    78173 
   78167    78163    78162    78159    78154    78151    78148    78143 
   78138    78132    78127    78121    78116    78111    78105    78098 
   78092    78085    78078    78073    78067    78061    78052    78047 
   78042    78035    78030    78025    78021    78017    78015    78012 
   78007    78003    78001    78001    78000    78000    78001    78004 
   78004    78005    78007    78012    78017    78017    78020    78027 
   78032    78038    78044    78048    78050    78054    78058    78065 
   78069    78071    78073    78075    78077    78078    78077    78077 
   78077    78078    78081    78077    78071    78070    78069    78065 
   78061    78058    78057    78051    78047    78046    78042    78036 
   78034    78032    78032    78031    78030    78031    78030    78024 
   78025    78028    78027    78025    78025    78027    78025    78024 
   78027    78028    78027    78027    78030    78028    78025    78027 
   78030    78031    78031    78031    78034    78039    78042    78042 
   78044    78048    78050    78052    78058    78061    78063    78065 
   78067    78070    78071    78073    78074    78074    78074    78075 
