Origin Time       2025/01/13 21:19:00
Lat.              31.8
Long.             131.6
Depth. (km)       30
Mag.              6.9
Station Code      KYTH03
Station Lat.      35.3130
Station Long.     135.1334
Station Height(m) -260
Record Time       2025/01/13 21:21:59
Sampling Freq(Hz) 100Hz
Duration Time(s)  120
Dir.              3
Scale Factor      2942(gal)/8224139
Max. Acc. (gal)   0.210
Last Correction   2025/01/13 21:22:00
Memo.             
[...]
   71447    71446    71443    71439    71437    71439    71437    71437 
   71440    71442    71442    71443    71444    71443    71444    71446 
   71443    71443    71446    71446    71447    71451    71450    71451 
   71452    71450    71450    71451    71447    71446    71450    71451 
   71448    71450    71450    71450    71450    71447    71443    71442 
   71439    71435    71431    71429    71428    71427    71425    71425 
   71427    71428    71429    71429    71431    71429    71429    71429 
   71428    71425    71427    71428    71429    71429    71429    71433 
   71435    71433    71439    71443    71440    71440    71444    71450 
   71452    71456    71463    71467    71470    71474    71478    71483 
   71487    71491    71497    71502    71505    71508    71510    71514 
   71517    71516    71516    71518    71520    71521    71524    71527 
   71528    71529    71533    71536    71539    71543    71547    71552 
   71559    71563    71568    71572    71574    71577    71578    71579 
   71582    71585    71585    71585    71582    71581    71581    71579 
   71577    71575    71575    71575    71574    71574    71571    71568 
   71568    71570    71567    71566    71564    71563    71562    71562 
   71559    71552    71548    71545    71543    71540    71536    71537 
   71535    71532    71532    71531    71528    71527    71525    71524 
   71524    71521    71517    71514    71512    71510    71512    71509 
   71504    71504    71504    71502    71501    71501    71501    71497 
   71491    71489    71486    71479    71475    71474    71470    71469 
   71470    71469    71467    71466    71463    71462    71462    71462 
   71462    71466    71466    71466    71473    71478    71475    71473 
   71474    71475    71473    71473    71475    71478    71477    71475 
   71475    71475    71474    71474    71473    71471    71470    71469 
   71464    71459    71454    71450    71443    71439    71433    71424 
   71416    71412    71408    71402    71398    71398    71398    71398 
   71400    71402    71404    71404    71408    71410    71408    71406 
   71409    71408    71406    71405    71405    71409    71413    71413 
   71417    71424    71428    71433    71444    71451    71455    71460 
   71469    71477    71486    71493    71500    71508    71521    71533 
   71537    71543    71554    71562    71567    71574    71578    71578 
   71581    71586    71587    71590    71594    71598    71599    71601 
   71602    71604    71602    71604    71606    71610    71612    71610 
   71612    71616    71618    71620    71620    71620    71621    71620 
   71618    71614    71609    71606    71599    71590    71583    71577 
   71567    71559    71554    71545    71535    71525    71518    71510 
   71504    71496    71487    71479    71473    71464    71456    71450 
   71444    71435    71427    71423    71416    71410    71408    71406 
   71405    71405    71405    71404    71404    71405    71406    71409 
   71410    71413    71416    71420    71420    71421    71425    71428 
   71429    71429    71433    71439    71442    71443    71447    71451 
   71455    71458    71459    71463    71467    71467    71470    71475 
   71477    71477    71477    71475    71474    71474    71475    71474 
   71474    71477    71477    71477    71475    71473    71473    71471 
   71464    71460    71456    71452    71450    71446    71443    71442 
   71440    71440    71440    71440    71440    71443    71446    71447 
   71450    71454    71456    71459    71460    71462    71467    71470 
   71467    71470    71475    71475    71475    71477    71474    71475 
   71478    71475    71474    71478    71481    71479    71478    71477 
   71479    71481    71481    71482    71483    71486    71487    71490 
   71494    71494    71493    71498    71502    71504    71506    71510 
   71512    71516    71514    71512    71512    71508    71502    71500 
   71497    71489    71483    71482    71477    71471    71469    71464 
   71458    71452    71450    71446    71440    71436    71435    71431 
   71429    71431    71429    71428    71427    71423    71421    71423 
   71420    71416    71416    71413    71409    71408    71408    71405 
   71404    71405    71406    71408    71410    71412    71413    71417 
   71421    71425    71429    71432    71436    71442    71446    71447 
   71454    71462    71466    71469    71473    71479    71487    71493 
   71501    71509    71512    71516    71523    71528    71531    71537 
   71541    71543    71548    71554    71558    71562    71562    71559 
   71562    71564    71562    71563    71564    71563    71562    71560 
   71558    71558    71559    71558    71556    71555    71552    71551 
   71551    71548    71545    71544    71545    71548    71550    71548 
   71550    71554    71556    71558    71559    71559    71559    71559 
   71558    71559    71559    71559    71562    71564    71564    71566 
   71568    71567    71567    71566    71562    71560    71558    71554 
   71552    71552    71551    71547    71540    71536    71533    71528 
   71521    71518    71514    71505    71497    71491    71482    71475 
   71473    71470    71464    71460    71458    71455    71452    71446 
   71442    71439    71432    71427    71425    71420    71413    71410 
   71408    71406    71402    71397    71393    71392    71392    71388 
   71383    71382    71381    71379    71379    71378    71377    71377 
   71378    71381    71383    71386    71390    71394    71397    71398 
   71404    71408    71410    71419    71425    71429    71436    71444 
   71448    71454    71466    71474    71478    71486    71498    71502 
   71505    71512    71517    71518    71518    71521    71521    71521 
   71521    71523    71524    71521    71523    71524    71520    71520 
   71521    71517    71510    71509    71505    71500    71497    71491 
   71483    71479    71477    71471    71470    71473    71475    71474 
   71471    71469    71470    71471    71469    71470    71471    71467 
   71466    71467    71466    71467    71470    71470    71470    71470 
   71469    71467    71471    71473    71473    71475    71475    71471 
   71471    71469    71464    71464    71464    71462    71456    71451 
   71448    71442    71436    71431    71424    71417    71410    71406 
   71405    71402    71397    71394    71393    71392    71390    71389 
   71386    71381    71377    71378    71378    71379    71382    71383 
   71382    71383    71386    71390    71396    71400    71402    71406 
   71408    71409    71413    71417    71420    71421    71425    71427 
   71428    71429    71431    71433    71439    71442    71442    71446 
   71452    71454    71452    71454    71456    71456    71459    71462 
   71462    71464    71470    71474    71478    71483    71490    71494 
   71498    71505    71513    71517    71523    71531    71537    71544 
   71551    71555    71558    71563    71564    71566    71568    71572 
   71572    71572    71571    71568    71566    71564    71566    71563 
   71555    71554    71551    71544    71540    71533    71524    71517 
   71512    71505    71497    71489    71481    71475    71470    71459 
   71452    71450    71444    71433    71427    71423    71416    71409 
   71406    71405    71400    71396    71393    71393    71396    71393 
   71390    71392    71396    71394    71394    71397    71400    71404 
   71409    71412    71415    71417    71419    71421    71424    71425 
   71427    71425    71427    71428    71429    71428    71427    71425 
   71429    71431    71429    71427    71428    71431    71429    71431 
   71432    71436    71442    71446    71447    71452    71462    71466 
   71470    71477    71483    71490    71496    71504    71510    71514 
   71518    71523    71525    71531    71537    71540    71545    71551 
   71556    71560    71562    71566    71570    71574    71579    71585 
   71587    71590    71590    71591    71589    71589    71591    71590 
   71587    71590    71590    71589    71587    71587    71585    71581 
   71579    71575    71571    71570    71566    71563    71563    71562 
   71559    71554    71548    71545    71543    71536    71531    71528 
   71525    71518    71512    71509    71501    71493    71490    71483 
   71471    71463    71458    71451    71446    71436    71427    71420 
   71410    71404    71398    71386    71377    71371    71365    71356 
   71351    71343    71331    71320    71312    71304    71300    71296 
   71288    71280    71273    71267    71263    71259    71259    71262 
   71261    71258    71262    71265    71263    71266    71273    71278 
   71284    71290    71297    71302    71309    71317    71325    71336 
   71347    71358    71369    71379    71388    71397    71409    71420 
   71428    71435    71440    71446    71451    71452    71456    71459 
   71456    71455    71456    71458    71459    71459    71462    71466 
   71467    71470    71474    71477    71475    71475    71479    71481 
   71481    71481    71481    71481    71479    71481    71483    71486 
   71489    71490    71490    71496    71500    71501    71505    71509 
   71512    71518    71527    71532    71537    71544    71550    71555 
   71564    71572    71575    71583    71591    71595    71599    71602 
   71606    71613    71617    71621    71625    71624    71622    71626 
   71631    71629    71628    71625    71622    71624    71620    71612 
   71608    71608    71606    71601    71591    71585    71579    71574 
   71566    71558    71554    71547    71536    71525    71517    71509 
   71500    71490    71485    71478    71473    71466    71460    71454 
   71448    71447    71443    71433    71428    71424    71419    71415 
   71409    71402    71398    71396    71392    71386    71381    71374 
   71370    71367    71363    71355    71348    71344    71339    71332 
   71328    71325    71324    71325    71323    71319    71319    71321 
   71324    71324    71327    71331    71331    71331    71334    71335 
   71336    71339    71346    71351    71352    71356    71361    71365 
   71373    71379    71385    71390    71394    71397    71401    71406 
   71409    71410    71410    71409    71410    71410    71409    71409 
   71408    71405    71404    71402    71400    71394    71392    71389 
   71382    71377    71373    71367    71363    71361    71356    71354 
   71352    71351    71350    71347    71347    71351    71354    71356 
   71362    71365    71367    71371    71373    71375    71381    71386 
   71390    71394    71400    71405    71412    71419    71424    71429 
   71436    71442    71448    71455    71459    71462    71463    71462 
   71462    71463    71462    71460    71463    71464    71463    71466 
   71470    71469    71469    71474    71477    71478    71479    71481 
   71483    71486    71491    71498    71504    71508    71513    71520 
   71528    71536    71543    71554    71566    71577    71589    71604 
   71620    71633    71648    71666    71682    71699    71718    71736 
   71751    71766    71782    71799    71814    71825    71836    71849 
   71859    71865    71874    71882    71886    71888    71894    71895 
   71896    71899    71896    71890    71884    71879    71874    71865 
   71855    71841    71828    71820    71811    71801    71790    71782 
   71775    71767    71756    71748    71743    71732    71722    71713 
   71703    71691    71680    71672    71663    71652    71641    71633 
   71625    71614    71605    71598    71589    71579    71572    71564 
   71555    71548    71543    71536    71528    71523    71516    71506 
   71500    71497    71490    71482    71475    71467    71459    71454 
   71447    71437    71435    71431    71421    71415    71412    71408 
   71402    71396    71392    71388    71379    71373    71371    71369 
   71363    71355    71352    71351    71344    71336    71332    71325 
   71319    71309    71301    71294    71284    71271    71261    71251 
   71240    71230    71216    71205    71194    71184    71172    71161 
   71150    71142    71134    71124    71112    71103    71095    71086 
   71081    71073    71064    71058    71057    71054    71047    71039 
   71038    71039    71034    71028    71027    71027    71024    71026 
   71028    71028    71032    71039    71043    71046    71054    71062 
   71070    71080    71092    71103    71113    71126    71138    71149 
   71161    71173    71184    71196    71208    71224    71240    71253 
   71265    71280    71293    71304    71319    71336    71351    71363 
   71377    71392    71404    71416    71431    71444    71455    71467 
   71477    71485    71493    71498    71505    71512    71514    71517 
   71523    71529    71532    71532    71535    71535    71532    71531 
   71529    71523    71517    71518    71514    71506    71505    71501 
   71493    71487    71485    71477    71470    71467    71462    71456 
   71455    71447    71440    71437    71432    71425    71423    71419 
   71417    71413    71404    71397    71396    71388    71378    71375 
   71373    71367    71362    71358    71355    71355    71356    71354 
   71352    71356    71362    71369    71374    71378    71386    71396 
   71404    71413    71423    71432    71446    71459    71471    71486 
   71505    71520    71536    71556    71575    71591    71613    71635 
   71655    71679    71703    71725    71748    71770    71790    71814 
   71838    71863    71888    71909    71928    71948    71965    71980 
   71996    72009    72021    72036    72046    72052    72057    72061 
   72060    72058    72057    72049    72040    72030    72021    72009 
   71991    71972    71955    71938    71921    71902    71882    71861 
   71838    71815    71794    71768    71744    71724    71701    71675 
   71652    71632    71609    71586    71566    71550    71532    71512 
   71494    71481    71466    71451    71442    71433    71421    71413 
   71410    71405    71402    71401    71402    71402    71405    71412 
   71416    71420    71427    71436    71443    71452    71460    71470 
   71478    71486    71493    71502    71512    71516    71518    71528 
   71535    71536    71539    71543    71544    71541    71540    71537 
   71533    71532    71529    71525    71520    71510    71502    71494 
   71485    71474    71463    71452    71442    71428    71419    71406 
   71393    71383    71374    71365    71355    71346    71336    71331 
   71325    71319    71313    71311    71308    71307    71307    71308 
   71309    71311    71311    71315    71321    71324    71328    71334 
   71339    71340    71344    71354    71361    71366    71371    71381 
   71386    71389    71394    71400    71402    71409    71413    71413 
   71416    71420    71423    71425    71431    71436    71439    71444 
   71450    71452    71458    71466    71473    71477    71482    71489 
   71494    71500    71506    71514    71521    71527    71536    71544 
   71552    71563    71571    71578    71586    71591    71595    71601 
   71604    71608    71613    71616    71612    71613    71618    71620 
   71617    71614    71618    71617    71612    71610    71609    71604 
   71601    71594    71582    71574    71564    71552    71539    71525 
   71510    71497    71481    71466    71451    71436    71419    71400 
   71382    71365    71344    71324    71305    71289    71273    71251 
   71232    71217    71201    71184    71167    71151    71136    71120 
   71109    71096    71082    71073    71066    71058    71053    71051 
   71050    71049    71049    71051    71057    71065    71073    71085 
   71096    71107    71123    71143    71161    71180    71201    71220 
   71239    71261    71282    71307    71332    71352    71371    71394 
   71417    71439    71464    71490    71509    71528    71551    71574 
   71593    71612    71632    71652    71668    71683    71701    71717 
   71730    71744    71755    71761    71767    71772    71780    71784 
   71788    71790    71788    71788    71790    71787    71786    71780 
   71772    71767    71760    71749    71737    71722    71707    71693 
   71676    71656    71637    71618    71598    71577    71555    71535 
   71513    71491    71471    71452    71429    71409    71393    71374 
   71354    71339    71324    71309    71296    71284    71273    71259 
   71244    71232    71223    71213    71203    71194    71188    71181 
   71173    71163    71157    71153    71149    71146    71143    71142 
   71142    71140    71139    71142    71145    71149    71155    71165 
   71174    71181    71186    71197    71207    71216    71227    71238 
   71251    71266    71280    71292    71308    71321    71334    71350 
   71362    71371    71386    71401    71415    71429    71443    71454 
   71466    71481    71493    71502    71514    71525    71536    71548 
   71556    71564    71571    71578    71586    71591    71594    71598 
   71605    71608    71610    71614    71617    71616    71616    71614 
   71614    71617    71618    71620    71620    71622    71622    71624 
   71626    71624    71622    71624    71621    71622    71624    71621 
   71620    71620    71621    71622    71624    71625    71628    71632 
   71635    71636    71639    71643    71644    71645    71647    71647 
   71647    71649    71652    71649    71647    71648    71648    71645 
   71640    71633    71625    71622    71618    71613    71608    71601 
   71593    71586    71578    71568    71559    71550    71540    71528 
   71514    71500    71487    71475    71463    71448    71432    71419 
   71406    71393    71379    71367    71352    71342    71331    71321 
   71311    71302    71296    71289    71282    71278    71273    71269 
   71265    71261    71254    71248    71244    71238    71232    71228 
   71224    71223    71221    71219    71219    71220    71220    71221 
   71226    71228    71232    71235    71240    71246    71253    71259 
   71266    71274    71281    71290    71302    71312    71321    71332 
   71343    71354    71366    71373    71385    71397    71406    71417 
   71431    71440    71450    71462    71471    71482    71493    71501 
   71506    71514    71523    71529    71535    71541    71548    71554 
   71556    71562    71570    71574    71579    71585    71589    71593 
   71598    71604    71604    71606    71608    71605    71604    71598 
   71590    71583    71574    71562    71552    71541    71528    71514 
   71501    71487    71474    71460    71447    71436    71424    71410 
   71397    71383    71371    71365    71356    71347    71342    71340 
   71335    71332    71335    71335    71335    71336    71340    71343 
   71344    71347    71354    71358    71359    71365    71374    71379 
   71382    71389    71397    71402    71408    71412    71417    71424 
   71432    71437    71442    71446    71451    71458    71463    71466 
   71470    71477    71483    71487    71491    71498    71502    71505 
   71513    71518    71520    71523    71527    71529    71532    71536 
   71537    71541    71543    71541    71543    71544    71545    71550 
   71551    71551    71554    71556    71559    71560    71559    71559 
   71560    71563    71566    71567    71564    71566    71571    71574 
   71577    71581    71585    71586    71589    71595    71601    71605 
   71612    71620    71625    71629    71637    71649    71658    71663 
