Origin Time       2025/01/13 21:19:00
Lat.              31.8
Long.             131.6
Depth. (km)       30
Mag.              6.9
Station Code      KYTH05
Station Lat.      35.6814
Station Long.     135.0268
Station Height(m) 5
Record Time       2025/01/13 21:22:07
Sampling Freq(Hz) 100Hz
Duration Time(s)  120
Dir.              4
Scale Factor      7845(gal)/8223790
Max. Acc. (gal)   3.611
Last Correction   2025/01/13 21:22:08
Memo.             
[...]
    2303     2265     2226     2184     2145     2107     2069     2039 
    2008     1973     1944     1914     1880     1848     1822     1792 
    1764     1737     1709     1678     1652     1621     1582     1543 
    1502     1456     1414     1375     1335     1296     1260     1229 
    1202     1179     1156     1131     1113     1098     1086     1084 
    1088     1097     1112     1136     1166     1198     1239     1281 
    1323     1368     1414     1462     1518     1575     1632     1696 
    1764     1831     1902     1977     2052     2118     2185     2251 
    2313     2376     2435     2486     2535     2585     2632     2678 
    2727     2776     2828     2880     2926     2970     3014     3051 
    3078     3099     3113     3114     3109     3095     3075     3051 
    3021     2983     2941     2901     2852     2793     2728     2659 
    2582     2505     2428     2343     2261     2180     2092     2002 
    1918     1833     1746     1663     1580     1499     1428     1355 
    1283     1220     1161     1101     1047      993      942      899 
     862      830      800      774      751      730      715      703 
     691      685      683      679      681      695      710      729 
     760      793      824      858      900      945      990     1042 
    1092     1148     1208     1263     1320     1377     1432     1491 
    1559     1624     1688     1756     1822     1883     1944     2007 
    2061     2115     2172     2223     2273     2326     2371     2420 
    2474     2524     2573     2625     2674     2713     2748     2781 
    2805     2829     2845     2855     2867     2878     2879     2878 
    2879     2875     2863     2852     2839     2818     2799     2778 
    2749     2725     2704     2679     2655     2632     2609     2585 
    2559     2535     2504     2467     2435     2403     2367     2334 
    2301     2266     2231     2199     2168     2143     2122     2100 
    2083     2068     2056     2046     2038     2033     2033     2033 
    2034     2039     2049     2061     2074     2096     2120     2143 
    2168     2195     2222     2247     2273     2292     2305     2319 
    2328     2332     2335     2328     2315     2301     2285     2259 
    2235     2214     2187     2161     2137     2107     2073     2039 
    2000     1958     1912     1861     1806     1746     1684     1618 
    1548     1475     1395     1318     1239     1154     1077     1004 
     928      857      793      734      676      631      599      568 
     552      548      542      541      553      571      592      626 
     664      702      750      810      872      943     1020     1096 
    1177     1264     1354     1447     1547     1649     1753     1861 
    1977     2095     2211     2328     2443     2558     2677     2795 
    2911     3025     3138     3248     3350     3449     3537     3613 
    3684     3742     3788     3828     3858     3875     3888     3890 
    3885     3878     3861     3835     3808     3775     3735     3690 
    3639     3585     3532     3473     3406     3338     3267     3186 
    3102     3017     2922     2826     2731     2631     2532     2436 
    2332     2226     2120     2012     1898     1784     1669     1552 
    1439     1328     1217     1111     1007      903      797      693 
     595      498      406      319      236      163       99       37 
     -10      -48      -82     -103     -112     -116     -109      -90 
     -66      -37        1       49      103      170      252      345 
     445      556      676      803      942     1086     1231     1379 
    1532     1682     1830     1980     2124     2265     2404     2532 
    2655     2776     2891     3001     3109     3207     3296     3379 
    3451     3514     3568     3616     3650     3677     3704     3720 
    3724     3724     3712     3689     3662     3631     3596     3555 
    3510     3458     3402     3335     3257     3172     3080     2972 
    2857     2740     2616     2486     2359     2232     2100     1973 
    1853     1730     1610     1502     1391     1281     1182     1089 
    1001      927      865      804      749      704      664      630 
     610      596      592      600      612      630      654      680 
     711      749      787      823      865      912      965     1027 
    1098     1171     1246     1331     1421     1505     1591     1680 
    1760     1837     1910     1973     2031     2091     2143     2191 
    2235     2270     2301     2334     2359     2377     2396     2409 
    2416     2419     2417     2411     2396     2371     2339     2308 
    2276     2236     2197     2160     2119     2076     2033     1985 
    1939     1899     1864     1826     1787     1752     1718     1683 
    1651     1622     1591     1561     1534     1503     1478     1456 
    1436     1424     1424     1428     1437     1455     1475     1498 
    1528     1557     1587     1622     1655     1688     1728     1767 
    1806     1853     1902     1945     1995     2047     2096     2146 
    2200     2246     2289     2339     2385     2428     2479     2533 
    2581     2623     2667     2706     2735     2762     2783     2799 
    2816     2830     2840     2848     2856     2859     2862     2859 
    2849     2841     2835     2822     2805     2785     2758     2727 
    2698     2662     2625     2590     2552     2513     2470     2424 
    2377     2327     2276     2228     2181     2127     2069     2011 
    1954     1894     1831     1776     1723     1672     1626     1590 
    1553     1524     1502     1489     1478     1474     1472     1474 
    1482     1493     1503     1522     1545     1574     1609     1651 
    1698     1745     1791     1831     1871     1910     1946     1981 
    2020     2057     2084     2107     2126     2134     2139     2141 
    2130     2115     2103     2080     2052     2029     2000     1971 
    1944     1912     1881     1854     1829     1802     1773     1749 
    1728     1706     1687     1665     1642     1624     1601     1579 
    1567     1553     1537     1525     1516     1503     1491     1483 
    1471     1456     1443     1429     1412     1394     1375     1356 
    1341     1333     1331     1331     1336     1348     1363     1378 
    1393     1414     1435     1449     1470     1493     1514     1537 
    1560     1580     1603     1636     1672     1714     1763     1806 
    1840     1872     1902     1927     1953     1976     1991     1999 
    2003     2003     1998     1989     1980     1969     1952     1934 
    1915     1894     1873     1854     1837     1823     1810     1796 
    1787     1779     1769     1763     1759     1755     1750     1750 
    1755     1753     1755     1759     1760     1763     1772     1784 
    1796     1810     1827     1845     1867     1899     1933     1972 
    2015     2052     2087     2124     2158     2191     2223     2254 
    2284     2308     2334     2363     2392     2419     2446     2471 
    2500     2531     2559     2583     2600     2613     2620     2614 
    2606     2597     2582     2565     2548     2532     2509     2486 
    2462     2432     2407     2378     2344     2313     2280     2243 
    2208     2170     2131     2092     2058     2030     2006     1989 
    1972     1960     1961     1962     1961     1966     1976     1987 
    1999     2011     2025     2038     2056     2069     2077     2088 
    2099     2101     2100     2096     2088     2080     2072     2062 
    2058     2054     2052     2056     2062     2072     2079     2084 
    2088     2087     2083     2076     2066     2057     2053     2049 
    2042     2035     2035     2034     2030     2026     2023     2019 
    2018     2012     2007     2002     1993     1984     1976     1965 
    1956     1953     1948     1939     1933     1925     1908     1888 
    1864     1836     1810     1786     1757     1730     1705     1675 
    1642     1613     1583     1549     1517     1487     1459     1431 
    1398     1363     1333     1308     1285     1269     1259     1252 
    1251     1260     1277     1296     1321     1352     1385     1424 
    1467     1514     1568     1630     1696     1765     1844     1926 
    2008     2096     2192     2293     2401     2513     2627     2745 
    2866     2982     3091     3194     3288     3375     3453     3526 
    3591     3650     3703     3748     3792     3829     3854     3875 
    3889     3889     3878     3855     3816     3762     3699     3619 
    3518     3408     3294     3161     3018     2864     2702     2533 
    2365     2196     2030     1861     1692     1522     1354     1192 
    1034      881      735      595      464      342      226      120 
      29      -52     -129     -198     -259     -309     -346     -369 
    -382     -378     -356     -326     -279     -211     -136      -49 
      49      153      267      390      511      629      753      882 
    1016     1161     1313     1468     1629     1786     1935     2084 
    2231     2373     2505     2631     2748     2851     2951     3046 
    3134     3210     3277     3335     3384     3424     3457     3484 
    3503     3514     3512     3499     3473     3437     3393     3345 
    3287     3229     3169     3106     3042     2975     2901     2822 
    2740     2651     2560     2473     2386     2303     2226     2154 
    2084     2016     1957     1904     1858     1818     1780     1745 
    1714     1686     1661     1644     1628     1611     1601     1591 
    1583     1578     1572     1568     1570     1571     1567     1566 
    1566     1561     1559     1557     1553     1552     1560     1572 
    1582     1593     1606     1620     1637     1659     1679     1694 
    1709     1722     1723     1721     1726     1734     1746     1768 
    1794     1818     1842     1861     1877     1890     1892     1890 
    1890     1890     1892     1898     1904     1908     1915     1921 
    1919     1917     1918     1912     1903     1892     1880     1867 
    1848     1827     1802     1769     1738     1709     1679     1651 
    1618     1587     1564     1534     1506     1487     1468     1451 
    1445     1441     1440     1449     1462     1464     1472     1485 
    1493     1509     1534     1561     1591     1621     1651     1679 
    1713     1755     1798     1845     1898     1944     1992     2050 
    2110     2176     2247     2313     2380     2452     2528     2600 
    2668     2737     2809     2880     2947     3007     3068     3123 
    3181     3238     3273     3296     3331     3361     3366     3375 
    3389     3391     3379     3366     3356     3329     3295     3264 
    3218     3157     3102     3041     2970     2895     2818     2735 
    2648     2563     2473     2381     2286     2189     2095     2000 
    1906     1810     1715     1618     1521     1424     1329     1236 
    1143     1051      963      872      778      689      599      511 
     429      348      271      202      135       75       32       -2 
     -37      -76      -98     -101     -121     -136     -124     -117 
    -110      -85      -55      -18       22       76      147      220 
     302      400      499      607      727      851      981     1120 
    1262     1409     1564     1725     1881     2037     2185     2323 
    2457     2593     2725     2853     2979     3098     3206     3304 
    3400     3489     3565     3634     3692     3736     3780     3819 
    3848     3873     3885     3893     3894     3886     3871     3852 
    3832     3807     3770     3727     3685     3640     3596     3550 
    3504     3462     3411     3345     3281     3221     3153     3084 
    3013     2937     2860     2779     2694     2609     2529     2446 
    2350     2255     2161     2061     1964     1871     1780     1694 
    1611     1530     1455     1382     1305     1233     1169     1102 
    1040      989      938      889      853      816      778      745 
     712      679      643      612      583      554      530      507 
     487      472      460      448      440      423      402      380 
     355      325      301      280      256      237      229      222 
     226      243      261      287      326      376      430      494 
     567      645      730      824      924     1034     1155     1279 
    1409     1541     1680     1827     1984     2145     2308     2471 
    2636     2797     2955     3113     3267     3415     3559     3696 
    3824     3946     4064     4175     4276     4374     4461     4534 
    4599     4656     4702     4738     4765     4785     4797     4796 
    4787     4770     4745     4708     4660     4602     4530     4444 
    4348     4237     4116     3985     3842     3686     3523     3358 
    3191     3018     2847     2671     2488     2304     2115     1919 
    1723     1528     1331     1134      934      735      541      353 
     171       -5     -171     -334     -491     -635     -772     -897 
   -1013    -1124    -1221    -1304    -1377    -1437    -1478    -1503 
   -1513    -1498    -1463    -1413    -1340    -1247    -1144    -1027 
    -892     -745     -583     -405     -209        4      230      467 
     719      985     1259     1539     1823     2107     2389     2674 
    2951     3218     3481     3743     3998     4241     4476     4699 
    4899     5080     5243     5385     5503     5601     5671     5715 
    5744     5752     5734     5698     5637     5556     5462     5350 
    5215     5062     4892     4704     4499     4280     4054     3817 
    3580     3346     3106     2866     2629     2388     2143     1902 
    1660     1417     1182      955      730      511      301      102 
     -82     -253     -413     -556     -683     -796     -893     -978 
   -1053    -1117    -1166    -1202    -1224    -1229    -1220    -1192 
   -1140    -1069     -977     -869     -749     -616     -472     -321 
    -159        9      190      383      579      784      993     1204 
    1421     1640     1852     2068     2282     2488     2690     2889 
    3076     3256     3426     3578     3716     3846     3960     4059 
    4148     4218     4271     4311     4340     4352     4351     4337 
    4307     4266     4214     4152     4081     4001     3910     3809 
    3701     3586     3468     3343     3215     3080     2949     2821 
    2686     2551     2425     2299     2168     2050     1935     1823 
    1723     1633     1544     1458     1379     1300     1221     1156 
    1094     1032      982      940      901      870      849      834 
     826      826      830      834      843      855      873      901 
     935      967     1009     1059     1112     1169     1229     1294 
    1363     1435     1509     1588     1669     1748     1829     1914 
    2002     2088     2174     2262     2350     2439     2525     2608 
    2682     2751     2805     2848     2884     2910     2924     2934 
    2937     2932     2929     2922     2906     2884     2857     2816 
    2767     2716     2652     2579     2501     2417     2324     2230 
    2131     2025     1918     1813     1707     1603     1498     1397 
    1297     1193     1092      997      911      834      764      704 
     656      608      568      538      511      491      483      483 
     486      498      518      546      588      641      699      768 
     846      934     1034     1135     1244     1370     1498     1630 
    1776     1927     2085     2254     2430     2604     2772     2941 
    3103     3254     3399     3537     3659     3770     3875     3973 
    4060     4141     4207     4257     4297     4322     4329     4325 
    4309     4275     4232     4178     4112     4036     3948     3848 
    3740     3624     3497     3364     3233     3098     2952     2808 
    2660     2504     2351     2207     2060     1912     1769     1625 
    1483     1348     1217     1092      972      853      738      634 
     534      440      356      280      211      147       97       49 
       6      -18      -32      -41      -35      -21       -1       31 
      71      118      167      226      297      367      444      531 
     625      724      826      930     1040     1150     1258     1371 
    1489     1601     1715     1836     1950     2066     2187     2300 
    2409     2519     2620     2710     2794     2872     2945     3010 
    3068     3118     3163     3206     3242     3269     3295     3311 
    3316     3315     3307     3289     3265     3240     3207     3167 
    3125     3082     3033     2980     2925     2867     2808     2747 
    2683     2616     2550     2481     2412     2346     2281     2218 
    2161     2107     2053     2006     1961     1915     1873     1840 
    1807     1777     1753     1730     1710     1692     1678     1667 
    1659     1655     1655     1660     1667     1672     1683     1698 
    1714     1734     1757     1779     1802     1822     1833     1837 
    1838     1838     1836     1829     1823     1815     1804     1794 
    1777     1756     1733     1707     1679     1652     1620     1588 
    1563     1536     1513     1497     1482     1464     1451     1439 
    1425     1414     1404     1389     1374     1363     1355     1348 
    1350     1356     1359     1366     1379     1391     1405     1421 
    1435     1447     1463     1476     1489     1506     1526     1545 
    1570     1598     1629     1668     1709     1749     1796     1845 
    1892     1948     2008     2064     2123     2189     2251     2315 
    2388     2462     2533     2608     2679     2747     2817     2878 
    2929     2974     3013     3048     3080     3107     3122     3129 
    3138     3142     3137     3133     3127     3113     3088     3055 
    3014     2970     2922     2872     2813     2751     2687     2619 
    2547     2474     2394     2315     2236     2149     2061     1975 
    1883     1788     1699     1609     1516     1426     1339     1251 
    1169     1094     1028      974      926      882      849      819 
     795      778      772      769      777      796      819      847 
     889      934      980     1036     1098     1163     1232     1304 
    1378     1448     1516     1584     1655     1728     1803     1877 
    1957     2039     2116     2197     2282     2367     2448     2524 
    2593     2658     2724     2786     2847     2903     2948     2987 
    3032     3069     3105     3136     3159     3175     3190     3202 
    3207     3203     3199     3187     3167     3145     3121     3083 
    3042     3002     2953     2902     2844     2779     2710     2643 
    2573     2494     2409     2320     2227     2134     2039     1945 
    1853     1761     1669     1583     1498     1414     1337     1269 
    1205     1146     1093     1043      997      961      928      896 
     872      850      827      811      804      799      797      807 
     823      845      870      900      935      977     1021     1067 
    1116     1169     1225     1281     1339     1399     1456     1514 
    1578     1642     1710     1773     1833     1895     1957     2011 
    2062     2111     2155     2197     2238     2274     2309     2338 
    2361     2381     2400     2417     2431     2443     2448     2442 
