Origin Time       2025/01/13 21:19:00
Lat.              31.8
Long.             131.6
Depth. (km)       30
Mag.              6.9
Station Code      MIEH10
Station Lat.      34.8224
Station Long.     136.4245
Station Height(m) 75
Record Time       2025/01/13 21:22:26
Sampling Freq(Hz) 100Hz
Duration Time(s)  120
Dir.              6
Scale Factor      7845(gal)/8223790
Max. Acc. (gal)   0.251
Last Correction   2025/01/13 21:22:28
Memo.             
[...]
  -26325   -26327   -26326   -26325   -26327   -26331   -26333   -26329 
  -26330   -26337   -26339   -26345   -26347   -26350   -26356   -26358 
  -26360   -26362   -26362   -26364   -26365   -26365   -26364   -26366 
  -26365   -26358   -26360   -26362   -26358   -26357   -26354   -26347 
  -26347   -26346   -26339   -26334   -26337   -26333   -26323   -26323 
  -26319   -26314   -26314   -26311   -26307   -26308   -26304   -26300 
  -26299   -26299   -26298   -26296   -26296   -26292   -26292   -26296 
  -26289   -26280   -26283   -26283   -26276   -26275   -26277   -26273 
  -26275   -26279   -26276   -26276   -26272   -26266   -26268   -26269 
  -26271   -26275   -26275   -26279   -26279   -26276   -26280   -26276 
  -26273   -26273   -26272   -26276   -26279   -26276   -26277   -26281 
  -26281   -26277   -26279   -26281   -26279   -26281   -26285   -26285 
  -26288   -26289   -26284   -26283   -26285   -26283   -26280   -26285 
  -26287   -26281   -26281   -26279   -26277   -26281   -26283   -26280 
  -26281   -26287   -26288   -26289   -26296   -26291   -26287   -26292 
  -26289   -26284   -26284   -26283   -26283   -26283   -26283   -26287 
  -26289   -26287   -26283   -26288   -26291   -26289   -26291   -26288 
  -26287   -26291   -26295   -26296   -26298   -26300   -26304   -26304 
  -26308   -26312   -26308   -26311   -26316   -26315   -26316   -26322 
  -26325   -26325   -26329   -26331   -26333   -26341   -26343   -26341 
  -26343   -26349   -26350   -26352   -26357   -26361   -26360   -26362 
  -26364   -26365   -26372   -26370   -26373   -26377   -26372   -26373 
  -26376   -26372   -26372   -26373   -26374   -26373   -26374   -26374 
  -26369   -26366   -26370   -26366   -26362   -26362   -26360   -26357 
  -26358   -26356   -26349   -26347   -26346   -26341   -26341   -26339 
  -26331   -26326   -26325   -26323   -26319   -26316   -26314   -26307 
  -26308   -26306   -26298   -26300   -26302   -26295   -26291   -26291 
  -26289   -26283   -26277   -26279   -26277   -26279   -26276   -26271 
  -26271   -26268   -26264   -26262   -26261   -26257   -26256   -26257 
  -26250   -26246   -26252   -26246   -26239   -26242   -26244   -26238 
  -26235   -26239   -26245   -26246   -26248   -26248   -26249   -26254 
  -26252   -26254   -26264   -26261   -26261   -26271   -26277   -26280 
  -26285   -26291   -26295   -26302   -26307   -26308   -26316   -26319 
  -26320   -26323   -26326   -26329   -26331   -26331   -26334   -26337 
  -26341   -26345   -26347   -26352   -26352   -26349   -26352   -26353 
  -26356   -26356   -26354   -26354   -26350   -26352   -26353   -26352 
  -26352   -26349   -26352   -26357   -26354   -26352   -26356   -26356 
  -26352   -26352   -26353   -26350   -26350   -26353   -26350   -26350 
  -26347   -26345   -26346   -26338   -26330   -26334   -26338   -26331 
  -26325   -26325   -26322   -26315   -26315   -26311   -26306   -26307 
  -26302   -26299   -26300   -26299   -26295   -26292   -26291   -26288 
  -26284   -26281   -26279   -26277   -26276   -26275   -26275   -26271 
  -26273   -26269   -26260   -26258   -26254   -26252   -26249   -26237 
  -26239   -26246   -26234   -26231   -26238   -26234   -26231   -26234 
  -26239   -26238   -26241   -26242   -26242   -26253   -26260   -26257 
  -26261   -26266   -26269   -26275   -26280   -26287   -26291   -26298 
  -26304   -26310   -26316   -26323   -26330   -26334   -26339   -26346 
  -26350   -26361   -26370   -26374   -26385   -26391   -26391   -26397 
  -26404   -26407   -26411   -26414   -26416   -26419   -26423   -26428 
  -26431   -26435   -26435   -26434   -26437   -26434   -26434   -26439 
  -26441   -26438   -26439   -26443   -26437   -26434   -26439   -26435 
  -26434   -26439   -26435   -26433   -26433   -26430   -26420   -26418 
  -26422   -26416   -26410   -26406   -26396   -26391   -26388   -26380 
  -26377   -26373   -26362   -26350   -26343   -26338   -26330   -26327 
  -26326   -26319   -26311   -26303   -26295   -26288   -26283   -26279 
  -26272   -26266   -26260   -26249   -26245   -26237   -26223   -26215 
  -26207   -26200   -26195   -26184   -26175   -26168   -26158   -26149 
  -26142   -26137   -26127   -26118   -26110   -26102   -26096   -26094 
  -26090   -26083   -26075   -26068   -26063   -26061   -26061   -26057 
  -26057   -26056   -26055   -26055   -26053   -26053   -26056   -26053 
  -26050   -26050   -26052   -26052   -26052   -26056   -26057   -26060 
  -26069   -26071   -26072   -26079   -26088   -26094   -26098   -26109 
  -26117   -26119   -26129   -26138   -26145   -26154   -26167   -26177 
  -26187   -26195   -26204   -26218   -26234   -26244   -26257   -26276 
  -26284   -26296   -26316   -26325   -26335   -26350   -26366   -26383 
  -26397   -26411   -26422   -26434   -26447   -26450   -26455   -26470 
  -26485   -26495   -26505   -26515   -26522   -26528   -26534   -26535 
  -26539   -26543   -26546   -26553   -26555   -26557   -26559   -26558 
  -26555   -26551   -26551   -26547   -26539   -26539   -26536   -26530 
  -26531   -26524   -26512   -26512   -26507   -26496   -26491   -26485 
  -26480   -26478   -26476   -26468   -26461   -26457   -26447   -26443 
  -26446   -26445   -26438   -26435   -26430   -26424   -26424   -26420 
  -26408   -26403   -26404   -26396   -26393   -26392   -26385   -26384 
  -26381   -26373   -26364   -26361   -26358   -26353   -26353   -26346 
  -26333   -26330   -26326   -26323   -26322   -26315   -26306   -26299 
  -26296   -26291   -26281   -26275   -26269   -26258   -26249   -26241 
  -26230   -26218   -26214   -26207   -26194   -26190   -26183   -26169 
  -26164   -26156   -26149   -26145   -26137   -26133   -26130   -26121 
  -26117   -26114   -26107   -26099   -26095   -26094   -26088   -26090 
  -26090   -26087   -26091   -26094   -26090   -26086   -26090   -26095 
  -26094   -26099   -26109   -26114   -26123   -26133   -26134   -26142 
  -26150   -26156   -26165   -26177   -26184   -26188   -26203   -26208 
  -26206   -26217   -26227   -26234   -26248   -26257   -26261   -26266 
  -26275   -26277   -26281   -26291   -26296   -26302   -26312   -26318 
  -26323   -26333   -26335   -26338   -26349   -26353   -26356   -26364 
  -26369   -26364   -26366   -26377   -26379   -26383   -26385   -26380 
  -26384   -26388   -26383   -26383   -26388   -26388   -26385   -26389 
  -26388   -26384   -26385   -26383   -26379   -26379   -26380   -26383 
  -26383   -26383   -26380   -26374   -26379   -26376   -26369   -26372 
  -26370   -26365   -26365   -26364   -26362   -26361   -26361   -26360 
  -26354   -26357   -26356   -26350   -26350   -26345   -26341   -26341 
  -26335   -26333   -26335   -26334   -26330   -26327   -26329   -26325 
  -26322   -26323   -26322   -26322   -26322   -26318   -26318   -26320 
  -26322   -26319   -26322   -26329   -26330   -26333   -26337   -26339 
  -26342   -26341   -26339   -26343   -26347   -26353   -26358   -26361 
  -26365   -26364   -26362   -26364   -26365   -26372   -26373   -26370 
  -26372   -26372   -26368   -26366   -26368   -26368   -26373   -26379 
  -26376   -26377   -26374   -26368   -26373   -26379   -26377   -26377 
  -26376   -26376   -26370   -26366   -26368   -26364   -26362   -26364 
  -26360   -26357   -26353   -26350   -26345   -26338   -26338   -26337 
  -26329   -26322   -26318   -26311   -26302   -26293   -26284   -26276 
  -26266   -26256   -26254   -26246   -26227   -26223   -26218   -26202 
  -26195   -26187   -26177   -26179   -26179   -26176   -26171   -26167 
  -26164   -26160   -26163   -26163   -26160   -26164   -26163   -26160 
  -26160   -26158   -26158   -26164   -26172   -26172   -26176   -26187 
  -26187   -26188   -26192   -26190   -26191   -26198   -26200   -26208 
  -26219   -26219   -26219   -26225   -26223   -26219   -26227   -26235 
  -26238   -26246   -26252   -26248   -26248   -26249   -26250   -26252 
  -26260   -26269   -26271   -26269   -26272   -26277   -26285   -26289 
  -26291   -26295   -26299   -26300   -26303   -26311   -26314   -26316 
  -26320   -26320   -26322   -26325   -26325   -26330   -26334   -26335 
  -26339   -26331   -26325   -26325   -26323   -26325   -26320   -26315 
  -26316   -26311   -26300   -26295   -26293   -26287   -26280   -26284 
  -26277   -26266   -26261   -26250   -26245   -26246   -26244   -26237 
  -26235   -26231   -26222   -26222   -26223   -26221   -26226   -26231 
  -26226   -26227   -26230   -26233   -26241   -26245   -26249   -26260 
  -26269   -26275   -26279   -26285   -26293   -26300   -26314   -26320 
  -26323   -26334   -26342   -26345   -26353   -26365   -26372   -26380 
  -26388   -26387   -26384   -26393   -26399   -26404   -26408   -26411 
  -26414   -26411   -26410   -26411   -26412   -26414   -26410   -26410 
  -26411   -26404   -26399   -26399   -26396   -26392   -26391   -26392 
  -26388   -26384   -26384   -26377   -26376   -26379   -26374   -26379 
  -26383   -26381   -26379   -26377   -26377   -26379   -26383   -26387 
  -26388   -26392   -26389   -26388   -26399   -26403   -26400   -26404 
  -26408   -26407   -26410   -26415   -26412   -26414   -26426   -26424 
  -26415   -26418   -26423   -26426   -26424   -26420   -26416   -26414 
  -26411   -26406   -26404   -26401   -26393   -26393   -26393   -26380 
  -26376   -26379   -26376   -26370   -26372   -26370   -26358   -26356 
  -26357   -26346   -26337   -26329   -26320   -26319   -26315   -26310 
  -26306   -26298   -26289   -26283   -26277   -26273   -26266   -26264 
  -26258   -26249   -26244   -26238   -26229   -26226   -26230   -26227 
  -26219   -26214   -26208   -26204   -26208   -26210   -26207   -26206 
  -26206   -26204   -26203   -26204   -26202   -26199   -26203   -26202 
  -26199   -26204   -26206   -26203   -26203   -26200   -26199   -26200 
  -26203   -26199   -26195   -26198   -26204   -26208   -26204   -26194 
  -26196   -26207   -26208   -26206   -26208   -26221   -26225   -26219 
  -26225   -26237   -26245   -26245   -26238   -26244   -26258   -26266 
  -26268   -26269   -26280   -26293   -26299   -26295   -26293   -26302 
  -26307   -26306   -26311   -26320   -26320   -26315   -26316   -26319 
  -26320   -26325   -26326   -26327   -26330   -26326   -26323   -26322 
  -26312   -26314   -26323   -26320   -26315   -26314   -26315   -26310 
  -26308   -26308   -26307   -26311   -26308   -26298   -26302   -26308 
  -26303   -26302   -26307   -26310   -26311   -26315   -26318   -26315 
  -26318   -26320   -26316   -26319   -26326   -26327   -26331   -26338 
  -26335   -26333   -26341   -26341   -26337   -26346   -26347   -26343 
  -26352   -26352   -26347   -26350   -26353   -26346   -26345   -26352 
  -26350   -26346   -26352   -26354   -26356   -26360   -26360   -26360 
  -26360   -26356   -26354   -26353   -26353   -26350   -26352   -26356 
  -26354   -26353   -26347   -26345   -26345   -26343   -26353   -26356 
  -26352   -26356   -26358   -26357   -26356   -26357   -26360   -26362 
  -26361   -26358   -26354   -26357   -26358   -26352   -26352   -26353 
  -26349   -26346   -26346   -26346   -26345   -26346   -26342   -26339 
  -26338   -26333   -26330   -26325   -26318   -26318   -26312   -26306 
  -26306   -26300   -26291   -26288   -26284   -26273   -26264   -26265 
  -26260   -26254   -26254   -26246   -26239   -26237   -26225   -26222 
  -26223   -26218   -26218   -26218   -26210   -26200   -26203   -26206 
  -26200   -26200   -26204   -26200   -26198   -26198   -26200   -26203 
  -26204   -26206   -26203   -26207   -26210   -26204   -26208   -26214 
  -26215   -26223   -26229   -26233   -26237   -26237   -26238   -26241 
  -26249   -26254   -26257   -26264   -26273   -26281   -26288   -26288 
  -26291   -26296   -26303   -26311   -26319   -26329   -26335   -26338 
  -26342   -26347   -26352   -26360   -26372   -26383   -26388   -26396 
  -26400   -26399   -26400   -26400   -26408   -26422   -26427   -26431 
  -26431   -26424   -26424   -26428   -26431   -26437   -26441   -26435 
  -26433   -26438   -26433   -26431   -26439   -26437   -26433   -26435 
  -26431   -26431   -26434   -26431   -26427   -26428   -26428   -26422 
  -26424   -26430   -26420   -26415   -26414   -26406   -26407   -26407 
  -26399   -26397   -26396   -26391   -26384   -26379   -26374   -26370 
  -26365   -26356   -26350   -26350   -26347   -26345   -26341   -26333 
  -26326   -26318   -26315   -26315   -26312   -26315   -26314   -26306 
  -26302   -26298   -26292   -26293   -26300   -26299   -26293   -26292 
  -26284   -26276   -26283   -26287   -26285   -26287   -26283   -26275 
  -26271   -26273   -26277   -26281   -26291   -26288   -26273   -26266 
  -26260   -26260   -26268   -26272   -26279   -26283   -26279   -26266 
  -26256   -26257   -26262   -26269   -26275   -26271   -26264   -26261 
  -26256   -26249   -26249   -26254   -26256   -26254   -26248   -26244 
  -26239   -26235   -26234   -26234   -26234   -26234   -26233   -26226 
  -26218   -26207   -26207   -26208   -26207   -26211   -26208   -26199 
  -26191   -26187   -26184   -26176   -26176   -26181   -26176   -26171 
  -26169   -26163   -26158   -26154   -26156   -26163   -26161   -26160 
  -26158   -26152   -26145   -26145   -26153   -26158   -26164   -26168 
  -26160   -26156   -26164   -26167   -26173   -26192   -26206   -26206 
  -26207   -26207   -26204   -26211   -26225   -26235   -26250   -26264 
  -26268   -26268   -26271   -26285   -26298   -26311   -26326   -26333 
  -26346   -26360   -26361   -26376   -26397   -26410   -26423   -26438 
  -26446   -26453   -26466   -26476   -26485   -26504   -26514   -26514 
  -26526   -26538   -26539   -26547   -26558   -26557   -26561   -26573 
  -26573   -26565   -26562   -26559   -26555   -26554   -26555   -26561 
  -26561   -26555   -26542   -26518   -26504   -26501   -26499   -26497 
  -26492   -26478   -26462   -26445   -26426   -26410   -26393   -26387 
  -26389   -26384   -26368   -26360   -26345   -26316   -26304   -26296 
  -26283   -26277   -26279   -26281   -26277   -26265   -26253   -26245 
  -26239   -26234   -26234   -26241   -26241   -26238   -26239   -26233 
  -26227   -26231   -26235   -26234   -26238   -26244   -26241   -26241 
  -26250   -26252   -26252   -26253   -26249   -26245   -26250   -26253 
  -26250   -26254   -26258   -26248   -26248   -26254   -26249   -26250 
  -26258   -26260   -26260   -26262   -26257   -26256   -26265   -26273 
  -26269   -26272   -26275   -26264   -26268   -26288   -26298   -26299 
  -26299   -26295   -26291   -26300   -26312   -26320   -26330   -26337 
  -26338   -26343   -26346   -26347   -26356   -26354   -26353   -26362 
  -26369   -26369   -26369   -26377   -26376   -26368   -26370   -26372 
  -26369   -26374   -26380   -26374   -26369   -26365   -26361   -26361 
  -26369   -26369   -26361   -26358   -26349   -26339   -26338   -26339 
  -26337   -26330   -26323   -26314   -26307   -26300   -26295   -26296 
  -26296   -26287   -26280   -26272   -26264   -26260   -26260   -26258 
  -26254   -26254   -26250   -26239   -26235   -26231   -26226   -26231 
  -26233   -26231   -26233   -26227   -26217   -26212   -26217   -26223 
  -26227   -26230   -26229   -26226   -26221   -26215   -26214   -26215 
  -26226   -26234   -26234   -26237   -26231   -26226   -26229   -26233 
  -26239   -26253   -26264   -26260   -26253   -26261   -26268   -26265 
  -26276   -26289   -26296   -26302   -26299   -26300   -26310   -26311 
  -26316   -26330   -26335   -26335   -26341   -26342   -26341   -26352 
  -26362   -26366   -26374   -26379   -26379   -26380   -26383   -26388 
  -26393   -26399   -26403   -26404   -26410   -26406   -26396   -26397 
  -26400   -26400   -26401   -26404   -26403   -26396   -26389   -26381 
  -26372   -26368   -26362   -26356   -26356   -26346   -26334   -26330 
  -26327   -26316   -26311   -26311   -26303   -26295   -26291   -26280 
  -26273   -26271   -26261   -26260   -26262   -26260   -26257   -26257 
  -26250   -26238   -26238   -26245   -26242   -26249   -26257   -26252 
  -26242   -26241   -26242   -26241   -26248   -26260   -26261   -26261 
  -26264   -26260   -26264   -26271   -26273   -26280   -26283   -26281 
  -26284   -26288   -26289   -26292   -26299   -26302   -26307   -26318 
  -26318   -26316   -26320   -26323   -26326   -26331   -26339   -26343 
  -26345   -26352   -26353   -26350   -26361   -26368   -26366   -26373 
  -26379   -26374   -26376   -26380   -26379   -26381   -26385   -26380 
  -26381   -26389   -26392   -26397   -26400   -26391   -26383   -26381 
  -26381   -26383   -26391   -26395   -26388   -26381   -26377   -26374 
  -26376   -26376   -26374   -26373   -26368   -26361   -26354   -26354 
  -26358   -26364   -26368   -26360   -26353   -26353   -26346   -26342 
  -26349   -26352   -26349   -26350   -26353   -26343   -26341   -26343 
  -26337   -26339   -26343   -26335   -26334   -26334   -26331   -26330 
  -26327   -26325   -26314   -26307   -26311   -26308   -26303   -26303 
  -26298   -26287   -26284   -26281   -26276   -26277   -26275   -26261 
  -26256   -26253   -26244   -26246   -26252   -26246   -26246   -26244 
  -26234   -26230   -26231   -26234   -26237   -26239   -26238   -26233 
  -26234   -26233   -26234   -26245   -26248   -26250   -26256   -26250 
  -26245   -26254   -26269   -26275   -26281   -26291   -26287   -26283 
  -26289   -26293   -26293   -26304   -26312   -26310   -26312   -26311 
  -26299   -26300   -26307   -26303   -26308   -26314   -26308   -26306 
  -26308   -26304   -26300   -26299   -26296   -26300   -26304   -26300 
  -26296   -26300   -26302   -26298   -26295   -26289   -26292   -26299 
  -26303   -26307   -26311   -26311   -26306   -26304   -26307   -26306 
  -26311   -26312   -26312   -26315   -26314   -26312   -26312   -26312 
  -26316   -26314   -26311   -26314   -26312   -26315   -26322   -26323 
  -26320   -26320   -26320   -26318   -26314   -26315   -26319   -26323 
  -26329   -26326   -26318   -26319   -26323   -26322   -26326   -26331 
  -26331   -26335   -26337   -26331   -26337   -26343   -26342   -26345 
  -26349   -26349   -26352   -26353   -26356   -26358   -26364   -26364 
  -26360   -26362   -26364   -26364   -26370   -26370   -26370   -26373 
  -26372   -26369   -26369   -26374   -26376   -26376   -26380   -26377 
  -26370   -26372   -26373   -26373   -26373   -26372   -26365   -26361 
  -26365   -26358   -26356   -26360   -26353   -26349   -26343   -26333 
  -26330   -26329   -26327   -26325   -26320   -26316   -26307   -26303 
  -26306   -26298   -26293   -26296   -26292   -26291   -26295   -26289 
  -26281   -26284   -26285   -26279   -26280   -26281   -26279   -26283 
  -26284   -26281   -26280   -26280   -26279   -26280   -26284   -26285 
  -26288   -26295   -26295   -26295   -26302   -26302   -26302   -26310 
  -26312   -26311   -26319   -26325   -26322   -26325   -26333   -26339 
  -26342   -26341   -26342   -26350   -26354   -26357   -26360   -26360 
  -26361   -26362   -26369   -26374   -26373   -26383   -26389   -26387 
  -26392   -26396   -26399   -26406   -26408   -26408   -26410   -26414 
  -26418   -26415   -26419   -26427   -26427   -26428   -26431   -26428 
  -26431   -26438   -26433   -26431   -26441   -26438   -26435   -26438 
  -26434   -26428   -26428   -26424   -26422   -26416   -26410   -26407 
  -26399   -26400   -26397   -26387   -26384   -26377   -26370   -26369 
  -26360   -26354   -26357   -26353   -26345   -26338   -26334   -26325 
  -26319   -26326   -26322   -26311   -26310   -26311   -26307   -26303 
