Origin Time       2025/01/13 21:19:00
Lat.              31.8
Long.             131.6
Depth. (km)       30
Mag.              6.9
Station Code      MIEH03
Station Lat.      34.5470
Station Long.     136.3692
Station Height(m) 280
Record Time       2025/01/13 21:22:26
Sampling Freq(Hz) 100Hz
Duration Time(s)  120
Dir.              4
Scale Factor      7845(gal)/8223790
Max. Acc. (gal)   0.142
Last Correction   2025/01/13 21:22:28
Memo.             
[...]
    1075     1077     1075     1071     1066     1059     1054     1055 
    1061     1066     1069     1069     1061     1050     1039     1032 
    1036     1039     1040     1047     1046     1038     1038     1032 
    1023     1020     1026     1032     1042     1043     1040     1040 
    1038     1032     1034     1036     1040     1046     1046     1042 
    1042     1040     1040     1046     1053     1059     1065     1066 
    1062     1058     1058     1059     1059     1065     1073     1074 
    1075     1073     1066     1061     1062     1066     1073     1082 
    1088     1086     1080     1075     1074     1075     1077     1081 
    1089     1092     1092     1093     1090     1085     1081     1078 
    1080     1082     1086     1090     1090     1090     1092     1096 
    1097     1094     1090     1086     1086     1093     1102     1112 
    1120     1123     1119     1116     1113     1109     1104     1100 
    1098     1100     1100     1100     1100     1098     1100     1102 
    1104     1104     1100     1094     1089     1081     1078     1082 
    1089     1096     1105     1111     1104     1097     1092     1086 
    1084     1084     1088     1093     1100     1105     1105     1102 
    1098     1093     1088     1089     1092     1096     1101     1107 
    1111     1112     1111     1105     1101     1097     1100     1108 
    1115     1121     1129     1132     1132     1127     1115     1104 
    1098     1098     1101     1105     1108     1111     1112     1109 
    1107     1107     1108     1105     1105     1109     1107     1101 
    1100     1101     1097     1096     1098     1100     1096     1090 
    1085     1082     1081     1080     1078     1078     1075     1071 
    1066     1059     1055     1057     1059     1063     1070     1073 
    1070     1066     1059     1051     1046     1046     1053     1059 
    1065     1069     1069     1063     1061     1061     1065     1067 
    1067     1073     1077     1075     1073     1074     1074     1075 
    1075     1077     1078     1075     1071     1073     1078     1082 
    1086     1092     1096     1097     1096     1096     1100     1104 
    1101     1102     1111     1117     1120     1123     1123     1121 
    1124     1127     1129     1135     1136     1135     1138     1142 
    1146     1148     1147     1146     1146     1144     1146     1146 
    1148     1152     1151     1150     1146     1143     1143     1143 
    1144     1146     1146     1144     1140     1136     1136     1136 
    1136     1136     1139     1140     1138     1131     1123     1115 
    1111     1111     1112     1116     1119     1119     1120     1116 
    1105     1097     1089     1086     1086     1085     1084     1085 
    1082     1075     1069     1066     1065     1061     1058     1058 
    1059     1059     1058     1053     1046     1043     1046     1048 
    1051     1050     1050     1053     1050     1043     1040     1035 
    1032     1036     1040     1040     1035     1030     1030     1032 
    1035     1039     1040     1039     1036     1034     1030     1024 
    1023     1023     1024     1027     1031     1031     1031     1028 
    1027     1024     1020     1019     1017     1013     1013     1020 
    1021     1024     1026     1021     1017     1015     1015     1012 
    1009     1012     1015     1015     1013     1009     1004     1000 
    1001     1004     1003     1004     1005     1005     1004     1005 
    1008     1013     1017     1021     1023     1024     1024     1021 
    1017     1019     1024     1032     1036     1040     1044     1046 
    1046     1046     1044     1044     1047     1054     1063     1070 
    1071     1070     1073     1073     1075     1082     1088     1094 
    1102     1108     1115     1121     1124     1127     1128     1131 
    1136     1140     1144     1146     1147     1154     1161     1163 
    1170     1173     1167     1162     1165     1167     1167     1167 
    1169     1174     1175     1173     1171     1170     1165     1161 
    1162     1165     1162     1158     1159     1159     1154     1150 
    1148     1146     1142     1138     1138     1139     1136     1134 
    1135     1135     1135     1135     1134     1131     1125     1120 
    1116     1113     1113     1115     1117     1124     1132     1136 
    1131     1117     1107     1101     1097     1100     1111     1123 
    1128     1128     1124     1120     1116     1112     1111     1116 
    1119     1121     1123     1123     1123     1121     1119     1121 
    1125     1121     1116     1115     1111     1107     1109     1115 
    1120     1125     1128     1128     1124     1117     1108     1100 
    1100     1104     1111     1113     1113     1111     1109     1104 
    1098     1094     1092     1094     1096     1098     1102     1104 
    1102     1100     1094     1088     1084     1080     1082     1088 
    1092     1097     1100     1097     1096     1097     1096     1097 
    1101     1098     1096     1100     1101     1100     1102     1107 
    1112     1119     1119     1116     1113     1109     1108     1115 
    1119     1121     1132     1139     1142     1144     1143     1139 
    1135     1136     1140     1151     1162     1166     1167     1167 
    1163     1162     1159     1155     1159     1163     1169     1179 
    1186     1185     1183     1182     1178     1175     1174     1174 
    1179     1183     1183     1182     1175     1171     1171     1169 
    1171     1178     1177     1170     1167     1163     1154     1148 
    1147     1147     1147     1143     1139     1128     1119     1116 
    1113     1108     1105     1105     1105     1102     1098     1089 
    1075     1065     1059     1057     1054     1051     1050     1043 
    1038     1036     1031     1026     1023     1019     1011     1007 
    1000      993      988      986      989      992      989      982 
     980      977      972      972      974      977      982      988 
     989      992      994      994      993      993      994      999 
    1005     1009     1012     1019     1027     1031     1031     1031 
    1030     1027     1026     1030     1035     1038     1040     1046 
    1050     1053     1055     1054     1050     1044     1047     1050 
    1050     1054     1061     1066     1070     1073     1073     1071 
    1073     1078     1085     1089     1097     1104     1102     1101 
    1101     1102     1104     1107     1111     1113     1116     1120 
    1123     1124     1121     1120     1121     1123     1121     1119 
    1120     1124     1125     1132     1140     1142     1143     1142 
    1136     1135     1142     1148     1152     1158     1165     1169 
    1163     1156     1155     1155     1155     1159     1166     1169 
    1173     1175     1175     1178     1179     1175     1175     1178 
    1179     1182     1185     1183     1188     1193     1197     1201 
    1202     1201     1201     1202     1201     1200     1202     1205 
    1208     1209     1209     1204     1200     1197     1190     1185 
    1185     1185     1181     1179     1182     1182     1177     1170 
    1165     1156     1148     1144     1144     1146     1146     1146 
    1147     1148     1150     1148     1140     1131     1128     1125 
    1121     1123     1127     1129     1132     1134     1131     1125 
    1121     1121     1123     1121     1121     1123     1124     1123 
    1125     1129     1127     1120     1116     1116     1115     1113 
    1115     1119     1123     1127     1129     1135     1135     1128 
    1125     1124     1119     1121     1128     1132     1132     1135 
    1134     1128     1123     1120     1117     1117     1120     1123 
    1127     1124     1119     1117     1116     1112     1111     1109 
    1108     1105     1101     1100     1100     1098     1097     1098 
    1097     1092     1088     1085     1080     1074     1070     1066 
    1066     1069     1066     1067     1069     1065     1062     1061 
    1055     1050     1046     1047     1051     1053     1051     1050 
    1050     1050     1050     1050     1051     1048     1048     1051 
    1048     1044     1044     1046     1047     1050     1051     1053 
    1051     1047     1044     1044     1042     1039     1039     1038 
    1035     1032     1031     1027     1026     1028     1028     1026 
    1026     1027     1026     1026     1028     1032     1035     1038 
    1038     1035     1038     1043     1047     1051     1058     1065 
    1070     1074     1075     1074     1077     1082     1089     1094 
    1101     1105     1104     1102     1105     1108     1111     1117 
    1128     1135     1139     1140     1142     1144     1147     1151 
    1158     1165     1170     1178     1185     1186     1189     1192 
    1186     1185     1193     1198     1202     1206     1213     1219 
    1217     1213     1212     1206     1198     1194     1196     1196 
    1194     1192     1189     1192     1192     1186     1179     1174 
    1165     1161     1158     1154     1152     1152     1151     1150 
    1150     1148     1144     1140     1138     1136     1134     1134 
    1135     1135     1138     1139     1139     1138     1135     1134 
    1136     1139     1140     1144     1148     1150     1147     1144 
    1147     1151     1151     1156     1165     1166     1165     1165 
    1165     1163     1165     1166     1163     1163     1165     1162 
    1159     1162     1166     1167     1167     1169     1166     1154 
    1144     1146     1147     1144     1146     1150     1150     1146 
    1140     1136     1128     1123     1121     1123     1124     1123 
    1119     1113     1109     1105     1101     1094     1090     1092 
    1090     1086     1084     1077     1066     1059     1054     1053 
    1051     1047     1043     1036     1031     1026     1020     1019 
    1020     1017     1012     1008     1001      994      990      989 
     990      990      986      985      985      980      976      974 
     970      967      970      970      972      973      972      972 
     976      980      980      984      989      992      993      999 
    1007     1011     1011     1017     1026     1030     1035     1038 
    1038     1043     1050     1054     1061     1067     1071     1075 
    1086     1093     1097     1104     1108     1109     1113     1120 
    1124     1129     1138     1146     1151     1158     1162     1162 
    1163     1167     1171     1175     1182     1188     1192     1192 
    1190     1193     1196     1200     1201     1198     1197     1197 
    1196     1200     1202     1204     1206     1208     1206     1204 
    1198     1190     1182     1178     1181     1185     1186     1190 
    1192     1188     1182     1174     1165     1161     1161     1162 
    1163     1163     1161     1155     1154     1150     1146     1143 
    1142     1139     1138     1136     1136     1136     1135     1129 
    1124     1119     1115     1113     1117     1119     1120     1124 
    1124     1119     1120     1120     1113     1112     1113     1109 
    1108     1109     1109     1112     1113     1111     1105     1101 
    1097     1094     1097     1094     1090     1089     1088     1085 
    1082     1082     1085     1086     1084     1078     1071     1065 
    1062     1065     1067     1070     1073     1073     1070     1065 
    1057     1051     1047     1046     1050     1054     1057     1061 
    1065     1065     1063     1059     1059     1062     1066     1069 
    1069     1069     1070     1071     1071     1075     1085     1092 
    1097     1097     1097     1097     1097     1096     1101     1107 
    1109     1112     1121     1128     1128     1128     1125     1124 
    1128     1132     1136     1144     1151     1158     1159     1161 
    1162     1163     1166     1169     1173     1175     1177     1182 
    1186     1188     1189     1192     1189     1188     1190     1189 
    1188     1188     1188     1188     1190     1189     1186     1182 
    1178     1177     1174     1173     1173     1170     1163     1163 
    1161     1155     1154     1154     1147     1142     1139     1136 
    1132     1128     1125     1125     1124     1120     1115     1112 
    1108     1101     1094     1089     1084     1080     1077     1073 
    1067     1066     1067     1065     1059     1057     1055     1050 
    1043     1040     1042     1044     1047     1046     1047     1046 
    1042     1038     1038     1035     1034     1034     1035     1036 
    1038     1042     1044     1042     1043     1046     1044     1046 
    1047     1043     1044     1048     1050     1053     1059     1061 
    1057     1054     1053     1051     1053     1057     1059     1062 
    1063     1065     1065     1065     1063     1063     1065     1062 
    1059     1058     1058     1059     1061     1063     1066     1073 
    1077     1077     1074     1075     1078     1078     1080     1084 
    1088     1093     1096     1098     1102     1105     1111     1119 
    1127     1134     1140     1144     1146     1148     1150     1151 
    1155     1162     1167     1173     1178     1179     1178     1179 
    1181     1183     1188     1192     1198     1206     1210     1210 
    1212     1216     1215     1215     1220     1225     1228     1233 
    1235     1235     1239     1242     1242     1240     1239     1239 
    1242     1243     1246     1250     1252     1254     1255     1254 
    1251     1248     1247     1250     1252     1254     1251     1246 
    1242     1240     1237     1233     1232     1231     1229     1232 
    1231     1227     1227     1224     1217     1212     1209     1206 
    1198     1196     1197     1192     1189     1192     1190     1185 
    1181     1178     1175     1171     1165     1159     1155     1156 
    1158     1159     1162     1161     1155     1147     1138     1132 
    1128     1125     1128     1134     1135     1135     1134     1125 
    1115     1107     1102     1104     1108     1111     1112     1111 
    1105     1100     1097     1098     1096     1092     1093     1093 
    1090     1090     1092     1088     1085     1086     1088     1092 
    1092     1086     1085     1085     1084     1084     1088     1086 
    1082     1084     1084     1078     1074     1078     1081     1085 
    1092     1094     1094     1097     1097     1098     1100     1097 
    1098     1104     1108     1111     1115     1120     1123     1124 
    1125     1124     1124     1128     1132     1135     1139     1142 
    1140     1138     1136     1134     1135     1138     1139     1140 
    1138     1135     1129     1121     1115     1115     1112     1109 
    1111     1111     1105     1098     1094     1090     1086     1085 
    1084     1084     1085     1084     1081     1077     1073     1073 
    1075     1075     1075     1077     1075     1071     1070     1069 
    1066     1065     1065     1063     1063     1065     1062     1058 
    1059     1061     1062     1063     1063     1063     1062     1062 
    1061     1059     1058     1057     1061     1062     1061     1062 
    1061     1059     1062     1062     1062     1066     1069     1070 
    1073     1074     1077     1078     1080     1080     1082     1086 
    1090     1094     1094     1097     1102     1107     1109     1112 
    1115     1119     1120     1121     1125     1131     1132     1134 
    1138     1142     1143     1146     1148     1150     1150     1152 
    1155     1158     1158     1159     1162     1166     1170     1170 
    1167     1169     1170     1171     1173     1177     1179     1181 
    1185     1186     1183     1179     1181     1179     1178     1179 
    1183     1183     1185     1186     1182     1177     1177     1179 
    1179     1182     1179     1177     1174     1169     1166     1166 
    1163     1163     1165     1165     1162     1161     1158     1150 
    1147     1147     1146     1147     1151     1150     1144     1142 
    1140     1134     1132     1138     1136     1138     1142     1138 
    1132     1131     1128     1125     1127     1129     1129     1128 
    1127     1124     1121     1123     1125     1127     1128     1127 
    1123     1121     1117     1112     1109     1111     1111     1113 
    1116     1113     1111     1112     1112     1109     1107     1102 
    1102     1102     1101     1100     1100     1100     1100     1098 
    1094     1090     1089     1088     1086     1088     1088     1088 
    1088     1086     1082     1084     1084     1080     1077     1077 
    1080     1080     1077     1077     1078     1075     1071     1070 
    1069     1066     1069     1069     1070     1071     1069     1066 
    1062     1058     1057     1058     1061     1065     1067     1066 
    1067     1069     1065     1062     1065     1067     1067     1070 
    1073     1073     1075     1078     1080     1085     1088     1090 
    1093     1093     1090     1089     1089     1092     1094     1096 
    1100     1105     1107     1107     1107     1108     1108     1108 
    1108     1109     1112     1113     1115     1117     1116     1115 
    1116     1115     1111     1113     1116     1112     1111     1109 
    1104     1101     1100     1098     1098     1097     1098     1098 
    1094     1092     1090     1086     1085     1086     1082     1080 
    1080     1075     1070     1067     1069     1067     1067     1070 
    1069     1069     1071     1070     1067     1065     1063     1063 
    1063     1065     1066     1066     1063     1067     1073     1074 
    1073     1075     1080     1081     1084     1085     1085     1088 
    1089     1090     1093     1094     1094     1097     1100     1101 
    1104     1105     1102     1102     1105     1105     1105     1108 
    1109     1108     1108     1108     1109     1113     1116     1113 
    1113     1116     1116     1117     1117     1117     1117     1119 
    1121     1127     1128     1128     1129     1128     1125     1124 
    1124     1124     1123     1127     1134     1135     1134     1135 
    1135     1134     1132     1131     1131     1132     1134     1132 
    1129     1132     1135     1134     1132     1132     1129     1124 
    1123     1121     1121     1123     1125     1124     1120     1123 
    1124     1121     1115     1111     1111     1109     1107     1105 
    1109     1113     1112     1111     1109     1107     1102     1098 
    1097     1096     1096     1096     1093     1093     1090     1085 
    1081     1078     1074     1073     1073     1069     1066     1062 
    1061     1059     1055     1051     1048     1046     1043     1042 
    1039     1038     1038     1038     1036     1034     1031     1030 
    1027     1021     1017     1015     1013     1009     1007     1007 
    1007     1007     1007     1003      996      993      994      992 
     989      990      988      985      986      986      982      981 
     984      984      986      992      992      992      992      989 
     988      990      993      997     1003     1007     1008     1009 
    1009     1009     1011     1015     1021     1030     1035     1039 
    1040     1043     1046     1046     1051     1059     1066     1071 
