Origin Time       2025/01/13 21:19:00
Lat.              31.8
Long.             131.6
Depth. (km)       30
Mag.              6.9
Station Code      MIEH10
Station Lat.      34.8224
Station Long.     136.4245
Station Height(m) -122
Record Time       2025/01/13 21:22:26
Sampling Freq(Hz) 100Hz
Duration Time(s)  120
Dir.              1
Scale Factor      2942(gal)/8224139
Max. Acc. (gal)   0.186
Last Correction   2025/01/13 21:22:28
Memo.             
[...]
  104819   104811   104803   104793   104782   104773   104765   104755 
  104746   104738   104731   104722   104715   104708   104699   104691 
  104683   104673   104664   104660   104653   104645   104639   104634 
  104627   104623   104619   104616   104618   104620   104619   104620 
  104623   104623   104623   104630   104634   104635   104637   104635 
  104638   104645   104643   104643   104647   104650   104654   104660 
  104662   104664   104669   104679   104688   104695   104704   104716 
  104726   104734   104741   104749   104758   104768   104772   104778 
  104789   104796   104801   104809   104818   104827   104836   104845 
  104853   104861   104869   104880   104885   104888   104893   104899 
  104901   104911   104919   104920   104922   104924   104924   104923 
  104922   104919   104916   104917   104915   104907   104899   104893 
  104888   104882   104874   104868   104863   104854   104841   104827 
  104816   104808   104800   104791   104787   104780   104769   104760 
  104749   104741   104735   104727   104718   104710   104699   104691 
  104689   104689   104683   104674   104672   104673   104674   104669 
  104662   104657   104657   104656   104649   104642   104641   104639 
  104637   104634   104631   104629   104627   104627   104627   104625 
  104625   104627   104629   104629   104626   104627   104635   104638 
  104639   104642   104645   104649   104654   104657   104661   104670 
  104681   104689   104699   104714   104726   104737   104747   104758 
  104770   104784   104793   104807   104822   104831   104839   104853 
  104866   104877   104889   104900   104912   104923   104932   104940 
  104949   104954   104959   104967   104977   104988   104993   104997 
  105004   105008   105009   105013   105015   105013   105016   105016 
  105011   105008   105005   105000   104993   104988   104977   104966 
  104959   104954   104949   104943   104938   104928   104920   104916 
  104916   104915   104909   104907   104905   104903   104899   104896 
  104895   104895   104895   104896   104899   104897   104899   104901 
  104907   104912   104916   104920   104923   104926   104931   104939 
  104946   104951   104959   104967   104973   104981   104992   105004 
  105015   105021   105028   105039   105050   105054   105057   105065 
  105074   105084   105088   105092   105100   105104   105106   105108 
  105111   105113   105117   105119   105117   105116   105115   105111 
  105106   105104   105100   105094   105088   105082   105074   105062 
  105050   105036   105024   105011   104990   104971   104957   104943 
  104927   104909   104892   104877   104861   104843   104826   104807 
  104791   104777   104760   104743   104733   104719   104703   104689 
  104674   104662   104652   104643   104633   104620   104612   104608 
  104598   104588   104581   104575   104572   104568   104560   104557 
  104556   104549   104545   104545   104545   104548   104553   104556 
  104561   104568   104573   104580   104588   104589   104596   104610 
  104618   104630   104645   104656   104669   104685   104697   104710 
  104727   104746   104761   104776   104793   104808   104824   104839 
  104853   104869   104885   104896   104905   104916   104930   104942 
  104954   104963   104974   104985   104994   105003   105012   105023 
  105030   105036   105044   105051   105061   105070   105077   105082 
  105088   105092   105094   105097   105098   105102   105105   105105 
  105106   105108   105105   105102   105105   105104   105101   105102 
  105098   105090   105084   105081   105081   105077   105073   105069 
  105062   105057   105050   105039   105030   105024   105015   105001 
  104986   104974   104967   104957   104940   104926   104912   104904 
  104892   104877   104866   104857   104843   104832   104826   104815 
  104803   104792   104782   104778   104769   104757   104747   104741 
  104735   104724   104714   104710   104710   104700   104691   104687 
  104679   104666   104661   104656   104652   104647   104641   104637 
  104634   104629   104622   104620   104623   104625   104618   104611 
  104608   104607   104606   104604   104604   104606   104600   104596 
  104600   104603   104598   104595   104596   104599   104602   104600 
  104598   104599   104600   104599   104603   104608   104607   104604 
  104610   104619   104622   104622   104625   104629   104631   104631 
  104631   104634   104641   104650   104660   104668   104676   104679 
  104680   104689   104701   104714   104726   104738   104754   104770 
  104781   104791   104800   104811   104824   104835   104843   104851 
  104859   104869   104878   104885   104893   104904   104908   104912 
  104920   104926   104927   104930   104934   104939   104943   104943 
  104942   104942   104939   104936   104939   104942   104938   104934 
  104932   104930   104920   104915   104915   104909   104903   104897 
  104893   104885   104874   104868   104866   104859   104849   104839 
  104834   104830   104823   104814   104803   104793   104784   104777 
  104772   104764   104749   104737   104728   104716   104707   104700 
  104687   104670   104660   104653   104646   104633   104612   104600 
  104593   104585   104576   104569   104562   104553   104550   104553 
  104545   104535   104538   104542   104539   104539   104544   104546 
  104549   104554   104561   104569   104576   104584   104595   104604 
  104615   104625   104633   104641   104650   104664   104680   104693 
  104703   104712   104727   104741   104755   104766   104772   104784 
  104800   104809   104816   104826   104835   104847   104857   104866 
  104878   104890   104901   104911   104920   104928   104936   104944 
  104954   104962   104966   104971   104980   104989   104994   104994 
  104994   104997   104997   104996   104994   104989   104982   104978 
  104976   104969   104959   104953   104949   104939   104931   104924 
  104911   104899   104892   104886   104878   104869   104862   104853 
  104841   104832   104826   104818   104815   104811   104801   104796 
  104791   104781   104774   104768   104761   104755   104753   104746 
  104739   104737   104730   104719   104716   104718   104714   104706 
  104699   104697   104700   104700   104697   104693   104691   104692 
  104693   104693   104691   104688   104689   104688   104685   104689 
  104691   104689   104689   104685   104681   104680   104677   104672 
  104668   104666   104660   104652   104650   104650   104645   104639 
  104639   104638   104634   104627   104626   104626   104626   104626 
  104619   104616   104619   104615   104611   104608   104606   104604 
  104604   104602   104596   104592   104592   104589   104585   104584 
  104585   104583   104577   104572   104568   104566   104562   104561 
  104557   104554   104553   104546   104544   104544   104539   104534 
  104530   104527   104523   104518   104518   104518   104514   104512 
  104512   104511   104510   104511   104510   104506   104504   104504 
  104503   104502   104500   104499   104495   104492   104491   104490 
  104491   104492   104492   104492   104494   104496   104500   104503 
  104503   104506   104511   104512   104514   104518   104523   104530 
  104533   104535   104542   104549   104552   104558   104568   104572 
  104576   104585   104593   104595   104600   104604   104602   104603 
  104610   104614   104616   104619   104622   104622   104623   104629 
  104631   104633   104641   104647   104652   104656   104657   104660 
  104666   104672   104676   104681   104684   104689   104697   104707 
  104710   104710   104712   104716   104720   104723   104727   104733 
  104738   104739   104743   104746   104747   104747   104750   104755 
  104761   104764   104765   104765   104766   104765   104761   104761 
  104765   104761   104751   104749   104747   104745   104741   104738 
  104734   104731   104728   104726   104724   104722   104719   104718 
  104715   104715   104714   104714   104716   104720   104719   104716 
  104719   104719   104719   104722   104726   104728   104731   104735 
  104741   104746   104750   104753   104761   104772   104781   104785 
  104789   104797   104803   104808   104816   104822   104827   104832 
  104834   104834   104838   104839   104839   104841   104845   104845 
  104842   104845   104847   104847   104849   104851   104854   104855 
  104859   104862   104861   104862   104865   104868   104870   104870 
  104869   104865   104866   104869   104866   104861   104859   104857 
  104854   104855   104853   104849   104850   104849   104846   104845 
  104842   104842   104843   104841   104834   104830   104828   104827 
  104822   104816   104816   104812   104807   104805   104801   104795 
  104792   104791   104787   104782   104780   104776   104772   104772 
  104769   104766   104765   104762   104760   104758   104755   104751 
  104753   104753   104749   104751   104751   104749   104751   104753 
  104751   104755   104758   104757   104755   104755   104757   104758 
  104760   104758   104758   104760   104760   104755   104753   104751 
  104746   104739   104733   104727   104724   104716   104708   104703 
  104695   104688   104685   104679   104670   104665   104657   104650 
  104643   104637   104634   104627   104623   104622   104618   104615 
  104615   104612   104612   104616   104618   104618   104620   104625 
  104627   104631   104635   104639   104647   104658   104665   104669 
  104674   104681   104688   104695   104704   104712   104716   104726 
  104734   104742   104749   104755   104760   104768   104774   104778 
  104781   104787   104795   104800   104800   104803   104807   104812 
  104818   104822   104826   104832   104834   104831   104835   104842 
  104845   104843   104843   104845   104847   104849   104845   104845 
  104847   104847   104847   104849   104850   104851   104849   104849 
  104850   104850   104850   104849   104846   104846   104850   104847 
  104846   104850   104853   104849   104847   104849   104847   104851 
  104861   104865   104865   104870   104869   104866   104870   104873 
  104872   104873   104873   104876   104874   104873   104873   104876 
  104877   104873   104868   104873   104876   104869   104866   104862 
  104857   104854   104851   104849   104842   104835   104827   104818 
  104812   104812   104804   104796   104795   104789   104780   104769 
  104765   104762   104754   104750   104749   104745   104739   104735 
  104733   104731   104730   104727   104724   104723   104723   104723 
  104726   104724   104719   104718   104718   104715   104715   104716 
  104712   104708   104708   104706   104699   104695   104693   104691 
  104688   104687   104689   104685   104677   104676   104679   104677 
  104676   104679   104681   104688   104689   104691   104699   104712 
  104720   104723   104728   104739   104751   104761   104770   104780 
  104792   104801   104808   104819   104831   104842   104850   104858 
  104868   104880   104888   104895   104904   104912   104922   104930 
  104932   104934   104936   104944   104953   104955   104954   104957 
  104959   104957   104955   104957   104962   104967   104970   104971 
  104974   104973   104974   104980   104986   104988   104988   104992 
  105001   105009   105013   105013   105016   105021   105024   105025 
  105028   105031   105032   105032   105034   105034   105030   105025 
  105024   105021   105019   105019   105017   105015   105009   105007 
  105005   105003   104996   104994   104994   104992   104990   104990 
  104989   104986   104981   104978   104976   104976   104977   104980 
  104978   104973   104970   104969   104963   104961   104959   104954 
  104951   104949   104944   104940   104934   104926   104920   104919 
  104917   104908   104896   104893   104886   104873   104865   104861 
  104851   104838   104824   104823   104818   104805   104793   104785 
  104776   104765   104757   104750   104741   104733   104724   104718 
  104714   104708   104701   104697   104691   104687   104687   104687 
  104685   104684   104687   104688   104687   104684   104685   104689 
  104691   104692   104693   104689   104684   104684   104684   104680 
  104672   104664   104661   104660   104652   104645   104641   104631 
  104622   104615   104607   104598   104584   104571   104564   104558 
  104545   104535   104535   104531   104519   104508   104506   104503 
  104498   104491   104485   104479   104476   104475   104472   104465 
  104461   104463   104460   104460   104463   104458   104454   104454 
  104456   104457   104457   104453   104453   104456   104454   104454 
  104454   104453   104454   104454   104460   104464   104465   104468 
  104471   104471   104477   104487   104490   104491   104496   104506 
  104514   104521   104527   104538   104548   104557   104571   104587 
  104596   104604   104616   104631   104645   104661   104679   104693 
  104707   104726   104737   104746   104764   104778   104792   104807 
  104820   104835   104851   104865   104878   104890   104903   104917 
  104931   104944   104959   104971   104984   104993   105003   105017 
  105030   105038   105047   105055   105067   105081   105089   105096 
  105106   105119   105127   105135   105146   105154   105159   105169 
  105178   105187   105200   105209   105213   105223   105235   105241 
  105246   105254   105260   105267   105275   105281   105282   105287 
  105295   105298   105301   105306   105305   105302   105302   105302 
  105302   105302   105301   105298   105294   105290   105290   105289 
  105281   105277   105277   105270   105264   105262   105256   105251 
  105247   105240   105235   105231   105227   105216   105202   105196 
  105192   105179   105166   105158   105144   105133   105124   105113 
  105101   105086   105070   105055   105043   105032   105020   105003 
  104984   104963   104947   104934   104922   104907   104889   104868 
  104849   104826   104807   104800   104781   104758   104747   104737 
  104716   104701   104688   104669   104654   104639   104626   104622 
  104610   104585   104575   104572   104561   104550   104544   104531 
  104514   104502   104498   104491   104479   104467   104456   104445 
  104436   104427   104415   104400   104390   104380   104364   104353 
  104355   104348   104332   104325   104321   104309   104301   104302 
  104303   104295   104282   104284   104286   104278   104279   104287 
  104290   104286   104290   104298   104299   104305   104313   104315 
  104328   104341   104348   104355   104365   104373   104379   104390 
  104406   104418   104429   104438   104445   104450   104457   104471 
  104484   104488   104491   104500   104511   104517   104523   104533 
  104537   104544   104554   104562   104566   104568   104573   104584 
  104591   104599   104606   104610   104614   104619   104627   104635 
  104638   104642   104649   104658   104670   104677   104679   104684 
  104693   104704   104718   104730   104738   104745   104754   104765 
  104777   104792   104807   104816   104826   104839   104850   104859 
  104870   104881   104896   104909   104919   104927   104940   104953 
  104961   104970   104984   104994   105005   105016   105024   105035 
  105046   105052   105061   105070   105077   105082   105086   105088 
  105093   105098   105101   105105   105111   105112   105111   105113 
  105113   105113   105113   105113   105115   105116   105113   105109 
  105106   105105   105104   105102   105102   105101   105094   105090 
  105093   105088   105078   105077   105074   105071   105066   105055 
  105047   105044   105038   105030   105020   105011   105003   104998 
  104990   104977   104961   104950   104943   104938   104931   104926 
  104913   104899   104893   104889   104881   104876   104872   104865 
  104858   104850   104846   104842   104839   104838   104835   104834 
  104834   104831   104831   104830   104826   104823   104822   104822 
  104826   104830   104828   104826   104822   104819   104820   104827 
  104828   104824   104822   104823   104822   104822   104819   104815 
  104812   104814   104809   104805   104807   104804   104799   104797 
  104795   104792   104792   104792   104788   104784   104781   104778 
  104776   104770   104768   104766   104760   104758   104758   104757 
  104755   104751   104745   104743   104743   104738   104734   104730 
  104726   104722   104718   104711   104703   104701   104700   104693 
  104685   104681   104676   104670   104666   104662   104656   104650 
  104649   104645   104639   104635   104633   104627   104627   104627 
  104622   104622   104623   104622   104618   104619   104625   104626 
  104623   104627   104633   104633   104637   104643   104645   104646 
  104649   104653   104657   104662   104665   104668   104676   104683 
  104687   104693   104700   104707   104715   104722   104726   104737 
  104743   104745   104751   104766   104777   104785   104795   104805 
  104815   104826   104838   104846   104855   104868   104881   104893 
  104907   104919   104931   104942   104949   104959   104973   104984 
  104992   105001   105009   105020   105028   105034   105044   105054 
  105059   105065   105075   105084   105085   105090   105098   105102 
  105108   105117   105125   105129   105132   105135   105136   105144 
  105154   105155   105156   105159   105159   105159   105160   105165 
  105165   105158   105152   105154   105152   105151   105150   105140 
  105136   105139   105135   105131   105125   105113   105105   105100 
  105092   105089   105085   105073   105061   105052   105043   105030 
  105020   105012   105001   104988   104976   104962   104947   104934 
  104922   104907   104895   104885   104874   104861   104847   104835 
  104824   104812   104799   104788   104774   104758   104747   104739 
  104724   104708   104697   104688   104674   104661   104649   104637 
  104623   104611   104603   104598   104587   104576   104565   104556 
  104552   104550   104539   104529   104523   104518   104512   104508 
  104506   104502   104495   104490   104485   104483   104480   104479 
  104480   104480   104475   104471   104475   104479   104480   104479 
  104483   104485   104484   104485   104490   104494   104495   104494 
  104494   104498   104506   104514   104519   104526   104534   104539 
  104544   104552   104560   104566   104575   104585   104596   104603 
  104608   104615   104626   104639   104646   104650   104660   104669 
  104679   104688   104699   104706   104704   104706   104716   104723 
  104727   104734   104738   104742   104747   104750   104753   104753 
  104753   104760   104768   104770   104770   104770   104769   104773 
  104776   104773   104772   104773   104772   104773   104773   104773 
  104770   104766   104769   104772   104766   104764   104769   104770 
  104773   104774   104772   104773   104777   104774   104773   104773 
  104773   104774   104772   104766   104768   104769   104768   104764 
  104761   104761   104758   104753   104749   104750   104753   104753 
  104755   104757   104754   104753   104757   104761   104761   104761 
  104758   104757   104760   104764   104768   104768   104768   104769 
  104772   104773   104772   104773   104777   104780   104778   104780 
