Origin Time       2025/01/13 21:19:00
Lat.              31.8
Long.             131.6
Depth. (km)       30
Mag.              6.9
Station Code      MIEH03
Station Lat.      34.5470
Station Long.     136.3692
Station Height(m) 280
Record Time       2025/01/13 21:22:26
Sampling Freq(Hz) 100Hz
Duration Time(s)  120
Dir.              5
Scale Factor      7845(gal)/8223790
Max. Acc. (gal)   0.100
Last Correction   2025/01/13 21:22:28
Memo.             
    1956     1956     1954     1950     1950     1950     1950     1953 
    1952     1948     1946     1946     1949     1954     1960     1962 
    1961     1958     1954     1949     1946     1945     1949     1952 
    1954     1956     1954     1950     1948     1949     1949     1948 
    1950     1958     1965     1968     1968     1961     1952     1946 
    1949     1953     1960     1966     1968     1964     1960     1954 
    1950     1953     1956     1957     1961     1965     1964     1962 
    1962     1957     1950     1952     1957     1961     1964     1969 
    1976     1981     1983     1979     1972     1968     1971     1975 
    1980     1985     1988     1987     1983     1975     1969     1965 
    1962     1962     1968     1976     1976     1966     1961     1958 
    1956     1953     1952     1949     1948     1949     1952     1954 
    1957     1957     1950     1942     1939     1938     1938     1941 
    1946     1950     1950     1949     1942     1937     1939     1945 
    1946     1949     1953     1956     1953     1950     1942     1934 
    1931     1933     1935     1939     1941     1942     1945     1944 
    1941     1941     1939     1938     1937     1938     1944     1946 
    1945     1945     1945     1941     1935     1930     1929     1934 
    1946     1958     1962     1960     1957     1949     1938     1941 
    1950     1964     1976     1979     1977     1975     1966     1964 
    1968     1971     1968     1971     1972     1965     1965     1966 
    1966     1966     1965     1961     1957     1949     1945     1950 
    1960     1966     1972     1972     1968     1962     1958     1958 
    1960     1964     1973     1980     1977     1972     1968     1965 
    1966     1973     1980     1981     1980     1973     1965     1960 
    1960     1962     1966     1972     1976     1973     1965     1960 
    1953     1946     1948     1953     1954     1954     1958     1961 
    1961     1958     1954     1949     1942     1941     1941     1942 
    1948     1960     1972     1975     1966     1953     1944     1939 
    1945     1958     1969     1975     1977     1976     1972     1964 
    1960     1957     1953     1953     1958     1962     1961     1961 
    1960     1957     1954     1950     1950     1950     1952     1958 
    1965     1965     1957     1948     1939     1931     1930     1937 
    1946     1954     1961     1961     1952     1941     1935     1937 
    1938     1937     1941     1946     1948     1950     1954     1952 
    1949     1949     1950     1956     1965     1971     1973     1975 
    1977     1980     1981     1983     1979     1975     1976     1976 
    1979     1987     1991     1987     1983     1983     1977     1971 
    1969     1969     1972     1980     1985     1987     1987     1987 
    1984     1984     1981     1973     1969     1968     1965     1968 
    1975     1976     1973     1973     1975     1973     1968     1964 
    1964     1964     1968     1969     1971     1972     1966     1961 
    1958     1956     1954     1957     1958     1956     1952     1946 
    1944     1942     1942     1941     1941     1944     1946     1948 
    1946     1945     1942     1941     1941     1941     1944     1946 
    1945     1942     1942     1944     1946     1949     1953     1956 
    1954     1956     1958     1956     1956     1960     1958     1956 
    1957     1958     1958     1960     1962     1964     1965     1965 
    1961     1957     1958     1961     1965     1968     1968     1971 
    1975     1973     1971     1965     1961     1960     1962     1969 
    1975     1976     1975     1969     1964     1960     1957     1957 
    1960     1964     1966     1968     1968     1968     1964     1960 
    1960     1960     1957     1961     1962     1958     1958     1956 
    1950     1950     1950     1953     1960     1966     1971     1968 
    1964     1960     1958     1956     1960     1964     1964     1968 
    1972     1969     1964     1960     1956     1949     1948     1952 
    1954     1956     1960     1960     1957     1958     1964     1965 
    1965     1964     1965     1965     1965     1965     1966     1969 
    1971     1969     1971     1972     1973     1975     1973     1971 
    1975     1975     1972     1972     1975     1977     1983     1984 
    1980     1975     1972     1971     1972     1975     1979     1983 
    1981     1983     1984     1983     1980     1979     1976     1977 
    1981     1980     1979     1979     1981     1989     2000     2004 
    2000     1992     1987     1984     1987     1991     1993     1996 
    1995     1992     1991     1988     1988     1985     1980     1976 
    1979     1984     1989     1991     1988     1985     1983     1981 
    1981     1981     1979     1973     1965     1962     1956     1948 
    1945     1942     1939     1939     1939     1944     1948     1941 
    1933     1930     1929     1926     1929     1933     1933     1927 
    1922     1915     1907     1900     1900     1902     1902     1907 
    1908     1906     1906     1902     1894     1890     1888     1885 
    1890     1895     1895     1894     1895     1898     1902     1904 
    1903     1904     1906     1904     1908     1919     1925     1926 
    1927     1927     1923     1929     1941     1948     1950     1956 
    1956     1953     1956     1964     1971     1975     1977     1977 
    1976     1979     1984     1988     1989     1992     1996     1998 
    1998     1998     2003     2006     2006     2010     2012     2012 
    2012     2012     2007     2003     2004     2010     2010     2011 
    2015     2016     2012     2012     2008     2004     2004     2004 
    2002     2006     2011     2011     2011     2008     2004     2003 
    2002     1996     1993     1992     1991     1996     2002     1998 
    1992     1987     1979     1972     1966     1964     1965     1964 
    1961     1965     1971     1966     1960     1956     1953     1952 
    1952     1949     1948     1949     1953     1953     1949     1948 
    1949     1950     1952     1956     1960     1960     1958     1956 
    1952     1952     1956     1958     1962     1968     1975     1979 
    1980     1979     1979     1979     1980     1981     1989     1996 
    2002     2010     2014     2014     2007     1996     1989     1988 
    1987     1991     1998     2002     2002     2002     1999     1993 
    1988     1984     1980     1979     1980     1983     1984     1983 
    1979     1975     1972     1972     1973     1977     1977     1973 
    1966     1956     1945     1946     1949     1949     1950     1953 
    1950     1942     1937     1934     1929     1926     1931     1944 
    1949     1946     1944     1937     1929     1926     1923     1922 
    1927     1934     1938     1944     1948     1948     1944     1939 
    1937     1933     1927     1926     1933     1941     1944     1944 
    1946     1948     1946     1945     1946     1956     1964     1966 
    1965     1965     1966     1961     1958     1958     1957     1962 
    1968     1969     1971     1975     1977     1977     1976     1973 
    1973     1977     1979     1979     1981     1983     1981     1981 
    1983     1983     1977     1976     1983     1985     1985     1987 
    1991     1989     1983     1984     1988     1988     1991     1995 
    1992     1991     1993     1993     1987     1979     1979     1981 
    1983     1989     1995     1992     1988     1987     1983     1975 
    1965     1962     1965     1968     1973     1976     1975     1972 
    1966     1961     1956     1949     1946     1949     1948     1944 
    1939     1938     1935     1935     1937     1935     1929     1927 
    1927     1926     1927     1931     1930     1931     1931     1930 
    1930     1933     1934     1933     1933     1934     1938     1941 
    1946     1949     1950     1952     1953     1956     1956     1953 
    1949     1949     1954     1956     1958     1960     1960     1961 
    1961     1960     1960     1958     1957     1958     1961     1961 
    1960     1961     1961     1960     1957     1953     1946     1944 
    1946     1949     1948     1946     1948     1945     1946     1950 
    1954     1954     1952     1949     1949     1952     1954     1953 
    1950     1948     1953     1960     1960     1956     1958     1958 
    1957     1958     1962     1964     1965     1971     1973     1976 
    1980     1984     1988     1991     1993     1992     1989     1988 
    1989     1995     2000     2008     2016     2019     2019     2019 
    2014     2010     2011     2012     2015     2022     2029     2034 
    2033     2027     2023     2018     2012     2010     2010     2011 
    2015     2019     2022     2018     2010     2003     1998     1992 
    1987     1987     1993     2000     2000     1999     1993     1985 
    1977     1972     1968     1962     1962     1969     1971     1969 
    1969     1966     1957     1952     1949     1946     1948     1950 
    1956     1957     1953     1949     1948     1944     1939     1939 
    1938     1935     1939     1945     1944     1939     1941     1942 
    1939     1941     1946     1946     1942     1944     1948     1948 
    1950     1954     1952     1950     1956     1962     1969     1975 
    1977     1977     1976     1975     1976     1980     1983     1983 
    1980     1984     1991     1988     1988     1992     1989     1984 
    1985     1985     1988     1991     1992     1993     1992     1988 
    1984     1980     1976     1975     1976     1976     1977     1977 
    1976     1976     1977     1975     1971     1971     1971     1962 
    1958     1960     1958     1952     1948     1950     1954     1957 
    1960     1957     1946     1941     1941     1942     1944     1949 
    1953     1953     1953     1948     1942     1939     1934     1931 
    1934     1939     1942     1944     1944     1941     1937     1931 
    1930     1926     1922     1921     1921     1919     1914     1915 
    1921     1922     1917     1910     1906     1899     1894     1891 
    1891     1892     1895     1896     1894     1890     1885     1883 
    1883     1880     1877     1879     1881     1885     1887     1888 
    1892     1895     1891     1890     1896     1904     1912     1918 
    1918     1919     1922     1923     1929     1938     1942     1944 
    1944     1942     1944     1948     1949     1950     1952     1956 
    1964     1966     1962     1958     1952     1942     1938     1939 
    1941     1942     1946     1946     1946     1946     1944     1939 
    1937     1931     1926     1930     1934     1935     1939     1941 
    1937     1929     1921     1918     1921     1923     1927     1934 
    1939     1942     1942     1934     1926     1929     1931     1935 
    1949     1956     1957     1958     1960     1956     1954     1957 
    1961     1968     1976     1983     1988     1995     1995     1992 
    1993     2000     2003     2008     2020     2030     2037     2041 
    2038     2034     2037     2039     2042     2046     2046     2046 
    2049     2054     2058     2057     2052     2047     2045     2045 
    2049     2053     2053     2050     2049     2046     2041     2038 
    2033     2029     2029     2029     2029     2025     2018     2012 
    2010     2006     2003     2004     2003     2002     2003     2003 
    2003     2004     2004     2000     1996     1989     1987     1991 
    1993     1996     1995     1996     1998     1998     1996     1996 
    1996     1995     1992     1988     1988     1987     1987     1989 
    1992     1989     1987     1987     1981     1975     1972     1969 
    1971     1972     1966     1960     1954     1946     1941     1942 
    1945     1948     1945     1938     1934     1930     1926     1922 
    1919     1917     1914     1912     1914     1915     1917     1918 
    1915     1910     1904     1902     1900     1900     1900     1902 
    1902     1900     1896     1891     1885     1884     1885     1884 
    1883     1887     1890     1885     1879     1879     1877     1876 
    1876     1876     1876     1872     1868     1868     1865     1865 
    1869     1869     1871     1875     1873     1871     1869     1867 
    1867     1869     1871     1875     1884     1888     1888     1891 
    1896     1896     1891     1892     1898     1895     1892     1896 
    1902     1907     1912     1910     1903     1900     1898     1895 
    1899     1904     1907     1906     1906     1906     1903     1903 
    1907     1912     1917     1917     1915     1914     1915     1919 
    1922     1922     1923     1923     1922     1923     1926     1927 
    1926     1926     1927     1926     1926     1926     1925     1929 
    1934     1934     1930     1929     1931     1930     1931     1938 
    1946     1952     1957     1958     1956     1956     1958     1958 
    1957     1960     1962     1964     1965     1971     1975     1973 
    1972     1973     1966     1960     1961     1965     1965     1968 
    1968     1965     1965     1965     1962     1962     1961     1960 
    1962     1961     1958     1956     1956     1954     1956     1962 
    1965     1961     1957     1956     1950     1950     1961     1969 
    1973     1981     1985     1980     1971     1962     1960     1962 
    1968     1976     1983     1988     1988     1987     1987     1981 
    1975     1977     1979     1976     1979     1985     1987     1985 
    1987     1987     1983     1980     1980     1984     1988     1992 
    1993     1991     1984     1979     1976     1973     1972     1973 
    1979     1984     1987     1987     1981     1976     1971     1968 
    1969     1971     1968     1965     1965     1965     1965     1964 
    1961     1957     1952     1946     1942     1937     1937     1938 
    1935     1933     1929     1925     1925     1925     1923     1925 
    1925     1922     1918     1917     1923     1927     1925     1921 
    1922     1925     1926     1926     1930     1933     1934     1935 
    1937     1935     1931     1933     1938     1944     1949     1953 
    1954     1954     1953     1953     1954     1957     1960     1962 
    1964     1971     1975     1973     1975     1977     1973     1966 
    1965     1966     1968     1971     1976     1979     1981     1983 
    1976     1969     1964     1960     1960     1962     1960     1960 
    1960     1958     1957     1953     1948     1942     1935     1933 
    1937     1941     1941     1939     1935     1930     1925     1921 
    1918     1918     1919     1922     1927     1933     1933     1927 
    1925     1925     1923     1923     1927     1933     1934     1934 
    1934     1935     1938     1942     1944     1942     1941     1942 
    1948     1949     1949     1949     1945     1941     1942     1945 
    1952     1961     1966     1966     1964     1961     1957     1952 
    1953     1960     1962     1964     1969     1968     1965     1965 
    1966     1964     1964     1965     1969     1973     1975     1973 
    1973     1972     1972     1973     1976     1980     1981     1983 
    1985     1985     1983     1983     1983     1980     1983     1987 
    1984     1981     1980     1981     1984     1984     1983     1985 
    1987     1985     1988     1991     1988     1988     1988     1985 
    1983     1980     1981     1989     1995     1993     1992     1987 
    1983     1984     1985     1987     1988     1988     1987     1984 
    1983     1983     1987     1985     1985     1987     1984     1980 
    1981     1983     1983     1985     1985     1984     1985     1987 
    1985     1984     1980     1975     1976     1980     1983     1984 
    1983     1980     1977     1973     1971     1968     1965     1969 
    1971     1968     1968     1969     1964     1957     1954     1949 
    1944     1946     1952     1952     1952     1952     1948     1942 
    1939     1934     1931     1930     1933     1937     1939     1942 
    1941     1939     1937     1934     1938     1945     1946     1949 
    1953     1954     1953     1953     1953     1952     1952     1953 
    1953     1954     1958     1961     1965     1969     1965     1961 
    1961     1954     1949     1953     1956     1956     1958     1958 
    1956     1950     1944     1941     1939     1938     1938     1938 
    1935     1937     1937     1930     1926     1926     1926     1925 
    1925     1925     1923     1919     1917     1917     1919     1921 
    1926     1927     1922     1919     1912     1906     1907     1908 
    1907     1910     1915     1917     1915     1914     1914     1914 
    1911     1908     1914     1919     1919     1923     1929     1925 
    1922     1923     1923     1925     1929     1933     1938     1942 
    1939     1937     1935     1934     1934     1931     1933     1939 
    1945     1948     1948     1945     1941     1935     1934     1935 
    1937     1944     1948     1945     1944     1942     1939     1938 
    1935     1935     1938     1939     1939     1937     1935     1934 
    1933     1933     1933     1931     1930     1930     1926     1925 
    1926     1923     1919     1919     1919     1921     1923     1926 
    1929     1930     1931     1933     1931     1931     1934     1934 
    1935     1937     1935     1937     1942     1945     1949     1954 
    1952     1948     1950     1952     1949     1950     1956     1958 
    1962     1971     1975     1971     1968     1966     1962     1966 
    1972     1972     1975     1980     1981     1979     1977     1975 
    1972     1972     1972     1975     1977     1980     1976     1972 
    1973     1971     1966     1965     1961     1960     1960     1954 
    1953     1960     1961     1960     1960     1956     1953     1952 
    1950     1950     1950     1952     1957     1958     1961     1968 
    1969     1966     1965     1965     1962     1962     1966     1969 
    1969     1972     1975     1977     1977     1977     1979     1980 
    1979     1980     1984     1988     1992     1995     1992     1992 
    1993     1989     1988     1991     1992     1993     1995     1992 
    1987     1984     1987     1985     1984     1984     1980     1975 
    1971     1964     1958     1956     1954     1954     1956     1956 
    1953     1946     1945     1942     1937     1931     1927     1923 
    1923     1925     1925     1925     1927     1923     1917     1912 
    1910     1907     1908     1912     1914     1911     1907     1902 
    1902     1902     1900     1900     1902     1900     1898     1896 
    1896     1894     1891     1890     1894     1899     1899     1898 
    1898     1891     1884     1884     1887     1890     1895     1898 
    1900     1900     1899     1895     1892     1890     1891     1895 
    1896     1899     1903     1903     1904     1904     1900     1896 
    1894     1894     1898     1903     1908     1910     1908     1907 
    1908     1907     1908     1911     1911     1912     1918     1922 
    1923     1919     1917     1918     1922     1923     1925     1927 
    1930     1931     1930     1927     1927     1927     1927     1931 
    1937     1941     1942     1944     1942     1937     1930     1930 
