Origin Time       2025/01/13 21:19:00
Lat.              31.8
Long.             131.6
Depth. (km)       30
Mag.              6.9
Station Code      MIEH03
Station Lat.      34.5470
Station Long.     136.3692
Station Height(m) 179.6
Record Time       2025/01/13 21:22:26
Sampling Freq(Hz) 100Hz
Duration Time(s)  120
Dir.              2
Scale Factor      2942(gal)/8224139
Max. Acc. (gal)   0.087
Last Correction   2025/01/13 21:22:28
Memo.             
  265550   265550   265549   265546   265545   265549   265551   265551 
  265553   265555   265553   265550   265553   265555   265555   265554 
  265551   265550   265551   265553   265551   265551   265551   265553 
  265551   265553   265553   265554   265557   265559   265561   265562 
  265565   265567   265567   265566   265566   265570   265569   265566 
  265567   265567   265565   265567   265569   265569   265567   265567 
  265565   265565   265566   265565   265563   265566   265566   265565 
  265567   265572   265573   265578   265582   265584   265586   265594 
  265600   265604   265607   265609   265615   265617   265617   265619 
  265617   265617   265620   265620   265619   265620   265620   265616 
  265613   265611   265607   265603   265599   265593   265585   265582 
  265581   265581   265576   265572   265570   265566   265561   265561 
  265561   265558   265557   265554   265549   265549   265550   265547 
  265546   265545   265545   265545   265547   265547   265546   265543 
  265542   265539   265538   265535   265532   265532   265528   265523 
  265526   265526   265524   265524   265522   265523   265523   265520 
  265522   265523   265524   265526   265526   265524   265522   265519 
  265522   265524   265527   265531   265532   265532   265531   265532 
  265538   265543   265547   265550   265554   265558   265561   265565 
  265572   265577   265580   265584   265588   265590   265593   265594 
  265597   265597   265597   265596   265593   265592   265590   265588 
  265585   265585   265588   265590   265590   265588   265589   265590 
  265590   265590   265590   265594   265597   265597   265600   265604 
  265604   265604   265607   265612   265615   265613   265612   265615 
  265615   265613   265612   265613   265613   265611   265611   265608 
  265603   265599   265596   265589   265584   265580   265577   265577 
  265574   265569   265566   265566   265562   265558   265555   265553 
  265551   265551   265553   265551   265550   265550   265551   265550 
  265551   265554   265557   265559   265565   265565   265563   265567 
  265574   265578   265580   265580   265578   265577   265576   265572 
  265570   265573   265572   265570   265572   265572   265569   265567 
  265566   265566   265565   265562   265562   265562   265559   265555 
  265555   265554   265553   265551   265550   265545   265543   265542 
  265540   265540   265539   265536   265535   265536   265534   265532 
  265535   265534   265535   265543   265549   265550   265554   265558 
  265559   265566   265574   265578   265588   265599   265601   265604 
  265609   265612   265616   265624   265626   265624   265627   265630 
  265628   265628   265630   265630   265628   265627   265627   265627 
  265626   265626   265626   265626   265626   265627   265623   265620 
  265623   265623   265619   265617   265615   265613   265615   265615 
  265612   265609   265608   265605   265603   265600   265597   265596 
  265594   265592   265590   265588   265584   265581   265578   265573 
  265569   265563   265558   265553   265549   265543   265539   265536 
  265535   265532   265531   265531   265531   265528   265527   265527 
  265524   265524   265523   265524   265527   265528   265531   265535 
  265538   265539   265542   265543   265550   265555   265555   265558 
  265561   265562   265565   265566   265565   265569   265577   265577 
  265574   265578   265581   265581   265581   265581   265580   265581 
  265581   265581   265581   265582   265582   265582   265584   265584 
  265584   265586   265590   265590   265589   265590   265590   265589 
  265586   265586   265588   265588   265586   265585   265588   265589 
  265585   265582   265586   265586   265586   265589   265588   265586 
  265586   265582   265577   265577   265578   265577   265573   265572 
  265572   265572   265570   265572   265573   265573   265573   265574 
  265576   265578   265578   265576   265574   265574   265574   265573 
  265573   265572   265566   265565   265566   265562   265559   265563 
  265565   265562   265562   265566   265566   265569   265573   265574 
  265577   265580   265582   265585   265586   265588   265589   265590 
  265594   265597   265597   265596   265597   265600   265600   265600 
  265603   265601   265603   265603   265603   265605   265611   265611 
  265609   265613   265615   265615   265616   265617   265616   265617 
  265620   265621   265621   265624   265624   265627   265632   265635 
  265638   265640   265643   265647   265651   265653   265657   265658 
  265657   265655   265658   265661   265661   265661   265658   265653 
  265651   265651   265650   265646   265646   265644   265642   265639 
  265636   265634   265635   265636   265631   265620   265615   265613 
  265611   265603   265594   265585   265578   265570   265565   265558 
  265550   265542   265536   265532   265527   265523   265516   265511 
  265507   265501   265495   265488   265481   265476   265472   265466 
  265461   265457   265451   265447   265442   265439   265437   265430 
  265424   265422   265416   265411   265411   265407   265405   265410 
  265414   265415   265412   265411   265415   265420   265423   265430 
  265432   265437   265445   265450   265453   265459   265470   265478 
  265484   265492   265501   265511   265522   265531   265540   265553 
  265563   265574   265584   265596   265605   265612   265617   265624 
  265634   265640   265646   265651   265657   265663   265673   265677 
  265681   265690   265694   265698   265704   265707   265708   265709 
  265712   265716   265717   265720   265725   265723   265720   265720 
  265719   265717   265715   265715   265717   265719   265719   265715 
  265709   265707   265704   265702   265704   265704   265700   265700 
  265701   265697   265692   265685   265677   265673   265670   265661 
  265653   265646   265639   265630   265624   265619   265613   265609 
  265603   265597   265590   265584   265582   265581   265580   265573 
  265567   265566   265562   265558   265559   265559   265561   265563 
  265562   265561   265563   265567   265572   265577   265580   265582 
  265586   265589   265592   265597   265603   265608   265613   265621 
  265627   265632   265640   265647   265654   265659   265662   265663 
  265666   265673   265674   265673   265674   265675   265673   265670 
  265669   265666   265666   265663   265663   265661   265654   265650 
  265647   265642   265638   265636   265630   265626   265624   265620 
  265616   265613   265608   265601   265599   265594   265586   265580 
  265576   265570   265565   265558   265551   265545   265536   265528 
  265527   265523   265520   265520   265519   265515   265511   265507 
  265504   265505   265504   265501   265501   265504   265507   265503 
  265501   265505   265507   265505   265508   265511   265511   265512 
  265516   265516   265516   265519   265523   265527   265534   265538 
  265540   265547   265553   265558   265563   265566   265572   265576 
  265576   265581   265588   265589   265590   265594   265597   265603 
  265607   265608   265612   265616   265617   265621   265626   265627 
  265631   265636   265639   265639   265639   265642   265644   265643 
  265646   265650   265653   265653   265653   265654   265658   265661 
  265662   265661   265662   265662   265662   265663   265663   265661 
  265657   265653   265651   265653   265651   265648   265647   265643 
  265639   265636   265632   265628   265624   265621   265616   265609 
  265604   265604   265600   265593   265586   265586   265584   265576 
  265567   265562   265555   265549   265542   265535   265531   265527 
  265520   265512   265505   265501   265496   265495   265495   265489 
  265485   265484   265481   265482   265486   265486   265485   265486 
  265491   265495   265499   265504   265511   265515   265516   265520 
  265527   265530   265535   265542   265543   265545   265550   265554 
  265555   265559   265563   265565   265566   265569   265572   265573 
  265574   265576   265578   265581   265581   265581   265581   265581 
  265577   265576   265578   265577   265574   265576   265574   265572 
  265572   265569   265569   265572   265570   265569   265569   265570 
  265573   265574   265572   265570   265573   265574   265573   265573 
  265577   265576   265573   265576   265577   265576   265581   265586 
  265588   265590   265594   265601   265607   265612   265615   265620 
  265628   265635   265638   265643   265651   265658   265665   265671 
  265677   265682   265689   265696   265701   265705   265709   265715 
  265721   265727   265728   265734   265740   265742   265742   265744 
  265747   265746   265743   265744   265746   265744   265742   265739 
  265735   265735   265731   265725   265721   265720   265719   265712 
  265705   265702   265701   265696   265689   265684   265677   265670 
  265665   265659   265655   265648   265642   265635   265628   265620 
  265616   265611   265603   265599   265597   265590   265585   265582 
  265576   265570   265565   265555   265549   265546   265545   265540 
  265536   265535   265535   265531   265527   265524   265523   265522 
  265523   265522   265523   265526   265527   265527   265531   265538 
  265542   265545   265549   265553   265559   265565   265569   265574 
  265581   265586   265590   265596   265601   265604   265607   265608 
  265609   265612   265616   265619   265620   265621   265624   265626 
  265626   265626   265627   265627   265621   265620   265621   265617 
  265612   265611   265612   265608   265601   265597   265599   265599 
  265593   265589   265588   265582   265577   265573   265570   265566 
  265559   265553   265551   265549   265543   265542   265540   265539 
  265538   265536   265538   265536   265536   265536   265535   265532 
  265528   265527   265527   265526   265522   265522   265522   265519 
  265518   265518   265516   265513   265509   265505   265501   265497 
  265491   265485   265482   265480   265474   265468   265465   265461 
  265455   265451   265451   265450   265446   265441   265439   265432 
  265426   265423   265418   265414   265411   265408   265407   265407 
  265403   265401   265403   265400   265400   265407   265410   265414 
  265419   265424   265428   265437   265443   265450   265459   265469 
  265477   265486   265493   265497   265504   265512   265522   265528 
  265532   265539   265546   265551   265554   265555   265557   265559 
  265559   265557   265557   265555   265553   265550   265547   265545 
  265545   265540   265538   265538   265534   265530   265531   265528 
  265524   265522   265522   265519   265516   265516   265513   265509 
  265507   265505   265505   265507   265504   265504   265505   265508 
  265509   265507   265508   265515   265519   265523   265526   265528 
  265531   265535   265536   265542   265549   265555   265565   265577 
  265581   265588   265597   265605   265613   265626   265636   265648 
  265659   265669   265684   265694   265702   265713   265724   265729 
  265736   265746   265754   265759   265765   265770   265775   265779 
  265783   265786   265789   265793   265794   265793   265793   265793 
  265792   265792   265789   265786   265785   265779   265777   265773 
  265766   265762   265758   265752   265746   265740   265736   265732 
  265729   265724   265719   265715   265715   265712   265708   265707 
  265705   265702   265697   265694   265694   265693   265690   265689 
  265690   265690   265689   265688   265686   265684   265681   265680 
  265678   265680   265680   265674   265670   265670   265670   265667 
  265663   265661   265659   265655   265646   265638   265632   265626 
  265619   265613   265605   265599   265590   265581   265576   265570 
  265562   265551   265543   265538   265531   265527   265522   265515 
  265509   265504   265497   265489   265482   265477   265474   265470 
  265464   265458   265454   265450   265445   265441   265437   265432 
  265428   265423   265415   265408   265405   265400   265391   265387 
  265387   265381   265373   265370   265368   265360   265354   265353 
  265349   265343   265339   265335   265333   265327   265324   265323 
  265322   265318   265316   265316   265316   265319   265322   265326 
  265329   265331   265334   265339   265342   265343   265349   265356 
  265362   265368   265373   265378   265383   265384   265391   265396 
  265400   265400   265401   265405   265410   265410   265410   265412 
  265416   265419   265423   265430   265432   265430   265432   265439 
  265445   265446   265451   265454   265455   265458   265464   265470 
  265474   265473   265476   265480   265478   265481   265486   265488 
  265488   265491   265493   265492   265489   265492   265495   265495 
  265499   265501   265501   265507   265516   265520   265522   265524 
  265530   265536   265542   265547   265550   265553   265559   265561 
  265561   265567   265574   265574   265574   265574   265577   265582 
  265582   265582   265585   265586   265582   265582   265582   265582 
  265582   265584   265582   265582   265584   265581   265576   265576 
  265578   265577   265573   265573   265573   265572   265572   265574 
  265576   265577   265584   265586   265586   265588   265593   265594 
  265596   265600   265604   265608   265612   265615   265617   265621 
  265623   265626   265631   265634   265636   265642   265639   265638 
  265643   265647   265647   265647   265647   265647   265647   265651 
  265653   265651   265654   265655   265651   265648   265647   265644 
  265643   265642   265640   265639   265639   265636   265632   265630 
  265628   265628   265626   265621   265619   265616   265615   265611 
  265607   265604   265601   265597   265592   265588   265585   265578 
  265570   265563   265559   265551   265542   265536   265532   265528 
  265522   265515   265509   265507   265503   265499   265495   265491 
  265493   265493   265488   265488   265489   265486   265486   265488 
  265488   265491   265491   265493   265497   265499   265500   265504 
  265507   265512   265516   265518   265522   265527   265531   265535 
  265536   265542   265549   265551   265554   265558   265562   265565 
  265567   265572   265576   265576   265576   265578   265581   265585 
  265585   265582   265584   265584   265584   265582   265580   265580 
  265580   265577   265572   265566   265565   265562   265558   265553 
  265549   265546   265543   265540   265535   265528   265526   265523 
  265515   265508   265508   265504   265499   265496   265495   265493 
  265491   265485   265484   265486   265485   265485   265485   265484 
  265485   265488   265488   265491   265496   265497   265500   265505 
  265507   265508   265513   265520   265526   265526   265526   265528 
  265534   265538   265540   265543   265546   265549   265553   265557 
  265558   265562   265565   265565   265566   265569   265570   265572 
  265573   265574   265574   265576   265578   265580   265581   265584 
  265588   265589   265590   265594   265596   265597   265600   265607 
  265609   265609   265612   265617   265619   265623   265628   265630 
  265630   265632   265635   265636   265636   265638   265639   265642 
  265642   265643   265643   265646   265646   265648   265654   265657 
  265655   265653   265655   265661   265662   265662   265665   265667 
  265667   265666   265667   265669   265669   265669   265671   265671 
  265671   265671   265670   265669   265669   265669   265670   265671 
  265671   265670   265666   265666   265669   265666   265663   265665 
  265666   265666   265665   265662   265662   265662   265661   265657 
  265658   265661   265654   265650   265650   265644   265643   265640 
  265638   265636   265631   265624   265623   265617   265611   265607 
  265600   265593   265588   265581   265572   265566   265562   265557 
  265550   265545   265540   265534   265528   265526   265522   265516 
  265513   265507   265501   265503   265501   265499   265499   265500 
  265500   265503   265505   265507   265508   265512   265516   265516 
  265520   265523   265524   265532   265535   265535   265540   265543 
  265546   265549   265550   265551   265557   265559   265561   265561 
  265558   265558   265557   265554   265553   265553   265551   265551 
  265546   265542   265542   265536   265531   265527   265522   265516 
  265515   265513   265508   265504   265503   265496   265493   265493 
  265491   265489   265488   265486   265484   265478   265476   265476 
  265472   265469   265466   265464   265462   265461   265458   265455 
  265453   265454   265454   265451   265453   265457   265461   265464 
  265464   265462   265466   265472   265473   265478   265482   265481 
  265485   265497   265499   265499   265507   265511   265512   265519 
  265522   265519   265520   265522   265524   265530   265527   265527 
  265532   265531   265530   265534   265536   265534   265534   265536 
  265535   265532   265535   265532   265527   265527   265524   265520 
  265520   265519   265515   265513   265512   265512   265508   265507 
  265504   265499   265496   265496   265495   265491   265486   265485 
  265484   265477   265478   265482   265481   265481   265482   265482 
  265486   265488   265488   265493   265497   265499   265501   265501 
  265501   265505   265509   265512   265515   265516   265519   265523 
  265528   265532   265538   265542   265547   265553   265558   265563 
  265569   265572   265574   265578   265584   265592   265593   265597 
  265604   265605   265605   265608   265609   265612   265611   265611 
  265613   265612   265611   265612   265611   265608   265604   265603 
  265601   265599   265594   265589   265588   265588   265586   265581 
  265578   265578   265578   265577   265577   265578   265578   265578 
  265581   265585   265586   265589   265592   265593   265597   265601 
  265600   265601   265608   265609   265612   265616   265619   265620 
  265624   265628   265630   265631   265638   265644   265648   265651 
  265655   265658   265659   265661   265663   265665   265665   265667 
  265669   265669   265669   265666   265663   265663   265663   265659 
  265657   265653   265648   265644   265636   265630   265623   265617 
  265615   265609   265597   265589   265582   265573   265565   265559 
  265554   265546   265540   265536   265527   265516   265509   265504 
  265495   265489   265486   265480   265474   265469   265465   265459 
  265454   265449   265445   265439   265435   265431   265424   265420 
  265422   265419   265415   265412   265408   265404   265400   265397 
  265397   265396   265392   265391   265389   265388   265387   265384 
  265384   265384   265381   265380   265380   265381   265381   265383 
  265384   265383   265383   265384   265384   265383   265384   265388 
  265387   265385   265385   265387   265384   265384   265388   265389 
  265389   265393   265396   265396   265396   265397   265400   265404 
  265408   265410   265415   265420   265420   265422   265424   265430 
  265435   265437   265437   265441   265443   265445   265449   265453 
  265455   265459   265462   265465   265469   265473   265476   265477 
  265480   265484   265486   265491   265493   265495   265497   265503 
