Origin Time       2025/01/13 21:19:00
Lat.              31.8
Long.             131.6
Depth. (km)       30
Mag.              6.9
Station Code      MIEH03
Station Lat.      34.5470
Station Long.     136.3692
Station Height(m) 280
Record Time       2025/01/13 21:22:26
Sampling Freq(Hz) 100Hz
Duration Time(s)  120
Dir.              6
Scale Factor      7845(gal)/8223790
Max. Acc. (gal)   0.094
Last Correction   2025/01/13 21:22:28
Memo.             
    6662     6663     6664     6666     6669     6669     6667     6669 
    6670     6670     6671     6670     6666     6664     6667     6669 
    6674     6677     6673     6670     6673     6674     6671     6673 
    6675     6674     6673     6674     6674     6674     6675     6675 
    6673     6670     6670     6674     6678     6677     6675     6673 
    6670     6673     6675     6677     6679     6678     6679     6681 
    6682     6685     6686     6687     6687     6686     6685     6685 
    6685     6686     6689     6690     6690     6690     6690     6691 
    6693     6694     6693     6693     6698     6701     6702     6704 
    6701     6702     6704     6701     6701     6708     6709     6704 
    6704     6704     6702     6702     6700     6693     6687     6686 
    6685     6683     6683     6683     6681     6675     6670     6669 
    6666     6664     6662     6656     6654     6655     6656     6658 
    6655     6652     6650     6644     6642     6642     6640     6637 
    6635     6633     6637     6642     6640     6637     6637     6642 
    6644     6642     6640     6642     6642     6643     6643     6640 
    6642     6644     6644     6646     6648     6650     6652     6652 
    6651     6655     6658     6658     6662     6664     6663     6664 
    6667     6670     6671     6673     6674     6670     6669     6674 
    6678     6675     6673     6671     6671     6675     6677     6674 
    6673     6670     6670     6674     6674     6670     6669     6670 
    6671     6670     6669     6667     6666     6666     6664     6664 
    6666     6663     6660     6662     6660     6660     6662     6659 
    6659     6660     6659     6656     6652     6655     6659     6656 
    6652     6654     6652     6652     6656     6659     6654     6650 
    6648     6647     6647     6647     6646     6643     6643     6647 
    6650     6651     6655     6656     6655     6655     6660     6664 
    6664     6664     6667     6673     6677     6678     6675     6673 
    6671     6674     6679     6679     6677     6675     6675     6675 
    6677     6674     6673     6671     6666     6666     6669     6667 
    6664     6662     6662     6664     6662     6656     6656     6658 
    6658     6660     6662     6659     6659     6659     6659     6660 
    6659     6658     6659     6659     6655     6655     6656     6656 
    6658     6662     6662     6659     6658     6656     6658     6660 
    6662     6664     6664     6659     6662     6667     6669     6667 
    6664     6662     6663     6664     6662     6667     6671     6667 
    6667     6673     6675     6677     6677     6674     6675     6678 
    6679     6678     6675     6675     6679     6682     6681     6678 
    6678     6681     6682     6681     6678     6675     6677     6679 
    6679     6679     6682     6679     6678     6678     6675     6677 
    6679     6677     6674     6674     6674     6674     6674     6671 
    6671     6671     6666     6663     6669     6671     6667     6664 
    6667     6670     6670     6670     6670     6669     6670     6671 
    6675     6677     6675     6677     6678     6681     6685     6685 
    6685     6690     6694     6693     6691     6690     6690     6691 
    6691     6691     6687     6681     6681     6682     6681     6679 
    6678     6677     6678     6677     6674     6674     6674     6673 
    6671     6669     6666     6664     6664     6666     6666     6662 
    6660     6662     6662     6666     6669     6664     6659     6659 
    6660     6664     6664     6662     6662     6664     6666     6664 
    6667     6670     6667     6663     6666     6667     6667     6664 
    6663     6662     6660     6662     6663     6660     6655     6651 
    6652     6654     6652     6651     6650     6651     6654     6654 
    6652     6654     6652     6651     6654     6655     6655     6658 
    6659     6659     6659     6660     6659     6663     6667     6669 
    6667     6666     6669     6674     6673     6670     6671     6673 
    6677     6682     6681     6679     6678     6679     6683     6686 
    6683     6683     6682     6682     6682     6683     6681     6681 
    6683     6686     6687     6689     6689     6686     6682     6683 
    6687     6691     6693     6693     6693     6694     6697     6700 
    6702     6704     6704     6704     6705     6706     6705     6701 
    6704     6709     6710     6712     6710     6706     6706     6708 
    6706     6704     6700     6696     6693     6694     6690     6683 
    6683     6683     6678     6675     6675     6675     6675     6674 
    6673     6670     6667     6669     6670     6667     6667     6666 
    6666     6667     6667     6666     6667     6667     6667     6669 
    6671     6671     6670     6671     6677     6682     6682     6682 
    6683     6682     6683     6687     6687     6686     6687     6693 
    6694     6694     6696     6696     6698     6702     6704     6704 
    6704     6700     6698     6705     6708     6708     6710     6713 
    6713     6712     6712     6712     6710     6706     6706     6712 
    6714     6713     6712     6709     6709     6712     6712     6710 
    6710     6710     6709     6708     6708     6708     6702     6700 
    6706     6709     6704     6704     6704     6704     6709     6709 
    6702     6700     6700     6697     6698     6698     6696     6693 
    6690     6690     6694     6693     6690     6686     6683     6685 
    6687     6686     6683     6681     6679     6678     6678     6679 
    6678     6677     6678     6679     6678     6677     6675     6671 
    6670     6671     6671     6673     6671     6669     6671     6673 
    6670     6667     6667     6666     6666     6666     6667     6667 
    6663     6659     6659     6663     6666     6669     6671     6670 
    6667     6666     6664     6666     6667     6666     6666     6669 
    6673     6671     6666     6666     6667     6667     6669     6671 
    6671     6670     6670     6671     6671     6671     6669     6667 
    6669     6670     6669     6669     6664     6659     6658     6658 
    6658     6655     6650     6643     6643     6646     6643     6642 
    6642     6640     6637     6633     6629     6629     6628     6627 
    6625     6624     6625     6625     6624     6623     6623     6623 
    6624     6625     6627     6627     6631     6636     6635     6633 
    6635     6636     6639     6640     6642     6643     6647     6651 
    6654     6655     6654     6656     6660     6662     6664     6667 
    6664     6663     6667     6670     6671     6677     6675     6671 
    6673     6678     6678     6679     6682     6682     6683     6685 
    6687     6689     6687     6689     6690     6690     6693     6694 
    6694     6697     6701     6702     6701     6702     6704     6705 
    6702     6701     6702     6705     6702     6702     6705     6704 
    6702     6700     6694     6693     6697     6697     6693     6693 
    6694     6691     6691     6693     6691     6689     6687     6687 
    6685     6681     6681     6681     6682     6683     6681     6677 
    6675     6674     6674     6671     6664     6663     6666     6664 
    6663     6663     6659     6655     6655     6655     6652     6651 
    6648     6644     6640     6640     6640     6636     6635     6635 
    6635     6640     6640     6633     6632     6632     6629     6632 
    6635     6632     6633     6639     6640     6643     6647     6646 
    6646     6650     6652     6656     6659     6662     6663     6664 
    6666     6670     6671     6673     6674     6677     6681     6685 
    6686     6683     6685     6689     6693     6694     6696     6700 
    6704     6705     6706     6706     6708     6710     6713     6716 
    6720     6727     6728     6728     6731     6731     6732     6733 
    6733     6733     6736     6737     6736     6735     6733     6732 
    6729     6729     6732     6732     6727     6725     6725     6723 
    6720     6720     6720     6721     6717     6713     6712     6708 
    6701     6701     6702     6696     6689     6686     6682     6683 
    6683     6679     6677     6673     6669     6669     6667     6663 
    6663     6662     6658     6659     6659     6655     6652     6651 
    6654     6655     6654     6651     6648     6647     6648     6650 
    6647     6646     6646     6648     6650     6648     6648     6650 
    6647     6648     6651     6654     6655     6652     6652     6658 
    6660     6663     6664     6662     6660     6663     6667     6669 
    6670     6671     6671     6670     6674     6681     6682     6678 
    6677     6681     6683     6683     6683     6682     6681     6682 
    6682     6681     6681     6681     6681     6683     6686     6681 
    6677     6679     6679     6677     6677     6675     6673     6667 
    6666     6666     6662     6659     6660     6659     6651     6648 
    6650     6646     6642     6639     6636     6632     6629     6627 
    6623     6617     6615     6609     6608     6608     6606     6604 
    6602     6600     6598     6600     6600     6598     6598     6597 
    6596     6600     6604     6602     6598     6598     6600     6598 
    6597     6598     6597     6593     6590     6593     6597     6600 
    6596     6590     6589     6592     6596     6597     6596     6593 
    6594     6596     6600     6602     6602     6601     6601     6604 
    6606     6608     6609     6612     6615     6620     6624     6623 
    6625     6628     6631     6633     6637     6640     6646     6651 
    6655     6659     6662     6667     6671     6673     6673     6678 
    6686     6693     6698     6698     6702     6714     6721     6725 
    6728     6728     6732     6735     6739     6744     6747     6748 
    6751     6755     6756     6759     6763     6763     6764     6767 
    6766     6767     6768     6768     6770     6770     6771     6772 
    6771     6770     6771     6774     6774     6771     6771     6774 
    6775     6775     6772     6767     6766     6766     6763     6762 
    6764     6762     6758     6756     6755     6755     6751     6745 
    6741     6739     6737     6737     6733     6732     6731     6728 
    6728     6724     6718     6716     6710     6706     6710     6709 
    6702     6698     6697     6696     6697     6696     6693     6691 
    6689     6685     6686     6687     6686     6682     6678     6675 
    6678     6681     6678     6674     6673     6669     6667     6667 
    6666     6664     6664     6660     6656     6656     6654     6652 
    6652     6650     6647     6646     6640     6640     6640     6636 
    6633     6629     6624     6621     6621     6617     6616     6613 
    6610     6609     6609     6604     6596     6593     6593     6592 
    6590     6589     6586     6586     6585     6585     6583     6581 
    6579     6581     6579     6578     6581     6582     6579     6578 
    6581     6582     6582     6585     6583     6582     6583     6585 
    6585     6586     6589     6589     6592     6600     6601     6600 
    6601     6606     6612     6616     6619     6621     6627     6632 
    6633     6637     6642     6646     6651     6658     6660     6664 
    6667     6671     6678     6682     6685     6691     6700     6704 
    6706     6708     6712     6718     6721     6721     6727     6729 
    6733     6739     6743     6744     6745     6747     6751     6754 
    6754     6755     6759     6762     6762     6762     6766     6764 
    6763     6768     6772     6771     6768     6764     6767     6771 
    6771     6768     6766     6762     6760     6760     6760     6754 
    6750     6748     6748     6750     6745     6737     6733     6732 
    6728     6727     6725     6718     6712     6706     6709     6710 
    6706     6700     6694     6693     6691     6690     6687     6686 
    6686     6683     6682     6683     6681     6677     6675     6674 
    6673     6673     6675     6674     6670     6670     6670     6670 
    6671     6671     6669     6667     6670     6674     6674     6671 
    6670     6673     6677     6677     6673     6674     6677     6678 
    6681     6685     6687     6689     6691     6697     6698     6700 
    6702     6705     6709     6712     6712     6716     6721     6724 
    6725     6727     6728     6735     6732     6725     6727     6732 
    6729     6728     6728     6727     6725     6724     6721     6717 
    6716     6717     6714     6712     6710     6705     6704     6705 
    6705     6701     6698     6694     6687     6685     6686     6685 
    6681     6679     6678     6677     6678     6675     6671     6671 
    6670     6667     6667     6667     6669     6669     6664     6662 
    6664     6666     6667     6667     6664     6664     6663     6662 
    6664     6667     6666     6664     6664     6663     6664     6666 
    6666     6664     6666     6667     6666     6666     6670     6670 
    6670     6671     6667     6667     6673     6673     6671     6673 
    6671     6667     6669     6670     6669     6666     6664     6666 
    6664     6660     6658     6658     6658     6656     6655     6655 
    6654     6652     6651     6647     6644     6642     6640     6642 
    6642     6639     6635     6631     6632     6636     6635     6632 
    6632     6633     6637     6636     6635     6639     6639     6633 
    6632     6637     6637     6636     6636     6635     6635     6635 
    6635     6633     6633     6632     6633     6635     6633     6631 
    6632     6632     6631     6631     6633     6636     6637     6637 
    6636     6637     6639     6640     6643     6644     6643     6647 
    6654     6652     6652     6656     6659     6662     6663     6664 
    6666     6666     6673     6679     6678     6677     6679     6681 
    6682     6686     6689     6687     6687     6690     6691     6693 
    6693     6690     6689     6691     6694     6691     6691     6691 
    6689     6687     6691     6691     6690     6690     6689     6690 
    6694     6693     6690     6689     6690     6697     6700     6696 
    6696     6696     6694     6696     6701     6702     6702     6702 
    6702     6704     6705     6704     6704     6706     6708     6708 
    6709     6710     6706     6704     6708     6710     6709     6710 
    6710     6709     6712     6718     6720     6717     6716     6717 
    6721     6725     6724     6723     6724     6727     6727     6728 
    6729     6728     6728     6729     6728     6724     6721     6723 
    6725     6725     6727     6725     6724     6727     6727     6724 
    6725     6721     6718     6723     6727     6727     6724     6721 
    6721     6721     6721     6720     6718     6717     6713     6709 
    6708     6708     6704     6700     6697     6693     6691     6689 
    6685     6682     6678     6674     6675     6671     6669     6669 
    6664     6659     6662     6664     6660     6656     6658     6660 
    6656     6656     6658     6658     6658     6656     6655     6656 
    6655     6656     6659     6660     6659     6656     6655     6660 
    6664     6662     6659     6662     6663     6666     6669     6667 
    6669     6673     6673     6674     6677     6677     6678     6682 
    6683     6685     6687     6689     6690     6693     6694     6696 
    6697     6700     6704     6706     6705     6706     6709     6708 
    6710     6716     6714     6714     6717     6717     6716     6717 
    6717     6718     6718     6718     6717     6716     6716     6716 
    6716     6714     6712     6712     6708     6704     6702     6701 
    6697     6694     6690     6686     6685     6683     6682     6682 
    6681     6681     6679     6677     6677     6674     6670     6669 
    6666     6664     6664     6666     6664     6664     6663     6663 
    6664     6666     6666     6669     6669     6664     6667     6673 
    6671     6670     6671     6670     6673     6677     6674     6675 
    6678     6674     6673     6677     6677     6677     6677     6675 
    6677     6677     6677     6677     6677     6678     6682     6686 
    6685     6683     6683     6687     6689     6690     6693     6693 
    6690     6689     6694     6697     6693     6693     6694     6691 
    6691     6693     6694     6691     6690     6693     6693     6690 
    6691     6693     6690     6690     6690     6689     6687     6689 
    6690     6690     6690     6689     6686     6686     6687     6687 
    6686     6686     6687     6687     6686     6685     6685     6685 
    6682     6686     6686     6682     6685     6685     6681     6681 
    6681     6682     6685     6682     6682     6685     6682     6679 
    6682     6682     6679     6681     6683     6683     6682     6683 
    6683     6683     6683     6685     6686     6686     6689     6690 
    6689     6689     6691     6696     6694     6691     6693     6693 
    6693     6694     6697     6697     6694     6693     6698     6702 
    6700     6698     6702     6701     6702     6706     6708     6709 
    6710     6710     6712     6712     6712     6714     6714     6713 
    6710     6709     6712     6713     6714     6712     6706     6702 
    6701     6702     6700     6696     6694     6697     6696     6691 
    6691     6690     6687     6686     6685     6682     6679     6679 
    6677     6675     6674     6673     6671     6670     6667     6666 
    6667     6664     6662     6662     6662     6659     6660     6663 
    6663     6660     6659     6662     6663     6663     6662     6659 
    6660     6663     6666     6666     6667     6669     6666     6667 
    6675     6678     6675     6674     6677     6682     6683     6683 
    6683     6686     6690     6691     6694     6697     6697     6697 
    6700     6701     6704     6706     6704     6705     6706     6705 
    6705     6710     6709     6704     6704     6706     6706     6704 
    6702     6701     6700     6698     6697     6696     6694     6690 
    6686     6685     6682     6678     6675     6674     6670     6667 
    6667     6664     6659     6658     6659     6659     6658     6655 
    6651     6650     6652     6654     6651     6646     6647     6651 
    6652     6648     6646     6648     6648     6647     6654     6656 
    6651     6650     6655     6655     6654     6652     6654     6656 
    6659     6660     6662     6663     6664     6666     6667     6669 
    6667     6669     6670     6670     6671     6675     6674     6671 
    6677     6679     6678     6679     6681     6677     6675     6678 
    6678     6678     6677     6675     6675     6673     6673     6674 
    6671     6669     6670     6669     6667     6667     6669     6667 
    6662     6662     6662     6655     6654     6656     6655     6655 
    6654     6654     6654     6651     6652     6656     6656     6655 
    6655     6658     6660     6662     6660     6659     6660     6663 
    6664     6664     6664     6664     6663     6663     6666     6666 
    6666     6666     6669     6670     6669     6670     6673     6674 
    6675     6677     6678     6683     6687     6687     6686     6689 
    6691     6690     6691     6696     6698     6697     6697     6701 
