Origin Time       2025/01/13 21:19:00
Lat.              31.8
Long.             131.6
Depth. (km)       30
Mag.              6.9
Station Code      MIEH10
Station Lat.      34.8224
Station Long.     136.4245
Station Height(m) 75
Record Time       2025/01/13 21:22:26
Sampling Freq(Hz) 100Hz
Duration Time(s)  120
Dir.              4
Scale Factor      7845(gal)/8223790
Max. Acc. (gal)   0.297
Last Correction   2025/01/13 21:22:28
Memo.             
[...]
    1526     1524     1524     1518     1518     1525     1525     1521 
    1524     1529     1534     1532     1526     1524     1522     1528 
    1528     1520     1517     1512     1498     1497     1509     1513 
    1507     1509     1506     1506     1518     1520     1518     1528 
    1533     1528     1522     1526     1529     1532     1536     1534 
    1534     1534     1525     1514     1503     1509     1530     1534 
    1529     1526     1522     1529     1537     1534     1536     1547 
    1553     1549     1548     1555     1561     1568     1575     1575 
    1566     1563     1561     1548     1540     1541     1528     1514 
    1514     1510     1503     1502     1507     1512     1517     1526 
    1529     1529     1534     1530     1529     1539     1541     1533 
    1529     1528     1520     1517     1520     1507     1495     1487 
    1478     1471     1470     1470     1470     1468     1462     1452 
    1451     1448     1440     1433     1422     1416     1421     1428 
    1436     1432     1420     1422     1431     1433     1436     1444 
    1452     1451     1448     1458     1467     1474     1480     1486 
    1487     1489     1501     1513     1520     1520     1514     1513 
    1514     1520     1528     1530     1530     1524     1517     1525 
    1533     1536     1547     1545     1537     1540     1547     1551 
    1557     1564     1561     1551     1544     1544     1548     1551 
    1553     1553     1545     1541     1545     1549     1556     1556 
    1548     1539     1537     1543     1540     1530     1526     1520 
    1517     1530     1537     1532     1528     1525     1520     1516 
    1521     1522     1514     1510     1506     1498     1497     1509 
    1510     1503     1507     1506     1499     1510     1522     1526 
    1528     1524     1521     1524     1536     1549     1552     1552 
    1555     1556     1556     1557     1566     1574     1574     1574 
    1568     1556     1552     1551     1547     1540     1539     1534 
    1520     1518     1528     1529     1528     1530     1526     1516 
    1516     1520     1513     1505     1502     1501     1495     1487 
    1486     1490     1494     1499     1499     1499     1503     1512 
    1516     1509     1503     1507     1505     1502     1509     1510 
    1513     1521     1526     1529     1533     1539     1548     1559 
    1571     1574     1567     1556     1556     1559     1556     1557 
    1557     1552     1547     1548     1552     1553     1555     1567 
    1574     1572     1572     1575     1575     1579     1584     1580 
    1574     1575     1568     1556     1555     1556     1552     1547 
    1549     1556     1552     1543     1540     1543     1544     1539 
    1540     1536     1520     1521     1532     1525     1513     1514 
    1517     1506     1503     1513     1510     1502     1501     1494 
    1482     1482     1490     1487     1483     1493     1499     1498 
    1499     1503     1505     1502     1506     1509     1498     1491 
    1486     1487     1497     1498     1495     1494     1489     1489 
    1491     1491     1487     1485     1482     1476     1471     1471 
    1466     1462     1460     1460     1466     1471     1478     1474 
    1463     1468     1483     1489     1483     1479     1478     1478 
    1486     1495     1498     1495     1494     1497     1510     1522 
    1526     1525     1517     1513     1520     1525     1516     1507 
    1513     1512     1506     1514     1520     1517     1512     1516 
    1517     1507     1502     1495     1479     1475     1476     1472 
    1460     1448     1447     1444     1441     1444     1443     1433 
    1420     1414     1418     1418     1417     1420     1412     1397 
    1397     1412     1417     1414     1420     1422     1425     1432 
    1441     1451     1451     1447     1451     1456     1456     1447 
    1445     1451     1448     1449     1458     1460     1460     1463 
    1468     1476     1483     1487     1486     1480     1480     1489 
    1501     1505     1502     1510     1521     1530     1541     1555 
    1557     1556     1559     1556     1556     1561     1560     1556 
    1552     1556     1571     1579     1578     1574     1571     1579 
    1583     1580     1582     1580     1578     1583     1587     1590 
    1602     1607     1603     1605     1606     1602     1606     1609 
    1609     1611     1605     1595     1594     1594     1599     1595 
    1583     1576     1570     1572     1576     1574     1580     1590 
    1593     1598     1602     1599     1605     1618     1622     1621 
    1617     1606     1602     1607     1601     1587     1582     1582 
    1582     1576     1568     1556     1544     1536     1528     1521 
    1513     1503     1499     1494     1490     1491     1483     1472 
    1462     1449     1445     1444     1436     1429     1422     1413 
    1408     1412     1409     1408     1414     1417     1414     1414 
    1416     1420     1424     1426     1433     1441     1444     1444 
    1448     1451     1448     1451     1452     1451     1456     1458 
    1459     1468     1475     1479     1478     1474     1478     1480 
    1482     1487     1495     1507     1510     1507     1507     1505 
    1503     1505     1505     1502     1501     1503     1502     1502 
    1502     1498     1502     1507     1509     1513     1518     1522 
    1524     1525     1534     1541     1547     1553     1557     1564 
    1568     1571     1575     1574     1572     1579     1583     1579 
    1580     1584     1579     1576     1579     1576     1572     1570 
    1567     1566     1564     1564     1561     1557     1567     1572 
    1572     1575     1568     1564     1568     1568     1564     1561 
    1557     1548     1536     1528     1518     1512     1507     1498 
    1483     1470     1459     1449     1440     1429     1416     1401 
    1391     1383     1374     1364     1359     1360     1360     1359 
    1356     1358     1364     1367     1372     1375     1374     1382 
    1397     1404     1409     1413     1417     1425     1435     1444 
    1451     1455     1453     1453     1463     1472     1476     1482 
    1487     1487     1487     1487     1487     1489     1491     1495 
    1501     1507     1509     1514     1520     1522     1530     1529 
    1526     1526     1525     1526     1524     1518     1518     1516 
    1512     1505     1498     1497     1495     1491     1493     1495 
    1495     1491     1494     1497     1498     1505     1507     1509 
    1509     1506     1505     1503     1506     1510     1509     1509 
    1510     1513     1517     1514     1510     1510     1507     1507 
    1509     1506     1495     1489     1490     1485     1475     1472 
    1467     1458     1451     1443     1435     1429     1429     1426 
    1422     1425     1429     1436     1440     1441     1440     1439 
    1439     1433     1424     1421     1420     1417     1414     1410 
    1413     1413     1409     1416     1422     1420     1421     1426 
    1431     1435     1441     1449     1455     1460     1463     1468 
    1478     1482     1480     1480     1482     1482     1485     1486 
    1480     1478     1478     1476     1476     1476     1472     1474 
    1474     1472     1474     1476     1482     1486     1482     1483 
    1483     1486     1491     1489     1485     1487     1497     1505 
    1506     1503     1503     1513     1518     1513     1513     1516 
    1514     1516     1517     1517     1513     1509     1513     1517 
    1521     1522     1521     1525     1529     1533     1539     1539 
    1534     1534     1533     1530     1528     1524     1517     1516 
    1516     1509     1505     1505     1498     1495     1498     1499 
    1494     1494     1497     1495     1501     1507     1505     1501 
    1502     1502     1501     1499     1498     1493     1490     1487 
    1475     1468     1466     1456     1448     1444     1439     1435 
    1431     1426     1421     1414     1412     1410     1410     1405 
    1395     1390     1387     1383     1377     1374     1374     1374 
    1375     1377     1377     1383     1385     1387     1394     1393 
    1391     1391     1393     1398     1399     1402     1404     1406 
    1414     1417     1424     1436     1444     1455     1470     1482 
    1491     1506     1521     1530     1539     1551     1559     1570 
    1579     1583     1587     1587     1587     1587     1586     1590 
    1590     1588     1591     1590     1597     1606     1610     1614 
    1617     1620     1626     1630     1630     1629     1630     1630 
    1630     1626     1621     1621     1617     1607     1602     1594 
    1584     1575     1571     1575     1570     1564     1566     1560 
    1560     1564     1560     1557     1559     1559     1559     1555 
    1549     1540     1534     1530     1517     1505     1494     1482 
    1470     1456     1441     1425     1410     1395     1386     1379 
    1370     1360     1354     1345     1339     1337     1336     1335 
    1336     1340     1341     1343     1352     1355     1351     1360 
    1371     1377     1383     1386     1389     1393     1398     1406 
    1412     1418     1426     1435     1441     1449     1460     1466 
    1470     1478     1483     1491     1499     1506     1518     1524 
    1529     1539     1547     1555     1560     1566     1571     1576 
    1584     1593     1599     1605     1605     1607     1610     1607 
    1605     1601     1598     1595     1587     1576     1568     1563 
    1556     1547     1541     1533     1525     1522     1522     1526 
    1532     1532     1530     1533     1537     1532     1528     1525 
    1513     1507     1505     1491     1486     1483     1475     1470 
    1467     1466     1462     1459     1459     1456     1453     1455 
    1455     1452     1447     1440     1433     1432     1432     1426 
    1426     1426     1421     1420     1416     1413     1410     1404 
    1401     1399     1399     1399     1391     1389     1393     1391 
    1391     1391     1391     1394     1394     1395     1399     1402 
    1408     1413     1413     1413     1416     1417     1418     1424 
    1424     1421     1422     1421     1420     1420     1426     1437 
    1443     1451     1462     1471     1487     1503     1514     1530 
    1543     1552     1563     1570     1580     1593     1603     1611 
    1620     1626     1626     1628     1629     1632     1638     1641 
    1645     1647     1649     1655     1648     1642     1645     1638 
    1632     1625     1613     1602     1597     1597     1591     1583 
    1580     1579     1575     1575     1574     1574     1571     1570 
    1571     1571     1570     1568     1567     1568     1570     1575 
    1575     1568     1566     1567     1567     1564     1564     1566 
    1560     1556     1556     1557     1563     1561     1557     1561 
    1564     1566     1563     1557     1557     1557     1557     1557 
    1549     1544     1539     1532     1528     1524     1522     1524 
    1524     1521     1520     1522     1525     1530     1536     1540 
    1545     1548     1551     1555     1551     1548     1548     1543 
    1537     1530     1524     1521     1516     1513     1510     1503 
    1502     1498     1497     1497     1493     1493     1493     1494 
    1494     1491     1493     1495     1499     1503     1503     1506 
    1512     1517     1520     1525     1536     1540     1537     1540 
    1544     1548     1549     1549     1553     1556     1556     1561 
    1564     1567     1570     1570     1572     1578     1580     1582 
    1578     1575     1575     1574     1568     1563     1561     1553 
    1551     1549     1544     1537     1532     1526     1522     1522 
    1525     1520     1517     1517     1513     1517     1520     1514 
    1509     1503     1499     1495     1491     1487     1485     1483 
    1486     1489     1493     1493     1493     1499     1502     1502 
    1502     1505     1507     1509     1514     1520     1525     1530 
    1532     1530     1530     1532     1533     1528     1525     1522 
    1520     1521     1516     1507     1507     1503     1501     1501 
    1497     1493     1491     1490     1486     1483     1487     1486 
    1483     1480     1476     1474     1474     1472     1467     1462 
    1466     1467     1468     1472     1470     1474     1480     1483 
    1487     1486     1482     1483     1491     1501     1503     1509 
    1518     1522     1530     1544     1556     1572     1584     1590 
    1601     1615     1625     1632     1644     1655     1663     1676 
    1683     1686     1695     1702     1706     1714     1726     1733 
    1740     1749     1755     1759     1769     1773     1776     1783 
    1786     1788     1788     1784     1782     1773     1767     1761 
    1755     1745     1734     1726     1715     1702     1688     1679 
    1669     1659     1652     1645     1636     1632     1622     1613 
    1609     1597     1583     1574     1563     1551     1539     1528 
    1516     1499     1490     1482     1471     1467     1459     1447 
    1435     1418     1404     1390     1375     1364     1352     1339 
    1325     1317     1306     1294     1283     1269     1254     1247 
    1239     1231     1224     1220     1220     1215     1209     1209 
    1204     1201     1202     1200     1200     1200     1204     1212 
    1219     1224     1225     1231     1240     1250     1264     1274 
    1282     1294     1301     1308     1316     1327     1335     1345 
    1364     1378     1390     1404     1418     1435     1445     1452 
    1460     1466     1478     1490     1493     1498     1503     1509 
    1513     1513     1514     1517     1520     1521     1520     1521 
    1518     1517     1524     1524     1522     1526     1529     1530 
    1532     1530     1524     1521     1528     1525     1522     1526 
    1529     1529     1528     1529     1541     1547     1548     1555 
    1560     1564     1570     1578     1584     1590     1598     1602 
    1603     1606     1609     1610     1609     1610     1607     1603 
    1605     1605     1603     1605     1603     1603     1606     1605 
    1606     1611     1610     1605     1607     1611     1606     1603 
    1605     1598     1598     1605     1601     1597     1601     1601 
    1599     1603     1607     1609     1614     1621     1621     1621 
    1620     1621     1628     1632     1628     1629     1637     1638 
    1634     1634     1633     1632     1636     1638     1641     1645 
    1642     1634     1628     1629     1629     1622     1621     1617 
    1607     1602     1595     1586     1576     1570     1566     1560 
    1553     1547     1536     1524     1514     1513     1506     1497 
    1494     1495     1495     1487     1475     1475     1480     1479 
    1478     1476     1480     1486     1487     1480     1474     1479 
    1489     1489     1483     1478     1483     1493     1493     1491 
    1494     1497     1499     1502     1505     1503     1506     1507 
    1501     1502     1506     1505     1510     1513     1512     1512 
    1513     1513     1512     1510     1506     1502     1505     1495 
    1483     1478     1466     1456     1452     1443     1433     1426 
    1418     1410     1404     1395     1386     1381     1375     1370 
    1370     1360     1351     1354     1354     1348     1343     1341 
    1337     1325     1324     1323     1314     1314     1312     1305 
    1306     1308     1305     1308     1309     1308     1312     1325 
    1335     1340     1350     1355     1356     1367     1378     1385 
    1395     1408     1414     1424     1439     1447     1455     1460 
    1460     1467     1482     1489     1490     1494     1503     1510 
    1517     1524     1525     1529     1537     1537     1541     1548 
    1548     1551     1560     1564     1564     1574     1583     1580 
    1580     1590     1597     1603     1606     1607     1607     1609 
    1613     1617     1622     1625     1629     1636     1640     1648 
    1651     1640     1637     1642     1644     1645     1644     1637 
    1632     1632     1633     1628     1628     1628     1622     1622 
    1626     1628     1628     1629     1628     1624     1625     1630 
    1628     1625     1624     1624     1626     1628     1629     1626 
    1622     1624     1617     1611     1607     1599     1595     1588 
    1584     1584     1580     1578     1572     1571     1571     1566 
    1556     1548     1543     1541     1539     1532     1525     1518 
    1512     1509     1514     1516     1509     1506     1498     1497 
    1498     1493     1490     1486     1480     1480     1485     1487 
    1486     1482     1483     1489     1495     1497     1495     1505 
    1512     1513     1518     1524     1528     1533     1540     1548 
    1556     1563     1566     1563     1563     1571     1579     1575 
    1570     1572     1571     1571     1571     1567     1563     1556 
    1555     1559     1555     1555     1556     1551     1545     1541 
    1541     1543     1540     1541     1544     1545     1545     1545 
    1547     1551     1559     1563     1563     1567     1567     1568 
    1572     1570     1570     1579     1582     1580     1580     1580 
    1576     1575     1580     1578     1575     1572     1564     1561 
    1563     1557     1551     1552     1552     1545     1540     1534 
    1526     1524     1521     1510     1501     1494     1486     1474 
    1462     1453     1445     1439     1426     1413     1409     1401 
    1391     1395     1394     1390     1389     1383     1377     1366 
    1358     1358     1363     1370     1370     1370     1370     1367 
    1371     1379     1383     1387     1395     1399     1398     1402 
    1409     1410     1420     1431     1435     1439     1443     1447 
    1458     1475     1493     1498     1501     1507     1510     1518 
    1528     1539     1553     1560     1559     1560     1567     1579 
    1587     1591     1593     1591     1593     1595     1598     1603 
    1607     1607     1613     1620     1618     1620     1628     1625 
    1625     1637     1644     1647     1649     1641     1633     1633 
    1632     1622     1610     1607     1603     1594     1584     1574 
    1564     1564     1567     1564     1556     1551     1544     1536 
    1532     1524     1516     1513     1502     1491     1479     1468 
    1462     1456     1453     1447     1439     1431     1425     1428 
    1425     1420     1418     1412     1409     1410     1409     1409 
    1412     1412     1412     1410     1414     1418     1420     1424 
    1424     1428     1432     1431     1439     1451     1449     1441 
    1449     1467     1467     1464     1470     1478     1487     1487 
    1487     1497     1502     1502     1499     1502     1510     1513 
    1513     1517     1520     1524     1526     1526     1529     1533 
    1537     1537     1540     1543     1544     1547     1547     1548 
    1556     1557     1549     1544     1549     1549     1540     1532 
    1525     1522     1530     1526     1516     1510     1505     1502 
