Origin Time       2025/01/13 21:19:00
Lat.              31.8
Long.             131.6
Depth. (km)       30
Mag.              6.9
Station Code      MIEH03
Station Lat.      34.5470
Station Long.     136.3692
Station Height(m) 179.6
Record Time       2025/01/13 21:22:26
Sampling Freq(Hz) 100Hz
Duration Time(s)  120
Dir.              1
Scale Factor      2942(gal)/8224139
Max. Acc. (gal)   0.130
Last Correction   2025/01/13 21:22:28
Memo.             
[...]
   69082    69076    69071    69068    69059    69048    69047    69041 
   69030    69030    69032    69021    69017    69014    69005    69002 
   68997    68989    68986    68985    68978    68976    68976    68975 
   68974    68974    68975    68972    68970    68974    68978    68980 
   68983    68986    68989    68989    68990    68991    68995    69002 
   69005    69006    69009    69007    69012    69020    69020    69021 
   69028    69034    69039    69039    69037    69041    69045    69047 
   69048    69051    69053    69060    69063    69063    69063    69068 
   69075    69074    69071    69076    69079    69079    69083    69083 
   69084    69087    69088    69087    69086    69088    69093    69095 
   69098    69098    69099    69101    69099    69101    69107    69114 
   69118    69122    69128    69132    69134    69138    69140    69145 
   69153    69156    69156    69156    69155    69152    69152    69152 
   69149    69145    69142    69138    69140    69141    69134    69129 
   69129    69130    69128    69125    69126    69128    69125    69122 
   69122    69122    69121    69117    69117    69118    69118    69120 
   69121    69122    69121    69120    69118    69121    69122    69120 
   69118    69121    69122    69122    69122    69122    69124    69129 
   69136    69138    69140    69148    69155    69155    69159    69165 
   69165    69161    69165    69172    69172    69169    69165    69161 
   69161    69157    69153    69155    69159    69157    69153    69151 
   69151    69149    69148    69145    69144    69142    69137    69136 
   69136    69129    69122    69121    69121    69117    69114    69106 
   69098    69093    69086    69082    69082    69078    69071    69066 
   69063    69060    69056    69055    69053    69052    69051    69048 
   69044    69043    69043    69041    69041    69041    69041    69043 
   69045    69045    69047    69049    69052    69056    69060    69057 
   69057    69060    69061    69061    69064    69064    69066    69070 
   69071    69071    69072    69075    69079    69083    69086    69091 
   69099    69101    69103    69110    69115    69121    69130    69137 
   69142    69149    69156    69160    69163    69167    69175    69182 
   69184    69191    69196    69198    69205    69211    69213    69219 
   69230    69232    69233    69237    69238    69240    69244    69246 
   69248    69249    69245    69245    69248    69246    69244    69246 
   69246    69244    69244    69245    69241    69240    69237    69229 
   69225    69223    69219    69215    69211    69207    69202    69195 
   69190    69187    69183    69178    69174    69167    69160    69153 
   69145    69137    69132    69120    69107    69101    69093    69082 
   69075    69068    69060    69053    69045    69037    69030    69024 
   69021    69020    69014    69009    69006    69009    69006    68997 
   68995    68993    68985    68987    68989    68983    68980    68975 
   68974    68975    68970    68966    68967    68967    68964    68964 
   68963    68958    68958    68963    68958    68951    68953    68955 
   68951    68949    68947    68948    68948    68943    68940    68939 
   68937    68936    68933    68928    68928    68931    68929    68925 
   68922    68921    68918    68917    68920    68918    68914    68910 
   68906    68905    68902    68902    68899    68893    68893    68894 
   68889    68889    68894    68895    68895    68898    68902    68906 
   68910    68914    68917    68921    68926    68928    68932    68937 
   68939    68941    68951    68953    68958    68968    68974    68978 
   68986    68997    69003    69006    69009    69018    69028    69033 
   69044    69056    69064    69074    69084    69097    69111    69125 
   69136    69147    69156    69169    69180    69190    69203    69214 
   69222    69233    69245    69252    69263    69273    69279    69284 
   69292    69298    69302    69306    69309    69313    69314    69314 
   69318    69315    69309    69310    69311    69307    69304    69299 
   69292    69288    69286    69282    69276    69273    69267    69259 
   69257    69256    69249    69241    69237    69234    69232    69228 
   69222    69215    69210    69209    69207    69203    69202    69201 
   69198    69196    69192    69186    69183    69183    69182    69180 
   69179    69179    69179    69175    69174    69174    69175    69178 
   69179    69175    69175    69179    69180    69180    69183    69187 
   69188    69187    69186    69187    69186    69182    69182    69186 
   69184    69179    69178    69178    69175    69176    69176    69172 
   69171    69171    69165    69164    69163    69160    69160    69159 
   69155    69149    69145    69142    69138    69134    69137    69136 
   69132    69129    69126    69124    69121    69118    69115    69113 
   69113    69113    69111    69109    69109    69111    69111    69113 
   69114    69117    69120    69121    69124    69129    69130    69130 
   69133    69136    69138    69138    69148    69156    69155    69156 
   69163    69163    69164    69174    69180    69183    69188    69195 
   69202    69205    69207    69214    69222    69230    69240    69242 
   69245    69253    69261    69265    69267    69272    69277    69280 
   69288    69295    69299    69304    69309    69310    69314    69319 
   69323    69327    69333    69334    69331    69334    69333    69331 
   69336    69337    69336    69334    69330    69329    69327    69321 
   69314    69313    69309    69302    69298    69291    69279    69269 
   69261    69253    69246    69238    69230    69219    69205    69196 
   69190    69178    69167    69157    69142    69129    69117    69103 
   69090    69074    69060    69052    69040    69021    69007    68998 
   68985    68968    68960    68953    68940    68928    68917    68905 
   68893    68885    68878    68866    68859    68855    68845    68841 
   68840    68833    68831    68836    68836    68835    68837    68840 
   68841    68847    68854    68858    68866    68872    68877    68882 
   68891    68898    68905    68912    68918    68928    68933    68937 
   68944    68951    68956    68958    68963    68972    68978    68982 
   68987    68991    68998    69007    69010    69012    69016    69020 
   69026    69032    69039    69047    69051    69056    69066    69074 
   69076    69080    69087    69094    69103    69113    69117    69125 
   69129    69133    69138    69144    69148    69155    69156    69156 
   69159    69164    69171    69174    69174    69176    69180    69186 
   69190    69191    69194    69199    69205    69211    69222    69230 
   69233    69236    69245    69249    69250    69255    69259    69261 
   69267    69273    69276    69279    69283    69288    69292    69295 
   69299    69306    69307    69309    69317    69321    69323    69330 
   69331    69334    69344    69350    69352    69358    69364    69369 
   69379    69383    69387    69394    69392    69392    69399    69398 
   69394    69396    69391    69383    69381    69380    69376    69369 
   69361    69354    69350    69344    69334    69325    69318    69310 
   69302    69295    69287    69280    69276    69269    69261    69255 
   69248    69242    69240    69233    69228    69226    69219    69211 
   69210    69207    69202    69203    69205    69199    69196    69196 
   69196    69198    69196    69194    69194    69191    69188    69188 
   69190    69190    69192    69194    69192    69191    69192    69194 
   69192    69195    69199    69201    69201    69205    69207    69207 
   69205    69205    69207    69207    69206    69207    69206    69205 
   69205    69205    69202    69196    69195    69194    69190    69188 
   69186    69180    69178    69175    69169    69168    69165    69156 
   69151    69149    69145    69137    69132    69129    69121    69114 
   69110    69105    69099    69094    69087    69083    69075    69066 
   69061    69057    69051    69047    69043    69039    69036    69033 
   69030    69024    69021    69020    69017    69016    69017    69014 
   69013    69012    69007    69006    69009    69010    69010    69009 
   69003    69002    69003    69002    68999    68997    68997    68994 
   68989    68985    68980    68979    68975    68971    68968    68964 
   68960    68955    68948    68944    68945    68945    68940    68940 
   68945    68947    68947    68949    68953    68956    68960    68964 
   68968    68978    68982    68989    69003    69009    69013    69024 
   69030    69040    69055    69061    69067    69076    69086    69095 
   69103    69111    69122    69132    69138    69148    69161    69176 
   69186    69195    69207    69222    69233    69245    69260    69272 
   69283    69294    69306    69315    69322    69336    69350    69357 
   69363    69375    69384    69388    69395    69399    69403    69407 
   69406    69406    69408    69404    69402    69399    69392    69385 
   69383    69376    69367    69361    69353    69342    69334    69326 
   69319    69311    69303    69294    69284    69279    69271    69264 
   69263    69256    69248    69245    69245    69240    69236    69237 
   69237    69234    69237    69240    69237    69236    69240    69241 
   69241    69242    69246    69249    69250    69256    69261    69265 
   69269    69273    69279    69283    69284    69286    69292    69299 
   69299    69299    69304    69304    69304    69304    69303    69304 
   69303    69300    69300    69298    69292    69291    69290    69280 
   69272    69271    69271    69264    69255    69246    69242    69236 
   69228    69225    69217    69209    69202    69192    69183    69179 
   69169    69156    69148    69144    69136    69124    69111    69103 
   69093    69080    69071    69059    69045    69034    69025    69012 
   69002    68994    68980    68968    68962    68951    68937    68926 
   68920    68910    68901    68890    68882    68877    68870    68859 
   68850    68847    68847    68837    68828    68824    68820    68814 
   68814    68813    68810    68809    68813    68816    68816    68820 
   68824    68828    68833    68841    68852    68862    68870    68882 
   68893    68901    68913    68926    68937    68948    68960    68974 
   68987    69001    69016    69032    69041    69052    69068    69082 
   69093    69109    69124    69136    69153    69167    69178    69191 
   69205    69218    69233    69242    69253    69268    69280    69290 
   69300    69311    69319    69327    69334    69344    69352    69354 
   69358    69365    69368    69372    69380    69380    69380    69388 
   69390    69384    69388    69390    69383    69383    69380    69376 
   69377    69373    69368    69367    69363    69356    69353    69350 
   69345    69338    69334    69330    69322    69317    69314    69310 
   69300    69292    69288    69282    69275    69272    69268    69260 
   69255    69248    69241    69234    69230    69225    69217    69213 
   69209    69205    69202    69201    69198    69194    69190    69187 
   69186    69186    69182    69179    69178    69176    69171    69164 
   69161    69159    69155    69152    69147    69144    69138    69133 
   69126    69121    69115    69110    69106    69105    69099    69087 
   69080    69078    69075    69068    69064    69063    69056    69051 
   69049    69045    69041    69036    69029    69028    69024    69018 
   69017    69014    69016    69016    69010    69007    69010    69017 
   69021    69017    69017    69024    69029    69032    69032    69033 
   69044    69048    69049    69057    69064    69072    69080    69083 
   69091    69101    69103    69109    69120    69129    69137    69144 
   69151    69157    69167    69175    69182    69191    69201    69207 
   69214    69221    69229    69241    69250    69261    69269    69277 
   69288    69296    69303    69311    69317    69322    69334    69342 
   69345    69349    69350    69350    69354    69357    69357    69360 
   69358    69353    69356    69356    69349    69348    69344    69340 
   69338    69336    69327    69321    69314    69307    69300    69292 
   69284    69276    69272    69264    69256    69252    69245    69233 
   69223    69217    69209    69199    69192    69183    69171    69159 
   69149    69141    69133    69120    69106    69098    69087    69074 
   69067    69059    69049    69043    69034    69028    69022    69016 
   69012    69007    69001    68995    68991    68990    68990    68985 
   68978    68975    68974    68974    68975    68975    68975    68974 
   68974    68976    68979    68983    68983    68986    68991    68995 
   68997    68998    69001    69006    69010    69010    69013    69021 
   69022    69020    69024    69030    69036    69037    69039    69041 
   69043    69044    69048    69045    69040    69041    69047    69045 
   69040    69045    69051    69048    69052    69057    69056    69059 
   69068    69068    69070    69078    69083    69087    69094    69102 
   69109    69115    69125    69138    69151    69157    69167    69179 
   69188    69201    69217    69226    69237    69250    69255    69259 
   69272    69284    69291    69300    69310    69317    69323    69333 
   69341    69349    69361    69369    69375    69384    69395    69402 
   69410    69419    69427    69431    69437    69444    69450    69456 
   69460    69465    69472    69476    69477    69483    69485    69487 
   69492    69496    69498    69502    69504    69504    69504    69510 
   69511    69507    69503    69503    69500    69496    69495    69492 
   69488    69484    69480    69476    69471    69466    69461    69456 
   69453    69446    69437    69431    69429    69422    69414    69407 
   69400    69394    69387    69379    69371    69364    69357    69350 
   69344    69337    69331    69327    69318    69306    69299    69292 
   69282    69275    69271    69261    69256    69253    69244    69237 
   69233    69228    69219    69211    69207    69203    69195    69190 
   69184    69175    69171    69168    69163    69157    69152    69147 
   69144    69138    69130    69126    69126    69122    69114    69110 
   69109    69107    69105    69105    69105    69102    69101    69101 
   69099    69097    69094    69090    69088    69087    69088    69087 
   69087    69086    69084    69084    69088    69091    69093    69098 
   69102    69103    69109    69111    69115    69122    69126    69132 
   69138    69144    69151    69157    69164    69171    69174    69179 
   69187    69194    69199    69205    69207    69211    69219    69223 
   69221    69222    69225    69225    69223    69221    69219    69219 
   69211    69203    69201    69198    69188    69180    69175    69167 
   69157    69151    69145    69140    69134    69130    69121    69113 
   69106    69103    69101    69095    69093    69088    69083    69079 
   69074    69071    69072    69071    69066    69060    69059    69057 
   69052    69051    69051    69047    69044    69043    69041    69044 
   69047    69039    69034    69041    69040    69033    69036    69037 
   69037    69040    69040    69037    69036    69039    69041    69041 
   69044    69048    69045    69048    69053    69055    69056    69059 
   69063    69072    69079    69082    69087    69093    69094    69102 
   69111    69117    69121    69129    69136    69140    69145    69157 
   69165    69167    69174    69184    69190    69194    69199    69201 
   69207    69215    69221    69225    69233    69241    69246    69250 
   69255    69257    69264    69269    69271    69276    69284    69287 
   69291    69296    69300    69304    69310    69311    69315    69319 
   69321    69321    69326    69327    69329    69329    69326    69329 
   69333    69333    69330    69330    69330    69329    69327    69327 
   69327    69325    69323    69322    69319    69315    69310    69306 
   69300    69296    69292    69287    69282    69276    69272    69271 
   69267    69261    69257    69255    69248    69244    69244    69237 
   69232    69233    69230    69226    69226    69223    69222    69219 
   69214    69213    69215    69213    69209    69209    69207    69206 
   69205    69202    69203    69202    69196    69196    69196    69194 
   69194    69192    69186    69183    69183    69178    69176    69179 
   69178    69174    69174    69171    69165    69160    69156    69156 
   69155    69151    69147    69141    69140    69137    69132    69128 
   69124    69118    69114    69111    69109    69103    69101    69101 
   69098    69094    69091    69087    69086    69084    69080    69080 
   69078    69072    69070    69071    69067    69061    69063    69060 
   69053    69052    69053    69049    69048    69048    69047    69044 
   69043    69043    69041    69037    69039    69040    69039    69040 
   69041    69045    69048    69047    69047    69051    69056    69061 
   69064    69067    69071    69078    69083    69086    69091    69095 
   69098    69103    69106    69107    69111    69118    69124    69124 
   69130    69137    69136    69138    69145    69148    69148    69149 
   69155    69157    69157    69161    69165    69167    69167    69164 
   69163    69163    69161    69161    69160    69157    69155    69155 
   69152    69147    69144    69142    69136    69133    69130    69126 
   69121    69114    69111    69109    69103    69097    69091    69086 
   69082    69082    69078    69071    69068    69064    69059    69059 
   69057    69053    69052    69051    69048    69048    69049    69049 
   69049    69052    69053    69053    69053    69056    69063    69068 
   69070    69075    69080    69086    69090    69093    69097    69103 
   69109    69114    69118    69120    69125    69132    69136    69138 
   69140    69140    69144    69149    69153    69153    69151    69156 
   69159    69156    69159    69161    69161    69163    69164    69168 
   69171    69171    69175    69180    69182    69183    69187    69192 
   69195    69194    69196    69199    69203    69207    69210    69211 
   69213    69211    69210    69214    69214    69215    69219    69219 
   69219    69219    69222    69225    69223    69218    69218    69222 
   69223    69218    69217    69215    69213    69213    69213    69210 
   69203    69202    69202    69195    69190    69190    69183    69180 
   69183    69176    69169    69168    69164    69157    69155    69155 
   69151    69147    69144    69138    69136    69134    69126    69118 
   69117    69114    69109    69102    69097    69093    69087    69079 
   69075    69071    69064    69055    69047    69043    69037    69030 
   69025    69018    69014    69009    69001    68993    68991    68986 
   68978    68972    68970    68962    68955    68951    68944    68936 
   68933    68928    68918    68913    68908    68902    68899    68894 
   68886    68879    68872    68870    68864    68856    68852    68851 
   68848    68845    68841    68837    68837    68839    68840    68839 
   68837    68837    68841    68844    68847    68852    68852    68855 
   68863    68864    68868    68877    68877    68881    68894    68902 
   68906    68913    68920    68929    68940    68947    68955    68968 
   68979    68989    69001    69010    69020    69033    69045    69055 
