Origin Time       2025/01/13 21:19:00
Lat.              31.8
Long.             131.6
Depth. (km)       30
Mag.              6.9
Station Code      MIEH10
Station Lat.      34.8224
Station Long.     136.4245
Station Height(m) -122
Record Time       2025/01/13 21:22:26
Sampling Freq(Hz) 100Hz
Duration Time(s)  120
Dir.              2
Scale Factor      2942(gal)/8224139
Max. Acc. (gal)   0.167
Last Correction   2025/01/13 21:22:28
Memo.             
[...]
 -337023  -337023  -337022  -337022  -337022  -337022  -337022  -337023 
 -337023  -337023  -337026  -337028  -337028  -337035  -337045  -337050 
 -337055  -337063  -337074  -337085  -337096  -337105  -337112  -337119 
 -337124  -337128  -337135  -337143  -337151  -337161  -337169  -337176 
 -337182  -337190  -337198  -337201  -337211  -337221  -337227  -337236 
 -337246  -337252  -337262  -337270  -337273  -337277  -337286  -337296 
 -337301  -337306  -337312  -337313  -337315  -337316  -337317  -337321 
 -337329  -337335  -337332  -337331  -337332  -337333  -337335  -337332 
 -337327  -337325  -337323  -337321  -337321  -337320  -337317  -337317 
 -337316  -337316  -337313  -337309  -337304  -337298  -337293  -337293 
 -337292  -337289  -337286  -337281  -337271  -337266  -337262  -337255 
 -337251  -337246  -337240  -337236  -337232  -337230  -337227  -337219 
 -337212  -337208  -337205  -337205  -337205  -337203  -337198  -337196 
 -337194  -337194  -337190  -337188  -337184  -337176  -337167  -337161 
 -337151  -337140  -337130  -337119  -337109  -337099  -337090  -337084 
 -337078  -337074  -337066  -337058  -337051  -337042  -337035  -337030 
 -337020  -337011  -337005  -336997  -336992  -336988  -336980  -336973 
 -336970  -336968  -336970  -336972  -336973  -336978  -336985  -336989 
 -336992  -336995  -337000  -337004  -337007  -337014  -337019  -337020 
 -337027  -337041  -337054  -337070  -337084  -337093  -337103  -337112 
 -337120  -337127  -337138  -337144  -337150  -337154  -337157  -337161 
 -337163  -337166  -337173  -337180  -337185  -337186  -337189  -337192 
 -337188  -337188  -337192  -337190  -337192  -337197  -337197  -337197 
 -337203  -337205  -337205  -337208  -337208  -337204  -337203  -337207 
 -337208  -337205  -337208  -337211  -337209  -337207  -337204  -337197 
 -337194  -337192  -337186  -337180  -337176  -337173  -337165  -337159 
 -337155  -337147  -337140  -337134  -337127  -337123  -337116  -337109 
 -337105  -337101  -337095  -337089  -337085  -337088  -337090  -337092 
 -337095  -337099  -337100  -337099  -337096  -337095  -337093  -337089 
 -337086  -337088  -337088  -337085  -337084  -337084  -337086  -337086 
 -337084  -337082  -337082  -337080  -337077  -337076  -337072  -337066 
 -337065  -337062  -337058  -337057  -337059  -337059  -337058  -337058 
 -337059  -337062  -337069  -337074  -337078  -337085  -337089  -337090 
 -337095  -337103  -337105  -337108  -337115  -337127  -337139  -337150 
 -337159  -337169  -337176  -337184  -337194  -337203  -337211  -337220 
 -337227  -337236  -337246  -337251  -337255  -337261  -337265  -337266 
 -337273  -337278  -337281  -337284  -337288  -337292  -337294  -337296 
 -337296  -337296  -337296  -337296  -337297  -337298  -337296  -337290 
 -337289  -337293  -337292  -337288  -337289  -337286  -337275  -337269 
 -337265  -337261  -337255  -337248  -337242  -337234  -337223  -337212 
 -337203  -337193  -337182  -337171  -337163  -337158  -337150  -337143 
 -337138  -337130  -337122  -337115  -337113  -337111  -337107  -337101 
 -337097  -337096  -337092  -337086  -337078  -337074  -337072  -337068 
 -337063  -337061  -337059  -337057  -337054  -337054  -337051  -337047 
 -337049  -337050  -337051  -337053  -337053  -337051  -337058  -337065 
 -337068  -337072  -337073  -337073  -337080  -337086  -337090  -337096 
 -337105  -337115  -337123  -337126  -337130  -337135  -337138  -337142 
 -337146  -337154  -337162  -337167  -337176  -337185  -337190  -337197 
 -337209  -337217  -337224  -337230  -337235  -337240  -337247  -337251 
 -337255  -337258  -337261  -337259  -337259  -337259  -337259  -337258 
 -337254  -337251  -337248  -337246  -337246  -337244  -337246  -337247 
 -337246  -337243  -337243  -337242  -337239  -337238  -337240  -337242 
 -337238  -337238  -337238  -337234  -337231  -337231  -337227  -337224 
 -337221  -337217  -337215  -337211  -337208  -337211  -337212  -337208 
 -337209  -337212  -337211  -337212  -337212  -337209  -337203  -337196 
 -337190  -337184  -337177  -337171  -337163  -337161  -337162  -337159 
 -337154  -337155  -337157  -337153  -337150  -337147  -337142  -337138 
 -337132  -337123  -337112  -337104  -337097  -337090  -337082  -337074 
 -337068  -337062  -337057  -337054  -337051  -337046  -337043  -337042 
 -337042  -337043  -337042  -337038  -337032  -337027  -337024  -337026 
 -337028  -337032  -337035  -337036  -337042  -337047  -337053  -337062 
 -337066  -337066  -337069  -337076  -337080  -337082  -337084  -337086 
 -337090  -337096  -337103  -337111  -337119  -337127  -337134  -337138 
 -337143  -337150  -337154  -337158  -337161  -337163  -337170  -337177 
 -337180  -337184  -337188  -337189  -337188  -337188  -337189  -337192 
 -337198  -337205  -337209  -337213  -337220  -337225  -337231  -337235 
 -337236  -337236  -337238  -337236  -337236  -337239  -337238  -337235 
 -337232  -337231  -337230  -337228  -337225  -337221  -337217  -337219 
 -337220  -337215  -337212  -337213  -337215  -337213  -337209  -337207 
 -337205  -337203  -337197  -337194  -337192  -337192  -337196  -337196 
 -337194  -337192  -337192  -337193  -337193  -337190  -337192  -337190 
 -337185  -337184  -337184  -337180  -337177  -337176  -337174  -337173 
 -337170  -337166  -337163  -337159  -337154  -337147  -337142  -337135 
 -337130  -337128  -337124  -337120  -337120  -337120  -337116  -337112 
 -337109  -337108  -337107  -337105  -337104  -337104  -337101  -337096 
 -337093  -337090  -337084  -337080  -337077  -337074  -337070  -337066 
 -337066  -337065  -337063  -337065  -337070  -337074  -337080  -337084 
 -337086  -337092  -337097  -337103  -337109  -337115  -337122  -337130 
 -337135  -337139  -337146  -337153  -337158  -337166  -337174  -337180 
 -337189  -337200  -337203  -337208  -337215  -337224  -337232  -337238 
 -337240  -337247  -337251  -337252  -337255  -337257  -337258  -337259 
 -337257  -337255  -337258  -337261  -337258  -337257  -337259  -337259 
 -337257  -337257  -337255  -337252  -337251  -337250  -337248  -337250 
 -337251  -337248  -337246  -337243  -337242  -337242  -337242  -337236 
 -337230  -337225  -337220  -337211  -337205  -337198  -337188  -337181 
 -337176  -337163  -337151  -337142  -337132  -337124  -337117  -337111 
 -337105  -337101  -337095  -337082  -337070  -337062  -337055  -337045 
 -337032  -337020  -337009  -337000  -336992  -336985  -336976  -336968 
 -336960  -336953  -336947  -336943  -336939  -336937  -336937  -336934 
 -336933  -336934  -336931  -336928  -336930  -336933  -336931  -336928 
 -336928  -336930  -336931  -336937  -336941  -336947  -336958  -336964 
 -336972  -336985  -336996  -337009  -337024  -337039  -337053  -337065 
 -337080  -337095  -337111  -337126  -337138  -337154  -337170  -337184 
 -337198  -337216  -337231  -337247  -337263  -337279  -337297  -337315 
 -337328  -337339  -337348  -337360  -337374  -337381  -337385  -337393 
 -337400  -337402  -337405  -337406  -337405  -337406  -337410  -337410 
 -337410  -337409  -337404  -337402  -337404  -337400  -337394  -337389 
 -337381  -337373  -337365  -337358  -337350  -337339  -337333  -337329 
 -337324  -337320  -337309  -337296  -337286  -337275  -337261  -337251 
 -337243  -337230  -337215  -337203  -337190  -337178  -337167  -337158 
 -337149  -337135  -337122  -337109  -337096  -337080  -337063  -337050 
 -337036  -337020  -337003  -336987  -336969  -336951  -336937  -336922 
 -336907  -336896  -336881  -336865  -336854  -336843  -336833  -336823 
 -336818  -336812  -336804  -336799  -336796  -336792  -336789  -336789 
 -336795  -336798  -336798  -336802  -336808  -336814  -336823  -336831 
 -336838  -336843  -336850  -336861  -336874  -336889  -336904  -336915 
 -336930  -336947  -336960  -336974  -336989  -337000  -337014  -337028 
 -337041  -337053  -337066  -337078  -337089  -337100  -337109  -337120 
 -337131  -337139  -337147  -337157  -337162  -337167  -337176  -337181 
 -337188  -337197  -337204  -337208  -337212  -337216  -337220  -337225 
 -337227  -337228  -337232  -337234  -337232  -337234  -337235  -337234 
 -337228  -337224  -337221  -337217  -337215  -337211  -337204  -337196 
 -337189  -337184  -337176  -337169  -337163  -337155  -337144  -337136 
 -337127  -337117  -337112  -337108  -337101  -337095  -337089  -337082 
 -337077  -337072  -337063  -337059  -337055  -337053  -337051  -337049 
 -337042  -337041  -337041  -337036  -337032  -337030  -337027  -337026 
 -337022  -337020  -337019  -337014  -337009  -337005  -337001  -336999 
 -336996  -336996  -336995  -336991  -336989  -336989  -336988  -336988 
 -336988  -336987  -336989  -336992  -336995  -336996  -336997  -337001 
 -337007  -337008  -337012  -337020  -337026  -337027  -337031  -337038 
 -337041  -337045  -337053  -337058  -337063  -337076  -337082  -337089 
 -337096  -337105  -337116  -337128  -337140  -337154  -337170  -337185 
 -337197  -337211  -337227  -337240  -337255  -337270  -337286  -337298 
 -337312  -337329  -337344  -337358  -337371  -337389  -337404  -337414 
 -337429  -337444  -337450  -337454  -337460  -337464  -337467  -337468 
 -337468  -337473  -337475  -337478  -337483  -337486  -337487  -337487 
 -337487  -337486  -337483  -337478  -337470  -337464  -337456  -337446 
 -337441  -337435  -337423  -337417  -337419  -337413  -337405  -337402 
 -337397  -337387  -337379  -337373  -337362  -337352  -337347  -337342 
 -337333  -337328  -337324  -337315  -337305  -337297  -337290  -337281 
 -337273  -337266  -337261  -337252  -337244  -337232  -337221  -337211 
 -337200  -337189  -337178  -337169  -337161  -337151  -337142  -337131 
 -337124  -337117  -337111  -337103  -337095  -337086  -337080  -337073 
 -337068  -337061  -337055  -337051  -337047  -337042  -337039  -337036 
 -337034  -337032  -337028  -337026  -337028  -337027  -337023  -337020 
 -337020  -337018  -337015  -337012  -337012  -337015  -337018  -337019 
 -337020  -337022  -337027  -337032  -337036  -337043  -337049  -337050 
 -337051  -337058  -337065  -337069  -337077  -337086  -337092  -337103 
 -337117  -337128  -337135  -337146  -337158  -337169  -337176  -337186 
 -337200  -337212  -337224  -337232  -337243  -337258  -337270  -337278 
 -337288  -337297  -337305  -337316  -337325  -337335  -337344  -337351 
 -337359  -337369  -337375  -337379  -337381  -337382  -337387  -337392 
 -337392  -337396  -337400  -337400  -337396  -337394  -337396  -337394 
 -337392  -337392  -337387  -337381  -337377  -337373  -337363  -337355 
 -337350  -337344  -337339  -337332  -337325  -337317  -337309  -337302 
 -337294  -337284  -337270  -337258  -337246  -337234  -337220  -337207 
 -337192  -337176  -337159  -337139  -337120  -337107  -337093  -337078 
 -337068  -337058  -337047  -337036  -337027  -337016  -337011  -337005 
 -336997  -336991  -336987  -336980  -336972  -336964  -336957  -336955 
 -336955  -336951  -336949  -336949  -336946  -336943  -336943  -336941 
 -336938  -336935  -336935  -336939  -336941  -336943  -336951  -336960 
 -336965  -336974  -336980  -336985  -336999  -337007  -337012  -337023 
 -337034  -337045  -337062  -337076  -337082  -337096  -337112  -337123 
 -337134  -337146  -337157  -337169  -337181  -337194  -337209  -337224 
 -337236  -337250  -337261  -337271  -337282  -337292  -337298  -337306 
 -337319  -337329  -337332  -337338  -337346  -337350  -337356  -337360 
 -337365  -337371  -337377  -337379  -337383  -337389  -337392  -337394 
 -337398  -337401  -337402  -337402  -337402  -337405  -337406  -337404 
 -337401  -337400  -337396  -337390  -337385  -337378  -337370  -337362 
 -337354  -337347  -337342  -337336  -337327  -337319  -337312  -337304 
 -337301  -337300  -337294  -337288  -337284  -337277  -337271  -337266 
 -337263  -337259  -337254  -337250  -337244  -337238  -337235  -337239 
 -337239  -337231  -337227  -337225  -337223  -337217  -337216  -337213 
 -337211  -337209  -337207  -337201  -337201  -337200  -337194  -337192 
 -337192  -337192  -337190  -337189  -337188  -337182  -337178  -337173 
 -337165  -337155  -337153  -337150  -337146  -337144  -337142  -337136 
 -337138  -337139  -337135  -337135  -337138  -337136  -337134  -337134 
 -337136  -337135  -337132  -337131  -337134  -337132  -337130  -337128 
 -337130  -337131  -337135  -337140  -337143  -337144  -337144  -337144 
 -337150  -337154  -337154  -337154  -337155  -337155  -337155  -337157 
 -337154  -337149  -337146  -337143  -337139  -337135  -337132  -337128 
 -337124  -337123  -337120  -337115  -337108  -337100  -337090  -337082 
 -337077  -337072  -337068  -337063  -337059  -337054  -337050  -337047 
 -337047  -337042  -337036  -337038  -337039  -337042  -337046  -337051 
 -337058  -337068  -337074  -337082  -337097  -337113  -337130  -337146 
 -337162  -337177  -337193  -337212  -337232  -337252  -337269  -337285 
 -337304  -337325  -337342  -337358  -337379  -337397  -337414  -337435 
 -337452  -337470  -337489  -337504  -337516  -337525  -337535  -337545 
 -337556  -337563  -337567  -337572  -337575  -337572  -337574  -337575 
 -337572  -337568  -337563  -337554  -337544  -337537  -337531  -337521 
 -337509  -337495  -337485  -337471  -337456  -337441  -337424  -337405 
 -337389  -337375  -337356  -337336  -337319  -337301  -337284  -337265 
 -337240  -337217  -337198  -337177  -337151  -337132  -337112  -337090 
 -337070  -337051  -337031  -337014  -336999  -336981  -336964  -336949 
 -336933  -336916  -336901  -336888  -336872  -336856  -336842  -336827 
 -336810  -336796  -336787  -336773  -336760  -336749  -336742  -336734 
 -336722  -336714  -336711  -336707  -336706  -336708  -336710  -336710 
 -336711  -336712  -336714  -336715  -336717  -336718  -336721  -336725 
 -336729  -336734  -336737  -336739  -336744  -336748  -336752  -336758 
 -336764  -336769  -336777  -336785  -336791  -336800  -336810  -336819 
 -336826  -336834  -336845  -336853  -336862  -336874  -336885  -336895 
 -336906  -336916  -336926  -336938  -336946  -336953  -336962  -336973 
 -336987  -336996  -337005  -337019  -337031  -337042  -337055  -337065 
 -337073  -337086  -337099  -337107  -337119  -337131  -337139  -337149 
 -337161  -337169  -337178  -337188  -337193  -337203  -337212  -337221 
 -337230  -337238  -337250  -337262  -337271  -337278  -337289  -337300 
 -337305  -337309  -337315  -337323  -337329  -337331  -337332  -337338 
 -337342  -337344  -337350  -337355  -337360  -337366  -337365  -337369 
 -337373  -337371  -337371  -337375  -337378  -337385  -337393  -337397 
 -337397  -337401  -337405  -337406  -337408  -337410  -337416  -337420 
 -337424  -337431  -337436  -337439  -337441  -337444  -337450  -337455 
 -337456  -337455  -337454  -337455  -337458  -337458  -337459  -337460 
 -337458  -337456  -337455  -337451  -337448  -337446  -337439  -337435 
 -337432  -337425  -337419  -337413  -337408  -337398  -337393  -337390 
 -337385  -337377  -337369  -337363  -337358  -337347  -337338  -337331 
 -337317  -337304  -337294  -337284  -337271  -337258  -337244  -337231 
 -337216  -337201  -337190  -337178  -337163  -337149  -337136  -337124 
 -337112  -337096  -337082  -337069  -337057  -337043  -337031  -337020 
 -337012  -337003  -336993  -336987  -336977  -336970  -336966  -336961 
 -336953  -336943  -336935  -336928  -336920  -336919  -336918  -336911 
 -336908  -336908  -336906  -336904  -336904  -336904  -336908  -336912 
 -336916  -336923  -336934  -336939  -336939  -336949  -336965  -336977 
 -336989  -337005  -337023  -337039  -337057  -337073  -337093  -337112 
 -337127  -337144  -337159  -337173  -337188  -337201  -337213  -337224 
 -337236  -337248  -337257  -337261  -337267  -337275  -337281  -337286 
 -337292  -337290  -337290  -337292  -337294  -337293  -337290  -337292 
 -337290  -337286  -337286  -337286  -337282  -337279  -337277  -337274 
 -337274  -337274  -337273  -337273  -337271  -337271  -337271  -337271 
 -337274  -337278  -337277  -337278  -337281  -337278  -337277  -337279 
 -337282  -337285  -337288  -337290  -337289  -337288  -337292  -337296 
 -337296  -337298  -337304  -337309  -337312  -337313  -337315  -337313 
 -337313  -337316  -337316  -337315  -337317  -337316  -337313  -337313 
 -337312  -337308  -337306  -337306  -337301  -337296  -337293  -337290 
 -337281  -337275  -337271  -337266  -337261  -337252  -337243  -337235 
 -337228  -337220  -337208  -337194  -337184  -337176  -337166  -337155 
 -337144  -337136  -337127  -337112  -337103  -337097  -337088  -337078 
 -337070  -337063  -337058  -337051  -337046  -337043  -337039  -337035 
 -337034  -337035  -337034  -337031  -337034  -337038  -337041  -337045 
 -337046  -337047  -337050  -337051  -337055  -337059  -337062  -337068 
 -337072  -337072  -337074  -337078  -337081  -337082  -337085  -337088 
 -337085  -337084  -337085  -337085  -337084  -337082  -337080  -337080 
 -337082  -337085  -337082  -337078  -337078  -337077  -337074  -337074 
 -337072  -337066  -337062  -337062  -337061  -337059  -337058  -337058 
 -337058  -337055  -337054  -337058  -337062  -337062  -337063  -337065 
 -337068  -337069  -337070  -337072  -337073  -337077  -337080  -337080 
 -337084  -337090  -337093  -337097  -337100  -337103  -337105  -337108 
 -337111  -337113  -337115  -337122  -337130  -337134  -337136  -337136 
 -337139  -337146  -337153  -337158  -337165  -337169  -337177  -337186 
 -337192  -337198  -337207  -337213  -337223  -337232  -337239  -337247 
 -337258  -337266  -337275  -337288  -337296  -337300  -337304  -337308 
 -337313  -337319  -337320  -337320  -337323  -337324  -337325  -337329 
 -337332  -337333  -337335  -337335  -337333  -337339  -337339  -337338 
 -337338  -337336  -337332  -337329  -337328  -337327  -337323  -337319 
 -337316  -337312  -337309  -337306  -337301  -337297  -337293  -337292 
 -337292  -337286  -337278  -337277  -337275  -337271  -337269  -337263 
 -337254  -337254  -337257  -337254  -337250  -337250  -337252  -337251 
 -337247  -337250  -337259  -337265  -337269  -337275  -337282  -337292 
 -337301  -337309  -337320  -337332  -337343  -337354  -337365  -337379 
 -337394  -337404  -337413  -337424  -337435  -337441  -337450  -337458 
 -337467  -337475  -337483  -337489  -337493  -337498  -337501  -337504 
 -337506  -337505  -337504  -337505  -337504  -337501  -337502  -337502 
 -337498  -337494  -337493  -337493  -337490  -337489  -337486  -337481 
 -337475  -337477  -337475  -337467  -337463  -337460  -337452  -337447 
 -337446  -337444  -337440  -337433  -337427  -337423  -337416  -337413 
 -337409  -337401  -337396  -337390  -337383  -337377  -337370  -337362 
 -337352  -337340  -337331  -337321  -337316  -337309  -337301  -337292 
 -337279  -337269  -337263  -337254  -337243  -337236  -337228  -337216 
 -337207  -337198  -337190  -337181  -337171  -337163  -337158  -337149 
 -337140  -337138  -337135  -337127  -337119  -337115  -337112  -337112 
 -337111  -337105  -337105  -337107  -337104  -337104  -337107  -337108 
 -337112  -337119  -337123  -337126  -337132  -337136  -337142  -337153 
 -337161  -337162  -337169  -337180  -337189  -337194  -337205  -337216 
 -337221  -337224  -337230  -337235  -337243  -337250  -337254  -337258 
 -337262  -337263  -337266  -337267  -337267  -337270  -337270  -337262 
 -337255  -337252  -337247  -337243  -337236  -337224  -337215  -337205 
 -337194  -337185  -337174  -337163  -337153  -337140  -337128  -337116 
 -337101  -337090  -337082  -337069  -337058  -337049  -337035  -337026 
